0173532760999992000010100004+42400+112900FM-12+115299999V0202501N005019999999N0300001N1-00471-01141101951ADDAA106000091GF107991001001999999001021MA1999999088251MD1210031+0001REMSYN076AAXX  01001 53276 32980 72505 11047 21114 38825 40195 52003 80002 333 00000;EQDQ01  00002PRCP06
0112532760999992000010103004+42400+112900FM-12+115299999V0202701N009010150019N0300001N1-00261-01201102001ADDGF107991051051017501001021MD1210091+9999REMSYN060AAXX  01031 53276 42780 72709 11026 21120 40200 52009 85502;
0209532760999992000010106004+42400+112900FM-12+115299999V0202701N013010900019N0200001N1-00131-01241101811ADDAA106000091GF107991041051017501001021KA1240N-00581MA1999999088171MD1710171+9999OA130601801REMSYN088AAXX  01061 53276 32770 72713 11013 21124 38817 40181 57017 84502 333 21058 91118 91525;EQDQ01  00002PRCP06
0124532760999992000010109004+42400+112900FM-12+115299999V0202901N011010150019N0080001N1-00621-01371102161ADDGF107991071051017501001021MD1210141+9999MW1701REMSYN066AAXX  01091 53276 41758 72911 11062 21137 40216 52014 77000 87502;
0207532760999992000010112004+42400+112900FM-12+115299999V0202901N013012200019N0150001N1-01271-01631102711ADDAA106000791AY171061GA1001+999999999GF100991001001999999001001MA1999999088641MD1210331+9999MW1001OA130602201REMSYN088AAXX  01121 53276 11965 02913 11127 21163 38864 40271 52033 69901 70070 333 91122 91529;
0132532760999992000010115004+42400+112900FM-12+115299999V0202701N013019999999N0150001N1-01401-01681102861ADDAY171031GF107991001001999999001021MD1210151+9999MW1221REMSYN066AAXX  01151 53276 41965 72713 11140 21168 40286 52015 72270 80002;
0226532760999992000010118004+42400+112900FM-12+115299999V0202501N007012200019N0300001N1-01641-01941102931ADDAA106000791AY171061GA1001+999999999GF100991001001999999001001KA1240M-00111MA1999999088831MD1210041+9999MW1001OA130602201REMSYN094AAXX  01181 53276 11980 02507 11164 21194 38883 40293 52004 69901 70070 333 11011 91122 91529;
0143532760999992000010121004+42400+112900FM-12+115299999V0202501N004012200019N0300001N1-01791-02131103181ADDAA124000791GA1001+999999999GF100991001001999999001001MD1210051+9999REMSYN064AAXX  01211 53276 42980 02504 11179 21213 40318 52005 333 79999;
0179532760999992000010200004+42400+112900FM-12+115299999V0202501N005019999999N0300001N1-01741-02201103201ADDAA106000091GF107991011001999999031021MA1999999088751MD1710131+0501REMSYN082AAXX  02001 53276 32980 72505 11174 21220 38875 40320 57013 81032 333 00563 79999;EQDQ01  00002PRCP06
0112532760999992000010203004+42400+112900FM-12+115299999V0202701N005019999999N0300001N1-01291-02011103051ADDGF107991021001999999031021MD1710051+9999REMSYN060AAXX  02031 53276 42980 72705 11129 21201 40305 57005 82032;
0193532760999992000010206004+42400+112900FM-12+115299999V0200701N003019999999N0200001N1-01251-01631102811ADDAA106000791AY171061GF107991011001999999031021KA1999N-01791MA1999999088441MD1710261+9999MW1701REMSYN088AAXX  02061 53276 11970 70703 11125 21163 38844 40281 57026 69901 77070 81032 333 21179;
0132532760999992000010209004+42400+112900FM-12+115299999V0200701N005012200019N0300001N1-01361-01701102801ADDAY171031GF102991001001999999001021MD1710071+9999MW1001REMSYN066AAXX  02091 53276 41980 20705 11136 21170 40280 57007 70070 80002;
0180532760999992000010212004+42400+112900FM-12+115299999V0203601N001012200019N0300001N1-01641-01851102851ADDAA106000791AY171061GA1001+999999999GF100991001001999999001001MA1999999088351MD1710021+9999MW1001REMSYN072AAXX  02121 53276 11980 03601 11164 21185 38835 40285 57002 69901 70070;
0122532760999992000010215004+42400+112900FM-12+115299999V0201601N002012200019N0300001N1-01811-01991102691ADDGA1001+999999999GF100991001001999999001001MD1710061+9999REMSYN054AAXX  02151 53276 42980 01602 11181 21199 40269 57006;
0186532760999992000010218004+42400+112900FM-12+115299999V0200701N002012200019N0300001N1-01741-01931102491ADDAA106000091GF101991001001999999001021KA1999M-01111MA1999999088141MD1710161+9999REMSYN076AAXX  02181 53276 32980 10702 11174 21193 38814 40249 57016 80002 333 11111;EQDQ01  00002PRCP06
0133532760999992000010221004+42400+112900FM-12+115299999V0201401N001019999999N0300001N1-01511-01751102281ADDAA124000791GF106991001001999999001021MD1710151+9999REMSYN070AAXX  02211 53276 42980 61401 11151 21175 40228 57015 80002 333 79999;
0192532760999992000010300004+42400+112900FM-12+115299999V0209999C000019999999N0120001N1-01571-01741102291ADDAA106000191AY171061GF108991081001999999021999MA1999999087911MD1710081-0801MW1701REMSYN100AAXX  03001 53276 11962 80000 11157 21174 38791 40229 57008 69921 77070 8802/ 333 05802 70002 92501;
0140532760999992000010303004+42400+112900FM-12+115299999V0202201N002019999999N0030001N1-00811-00991102191ADDAY171031AY271031GF107991071001999999031999MD1210071+9999MW1711REMSYN066AAXX  03031 53276 41930 72202 11081 21099 40219 52007 77177 8703/;
0193532760999992000010306004+42400+112900FM-12+115299999V0203201N002019999999N0110001N1-00751-01101102071ADDAA106000891AY171061GF106991061001999999031001KA1999N-01811MA1999999087911MD1710071+9999MW1001REMSYN088AAXX  03061 53276 11961 63202 11075 21110 38791 40207 57007 69981 70070 86030 333 21181;
0112532760999992000010309004+42400+112900FM-12+115299999V0201601N004019999999N0110001N1-01021-01261102121ADDGF107991031001999999031021MD1210031+9999REMSYN060AAXX  03091 53276 42961 71604 11102 21126 40212 52003 83032;
0163532760999992000010312004+42400+112900FM-12+115299999V0201801N002019999999N0200001N1-01051-01291102091ADDAA106000091GF107991021001999999031021MA1999999087891MD1710051+9999REMSYN066AAXX  03121 53276 32970 71802 11105 21129 38789 40209 57005 82032;EQDQ01  00002PRCP06
0112532760999992000010315004+42400+112900FM-12+115299999V0202501N004019999999N0200001N1-00821-01191101961ADDGF108991001001999999001071MD1210131+9999REMSYN060AAXX  03151 53276 42970 82504 11082 21119 40196 52013 80007;
0186532760999992000010318004+42400+112900FM-12+115299999V0202201N004019999999N0250001N1-00751-01141101981ADDAA106000091GF107991001001999999001021KA1999M-00611MA1999999088071MD1210051+9999REMSYN076AAXX  03181 53276 32975 72204 11075 21114 38807 40198 52005 80002 333 11061;EQDQ01  00002PRCP06
0133532760999992000010321004+42400+112900FM-12+115299999V0202501N006012200019N0300001N1-01251-01591102251ADDAA124001091GF102991001001999999001021MD1210051+9999REMSYN070AAXX  03211 53276 42980 22506 11125 21159 40225 52005 80002 333 70010;
0179532760999992000010400004+42400+112900FM-12+115299999V0209999C000010360019N0200001N1-01211-01511102371ADDAA106000091GF107991041051017501031021MA1999999088221MD1210101+0301REMSYN082AAXX  04001 53276 32770 70000 11121 21151 38822 40237 52010 84532 333 00304 70008;EQDQ01  00002PRCP06
0112532760999992000010403004+42400+112900FM-12+115299999V0202501N006012200019N0300001N1-00741-01631102201ADDGF101991001001999999001021MD1210031+9999REMSYN060AAXX  04031 53276 42980 12506 11074 21163 40220 52003 80002;
0186532760999992000010406004+42400+112900FM-12+115299999V0202501N005012200019N0300001N1-00651-01361102091ADDAA106000091GF101991001001999999001021KA1999N-01311MA1999999088191MD1710061+9999REMSYN076AAXX  04061 53276 32980 12505 11065 21136 38819 40209 57006 80002 333 21131;EQDQ01  00002PRCP06
0112532760999992000010409004+42400+112900FM-12+115299999V0209999C000012200019N0300001N1-00901-01571102421ADDGF101991001001999999001021MD1210101+9999REMSYN060AAXX  04091 53276 42980 10000 11090 21157 40242 52010 80002;
0173532760999992000010412004+42400+112900FM-12+115299999V0201801N003012200019N0300001N1-01331-01731102581ADDAA106000091GA1001+999999999GF100991001001999999001001MA1999999088331MD1210041+9999REMSYN060AAXX  04121 53276 32980 01803 11133 21173 38833 40258 52004;EQDQ01  00002PRCP06
0122532760999992000010415004+42400+112900FM-12+115299999V0202501N004012200019N0300001N1-01231-01831102441ADDGA1001+999999999GF100991001001999999001001MD1210021+9999REMSYN054AAXX  04151 53276 42980 02504 11123 21183 40244 52002;
0186532760999992000010418004+42400+112900FM-12+115299999V0202201N003019999999N0300001N1-01071-01621102381ADDAA106000091GF107991001001999999001021KA1999M-00511MA1999999088361MD1210011+9999REMSYN076AAXX  04181 53276 32980 72203 11107 21162 38836 40238 52001 80002 333 11051;EQDQ01  00002PRCP06
0112532760999992000010421004+42400+112900FM-12+115299999V0202501N009019999999N0300001N1-00881-01421102341ADDGF107991001001999999001021MD1710051+9999REMSYN060AAXX  04211 53276 42980 72509 11088 21142 40234 57005 80002;
0173532760999992000010500004+42400+112900FM-12+115299999V0203401N004012200019N0300001N1-01851-02161103011ADDAA106000091GF103991011001999999031021MA1999999088541MD1210231+0031REMSYN076AAXX  05001 53276 32980 33404 11185 21216 38854 40301 52023 81032 333 00356;EQDQ01  00002PRCP06
0132532760999992000010503004+42400+112900FM-12+115299999V0203201N003012200019N0300001N1-01801-02051103151ADDAY171031GF103991021051012501001021MD1210161+9999MW1701REMSYN066AAXX  05031 53276 41680 33203 11180 21205 40315 52016 77070 82502;
0193532760999992000010506004+42400+112900FM-12+115299999V0203201N005012200019N0300001N1-01621-01921102991ADDAA106000791AY171061GF104991011051017501001021KA1999N-01911MA1999999088651MD1710051+9999MW1701REMSYN088AAXX  05061 53276 11780 43205 11162 21192 38865 40299 57005 69901 77070 81502 333 21191;
0132532760999992000010509004+42400+112900FM-12+115299999V0203201N006012200019N0300001N1-01911-02201103081ADDAY171031GF101991001001999999001021MD1210051+9999MW1001REMSYN066AAXX  05091 53276 41980 13206 11191 21220 40308 52005 70070 80002;
0180532760999992000010512004+42400+112900FM-12+115299999V0202501N005012200019N0300001N1-02171-02431103691ADDAA106000791AY171061GA1001+999999999GF100991001001999999001001MA1999999088901MD1210201+9999MW1001REMSYN072AAXX  05121 53276 11980 02505 11217 21243 38890 40369 52020 69901 70070;
0132532760999992000010515004+42400+112900FM-12+115299999V0202901N007012200019N0300001N1-02271-02551103781ADDAY171031GF101991001001999999001021MD1210071+9999MW1701REMSYN066AAXX  05151 53276 41980 12907 11227 21255 40378 52007 77070 80002;
0203532760999992000010518004+42400+112900FM-12+115299999V0202501N001012200019N0300001N1-02571-02951103791ADDAA106000791AY171061GA1001+999999999GF100991001001999999001001KA1999M-00841MA1999999088941MD1710031+9999MW1001REMSYN082AAXX  05181 53276 11980 02501 11257 21295 38894 40379 57003 69901 70070 333 11084;
0143532760999992000010521004+42400+112900FM-12+115299999V0202901N010012200019N0300001N1-02541-02891103751ADDAA124000791GA1001+999999999GF100991001001999999001001MD1710101+9999REMSYN064AAXX  05211 53276 42980 02910 11254 21289 40375 57010 333 79999;
0112532760999992000010603004+42400+112900FM-12+115299999V0202901N010010120019N0150001N1-02521-02901104021ADDGF107991061051012501001021MD1210091+9999REMSYN060AAXX  06031 53276 42665 72910 11252 21290 40402 52009 86502;
0209532760999992000010606004+42400+112900FM-12+115299999V0202901N012010900019N0150001N1-02291-02711103811ADDAA106000091GF106991021051012501001021KA1240N-02601MA1999999088781MD1710201+9999OA130601801REMSYN088AAXX  06061 53276 32665 62912 11229 21271 38878 40381 57020 82502 333 21260 91118 91529;EQDQ01  00002PRCP06
0112532760999992000010609004+42400+112900FM-12+115299999V0202901N012010900019N0200001N1-02271-02771103951ADDGF106991021051012501001021MD1210131+9999REMSYN060AAXX  06091 53276 42670 62912 11227 21277 40395 52013 82502;
0200532760999992000010612004+42400+112900FM-12+115299999V0202901N007012200019N0200001N1-02471-02941104181ADDAA106000091GA1001+999999999GF100991001001999999001001MA1999999089041MD1210131+9999OA130601801REMSYN076AAXX  06121 53276 32970 02907 11247 21294 38904 40418 52013 333 91118 91529;EQDQ01  00002PRCP06
0122532760999992000010621004+42400+112900FM-12+115299999V0202501N007012200019N0300001N1-02631-03111103861ADDGA1001+999999999GF100991001001999999001001MD1710111+9999REMSYN054AAXX  06211 53276 42980 02507 11263 21311 40386 57011;
0173532760999992000010700004+42400+112900FM-12+115299999V0202501N006012200019N0300001N1-02601-03081103751ADDAA106000091GF101991001001999999001021MA1999999088671MD1710141+0021REMSYN076AAXX  07001 53276 32980 12506 11260 21308 38867 40375 57014 80002 333 05200;EQDQ01  00002PRCP06
0112532760999992000010703004+42400+112900FM-12+115299999V0202701N004012200019N0300001N1-02091-02691103611ADDGF102991001001999999001021MD1710021+9999REMSYN060AAXX  07031 53276 42980 22704 11209 21269 40361 57002 80002;
0186532760999992000010706004+42400+112900FM-12+115299999V0202501N004019999999N0300001N1-01691-02631103141ADDAA106000091GF105991001001999999001021KA1999N-02671MA1999999088341MD1710311+9999REMSYN076AAXX  07061 53276 32980 52504 11169 21263 38834 40314 57031 80002 333 21267;EQDQ01  00002PRCP06
0112532760999992000010709004+42400+112900FM-12+115299999V0200401N003019999999N0300001N1-01711-02561103051ADDGF107991001001999999001021MD1710071+9999REMSYN060AAXX  07091 53276 42980 70403 11171 21256 40305 57007 80002;
0163532760999992000010712004+42400+112900FM-12+115299999V0200701N001012200019N0300001N1-02071-02591103191ADDAA106000091GF102991001001999999001021MA1999999088301MD1210031+9999REMSYN066AAXX  07121 53276 32980 20701 11207 21259 38830 40319 52003 80002;EQDQ01  00002PRCP06
0122532760999992000010715004+42400+112900FM-12+115299999V0202501N004012200019N0300001N1-02091-02601103041ADDGA1001+999999999GF100991001001999999001001MD1410001+9999REMSYN054AAXX  07151 53276 42980 02504 11209 21260 40304 54000;
0196532760999992000010718004+42400+112900FM-12+115299999V0202501N004012200019N0300001N1-02211-02751102941ADDAA106000091GA1001+999999999GF100991001001999999001001KA1999M-01531MA1999999088291MD1710011+9999REMSYN070AAXX  07181 53276 32980 02504 11221 21275 38829 40294 57001 333 11153;EQDQ01  00002PRCP06
0122532760999992000010721004+42400+112900FM-12+115299999V0202501N005012200019N0300001N1-02001-02581102831ADDGA1001+999999999GF100991001001999999001001MD1710041+9999REMSYN054AAXX  07211 53276 42980 02505 11200 21258 40283 57004;
0173532760999992000010800004+42400+112900FM-12+115299999V0202201N007012200019N0300001N1-01821-02391102841ADDAA106000091GF101991001001999999001021MA1999999088211MD1710041+0051REMSYN076AAXX  08001 53276 32980 12207 11182 21239 38821 40284 57004 80002 333 05508;EQDQ01  00002PRCP06
0112532760999992000010803004+42400+112900FM-12+115299999V0202001N004019999999N0300001N1-01271-01931102741ADDGF106991021001999999031021MD1210051+9999REMSYN060AAXX  08031 53276 42980 62004 11127 21193 40274 52005 82032;
0186532760999992000010806004+42400+112900FM-12+115299999V0202501N003012200019N0300001N1-00741-01841102261ADDAA106000091GF101991011001999999031021KA1999N-02231MA1999999087951MD1710311+9999REMSYN076AAXX  08061 53276 32980 12503 11074 21184 38795 40226 57031 81032 333 21223;EQDQ01  00002PRCP06
0112532760999992000010809004+42400+112900FM-12+115299999V0202901N002019999999N0300001N1-00831-01651102201ADDGF107991031001999999031021MD1710021+9999REMSYN060AAXX  08091 53276 42980 72902 11083 21165 40220 57002 83032;
0163532760999992000010812004+42400+112900FM-12+115299999V0202201N003019999999N0300001N1-00991-01411102191ADDAA106000091GF107991001001999999001021MA1999999087931MD1410001+9999REMSYN066AAXX  08121 53276 32980 72203 11099 21141 38793 40219 54000 80002;EQDQ01  00002PRCP06
0122532760999992000010815004+42400+112900FM-12+115299999V0202501N005012200019N0300001N1-01321-01771102311ADDGA1001+999999999GF100991001001999999001001MD1210161+9999REMSYN054AAXX  08151 53276 42980 02505 11132 21177 40231 52016;
0196532760999992000010818004+42400+112900FM-12+115299999V0202501N006012200019N0300001N1-01691-02291102451ADDAA106000091GA1001+999999999GF100991001001999999001001KA1999M-00621MA1999999088251MD1210161+9999REMSYN070AAXX  08181 53276 32980 02506 11169 21229 38825 40245 52016 333 11062;EQDQ01  00002PRCP06
0122532760999992000010821004+42400+112900FM-12+115299999V0202901N005012200019N0300001N1-01771-02421102561ADDGA1001+999999999GF100991001001999999001001MD1210051+9999REMSYN054AAXX  08211 53276 42980 02905 11177 21242 40256 52005;
0183532760999992000010900004+42400+112900FM-12+115299999V0202501N004012200019N0300001N1-01951-02521102851ADDAA106000091GA1001+999999999GF100991001001999999001001MA1999999088461MD1210161+0031REMSYN070AAXX  09001 53276 32980 02504 11195 21252 38846 40285 52016 333 00351;EQDQ01  00002PRCP06
0112532760999992000010903004+42400+112900FM-12+115299999V0202501N008012200019N0300001N1-01511-02161102991ADDGF102991001001999999001021MD1210151+9999REMSYN060AAXX  09031 53276 42980 22508 11151 21216 40299 52015 80002;
0122532760999992000010909004+42400+112900FM-12+115299999V0202901N004012200019N0300001N1-01031-01751103011ADDGA1001+999999999GF100991001001999999001001MD1210071+9999REMSYN054AAXX  09091 53276 42980 02904 11103 21175 40301 52007;
0163532760999992000010912004+42400+112900FM-12+115299999V0201601N001012200019N0300001N1-01631-02161103351ADDAA106000091GF102991001001999999001021MA1999999088731MD1210091+9999REMSYN066AAXX  09121 53276 32980 21601 11163 21216 38873 40335 52009 80002;EQDQ01  00002PRCP06
0112532760999992000010915004+42400+112900FM-12+115299999V0201801N003012200019N0300001N1-01721-02141103221ADDGF101991001001999999001021MD1710021+9999REMSYN060AAXX  09151 53276 42980 11803 11172 21214 40322 57002 80002;
0196532760999992000010918004+42400+112900FM-12+115299999V0202001N003012200019N0300001N1-01781-02181103041ADDAA106000091GA1001+999999999GF100991001001999999001001KA1999M-00811MA1999999088691MD1710021+9999REMSYN070AAXX  09181 53276 32980 02003 11178 21218 38869 40304 57002 333 11081;EQDQ01  00002PRCP06
0122532760999992000010921004+42400+112900FM-12+115299999V0201801N004012200019N0300001N1-01841-02191103141ADDGA1001+999999999GF100991001001999999001001MD1210041+9999REMSYN054AAXX  09211 53276 42980 01804 11184 21219 40314 52004;
0173532760999992000011000004+42400+112900FM-12+115299999V0209999C000012200019N0300001N1-01591-02101103291ADDAA106000091GF102991001001999999001021MA1999999088771MD1210041+0031REMSYN076AAXX  10001 53276 32980 20000 11159 21210 38877 40329 52004 80002 333 00304;EQDQ01  00002PRCP06
0112532760999992000011003004+42400+112900FM-12+115299999V0202001N003012200019N0300001N1-00751-01591103141ADDGF101991001001999999001021MD1210061+9999REMSYN060AAXX  10031 53276 42980 12003 11075 21159 40314 52006 80002;
0186532760999992000011006004+42400+112900FM-12+115299999V0200401N004019999999N0300001N1-00721-01471102911ADDAA106000091GF105991001001999999001021KA1999N-01941MA1999999088631MD1710201+9999REMSYN076AAXX  10061 53276 32980 50404 11072 21147 38863 40291 57020 80002 333 21194;EQDQ01  00002PRCP06
0112532760999992000011009004+42400+112900FM-12+115299999V0200201N004019999999N0300001N1-00901-01401103061ADDGF107991031001999999031021MD1210071+9999REMSYN060AAXX  10091 53276 42980 70204 11090 21140 40306 52007 83032;
0163532760999992000011012004+42400+112900FM-12+115299999V0200701N002012200019N0300001N1-01331-01621103141ADDAA106000091GF103991011001999999031021MA1999999088721MD1210021+9999REMSYN066AAXX  10121 53276 32980 30702 11133 21162 38872 40314 52002 81032;EQDQ01  00002PRCP06
0112532760999992000011015004+42400+112900FM-12+115299999V0209999C000012200019N0300001N1-01461-01711102881ADDGF103991001001999999001021MD1710051+9999REMSYN060AAXX  10151 53276 42980 30000 11146 21171 40288 57005 80002;
0186532760999992000011018004+42400+112900FM-12+115299999V0202701N001019999999N0300001N1-01361-01651102761ADDAA106000091GF107991001001999999001021KA1999M-00191MA1999999088601MD1710071+9999REMSYN076AAXX  10181 53276 32980 72701 11136 21165 38860 40276 57007 80002 333 11019;EQDQ01  00002PRCP06
0112532760999992000011021004+42400+112900FM-12+115299999V0209999C000019999999N0300001N1-00771-01221102571ADDGF107991001001999999001021MD1710061+9999REMSYN060AAXX  10211 53276 42980 70000 11077 21122 40257 57006 80002;
0186532760999992000011100004+42400+112900FM-12+115299999V0201801N004019999999N0120001N1-00871-01021102771ADDAA106000391AY171061GF108991081001999999021999MA1999999088581MD1210041-0201MW1701REMSYN094AAXX  11001 53276 11962 81804 11087 21102 38858 40277 52004 69931 77070 8802/ 333 05207 70003;
0140532760999992000011103004+42400+112900FM-12+115299999V0203201N006019999999N0080001N1-00971-01181102921ADDAY171031AY271031GF108991081001999999021999MD1210071+9999MW1711REMSYN066AAXX  11031 53276 41958 83206 11097 21118 40292 52007 77177 8802/;
0201532760999992000011106004+42400+112900FM-12+115299999V0203201N006019999999N0080001N1-01111-01361102831ADDAA106002091AY171061AY271061GF108991081001999999021999KA1999N-01471MA1999999088571MD1710081+9999MW1701REMSYN088AAXX  11061 53276 11958 83206 11111 21136 38857 40283 57008 60021 77077 8802/ 333 21147;
0140532760999992000011109004+42400+112900FM-12+115299999V0202901N006019999999N0080001N1-01211-01431102821ADDAY171031AY271031GF108991081001999999021999MD1210111+9999MW1711REMSYN066AAXX  11091 53276 41958 82906 11121 21143 40282 52011 77177 8802/;
0170532760999992000011112004+42400+112900FM-12+115299999V0202501N006019999999N0080001N1-01391-01611103051ADDAA106000391AY171061GF107991001001999999001081MA1999999088811MD1210131+9999MW1701REMSYN078AAXX  11121 53276 11958 72506 11139 21161 38881 40305 52013 69931 77070 80008;
0140532760999992000011115004+42400+112900FM-12+115299999V0202501N006019999999N0300001N1-01471-01681103121ADDAY171031AY271031GF105991001001999999001021MD1210011+9999MW1701REMSYN066AAXX  11151 53276 41980 52506 11147 21168 40312 52001 77077 80002;
0201532760999992000011118004+42400+112900FM-12+115299999V0202701N006019999999N0080001N1-01591-01791103181ADDAA106000191AY171061AY271061GF108991001001999999001071KA1999M-00541MA1999999088811MD1710011+9999MW1701REMSYN088AAXX  11181 53276 11958 82706 11159 21179 38881 40318 57001 69911 77077 80007 333 11054;
0161532760999992000011121004+42400+112900FM-12+115299999V0202701N005019999999N0120001N1-01701-01891103161ADDAA124002591AY171031AY271031GF107991001001999999001081MD1710071+9999MW1701REMSYN076AAXX  11211 53276 41962 72705 11170 21189 40316 57007 77077 80008 333 70026;
0200532760999992000011200004+42400+112900FM-12+115299999V0202701N006010150019N0200001N1-01651-01871103311ADDAA106000791AY171061AY271061GF107991051051017501001021MA1999999088831MD1210091+0301MW1701REMSYN100AAXX  12001 53276 11770 72706 11165 21187 38883 40331 52009 69901 77077 85502 333 00358 70023 92504;
0132532760999992000011203004+42400+112900FM-12+115299999V0202901N007019999999N0150001N1-01621-01861103401ADDAY171031GF107991001001999999001081MD1210071+9999MW1701REMSYN066AAXX  12031 53276 41965 72907 11162 21186 40340 52007 77070 80008;
0193532760999992000011206004+42400+112900FM-12+115299999V0202901N006019999999N0200001N1-01581-01881103331ADDAA106000791AY171061GF107991001001999999001021KA1999N-01721MA1999999088821MD1710081+9999MW1701REMSYN088AAXX  12061 53276 11970 72906 11158 21188 38882 40333 57008 69901 77070 80002 333 21172;
0132532760999992000011209004+42400+112900FM-12+115299999V0202901N004012200019N0300001N1-01801-02071103581ADDAY171031GF104991021051017501001021MD1210131+9999MW1701REMSYN066AAXX  12091 53276 41780 42904 11180 21207 40358 52013 77070 82502;
0170532760999992000011212004+42400+112900FM-12+115299999V0202001N002012200019N0300001N1-02221-02441103801ADDAA106000791AY171061GF101991001001999999001021MA1999999089041MD1210091+9999MW1001REMSYN078AAXX  12121 53276 11980 12002 11222 21244 38904 40380 52009 69901 70070 80002;
0132532760999992000011215004+42400+112900FM-12+115299999V0202201N003012200019N0300001N1-02071-02291103691ADDAY171031GF101991001001999999001021MD1710051+9999MW1001REMSYN066AAXX  12151 53276 41980 12203 11207 21229 40369 57005 70070 80002;
0203532760999992000011218004+42400+112900FM-12+115299999V0202001N004012200019N0300001N1-02311-02541103541ADDAA106000791AY171061GA1001+999999999GF100991001001999999001001KA1999M-01551MA1999999088811MD1710181+9999MW1001REMSYN082AAXX  12181 53276 11980 02004 11231 21254 38881 40354 57018 69901 70070 333 11155;
0143532760999992000011221004+42400+112900FM-12+115299999V0202201N002012200019N0300001N1-02391-02631103541ADDAA124000791GA1001+999999999GF100991001001999999001001MD1710081+9999REMSYN064AAXX  12211 53276 42980 02202 11239 21263 40354 57008 333 79999;
0179532760999992000011300004+42400+112900FM-12+115299999V0202001N003012200019N0300001N1-02231-02471103561ADDAA106000091GF102991001001999999001021MA1999999088681MD1710051-0201REMSYN082AAXX  13001 53276 32980 22003 11223 21247 38868 40356 57005 80002 333 05256 79999;EQDQ01  00002PRCP06
0112532760999992000011303004+42400+112900FM-12+115299999V0201801N004019999999N0300001N1-01551-01851103151ADDGF107991001001999999001021MD1710121+9999REMSYN060AAXX  13031 53276 42980 71804 11155 21185 40315 57012 80002;
0186532760999992000011306004+42400+112900FM-12+115299999V0202201N005019999999N0300001N1-01031-01461102781ADDAA106000091GF106991001001999999001021KA1999N-02431MA1999999088301MD1710251+9999REMSYN076AAXX  13061 53276 32980 62205 11103 21146 38830 40278 57025 80002 333 21243;EQDQ01  00002PRCP06
0112532760999992000011309004+42400+112900FM-12+115299999V0202201N003019999999N0300001N1-00961-01321102801ADDGF106991001001999999001021MD1210021+9999REMSYN060AAXX  13091 53276 42980 62203 11096 21132 40280 52002 80002;
0170532760999992000011312004+42400+112900FM-12+115299999V0202501N006019999999N0200001N1-01231-01501102921ADDAA106000791AY171061GF107991001001999999001021MA1999999088391MD1210071+9999MW1221REMSYN078AAXX  13121 53276 11970 72506 11123 21150 38839 40292 52007 69901 72270 80002;
0103532760999992000011315004+42400+112900FM-12+115299999V0202501N006019999999N0250001N1-01551+99999999999ADDGF105991999999999999999999REMSYN065AAXX  13151 53276 41975 52506 11155 2175 40293 52010 72270 80002;
0193532760999992000011318004+42400+112900FM-12+115299999V0202501N003012200019N0300001N1-01771-02001102861ADDAA106000791AY171061GF101991001001999999001021KA1999M-00901MA1999999088511MD1210021+9999MW1001REMSYN088AAXX  13181 53276 11980 12503 11177 21200 38851 40286 52002 69901 70070 80002 333 11090;
0167532760999992000011321004+42400+112900FM-12+115299999V0202501N004012200019N0300001N1-01761-01991102811ADDAA124000791AY171031GA1001+999999999GF100991001001999999001001MD1710021+9999MW1001REMSYN074    AAXX  13211 53276 41980 02504 11176 21199 40281 57002 70070 333 79999;
0190532760999992000011400004+42400+112900FM-12+115299999V0202501N006012200019N0300001N1-02111-02341103101ADDAA106000791AY171061GF101991011001999999031001MA1999999088581MD1210091-0101MW1001REMSYN098    AAXX  14001 53276 11980 12506 11211 21234 38858 40310 52009 69901 70070 81030 333 05101 79999;
0190532760999992000011401004+42400+112900FM-12+115299999V0202501N006012200019N0300001N1-02111-02341103101ADDAA106000791AY171999GF101991011001999999031001MA1999999088581MD1210091-0101MW1001REMSYN098    AAXX  14011 53276 11980 12506 11211 21234 38858 40310 52009 69901 70070 81030 333 05101 79999;
0126532760999992000011403004+42400+112900FM-12+115299999V0202501N006012200019N0300001N1-01491-01851103141ADDGA1001+999999999GF100991001001999999001001MD1210111+9999REMSYN058    AAXX  14031 53276 42980 02506 11149 21185 40314 52011;
0190532760999992000011406004+42400+112900FM-12+115299999V0202001N003012200019N0300001N1-00961-01731102901ADDAA199000091GF101991011001999999031021KA1999N-02151MA1999999088561MD1710131+9999REMSYN080    AAXX  14061 53276 32980 12003 11096 21173 38856 40290 57013 81032 333 21215;EQDQ01  00002PRCP99
0116532760999992000011409004+42400+112900FM-12+115299999V0201801N002019999999N0300001N1-01181-01671102951ADDGF106991011001999999031021MD1710011+9999REMSYN064    AAXX  14091 53276 42980 61802 11118 21167 40295 57001 81032;
0167532760999992000011412004+42400+112900FM-12+115299999V0202501N005012200019N0300001N1-01531-01941103221ADDAA199000091GF104991001001999999001021MA1999999088601MD1210051+9999REMSYN070    AAXX  14121 53276 32980 42505 11153 21194 38860 40322 52005 80002;EQDQ01  00002PRCP99
0116532760999992000011415004+42400+112900FM-12+115299999V0202501N004019999999N0300001N1-01321-01721103071ADDGF107991001001999999001021MD1210091+9999REMSYN064    AAXX  14151 53276 42980 72504 11132 21172 40307 52009 80002;
0190532760999992000011418004+42400+112900FM-12+115299999V0202701N005019999999N0300001N1-01171-01561102891ADDAA199000091GF107991001001999999001021KA1999M-00741MA1999999088701MD1210011+9999REMSYN080    AAXX  14181 53276 32980 72705 11117 21156 38870 40289 52001 80002 333 11074;EQDQ01  00002PRCP99
0116532760999992000011421004+42400+112900FM-12+115299999V0202901N004019999999N0300001N1-01331-01651103111ADDGF107991001001999999001021MD1210101+9999REMSYN064    AAXX  14211 53276 42980 72904 11133 21165 40311 52010 80002;
0177532760999992000011500004+42400+112900FM-12+115299999V0203201N004019999999N0300001N1-01701-02011103501ADDAA199000091GF107991001001999999001021MA1999999088951MD1210151+0041REMSYN080    AAXX  15001 53276 32980 73204 11170 21201 38895 40350 52015 80002 333 00404;EQDQ01  00002PRCP99
0116532760999992000011503004+42400+112900FM-12+115299999V0202501N005012200019N0300001N1-01691-02001103621ADDGF101991001001999999001021MD1210161+9999REMSYN064    AAXX  15031 53276 42980 12505 11169 21200 40362 52016 80002;
0190532760999992000011506004+42400+112900FM-12+115299999V0202901N006012200019N0300001N1-01471-01801103511ADDAA199000091GF101991001001999999001021KA1999N-01851MA1999999089111MD1410001+9999REMSYN080    AAXX  15061 53276 32980 12906 11147 21180 38911 40351 54000 80002 333 21185;EQDQ01  00002PRCP99
0116532760999992000011509004+42400+112900FM-12+115299999V0202501N001012200019N0300001N1-01611-01991103761ADDGF101991001001999999001021MD1210141+9999REMSYN064    AAXX  15091 53276 42980 12501 11161 21199 40376 52014 80002;
0177532760999992000011512004+42400+112900FM-12+115299999V0202501N003012200019N0300001N1-02051-02311104131ADDAA199000091GA1001+999999999GF100991001001999999001001MA1999999089351MD1210101+9999REMSYN064    AAXX  15121 53276 32980 02503 11205 21231 38935 40413 52010;EQDQ01  00002PRCP99
0126532760999992000011515004+42400+112900FM-12+115299999V0202501N002012200019N0300001N1-02401-02651104331ADDGA1001+999999999GF100991001001999999001001MD1210081+9999REMSYN058    AAXX  15151 53276 42980 02502 11240 21265 40433 52008;
0200532760999992000011518004+42400+112900FM-12+115299999V0202201N002012200019N0300001N1-02511-02771104231ADDAA199000091GA1001+999999999GF100991001001999999001001KA1999M-01161MA1999999089381MD1710051+9999REMSYN074    AAXX  15181 53276 32980 02202 11251 21277 38938 40423 57005 333 11116;EQDQ01  00002PRCP99
0126532760999992000011521004+42400+112900FM-12+115299999V0202201N003012200019N0300001N1-02451-02701104181ADDGA1001+999999999GF100991001001999999001001MD1710071+9999REMSYN058    AAXX  15211 53276 42980 02203 11245 21270 40418 57007;
0187532760999992000011600004+42400+112900FM-12+115299999V0202201N003012200019N0300001N1-02221-02461104181ADDAA199000091GA1001+999999999GF100991001001999999001001MA1999999089261MD1710051+0031REMSYN074    AAXX  16001 53276 32980 02203 11222 21246 38926 40418 57005 333 00355;EQDQ01  00002PRCP99
0116532760999992000011603004+42400+112900FM-12+115299999V0202201N003012200019N0300001N1-01731-02101104161ADDGF103991011001999999031021MD1210021+9999REMSYN064    AAXX  16031 53276 42980 32203 11173 21210 40416 52002 81032;
0190532760999992000011606004+42400+112900FM-12+115299999V0202501N005012200019N0300001N1-01091-01591103711ADDAA199000091GF104991001001999999001021KA1999N-02531MA1999999089031MD1710251+9999REMSYN080    AAXX  16061 53276 32980 42505 11109 21159 38903 40371 57025 80002 333 21253;EQDQ01  00002PRCP99
0116532760999992000011609004+42400+112900FM-12+115299999V0202701N005012200019N0300001N1-01221-01731103741ADDGF101991011001999999031001MD1210011+9999REMSYN064    AAXX  16091 53276 42980 12705 11122 21173 40374 52001 81030;
0177532760999992000011612004+42400+112900FM-12+115299999V0202201N005012200019N0300001N1-01651-01981103841ADDAA199000091GA1001+999999999GF100991001001999999001001MA1999999089071MD1210031+9999REMSYN064    AAXX  16121 53276 32980 02205 11165 21198 38907 40384 52003;EQDQ01  00002PRCP99
0126532760999992000011615004+42400+112900FM-12+115299999V0202501N005012200019N0300001N1-01621-01971103701ADDGA1001+999999999GF100991001001999999001001MD1210021+9999REMSYN058    AAXX  16151 53276 42980 02505 11162 21197 40370 52002;
0200532760999992000011618004+42400+112900FM-12+115299999V0202201N006012200019N0300001N1-01661-02031103431ADDAA199000091GA1001+999999999GF100991001001999999001001KA1999M-00961MA1999999089011MD1710081+9999REMSYN074    AAXX  16181 53276 32980 02206 11166 21203 38901 40343 57008 333 11096;EQDQ01  00002PRCP99
0126532760999992000011621004+42400+112900FM-12+115299999V0202201N007012200019N0300001N1-01571-02031103341ADDGA1001+999999999GF100991001001999999001001MD1710091+9999REMSYN058    AAXX  16211 53276 42980 02207 11157 21203 40334 57009;
0177532760999992000011700004+42400+112900FM-12+115299999V0202501N008012200019N0300001N1-01431-01971103281ADDAA199000091GF101991001001999999001021MA1999999088801MD1710121+0051REMSYN080    AAXX  17001 53276 32980 12508 11143 21197 38880 40328 57012 80002 333 05508;EQDQ01  00002PRCP99
0126532760999992000011703004+42400+112900FM-12+115299999V0202501N005012200019N0300001N1-01051-01641103131ADDGA1001+999999999GF100991001001999999001001MD1710031+9999REMSYN058    AAXX  17031 53276 42980 02505 11105 21164 40313 57003;
0186532760999992000011706004+42400+112900FM-12+115299999V0202501N008012200019N0300001N1-00801-01421102871ADDAA199000091GA1001+999999999GF100991001001999999001001MA1999999088601MD1710171+9999REMSYN073    AAXX  17061 53276 32980 02508 11080 21142 38860 40287 57017 333 1195;EQDQ01  00002PRCP99
0126532760999992000011709004+42400+112900FM-12+115299999V0202901N008012200019N0300001N1-01041-01451102991ADDGA1001+999999999GF100991001001999999001001MD1210071+9999REMSYN058    AAXX  17091 53276 42980 02908 11104 21145 40299 52007;
0177532760999992000011712004+42400+112900FM-12+115299999V0202701N007012200019N0300001N1-01431-01811103301ADDAA199000091GA1001+999999999GF100991001001999999001001MA1999999088871MD1210201+9999REMSYN064    AAXX  17121 53276 32980 02707 11143 21181 38887 40330 52020;EQDQ01  00002PRCP99
0126532760999992000011715004+42400+112900FM-12+115299999V0202501N004012200019N0300001N1-01751-02091103411ADDGA1001+999999999GF100991001001999999001001MD1210111+9999REMSYN058    AAXX  17151 53276 42980 02504 11175 21209 40341 52011;
0200532760999992000011718004+42400+112900FM-12+115299999V0202701N008012200019N0300001N1-01781-02171103351ADDAA199000091GA1001+999999999GF100991001001999999001001KA1999M-00751MA1999999088991MD1210011+9999REMSYN074    AAXX  17181 53276 32980 02708 11178 21217 38899 40335 52001 333 11075;EQDQ01  00002PRCP99
0126532760999992000011721004+42400+112900FM-12+115299999V0202701N008012200019N0300001N1-01951-02331103461ADDGA1001+999999999GF100991001001999999001001MD1710011+9999REMSYN058    AAXX  17211 53276 42980 02708 11195 21233 40346 57001;
0177532760999992000011800004+42400+112900FM-12+115299999V0202901N009012200019N0300001N1-02091-02411103781ADDAA199000091GF101991011001999999031001MA1999999089111MD1210131+0031REMSYN080    AAXX  18001 53276 32980 12909 11209 21241 38911 40378 52013 81030 333 00357;EQDQ01  00002PRCP99
0116532760999992000011803004+42400+112900FM-12+115299999V0202901N008019999999N0300001N1-01941-02291104131ADDGF107991021001999999031021MD1210261+9999REMSYN064    AAXX  18031 53276 42980 72908 11194 21229 40413 52026 82032;
0190532760999992000011806004+42400+112900FM-12+115299999V0202901N008019999999N0300001N1-01721-02091104011ADDAA199000091GF107991001001999999001021KA1999N-02111MA1999999089321MD1710051+9999REMSYN080    AAXX  18061 53276 32980 72908 11172 21209 38932 40401 57005 80002 333 21211;EQDQ01  00002PRCP99
0116532760999992000011809004+42400+112900FM-12+115299999V0202901N008012200019N0300001N1-01771-02131104191ADDGF101991011001999999031021MD1210091+9999REMSYN064    AAXX  18091 53276 42980 12908 11177 21213 40419 52009 81032;
0177532760999992000011812004+42400+112900FM-12+115299999V0202701N007012200019N0300001N1-02001-02281104281ADDAA199000091GA1001+999999999GF100991001001999999001001MA1999999089391MD1710021+9999REMSYN064    AAXX  18121 53276 32980 02707 11200 21228 38939 40428 57002;EQDQ01  00002PRCP99
0126532760999992000011815004+42400+112900FM-12+115299999V0202501N007012200019N0300001N1-02281-02561104241ADDGA1001+999999999GF100991001001999999001001MD1710071+9999REMSYN058    AAXX  18151 53276 42980 02507 11228 21256 40424 57007;
0200532760999992000011818004+42400+112900FM-12+115299999V0202501N005012200019N0300001N1-02151-02541103931ADDAA199000091GA1001+999999999GF100991001001999999001001KA1999M-01441MA1999999089151MD1710171+9999REMSYN074    AAXX  18181 53276 32980 02505 11215 21254 38915 40393 57017 333 11144;EQDQ01  00002PRCP99
0126532760999992000011821004+42400+112900FM-12+115299999V0202501N005012200019N0300001N1-02271-02701103761ADDGA1001+999999999GF100991001001999999001001MD1710191+9999REMSYN058    AAXX  18211 53276 42980 02505 11227 21270 40376 57019;
0187532760999992000011900004+42400+112900FM-12+115299999V0202701N007012200019N0300001N1-02041-02501103701ADDAA199000091GA1001+999999999GF100991001001999999001001MA1999999088911MD1710051+0021REMSYN074    AAXX  19001 53276 32980 02707 11204 21250 38891 40370 57005 333 05201;EQDQ01  00002PRCP99
0116532760999992000011903004+42400+112900FM-12+115299999V0202501N008012200019N0300001N1-01771-02241103861ADDGF101991001001999999001021MD1210131+9999REMSYN064    AAXX  19031 53276 42980 12508 11177 21224 40386 52013 80002;
0190532760999992000011906004+42400+112900FM-12+115299999V0202901N005012200019N0300001N1-01491-02081103651ADDAA199000091GF101991001001999999001021KA1999N-02301MA1999999088971MD1710071+9999REMSYN080    AAXX  19061 53276 32980 12905 11149 21208 38897 40365 57007 80002 333 21230;EQDQ01  00002PRCP99
0116532760999992000011909004+42400+112900FM-12+115299999V0200201N003012200019N0300001N1-01761-02231103911ADDGF101991001001999999001021MD1210121+9999REMSYN064    AAXX  19091 53276 42980 10203 11176 21223 40391 52012 80002;
0177532760999992000011912004+42400+112900FM-12+115299999V0201801N003012200019N0300001N1-02151-02491104041ADDAA199000091GA1001+999999999GF100991001001999999001001MA1999999089161MD1210071+9999REMSYN064    AAXX  19121 53276 32980 01803 11215 21249 38916 40404 52007;EQDQ01  00002PRCP99
0122532760999992000011915004+42400+112900FM-12+115299999V0202201N002012200019N0300001N1-02291-02641104111ADDGA1001+999999999GF100991001001999999001001MD1210091+9999REMSYN054AAXX  19151 53276 42980 02202 11229 21264 40411 52009;
0196532760999992000011918004+42400+112900FM-12+115299999V0201801N003012200019N0300001N1-02331-02761104101ADDAA199000091GA1001+999999999GF100991001001999999001001KA1999M-01451MA1999999089311MD1210061+9999REMSYN070AAXX  19181 53276 32980 01803 11233 21276 38931 40410 52006 333 11145;EQDQ01  00002PRCP99
0122532760999992000011921004+42400+112900FM-12+115299999V0202201N002012200019N0300001N1-02221-02721104091ADDGA1001+999999999GF100991001001999999001001MD1710051+9999REMSYN054AAXX  19211 53276 42980 02202 11222 21272 40409 57005;
0183532760999992000012000004+42400+112900FM-12+115299999V0202201N002012200019N0300001N1-02251-02731104301ADDAA199000091GA1001+999999999GF100991001001999999001001MA1999999089321MD1210061+0041REMSYN070AAXX  20001 53276 32980 02202 11225 21273 38932 40430 52006 333 00452;EQDQ01  00002PRCP99
0122532760999992000012003004+42400+112900FM-12+115299999V0202201N003012200019N0300001N1-01611-02191104351ADDGA1001+999999999GF100991001001999999001001MD1210181+9999REMSYN054AAXX  20031 53276 42980 02203 11161 21219 40435 52018;
0196532760999992000012006004+42400+112900FM-12+115299999V0201801N002012200019N0300001N1-00901-01781103901ADDAA199000091GA1001+999999999GF100991001001999999001001KA1999N-02401MA1999999089291MD1710211+9999REMSYN070AAXX  20061 53276 32980 01802 11090 21178 38929 40390 57021 333 21240;EQDQ01  00002PRCP99
0112532760999992000012009004+42400+112900FM-12+115299999V0209999C000012200019N0300001N1-01271-01761103991ADDGF102991001001999999001021MD1210011+9999REMSYN060AAXX  20091 53276 42980 20000 11127 21176 40399 52001 80002;
0163532760999992000012012004+42400+112900FM-12+115299999V0209999C000012200019N0300001N1-01451-02001104101ADDAA199000091GF101991001001999999001021MA1999999089341MD1210041+9999REMSYN066AAXX  20121 53276 32980 10000 11145 21200 38934 40410 52004 80002;EQDQ01  00002PRCP99
0112532760999992000012015004+42400+112900FM-12+115299999V0202001N002019999999N0300001N1-01411-02081103831ADDGF106991001001999999001021MD1710051+9999REMSYN060AAXX  20151 53276 42980 62002 11141 21208 40383 57005 80002;
0186532760999992000012018004+42400+112900FM-12+115299999V0201601N003012200019N0300001N1-01571-02291103571ADDAA199000091GF101991011001999999031021KA1999M-00861MA1999999089201MD1710091+9999REMSYN076AAXX  20181 53276 32980 11603 11157 21229 38920 40357 57009 81032 333 11086;EQDQ01  00002PRCP99
0112532760999992000012021004+42400+112900FM-12+115299999V0202201N002012200019N0300001N1-01501-02191103641ADDGF102991001001999999001021MD1710011+9999REMSYN060AAXX  20211 53276 42980 22202 11150 21219 40364 57001 80002;
0173532760999992000012100004+42400+112900FM-12+115299999V0202001N006019999999N0300001N1-01221-01731103451ADDAA199000091GF107991011001999999031021MA1999999089051MD1710141+0031REMSYN076AAXX  21001 53276 32980 72006 11122 21173 38905 40345 57014 81032 333 05310;EQDQ01  00002PRCP99
0112532760999992000012103004+42400+112900FM-12+115299999V0202201N006019999999N0300001N1-00531-01341103221ADDGF107991011001999999031021MD1710021+9999REMSYN060AAXX  21031 53276 42980 72206 11053 21134 40322 57002 81032;
0186532760999992000012106004+42400+112900FM-12+115299999V0202001N006019999999N0300001N1-00301-01021102881ADDAA199000091GF107991021001999999031081KA1999N-01771MA1999999088761MD1710271+9999REMSYN076AAXX  21061 53276 32980 72006 11030 21102 38876 40288 57027 82038 333 21177;EQDQ01  00002PRCP99
0112532760999992000012109004+42400+112900FM-12+115299999V0201801N006019999999N0300001N1-00581-01151102861ADDGF108991001001999999001071MD1710071+9999REMSYN060AAXX  21091 53276 42980 81806 11058 21115 40286 57007 80007;
0170532760999992000012112004+42400+112900FM-12+115299999V0202201N007019999999N0060001N1-00701-00911102801ADDAA106000391AY171061GF108991081001999999021999MA1999999088681MD1710011+9999MW1711REMSYN078AAXX  21121 53276 11956 82207 11070 21091 38868 40280 57001 69931 77170 8802/;
0140532760999992000012115004+42400+112900FM-12+115299999V0202501N005019999999N0060001N1-00731-00861102581ADDAY171031AY271031GF108991081001999999021999MD1710031+9999MW1711REMSYN066AAXX  21151 53276 41956 82505 11073 21086 40258 57003 77177 8802/;
0201532760999992000012118004+42400+112900FM-12+115299999V0202701N006019999999N0090001N1-01071-01231102631ADDAA106000391AY171061AY271061GF108991081001999999011999KA1999M-00241MA1999999088661MD1210011+9999MW1701REMSYN088AAXX  21181 53276 11959 82706 11107 21123 38866 40263 52001 69931 77077 8801/ 333 11024;
0161532760999992000012121004+42400+112900FM-12+115299999V0202901N005019999999N0150001N1-01211-01381102731ADDAA124000891AY171031AY271031GF108991001001999999001071MD1710011+9999MW1701REMSYN076AAXX  21211 53276 41965 82905 11121 21138 40273 57001 77077 80007 333 70008;
0186532760999992000012200004+42400+112900FM-12+115299999V0202501N004012200019N0300001N1-01911-02061103061ADDAA106000191AY171061GF103991001001999999001021MA1999999088731MD1210081-0301MW1001REMSYN094AAXX  22001 53276 11980 32504 11191 21206 38873 40306 52008 69921 70070 80002 333 05357 70008;
0112532760999992000012203004+42400+112900FM-12+115299999V0202901N004012200019N0300001N1-01481-01801103071ADDGF102991001001999999001021MD1210111+9999REMSYN060AAXX  22031 53276 42980 22904 11148 21180 40307 52011 80002;
0167532760999992000012206004+42400+112900FM-12+115299999V0203201N003019999999N0300001N1-01491-01821103091ADDAA199000021GF107991001001999999001021KA1999N-01941MA1999999088771MD1710071+9999REMSYN076AAXX  22061 53276 32980 73203 11149 21182 38877 40309 57007 80002 333 21194;
0112532760999992000012209004+42400+112900FM-12+115299999V0202701N003019999999N0300001N1-01651-01991103331ADDGF105991001001999999001021MD1210131+9999REMSYN060AAXX  22091 53276 42980 52703 11165 21199 40333 52013 80002;
0163532760999992000012212004+42400+112900FM-12+115299999V0202701N004012200019N0300001N1-02011-02291103791ADDAA199000091GF101991001001999999001021MA1999999089021MD1210121+9999REMSYN066AAXX  22121 53276 32980 12704 11201 21229 38902 40379 52012 80002;EQDQ01  00002PRCP99
0112532760999992000012215004+42400+112900FM-12+115299999V0202501N003019999999N0300001N1-01991-02271103771ADDGF107991001001999999001021MD1210101+9999REMSYN060AAXX  22151 53276 42980 72503 11199 21227 40377 52010 80002;
0186532760999992000012218004+42400+112900FM-12+115299999V0202501N004012200019N0300001N1-02261-02501103951ADDAA199000091GF101991001001999999001021KA1999M-01071MA1999999089201MD1210081+9999REMSYN076AAXX  22181 53276 32980 12504 11226 21250 38920 40395 52008 80002 333 11107;EQDQ01  00002PRCP99
0153532760999992000012221004+42400+112900FM-12+115299999V0202901N002010900019N0300001N1-02191-02421104191ADDAA124000191AY171031GF106991021051012501001021MD1210181+9999MW1701REMSYN076AAXX  22211 53276 41680 62902 11219 21242 40419 52018 77070 82502 333 70001;
0186532760999992000012300004+42400+112900FM-12+115299999V0202501N005010900019N0300001N1-02441-02681104571ADDAA106000391AY171061GF107991021051017501001021MA1999999089541MD1210161+0801MW1221REMSYN094AAXX  23001 53276 11780 72505 11244 21268 38954 40457 52016 69931 72270 82502 333 00855 70003;
0132532760999992000012303004+42400+112900FM-12+115299999V0202901N004019999999N0300001N1-02201-02491104731ADDAY171031GF107991001001999999001021MD1210211+9999MW1001REMSYN066AAXX  23031 53276 41980 72904 11220 21249 40473 52021 70070 80002;
0193532760999992000012306004+42400+112900FM-12+115299999V0203401N005019999999N0200001N1-02271-02551104931ADDAA106000791AY171061GF106991001001999999001021KA1999N-02451MA1999999089831MD1210081+9999MW1001REMSYN088AAXX  23061 53276 11970 63405 11227 21255 38983 40493 52008 69901 70070 80002 333 21245;
0122532760999992000012309004+42400+112900FM-12+115299999V0203401N002012200019N0300001N1-02301-02581105201ADDGA1001+999999999GF100991001001999999001001MD1210241+9999REMSYN054AAXX  23091 53276 42980 03402 11230 21258 40520 52024;
0154532760999992000012312004+42400+112900FM-12+115299999V0202901N002012200019N0300001N1-02701-02921105621ADDAA199000021GA1001+999999999GF100991001001999999001001MA1999999090251MD1210181+9999REMSYN060AAXX  23121 53276 32980 02902 11270 21292 39025 40562 52018;
0122532760999992000012315004+42400+112900FM-12+115299999V0202501N005012200019N0300001N1-02701-02921105631ADDGA1001+999999999GF100991001001999999001001MD1210071+9999REMSYN054AAXX  23151 53276 42980 02505 11270 21292 40563 52007;
0196532760999992000012318004+42400+112900FM-12+115299999V0202501N004012200019N0300001N1-02801-03021105781ADDAA199000091GA1001+999999999GF100991001001999999001001KA1999M-02151MA1999999090401MD1210081+9999REMSYN070AAXX  23181 53276 32980 02504 11280 21302 39040 40578 52008 333 11215;EQDQ01  00002PRCP99
0143532760999992000012321004+42400+112900FM-12+115299999V0202501N005012200019N0300001N1-02881-03111105851ADDAA124000391GA1001+999999999GF100991001001999999001001MD1210031+9999REMSYN064AAXX  23211 53276 42980 02505 11288 21311 40585 52003 333 70002;
0170532760999992000012400004+42400+112900FM-12+115299999V0202501N004012200019N0300001N1-02811-03031105961ADDAA124000791GA1001+999999999GF100991001001999999001001MA1999999090431MD1410001+0901REMSYN076AAXX  24001 53276 32980 02504 11281 21303 39043 40596 54000 333 00954 79999;
0122532760999992000012403004+42400+112900FM-12+115299999V0202201N004012200019N0300001N1-02391-02601105861ADDGA1001+999999999GF100991001001999999001001MD1210041+9999REMSYN054AAXX  24031 53276 42980 02204 11239 21260 40586 52004;
0196532760999992000012406004+42400+112900FM-12+115299999V0202501N004012200019N0300001N1-02091-02441105721ADDAA199000091GA1001+999999999GF100991001001999999001001KA1999N-02961MA1999999090401MD1710071+9999REMSYN070AAXX  24061 53276 32980 02504 11209 21244 39040 40572 57007 333 21296;EQDQ01  00002PRCP99
0112532760999992000012409004+42400+112900FM-12+115299999V0202701N002012200019N0300001N1-02031-02421105701ADDGF101991001001999999001021MD1710021+9999REMSYN060AAXX  24091 53276 42980 12702 11203 21242 40570 57002 80002;
0173532760999992000012412004+42400+112900FM-12+115299999V0202501N005012200019N0300001N1-02531-02791105921ADDAA199000091GA1001+999999999GF100991001001999999001001MA1999999090451MD1210071+9999REMSYN060AAXX  24121 53276 32980 02505 11253 21279 39045 40592 52007;EQDQ01  00002PRCP99
0122532760999992000012415004+42400+112900FM-12+115299999V0202501N005012200019N0300001N1-02471-02801105771ADDGA1001+999999999GF100991001001999999001001MD1410001+9999REMSYN054AAXX  24151 53276 42980 02505 11247 21280 40577 54000;
0186532760999992000012418004+42400+112900FM-12+115299999V0202501N005019999999N0300001N1-02531-02831105671ADDAA199000091GF106991001001999999001021KA1999M-01941MA1999999090441MD1710011+9999REMSYN076AAXX  24181 53276 32980 62505 11253 21283 39044 40567 57001 80002 333 11194;EQDQ01  00002PRCP99
0112532760999992000012421004+42400+112900FM-12+115299999V0202501N006012200019N0300001N1-02871-03181105721ADDGF101991001001999999001021MD1710041+9999REMSYN060AAXX  24211 53276 42980 12506 11287 21318 40572 57004 80002;
0189532760999992000012500004+42400+112900FM-12+115299999V0202501N005012200019N0300001N1-02931-03201105991ADDAA199000091GA1001+999999999GF100991001001999999001001MA1999999090471MD1210071+0001REMSYN076AAXX  25001 53276 32980 02505 11293 21320 39047 40599 52007 333 00051 92504;EQDQ01  00002PRCP99
0122532760999992000012503004+42400+112900FM-12+115299999V0202901N006012200019N0300001N1-02321-02641105791ADDGA1001+999999999GF100991001001999999001001MD1210021+9999REMSYN054AAXX  25031 53276 42980 02906 11232 21264 40579 52002;
0196532760999992000012506004+42400+112900FM-12+115299999V0202901N009012200019N0300001N1-02021-02351105641ADDAA199000091GA1001+999999999GF100991001001999999001001KA1999N-02931MA1999999090431MD1710061+9999REMSYN070AAXX  25061 53276 32980 02909 11202 21235 39043 40564 57006 333 21293;EQDQ01  00002PRCP99
0122532760999992000012509004+42400+112900FM-12+115299999V0202701N008012200019N0300001N1-02071-02401105831ADDGA1001+999999999GF100991001001999999001001MD1210051+9999REMSYN054AAXX  25091 53276 42980 02708 11207 21240 40583 52005;
0173532760999992000012512004+42400+112900FM-12+115299999V0202501N007012200019N0300001N1-02311-02581106011ADDAA199000091GA1001+999999999GF100991001001999999001001MA1999999090551MD1210071+9999REMSYN060AAXX  25121 53276 32980 02507 11231 21258 39055 40601 52007;EQDQ01  00002PRCP99
0122532760999992000012515004+42400+112900FM-12+115299999V0202701N007012200019N0300001N1-02321-02631105871ADDGA1001+999999999GF100991001001999999001001MD1210051+9999REMSYN054AAXX  25151 53276 42980 02707 11232 21263 40587 52005;
0196532760999992000012518004+42400+112900FM-12+115299999V0202701N007012200019N0300001N1-02411-02721105841ADDAA199000091GA1001+999999999GF100991001001999999001001KA1999M-02001MA1999999090631MD1210031+9999REMSYN070AAXX  25181 53276 32980 02707 11241 21272 39063 40584 52003 333 11200;EQDQ01  00002PRCP99
0122532760999992000012521004+42400+112900FM-12+115299999V0202501N005012200019N0300001N1-02521-02841105831ADDGA1001+999999999GF100991001001999999001001MD1710051+9999REMSYN054AAXX  25211 53276 42980 02505 11252 21284 40583 57005;
0183532760999992000012600004+42400+112900FM-12+115299999V0202501N006012200019N0300001N1-02451-02771105951ADDAA199000091GA1001+999999999GF100991001001999999001001MA1999999090641MD1210061+0021REMSYN070AAXX  26001 53276 32980 02506 11245 21277 39064 40595 52006 333 00205;EQDQ01  00002PRCP99
0122532760999992000012603004+42400+112900FM-12+115299999V0202501N005012200019N0300001N1-02031-02421105871ADDGA1001+999999999GF100991001001999999001001MD1210041+9999REMSYN054AAXX  26031 53276 42980 02505 11203 21242 40587 52004;
0196532760999992000012606004+42400+112900FM-12+115299999V0202901N004012200019N0300001N1-01561-02051105621ADDAA199000091GA1001+999999999GF100991001001999999001001KA1999N-02541MA1999999090571MD1710111+9999REMSYN070AAXX  26061 53276 32980 02904 11156 21205 39057 40562 57011 333 21254;EQDQ01  00002PRCP99
0122532760999992000012609004+42400+112900FM-12+115299999V0200201N002012200019N0300001N1-01741-02111105711ADDGA1001+999999999GF100991001001999999001001MD1410001+9999REMSYN054AAXX  26091 53276 42980 00202 11174 21211 40571 54000;
0173532760999992000012612004+42400+112900FM-12+115299999V0201601N001012200019N0300001N1-02231-02491105811ADDAA199000091GA1001+999999999GF100991001001999999001001MA1999999090541MD1710031+9999REMSYN060AAXX  26121 53276 32980 01601 11223 21249 39054 40581 57003;EQDQ01  00002PRCP99
0122532760999992000012615004+42400+112900FM-12+115299999V0202001N003012200019N0300001N1-02261-02521105581ADDGA1001+999999999GF100991001001999999001001MD1710091+9999REMSYN054AAXX  26151 53276 42980 02003 11226 21252 40558 57009;
0196532760999992000012618004+42400+112900FM-12+115299999V0202501N003012200019N0300001N1-02431-02701105381ADDAA199000091GA1001+999999999GF100991001001999999001001KA1999M-01521MA1999999090361MD1710091+9999REMSYN070AAXX  26181 53276 32980 02503 11243 21270 39036 40538 57009 333 11152;EQDQ01  00002PRCP99
0122532760999992000012621004+42400+112900FM-12+115299999V0202501N005012200019N0300001N1-02691-02991105341ADDGA1001+999999999GF100991001001999999001001MD1710151+9999REMSYN054AAXX  26211 53276 42980 02505 11269 21299 40534 57015;
0183532760999992000012700004+42400+112900FM-12+115299999V0202201N003012200019N0300001N1-02671-02971105381ADDAA199000091GA1001+999999999GF100991001001999999001001MA1999999090111MD1710101+0051REMSYN070AAXX  27001 53276 32980 02203 11267 21297 39011 40538 57010 333 05552;EQDQ01  00002PRCP99
0122532760999992000012703004+42400+112900FM-12+115299999V0202201N003012200019N0300001N1-01931-02391105091ADDGA1001+999999999GF100991001001999999001001MD1710051+9999REMSYN054AAXX  27031 53276 42980 02203 11193 21239 40509 57005;
0196532760999992000012706004+42400+112900FM-12+115299999V0201801N001012200019N0300001N1-01191-01811104591ADDAA199000091GA1001+999999999GF100991001001999999001001KA1999N-02771MA1999999089781MD1710281+9999REMSYN070AAXX  27061 53276 32980 01801 11119 21181 38978 40459 57028 333 21277;EQDQ01  00002PRCP99
0122532760999992000012709004+42400+112900FM-12+115299999V0209999C000012200019N0300001N1-01211-01911104551ADDGA1001+999999999GF100991001001999999001001MD1710111+9999REMSYN054AAXX  27091 53276 42980 00000 11121 21191 40455 57011;
0173532760999992000012712004+42400+112900FM-12+115299999V0202201N002012200019N0300001N1-01841-02181104661ADDAA199000091GA1001+999999999GF100991001001999999001001MA1999999089601MD1710071+9999REMSYN060AAXX  27121 53276 32980 02202 11184 21218 38960 40466 57007;EQDQ01  00002PRCP99
0122532760999992000012715004+42400+112900FM-12+115299999V0202201N004012200019N0300001N1-01741-02261104281ADDGA1001+999999999GF100991001001999999001001MD1710101+9999REMSYN054AAXX  27151 53276 42980 02204 11174 21226 40428 57010;
0196532760999992000012718004+42400+112900FM-12+115299999V0202501N007012200019N0300001N1-01921-02401104001ADDAA199000091GA1001+999999999GF100991001001999999001001KA1999M-00851MA1999999089411MD1710091+9999REMSYN070AAXX  27181 53276 32980 02507 11192 21240 38941 40400 57009 333 11085;EQDQ01  00002PRCP99
0122532760999992000012721004+42400+112900FM-12+115299999V0202501N006012200019N0300001N1-01841-02341103831ADDGA1001+999999999GF100991001001999999001001MD1710131+9999REMSYN054AAXX  27211 53276 42980 02506 11184 21234 40383 57013;
0173532760999992000012800004+42400+112900FM-12+115299999V0202501N006012200019N0300001N1-01671-02271103981ADDAA199000091GF101991001001999999001021MA1999999089291MD1210011+0081REMSYN076AAXX  28001 53276 32980 12506 11167 21227 38929 40398 52001 80002 333 05810;EQDQ01  00002PRCP99
0112532760999992000012803004+42400+112900FM-12+115299999V0202501N009012200019N0300001N1-01491-02041103961ADDGF101991001001999999001021MD1210051+9999REMSYN060AAXX  28031 53276 42980 12509 11149 21204 40396 52005 80002;
0153532760999992000012806004+42400+112900FM-12+115299999V0202901N009012200019N0200001N1-01491+99999999999ADDAA199000091GA1001+999999999GF100991001001999999001001REMSYN069AAXX  28061 53276 32970 02909 11149 2102 38926 40392 57008 333 21216;EQDQ01  00002PRCP99
0124532760999992000012809004+42400+112900FM-12+115299999V0202701N008010120019N0200001N1-01551-01941104031ADDGF107991051051012501001021MD1210101+9999MW1701REMSYN066AAXX  28091 53276 41670 72708 11155 21194 40403 52010 77000 85502;
0180532760999992000012812004+42400+112900FM-12+115299999V0202901N009012200019N0300001N1-01951-02321104251ADDAA106000791AY171061GA1001+999999999GF100991001001999999001001MA1999999089491MD1210131+9999MW1001REMSYN072AAXX  28121 53276 11980 02909 11195 21232 38949 40425 52013 69901 70070;
0122532760999992000012815004+42400+112900FM-12+115299999V0202501N004012200019N0300001N1-02171-02531104521ADDGA1001+999999999GF100991001001999999001001MD1210221+9999REMSYN054AAXX  28151 53276 42980 02504 11217 21253 40452 52022;
0167532760999992000012818004+42400+112900FM-12+115299999V0202501N005012200019N0300001N1-02331-02641104611ADDAA199000021GF102991001001999999001021KA1999M-01331MA1999999089751MD1210041+9999REMSYN076AAXX  28181 53276 32980 22505 11233 21264 38975 40461 52004 80002 333 11133;
0153532760999992000012821004+42400+112900FM-12+115299999V0202501N006010900019N0200001N1-02231-02511104661ADDAA124000191AY171031GF107991021051012501001081MD1210051+9999MW1701REMSYN076AAXX  28211 53276 41670 72506 11223 21251 40466 52005 77070 82508 333 70001;
0186532760999992000012900004+42400+112900FM-12+115299999V0202501N007010900019N0200001N1-02241-02521104911ADDAA106000191AY171061GF107991021051012501001021MA1999999089901MD1210101+0601MW1001REMSYN094AAXX  29001 53276 11670 72507 11224 21252 38990 40491 52010 69911 70070 82502 333 00656 70001;
0132532760999992000012903004+42400+112900FM-12+115299999V0202701N008019999999N0150001N1-02091-02391105191ADDAY171031GF107991021001999999031021MD1210221+9999MW1001REMSYN066AAXX  29031 53276 41965 72708 11209 21239 40519 52022 70070 82032;
0193532760999992000012906004+42400+112900FM-12+115299999V0202901N008019999999N0180001N1-01901-02221105131ADDAA106000791AY171061GF107991001001999999001021KA1999N-02391MA1999999090081MD1710041+9999MW1001REMSYN088AAXX  29061 53276 11968 72908 11190 21222 39008 40513 57004 69901 70070 80002 333 21239;
0112532760999992000012909004+42400+112900FM-12+115299999V0202901N005010900019N0180001N1-01951-02241105221ADDGF107991011051012501001021MD1210091+9999REMSYN060AAXX  29091 53276 42668 72905 11195 21224 40522 52009 81502;
0163532760999992000012912004+42400+112900FM-12+115299999V0202501N005012200019N0200001N1-02131-02451105411ADDAA199000091GF103991001001999999001021MA1999999090281MD1210111+9999REMSYN066AAXX  29121 53276 32970 32505 11213 21245 39028 40541 52011 80002;EQDQ01  00002PRCP99
0112532760999992000012915004+42400+112900FM-12+115299999V0202501N004012200019N0300001N1-02451-02701105451ADDGF101991001001999999001021MD1710011+9999REMSYN060AAXX  29151 53276 42980 12504 11245 21270 40545 57001 80002;
0186532760999992000012918004+42400+112900FM-12+115299999V0202201N006012200019N0300001N1-02331-02631105251ADDAA199000091GF101991001001999999001021KA1999M-01841MA1999999090181MD1710091+9999REMSYN076AAXX  29181 53276 32980 12206 11233 21263 39018 40525 57009 80002 333 11184;EQDQ01  00002PRCP99
0143532760999992000012921004+42400+112900FM-12+115299999V0202901N004012200019N0300001N1-02471-02821105331ADDAA124000791GA1001+999999999GF100991001001999999001001MD1210021+9999REMSYN064AAXX  29211 53276 42980 02904 11247 21282 40533 52002 333 79999;
0170532760999992000013000004+42400+112900FM-12+115299999V0202501N004012200019N0300001N1-02641-02941105611ADDAA124000791GA1001+999999999GF100991001001999999001001MA1999999090341MD1210141+0401REMSYN076AAXX  30001 53276 32980 02504 11264 21294 39034 40561 52014 333 00454 79999;
0112532760999992000013003004+42400+112900FM-12+115299999V0202701N005012200019N0300001N1-02241-02571105841ADDGF102991001001999999001021MD1210221+9999REMSYN060AAXX  30031 53276 42980 22705 11224 21257 40584 52022 80002;
0186532760999992000013006004+42400+112900FM-12+115299999V0203401N007019999999N0300001N1-01981-02331105691ADDAA199000091GF107991001001999999001021KA1999N-02721MA1999999090541MD1710021+9999REMSYN076AAXX  30061 53276 32980 73407 11198 21233 39054 40569 57002 80002 333 21272;EQDQ01  00002PRCP99
0112532760999992000013009004+42400+112900FM-12+115299999V0203201N004012200019N0300001N1-02021-02351105911ADDGF102991001001999999001021MD1210141+9999REMSYN060AAXX  30091 53276 42980 23204 11202 21235 40591 52014 80002;
0163532760999992000013012004+42400+112900FM-12+115299999V0202901N004012200019N0300001N1-02461-02731106281ADDAA199000091GF101991001001999999001021MA1999999090821MD1210141+9999REMSYN066AAXX  30121 53276 32980 12904 11246 21273 39082 40628 52014 80002;EQDQ01  00002PRCP99
0122532760999992000013015004+42400+112900FM-12+115299999V0202501N003012200019N0300001N1-02681-02941106291ADDGA1001+999999999GF100991001001999999001001MD1210061+9999REMSYN054AAXX  30151 53276 42980 02503 11268 21294 40629 52006;
0196532760999992000013018004+42400+112900FM-12+115299999V0201801N002012200019N0300001N1-02551-02811106111ADDAA199000091GA1001+999999999GF100991001001999999001001KA1999M-01921MA1999999090841MD1710041+9999REMSYN070AAXX  30181 53276 32980 01802 11255 21281 39084 40611 57004 333 11192;EQDQ01  00002PRCP99
0122532760999992000013021004+42400+112900FM-12+115299999V0209999C000012200019N0300001N1-02891-03161106131ADDGA1001+999999999GF100991001001999999001001MD1710091+9999REMSYN054AAXX  30211 53276 42980 00000 11289 21316 40613 57009;
0183532760999992000013100004+42400+112900FM-12+115299999V0201801N002012200019N0300001N1-02911-03181106261ADDAA199000091GA1001+999999999GF100991001001999999001001MA1999999090731MD1710021+0041REMSYN070AAXX  31001 53276 32980 01802 11291 21318 39073 40626 57002 333 00453;EQDQ01  00002PRCP99
0122532760999992000013103004+42400+112900FM-12+115299999V0201801N004012200019N0300001N1-02321-02581106101ADDGA1001+999999999GF100991001001999999001001MD1710031+9999REMSYN054AAXX  31031 53276 42980 01804 11232 21258 40610 57003;
0196532760999992000013106004+42400+112900FM-12+115299999V0200901N002012200019N0300001N1-01871-02331105621ADDAA199000091GA1001+999999999GF100991001001999999001001KA1999N-03031MA1999999090451MD1710251+9999REMSYN070AAXX  31061 53276 32980 00902 11187 21233 39045 40562 57025 333 21303;EQDQ01  00002PRCP99
0122532760999992000013109004+42400+112900FM-12+115299999V0200701N003012200019N0300001N1-02051-02441105621ADDGA1001+999999999GF100991001001999999001001MD1710151+9999REMSYN054AAXX  31091 53276 42980 00703 11205 21244 40562 57015;
0173532760999992000013112004+42400+112900FM-12+115299999V0202001N001012200019N0300001N1-02481-02801105771ADDAA199000091GA1001+999999999GF100991001001999999001001MA1999999090301MD1410001+9999REMSYN060AAXX  31121 53276 32980 02001 11248 21280 39030 40577 54000;EQDQ01  00002PRCP99
0122532760999992000013115004+42400+112900FM-12+115299999V0202001N003012200019N0300001N1-02691-03001105451ADDGA1001+999999999GF100991001001999999001001MD1710161+9999REMSYN054AAXX  31151 53276 42980 02003 11269 21300 40545 57016;
0196532760999992000013118004+42400+112900FM-12+115299999V0202201N001012200019N0300001N1-02801-03101105171ADDAA199000091GA1001+999999999GF100991001001999999001001KA1999M-01761MA1999999089991MD1710151+9999REMSYN070AAXX  31181 53276 32980 02201 11280 21310 38999 40517 57015 333 11176;EQDQ01  00002PRCP99
0122532760999992000013121004+42400+112900FM-12+115299999V0202501N002012200019N0300001N1-02931-03201105081ADDGA1001+999999999GF100991001001999999001001MD1710161+9999REMSYN054AAXX  31211 53276 42980 02502 11293 21320 40508 57016;
0173532760999992000020100004+42400+112900FM-12+115299999V0202201N001012200019N0300001N1-03001-03281105171ADDAA199000091GF101991001001999999001021MA1999999089771MD1710061+0101REMSYN076AAXX  01001 53276 32980 12201 11300 21328 38977 40517 57006 80002 333 06051;EQDQ01  00002PRCP99
0112532760999992000020103004+42400+112900FM-12+115299999V0202501N002012200019N0300001N1-02291-02721104901ADDGF101991001001999999001021MD1710091+9999REMSYN060AAXX  01031 53276 42980 12502 11229 21272 40490 57009 80002;
0186532760999992000020106004+42400+112900FM-12+115299999V0200701N002012200019N0300001N1-01801-02361104581ADDAA199000091GF101991001001999999001021KA1999N-03011MA1999999089511MD1710171+9999REMSYN076AAXX  01061 53276 32980 10702 11180 21236 38951 40458 57017 80002 333 21301;EQDQ01  00002PRCP99
0122532760999992000020109004+42400+112900FM-12+115299999V0200401N002012200019N0300001N1-02121-02441104691ADDGA1001+999999999GF100991001001999999001001MD1710031+9999REMSYN054AAXX  01091 53276 42980 00402 11212 21244 40469 57003;
0173532760999992000020112004+42400+112900FM-12+115299999V0209999C000012200019N0300001N1-02581-02821104941ADDAA199000091GA1001+999999999GF100991001001999999001001MA1999999089541MD1210061+9999REMSYN060AAXX  01121 53276 32980 00000 11258 21282 38954 40494 52006;EQDQ01  00002PRCP99
0122532760999992000020115004+42400+112900FM-12+115299999V0209999C000012200019N0300001N1-02751-03011104761ADDGA1001+999999999GF100991001001999999001001MD1410001+9999REMSYN054AAXX  01151 53276 42980 00000 11275 21301 40476 54000;
0196532760999992000020118004+42400+112900FM-12+115299999V0202201N004012200019N0300001N1-02631-02871104491ADDAA199000091GA1001+999999999GF100991001001999999001001KA1999M-01461MA1999999089481MD1710061+9999REMSYN070AAXX  01181 53276 32980 02204 11263 21287 38948 40449 57006 333 11146;EQDQ01  00002PRCP99
0122532760999992000020121004+42400+112900FM-12+115299999V0202201N003012200019N0300001N1-02861-03161104611ADDGA1001+999999999GF100991001001999999001001MD1710051+9999REMSYN054AAXX  01211 53276 42980 02203 11286 21316 40461 57005;
0183532760999992000020200004+42400+112900FM-12+115299999V0202501N005012200019N0300001N1-02561-02891104701ADDAA199000091GA1001+999999999GF100991001001999999001001MA1999999089461MD1210031+0031REMSYN070AAXX  02001 53276 32980 02505 11256 21289 38946 40470 52003 333 05304;EQDQ01  00002PRCP99
0122532760999992000020203004+42400+112900FM-12+115299999V0202501N004012200019N0300001N1-02151-02601104711ADDGA1001+999999999GF100991001001999999001001MD1210081+9999REMSYN054AAXX  02031 53276 42980 02504 11215 21260 40471 52008;
0196532760999992000020206004+42400+112900FM-12+115299999V0202901N004012200019N0300001N1-01611-02121104361ADDAA199000091GA1001+999999999GF100991001001999999001001KA1999N-02861MA1999999089421MD1710121+9999REMSYN070AAXX  02061 53276 32980 02904 11161 21212 38942 40436 57012 333 21286;EQDQ01  00002PRCP99
0122532760999992000020209004+42400+112900FM-12+115299999V0202501N004012200019N0300001N1-01631-02181104381ADDGA1001+999999999GF100991001001999999001001MD1710051+9999REMSYN054AAXX  02091 53276 42980 02504 11163 21218 40438 57005;
0173532760999992000020212004+42400+112900FM-12+115299999V0202501N004012200019N0300001N1-02091-02511104461ADDAA199000091GA1001+999999999GF100991001001999999001001MA1999999089391MD1210021+9999REMSYN060AAXX  02121 53276 32980 02504 11209 21251 38939 40446 52002;EQDQ01  00002PRCP99
0122532760999992000020215004+42400+112900FM-12+115299999V0202501N006012200019N0300001N1-02071-02611104261ADDGA1001+999999999GF100991001001999999001001MD1710051+9999REMSYN054AAXX  02151 53276 42980 02506 11207 21261 40426 57005;
0196532760999992000020218004+42400+112900FM-12+115299999V0202501N006012200019N0300001N1-02441-02931104221ADDAA199000091GA1001+999999999GF100991001001999999001001KA1999M-01531MA1999999089351MD1210011+9999REMSYN070AAXX  02181 53276 32980 02506 11244 21293 38935 40422 52001 333 11153;EQDQ01  00002PRCP99
0122532760999992000020221004+42400+112900FM-12+115299999V0202501N007012200019N0300001N1-02261-02791104071ADDGA1001+999999999GF100991001001999999001001MD1710091+9999REMSYN054AAXX  02211 53276 42980 02507 11226 21279 40407 57009;
0183532760999992000020300004+42400+112900FM-12+115299999V0202501N007012200019N0300001N1-02521-03011104351ADDAA199000091GA1001+999999999GF100991001001999999001001MA1999999089311MD1210051+0021REMSYN070AAXX  03001 53276 32980 02507 11252 21301 38931 40435 52005 333 05200;EQDQ01  00002PRCP99
0112532760999992000020303004+42400+112900FM-12+115299999V0202501N003012200019N0300001N1-01661-02321104101ADDGF101991001001999999001021MD1210021+9999REMSYN060AAXX  03031 53276 42980 12503 11166 21232 40410 52002 80002;
0186532760999992000020306004+42400+112900FM-12+115299999V0201801N003012200019N0300001N1-00931-01831103781ADDAA199000091GF104991001001999999001021KA1999N-02521MA1999999089151MD1710181+9999REMSYN076AAXX  03061 53276 32980 41803 11093 21183 38915 40378 57018 80002 333 21252;EQDQ01  00002PRCP99
0112532760999992000020309004+42400+112900FM-12+115299999V0202501N001012200019N0300001N1-00721-01671103611ADDGF101991001001999999001021MD1710041+9999REMSYN060AAXX  03091 53276 42980 12501 11072 21167 40361 57004 80002;
0173532760999992000020312004+42400+112900FM-12+115299999V0202001N002012200019N0300001N1-01551-02141103991ADDAA199000091GA1001+999999999GF100991001001999999001001MA1999999089151MD1210041+9999REMSYN060AAXX  03121 53276 32980 02002 11155 21214 38915 40399 52004;EQDQ01  00002PRCP99
0122532760999992000020315004+42400+112900FM-12+115299999V0202201N008012200019N0300001N1-01531-02241103721ADDGA1001+999999999GF100991001001999999001001MD1410001+9999REMSYN054AAXX  03151 53276 42980 02208 11153 21224 40372 54000;
0196532760999992000020318004+42400+112900FM-12+115299999V0202201N006012200019N0300001N1-01411-02191103401ADDAA199000091GA1001+999999999GF100991001001999999001001KA1999M-00681MA1999999089091MD1710061+9999REMSYN070AAXX  03181 53276 32980 02206 11141 21219 38909 40340 57006 333 11068;EQDQ01  00002PRCP99
0122532760999992000020321004+42400+112900FM-12+115299999V0202201N004012200019N0300001N1-01711-02531103311ADDGA1001+999999999GF100991001001999999001001MD1710101+9999REMSYN054AAXX  03211 53276 42980 02204 11171 21253 40331 57010;
0173532760999992000020400004+42400+112900FM-12+115299999V0202201N004012200019N0300001N1-01751-02381103581ADDAA199000091GF101991001001999999001021MA1999999089001MD1210011+0031REMSYN076AAXX  04001 53276 32980 12204 11175 21238 38900 40358 52001 80002 333 05308;EQDQ01  00002PRCP99
0122532760999992000020403004+42400+112900FM-12+115299999V0202201N006012200019N0300001N1-00901-01461103321ADDGA1001+999999999GF100991001001999999001001MD1410001+9999REMSYN054AAXX  04031 53276 42980 02206 11090 21146 40332 54000;
0186532760999992000020406004+42400+112900FM-12+115299999V0202501N002012200019N0300001N1-00441-01481102851ADDAA199000091GF101991001001999999001021KA1999N-02051MA1999999088741MD1710261+9999REMSYN076AAXX  04061 53276 32980 12502 11044 21148 38874 40285 57026 80002 333 21205;EQDQ01  00002PRCP99
0122532760999992000020409004+42400+112900FM-12+115299999V0201601N002012200019N0300001N1-00671-01401102921ADDGA1001+999999999GF100991001001999999001001MD1710071+9999REMSYN054AAXX  04091 53276 42980 01602 11067 21140 40292 57007;
0173532760999992000020412004+42400+112900FM-12+115299999V0202001N002012200019N0300001N1-01031-01661103111ADDAA199000091GA1001+999999999GF100991001001999999001001MA1999999088731MD1210061+9999REMSYN060AAXX  04121 53276 32980 02002 11103 21166 38873 40311 52006;EQDQ01  00002PRCP99
0122532760999992000020415004+42400+112900FM-12+115299999V0202001N006012200019N0300001N1-00871-01651102731ADDGA1001+999999999GF100991001001999999001001MD1710081+9999REMSYN054AAXX  04151 53276 42980 02006 11087 21165 40273 57008;
0196532760999992000020418004+42400+112900FM-12+115299999V0202501N004012200019N0300001N1-00981-01511102561ADDAA199000091GA1001+999999999GF100991001001999999001001KA1999M-00361MA1999999088591MD1710061+9999REMSYN070AAXX  04181 53276 32980 02504 11098 21151 38859 40256 57006 333 11036;EQDQ01  00002PRCP99
0112532760999992000020421004+42400+112900FM-12+115299999V0202501N006012200019N0300001N1-01091-01721102531ADDGF102991001001999999001021MD1710111+9999REMSYN060AAXX  04211 53276 42980 22506 11109 21172 40253 57011 80002;
0173532760999992000020500004+42400+112900FM-12+115299999V0202501N006019999999N0300001N1-01381-01921102761ADDAA199000091GF107991021001999999031021MA1999999088521MD1210041+0051REMSYN076AAXX  05001 53276 32980 72506 11138 21192 38852 40276 52004 82032 333 05504;EQDQ01  00002PRCP99
0112532760999992000020503004+42400+112900FM-12+115299999V0202701N009012200019N0300001N1-01131-01781102711ADDGF101991011001999999031021MD1210061+9999REMSYN060AAXX  05031 53276 42980 12709 11113 21178 40271 52006 81032;
0186532760999992000020506004+42400+112900FM-12+115299999V0202901N008019999999N0300001N1-01031-01681102731ADDAA199000091GF105991011001999999031021KA1999N-01381MA1999999088591MD1210011+9999REMSYN076AAXX  05061 53276 32980 52908 11103 21168 38859 40273 52001 81032 333 21138;EQDQ01  00002PRCP99
0112532760999992000020509004+42400+112900FM-12+115299999V0202901N004012200019N0300001N1-01031-01661102861ADDGF101991001001999999001021MD1210091+9999REMSYN060AAXX  05091 53276 42980 12904 11103 21166 40286 52009 80002;
0173532760999992000020512004+42400+112900FM-12+115299999V0202501N003012200019N0300001N1-01491-01901103141ADDAA199000091GA1001+999999999GF100991001001999999001001MA1999999088731MD1210051+9999REMSYN060AAXX  05121 53276 32980 02503 11149 21190 38873 40314 52005;EQDQ01  00002PRCP99
0122532760999992000020515004+42400+112900FM-12+115299999V0202501N004012200019N0300001N1-01791-02121103251ADDGA1001+999999999GF100991001001999999001001MD1210081+9999REMSYN054AAXX  05151 53276 42980 02504 11179 21212 40325 52008;
0196532760999992000020518004+42400+112900FM-12+115299999V0202501N005012200019N0300001N1-01991-02351103281ADDAA199000091GA1001+999999999GF100991001001999999001001KA1999M-00871MA1999999088811MD1410001+9999REMSYN070AAXX  05181 53276 32980 02505 11199 21235 38881 40328 54000 333 11087;EQDQ01  00002PRCP99
0122532760999992000020521004+42400+112900FM-12+115299999V0202001N002012200019N0300001N1-02011-02401103281ADDGA1001+999999999GF100991001001999999001001MD1410001+9999REMSYN054AAXX  05211 53276 42980 02002 11201 21240 40328 54000;
0173532760999992000020600004+42400+112900FM-12+115299999V0209999C000012200019N0300001N1-02111-02491103461ADDAA199000091GF101991011001999999031001MA1999999088821MD1210011+0031REMSYN076AAXX  06001 53276 32980 10000 11211 21249 38882 40346 52001 81030 333 00357;EQDQ01  00002PRCP99
0112532760999992000020603004+42400+112900FM-12+115299999V0202501N002019999999N0300001N1-01401-02071103361ADDGF106991011001999999031021MD1210021+9999REMSYN060AAXX  06031 53276 42980 62502 11140 21207 40336 52002 81032;
0193532760999992000020606004+42400+112900FM-12+115299999V0200201N003010120019N0150001N1-01461-01841103371ADDAA106000791AY171061GF108991061051012501001071KA1999N-02181MA1999999088781MD1710061+9999MW1701REMSYN088AAXX  06061 53276 11665 80203 11146 21184 38878 40337 57006 69901 77070 86507 333 21218;
0140532760999992000020609004+42400+112900FM-12+115299999V0200201N003010900019N0110001N1-01621-01881103601ADDAY171031AY271031GF108991041051012501001071MD1210151+9999MW1701REMSYN066AAXX  06091 53276 41661 80203 11162 21188 40360 52015 77077 84507;
0170532760999992000020612004+42400+112900FM-12+115299999V0202501N005012200019N0300001N1-01941-02181103981ADDAA106000191AY171061GF101991001001999999001021MA1999999089141MD1210211+9999MW1001REMSYN078AAXX  06121 53276 11980 12505 11194 21218 38914 40398 52021 69921 70070 80002;
0122532760999992000020615004+42400+112900FM-12+115299999V0202501N006012200019N0300001N1-02191-02451103871ADDGA1001+999999999GF100991001001999999001001MD1210031+9999REMSYN054AAXX  06151 53276 42980 02506 11219 21245 40387 52003;
0177532760999992000020618004+42400+112900FM-12+115299999V0202701N009012200019N0300001N1-01811-02081103631ADDAA199000021GA1001+999999999GF100991001001999999001001KA1999M-01191MA1999999089051MD1710121+9999REMSYN070AAXX  06181 53276 32980 02709 11181 21208 38905 40363 57012 333 11119;
0143532760999992000020621004+42400+112900FM-12+115299999V0202501N009012200019N0300001N1-01901-02151103551ADDAA124000391GA1001+999999999GF100991001001999999001001MD1710131+9999REMSYN064AAXX  06211 53276 42980 02509 11190 21215 40355 57013 333 70002;
0160532760999992000020700004+42400+112900FM-12+115299999V0202701N009012200019N0300001N1-01881-02121103481ADDAA124000391GF101991011051012501001021MA1999999088781MD1710141+0001REMSYN082AAXX  07001 53276 32680 12709 11188 21212 38878 40348 57014 81502 333 00002 70002;
0122532760999992000020703004+42400+112900FM-12+115299999V0202901N009012200019N0300001N1-01541-01871103461ADDGA1001+999999999GF100991001001999999001001MD1410001+9999REMSYN054AAXX  07031 53276 42980 02909 11154 21187 40346 54000;
0196532760999992000020706004+42400+112900FM-12+115299999V0203201N007012200019N0300001N1-01101-01611103131ADDAA199000091GA1001+999999999GF100991001001999999001001KA1999N-02201MA1999999088711MD1710071+9999REMSYN070AAXX  07061 53276 32980 03207 11110 21161 38871 40313 57007 333 21220;EQDQ01  00002PRCP99
0112532760999992000020709004+42400+112900FM-12+115299999V0203401N005012200019N0300001N1-01261-01711103281ADDGF101991011001999999031021MD1210071+9999REMSYN060AAXX  07091 53276 42980 13405 11126 21171 40328 52007 81032;
0173532760999992000020712004+42400+112900FM-12+115299999V0200401N003012200019N0300001N1-01991-02281103781ADDAA199000091GA1001+999999999GF100991001001999999001001MA1999999089021MD1210241+9999REMSYN060AAXX  07121 53276 32980 00403 11199 21228 38902 40378 52024;EQDQ01  00002PRCP99
0122532760999992000020715004+42400+112900FM-12+115299999V0203401N002012200019N0300001N1-02191-02421104041ADDGA1001+999999999GF100991001001999999001001MD1210261+9999REMSYN054AAXX  07151 53276 42980 03402 11219 21242 40404 52026;
0196532760999992000020718004+42400+112900FM-12+115299999V0202001N002012200019N0300001N1-02361-02611103961ADDAA199000091GA1001+999999999GF100991001001999999001001KA1999M-01081MA1999999089281MD1410001+9999REMSYN070AAXX  07181 53276 32980 02002 11236 21261 38928 40396 54000 333 11108;EQDQ01  00002PRCP99
0122532760999992000020721004+42400+112900FM-12+115299999V0201801N004012200019N0300001N1-02611-02891104061ADDGA1001+999999999GF100991001001999999001001MD1710021+9999REMSYN054AAXX  07211 53276 42980 01804 11261 21289 40406 57002;
0183532760999992000020800004+42400+112900FM-12+115299999V0201801N006012200019N0300001N1-02501-02831104251ADDAA199000091GA1001+999999999GF100991001001999999001001MA1999999089261MD1410001+0051REMSYN070AAXX  08001 53276 32980 01806 11250 21283 38926 40425 54000 333 00556;EQDQ01  00002PRCP99
0122532760999992000020803004+42400+112900FM-12+115299999V0201801N004012200019N0300001N1-01651-02231103991ADDGA1001+999999999GF100991001001999999001001MD1710051+9999REMSYN054AAXX  08031 53276 42980 01804 11165 21223 40399 57005;
0196532760999992000020806004+42400+112900FM-12+115299999V0200701N003012200019N0300001N1-01291-01871103661ADDAA199000091GA1001+999999999GF100991001001999999001001KA1999N-02691MA1999999088981MD1710231+9999REMSYN070AAXX  08061 53276 32980 00703 11129 21187 38898 40366 57023 333 21269;EQDQ01  00002PRCP99
0122532760999992000020809004+42400+112900FM-12+115299999V0200701N004012200019N0300001N1-01391-01841103631ADDGA1001+999999999GF100991001001999999001001MD1710121+9999REMSYN054AAXX  08091 53276 42980 00704 11139 21184 40363 57012;
0173532760999992000020812004+42400+112900FM-12+115299999V0209999C000012200019N0300001N1-01831-02141103671ADDAA199000091GA1001+999999999GF100991001001999999001001MA1999999088801MD1710061+9999REMSYN060AAXX  08121 53276 32980 00000 11183 21214 38880 40367 57006;EQDQ01  00002PRCP99
0122532760999992000020815004+42400+112900FM-12+115299999V0202201N004012200019N0300001N1-01671-02061103271ADDGA1001+999999999GF100991001001999999001001MD1710071+9999REMSYN054AAXX  08151 53276 42980 02204 11167 21206 40327 57007;
0196532760999992000020818004+42400+112900FM-12+115299999V0202501N003012200019N0300001N1-01991-02371103191ADDAA199000091GA1001+999999999GF100991001001999999001001KA1999M-01181MA1999999088671MD1710061+9999REMSYN070AAXX  08181 53276 32980 02503 11199 21237 38867 40319 57006 333 11118;EQDQ01  00002PRCP99
0122532760999992000020821004+42400+112900FM-12+115299999V0202201N002012200019N0300001N1-02031-02381103131ADDGA1001+999999999GF100991001001999999001001MD1710091+9999REMSYN054AAXX  08211 53276 42980 02202 11203 21238 40313 57009;
0173532760999992000020900004+42400+112900FM-12+115299999V0202001N004012200019N0300001N1-01941-02281103211ADDAA199000091GF102991001001999999001021MA1999999088561MD1710021+0071REMSYN076AAXX  09001 53276 32980 22004 11194 21228 38856 40321 57002 80002 333 05706;EQDQ01  00002PRCP99
0112532760999992000020903004+42400+112900FM-12+115299999V0202201N003019999999N0300001N1-01161-01711102861ADDGF106991001001999999001021MD1710061+9999REMSYN060AAXX  09031 53276 42980 62203 11116 21171 40286 57006 80002;
0186532760999992000020906004+42400+112900FM-12+115299999V0200701N001012200019N0300001N1-00321-01491102461ADDAA199000091GF103991001001999999001021KA1999N-02121MA1999999088291MD1710211+9999REMSYN076AAXX  09061 53276 32980 30701 11032 21149 38829 40246 57021 80002 333 21212;EQDQ01  00002PRCP99
0122532760999992000020909004+42400+112900FM-12+115299999V0200701N002012200019N0300001N1-00881-01371102571ADDGA1001+999999999GF100991001001999999001001MD1710061+9999REMSYN054AAXX  09091 53276 42980 00702 11088 21137 40257 57006;
0173532760999992000020912004+42400+112900FM-12+115299999V0209999C000012200019N0300001N1-01451-01731102741ADDAA199000091GA1001+999999999GF100991001001999999001001MA1999999088251MD1210021+9999REMSYN060AAXX  09121 53276 32980 00000 11145 21173 38825 40274 52002;EQDQ01  00002PRCP99
0122532760999992000020915004+42400+112900FM-12+115299999V0202201N005012200019N0300001N1-01031-01461102321ADDGA1001+999999999GF100991001001999999001001MD1710051+9999REMSYN054AAXX  09151 53276 42980 02205 11103 21146 40232 57005;
0196532760999992000020918004+42400+112900FM-12+115299999V0202501N003012200019N0300001N1-01661-01971102371ADDAA199000091GA1001+999999999GF100991001001999999001001KA1999M-00281MA1999999088291MD1210091+9999REMSYN070AAXX  09181 53276 32980 02503 11166 21197 38829 40237 52009 333 11028;EQDQ01  00002PRCP99
0122532760999992000020921004+42400+112900FM-12+115299999V0202501N005012200019N0300001N1-01851-02121102621ADDGA1001+999999999GF100991001001999999001001MD1210031+9999REMSYN054AAXX  09211 53276 42980 02505 11185 21212 40262 52003;
0173532760999992000021000004+42400+112900FM-12+115299999V0202501N005012200019N0300001N1-01971-02231102991ADDAA199000091GF103991001001999999001021MA1999999088461MD1210141+0011REMSYN076AAXX  10001 53276 32980 32505 11197 21223 38846 40299 52014 80002 333 05100;EQDQ01  00002PRCP99
0122532760999992000021003004+42400+112900FM-12+115299999V0202701N005012200019N0300001N1-01381-01831102791ADDGA1001+999999999GF100991001001999999001001MD1210091+9999REMSYN054AAXX  10031 53276 42980 02705 11138 21183 40279 52009;
0196532760999992000021006004+42400+112900FM-12+115299999V0202701N006012200019N0300001N1-00901-01851102761ADDAA199000091GA1001+999999999GF100991001001999999001001KA1999N-02041MA1999999088481MD1710071+9999REMSYN070AAXX  10061 53276 32980 02706 11090 21185 38848 40276 57007 333 21204;EQDQ01  00002PRCP99
0122532760999992000021009004+42400+112900FM-12+115299999V0202901N005012200019N0300001N1-00831-01651102811ADDGA1001+999999999GF100991001001999999001001MD1210021+9999REMSYN054AAXX  10091 53276 42980 02905 11083 21165 40281 52002;
0173532760999992000021012004+42400+112900FM-12+115299999V0202501N006012200019N0300001N1-01421-01871103141ADDAA199000091GA1001+999999999GF100991001001999999001001MA1999999088601MD1210101+9999REMSYN060AAXX  10121 53276 32980 02506 11142 21187 38860 40314 52010;EQDQ01  00002PRCP99
0122532760999992000021015004+42400+112900FM-12+115299999V0202501N006012200019N0300001N1-01191-01761102921ADDGA1001+999999999GF100991001001999999001001MD1210021+9999REMSYN054AAXX  10151 53276 42980 02506 11119 21176 40292 52002;
0196532760999992000021018004+42400+112900FM-12+115299999V0202201N008012200019N0300001N1-01141-01671102721ADDAA199000091GA1001+999999999GF100991001001999999001001KA1999M-00781MA1999999088581MD1710041+9999REMSYN070AAXX  10181 53276 32980 02208 11114 21167 38858 40272 57004 333 11078;EQDQ01  00002PRCP99
0122532760999992000021021004+42400+112900FM-12+115299999V0202201N008012200019N0300001N1-01091-01601102601ADDGA1001+999999999GF100991001001999999001001MD1710081+9999REMSYN054AAXX  10211 53276 42980 02208 11109 21160 40260 57008;
0183532760999992000021100004+42400+112900FM-12+115299999V0202201N009012200019N0300001N1-01061-01631102741ADDAA199000091GA1001+999999999GF100991001001999999001001MA1999999088491MD1710011+0001REMSYN070AAXX  11001 53276 32980 02209 11106 21163 38849 40274 57001 333 00009;EQDQ01  00002PRCP99
0122532760999992000021103004+42400+112900FM-12+115299999V0202201N007012200019N0300001N1-00431-01461102531ADDGA1001+999999999GF100991001001999999001001MD1210031+9999REMSYN054AAXX  11031 53276 42980 02207 11043 21146 40253 52003;
0196532760999992000021106004+42400+112900FM-12+115299999V0202901N005012200019N0300001N1+00061-00991102221ADDAA199000091GA1001+999999999GF100991001001999999001001KA1999N-01441MA1999999088381MD1710141+9999REMSYN070AAXX  11061 53276 32980 02905 10006 21099 38838 40222 57014 333 21144;EQDQ01  00002PRCP99
0122532760999992000021109004+42400+112900FM-12+115299999V0202701N006012200019N0300001N1-00091-01011102171ADDGA1001+999999999GF100991001001999999001001MD1710071+9999REMSYN054AAXX  11091 53276 42980 02706 11009 21101 40217 57007;
0173532760999992000021112004+42400+112900FM-12+115299999V0202201N007012200019N0300001N1-00521-01271102241ADDAA199000091GA1001+999999999GF100991001001999999001001MA1999999088281MD1710031+9999REMSYN060AAXX  11121 53276 32980 02207 11052 21127 38828 40224 57003;EQDQ01  00002PRCP99
0122532760999992000021115004+42400+112900FM-12+115299999V0202201N006012200019N0300001N1-00661-01381102151ADDGA1001+999999999GF100991001001999999001001MD1210041+9999REMSYN054AAXX  11151 53276 42980 02206 11066 21138 40215 52004;
0196532760999992000021118004+42400+112900FM-12+115299999V0202201N007012200019N0300001N1-00621-01491101951ADDAA199000091GA1001+999999999GF100991001001999999001001KA1999M+00131MA1999999088271MD1710051+9999REMSYN070AAXX  11181 53276 32980 02207 11062 21149 38827 40195 57005 333 10013;EQDQ01  00002PRCP99
0122532760999992000021121004+42400+112900FM-12+115299999V0202201N006012200019N0300001N1-00621-01681101841ADDGA1001+999999999GF100991001001999999001001MD1710131+9999REMSYN054AAXX  11211 53276 42980 02206 11062 21168 40184 57013;
0173532760999992000021200004+42400+112900FM-12+115299999V0202201N008012200019N0300001N1-00771-01681102041ADDAA199000091GF101991001001999999001021MA1999999088171MD1210031+0031REMSYN076AAXX  12001 53276 32980 12208 11077 21168 38817 40204 52003 80002 333 05303;EQDQ01  00002PRCP99
0112532760999992000021203004+42400+112900FM-12+115299999V0202501N006012200019N0300001N1-00251-01351102051ADDGF102991001001999999001021MD1210101+9999REMSYN060AAXX  12031 53276 42980 22506 11025 21135 40205 52010 80002;
0186532760999992000021206004+42400+112900FM-12+115299999V0202701N008019999999N0300001N1-00111-01041101891ADDAA199000091GF105991001001999999001021KA1999N-00961MA1999999088181MD1710091+9999REMSYN076AAXX  12061 53276 32980 52708 11011 21104 38818 40189 57009 80002 333 21096;EQDQ01  00002PRCP99
0112532760999992000021209004+42400+112900FM-12+115299999V0202901N005019999999N0300001N1-00271-01171101981ADDGF106991001001999999001021MD1210041+9999REMSYN060AAXX  12091 53276 42980 62905 11027 21117 40198 52004 80002;
0163532760999992000021212004+42400+112900FM-12+115299999V0203401N004019999999N0300001N1-00871-01361102491ADDAA199000091GF107991001001999999001081MA1999999088481MD1210261+9999REMSYN066AAXX  12121 53276 32980 73404 11087 21136 38848 40249 52026 80008;EQDQ01  00002PRCP99
0112532760999992000021215004+42400+112900FM-12+115299999V0202501N004019999999N0300001N1-01201-01591102621ADDGF108991001001999999001071MD1210161+9999REMSYN060AAXX  12151 53276 42980 82504 11120 21159 40262 52016 80007;
0193532760999992000021218004+42400+112900FM-12+115299999V0202701N004019999999N0150001N1-01181-01461102611ADDAA106000791AY171061GF108991081001999999021999KA1999M-00061MA1999999088671MD1210031+9999MW1701REMSYN088AAXX  12181 53276 11965 82704 11118 21146 38867 40261 52003 69901 77070 8802/ 333 11006;
0161532760999992000021221004+42400+112900FM-12+115299999V0203401N002019999999N0110001N1-01381-01591102791ADDAA124000391AY171031AY271031GF108991081001999999021999MD1210061+9999MW1711REMSYN076AAXX  12211 53276 41961 83402 11138 21159 40279 52006 77177 8802/ 333 70002;
0194532760999992000021300004+42400+112900FM-12+115299999V0202201N002010150019N0200001N1-01411-01601103011ADDAA106000591AY171061AY271061GF107991071051017501999999MA1999999088771MD1210041+0601MW1701REMSYN094AAXX  13001 53276 11770 72202 11141 21160 38877 40301 52004 69951 77077 875// 333 00656 70005;
0140532760999992000021303004+42400+112900FM-12+115299999V0202901N004010900019N0250001N1-01211-01461103131ADDAY171031AY271031GF106991011051017501001021MD1210071+9999MW1221REMSYN066AAXX  13031 53276 41775 62904 11121 21146 40313 52007 72277 81502;
0193532760999992000021306004+42400+112900FM-12+115299999V0203201N007010900019N0250001N1-01071-01351103011ADDAA106000191AY171061GF106991021051017501001021KA1999N-01481MA1999999088781MD1710061+9999MW1221REMSYN088AAXX  13061 53276 11775 63207 11107 21135 38878 40301 57006 69911 72270 82502 333 21148;
0132532760999992000021309004+42400+112900FM-12+115299999V0203201N006010900019N0200001N1-01181-01451103121ADDAY171031GF107991021051017501001021MD1210011+9999MW1221REMSYN066AAXX  13091 53276 41770 73206 11118 21145 40312 52001 72270 82502;
0170532760999992000021312004+42400+112900FM-12+115299999V0202501N004012200019N0300001N1-01541-01731103411ADDAA106000791AY171061GF102991021051017501001021MA1999999088941MD1210151+9999MW1701REMSYN078AAXX  13121 53276 11780 22504 11154 21173 38894 40341 52015 69901 77070 82502;
0140532760999992000021315004+42400+112900FM-12+115299999V0202501N005010900019N0250001N1-01441-01651103401ADDAY171031AY271031GF106991041051017501001021MD1210071+9999MW1701REMSYN066AAXX  13151 53276 41775 62505 11144 21165 40340 52007 77077 84502;
0201532760999992000021318004+42400+112900FM-12+115299999V0202501N006012200019N0300001N1-01631-01811103321ADDAA106000791AY171061AY271061GF102991011051017501001021KA1999M-01031MA1999999088931MD1710081+9999MW1701REMSYN088AAXX  13181 53276 11780 22506 11163 21181 38893 40332 57008 69901 77077 81502 333 11103;
0153532760999992000021321004+42400+112900FM-12+115299999V0202701N007010150019N0300001N1-01731-01941103351ADDAA124000591AY171031GF107991071051017501999999MD1710031+9999MW1701REMSYN076AAXX  13211 53276 41780 72707 11173 21194 40335 57003 77070 875// 333 70004;
0186532760999992000021400004+42400+112900FM-12+115299999V0202701N007012200019N0300001N1-01951-02171103601ADDAA106000791AY171061GF101991011051017501001001MA1999999088971MD1210071+0201MW1001REMSYN094AAXX  14001 53276 11780 12707 11195 21217 38897 40360 52007 69901 70070 81500 333 00255 70001;
0122532760999992000021403004+42400+112900FM-12+115299999V0202901N008012200019N0300001N1-01751-02051103691ADDGA1001+999999999GF100991001001999999001001MD1210151+9999REMSYN054AAXX  14031 53276 42980 02908 11175 21205 40369 52015;
0167532760999992000021406004+42400+112900FM-12+115299999V0202901N008012200019N0300001N1-01491-01891103671ADDAA199000021GF101991011051012501001021KA1999N-02011MA1999999089121MD1410001+9999REMSYN076AAXX  14061 53276 32680 12908 11149 21189 38912 40367 54000 81502 333 21201;
0173532760999992000021412004+42400+112900FM-12+115299999V0202901N007012200019N0300001N1-01821-02241103881ADDAA199000091GA1001+999999999GF100991001001999999001001MA1999999089131MD1210021+9999REMSYN060AAXX  14121 53276 32980 02907 11182 21224 38913 40388 52002;EQDQ01  00002PRCP99
0122532760999992000021415004+42400+112900FM-12+115299999V0202501N006012200019N0300001N1-02051-02441103901ADDGA1001+999999999GF100991001001999999001001MD1210011+9999REMSYN054AAXX  14151 53276 42980 02506 11205 21244 40390 52001;
0196532760999992000021418004+42400+112900FM-12+115299999V0202501N005012200019N0300001N1-02061-02481103701ADDAA199000091GA1001+999999999GF100991001001999999001001KA1999M-01381MA1999999089041MD1710101+9999REMSYN070AAXX  14181 53276 32980 02505 11206 21248 38904 40370 57010 333 11138;EQDQ01  00002PRCP99
0143532760999992000021421004+42400+112900FM-12+115299999V0202501N006012200019N0300001N1-02111-02501103511ADDAA124000791GA1001+999999999GF100991001001999999001001MD1710161+9999REMSYN064AAXX  14211 53276 42980 02506 11211 21250 40351 57016 333 79999;
0183532760999992000021500004+42400+112900FM-12+115299999V0202501N005012200019N0300001N1-02311-02681103741ADDAA199000091GA1001+999999999GF100991001001999999001001MA1999999088921MD1210041+0011REMSYN070AAXX  15001 53276 32980 02505 11231 21268 38892 40374 52004 333 05154;EQDQ01  00002PRCP99
0122532760999992000021503004+42400+112900FM-12+115299999V0202501N007012200019N0300001N1-01421-01941103621ADDGA1001+999999999GF100991001001999999001001MD1210071+9999REMSYN054AAXX  15031 53276 42980 02507 11142 21194 40362 52007;
0196532760999992000021506004+42400+112900FM-12+115299999V0202901N009012200019N0300001N1-01011-01861103341ADDAA199000091GA1001+999999999GF100991001001999999001001KA1999N-02311MA1999999088851MD1710141+9999REMSYN070AAXX  15061 53276 32980 02909 11101 21186 38885 40334 57014 333 21231;EQDQ01  00002PRCP99
0122532760999992000021509004+42400+112900FM-12+115299999V0202901N005012200019N0300001N1-01071-01921103301ADDGA1001+999999999GF100991001001999999001001MD1710061+9999REMSYN054AAXX  15091 53276 42980 02905 11107 21192 40330 57006;
0173532760999992000021512004+42400+112900FM-12+115299999V0202501N004012200019N0300001N1-01701-02151103551ADDAA199000091GA1001+999999999GF100991001001999999001001MA1999999088791MD1410001+9999REMSYN060AAXX  15121 53276 32980 02504 11170 21215 38879 40355 54000;EQDQ01  00002PRCP99
0122532760999992000021515004+42400+112900FM-12+115299999V0202501N004012200019N0300001N1-01731-02201103291ADDGA1001+999999999GF100991001001999999001001MD1410001+9999REMSYN054AAXX  15151 53276 42980 02504 11173 21220 40329 54000;
0196532760999992000021518004+42400+112900FM-12+115299999V0202501N004012200019N0300001N1-01911-02371103141ADDAA199000091GA1001+999999999GF100991001001999999001001KA1999M-00941MA1999999088721MD1710071+9999REMSYN070AAXX  15181 53276 32980 02504 11191 21237 38872 40314 57007 333 11094;EQDQ01  00002PRCP99
0122532760999992000021521004+42400+112900FM-12+115299999V0202501N004012200019N0300001N1-01851-02321103081ADDGA1001+999999999GF100991001001999999001001MD1710051+9999REMSYN054AAXX  15211 53276 42980 02504 11185 21232 40308 57005;
0183532760999992000021600004+42400+112900FM-12+115299999V0202501N002012200019N0300001N1-02191-02611103391ADDAA199000091GA1001+999999999GF100991001001999999001001MA1999999088681MD1210011+0021REMSYN070AAXX  16001 53276 32980 02502 11219 21261 38868 40339 52001 333 05201;EQDQ01  00002PRCP99
0112532760999992000021603004+42400+112900FM-12+115299999V0202501N004012200019N0300001N1-01291-01951103211ADDGF101991001001999999001021MD1210071+9999REMSYN060AAXX  16031 53276 42980 12504 11129 21195 40321 52007 80002;
0196532760999992000021606004+42400+112900FM-12+115299999V0202501N003012200019N0300001N1-00811-02281103001ADDAA199000091GA1001+999999999GF100991001001999999001001KA1999N-02251MA1999999088651MD1710101+9999REMSYN070AAXX  16061 53276 32980 02503 11081 21228 38865 40300 57010 333 21225;EQDQ01  00002PRCP99
0112532760999992000021609004+42400+112900FM-12+115299999V0200401N004012200019N0300001N1-01011-01811103071ADDGF101991001001999999001021MD1210021+9999REMSYN060AAXX  16091 53276 42980 10404 11101 21181 40307 52002 80002;
0173532760999992000021612004+42400+112900FM-12+115299999V0209999C000012200019N0300001N1-01561-01991103431ADDAA199000091GA1001+999999999GF100991001001999999001001MA1999999088751MD1210081+9999REMSYN060AAXX  16121 53276 32980 00000 11156 21199 38875 40343 52008;EQDQ01  00002PRCP99
0122532760999992000021615004+42400+112900FM-12+115299999V0201801N003012200019N0300001N1-01751-02121103201ADDGA1001+999999999GF100991001001999999001001MD1710011+9999REMSYN054AAXX  16151 53276 42980 01803 11175 21212 40320 57001;
0186532760999992000021618004+42400+112900FM-12+115299999V0201801N002012200019N0300001N1-01731-02121103081ADDAA199000091GF101991001001999999001021KA1999M-00681MA1999999088761MD1210021+9999REMSYN076AAXX  16181 53276 32980 11802 11173 21212 38876 40308 52002 80002 333 11068;EQDQ01  00002PRCP99
0122532760999992000021621004+42400+112900FM-12+115299999V0202001N002012200019N0300001N1-01771-02191103121ADDGA1001+999999999GF100991001001999999001001MD1710021+9999REMSYN054AAXX  16211 53276 42980 02002 11177 21219 40312 57002;
0173532760999992000021700004+42400+112900FM-12+115299999V0202001N003012200019N0300001N1-01571-02051103241ADDAA199000091GF102991001001999999001021MA1999999088751MD1210011+0011REMSYN076AAXX  17001 53276 32980 22003 11157 21205 38875 40324 52001 80002 333 00106;EQDQ01  00002PRCP99
0112532760999992000021703004+42400+112900FM-12+115299999V0202001N004019999999N0300001N1-00641-01411102991ADDGF106991001001999999001021MD1710031+9999REMSYN060AAXX  17031 53276 42980 62004 11064 21141 40299 57003 80002;
0196532760999992000021706004+42400+112900FM-12+115299999V0209999C000012200019N0300001N1-00011-01481102591ADDAA199000091GA1001+999999999GF100991001001999999001001KA1999N-01961MA1999999088541MD1710181+9999REMSYN070AAXX  17061 53276 32980 00000 11001 21148 38854 40259 57018 333 21196;EQDQ01  00002PRCP99
0122532760999992000021709004+42400+112900FM-12+115299999V0200401N003012200019N0300001N1-00271-01071102641ADDGA1001+999999999GF100991001001999999001001MD1710031+9999REMSYN054AAXX  17091 53276 42980 00403 11027 21107 40264 57003;
0173532760999992000021712004+42400+112900FM-12+115299999V0209999C000012200019N0300001N1-00751-01291102801ADDAA199000091GA1001+999999999GF100991001001999999001001MA1999999088581MD1210071+9999REMSYN060AAXX  17121 53276 32980 00000 11075 21129 38858 40280 52007;EQDQ01  00002PRCP99
0122532760999992000021715004+42400+112900FM-12+115299999V0201801N003012200019N0300001N1-00981-01511102601ADDGA1001+999999999GF100991001001999999001001MD1410001+9999REMSYN054AAXX  17151 53276 42980 01803 11098 21151 40260 54000;
0186532760999992000021718004+42400+112900FM-12+115299999V0202201N003012200019N0300001N1-01211-01621102441ADDAA199000091GF101991001001999999001021KA1999M+00101MA1999999088541MD1710041+9999REMSYN076AAXX  17181 53276 32980 12203 11121 21162 38854 40244 57004 80002 333 10010;EQDQ01  00002PRCP99
0112532760999992000021721004+42400+112900FM-12+115299999V0209999C000012200019N0300001N1-01091-01601102441ADDGF102991001001999999001021MD1710041+9999REMSYN060AAXX  17211 53276 42980 20000 11109 21160 40244 57004 80002;
0173532760999992000021800004+42400+112900FM-12+115299999V0202501N002010360019N0300001N1-01141-01581102611ADDAA199000091GF107991011051012501031021MA1999999088521MD1210021+0021REMSYN076AAXX  18001 53276 32680 72502 11114 21158 38852 40261 52002 81532 333 05204;EQDQ01  00002PRCP99
0112532760999992000021803004+42400+112900FM-12+115299999V0202701N004019999999N0300001N1-00521-01321102521ADDGF107991021001999999031021MD1210021+9999REMSYN060AAXX  18031 53276 42980 72704 11052 21132 40252 52002 82032;
0186532760999992000021806004+42400+112900FM-12+115299999V0202901N003019999999N0300001N1-00321-01261102461ADDAA199000091GF107991001001999999001021KA1999N-01351MA1999999088481MD1710061+9999REMSYN076AAXX  18061 53276 32980 72903 11032 21126 38848 40246 57006 80002 333 21135;EQDQ01  00002PRCP99
0112532760999992000021809004+42400+112900FM-12+115299999V0203601N005019999999N0300001N1-00611-01151102661ADDGF107991001001999999001081MD1210131+9999REMSYN060AAXX  18091 53276 42980 73605 11061 21115 40266 52013 80008;
0163532760999992000021812004+42400+112900FM-12+115299999V0203601N002019999999N0300001N1-00961-01321102981ADDAA199000091GF106991011001999999031021MA1999999088791MD1210181+9999REMSYN066AAXX  18121 53276 32980 63602 11096 21132 38879 40298 52018 81032;EQDQ01  00002PRCP99
0112532760999992000021815004+42400+112900FM-12+115299999V0202901N004012200019N0300001N1-01391-01701103111ADDGF103991001001999999001021MD1210161+9999REMSYN060AAXX  18151 53276 42980 32904 11139 21170 40311 52016 80002;
0186532760999992000021818004+42400+112900FM-12+115299999V0202501N005012200019N0300001N1-01601-01901103141ADDAA199000091GF101991001001999999001021KA1999M-00201MA1999999088971MD1210021+9999REMSYN076AAXX  18181 53276 32980 12505 11160 21190 38897 40314 52002 80002 333 11020;EQDQ01  00002PRCP99
0102532760999992000021821004+42400+112900FM-12+115299999V0209999C000012200019N0300001N1-01761+99999103241ADDGA1001+999999999GF100991001001999999001001REMSYN048AAXX  18211 53276 42980 00000 11176 40324 5//99;
0173532760999992000021900004+42400+112900FM-12+115299999V0202501N004012200019N0300001N1-01801-02071103421ADDAA199000091GF101991001001999999001021MA1999999089001MD1210061+0051REMSYN076AAXX  19001 53276 32980 12504 11180 21207 38900 40342 52006 80002 333 00557;EQDQ01  00002PRCP99
0186532760999992000021906004+42400+112900FM-12+115299999V0203401N005012200019N0300001N1-00831-01531103151ADDAA199000091GF101991011011017501001001KA1999N-01811MA1999999088851MD1710181+9999REMSYN076AAXX  19061 53276 32780 13405 11083 21153 38885 40315 57018 81100 333 21181;EQDQ01  00002PRCP99
0112532760999992000021909004+42400+112900FM-12+115299999V0203601N005012200019N0300001N1-00931-01561103191ADDGF101991011011017501001001MD1710031+9999REMSYN060AAXX  19091 53276 42780 13605 11093 21156 40319 57003 81100;
0173532760999992000021912004+42400+112900FM-12+115299999V0209999C000012200019N0300001N1-01311-01761103311ADDAA199000091GA1001+999999999GF100991001001999999001001MA1999999088821MD1410001+9999REMSYN060AAXX  19121 53276 32980 00000 11131 21176 38882 40331 54000;EQDQ01  00002PRCP99
0122532760999992000021915004+42400+112900FM-12+115299999V0202201N002012200019N0300001N1-01571-01931103191ADDGA1001+999999999GF100991001001999999001001MD1410001+9999REMSYN054AAXX  19151 53276 42980 02202 11157 21193 40319 54000;
0196532760999992000021918004+42400+112900FM-12+115299999V0202501N005012200019N0300001N1-01471-01931103021ADDAA199000091GA1001+999999999GF100991001001999999001001KA1999M-00781MA1999999088771MD1710051+9999REMSYN070AAXX  19181 53276 32980 02505 11147 21193 38877 40302 57005 333 11078;EQDQ01  00002PRCP99
0122532760999992000021921004+42400+112900FM-12+115299999V0202501N005012200019N0300001N1-01631-02141102971ADDGA1001+999999999GF100991001001999999001001MD1710111+9999REMSYN054AAXX  19211 53276 42980 02505 11163 21214 40297 57011;
0183532760999992000022000004+42400+112900FM-12+115299999V0201801N002012200019N0300001N1-01771-02291103211ADDAA199000091GA1001+999999999GF100991001001999999001001MA1999999088741MD1210081+0031REMSYN070AAXX  20001 53276 32980 01802 11177 21229 38874 40321 52008 333 05300;EQDQ01  00002PRCP99
0122532760999992000022003004+42400+112900FM-12+115299999V0202201N004012200019N0300001N1-00871-01951103031ADDGA1001+999999999GF100991001001999999001001MD1210011+9999REMSYN054AAXX  20031 53276 42980 02204 11087 21195 40303 52001;
0196532760999992000022006004+42400+112900FM-12+115299999V0202701N002012200019N0300001N1-00391-02061102731ADDAA199000091GA1001+999999999GF100991001001999999001001KA1999N-01811MA1999999088631MD1710121+9999REMSYN070AAXX  20061 53276 32980 02702 11039 21206 38863 40273 57012 333 21181;EQDQ01  00002PRCP99
0122532760999992000022009004+42400+112900FM-12+115299999V0200701N004012200019N0300001N1-00611-01741102741ADDGA1001+999999999GF100991001001999999001001MD1710081+9999REMSYN054AAXX  20091 53276 42980 00704 11061 21174 40274 57008;
0173532760999992000022012004+42400+112900FM-12+115299999V0201801N002012200019N0300001N1-01111-01741102991ADDAA199000091GA1001+999999999GF100991001001999999001001MA1999999088601MD1210051+9999REMSYN060AAXX  20121 53276 32980 01802 11111 21174 38860 40299 52005;EQDQ01  00002PRCP99
0112532760999992000022015004+42400+112900FM-12+115299999V0201801N004012200019N0300001N1-01391-01981102891ADDGF101991001001999999001021MD1210071+9999REMSYN060AAXX  20151 53276 42980 11804 11139 21198 40289 52007 80002;
0186532760999992000022018004+42400+112900FM-12+115299999V0201801N002012200019N0300001N1-01561-02131102771ADDAA199000091GF101991001001999999001021KA1999M-00351MA1999999088641MD1710031+9999REMSYN076AAXX  20181 53276 32980 11802 11156 21213 38864 40277 57003 80002 333 11035;EQDQ01  00002PRCP99
0122532760999992000022021004+42400+112900FM-12+115299999V0201801N003012200019N0300001N1-01601-02151102701ADDGA1001+999999999GF100991001001999999001001MD1710121+9999REMSYN054AAXX  20211 53276 42980 01803 11160 21215 40270 57012;
0173532760999992000022100004+42400+112900FM-12+115299999V0202201N002019999999N0300001N1-01551-02061102871ADDAA199000091GF106991051001999999031021MA1999999088551MD1210031+0021REMSYN076AAXX  21001 53276 32980 62202 11155 21206 38855 40287 52003 85032 333 05202;EQDQ01  00002PRCP99
0112532760999992000022103004+42400+112900FM-12+115299999V0201801N003012200019N0300001N1-00461-01511102581ADDGF101991001001999999001021MD1710051+9999REMSYN060AAXX  21031 53276 42980 11803 11046 21151 40258 57005 80002;
0159532760999992000022106004+42400+112900FM-12+115299999V0200701N005019999999N0300001N1-00291-01431102381ADDAA199000091GF107991999999999999999999MA1999999088331REMSYN076AAXX  21061 53276 32980 70705 11029 21143 38833 40238 97017 80002 333 21175;EQDQ01  00002PRCP99
0112532760999992000022109004+42400+112900FM-12+115299999V0200701N006019999999N0300001N1-00641-01461102451ADDGF107991001001999999001021MD1710031+9999REMSYN060AAXX  21091 53276 42980 70706 11064 21146 40245 57003 80002;
0163532760999992000022112004+42400+112900FM-12+115299999V0200401N004012200019N0300001N1-00971-01381102661ADDAA199000091GF102991001001999999001021MA1999999088411MD1210111+9999REMSYN066AAXX  21121 53276 32980 20404 11097 21138 38841 40266 52011 80002;EQDQ01  00002PRCP99
0112532760999992000022115004+42400+112900FM-12+115299999V0209999C000012200019N0300001N1-01081-01431102451ADDGF102991011001999999031021MD1210061+9999REMSYN060AAXX  21151 53276 42980 20000 11108 21143 40245 52006 81032;
0196532760999992000022118004+42400+112900FM-12+115299999V0203401N002012200019N0300001N1-01601-01841102741ADDAA199000091GA1001+999999999GF100991001001999999001001KA1999M-00141MA1999999088631MD1210161+9999REMSYN070AAXX  21181 53276 32980 03402 11160 21184 38863 40274 52016 333 11014;EQDQ01  00002PRCP99
0122532760999992000022121004+42400+112900FM-12+115299999V0202501N002012200019N0300001N1-01601-01801102941ADDGA1001+999999999GF100991001001999999001001MD1210091+9999REMSYN054AAXX  21211 53276 42980 02502 11160 21180 40294 52009;
0173532760999992000022200004+42400+112900FM-12+115299999V0202501N005010900019N0300001N1-01601-01791103251ADDAA199000091GF107991011051012501001021MA1999999088901MD1210181+0041REMSYN076AAXX  22001 53276 32680 72505 11160 21179 38890 40325 52018 81502 333 00451;EQDQ01  00002PRCP99
0112532760999992000022203004+42400+112900FM-12+115299999V0202901N003012200019N0300001N1-00911-02041103211ADDGF103991001001999999001021MD1210111+9999REMSYN060AAXX  22031 53276 42980 32903 11091 21204 40321 52011 80002;
0186532760999992000022206004+42400+112900FM-12+115299999V0203401N005012200019N0300001N1-00671-01791103241ADDAA199000091GF102991001001999999001021KA1999N-01701MA1999999088971MD1710041+9999REMSYN076AAXX  22061 53276 32980 23405 11067 21179 38897 40324 57004 80002 333 21170;EQDQ01  00002PRCP99
0122532760999992000022209004+42400+112900FM-12+115299999V0203601N005012200019N0300001N1-00731-01621103211ADDGA1001+999999999GF100991001001999999001001MD1710041+9999REMSYN054AAXX  22091 53276 42980 03605 11073 21162 40321 57004;
0173532760999992000022212004+42400+112900FM-12+115299999V0203401N002012200019N0300001N1-01141-01651103541ADDAA199000091GA1001+999999999GF100991001001999999001001MA1999999089111MD1210181+9999REMSYN060AAXX  22121 53276 32980 03402 11114 21165 38911 40354 52018;EQDQ01  00002PRCP99
0122532760999992000022215004+42400+112900FM-12+115299999V0202501N002012200019N0300001N1-01411-01791103571ADDGA1001+999999999GF100991001001999999001001MD1210131+9999REMSYN054AAXX  22151 53276 42980 02502 11141 21179 40357 52013;
0196532760999992000022218004+42400+112900FM-12+115299999V0202501N003012200019N0300001N1-01511-01831103521ADDAA199000091GA1001+999999999GF100991001001999999001001KA1999M-00601MA1999999089231MD1710011+9999REMSYN070AAXX  22181 53276 32980 02503 11151 21183 38923 40352 57001 333 11060;EQDQ01  00002PRCP99
0122532760999992000022221004+42400+112900FM-12+115299999V0202501N005012200019N0300001N1-01671-02011103561ADDGA1001+999999999GF100991001001999999001001MD1710021+9999REMSYN054AAXX  22211 53276 42980 02505 11167 21201 40356 57002;
0183532760999992000022300004+42400+112900FM-12+115299999V0202501N004012200019N0300001N1-01831-02121103731ADDAA199000091GA1001+999999999GF100991001001999999001001MA1999999089211MD1410001+0031REMSYN070AAXX  23001 53276 32980 02504 11183 21212 38921 40373 54000 333 00352;EQDQ01  00002PRCP99
0112532760999992000022303004+42400+112900FM-12+115299999V0202901N009012200019N0300001N1-00841-01751103651ADDGF101991011001999999031001MD1210121+9999REMSYN060AAXX  23031 53276 42980 12909 11084 21175 40365 52012 81030;
0186532760999992000022306004+42400+112900FM-12+115299999V0203201N008012200019N0300001N1-00621-01701103551ADDAA199000091GF101991011011017501001001KA1999N-01881MA1999999089271MD1710061+9999REMSYN076AAXX  23061 53276 32780 13208 11062 21170 38927 40355 57006 81100 333 21188;EQDQ01  00002PRCP99
0122532760999992000022309004+42400+112900FM-12+115299999V0203201N005012200019N0300001N1-00591-01641103471ADDGA1001+999999999GF100991001001999999001001MD1710101+9999REMSYN054AAXX  23091 53276 42980 03205 11059 21164 40347 57010;
0163532760999992000022312004+42400+112900FM-12+115299999V0200901N002012200019N0300001N1-01231-01811103991ADDAA199000091GF101991001001999999001021MA1999999089411MD1210241+9999REMSYN066AAXX  23121 53276 32980 10902 11123 21181 38941 40399 52024 80002;EQDQ01  00002PRCP99
0112532760999992000022315004+42400+112900FM-12+115299999V0202701N002012200019N0300001N1-01571-02051103921ADDGF102991001001999999001021MD1210111+9999REMSYN060AAXX  23151 53276 42980 22702 11157 21205 40392 52011 80002;
0196532760999992000022318004+42400+112900FM-12+115299999V0202501N003012200019N0300001N1-01551-01961103901ADDAA199000091GA1001+999999999GF100991001001999999001001KA1999M-00551MA1999999089561MD1210041+9999REMSYN070AAXX  23181 53276 32980 02503 11155 21196 38956 40390 52004 333 11055;EQDQ01  00002PRCP99
0122532760999992000022321004+42400+112900FM-12+115299999V0202501N006012200019N0300001N1-01721-02091103901ADDGA1001+999999999GF100991001001999999001001MD1710031+9999REMSYN054AAXX  23211 53276 42980 02506 11172 21209 40390 57003;
0173532760999992000022400004+42400+112900FM-12+115299999V0202501N006019999999N0300001N1-01561-01971104071ADDAA199000091GF106991011001999999031021MA1999999089551MD1210021+0031REMSYN076AAXX  24001 53276 32980 62506 11156 21197 38955 40407 52002 81032 333 00303;EQDQ01  00002PRCP99
0112532760999992000022403004+42400+112900FM-12+115299999V0202501N005019999999N0300001N1-00861-02031104001ADDGF107991001001999999001021MD1210031+9999REMSYN060AAXX  24031 53276 42980 72505 11086 21203 40400 52003 80002;
0186532760999992000022406004+42400+112900FM-12+115299999V0202901N005019999999N0300001N1-00511-02221103601ADDAA199000091GF107991001001999999001021KA1999N-01791MA1999999089331MD1710251+9999REMSYN076AAXX  24061 53276 32980 72905 11051 21222 38933 40360 57025 80002 333 21179;EQDQ01  00002PRCP99
0112532760999992000022409004+42400+112900FM-12+115299999V0202901N004010900019N0300001N1-00551-01941103511ADDGF107991011051012501001021MD1710131+9999REMSYN060AAXX  24091 53276 42680 72904 11055 21194 40351 57013 81502;
0163532760999992000022412004+42400+112900FM-12+115299999V0202501N003019999999N0300001N1-00941-01851103521ADDAA199000091GF107991011001999999031021MA1999999089151MD1710051+9999REMSYN066AAXX  24121 53276 32980 72503 11094 21185 38915 40352 57005 81032;EQDQ01  00002PRCP99
0112532760999992000022415004+42400+112900FM-12+115299999V0202501N005010900019N0300001N1-00791-01801103231ADDGF108991011051012501001071MD1710041+9999REMSYN060AAXX  24151 53276 42680 82505 11079 21180 40323 57004 81507;
0193532760999992000022418004+42400+112900FM-12+115299999V0202701N008019999999N0150001N1-00891-01131102951ADDAA106000191AY171061GF108991081001999999011999KA1999M-00381MA1999999088931MD1710181+9999MW1701REMSYN088AAXX  24181 53276 11965 82708 11089 21113 38893 40295 57018 69911 77070 8801/ 333 11038;
0153532760999992000022421004+42400+112900FM-12+115299999V0202701N008019999999N0300001N1-00971-01281102751ADDAA124000191AY171031GF107991071001999999011999MD1710201+9999MW1001REMSYN076AAXX  24211 53276 41980 72708 11097 21128 40275 57020 70070 8701/ 333 70001;
0186532760999992000022500004+42400+112900FM-12+115299999V0202501N009019999999N0200001N1-01021-01231102841ADDAA106000791AY171061GF108991081001999999011999MA1999999088701MD1710031-0901MW1701REMSYN094AAXX  25001 53276 11970 82509 11102 21123 38870 40284 57003 69901 77070 8801/ 333 05905 70001;
0112532760999992000022503004+42400+112900FM-12+115299999V0202901N012019999999N0300001N1-00791-01251102711ADDGF106991001001999999001021MD1710021+9999REMSYN060AAXX  25031 53276 42980 62912 11079 21125 40271 57002 80002;
0190532760999992000022506004+42400+112900FM-12+115299999V0202701N010012200019N0300001N1-00531-01281102551ADDAA199000021GF101991001001999999001021KA1240N-01051MA1999999088581MD1710101+9999OA130601701REMSYN088AAXX  25061 53276 32980 12710 11053 21128 38858 40255 57010 80002 333 21105 91117 91527;
0112532760999992000022509004+42400+112900FM-12+115299999V0203201N010012200019N0300001N1-00511-01251102551ADDGF101991001001999999001021MD1710011+9999REMSYN060AAXX  25091 53276 42980 13210 11051 21125 40255 57001 80002;
0171532760999992000022512004+42400+112900FM-12+115299999V0202701N005012200019N0300001N1-01011-01471102901ADDAA199000021GF102991011051012501001021MA1999999088741MD1210171+9999OA130601801REMSYN082AAXX  25121 53276 32680 22705 11101 21147 38874 40290 52017 81502 333 91118 91529;
0112532760999992000022515004+42400+112900FM-12+115299999V0202501N005012200019N0300001N1-01271-01721102921ADDGF101991001001999999001021MD1210011+9999REMSYN060AAXX  25151 53276 42980 12505 11127 21172 40292 52001 80002;
0186532760999992000022518004+42400+112900FM-12+115299999V0202701N007012200019N0300001N1-01311-01761102861ADDAA199000091GF101991001001999999001021KA1999M-00421MA1999999088751MD1410001+9999REMSYN076AAXX  25181 53276 32980 12707 11131 21176 38875 40286 54000 80002 333 11042;EQDQ01  00002PRCP99
0143532760999992000022521004+42400+112900FM-12+115299999V0202501N005012200019N0300001N1-01441-01871102871ADDAA124000791GA1001+999999999GF100991001001999999001001MD1710021+9999REMSYN064AAXX  25211 53276 42980 02505 11144 21187 40287 57002 333 79999;
0143532760999992000022600004+42400+112900FM-12+115299999V0202501N006012200019N0300001N1-01381+99999999999ADDAA199000091GF101991999999999999999999REMSYN075AAXX  26001 53276 32980 12506 11138 1183 38875 40302 52002 80002 333 00154;EQDQ01  00002PRCP99
0112532760999992000022603004+42400+112900FM-12+115299999V0202701N007012200019N0300001N1-00611-01671102831ADDGF101991001001999999001021MD1710041+9999REMSYN060AAXX  26031 53276 42980 12707 11061 21167 40283 57004 80002;
0196532760999992000022606004+42400+112900FM-12+115299999V0202701N007012200019N0300001N1-00231-01571102601ADDAA199000091GA1001+999999999GF100991001001999999001001KA1999N-01541MA1999999088601MD1710111+9999REMSYN070AAXX  26061 53276 32980 02707 11023 21157 38860 40260 57011 333 21154;EQDQ01  00002PRCP99
0112532760999992000022609004+42400+112900FM-12+115299999V0202901N007012200019N0300001N1-00101-01291102451ADDGF101991011011017501001001MD1710131+9999REMSYN060AAXX  26091 53276 42780 12907 11010 21129 40245 57013 81100;
0173532760999992000022612004+42400+112900FM-12+115299999V0203401N005012200019N0300001N1-00651-01421102701ADDAA199000091GA1001+999999999GF100991001001999999001001MA1999999088561MD1210091+9999REMSYN060AAXX  26121 53276 32980 03405 11065 21142 38856 40270 52009;EQDQ01  00002PRCP99
0122532760999992000022615004+42400+112900FM-12+115299999V0202501N005012200019N0300001N1-01171-01661102791ADDGA1001+999999999GF100991001001999999001001MD1210141+9999REMSYN054AAXX  26151 53276 42980 02505 11117 21166 40279 52014;
0196532760999992000022618004+42400+112900FM-12+115299999V0202501N006012200019N0300001N1-01141-01731102661ADDAA199000091GA1001+999999999GF100991001001999999001001KA1999M-00071MA1999999088691MD1710011+9999REMSYN070AAXX  26181 53276 32980 02506 11114 21173 38869 40266 57001 333 11007;EQDQ01  00002PRCP99
0122532760999992000022621004+42400+112900FM-12+115299999V0202501N006012200019N0300001N1-01341-01881102731ADDGA1001+999999999GF100991001001999999001001MD1210041+9999REMSYN054AAXX  26211 53276 42980 02506 11134 21188 40273 52004;
0183532760999992000022700004+42400+112900FM-12+115299999V0202701N005012200019N0300001N1-01271-01841103051ADDAA199000091GA1001+999999999GF100991001001999999001001MA1999999088891MD1210161+0011REMSYN070AAXX  27001 53276 32980 02705 11127 21184 38889 40305 52016 333 00101;EQDQ01  00002PRCP99
0122532760999992000022703004+42400+112900FM-12+115299999V0203401N004012200019N0300001N1-00561-01581103141ADDGA1001+999999999GF100991001001999999001001MD1210131+9999REMSYN054AAXX  27031 53276 42980 03404 11056 21158 40314 52013;
0196532760999992000022706004+42400+112900FM-12+115299999V0203401N004012200019N0300001N1-00351-01871103081ADDAA199000091GA1001+999999999GF100991001001999999001001KA1999N-01381MA1999999089021MD1410001+9999REMSYN070AAXX  27061 53276 32980 03404 11035 21187 38902 40308 54000 333 21138;EQDQ01  00002PRCP99
0122532760999992000022709004+42400+112900FM-12+115299999V0203601N004012200019N0300001N1-00431-01661103221ADDGA1001+999999999GF100991001001999999001001MD1210061+9999REMSYN054AAXX  27091 53276 42980 03604 11043 21166 40322 52006;
0173532760999992000022712004+42400+112900FM-12+115299999V0209999C000012200019N0300001N1-00861-01641103511ADDAA199000091GA1001+999999999GF100991001001999999001001MA1999999089241MD1210161+9999REMSYN060AAXX  27121 53276 32980 00000 11086 21164 38924 40351 52016;EQDQ01  00002PRCP99
0122532760999992000022715004+42400+112900FM-12+115299999V0202501N001012200019N0300001N1-01171-01781103601ADDGA1001+999999999GF100991001001999999001001MD1210171+9999REMSYN054AAXX  27151 53276 42980 02501 11117 21178 40360 52017;
0196532760999992000022718004+42400+112900FM-12+115299999V0202001N003012200019N0300001N1-01311-01841103621ADDAA199000091GA1001+999999999GF100991001001999999001001KA1999M-00331MA1999999089451MD1210041+9999REMSYN070AAXX  27181 53276 32980 02003 11131 21184 38945 40362 52004 333 11033;EQDQ01  00002PRCP99
0122532760999992000022721004+42400+112900FM-12+115299999V0202501N002012200019N0300001N1-01511-02011103671ADDGA1001+999999999GF100991001001999999001001MD1710031+9999REMSYN054AAXX  27211 53276 42980 02502 11151 21201 40367 57003;
0183532760999992000022800004+42400+112900FM-12+115299999V0201801N004012200019N0300001N1-01331-01881103841ADDAA199000091GA1001+999999999GF100991001001999999001001MA1999999089511MD1210091+0061REMSYN070AAXX  28001 53276 32980 01804 11133 21188 38951 40384 52009 333 00651;EQDQ01  00002PRCP99
0122532760999992000022803004+42400+112900FM-12+115299999V0202201N005012200019N0300001N1-00291-01651103661ADDGA1001+999999999GF100991001001999999001001MD1210021+9999REMSYN054AAXX  28031 53276 42980 02205 11029 21165 40366 52002;
0196532760999992000022806004+42400+112900FM-12+115299999V0202201N002012200019N0300001N1+00181-02121103381ADDAA199000091GA1001+999999999GF100991001001999999001001KA1999N-01621MA1999999089371MD1710161+9999REMSYN070AAXX  28061 53276 32980 02202 10018 21212 38937 40338 57016 333 21162;EQDQ01  00002PRCP99
0122532760999992000022809004+42400+112900FM-12+115299999V0200201N004012200019N0300001N1-00041-01711103431ADDGA1001+999999999GF100991001001999999001001MD1710061+9999REMSYN054AAXX  28091 53276 42980 00204 11004 21171 40343 57006;
0173532760999992000022812004+42400+112900FM-12+115299999V0209999C000012200019N0300001N1-00511-01311103551ADDAA199000091GA1001+999999999GF100991001001999999001001MA1999999089341MD1210031+9999REMSYN060AAXX  28121 53276 32980 00000 11051 21131 38934 40355 52003;EQDQ01  00002PRCP99
0122532760999992000022815004+42400+112900FM-12+115299999V0202201N004012200019N0300001N1-00741-01391103331ADDGA1001+999999999GF100991001001999999001001MD1210011+9999REMSYN054AAXX  28151 53276 42980 02204 11074 21139 40333 52001;
0196532760999992000022818004+42400+112900FM-12+115299999V0202501N004012200019N0300001N1-00891-01631103131ADDAA199000091GA1001+999999999GF100991001001999999001001KA1999M+00291MA1999999089251MD1710101+9999REMSYN070AAXX  28181 53276 32980 02504 11089 21163 38925 40313 57010 333 10029;EQDQ01  00002PRCP99
0122532760999992000022821004+42400+112900FM-12+115299999V0202501N004012200019N0300001N1-01071-01751103091ADDGA1001+999999999GF100991001001999999001001MD1710131+9999REMSYN054AAXX  28211 53276 42980 02504 11107 21175 40309 57013;
0183532760999992000022900004+42400+112900FM-12+115299999V0201601N004012200019N0300001N1-00851-01841103161ADDAA199000091GA1001+999999999GF100991001001999999001001MA1999999089121MD1410001+0041REMSYN070AAXX  29001 53276 32980 01604 11085 21184 38912 40316 54000 333 05405;EQDQ01  00002PRCP99
0122532760999992000022903004+42400+112900FM-12+115299999V0202201N005012200019N0300001N1+00041-01571102901ADDGA1001+999999999GF100991001001999999001001MD1710061+9999REMSYN054AAXX  29031 53276 42980 02205 10004 21157 40290 57006;
0196532760999992000022906004+42400+112900FM-12+115299999V0202501N004012200019N0300001N1+00471-01851102601ADDAA199000091GA1001+999999999GF100991001001999999001001KA1999N-01081MA1999999088861MD1710201+9999REMSYN070AAXX  29061 53276 32980 02504 10047 21185 38886 40260 57020 333 21108;EQDQ01  00002PRCP99
0122532760999992000022909004+42400+112900FM-12+115299999V0202901N004012200019N0300001N1+00491-01971102521ADDGA1001+999999999GF100991001001999999001001MD1710101+9999REMSYN054AAXX  29091 53276 42980 02904 10049 21197 40252 57010;
0173532760999992000022912004+42400+112900FM-12+115299999V0201801N003012200019N0300001N1-00211-01671102671ADDAA199000091GA1001+999999999GF100991001001999999001001MA1999999088771MD1210011+9999REMSYN060AAXX  29121 53276 32980 01803 11021 21167 38877 40267 52001;EQDQ01  00002PRCP99
0122532760999992000022915004+42400+112900FM-12+115299999V0202001N005012200019N0300001N1-00451-01381102501ADDGA1001+999999999GF100991001001999999001001MD1210011+9999REMSYN054AAXX  29151 53276 42980 02005 11045 21138 40250 52001;
0196532760999992000022918004+42400+112900FM-12+115299999V0202001N008012200019N0300001N1-00211-01341102231ADDAA199000091GA1001+999999999GF100991001001999999001001KA1999M+00601MA1999999088701MD1710081+9999REMSYN070AAXX  29181 53276 32980 02008 11021 21134 38870 40223 57008 333 10060;EQDQ01  00002PRCP99
0122532760999992000022921004+42400+112900FM-12+115299999V0202201N008012200019N0300001N1-00331-01581102131ADDGA1001+999999999GF100991001001999999001001MD1710111+9999REMSYN054AAXX  29211 53276 42980 02208 11033 21158 40213 57011;
0183532760999992000030100004+42400+112900FM-12+115299999V0202501N005012200019N0300001N1-00601-01401102471ADDAA199000091GA1001+999999999GF100991001001999999001001MA1999999088661MD1210071+0051REMSYN070AAXX  01001 53276 32980 02505 11060 21140 38866 40247 52007 333 05503;EQDQ01  00002PRCP99
0122532760999992000030103004+42400+112900FM-12+115299999V0202501N007012200019N0300001N1+00431-00911102301ADDGA1001+999999999GF100991001001999999001001MD1210041+9999REMSYN054AAXX  01031 53276 42980 02507 10043 21091 40230 52004;
0196532760999992000030106004+42400+112900FM-12+115299999V0202701N008012200019N0300001N1+00711-01921102011ADDAA199000091GA1001+999999999GF100991001001999999001001KA1999N-00771MA1999999088561MD1710141+9999REMSYN070AAXX  01061 53276 32980 02708 10071 21192 38856 40201 57014 333 21077;EQDQ01  00002PRCP99
0122532760999992000030109004+42400+112900FM-12+115299999V0203201N002012200019N0300001N1+00671-01461101961ADDGA1001+999999999GF100991001001999999001001MD1710081+9999REMSYN054AAXX  01091 53276 42980 03202 10067 21146 40196 57008;
0173532760999992000030112004+42400+112900FM-12+115299999V0201801N004012200019N0300001N1-00231-01211102221ADDAA199000091GA1001+999999999GF100991001001999999001001MA1999999088441MD1710041+9999REMSYN060AAXX  01121 53276 32980 01804 11023 21121 38844 40222 57004;EQDQ01  00002PRCP99
0196532760999992000030118004+42400+112900FM-12+115299999V0202201N007012200019N0300001N1-00351-01631101951ADDAA199000091GA1001+999999999GF100991001001999999001001KA1999M+00771MA1999999088481MD1710071+9999REMSYN070AAXX  01181 53276 32980 02207 11035 21163 38848 40195 57007 333 10077;EQDQ01  00002PRCP99
0112532760999992000030121004+42400+112900FM-12+115299999V0202201N007012200019N0300001N1-00341-01671101891ADDGF101991001001999999001021MD1710061+9999REMSYN060AAXX  01211 53276 42980 12207 11034 21167 40189 57006 80002;
0183532760999992000030200004+42400+112900FM-12+115299999V0202001N005012200019N0300001N1-00531-01801102201ADDAA199000091GA1001+999999999GF100991001001999999001001MA1999999088441MD1210021+0021REMSYN070AAXX  02001 53276 32980 02005 11053 21180 38844 40220 52002 333 05201;EQDQ01  00002PRCP99
0112532760999992000030203004+42400+112900FM-12+115299999V0202501N010012200019N0300001N1+00431-01301101891ADDGF101991001001999999001021MD1710031+9999REMSYN060AAXX  02031 53276 42980 12510 10043 21130 40189 57003 80002;
0209532760999992000030206004+42400+112900FM-12+115299999V0202701N011019999999N0200001N1+00571-01751101611ADDAA199000091GF107991001001999999001021KA1240N-00651MA1999999088151MD1710261+9999OA130601801REMSYN088AAXX  02061 53276 32970 72711 10057 21175 38815 40161 57026 80002 333 21065 91118 91525;EQDQ01  00002PRCP99
0124532760999992000030209004+42400+112900FM-12+115299999V0202901N015019999999N0070001N1+00391-01731101641ADDGF107991001001999999001021MD1710011+9999MW1071REMSYN066AAXX  02091 53276 41957 72915 10039 21173 40164 57001 70700 80002;
0190532760999992000030212004+42400+112900FM-12+115299999V0202501N008012200019N0120001N1-00041-01951102131ADDAA199000091GF102991011051017501001021MA1999999088421MD1210281+9999OA130601901REMSYN082AAXX  02121 53276 32762 22508 11004 21195 38842 40213 52028 81502 333 91119 91529;EQDQ01  00002PRCP99
0122532760999992000030215004+42400+112900FM-12+115299999V0202501N005012200019N0150001N1-00371-02091102101ADDGA1001+999999999GF100991001001999999001001MD1210121+9999REMSYN054AAXX  02151 53276 42965 02505 11037 21209 40210 52012;
0196532760999992000030218004+42400+112900FM-12+115299999V0202501N009012200019N0200001N1-00451-01941102051ADDAA199000091GA1001+999999999GF100991001001999999001001KA1999M+00671MA1999999088511MD1710031+9999REMSYN070AAXX  02181 53276 32970 02509 11045 21194 38851 40205 57003 333 10067;EQDQ01  00002PRCP99
0122532760999992000030221004+42400+112900FM-12+115299999V0202501N007012200019N0200001N1-00561-01861102021ADDGA1001+999999999GF100991001001999999001001MD1710091+9999REMSYN054AAXX  02211 53276 42970 02507 11056 21186 40202 57009;
0183532760999992000030300004+42400+112900FM-12+115299999V0202501N006012200019N0250001N1-00661-02101102241ADDAA199000091GA1001+999999999GF100991001001999999001001MA1999999088491MD1210071+0011REMSYN070AAXX  03001 53276 32975 02506 11066 21210 38849 40224 52007 333 00151;EQDQ01  00002PRCP99
0122532760999992000030303004+42400+112900FM-12+115299999V0202501N009012200019N0250001N1+00011-01641102211ADDGA1001+999999999GF100991001001999999001001MD1210051+9999REMSYN054AAXX  03031 53276 42975 02509 10001 21164 40221 52005;
0186532760999992000030306004+42400+112900FM-12+115299999V0203201N008012200019N0300001N1+00311-02001102071ADDAA199000091GF101991001001999999001021KA1999N-00721MA1999999088471MD1710071+9999REMSYN076AAXX  03061 53276 32980 13208 10031 21200 38847 40207 57007 80002 333 21072;EQDQ01  00002PRCP99
0112532760999992000030309004+42400+112900FM-12+115299999V0203201N008012200019N0300001N1+00181-01561102251ADDGF102991001001999999001021MD1210101+9999REMSYN060AAXX  03091 53276 42980 23208 10018 21156 40225 52010 80002;
0163532760999992000030312004+42400+112900FM-12+115299999V0203401N003012200019N0300001N1-00401-01601102691ADDAA199000091GF101991011001999999031021MA1999999088791MD1210221+9999REMSYN066AAXX  03121 53276 32980 13403 11040 21160 38879 40269 52022 81032;EQDQ01  00002PRCP99
0122532760999992000030315004+42400+112900FM-12+115299999V0202901N003012200019N0300001N1-00671-01721102891ADDGA1001+999999999GF100991001001999999001001MD1210271+9999REMSYN054AAXX  03151 53276 42980 02903 11067 21172 40289 52027;
0196532760999992000030318004+42400+112900FM-12+115299999V0203201N006012200019N0300001N1-00791-01961102991ADDAA199000091GA1001+999999999GF100991001001999999001001KA1999M+00361MA1999999089191MD1210131+9999REMSYN070AAXX  03181 53276 32980 03206 11079 21196 38919 40299 52013 333 10036;EQDQ01  00002PRCP99
0122532760999992000030321004+42400+112900FM-12+115299999V0202501N004012200019N0300001N1-01111-01971103101ADDGA1001+999999999GF100991001001999999001001MD1710011+9999REMSYN054AAXX  03211 53276 42980 02504 11111 21197 40310 57001;
0183532760999992000030400004+42400+112900FM-12+115299999V0202501N003012200019N0300001N1-01201-01911103411ADDAA199000091GA1001+999999999GF100991001001999999001001MA1999999089281MD1210101+0081REMSYN070AAXX  04001 53276 32980 02503 11120 21191 38928 40341 52010 333 00855;EQDQ01  00002PRCP99
0122532760999992000030403004+42400+112900FM-12+115299999V0202501N004012200019N0300001N1-00441-01691103201ADDGA1001+999999999GF100991001001999999001001MD1710061+9999REMSYN054AAXX  04031 53276 42980 02504 11044 21169 40320 57006;
0186532760999992000030406004+42400+112900FM-12+115299999V0202901N005012200019N0300001N1-00031-01931102821ADDAA199000091GF101991001001999999001021KA1999N-01261MA1999999088961MD1710261+9999REMSYN076AAXX  04061 53276 32980 12905 11003 21193 38896 40282 57026 80002 333 21126;EQDQ01  00002PRCP99
0112532760999992000030409004+42400+112900FM-12+115299999V0202901N006012200019N0300001N1+00061-02241102681ADDGF101991001001999999001021MD1710181+9999REMSYN060AAXX  04091 53276 42980 12906 10006 21224 40268 57018 80002;
0122532760999992000030415004+42400+112900FM-12+115299999V0202201N006012200019N0300001N1-00581-02191102491ADDGA1001+999999999GF100991001001999999001001MD1710101+9999REMSYN054AAXX  04151 53276 42980 02206 11058 21219 40249 57010;
0186532760999992000030418004+42400+112900FM-12+115299999V0202201N007012200019N0300001N1-00671-02331102161ADDAA199000091GF101991001001999999001021KA1999M+00101MA1999999088421MD1710211+9999REMSYN076AAXX  04181 53276 32980 12207 11067 21233 38842 40216 57021 80002 333 10010;EQDQ01  00002PRCP99
0112532760999992000030421004+42400+112900FM-12+115299999V0202501N007012200019N0300001N1-00671-02221101841ADDGF101991001001999999001021MD1710261+9999REMSYN060AAXX  04211 53276 42980 12507 11067 21222 40184 57026 80002;
0173532760999992000030500004+42400+112900FM-12+115299999V0202501N009012200019N0300001N1-00571-02251101871ADDAA199000091GF101991011001999999031021MA1999999088061MD1710101+0121REMSYN076AAXX  05001 53276 32980 12509 11057 21225 38806 40187 57010 81032 333 06206;EQDQ01  00002PRCP99
0112532760999992000030503004+42400+112900FM-12+115299999V0202901N012012200019N0300001N1-00251-01931101851ADDGF102991001001999999001021MD1210061+9999REMSYN060AAXX  05031 53276 42980 22912 11025 21193 40185 52006 80002;
0209532760999992000030506004+42400+112900FM-12+115299999V0203401N008012200019N0300001N1-00131-01941101951ADDAA199000091GF102991011011017501001021KA1240N-00891MA1999999088211MD1210091+9999OA130601801REMSYN088AAXX  05061 53276 32780 23408 11013 21194 38821 40195 52009 81102 333 21089 91118 91532;EQDQ01  00002PRCP99
0112532760999992000030509004+42400+112900FM-12+115299999V0203601N008010150019N0300001N1-00291-01871102121ADDGF106991061051017501001021MD1210111+9999REMSYN060AAXX  05091 53276 42780 63608 11029 21187 40212 52011 86502;
0163532760999992000030512004+42400+112900FM-12+115299999V0203201N007012200019N0300001N1-00571-02161102341ADDAA199000091GF101991001001999999001021MA1999999088471MD1210151+9999REMSYN066AAXX  05121 53276 32980 13207 11057 21216 38847 40234 52015 80002;EQDQ01  00002PRCP99
0122532760999992000030515004+42400+112900FM-12+115299999V0200401N006012200019N0300001N1-01171-02541102701ADDGA1001+999999999GF100991001001999999001001MD1210241+9999REMSYN054AAXX  05151 53276 42980 00406 11117 21254 40270 52024;
0196532760999992000030518004+42400+112900FM-12+115299999V0209999C000012200019N0300001N1-01481-02621102901ADDAA199000091GA1001+999999999GF100991001001999999001001KA1999M-00011MA1999999088841MD1210131+9999REMSYN070AAXX  05181 53276 32980 00000 11148 21262 38884 40290 52013 333 11001;EQDQ01  00002PRCP99
0122532760999992000030521004+42400+112900FM-12+115299999V0202501N004012200019N0300001N1-01621-02601102921ADDGA1001+999999999GF100991001001999999001001MD1710061+9999REMSYN054AAXX  05211 53276 42980 02504 11162 21260 40292 57006;
0112532760999992000030603004+42400+112900FM-12+115299999V0203201N005019999999N0300001N1-00731-02191103171ADDGF107991001001999999001021MD1210101+9999REMSYN060AAXX  06031 53276 42980 73205 11073 21219 40317 52010 80002;
0186532760999992000030606004+42400+112900FM-12+115299999V0203401N005012200019N0300001N1-00421-02641103021ADDAA199000091GF102991001001999999001021KA1999N-01711MA1999999088871MD1710131+9999REMSYN076AAXX  06061 53276 32980 23405 11042 21264 38887 40302 57013 80002 333 21171;EQDQ01  00002PRCP99
0112532760999992000030609004+42400+112900FM-12+115299999V0200701N006019999999N0300001N1-00471-02421102891ADDGF107991001001999999001081MD1710161+9999REMSYN060AAXX  06091 53276 42980 70706 11047 21242 40289 57016 80008;
0163532760999992000030612004+42400+112900FM-12+115299999V0200701N006019999999N0300001N1-00781-02111103091ADDAA199000091GF107991001001999999001021MA1999999088821MD1210111+9999REMSYN066AAXX  06121 53276 32980 70706 11078 21211 38882 40309 52011 80002;EQDQ01  00002PRCP99
0112532760999992000030615004+42400+112900FM-12+115299999V0200401N006019999999N0300001N1-01071-02251103281ADDGF106991001001999999001021MD1210301+9999REMSYN060AAXX  06151 53276 42980 60406 11107 21225 40328 52030 80002;
0186532760999992000030618004+42400+112900FM-12+115299999V0203401N002012200019N0300001N1-01381-02321103431ADDAA199000091GF101991001001999999001021KA1999M-00381MA1999999089251MD1210131+9999REMSYN076AAXX  06181 53276 32980 13402 11138 21232 38925 40343 52013 80002 333 11038;EQDQ01  00002PRCP99
0122532760999992000030621004+42400+112900FM-12+115299999V0202501N004012200019N0300001N1-01591-02421103541ADDGA1001+999999999GF100991001001999999001001MD1210031+9999REMSYN054AAXX  06211 53276 42980 02504 11159 21242 40354 52003;
0183532760999992000030700004+42400+112900FM-12+115299999V0202501N006012200019N0300001N1-01561-02271103601ADDAA199000091GA1001+999999999GF100991001001999999001001MA1999999089261MD1710021+0041REMSYN070AAXX  07001 53276 32980 02506 11156 21227 38926 40360 57002 333 00400;EQDQ01  00002PRCP99
0112532760999992000030703004+42400+112900FM-12+115299999V0202901N009012200019N0300001N1-00711-02241103381ADDGF101991001001999999001021MD1710051+9999REMSYN060AAXX  07031 53276 42980 12909 11071 21224 40338 57005 80002;
0196532760999992000030706004+42400+112900FM-12+115299999V0202901N011012200019N0300001N1-00361-01891103111ADDAA199000091GA1001+999999999GF100991001001999999001001KA1999N-01671MA1999999088991MD1710221+9999REMSYN070AAXX  07061 53276 32980 02911 11036 21189 38899 40311 57022 333 21167;EQDQ01  00002PRCP99
0122532760999992000030709004+42400+112900FM-12+115299999V0202901N010012200019N0300001N1-00311-01931103031ADDGA1001+999999999GF100991001001999999001001MD1710111+9999REMSYN054AAXX  07091 53276 42980 02910 11031 21193 40303 57011;
0200532760999992000030712004+42400+112900FM-12+115299999V0202901N006012200019N0300001N1-00591-01941103151ADDAA199000091GA1001+999999999GF100991001001999999001001MA1999999088921MD1210041+9999OA130601701REMSYN076AAXX  07121 53276 32980 02906 11059 21194 38892 40315 52004 333 91117 91532;EQDQ01  00002PRCP99
0122532760999992000030715004+42400+112900FM-12+115299999V0202901N008012200019N0300001N1-00691-01911102911ADDGA1001+999999999GF100991001001999999001001MD1710021+9999REMSYN054AAXX  07151 53276 42980 02908 11069 21191 40291 57002;
0196532760999992000030718004+42400+112900FM-12+115299999V0202501N006012200019N0300001N1-01011-02131102901ADDAA199000091GA1001+999999999GF100991001001999999001001KA1999M-00271MA1999999088901MD1410001+9999REMSYN070AAXX  07181 53276 32980 02506 11101 21213 38890 40290 54000 333 11027;EQDQ01  00002PRCP99
0122532760999992000030721004+42400+112900FM-12+115299999V0202501N006012200019N0300001N1-01121-02171102891ADDGA1001+999999999GF100991001001999999001001MD1710031+9999REMSYN054AAXX  07211 53276 42980 02506 11112 21217 40289 57003;
0183532760999992000030800004+42400+112900FM-12+115299999V0202501N006012200019N0300001N1-01111-02131103091ADDAA199000091GA1001+999999999GF100991001001999999001001MA1999999088981MD1210111+0031REMSYN070AAXX  08001 53276 32980 02506 11111 21213 38898 40309 52011 333 05305;EQDQ01  00002PRCP99
0122532760999992000030803004+42400+112900FM-12+115299999V0203201N005012200019N0300001N1-00441-01931103111ADDGA1001+999999999GF100991001001999999001001MD1210161+9999REMSYN054AAXX  08031 53276 42980 03205 11044 21193 40311 52016;
0196532760999992000030806004+42400+112900FM-12+115299999V0203201N005012200019N0300001N1-00141-02001103031ADDAA199000091GA1001+999999999GF100991001001999999001001KA1999N-01171MA1999999089061MD1710081+9999REMSYN070AAXX  08061 53276 32980 03205 11014 21200 38906 40303 57008 333 21117;EQDQ01  00002PRCP99
0107532760999992000030809004+42400+112900FM-12+115299999V0203401N005012200019N0300001N1-00131-01791102951ADDGA1001+999999999GF100991001001999999001001REMSYN053AAXX  08091 53276 42980 03405 11013 21179 40295 5709;
0173532760999992000030812004+42400+112900FM-12+115299999V0200701N003012200019N0300001N1-00501-01821103091ADDAA199000091GA1001+999999999GF100991001001999999001001MA1999999089001MD1210031+9999REMSYN060AAXX  08121 53276 32980 00703 11050 21182 38900 40309 52003;EQDQ01  00002PRCP99
0122532760999992000030815004+42400+112900FM-12+115299999V0201801N004012200019N0300001N1-00881-01821103061ADDGA1001+999999999GF100991001001999999001001MD1210051+9999REMSYN054AAXX  08151 53276 42980 01804 11088 21182 40306 52005;
0196532760999992000030818004+42400+112900FM-12+115299999V0202501N001012200019N0300001N1-00961-01811103001ADDAA199000091GA1001+999999999GF100991001001999999001001KA1999M-00021MA1999999089051MD1410001+9999REMSYN070AAXX  08181 53276 32980 02501 11096 21181 38905 40300 54000 333 11002;EQDQ01  00002PRCP99
0122532760999992000030821004+42400+112900FM-12+115299999V0202501N006012200019N0300001N1-00871-01801102901ADDGA1001+999999999GF100991001001999999001001MD1710061+9999REMSYN054AAXX  08211 53276 42980 02506 11087 21180 40290 57006;
0183532760999992000030900004+42400+112900FM-12+115299999V0202501N007012200019N0300001N1-00921-01811103081ADDAA199000091GA1001+999999999GF100991001001999999001001MA1999999089041MD1210051+0011REMSYN070AAXX  09001 53276 32980 02507 11092 21181 38904 40308 52005 333 00102;EQDQ01  00002PRCP99
0122532760999992000030903004+42400+112900FM-12+115299999V0202501N004012200019N0300001N1+00011-01731102981ADDGA1001+999999999GF100991001001999999001001MD1210051+9999REMSYN054AAXX  09031 53276 42980 02504 10001 21173 40298 52005;
0186532760999992000030906004+42400+112900FM-12+115299999V0202901N004012200019N0300001N1+00291-02111102761ADDAA199000091GF101991001001999999001021KA1999N-01031MA1999999088941MD1710151+9999REMSYN076AAXX  09061 53276 32980 12904 10029 21211 38894 40276 57015 80002 333 21103;EQDQ01  00002PRCP99
0173532760999992000030912004+42400+112900FM-12+115299999V0209999C000012200019N0300001N1-00291-02061102921ADDAA199000091GA1001+999999999GF100991001001999999001001MA1999999088951MD1210041+9999REMSYN060AAXX  09121 53276 32980 00000 11029 21206 38895 40292 52004;EQDQ01  00002PRCP99
0122532760999992000030915004+42400+112900FM-12+115299999V0202001N005012200019N0300001N1-00651-01991102831ADDGA1001+999999999GF100991001001999999001001MD1210061+9999REMSYN054AAXX  09151 53276 42980 02005 11065 21199 40283 52006;
0196532760999992000030918004+42400+112900FM-12+115299999V0201601N003012200019N0300001N1-00821-02211102811ADDAA199000091GA1001+999999999GF100991001001999999001001KA1999M+00411MA1999999089021MD1210011+9999REMSYN070AAXX  09181 53276 32980 01603 11082 21221 38902 40281 52001 333 10041;EQDQ01  00002PRCP99
0122532760999992000030921004+42400+112900FM-12+115299999V0202201N003012200019N0300001N1-00791-02041102691ADDGA1001+999999999GF100991001001999999001001MD1710091+9999REMSYN054AAXX  09211 53276 42980 02203 11079 21204 40269 57009;
0173532760999992000031000004+42400+112900FM-12+115299999V0202501N002019999999N0300001N1-00951-02221102941ADDAA199000091GF107991001001999999001021MA1999999088961MD1210031+0011REMSYN076AAXX  10001 53276 32980 72502 11095 21222 38896 40294 52003 80002 333 05100;EQDQ01  00002PRCP99
0112532760999992000031003004+42400+112900FM-12+115299999V0202501N003012200019N0300001N1+00061-01931102731ADDGF103991001001999999001021MD1710021+9999REMSYN060AAXX  10031 53276 42980 32503 10006 21193 40273 57002 80002;
0186532760999992000031006004+42400+112900FM-12+115299999V0202901N004012200019N0300001N1+00331-02551102571ADDAA199000091GF101991001001999999001021KA1999N-01131MA1999999088821MD1710121+9999REMSYN076AAXX  10061 53276 32980 12904 10033 21255 38882 40257 57012 80002 333 21113;EQDQ01  00002PRCP99
0112532760999992000031009004+42400+112900FM-12+115299999V0203601N003012200019N0300001N1+00311-02351102391ADDGF101991001001999999001021MD1710151+9999REMSYN060AAXX  10091 53276 42980 13603 10031 21235 40239 57015 80002;
0163532760999992000031012004+42400+112900FM-12+115299999V0200401N002012200019N0300001N1-00301-01901102701ADDAA199000091GF101991001001999999001021MA1999999088751MD1210081+9999REMSYN066AAXX  10121 53276 32980 10402 11030 21190 38875 40270 52008 80002;EQDQ01  00002PRCP99
0122532760999992000031015004+42400+112900FM-12+115299999V0201601N004012200019N0300001N1-00691-01831102561ADDGA1001+999999999GF100991001001999999001001MD1210031+9999REMSYN054AAXX  10151 53276 42980 01604 11069 21183 40256 52003;
0196532760999992000031018004+42400+112900FM-12+115299999V0209999C000012200019N0300001N1-00821-01851102451ADDAA199000091GA1001+999999999GF100991001001999999001001KA1999M+00401MA1999999088721MD1710061+9999REMSYN070AAXX  10181 53276 32980 00000 11082 21185 38872 40245 57006 333 10040;EQDQ01  00002PRCP99
0122532760999992000031021004+42400+112900FM-12+115299999V0202001N004012200019N0300001N1-00821-01931102351ADDGA1001+999999999GF100991001001999999001001MD1710091+9999REMSYN054AAXX  10211 53276 42980 02004 11082 21193 40235 57009;
0183532760999992000031100004+42400+112900FM-12+115299999V0202001N004012200019N0300001N1-00731-01831102481ADDAA199000091GA1001+999999999GF100991001001999999001001MA1999999088621MD1710011+0031REMSYN070AAXX  11001 53276 32980 02004 11073 21183 38862 40248 57001 333 05302;EQDQ01  00002PRCP99
0122532760999992000031103004+42400+112900FM-12+115299999V0202201N002012200019N0300001N1+00151-02481102411ADDGA1001+999999999GF100991001001999999001001MD1210051+9999REMSYN054AAXX  11031 53276 42980 02202 10015 21248 40241 52005;
0196532760999992000031106004+42400+112900FM-12+115299999V0203201N004012200019N0300001N1+00371-02801102211ADDAA199000091GA1001+999999999GF100991001001999999001001KA1999N-01151MA1999999088521MD1710151+9999REMSYN070AAXX  11061 53276 32980 03204 10037 21280 38852 40221 57015 333 21115;EQDQ01  00002PRCP99
0122532760999992000031109004+42400+112900FM-12+115299999V0203401N003012200019N0300001N1+00381-02411102121ADDGA1001+999999999GF100991001001999999001001MD1710081+9999REMSYN054AAXX  11091 53276 42980 03403 10038 21241 40212 57008;
0173532760999992000031112004+42400+112900FM-12+115299999V0200701N002012200019N0300001N1-00101-02151102301ADDAA199000091GA1001+999999999GF100991001001999999001001MA1999999088511MD1210071+9999REMSYN060AAXX  11121 53276 32980 00702 11010 21215 38851 40230 52007;EQDQ01  00002PRCP99
0122532760999992000031115004+42400+112900FM-12+115299999V0202201N002012200019N0300001N1-00341-01681102221ADDGA1001+999999999GF100991001001999999001001MD1210081+9999REMSYN054AAXX  11151 53276 42980 02202 11034 21168 40222 52008;
0196532760999992000031118004+42400+112900FM-12+115299999V0202201N004012200019N0300001N1-00641-01801102191ADDAA199000091GA1001+999999999GF100991001001999999001001KA1999M+00511MA1999999088541MD1710051+9999REMSYN070AAXX  11181 53276 32980 02204 11064 21180 38854 40219 57005 333 10051;EQDQ01  00002PRCP99
0122532760999992000031121004+42400+112900FM-12+115299999V0202201N003012200019N0300001N1-00811-01831102111ADDGA1001+999999999GF100991001001999999001001MD1710101+9999REMSYN054AAXX  11211 53276 42980 02203 11081 21183 40211 57010;
0183532760999992000031200004+42400+112900FM-12+115299999V0202201N002012200019N0300001N1-00651-01741102221ADDAA199000091GA1001+999999999GF100991001001999999001001MA1999999088461MD1210021+0021REMSYN070AAXX  12001 53276 32980 02202 11065 21174 38846 40222 52002 333 05201;EQDQ01  00002PRCP99
0122532760999992000031203004+42400+112900FM-12+115299999V0202201N003012200019N0300001N1+00301-02161102061ADDGA1001+999999999GF100991001001999999001001MD1210021+9999REMSYN054AAXX  12031 53276 42980 02203 10030 21216 40206 52002;
0196532760999992000031206004+42400+112900FM-12+115299999V0201801N003012200019N0300001N1+00561-01281101921ADDAA199000091GA1001+999999999GF100991001001999999001001KA1999N-01041MA1999999088351MD1710131+9999REMSYN070AAXX  12061 53276 32980 01803 10056 21128 38835 40192 57013 333 21104;EQDQ01  00002PRCP99
0122532760999992000031209004+42400+112900FM-12+115299999V0209999C000012200019N0300001N1+00541-01611101921ADDGA1001+999999999GF100991001001999999001001MD1710041+9999REMSYN054AAXX  12091 53276 42980 00000 10054 21161 40192 57004;
0173532760999992000031212004+42400+112900FM-12+115299999V0200401N003012200019N0300001N1-00101-01781102191ADDAA199000091GA1001+999999999GF100991001001999999001001MA1999999088431MD1210121+9999REMSYN060AAXX  12121 53276 32980 00403 11010 21178 38843 40219 52012;EQDQ01  00002PRCP99
0122532760999992000031215004+42400+112900FM-12+115299999V0202001N003012200019N0300001N1-00391-01641102141ADDGA1001+999999999GF100991001001999999001001MD1210111+9999REMSYN054AAXX  12151 53276 42980 02003 11039 21164 40214 52011;
0196532760999992000031218004+42400+112900FM-12+115299999V0202001N002012200019N0300001N1-00641-01731102171ADDAA199000091GA1001+999999999GF100991001001999999001001KA1999M+00671MA1999999088571MD1210031+9999REMSYN070AAXX  12181 53276 32980 02002 11064 21173 38857 40217 52003 333 10067;EQDQ01  00002PRCP99
0122532760999992000031221004+42400+112900FM-12+115299999V0202201N002012200019N0300001N1-00771-01831102221ADDGA1001+999999999GF100991001001999999001001MD1210011+9999REMSYN054AAXX  12211 53276 42980 02202 11077 21183 40222 52001;
0183532760999992000031300004+42400+112900FM-12+115299999V0202001N002012200019N0300001N1-00771-01761102571ADDAA199000091GA1001+999999999GF100991001001999999001001MA1999999088731MD1210151+0031REMSYN070AAXX  13001 53276 32980 02002 11077 21176 38873 40257 52015 333 00351;EQDQ01  00002PRCP99
0122532760999992000031303004+42400+112900FM-12+115299999V0200901N002012200019N0300001N1+00271-01401102461ADDGA1001+999999999GF100991001001999999001001MD1210081+9999REMSYN054AAXX  13031 53276 42980 00902 10027 21140 40246 52008;
0186532760999992000031306004+42400+112900FM-12+115299999V0202201N002012200019N0300001N1+00561-01901102291ADDAA199000091GF102991001001999999001021KA1999N-01051MA1999999088671MD1710141+9999REMSYN076AAXX  13061 53276 32980 22202 10056 21190 38867 40229 57014 80002 333 21105;EQDQ01  00002PRCP99
0112532760999992000031309004+42400+112900FM-12+115299999V0201401N003012200019N0300001N1+00611-01641102241ADDGF102991001001999999001021MD1710061+9999REMSYN060AAXX  13091 53276 42980 21403 10061 21164 40224 57006 80002;
0163532760999992000031312004+42400+112900FM-12+115299999V0201401N003012200019N0300001N1-00011-02071102391ADDAA199000091GF101991001001999999001021MA1999999088601MD1710011+9999REMSYN066AAXX  13121 53276 32980 11403 11001 21207 38860 40239 57001 80002;EQDQ01  00002PRCP99
0112532760999992000031315004+42400+112900FM-12+115299999V0202001N007019999999N0300001N1-00141-01731102151ADDGF106991001001999999001021MD1410001+9999REMSYN060AAXX  13151 53276 42980 62007 11014 21173 40215 54000 80002;
0186532760999992000031318004+42400+112900FM-12+115299999V0202001N008012200019N0300001N1-00111-01891101891ADDAA199000091GF102991001001999999001021KA1999M+00691MA1999999088451MD1710151+9999REMSYN076AAXX  13181 53276 32980 22008 11011 21189 38845 40189 57015 80002 333 10069;EQDQ01  00002PRCP99
0112532760999992000031321004+42400+112900FM-12+115299999V0202001N008019999999N0300001N1+00181-01881101581ADDGF107991001001999999001021MD1710201+9999REMSYN060AAXX  13211 53276 42980 72008 10018 21188 40158 57020 80002;
0191532760999992000031400004+42400+112900FM-12+115299999V0202501N008010360019N0300001N1+00291-01701101751ADDAA199000091GF107991021051012501031021IA2999-00409MA1999999088291MD1210041-0401REMSYN082AAXX  14001 53276 32680 72508 10029 21170 38829 40175 52004 82532 333 05411 31045;EQDQ01  00002PRCP99
0112532760999992000031403004+42400+112900FM-12+115299999V0202701N009019999999N0300001N1+00471-01831101791ADDGF107991001001999999001021MD1210041+9999REMSYN060AAXX  14031 53276 42980 72709 10047 21183 40179 52004 80002;
0186532760999992000031406004+42400+112900FM-12+115299999V0203201N008019999999N0300001N1+00611-01711101621ADDAA199000091GF107991001001999999001021KA1999N-00181MA1999999088221MD1710111+9999REMSYN076AAXX  14061 53276 32980 73208 10061 21171 38822 40162 57011 80002 333 21018;EQDQ01  00002PRCP99
0112532760999992000031409004+42400+112900FM-12+115299999V0202901N006019999999N0300001N1+00451-02211101551ADDGF108991001001999999001071MD1710031+9999REMSYN060AAXX  14091 53276 42980 82906 10045 21221 40155 57003 80007;
0163532760999992000031412004+42400+112900FM-12+115299999V0202501N003019999999N0300001N1-00011-01881101731ADDAA199000091GF108991001001999999001071MA1999999088271MD1210081+9999REMSYN066AAXX  14121 53276 32980 82503 11001 21188 38827 40173 52008 80007;EQDQ01  00002PRCP99
0112532760999992000031415004+42400+112900FM-12+115299999V0202501N006012200019N0300001N1-00241-01821101741ADDGF102991001001999999001021MD1410001+9999REMSYN060AAXX  14151 53276 42980 22506 11024 21182 40174 54000 80002;
0196532760999992000031418004+42400+112900FM-12+115299999V0202501N006012200019N0300001N1-00521-01561101801ADDAA199000091GA1001+999999999GF100991001001999999001001KA1999M+00651MA1999999088291MD1210021+9999REMSYN070AAXX  14181 53276 32980 02506 11052 21156 38829 40180 52002 333 10065;EQDQ01  00002PRCP99
0122532760999992000031421004+42400+112900FM-12+115299999V0202501N006012200019N0300001N1-00691-01481101901ADDGA1001+999999999GF100991001001999999001001MD1210011+9999REMSYN054AAXX  14211 53276 42980 02506 11069 21148 40190 52001;
0173532760999992000031500004+42400+112900FM-12+115299999V0202701N005010120019N0200001N1-00591-00741102181ADDAA199000091GF107991071051012501999999MA1999999088461MD1210161+0021REMSYN076AAXX  15001 53276 32670 72705 11059 21074 38846 40218 52016 875// 333 00259;EQDQ01  00002PRCP99
0112532760999992000031503004+42400+112900FM-12+115299999V0203401N003010120019N0300001N1-00161-00681102271ADDGF107991071051012501001001MD1210121+9999REMSYN060AAXX  15031 53276 42680 73403 11016 21068 40227 52012 87500;
0186532760999992000031506004+42400+112900FM-12+115299999V0203601N004012200019N0300001N1+00331-01201102081ADDAA199000091GF101991011011012501001001KA1999N-00771MA1999999088471MD1710111+9999REMSYN076AAXX  15061 53276 32680 13604 10033 21120 38847 40208 57011 81100 333 21077;EQDQ01  00002PRCP99
0112532760999992000031509004+42400+112900FM-12+115299999V0203201N006012200019N0300001N1+00391-01911101991ADDGF103991031011012501001001MD1710111+9999REMSYN060AAXX  15091 53276 42680 33206 10039 21191 40199 57011 83100;
0173532760999992000031512004+42400+112900FM-12+115299999V0202901N005012200019N0300001N1-00081-01801102121ADDAA199000091GA1001+999999999GF100991001001999999001001MA1999999088391MD1210031+9999REMSYN060AAXX  15121 53276 32980 02905 11008 21180 38839 40212 52003;EQDQ01  00002PRCP99
0122532760999992000031515004+42400+112900FM-12+115299999V0202501N006012200019N0300001N1-00521-01851102191ADDGA1001+999999999GF100991001001999999001001MD1210061+9999REMSYN054AAXX  15151 53276 42980 02506 11052 21185 40219 52006;
0196532760999992000031518004+42400+112900FM-12+115299999V0202501N006012200019N0300001N1-00491-01641101961ADDAA199000091GA1001+999999999GF100991001001999999001001KA1999M+00501MA1999999088371MD1710081+9999REMSYN070AAXX  15181 53276 32980 02506 11049 21164 38837 40196 57008 333 10050;EQDQ01  00002PRCP99
0122532760999992000031521004+42400+112900FM-12+115299999V0202501N006012200019N0300001N1-00631-01631101831ADDGA1001+999999999GF100991001001999999001001MD1710131+9999REMSYN054AAXX  15211 53276 42980 02506 11063 21163 40183 57013;
0183532760999992000031600004+42400+112900FM-12+115299999V0202501N005012200019N0300001N1-00421-01631101881ADDAA199000091GA1001+999999999GF100991001001999999001001MA1999999088221MD1710021+0021REMSYN070AAXX  16001 53276 32980 02505 11042 21163 38822 40188 57002 333 05202;EQDQ01  00002PRCP99
0122532760999992000031603004+42400+112900FM-12+115299999V0202501N008012200019N0300001N1+00451-00961101741ADDGA1001+999999999GF100991001001999999001001MD1710021+9999REMSYN054AAXX  16031 53276 42980 02508 10045 21096 40174 57002;
0196532760999992000031606004+42400+112900FM-12+115299999V0203201N008012200019N0300001N1+00611-01981101511ADDAA199000091GA1001+999999999GF100991001001999999001001KA1999N-00781MA1999999088041MD1710161+9999REMSYN070AAXX  16061 53276 32980 03208 10061 21198 38804 40151 57016 333 21078;EQDQ01  00002PRCP99
0122532760999992000031609004+42400+112900FM-12+115299999V0202901N007012200019N0300001N1+00701-02941101371ADDGA1001+999999999GF100991001001999999001001MD1710131+9999REMSYN054AAXX  16091 53276 42980 02907 10070 21294 40137 57013;
0173532760999992000031612004+42400+112900FM-12+115299999V0202501N004012200019N0300001N1-00061-02331101571ADDAA199000091GA1001+999999999GF100991001001999999001001MA1999999087961MD1210051+9999REMSYN060AAXX  16121 53276 32980 02504 11006 21233 38796 40157 52005;EQDQ01  00002PRCP99
0122532760999992000031615004+42400+112900FM-12+115299999V0202201N004012200019N0300001N1-00141-02171101381ADDGA1001+999999999GF100991001001999999001001MD1210011+9999REMSYN054AAXX  16151 53276 42980 02204 11014 21217 40138 52001;
0196532760999992000031618004+42400+112900FM-12+115299999V0202501N006012200019N0300001N1-00431-02051101341ADDAA199000091GA1001+999999999GF100991001001999999001001KA1999M+00761MA1999999087911MD1710061+9999REMSYN070AAXX  16181 53276 32980 02506 11043 21205 38791 40134 57006 333 10076;EQDQ01  00002PRCP99
0122532760999992000031621004+42400+112900FM-12+115299999V0202501N007012200019N0300001N1-00541-02381101291ADDGA1001+999999999GF100991001001999999001001MD1710051+9999REMSYN054AAXX  16211 53276 42980 02507 11054 21238 40129 57005;
0183532760999992000031700004+42400+112900FM-12+115299999V0202501N007012200019N0300001N1-00331-02061101481ADDAA199000091GA1001+999999999GF100991001001999999001001MA1999999087901MD1210041+0031REMSYN070AAXX  17001 53276 32980 02507 11033 21206 38790 40148 52004 333 05301;EQDQ01  00002PRCP99
0122532760999992000031703004+42400+112900FM-12+115299999V0202701N006012200019N0300001N1+00611-01621101241ADDGA1001+999999999GF100991001001999999001001MD1710011+9999REMSYN054AAXX  17031 53276 42980 02706 10061 21162 40124 57001;
0186532760999992000031706004+42400+112900FM-12+115299999V0202701N009019999999N0300001N1+01021-02991100891ADDAA199000091GF105991001001999999001021KA1999N-00741MA1999999087611MD1710281+9999REMSYN076AAXX  17061 53276 32980 52709 10102 21299 38761 40089 57028 80002 333 21074;EQDQ01  00002PRCP99
0124532760999992000031709004+42400+112900FM-12+115299999V0202501N009019999999N0080001N1+01081-03401100641ADDGF107991001001999999001021MD1710231+9999MW1071REMSYN066AAXX  17091 53276 41958 72509 10108 21340 40064 57023 70700 80002;
0190532760999992000031712004+42400+112900FM-12+115299999V0202501N007010900019N0150001N1+00701-02681100651ADDAA199000091GF108991041051012501001071MA1999999087351MD1710031+9999OA130601801REMSYN082AAXX  17121 53276 32665 82507 10070 21268 38735 40065 57003 84507 333 91118 91525;EQDQ01  00002PRCP99
0112532760999992000031715004+42400+112900FM-12+115299999V0202701N010012200019N0150001N1+00271-01831100721ADDGF102991011051012501001021MD1210181+9999REMSYN060AAXX  17151 53276 42665 22710 10027 21183 40072 52018 81502;
0131532760999992000031721004+42400+112900FM-12+115299999V0200201N007019999999N0120001N1-00281-01181101531ADDGF107991001001999999001021MD1210712+9999REMSYN060AAXX  17211 53276 42962 70207 11028 21118 40153 52071 80002;EQDQ01+000712APC3  
0197532760999992000031800004+42400+112900FM-12+115299999V0200401N003019999999N0150001N1-00501-00671102241ADDAA124000791AY171061GF107991001001999999001021MA1999999088691MD1210481+9999MW1221OA130601801REMSYN094AAXX  18001 53276 41965 70403 11050 21067 38869 40224 52048 72270 80002 333 79999 91118 91534;
0112532760999992000031803004+42400+112900FM-12+115299999V0200201N006012200019N0300001N1-00091-01531102461ADDGF101991011011012501001021MD1210191+9999REMSYN060AAXX  18031 53276 42680 10206 11009 21153 40246 52019 81102;
0177532760999992000031806004+42400+112900FM-12+115299999V0203401N005012200019N0300001N1+00171-01751102471ADDAA199000021GA1001+999999999GF100991001001999999001001KA1999N-00531MA1999999088871MD1710011+9999REMSYN070AAXX  18061 53276 32980 03405 10017 21175 38887 40247 57001 333 21053;
0122532760999992000031809004+42400+112900FM-12+115299999V0203601N004012200019N0300001N1+00171-01751102481ADDGA1001+999999999GF100991001001999999001001MD1710041+9999REMSYN054AAXX  18091 53276 42980 03604 10017 21175 40248 57004;
0154532760999992000031812004+42400+112900FM-12+115299999V0200901N002012200019N0300001N1-00301-02311102811ADDAA199000021GA1001+999999999GF100991001001999999001001MA1999999088961MD1210131+9999REMSYN060AAXX  18121 53276 32980 00902 11030 21231 38896 40281 52013;
0122532760999992000031815004+42400+112900FM-12+115299999V0201801N004012200019N0300001N1-00621-01921102811ADDGA1001+999999999GF100991001001999999001001MD1210021+9999REMSYN054AAXX  18151 53276 42980 01804 11062 21192 40281 52002;
0196532760999992000031818004+42400+112900FM-12+115299999V0202001N005012200019N0300001N1-00731-01911102751ADDAA199000091GA1001+999999999GF100991001001999999001001KA1999M+00211MA1999999088961MD1710021+9999REMSYN070AAXX  18181 53276 32980 02005 11073 21191 38896 40275 57002 333 10021;EQDQ01  00002PRCP99
0122532760999992000031821004+42400+112900FM-12+115299999V0202001N006012200019N0300001N1-00681-01811102541ADDGA1001+999999999GF100991001001999999001001MD1710171+9999REMSYN054AAXX  18211 53276 42980 02006 11068 21181 40254 57017;
0173532760999992000031900004+42400+112900FM-12+115299999V0202001N005019999999N0300001N1-00401-01741102511ADDAA199000091GF107991001001999999001021MA1999999088721MD1710071+0001REMSYN076AAXX  19001 53276 32980 72005 11040 21174 38872 40251 57007 80002 333 00001;EQDQ01  00002PRCP99
0163532760999992000031903004+42400+112900FM-12+115299999V0202001N005019999999N0300001N1-00401-01741102511ADDAA199000091GF107991001001999999001021MA1999999088721MD1710071+9999REMSYN066AAXX  19031 53276 32980 72005 11040 21174 38872 40251 57007 80002;EQDQ01  00002PRCP99
0186532760999992000031906004+42400+112900FM-12+115299999V0202501N004019999999N0300001N1+00961-02121101711ADDAA199000091GF107991001001999999001021KA1999N-00771MA1999999088241MD1710371+9999REMSYN076AAXX  19061 53276 32980 72504 10096 21212 38824 40171 57037 80002 333 21077;EQDQ01  00002PRCP99
0112532760999992000031909004+42400+112900FM-12+115299999V0202501N003019999999N0300001N1+01171-01901101431ADDGF107991001001999999001021MD1710181+9999REMSYN060AAXX  19091 53276 42980 72503 10117 21190 40143 57018 80002;
0163532760999992000031912004+42400+112900FM-12+115299999V0209999C000012200019N0300001N1+00581-01561101571ADDAA199000091GF101991001001999999001021MA1999999088111MD1210051+9999REMSYN066AAXX  19121 53276 32980 10000 10058 21156 38811 40157 52005 80002;EQDQ01  00002PRCP99
0122532760999992000031915004+42400+112900FM-12+115299999V0201801N004012200019N0300001N1+00111-01791101481ADDGA1001+999999999GF100991001001999999001001MD1210031+9999REMSYN054AAXX  19151 53276 42980 01804 10011 21179 40148 52003;
0186532760999992000031918004+42400+112900FM-12+115299999V0201801N003012200019N0300001N1+00141-01791101381ADDAA199000091GF104991011001999999031021KA1999M+01211MA1999999088151MD1210011+9999REMSYN076AAXX  19181 53276 32980 41803 10014 21179 38815 40138 52001 81032 333 10121;EQDQ01  00002PRCP99
0112532760999992000031921004+42400+112900FM-12+115299999V0202001N005019999999N0300001N1+00051-01791101241ADDGF107991001001999999001021MD1710101+9999REMSYN060AAXX  19211 53276 42980 72005 10005 21179 40124 57010 80002;
0191532760999992000032000004+42400+112900FM-12+115299999V0209999C000019999999N0300001N1+00011-01221101401ADDAA199000091GF108991001001999999001071IA2999-00409MA1999999088051MD1410001-0701REMSYN082AAXX  20001 53276 32980 80000 10001 21122 38805 40140 54000 80007 333 05704 31047;EQDQ01  00002PRCP99
0112532760999992000032003004+42400+112900FM-12+115299999V0200401N003010900019N0300001N1+00531-01481101481ADDGF108991021051012501001071MD1210081+9999REMSYN060AAXX  20031 53276 42680 80403 10053 21148 40148 52008 82507;
0186532760999992000032006004+42400+112900FM-12+115299999V0200401N011019999999N0300001N1+00541-00401101411ADDAA199000091GF108991001001999999001071KA1999N-00051MA1999999088081MD1710051+9999REMSYN076AAXX  20061 53276 32980 80411 10054 21040 38808 40141 57005 80007 333 21005;EQDQ01  00002PRCP99
0132532760999992000032009004+42400+112900FM-12+115299999V0201401N006019999999N0250001N1+00321-00121101571ADDAY171031GF108991081001999999021999MD1210071+9999MW1681REMSYN066AAXX  20091 53276 41975 81406 10032 21012 40157 52007 76870 8802/;
0170532760999992000032012004+42400+112900FM-12+115299999V0200901N002010120019N0300001N1+00231-00191101961ADDAA106000791AY171061GF107991071051012501999999MA1999999088461MD1210311+9999MW1001REMSYN078AAXX  20121 53276 11680 70902 10023 21019 38846 40196 52031 69901 70070 875//;
0112532760999992000032015004+42400+112900FM-12+115299999V0200701N003019999999N0300001N1+00011-00211102071ADDGF107991031001999999031021MD1210161+9999REMSYN060AAXX  20151 53276 42980 70703 10001 21021 40207 52016 83032;
0167532760999992000032018004+42400+112900FM-12+115299999V0209999C000010900019N0300001N1-00271-00621102361ADDAA199000021GF105991031051012501001021KA1999M+00661MA1999999088811MD1210191+9999REMSYN076AAXX  20181 53276 32680 50000 11027 21062 38881 40236 52019 83502 333 10066;
0133532760999992000032021004+42400+112900FM-12+115299999V0202001N002010120019N0300001N1-00321-00491102431ADDAA124000791GF107991061051012501001021MD1410001+9999REMSYN070AAXX  20211 53276 42680 72002 11032 21049 40243 54000 86502 333 79999;
0180532760999992000032100004+42400+112900FM-12+115299999V0202001N005010075019N0120001N1-00211-00331102421ADDAA124000791AY141061GF107991071061008001999999MA1999999088811MD1410001+0801MW1281REMSYN088AAXX  21001 53276 31562 72005 11021 21033 38881 40242 54000 72840 876// 333 00852 79999;
0122532760999992000032103004+42400+112900FM-12+115299999V0201601N006012200019N0300001N1+00511-00561102261ADDGA1001+999999999GF100991001001999999001001MD1710031+9999REMSYN054AAXX  21031 53276 42980 01606 10051 21056 40226 57003;
0186532760999992000032106004+42400+112900FM-12+115299999V0202001N009012200019N0300001N1+00921-00801101891ADDAA199000091GF104991001001999999001021KA1999N-00561MA1999999088491MD1710291+9999REMSYN076AAXX  21061 53276 32980 42009 10092 21080 38849 40189 57029 80002 333 21056;EQDQ01  00002PRCP99
0112532760999992000032109004+42400+112900FM-12+115299999V0201801N010019999999N0300001N1+00841-00401101791ADDGF107991001001999999001021MD1710111+9999REMSYN060AAXX  21091 53276 42980 71810 10084 21040 40179 57011 80002;
0163532760999992000032112004+42400+112900FM-12+115299999V0202001N008012200019N0300001N1+00491-00271101811ADDAA199000091GF104991011051017501001021MA1999999088341MD1710041+9999REMSYN066AAXX  21121 53276 32780 42008 10049 21027 38834 40181 57004 81502;EQDQ01  00002PRCP99
0112532760999992000032115004+42400+112900FM-12+115299999V0202201N006019999999N0300001N1+00251-00321101741ADDGF107991001001999999001021MD1210051+9999REMSYN060AAXX  21151 53276 42980 72206 10025 21032 40174 52005 80002;
0186532760999992000032118004+42400+112900FM-12+115299999V0202501N010019999999N0300001N1+00451-00531101531ADDAA199000091GF108991001001999999001071KA1999M+01031MA1999999088341MD1710051+9999REMSYN076AAXX  21181 53276 32980 82510 10045 21053 38834 40153 57005 80007 333 10103;EQDQ01  00002PRCP99
0112532760999992000032121004+42400+112900FM-12+115299999V0202701N005019999999N0300001N1+00181-01121101771ADDGF108991001001999999001071MD1210131+9999REMSYN060AAXX  21211 53276 42980 82705 10018 21112 40177 52013 80007;
0191532760999992000032200004+42400+112900FM-12+115299999V0202501N008019999999N0150001N1+00121-01191102001ADDAA199000091GF108991081001999999021999IA2999-00109MA1999999088581MD1210111-0201REMSYN082AAXX  22001 53276 32965 82508 10012 21119 38858 40200 52011 8802/ 333 05203 31018;EQDQ01  00002PRCP99
0124532760999992000032203004+42400+112900FM-12+115299999V0202901N015010900019N0080001N1+00101-01981102171ADDGF108991021051017501001071MD1210091+9999MW1071REMSYN066AAXX  22031 53276 41758 82915 10010 21198 40217 52009 70700 82507;
0239532760999992000032206004+42400+112900FM-12+115299999V0202901N012010003019N0004001N1+00021-02161102021ADDAA199000091AY131061GA1091+999999999GF109991091999999999999999KA1240N+00011MA1999999088561MD1710111+9999MW1341OA130602201REMSYN088AAXX  22061 53276 31/04 92912 10002 21216 38856 40202 57011 73430 333 20001 91122 91529;EQDQ01  00002PRCP99
0150532760999992000032209004+42400+112900FM-12+115299999V0202901N015010003019N0004001N1+00061-02231102071ADDAY131031AY231031GA1091+999999999GF109991091999999999999999MD1410001+9999MW1341REMSYN060AAXX  22091 53276 41/04 92915 10006 21223 40207 54000 73433;
0228532760999992000032212004+42400+112900FM-12+115299999V0202901N009010006019N0007001N1-00141-02751102361ADDAA199000091AY131061AY231061GA1091+999999999GF109991091999999999999999MA1999999088751MD1210191+9999MW1301OA130602001REMSYN082AAXX  22121 53276 31/07 92909 11014 21275 38875 40236 52019 73033 333 91120 91529;EQDQ01  00002PRCP99
0142532760999992000032215004+42400+112900FM-12+115299999V0202701N010012200019N0300001N1-00461-01392102641ADDAY131031GA1001+999999999GF100991001001999999001001MD1210161+9999MW1001REMSYN060AAXX  22151 53276 41980 02710 11046 21139 40264 52016 70030;
0216532760999992000032218004+42400+112900FM-12+115299999V0202701N008012200019N0300001N1-00641-01591102661ADDAA199000091AY131061GA1001+999999999GF100991001001999999001001KA1999M+00511MA1999999088871MD1710041+9999MW1001REMSYN076AAXX  22181 53276 31980 02708 11064 21159 38887 40266 57004 70030 333 10051;EQDQ01  00002PRCP99
0122532760999992000032221004+42400+112900FM-12+115299999V0202901N004012200019N0300001N1-00861-01571102581ADDGA1001+999999999GF100991001001999999001001MD1710111+9999REMSYN054AAXX  22211 53276 42980 02904 11086 21157 40258 57011;
0173532760999992000032300004+42400+112900FM-12+115299999V0202901N006012200019N0300001N1-00701-01701102581ADDAA199000091GF101991001001999999001021MA1999999088751MD1710011+0021REMSYN076AAXX  23001 53276 32980 12906 11070 21170 38875 40258 57001 80002 333 00258;EQDQ01  00002PRCP99
0112532760999992000032303004+42400+112900FM-12+115299999V0203201N010012200019N0300001N1-00391-01721102761ADDGF101991011011012501001021MD1210151+9999REMSYN060AAXX  23031 53276 42680 13210 11039 21172 40276 52015 81102;
0209532760999992000032306004+42400+112900FM-12+115299999V0203201N012010900019N0300001N1-00151-01931102721ADDAA199000091GF107991021011012501001021KA1240N-00921MA1999999088881MD1710021+9999OA130601801REMSYN088AAXX  23061 53276 32680 73212 11015 21193 38888 40272 57002 82102 333 21092 91118 91532;EQDQ01  00002PRCP99
0122532760999992000032309004+42400+112900FM-12+115299999V0203401N008012200019N0300001N1-00071-01961102721ADDGA1001+999999999GF100991001001999999001001MD1710031+9999REMSYN054AAXX  23091 53276 42980 03408 11007 21196 40272 57003;
0173532760999992000032312004+42400+112900FM-12+115299999V0202901N003012200019N0300001N1-00421-02381102901ADDAA199000091GA1001+999999999GF100991001001999999001001MA1999999088961MD1210111+9999REMSYN060AAXX  23121 53276 32980 02903 11042 21238 38896 40290 52011;EQDQ01  00002PRCP99
0122532760999992000032315004+42400+112900FM-12+115299999V0202501N006012200019N0300001N1-00611-02281102811ADDGA1001+999999999GF100991001001999999001001MD1710051+9999REMSYN054AAXX  23151 53276 42980 02506 11061 21228 40281 57005;
0196532760999992000032318004+42400+112900FM-12+115299999V0202701N006012200019N0300001N1-00681-02161102711ADDAA199000091GA1001+999999999GF100991001001999999001001KA1999M-00021MA1999999088861MD1710051+9999REMSYN070AAXX  23181 53276 32980 02706 11068 21216 38886 40271 57005 333 11002;EQDQ01  00002PRCP99
0122532760999992000032321004+42400+112900FM-12+115299999V0202701N005012200019N0300001N1-00701-01931102601ADDGA1001+999999999GF100991001001999999001001MD1710081+9999REMSYN054AAXX  23211 53276 42980 02705 11070 21193 40260 57008;
0183532760999992000032400004+42400+112900FM-12+115299999V0202501N005012200019N0300001N1-00671-01651102811ADDAA199000091GA1001+999999999GF100991001001999999001001MA1999999088891MD1210111+0011REMSYN070AAXX  24001 53276 32980 02505 11067 21165 38889 40281 52011 333 00100;EQDQ01  00002PRCP99
0122532760999992000032403004+42400+112900FM-12+115299999V0203201N007012200019N0300001N1+00011-01651102811ADDGA1001+999999999GF100991001001999999001001MD1210111+9999REMSYN054AAXX  24031 53276 42980 03207 10001 21165 40281 52011;
0196532760999992000032406004+42400+112900FM-12+115299999V0203201N005012200019N0300001N1+00311-02371102661ADDAA199000091GA1001+999999999GF100991001001999999001001KA1999N-00951MA1999999088931MD1710071+9999REMSYN070AAXX  24061 53276 32980 03205 10031 21237 38893 40266 57007 333 21095;EQDQ01  00002PRCP99
0122532760999992000032409004+42400+112900FM-12+115299999V0202901N005012200019N0300001N1+00371-02221102551ADDGA1001+999999999GF100991001001999999001001MD1710091+9999REMSYN054AAXX  24091 53276 42980 02905 10037 21222 40255 57009;
0163532760999992000032412004+42400+112900FM-12+115299999V0202501N004012200019N0300001N1-00101-02171102731ADDAA199000091GF101991001001999999001021MA1999999088891MD1210051+9999REMSYN066AAXX  24121 53276 32980 12504 11010 21217 38889 40273 52005 80002;EQDQ01  00002PRCP99
0112532760999992000032415004+42400+112900FM-12+115299999V0202201N006019999999N0300001N1-00231-01801102591ADDGF105991021001999999031021MD1210011+9999REMSYN060AAXX  24151 53276 42980 52206 11023 21180 40259 52001 82032;
0196532760999992000032418004+42400+112900FM-12+115299999V0202901N007012200019N0300001N1-00381-01701102541ADDAA199000091GA1001+999999999GF100991001001999999001001KA1999M+00391MA1999999088891MD1710011+9999REMSYN070AAXX  24181 53276 32980 02907 11038 21170 38889 40254 57001 333 10039;EQDQ01  00002PRCP99
0122532760999992000032421004+42400+112900FM-12+115299999V0202501N006012200019N0300001N1-00601-01881102641ADDGA1001+999999999GF100991001001999999001001MD1210051+9999REMSYN054AAXX  24211 53276 42980 02506 11060 21188 40264 52005;
0183532760999992000032500004+42400+112900FM-12+115299999V0202501N007012200019N0300001N1-00401-01601102871ADDAA199000091GA1001+999999999GF100991001001999999001001MA1999999089081MD1210141+0021REMSYN070AAXX  25001 53276 32980 02507 11040 21160 38908 40287 52014 333 00203;EQDQ01  00002PRCP99
0122532760999992000032503004+42400+112900FM-12+115299999V0202901N008012200019N0300001N1+00411-01871102691ADDGA1001+999999999GF100991001001999999001001MD1410001+9999REMSYN054AAXX  25031 53276 42980 02908 10041 21187 40269 54000;
0196532760999992000032506004+42400+112900FM-12+115299999V0202901N010012200019N0300001N1+00711-01841102481ADDAA199000091GA1001+999999999GF100991001001999999001001KA1999N-00661MA1999999088931MD1710151+9999REMSYN070AAXX  25061 53276 32980 02910 10071 21184 38893 40248 57015 333 21066;EQDQ01  00002PRCP99
0112532760999992000032509004+42400+112900FM-12+115299999V0202901N009012200019N0300001N1+00841-01821102271ADDGF101991001001999999001021MD1710201+9999REMSYN060AAXX  25091 53276 42980 12909 10084 21182 40227 57020 80002;
0163532760999992000032512004+42400+112900FM-12+115299999V0202501N003012200019N0300001N1+00291-01631102271ADDAA199000091GF102991001001999999001021MA1999999088651MD1710081+9999REMSYN066AAXX  25121 53276 32980 22503 10029 21163 38865 40227 57008 80002;EQDQ01  00002PRCP99
0122532760999992000032515004+42400+112900FM-12+115299999V0202501N006012200019N0300001N1-00021-01801102001ADDGA1001+999999999GF100991001001999999001001MD1710121+9999REMSYN054AAXX  25151 53276 42980 02506 11002 21180 40200 57012;
0196532760999992000032518004+42400+112900FM-12+115299999V0202501N008012200019N0300001N1+00251-01741101601ADDAA199000091GA1001+999999999GF100991001001999999001001KA1999M+00871MA1999999088311MD1710221+9999REMSYN070AAXX  25181 53276 32980 02508 10025 21174 38831 40160 57022 333 10087;EQDQ01  00002PRCP99
0201532760999992000032600004+42400+112900FM-12+115299999V0202501N009012200019N0300001N1+00381-01651101351ADDAA199000091GA1001+999999999GF100991001001999999001001IA2999-00309MA1999999088031MD1710131-1101REMSYN076AAXX  26001 53276 32980 02509 10038 21165 38803 40135 57013 333 06108 31038;EQDQ01  00002PRCP99
0143532760999992000032603004+42400+112900FM-12+115299999V0202701N013019999999N0080001N1+01091-03362101061ADDGF107991001001999999001021MD1710171+9999MW1071REMSYN066AAXX  26031 53276 41958 72713 10109 21336 40106 57017 70700 80002;EQDQ01-003363ATOD  
0221532760999992000032606004+42400+112900FM-12+115299999V0202501N013019999999N0040001N1+01161-04301100571ADDAA199000091GF107991001001999999001081KA1240N-00071MA1999999087511MD1710351+9999MW1071OA130602001REMSYN094AAXX  26061 53276 31940 72513 10116 21430 38751 40057 57035 70700 80008 333 21007 91120 91527;EQDQ01  00002PRCP99
0143532760999992000032609004+42400+112900FM-12+115299999V0202501N013019999999N0030001N1+01151-02652100351ADDGF107991001001999999001021MD1710231+9999MW1071REMSYN066AAXX  26091 53276 41930 72513 10115 21265 40035 57023 70700 80002;EQDQ01-002653ATOD  
0190532760999992000032612004+42400+112900FM-12+115299999V0202501N008012200019N0150001N1+00801-02241100281ADDAA199000091GF104991001001999999001021MA1999999087211MD1710071+9999OA130601901REMSYN082AAXX  26121 53276 32965 42508 10080 21224 38721 40028 57007 80002 333 91119 91525;EQDQ01  00002PRCP99
0112532760999992000032615004+42400+112900FM-12+115299999V0202501N005010900019N0300001N1+00541-01241100191ADDGF107991031051012501001021MD1210021+9999REMSYN060AAXX  26151 53276 42680 72505 10054 21124 40019 52002 83502;
0186532760999992000032618004+42400+112900FM-12+115299999V0203401N008012200019N0300001N1+00231-01461100321ADDAA199000091GF101991011051012501001001KA1999M+01301MA1999999087291MD1210061+9999REMSYN076AAXX  26181 53276 32680 13408 10023 21146 38729 40032 52006 81500 333 10130;EQDQ01  00002PRCP99
0112532760999992000032621004+42400+112900FM-12+115299999V0203401N007012200019N0300001N1+00001-01171100671ADDGF102991021051012501001001MD1210251+9999REMSYN060AAXX  26211 53276 42680 23407 10000 21117 40067 52025 82500;
0191532760999992000032700004+42400+112900FM-12+115299999V0203401N008012200019N0300001N1-00211-01161101241ADDAA199000091GF102991011051012501001021IA2999-00409MA1999999087911MD1210371-0101REMSYN082AAXX  27001 53276 32680 23408 11021 21116 38791 40124 52037 81502 333 05156 31047;EQDQ01  00002PRCP99
0112532760999992000032703004+42400+112900FM-12+115299999V0203601N010012200019N0300001N1+00161-01151101501ADDGF104991031051012501001021MD1210251+9999REMSYN060AAXX  27031 53276 42680 43610 10016 21115 40150 52025 83502;
0209532760999992000032706004+42400+112900FM-12+115299999V0203401N010012200019N0250001N1+00301-01751101551ADDAA199000091GF103991021011012501001021KA1240N-00311MA1999999088171MD1210011+9999OA130601801REMSYN088AAXX  27061 53276 32675 33410 10030 21175 38817 40155 52001 82102 333 21031 91118 91534;EQDQ01  00002PRCP99
0112532760999992000032709004+42400+112900FM-12+115299999V0203401N011012200019N0250001N1+00321-02061101651ADDGF104991021011012501001021MD1210041+9999REMSYN060AAXX  27091 53276 42675 43411 10032 21206 40165 52004 82102;
0190532760999992000032712004+42400+112900FM-12+115299999V0203401N006012200019N0300001N1+00021-02271102081ADDAA199000091GF102991011041012501001021MA1999999088471MD1210261+9999OA130601801REMSYN082AAXX  27121 53276 32680 23406 10002 21227 38847 40208 52026 81402 333 91118 91534;EQDQ01  00002PRCP99
0122532760999992000032715004+42400+112900FM-12+115299999V0203401N004012200019N0300001N1-00401-02081102221ADDGA1001+999999999GF100991001001999999001001MD1210111+9999REMSYN054AAXX  27151 53276 42980 03404 11040 21208 40222 52011;
0196532760999992000032718004+42400+112900FM-12+115299999V0202901N002012200019N0300001N1-00581-01911102341ADDAA199000091GA1001+999999999GF100991001001999999001001KA1999M+00421MA1999999088671MD1210091+9999REMSYN070AAXX  27181 53276 32980 02902 11058 21191 38867 40234 52009 333 10042;EQDQ01  00002PRCP99
0122532760999992000032721004+42400+112900FM-12+115299999V0202901N003012200019N0300001N1-00751-02041102451ADDGA1001+999999999GF100991001001999999001001MD1210061+9999REMSYN054AAXX  27211 53276 42980 02903 11075 21204 40245 52006;
0183532760999992000032800004+42400+112900FM-12+115299999V0203201N003012200019N0300001N1-00581-01831102711ADDAA199000091GA1001+999999999GF100991001001999999001001MA1999999088931MD1210201+0101REMSYN070AAXX  28001 53276 32980 03203 11058 21183 38893 40271 52020 333 01054;EQDQ01  00002PRCP99
0112532760999992000032803004+42400+112900FM-12+115299999V0200201N006012200019N0300001N1+00071-01681102801ADDGF101991001001999999001021MD1210131+9999REMSYN060AAXX  28031 53276 42980 10206 10007 21168 40280 52013 80002;
0186532760999992000032806004+42400+112900FM-12+115299999V0200201N002012200019N0300001N1+00221-02141102741ADDAA199000091GF102991001001999999001021KA1999N-00861MA1999999089001MD1710061+9999REMSYN076AAXX  28061 53276 32980 20202 10022 21214 38900 40274 57006 80002 333 21086;EQDQ01  00002PRCP99
0112532760999992000032809004+42400+112900FM-12+115299999V0209999C000019999999N0300001N1+00331-01691102691ADDGF106991001001999999001021MD1710061+9999REMSYN060AAXX  28091 53276 42980 60000 10033 21169 40269 57006 80002;
0163532760999992000032812004+42400+112900FM-12+115299999V0209999C000012200019N0300001N1+00091-01871102671ADDAA199000091GF101991001001999999001021MA1999999088911MD1710031+9999REMSYN066AAXX  28121 53276 32980 10000 10009 21187 38891 40267 57003 80002;EQDQ01  00002PRCP99
0122532760999992000032815004+42400+112900FM-12+115299999V0201801N004012200019N0300001N1-00331-01991102521ADDGA1001+999999999GF100991001001999999001001MD1710081+9999REMSYN054AAXX  28151 53276 42980 01804 11033 21199 40252 57008;
0196532760999992000032818004+42400+112900FM-12+115299999V0202001N004012200019N0300001N1-00331-01891102291ADDAA199000091GA1001+999999999GF100991001001999999001001KA1999M+00451MA1999999088671MD1710161+9999REMSYN070AAXX  28181 53276 32980 02004 11033 21189 38867 40229 57016 333 10045;EQDQ01  00002PRCP99
0173532760999992000032900004+42400+112900FM-12+115299999V0202201N007012200019N0300001N1+00541-01961101721ADDAA199000091GF102991011051017501001021MA1999999088341MD1710121+0061REMSYN076AAXX  29001 53276 32780 22207 10054 21196 38834 40172 57012 81502 333 05611;EQDQ01  00002PRCP99
0112532760999992000032903004+42400+112900FM-12+115299999V0202901N009019999999N0300001N1+01561-02091101421ADDGF106991051001999999031021MD1710131+9999REMSYN060AAXX  29031 53276 42980 62909 10156 21209 40142 57013 85032;
0186532760999992000032906004+42400+112900FM-12+115299999V0203401N009012200019N0300001N1+01481-02321101301ADDAA199000091GF103991031001999999031001KA1999N-00391MA1999999088091MD1710121+9999REMSYN076AAXX  29061 53276 32980 33409 10148 21232 38809 40130 57012 83030 333 21039;EQDQ01  00002PRCP99
0112532760999992000032909004+42400+112900FM-12+115299999V0200401N007012200019N0300001N1+01241-01901101221ADDGF102991021001999999031001MD1710011+9999REMSYN060AAXX  29091 53276 42980 20407 10124 21190 40122 57001 82030;
0163532760999992000032912004+42400+112900FM-12+115299999V0200701N003019999999N0300001N1+00651-01581101351ADDAA199000091GF107991021001999999031021MA1999999088141MD1210061+9999REMSYN066AAXX  29121 53276 32980 70703 10065 21158 38814 40135 52006 82032;EQDQ01  00002PRCP99
0112532760999992000032915004+42400+112900FM-12+115299999V0201101N001012200019N0300001N1+00391-01241101191ADDGF102991001001999999001021MD1210031+9999REMSYN060AAXX  29151 53276 42980 21101 10039 21124 40119 52003 80002;
0186532760999992000032918004+42400+112900FM-12+115299999V0201801N002012200019N0300001N1+00371-00821100951ADDAA199000091GF102991011051012501001021KA1999M+01621MA1999999087941MD1710231+9999REMSYN076AAXX  29181 53276 32680 21802 10037 21082 38794 40095 57023 81502 333 10162;EQDQ01  00002PRCP99
0112532760999992000032921004+42400+112900FM-12+115299999V0201801N004012200019N0300001N1+00211-01111100981ADDGF104991021051012501001021MD1710061+9999REMSYN060AAXX  29211 53276 42680 41804 10021 21111 40098 57006 82502;
0191532760999992000033000004+42400+112900FM-12+115299999V0202501N003010120019N0300001N1+00301-01261101291ADDAA199000091GF107991071051012501999999IA2999-00109MA1999999088041MD1210161-0301REMSYN082AAXX  30001 53276 32680 72503 10030 21126 38804 40129 52016 875// 333 05352 31013;EQDQ01  00002PRCP99
0112532760999992000033003004+42400+112900FM-12+115299999V0209999C000019999999N0300001N1+00971-00261101221ADDGF106991021001999999031021MD1210031+9999REMSYN060AAXX  30031 53276 42980 60000 10097 21026 40122 52003 82032;
0186532760999992000033006004+42400+112900FM-12+115299999V0203401N008012200019N0300001N1+01161-00541101081ADDAA199000091GF102991021011012501001021KA1999N+00171MA1999999087981MD1710091+9999REMSYN076AAXX  30061 53276 32680 23408 10116 21054 38798 40108 57009 82102 333 20017;EQDQ01  00002PRCP99
0112532760999992000033009004+42400+112900FM-12+115299999V0203401N008012200019N0300001N1+01241-01892101031ADDGF102991021011012501001001MD1710061+9999REMSYN060AAXX  30091 53276 42680 23408 10124 21189 40103 57006 82100;
0190532760999992000033012004+42400+112900FM-12+115299999V0203401N005012200019N0300001N1+00701-01121101351ADDAA199000091GF101991011041012501001001MA1999999088101MD1210181+9999OA130601701REMSYN082AAXX  30121 53276 32680 13405 10070 21112 38810 40135 52018 81400 333 91117 91532;EQDQ01  00002PRCP99
0122532760999992000033015004+42400+112900FM-12+115299999V0203401N004012200019N0300001N1+00241-01851101521ADDGA1001+999999999GF100991001001999999001001MD1210191+9999REMSYN054AAXX  30151 53276 42980 03404 10024 21185 40152 52019;
0196532760999992000033018004+42400+112900FM-12+115299999V0203601N002012200019N0300001N1-00211-02001101751ADDAA199000091GA1001+999999999GF100991001001999999001001KA1999M+01321MA1999999088441MD1210151+9999REMSYN070AAXX  30181 53276 32980 03602 11021 21200 38844 40175 52015 333 10132;EQDQ01  00002PRCP99
0122532760999992000033021004+42400+112900FM-12+115299999V0202901N002012200019N0300001N1-00581-01831101791ADDGA1001+999999999GF100991001001999999001001MD1710031+9999REMSYN054AAXX  30211 53276 42980 02902 11058 21183 40179 57003;
0173532760999992000033100004+42400+112900FM-12+115299999V0202201N004012200019N0300001N1-00151-01601102051ADDAA199000091GF101991011001999999031001MA1999999088611MD1210201+0061REMSYN076AAXX  31001 53276 32980 12204 11015 21160 38861 40205 52020 81030 333 00655;EQDQ01  00002PRCP99
0112532760999992000033103004+42400+112900FM-12+115299999V0202501N001012200019N0300001N1+00711-01421101861ADDGF102991001001999999001021MD1710081+9999REMSYN060AAXX  31031 53276 42980 22501 10071 21142 40186 57008 80002;
0186532760999992000033106004+42400+112900FM-12+115299999V0202901N006019999999N0300001N1+01021-00991101701ADDAA199000091GF107991001001999999001021KA1999N-00651MA1999999088361MD1710171+9999REMSYN076AAXX  31061 53276 32980 72906 10102 21099 38836 40170 57017 80002 333 21065;EQDQ01  00002PRCP99
0112532760999992000033109004+42400+112900FM-12+115299999V0203201N004019999999N0300001N1+01111-00931101581ADDGF107991001001999999001021MD1710161+9999REMSYN060AAXX  31091 53276 42980 73204 10111 21093 40158 57016 80002;
0163532760999992000033112004+42400+112900FM-12+115299999V0201601N003019999999N0300001N1+00691-01091101621ADDAA199000091GF106991001001999999001021MA1999999088231MD1210031+9999REMSYN066AAXX  31121 53276 32980 61603 10069 21109 38823 40162 52003 80002;EQDQ01  00002PRCP99
0122532760999992000033115004+42400+112900FM-12+115299999V0202001N006012200019N0300001N1+00291-01171101501ADDGA1001+999999999GF100991001001999999001001MD1410001+9999REMSYN054AAXX  31151 53276 42980 02006 10029 21117 40150 54000;
0196532760999992000033118004+42400+112900FM-12+115299999V0202001N009012200019N0300001N1+00601-00821101141ADDAA199000091GA1001+999999999GF100991001001999999001001KA1999M+01161MA1999999088051MD1710181+9999REMSYN070AAXX  31181 53276 32980 02009 10060 21082 38805 40114 57018 333 10116;EQDQ01  00002PRCP99
0122532760999992000033121004+42400+112900FM-12+115299999V0202501N007012200019N0300001N1+00471-00831101021ADDGA1001+999999999GF100991001001999999001001MD1710111+9999REMSYN054AAXX  31211 53276 42980 02507 10047 21083 40102 57011;
0191532760999992000040100004+42400+112900FM-12+115299999V0201801N004010360019N0300001N1+00421-00821101201ADDAA199000091GF107991031091017501031021IA2999-00209MA1999999087991MD1210051-0601REMSYN082AAXX  01001 53276 32780 71804 10042 21082 38799 40120 52005 83932 333 05606 31024;EQDQ01  00002PRCP99
0112532760999992000040103004+42400+112900FM-12+115299999V0200401N005019999999N0300001N1+00951-00731101151ADDGF107991021001999999031021MD1710011+9999REMSYN060AAXX  01031 53276 42980 70405 10095 21073 40115 57001 82032;
0186532760999992000040106004+42400+112900FM-12+115299999V0203601N004010900019N0300001N1+01261-00681100931ADDAA199000091GF107991011051012501001021KA1999N+00191MA1999999087921MD1710061+9999REMSYN076AAXX  01061 53276 32680 73604 10126 21068 38792 40093 57006 81502 333 20019;EQDQ01  00002PRCP99
0112532760999992000040109004+42400+112900FM-12+115299999V0200201N008012200019N0300001N1+01171-00651101061ADDGF104991001001999999001021MD1210071+9999REMSYN060AAXX  01091 53276 42980 40208 10117 21065 40106 52007 80002;
0163532760999992000040112004+42400+112900FM-12+115299999V0200201N004012200019N0300001N1+00631-00961101521ADDAA199000091GF101991001001999999001021MA1999999088261MD1210271+9999REMSYN066AAXX  01121 53276 32980 10204 10063 21096 38826 40152 52027 80002;EQDQ01  00002PRCP99
0122532760999992000040115004+42400+112900FM-12+115299999V0200701N002012200019N0300001N1+00111-01251101771ADDGA1001+999999999GF100991001001999999001001MD1210221+9999REMSYN054AAXX  01151 53276 42980 00702 10011 21125 40177 52022;
0196532760999992000040118004+42400+112900FM-12+115299999V0201601N002012200019N0300001N1-00131-01421101811ADDAA199000091GA1001+999999999GF100991001001999999001001KA1999M+01411MA1999999088531MD1210051+9999REMSYN070AAXX  01181 53276 32980 01602 11013 21142 38853 40181 52005 333 10141;EQDQ01  00002PRCP99
0122532760999992000040121004+42400+112900FM-12+115299999V0202001N002012200019N0300001N1-00331-01331101921ADDGA1001+999999999GF100991001001999999001001MD1210031+9999REMSYN054AAXX  01211 53276 42980 02002 11033 21133 40192 52003;
0183532760999992000040200004+42400+112900FM-12+115299999V0202201N002012200019N0300001N1+00091-01031102081ADDAA199000091GA1001+999999999GF100991001001999999001001MA1999999088671MD1210111+0071REMSYN070AAXX  02001 53276 32980 02202 10009 21103 38867 40208 52011 333 00753;EQDQ01  00002PRCP99
0122532760999992000040203004+42400+112900FM-12+115299999V0201801N003012200019N0300001N1+01141-01281101901ADDGA1001+999999999GF100991001001999999001001MD1710041+9999REMSYN054AAXX  02031 53276 42980 01803 10114 21128 40190 57004;
0196532760999992000040206004+42400+112900FM-12+115299999V0202501N006012200019N0300001N1+01381-01441101611ADDAA199000091GA1001+999999999GF100991001001999999001001KA1999N-00371MA1999999088381MD1710251+9999REMSYN070AAXX  02061 53276 32980 02506 10138 21144 38838 40161 57025 333 21037;EQDQ01  00002PRCP99
0112532760999992000040209004+42400+112900FM-12+115299999V0202901N008012200019N0300001N1+01531-01891101361ADDGF104991011011012501001021MD1710231+9999REMSYN060AAXX  02091 53276 42680 42908 10153 21189 40136 57023 81102;
0163532760999992000040212004+42400+112900FM-12+115299999V0202201N003010360019N0300001N1+01161-01211101291ADDAA199000091GF107991021091012501031021MA1999999088101MD1710051+9999REMSYN066AAXX  02121 53276 32680 72203 10116 21121 38810 40129 57005 82932;EQDQ01  00002PRCP99
0112532760999992000040215004+42400+112900FM-12+115299999V0202501N006012200019N0300001N1+00971-01221101011ADDGF102991011001999999031021MD1710061+9999REMSYN060AAXX  02151 53276 42980 22506 10097 21122 40101 57006 81032;
0196532760999992000040218004+42400+112900FM-12+115299999V0202501N007012200019N0300001N1+00691-01331100971ADDAA199000091GA1001+999999999GF100991001001999999001001KA1999M+01581MA1999999088001MD1710041+9999REMSYN070AAXX  02181 53276 32980 02507 10069 21133 38800 40097 57004 333 10158;EQDQ01  00002PRCP99
0122532760999992000040221004+42400+112900FM-12+115299999V0202501N008012200019N0300001N1+00391-01571100961ADDGA1001+999999999GF100991001001999999001001MD1710041+9999REMSYN054AAXX  02211 53276 42980 02508 10039 21157 40096 57004;
0201532760999992000040300004+42400+112900FM-12+115299999V0202501N008012200019N0300001N1+00601-01741101091ADDAA199000091GA1001+999999999GF100991001001999999001001IA2999-00109MA1999999088041MD1210081-0601REMSYN076AAXX  03001 53276 32980 02508 10060 21174 38804 40109 52008 333 05605 31012;EQDQ01  00002PRCP99
0122532760999992000040303004+42400+112900FM-12+115299999V0202701N010012200019N0200001N1+01511-02251100851ADDGA1001+999999999GF100991001001999999001001MD1710061+9999REMSYN054AAXX  03031 53276 42970 02710 10151 21225 40085 57006;
0221532760999992000040306004+42400+112900FM-12+115299999V0202701N014012200019N0030001N1+01571-02421100631ADDAA199000091GF104991001001999999001021KA1240N+00231MA1999999087741MD1710241+9999MW1071OA130601901REMSYN094AAXX  03061 53276 31930 42714 10157 21242 38774 40063 57024 70700 80002 333 20023 91119 91522;EQDQ01  00002PRCP99
0124532760999992000040309004+42400+112900FM-12+115299999V0203201N012012200019N0030001N1+01391-02441100701ADDGF102991001001999999001021MD1710041+9999MW1071REMSYN066AAXX  03091 53276 41930 23212 10139 21244 40070 57004 70700 80002;
0202532760999992000040312004+42400+112900FM-12+115299999V0203201N012012200019N0080001N1+00771-02461101161ADDAA199000091GF101991001001999999001021MA1999999088021MD1210321+9999MW1071OA130601901REMSYN088AAXX  03121 53276 31958 13212 10077 21246 38802 40116 52032 70700 80002 333 91119 91529;EQDQ01  00002PRCP99
0134532760999992000040315004+42400+112900FM-12+115299999V0203201N012012200019N0090001N1-00091-01061101731ADDGA1001+999999999GF100991001001999999001001MD1210501+9999MW1071REMSYN060AAXX  03151 53276 41959 03212 11009 21106 40173 52050 70700;
0209532760999992000040318004+42400+112900FM-12+115299999V0203201N008012200019N0150001N1-00301-00761102021ADDAA199000091GF101991001001999999001021KA1240M+01661MA1999999088741MD1210221+9999OA130602101REMSYN088AAXX  03181 53276 32965 13208 11030 21076 38874 40202 52022 80002 333 10166 91121 91529;EQDQ01  00002PRCP99
0112532760999992000040321004+42400+112900FM-12+115299999V0203201N008012200019N0300001N1-00471-00871102121ADDGF101991001001999999001021MD1210011+9999REMSYN060AAXX  03211 53276 42980 13208 11047 21087 40212 52001 80002;
0173532760999992000040400004+42400+112900FM-12+115299999V0203201N007012200019N0300001N1-00401-01081102491ADDAA199000091GF101991011001999999031001MA1999999088951MD1210201+0091REMSYN076AAXX  04001 53276 32980 13207 11040 21108 38895 40249 52020 81030 333 00960;EQDQ01  00002PRCP99
0112532760999992000040403004+42400+112900FM-12+115299999V0203201N010012200019N0300001N1-00061-01221102791ADDGF102991021011017501001001MD1210141+9999REMSYN060AAXX  04031 53276 42780 23210 11006 21122 40279 52014 82100;
0209532760999992000040406004+42400+112900FM-12+115299999V0203401N011012200019N0250001N1+00091-02131102711ADDAA199000091GF102991011011017501001021KA1240N-00551MA1999999089011MD1710081+9999OA130601701REMSYN088AAXX  04061 53276 32775 23411 10009 21213 38901 40271 57008 81102 333 21055 91117 91532;EQDQ01  00002PRCP99
0122532760999992000040409004+42400+112900FM-12+115299999V0203201N009012200019N0300001N1+00131-01981102701ADDGA1001+999999999GF100991001001999999001001MD1710041+9999REMSYN054AAXX  04091 53276 42980 03209 10013 21198 40270 57004;
0200532760999992000040412004+42400+112900FM-12+115299999V0203401N004012200019N0300001N1-00211-01761102951ADDAA199000091GA1001+999999999GF100991001001999999001001MA1999999089121MD1210151+9999OA130602001REMSYN076AAXX  04121 53276 32980 03404 11021 21176 38912 40295 52015 333 91120 91532;EQDQ01  00002PRCP99
0122532760999992000040415004+42400+112900FM-12+115299999V0202501N003012200019N0300001N1-00541-02421102971ADDGA1001+999999999GF100991001001999999001001MD1210021+9999REMSYN054AAXX  04151 53276 42980 02503 11054 21242 40297 52002;
0196532760999992000040418004+42400+112900FM-12+115299999V0202201N006012200019N0300001N1-00561-02251102791ADDAA199000091GA1001+999999999GF100991001001999999001001KA1999M+00181MA1999999089021MD1710121+9999REMSYN070AAXX  04181 53276 32980 02206 11056 21225 38902 40279 57012 333 10018;EQDQ01  00002PRCP99
0122532760999992000040421004+42400+112900FM-12+115299999V0202201N007012200019N0300001N1-00481-02121102501ADDGA1001+999999999GF100991001001999999001001MD1710231+9999REMSYN054AAXX  04211 53276 42980 02207 11048 21212 40250 57023;
0173532760999992000040500004+42400+112900FM-12+115299999V0202501N008012200019N0300001N1-00161-01951102331ADDAA199000091GF104991001001999999001021MA1999999088641MD1710151+0031REMSYN076AAXX  05001 53276 32980 42508 11016 21195 38864 40233 57015 80002 333 05302;EQDQ01  00002PRCP99
0122532760999992000040503004+42400+112900FM-12+115299999V0202501N011012200019N0200001N1+00801-02471101911ADDGA1001+999999999GF100991001001999999001001MD1710221+9999REMSYN054AAXX  05031 53276 42970 02511 10080 21247 40191 57022;
0209532760999992000040506004+42400+112900FM-12+115299999V0202701N012019999999N0110001N1+01201-03211101451ADDAA199000091GF107991001001999999001021KA1240N-00631MA1999999088111MD1710311+9999OA130601801REMSYN088AAXX  05061 53276 32961 72712 10120 21321 38811 40145 57031 80002 333 21063 91118 91529;EQDQ01  00002PRCP99
0124532760999992000040509004+42400+112900FM-12+115299999V0202901N011019999999N0050001N1+01271-03161101061ADDGF107991001001999999001021MD1710311+9999MW1071REMSYN066AAXX  05091 53276 41950 72911 10127 21316 40106 57031 70700 80002;
0200532760999992000040512004+42400+112900FM-12+115299999V0202501N010012200019N0150001N1+00921-02791100941ADDAA199000091GA1001+999999999GF100991001001999999001001MA1999999087691MD1710111+9999OA130601801REMSYN076AAXX  05121 53276 32965 02510 10092 21279 38769 40094 57011 333 91118 91527;EQDQ01  00002PRCP99
0134532760999992000040515004+42400+112900FM-12+115299999V0202501N013012200019N0060001N1+00831-02911100651ADDGA1001+999999999GF100991001001999999001001MD1710061+9999MW1071REMSYN060AAXX  05151 53276 41956 02513 10083 21291 40065 57006 70700;
0231532760999992000040518004+42400+112900FM-12+115299999V0202901N011010006019N0006001N1+00821-02981100421ADDAA199000091GA1091+999999999GF109991091999999999999999KA1240M+01331MA1999999087511MD1710121+9999MW1321OA130602201REMSYN088AAXX  05181 53276 31/06 92911 10082 21298 38751 40042 57012 73200 333 10133 91122 91525;EQDQ01  00002PRCP99
0134532760999992000040521004+42400+112900FM-12+115299999V0203201N012012200019N0020001N1+00031-01652101161ADDGA1001+999999999GF100991001001999999001001MD1210491+9999MW1071REMSYN060AAXX  05211 53276 41920 03212 10003 21165 40116 52049 70700;
0260532760999992000040600004+42400+112900FM-12+115299999V0203201N012012200019N0080001N1-00351-02231101692ADDAA199000091AY131061GA1001+999999999GF100991001001999999001001IA2999-00379MA1999999088301MD1210301-0301MW1091OA130602001REMSYN094AAXX  06001 53276 31958 03212 11035 21223 38830 40169 52030 70930 333 05352 31037 91120 91532;EQDQ01+101693APOSLPQ02  00002PRCP99
0142532760999992000040603004+42400+112900FM-12+115299999V0203201N014010012019N0015001N1-00301-02421101881ADDAY131031GA1091+999999999GF109991091999999999999999MD1210161+9999MW1091REMSYN060AAXX  06031 53276 41/15 93214 11030 21242 40188 52016 70930;
0239532760999992000040606004+42400+112900FM-12+115299999V0202901N013010006019N0008001N1+00001-02821101831ADDAA199000091AY131061GA1091+999999999GF109991091999999999999999KA1240N-00401MA1999999088481MD1210021+9999MW1321OA130602001REMSYN088AAXX  06061 53276 31/08 92913 10000 21282 38848 40183 52002 73230 333 21040 91120 91529;EQDQ01  00002PRCP99
0142532760999992000040609004+42400+112900FM-12+115299999V0203201N012010012019N0015001N1+00141-03361102021ADDAY131031GA1091+999999999GF109991091999999999999999MD1210021+9999MW1071REMSYN060AAXX  06091 53276 41/15 93212 10014 21336 40202 52002 70730;
0220532760999992000040612004+42400+112900FM-12+115299999V0203201N006012200019N0060001N1-00031-02501102321ADDAA199000091AY131061GA1001+999999999GF100991001001999999001001MA1999999088631MD1210131+9999MW1071OA130602001REMSYN082AAXX  06121 53276 31956 03206 11003 21250 38863 40232 52013 70730 333 91120 91532;EQDQ01  00002PRCP99
0122532760999992000040615004+42400+112900FM-12+115299999V0202501N006012200019N0250001N1-00421-02041102471ADDGA1001+999999999GF100991001001999999001001MD1210051+9999REMSYN054AAXX  06151 53276 42975 02506 11042 21204 40247 52005;
0196532760999992000040618004+42400+112900FM-12+115299999V0202501N006012200019N0300001N1-00351-01701102301ADDAA199000091GA1001+999999999GF100991001001999999001001KA1999M+00841MA1999999088621MD1710061+9999REMSYN070AAXX  06181 53276 32980 02506 11035 21170 38862 40230 57006 333 10084;EQDQ01  00002PRCP99
0122532760999992000040621004+42400+112900FM-12+115299999V0203401N006012200019N0300001N1-00381-01941102351ADDGA1001+999999999GF100991001001999999001001MD1210071+9999REMSYN054AAXX  06211 53276 42980 03406 11038 21194 40235 52007;
0173532760999992000040700004+42400+112900FM-12+115299999V0201401N001012200019N0300001N1-00521-02241102701ADDAA199000091GF101991011001999999031001MA1999999088921MD1210231+0061REMSYN076AAXX  07001 53276 32980 11401 11052 21224 38892 40270 52023 81030 333 00652;EQDQ01  00002PRCP99
0112532760999992000040703004+42400+112900FM-12+115299999V0201601N003012200019N0300001N1+00161-02191102561ADDGF103991001001999999001021MD1710051+9999REMSYN060AAXX  07031 53276 42980 31603 10016 21219 40256 57005 80002;
0186532760999992000040706004+42400+112900FM-12+115299999V0203201N003012200019N0300001N1+00861-02151101971ADDAA199000091GF102991001001999999001021KA1999N-00711MA1999999088531MD1710341+9999REMSYN076AAXX  07061 53276 32980 23203 10086 21215 38853 40197 57034 80002 333 21071;EQDQ01  00002PRCP99
0122532760999992000040709004+42400+112900FM-12+115299999V0203201N008012200019N0300001N1+01361-02241101541ADDGA1001+999999999GF100991001001999999001001MD1710271+9999REMSYN054AAXX  07091 53276 42980 03208 10136 21224 40154 57027;
0173532760999992000040712004+42400+112900FM-12+115299999V0201601N004012200019N0300001N1+00851-01671101641ADDAA199000091GA1001+999999999GF100991001001999999001001MA1999999088201MD1710061+9999REMSYN060AAXX  07121 53276 32980 01604 10085 21167 38820 40164 57006;EQDQ01  00002PRCP99
0122532760999992000040715004+42400+112900FM-12+115299999V0202001N009012200019N0300001N1+00621-02061101501ADDGA1001+999999999GF100991001001999999001001MD1710021+9999REMSYN054AAXX  07151 53276 42980 02009 10062 21206 40150 57002;
0196532760999992000040718004+42400+112900FM-12+115299999V0202001N010012200019N0300001N1+00551-02241101161ADDAA199000091GA1001+999999999GF100991001001999999001001KA1999M+01411MA1999999088021MD1710161+9999REMSYN070AAXX  07181 53276 32980 02010 10055 21224 38802 40116 57016 333 10141;EQDQ01  00002PRCP99
0122532760999992000040721004+42400+112900FM-12+115299999V0202201N010012200019N0300001N1+00601-02691100811ADDGA1001+999999999GF100991001001999999001001MD1710181+9999REMSYN054AAXX  07211 53276 42980 02210 10060 21269 40081 57018;
0191532760999992000040800004+42400+112900FM-12+115299999V0202001N010010120019N0110001N1+01021-02421100581ADDAA199000091GF106991051051012501001021IA2999+00009MA1999999087621MD1710221-1301REMSYN082AAXX  08001 53276 32661 62010 10102 21242 38762 40058 57022 85502 333 06315 30001;EQDQ01  00002PRCP99
0124532760999992000040803004+42400+112900FM-12+115299999V0202501N013012200019N0080001N1+01701-02771100361ADDGF103991001001999999001021MD1710101+9999MW1071REMSYN066AAXX  08031 53276 41958 32513 10170 21277 40036 57010 70700 80002;
0239532760999992000040806004+42400+112900FM-12+115299999V0202901N011010003019N0004001N1+01701-02731100111ADDAA199000091AY131061GA1091+999999999GF109991091999999999999999KA1240N+00471MA1999999087291MD1710231+9999MW1351OA130602101REMSYN088AAXX  08061 53276 31/04 92911 10170 21273 38729 40011 57023 73530 333 20047 91121 91525;EQDQ01  00002PRCP99
0150532760999992000040809004+42400+112900FM-12+115299999V0203201N014010003019N0003001N1+01311-01332100311ADDAY131031AY231031GA1091+999999999GF109991091999999999999999MD1210101+9999MW1351REMSYN060AAXX  08091 53276 41/03 93214 10131 21133 40031 52010 73533;
0210532760999992000040812004+42400+112900FM-12+115299999V0203601N009019999999N0080001N1+00641-01461100971ADDAA199000091AY131061GF107991051001999999031021MA1999999087911MD1210521+9999MW1071OA130602001REMSYN088AAXX  08121 53276 31958 73609 10064 21146 38791 40097 52052 70730 85032 333 91120 91529;EQDQ01  00002PRCP99
0124532760999992000040815004+42400+112900FM-12+115299999V0200201N006010120019N0120001N1-00131-01031101461ADDGF107991071051012501021999MD1210411+9999MW1701REMSYN066AAXX  08151 53276 41662 70206 11013 21103 40146 52041 77000 8752/;
0193532760999992000040818004+42400+112900FM-12+115299999V0200201N010010120019N0200001N1-00411-01611101631ADDAA106000191AY171061GF107991071051012501999999KA1999M+01941MA1999999088411MD1210091+9999MW1001REMSYN088AAXX  08181 53276 11670 70210 11041 21161 38841 40163 52009 69911 70070 875// 333 10194;
0133532760999992000040821004+42400+112900FM-12+115299999V0203601N010010900019N0300001N1-00631-02331101981ADDAA124000191GF106991021051012501001021MD1210171+9999REMSYN070AAXX  08211 53276 42680 63610 11063 21233 40198 52017 82502 333 70001;
0160532760999992000040900004+42400+112900FM-12+115299999V0203401N008010360019N0300001N1-00881-02611102661ADDAA124000191GF107991021051012501011999MA1999999088961MD1210381+1301REMSYN082AAXX  09001 53276 32680 73408 11088 21261 38896 40266 52038 8251/ 333 01369 70001;
0112532760999992000040903004+42400+112900FM-12+115299999V0202901N010012200019N0300001N1-00701-02891103001ADDGF101991001001999999001021MD1210151+9999REMSYN060AAXX  09031 53276 42980 12910 11070 21289 40300 52015 80002;
0231532760999992000040906004+42400+112900FM-12+115299999V0203201N011012200019N0050001N1-00401-02891102861ADDAA199000091GA1001+999999999GF100991001001999999001001KA1240N-00881MA1999999089001MD1710111+9999MW1071OA130602001REMSYN088AAXX  09061 53276 31950 03211 11040 21289 38900 40286 57011 70700 333 21088 91120 91532;EQDQ01  00002PRCP99
0142532760999992000040909004+42400+112900FM-12+115299999V0202901N012010003019N0004001N1-00211-02221102761ADDAY131031GA1091+999999999GF109991091999999999999999MD1710101+9999MW1341REMSYN060AAXX  09091 53276 41/04 92912 11021 21222 40276 57010 73430;
0200532760999992000040912004+42400+112900FM-12+115299999V0202901N005012200019N0150001N1-00221-02261102841ADDAA199000091GA1001+999999999GF100991001001999999001001MA1999999088911MD1210011+9999OA130602001REMSYN076AAXX  09121 53276 32965 02905 11022 21226 38891 40284 52001 333 91120 91532;EQDQ01  00002PRCP99
0122532760999992000040915004+42400+112900FM-12+115299999V0202501N007012200019N0300001N1-00341-02341102851ADDGA1001+999999999GF100991001001999999001001MD1210021+9999REMSYN054AAXX  09151 53276 42980 02507 11034 21234 40285 52002;
0196532760999992000040918004+42400+112900FM-12+115299999V0202901N008012200019N0300001N1-00331-02081102651ADDAA199000091GA1001+999999999GF100991001001999999001001KA1999M-00121MA1999999088831MD1710101+9999REMSYN070AAXX  09181 53276 32980 02908 11033 21208 38883 40265 57010 333 11012;EQDQ01  00002PRCP99
0122532760999992000040921004+42400+112900FM-12+115299999V0202901N005012200019N0300001N1-00431-01891102591ADDGA1001+999999999GF100991001001999999001001MD1710031+9999REMSYN054AAXX  09211 53276 42980 02905 11043 21189 40259 57003;
0183532760999992000041000004+42400+112900FM-12+115299999V0202701N007012200019N0300001N1-00231-01731102671ADDAA199000091GA1001+999999999GF100991001001999999001001MA1999999088921MD1210121+0001REMSYN070AAXX  10001 53276 32980 02707 11023 21173 38892 40267 52012 333 00007;EQDQ01  00002PRCP99
0112532760999992000041003004+42400+112900FM-12+115299999V0202901N009012200019N0300001N1+00511-02001102471ADDGF101991001001999999001021MD1710031+9999REMSYN060AAXX  10031 53276 42980 12909 10051 21200 40247 57003 80002;
0196532760999992000041006004+42400+112900FM-12+115299999V0202501N007012200019N0300001N1+00941-02021102131ADDAA199000091GA1001+999999999GF100991001001999999001001KA1999N-00621MA1999999088691MD1710201+9999REMSYN070AAXX  10061 53276 32980 02507 10094 21202 38869 40213 57020 333 21062;EQDQ01  00002PRCP99
0122532760999992000041009004+42400+112900FM-12+115299999V0202901N008012200019N0300001N1+01181-02111101821ADDGA1001+999999999GF100991001001999999001001MD1710241+9999REMSYN054AAXX  10091 53276 42980 02908 10118 21211 40182 57024;
0173532760999992000041012004+42400+112900FM-12+115299999V0202501N005012200019N0300001N1+00641-02211101791ADDAA199000091GA1001+999999999GF100991001001999999001001MA1999999088351MD1710101+9999REMSYN060AAXX  10121 53276 32980 02505 10064 21221 38835 40179 57010;EQDQ01  00002PRCP99
0122532760999992000041015004+42400+112900FM-12+115299999V0202201N007012200019N0300001N1+00381-01951101651ADDGA1001+999999999GF100991001001999999001001MD1710011+9999REMSYN054AAXX  10151 53276 42980 02207 10038 21195 40165 57001;
0196532760999992000041018004+42400+112900FM-12+115299999V0202501N009012200019N0300001N1+00451-02211101361ADDAA199000091GA1001+999999999GF100991001001999999001001KA1999M+01231MA1999999088191MD1710151+9999REMSYN070AAXX  10181 53276 32980 02509 10045 21221 38819 40136 57015 333 10123;EQDQ01  00002PRCP99
0112532760999992000041021004+42400+112900FM-12+115299999V0202201N008012200019N0300001N1+00271-02241101211ADDGF102991001001999999001021MD1710111+9999REMSYN060AAXX  10211 53276 42980 22208 10027 21224 40121 57011 80002;
0201532760999992000041100004+42400+112900FM-12+115299999V0202201N007012200019N0200001N1+00591-02301101151ADDAA199000091GA1001+999999999GF100991001001999999001001IA2999-00209MA1999999087981MD1710101-0901REMSYN076AAXX  11001 53276 32970 02207 10059 21230 38798 40115 57010 333 05908 31024;EQDQ01  00002PRCP99
0122532760999992000041103004+42400+112900FM-12+115299999V0202501N011012200019N0200001N1+01441-02791100771ADDGA1001+999999999GF100991001001999999001001MD1710211+9999REMSYN054AAXX  11031 53276 42970 02511 10144 21279 40077 57021;
0219532760999992000041106004+42400+112900FM-12+115299999V0202501N009012200019N0150001N1+01691-02651100401ADDAA199000091GA1001+999999999GF100991001001999999001001KA1240N+00091MA1999999087521MD1710251+9999OA130601701REMSYN082AAXX  11061 53276 32965 02509 10169 21265 38752 40040 57025 333 20009 91117 91527;EQDQ01  00002PRCP99
0141532760999992000041109004+42400+112900FM-12+115299999V0202701N008012200019N0200001N1+01771+99999100241ADDGA1001+999999999GF100991001001999999001001MD1710161+9999REMSYN054AAXX  11091 53276 42970 02708 10177 21415 40024 57016;EQDQ01-004153ATOD  
0200532760999992000041112004+42400+112900FM-12+115299999V0202701N004012200019N0300001N1+01111-02291100371ADDAA199000091GA1001+999999999GF100991001001999999001001MA1999999087401MD1210041+9999OA130601701REMSYN076AAXX  11121 53276 32980 02704 10111 21229 38740 40037 52004 333 91117 91529;EQDQ01  00002PRCP99
0122532760999992000041115004+42400+112900FM-12+115299999V0202501N007012200019N0300001N1+00751-02711100281ADDGA1001+999999999GF100991001001999999001001MD1210021+9999REMSYN054AAXX  11151 53276 42980 02507 10075 21271 40028 52002;
0196532760999992000041118004+42400+112900FM-12+115299999V0202501N006012200019N0300001N1+00541-02381100291ADDAA199000091GA1001+999999999GF100991001001999999001001KA1999M+01801MA1999999087441MD1210021+9999REMSYN070AAXX  11181 53276 32980 02506 10054 21238 38744 40029 52002 333 10180;EQDQ01  00002PRCP99
0122532760999992000041121004+42400+112900FM-12+115299999V0202501N007012200019N0300001N1+00371-02271100351ADDGA1001+999999999GF100991001001999999001001MD1210031+9999REMSYN054AAXX  11211 53276 42980 02507 10037 21227 40035 52003;
0191532760999992000041200004+42400+112900FM-12+115299999V0203201N004012200019N0300001N1+00431-02051100891ADDAA199000091GF101991001001999999001021IA2999-00109MA1999999087821MD1210351-0201REMSYN082AAXX  12001 53276 32980 13204 10043 21205 38782 40089 52035 80002 333 05252 31019;EQDQ01  00002PRCP99
0112532760999992000041203004+42400+112900FM-12+115299999V0200401N005012200019N0300001N1+01051-01811100971ADDGF102991001001999999001021MD1210121+9999REMSYN060AAXX  12031 53276 42980 20405 10105 21181 40097 52012 80002;
0186532760999992000041206004+42400+112900FM-12+115299999V0200401N007012200019N0300001N1+01291-01671100941ADDAA199000091GF104991001001999999001021KA1999N+00131MA1999999087921MD1710021+9999REMSYN076AAXX  12061 53276 32980 40407 10129 21167 38792 40094 57002 80002 333 20013;EQDQ01  00002PRCP99
0112532760999992000041209004+42400+112900FM-12+115299999V0200401N007010900019N0300001N1+01291-01591101021ADDGF107991021051017501001021MD1210041+9999REMSYN060AAXX  12091 53276 42780 70407 10129 21159 40102 52004 82502;
0163532760999992000041212004+42400+112900FM-12+115299999V0200201N007010900019N0300001N1+00861-01721101371ADDAA199000091GF106991021051017501001021MA1999999088181MD1210221+9999REMSYN066AAXX  12121 53276 32780 60207 10086 21172 38818 40137 52022 82502;EQDQ01  00002PRCP99
0112532760999992000041215004+42400+112900FM-12+115299999V0200201N005019999999N0300001N1+00431-01871101591ADDGF107991021001999999031021MD1210231+9999REMSYN060AAXX  12151 53276 42980 70205 10043 21187 40159 52023 82032;
0186532760999992000041218004+42400+112900FM-12+115299999V0200401N004019999999N0300001N1+00051-01951101761ADDAA199000091GF107991011001999999031021KA1999M+01471MA1999999088531MD1210121+9999REMSYN076AAXX  12181 53276 32980 70404 10005 21195 38853 40176 52012 81032 333 10147;EQDQ01  00002PRCP99
0112532760999992000041221004+42400+112900FM-12+115299999V0200401N004010900019N0300001N1-00081-01901102061ADDGF107991021051012501001021MD1210231+9999REMSYN060AAXX  12211 53276 42680 70404 11008 21190 40206 52023 82502;
0191532760999992000041300004+42400+112900FM-12+115299999V0200701N005010900019N0300001N1+00021-01701102401ADDAA199000091GF107991011051012501001021IA2999-00409MA1999999088991MD1210231+1201REMSYN082AAXX  13001 53276 32680 70705 10002 21170 38899 40240 52023 81502 333 01254 31048;EQDQ01  00002PRCP99
0112532760999992000041303004+42400+112900FM-12+115299999V0200701N009019999999N0300001N1+00321-01891102521ADDGF107991031001999999031021MD1210071+9999REMSYN060AAXX  13031 53276 42980 70709 10032 21189 40252 52007 83032;
0186532760999992000041306004+42400+112900FM-12+115299999V0200401N005019999999N0300001N1+00471-02161102521ADDAA199000091GF107991051001999999031021KA1999N-00331MA1999999089011MD1710051+9999REMSYN076AAXX  13061 53276 32980 70405 10047 21216 38901 40252 57005 85032 333 21033;EQDQ01  00002PRCP99
0112532760999992000041309004+42400+112900FM-12+115299999V0200201N006010360019N0300001N1+00551-02291102481ADDGF107991021051017501031021MD1710051+9999REMSYN060AAXX  13091 53276 42780 70206 10055 21229 40248 57005 82532;
0163532760999992000041312004+42400+112900FM-12+115299999V0203601N004010150019N0300001N1+00351-02201102641ADDAA199000091GF107991051051017501001021MA1999999089081MD1210121+9999REMSYN066AAXX  13121 53276 32780 73604 10035 21220 38908 40264 52012 85502;EQDQ01  00002PRCP99
0112532760999992000041315004+42400+112900FM-12+115299999V0203201N004010150019N0300001N1+00241-01971102671ADDGF107991061051017501001021MD1210071+9999REMSYN060AAXX  13151 53276 42780 73204 10024 21197 40267 52007 86502;
0186532760999992000041318004+42400+112900FM-12+115299999V0202701N004010150019N0300001N1+00001-02281102541ADDAA199000091GF107991061051017501001021KA1999M+00601MA1999999089021MD1710131+9999REMSYN076AAXX  13181 53276 32780 72704 10000 21228 38902 40254 57013 86502 333 10060;EQDQ01  00002PRCP99
0112532760999992000041321004+42400+112900FM-12+115299999V0202501N003010150019N0300001N1-00131-01871102431ADDGF107991071051017501001021MD1710111+9999REMSYN060AAXX  13211 53276 42780 72503 11013 21187 40243 57011 87502;
0191532760999992000041400004+42400+112900FM-12+115299999V0202501N006010150019N0300001N1+00101-02141102551ADDAA199000091GF107991061051017501001021IA2999-00409MA1999999089021MD1210111+0001REMSYN082AAXX  14001 53276 32780 72506 10010 21214 38902 40255 52011 86502 333 00001 31049;EQDQ01  00002PRCP99
0112532760999992000041403004+42400+112900FM-12+115299999V0203401N005010150019N0300001N1+00661-01511102451ADDGF107991051051017501001021MD1210011+9999REMSYN060AAXX  14031 53276 42780 73405 10066 21151 40245 52001 85502;
0186532760999992000041406004+42400+112900FM-12+115299999V0202901N005019999999N0300001N1+00881-01511102281ADDAA199000091GF107991041001999999031021KA1999N-00201MA1999999088881MD1710151+9999REMSYN076AAXX  14061 53276 32980 72905 10088 21151 38888 40228 57015 84032 333 21020;EQDQ01  00002PRCP99
0112532760999992000041409004+42400+112900FM-12+115299999V0203601N006012200019N0300001N1+01001-01511102111ADDGF102991011001999999031021MD1710151+9999REMSYN060AAXX  14091 53276 42980 23606 10100 21151 40211 57015 81032;
0112532760999992000041415004+42400+112900FM-12+115299999V0202501N003012200019N0300001N1+00291-01421102201ADDGF101991001001999999001021MD1210021+9999REMSYN060AAXX  14151 53276 42980 12503 10029 21142 40220 52002 80002;
0196532760999992000041418004+42400+112900FM-12+115299999V0202501N007012200019N0300001N1+00011-01681102141ADDAA199000091GA1001+999999999GF100991001001999999001001KA1999M+01061MA1999999088761MD1710071+9999REMSYN070AAXX  14181 53276 32980 02507 10001 21168 38876 40214 57007 333 10106;EQDQ01  00002PRCP99
0122532760999992000041421004+42400+112900FM-12+115299999V0202501N007012200019N0300001N1-00081-01731102061ADDGA1001+999999999GF100991001001999999001001MD1710061+9999REMSYN054AAXX  14211 53276 42980 02507 11008 21173 40206 57006;
0191532760999992000041500004+42400+112900FM-12+115299999V0202501N005019999999N0300001N1+00361-01291102041ADDAA199000091GF106991001001999999001021IA2999-00409MA1999999088701MD1410001-0301REMSYN082AAXX  15001 53276 32980 62505 10036 21129 38870 40204 54000 80002 333 05303 31041;EQDQ01  00002PRCP99
0112532760999992000041503004+42400+112900FM-12+115299999V0202501N008012200019N0300001N1+01101-01741101831ADDGF102991001001999999001021MD1710101+9999REMSYN060AAXX  15031 53276 42980 22508 10110 21174 40183 57010 80002;
0186532760999992000041506004+42400+112900FM-12+115299999V0203401N008019999999N0300001N1+01421-01811101541ADDAA199000091GF107991001001999999001021KA1999N-00171MA1999999088361MD1710241+9999REMSYN076AAXX  15061 53276 32980 73408 10142 21181 38836 40154 57024 80002 333 21017;EQDQ01  00002PRCP99
0112532760999992000041509004+42400+112900FM-12+115299999V0202901N008012200019N0300001N1+01511-01791101411ADDGF104991001001999999001021MD1710111+9999REMSYN060AAXX  15091 53276 42980 42908 10151 21179 40141 57011 80002;
0163532760999992000041512004+42400+112900FM-12+115299999V0202501N004012200019N0300001N1+00981-01721101391ADDAA199000091GF101991001001999999001021MA1999999088211MD1710041+9999REMSYN066AAXX  15121 53276 32980 12504 10098 21172 38821 40139 57004 80002;EQDQ01  00002PRCP99
0122532760999992000041515004+42400+112900FM-12+115299999V0202501N006012200019N0300001N1+00671-01691101321ADDGA1001+999999999GF100991001001999999001001MD1210031+9999REMSYN054AAXX  15151 53276 42980 02506 10067 21169 40132 52003;
0186532760999992000041518004+42400+112900FM-12+115299999V0202501N005012200019N0300001N1+00381-01531101221ADDAA199000091GF103991001001999999001021KA1999M+01541MA1999999088161MD1710081+9999REMSYN076AAXX  15181 53276 32980 32505 10038 21153 38816 40122 57008 80002 333 10154;EQDQ01  00002PRCP99
0112532760999992000041521004+42400+112900FM-12+115299999V0202501N006019999999N0300001N1+00581-01561101031ADDGF108991001001999999001071MD1710101+9999REMSYN060AAXX  15211 53276 42980 82506 10058 21156 40103 57010 80007;
0191532760999992000041600004+42400+112900FM-12+115299999V0202501N009019999999N0300001N1+00881-01641101011ADDAA199000091GF107991031001999999031021IA2999+00009MA1999999087991MD1710071-0701REMSYN082AAXX  16001 53276 32980 72509 10088 21164 38799 40101 57007 83032 333 05705 30007;EQDQ01  00002PRCP99
0112532760999992000041603004+42400+112900FM-12+115299999V0202901N004019999999N0300001N1+01401-01281100951ADDGF106991001001999999001021MD1710011+9999REMSYN060AAXX  16031 53276 42980 62904 10140 21128 40095 57001 80002;
0186532760999992000041606004+42400+112900FM-12+115299999V0203201N007012200019N0300001N1+01801-01681100701ADDAA199000091GF104991011001999999031021KA1999N+00361MA1999999087791MD1710191+9999REMSYN076AAXX  16061 53276 32980 43207 10180 21168 38779 40070 57019 81032 333 20036;EQDQ01  00002PRCP99
0112532760999992000041609004+42400+112900FM-12+115299999V0203201N009012200019N0300001N1+01761-01401100571ADDGF102991001001999999001021MD1710081+9999REMSYN060AAXX  16091 53276 42980 23209 10176 21140 40057 57008 80002;
0163532760999992000041612004+42400+112900FM-12+115299999V0203201N006012200019N0300001N1+01311-01431100801ADDAA199000091GF102991011001999999031021MA1999999087881MD1210171+9999REMSYN066AAXX  16121 53276 32980 23206 10131 21143 38788 40080 52017 81032;EQDQ01  00002PRCP99
0112532760999992000041615004+42400+112900FM-12+115299999V0203401N004012200019N0300001N1+00771-01381100991ADDGF101991001001999999001021MD1210161+9999REMSYN060AAXX  16151 53276 42980 13404 10077 21138 40099 52016 80002;
0186532760999992000041618004+42400+112900FM-12+115299999V0202001N003019999999N0300001N1+00601-01071100991ADDAA199000091GF107991001001999999001021KA1999M+01881MA1999999088091MD1210051+9999REMSYN076AAXX  16181 53276 32980 72003 10060 21107 38809 40099 52005 80002 333 10188;EQDQ01  00002PRCP99
0112532760999992000041621004+42400+112900FM-12+115299999V0202501N004019999999N0300001N1+00521-01251101061ADDGF107991011001999999031081MD1210031+9999REMSYN060AAXX  16211 53276 42980 72504 10052 21125 40106 52003 81038;
0191532760999992000041700004+42400+112900FM-12+115299999V0201801N004019999999N0300001N1+00841-01261101131ADDAA199000091GF107991001001999999001021IA2999+00009MA1999999088161MD1210041+0201REMSYN082AAXX  17001 53276 32980 71804 10084 21126 38816 40113 52004 80002 333 00200 30003;EQDQ01  00002PRCP99
0112532760999992000041703004+42400+112900FM-12+115299999V0201801N004019999999N0300001N1+01551-01351101021ADDGF107991001001999999001021MD1710061+9999REMSYN060AAXX  17031 53276 42980 71804 10155 21135 40102 57006 80002;
0186532760999992000041706004+42400+112900FM-12+115299999V0201801N002019999999N0300001N1+01671-00961100891ADDAA199000091GF108991001001999999001071KA1999N+00441MA1999999087971MD1710131+9999REMSYN076AAXX  17061 53276 32980 81802 10167 21096 38797 40089 57013 80007 333 20044;EQDQ01  00002PRCP99
0112532760999992000041709004+42400+112900FM-12+115299999V0201401N007010120019N0300001N1+01731-01291100671ADDGF108991071051012501001071MD1710191+9999REMSYN060AAXX  17091 53276 42680 81407 10173 21129 40067 57019 87507;
0163532760999992000041712004+42400+112900FM-12+115299999V0201401N005010150019N0300001N1+01431-01241100721ADDAA199000091GF108991071051017501001071MA1999999087821MD1210041+9999REMSYN066AAXX  17121 53276 32780 81405 10143 21124 38782 40072 52004 87507;EQDQ01  00002PRCP99
0112532760999992000041715004+42400+112900FM-12+115299999V0202201N007010150019N0300001N1+01311-00911100641ADDGF107991061051017501001021MD1210061+9999REMSYN060AAXX  17151 53276 42780 72207 10131 21091 40064 52006 86502;
0186532760999992000041718004+42400+112900FM-12+115299999V0201801N007010150019N0300001N1+01161-01201100611ADDAA199000091GF108991051051017501001071KA1999M+01831MA1999999087841MD1710041+9999REMSYN076AAXX  17181 53276 32780 81807 10116 21120 38784 40061 57004 85507 333 10183;EQDQ01  00002PRCP99
0112532760999992000041721004+42400+112900FM-12+115299999V0202501N007010150019N0300001N1+01261-00591100531ADDGF108991051051017501001071MD1710031+9999REMSYN060AAXX  17211 53276 42780 82507 10126 21059 40053 57003 85507;
0178532760999992000041800004+42400+112900FM-12+115299999V0201801N007012200019N0300001N1+01221+00061100581ADDAA106000791GF104991011051017501001021MA1999999087781MD1710031-0401MW1211REMSYN094AAXX  18001 53276 11780 41807 10122 20006 38778 40058 57003 69901 72100 81502 333 05404 79999;
0112532760999992000041803004+42400+112900FM-12+115299999V0202201N007010900019N0250001N1+01771+00011100391ADDGF106991011011012501001021MD1710081+9999REMSYN060AAXX  18031 53276 42675 62207 10177 20001 40039 57008 81102;
0201532760999992000041806004+42400+112900FM-12+115299999V0202501N009010900019N0200001N1+02121-00421100111ADDAA106000791AY191061AY281061GF105991031091012501001021KA1999N+01031MA1999999087501MD1710201+9999MW1001REMSYN088AAXX  18061 53276 11670 52509 10212 21042 38750 40011 57020 69901 70098 83902 333 20103;
0112532760999992000041809004+42400+112900FM-12+115299999V0203201N009012200019N0300001N1+02071-01181099921ADDGF103991031011012501001021MD1710161+9999REMSYN060AAXX  18091 53276 42680 33209 10207 21118 49992 57016 83102;
0144532760999992000041812004+42400+112900FM-12+115299999V0203201N005012200019N0300001N1+01631-01061100191ADDAA199000021GF101991011041012501001021MA1999999087481MD1210141+9999REMSYN066AAXX  18121 53276 32680 13205 10163 21106 38748 40019 52014 81402;
0122532760999992000041815004+42400+112900FM-12+115299999V0202701N003012200019N0300001N1+01031-00801100421ADDGA1001+999999999GF100991001001999999001001MD1210191+9999REMSYN054AAXX  18151 53276 42980 02703 10103 21080 40042 52019;
0186532760999992000041818004+42400+112900FM-12+115299999V0202501N006010360019N0300001N1+01121-00751100331ADDAA199000091GF107991011051012501031021KA1999M+02241MA1999999087681MD1210011+9999REMSYN076AAXX  18181 53276 32680 72506 10112 21075 38768 40033 52001 81532 333 10224;EQDQ01  00002PRCP99
0133532760999992000041821004+42400+112900FM-12+115299999V0209999C000010900019N0300001N1+00781-00621100461ADDAA124000791GF107991041051017501001021MD1210041+9999REMSYN070AAXX  18211 53276 42780 70000 10078 21062 40046 52004 84502 333 79999;
0178532760999992000041900004+42400+112900FM-12+115299999V0202201N005010900019N0300001N1+01241-00721100501ADDAA124000791GF107991021051017501001021IA2999+00319MA1999999087761MD1210041+0001REMSYN088AAXX  19001 53276 32780 72205 10124 21072 38776 40050 52004 82502 333 00000 30031 79999;
0112532760999992000041903004+42400+112900FM-12+115299999V0202901N010010900019N0300001N1+01641-00521100641ADDGF108991031051017501001071MD1210081+9999REMSYN060AAXX  19031 53276 42780 82910 10164 21052 40064 52008 83507;
0221532760999992000041906004+42400+112900FM-12+115299999V0202901N011010360019N0070001N1+01051+00081100831ADDAA199000091GF107991011051017501011999KA1240N+00751MA1999999087901MD1210061+9999MW1071OA130601801REMSYN094AAXX  19061 53276 31757 72911 10105 20008 38790 40083 52006 70700 8151/ 333 20075 91118 91529;EQDQ01  00002PRCP99
0132532760999992000041909004+42400+112900FM-12+115299999V0202201N006010360019N0250001N1+00671+00241101001ADDAY161031GF108991021051017501021999MD1710011+9999MW1211REMSYN066AAXX  19091 53276 41775 82206 10067 20024 40100 57001 72160 8252/;
0112532760999992000041915004+42400+112900FM-12+115299999V0202001N009019999999N0300001N1+00721-00021100411ADDGF108991081001999999021999MD1710131+9999REMSYN060AAXX  19151 53276 42980 82009 10072 21002 40041 57013 8802/;
0208532760999992000041918004+42400+112900FM-12+115299999V0202501N014010150019N0120001N1+00521+00201100291ADDAA106000791GF108991051051017501021999KA1240M+01711MA1999999087301MD1710271+9999MW1601OA130602301REMSYN100AAXX  19181 53276 11762 82514 10052 20020 38730 40029 57027 69901 76000 8552/ 333 10171 91123 91525;
0153532760999992000041921004+42400+112900FM-12+115299999V0202701N012010150019N0150001N1+00401+00091100371ADDAA124001091AY161031GF107991071051017501999999MD1710041+9999MW1601REMSYN076AAXX  19211 53276 41765 72712 10040 20009 40037 57004 76060 875// 333 70011;
0227532760999992000042000004+42400+112900FM-12+115299999V0202901N011010150019N0200001N1+00471+00061100501ADDAA106000791AY161061GF107991071051017501999999IA2999+00309MA1999999087411MD1210151-0401MW1211OA130602301REMSYN112AAXX  20001 53276 11770 72911 10047 20006 38741 40050 52015 69901 72160 875// 333 05458 30030 70011 91123 91525;
0142532760999992000042003004+42400+112900FM-12+115299999V0202901N014010006019N0006001N1+00591-00041100581ADDAY131031GA1091+999999999GF109991091999999999999999MD1210091+9999MW1311REMSYN060AAXX  20031 53276 41/06 92914 10059 21004 40058 52009 73130;
0220532760999992000042006004+42400+112900FM-12+115299999V0202901N013010012019N0012001N1+00721-00111100671ADDAA199000021AY131061GA1091+999999999GF109991091999999999999999KA1240N+00381MA1999999087561MD1210061+9999MW1091OA130602101REMSYN088AAXX  20061 53276 31/12 92913 10072 21011 38756 40067 52006 70930 333 20038 91121 91527;
0132532760999992000042009004+42400+112900FM-12+115299999V0203201N009012200019N0300001N1+00781-00121100841ADDAY161031GF102991021011012501001001MD1210141+9999MW1001REMSYN066AAXX  20091 53276 41680 23209 10078 21012 40084 52014 70060 82100;
0197532760999992000042012004+42400+112900FM-12+115299999V0203201N003010900019N0200001N1+00501+00041101171ADDAA106000791AY161061GF107991021091017501001021MA1999999087941MD1210241+9999MW1001OA130602001REMSYN094AAXX  20121 53276 11770 73203 10050 20004 38794 40117 52024 69901 70060 82902 333 91120 91529;
0112532760999992000042015004+42400+112900FM-12+115299999V0202501N005010900019N0250001N1+00241+00121101241ADDGF107991021051017501001021MD1210031+9999REMSYN060AAXX  20151 53276 42775 72505 10024 20012 40124 52003 82502;
0185532760999992000042018004+42400+112900FM-12+115299999V0202901N008010150019N0150001N1+00131+00001101101ADDAA106000791GF105991051051017501001021KA1999M+00831MA1999999087851MD1710121+9999MW1681REMSYN088AAXX  20181 53276 11765 52908 10013 20000 38785 40110 57012 69901 76800 85502 333 10083;
0153532760999992000042021004+42400+112900FM-12+115299999V0202701N007010120019N0250001N1-00011-00471101131ADDAA124000791AY171031GF107991071051012501999999MD1210011+9999MW1001REMSYN076AAXX  20211 53276 41675 72707 11001 21047 40113 52001 70070 875// 333 79999;
0132532760999992000042103004+42400+112900FM-12+115299999V0202901N009010120019N0300001N1+00201-00461101451ADDAY171031GF107991071051012501999999MD1210141+9999MW1001REMSYN066AAXX  21031 53276 41680 72909 10020 21046 40145 52014 70070 875//;
0224532760999992000042106004+42400+112900FM-12+115299999V0203201N010010120019N0300001N1+00501-00861101411ADDAA106000791AY181061AY271061GF106991061011012501001001KA1240N-00161MA1999999088071MD1210011+9999MW1261OA130601701REMSYN100AAXX  21061 53276 11680 63210 10050 21086 38807 40141 52001 69901 72687 86100 333 21016 91117 91527;
0132532760999992000042109004+42400+112900FM-12+115299999V0202901N009010120019N0300001N1+00541-01391101481ADDAY181031GF106991061011012501001021MD1210041+9999MW1001REMSYN066AAXX  21091 53276 41680 62909 10054 21139 40148 52004 70080 86102;
0170532760999992000042112004+42400+112900FM-12+115299999V0203201N006012200019N0300001N1+00381-01761101701ADDAA106000791AY181061GF102991021041017501001021MA1999999088251MD1210141+9999MW1001REMSYN078AAXX  21121 53276 11780 23206 10038 21176 38825 40170 52014 69901 70080 82402;
0112532760999992000042115004+42400+112900FM-12+115299999V0202901N004010150019N0300001N1+00091-01481101701ADDGF107991061051017501001021MD1410001+9999REMSYN060AAXX  21151 53276 42780 72904 10009 21148 40170 54000 86502;
0167532760999992000042118004+42400+112900FM-12+115299999V0202901N008010900019N0300001N1+00051-00411101611ADDAA199000021GF106991021051017501001021KA1999M+00611MA1999999088231MD1710021+9999REMSYN076AAXX  21181 53276 32780 62908 10005 21041 38823 40161 57002 82502 333 10061;
0145532760999992000042121004+42400+112900FM-12+115299999V0202901N008010360019N0300001N1-00091-00191101581ADDAA124000791GF108991021051012501011999MD1710051+9999MW1701REMSYN076AAXX  21211 53276 41680 82908 11009 21019 40158 57005 77000 8251/ 333 79999;
0204532760999992000042200004+42400+112900FM-12+115299999V0203401N009012200019N0300001N1-00061-00581101771ADDAA106000191AY171061GF101991011051012501001001IA2999-00309MA1999999088311MD1210131+0401MW1001REMSYN100AAXX  22001 53276 11680 13409 11006 21058 38831 40177 52013 69911 70070 81500 333 00400 31030 70001;
0112532760999992000042203004+42400+112900FM-12+115299999V0203401N010012200019N0300001N1+00331-01391101901ADDGF102991021011012501001001MD1210141+9999REMSYN060AAXX  22031 53276 42680 23410 10033 21139 40190 52014 82100;
0167532760999992000042206004+42400+112900FM-12+115299999V0203401N010012200019N0300001N1+00581-01731101811ADDAA199000021GF101991011011012501001001KA1999N-00171MA1999999088421MD1710031+9999REMSYN076AAXX  22061 53276 32680 13410 10058 21173 38842 40181 57003 81100 333 21017;
0122532760999992000042209004+42400+112900FM-12+115299999V0203401N009012200019N0300001N1+00621-01681101761ADDGA1001+999999999GF100991001001999999001001MD1710071+9999REMSYN054AAXX  22091 53276 42980 03409 10062 21168 40176 57007;
0122532760999992000042215004+42400+112900FM-12+115299999V0202501N003012200019N0300001N1+00081-01501101881ADDGA1001+999999999GF100991001001999999001001MD1210061+9999REMSYN054AAXX  22151 53276 42980 02503 10008 21150 40188 52006;
0196532760999992000042218004+42400+112900FM-12+115299999V0202201N004012200019N0300001N1+00051-01371101751ADDAA199000091GA1001+999999999GF100991001001999999001001KA1999M+00721MA1999999088371MD1710061+9999REMSYN070AAXX  22181 53276 32980 02204 10005 21137 38837 40175 57006 333 10072;EQDQ01  00002PRCP99
0143532760999992000042221004+42400+112900FM-12+115299999V0202501N006012200019N0300001N1+00011-01161101611ADDAA124000191GA1001+999999999GF100991001001999999001001MD1710131+9999REMSYN064AAXX  22211 53276 42980 02506 10001 21116 40161 57013 333 70001;
0183532760999992000042300004+42400+112900FM-12+115299999V0202701N005012200019N0300001N1+00431-01271101551ADDAA199000091GA1001+999999999GF100991001001999999001001MA1999999088231MD1710011+0011REMSYN070AAXX  23001 53276 32980 02705 10043 21127 38823 40155 57001 333 05105;EQDQ01  00002PRCP99
0122532760999992000042303004+42400+112900FM-12+115299999V0202901N005012200019N0300001N1+01121-01071101411ADDGA1001+999999999GF100991001001999999001001MD1710031+9999REMSYN054AAXX  23031 53276 42980 02905 10112 21107 40141 57003;
0196532760999992000042306004+42400+112900FM-12+115299999V0203601N005012200019N0300001N1+01401-01281101081ADDAA199000091GA1001+999999999GF100991001001999999001001KA1999N-00161MA1999999087961MD1710241+9999REMSYN070AAXX  23061 53276 32980 03605 10140 21128 38796 40108 57024 333 21016;EQDQ01  00002PRCP99
0112532760999992000042309004+42400+112900FM-12+115299999V0202901N005019999999N0300001N1+01451-01111100861ADDGF107991001001999999001021MD1710191+9999REMSYN060AAXX  23091 53276 42980 72905 10145 21111 40086 57019 80002;
0163532760999992000042312004+42400+112900FM-12+115299999V0202001N003019999999N0300001N1+01151-01101100791ADDAA199000091GF107991021001999999031021MA1999999087741MD1710031+9999REMSYN066AAXX  23121 53276 32980 72003 10115 21110 38774 40079 57003 82032;EQDQ01  00002PRCP99
0122532760999992000042315004+42400+112900FM-12+115299999V0202001N006012200019N0300001N1+00711-00931100681ADDGA1001+999999999GF100991001001999999001001MD1710041+9999REMSYN054AAXX  23151 53276 42980 02006 10071 21093 40068 57004;
0186532760999992000042318004+42400+112900FM-12+115299999V0202001N007010360019N0300001N1+00831-01201100391ADDAA199000091GF107991011051012501031021KA1999M+01531MA1999999087531MD1710171+9999REMSYN076AAXX  23181 53276 32680 72007 10083 21120 38753 40039 57017 81532 333 10153;EQDQ01  00002PRCP99
0112532760999992000042321004+42400+112900FM-12+115299999V0202001N006019999999N0300001N1+00831-01261100211ADDGF107991001001999999001021MD1710151+9999REMSYN060AAXX  23211 53276 42980 72006 10083 21126 40021 57015 80002;
0191532760999992000042400004+42400+112900FM-12+115299999V0202001N009010120019N0300001N1+01131-01271100121ADDAA199000091GF107991051051012501001021IA2999+00209MA1999999087301MD1710081-0901REMSYN082AAXX  24001 53276 32680 72009 10113 21127 38730 40012 57008 85502 333 05907 30025;EQDQ01  00002PRCP99
0112532760999992000042403004+42400+112900FM-12+115299999V0202901N011010900019N0110001N1+01341-00271100131ADDGF107991041051017501001021MD1710041+9999REMSYN060AAXX  24031 53276 42761 72911 10134 21027 40013 57004 84502;
0216532760999992000042406004+42400+112900FM-12+115299999V0202901N013010150019N0080001N1+01481-00021099881ADDAA106000791AY161061GF107991061091017501001021KA1240N+00541MA1999999087101MD1710161+9999MW1071OA130601801REMSYN100AAXX  24061 53276 11758 72913 10148 21002 38710 49988 57016 69901 70760 86902 333 20054 91118 91525;
0161532760999992000042409004+42400+112900FM-12+115299999V0202901N011010003019N0005001N1+01381-01822100081ADDAY131031GA1091+999999999GF109991091999999999999999MD1210151+9999MW1311REMSYN060AAXX  24091 53276 41905 92911 10138 21182 40008 52015 73130;EQDQ01-001823ATOD  
0132532760999992000042415004+42400+112900FM-12+115299999V0202701N012010120019N0080001N1+00491-01241100581ADDAY131031GF107991051051012501001021MD1210091+9999MW1071REMSYN066AAXX  24151 53276 41658 72712 10049 21124 40058 52009 70730 85502;
0216532760999992000042418004+42400+112900FM-12+115299999V0202501N007012200019N0180001N1+00201-01341100421ADDAA199000091AY131061GA1001+999999999GF100991001001999999001001KA1999M+01641MA1999999087441MD1710171+9999MW1001REMSYN076AAXX  24181 53276 31968 02507 10020 21134 38744 40042 57017 70030 333 10164;EQDQ01  00002PRCP99
0145532760999992000042421004+42400+112900FM-12+115299999V0202701N011010120019N0080001N1-00081-00981100371ADDAA124000791GF107991071051012501999999MD1710131+9999MW1701REMSYN076AAXX  24211 53276 41658 72711 11008 21098 40037 57013 77000 875// 333 79999;
0233532760999992000042500004+42400+112900FM-12+115299999V0202501N010019999999N0070001N1-00221-00341100401ADDAA106000191AY171061GF108991081001999999021999IA2999-00079MA1999999087191MD1710121-0101MW1711OA130602101REMSYN118AAXX  25001 53276 11957 82510 11022 21034 38719 40040 57012 69921 77170 8802/ 333 05164 31007 70002 91121 91525 92502;
0132532760999992000042503004+42400+112900FM-12+115299999V0203401N010010120019N0080001N1+00141-00401100941ADDAY171031GF107991061051012501011999MD1210471+9999MW1701REMSYN066AAXX  25031 53276 41658 73410 10014 21040 40094 52047 77070 8651/;
0193532760999992000042506004+42400+112900FM-12+115299999V0203401N010010900019N0120001N1+00591-00791101201ADDAA106000791AY171061GF107991021011012501001021KA1999N-00261MA1999999087921MD1210261+9999MW1001REMSYN088AAXX  25061 53276 11662 73410 10059 21079 38792 40120 52026 69901 70070 82102 333 21026;
0112532760999992000042509004+42400+112900FM-12+115299999V0203401N008012200019N0300001N1+00861-00781101331ADDGF104991031011012501001021MD1210111+9999REMSYN060AAXX  25091 53276 42680 43408 10086 21078 40133 52011 83102;
0144532760999992000042512004+42400+112900FM-12+115299999V0200201N006012200019N0300001N1+00721-00691101621ADDAA199000021GF101991011041012501001001MA1999999088221MD1210191+9999REMSYN066AAXX  25121 53276 32680 10206 10072 21069 38822 40162 52019 81400;
0122532760999992000042515004+42400+112900FM-12+115299999V0203201N003012200019N0300001N1+00311-00631101841ADDGA1001+999999999GF100991001001999999001001MD1210181+9999REMSYN054AAXX  25151 53276 42980 03203 10031 21063 40184 52018;
0196532760999992000042518004+42400+112900FM-12+115299999V0202501N005012200019N0300001N1+00101-00591101801ADDAA199000091GA1001+999999999GF100991001001999999001001KA1999M+00991MA1999999088421MD1210021+9999REMSYN070AAXX  25181 53276 32980 02505 10010 21059 38842 40180 52002 333 10099;EQDQ01  00002PRCP99
0133532760999992000042521004+42400+112900FM-12+115299999V0202501N005012200019N0300001N1-00131-00561101731ADDAA124000391GF104991021051017501031021MD1710051+9999REMSYN070AAXX  25211 53276 42780 42505 11013 21056 40173 57005 82532 333 70002;
0178532760999992000042600004+42400+112900FM-12+115299999V0202901N004019999999N0300001N1+00511-00561101731ADDAA124000791GF106991021001999999031021IA2999-00359MA1999999088481MD1210111+1301REMSYN088AAXX  26001 53276 32980 62904 10051 21056 38848 40173 52011 82032 333 01307 31035 79999;
0112532760999992000042603004+42400+112900FM-12+115299999V0203401N006012200019N0300001N1+01091-00731101721ADDGF102991021011012501001021MD1210031+9999REMSYN060AAXX  26031 53276 42680 23406 10109 21073 40172 52003 82102;
0186532760999992000042606004+42400+112900FM-12+115299999V0203601N006010120019N0300001N1+01271-00771101611ADDAA199000091GF107991061091012501001021KA1999N-00141MA1999999088411MD1710101+9999REMSYN076AAXX  26061 53276 32680 73606 10127 21077 38841 40161 57010 86902 333 21014;EQDQ01  00002PRCP99
0112532760999992000042609004+42400+112900FM-12+115299999V0200201N006012200019N0300001N1+01301-00901101571ADDGF102991021021012501001021MD1710081+9999REMSYN060AAXX  26091 53276 42680 20206 10130 21090 40157 57008 82202;
0173532760999992000042612004+42400+112900FM-12+115299999V0203601N002012200019N0300001N1+00941-00631101551ADDAA199000091GA1001+999999999GF100991001001999999001001MA1999999088371MD1210041+9999REMSYN060AAXX  26121 53276 32980 03602 10094 21063 38837 40155 52004;EQDQ01  00002PRCP99
0122532760999992000042615004+42400+112900FM-12+115299999V0201801N004012200019N0300001N1+00461-00801101571ADDGA1001+999999999GF100991001001999999001001MD1210041+9999REMSYN054AAXX  26151 53276 42980 01804 10046 21080 40157 52004;
0196532760999992000042618004+42400+112900FM-12+115299999V0201801N004012200019N0300001N1+00331-00681101501ADDAA199000091GA1001+999999999GF100991001001999999001001KA1999M+01351MA1999999088361MD1710051+9999REMSYN070AAXX  26181 53276 32980 01804 10033 21068 38836 40150 57005 333 10135;EQDQ01  00002PRCP99
0112532760999992000042621004+42400+112900FM-12+115299999V0202001N004012200019N0300001N1+00261-00831101441ADDGF101991001001999999001021MD1710061+9999REMSYN060AAXX  26211 53276 42980 12004 10026 21083 40144 57006 80002;
0201532760999992000042700004+42400+112900FM-12+115299999V0201801N006012200019N0300001N1+00791-00691101371ADDAA199000091GA1001+999999999GF100991001001999999001001IA2999-00209MA1999999088281MD1710021-0201REMSYN076AAXX  27001 53276 32980 01806 10079 21069 38828 40137 57002 333 05203 31025;EQDQ01  00002PRCP99
0122532760999992000042703004+42400+112900FM-12+115299999V0202901N003012200019N0300001N1+01551-01141101161ADDGA1001+999999999GF100991001001999999001001MD1710131+9999REMSYN054AAXX  27031 53276 42980 02903 10155 21114 40116 57013;
0186532760999992000042706004+42400+112900FM-12+115299999V0202901N004012200019N0300001N1+01931-01021100821ADDAA199000091GF104991001001999999001021KA1999N+00131MA1999999087911MD1710241+9999REMSYN076AAXX  27061 53276 32980 42904 10193 21102 38791 40082 57024 80002 333 20013;EQDQ01  00002PRCP99
0112532760999992000042709004+42400+112900FM-12+115299999V0202901N004012200019N0300001N1+02031-00941100621ADDGF101991001001999999001021MD1710171+9999REMSYN060AAXX  27091 53276 42980 12904 10203 21094 40062 57017 80002;
0163532760999992000042712004+42400+112900FM-12+115299999V0202501N002012200019N0300001N1+01561-00711100621ADDAA199000091GF101991001001999999001021MA1999999087751MD1210011+9999REMSYN066AAXX  27121 53276 32980 12502 10156 21071 38775 40062 52001 80002;EQDQ01  00002PRCP99
0122532760999992000042715004+42400+112900FM-12+115299999V0202001N009012200019N0300001N1+01251-01071100581ADDGA1001+999999999GF100991001001999999001001MD1210061+9999REMSYN054AAXX  27151 53276 42980 02009 10125 21107 40058 52006;
0196532760999992000042718004+42400+112900FM-12+115299999V0202001N009012200019N0300001N1+01131-01281100441ADDAA199000091GA1001+999999999GF100991001001999999001001KA1999M+02101MA1999999087741MD1710071+9999REMSYN070AAXX  27181 53276 32980 02009 10113 21128 38774 40044 57007 333 10210;EQDQ01  00002PRCP99
0122532760999992000042721004+42400+112900FM-12+115299999V0202001N008012200019N0300001N1+01011-01291100261ADDGA1001+999999999GF100991001001999999001001MD1710161+9999REMSYN054AAXX  27211 53276 42980 02008 10101 21129 40026 57016;
0201532760999992000042800004+42400+112900FM-12+115299999V0202001N007012200019N0300001N1+01591-01191100261ADDAA199000091GA1001+999999999GF100991001001999999001001IA2999+00309MA1999999087601MD1210021-0701REMSYN076AAXX  28001 53276 32980 02007 10159 21119 38760 40026 52002 333 05708 30035;EQDQ01  00002PRCP99
0112532760999992000042803004+42400+112900FM-12+115299999V0202501N009019999999N0300001N1+02331-01461100071ADDGF107991001001999999001021MD1710081+9999REMSYN060AAXX  28031 53276 42980 72509 10233 21146 40007 57008 80002;
0209532760999992000042806004+42400+112900FM-12+115299999V0202501N008010900019N0200001N1+02401-01681099941ADDAA199000091GF107991031091012501001021KA1240N+00681MA1999999087401MD1710121+9999OA130601901REMSYN088AAXX  28061 53276 32670 72508 10240 21168 38740 49994 57012 83902 333 20068 91119 91527;EQDQ01  00002PRCP99
0112532760999992000042809004+42400+112900FM-12+115299999V0202901N008012200019N0200001N1+02121-00711100001ADDGF102991001001999999001021MD1710031+9999REMSYN060AAXX  28091 53276 42970 22908 10212 21071 40000 57003 80002;
0220532760999992000042812004+42400+112900FM-12+115299999V0202901N011010006019N0006001N1+01441-01421100431ADDAA199000091AY131061GA1091+999999999GF109991091999999999999999MA1999999087731MD1210361+9999MW1311OA130602101REMSYN082AAXX  28121 53276 31906 92911 10144 21142 38773 40043 52036 73130 333 91121 91529;EQDQ01  00002PRCP99
0132532760999992000042815004+42400+112900FM-12+115299999V0202501N008010150019N0080001N1+01001-00631100731ADDAY131031GF107991061051017501001021MD1210321+9999MW1091REMSYN066AAXX  28151 53276 41758 72508 10100 21063 40073 52032 70930 86502;
0229532760999992000042818004+42400+112900FM-12+115299999V0202901N008010150019N0080001N1+00941-00951100831ADDAA199000091AY131061GF107991071051017501999999KA1240M+02551MA1999999088141MD1210091+9999MW1061OA130602101REMSYN094AAXX  28181 53276 31758 72908 10094 21095 38814 40083 52009 70630 875// 333 10255 91121 91527;EQDQ01  00002PRCP99
0112532760999992000042821004+42400+112900FM-12+115299999V0202501N008012200019N0200001N1+00381-01101101081ADDGF101991011051012501001001MD1210051+9999REMSYN060AAXX  28211 53276 42670 12508 10038 21110 40108 52005 81500;
0191532760999992000042900004+42400+112900FM-12+115299999V0202501N010012200019N0300001N1+00711-01221101171ADDAA199000091GF104991021001999999031021IA2999+00009MA1999999088191MD1410001+0601REMSYN082AAXX  29001 53276 32980 42510 10071 21122 38819 40117 54000 82032 333 00659 30006;EQDQ01  00002PRCP99
0112532760999992000042903004+42400+112900FM-12+115299999V0202901N012012200019N0110001N1+01081-01381101141ADDGF102991011011012501001021MD1710041+9999REMSYN060AAXX  29031 53276 42661 22912 10108 21138 40114 57004 81102;
0221532760999992000042906004+42400+112900FM-12+115299999V0203201N012010900019N0060001N1+01301-01181101001ADDAA199000091GF105991031011012501001021KA1240N+00251MA1999999088061MD1710091+9999MW1071OA130602201REMSYN094AAXX  29061 53276 31656 53212 10130 21118 38806 40100 57009 70700 83102 333 20025 91122 91529;EQDQ01  00002PRCP99
0124532760999992000042909004+42400+112900FM-12+115299999V0202901N011019999999N0030001N1+01551-01271100921ADDGF107991001001999999001021MD1710131+9999MW1071REMSYN066AAXX  29091 53276 41930 72911 10155 21127 40092 57013 70700 80002;
0200532760999992000042912004+42400+112900FM-12+115299999V0203201N005012200019N0300001N1+01351-01041100981ADDAA199000091GA1001+999999999GF100991001001999999001001MA1999999088011MD1210081+9999OA130602301REMSYN076AAXX  29121 53276 32980 03205 10135 21104 38801 40098 52008 333 91123 91529;EQDQ01  00002PRCP99
0122532760999992000042915004+42400+112900FM-12+115299999V0202901N005012200019N0300001N1+00971-00701101171ADDGA1001+999999999GF100991001001999999001001MD1210161+9999REMSYN054AAXX  29151 53276 42980 02905 10097 21070 40117 52016;
0196532760999992000042918004+42400+112900FM-12+115299999V0202501N005012200019N0300001N1+00451-00731101281ADDAA199000091GA1001+999999999GF100991001001999999001001KA1999M+01591MA1999999088201MD1210031+9999REMSYN070AAXX  29181 53276 32980 02505 10045 21073 38820 40128 52003 333 10159;EQDQ01  00002PRCP99
0122532760999992000042921004+42400+112900FM-12+115299999V0202501N005012200019N0300001N1+00481-00721101261ADDGA1001+999999999GF100991001001999999001001MD1210041+9999REMSYN054AAXX  29211 53276 42980 02505 10048 21072 40126 52004;
0201532760999992000043000004+42400+112900FM-12+115299999V0202901N004012200019N0300001N1+00951-00521101351ADDAA199000091GA1001+999999999GF100991001001999999001001IA2999+00009MA1999999088381MD1210141+0201REMSYN076AAXX  30001 53276 32980 02904 10095 21052 38838 40135 52014 333 00202 30004;EQDQ01  00002PRCP99
0122532760999992000043003004+42400+112900FM-12+115299999V0203201N007012200019N0300001N1+01601-00631101261ADDGA1001+999999999GF100991001001999999001001MD1710021+9999REMSYN054AAXX  30031 53276 42980 03207 10160 21063 40126 57002;
0186532760999992000043006004+42400+112900FM-12+115299999V0203401N008012200019N0300001N1+01961-00711101151ADDAA199000091GF101991011011012501001001KA1999N+00311MA1999999088231MD1710131+9999REMSYN076AAXX  30061 53276 32680 13408 10196 21071 38823 40115 57013 81100 333 20031;EQDQ01  00002PRCP99
0112532760999992000043009004+42400+112900FM-12+115299999V0203401N007012200019N0300001N1+01971-00781101021ADDGF101991011011012501001001MD1710111+9999REMSYN060AAXX  30091 53276 42680 13407 10197 21078 40102 57011 81100;
0173532760999992000043012004+42400+112900FM-12+115299999V0203401N004012200019N0300001N1+01621-00621101061ADDAA199000091GA1001+999999999GF100991001001999999001001MA1999999088181MD1210061+9999REMSYN060AAXX  30121 53276 32980 03404 10162 21062 38818 40106 52006;EQDQ01  00002PRCP99
0122532760999992000043015004+42400+112900FM-12+115299999V0203201N003012200019N0300001N1+01301-00601101081ADDGA1001+999999999GF100991001001999999001001MD1210091+9999REMSYN054AAXX  30151 53276 42980 03203 10130 21060 40108 52009;
0196532760999992000043018004+42400+112900FM-12+115299999V0202501N003012200019N0300001N1+00881-00531101131ADDAA199000091GA1001+999999999GF100991001001999999001001KA1999M+02091MA1999999088301MD1210031+9999REMSYN070AAXX  30181 53276 32980 02503 10088 21053 38830 40113 52003 333 10209;EQDQ01  00002PRCP99
0112532760999992000043021004+42400+112900FM-12+115299999V0202501N006012200019N0300001N1+00691-00661101181ADDGF101991011001999999031021MD1210011+9999REMSYN060AAXX  30211 53276 42980 12506 10069 21066 40118 52001 81032;
0201532760999992000050100004+42400+112900FM-12+115299999V0209999C000012200019N0300001N1+01181-00421101361ADDAA199000091GA1001+999999999GF100991001001999999001001IA2999+00109MA1999999088491MD1210181+0101REMSYN076AAXX  01001 53276 32980 00000 10118 21042 38849 40136 52018 333 00102 30017;EQDQ01  00002PRCP99
0122532760999992000050103004+42400+112900FM-12+115299999V0200201N001012200019N0300001N1+01901-00431101271ADDGA1001+999999999GF100991001001999999001001MD1210011+9999REMSYN054AAXX  01031 53276 42980 00201 10190 21043 40127 52001;
0186532760999992000050106004+42400+112900FM-12+115299999V0200401N002012200019N0300001N1+02161-00911101161ADDAA199000091GF101991011011012501001021KA1999N+00591MA1999999088371MD1710131+9999REMSYN076AAXX  01061 53276 32680 10402 10216 21091 38837 40116 57013 81102 333 20059;EQDQ01  00002PRCP99
0112532760999992000050109004+42400+112900FM-12+115299999V0200901N001012200019N0300001N1+02201-00841101051ADDGF101991001001999999001021MD1710131+9999REMSYN060AAXX  01091 53276 42980 10901 10220 21084 40105 57013 80002;
0163532760999992000050112004+42400+112900FM-12+115299999V0201601N003012200019N0300001N1+01651-00511101051ADDAA199000091GF102991001001999999001021MA1999999088231MD1710011+9999REMSYN066AAXX  01121 53276 32980 21603 10165 21051 38823 40105 57001 80002;EQDQ01  00002PRCP99
0112532760999992000050115004+42400+112900FM-12+115299999V0201801N008012200019N0300001N1+01261-00741101021ADDGF101991001001999999001021MD1210041+9999REMSYN060AAXX  01151 53276 42980 11808 10126 21074 40102 52004 80002;
0186532760999992000050118004+42400+112900FM-12+115299999V0202001N011012200019N0300001N1+01361-00961100871ADDAA199000091GF102991001001999999001021KA1999M+02311MA1999999088211MD1710061+9999REMSYN076AAXX  01181 53276 32980 22011 10136 21096 38821 40087 57006 80002 333 10231;EQDQ01  00002PRCP99
0112532760999992000050121004+42400+112900FM-12+115299999V0202001N008012200019N0300001N1+01091-01031100751ADDGF101991001001999999001021MD1710151+9999REMSYN060AAXX  01211 53276 42980 12008 10109 21103 40075 57015 80002;
0173532760999992000050200004+42400+112900FM-12+115299999V0202201N006019999999N0300001N1+01741-01341100701ADDAA199000091GF105991001001999999001021MA1999999088041MD1710021+0051REMSYN076AAXX  02001 53276 32980 52206 10174 21134 38804 40070 57002 80002 333 05506;EQDQ01  00002PRCP99
0163532760999992000050203004+42400+112900FM-12+115299999V0202201N999992200019N0200001N1+02391+99999100561ADDGF102991001001999999001021MD1710071+9999REMSYN060AAXX  02031 53276 42970 27210 10239 21256 40056 57007 80002;EQDQ01+011001WOSPD Q02-002563ATOD  Q03 -02563ATOD  
0209532760999992000050206004+42400+112900FM-12+115299999V0203201N008019999999N0200001N1+02391-01141100521ADDAA199000091GF107991001001999999001021KA1240N+01041MA1999999087951MD1710021+9999OA130601801REMSYN088AAXX  02061 53276 32970 73208 10239 21114 38795 40052 57002 80002 333 20104 91118 91525;EQDQ01  00002PRCP99
0112532760999992000050209004+42400+112900FM-12+115299999V0203201N009010900019N0150001N1+02031-00611100771ADDGF107991031051017501001021MD1210091+9999REMSYN060AAXX  02091 53276 42765 73209 10203 21061 40077 52009 83502;
0190532760999992000050212004+42400+112900FM-12+115299999V0203201N009012200019N0250001N1+01681-00771100961ADDAA199000091GF103991011051012501001021MA1999999088271MD1210231+9999OA130601901REMSYN082AAXX  02121 53276 32675 33209 10168 21077 38827 40096 52023 81502 333 91119 91532;EQDQ01  00002PRCP99
0122532760999992000050215004+42400+112900FM-12+115299999V0202701N004012200019N0300001N1+01171-00521101111ADDGA1001+999999999GF100991001001999999001001MD1210161+9999REMSYN054AAXX  02151 53276 42980 02704 10117 21052 40111 52016;
0196532760999992000050218004+42400+112900FM-12+115299999V0203401N002012200019N0300001N1+00751-00331101291ADDAA199000091GA1001+999999999GF100991001001999999001001KA1999M+02491MA1999999088501MD1210071+9999REMSYN070AAXX  02181 53276 32980 03402 10075 21033 38850 40129 52007 333 10249;EQDQ01  00002PRCP99
0122532760999992000050221004+42400+112900FM-12+115299999V0202501N004012200019N0300001N1+00481-00601101431ADDGA1001+999999999GF100991001001999999001001MD1710011+9999REMSYN054AAXX  02211 53276 42980 02504 10048 21060 40143 57001;
0201532760999992000050300004+42400+112900FM-12+115299999V0202501N004012200019N0300001N1+00971-00571101421ADDAA199000091GA1001+999999999GF100991001001999999001001IA2999+00009MA1999999088511MD1210021+0501REMSYN076AAXX  03001 53276 32980 02504 10097 21057 38851 40142 52002 333 00558 30003;EQDQ01  00002PRCP99
0112532760999992000050303004+42400+112900FM-12+115299999V0202901N004012200019N0300001N1+01841-01211101311ADDGF101991001001999999001021MD1710021+9999REMSYN060AAXX  03031 53276 42980 12904 10184 21121 40131 57002 80002;
0186532760999992000050306004+42400+112900FM-12+115299999V0202201N006012200019N0300001N1+02221-02782101011ADDAA199000091GF101991001001999999001021KA1999N+00461MA1999999088221MD1710271+9999REMSYN076AAXX  03061 53276 32980 12206 10222 21278 38822 40101 57027 80002 333 20046;EQDQ01  00002PRCP99
0112532760999992000050309004+42400+112900FM-12+115299999V0202501N004012200019N0300001N1+02441-02261100761ADDGF101991001001999999001021MD1710231+9999REMSYN060AAXX  03091 53276 42980 12504 10244 21226 40076 57023 80002;
0163532760999992000050312004+42400+112900FM-12+115299999V0202201N006012200019N0300001N1+02011-01291100631ADDAA199000091GF101991001001999999001021MA1999999087891MD1710101+9999REMSYN066AAXX  03121 53276 32980 12206 10201 21129 38789 40063 57010 80002;EQDQ01  00002PRCP99
0122532760999992000050315004+42400+112900FM-12+115299999V0202001N008012200019N0300001N1+01701-01321100451ADDGA1001+999999999GF100991001001999999001001MD1710041+9999REMSYN054AAXX  03151 53276 42980 02008 10170 21132 40045 57004;
0196532760999992000050318004+42400+112900FM-12+115299999V0202201N009012200019N0300001N1+01741-01661100161ADDAA199000091GA1001+999999999GF100991001001999999001001KA1999M+02491MA1999999087681MD1710171+9999REMSYN070AAXX  03181 53276 32980 02209 10174 21166 38768 40016 57017 333 10249;EQDQ01  00002PRCP99
0112532760999992000050321004+42400+112900FM-12+115299999V0202901N005019999999N0300001N1+01621-01641100101ADDGF106991021001999999031021MD1710031+9999REMSYN060AAXX  03211 53276 42980 62905 10162 21164 40010 57003 82032;
0173532760999992000050400004+42400+112900FM-12+115299999V0202701N008010120019N0250001N1+01671-01021100481ADDAA199000091GF107991061091012501001021MA1999999087901MD1210251+0061REMSYN076AAXX  04001 53276 32675 72708 10167 21102 38790 40048 52025 86902 333 05607;EQDQ01  00002PRCP99
0124532760999992000050403004+42400+112900FM-12+115299999V0200201N017019999999N0040001N1+01831-00541100581ADDGF106991051001999999031021MD1210061+9999MW1071REMSYN066AAXX  04031 53276 41940 60217 10183 21054 40058 52006 70700 85032;
0224532760999992000050406004+42400+112900FM-12+115299999V0200201N013010120019N0120001N1+01211+00551101171ADDAA106000791AY161061AY231061GF107991061091012501031021KA1240N+01171MA1999999088361MD1210401+9999MW1211OA130602101REMSYN100AAXX  04061 53276 11662 70213 10121 20055 38836 40117 52040 69901 72163 86932 333 20117 91121 91536;
0132532760999992000050409004+42400+112900FM-12+115299999V0200201N005010360019N0300001N1+01081+00661101491ADDAY181031GF106991021011012501031021MD1210231+9999MW1001REMSYN066AAXX  04091 53276 41680 60205 10108 20066 40149 52023 70080 82132;
0207532760999992000050412004+42400+112900FM-12+115299999V0200201N002012200019N0300001N1+00991+00561101731ADDAA106000891AY181061GA1001+999999999GF100991001001999999001001MA1999999088791MD1210201+9999MW1001OA130601701REMSYN088AAXX  04121 53276 11980 00202 10099 20056 38879 40173 52020 69981 70080 333 91117 91502;
0122532760999992000050415004+42400+112900FM-12+115299999V0202901N001012200019N0300001N1+00691+00381102051ADDGA1001+999999999GF100991001001999999001001MD1210251+9999REMSYN054AAXX  04151 53276 42980 02901 10069 20038 40205 52025;
0177532760999992000050418004+42400+112900FM-12+115299999V0203401N001012200019N0300001N1+00431+00191102381ADDAA199000021GA1001+999999999GF100991001001999999001001KA1999M+01951MA1999999089141MD1210101+9999REMSYN070AAXX  04181 53276 32980 03401 10043 20019 38914 40238 52010 333 10195;
0143532760999992000050421004+42400+112900FM-12+115299999V0209999C000012200019N0300001N1+00201+00021102591ADDAA124000891GA1001+999999999GF100991001001999999001001MD1210101+9999REMSYN064AAXX  04211 53276 42980 00000 10020 20002 40259 52010 333 70008;
0188532760999992000050500004+42400+112900FM-12+115299999V0209999C000012200019N0300001N1+00581-00151102771ADDAA124000891GA1001+999999999GF100991001001999999001001IA2999-00419MA1999999089461MD1210221+1601REMSYN082AAXX  05001 53276 32980 00000 10058 21015 38946 40277 52022 333 01661 31041 70008;
0122532760999992000050503004+42400+112900FM-12+115299999V0201101N003012200019N0300001N1+01321-00681102661ADDGA1001+999999999GF100991001001999999001001MD1410001+9999REMSYN054AAXX  05031 53276 42980 01103 10132 21068 40266 54000;
0186532760999992000050506004+42400+112900FM-12+115299999V0200901N004012200019N0300001N1+01501-01361102591ADDAA199000091GF101991001001999999001021KA1999N+00161MA1999999089381MD1710081+9999REMSYN076AAXX  05061 53276 32980 10904 10150 21136 38938 40259 57008 80002 333 20016;EQDQ01  00002PRCP99
0112532760999992000050509004+42400+112900FM-12+115299999V0200401N004012200019N0300001N1+01651-01791102401ADDGF101991001001999999001021MD1710181+9999REMSYN060AAXX  05091 53276 42980 10404 10165 21179 40240 57018 80002;
0173532760999992000050512004+42400+112900FM-12+115299999V0200901N002012200019N0300001N1+01311-01071102451ADDAA199000091GA1001+999999999GF100991001001999999001001MA1999999089251MD1210051+9999REMSYN060AAXX  05121 53276 32980 00902 10131 21107 38925 40245 52005;EQDQ01  00002PRCP99
0122532760999992000050515004+42400+112900FM-12+115299999V0201801N004012200019N0300001N1+00751-01211102451ADDGA1001+999999999GF100991001001999999001001MD1210041+9999REMSYN054AAXX  05151 53276 42980 01804 10075 21121 40245 52004;
0153532760999992000050518004+42400+112900FM-12+115299999V0202501N002012200019N0300001N1+00491-01281999999ADDAA199000091GA1001+999999999GF100991001001999999001001REMSYN069AAXX  05181 53276 32980 02502 10049 21128 3926 40244 57003 333 10171;EQDQ01  00002PRCP99
0122532760999992000050521004+42400+112900FM-12+115299999V0201801N006012200019N0300001N1+00571-01711102281ADDGA1001+999999999GF100991001001999999001001MD1710091+9999REMSYN054AAXX  05211 53276 42980 01806 10057 21171 40228 57009;
0201532760999992000050600004+42400+112900FM-12+115299999V0202001N004012200019N0300001N1+01091-01181102191ADDAA199000091GA1001+999999999GF100991001001999999001001IA2999-00209MA1999999089131MD1710041-0301REMSYN076AAXX  06001 53276 32980 02004 10109 21118 38913 40219 57004 333 05305 31025;EQDQ01  00002PRCP99
0112532760999992000050603004+42400+112900FM-12+115299999V0202501N004012200019N0300001N1+02151-02081101951ADDGF101991001001999999001021MD1710101+9999REMSYN060AAXX  06031 53276 42980 12504 10215 21208 40195 57010 80002;
0186532760999992000050606004+42400+112900FM-12+115299999V0202501N005012200019N0300001N1+02641-01951101621ADDAA199000091GF102991001001999999001021KA1999N+00241MA1999999088791MD1710241+9999REMSYN076AAXX  06061 53276 32980 22505 10264 21195 38879 40162 57024 80002 333 20024;EQDQ01  00002PRCP99
0112532760999992000050609004+42400+112900FM-12+115299999V0202001N004012200019N0300001N1+02521-02711101361ADDGF104991001001999999001021MD1710241+9999REMSYN060AAXX  06091 53276 42980 42004 10252 21271 40136 57024 80002;
0163532760999992000050612004+42400+112900FM-12+115299999V0202201N004012200019N0300001N1+02081-02431101351ADDAA199000091GF101991001001999999001021MA1999999088561MD1210011+9999REMSYN066AAXX  06121 53276 32980 12204 10208 21243 38856 40135 52001 80002;EQDQ01  00002PRCP99
0122532760999992000050615004+42400+112900FM-12+115299999V0202201N007012200019N0300001N1+01531-01821101291ADDGA1001+999999999GF100991001001999999001001MD1210051+9999REMSYN054AAXX  06151 53276 42980 02207 10153 21182 40129 52005;
0196532760999992000050618004+42400+112900FM-12+115299999V0202001N008012200019N0300001N1+01451-01681101071ADDAA199000091GA1001+999999999GF100991001001999999001001KA1999M+02681MA1999999088501MD1710111+9999REMSYN070AAXX  06181 53276 32980 02008 10145 21168 38850 40107 57011 333 10268;EQDQ01  00002PRCP99
0122532760999992000050621004+42400+112900FM-12+115299999V0202001N008012200019N0300001N1+01461-01461101041ADDGA1001+999999999GF100991001001999999001001MD1710051+9999REMSYN054AAXX  06211 53276 42980 02008 10146 21146 40104 57005;
0183532760999992000050700004+42400+112900FM-12+115299999V0202201N010012200019N0300001N1+01811-01401101081ADDAA199000091GA1001+999999999GF100991001001999999001001MA1999999088471MD1210021+0071REMSYN070AAXX  07001 53276 32980 02210 10181 21140 38847 40108 52002 333 05707;EQDQ01  00002PRCP99
0112532760999992000050703004+42400+112900FM-12+115299999V0202501N011012200019N0300001N1+02411-00551101031ADDGF101991001001999999001021MD1710031+9999REMSYN060AAXX  07031 53276 42980 12511 10241 21055 40103 57003 80002;
0186532760999992000050706004+42400+112900FM-12+115299999V0203201N006012200019N0300001N1+02651-00371100791ADDAA199000091GF101991011011017501001001KA1999N+01391MA1999999088261MD1710181+9999REMSYN076AAXX  07061 53276 32780 13206 10265 21037 38826 40079 57018 81100 333 20139;EQDQ01  00002PRCP99
0122532760999992000050709004+42400+112900FM-12+115299999V0203401N007012200019N0200001N1+02401-00331100811ADDGA1001+999999999GF100991001001999999001001MD1710031+9999REMSYN054AAXX  07091 53276 42970 03407 10240 21033 40081 57003;
0163532760999992000050712004+42400+112900FM-12+115299999V0200201N010012200019N0200001N1+01751-00701101111ADDAA199000091GF103991001001999999001021MA1999999088431MD1210201+9999REMSYN066AAXX  07121 53276 32970 30210 10175 21070 38843 40111 52020 80002;EQDQ01  00002PRCP99
0122532760999992000050715004+42400+112900FM-12+115299999V0200701N007012200019N0250001N1+01221-00641101351ADDGA1001+999999999GF100991001001999999001001MD1210221+9999REMSYN054AAXX  07151 53276 42975 00707 10122 21064 40135 52022;
0196532760999992000050718004+42400+112900FM-12+115299999V0200401N007012200019N0300001N1+00901-00751101421ADDAA199000091GA1001+999999999GF100991001001999999001001KA1999M+02721MA1999999088701MD1210051+9999REMSYN070AAXX  07181 53276 32980 00407 10090 21075 38870 40142 52005 333 10272;EQDQ01  00002PRCP99
0112532760999992000050721004+42400+112900FM-12+115299999V0200401N005012200019N0300001N1+00621-00931101551ADDGF101991011001999999031021MD1410001+9999REMSYN060AAXX  07211 53276 42980 10405 10062 21093 40155 54000 81032;
0191532760999992000050800004+42400+112900FM-12+115299999V0200701N007010360019N0300001N1+00871-01391101751ADDAA199000091GF107991011011012501031021IA2999+00309MA1999999088801MD1210101+0301REMSYN082AAXX  08001 53276 32680 70707 10087 21139 38880 40175 52010 81132 333 00359 30038;EQDQ01  00002PRCP99
0112532760999992000050803004+42400+112900FM-12+115299999V0200401N011010360019N0300001N1+01121-01761101811ADDGF107991021011012501031021MD1710011+9999REMSYN060AAXX  08031 53276 42680 70411 10112 21176 40181 57001 82132;
0208532760999992000050806004+42400+112900FM-12+115299999V0200201N006010120019N0300001N1+00511-00181102021ADDAA106000791GF108991051051012501021999KA1240N+00491MA1999999088771MD1710021+9999MW1681OA130601701REMSYN100AAXX  08061 53276 11680 80206 10051 21018 38877 40202 57002 69901 76800 8552/ 333 20049 91117 91502;
0140532760999992000050809004+42400+112900FM-12+115299999V0200401N004010120019N0300001N1+00371+00231102031ADDAY171031AY271031GF108991061051012501021999MD1710081+9999MW1601REMSYN066AAXX  08091 53276 41680 80404 10037 20023 40203 57008 76077 8652/;
0178532760999992000050812004+42400+112900FM-12+115299999V0203601N005010120019N0300001N1+00371+00161101981ADDAA106002091AY171061AY261061GF108991071051012501021999MA1999999088701MD1210011+9999MW1001REMSYN078AAXX  08121 53276 11680 83605 10037 20016 38870 40198 52001 60021 70076 8752/;
0112532760999992000050815004+42400+112900FM-12+115299999V0209999C000010120019N0300001N1+00391+00251101891ADDGF108991071051012501021999MD1710021+9999REMSYN060AAXX  08151 53276 42680 80000 10039 20025 40189 57002 8752/;
0167532760999992000050818004+42400+112900FM-12+115299999V0203401N002010120019N0300001N1+00411+00271101851ADDAA199000021GF108991071051012501021999KA1999M+01161MA1999999088521MD1710161+9999REMSYN076AAXX  08181 53276 32680 83402 10041 20027 38852 40185 57016 8752/ 333 10116;
0145532760999992000050821004+42400+112900FM-12+115299999V0203601N004010120019N0300001N1+00391+00251101791ADDAA124002091GF108991071051012501021999MD1710091+9999MW1601REMSYN076AAXX  08211 53276 41680 83604 10039 20025 40179 57009 76000 8752/ 333 70021;
0204532760999992000050900004+42400+112900FM-12+115299999V0203601N006010120019N0200001N1+00451+00241101811ADDAA106000191AY161061GF107991071051012501999999IA2999+00449MA1999999088461MD1210031-0301MW1211REMSYN100AAXX  09001 53276 11670 73606 10045 20024 38846 40181 52003 69921 72160 875// 333 05354 30044 70023;
0132532760999992000050903004+42400+112900FM-12+115299999V0203401N008010360019N0300001N1+00591+00121101711ADDAY161031GF108991021051012501011999MD1710051+9999MW1211REMSYN066AAXX  09031 53276 41680 83408 10059 20012 40171 57005 72160 8251/;
0193532760999992000050906004+42400+112900FM-12+115299999V0200201N008010120019N0300001N1+00781+00001101571ADDAA106000791AY161061GF107991071051012501999999KA1999N+00201MA1999999088331MD1710081+9999MW1601REMSYN088AAXX  09061 53276 11680 70208 10078 20000 38833 40157 57008 69901 76060 875// 333 20020;
0132532760999992000050909004+42400+112900FM-12+115299999V0200201N007010360019N0300001N1+01041-00091101451ADDAY161031GF107991011011012501031021MD1710051+9999MW1001REMSYN066AAXX  09091 53276 41680 70207 10104 21009 40145 57005 70060 81132;
0170532760999992000050912004+42400+112900FM-12+115299999V0200701N003012200019N0300001N1+00751+00101101541ADDAA106000791AY161061GF103991001001999999001021MA1999999088311MD1210031+9999MW1001REMSYN078AAXX  09121 53276 11980 30703 10075 20010 38831 40154 52003 69901 70060 80002;
0112532760999992000050915004+42400+112900FM-12+115299999V0209999C000012200019N0300001N1+00351+00061101701ADDGF101991001001999999001021MD1210081+9999REMSYN060AAXX  09151 53276 42980 10000 10035 20006 40170 52008 80002;
0177532760999992000050918004+42400+112900FM-12+115299999V0209999C000012200019N0300001N1+00091-00011101671ADDAA199000021GA1001+999999999GF100991001001999999001001KA1999M+01071MA1999999088351MD1710041+9999REMSYN070AAXX  09181 53276 32980 00000 10009 21001 38835 40167 57004 333 10107;
0143532760999992000050921004+42400+112900FM-12+115299999V0201801N003012200019N0300001N1+00041-00121101581ADDAA124000391GA1001+999999999GF100991001001999999001001MD1710031+9999REMSYN064AAXX  09211 53276 42980 01803 10004 21012 40158 57003 333 70002;
0178532760999992000051000004+42400+112900FM-12+115299999V0202201N004012200019N0300001N1+00561-00081101561ADDAA124000791GF101991001001999999001021IA2999-00399MA1999999088351MD1210031-0101REMSYN088AAXX  10001 53276 32980 12204 10056 21008 38835 40156 52003 80002 333 05101 31039 79999;
0122532760999992000051003004+42400+112900FM-12+115299999V0203401N003012200019N0300001N1+01411-00891101381ADDGA1001+999999999GF100991001001999999001001MD1710061+9999REMSYN054AAXX  10031 53276 42980 03403 10141 21089 40138 57006;
0196532760999992000051006004+42400+112900FM-12+115299999V0203401N002012200019N0300001N1+01721-01131101191ADDAA199000091GA1001+999999999GF100991001001999999001001KA1999N-00031MA1999999088141MD1710151+9999REMSYN070AAXX  10061 53276 32980 03402 10172 21113 38814 40119 57015 333 21003;EQDQ01  00002PRCP99
0122532760999992000051009004+42400+112900FM-12+115299999V0201801N001012200019N0300001N1+01781-01061101031ADDGA1001+999999999GF100991001001999999001001MD1710141+9999REMSYN054AAXX  10091 53276 42980 01801 10178 21106 40103 57014;
0163532760999992000051012004+42400+112900FM-12+115299999V0201601N003012200019N0300001N1+01381-00701100961ADDAA199000091GF101991001001999999001021MA1999999087961MD1710041+9999REMSYN066AAXX  10121 53276 32980 11603 10138 21070 38796 40096 57004 80002;EQDQ01  00002PRCP99
0122532760999992000051015004+42400+112900FM-12+115299999V0201801N009012200019N0300001N1+01051-00861100801ADDGA1001+999999999GF100991001001999999001001MD1710031+9999REMSYN054AAXX  10151 53276 42980 01809 10105 21086 40080 57003;
0186532760999992000051018004+42400+112900FM-12+115299999V0201601N006012200019N0300001N1+00861-00821100611ADDAA199000091GF101991001001999999001021KA1999M+01911MA1999999087791MD1710141+9999REMSYN076AAXX  10181 53276 32980 11606 10086 21082 38779 40061 57014 80002 333 10191;EQDQ01  00002PRCP99
0112532760999992000051021004+42400+112900FM-12+115299999V0201801N012019999999N0300001N1+00931-01071100371ADDGF106991021001999999031021MD1710181+9999REMSYN060AAXX  10211 53276 42980 61812 10093 21107 40037 57018 82032;
0173532760999992000051100004+42400+112900FM-12+115299999V0201801N009010120019N0300001N1+01311-01141100291ADDAA199000091GF107991071051012501999999MA1999999087541MD1710071+0081REMSYN076AAXX  11001 53276 32680 71809 10131 21114 38754 40029 57007 875// 333 05808;EQDQ01  00002PRCP99
0112532760999992000051103004+42400+112900FM-12+115299999V0202501N008010120019N0300001N1+01421-00201100241ADDGF107991061051012501001021MD1710091+9999REMSYN060AAXX  11031 53276 42680 72508 10142 21020 40024 57009 86502;
0186532760999992000051106004+42400+112900FM-12+115299999V0202201N009010900019N0300001N1+01331+00231100281ADDAA199000091GF107991041051012501001021KA1999N+00821MA1999999087421MD1710031+9999REMSYN076AAXX  11061 53276 32680 72209 10133 20023 38742 40028 57003 84502 333 20082;EQDQ01  00002PRCP99
0112532760999992000051109004+42400+112900FM-12+115299999V0209999C000010900019N0300001N1+01461+00301100091ADDGF107991031011012501001081MD1710121+9999REMSYN060AAXX  11091 53276 42680 70000 10146 20030 40009 57012 83108;
0170532760999992000051112004+42400+112900FM-12+115299999V0201101N004010120019N0250001N1+01001+00851100281ADDAA106000891AY181061GF107991071091012501001021MA1999999087451MD1210151+9999MW1801REMSYN078AAXX  11121 53276 11675 71104 10100 20085 38745 40028 52015 69971 78080 87902;
0201532760999992000051118004+42400+112900FM-12+115299999V0203201N008010120019N0200001N1+00781+00641100391ADDAA106003091AY181061AY261061GF108991061051012501021999KA1999M+01591MA1999999087501MD1210051+9999MW1601REMSYN088AAXX  11181 53276 11670 83208 10078 20064 38750 40039 52005 60031 76086 8652/ 333 10159;
0153532760999992000051121004+42400+112900FM-12+115299999V0203401N008010120019N0200001N1+00771+00521100461ADDAA124003891AY161031GF108991071051012501021999MD1210091+9999MW1601REMSYN076AAXX  11211 53276 41670 83408 10077 20052 40046 52009 76060 8752/ 333 70039;
0186532760999992000051200004+42400+112900FM-12+115299999V0203601N007010120019N0200001N1+00841+00371100811ADDAA106000191AY161061GF108991071051012501011999MA1999999087811MD1210221+0301MW1001REMSYN094AAXX  12001 53276 11670 83607 10084 20037 38781 40081 52022 69911 70060 8751/ 333 00355 70039;
0112532760999992000051203004+42400+112900FM-12+115299999V0203401N006010360019N0250001N1+01201+00411100901ADDGF107991021051012501031021MD1210131+9999REMSYN060AAXX  12031 53276 42675 73406 10120 20041 40090 52013 82532;
0167532760999992000051206004+42400+112900FM-12+115299999V0203201N006010120019N0250001N1+01361+00341100901ADDAA199000021GF107991051051012501031999KA1999N+00731MA1999999087951MD1210011+9999REMSYN076AAXX  12061 53276 32675 73206 10136 20034 38795 40090 52001 8553/ 333 20073;
0112532760999992000051209004+42400+112900FM-12+115299999V0203401N004010900019N0300001N1+01671-00461100751ADDGF106991011011012501001021MD1710061+9999REMSYN060AAXX  12091 53276 42680 63404 10167 21046 40075 57006 81102;
0163532760999992000051212004+42400+112900FM-12+115299999V0202501N004019999999N0300001N1+01371-00191100871ADDAA199000091GF107991001001999999001021MA1999999087941MD1210051+9999REMSYN066AAXX  12121 53276 32980 72504 10137 21019 38794 40087 52005 80002;EQDQ01  00002PRCP99
0112532760999992000051215004+42400+112900FM-12+115299999V0202501N004010900019N0300001N1+01081-00061100901ADDGF107991011051012501001021MD1210041+9999REMSYN060AAXX  12151 53276 42680 72504 10108 21006 40090 52004 81502;
0186532760999992000051218004+42400+112900FM-12+115299999V0202201N004010120019N0300001N1+00961+00241100831ADDAA199000091GF108991051051012501001071KA1999M+01711MA1999999087931MD1710051+9999REMSYN076AAXX  12181 53276 32680 82204 10096 20024 38793 40083 57005 85507 333 10171;EQDQ01  00002PRCP99
0133532760999992000051221004+42400+112900FM-12+115299999V0202001N001010360019N0300001N1+00921+00241100681ADDAA124000791GF107991021051012501031021MD1710071+9999REMSYN070AAXX  12211 53276 42680 72001 10092 20024 40068 57007 82532 333 79999;
0173532760999992000051300004+42400+112900FM-12+115299999V0202201N003012200019N0300001N1+01331+00191100721ADDAA199000091GF102991021001999999031021MA1999999087911MD1210051+0011REMSYN076AAXX  13001 53276 32980 22203 10133 20019 38791 40072 52005 82032 333 00105;EQDQ01  00002PRCP99
0112532760999992000051303004+42400+112900FM-12+115299999V0201801N002012200019N0300001N1+01801-00151100631ADDGF102991021001999999031021MD1710041+9999REMSYN060AAXX  13031 53276 42980 21802 10180 21015 40063 57004 82032;
0186532760999992000051306004+42400+112900FM-12+115299999V0201601N002010900019N0300001N1+02021-00041100421ADDAA199000091GF106991021011017501001021KA1999N+00731MA1999999087711MD1710161+9999REMSYN076AAXX  13061 53276 32780 61602 10202 21004 38771 40042 57016 82102 333 20073;EQDQ01  00002PRCP99
0112532760999992000051309004+42400+112900FM-12+115299999V0201401N001019999999N0300001N1+02081-00031100231ADDGF105991001001999999001021MD1710161+9999REMSYN060AAXX  13091 53276 42980 51401 10208 21003 40023 57016 80002;
0163532760999992000051312004+42400+112900FM-12+115299999V0201601N004019999999N0300001N1+01851-00121100131ADDAA199000091GF108991021001999999031071MA1999999087501MD1710051+9999REMSYN066AAXX  13121 53276 32980 81604 10185 21012 38750 40013 57005 82037;EQDQ01  00002PRCP99
0112532760999992000051315004+42400+112900FM-12+115299999V0201801N007010900019N0300001N1+01721+00121100071ADDGF108991011051012501001071MD1210011+9999REMSYN060AAXX  13151 53276 42680 81807 10172 20012 40007 52001 81507;
0186532760999992000051318004+42400+112900FM-12+115299999V0202501N002010900019N0300001N1+01461+00531100111ADDAA199000091GF108991021091012501001071KA1999M+02141MA1999999087541MD1210031+9999REMSYN076AAXX  13181 53276 32680 82502 10146 20053 38754 40011 52003 82907 333 10214;EQDQ01  00002PRCP99
0145532760999992000051321004+42400+112900FM-12+115299999V0201601N003019999999N0300001N1+01261+00631100221ADDAA124000791GF108991041001012501021999MD1210071+9999MW1601REMSYN076AAXX  13211 53276 41680 81603 10126 20063 40022 52007 76000 8402/ 333 79999;
0186532760999992000051400004+42400+112900FM-12+115299999V0201801N004010360019N0300001N1+01211+00851100401ADDAA106000191AY161061GF108991011051012501011999MA1999999087711MD1210101-0201MW1601REMSYN094AAXX  14001 53276 11680 81804 10121 20085 38771 40040 52010 69911 76060 8151/ 333 05251 70001;
0132532760999992000051403004+42400+112900FM-12+115299999V0201101N003010120019N0300001N1+01161+00821100541ADDAY161031GF107991061051012501001021MD1210081+9999MW1211REMSYN066AAXX  14031 53276 41680 71103 10116 20082 40054 52008 72160 86502;
0193532760999992000051406004+42400+112900FM-12+115299999V0200901N005010360019N0300001N1+01731+00231100311ADDAA106000591AY161061GF107991011011012501031021KA1999N+01051MA1999999087661MD1710131+9999MW1001REMSYN088AAXX  14061 53276 11680 70905 10173 20023 38766 40031 57013 69961 70060 81132 333 20105;
0112532760999992000051409004+42400+112900FM-12+115299999V0200701N005010360019N0300001N1+01631+00091100401ADDGF107991021051012501031081MD1210011+9999REMSYN060AAXX  14091 53276 42680 70705 10163 20009 40040 52001 82538;
0144532760999992000051412004+42400+112900FM-12+115299999V0201101N006010360019N0300001N1+01381+00421100721ADDAA199000021GF107991011051012501031021MA1999999087891MD1210221+9999REMSYN066AAXX  14121 53276 32680 71106 10138 20042 38789 40072 52022 81532;
0112532760999992000051415004+42400+112900FM-12+115299999V0209999C000019999999N0300001N1+01031+00591100931ADDGF107991011001999999031081MD1210101+9999REMSYN060AAXX  14151 53276 42980 70000 10103 20059 40093 52010 81038;
0186532760999992000051418004+42400+112900FM-12+115299999V0209999C000012200019N0300001N1+00781+00571100971ADDAA199000091GF103991001001999999001021KA1999M+01871MA1999999088091MD1210101+9999REMSYN076AAXX  14181 53276 32980 30000 10078 20057 38809 40097 52010 80002 333 10187;EQDQ01  00002PRCP99
0133532760999992000051421004+42400+112900FM-12+115299999V0209999C000012200019N0300001N1+00521+00451101161ADDAA124000891GF101991001001999999001021MD1210091+9999REMSYN070AAXX  14211 53276 42980 10000 10052 20045 40116 52009 80002 333 70007;
0178532760999992000051500004+42400+112900FM-12+115299999V0200901N004012200019N0300001N1+01051+00521101321ADDAA124000591GF101991001001999999001021IA2999+00209MA1999999088381MD1210201+0701REMSYN088AAXX  15001 53276 32980 10904 10105 20052 38838 40132 52020 80002 333 00752 30020 70006;
0112532760999992000051503004+42400+112900FM-12+115299999V0201401N007012200019N0300001N1+01711+00301101371ADDGF101991011011012501001001MD1210111+9999REMSYN060AAXX  15031 53276 42680 11407 10171 20030 40137 52011 81100;
0186532760999992000051506004+42400+112900FM-12+115299999V0209999C000012200019N0300001N1+01921+00131101311ADDAA199000091GF103991031011012501001001KA1999N+00511MA1999999088431MD1710061+9999REMSYN076AAXX  15061 53276 32680 30000 10192 20013 38843 40131 57006 83100 333 20051;EQDQ01  00002PRCP99
0124532760999992000051509004+42400+112900FM-12+115299999V0201101N005010900019N0300001N1+01911+00021101321ADDGF105991031091012501001021MD1710051+9999MW1251REMSYN066AAXX  15091 53276 41680 51105 10191 20002 40132 57005 72500 83902;
0170532760999992000051512004+42400+112900FM-12+115299999V0202001N005012200019N0300001N1+01601+00071101391ADDAA106000791AY181061GF102991021091012501001021MA1999999088491MD1210111+9999MW1001REMSYN078AAXX  15121 53276 11680 22005 10160 20007 38849 40139 52011 69901 70080 82902;
0122532760999992000051515004+42400+112900FM-12+115299999V0201801N004012200019N0300001N1+01251+00191101431ADDGA1001+999999999GF100991001001999999001001MD1210101+9999REMSYN054AAXX  15151 53276 42980 01804 10125 20019 40143 52010;
0177532760999992000051518004+42400+112900FM-12+115299999V0201401N003012200019N0300001N1+01021+00481101301ADDAA199000021GA1001+999999999GF100991001001999999001001KA1999M+02031MA1999999088471MD1710121+9999REMSYN070AAXX  15181 53276 32980 01403 10102 20048 38847 40130 57012 333 10203;
0133532760999992000051521004+42400+112900FM-12+115299999V0202001N005012200019N0300001N1+00881+00391101241ADDAA124000791GF101991011001999999031001MD1710081+9999REMSYN070AAXX  15211 53276 42980 12005 10088 20039 40124 57008 81030 333 79999;
0112532760999992000051603004+42400+112900FM-12+115299999V0202201N008012200019N0300001N1+02221-00461100891ADDGF101991001001999999001021MD1710121+9999REMSYN060AAXX  16031 53276 42980 12208 10222 21046 40089 57012 80002;
0186532760999992000051606004+42400+112900FM-12+115299999V0202501N009012200019N0300001N1+02591-01321100681ADDAA199000091GF104991031021012501001021KA1999N+00871MA1999999088061MD1710161+9999REMSYN076AAXX  16061 53276 32680 42509 10259 21132 38806 40068 57016 83202 333 20087;EQDQ01  00002PRCP99
0112532760999992000051609004+42400+112900FM-12+115299999V0202701N006012200019N0300001N1+02441-01241100511ADDGF104991011011012501001021MD1710201+9999REMSYN060AAXX  16091 53276 42680 42706 10244 21124 40051 57020 81102;
0163532760999992000051612004+42400+112900FM-12+115299999V0202501N009010120019N0300001N1+02051-00561100491ADDAA199000091GF107991061051012501021999MA1999999087911MD1210051+9999REMSYN066AAXX  16121 53276 32680 72509 10205 21056 38791 40049 52005 8652/;EQDQ01  00002PRCP99
0112532760999992000051615004+42400+112900FM-12+115299999V0202001N006010900019N0300001N1+01751-00171100371ADDGF107991011051012501001021MD1710051+9999REMSYN060AAXX  16151 53276 42680 72006 10175 21017 40037 57005 81502;
0208532760999992000051618004+42400+112900FM-12+115299999V0202501N007010900019N0200001N1+01611-00251100131ADDAA106000791GF107991041051012501001021KA1240M+02651MA1999999087701MD1710161+9999MW1211OA130602501REMSYN100AAXX  16181 53276 11670 72507 10161 21025 38770 40013 57016 69901 72100 84502 333 10265 91125 91525;
0133532760999992000051621004+42400+112900FM-12+115299999V0202701N006010900019N0200001N1+01131-01502100331ADDAA124000791GF107991011051012501001021MD1210051+9999REMSYN070AAXX  16211 53276 42670 72706 10113 21150 40033 52005 81502 333 79999;
0160532760999992000051700004+42400+112900FM-12+115299999V0202901N010012200019N0300001N1+01111-00421100531ADDAA124000791GF101991001001999999001021MA1999999087841MD1210091-0501REMSYN082AAXX  17001 53276 32980 12910 10111 21042 38784 40053 52009 80002 333 05555 79999;
0112532760999992000051703004+42400+112900FM-12+115299999V0202501N011010120019N0300001N1+01141-00411100641ADDGF106991051021012501031001MD1210041+9999REMSYN060AAXX  17031 53276 42680 62511 10114 21041 40064 52004 85230;
0216532760999992000051706004+42400+112900FM-12+115299999V0202901N012012200019N0250001N1+01391-00621100431ADDAA106000791AY181061GF104991041011012501001001KA1240N+01011MA1999999087721MD1710161+9999MW1001OA130602001REMSYN100AAXX  17061 53276 11675 42912 10139 21062 38772 40043 57016 69901 70080 84100 333 20101 91120 91525;
0132532760999992000051709004+42400+112900FM-12+115299999V0202501N009010900019N0250001N1+00991+00221100571ADDAY181031GF107991021091012501001021MD1710061+9999MW1001REMSYN066AAXX  17091 53276 41675 72509 10099 20022 40057 57006 70080 82902;
0197532760999992000051712004+42400+112900FM-12+115299999V0202701N013010360019N0250001N1+01101+00091100511ADDAA106000391AY181061GF107991031091012501031021MA1999999087631MD1710031+9999MW1801OA130602001REMSYN094AAXX  17121 53276 11675 72713 10110 20009 38763 40051 57003 69931 78080 83932 333 91120 91525;
0132532760999992000051715004+42400+112900FM-12+115299999V0202701N009010120019N0250001N1+00901+00321100621ADDAY181031GF107991071051012501999999MD1210061+9999MW1601REMSYN066AAXX  17151 53276 41675 72709 10090 20032 40062 52006 76080 875//;
0201532760999992000051718004+42400+112900FM-12+115299999V0202901N008010120019N0250001N1+00681+00421100551ADDAA106000791AY181061AY261061GF107991051051012501001021KA1999M+01621MA1999999087631MD1710061+9999MW1211REMSYN088AAXX  17181 53276 11675 72908 10068 20042 38763 40055 57006 69901 72186 85502 333 10162;
0153532760999992000051721004+42400+112900FM-12+115299999V0202901N007010120019N0250001N1+00641+00511100611ADDAA124000891AY161031GF108991061051012501011999MD1710041+9999MW1601REMSYN076AAXX  17211 53276 41675 82907 10064 20051 40061 57004 76060 8651/ 333 70007;
0186532760999992000051800004+42400+112900FM-12+115299999V0202901N009010075019N0200001N1+00521+00431100671ADDAA106003091AY161061GF108991051071008001021999MA1999999087641MD1210051-0201MW1611REMSYN094AAXX  18001 53276 11570 82909 10052 20043 38764 40067 52005 60031 76160 8572/ 333 05256 70033;
0140532760999992000051803004+42400+112900FM-12+115299999V0203401N010010075019N0120001N1+00581+00451100771ADDAY161031AY261031GF108991051071008001021999MD1210061+9999MW1601REMSYN066AAXX  18031 53276 41562 83410 10058 20045 40077 52006 76066 8572/;
0193532760999992000051806004+42400+112900FM-12+115299999V0203201N011010360019N0250001N1+00911+00561100801ADDAA106004191AY161061GF106991021071008001031021KA1999N+00441MA1999999087751MD1210051+9999MW1001REMSYN088AAXX  18061 53276 11575 63211 10091 20056 38775 40080 52005 60041 70060 82732 333 20044;
0112532760999992000051809004+42400+112900FM-12+115299999V0202901N011019999999N0300001N1+01391+00281100621ADDGF106991021001999999031021MD1710061+9999REMSYN060AAXX  18091 53276 42980 62911 10139 20028 40062 57006 82032;
0171532760999992000051812004+42400+112900FM-12+115299999V0203201N006010360019N0300001N1+01271+00531100821ADDAA199000021GF106991021091012501031021MA1999999087811MD1210121+9999OA130601901REMSYN082AAXX  18121 53276 32680 63206 10127 20053 38781 40082 52012 82932 333 91119 91532;
0140532760999992000051815004+42400+112900FM-12+115299999V0203201N007010120019N0300001N1+01061+00661101021ADDAY191031AY281031GF107991061091012501001021MD1210141+9999MW1001REMSYN066AAXX  18151 53276 41680 73207 10106 20066 40102 52014 70098 86902;
0201532760999992000051818004+42400+112900FM-12+115299999V0203201N006012200019N0300001N1+00791+00611101041ADDAA106002091AY191061AY281061GF101991011001999999031001KA1999M+01471MA1999999087981MD1210031+9999MW1001REMSYN088AAXX  18181 53276 11980 13206 10079 20061 38798 40104 52003 60021 70098 81030 333 10147;
0133532760999992000051821004+42400+112900FM-12+115299999V0203401N003012200019N0300001N1+00601+00431101071ADDAA124008191GF101991001001999999001021MD1210091+9999REMSYN070AAXX  18211 53276 42980 13403 10060 20043 40107 52009 80002 333 70082;
0178532760999992000051900004+42400+112900FM-12+115299999V0202901N004012200019N0300001N1+00921+00531101191ADDAA124005691GF101991001001999999001021IA2999+00399MA1999999088221MD1210151+0601REMSYN088AAXX  19001 53276 32980 12904 10092 20053 38822 40119 52015 80002 333 00604 30039 70056;
0112532760999992000051903004+42400+112900FM-12+115299999V0203601N004012200019N0300001N1+01361+00321101231ADDGF101991011011017501001001MD1210081+9999REMSYN060AAXX  19031 53276 42780 13604 10136 20032 40123 52008 81100;
0186532760999992000051906004+42400+112900FM-12+115299999V0209999C000019999999N0300001N1+01651+00091101091ADDAA199000091GF106991001001999999001021KA1999N+00581MA1999999088181MD1710121+9999REMSYN076AAXX  19061 53276 32980 60000 10165 20009 38818 40109 57012 80002 333 20058;EQDQ01  00002PRCP99
0112532760999992000051909004+42400+112900FM-12+115299999V0202701N001019999999N0300001N1+01851+00051100951ADDGF106991001001999999001021MD1710121+9999REMSYN060AAXX  19091 53276 42980 62701 10185 20005 40095 57012 80002;
0163532760999992000051912004+42400+112900FM-12+115299999V0201601N003012200019N0300001N1+01641+00421100751ADDAA199000091GF102991021001999999031021MA1999999087911MD1710151+9999REMSYN066AAXX  19121 53276 32980 21603 10164 20042 38791 40075 57015 82032;EQDQ01  00002PRCP99
0112532760999992000051915004+42400+112900FM-12+115299999V0201801N006010360019N0300001N1+01331+00431100601ADDGF107991011091017501031021MD1710101+9999REMSYN060AAXX  19151 53276 42780 71806 10133 20043 40060 57010 81932;
0186532760999992000051918004+42400+112900FM-12+115299999V0201801N008019999999N0300001N1+01221+00211100371ADDAA199000091GF107991021001999999031021KA1999M+01931MA1999999087641MD1710171+9999REMSYN076AAXX  19181 53276 32980 71808 10122 20021 38764 40037 57017 82032 333 10193;EQDQ01  00002PRCP99
0112532760999992000051921004+42400+112900FM-12+115299999V0202001N007012200019N0300001N1+01161+00071100141ADDGF103991001001999999001021MD1710171+9999REMSYN060AAXX  19211 53276 42980 32007 10116 20007 40014 57017 80002;
0173532760999992000052000004+42400+112900FM-12+115299999V0202501N007012200019N0300001N1+01671+00041100081ADDAA199000091GF102991011001999999031021MA1999999087481MD1210011+0071REMSYN076AAXX  20001 53276 32980 22507 10167 20004 38748 40008 52001 81032 333 05708;EQDQ01  00002PRCP99
0112532760999992000052003004+42400+112900FM-12+115299999V0203201N008019999999N0300001N1+02401-00271100051ADDGF107991001001999999001021MD1210061+9999REMSYN060AAXX  20031 53276 42980 73208 10240 21027 40005 52006 80002;
0209532760999992000052006004+42400+112900FM-12+115299999V0203401N004010900019N0300001N1+02561-00221100131ADDAA199000091GF107991031091012501001021KA1240N+01061MA1999999087621MD1210081+9999OA130601801REMSYN088AAXX  20061 53276 32680 73404 10256 21022 38762 40013 52008 83902 333 20106 91118 91534;EQDQ01  00002PRCP99
0112532760999992000052009004+42400+112900FM-12+115299999V0203401N008010900019N0300001N1+02561-00221100081ADDGF107991041091012501001021MD1710061+9999REMSYN060AAXX  20091 53276 42680 73408 10256 21022 40008 57006 84902;
0190532760999992000052012004+42400+112900FM-12+115299999V0200401N005010900019N0300001N1+02181+00291100141ADDAA199000091GF107991031091012501001021MA1999999087641MD1210081+9999OA130601801REMSYN082AAXX  20121 53276 32680 70405 10218 20029 38764 40014 52008 83902 333 91118 91534;EQDQ01  00002PRCP99
0112532760999992000052015004+42400+112900FM-12+115299999V0200201N007010900019N0300001N1+01771+00291100391ADDGF105991011051012501001021MD1210281+9999REMSYN060AAXX  20151 53276 42680 50207 10177 20029 40039 52028 81502;
0186532760999992000052018004+42400+112900FM-12+115299999V0200701N003012200019N0300001N1+01251+00571100651ADDAA199000091GF102991001001999999001021KA1999M+02691MA1999999088081MD1210161+9999REMSYN076AAXX  20181 53276 32980 20703 10125 20057 38808 40065 52016 80002 333 10269;EQDQ01  00002PRCP99
0112532760999992000052021004+42400+112900FM-12+115299999V0200401N002012200019N0300001N1+00991+00581100851ADDGF102991001001999999001021MD1210121+9999REMSYN060AAXX  20211 53276 42980 20402 10099 20058 40085 52012 80002;
0173532760999992000052100004+42400+112900FM-12+115299999V0201401N001010900019N0300001N1+01291+00621101051ADDAA199000091GF107991021051012501001021MA1999999088361MD1210161+0091REMSYN076AAXX  21001 53276 32680 71401 10129 20062 38836 40105 52016 82502 333 00954;EQDQ01  00002PRCP99
0112532760999992000052103004+42400+112900FM-12+115299999V0201101N004010900019N0300001N1+01671+00271101071ADDGF107991011051012501001021MD1210011+9999REMSYN060AAXX  21031 53276 42680 71104 10167 20027 40107 52001 81502;
0186532760999992000052106004+42400+112900FM-12+115299999V0201101N006010360019N0300001N1+01891-00241101001ADDAA199000091GF107991031051012501031021KA1999N+00941MA1999999088251MD1710121+9999REMSYN076AAXX  21061 53276 32680 71106 10189 21024 38825 40100 57012 83532 333 20094;EQDQ01  00002PRCP99
0112532760999992000052109004+42400+112900FM-12+115299999V0201101N006010120019N0300001N1+01881-00261101041ADDGF107991071051012501001021MD1710021+9999REMSYN060AAXX  21091 53276 42680 71106 10188 21026 40104 57002 87502;
0163532760999992000052112004+42400+112900FM-12+115299999V0200701N003010360019N0300001N1+01751+00251100981ADDAA199000091GF106991021051012501031021MA1999999088211MD1710021+9999REMSYN066AAXX  21121 53276 32680 60703 10175 20025 38821 40098 57002 82532;EQDQ01  00002PRCP99
0112532760999992000052115004+42400+112900FM-12+115299999V0201401N004012200019N0300001N1+01451-00021100991ADDGF104991011051012501001021MD1210031+9999REMSYN060AAXX  21151 53276 42680 41404 10145 21002 40099 52003 81502;
0186532760999992000052118004+42400+112900FM-12+115299999V0201801N002012200019N0300001N1+01221+00341100961ADDAA199000091GF101991001001999999001021KA1999M+01991MA1999999088211MD1710031+9999REMSYN076AAXX  21181 53276 32980 11802 10122 20034 38821 40096 57003 80002 333 10199;EQDQ01  00002PRCP99
0112532760999992000052121004+42400+112900FM-12+115299999V0209999C000012200019N0300001N1+01071+00471100991ADDGF102991011001999999031021MD1710011+9999REMSYN060AAXX  21211 53276 42980 20000 10107 20047 40099 57001 81032;
0173532760999992000052200004+42400+112900FM-12+115299999V0209999C000012200019N0300001N1+01641+00601100891ADDAA199000091GF101991001001999999001021MA1999999088201MD1410001+0021REMSYN076AAXX  22001 53276 32980 10000 10164 20060 38820 40089 54000 80002 333 05204;EQDQ01  00002PRCP99
0122532760999992000052203004+42400+112900FM-12+115299999V0202201N003012200019N0300001N1+02431+00751100631ADDGA1001+999999999GF100991001001999999001001MD1710131+9999REMSYN054AAXX  22031 53276 42980 02203 10243 20075 40063 57013;
0186532760999992000052206004+42400+112900FM-12+115299999V0203401N004010900019N0300001N1+02721+00311100511ADDAA199000091GF106991011011012501001021KA1999N+01011MA1999999087981MD1710091+9999REMSYN076AAXX  22061 53276 32680 63404 10272 20031 38798 40051 57009 81102 333 20101;EQDQ01  00002PRCP99
0112532760999992000052209004+42400+112900FM-12+115299999V0203401N004010900019N0300001N1+02691-00081100491ADDGF107991011011012501001021MD1710051+9999REMSYN060AAXX  22091 53276 42680 73404 10269 21008 40049 57005 81102;
0163532760999992000052212004+42400+112900FM-12+115299999V0202901N002012200019N0300001N1+02211+00281100511ADDAA199000091GF102991011051012501001021MA1999999087961MD1210031+9999REMSYN066AAXX  22121 53276 32680 22902 10221 20028 38796 40051 52003 81502;EQDQ01  00002PRCP99
0196532760999992000052218004+42400+112900FM-12+115299999V0202001N004012200019N0300001N1+01441+00271100491ADDAA199000091GA1001+999999999GF100991001001999999001001KA1999M+02781MA1999999088011MD1710031+9999REMSYN070AAXX  22181 53276 32980 02004 10144 20027 38801 40049 57003 333 10278;EQDQ01  00002PRCP99
0112532760999992000052221004+42400+112900FM-12+115299999V0202001N004012200019N0300001N1+01521+00271100461ADDGF101991001001999999001021MD1710021+9999REMSYN060AAXX  22211 53276 42980 12004 10152 20027 40046 57002 80002;
0173532760999992000052300004+42400+112900FM-12+115299999V0202001N008012200019N0300001N1+02131+00621100461ADDAA199000091GF101991001001999999001021MA1999999088021MD1210031+0021REMSYN076AAXX  23001 53276 32980 12008 10213 20062 38802 40046 52003 80002 333 05205;EQDQ01  00002PRCP99
0112532760999992000052303004+42400+112900FM-12+115299999V0202001N006012200019N0300001N1+02981+00131100381ADDGF101991001001999999001021MD1710031+9999REMSYN060AAXX  23031 53276 42980 12006 10298 20013 40038 57003 80002;
0186532760999992000052306004+42400+112900FM-12+115299999V0202501N005012200019N0300001N1+03201-00771100161ADDAA199000091GF103991001001999999001021KA1999N+01331MA1999999087811MD1710181+9999REMSYN076AAXX  23061 53276 32980 32505 10320 21077 38781 40016 57018 80002 333 20133;EQDQ01  00002PRCP99
0112532760999992000052309004+42400+112900FM-12+115299999V0202901N004019999999N0300001N1+03211-00331099911ADDGF107991001001999999001021MD1710201+9999REMSYN060AAXX  23091 53276 42980 72904 10321 21033 49991 57020 80002;
0163532760999992000052312004+42400+112900FM-12+115299999V0202001N002019999999N0300001N1+02721+00621099861ADDAA199000091GF107991001001999999001021MA1999999087591MD1710021+9999REMSYN066AAXX  23121 53276 32980 72002 10272 20062 38759 49986 57002 80002;EQDQ01  00002PRCP99
0112532760999992000052315004+42400+112900FM-12+115299999V0202501N005019999999N0300001N1+02401-00031099871ADDGF107991001001999999001021MD1210111+9999REMSYN060AAXX  23151 53276 42980 72505 10240 21003 49987 52011 80002;
0186532760999992000052318004+42400+112900FM-12+115299999V0202201N006010900019N0300001N1+02291+00001099891ADDAA199000091GF107991021051017501001021KA1999M+03311MA1999999087741MD1210041+9999REMSYN076AAXX  23181 53276 32780 72206 10229 20000 38774 49989 52004 82502 333 10331;EQDQ01  00002PRCP99
0112532760999992000052321004+42400+112900FM-12+115299999V0202201N005010360019N0300001N1+02181-00011100001ADDGF108991021051012501031071MD1210071+9999REMSYN060AAXX  23211 53276 42680 82205 10218 21001 40000 52007 82537;
0173532760999992000052400004+42400+112900FM-12+115299999V0202001N006019999999N0250001N1+02441+00161100091ADDAA199000091GF106991011001999999031021MA1999999087851MD1210041+0021REMSYN076AAXX  24001 53276 32975 62006 10244 20016 38785 40009 52004 81032 333 05203;EQDQ01  00002PRCP99
0112532760999992000052403004+42400+112900FM-12+115299999V0202501N007019999999N0200001N1+03111-00071099981ADDGF107991001001999999001021MD1710031+9999REMSYN060AAXX  24031 53276 42970 72507 10311 21007 49998 57003 80002;
0186532760999992000052406004+42400+112900FM-12+115299999V0202501N005010900019N0200001N1+03301+00011099741ADDAA199000091GF107991021011012501001021KA1999N+01931MA1999999087621MD1710201+9999REMSYN076AAXX  24061 53276 32670 72505 10330 20001 38762 49974 57020 82102 333 20193;EQDQ01  00002PRCP99
0132532760999992000052409004+42400+112900FM-12+115299999V0203401N011010120019N0200001N1+02741+00041099791ADDAY181031GF107991051091012501001021MD1710081+9999MW1001REMSYN066AAXX  24091 53276 41670 73411 10274 20004 49979 57008 70080 85902;
0197532760999992000052412004+42400+112900FM-12+115299999V0203601N004010120019N0300001N1+02451+00431100121ADDAA106000791AY181061GF107991061091012501001021MA1999999087821MD1210281+9999MW1001OA130602401REMSYN094AAXX  24121 53276 11680 73604 10245 20043 38782 40012 52028 69901 70080 86902 333 91124 91525;
0132532760999992000052415004+42400+112900FM-12+115299999V0201401N003010900019N0300001N1+02111+00701100101ADDAY191031GF107991021091012501001021MD1210051+9999MW1001REMSYN066AAXX  24151 53276 41680 71403 10211 20070 40010 52005 70090 82902;
0206532760999992000052418004+42400+112900FM-12+115299999V0201601N004010120019N0300001N1+01991+00701100051ADDAA199000091AY191061GF107991051091012501001021KA1999M+03351MA1999999087841MD1710031+9999MW1001REMSYN082AAXX  24181 53276 31680 71604 10199 20070 38784 40005 57003 70090 85902 333 10335;EQDQ01  00002PRCP99
0133532760999992000052421004+42400+112900FM-12+115299999V0201101N004012200019N0300001N1+01751+00841100161ADDAA124000791GF103991011051017501001021MD1710061+9999REMSYN070AAXX  24211 53276 42780 31104 10175 20084 40016 57006 81502 333 79999;
0160532760999992000052500004+42400+112900FM-12+115299999V0200401N005012200019N0300001N1+01811+00961100281ADDAA124000791GF104991011011012501031021MA1999999087841MD1210061+0001REMSYN082AAXX  25001 53276 32680 40405 10181 20096 38784 40028 52006 81132 333 00056 79999;
0112532760999992000052503004+42400+112900FM-12+115299999V0200401N004019999999N0300001N1+02411+00871100191ADDGF107991031001999999031021MD1710031+9999REMSYN060AAXX  25031 53276 42980 70404 10241 20087 40019 57003 83032;
0186532760999992000052506004+42400+112900FM-12+115299999V0200401N011010360019N0150001N1+02431+00751100041ADDAA199000091GF106991031051012501031021KA1999N+01571MA1999999087661MD1710151+9999REMSYN076AAXX  25061 53276 32665 60411 10243 20075 38766 40004 57015 83532 333 20157;EQDQ01  00002PRCP99
0142532760999992000052509004+42400+112900FM-12+115299999V0200201N015010006019N0006001N1+01921+00011100391ADDAY131031GA1091+999999999GF109991091999999999999999MD1210161+9999MW1311REMSYN060AAXX  25091 53276 41/06 90215 10192 20001 40039 52016 73130;
0220532760999992000052512004+42400+112900FM-12+115299999V0200201N014010012019N0020001N1+01241-00041101021ADDAA199000091AY131061GA1091+999999999GF109991091999999999999999MA1999999088251MD1210431+9999MW1071OA130602301REMSYN082AAXX  25121 53276 31/20 90214 10124 21004 38825 40102 52043 70730 333 91123 91502;EQDQ01  00002PRCP99
0132532760999992000052515004+42400+112900FM-12+115299999V0200201N009019999999N0080001N1+00661+00601101361ADDAY161031GF108991081001999999021999MD1210301+9999MW1611REMSYN066AAXX  25151 53276 41958 80209 10066 20060 40136 52030 76160 8802/;
0216532760999992000052518004+42400+112900FM-12+115299999V0200401N006019999999N0150001N1+00681+00551101261ADDAA106006191AY161061GF107991071001999999011999KA1240M+02601MA1999999088471MD1710081+9999MW1601OA130601901REMSYN100AAXX  25181 53276 11965 70406 10068 20055 38847 40126 57008 60061 76060 8701/ 333 10260 91119 91502;
0161532760999992000052521004+42400+112900FM-12+115299999V0200401N006019999999N0120001N1+00681+00601101471ADDAA124011791AY161031AY261031GF108991081001999999021999MD1210081+9999MW1601REMSYN076AAXX  25211 53276 41962 80406 10068 20060 40147 52008 76066 8802/ 333 70117;
0194532760999992000052600004+42400+112900FM-12+115299999V0200401N008010075019N0100001N1+00671+00591101721ADDAA106015091AY161061AY261061GF108991071071008001021999MA1999999088621MD1210071+0801MW1611REMSYN094AAXX  26001 53276 11560 80408 10067 20059 38862 40172 52007 60151 76166 8772/ 333 00861 70215;
0140532760999992000052603004+42400+112900FM-12+115299999V0200401N007010075019N0100001N1+00651+00521101951ADDAY161031AY261031GF108991061071008001021999MD1210071+9999MW1611REMSYN066AAXX  26031 53276 41560 80407 10065 20052 40195 52007 76166 8672/;
0201532760999992000052606004+42400+112900FM-12+115299999V0200901N004010360019N0120001N1+00661+00531101951ADDAA106010991AY161061AY261061GF108991021071008001021999KA1999N+00621MA1999999088701MD1210011+9999MW1611REMSYN088AAXX  26061 53276 11562 80904 10066 20053 38870 40195 52001 60111 76166 8272/ 333 20062;
0132532760999992000052609004+42400+112900FM-12+115299999V0201401N002010120019N0300001N1+00841+00481101791ADDAY161031GF107991051051012501001021MD1710101+9999MW1001REMSYN066AAXX  26091 53276 41680 71402 10084 20048 40179 57010 70060 85502;
0170532760999992000052612004+42400+112900FM-12+115299999V0202201N001012200019N0300001N1+00871+00451101771ADDAA106000391AY161061GF103991011001999999031021MA1999999088581MD1710021+9999MW1001REMSYN078AAXX  26121 53276 11980 32201 10087 20045 38858 40177 57002 69931 70060 81032;
0112532760999992000052615004+42400+112900FM-12+115299999V0202201N004012200019N0300001N1+00731+00411101761ADDGF101991001001999999001021MD1710041+9999REMSYN060AAXX  26151 53276 42980 12204 10073 20041 40176 57004 80002;
0167532760999992000052618004+42400+112900FM-12+115299999V0202501N005012200019N0300001N1+00681+00371101721ADDAA199000021GF101991001001999999001021KA1999M+00951MA1999999088501MD1710041+9999REMSYN076AAXX  26181 53276 32980 12505 10068 20037 38850 40172 57004 80002 333 10095;
0133532760999992000052621004+42400+112900FM-12+115299999V0202501N006012200019N0300001N1+00641+00351101651ADDAA124020891GF101991011001999999031001MD1710031+9999REMSYN070AAXX  26211 53276 42980 12506 10064 20035 40165 57003 81030 333 70209;
0188532760999992000052700004+42400+112900FM-12+115299999V0202701N005012200019N0300001N1+01151+00521101581ADDAA124011291GA1001+999999999GF100991001001999999001001IA2999+00449MA1999999088521MD1210051-0101REMSYN082AAXX  27001 53276 32980 02705 10115 20052 38852 40158 52005 333 05105 30044 70111;
0112532760999992000052703004+42400+112900FM-12+115299999V0203201N006012200019N0300001N1+01731+00601101481ADDGF101991011011017501001001MD1210011+9999REMSYN060AAXX  27031 53276 42780 13206 10173 20060 40148 52001 81100;
0186532760999992000052706004+42400+112900FM-12+115299999V0202701N006012200019N0300001N1+01991+00161101151ADDAA199000091GF104991031091012501001021KA1999N+00601MA1999999088281MD1710251+9999REMSYN076AAXX  27061 53276 32680 42706 10199 20016 38828 40115 57025 83902 333 20060;EQDQ01  00002PRCP99
0112532760999992000052709004+42400+112900FM-12+115299999V0202901N005010120019N0300001N1+01931+00451101141ADDGF107991061091012501001021MD1710031+9999REMSYN060AAXX  27091 53276 42680 72905 10193 20045 40114 57003 86902;
0163532760999992000052712004+42400+112900FM-12+115299999V0202501N006010900019N0300001N1+01561+00661101071ADDAA199000091GF105991031091012501001021MA1999999088221MD1710031+9999REMSYN066AAXX  27121 53276 32680 52506 10156 20066 38822 40107 57003 83902;EQDQ01  00002PRCP99
0112532760999992000052715004+42400+112900FM-12+115299999V0209999C000012200019N0300001N1+01271+00601101221ADDGF101991001001999999001021MD1210191+9999REMSYN060AAXX  27151 53276 42980 10000 10127 20060 40122 52019 80002;
0196532760999992000052718004+42400+112900FM-12+115299999V0202201N001012200019N0300001N1+01101+00481101241ADDAA199000091GA1001+999999999GF100991001001999999001001KA1999M+02051MA1999999088451MD1210041+9999REMSYN070AAXX  27181 53276 32980 02201 10110 20048 38845 40124 52004 333 10205;EQDQ01  00002PRCP99
0122532760999992000052721004+42400+112900FM-12+115299999V0202501N005012200019N0300001N1+00941+00411101311ADDGA1001+999999999GF100991001001999999001001MD1210011+9999REMSYN054AAXX  27211 53276 42980 02505 10094 20041 40131 52001;
0183532760999992000052800004+42400+112900FM-12+115299999V0202201N006012200019N0300001N1+01411+00511101341ADDAA199000091GA1001+999999999GF100991001001999999001001MA1999999088511MD1210051+0001REMSYN070AAXX  28001 53276 32980 02206 10141 20051 38851 40134 52005 333 00003;EQDQ01  00002PRCP99
0122532760999992000052803004+42400+112900FM-12+115299999V0202001N006012200019N0300001N1+02131+00431101161ADDGA1001+999999999GF100991001001999999001001MD1710071+9999REMSYN054AAXX  28031 53276 42980 02006 10213 20043 40116 57007;
0186532760999992000052806004+42400+112900FM-12+115299999V0202701N004012200019N0300001N1+02491+00041100901ADDAA199000091GF101991001001999999001021KA1999N+00901MA1999999088251MD1710191+9999REMSYN076AAXX  28061 53276 32980 12704 10249 20004 38825 40090 57019 80002 333 20090;EQDQ01  00002PRCP99
0112532760999992000052809004+42400+112900FM-12+115299999V0202501N006012200019N0300001N1+02581-00671100761ADDGF101991001001999999001021MD1710131+9999REMSYN060AAXX  28091 53276 42980 12506 10258 21067 40076 57013 80002;
0163532760999992000052812004+42400+112900FM-12+115299999V0202001N006012200019N0300001N1+02191+00071100701ADDAA199000091GF102991001001999999001021MA1999999088081MD1710041+9999REMSYN066AAXX  28121 53276 32980 22006 10219 20007 38808 40070 57004 80002;EQDQ01  00002PRCP99
0112532760999992000052815004+42400+112900FM-12+115299999V0202201N008012200019N0300001N1+01671+00361100741ADDGF101991001001999999001021MD1210071+9999REMSYN060AAXX  28151 53276 42980 12208 10167 20036 40074 52007 80002;
0196532760999992000052818004+42400+112900FM-12+115299999V0202201N009012200019N0300001N1+01591+00051100591ADDAA199000091GA1001+999999999GF100991001001999999001001KA1999M+02641MA1999999088081MD1710071+9999REMSYN070AAXX  28181 53276 32980 02209 10159 20005 38808 40059 57007 333 10264;EQDQ01  00002PRCP99
0112532760999992000052821004+42400+112900FM-12+115299999V0202001N009012200019N0300001N1+01531+00171100451ADDGF102991001001999999001021MD1710121+9999REMSYN060AAXX  28211 53276 42980 22009 10153 20017 40045 57012 80002;
0173532760999992000052900004+42400+112900FM-12+115299999V0202201N008012200019N0300001N1+01941+00211100451ADDAA199000091GF101991001001999999001021MA1999999087971MD1210011+0051REMSYN076AAXX  29001 53276 32980 12208 10194 20021 38797 40045 52001 80002 333 05505;EQDQ01  00002PRCP99
0112532760999992000052903004+42400+112900FM-12+115299999V0202201N010019999999N0300001N1+02411+00171100341ADDGF107991001001999999001021MD1710111+9999REMSYN060AAXX  29031 53276 42980 72210 10241 20017 40034 57011 80002;
0186532760999992000052906004+42400+112900FM-12+115299999V0202201N009010900019N0300001N1+02431+00071100191ADDAA199000091GF107991031011012501001021KA1999N+01501MA1999999087721MD1710141+9999REMSYN076AAXX  29061 53276 32680 72209 10243 20007 38772 40019 57014 83102 333 20150;EQDQ01  00002PRCP99
0112532760999992000052909004+42400+112900FM-12+115299999V0202201N008010900019N0300001N1+02511+00061100021ADDGF107991021011012501001021MD1710151+9999REMSYN060AAXX  29091 53276 42680 72208 10251 20006 40002 57015 82102;
0163532760999992000052912004+42400+112900FM-12+115299999V0202001N005019999999N0300001N1+02151+00471099941ADDAA199000091GF107991031001999999031021MA1999999087511MD1710061+9999REMSYN066AAXX  29121 53276 32980 72005 10215 20047 38751 49994 57006 83032;EQDQ01  00002PRCP99
0112532760999992000052915004+42400+112900FM-12+115299999V0202001N007012200019N0300001N1+01891+00281099821ADDGF102991011001999999031021MD1710061+9999REMSYN060AAXX  29151 53276 42980 22007 10189 20028 49982 57006 81032;
0185532760999992000052918004+42400+112900FM-12+115299999V0202001N005010900019N0300001N1+01791+00611099771ADDAA106000791GF106991041091012501001021KA1999M+02601MA1999999087391MD1710061+9999MW1801REMSYN088AAXX  29181 53276 11680 62005 10179 20061 38739 49977 57006 69901 78000 84902 333 10260;
0153532760999992000052921004+42400+112900FM-12+115299999V0202201N005019999999N0050001N1+01671+00251099621ADDAA124000791AY181031GF108991081001999999011999MD1710141+9999MW1061REMSYN076AAXX  29211 53276 41950 82205 10167 20025 49962 57014 70680 8801/ 333 79999;
0186532760999992000053000004+42400+112900FM-12+115299999V0202501N008019999999N0090001N1+01791-00051099721ADDAA106000791AY181061GF106991031001999999031021MA1999999087291MD1210041-0701MW1061REMSYN094AAXX  30001 53276 11959 62508 10179 21005 38729 49972 52004 69901 70680 83032 333 05752 79999;
0112532760999992000053003004+42400+112900FM-12+115299999V0202901N009010360019N0300001N1+01961-00011099781ADDGF107991011011012501031021MD1210031+9999REMSYN060AAXX  30031 53276 42680 72909 10196 21001 49978 52003 81132;
0167532760999992000053006004+42400+112900FM-12+115299999V0202901N010010900019N0300001N1+02171+00151099721ADDAA199000021GF107991041091012501001021KA1999N+01541MA1999999087291MD1710031+9999REMSYN076AAXX  30061 53276 32680 72910 10217 20015 38729 49972 57003 84902 333 20154;
0112532760999992000053009004+42400+112900FM-12+115299999V0202901N007010900019N0300001N1+02201-00031099651ADDGF107991021011012501001021MD1710081+9999REMSYN060AAXX  30091 53276 42680 72907 10220 21003 49965 57008 82102;
0163532760999992000053012004+42400+112900FM-12+115299999V0203201N005012200019N0300001N1+02071-00151099771ADDAA199000091GF103991011011012501001021MA1999999087321MD1210111+9999REMSYN066AAXX  30121 53276 32680 33205 10207 21015 38732 49977 52011 81102;EQDQ01  00002PRCP99
0122532760999992000053015004+42400+112900FM-12+115299999V0202501N005012200019N0300001N1+01641+00141099881ADDGA1001+999999999GF100991001001999999001001MD1210041+9999REMSYN054AAXX  30151 53276 42980 02505 10164 20014 49988 52004;
0196532760999992000053018004+42400+112900FM-12+115299999V0202901N005012200019N0300001N1+01291+00531099931ADDAA199000091GA1001+999999999GF100991001001999999001001KA1999M+02301MA1999999087381MD1210021+9999REMSYN070AAXX  30181 53276 32980 02905 10129 20053 38738 49993 52002 333 10230;EQDQ01  00002PRCP99
0112532760999992000053021004+42400+112900FM-12+115299999V0202901N005012200019N0300001N1+01141+00581100121ADDGF101991001001999999001021MD1210141+9999REMSYN060AAXX  30211 53276 42980 12905 10114 20058 40012 52014 80002;
0173532760999992000053100004+42400+112900FM-12+115299999V0202901N006012200019N0300001N1+01481+00631100291ADDAA199000091GF102991021001999999031021MA1999999087711MD1210191+0041REMSYN076AAXX  31001 53276 32980 22906 10148 20063 38771 40029 52019 82032 333 00453;EQDQ01  00002PRCP99
0186532760999992000053106004+42400+112900FM-12+115299999V0202901N008012200019N0300001N1+02161-00131100391ADDAA199000091GF102991011011012501031021KA1999N+01111MA1999999087781MD1710061+9999REMSYN076AAXX  31061 53276 32680 22908 10216 21013 38778 40039 57006 81132 333 20111;EQDQ01  00002PRCP99
0112532760999992000053109004+42400+112900FM-12+115299999V0203401N006012200019N0300001N1+02221+00271100341ADDGF102991021011012501001001MD1710061+9999REMSYN060AAXX  31091 53276 42680 23406 10222 20027 40034 57006 82100;
0163532760999992000053112004+42400+112900FM-12+115299999V0200701N005010120019N0300001N1+01841+00651100581ADDAA199000091GF107991051091012501031021MA1999999087921MD1210201+9999REMSYN066AAXX  31121 53276 32680 70705 10184 20065 38792 40058 52020 85932;EQDQ01  00002PRCP99
0132532760999992000053115004+42400+112900FM-12+115299999V0209999C000012200019N0300001N1+01581+00951100721ADDAY181031GF102991011091012501031021MD1210161+9999MW1001REMSYN066AAXX  31151 53276 41680 20000 10158 20095 40072 52016 70080 81932;
0179532760999992000053118004+42400+112900FM-12+115299999V0209999C000012200019N0300001N1+01321+00931100821ADDAA106000791AY181061GF101991011001999999031021MA1999999088161MD1210081+9999MW1001REMSYN087AAXX  31181 53276 11980 10000 10132 20093 38816 40082 52008 69901 70080 81032 333 1027;
0133532760999992000053121004+42400+112900FM-12+115299999V0209999C000012200019N0300001N1+01181+00941100921ADDAA124000791GF101991011051012501001021MD1210071+9999REMSYN070AAXX  31211 53276 42680 10000 10118 20094 40092 52007 81502 333 79999;
0170532760999992000060100004+42400+112900FM-12+115299999V0209999C000012200019N0300001N1+01721+00931101061ADDAA124000791GA1001+999999999GF100991001001999999001001MA1999999088391MD1210161+0701REMSYN076AAXX  01001 53276 32980 00000 10172 20093 38839 40106 52016 333 00702 79999;
0122532760999992000060103004+42400+112900FM-12+115299999V0200701N004012200019N0300001N1+02031+00771101121ADDGA1001+999999999GF100991001001999999001001MD1210061+9999REMSYN054AAXX  01031 53276 42980 00704 10203 20077 40112 52006;
0186532760999992000060106004+42400+112900FM-12+115299999V0200901N005012200019N0300001N1+02251+00621101041ADDAA199000091GF102991021011012501001021KA1999N+01161MA1999999088371MD1710081+9999REMSYN076AAXX  01061 53276 32680 20905 10225 20062 38837 40104 57008 82102 333 20116;EQDQ01  00002PRCP99
0112532760999992000060109004+42400+112900FM-12+115299999V0201101N005010900019N0300001N1+02371+00521100951ADDGF105991021011012501001021MD1710081+9999REMSYN060AAXX  01091 53276 42680 51105 10237 20052 40095 57008 82102;
0163532760999992000060112004+42400+112900FM-12+115299999V0200901N004012200019N0300001N1+02131+00621100941ADDAA199000091GF101991011041012501001021MA1999999088341MD1210051+9999REMSYN066AAXX  01121 53276 32680 10904 10213 20062 38834 40094 52005 81402;EQDQ01  00002PRCP99
0122532760999992000060115004+42400+112900FM-12+115299999V0201401N004012200019N0300001N1+01721+00751101141ADDGA1001+999999999GF100991001001999999001001MD1210151+9999REMSYN054AAXX  01151 53276 42980 01404 10172 20075 40114 52015;
0196532760999992000060118004+42400+112900FM-12+115299999V0209999C000012200019N0300001N1+01581+00751101131ADDAA199000091GA1001+999999999GF100991001001999999001001KA1999M+02471MA1999999088501MD1210011+9999REMSYN070AAXX  01181 53276 32980 00000 10158 20075 38850 40113 52001 333 10247;EQDQ01  00002PRCP99
0112532760999992000060121004+42400+112900FM-12+115299999V0201601N002012200019N0300001N1+01551+00871101151ADDGF101991001001999999001021MD1210041+9999REMSYN060AAXX  01211 53276 42980 11602 10155 20087 40115 52004 80002;
0173532760999992000060200004+42400+112900FM-12+115299999V0201401N005012200019N0300001N1+01901+00921101201ADDAA199000091GF101991001001999999001021MA1999999088601MD1210061+0021REMSYN076AAXX  02001 53276 32980 11405 10190 20092 38860 40120 52006 80002 333 00202;EQDQ01  00002PRCP99
0112532760999992000060203004+42400+112900FM-12+115299999V0201401N006012200019N0300001N1+02411+00791101131ADDGF104991001001999999001021MD1710041+9999REMSYN060AAXX  02031 53276 42980 41406 10241 20079 40113 57004 80002;
0186532760999992000060206004+42400+112900FM-12+115299999V0201401N004010900019N0300001N1+02601+00421100961ADDAA199000091GF107991041011017501001021KA1999N+01481MA1999999088421MD1710141+9999REMSYN076AAXX  02061 53276 32780 71404 10260 20042 38842 40096 57014 84102 333 20148;EQDQ01  00002PRCP99
0112532760999992000060209004+42400+112900FM-12+115299999V0201101N007010150019N0300001N1+02641+00551100841ADDGF107991061091017501001021MD1710101+9999REMSYN060AAXX  02091 53276 42780 71107 10264 20055 40084 57010 86902;
0163532760999992000060212004+42400+112900FM-12+115299999V0201101N004010900019N0300001N1+02231+00861100901ADDAA199000091GF107991011011012501001021MA1999999088361MD1210041+9999REMSYN066AAXX  02121 53276 32680 71104 10223 20086 38836 40090 52004 81102;EQDQ01  00002PRCP99
0112532760999992000060215004+42400+112900FM-12+115299999V0201801N006019999999N0300001N1+01951+00871101011ADDGF107991001001999999001021MD1210141+9999REMSYN060AAXX  02151 53276 42980 71806 10195 20087 40101 52014 80002;
0186532760999992000060218004+42400+112900FM-12+115299999V0201801N005019999999N0250001N1+01771+01071101061ADDAA199000091GF108991001001999999001071KA1999M+02691MA1999999088551MD1210051+9999REMSYN076AAXX  02181 53276 32975 81805 10177 20107 38855 40106 52005 80007 333 10269;EQDQ01  00002PRCP99
0112532760999992000060221004+42400+112900FM-12+115299999V0201801N002019999999N0250001N1+01601+01051101081ADDGF107991001001999999001021MD1710011+9999REMSYN060AAXX  02211 53276 42975 71802 10160 20105 40108 57001 80002;
0173532760999992000060300004+42400+112900FM-12+115299999V0201801N006019999999N0250001N1+01941+01111101191ADDAA199000091GF107991001001999999001021MA1999999088621MD1210081+0001REMSYN076AAXX  03001 53276 32975 71806 10194 20111 38862 40119 52008 80002 333 00000;EQDQ01  00002PRCP99
0112532760999992000060303004+42400+112900FM-12+115299999V0201601N004010900019N0300001N1+02281+00741101121ADDGF107991011011012501001021MD1710051+9999REMSYN060AAXX  03031 53276 42680 71604 10228 20074 40112 57005 81102;
0186532760999992000060306004+42400+112900FM-12+115299999V0201601N005010900019N0300001N1+02521+00301100921ADDAA199000091GF107991011011012501001021KA1999N+01571MA1999999088411MD1710161+9999REMSYN076AAXX  03061 53276 32680 71605 10252 20030 38841 40092 57016 81102 333 20157;EQDQ01  00002PRCP99
0112532760999992000060309004+42400+112900FM-12+115299999V0202001N001010900019N0300001N1+02521-00011100861ADDGF107991011011012501001021MD1710091+9999REMSYN060AAXX  03091 53276 42680 72001 10252 21001 40086 57009 81102;
0163532760999992000060312004+42400+112900FM-12+115299999V0201401N004010900019N0300001N1+02151+00351100871ADDAA199000091GF106991011051012501001021MA1999999088331MD1210011+9999REMSYN066AAXX  03121 53276 32680 61404 10215 20035 38833 40087 52001 81502;EQDQ01  00002PRCP99
0112532760999992000060315004+42400+112900FM-12+115299999V0202701N005012200019N0300001N1+01821+00701101021ADDGF101991001001999999001021MD1210131+9999REMSYN060AAXX  03151 53276 42980 12705 10182 20070 40102 52013 80002;
0196532760999992000060318004+42400+112900FM-12+115299999V0202501N002012200019N0300001N1+01391+00741101091ADDAA199000091GA1001+999999999GF100991001001999999001001KA1999M+02671MA1999999088481MD1210021+9999REMSYN070AAXX  03181 53276 32980 02502 10139 20074 38848 40109 52002 333 10267;EQDQ01  00002PRCP99
0112532760999992000060321004+42400+112900FM-12+115299999V0209999C000012200019N0300001N1+01221+00691101171ADDGF101991011001999999031001MD1210041+9999REMSYN060AAXX  03211 53276 42980 10000 10122 20069 40117 52004 81030;
0173532760999992000060400004+42400+112900FM-12+115299999V0202501N002012200019N0300001N1+01691+00711101191ADDAA199000091GF101991001001999999001021MA1999999088561MD1210041+0011REMSYN076AAXX  04001 53276 32980 12502 10169 20071 38856 40119 52004 80002 333 05153;EQDQ01  00002PRCP99
0122532760999992000060403004+42400+112900FM-12+115299999V0203401N001012200019N0300001N1+02191+00551101141ADDGA1001+999999999GF100991001001999999001001MD1710011+9999REMSYN054AAXX  04031 53276 42980 03401 10219 20055 40114 57001;
0186532760999992000060406004+42400+112900FM-12+115299999V0200901N001012200019N0300001N1+02551+00481101001ADDAA199000091GF101991011011012501001001KA1999N+01201MA1999999088411MD1710141+9999REMSYN076AAXX  04061 53276 32680 10901 10255 20048 38841 40100 57014 81100 333 20120;EQDQ01  00002PRCP99
0112532760999992000060409004+42400+112900FM-12+115299999V0201101N002012200019N0300001N1+02541+00551100901ADDGF101991011011012501001001MD1710121+9999REMSYN060AAXX  04091 53276 42680 11102 10254 20055 40090 57012 81100;
0163532760999992000060412004+42400+112900FM-12+115299999V0200401N001012200019N0300001N1+02351+00671100841ADDAA199000091GF101991001001999999001021MA1999999088291MD1410001+9999REMSYN066AAXX  04121 53276 32980 10401 10235 20067 38829 40084 54000 80002;EQDQ01  00002PRCP99
0122532760999992000060415004+42400+112900FM-12+115299999V0209999C000012200019N0300001N1+01961+00651100901ADDGA1001+999999999GF100991001001999999001001MD1210071+9999REMSYN054AAXX  04151 53276 42980 00000 10196 20065 40090 52007;
0196532760999992000060418004+42400+112900FM-12+115299999V0209999C000012200019N0300001N1+01621+00641100861ADDAA199000091GA1001+999999999GF100991001001999999001001KA1999M+02661MA1999999088331MD1710031+9999REMSYN070AAXX  04181 53276 32980 00000 10162 20064 38833 40086 57003 333 10266;EQDQ01  00002PRCP99
0112532760999992000060421004+42400+112900FM-12+115299999V0209999C000012200019N0300001N1+01541+00661100911ADDGF101991001001999999001021MD1210031+9999REMSYN060AAXX  04211 53276 42980 10000 10154 20066 40091 52003 80002;
0183532760999992000060500004+42400+112900FM-12+115299999V0202201N004012200019N0300001N1+01951+00851100921ADDAA199000091GA1001+999999999GF100991001001999999001001MA1999999088411MD1210051+0021REMSYN070AAXX  05001 53276 32980 02204 10195 20085 38841 40092 52005 333 05203;EQDQ01  00002PRCP99
0112532760999992000060503004+42400+112900FM-12+115299999V0209999C000012200019N0300001N1+02681+00421100811ADDGF102991001001999999001021MD1710031+9999REMSYN060AAXX  05031 53276 42980 20000 10268 20042 40081 57003 80002;
0186532760999992000060506004+42400+112900FM-12+115299999V0201801N003019999999N0300001N1+02861+00321100661ADDAA199000091GF107991001001999999001021KA1999N+01381MA1999999088221MD1710161+9999REMSYN076AAXX  05061 53276 32980 71803 10286 20032 38822 40066 57016 80002 333 20138;EQDQ01  00002PRCP99
0112532760999992000060509004+42400+112900FM-12+115299999V0209999C000019999999N0300001N1+02891+00451100541ADDGF107991001001999999001021MD1710121+9999REMSYN060AAXX  05091 53276 42980 70000 10289 20045 40054 57012 80002;
0163532760999992000060512004+42400+112900FM-12+115299999V0209999C000019999999N0300001N1+02541+00611100511ADDAA199000091GF106991001001999999001021MA1999999088091MD1710011+9999REMSYN066AAXX  05121 53276 32980 60000 10254 20061 38809 40051 57001 80002;EQDQ01  00002PRCP99
0122532760999992000060515004+42400+112900FM-12+115299999V0209999C000012200019N0300001N1+02111+00511100511ADDGA1001+999999999GF100991001001999999001001MD1210061+9999REMSYN054AAXX  05151 53276 42980 00000 10211 20051 40051 52006;
0196532760999992000060518004+42400+112900FM-12+115299999V0202001N002012200019N0300001N1+01901+00171100471ADDAA199000091GA1001+999999999GF100991001001999999001001KA1999M+02981MA1999999088111MD1710041+9999REMSYN070AAXX  05181 53276 32980 02002 10190 20017 38811 40047 57004 333 10298;EQDQ01  00002PRCP99
0112532760999992000060521004+42400+112900FM-12+115299999V0202201N004019999999N0300001N1+01671+00301100471ADDGF107991001001999999001021MD1710041+9999REMSYN060AAXX  05211 53276 42980 72204 10167 20030 40047 57004 80002;
0173532760999992000060600004+42400+112900FM-12+115299999V0202201N005019999999N0300001N1+02201+00601100401ADDAA199000091GF107991001001999999001021MA1999999088041MD1710031+0041REMSYN076AAXX  06001 53276 32980 72205 10220 20060 38804 40040 57003 80002 333 05403;EQDQ01  00002PRCP99
0112532760999992000060603004+42400+112900FM-12+115299999V0202501N007019999999N0300001N1+02671+00611100301ADDGF108991021001999999031071MD1710081+9999REMSYN060AAXX  06031 53276 42980 82507 10267 20061 40030 57008 82037;
0185532760999992000060606004+42400+112900FM-12+115299999V0202901N008010360019N0250001N1+02391+01111100321ADDAA106000791GF108991011051012501011999KA1999N+01631MA1999999087881MD1710081+9999MW1601REMSYN088AAXX  06061 53276 11675 82908 10239 20111 38788 40032 57008 69901 76000 8151/ 333 20163;
0140532760999992000060609004+42400+112900FM-12+115299999V0202901N006010360019N0080001N1+01621+01461100611ADDAY161031AY261031GF108991021051017501021999MD1210061+9999MW1611REMSYN066AAXX  06091 53276 41758 82906 10162 20146 40061 52006 76166 8252/;
0178532760999992000060612004+42400+112900FM-12+115299999V0202501N004010120019N0100001N1+01571+01301100561ADDAA106004191AY161061AY261061GF108991071051012501021999MA1999999087991MD1210051+9999MW1601REMSYN078AAXX  06121 53276 11660 82504 10157 20130 38799 40056 52005 60041 76066 8752/;
0132532760999992000060615004+42400+112900FM-12+115299999V0202501N003010120019N0200001N1+01551+01281100551ADDAY161031GF108991071051012501021999MD1210081+9999MW1601REMSYN066AAXX  06151 53276 41670 82503 10155 20128 40055 52008 76060 8752/;
0193532760999992000060618004+42400+112900FM-12+115299999V0202901N005010120019N0300001N1+01431+01201100551ADDAA106000191AY161061GF108991061051012501011999KA1999M+02781MA1999999087991MD1710081+9999MW1001REMSYN088AAXX  06181 53276 11680 82905 10143 20120 38799 40055 57008 69911 70060 8651/ 333 10278;
0133532760999992000060621004+42400+112900FM-12+115299999V0202901N001010360019N0300001N1+01341+01181100771ADDAA124003891GF107991011051012501031021MD1210021+9999REMSYN070AAXX  06211 53276 42680 72901 10134 20118 40077 52002 81532 333 70037;
0160532760999992000060700004+42400+112900FM-12+115299999V0202901N002012200019N0300001N1+01551+01151100721ADDAA124003891GF102991001001999999001021MA1999999088001MD1710011+0001REMSYN082AAXX  07001 53276 32980 22902 10155 20115 38800 40072 57001 80002 333 00057 70037;
0112532760999992000060703004+42400+112900FM-12+115299999V0202901N004012200019N0300001N1+01911+00771100541ADDGF101991011011012501001021MD1710091+9999REMSYN060AAXX  07031 53276 42680 12904 10191 20077 40054 57009 81102;
0186532760999992000060706004+42400+112900FM-12+115299999V0203201N009012200019N0300001N1+02271+00161100371ADDAA199000091GF102991021011012501001021KA1999N+01311MA1999999087811MD1710101+9999REMSYN076AAXX  07061 53276 32680 23209 10227 20016 38781 40037 57010 82102 333 20131;EQDQ01  00002PRCP99
0112532760999992000060709004+42400+112900FM-12+115299999V0203401N006012200019N0300001N1+02311-00501100411ADDGF101991011011012501001021MD1210031+9999REMSYN060AAXX  07091 53276 42680 13406 10231 21050 40041 52003 81102;
0163532760999992000060712004+42400+112900FM-12+115299999V0203401N001012200019N0300001N1+02061-00071100501ADDAA199000091GF101991001001999999001021MA1999999087911MD1210071+9999REMSYN066AAXX  07121 53276 32980 13401 10206 21007 38791 40050 52007 80002;EQDQ01  00002PRCP99
0122532760999992000060715004+42400+112900FM-12+115299999V0202501N004012200019N0300001N1+01531+00321100451ADDGA1001+999999999GF100991001001999999001001MD1710081+9999REMSYN054AAXX  07151 53276 42980 02504 10153 20032 40045 57008;
0186532760999992000060718004+42400+112900FM-12+115299999V0202201N006012200019N0300001N1+01431-00011100251ADDAA199000091GF101991011051012501001001KA1999M+02401MA1999999087711MD1710121+9999REMSYN076AAXX  07181 53276 32680 12206 10143 21001 38771 40025 57012 81500 333 10240;EQDQ01  00002PRCP99
0112532760999992000060721004+42400+112900FM-12+115299999V0203401N004012200019N0300001N1+01431-00111100361ADDGF101991011051012501031021MD1210101+9999REMSYN060AAXX  07211 53276 42680 13404 10143 21011 40036 52010 81532;
0173532760999992000060800004+42400+112900FM-12+115299999V0200401N001012200019N0300001N1+01621+00281100521ADDAA199000091GF101991001001999999001021MA1999999087941MD1210131+0011REMSYN076AAXX  08001 53276 32980 10401 10162 20028 38794 40052 52013 80002 333 05101;EQDQ01  00002PRCP99
0112532760999992000060803004+42400+112900FM-12+115299999V0203601N006012200019N0300001N1+01651+00351100811ADDGF101991001001999999001021MD1210151+9999REMSYN060AAXX  08031 53276 42980 13606 10165 20035 40081 52015 80002;
0186532760999992000060806004+42400+112900FM-12+115299999V0200201N007012200019N0300001N1+01921+00201100751ADDAA199000091GF101991011091012501001021KA1999N+01211MA1999999088071MD1710021+9999REMSYN076AAXX  08061 53276 32680 10207 10192 20020 38807 40075 57002 81902 333 20121;EQDQ01  00002PRCP99
0112532760999992000060809004+42400+112900FM-12+115299999V0200201N005012200019N0300001N1+02011+00291100701ADDGF102991021011012501001001MD1710021+9999REMSYN060AAXX  08091 53276 42680 20205 10201 20029 40070 57002 82100;
0163532760999992000060812004+42400+112900FM-12+115299999V0200401N005012200019N0300001N1+01811+00231100751ADDAA199000091GF101991011011012501001021MA1999999088091MD1210041+9999REMSYN066AAXX  08121 53276 32680 10405 10181 20023 38809 40075 52004 81102;EQDQ01  00002PRCP99
0122532760999992000060815004+42400+112900FM-12+115299999V0209999C000012200019N0300001N1+01381+00501100991ADDGA1001+999999999GF100991001001999999001001MD1210131+9999REMSYN054AAXX  08151 53276 42980 00000 10138 20050 40099 52013;
0196532760999992000060818004+42400+112900FM-12+115299999V0209999C000012200019N0300001N1+01181+00561101031ADDAA199000091GA1001+999999999GF100991001001999999001001KA1999M+02091MA1999999088271MD1210051+9999REMSYN070AAXX  08181 53276 32980 00000 10118 20056 38827 40103 52005 333 10209;EQDQ01  00002PRCP99
0112532760999992000060821004+42400+112900FM-12+115299999V0209999C000012200019N0300001N1+00891+00581101131ADDGF101991011001999999031021MD1210041+9999REMSYN060AAXX  08211 53276 42980 10000 10089 20058 40113 52004 81032;
0183532760999992000060900004+42400+112900FM-12+115299999V0200701N002012200019N0300001N1+01371+00651101151ADDAA199000091GA1001+999999999GF100991001001999999001001MA1999999088391MD1210081+0051REMSYN070AAXX  09001 53276 32980 00702 10137 20065 38839 40115 52008 333 00553;EQDQ01  00002PRCP99
0112532760999992000060903004+42400+112900FM-12+115299999V0200701N001012200019N0300001N1+01781+00441101131ADDGF101991011011012501001001MD1710021+9999REMSYN060AAXX  09031 53276 42680 10701 10178 20044 40113 57002 81100;
0186532760999992000060906004+42400+112900FM-12+115299999V0200901N002012200019N0300001N1+01971+00461101011ADDAA199000091GF101991011011012501001001KA1999N+00891MA1999999088261MD1710111+9999REMSYN076AAXX  09061 53276 32680 10902 10197 20046 38826 40101 57011 81100 333 20089;EQDQ01  00002PRCP99
0112532760999992000060909004+42400+112900FM-12+115299999V0209999C000012200019N0300001N1+02061+00101101001ADDGF101991011011012501001001MD1710051+9999REMSYN060AAXX  09091 53276 42680 10000 10206 20010 40100 57005 81100;
0173532760999992000060912004+42400+112900FM-12+115299999V0209999C000012200019N0300001N1+01921+00001101051ADDAA199000091GA1001+999999999GF100991001001999999001001MA1999999088321MD1210111+9999REMSYN060AAXX  09121 53276 32980 00000 10192 20000 38832 40105 52011;EQDQ01  00002PRCP99
0122532760999992000060915004+42400+112900FM-12+115299999V0201801N001012200019N0300001N1+01481+00271101161ADDGA1001+999999999GF100991001001999999001001MD1210091+9999REMSYN054AAXX  09151 53276 42980 01801 10148 20027 40116 52009;
0196532760999992000060918004+42400+112900FM-12+115299999V0209999C000012200019N0300001N1+01291+00131101161ADDAA199000091GA1001+999999999GF100991001001999999001001KA1999M+02141MA1999999088411MD1410001+9999REMSYN070AAXX  09181 53276 32980 00000 10129 20013 38841 40116 54000 333 10214;EQDQ01  00002PRCP99
0112532760999992000060921004+42400+112900FM-12+115299999V0209999C000012200019N0300001N1+01121+00121101191ADDGF101991011001999999031001MD1210011+9999REMSYN060AAXX  09211 53276 42980 10000 10112 20012 40119 52001 81030;
0173532760999992000061000004+42400+112900FM-12+115299999V0202201N005012200019N0300001N1+01731+00191101111ADDAA199000091GF101991011001999999081001MA1999999088451MD1210031+0011REMSYN076AAXX  10001 53276 32980 12205 10173 20019 38845 40111 52003 81080 333 00104;EQDQ01  00002PRCP99
0112532760999992000061003004+42400+112900FM-12+115299999V0202501N002012200019N0300001N1+02311+00291101011ADDGF101991011001999999031001MD1710061+9999REMSYN060AAXX  10031 53276 42980 12502 10231 20029 40101 57006 81030;
0186532760999992000061006004+42400+112900FM-12+115299999V0203201N004012200019N0300001N1+02581+00231100801ADDAA199000091GF103991031021012501001001KA1999N+01061MA1999999088221MD1710171+9999REMSYN076AAXX  10061 53276 32680 33204 10258 20023 38822 40080 57017 83200 333 20106;EQDQ01  00002PRCP99
0132532760999992000061009004+42400+112900FM-12+115299999V0209999C000010360019N0300001N1+02321+00521100841ADDAY181031GF106991041091012501031001MD1710051+9999MW1251REMSYN066AAXX  10091 53276 41680 60000 10232 20052 40084 57005 72580 84930;
0170532760999992000061012004+42400+112900FM-12+115299999V0209999C000012200019N0300001N1+02251+00571100741ADDAA106000791AY181061GF101991011091012501001001MA1999999088191MD1210021+9999MW1001REMSYN078AAXX  10121 53276 11680 10000 10225 20057 38819 40074 52002 69901 70080 81900;
0122532760999992000061015004+42400+112900FM-12+115299999V0209999C000012200019N0300001N1+01841+00681100751ADDGA1001+999999999GF100991001001999999001001MD1210041+9999REMSYN054AAXX  10151 53276 42980 00000 10184 20068 40075 52004;
0163532760999992000061018004+42400+112900FM-12+115299999V0201801N001012200019N0300001N1+01551+00671100811ADDAA199000021GA1001+999999999GF100991001001999999001001MA1999999088281MD1210051+9999REMSYN069AAXX  10181 53276 32980 01801 10155 20067 38828 40081 52005 333 1027;
0133532760999992000061021004+42400+112900FM-12+115299999V0201801N001012200019N0300001N1+01261+00581100991ADDAA124000791GF101991011001999999031001MD1210051+9999REMSYN070AAXX  10211 53276 42980 11801 10126 20058 40099 52005 81030 333 79999;
0160532760999992000061100004+42400+112900FM-12+115299999V0209999C000012200019N0300001N1+01861+00771101021ADDAA124000791GF101991011051012501001001MA1999999088461MD1210131+0001REMSYN082AAXX  11001 53276 32680 10000 10186 20077 38846 40102 52013 81500 333 00001 79999;
0122532760999992000061103004+42400+112900FM-12+115299999V0200901N002012200019N0300001N1+02391+00181101051ADDGA1001+999999999GF100991001001999999001001MD1210051+9999REMSYN054AAXX  11031 53276 42980 00902 10239 20018 40105 52005;
0186532760999992000061106004+42400+112900FM-12+115299999V0200901N006012200019N0300001N1+02601+00051100981ADDAA199000091GF101991011011012501001001KA1999N+01201MA1999999088431MD1710081+9999REMSYN076AAXX  11061 53276 32680 10906 10260 20005 38843 40098 57008 81100 333 20120;EQDQ01  00002PRCP99
0112532760999992000061109004+42400+112900FM-12+115299999V0200901N006012200019N0300001N1+02561-00081101021ADDGF101991011011012501001001MD1710031+9999REMSYN060AAXX  11091 53276 42680 10906 10256 21008 40102 57003 81100;
0173532760999992000061112004+42400+112900FM-12+115299999V0200901N002012200019N0300001N1+02241+00021101061ADDAA199000091GA1001+999999999GF100991001001999999001001MA1999999088491MD1210091+9999REMSYN060AAXX  11121 53276 32980 00902 10224 20002 38849 40106 52009;EQDQ01  00002PRCP99
0122532760999992000061115004+42400+112900FM-12+115299999V0201401N002012200019N0300001N1+01671+00211101201ADDGA1001+999999999GF100991001001999999001001MD1210121+9999REMSYN054AAXX  11151 53276 42980 01402 10167 20021 40120 52012;
0196532760999992000061118004+42400+112900FM-12+115299999V0209999C000012200019N0300001N1+01461+00181101321ADDAA199000091GA1001+999999999GF100991001001999999001001KA1999M+02701MA1999999088711MD1210101+9999REMSYN070AAXX  11181 53276 32980 00000 10146 20018 38871 40132 52010 333 10270;EQDQ01  00002PRCP99
0122532760999992000061121004+42400+112900FM-12+115299999V0201801N002012200019N0300001N1+01331+00271101451ADDGA1001+999999999GF100991001001999999001001MD1210081+9999REMSYN054AAXX  11211 53276 42980 01802 10133 20027 40145 52008;
0183532760999992000061200004+42400+112900FM-12+115299999V0201801N005012200019N0300001N1+01881+00251101451ADDAA199000091GA1001+999999999GF100991001001999999001001MA1999999088841MD1210051+0041REMSYN070AAXX  12001 53276 32980 01805 10188 20025 38884 40145 52005 333 00400;EQDQ01  00002PRCP99
0122532760999992000061203004+42400+112900FM-12+115299999V0201401N005012200019N0300001N1+02361-00101101431ADDGA1001+999999999GF100991001001999999001001MD1710041+9999REMSYN054AAXX  12031 53276 42980 01405 10236 21010 40143 57004;
0196532760999992000061206004+42400+112900FM-12+115299999V0209999C000012200019N0300001N1+02601+00351101221ADDAA199000091GA1001+999999999GF100991001001999999001001KA1999N+01251MA1999999088631MD1710171+9999REMSYN070AAXX  12061 53276 32980 00000 10260 20035 38863 40122 57017 333 20125;EQDQ01  00002PRCP99
0122532760999992000061209004+42400+112900FM-12+115299999V0200901N001012200019N0300001N1+02691+00061101061ADDGA1001+999999999GF100991001001999999001001MD1710151+9999REMSYN054AAXX  12091 53276 42980 00901 10269 20006 40106 57015;
0173532760999992000061212004+42400+112900FM-12+115299999V0200701N001012200019N0300001N1+02361+00221100991ADDAA199000091GA1001+999999999GF100991001001999999001001MA1999999088461MD1710021+9999REMSYN060AAXX  12121 53276 32980 00701 10236 20022 38846 40099 57002;EQDQ01  00002PRCP99
0122532760999992000061215004+42400+112900FM-12+115299999V0201801N002012200019N0300001N1+01831+00231101061ADDGA1001+999999999GF100991001001999999001001MD1210051+9999REMSYN054AAXX  12151 53276 42980 01802 10183 20023 40106 52005;
0122532760999992000061221004+42400+112900FM-12+115299999V0209999C000012200019N0300001N1+01361+00121101041ADDGA1001+999999999GF100991001001999999001001MD1210031+9999REMSYN054AAXX  12211 53276 42980 00000 10136 20012 40104 52003;
0183532760999992000061300004+42400+112900FM-12+115299999V0202201N004012200019N0300001N1+02041+00191100951ADDAA199000091GA1001+999999999GF100991001001999999001001MA1999999088461MD1710011+0041REMSYN070AAXX  13001 53276 32980 02204 10204 20019 38846 40095 57001 333 05402;EQDQ01  00002PRCP99
0122532760999992000061303004+42400+112900FM-12+115299999V0200701N001012200019N0300001N1+02771+00021100861ADDGA1001+999999999GF100991001001999999001001MD1710041+9999REMSYN054AAXX  13031 53276 42980 00701 10277 20002 40086 57004;
0196532760999992000061306004+42400+112900FM-12+115299999V0202201N001012200019N0300001N1+03061-00171100581ADDAA199000091GA1001+999999999GF100991001001999999001001KA1999N+01281MA1999999088231MD1710191+9999REMSYN070AAXX  13061 53276 32980 02201 10306 21017 38823 40058 57019 333 20128;EQDQ01  00002PRCP99
0122532760999992000061309004+42400+112900FM-12+115299999V0202201N002012200019N0300001N1+03111+00371100441ADDGA1001+999999999GF100991001001999999001001MD1710211+9999REMSYN054AAXX  13091 53276 42980 02202 10311 20037 40044 57021;
0163532760999992000061312004+42400+112900FM-12+115299999V0209999C000012200019N0300001N1+02921+00621100261ADDAA199000091GF101991001001999999001021MA1999999087961MD1710061+9999REMSYN066AAXX  13121 53276 32980 10000 10292 20062 38796 40026 57006 80002;EQDQ01  00002PRCP99
0122532760999992000061315004+42400+112900FM-12+115299999V0201801N002012200019N0300001N1+02251+00311100311ADDGA1001+999999999GF100991001001999999001001MD1210061+9999REMSYN054AAXX  13151 53276 42980 01802 10225 20031 40031 52006;
0186532760999992000061318004+42400+112900FM-12+115299999V0201601N001012200019N0300001N1+01921+00111100241ADDAA199000091GF101991001001999999001021KA1999M+03181MA1999999087951MD1710071+9999REMSYN076AAXX  13181 53276 32980 11601 10192 20011 38795 40024 57007 80002 333 10318;EQDQ01  00002PRCP99
0112532760999992000061321004+42400+112890FM-12+115299999V0202001N003012200019N0300001N1+01951+00131100171ADDGF102991011001999999031021MD1710051+9999REMSYN060AAXX  13211 53276 42980 22003 10195 20013 40017 57005 81032;
0173532760999992000061400004+42400+112890FM-12+115299999V0202501N005012200019N0300001N1+02291+00301100141ADDAA199000091GF102991001001999999001021MA1999999087901MD1410001+0061REMSYN076AAXX  14001 53276 32980 22505 10229 20030 38790 40014 54000 80002 333 05603;EQDQ01  00002PRCP99
0112532760999992000061403004+42400+112890FM-12+115299999V0202501N005019999999N0250001N1+02811+00691100101ADDGF107991001001999999001021MD1710061+9999REMSYN060AAXX  14031 53276 42975 72505 10281 20069 40010 57006 80002;
0186532760999992000061406004+42400+112890FM-12+115299999V0202901N003010900019N0250001N1+03171+00161099951ADDAA199000091GF107991011011012501001021KA1999N+01781MA1999999087711MD1710131+9999REMSYN076AAXX  14061 53276 32675 72903 10317 20016 38771 49995 57013 81102 333 20178;EQDQ01  00002PRCP99
0112532760999992000061409004+42400+112890FM-12+115299999V0209999C000010900019N0300001N1+03121+00301099781ADDGF107991011011012501001021MD1710151+9999REMSYN060AAXX  14091 53276 42680 70000 10312 20030 49978 57015 81102;
0163532760999992000061412004+42400+112890FM-12+115299999V0209999C000019999999N0300001N1+02881+00701099791ADDAA199000091GF107991001001999999001021MA1999999087591MD1210031+9999REMSYN066AAXX  14121 53276 32980 70000 10288 20070 38759 49979 52003 80002;EQDQ01  00002PRCP99
0112532760999992000061415004+42400+112890FM-12+115299999V0203201N007010900019N0300001N1+02181+00651100141ADDGF107991011051017501001021MD1210271+9999REMSYN060AAXX  14151 53276 42780 73207 10218 20065 40014 52027 81502;
0186532760999992000061418004+42400+112890FM-12+115299999V0209999C000010900019N0300001N1+01901+00921100221ADDAA199000091GF107991021091017501001021KA1999M+03271MA1999999087951MD1210091+9999REMSYN076AAXX  14181 53276 32780 70000 10190 20092 38795 40022 52009 82902 333 10327;EQDQ01  00002PRCP99
0112532760999992000061421004+42400+112890FM-12+115299999V0202501N002019999999N0300001N1+01731+00921100321ADDGF108991011001999999031071MD1210041+9999REMSYN060AAXX  14211 53276 42980 82502 10173 20092 40032 52004 81037;
0178532760999992000061500004+42400+112890FM-12+115299999V0209999C000010360019N0300001N1+01991+01031100351ADDAA106000791GF107991021051017501031021MA1999999088021MD1210031+0101MW1211REMSYN094AAXX  15001 53276 11780 70000 10199 20103 38802 40035 52003 69901 72100 82532 333 00153 79999;
0112532760999992000061503004+42400+112890FM-12+115299999V0202501N001019999999N0300001N1+02461+00961100421ADDGF107991031001999999031021MD1210021+9999REMSYN060AAXX  15031 53276 42980 72501 10246 20096 40042 52002 83032;
0167532760999992000061506004+42400+112890FM-12+115299999V0209999C000010900019N0300001N1+02741+00751100281ADDAA199000021GF108991011011012501001071KA1999N+01721MA1999999087921MD1710121+9999REMSYN076AAXX  15061 53276 32680 80000 10274 20075 38792 40028 57012 81107 333 20172;
0124532760999992000061509004+42400+112890FM-12+115299999V0202201N009010120019N0250001N1+01771+01191100691ADDGF107991071091012501001021MD1210131+9999MW1911REMSYN066AAXX  15091 53276 41675 72209 10177 20119 40069 52013 79100 87902;
0205532760999992000061512004+42400+112890FM-12+115299999V0201101N006010120019N0250001N1+02001+00981100611ADDAA106000191AY191061AY281061GF107991061091012501001021MA1999999088081MD1210031+9999MW1801OA130601901REMSYN094AAXX  15121 53276 11675 71106 10200 20098 38808 40061 52003 69911 78098 86902 333 91119 91520;
0132532760999992000061515004+42400+112890FM-12+115299999V0209999C000010900019N0250001N1+01771+01031100691ADDAY181031GF107991011091012501001021MD1210121+9999MW1001REMSYN066AAXX  15151 53276 41675 70000 10177 20103 40069 52012 70080 81902;
0193532760999992000061518004+42400+112890FM-12+115299999V0209999C000010900019N0250001N1+01651+01071100741ADDAA106000791AY181061GF107991011041012501001021KA1999M+02851MA1999999088271MD1210071+9999MW1001REMSYN088AAXX  15181 53276 11675 70000 10165 20107 38827 40074 52007 69901 70080 81402 333 10285;
0133532760999992000061521004+42400+112890FM-12+115299999V0201601N001019999999N0250001N1+01481+01011100941ADDAA124000191GF107991021001999999031021MD1710051+9999REMSYN070AAXX  15211 53276 42975 71601 10148 20101 40094 57005 82032 333 70001;
0160532760999992000061600004+42400+112890FM-12+115299999V0201601N002019999999N0250001N1+01881+01061100921ADDAA124000191GF107991001001999999001021MA1999999088331MD1210111+0301REMSYN082AAXX  16001 53276 32975 71602 10188 20106 38833 40092 52011 80002 333 00351 70001;
0112532760999992000061603004+42400+112890FM-12+115299999V0201401N007012200019N0250001N1+02491+00711100911ADDGF104991001001999999001021MD1210061+9999REMSYN060AAXX  16031 53276 42975 41407 10249 20071 40091 52006 80002;
0186532760999992000061606004+42400+112890FM-12+115299999V0201101N007012200019N0300001N1+02691+00671100801ADDAA199000091GF102991011011012501001021KA1999N+01421MA1999999088311MD1710081+9999REMSYN076AAXX  16061 53276 32680 21107 10269 20067 38831 40080 57008 81102 333 20142;EQDQ01  00002PRCP99
0132532760999992000061609004+42400+112890FM-12+115299999V0201401N009010900019N0300001N1+02581+00731100791ADDAY181031GF105991011011012501031021MD1710061+9999MW1001REMSYN066AAXX  16091 53276 41680 51409 10258 20073 40079 57006 70080 81132;
0197532760999992000061612004+42400+112890FM-12+115299999V0201401N007012200019N0300001N1+02271+00751100901ADDAA106000791AY181061GF102991001001999999001021MA1999999088361MD1210111+9999MW1001OA130601801REMSYN094AAXX  16121 53276 11980 21407 10227 20075 38836 40090 52011 69901 70080 80002 333 91118 91514;
0112532760999992000061615004+42400+112890FM-12+115299999V0201601N008012200019N0300001N1+02001+00701101101ADDGF103991021051017501001021MD1210251+9999REMSYN060AAXX  16151 53276 42780 31608 10200 20070 40110 52025 82502;
0196532760999992000061618004+42400+112890FM-12+115299999V0201601N005012200019N0300001N1+01671+00861101101ADDAA199000091GA1001+999999999GF100991001001999999001001KA1999M+02801MA1999999088581MD1710031+9999REMSYN070AAXX  16181 53276 32980 01605 10167 20086 38858 40110 57003 333 10280;EQDQ01  00002PRCP99
0133532760999992000061621004+42400+112890FM-12+115299999V0201601N006019999999N0300001N1+01631+00941101121ADDAA124000791GF106991021001999999031021MD1710011+9999REMSYN070AAXX  16211 53276 42980 61606 10163 20094 40112 57001 82032 333 79999;
0160532760999992000061700004+42400+112890FM-12+115299999V0201601N008010150019N0200001N1+01861+00951101321ADDAA124000791GF107991061051017501031021MA1999999088731MD1210161+0401REMSYN082AAXX  17001 53276 32770 71608 10186 20095 38873 40132 52016 86532 333 00400 79999;
0112532760999992000061703004+42400+112890FM-12+115299999V0202001N006010360019N0300001N1+02411+00931101271ADDGF107991011051017501031021MD1210011+9999REMSYN060AAXX  17031 53276 42780 72006 10241 20093 40127 52001 81532;
0186532760999992000061706004+42400+112890FM-12+115299999V0201801N009010900019N0300001N1+02541+01091101191ADDAA199000091GF107991021011017501001021KA1999N+01551MA1999999088631MD1710111+9999REMSYN076AAXX  17061 53276 32780 71809 10254 20109 38863 40119 57011 82102 333 20155;EQDQ01  00002PRCP99
0112532760999992000061709004+42400+112890FM-12+115299999V0201801N006012200019N0300001N1+02631+00781101081ADDGF103991001001999999001021MD1710091+9999REMSYN060AAXX  17091 53276 42980 31806 10263 20078 40108 57009 80002;
0163532760999992000061712004+42400+112890FM-12+115299999V0201801N004012200019N0300001N1+02391+00811101111ADDAA199000091GF104991011001999999031021MA1999999088571MD1210031+9999REMSYN066AAXX  17121 53276 32980 41804 10239 20081 38857 40111 52003 81032;EQDQ01  00002PRCP99
0112532760999992000061715004+42400+112890FM-12+115299999V0202001N006012200019N0300001N1+02131+00911101211ADDGF102991001001999999001021MD1210141+9999REMSYN060AAXX  17151 53276 42980 22006 10213 20091 40121 52014 80002;
0186532760999992000061718004+42400+112890FM-12+115299999V0202001N002010900019N0300001N1+01831+01041101221ADDAA199000091GF107991021051017501001021KA1999M+02751MA1999999088691MD1710021+9999REMSYN076AAXX  17181 53276 32780 72002 10183 20104 38869 40122 57002 82502 333 10275;EQDQ01  00002PRCP99
0112532760999992000061721004+42400+112890FM-12+115299999V0202001N005010360019N0300001N1+01761+01081101181ADDGF107991021051017501031021MD1710031+9999REMSYN060AAXX  17211 53276 42780 72005 10176 20108 40118 57003 82532;
0173532760999992000061800004+42400+112890FM-12+115299999V0201801N002012200019N0200001N1+01991+01231101231ADDAA199000091GF101991001001999999001021MA1999999088701MD1210041+0001REMSYN076AAXX  18001 53276 32970 11802 10199 20123 38870 40123 52004 80002 333 00001;EQDQ01  00002PRCP99
0112532760999992000061803004+42400+112890FM-12+115299999V0202001N002012200019N0300001N1+02571+00931101101ADDGF101991011011012501001021MD1710051+9999REMSYN060AAXX  18031 53276 42680 12002 10257 20093 40110 57005 81102;
0186532760999992000061806004+42400+112890FM-12+115299999V0202901N003012200019N0300001N1+02851+00951100911ADDAA199000091GF101991011011012501001001KA1999N+01621MA1999999088481MD1710171+9999REMSYN076AAXX  18061 53276 32680 12903 10285 20095 38848 40091 57017 81100 333 20162;EQDQ01  00002PRCP99
0132532760999992000061809004+42400+112890FM-12+115299999V0202701N003012200019N0300001N1+02911+00851100751ADDAY181031GF103991021021012501001021MD1710151+9999MW1001REMSYN066AAXX  18091 53276 41680 32703 10291 20085 40075 57015 70080 82202;
0170532760999992000061812004+42400+112890FM-12+115299999V0202201N006012200019N0300001N1+02491+00911100791ADDAA106000791AY181061GF104991021041012501031021MA1999999088331MD1410001+9999MW1001REMSYN078AAXX  18121 53276 11680 42206 10249 20091 38833 40079 54000 69901 70080 82432;
0112532760999992000061815004+42400+112890FM-12+115299999V0202201N004019999999N0300001N1+02221+00991100801ADDGF106991021001999999031021MD1210071+9999REMSYN060AAXX  18151 53276 42980 62204 10222 20099 40080 52007 82032;
0186532760999992000061818004+42400+112890FM-12+115299999V0202501N002010120019N0300001N1+02101+01091100791ADDAA199000091GF107991061051012501001021KA1999M+03001MA1999999088421MD1210021+9999REMSYN076AAXX  18181 53276 32680 72502 10210 20109 38842 40079 52002 86502 333 10300;EQDQ01  00002PRCP99
0133532760999992000061821004+42400+112890FM-12+115299999V0201801N002010900019N0300001N1+01851+01141100861ADDAA124000791GF107991031051012501001021MD1210031+9999REMSYN070AAXX  18211 53276 42680 71802 10185 20114 40086 52003 83502 333 79999;
0160532760999992000061900004+42400+112890FM-12+115299999V0202501N003019999999N0300001N1+02231+01151100921ADDAA124000791GF107991001001999999001021MA1999999088491MD1210041-0201REMSYN082AAXX  19001 53276 32980 72503 10223 20115 38849 40092 52004 80002 333 05202 79999;
0112532760999992000061903004+42400+112890FM-12+115299999V0201101N001012200019N0300001N1+02761+01271100761ADDGF102991001001999999001021MD1710091+9999REMSYN060AAXX  19031 53276 42980 21101 10276 20127 40076 57009 80002;
0186532760999992000061906004+42400+112890FM-12+115299999V0200701N001010120019N0300001N1+02841+01121100561ADDAA199000091GF107991061091012501001021KA1999N+01771MA1999999088221MD1710181+9999REMSYN076AAXX  19061 53276 32680 70701 10284 20112 38822 40056 57018 86902 333 20177;EQDQ01  00002PRCP99
0132532760999992000061909004+42400+112890FM-12+115299999V0202201N003010900019N0300001N1+02691+00971100511ADDAY191031GF107991031091012501001021MD1710121+9999MW1001REMSYN066AAXX  19091 53276 41680 72203 10269 20097 40051 57012 70090 83902;
0205532760999992000061912004+42400+112890FM-12+115299999V0202701N006010900019N0250001N1+02381+01141100561ADDAA106000791AY191061AY281061GF107991031091012501001021MA1999999088161MD1210061+9999MW1001OA130601701REMSYN094AAXX  19121 53276 11675 72706 10238 20114 38816 40056 52006 69901 70098 83902 333 91117 91516;
0112532760999992000061915004+42400+112890FM-12+115299999V0209999C000010900019N0300001N1+02091+01181100561ADDGF107991011051012501001021MD1210041+9999REMSYN060AAXX  19151 53276 42680 70000 10209 20118 40056 52004 81502;
0186532760999992000061918004+42400+112890FM-12+115299999V0202501N002010900019N0300001N1+01951+01191100551ADDAA199000091GF106991031051012501001021KA1999M+03071MA1999999088181MD1710021+9999REMSYN076AAXX  19181 53276 32680 62502 10195 20119 38818 40055 57002 83502 333 10307;EQDQ01  00002PRCP99
0153532760999992000061921004+42400+112890FM-12+115299999V0209999C000010900019N0300001N1+01771+01281100621ADDAA124000791AY161031GF107991021051012501001021MD1410001+9999MW1211REMSYN076AAXX  19211 53276 41680 70000 10177 20128 40062 54000 72160 82502 333 79999;
0186532760999992000062000004+42400+112890FM-12+115299999V0202501N002010900019N0300001N1+02061+01321100671ADDAA106000791AY161061GF107991011011012501001021MA1999999088221MD1210041-0301MW1001REMSYN094AAXX  20001 53276 11680 72502 10206 20132 38822 40067 52004 69901 70060 81102 333 05352 79999;
0112532760999992000062003004+42400+112890FM-12+115299999V0201801N002019999999N0300001N1+02631+01181100551ADDGF106991001001999999001021MD1710051+9999REMSYN060AAXX  20031 53276 42980 61802 10263 20118 40055 57005 80002;
0167532760999992000062006004+42400+112890FM-12+115299999V0202201N001010900019N0300001N1+02881+01071100331ADDAA199000021GF107991011011012501001021KA1999N+01731MA1999999088001MD1710171+9999REMSYN076AAXX  20061 53276 32680 72201 10288 20107 38800 40033 57017 81102 333 20173;
0140532760999992000062009004+42400+112890FM-12+115299999V0203401N009010120019N0300001N1+02201+01011100491ADDAY191031AY281031GF107991051091012501001021MD1710031+9999MW1001REMSYN066AAXX  20091 53276 41680 73409 10220 20101 40049 57003 70098 85902;
0205532760999992000062012004+42400+112890FM-12+115299999V0209999C000010900019N0300001N1+02291+01171100381ADDAA106000191AY191061AY281061GF107991011041012501001021MA1999999087951MD1710021+9999MW1001OA130601801REMSYN094AAXX  20121 53276 11680 70000 10229 20117 38795 40038 57002 69911 70098 81402 333 91118 91502;
0112532760999992000062015004+42400+112890FM-12+115299999V0209999C000012200019N0300001N1+01991+01121100401ADDGF102991001001999999001021MD1210071+9999REMSYN060AAXX  20151 53276 42980 20000 10199 20112 40040 52007 80002;
0186532760999992000062018004+42400+112890FM-12+115299999V0209999C000012200019N0300001N1+01611+01141100421ADDAA199000091GF101991001001999999001021KA1999M+03051MA1999999088011MD1710011+9999REMSYN076AAXX  20181 53276 32980 10000 10161 20114 38801 40042 57001 80002 333 10305;EQDQ01  00002PRCP99
0133532760999992000062021004+42400+112890FM-12+115299999V0201801N004012200019N0300001N1+01611+01001100541ADDAA124000191GF102991011001999999031021MD1710031+9999REMSYN070AAXX  20211 53276 42980 21804 10161 20100 40054 57003 81032 333 70001;
0160532760999992000062100004+42400+112890FM-12+115299999V0202001N002012200019N0300001N1+02081+01191100421ADDAA124000191GF101991001001999999001021MA1999999087991MD1210011-0201REMSYN082AAXX  21001 53276 32980 12002 10208 20119 38799 40042 52001 80002 333 05200 70001;
0122532760999992000062103004+42400+112890FM-12+115299999V0209999C000012200019N0300001N1+02651+01011100301ADDGA1001+999999999GF100991001001999999001001MD1710061+9999REMSYN054AAXX  21031 53276 42980 00000 10265 20101 40030 57006;
0186532760999992000062106004+42400+112890FM-12+115299999V0202001N002012200019N0300001N1+03061+00951100151ADDAA199000091GF102991021011012501001001KA1999N+01561MA1999999087811MD1710121+9999REMSYN076AAXX  21061 53276 32680 22002 10306 20095 38781 40015 57012 82100 333 20156;EQDQ01  00002PRCP99
0112532760999992000062109004+42400+112890FM-12+115299999V0202501N001012200019N0300001N1+02961+00861099971ADDGF102991021011012501001001MD1710181+9999REMSYN060AAXX  21091 53276 42680 22501 10296 20086 49997 57018 82100;
0163532760999992000062112004+42400+112890FM-12+115299999V0202501N002012200019N0300001N1+02741+00931099991ADDAA199000091GF104991041041017501031001MA1999999087701MD1210071+9999REMSYN066AAXX  21121 53276 32780 42502 10274 20093 38770 49999 52007 84430;EQDQ01  00002PRCP99
0142532760999992000062115004+42400+112890FM-12+115299999V0202001N002012200019N0300001N1+02391+00981099991ADDAY191031GA1001+999999999GF100991001001999999001001MD1210041+9999MW1001REMSYN060AAXX  21151 53276 41980 02002 10239 20098 49999 52004 70090;
0216532760999992000062118004+42400+112890FM-12+115299999V0201601N002012200019N0300001N1+02111+00911099951ADDAA199000091AY191061GA1001+999999999GF100991001001999999001001KA1999M+03111MA1999999087731MD1710011+9999MW1001REMSYN076AAXX  21181 53276 31980 01602 10211 20091 38773 49995 57001 70090 333 10311;EQDQ01  00002PRCP99
0112532760999992000062121004+42400+112890FM-12+115299999V0202501N001012200019N0300001N1+01871+00971100031ADDGF101991001001999999001021MD1410001+9999REMSYN060AAXX  21211 53276 42980 12501 10187 20097 40003 54000 80002;
0183532760999992000062200004+42400+112890FM-12+115299999V0202201N005012200019N0300001N1+02381+01061099991ADDAA199000091GA1001+999999999GF100991001001999999001001MA1999999087751MD1210021+0021REMSYN070AAXX  22001 53276 32980 02205 10238 20106 38775 49999 52002 333 05203;EQDQ01  00002PRCP99
0112532760999992000062203004+42400+112890FM-12+115299999V0202901N002012200019N0300001N1+02921+01041099861ADDGF101991011011012501001001MD1710071+9999REMSYN060AAXX  22031 53276 42680 12902 10292 20104 49986 57007 81100;
0186532760999992000062206004+42400+112890FM-12+115299999V0203201N003010900019N0300001N1+03131+00991099671ADDAA199000091GF105991041021012501001021KA1999N+01761MA1999999087501MD1710181+9999REMSYN076AAXX  22061 53276 32680 53203 10313 20099 38750 49967 57018 84202 333 20176;EQDQ01  00002PRCP99
0140532760999992000062209004+42400+112890FM-12+115299999V0202001N002010900019N0300001N1+03071+00941099591ADDAY191031AY281031GF107991031011012501001021MD1710131+9999MW1001REMSYN066AAXX  22091 53276 41680 72002 10307 20094 49959 57013 70098 83102;
0178532760999992000062212004+42400+112890FM-12+115299999V0202001N005012200019N0300001N1+02781+01041099541ADDAA106000191AY191061AY281061GF103991011001999999031021MA1999999087371MD1410001+9999MW1001REMSYN078AAXX  22121 53276 11980 32005 10278 20104 38737 49954 54000 69911 70098 81032;
0112532760999992000062215004+42400+112890FM-12+115299999V0202001N006012200019N0300001N1+02451+01091099571ADDGF102991001001999999001021MD1210061+9999REMSYN060AAXX  22151 53276 42980 22006 10245 20109 49957 52006 80002;
0224532760999992000062218004+42400+112890FM-12+115299999V0201601N003012200019N0300001N1+02231+01261099581ADDAA106000191AY191061AY281061GF103991031091012501001001KA1240M+03251MA1999999087441MD1210011+9999MW1171OA130601801REMSYN100AAXX  22181 53276 11680 31603 10223 20126 38744 49958 52001 69911 71798 83900 333 10325 91118 91522;
0153532760999992000062221004+42400+112890FM-12+115299999V0202201N005010120019N0300001N1+02181+01271099651ADDAA124000391AY191031GF107991061091012501001021MD1210041+9999MW1951REMSYN076AAXX  22211 53276 41680 72205 10218 20127 49965 52004 79590 86902 333 70002;
0194532760999992000062300004+42400+112890FM-12+115299999V0203201N005010120019N0300001N1+01951+01551100071ADDAA106000791AY191061AY281061GF107991051091012501001081MA1999999087751MD1210271+0001MW1001REMSYN094AAXX  23001 53276 11680 73205 10195 20155 38775 40007 52027 69901 70098 85908 333 00054 70002;
0132532760999992000062303004+42400+112890FM-12+115299999V0202501N006010120019N0300001N1+02171+01261100131ADDAY181031GF107991051051012501001021MD1210031+9999MW1251REMSYN066AAXX  23031 53276 41680 72506 10217 20126 40013 52003 72580 85502;
0193532760999992000062306004+42400+112890FM-12+115299999V0202901N003010120019N0300001N1+02231+01441100071ADDAA106000191AY181061GF107991051091012501001021KA1999N+01921MA1999999087701MD1710081+9999MW1001REMSYN088AAXX  23061 53276 11680 72903 10223 20144 38770 40007 57008 69911 70080 85902 333 20192;
0132532760999992000062309004+42400+112890FM-12+115299999V0203401N008010120019N0300001N1+02291+01271100031ADDAY181031GF107991061091012501001021MD1710041+9999MW1001REMSYN066AAXX  23091 53276 41680 73408 10229 20127 40003 57004 70080 86902;
0170532760999992000062312004+42400+112890FM-12+115299999V0203401N008010120019N0300001N1+02031+01021100391ADDAA106000791AY181061GF107991071041012501031021MA1999999087881MD1210221+9999MW1001REMSYN078AAXX  23121 53276 11680 73408 10203 20102 38788 40039 52022 69901 70080 87432;
0112532760999992000062315004+42400+112890FM-12+115299999V0203601N005012200019N0300001N1+01521+00881100711ADDGF101991001001999999001021MD1210231+9999REMSYN060AAXX  23151 53276 42980 13605 10152 20088 40071 52023 80002;
0186532760999992000062318004+42400+112890FM-12+115299999V0203601N003012200019N0300001N1+01211+00891100831ADDAA199000091GF101991011051012501001021KA1999M+02421MA1999999088161MD1210051+9999REMSYN076AAXX  23181 53276 32680 13603 10121 20089 38816 40083 52005 81502 333 10242;EQDQ01  00002PRCP99
0133532760999992000062321004+42400+112890FM-12+115299999V0209999C000010360019N0300001N1+01001+00851100931ADDAA124000191GF106991011051017501031021MD1210061+9999REMSYN070AAXX  23211 53276 42780 60000 10100 20085 40093 52006 81532 333 70001;
0160532760999992000062400004+42400+112890FM-12+115299999V0201601N001010360019N0300001N1+01341+00851100991ADDAA124000191GF106991011051017501031021MA1999999088291MD1210071+0501REMSYN082AAXX  24001 53276 32780 61601 10134 20085 38829 40099 52007 81532 333 00556 70001;
0112532760999992000062403004+42400+112890FM-12+115299999V0201401N002012200019N0300001N1+01781+00411100921ADDGF102991011011017501001021MD1710081+9999REMSYN060AAXX  24031 53276 42780 21402 10178 20041 40092 57008 81102;
0186532760999992000062406004+42400+112890FM-12+115299999V0202501N003010900019N0300001N1+02161+00251100751ADDAA199000091GF106991011011017501001021KA1999N+00991MA1999999088081MD1710131+9999REMSYN076AAXX  24061 53276 32780 62503 10216 20025 38808 40075 57013 81102 333 20099;EQDQ01  00002PRCP99
0112532760999992000062409004+42400+112890FM-12+115299999V0202901N005019999999N0300001N1+02351-00071100601ADDGF105991001001999999001021MD1710141+9999REMSYN060AAXX  24091 53276 42980 52905 10235 21007 40060 57014 80002;
0163532760999992000062412004+42400+112890FM-12+115299999V0202501N004019999999N0300001N1+02251-00021100551ADDAA199000091GF105991001001999999001021MA1999999087951MD1210011+9999REMSYN066AAXX  24121 53276 32980 52504 10225 21002 38795 40055 52001 80002;EQDQ01  00002PRCP99
0112532760999992000062415004+42400+112890FM-12+115299999V0209999C000012200019N0300001N1+01841+00251100741ADDGF102991011001999999031021MD1210171+9999REMSYN060AAXX  24151 53276 42980 20000 10184 20025 40074 52017 81032;
0186532760999992000062418004+42400+112890FM-12+115299999V0201801N004012200019N0300001N1+01551+00081100681ADDAA199000091GF101991001001999999001021KA1999M+02471MA1999999088081MD1710041+9999REMSYN076AAXX  24181 53276 32980 11804 10155 20008 38808 40068 57004 80002 333 10247;EQDQ01  00002PRCP99
0112532760999992000062421004+42400+112890FM-12+115299999V0202501N001019999999N0300001N1+01381+00241100661ADDGF106991001001999999001021MD1710011+9999REMSYN060AAXX  24211 53276 42980 62501 10138 20024 40066 57001 80002;
0143532760999992000062500004+42400+112890FM-12+115299999V0202001N005012200019N0300001N1+01921+00431999999ADDAA199000091GF101991999999999999999999REMSYN075AAXX  25001 53276 32980 12005 10192 20043 3808 40057 52001 80002 333 05206;EQDQ01  00002PRCP99
0112532760999992000062503004+42400+112890FM-12+115299999V0202501N006019999999N0300001N1+02571-00081100471ADDGF106991001001999999001021MD1710041+9999REMSYN060AAXX  25031 53276 42980 62506 10257 21008 40047 57004 80002;
0186532760999992000062506004+42400+112890FM-12+115299999V0202901N006019999999N0300001N1+02811-00291100301ADDAA199000091GF107991001001999999001021KA1999N+01291MA1999999087881MD1710161+9999REMSYN076AAXX  25061 53276 32980 72906 10281 21029 38788 40030 57016 80002 333 20129;EQDQ01  00002PRCP99
0112532760999992000062509004+42400+112890FM-12+115299999V0202201N004019999999N0300001N1+02841-00301100161ADDGF107991001001999999001021MD1710151+9999REMSYN060AAXX  25091 53276 42980 72204 10284 21030 40016 57015 80002;
0163532760999992000062512004+42400+112890FM-12+115299999V0202501N004010360019N0300001N1+02591-00241100131ADDAA199000091GF107991021051012501031021MA1999999087761MD1210031+9999REMSYN066AAXX  25121 53276 32680 72504 10259 21024 38776 40013 52003 82532;EQDQ01  00002PRCP99
0112532760999992000062515004+42400+112890FM-12+115299999V0202501N006012200019N0300001N1+02071-00131100141ADDGF102991011001999999031021MD1210031+9999REMSYN060AAXX  25151 53276 42980 22506 10207 21013 40014 52003 81032;
0186532760999992000062518004+42400+112890FM-12+115299999V0202501N006012200019N0300001N1+01921+00141100151ADDAA199000091GF102991011001999999031021KA1999M+02971MA1999999087821MD1210031+9999REMSYN076AAXX  25181 53276 32980 22506 10192 20014 38782 40015 52003 81032 333 10297;EQDQ01  00002PRCP99
0112532760999992000062521004+42400+112890FM-12+115299999V0202501N006012200019N0300001N1+01771+00171100231ADDGF102991011051012501031001MD1210051+9999REMSYN060AAXX  25211 53276 42680 22506 10177 20017 40023 52005 81530;
0173532760999992000062600004+42400+112890FM-12+115299999V0202901N007012200019N0300001N1+02211+00051100311ADDAA199000091GF102991011001999999031021MA1999999087971MD1210101+0011REMSYN076AAXX  26001 53276 32980 22907 10221 20005 38797 40031 52010 81032 333 05103;EQDQ01  00002PRCP99
0112532760999992000062603004+42400+112890FM-12+115299999V0203401N005012200019N0300001N1+02791-00601100221ADDGF101991011001999999031021MD1710061+9999REMSYN060AAXX  26031 53276 42980 13405 10279 21060 40022 57006 81032;
0186532760999992000062606004+42400+112890FM-12+115299999V0203401N002012200019N0300001N1+03031-00331100061ADDAA199000091GF101991011001999999031021KA1999N+01711MA1999999087781MD1710131+9999REMSYN076AAXX  26061 53276 32980 13402 10303 21033 38778 40006 57013 81032 333 20171;EQDQ01  00002PRCP99
0112532760999992000062609004+42400+112890FM-12+115299999V0200401N004012200019N0300001N1+03091-00451099971ADDGF102991011001999999031021MD1710091+9999REMSYN060AAXX  26091 53276 42980 20404 10309 21045 49997 57009 81032;
0163532760999992000062612004+42400+112890FM-12+115299999V0209999C000019999999N0300001N1+02831+00271099991ADDAA199000091GF105991021001999999031021MA1999999087741MD1210051+9999REMSYN066AAXX  26121 53276 32980 50000 10283 20027 38774 49999 52005 82032;EQDQ01  00002PRCP99
0112532760999992000062615004+42400+112890FM-12+115299999V0209999C000012200019N0300001N1+02231+00341100061ADDGF101991001001999999001021MD1210061+9999REMSYN060AAXX  26151 53276 42980 10000 10223 20034 40006 52006 80002;
0186532760999992000062618004+42400+112890FM-12+115299999V0202501N006012200019N0300001N1+01851+00241100111ADDAA199000091GF101991001001999999001021KA1999M+03151MA1999999087811MD1210011+9999REMSYN076AAXX  26181 53276 32980 12506 10185 20024 38781 40011 52001 80002 333 10315;EQDQ01  00002PRCP99
0112532760999992000062621004+42400+112890FM-12+115299999V0202001N004012200019N0300001N1+01791+00111100131ADDGF101991001001999999001021MD1210021+9999REMSYN060AAXX  26211 53276 42980 12004 10179 20011 40013 52002 80002;
0143532760999992000062700004+42400+112890FM-12+115299999V0202001N003012200019N0300001N1+02441+99999999999ADDAA199000091GF102991999999999999999999REMSYN075AAXX  27001 53276 32980 22003 10244 2077 38789 40011 52006 81032 333 05102;EQDQ01  00002PRCP99
0112532760999992000062703004+42400+112890FM-12+115299999V0202501N005012200019N0300001N1+02961+00611100051ADDGF102991001001999999001021MD1710071+9999REMSYN060AAXX  27031 53276 42980 22505 10296 20061 40005 57007 80002;
0186532760999992000062706004+42400+112890FM-12+115299999V0202501N004012200019N0300001N1+03211+00251099841ADDAA199000091GF101991011011012501001021KA1999N+01651MA1999999087611MD1710211+9999REMSYN076AAXX  27061 53276 32680 12504 10321 20025 38761 49984 57021 81102 333 20165;EQDQ01  00002PRCP99
0112532760999992000062709004+42400+112890FM-12+115299999V0202001N004010900019N0300001N1+03271+00211099721ADDGF107991021011012501001021MD1710101+9999REMSYN060AAXX  27091 53276 42680 72004 10327 20021 49972 57010 82102;
0163532760999992000062712004+42400+112890FM-12+115299999V0203201N009010360019N0300001N1+02381+01181100041ADDAA199000091GF107991031041012501031021MA1999999087741MD1210231+9999REMSYN066AAXX  27121 53276 32680 73209 10238 20118 38774 40004 52023 83432;EQDQ01  00002PRCP99
0112532760999992000062715004+42400+112890FM-12+115299999V0202901N004010900019N0300001N1+02031+01221100251ADDGF107991021041012501001021MD1210221+9999REMSYN060AAXX  27151 53276 42680 72904 10203 20122 40025 52022 82402;
0185532760999992000062718004+42400+112890FM-12+115299999V0202901N003010360019N0200001N1+01691+01531100271ADDAA106002091GF108991021051012501021999KA1999M+03371MA1999999087961MD1410001+9999MW1611REMSYN088AAXX  27181 53276 11670 82903 10169 20153 38796 40027 54000 60021 76100 8252/ 333 10337;
0161532760999992000062721004+42400+112890FM-12+115299999V0209999C000010360019N0150001N1+01591+01491100261ADDAA124013591AY161031AY261031GF108991011051012501021999MD1710021+9999MW1601REMSYN076AAXX  27211 53276 41665 80000 10159 20149 40026 57002 76066 8152/ 333 70134;
0194532760999992000062800004+42400+112890FM-12+115299999V0201801N004010120019N0200001N1+01651+01551100471ADDAA106014091AY161061AY261061GF108991071051012501021999MA1999999087961MD1210021+0101MW1601REMSYN094AAXX  28001 53276 11670 81804 10165 20155 38796 40047 52002 60141 76066 8752/ 333 00158 70156;
0132532760999992000062803004+42400+112890FM-12+115299999V0209999C000012200019N0300001N1+01771+01441100481ADDAY161031GF102991011051012501031001MD1710031+9999MW1001REMSYN066AAXX  28031 53276 41680 20000 10177 20144 40048 57003 70060 81530;
0193532760999992000062806004+42400+112890FM-12+115299999V0209999C000012200019N0300001N1+02211+01491100271ADDAA106003091AY161061GF103991021011012501001021KA1999N+01431MA1999999087761MD1710171+9999MW1001REMSYN088AAXX  28061 53276 11680 30000 10221 20149 38776 40027 57017 60031 70060 82102 333 20143;
0112532760999992000062809004+42400+112890FM-12+115299999V0201401N001012200019N0300001N1+02331+01161100021ADDGF102991011011012501001021MD1710211+9999REMSYN060AAXX  28091 53276 42680 21401 10233 20116 40002 57021 81102;
0144532760999992000062812004+42400+112890FM-12+115299999V0203601N006012200019N0300001N1+01831+01301100161ADDAA199000021GF102991021091012501001021MA1999999087581MD1210031+9999REMSYN066AAXX  28121 53276 32680 23606 10183 20130 38758 40016 52003 82902;
0140532760999992000062815004+42400+112890FM-12+115299999V0201601N004012200019N0300001N1+01601+01401100181ADDAY191031AY281031GF101991001001999999001021MD1410001+9999MW1001REMSYN066AAXX  28151 53276 41980 11604 10160 20140 40018 54000 70098 80002;
0234532760999992000062818004+42400+112890FM-12+115299999V0202201N005012200019N0300001N1+01631+01431099891ADDAA106003091AY191061AY281061GA1001+999999999GF100991001001999999001001KA1240M+02381MA1999999087421MD1710161+9999MW1001OA130601801REMSYN094AAXX  28181 53276 11980 02205 10163 20143 38742 49989 57016 60031 70098 333 10238 91118 91522;
0133532760999992000062821004+42400+112890FM-12+115299999V0202501N003012200019N0300001N1+01331+00951100041ADDAA124007691GF101991011001999999031021MD1210091+9999REMSYN070AAXX  28211 53276 42980 12503 10133 20095 40004 52009 81032 333 70077;
0160532760999992000062900004+42400+112890FM-12+115299999V0202901N008012200019N0300001N1+01601+00671100171ADDAA124005691GF101991011001999999031021MA1999999087581MD1210071-0401REMSYN082AAXX  29001 53276 32980 12908 10160 20067 38758 40017 52007 81032 333 05451 70055;
0112532760999992000062903004+42400+112890FM-12+115299999V0202901N006012200019N0300001N1+01751+00581100301ADDGF102991011011017501001021MD1210101+9999REMSYN060AAXX  29031 53276 42780 22906 10175 20058 40030 52010 81102;
0186532760999992000062906004+42400+112890FM-12+115299999V0203201N010012200019N0300001N1+02061+00411100141ADDAA199000091GF103991031011017501001021KA1999N+01301MA1999999087611MD1710071+9999REMSYN076AAXX  29061 53276 32780 33210 10206 20041 38761 40014 57007 83102 333 20130;EQDQ01  00002PRCP99
0112532760999992000062909004+42400+112890FM-12+115299999V0203201N008010150019N0300001N1+02231+00351100201ADDGF106991061011017501001001MD1210021+9999REMSYN060AAXX  29091 53276 42780 63208 10223 20035 40020 52002 86100;
0163532760999992000062912004+42400+112890FM-12+115299999V0203401N006012200019N0300001N1+02161+00511100241ADDAA199000091GF101991011041017501001001MA1999999087711MD1210081+9999REMSYN066AAXX  29121 53276 32780 13406 10216 20051 38771 40024 52008 81400;EQDQ01  00002PRCP99
0122532760999992000062915004+42400+112890FM-12+115299999V0202701N002012200019N0300001N1+01691+00961100421ADDGA1001+999999999GF100991001001999999001001MD1210091+9999REMSYN054AAXX  29151 53276 42980 02702 10169 20096 40042 52009;
0196532760999992000062918004+42400+112890FM-12+115299999V0202501N003012200019N0300001N1+01481+00951100391ADDAA199000091GA1001+999999999GF100991001001999999001001KA1999M+02341MA1999999087801MD1410001+9999REMSYN070AAXX  29181 53276 32980 02503 10148 20095 38780 40039 54000 333 10234;EQDQ01  00002PRCP99
0112532760999992000062921004+42400+112890FM-12+115299999V0202501N003012200019N0300001N1+01461+00781100391ADDGF101991011001999999031001MD1210031+9999REMSYN060AAXX  29211 53276 42980 12503 10146 20078 40039 52003 81030;
0173532760999992000063000004+42400+112890FM-12+115299999V0202901N002012200019N0300001N1+01921+00641100411ADDAA199000091GF101991011011012501031001MA1999999087921MD1210091+0031REMSYN076AAXX  30001 53276 32680 12902 10192 20064 38792 40041 52009 81130 333 00303;EQDQ01  00002PRCP99
0112532760999992000063003004+42400+112890FM-12+115299999V0200201N001012200019N0300001N1+02411+00871100481ADDGF101991011001999999031001MD1210071+9999REMSYN060AAXX  30031 53276 42980 10201 10241 20087 40048 52007 81030;
0186532760999992000063006004+42400+112890FM-12+115299999V0209999C000012200019N0300001N1+02631+00711100401ADDAA199000091GF101991011011012501001021KA1999N+01421MA1999999087921MD1710071+9999REMSYN076AAXX  30061 53276 32680 10000 10263 20071 38792 40040 57007 81102 333 20142;EQDQ01  00002PRCP99
0112532760999992000063009004+42400+112890FM-12+115299999V0200401N003012200019N0300001N1+02741+00561100281ADDGF102991011011012501001021MD1710091+9999REMSYN060AAXX  30091 53276 42680 20403 10274 20056 40028 57009 81102;
0163532760999992000063012004+42400+112890FM-12+115299999V0201401N002012200019N0300001N1+02441+01001100231ADDAA199000091GF101991001001999999001021MA1999999087821MD1710011+9999REMSYN066AAXX  30121 53276 32980 11402 10244 20100 38782 40023 57001 80002;EQDQ01  00002PRCP99
0112532760999992000063015004+42400+112890FM-12+115299999V0201801N005012200019N0300001N1+02101+00891100311ADDGF101991001001999999001021MD1210101+9999REMSYN060AAXX  30151 53276 42980 11805 10210 20089 40031 52010 80002;
0196532760999992000063018004+42400+112890FM-12+115299999V0201601N002012200019N0300001N1+01981+00751100271ADDAA199000091GA1001+999999999GF100991001001999999001001KA1999M+02811MA1999999087901MD1710021+9999REMSYN070AAXX  30181 53276 32980 01602 10198 20075 38790 40027 57002 333 10281;EQDQ01  00002PRCP99
0112532760999992000063021004+42400+112890FM-12+115299999V0201801N003012200019N0300001N1+01751+00701100321ADDGF101991001001999999001021MD1210021+9999REMSYN060AAXX  30211 53276 42980 11803 10175 20070 40032 52002 80002;
0173532760999992000070100004+42400+112890FM-12+115299999V0202201N003012200019N0300001N1+02371+00761100361ADDAA199000091GF101991001001999999001021MA1999999088021MD1210101+0011REMSYN076AAXX  01001 53276 32980 12203 10237 20076 38802 40036 52010 80002 333 00105;EQDQ01  00002PRCP99
0112532760999992000070103004+42400+112890FM-12+115299999V0202501N009019999999N0300001N1+03201+00031100231ADDGF107991001001999999001021MD1710021+9999REMSYN060AAXX  01031 53276 42980 72509 10320 20003 40023 57002 80002;
0186532760999992000070106004+42400+112890FM-12+115299999V0202501N008019999999N0300001N1+03391-00101100151ADDAA199000091GF107991001001999999001021KA1999N+01711MA1999999087941MD1710061+9999REMSYN076AAXX  01061 53276 32980 72508 10339 21010 38794 40015 57006 80002 333 20171;EQDQ01  00002PRCP99
0121532760999992000070109004+42400+112890FM-12+115299999V0202501N004019999999N0300001N1+03341+00101999999ADDGF107991001001999999001021MD1710081+9999ME1309039REMSYN060AAXX  01091 53276 42980 72504 10334 20010 48903 57008 80002;
0163532760999992000070112004+42400+112890FM-12+115299999V0202001N005019999999N0300001N1+02981+00501100131ADDAA199000091GF107991021001999999031021MA1999999087921MD1210061+9999REMSYN066AAXX  01121 53276 32980 72005 10298 20050 38792 40013 52006 82032;EQDQ01  00002PRCP99
0112532760999992000070115004+42400+112890FM-12+115299999V0202001N006012200019N0300001N1+02561+00411100121ADDGF102991001001999999001021MD1210071+9999REMSYN060AAXX  01151 53276 42980 22006 10256 20041 40012 52007 80002;
0186532760999992000070118004+42400+112890FM-12+115299999V0202001N006019999999N0300001N1+02351+00521100091ADDAA199000091GF106991001001999999001021KA1999M+03531MA1999999087961MD1710031+9999REMSYN076AAXX  01181 53276 32980 62006 10235 20052 38796 40009 57003 80002 333 10353;EQDQ01  00002PRCP99
0112532760999992000070121004+42400+112890FM-12+115299999V0202001N004019999999N0300001N1+02161+00621100151ADDGF107991021001999999031021MD1210011+9999REMSYN060AAXX  01211 53276 42980 72004 10216 20062 40015 52001 82032;
0173532760999992000070200004+42400+112890FM-12+115299999V0202001N007019999999N0300001N1+02671+00721100181ADDAA199000091GF107991001001999999001021MA1999999088021MD1210051+0001REMSYN076AAXX  02001 53276 32980 72007 10267 20072 38802 40018 52005 80002 333 00003;EQDQ01  00002PRCP99
0112532760999992000070203004+42400+112890FM-12+115299999V0202201N009019999999N0300001N1+03161+00441100181ADDGF107991001001999999001021MD1210011+9999REMSYN060AAXX  02031 53276 42980 72209 10316 20044 40018 52001 80002;
0186532760999992000070206004+42400+112890FM-12+115299999V0202001N009019999999N0300001N1+03241+00381100131ADDAA199000091GF107991001001999999001021KA1999N+02081MA1999999087971MD1710061+9999REMSYN076AAXX  02061 53276 32980 72009 10324 20038 38797 40013 57006 80002 333 20208;EQDQ01  00002PRCP99
0112532760999992000070209004+42400+112890FM-12+115299999V0202001N010019999999N0300001N1+03251+00441100051ADDGF107991001001999999001021MD1710111+9999REMSYN060AAXX  02091 53276 42980 72010 10325 20044 40005 57011 80002;
0163532760999992000070212004+42400+112890FM-12+115299999V0201801N004019999999N0300001N1+02871+00561100011ADDAA199000091GF107991001001999999001021MA1999999087851MD1710011+9999REMSYN066AAXX  02121 53276 32980 71804 10287 20056 38785 40001 57001 80002;EQDQ01  00002PRCP99
0112532760999992000070215004+42400+112890FM-12+115299999V0201801N007019999999N0300001N1+02521+00611100061ADDGF107991001001999999001021MD1210071+9999REMSYN060AAXX  02151 53276 42980 71807 10252 20061 40006 52007 80002;
0186532760999992000070218004+42400+112890FM-12+115299999V0201801N009019999999N0300001N1+02381+00991100091ADDAA199000091GF107991001001999999001021KA1999M+03451MA1999999087941MD1210021+9999REMSYN076AAXX  02181 53276 32980 71809 10238 20099 38794 40009 52002 80002 333 10345;EQDQ01  00002PRCP99
0112532760999992000070221004+42400+112890FM-12+115299999V0202001N004010900019N0300001N1+02231+01171100181ADDGF107991031051012501001021MD1210051+9999REMSYN060AAXX  02211 53276 42680 72004 10223 20117 40018 52005 83502;
0173532760999992000070300004+42400+112890FM-12+115299999V0202501N004010120019N0300001N1+02321+01311100321ADDAA199000091GF107991061051012501001021MA1999999088061MD1210071+0001REMSYN076AAXX  03001 53276 32680 72504 10232 20131 38806 40032 52007 86502 333 00054;EQDQ01  00002PRCP99
0112532760999992000070303004+42400+112890FM-12+115299999V0209999C000010150019N0250001N1+02671+01281100331ADDGF107991051051017501001021MD1210011+9999REMSYN060AAXX  03031 53276 42775 70000 10267 20128 40033 52001 85502;
0208532760999992000070306004+42400+112890FM-12+115299999V0202901N010010150019N0100001N1+01751+01751100561ADDAA106019191GF107991071091017501999999KA1240N+01751MA1999999088061MD1710011+9999MW1951OA130602501REMSYN100AAXX  03061 53276 11760 72910 10175 20175 38806 40056 57001 60191 79500 879// 333 20175 91125 91522;
0132532760999992000070309004+42400+112890FM-12+115299999V0203401N006010360019N0300001N1+01911+01531100641ADDAY181031GF107991021091017501031021MD1210071+9999MW1001REMSYN066AAXX  03091 53276 41780 73406 10191 20153 40064 52007 70080 82932;
0170532760999992000070312004+42400+112890FM-12+115299999V0200701N003010900019N0300001N1+01831+01611100781ADDAA106000791AY181061GF107991021051017501001021MA1999999088261MD1210131+9999MW1001REMSYN078AAXX  03121 53276 11780 70703 10183 20161 38826 40078 52013 69901 70080 82502;
0132532760999992000070315004+42400+112890FM-12+115299999V0209999C000010150019N0200001N1+01791+01631100771ADDAY161031GF108991051051017501001071MD1210051+9999MW1601REMSYN066AAXX  03151 53276 41770 80000 10179 20163 40077 52005 76060 85507;
0193532760999992000070318004+42400+112890FM-12+115299999V0200401N003010150019N0080001N1+01731+01631101041ADDAA106006191AY161061GF108991071001017501021999KA1999M+02991MA1999999088351MD1210041+9999MW1611REMSYN088AAXX  03181 53276 11758 80403 10173 20163 38835 40104 52004 60061 76160 8702/ 333 10299;
0161532760999992000070321004+42400+112890FM-12+115299999V0200701N002010075019N0060001N1+01661+01611100991ADDAA124028291AY161031AY261031GF108991071071008001021999MD1710021+9999MW1611REMSYN076AAXX  03211 53276 41556 80702 10166 20161 40099 57002 76166 8772/ 333 70283;
0194532760999992000070400004+42400+112890FM-12+115299999V0200901N004010075019N0060001N1+01671+01571101111ADDAA106007991AY161061AY261061GF108991081001008001021999MA1999999088421MD1210091+0401MW1611REMSYN094AAXX  04001 53276 11556 80904 10167 20157 38842 40111 52009 60081 76166 8802/ 333 00457 70331;
0140532760999992000070403004+42400+112890FM-12+115299999V0200701N006010075019N0100001N1+01751+01561101151ADDAY161031AY261031GF108991081001008001021999MD1210041+9999MW1611REMSYN066AAXX  04031 53276 41560 80706 10175 20156 40115 52004 76166 8802/;
0201532760999992000070406004+42400+112890FM-12+115299999V0200701N008010360019N0120001N1+01871+01701101101ADDAA106003091AY161061AY261061GF107991031051012501021999KA1999N+01641MA1999999088431MD1710031+9999MW1611REMSYN088AAXX  04061 53276 11662 70708 10187 20170 38843 40110 57003 60031 76166 8352/ 333 20164;
0140532760999992000070409004+42400+112890FM-12+115299999V0200701N004010120019N0120001N1+02001+01701101091ADDAY161031AY261031GF107991061051012501021999MD1410001+9999MW1601REMSYN066AAXX  04091 53276 41662 70704 10200 20170 40109 54000 76066 8652/;
0170532760999992000070412004+42400+112890FM-12+115299999V0200701N003010120019N0080001N1+01971+01801101151ADDAA106000191AY161061GF107991071051012501999999MA1999999088481MD1210051+9999MW1101REMSYN078AAXX  04121 53276 11658 70703 10197 20180 38848 40115 52005 69911 71060 875//;
0112532760999992000070415004+42400+112890FM-12+115299999V0209999C000010360019N0150001N1+01911+01711101211ADDGF108991021051012501021999MD1210061+9999REMSYN060AAXX  04151 53276 42665 80000 10191 20171 40121 52006 8252/;
0193532760999992000070418004+42400+112890FM-12+115299999V0201101N001010120019N0150001N1+01871+01751101211ADDAA106000791AY161061GF107991071051012501999999KA1999M+02061MA1999999088551MD1210011+9999MW1601REMSYN088AAXX  04181 53276 11665 71101 10187 20175 38855 40121 52001 69901 76060 875// 333 10206;
0186532760999992000070500004+42400+112890FM-12+115299999V0200201N004010150019N0250001N1+01951+01701101261ADDAA106000391AY161061GF107991051051017501031021MA1999999088631MD1210061+0201MW1601REMSYN094AAXX  05001 53276 11775 70204 10195 20170 38863 40126 52006 69931 76060 85532 333 00203 70032;
0132532760999992000070503004+42400+112890FM-12+115299999V0201401N008010120019N0300001N1+02201+01791101181ADDAY161031GF107991071051012501031021MD1710031+9999MW1001REMSYN066AAXX  05031 53276 41680 71408 10220 20179 40118 57003 70060 87532;
0193532760999992000070506004+42400+112890FM-12+115299999V0201601N006010900019N0300001N1+02391+01781101041ADDAA106000791AY161061GF107991021011012501001021KA1999N+01761MA1999999088511MD1710091+9999MW1001REMSYN088AAXX  05061 53276 11680 71606 10239 20178 38851 40104 57009 69901 70060 82102 333 20176;
0112532760999992000070509004+42400+112890FM-12+115299999V0201601N008010360019N0300001N1+02361+01661100991ADDGF107991011041012501031021MD1710061+9999REMSYN060AAXX  05091 53276 42680 71608 10236 20166 40099 57006 81432;
0144532760999992000070512004+42400+112890FM-12+115299999V0201601N005010360019N0300001N1+02151+01701101011ADDAA199000021GF107991011041012501031021MA1999999088451MD1410001+9999REMSYN066AAXX  05121 53276 32680 71605 10215 20170 38845 40101 54000 81432;
0112532760999992000070515004+42400+112890FM-12+115299999V0201601N005019999999N0300001N1+01971+01611101031ADDGF107991021001999999031021MD1210031+9999REMSYN060AAXX  05151 53276 42980 71605 10197 20161 40103 52003 82032;
0186532760999992000070518004+42400+112890FM-12+115299999V0201601N005010360019N0300001N1+01871+01531100961ADDAA199000091GF107991021051012501031021KA1999M+02441MA1999999088441MD1710041+9999REMSYN076AAXX  05181 53276 32680 71605 10187 20153 38844 40096 57004 82532 333 10244;EQDQ01  00002PRCP99
0133532760999992000070521004+42400+112890FM-12+115299999V0201601N005010120019N0300001N1+01751+01491100971ADDAA124000391GF105991051051012501031001MD1710021+9999REMSYN070AAXX  05211 53276 42680 51605 10175 20149 40097 57002 85530 333 70003;
0160532760999992000070600004+42400+112890FM-12+115299999V0201801N007012200019N0300001N1+02011+01601101021ADDAA124000791GF101991011001999999031001MA1999999088471MD1210051-0201REMSYN082AAXX  06001 53276 32980 11807 10201 20160 38847 40102 52005 81030 333 05201 79999;
0112532760999992000070603004+42400+112890FM-12+115299999V0202201N004010120019N0300001N1+02351+01651100901ADDGF106991061021012501001001MD1710071+9999REMSYN060AAXX  06031 53276 42680 62204 10235 20165 40090 57007 86200;
0186532760999992000070606004+42400+112890FM-12+115299999V0201801N006012200019N0300001N1+02711+01621100631ADDAA199000091GF102991021011012501001001KA1999N+01731MA1999999088211MD1710191+9999REMSYN076AAXX  06061 53276 32680 21806 10271 20162 38821 40063 57019 82100 333 20173;EQDQ01  00002PRCP99
0112532760999992000070609004+42400+112890FM-12+115299999V0201601N009012200019N0300001N1+02691+01701100501ADDGF102991021011012501001021MD1710141+9999REMSYN060AAXX  06091 53276 42680 21609 10269 20170 40050 57014 82102;
0163532760999992000070612004+42400+112890FM-12+115299999V0201801N008012200019N0300001N1+02411+01641100531ADDAA199000091GF101991011001999999031001MA1999999088091MD1210021+9999REMSYN066AAXX  06121 53276 32980 11808 10241 20164 38809 40053 52002 81030;EQDQ01  00002PRCP99
0112532760999992000070615004+42400+112890FM-12+115299999V0201801N007012200019N0300001N1+02101+01581100591ADDGF101991011001999999031001MD1210061+9999REMSYN060AAXX  06151 53276 42980 11807 10210 20158 40059 52006 81030;
0196532760999992000070618004+42400+112890FM-12+115299999V0201801N005012200019N0300001N1+01951+01571100481ADDAA199000091GA1001+999999999GF100991001001999999001001KA1999M+02831MA1999999088101MD1710051+9999REMSYN070AAXX  06181 53276 32980 01805 10195 20157 38810 40048 57005 333 10283;EQDQ01  00002PRCP99
0122532760999992000070621004+42400+112890FM-12+115299999V0202001N003012200019N0300001N1+01881+01421100461ADDGA1001+999999999GF100991001001999999001001MD1710041+9999REMSYN054AAXX  06211 53276 42980 02003 10188 20142 40046 57004;
0173532760999992000070700004+42400+112890FM-12+115299999V0202001N004010360019N0300001N1+02261+01521100451ADDAA199000091GF107991011051017501031021MA1999999088071MD1210011+0041REMSYN076AAXX  07001 53276 32780 72004 10226 20152 38807 40045 52001 81532 333 05403;EQDQ01  00002PRCP99
0112532760999992000070703004+42400+112890FM-12+115299999V0202501N005010360019N0300001N1+02601+01681100441ADDGF107991011021012501031021MD1410001+9999REMSYN060AAXX  07031 53276 42680 72505 10260 20168 40044 54000 81232;
0193532760999992000070706004+42400+112890FM-12+115299999V0203401N007010900019N0300001N1+02851+01611100241ADDAA106000791AY181061GF106991041091012501001021KA1999N+01851MA1999999087911MD1710161+9999MW1001REMSYN088AAXX  07061 53276 11680 63407 10285 20161 38791 40024 57016 69901 70080 84902 333 20185;
0112532760999992000070709004+42400+112890FM-12+115299999V0203201N005012200019N0300001N1+02881+01521100181ADDGF104991021091012501001021MD1710061+9999REMSYN060AAXX  07091 53276 42680 43205 10288 20152 40018 57006 82902;
0163532760999992000070712004+42400+112890FM-12+115299999V0202001N002010360019N0300001N1+02451+01671100291ADDAA199000091GF107991041091012501031021MA1999999087941MD1210091+9999REMSYN066AAXX  07121 53276 32680 72002 10245 20167 38794 40029 52009 84932;EQDQ01  00002PRCP99
0132532760999992000070715004+42400+112890FM-12+115299999V0201801N005010120019N0300001N1+02171+01741100361ADDAY181031GF107991061091012501001021MD1210071+9999MW1001REMSYN066AAXX  07151 53276 41680 71805 10217 20174 40036 52007 70080 86902;
0193532760999992000070718004+42400+112890FM-12+115299999V0202901N006010360019N0300001N1+01941+01791100371ADDAA106000391AY181061GF108991041051012501011999KA1999M+02971MA1999999088021MD1210011+9999MW1601REMSYN088AAXX  07181 53276 11680 82906 10194 20179 38802 40037 52001 69931 76080 8451/ 333 10297;
0161532760999992000070721004+42400+112890FM-12+115299999V0209999C000010120019N0200001N1+01651+01521100471ADDAA124016891AY161031AY261031GF107991071051012501999999MD1210041+9999MW1611REMSYN076AAXX  07211 53276 41670 70000 10165 20152 40047 52004 76166 875// 333 70167;
0186532760999992000070800004+42400+112890FM-12+115299999V0209999C000010120019N0150001N1+01681+01571100581ADDAA106021191AY161061GF108991061051012501021999MA1999999088081MD1210021+0001MW1211REMSYN094AAXX  08001 53276 11665 80000 10168 20157 38808 40058 52002 60211 72160 8652/ 333 00056 70212;
0112532760999992000070803004+42400+112890FM-12+115299999V0202201N001010120019N0300001N1+01881+01631100661ADDGF107991071051012501999999MD1210051+9999REMSYN060AAXX  08031 53276 42680 72201 10188 20163 40066 52005 875//;
0193532760999992000070806004+42400+112890FM-12+115299999V0202901N002010360019N0300001N1+01801+01531100701ADDAA106001091AY161061GF108991021051012501021999KA1999N+01611MA1999999088111MD1710021+9999MW1601REMSYN088AAXX  08061 53276 11680 82902 10180 20153 38811 40070 57002 60011 76060 8252/ 333 20161;
0132532760999992000070809004+42400+112890FM-12+115299999V0209999C000010120019N0300001N1+01931+01481100611ADDAY161031GF106991061051012501031001MD1710111+9999MW1001REMSYN066AAXX  08091 53276 41680 60000 10193 20148 40061 57011 70060 86530;
0170532760999992000070812004+42400+112890FM-12+115299999V0209999C000010900019N0300001N1+01901+01501100591ADDAA106000391AY161061GF105991011051012501001021MA1999999087981MD1710021+9999MW1001REMSYN078AAXX  08121 53276 11680 50000 10190 20150 38798 40059 57002 69931 70060 81502;
0112532760999992000070815004+42400+112890FM-12+115299999V0209999C000019999999N0300001N1+01691+01431100671ADDGF105991001001999999001021MD1210071+9999REMSYN060AAXX  08151 53276 42980 50000 10169 20143 40067 52007 80002;
0167532760999992000070818004+42400+112890FM-12+115299999V0201801N002012200019N0300001N1+01551+01371100611ADDAA199000021GF101991001001999999001021KA1999M+02041MA1999999087951MD1710101+9999REMSYN076AAXX  08181 53276 32980 11802 10155 20137 38795 40061 57010 80002 333 10204;
0133532760999992000070821004+42400+112890FM-12+115299999V0201601N003012200019N0300001N1+01551+01191100501ADDAA124006191GF101991011051012501001021MD1710071+9999REMSYN070AAXX  08211 53276 42680 11603 10155 20119 40050 57007 81502 333 70060;
0160532760999992000070900004+42400+112890FM-12+115299999V0201801N005012200019N0300001N1+02091+01301100411ADDAA124001591GF101991011001999999031021MA1999999087901MD1210021-0201REMSYN082AAXX  09001 53276 32980 11805 10209 20130 38790 40041 52002 81032 333 05204 70015;
0111532760999992000070903004+42400+112890FM-12+115299999V0202701N005012200019N0300001N1+02591+01491100341ADDGF102991011011012501031021MD1410001+9999REMSYN059AAXX  09031 53276 42680 22705 10259 20149 4003454000 81132;
0186532760999992000070906004+42400+112890FM-12+115299999V0202201N004012200019N0300001N1+02881+01561100261ADDAA199000091GF101991011021012501001021KA1999N+01441MA1999999087861MD1710041+9999REMSYN076AAXX  09061 53276 32680 12204 10288 20156 38786 40026 57004 81202 333 20144;EQDQ01  00002PRCP99
0112532760999992000070909004+42400+112890FM-12+115299999V0202701N003012200019N0300001N1+02981+01131100181ADDGF102991021011012501001021MD1710051+9999REMSYN060AAXX  09091 53276 42680 22703 10298 20113 40018 57005 82102;
0163532760999992000070912004+42400+112890FM-12+115299999V0201801N008012200019N0300001N1+02451+01311100251ADDAA199000091GF102991021041017501001021MA1999999087871MD1210061+9999REMSYN066AAXX  09121 53276 32780 21808 10245 20131 38787 40025 52006 82402;EQDQ01  00002PRCP99
0112532760999992000070915004+42400+112890FM-12+115299999V0201801N005012200019N0300001N1+02111+01121100401ADDGF101991011001999999031021MD1210161+9999REMSYN060AAXX  09151 53276 42980 11805 10211 20112 40040 52016 81032;
0196532760999992000070918004+42400+112890FM-12+115299999V0202201N004012200019N0300001N1+02071+01111100401ADDAA199000091GA1001+999999999GF100991001001999999001001KA1999M+03011MA1999999088081MD1210051+9999REMSYN070AAXX  09181 53276 32980 02204 10207 20111 38808 40040 52005 333 10301;EQDQ01  00002PRCP99
0112532760999992000070921004+42400+112890FM-12+115299999V0202201N005012200019N0300001N1+01821+01261100441ADDGF101991011001999999031001MD1210011+9999REMSYN060AAXX  09211 53276 42980 12205 10182 20126 40044 52001 81030;
0173532760999992000071000004+42400+112890FM-12+115299999V0202001N002012200019N0300001N1+02261+01331100591ADDAA199000091GF101991001001999999001021MA1999999088201MD1210111+0031REMSYN076AAXX  10001 53276 32980 12002 10226 20133 38820 40059 52011 80002 333 00302;EQDQ01  00002PRCP99
0112532760999992000071003004+42400+112890FM-12+115299999V0202701N001012200019N0300001N1+02701+01341100581ADDGF101991001001999999001021MD1210011+9999REMSYN060AAXX  10031 53276 42980 12701 10270 20134 40058 52001 80002;
0186532760999992000071006004+42400+112890FM-12+115299999V0209999C000012200019N0300001N1+02961+01381100401ADDAA199000091GF101991011091012501001021KA1999N+01691MA1999999088101MD1710111+9999REMSYN076AAXX  10061 53276 32680 10000 10296 20138 38810 40040 57011 81902 333 20169;EQDQ01  00002PRCP99
0112532760999992000071009004+42400+112890FM-12+115299999V0209999C000012200019N0300001N1+03051+01171100301ADDGF102991011021012501001021MD1710121+9999REMSYN060AAXX  10091 53276 42680 20000 10305 20117 40030 57012 81202;
0163532760999992000071012004+42400+112890FM-12+115299999V0202001N002012200019N0300001N1+02691+01401100341ADDAA199000091GF102991011041012501001021MA1999999088031MD1210051+9999REMSYN066AAXX  10121 53276 32680 22002 10269 20140 38803 40034 52005 81402;EQDQ01  00002PRCP99
0112532760999992000071015004+42400+112890FM-12+115299999V0201801N001012200019N0300001N1+02191+01451100431ADDGF101991001001999999001021MD1210071+9999REMSYN060AAXX  10151 53276 42980 11801 10219 20145 40043 52007 80002;
0196532760999992000071018004+42400+112890FM-12+115299999V0209999C000012200019N0300001N1+01961+01461100391ADDAA199000091GA1001+999999999GF100991001001999999001001KA1999M+03101MA1999999088071MD1710031+9999REMSYN070AAXX  10181 53276 32980 00000 10196 20146 38807 40039 57003 333 10310;EQDQ01  00002PRCP99
0112532760999992000071021004+42400+112890FM-12+115299999V0201801N001012200019N0300001N1+01891+01341100391ADDGF101991011001999999031001MD1410001+9999REMSYN060AAXX  10211 53276 42980 11801 10189 20134 40039 54000 81030;
0183532760999992000071100004+42400+112890FM-12+115299999V0202201N005012200019N0300001N1+02301+01451100391ADDAA199000091GA1001+999999999GF100991001001999999001001MA1999999088081MD1210011+0011REMSYN070AAXX  11001 53276 32980 02205 10230 20145 38808 40039 52001 333 05100;EQDQ01  00002PRCP99
0122532760999992000071103004+42400+112890FM-12+115299999V0209999C000012200019N0300001N1+02921+01411100371ADDGA1001+999999999GF100991001001999999001001MD1210011+9999REMSYN054AAXX  11031 53276 42980 00000 10292 20141 40037 52001;
0186532760999992000071106004+42400+112890FM-12+115299999V0209999C000012200019N0300001N1+03201+01141100261ADDAA199000091GF101991011011012501001001KA1999N+01801MA1999999088001MD1710091+9999REMSYN076AAXX  11061 53276 32680 10000 10320 20114 38800 40026 57009 81100 333 20180;EQDQ01  00002PRCP99
0112532760999992000071109004+42400+112890FM-12+115299999V0202201N001012200019N0300001N1+03231+01051100101ADDGF101991011011012501001021MD1710151+9999REMSYN060AAXX  11091 53276 42680 12201 10323 20105 40010 57015 81102;
0163532760999992000071112004+42400+112890FM-12+115299999V0202001N004012200019N0300001N1+02881+01251100101ADDAA199000091GF102991011041012501001021MA1999999087861MD1210011+9999REMSYN066AAXX  11121 53276 32680 22004 10288 20125 38786 40010 52001 81402;EQDQ01  00002PRCP99
0112532760999992000071115004+42400+112890FM-12+115299999V0202201N005012200019N0300001N1+02481+01231100101ADDGF101991011001999999031001MD1210041+9999REMSYN060AAXX  11151 53276 42980 12205 10248 20123 40010 52004 81030;
0186532760999992000071118004+42400+112890FM-12+115299999V0202201N006012200019N0300001N1+02341+01191100111ADDAA199000091GF101991011001999999031001KA1999M+03291MA1999999087941MD1210041+9999REMSYN076AAXX  11181 53276 32980 12206 10234 20119 38794 40011 52004 81030 333 10329;EQDQ01  00002PRCP99
0112532760999992000071121004+42400+112890FM-12+115299999V0202201N003012200019N0300001N1+02221+01161100161ADDGF101991011001999999031001MD1210031+9999REMSYN060AAXX  11211 53276 42980 12203 10222 20116 40016 52003 81030;
0173532760999992000071200004+42400+112890FM-12+115299999V0202201N003012200019N0300001N1+02511+01371100251ADDAA199000091GF101991011001999999031001MA1999999088031MD1210061+0011REMSYN076AAXX  12001 53276 32980 12203 10251 20137 38803 40025 52006 81030 333 05102;EQDQ01  00002PRCP99
0112532760999992000071203004+42400+112890FM-12+115299999V0202701N004012200019N0300001N1+03101+01201100161ADDGF101991001001999999001021MD1710041+9999REMSYN060AAXX  12031 53276 42980 12704 10310 20120 40016 57004 80002;
0186532760999992000071206004+42400+112890FM-12+115299999V0202201N005012200019N0300001N1+03361+00781099771ADDAA199000091GF101991011011012501001021KA1999N+02111MA1999999087851MD1710141+9999REMSYN076AAXX  12061 53276 32680 12205 10336 20078 38785 49977 57014 81102 333 20211;EQDQ01  00002PRCP99
0112532760999992000071209004+42400+112890FM-12+115299999V0202201N007012200019N0300001N1+03351+00671099811ADDGF101991011011012501001021MD1710171+9999REMSYN060AAXX  12091 53276 42680 12207 10335 20067 49981 57017 81102;
0163532760999992000071212004+42400+112890FM-12+115299999V0202201N006012200019N0300001N1+02971+01001099831ADDAA199000091GF102991011001999999031021MA1999999087681MD1410001+9999REMSYN066AAXX  12121 53276 32980 22206 10297 20100 38768 49983 54000 81032;EQDQ01  00002PRCP99
0097532760999992000071215004+42400+112890FM-12+115299999V0202201N004012200019N0300001N1+99999+99999999999ADDGF103991999999012501999999REMSYN059AAXX  12151 53276 42680 32204 0243 20110 49985 52003 81532;
0186532760999992000071218004+42400+112890FM-12+115299999V0202201N006012200019N0300001N1+02561+00831099721ADDAA199000091GF101991011001999999031001KA1999M+03461MA1999999087671MD1710041+9999REMSYN076AAXX  12181 53276 32980 12206 10256 20083 38767 49972 57004 81030 333 10346;EQDQ01  00002PRCP99
0112532760999992000071221004+42400+112890FM-12+115299999V0202201N006012200019N0300001N1+02331+01011099761ADDGF102991021001999999031001MD1710011+9999REMSYN060AAXX  12211 53276 42980 22206 10233 20101 49976 57001 82030;
0173532760999992000071300004+42400+112890FM-12+115299999V0202201N006012200019N0300001N1+02571+01081099851ADDAA199000091GF101991011001999999031001MA1999999087711MD1210051+0031REMSYN076AAXX  13001 53276 32980 12206 10257 20108 38771 49985 52005 81030 333 05301;EQDQ01  00002PRCP99
0122532760999992000071303004+42400+112890FM-12+115299999V0202201N007012200019N0300001N1+03221+00911099831ADDGA1001+999999999GF100991001001999999001001MD1410001+9999REMSYN054AAXX  13031 53276 42980 02207 10322 20091 49983 54000;
0196532760999992000071306004+42400+112890FM-12+115299999V0202201N007012200019N0300001N1+03511+00781099651ADDAA199000091GA1001+999999999GF100991001001999999001001KA1999N+02301MA1999999087631MD1710081+9999REMSYN070AAXX  13061 53276 32980 02207 10351 20078 38763 49965 57008 333 20230;EQDQ01  00002PRCP99
0112532760999992000071309004+42400+112890FM-12+115299999V0202201N006012200019N0300001N1+03431+00711099621ADDGF101991011011012501001001MD1710081+9999REMSYN060AAXX  13091 53276 42680 12206 10343 20071 49962 57008 81100;
0163532760999992000071312004+42400+112890FM-12+115299999V0202201N005012200019N0300001N1+03031+01121099711ADDAA199000091GF101991011011012501031021MA1999999087601MD1210051+9999REMSYN066AAXX  13121 53276 32680 12205 10303 20112 38760 49971 52005 81132;EQDQ01  00002PRCP99
0112532760999992000071315004+42400+112890FM-12+115299999V0202201N006019999999N0300001N1+02591+00921099751ADDGF105991041001999999031021MD1210071+9999REMSYN060AAXX  13151 53276 42980 52206 10259 20092 49975 52007 84032;
0186532760999992000071318004+42400+112890FM-12+115299999V0202201N003012200019N0300001N1+02281+01011099751ADDAA199000091GF101991011001999999031001KA1999M+03571MA1999999087671MD1410001+9999REMSYN076AAXX  13181 53276 32980 12203 10228 20101 38767 49975 54000 81030 333 10357;EQDQ01  00002PRCP99
0112532760999992000071321004+42400+112890FM-12+115299999V0202001N006012200019N0300001N1+02261+00821099761ADDGF101991011001999999031001MD1710011+9999REMSYN060AAXX  13211 53276 42980 12006 10226 20082 49976 57001 81030;
0173532760999992000071400004+42400+112890FM-12+115299999V0202201N006012200019N0300001N1+02561+01061099871ADDAA199000091GF101991011001999999031001MA1999999087741MD1210081+0001REMSYN076AAXX  14001 53276 32980 12206 10256 20106 38774 49987 52008 81030 333 00000;EQDQ01  00002PRCP99
0122532760999992000071403004+42400+112890FM-12+115299999V0202201N002012200019N0300001N1+03271+00511099841ADDGA1001+999999999GF100991001001999999001001MD1210021+9999REMSYN054AAXX  14031 53276 42980 02202 10327 20051 49984 52002;
0196532760999992000071406004+42400+112890FM-12+115299999V0209999C000012200019N0300001N1+03561+00901099751ADDAA199000091GA1001+999999999GF100991001001999999001001KA1999N+02001MA1999999087681MD1710081+9999REMSYN070AAXX  14061 53276 32980 00000 10356 20090 38768 49975 57008 333 20200;EQDQ01  00002PRCP99
0112532760999992000071409004+42400+112890FM-12+115299999V0201801N006012200019N0300001N1+03501+00761099681ADDGF101991011011012501001001MD1710081+9999REMSYN060AAXX  14091 53276 42680 11806 10350 20076 49968 57008 81100;
0173532760999992000071412004+42400+112890FM-12+115299999V0202001N004012200019N0300001N1+03111+00831099731ADDAA199000091GA1001+999999999GF100991001001999999001001MA1999999087631MD1210031+9999REMSYN060AAXX  14121 53276 32980 02004 10311 20083 38763 49973 52003;EQDQ01  00002PRCP99
0122532760999992000071415004+42400+112890FM-12+115299999V0201801N002012200019N0300001N1+02511+01151099861ADDGA1001+999999999GF100991001001999999001001MD1210131+9999REMSYN054AAXX  14151 53276 42980 01802 10251 20115 49986 52013;
0196532760999992000071418004+42400+112890FM-12+115299999V0201801N007012200019N0300001N1+02531+00951099801ADDAA199000091GA1001+999999999GF100991001001999999001001KA1999M+03651MA1999999087771MD1210011+9999REMSYN070AAXX  14181 53276 32980 01807 10253 20095 38777 49980 52001 333 10365;EQDQ01  00002PRCP99
0122532760999992000071421004+42400+112890FM-12+115299999V0201601N004012200019N0300001N1+02171+00831099821ADDGA1001+999999999GF100991001001999999001001MD1710061+9999REMSYN054AAXX  14211 53276 42980 01604 10217 20083 49982 57006;
0183532760999992000071500004+42400+112890FM-12+115299999V0202201N005012200019N0300001N1+02501+00951099901ADDAA199000091GA1001+999999999GF100991001001999999001001MA1999999087771MD1210061+0001REMSYN070AAXX  15001 53276 32980 02205 10250 20095 38777 49990 52006 333 00051;EQDQ01  00002PRCP99
0122532760999992000071503004+42400+112890FM-12+115299999V0201801N005012200019N0300001N1+03281+00931099891ADDGA1001+999999999GF100991001001999999001001MD1210021+9999REMSYN054AAXX  15031 53276 42980 01805 10328 20093 49989 52002;
0186532760999992000071506004+42400+112890FM-12+115299999V0201401N008012200019N0300001N1+03421+00861099771ADDAA199000091GF101991011011012501001001KA1999N+02131MA1999999087721MD1710071+9999REMSYN076AAXX  15061 53276 32680 11408 10342 20086 38772 49977 57007 81100 333 20213;EQDQ01  00002PRCP99
0112532760999992000071509004+42400+112890FM-12+115299999V0201601N010012200019N0300001N1+03301+00971099821ADDGF101991011011012501001001MD1710051+9999REMSYN060AAXX  15091 53276 42680 11610 10330 20097 49982 57005 81100;
0190532760999992000071512004+42400+112890FM-12+115299999V0201801N005012200019N0300001N1+02831+00831099971ADDAA199000091GF101991011041012501001001MA1999999087781MD1210111+9999OA130601701REMSYN082AAXX  15121 53276 32680 11805 10283 20083 38778 49997 52011 81400 333 91117 91518;EQDQ01  00002PRCP99
0112532760999992000071515004+42400+112890FM-12+115299999V0201801N004012200019N0300001N1+02331+01221100021ADDGF101991011001999999031001MD1210091+9999REMSYN060AAXX  15151 53276 42980 11804 10233 20122 40002 52009 81030;
0186532760999992000071518004+42400+112890FM-12+115299999V0201601N007012200019N0300001N1+02151+01551099991ADDAA199000091GF101991011001999999031001KA1999M+03501MA1999999087841MD1710031+9999REMSYN076AAXX  15181 53276 32980 11607 10215 20155 38784 49999 57003 81030 333 10350;EQDQ01  00002PRCP99
0183532760999992000071600004+42400+112890FM-12+115299999V0201801N009012200019N0250001N1+02381+01641100051ADDAA199000091GA1001+999999999GF100991001001999999001001MA1999999087821MD1210021+0011REMSYN070AAXX  16001 53276 32975 01809 10238 20164 38782 40005 52002 333 00151;EQDQ01  00002PRCP99
0112532760999992000071603004+42400+112890FM-12+115299999V0201801N004012200019N0250001N1+02801+01591100061ADDGF102991021011012501001001MD1410001+9999REMSYN060AAXX  16031 53276 42675 21804 10280 20159 40006 54000 82100;
0186532760999992000071606004+42400+112890FM-12+115299999V0201101N004012200019N0300001N1+02931+01511099951ADDAA199000091GF103991031021012501001001KA1999N+02011MA1999999087711MD1710111+9999REMSYN076AAXX  16061 53276 32680 31104 10293 20151 38771 49995 57011 83200 333 20201;EQDQ01  00002PRCP99
0112532760999992000071609004+42400+112890FM-12+115299999V0201101N006012200019N0300001N1+03071+01501099821ADDGF104991041021012501001001MD1710091+9999REMSYN060AAXX  16091 53276 42680 41106 10307 20150 49982 57009 84200;
0163532760999992000071612004+42400+112890FM-12+115299999V0201401N005012200019N0300001N1+02821+01521099881ADDAA199000091GF101991001001999999001021MA1999999087671MD1210051+9999REMSYN066AAXX  16121 53276 32980 11405 10282 20152 38767 49988 52005 80002;EQDQ01  00002PRCP99
0122532760999992000071615004+42400+112890FM-12+115299999V0201601N004012200019N0300001N1+02521+01661100001ADDGA1001+999999999GF100991001001999999001001MD1210131+9999REMSYN054AAXX  16151 53276 42980 01604 10252 20166 40000 52013;
0196532760999992000071618004+42400+112890FM-12+115299999V0201801N004012200019N0300001N1+02291+01691099981ADDAA199000091GA1001+999999999GF100991001001999999001001KA1999M+03171MA1999999087761MD1710041+9999REMSYN070AAXX  16181 53276 32980 01804 10229 20169 38776 49998 57004 333 10317;EQDQ01  00002PRCP99
0122532760999992000071621004+42400+112890FM-12+115299999V0201801N002012200019N0300001N1+02091+01701100061ADDGA1001+999999999GF100991001001999999001001MD1210061+9999REMSYN054AAXX  16211 53276 42980 01802 10209 20170 40006 52006;
0183532760999992000071700004+42400+112890FM-12+115299999V0201801N003012200019N0300001N1+02501+01781100071ADDAA199000091GA1001+999999999GF100991001001999999001001MA1999999087861MD1210041+0001REMSYN070AAXX  17001 53276 32980 01803 10250 20178 38786 40007 52004 333 00001;EQDQ01  00002PRCP99
0112532760999992000071703004+42400+112890FM-12+115299999V0209999C000012200019N0300001N1+03051+01621099931ADDGF101991011011012501001001MD1710071+9999REMSYN060AAXX  17031 53276 42680 10000 10305 20162 49993 57007 81100;
0186532760999992000071706004+42400+112890FM-12+115299999V0200901N001012200019N0300001N1+03231+01561099791ADDAA199000091GF101991011011012501001001KA1999N+02041MA1999999087651MD1710141+9999REMSYN076AAXX  17061 53276 32680 10901 10323 20156 38765 49979 57014 81100 333 20204;EQDQ01  00002PRCP99
0112532760999992000071709004+42400+112890FM-12+115299999V0201801N002012200019N0250001N1+03351+01481099631ADDGF101991011011012501001001MD1710151+9999REMSYN060AAXX  17091 53276 42675 11802 10335 20148 49963 57015 81100;
0163532760999992000071712004+42400+112890FM-12+115299999V0201601N007012200019N0250001N1+03021+01661099641ADDAA199000091GF102991011011012501001021MA1999999087521MD1210021+9999REMSYN066AAXX  17121 53276 32675 21607 10302 20166 38752 49964 52002 81102;EQDQ01  00002PRCP99
0112532760999992000071715004+42400+112890FM-12+115299999V0201601N006012200019N0300001N1+02681+01711099661ADDGF102991001001999999001021MD1210061+9999REMSYN060AAXX  17151 53276 42980 21606 10268 20171 49966 52006 80002;
0196532760999992000071718004+42400+112890FM-12+115299999V0201601N006012200019N0300001N1+02471+01831099771ADDAA199000091GA1001+999999999GF100991001001999999001001KA1999M+03411MA1999999087671MD1210091+9999REMSYN070AAXX  17181 53276 32980 01606 10247 20183 38767 49977 52009 333 10341;EQDQ01  00002PRCP99
0112532760999992000071721004+42400+112890FM-12+115299999V0201801N003012200019N0300001N1+02271+01821099811ADDGF101991011001999999031001MD1210021+9999REMSYN060AAXX  17211 53276 42980 11803 10227 20182 49981 52002 81030;
0183532760999992000071800004+42400+112890FM-12+115299999V0201801N006012200019N0250001N1+02601+01861099861ADDAA199000091GA1001+999999999GF100991001001999999001001MA1999999087731MD1210041+0011REMSYN070AAXX  18001 53276 32975 01806 10260 20186 38773 49986 52004 333 05101;EQDQ01  00002PRCP99
0112532760999992000071803004+42400+112890FM-12+115299999V0201801N002012200019N0300001N1+03221+01661099731ADDGF101991001001999999001021MD1710061+9999REMSYN060AAXX  18031 53276 42980 11802 10322 20166 49973 57006 80002;
0186532760999992000071806004+42400+112890FM-12+115299999V0201401N004010900019N0300001N1+03461+01491099551ADDAA199000091GF105991011011012501001021KA1999N+02231MA1999999087521MD1710151+9999REMSYN076AAXX  18061 53276 32680 51404 10346 20149 38752 49955 57015 81102 333 20223;EQDQ01  00002PRCP99
0112532760999992000071809004+42400+112890FM-12+115299999V0201601N005010900019N0300001N1+03391+01561099491ADDGF107991021011012501001021MD1710101+9999REMSYN060AAXX  18091 53276 42680 71605 10339 20156 49949 57010 82102;
0163532760999992000071812004+42400+112890FM-12+115299999V0201601N006012200019N0300001N1+03131+01561099521ADDAA199000091GF103991001001999999001021MA1999999087461MD1210041+9999REMSYN066AAXX  18121 53276 32980 31606 10313 20156 38746 49952 52004 80002;EQDQ01  00002PRCP99
0122532760999992000071815004+42400+112890FM-12+115299999V0201801N005012200019N0300001N1+02711+01761099631ADDGA1001+999999999GF100991001001999999001001MD1210131+9999REMSYN054AAXX  18151 53276 42980 01805 10271 20176 49963 52013;
0196532760999992000071818004+42400+112890FM-12+115299999V0201801N005012200019N0300001N1+02531+01791099641ADDAA199000091GA1001+999999999GF100991001001999999001001KA1999M+03611MA1999999087611MD1210021+9999REMSYN070AAXX  18181 53276 32980 01805 10253 20179 38761 49964 52002 333 10361;EQDQ01  00002PRCP99
0112532760999992000071821004+42400+112890FM-12+115299999V0201601N004012200019N0200001N1+02291+01691099651ADDGF101991001001999999001021MD1710051+9999REMSYN060AAXX  18211 53276 42970 11604 10229 20169 49965 57005 80002;
0173532760999992000071900004+42400+112890FM-12+115299999V0202201N005012200019N0200001N1+02701+01701099701ADDAA199000091GF101991001001999999001021MA1999999087631MD1210071+0011REMSYN076AAXX  19001 53276 32970 12205 10270 20170 38763 49970 52007 80002 333 05101;EQDQ01  00002PRCP99
0112532760999992000071903004+42400+112890FM-12+115299999V0203201N004012200019N0300001N1+03321+01641099601ADDGF101991011011012501001001MD1710051+9999REMSYN060AAXX  19031 53276 42680 13204 10332 20164 49960 57005 81100;
0186532760999992000071906004+42400+112890FM-12+115299999V0201801N003012200019N0300001N1+03591+01501099451ADDAA199000091GF102991021021012501001001KA1999N+02291MA1999999087471MD1710111+9999REMSYN076AAXX  19061 53276 32680 21803 10359 20150 38747 49945 57011 82200 333 20229;EQDQ01  00002PRCP99
0112532760999992000071909004+42400+112890FM-12+115299999V0202001N003012200019N0300001N1+03581+01481099401ADDGF101991011011012501001001MD1710091+9999REMSYN060AAXX  19091 53276 42680 12003 10358 20148 49940 57009 81100;
0173532760999992000071912004+42400+112890FM-12+115299999V0202201N004012200019N0300001N1+03361+01411099401ADDAA199000091GA1001+999999999GF100991001001999999001001MA1999999087411MD1210031+9999REMSYN060AAXX  19121 53276 32980 02204 10336 20141 38741 49940 52003;EQDQ01  00002PRCP99
0122532760999992000071915004+42400+112890FM-12+115299999V0202001N006012200019N0300001N1+02901+01691099421ADDGA1001+999999999GF100991001001999999001001MD1210051+9999REMSYN054AAXX  19151 53276 42980 02006 10290 20169 49942 52005;
0196532760999992000071918004+42400+112890FM-12+115299999V0202201N005012200019N0300001N1+02811+01451099351ADDAA199000091GA1001+999999999GF100991001001999999001001KA1999M+03771MA1999999087431MD1710031+9999REMSYN070AAXX  19181 53276 32980 02205 10281 20145 38743 49935 57003 333 10377;EQDQ01  00002PRCP99
0112532760999992000071921004+42400+112890FM-12+115299999V0202501N003012200019N0300001N1+02691+01541099501ADDGF104991021001999999031021MD1210111+9999REMSYN060AAXX  19211 53276 42980 42503 10269 20154 49950 52011 82032;
0178532760999992000072000004+42400+112890FM-12+115299999V0203601N004010360019N0300001N1+02651+01781099781ADDAA106000791GF107991021091012501031021MA1999999087741MD1210201+0101MW1801REMSYN094AAXX  20001 53276 11680 73604 10265 20178 38774 49978 52020 69901 78000 82932 333 00151 79999;
0132532760999992000072003004+42400+112890FM-12+115299999V0202001N004012200019N0300001N1+02791+01941099851ADDAY181031GF103991031001999999031001MD1410001+9999MW1001REMSYN066AAXX  20031 53276 41980 32004 10279 20194 49985 54000 70080 83030;
0193532760999992000072006004+42400+112890FM-12+115299999V0203201N004012200019N0300001N1+03341+01821099711ADDAA106000391AY181061GF103991031011012501001001KA1999N+02411MA1999999087701MD1710041+9999MW1001REMSYN088AAXX  20061 53276 11680 33204 10334 20182 38770 49971 57004 69931 70080 83100 333 20241;
0112532760999992000072009004+42400+112890FM-12+115299999V0203401N003012200019N0300001N1+03421+01681099631ADDGF103991031011012501001001MD1710081+9999REMSYN060AAXX  20091 53276 42680 33403 10342 20168 49963 57008 83100;
0144532760999992000072012004+42400+112890FM-12+115299999V0209999C000012200019N0300001N1+03231+01521099711ADDAA199000021GF102991011021012501031021MA1999999087651MD1210031+9999REMSYN066AAXX  20121 53276 32680 20000 10323 20152 38765 49971 52003 81232;
0140532760999992000072015004+42400+112890FM-12+115299999V0201801N002010120019N0300001N1+02301+01781100051ADDAY191031AY281031GF107991071091012501001021MD1210151+9999MW1951REMSYN066AAXX  20151 53276 41680 71802 10230 20178 40005 52015 79598 87902;
0201532760999992000072018004+42400+112890FM-12+115299999V0209999C000010120019N0300001N1+02051+01841100111ADDAA106007191AY191061AY281061GF107991061091012501001021KA1999M+03581MA1999999087911MD1210111+9999MW1251REMSYN088AAXX  20181 53276 11680 70000 10205 20184 38791 40011 52011 60071 72598 86902 333 10358;
0153532760999992000072021004+42400+112890FM-12+115299999V0202901N002010360019N0300001N1+01781+01521100411ADDAA124008491AY181031GF108991031091012501011999MD1210231+9999MW1801REMSYN076AAXX  20211 53276 41680 82902 10178 20152 40041 52023 78080 8391/ 333 70083;
0194532760999992000072100004+42400+112890FM-12+115299999V0202201N006010360019N0300001N1+01541+01301100601ADDAA106005191AY181061AY261061GF108991031051012501021999MA1999999088221MD1210081+0501MW1211REMSYN094AAXX  21001 53276 11680 82206 10154 20130 38822 40060 52008 60051 72186 8352/ 333 00561 70118;
0132532760999992000072103004+42400+112890FM-12+115299999V0202501N002010120019N0300001N1+01851+01351100751ADDAY161031GF107991071051012501999999MD1210011+9999MW1001REMSYN066AAXX  21031 53276 41680 72502 10185 20135 40075 52001 70060 875//;
0193532760999992000072106004+42400+112890FM-12+115299999V0202901N005012200019N0300001N1+02291+01271100581ADDAA106000191AY161061GF101991011001999999031001KA1999N+01531MA1999999088121MD1710111+9999MW1001REMSYN088AAXX  21061 53276 11980 12905 10229 20127 38812 40058 57011 69911 70060 81030 333 20153;
0112532760999992000072109004+42400+112890FM-12+115299999V0202901N004012200019N0300001N1+02571+00981100421ADDGF102991021001999999031021MD1710141+9999REMSYN060AAXX  21091 53276 42980 22904 10257 20098 40042 57014 82032;
0144532760999992000072112004+42400+112890FM-12+115299999V0203201N004012200019N0300001N1+02411+00741100461ADDAA199000021GF101991011001999999031001MA1999999087941MD1710041+9999REMSYN066AAXX  21121 53276 32980 13204 10241 20074 38794 40046 57004 81030;
0122532760999992000072115004+42400+112890FM-12+115299999V0202901N002012200019N0300001N1+01991+00571100571ADDGA1001+999999999GF100991001001999999001001MD1210071+9999REMSYN054AAXX  21151 53276 42980 02902 10199 20057 40057 52007;
0186532760999992000072118004+42400+112890FM-12+115299999V0202201N003012200019N0300001N1+01701+00791100471ADDAA199000091GF101991011001999999031001KA1999M+02641MA1999999087961MD1710051+9999REMSYN076AAXX  21181 53276 32980 12203 10170 20079 38796 40047 57005 81030 333 10264;EQDQ01  00002PRCP99
0143532760999992000072121004+42400+112890FM-12+115299999V0209999C000012200019N0300001N1+01481+00741100541ADDAA124003691GA1001+999999999GF100991001001999999001001MD1210071+9999REMSYN064AAXX  21211 53276 42980 00000 10148 20074 40054 52007 333 70036;
0170532760999992000072200004+42400+112890FM-12+115299999V0209999C000012200019N0300001N1+01891+00821100551ADDAA124000191GA1001+999999999GF100991001001999999001001MA1999999088091MD1210061-0101REMSYN076AAXX  22001 53276 32980 00000 10189 20082 38809 40055 52006 333 05104 70001;
0122532760999992000072203004+42400+112890FM-12+115299999V0203601N005012200019N0300001N1+02321+00681100531ADDGA1001+999999999GF100991001001999999001001MD1710021+9999REMSYN054AAXX  22031 53276 42980 03605 10232 20068 40053 57002;
0186532760999992000072206004+42400+112890FM-12+115299999V0203201N007012200019N0300001N1+02651+00371100331ADDAA199000091GF101991001001999999001021KA1999N+01311MA1999999087901MD1710171+9999REMSYN076AAXX  22061 53276 32980 13207 10265 20037 38790 40033 57017 80002 333 20131;EQDQ01  00002PRCP99
0112532760999992000072209004+42400+112890FM-12+115299999V0203201N007012200019N0300001N1+02741+00081100241ADDGF101991001001999999001021MD1710101+9999REMSYN060AAXX  22091 53276 42980 13207 10274 20008 40024 57010 80002;
0163532760999992000072212004+42400+112890FM-12+115299999V0203201N003012200019N0300001N1+02491+00161100221ADDAA199000091GF101991011001999999031021MA1999999087811MD1210011+9999REMSYN066AAXX  22121 53276 32980 13203 10249 20016 38781 40022 52001 81032;EQDQ01  00002PRCP99
0112532760999992000072215004+42400+112890FM-12+115299999V0202901N002012200019N0300001N1+02051+00421100251ADDGF101991001001999999001021MD1210031+9999REMSYN060AAXX  22151 53276 42980 12902 10205 20042 40025 52003 80002;
0196532760999992000072218004+42400+112890FM-12+115299999V0202201N003012200019N0300001N1+01741+00571100201ADDAA199000091GA1001+999999999GF100991001001999999001001KA1999M+02761MA1999999087801MD1710041+9999REMSYN070AAXX  22181 53276 32980 02203 10174 20057 38780 40020 57004 333 10276;EQDQ01  00002PRCP99
0112532760999992000072221004+42400+112890FM-12+115299999V0202201N002012200019N0300001N1+01601+00501100171ADDGF103991011051017501031001MD1710041+9999REMSYN060AAXX  22211 53276 42780 32202 10160 20050 40017 57004 81530;
0173532760999992000072300004+42400+112890FM-12+115299999V0202701N002012200019N0300001N1+02041+00591100171ADDAA199000091GF101991011001999999031021MA1999999087801MD1210041+0031REMSYN076AAXX  23001 53276 32980 12702 10204 20059 38780 40017 52004 81032 333 05302;EQDQ01  00002PRCP99
0112532760999992000072303004+42400+112890FM-12+115299999V0203401N003012200019N0300001N1+02521+00551100151ADDGF101991011011012501001021MD1710011+9999REMSYN060AAXX  23031 53276 42680 13403 10252 20055 40015 57001 81102;
0186532760999992000072306004+42400+112890FM-12+115299999V0203601N007012200019N0300001N1+02691+00381100091ADDAA199000091GF101991011011012501001021KA1999N+01461MA1999999087711MD1710081+9999REMSYN076AAXX  23061 53276 32680 13607 10269 20038 38771 40009 57008 81102 333 20146;EQDQ01  00002PRCP99
0112532760999992000072309004+42400+112890FM-12+115299999V0203401N006012200019N0300001N1+02731+00171100031ADDGF103991011001999999031021MD1710071+9999REMSYN060AAXX  23091 53276 42980 33406 10273 20017 40003 57007 81032;
0163532760999992000072312004+42400+112890FM-12+115299999V0203401N002012200019N0300001N1+02421+00251100051ADDAA199000091GF102991021001999999031021MA1999999087681MD1210041+9999REMSYN066AAXX  23121 53276 32980 23402 10242 20025 38768 40005 52004 82032;EQDQ01  00002PRCP99
0122532760999992000072315004+42400+112890FM-12+115299999V0209999C000012200019N0300001N1+01881+00691100141ADDGA1001+999999999GF100991001001999999001001MD1210071+9999REMSYN054AAXX  23151 53276 42980 00000 10188 20069 40014 52007;
0196532760999992000072318004+42400+112890FM-12+115299999V0209999C000012200019N0300001N1+01641+00621100201ADDAA199000091GA1001+999999999GF100991001001999999001001KA1999M+02821MA1999999087791MD1210041+9999REMSYN070AAXX  23181 53276 32980 00000 10164 20062 38779 40020 52004 333 10282;EQDQ01  00002PRCP99
0112532760999992000072321004+42400+112890FM-12+115299999V0209999C000012200019N0300001N1+01531+00451100321ADDGF101991001001999999001021MD1210091+9999REMSYN060AAXX  23211 53276 42980 10000 10153 20045 40032 52009 80002;
0173532760999992000072400004+42400+112890FM-12+115299999V0202201N002019999999N0300001N1+01991+00691100381ADDAA199000091GF105991001001999999001021MA1999999087961MD1210081+0021REMSYN076AAXX  24001 53276 32980 52202 10199 20069 38796 40038 52008 80002 333 00251;EQDQ01  00002PRCP99
0112532760999992000072403004+42400+112890FM-12+115299999V0209999C000012200019N0300001N1+02591+00581100371ADDGF102991001001999999001021MD1410001+9999REMSYN060AAXX  24031 53276 42980 20000 10259 20058 40037 54000 80002;
0186532760999992000072406004+42400+112890FM-12+115299999V0209999C000012200019N0300001N1+02821+00681100201ADDAA199000091GF102991001001999999001021KA1999N+01421MA1999999087811MD1710151+9999REMSYN076AAXX  24061 53276 32980 20000 10282 20068 38781 40020 57015 80002 333 20142;EQDQ01  00002PRCP99
0112532760999992000072409004+42400+112890FM-12+115299999V0200201N001019999999N0300001N1+02821+00561100131ADDGF107991061001999999031021MD1710081+9999REMSYN060AAXX  24091 53276 42980 70201 10282 20056 40013 57008 86032;
0163532760999992000072412004+42400+112890FM-12+115299999V0209999C000019999999N0300001N1+02571+00721100061ADDAA199000091GF107991061001999999031021MA1999999087711MD1710021+9999REMSYN066AAXX  24121 53276 32980 70000 10257 20072 38771 40006 57002 86032;EQDQ01  00002PRCP99
0112532760999992000072415004+42400+112890FM-12+115299999V0209999C000019999999N0300001N1+02441+00911099991ADDGF107991071001999999031999MD1210031+9999REMSYN060AAXX  24151 53276 42980 70000 10244 20091 49999 52003 8703/;
0186532760999992000072418004+42400+112890FM-12+115299999V0201601N002010360019N0300001N1+02151+00731099931ADDAA199000091GF106991011051017501031001KA1999M+02901MA1999999087671MD1710071+9999REMSYN076AAXX  24181 53276 32780 61602 10215 20073 38767 49993 57007 81530 333 10290;EQDQ01  00002PRCP99
0112532760999992000072421004+42400+112890FM-12+115299999V0201801N001012200019N0300001N1+01831+00901100001ADDGF101991011001999999031001MD1410001+9999REMSYN060AAXX  24211 53276 42980 11801 10183 20090 40000 54000 81030;
0173532760999992000072500004+42400+112890FM-12+115299999V0201801N002012200019N0300001N1+02291+01021100031ADDAA199000091GF101991011001999999031001MA1999999087741MD1210071+0021REMSYN076AAXX  25001 53276 32980 11802 10229 20102 38774 40003 52007 81030 333 05203;EQDQ01  00002PRCP99
0112532760999992000072503004+42400+112890FM-12+115299999V0209999C000012200019N0300001N1+03021+00581099881ADDGF101991011001999999031001MD1710021+9999REMSYN060AAXX  25031 53276 42980 10000 10302 20058 49988 57002 81030;
0186532760999992000072506004+42400+112890FM-12+115299999V0209999C000012200019N0300001N1+03271+00761099731ADDAA199000091GF101991001001999999001021KA1999N+01751MA1999999087581MD1710141+9999REMSYN076AAXX  25061 53276 32980 10000 10327 20076 38758 49973 57014 80002 333 20175;EQDQ01  00002PRCP99
0112532760999992000072509004+42400+112890FM-12+115299999V0209999C000012200019N0300001N1+03271+00641099671ADDGF101991011001999999031021MD1710111+9999REMSYN060AAXX  25091 53276 42980 10000 10327 20064 49967 57011 81032;
0163532760999992000072512004+42400+112890FM-12+115299999V0200401N001012200019N0300001N1+02951+00871099621ADDAA199000091GF101991011001999999031021MA1999999087451MD1710021+9999REMSYN066AAXX  25121 53276 32980 10401 10295 20087 38745 49962 57002 81032;EQDQ01  00002PRCP99
0122532760999992000072515004+42400+112890FM-12+115299999V0201601N001012200019N0300001N1+02521+00841099611ADDGA1001+999999999GF100991001001999999001001MD1210051+9999REMSYN054AAXX  25151 53276 42980 01601 10252 20084 49961 52005;
0196532760999992000072518004+42400+112890FM-12+115299999V0201801N004012200019N0300001N1+02431+00901099511ADDAA199000091GA1001+999999999GF100991001001999999001001KA1999M+03361MA1999999087441MD1710061+9999REMSYN070AAXX  25181 53276 32980 01804 10243 20090 38744 49951 57006 333 10336;EQDQ01  00002PRCP99
0112532760999992000072521004+42400+112890FM-12+115299999V0202201N003012200019N0300001N1+02131+01111099591ADDGF101991011001999999031001MD1210021+9999REMSYN060AAXX  25211 53276 42980 12203 10213 20111 49959 52002 81030;
0173532760999992000072600004+42400+112890FM-12+115299999V0202201N006012200019N0250001N1+02761+01591099551ADDAA199000091GF104991041001999999031021MA1999999087481MD1210021+0031REMSYN076AAXX  26001 53276 32975 42206 10276 20159 38748 49955 52002 84032 333 05305;EQDQ01  00002PRCP99
0112532760999992000072603004+42400+112890FM-12+115299999V0202701N005019999999N0300001N1+03331+01301099491ADDGF106991031001999999031021MD1710031+9999REMSYN060AAXX  26031 53276 42980 62705 10333 20130 49949 57003 83032;
0186532760999992000072606004+42400+112890FM-12+115299999V0202201N004010900019N0300001N1+03601+00921099271ADDAA199000091GF105991011011012501001021KA1999N+02041MA1999999087291MD1710161+9999REMSYN076AAXX  26061 53276 32680 52204 10360 20092 38729 49927 57016 81102 333 20204;EQDQ01  00002PRCP99
0112532760999992000072609004+42400+112890FM-12+115299999V0202001N003010360019N0300001N1+03511+01421099201ADDGF107991021011012501031021MD1710131+9999REMSYN060AAXX  26091 53276 42680 72003 10351 20142 49920 57013 82132;
0163532760999992000072612004+42400+112890FM-12+115299999V0202201N007010360019N0300001N1+03201+01521099101ADDAA199000091GF106991021091012501031021MA1999999087131MD1710031+9999REMSYN066AAXX  26121 53276 32680 62207 10320 20152 38713 49910 57003 82932;EQDQ01  00002PRCP99
0112532760999992000072615004+42400+112890FM-12+115299999V0202201N007010120019N0300001N1+03001+01561098961ADDGF107991061091012501001021MD1710061+9999REMSYN060AAXX  26151 53276 42680 72207 10300 20156 49896 57006 86902;
0216532760999992000072618004+42400+112890FM-12+115299999V0202901N007010120019N0150001N1+02411+01381099141ADDAA106000791AY161061GF107991061051012501001021KA1240M+03771MA1999999087171MD1210101+9999MW1601OA130601801REMSYN100AAXX  26181 53276 11665 72907 10241 20138 38717 49914 52010 69901 76060 86502 333 10377 91118 91536;
0153532760999992000072621004+42400+112890FM-12+115299999V0202701N010010120019N0300001N1+02241+01621099301ADDAA124000791AY161031GF107991051051012501001021MD1210101+9999MW1001REMSYN076AAXX  26211 53276 41680 72710 10224 20162 49930 52010 70060 85502 333 79999;
0186532760999992000072700004+42400+112890FM-12+115299999V0202901N006010120019N0250001N1+01981+01811099601ADDAA106000391AY161061GF107991071051012501999999MA1999999087421MD1210151-0101MW1601REMSYN094AAXX  27001 53276 11675 72906 10198 20181 38742 49960 52015 69931 76060 875// 333 05158 70003;
0132532760999992000072703004+42400+112890FM-12+115299999V0202701N008010360019N0300001N1+02431+01711099581ADDAY161031GF107991011011012501031999MD1210031+9999MW1001REMSYN066AAXX  27031 53276 41680 72708 10243 20171 49958 52003 70060 8113/;
0193532760999992000072706004+42400+112890FM-12+115299999V0203401N008010360019N0300001N1+02821+01401099591ADDAA106000191AY161061GF107991031091012501031999KA1999N+01961MA1999999087421MD1710031+9999MW1001REMSYN088AAXX  27061 53276 11680 73408 10282 20140 38742 49959 57003 69911 70060 8393/ 333 20196;
0112532760999992000072709004+42400+112890FM-12+115299999V0203201N007012200019N0300001N1+03011-00112099681ADDGF101991001001999999001021MD1210091+9999REMSYN060AAXX  27091 53276 42980 13207 10301 21011 49968 52009 80002;
0181532760999992000072712004+42400+112890FM-12+115299999V0203401N008012200019N0300001N1+02571+00001100011ADDAA199000021GA1001+999999999GF100991001001999999001001MA1999999087661MD1210151+9999OA130601701REMSYN076AAXX  27121 53276 32980 03408 10257 20000 38766 40001 52015 333 91117 91536;
0122532760999992000072715004+42400+112890FM-12+115299999V0203401N001012200019N0300001N1+02021+00031100301ADDGA1001+999999999GF100991001001999999001001MD1210241+9999REMSYN054AAXX  27151 53276 42980 03401 10202 20003 40030 52024;
0196532760999992000072718004+42400+112890FM-12+115299999V0209999C000012200019N0300001N1+01621+00071100441ADDAA199000091GA1001+999999999GF100991001001999999001001KA1999M+03151MA1999999088021MD1210121+9999REMSYN070AAXX  27181 53276 32980 00000 10162 20007 38802 40044 52012 333 10315;EQDQ01  00002PRCP99
0133532760999992000072721004+42400+112890FM-12+115299999V0202201N004012200019N0300001N1+01441+00031100501ADDAA124000591GF101991011001999999031001MD1210051+9999REMSYN070AAXX  27211 53276 42980 12204 10144 20003 40050 52005 81030 333 70004;
0160532760999992000072800004+42400+112890FM-12+115299999V0202701N004012200019N0300001N1+01901+00201100561ADDAA124000191GF101991011001999999031001MA1999999088131MD1210061+0701REMSYN082AAXX  28001 53276 32980 12704 10190 20020 38813 40056 52006 81030 333 00751 70001;
0112532760999992000072803004+42400+112890FM-12+115299999V0202201N006012200019N0300001N1+02301-00351100611ADDGF101991011001999999031001MD1210011+9999REMSYN060AAXX  28031 53276 42980 12206 10230 21035 40061 52001 81030;
0186532760999992000072806004+42400+112890FM-12+115299999V0202701N008010360019N0300001N1+02511-00361100441ADDAA199000091GF107991021011012501031021KA1999N+01221MA1999999087961MD1710181+9999REMSYN076AAXX  28061 53276 32680 72708 10251 21036 38796 40044 57018 82132 333 20122;EQDQ01  00002PRCP99
0112532760999992000072809004+42400+112890FM-12+115299999V0202701N008010360019N0300001N1+02411-00481100431ADDGF107991041041012501031021MD1710071+9999REMSYN060AAXX  28091 53276 42680 72708 10241 21048 40043 57007 84432;
0163532760999992000072812004+42400+112890FM-12+115299999V0202201N008010360019N0300001N1+02241+00331100261ADDAA199000091GF107991021051012501031021MA1999999087801MD1710091+9999REMSYN066AAXX  28121 53276 32680 72208 10224 20033 38780 40026 57009 82532;EQDQ01  00002PRCP99
0112532760999992000072815004+42400+112890FM-12+115299999V0202201N007012200019N0300001N1+01991+00411100161ADDGF102991021051012501001021MD1710061+9999REMSYN060AAXX  28151 53276 42680 22207 10199 20041 40016 57006 82502;
0186532760999992000072818004+42400+112890FM-12+115299999V0202701N007012200019N0300001N1+01841+00451100091ADDAA199000091GF103991001001999999001021KA1999M+02641MA1999999087691MD1710051+9999REMSYN076AAXX  28181 53276 32980 32707 10184 20045 38769 40009 57005 80002 333 10264;EQDQ01  00002PRCP99
0112532760999992000072821004+42400+112890FM-12+115299999V0202901N005010360019N0300001N1+01631+00271100101ADDGF107991021051012501031021MD1710051+9999REMSYN060AAXX  28211 53276 42680 72905 10163 20027 40010 57005 82532;
0173532760999992000072900004+42400+112890FM-12+115299999V0202701N008012200019N0300001N1+01581+00441100201ADDAA199000091GF101991001001999999001021MA1999999087691MD1210051+0041REMSYN076AAXX  29001 53276 32980 12708 10158 20044 38769 40020 52005 80002 333 05453;EQDQ01  00002PRCP99
0112532760999992000072903004+42400+112890FM-12+115299999V0202701N010010120019N0300001N1+01651+00571100301ADDGF107991071011012501001021MD1210051+9999REMSYN060AAXX  29031 53276 42680 72710 10165 20057 40030 52005 87102;
0186532760999992000072906004+42400+112890FM-12+115299999V0203201N011010120019N0300001N1+01781+00811100261ADDAA199000091GF107991061021012501001021KA1999N+01471MA1999999087701MD1710041+9999REMSYN076AAXX  29061 53276 32680 73211 10178 20081 38770 40026 57004 86202 333 20147;EQDQ01  00002PRCP99
0132532760999992000072909004+42400+112890FM-12+115299999V0203401N007010120019N0300001N1+01861+01101100271ADDAY181031GF107991061011012501031021MD1710021+9999MW1001REMSYN066AAXX  29091 53276 41680 73407 10186 20110 40027 57002 70080 86132;
0170532760999992000072912004+42400+112890FM-12+115299999V0203601N001010120019N0300001N1+01611+01311100451ADDAA106000191AY181061GF106991061091012501001001MA1999999087781MD1210101+9999MW1251REMSYN078AAXX  29121 53276 11680 63601 10161 20131 38778 40045 52010 69921 72580 86900;
0112532760999992000072915004+42400+112890FM-12+115299999V0202701N006012200019N0300001N1+01601+01011100441ADDGF101991011051012501001001MD1410001+9999REMSYN060AAXX  29151 53276 42680 12706 10160 20101 40044 54000 81500;
0167532760999992000072918004+42400+112890FM-12+115299999V0202901N003012200019N0300001N1+01521+00961100441ADDAA199000021GF101991011051012501001001KA1999M+02061MA1999999087791MD1210011+9999REMSYN076AAXX  29181 53276 32680 12903 10152 20096 38779 40044 52001 81500 333 10206;
0143532760999992000072921004+42400+112890FM-12+115299999V0203601N002012200019N0300001N1+01241+00781100501ADDAA124000391GA1001+999999999GF100991001001999999001001MD1210011+9999REMSYN064AAXX  29211 53276 42980 03602 10124 20078 40050 52001 333 70002;
0160532760999992000073000004+42400+112890FM-12+115299999V0202501N005012200019N0300001N1+01731+00811100491ADDAA124000391GF101991001001999999001021MA1999999087841MD1210041+0201REMSYN082AAXX  30001 53276 32980 12505 10173 20081 38784 40049 52004 80002 333 00202 70002;
0112532760999992000073003004+42400+112890FM-12+115299999V0203401N008012200019N0300001N1+02131+00841100421ADDGF104991041011012501001001MD1210021+9999REMSYN060AAXX  30031 53276 42680 43408 10213 20084 40042 52002 84100;
0186532760999992000073006004+42400+112890FM-12+115299999V0203401N007010120019N0300001N1+02491+00671100241ADDAA199000091GF105991051021012501001001KA1999N+01191MA1999999087761MD1710101+9999REMSYN076AAXX  30061 53276 32680 53407 10249 20067 38776 40024 57010 85200 333 20119;EQDQ01  00002PRCP99
0112532760999992000073009004+42400+112890FM-12+115299999V0202901N006012200019N0300001N1+02551+00461100171ADDGF104991041011012501001001MD1710111+9999REMSYN060AAXX  30091 53276 42680 42906 10255 20046 40017 57011 84100;
0163532760999992000073012004+42400+112890FM-12+115299999V0202901N004012200019N0300001N1+02291+00271100131ADDAA199000091GF101991011041012501001001MA1999999087661MD1210011+9999REMSYN066AAXX  30121 53276 32680 12904 10229 20027 38766 40013 52001 81400;EQDQ01  00002PRCP99
0112532760999992000073015004+42400+112890FM-12+115299999V0202701N003012200019N0300001N1+01741+00331100301ADDGF101991011001999999031001MD1210121+9999REMSYN060AAXX  30151 53276 42980 12703 10174 20033 40030 52012 81030;
0196532760999992000073018004+42400+112890FM-12+115299999V0203601N005012200019N0300001N1+01531+00151100221ADDAA199000091GA1001+999999999GF100991001001999999001001KA1999M+02641MA1999999087741MD1710041+9999REMSYN070AAXX  30181 53276 32980 03605 10153 20015 38774 40022 57004 333 10264;EQDQ01  00002PRCP99
0122532760999992000073021004+42400+112890FM-12+115299999V0202201N005012200019N0300001N1+01391+00201100271ADDGA1001+999999999GF100991001001999999001001MD1210031+9999REMSYN054AAXX  30211 53276 42980 02205 10139 20020 40027 52003;
0173532760999992000073100004+42400+112890FM-12+115299999V0202201N005012200019N0300001N1+01971+00231100291ADDAA199000091GF101991001001999999001021MA1999999087851MD1210081+0001REMSYN076AAXX  31001 53276 32980 12205 10197 20023 38785 40029 52008 80002 333 00002;EQDQ01  00002PRCP99
0112532760999992000073103004+42400+112890FM-12+115299999V0203401N003012200019N0300001N1+02551+00311100211ADDGF101991011001999999031021MD1710061+9999REMSYN060AAXX  31031 53276 42980 13403 10255 20031 40021 57006 81032;
0186532760999992000073106004+42400+112890FM-12+115299999V0203401N005012200019N0300001N1+02851+00141100081ADDAA199000091GF102991021011012501001021KA1999N+01341MA1999999087691MD1710101+9999REMSYN076AAXX  31061 53276 32680 23405 10285 20014 38769 40008 57010 82102 333 20134;EQDQ01  00002PRCP99
0112532760999992000073109004+42400+112890FM-12+115299999V0203201N004012200019N0300001N1+02921+00111100001ADDGF102991021011012501001001MD1710081+9999REMSYN060AAXX  31091 53276 42680 23204 10292 20011 40000 57008 82100;
0163532760999992000073112004+42400+112890FM-12+115299999V0200201N002012200019N0300001N1+02491+00291100031ADDAA199000091GF101991011051012501001021MA1999999087661MD1210051+9999REMSYN066AAXX  31121 53276 32680 10202 10249 20029 38766 40003 52005 81502;EQDQ01  00002PRCP99
0122532760999992000073115004+42400+112890FM-12+115299999V0201801N002012200019N0300001N1+02031+00391100181ADDGA1001+999999999GF100991001001999999001001MD1210161+9999REMSYN054AAXX  31151 53276 42980 01802 10203 20039 40018 52016;
0195532760999992000073118004+42400+112890FM-12+115299999V0209999C000012200019N0300001N1+01711+00601100211ADDAA199000091GA1001+999999999GF100991001001999999001001KA1999M+02991MA1999999087841MD1210021+9999REMSYN069AAXX  31181 53276 32980 0000010171 20060 38784 40021 52002 333 10299;EQDQ01  00002PRCP99
0112532760999992000073121004+42400+112890FM-12+115299999V0203601N002012200019N0300001N1+01481+00461100341ADDGF101991011001999999031001MD1210081+9999REMSYN060AAXX  31211 53276 42980 13602 10148 20046 40034 52008 81030;
0173532760999992000080100004+42400+112890FM-12+115299999V0209999C000012200019N0300001N1+02021+00691100391ADDAA199000091GF102991001001999999001021MA1999999087991MD1210071+0011REMSYN076AAXX  01001 53276 32980 20000 10202 20069 38799 40039 52007 80002 333 00101;EQDQ01  00002PRCP99
0112532760999992000080103004+42400+112890FM-12+115299999V0200701N003019999999N0300001N1+02711+00541100331ADDGF106991001001999999001021MD1710011+9999REMSYN060AAXX  01031 53276 42980 60703 10271 20054 40033 57001 80002;
0186532760999992000080106004+42400+112890FM-12+115299999V0200201N003010900019N0300001N1+03031+00341100221ADDAA199000091GF107991011021012501001081KA1999N+01401MA1999999087881MD1710101+9999REMSYN076AAXX  01061 53276 32680 70203 10303 20034 38788 40022 57010 81208 333 20140;EQDQ01  00002PRCP99
0112532760999992000080109004+42400+112890FM-12+115299999V0200201N002010900019N0300001N1+02971+00221100221ADDGF107991021091012501001081MD1710051+9999REMSYN060AAXX  01091 53276 42680 70202 10297 20022 40022 57005 82908;
0163532760999992000080112004+42400+112890FM-12+115299999V0202501N004010120019N0300001N1+02511+00441100371ADDAA199000091GF107991051091012501031081MA1999999087971MD1210141+9999REMSYN066AAXX  01121 53276 32680 72504 10251 20044 38797 40037 52014 85938;EQDQ01  00002PRCP99
0112532760999992000080115004+42400+112890FM-12+115299999V0202501N004010360019N0300001N1+02251+00701100501ADDGF108991041051012501011999MD1210201+9999REMSYN060AAXX  01151 53276 42680 82504 10225 20070 40050 52020 8451/;
0186532760999992000080118004+42400+112890FM-12+115299999V0202501N002010120019N0300001N1+02131+00751100401ADDAA199000091GF107991051051012501001081KA1999M+03151MA1999999088121MD1710051+9999REMSYN076AAXX  01181 53276 32680 72502 10213 20075 38812 40040 57005 85508 333 10315;EQDQ01  00002PRCP99
0145532760999992000080121004+42400+112890FM-12+115299999V0201601N006010360019N0300001N1+02071+00731100441ADDAA124000791GF108991031051012501011999MD1210011+9999MW1601REMSYN076AAXX  01211 53276 41680 81606 10207 20073 40044 52001 76000 8351/ 333 79999;
0194532760999992000080200004+42400+112890FM-12+115299999V0209999C000010120019N0200001N1+01631+01271100721ADDAA106001091AY181061AY261061GF107991061091012501001081MA1999999088201MD1210071+0201MW1801REMSYN094AAXX  02001 53276 11670 70000 10163 20127 38820 40072 52007 60011 78086 86908 333 00254 70011;
0112532760999992000080203004+42400+112890FM-12+115299999V0201601N007010120019N0300001N1+02221+00991100531ADDGF106991061091012501031001MD1710101+9999REMSYN060AAXX  02031 53276 42680 61607 10222 20099 40053 57010 86930;
0201532760999992000080206004+42400+112890FM-12+115299999V0209999C000010120019N0300001N1+02161+01251100371ADDAA106002091AY191061AY281061GF107991061091012501031021KA1999N+01551MA1999999087931MD1710171+9999MW1171REMSYN088AAXX  02061 53276 11680 70000 10216 20125 38793 40037 57017 60021 71798 86932 333 20155;
0140532760999992000080209004+42400+112890FM-12+115299999V0200201N009010120019N0300001N1+01681+01241100461ADDAY191031AY281031GF107991061091012501001021MD1710031+9999MW1911REMSYN066AAXX  02091 53276 41680 70209 10168 20124 40046 57003 79198 86902;
0178532760999992000080212004+42400+112890FM-12+115299999V0201101N009010120019N0250001N1+01771+01171100701ADDAA106005191AY191061AY281061GF107991071091012501999999MA1999999088041MD1210141+9999MW1801REMSYN078AAXX  02121 53276 11675 71109 10177 20117 38804 40070 52014 60051 78098 879//;
0132532760999992000080215004+42400+112890FM-12+115299999V0201601N009010120019N0250001N1+01791+01111100491ADDAY181031GF107991071091012501999999MD1710061+9999MW1001REMSYN066AAXX  02151 53276 41675 71609 10179 20111 40049 57006 70080 879//;
0193532760999992000080218004+42400+112890FM-12+115299999V0201601N009012200019N0300001N1+01731+01021100551ADDAA106000791AY181061GF102991021091012501001021KA1999M+02761MA1999999088011MD1210031+9999MW1001REMSYN088AAXX  02181 53276 11680 21609 10173 20102 38801 40055 52003 69901 70080 82902 333 10276;
0133532760999992000080221004+42400+112890FM-12+115299999V0201601N007012200019N0250001N1+01631+01181100691ADDAA124007691GF102991021001999999031021MD1410001+9999REMSYN070AAXX  02211 53276 42975 21607 10163 20118 40069 54000 82032 333 70077;
0160532760999992000080300004+42400+112890FM-12+115299999V0201601N007012200019N0300001N1+02021+01231100621ADDAA124006691GF101991011001999999031001MA1999999088051MD1210041-0201REMSYN082AAXX  03001 53276 32980 11607 10202 20123 38805 40062 52004 81030 333 05204 70066;
0112532760999992000080303004+42400+112890FM-12+115299999V0202201N007012200019N0300001N1+02711+01231100501ADDGF101991011011012501031001MD1210031+9999REMSYN060AAXX  03031 53276 42680 12207 10271 20123 40050 52003 81130;
0186532760999992000080306004+42400+112890FM-12+115299999V0202201N006010900019N0300001N1+03061+00891100291ADDAA199000091GF106991021091012501001021KA1999N+01541MA1999999087951MD1710131+9999REMSYN076AAXX  03061 53276 32680 62206 10306 20089 38795 40029 57013 82902 333 20154;EQDQ01  00002PRCP99
0140532760999992000080309004+42400+112890FM-12+115299999V0202201N009010900019N0300001N1+02791+00761100391ADDAY191031AY281031GF107991021091012501001021MD1210021+9999MW1001REMSYN066AAXX  03091 53276 41680 72209 10279 20076 40039 52002 70098 82902;
0205532760999992000080312004+42400+112890FM-12+115299999V0201801N006012200019N0300001N1+02281+01091100571ADDAA106000791AY191061AY281061GF104991021041012501001021MA1999999088101MD1210131+9999MW1001OA130601801REMSYN094AAXX  03121 53276 11680 41806 10228 20109 38810 40057 52013 69901 70098 82402 333 91118 91518;
0122532760999992000080315004+42400+112890FM-12+115299999V0203601N005012200019N0300001N1+01941+01251100581ADDGA1001+999999999GF100991001001999999001001MD1210081+9999REMSYN054AAXX  03151 53276 42980 03605 10194 20125 40058 52008;
0196532760999992000080318004+42400+112890FM-12+115299999V0201801N006012200019N0300001N1+01941+01111100541ADDAA199000091GA1001+999999999GF100991001001999999001001KA1999M+03111MA1999999088211MD1210031+9999REMSYN070AAXX  03181 53276 32980 01806 10194 20111 38821 40054 52003 333 10311;EQDQ01  00002PRCP99
0133532760999992000080321004+42400+112890FM-12+115299999V0201801N004012200019N0300001N1+01821+01091100711ADDAA124000791GF101991011001999999031021MD1210081+9999REMSYN070AAXX  03211 53276 42980 11804 10182 20109 40071 52008 81032 333 79999;
0170532760999992000080400004+42400+112890FM-12+115299999V0201801N005012200019N0300001N1+02191+01241100841ADDAA124000791GA1001+999999999GF100991001001999999001001MA1999999088371MD1210081+0301REMSYN076AAXX  04001 53276 32980 01805 10219 20124 38837 40084 52008 333 00302 79999;
0112532760999992000080403004+42400+112890FM-12+115299999V0202501N002012200019N0300001N1+02791+01291100811ADDGF101991001001999999001021MD1210031+9999REMSYN060AAXX  04031 53276 42980 12502 10279 20129 40081 52003 80002;
0186532760999992000080406004+42400+112890FM-12+115299999V0202001N002010900019N0300001N1+03081+01191100681ADDAA199000091GF107991021021012501001021KA1999N+01661MA1999999088341MD1710061+9999REMSYN076AAXX  04061 53276 32680 72002 10308 20119 38834 40068 57006 82202 333 20166;EQDQ01  00002PRCP99
0112532760999992000080409004+42400+112890FM-12+115299999V0201801N004010900019N0300001N1+03011+01631100651ADDGF107991041091012501001021MD1710061+9999REMSYN060AAXX  04091 53276 42680 71804 10301 20163 40065 57006 84902;
0178532760999992000080412004+42400+112890FM-12+115299999V0200701N006010120019N0200001N1+02051+01521101021ADDAA106009991AY191061AY281061GF108991061091012501001071MA1999999088491MD1210211+9999MW1911REMSYN078AAXX  04121 53276 11670 80706 10205 20152 38849 40102 52021 60101 79198 86907;
0132532760999992000080415004+42400+112890FM-12+115299999V0202201N004019999999N0300001N1+02251+01391100831ADDAY181031GF106991001001999999001021MD1710011+9999MW1001REMSYN066AAXX  04151 53276 41980 62204 10225 20139 40083 57001 70080 80002;
0193532760999992000080418004+42400+112890FM-12+115299999V0202001N002012200019N0300001N1+01991+01421100851ADDAA106000191AY181061GF101991001001999999001021KA1999M+03171MA1999999088501MD1210021+9999MW1001REMSYN088AAXX  04181 53276 11980 12002 10199 20142 38850 40085 52002 69921 70080 80002 333 10317;
0133532760999992000080421004+42400+112890FM-12+115299999V0202001N001012200019N0200001N1+01871+01371100931ADDAA124010491GF102991001001999999001021MD1210031+9999REMSYN070AAXX  04211 53276 42970 22001 10187 20137 40093 52003 80002 333 70103;
0160532760999992000080500004+42400+112890FM-12+115299999V0201801N003019999999N0150001N1+01991+01441101211ADDAA124010491GF107991051001999999031021MA1999999088611MD1210081+0201REMSYN082AAXX  05001 53276 32965 71803 10199 20144 38861 40121 52008 85032 333 00252 70103;
0112532760999992000080503004+42400+112890FM-12+115299999V0202201N003019999999N0120001N1+02491+01421100991ADDGF107991041001999999031021MD1710051+9999REMSYN060AAXX  05031 53276 42962 72203 10249 20142 40099 57005 84032;
0186532760999992000080506004+42400+112890FM-12+115299999V0201401N006019999999N0150001N1+02641+01381100951ADDAA199000091GF107991021001999999031021KA1999N+01671MA1999999088501MD1710061+9999REMSYN076AAXX  05061 53276 32965 71406 10264 20138 38850 40095 57006 82032 333 20167;EQDQ01  00002PRCP99
0112532760999992000080509004+42400+112890FM-12+115299999V0201401N005012200019N0300001N1+02761+00881100791ADDGF102991021001999999031001MD1710141+9999REMSYN060AAXX  05091 53276 42980 21405 10276 20088 40079 57014 82030;
0163532760999992000080512004+42400+112890FM-12+115299999V0201801N002012200019N0300001N1+02391+00981100841ADDAA199000091GF101991011001999999031001MA1999999088361MD1410001+9999REMSYN066AAXX  05121 53276 32980 11802 10239 20098 38836 40084 54000 81030;EQDQ01  00002PRCP99
0112532760999992000080515004+42400+112890FM-12+115299999V0202001N004012200019N0300001N1+02061+01061100911ADDGF101991001001999999001021MD1210091+9999REMSYN060AAXX  05151 53276 42980 12004 10206 20106 40091 52009 80002;
0196532760999992000080518004+42400+112890FM-12+115299999V0202001N003012200019N0300001N1+01921+01091100931ADDAA199000091GA1001+999999999GF100991001001999999001001KA1999M+02861MA1999999088471MD1210021+9999REMSYN070AAXX  05181 53276 32980 02003 10192 20109 38847 40093 52002 333 10286;EQDQ01  00002PRCP99
0112532760999992000080521004+42400+112890FM-12+115299999V0202001N003012200019N0300001N1+01771+01261100901ADDGF102991021001999999031001MD1710031+9999REMSYN060AAXX  05211 53276 42980 22003 10177 20126 40090 57003 82030;
0173532760999992000080600004+42400+112890FM-12+115299999V0209999C000019999999N0150001N1+02011+01501101001ADDAA199000091GF107991071001999999031999MA1999999088501MD1210061+0011REMSYN076AAXX  06001 53276 32965 70000 10201 20150 38850 40100 52006 8703/ 333 05100;EQDQ01  00002PRCP99
0112532760999992000080603004+42400+112890FM-12+115299999V0201401N004019999999N0300001N1+02601+01261100881ADDGF107991031001999999031021MD1710051+9999REMSYN060AAXX  06031 53276 42980 71404 10260 20126 40088 57005 83032;
0186532760999992000080606004+42400+112890FM-12+115299999V0201801N005010150019N0300001N1+02611+01461100801ADDAA199000091GF107991061041017501001021KA1999N+01741MA1999999088351MD1710101+9999REMSYN076AAXX  06061 53276 32780 71805 10261 20146 38835 40080 57010 86402 333 20174;EQDQ01  00002PRCP99
0112532760999992000080609004+42400+112890FM-12+115299999V0201801N005010150019N0300001N1+02671+01461100741ADDGF107991061041017501001021MD1710071+9999REMSYN060AAXX  06091 53276 42780 71805 10267 20146 40074 57007 86402;
0163532760999992000080612004+42400+112890FM-12+115299999V0201801N004010120019N0200001N1+02521+01511100681ADDAA199000091GF107991061051012501001021MA1999999088251MD1710031+9999REMSYN066AAXX  06121 53276 32670 71804 10252 20151 38825 40068 57003 86502;EQDQ01  00002PRCP99
0112532760999992000080615004+42400+112890FM-12+115299999V0201801N002012200019N0250001N1+02201+01591100751ADDGF104991011051012501001021MD1210111+9999REMSYN060AAXX  06151 53276 42675 41802 10220 20159 40075 52011 81502;
0186532760999992000080618004+42400+112890FM-12+115299999V0202201N003010900019N0250001N1+02081+01501100761ADDAA199000091GF106991021051012501001021KA1999M+02861MA1999999088351MD1710011+9999REMSYN076AAXX  06181 53276 32675 62203 10208 20150 38835 40076 57001 82502 333 10286;EQDQ01  00002PRCP99
0153532760999992000080621004+42400+112890FM-12+115299999V0201801N003010120019N0300001N1+01931+01631100781ADDAA124001591AY181031GF107991051091012501001081MD1410001+9999MW1001REMSYN076AAXX  06211 53276 41680 71803 10193 20163 40078 54000 70080 85908 333 70016;
0186532760999992000080700004+42400+112890FM-12+115299999V0201801N004019999999N0200001N1+02151+01671100771ADDAA106002091AY181061GF107991021001999999031021MA1999999088351MD1410001-0201MW1001REMSYN094AAXX  07001 53276 11970 71804 10215 20167 38835 40077 54000 60021 70080 82032 333 05201 70016;
0112532760999992000080703004+42400+112890FM-12+115299999V0201401N002010360019N0250001N1+02531+01641100691ADDGF107991011011012501031021MD1710061+9999REMSYN060AAXX  07031 53276 42675 71402 10253 20164 40069 57006 81132;
0186532760999992000080706004+42400+112890FM-12+115299999V0201801N003010360019N0250001N1+02581+01591100611ADDAA199000091GF107991031011012501031081KA1999N+01901MA1999999088211MD1710081+9999REMSYN076AAXX  07061 53276 32675 71803 10258 20159 38821 40061 57008 83138 333 20190;EQDQ01  00002PRCP99
0132532760999992000080709004+42400+112890FM-12+115299999V0201801N004010120019N0200001N1+02361+01611100621ADDAY161031GF107991051051012501011999MD1710061+9999MW1601REMSYN066AAXX  07091 53276 41670 71804 10236 20161 40062 57006 76060 8551/;
0170532760999992000080712004+42400+112890FM-12+115299999V0202201N003010120019N0150001N1+02091+01861100661ADDAA106000791AY161061GF108991061051012501021999MA1999999088171MD1210021+9999MW1601REMSYN078AAXX  07121 53276 11665 82203 10209 20186 38817 40066 52002 69901 76060 8652/;
0140532760999992000080715004+42400+112890FM-12+115299999V0201801N002010120019N0150001N1+01931+01841100591ADDAY161031AY261031GF108991071051012501021999MD1710021+9999MW1601REMSYN066AAXX  07151 53276 41665 81802 10193 20184 40059 57002 76066 8752/;
0201532760999992000080718004+42400+112890FM-12+115299999V0201401N005010120019N0150001N1+01971+01831100361ADDAA106007991AY161061AY261061GF108991051051012501021999KA1999M+02671MA1999999087971MD1710181+9999MW1601REMSYN088AAXX  07181 53276 11665 81405 10197 20183 38797 40036 57018 60081 76066 8552/ 333 10267;
0153532760999992000080721004+42400+112890FM-12+115299999V0201401N003010120019N0150001N1+01861+01781100381ADDAA124007991AY161031GF108991061051012501011999MD1710051+9999MW1601REMSYN076AAXX  07211 53276 41665 81403 10186 20178 40038 57005 76060 8651/ 333 70078;
0186532760999992000080800004+42400+112890FM-12+115299999V0202201N003010075019N0200001N1+01841+01751100551ADDAA106006191AY161061GF108991051071008001021999MA1999999088011MD1210091-0301MW1601REMSYN094AAXX  08001 53276 11570 82203 10184 20175 38801 40055 52009 60061 76060 8572/ 333 05353 70138;
0132532760999992000080803004+42400+112890FM-12+115299999V0202701N005010120019N0300001N1+02151+01551100531ADDAY161031GF106991051051012501031001MD1210021+9999MW1001REMSYN066AAXX  08031 53276 41680 62705 10215 20155 40053 52002 70060 85530;
0193532760999992000080806004+42400+112890FM-12+115299999V0202201N005010120019N0300001N1+02451+01491100411ADDAA106000391AY161061GF105991051011012501001001KA1999N+01831MA1999999087991MD1710041+9999MW1001REMSYN088AAXX  08061 53276 11680 52205 10245 20149 38799 40041 57004 69931 70060 85100 333 20183;
0112532760999992000080809004+42400+112890FM-12+115299999V0202201N002012200019N0300001N1+02571+01411100301ADDGF103991031011012501001001MD1710101+9999REMSYN060AAXX  08091 53276 42680 32202 10257 20141 40030 57010 83100;
0144532760999992000080812004+42400+112890FM-12+115299999V0202201N002012200019N0300001N1+02341+01631100371ADDAA199000021GF101991011041012501001001MA1999999087911MD1210021+9999REMSYN066AAXX  08121 53276 32680 12202 10234 20163 38791 40037 52002 81400;
0112532760999992000080815004+42400+112890FM-12+115299999V0201801N004012200019N0300001N1+02051+01731100451ADDGF101991011051012501031001MD1210071+9999REMSYN060AAXX  08151 53276 42680 11804 10205 20173 40045 52007 81530;
0186532760999992000080818004+42400+112890FM-12+115299999V0201801N004012200019N0300001N1+01981+01721100411ADDAA199000091GF101991011001999999031001KA1999M+02741MA1999999087991MD1210011+9999REMSYN076AAXX  08181 53276 32980 11804 10198 20172 38799 40041 52001 81030 333 10274;EQDQ01  00002PRCP99
0133532760999992000080821004+42400+112890FM-12+115299999V0209999C000012200019N0300001N1+01811+01621100461ADDAA124006491GF104991031001999999031021MD1210031+9999REMSYN070AAXX  08211 53276 42980 40000 10181 20162 40046 52003 83032 333 70063;
0160532760999992000080900004+42400+112890FM-12+115299999V0201801N002012200019N0300001N1+02031+01691100531ADDAA124000391GF104991011051012501031001MA1999999088081MD1210061+0101REMSYN082AAXX  09001 53276 32680 41802 10203 20169 38808 40053 52006 81530 333 00102 70003;
0112532760999992000080903004+42400+112890FM-12+115299999V0200901N002012200019N0300001N1+02521+01521100411ADDGF101991011011012501001001MD1710061+9999REMSYN060AAXX  09031 53276 42680 10902 10252 20152 40041 57006 81100;
0186532760999992000080906004+42400+112890FM-12+115299999V0200201N001012200019N0300001N1+02701+01551100201ADDAA199000091GF102991021011012501001021KA1999N+01781MA1999999087851MD1710171+9999REMSYN076AAXX  09061 53276 32680 20201 10270 20155 38785 40020 57017 82102 333 20178;EQDQ01  00002PRCP99
0112532760999992000080909004+42400+112890FM-12+115299999V0201401N003012200019N0300001N1+02781+01481100031ADDGF102991011021012501001021MD1710161+9999REMSYN060AAXX  09091 53276 42680 21403 10278 20148 40003 57016 81202;
0183532760999992000080912004+42400+112890FM-12+115299999V0202201N003010900019N0300001N1+02231+01431100221ADDAA199000091AY191061GF107991031091012501001021MA1999999087791MD1210101+9999MW1171REMSYN072AAXX  09121 53276 31680 72203 10223 20143 38779 40022 52010 71790 83902;EQDQ01  00002PRCP99
0124532760999992000080915004+42400+112890FM-12+115299999V0209999C000010360019N0300001N1+02051+01611100301ADDGF107991021091012501031021MD1210131+9999MW1131REMSYN066AAXX  09151 53276 41680 70000 10205 20161 40030 52013 71300 82932;
0193532760999992000080918004+42400+112890FM-12+115299999V0202201N002012200019N0300001N1+01881+01661100251ADDAA106000891AY181061GF101991011091012501031001KA1999M+02861MA1999999087881MD1710041+9999MW1131REMSYN088AAXX  09181 53276 11680 12202 10188 20166 38788 40025 57004 69981 71380 81930 333 10286;
0133532760999992000080921004+42400+112890FM-12+115299999V0209999C000010360019N0300001N1+01801+01661100241ADDAA124000891GF107991021051012501031021MD1710011+9999REMSYN070AAXX  09211 53276 42680 70000 10180 20166 40024 57001 82532 333 70008;
0160532760999992000081000004+42400+112890FM-12+115299999V0209999C000010360019N0300001N1+02021+01631100371ADDAA124000891GF107991021091012501031021MA1999999087921MD1210051-0201REMSYN082AAXX  10001 53276 32680 70000 10202 20163 38792 40037 52005 82932 333 05200 70008;
0132532760999992000081003004+42400+112890FM-12+115299999V0202201N002010150019N0300001N1+02191+01511100421ADDAY161031GF107991051051017501031021MD1210041+9999MW1211REMSYN066AAXX  10031 53276 41780 72202 10219 20151 40042 52004 72160 85532;
0193532760999992000081006004+42400+112890FM-12+115299999V0201401N002012200019N0300001N1+02721+01461100141ADDAA106000791AY161061GF102991011021012501031021KA1999N+01781MA1999999087791MD1710171+9999MW1001REMSYN088AAXX  10061 53276 11680 21402 10272 20146 38779 40014 57017 69901 70060 81232 333 20178;
0112532760999992000081009004+42400+112890FM-12+115299999V0202201N007010120019N0300001N1+02311+01451100231ADDGF107991061091012501031021MD1710021+9999REMSYN060AAXX  10091 53276 42680 72207 10231 20145 40023 57002 86932;
0170532760999992000081012004+42400+112890FM-12+115299999V0202201N002010360019N0300001N1+02231+01591100291ADDAA106000791AY181061GF107991031091012501031021MA1999999087851MD1210081+9999MW1001REMSYN078AAXX  10121 53276 11680 72202 10223 20159 38785 40029 52008 69901 70080 83932;
0132532760999992000081015004+42400+112890FM-12+115299999V0201401N002010360019N0300001N1+01971+01621100391ADDAY181031GF107991031091012501031021MD1210071+9999MW1251REMSYN066AAXX  10151 53276 41680 71402 10197 20162 40039 52007 72580 83932;
0193532760999992000081018004+42400+112890FM-12+115299999V0201401N002012200019N0300001N1+01941+01511100201ADDAA106000791AY181061GF103991011001999999031021KA1999M+02811MA1999999087851MD1710071+9999MW1001REMSYN088AAXX  10181 53276 11980 31402 10194 20151 38785 40020 57007 69901 70080 81032 333 10281;
0133532760999992000081021004+42400+112890FM-12+115299999V0202201N002012200019N0300001N1+01751+01491100331ADDAA124000791GF103991031001999999031021MD1410001+9999REMSYN070AAXX  10211 53276 42980 32202 10175 20149 40033 54000 83032 333 79999;
0160532760999992000081100004+42400+112890FM-12+115299999V0201801N002012200019N0300001N1+02071+01551100391ADDAA124000791GF102991011021012501031021MA1999999087951MD1210101+0001REMSYN082AAXX  11001 53276 32680 21802 10207 20155 38795 40039 52010 81232 333 00001 79999;
0112532760999992000081103004+42400+112890FM-12+115299999V0202201N003010360019N0300001N1+02501+01561100361ADDGF106991021021012501031021MD1410001+9999REMSYN060AAXX  11031 53276 42680 62203 10250 20156 40036 54000 82232;
0201532760999992000081106004+42400+112890FM-12+115299999V0203601N002012200019N0300001N1+02611+01611100221ADDAA106000791AY191061AY281061GF103991031091012501031001KA1999N+01711MA1999999087851MD1710101+9999MW1291REMSYN088AAXX  11061 53276 11680 33602 10261 20161 38785 40022 57010 69901 72998 83930 333 20171;
0132532760999992000081109004+42400+112890FM-12+115299999V0201401N005012200019N0300001N1+02341+01461100261ADDAY191031GF104991021091012501031001MD1710061+9999MW1001REMSYN066AAXX  11091 53276 41680 41405 10234 20146 40026 57006 70090 82930;
0183532760999992000081112004+42400+112890FM-12+115299999V0201801N004012200019N0300001N1+02341+01751100291ADDAA199000091AY191061GF104991041091012501031001MA1999999087881MD1210091+9999MW1001REMSYN072AAXX  11121 53276 31680 41804 10234 20175 38788 40029 52009 70090 84930;EQDQ01  00002PRCP99
0132532760999992000081115004+42400+112890FM-12+115299999V0202701N002019999999N0300001N1+02191+01591100341ADDAY191031GF106991061001999999031001MD1210101+9999MW1001REMSYN066AAXX  11151 53276 41980 62702 10219 20159 40034 52010 70090 86030;
0206532760999992000081118004+42400+112890FM-12+115299999V0202201N003012200019N0300001N1+01981+01581100361ADDAA199000091AY191061GF102991021001999999031001KA1999M+02701MA1999999087981MD1410001+9999MW1001REMSYN082AAXX  11181 53276 31980 22203 10198 20158 38798 40036 54000 70090 82030 333 10270;EQDQ01  00002PRCP99
0133532760999992000081121004+42400+112890FM-12+115299999V0201801N005012200019N0300001N1+01941+01541100441ADDAA124000791GF102991011011012501031021MD1210011+9999REMSYN070AAXX  11211 53276 42680 21805 10194 20154 40044 52001 81132 333 79999;
0160532760999992000081200004+42400+112890FM-12+115299999V0202201N003012200019N0300001N1+02211+01771100451ADDAA124000791GF103991011001999999031021MA1999999088051MD1210061+0101REMSYN082AAXX  12001 53276 32980 32203 10221 20177 38805 40045 52006 81032 333 00101 79999;
0112532760999992000081203004+42400+112890FM-12+115299999V0202201N002010900019N0300001N1+02641+01461100421ADDGF106991021011012501001021MD1210031+9999REMSYN060AAXX  12031 53276 42680 62202 10264 20146 40042 52003 82102;
0201532760999992000081206004+42400+112890FM-12+115299999V0201401N006010120019N0200001N1+02141+01501100531ADDAA106000791AY191061AY281061GF107991051091012501001021KA1999N+01811MA1999999088031MD1710051+9999MW1291REMSYN088AAXX  12061 53276 11670 71406 10214 20150 38803 40053 57005 69901 72998 85902 333 20181;
0140532760999992000081209004+42400+112890FM-12+115299999V0201401N005010120019N0300001N1+02141+01541100531ADDAY191031AY281031GF107991061091012501001021MD1410001+9999MW1001REMSYN066AAXX  12091 53276 41680 71405 10214 20154 40053 54000 70098 86902;
0178532760999992000081212004+42400+112890FM-12+115299999V0201801N004010900019N0300001N1+02091+01671100441ADDAA106000191AY191061AY281061GF107991031091012501001021MA1999999087991MD1710041+9999MW1001REMSYN078AAXX  12121 53276 11680 71804 10209 20167 38799 40044 57004 69921 70098 83902;
0112532760999992000081215004+42400+112890FM-12+115299999V0202201N005012200019N0300001N1+01871+01521100431ADDGF104991011001999999031021MD1210031+9999REMSYN060AAXX  12151 53276 42980 42205 10187 20152 40043 52003 81032;
0186532760999992000081218004+42400+112890FM-12+115299999V0202201N004012200019N0300001N1+01781+01451100551ADDAA199000091GF101991001001999999001021KA1999M+02761MA1999999088011MD1710011+9999REMSYN076AAXX  12181 53276 32980 12204 10178 20145 38801 40055 57001 80002 333 10276;EQDQ01  00002PRCP99
0160532760999992000081300004+42400+112890FM-12+115299999V0202201N004012200019N0300001N1+02131+01581100581ADDAA124000391GF101991011011012501001021MA1999999088101MD1210071+0101REMSYN082AAXX  13001 53276 32680 12204 10213 20158 38810 40058 52007 81102 333 00151 70002;
0112532760999992000081303004+42400+112890FM-12+115299999V0203401N003012200019N0300001N1+02641+01461100461ADDGF102991021011012501001001MD1710051+9999REMSYN060AAXX  13031 53276 42680 23403 10264 20146 40046 57005 82100;
0186532760999992000081306004+42400+112890FM-12+115299999V0203401N003010360019N0300001N1+02841+01481100331ADDAA199000091GF105991041011012501031001KA1999N+01671MA1999999087961MD1710091+9999REMSYN076AAXX  13061 53276 32680 53403 10284 20148 38796 40033 57009 84130 333 20167;EQDQ01  00002PRCP99
0112532760999992000081309004+42400+112890FM-12+115299999V0202501N002012200019N0300001N1+02981+01331100201ADDGF102991021011012501031001MD1710091+9999REMSYN060AAXX  13091 53276 42680 22502 10298 20133 40020 57009 82130;
0163532760999992000081312004+42400+112890FM-12+115299999V0209999C000012200019N0300001N1+02551+01321100231ADDAA199000091GF102991021041012501061041MA1999999087881MD1210011+9999REMSYN066AAXX  13121 53276 32680 20000 10255 20132 38788 40023 52001 82464;EQDQ01  00002PRCP99
0112532760999992000081315004+42400+112890FM-12+115299999V0203401N003012200019N0300001N1+02411+01301100231ADDGF102991001001999999001021MD1210071+9999REMSYN060AAXX  13151 53276 42980 23403 10241 20130 40023 52007 80002;
0186532760999992000081318004+42400+112890FM-12+115299999V0202501N005019999999N0300001N1+02191+01451100301ADDAA199000091GF107991061001999999031021KA1999M+03051MA1999999088011MD1210061+9999REMSYN076AAXX  13181 53276 32980 72505 10219 20145 38801 40030 52006 86032 333 10305;EQDQ01  00002PRCP99
0145532760999992000081321004+42400+112890FM-12+115299999V0202501N005010360019N0300001N1+02111+01411100241ADDAA124000791GF107991041051012501031021MD1710041+9999MW1601REMSYN076AAXX  13211 53276 41680 72505 10211 20141 40024 57004 76000 84532 333 79999;
0186532760999992000081400004+42400+112890FM-12+115299999V0202201N007010360019N0300001N1+02201+01481100331ADDAA106000791AY161061GF106991011051012501031021MA1999999087981MD1210011-0101MW1211REMSYN094AAXX  14001 53276 11680 62207 10220 20148 38798 40033 52001 69901 72160 81532 333 05101 79999;
0131532760999992000081403004+42400+112890FM-12+115299999V0202901N008012200019N0300001N1+02691-00122100221ADDGF104991011001999999031021MD1710031+9999REMSYN060AAXX  14031 53276 42980 42908 10269 21012 40022 57003 81032;EQDQ01-000123ATOD  
0177532760999992000081406004+42400+112890FM-12+115299999V0202701N007012200019N0300001N1+02941-00311100101ADDAA199000021GA1001+999999999GF100991001001999999001001KA1999N+02031MA1999999087851MD1710101+9999REMSYN070AAXX  14061 53276 32980 02707 10294 21031 38785 40010 57010 333 20203;
0122532760999992000081409004+42400+112890FM-12+115299999V0202201N008012200019N0300001N1+02941-00351099981ADDGA1001+999999999GF100991001001999999001001MD1710121+9999REMSYN054AAXX  14091 53276 42980 02208 10294 21035 49998 57012;
0154532760999992000081412004+42400+112890FM-12+115299999V0202901N004012200019N0300001N1+02461-00011100131ADDAA199000021GA1001+999999999GF100991001001999999001001MA1999999087791MD1210061+9999REMSYN060AAXX  14121 53276 32980 02904 10246 21001 38779 40013 52006;
0122532760999992000081415004+42400+112890FM-12+115299999V0202701N004012200019N0300001N1+01891+00391100301ADDGA1001+999999999GF100991001001999999001001MD1210131+9999REMSYN054AAXX  14151 53276 42980 02704 10189 20039 40030 52013;
0196532760999992000081418004+42400+112890FM-12+115299999V0202501N003012200019N0300001N1+01671+00301100341ADDAA199000091GA1001+999999999GF100991001001999999001001KA1999M+03071MA1999999087961MD1210041+9999REMSYN070AAXX  14181 53276 32980 02503 10167 20030 38796 40034 52004 333 10307;EQDQ01  00002PRCP99
0143532760999992000081421004+42400+112890FM-12+115299999V0209999C000012200019N0300001N1+01451+00591100421ADDAA124000791GA1001+999999999GF100991001001999999001001MD1210031+9999REMSYN064AAXX  14211 53276 42980 00000 10145 20059 40042 52003 333 79999;
0183532760999992000081500004+42400+112890FM-12+115299999V0202201N003012200019N0300001N1+01881+00591100461ADDAA199000091GA1001+999999999GF100991001001999999001001MA1999999088021MD1210031+0001REMSYN070AAXX  15001 53276 32980 02203 10188 20059 38802 40046 52003 333 00053;EQDQ01  00002PRCP99
0112532760999992000081503004+42400+112890FM-12+115299999V0201801N004012200019N0300001N1+02461+00801100421ADDGF101991011011012501001001MD1710041+9999REMSYN060AAXX  15031 53276 42680 11804 10246 20080 40042 57004 81100;
0186532760999992000081506004+42400+112890FM-12+115299999V0203601N003012200019N0300001N1+02881+00091100101ADDAA199000091GF102991021011012501001001KA1999N+01411MA1999999087741MD1710241+9999REMSYN076AAXX  15061 53276 32680 23603 10288 20009 38774 40010 57024 82100 333 20141;EQDQ01  00002PRCP99
0112532760999992000081509004+42400+112890FM-12+115299999V0203401N007012200019N0300001N1+02941-00441099891ADDGF101991011011012501001001MD1710211+9999REMSYN060AAXX  15091 53276 42680 13407 10294 21044 49989 57021 81100;
0163532760999992000081512004+42400+112890FM-12+115299999V0202201N004012200019N0300001N1+02531-00161099821ADDAA199000091GF102991021041012501001001MA1999999087471MD1710061+9999REMSYN066AAXX  15121 53276 32680 22204 10253 21016 38747 49982 57006 82400;EQDQ01  00002PRCP99
0112532760999992000081515004+42400+112890FM-12+115299999V0203401N004012200019N0300001N1+02071+00481100021ADDGF101991011001999999031001MD1210201+9999REMSYN060AAXX  15151 53276 42980 13404 10207 20048 40002 52020 81030;
0186532760999992000081518004+42400+112890FM-12+115299999V0202901N002012200019N0300001N1+01621+00831100241ADDAA199000091GF101991001001999999001021KA1999M+03121MA1999999087851MD1210181+9999REMSYN076AAXX  15181 53276 32980 12902 10162 20083 38785 40024 52018 80002 333 10312;EQDQ01  00002PRCP99
0112532760999992000081521004+42400+112890FM-12+115299999V0202201N004012200019N0300001N1+01571+00741100301ADDGF101991011041012501001021MD1210061+9999REMSYN060AAXX  15211 53276 42680 12204 10157 20074 40030 52006 81402;
0173532760999992000081600004+42400+112890FM-12+115299999V0201801N001012200019N0300001N1+01891+00751100401ADDAA199000091GF101991001001999999001021MA1999999087981MD1210071+0001REMSYN076AAXX  16001 53276 32980 11801 10189 20075 38798 40040 52007 80002 333 00000;EQDQ01  00002PRCP99
0112532760999992000081603004+42400+112890FM-12+115299999V0203601N002012200019N0300001N1+02401+00241100471ADDGF102991001001999999001021MD1210071+9999REMSYN060AAXX  16031 53276 42980 23602 10240 20024 40047 52007 80002;
0186532760999992000081606004+42400+112890FM-12+115299999V0203601N003010900019N0300001N1+02651+00331100531ADDAA199000091GF107991011011012501001021KA1999N+01401MA1999999088061MD1210011+9999REMSYN076AAXX  16061 53276 32680 73603 10265 20033 38806 40053 52001 81102 333 20140;EQDQ01  00002PRCP99
0112532760999992000081609004+42400+112890FM-12+115299999V0203401N002010360019N0300001N1+02691+00311100531ADDGF106991011011012501031021MD1410001+9999REMSYN060AAXX  16091 53276 42680 63402 10269 20031 40053 54000 81132;
0163532760999992000081612004+42400+112890FM-12+115299999V0209999C000019999999N0300001N1+02301+00491100651ADDAA199000091GF107991021001999999031021MA1999999088151MD1210091+9999REMSYN066AAXX  16121 53276 32980 70000 10230 20049 38815 40065 52009 82032;EQDQ01  00002PRCP99
0112532760999992000081615004+42400+112890FM-12+115299999V0201801N003010360019N0300001N1+02121+00731100651ADDGF107991011051012501031021MD1210071+9999REMSYN060AAXX  16151 53276 42680 71803 10212 20073 40065 52007 81532;
0186532760999992000081618004+42400+112890FM-12+115299999V0201801N011019999999N0300001N1+02321+00121100621ADDAA199000091GF108991021001999999031071KA1999M+02791MA1999999088281MD1210061+9999REMSYN076AAXX  16181 53276 32980 81811 10232 20012 38828 40062 52006 82037 333 10279;EQDQ01  00002PRCP99
0153532760999992000081621004+42400+112890FM-12+115299999V0202201N007010120019N0300001N1+01611+01141101001ADDAA124000191AY161031GF108991071051012501011999MD1210201+9999MW1601REMSYN076AAXX  16211 53276 41680 82207 10161 20114 40100 52020 76060 8751/ 333 70001;
0209532760999992000081700004+42400+112890FM-12+115299999V0201801N005012200019N0300001N1+01661+01231101171ADDAA106000591AY161061GF102991021051017501031021MA1999999088561MD1210081+0601MW1001OA130601901REMSYN106AAXX  17001 53276 11780 21805 10166 20123 38856 40117 52008 69941 70060 82532 333 00652 70004 91119 91518;
0112532760999992000081703004+42400+112890FM-12+115299999V0202001N008012200019N0300001N1+02211+00991101111ADDGF101991011011012501031001MD1210021+9999REMSYN060AAXX  17031 53276 42680 12008 10221 20099 40111 52002 81130;
0167532760999992000081706004+42400+112890FM-12+115299999V0201601N006012200019N0300001N1+02531+00801100851ADDAA199000021GF101991011011012501031001KA1999N+01521MA1999999088461MD1710121+9999REMSYN076AAXX  17061 53276 32680 11606 10253 20080 38846 40085 57012 81130 333 20152;
0112532760999992000081709004+42400+112890FM-12+115299999V0201401N006012200019N0300001N1+02421+00901100981ADDGF101991011011012501031001MD1710051+9999REMSYN060AAXX  17091 53276 42680 11406 10242 20090 40098 57005 81130;
0163532760999992000081712004+42400+112890FM-12+115299999V0201601N004012200019N0300001N1+02111+01081101041ADDAA199000091GF101991011001999999031001MA1999999088411MD1410001+9999REMSYN066AAXX  17121 53276 32980 11604 10211 20108 38841 40104 54000 81030;EQDQ01  00002PRCP99
0112532760999992000081715004+42400+112890FM-12+115299999V0202001N001012200019N0300001N1+02001+01191100971ADDGF101991011001999999031001MD1210031+9999REMSYN060AAXX  17151 53276 42980 12001 10200 20119 40097 52003 81030;
0186532760999992000081718004+42400+112890FM-12+115299999V0202201N004012200019N0300001N1+01911+01121100881ADDAA199000091GF101991011051012501031001KA1999M+02641MA1999999088401MD1710041+9999REMSYN076AAXX  17181 53276 32680 12204 10191 20112 38840 40088 57004 81530 333 10264;EQDQ01  00002PRCP99
0133532760999992000081721004+42400+112890FM-12+115299999V0202001N004012200019N0300001N1+01921+01011100861ADDAA124000391GF104991011051012501031001MD1710031+9999REMSYN070AAXX  17211 53276 42680 42004 10192 20101 40086 57003 81530 333 70003;
0132532760999992000081803004+42400+112890FM-12+115299999V0202201N009010900019N0300001N1+02141+01071101101ADDAY191031GF107991021091012501001021MD1210041+9999MW1291REMSYN066AAXX  18031 53276 41680 72209 10214 20107 40110 52004 72990 82902;
0201532760999992000081806004+42400+112890FM-12+115299999V0202201N005010120019N0300001N1+02281+00961100931ADDAA106000791AY191061AY281061GF107991061091012501001021KA1999N+01851MA1999999088401MD1710141+9999MW1001REMSYN088AAXX  18061 53276 11680 72205 10228 20096 38840 40093 57014 69901 70098 86902 333 20185;
0132532760999992000081809004+42400+112890FM-12+115299999V0203201N004010900019N0300001N1+02371+00881100901ADDAY181031GF107991021041012501001021MD1710011+9999MW1251REMSYN066AAXX  18091 53276 41680 73204 10237 20088 40090 57001 72580 82402;
0170532760999992000081812004+42400+112890FM-12+115299999V0202501N004010900019N0300001N1+01991+01051100951ADDAA106000791AY181061GF107991021091012501001021MA1999999088381MD1710011+9999MW1001REMSYN078AAXX  18121 53276 11680 72504 10199 20105 38838 40095 57001 69901 70080 82902;
0112532760999992000081815004+42400+112890FM-12+115299999V0202201N003010120019N0300001N1+01761+01161101041ADDGF107991051091012501031021MD1210061+9999REMSYN060AAXX  18151 53276 42680 72203 10176 20116 40104 52006 85932;
0167532760999992000081818004+42400+112890FM-12+115299999V0202501N003010900019N0300001N1+01591+01121101031ADDAA199000021GF107991021051012501001021KA1999M+02441MA1999999088421MD1710021+9999REMSYN076AAXX  18181 53276 32680 72503 10159 20112 38842 40103 57002 82502 333 10244;
0145532760999992000081821004+42400+112890FM-12+115299999V0202701N003012200019N0300001N1+01391+01111101081ADDAA124000791GF103991021091012501031021MD1210021+9999MW1131REMSYN076AAXX  18211 53276 41680 32703 10139 20111 40108 52002 71300 82932 333 79999;
0160532760999992000081900004+42400+112890FM-12+115299999V0203401N005012200019N0300001N1+01621+01011101201ADDAA124000791GF101991011011012501031021MA1999999088521MD1210081+0001REMSYN082AAXX  19001 53276 32680 13405 10162 20101 38852 40120 52008 81132 333 00054 79999;
0112532760999992000081903004+42400+112890FM-12+115299999V0203401N005012200019N0300001N1+01971+00941101211ADDGF101991011011012501001021MD1210031+9999REMSYN060AAXX  19031 53276 42680 13405 10197 20094 40121 52003 81102;
0186532760999992000081906004+42400+112890FM-12+115299999V0200201N006012200019N0300001N1+02301+00981101061ADDAA199000091GF103991031011012501001001KA1999N+01341MA1999999088451MD1710101+9999REMSYN076AAXX  19061 53276 32680 30206 10230 20098 38845 40106 57010 83100 333 20134;EQDQ01  00002PRCP99
0112532760999992000081909004+42400+112890FM-12+115299999V0203601N009012200019N0300001N1+02331+00821101081ADDGF102991021011012501001001MD1710011+9999REMSYN060AAXX  19091 53276 42680 23609 10233 20082 40108 57001 82100;
0163532760999992000081912004+42400+112890FM-12+115299999V0200201N003012200019N0300001N1+01911+00571101301ADDAA199000091GF101991011041012501001001MA1999999088591MD1210151+9999REMSYN066AAXX  19121 53276 32680 10203 10191 20057 38859 40130 52015 81400;EQDQ01  00002PRCP99
0122532760999992000081915004+42400+112890FM-12+115299999V0209999C000012200019N0300001N1+01531+00691101441ADDGA1001+999999999GF100991001001999999001001MD1210121+9999REMSYN054AAXX  19151 53276 42980 00000 10153 20069 40144 52012;
0196532760999992000081918004+42400+112890FM-12+115299999V0209999C000012200019N0300001N1+01251+00711101501ADDAA199000091GA1001+999999999GF100991001001999999001001KA1999M+02331MA1999999088771MD1210061+9999REMSYN070AAXX  19181 53276 32980 00000 10125 20071 38877 40150 52006 333 10233;EQDQ01  00002PRCP99
0122532760999992000081921004+42400+112890FM-12+115299999V0209999C000012200019N0300001N1+00971+00561101541ADDGA1001+999999999GF100991001001999999001001MD1710021+9999REMSYN054AAXX  19211 53276 42980 00000 10097 20056 40154 57002;
0191532760999992000082000004+42400+112890FM-12+115299999V0202501N002012200019N0300001N1+01411+00721101551ADDAA199000091GF101991001001999999001021IA2999+00509MA1999999088771MD1210021+0301REMSYN082AAXX  20001 53276 32980 12502 10141 20072 38877 40155 52002 80002 333 00352 30050;EQDQ01  00002PRCP99
0112532760999992000082003004+42400+112890FM-12+115299999V0200201N003012200019N0300001N1+01991+00481101441ADDGF101991001001999999001021MD1710061+9999REMSYN060AAXX  20031 53276 42980 10203 10199 20048 40144 57006 80002;
0186532760999992000082006004+42400+112890FM-12+115299999V0200901N005012200019N0300001N1+02251+00211101301ADDAA199000091GF102991001001999999001021KA1999N+00941MA1999999088581MD1710131+9999REMSYN076AAXX  20061 53276 32980 20905 10225 20021 38858 40130 57013 80002 333 20094;EQDQ01  00002PRCP99
0112532760999992000082009004+42400+112890FM-12+115299999V0200901N002012200019N0300001N1+02311-00171101181ADDGF103991001001999999001021MD1710151+9999REMSYN060AAXX  20091 53276 42980 30902 10231 21017 40118 57015 80002;
0163532760999992000082012004+42400+112890FM-12+115299999V0200901N002019999999N0300001N1+01771+00221101191ADDAA199000091GF107991001001999999001021MA1999999088421MD1710011+9999REMSYN066AAXX  20121 53276 32980 70902 10177 20022 38842 40119 57001 80002;EQDQ01  00002PRCP99
0112532760999992000082015004+42400+112890FM-12+115299999V0201601N001012200019N0300001N1+01491+00491101151ADDGF104991001001999999001021MD1210031+9999REMSYN060AAXX  20151 53276 42980 41601 10149 20049 40115 52003 80002;
0186532760999992000082018004+42400+112890FM-12+115299999V0201601N002019999999N0300001N1+01431+00541101001ADDAA199000091GF107991001001999999001021KA1999M+02431MA1999999088361MD1710091+9999REMSYN076AAXX  20181 53276 32980 71602 10143 20054 38836 40100 57009 80002 333 10243;EQDQ01  00002PRCP99
0112532760999992000082021004+42400+112890FM-12+115299999V0201601N004012200019N0300001N1+01371+00561100951ADDGF102991021051017501001021MD1710051+9999REMSYN060AAXX  20211 53276 42780 21604 10137 20056 40095 57005 82502;
0173532760999992000082100004+42400+112890FM-12+115299999V0201601N002012200019N0300001N1+01911+00651100931ADDAA199000091GF104991011051017501031021MA1999999088301MD1710011+0051REMSYN076AAXX  21001 53276 32780 41602 10191 20065 38830 40093 57001 81532 333 05505;EQDQ01  00002PRCP99
0112532760999992000082103004+42400+112890FM-12+115299999V0202001N004019999999N0300001N1+02551+00331100771ADDGF107991021001999999031021MD1710071+9999REMSYN060AAXX  21031 53276 42980 72004 10255 20033 40077 57007 82032;
0186532760999992000082106004+42400+112890FM-12+115299999V0201401N004019999999N0300001N1+02751+00331100601ADDAA199000091GF107991051001999999031021KA1999N+01331MA1999999088111MD1710121+9999REMSYN076AAXX  21061 53276 32980 71404 10275 20033 38811 40060 57012 85032 333 20133;EQDQ01  00002PRCP99
0112532760999992000082109004+42400+112890FM-12+115299999V0201601N003010360019N0300001N1+02721+00241100521ADDGF107991011041012501031021MD1710091+9999REMSYN060AAXX  21091 53276 42680 71603 10272 20024 40052 57009 81432;
0163532760999992000082112004+42400+112890FM-12+115299999V0202201N003010360019N0300001N1+02381+00541100431ADDAA199000091GF107991021051012501031021MA1999999087981MD1710041+9999REMSYN066AAXX  21121 53276 32680 72203 10238 20054 38798 40043 57004 82532;EQDQ01  00002PRCP99
0112532760999992000082115004+42400+112890FM-12+115299999V0202501N004010900019N0300001N1+01931+00751100481ADDGF106991011051012501001021MD1210081+9999REMSYN060AAXX  21151 53276 42680 62504 10193 20075 40048 52008 81502;
0193532760999992000082118004+42400+112890FM-12+115299999V0202701N003010120019N0300001N1+01481+01351100681ADDAA106000191AY161061GF107991071051012501001021KA1999M+02881MA1999999088191MD1210131+9999MW1601REMSYN088AAXX  21181 53276 11680 72703 10148 20135 38819 40068 52013 69911 76060 87502 333 10288;
0161532760999992000082121004+42400+112890FM-12+115299999V0202201N004010360019N0150001N1+01481+01401100701ADDAA124005391AY161031AY261031GF108991011051012501021999MD1210011+9999MW1601REMSYN076AAXX  21211 53276 41665 82204 10148 20140 40070 52001 76066 8152/ 333 70054;
0186532760999992000082200004+42400+112890FM-12+115299999V0202501N002010360019N0300001N1+01631+01401100771ADDAA106006191AY161061GF107991021051012501031021MA1999999088221MD1210021-0101MW1001REMSYN094AAXX  22001 53276 11680 72502 10163 20140 38822 40077 52002 60061 70060 82532 333 05153 70058;
0112532760999992000082203004+42400+112890FM-12+115299999V0202501N006010120019N0300001N1+02051+01381100751ADDGF105991051021012501001021MD1710021+9999REMSYN060AAXX  22031 53276 42680 52506 10205 20138 40075 57002 85202;
0167532760999992000082206004+42400+112890FM-12+115299999V0202501N006010120019N0300001N1+02431+01081100581ADDAA199000021GF106991061091012501001021KA1999N+01421MA1999999088041MD1710161+9999REMSYN076AAXX  22061 53276 32680 62506 10243 20108 38804 40058 57016 86902 333 20142;
0112532760999992000082209004+42400+112890FM-12+115299999V0202901N009012200019N0300001N1+02391+00791100551ADDGF102991021091012501001021MD1710041+9999REMSYN060AAXX  22091 53276 42680 22909 10239 20079 40055 57004 82902;
0163532760999992000082212004+42400+112890FM-12+115299999V0202901N005010120019N0300001N1+02001+00871100771ADDAA199000091GF105991051041012501001021MA1999999088151MD1210151+9999REMSYN066AAXX  22121 53276 32680 52905 10200 20087 38815 40077 52015 85402;EQDQ01  00002PRCP99
0112532760999992000082215004+42400+112890FM-12+115299999V0202701N002012200019N0300001N1+01671+01191100881ADDGF101991011041012501001001MD1210111+9999REMSYN060AAXX  22151 53276 42680 12702 10167 20119 40088 52011 81400;
0186532760999992000082218004+42400+112890FM-12+115299999V0202201N002012200019N0300001N1+01611+01251100851ADDAA199000091GF102991021051012501001001KA1999M+02541MA1999999088301MD1210041+9999REMSYN076AAXX  22181 53276 32680 22202 10161 20125 38830 40085 52004 82500 333 10254;EQDQ01  00002PRCP99
0133532760999992000082221004+42400+112890FM-12+115299999V0202201N004012200019N0300001N1+01351+01171100981ADDAA124000591GF101991011051012501001001MD1210051+9999REMSYN070AAXX  22211 53276 42680 12204 10135 20117 40098 52005 81500 333 70004;
0173532760999992000082300004+42400+112890FM-12+115299999V0202501N004012200019N0300001N1+01641+01251101161ADDAA199000091GF101991011051012501001001MA1999999088491MD1210141+0031REMSYN076AAXX  23001 53276 32680 12504 10164 20125 38849 40116 52014 81500 333 00300;EQDQ01  00002PRCP99
0112532760999992000082303004+42400+112890FM-12+115299999V0202701N005012200019N0300001N1+02061+01041101161ADDGF102991021011012501001001MD1210021+9999REMSYN060AAXX  23031 53276 42680 22705 10206 20104 40116 52002 82100;
0186532760999992000082306004+42400+112890FM-12+115299999V0203401N005012200019N0300001N1+02391+00661101031ADDAA199000091GF103991031011012501001001KA1999N+01321MA1999999088451MD1710061+9999REMSYN076AAXX  23061 53276 32680 33405 10239 20066 38845 40103 57006 83100 333 20132;EQDQ01  00002PRCP99
0112532760999992000082309004+42400+112890FM-12+115299999V0202701N006012200019N0300001N1+02591+00551100971ADDGF102991021011012501001001MD1710071+9999REMSYN060AAXX  23091 53276 42680 22706 10259 20055 40097 57007 82100;
0163532760999992000082312004+42400+112890FM-12+115299999V0203401N002012200019N0300001N1+02201+00491101061ADDAA199000091GF101991011041012501001001MA1999999088441MD1210061+9999REMSYN066AAXX  23121 53276 32680 13402 10220 20049 38844 40106 52006 81400;EQDQ01  00002PRCP99
0122532760999992000082315004+42400+112890FM-12+115299999V0209999C000012200019N0300001N1+01721+00841101151ADDGA1001+999999999GF100991001001999999001001MD1210071+9999REMSYN054AAXX  23151 53276 42980 00000 10172 20084 40115 52007;
0186532760999992000082318004+42400+112890FM-12+115299999V0202501N002010900019N0300001N1+01441+00821101171ADDAA199000091GF106991011051012501001021KA1999M+02661MA1999999088541MD1210031+9999REMSYN076AAXX  23181 53276 32680 62502 10144 20082 38854 40117 52003 81502 333 10266;EQDQ01  00002PRCP99
0112532760999992000082321004+42400+112890FM-12+115299999V0209999C000012200019N0300001N1+01381+00861101151ADDGF101991001001999999001021MD1210011+9999REMSYN060AAXX  23211 53276 42980 10000 10138 20086 40115 52001 80002;
0183532760999992000082400004+42400+112890FM-12+115299999V0201801N003012200019N0300001N1+01791+00861101211ADDAA199000091GA1001+999999999GF100991001001999999001001MA1999999088601MD1210051+0011REMSYN070AAXX  24001 53276 32980 01803 10179 20086 38860 40121 52005 333 00102;EQDQ01  00002PRCP99
0122532760999992000082403004+42400+112890FM-12+115299999V0201401N002012200019N0300001N1+02541+00711101171ADDGA1001+999999999GF100991001001999999001001MD1210021+9999REMSYN054AAXX  24031 53276 42980 01402 10254 20071 40117 52002;
0186532760999992000082406004+42400+112890FM-12+115299999V0200201N003012200019N0300001N1+02741+00371101031ADDAA199000091GF101991011011012501001001KA1999N+01271MA1999999088481MD1710141+9999REMSYN076AAXX  24061 53276 32680 10203 10274 20037 38848 40103 57014 81100 333 20127;EQDQ01  00002PRCP99
0112532760999992000082409004+42400+112890FM-12+115299999V0200201N003012200019N0300001N1+02771+00301100911ADDGF101991011011012501001001MD1710111+9999REMSYN060AAXX  24091 53276 42680 10203 10277 20030 40091 57011 81100;
0173532760999992000082412004+42400+112890FM-12+115299999V0201401N003012200019N0300001N1+02191+00711100961ADDAA199000091GA1001+999999999GF100991001001999999001001MA1999999088381MD1210011+9999REMSYN060AAXX  24121 53276 32980 01403 10219 20071 38838 40096 52001;EQDQ01  00002PRCP99
0122532760999992000082415004+42400+112890FM-12+115299999V0201601N003012200019N0300001N1+01881+00661100911ADDGA1001+999999999GF100991001001999999001001MD1210051+9999REMSYN054AAXX  24151 53276 42980 01603 10188 20066 40091 52005;
0196532760999992000082418004+42400+112890FM-12+115299999V0201801N006012200019N0300001N1+01811+00581100821ADDAA199000091GA1001+999999999GF100991001001999999001001KA1999M+02881MA1999999088371MD1710061+9999REMSYN070AAXX  24181 53276 32980 01806 10181 20058 38837 40082 57006 333 10288;EQDQ01  00002PRCP99
0112532760999992000082421004+42400+112890FM-12+115299999V0201801N003012200019N0300001N1+01811+00891100741ADDGF101991011051012501001021MD1710061+9999REMSYN060AAXX  24211 53276 42680 11803 10181 20089 40074 57006 81502;
0173532760999992000082500004+42400+112890FM-12+115299999V0202001N005012200019N0300001N1+02231+00791100781ADDAA199000091GF102991021011017501001021MA1999999088311MD1410001+0031REMSYN076AAXX  25001 53276 32780 22005 10223 20079 38831 40078 54000 82102 333 05304;EQDQ01  00002PRCP99
0112532760999992000082503004+42400+112890FM-12+115299999V0202201N004012200019N0300001N1+02931+00301100661ADDGF104991021011012501001021MD1710031+9999REMSYN060AAXX  25031 53276 42680 42204 10293 20030 40066 57003 82102;
0186532760999992000082506004+42400+112890FM-12+115299999V0202701N003010900019N0300001N1+03131+00381100411ADDAA199000091GF106991031021012501001021KA1999N+01651MA1999999088091MD1710191+9999REMSYN076AAXX  25061 53276 32680 62703 10313 20038 38809 40041 57019 83202 333 20165;EQDQ01  00002PRCP99
0132532760999992000082509004+42400+112890FM-12+115299999V0202201N005010120019N0300001N1+02611+00561100581ADDAY191031GF107991061091012501001021MD1210051+9999MW1951REMSYN066AAXX  25091 53276 41680 72205 10261 20056 40058 52005 79590 86902;
0178532760999992000082512004+42400+112890FM-12+115299999V0202201N005012200019N0300001N1+02211+01001100631ADDAA106000791AY191061AY281061GF104991021051012501001021MA1999999088181MD1210041+9999MW1001REMSYN078AAXX  25121 53276 11680 42205 10221 20100 38818 40063 52004 69901 70098 82502;
0122532760999992000082515004+42400+112890FM-12+115299999V0202001N008012200019N0300001N1+02051+00781100451ADDGA1001+999999999GF100991001001999999001001MD1710051+9999REMSYN054AAXX  25151 53276 42980 02008 10205 20078 40045 57005;
0167532760999992000082518004+42400+112890FM-12+115299999V0202001N003012200019N0300001N1+01871+00771100401ADDAA199000021GF103991031051012501001001KA1999M+03271MA1999999088091MD1710041+9999REMSYN076AAXX  25181 53276 32680 32003 10187 20077 38809 40040 57004 83500 333 10327;
0133532760999992000082521004+42400+112890FM-12+115299999V0202001N005010900019N0300001N1+01781+00831100521ADDAA124000791GF106991021051012501001021MD1710011+9999REMSYN070AAXX  25211 53276 42680 62005 10178 20083 40052 57001 82502 333 79999;
0160532760999992000082600004+42400+112890FM-12+115299999V0202001N004019999999N0300001N1+01921+00941100711ADDAA124000791GF107991011001999999031021MA1999999088191MD1210111-0101REMSYN082AAXX  26001 53276 32980 72004 10192 20094 38819 40071 52011 81032 333 05153 79999;
0124532760999992000082603004+42400+112890FM-12+115299999V0201801N006010120019N0300001N1+02021+01051100771ADDGF107991071051012501999999MD1210041+9999MW1601REMSYN066AAXX  26031 53276 41680 71806 10202 20105 40077 52004 76000 875//;
0193532760999992000082606004+42400+112890FM-12+115299999V0201401N006012200019N0300001N1+02521+01001100501ADDAA106000191AY161061GF102991021021012501001001KA1999N+01611MA1999999088061MD1710171+9999MW1001REMSYN088AAXX  26061 53276 11680 21406 10252 20100 38806 40050 57017 69921 70060 82200 333 20161;
0112532760999992000082609004+42400+112890FM-12+115299999V0202501N005012200019N0300001N1+02831+00051100251ADDGF102991021011012501001001MD1710181+9999REMSYN060AAXX  26091 53276 42680 22505 10283 20005 40025 57018 82100;
0144532760999992000082612004+42400+112890FM-12+115299999V0202901N002012200019N0300001N1+02261+00141100451ADDAA199000021GF101991011041012501031001MA1999999087981MD1210101+9999REMSYN066AAXX  26121 53276 32680 12902 10226 20014 38798 40045 52010 81430;
0112532760999992000082615004+42400+112890FM-12+115299999V0202201N003012200019N0300001N1+02061+00231100581ADDGF101991011041012501001001MD1210091+9999REMSYN060AAXX  26151 53276 42680 12203 10206 20023 40058 52009 81400;
0186532760999992000082618004+42400+112890FM-12+115299999V0202201N001012200019N0300001N1+01691+00471100561ADDAA199000091GF101991011051012501001001KA1999M+02861MA1999999088081MD1210011+9999REMSYN076AAXX  26181 53276 32680 12201 10169 20047 38808 40056 52001 81500 333 10286;EQDQ01  00002PRCP99
0133532760999992000082621004+42400+112890FM-12+115299999V0201801N003012200019N0300001N1+01621+00831100521ADDAA124000391GF101991011041012501001001MD1210011+9999REMSYN070AAXX  26211 53276 42680 11803 10162 20083 40052 52001 81400 333 70002;
0160532760999992000082700004+42400+112890FM-12+115299999V0203601N005012200019N0300001N1+02041+00861100591ADDAA124000391GF104991011011012501031021MA1999999088121MD1210031-0101REMSYN082AAXX  27001 53276 32680 43605 10204 20086 38812 40059 52003 81132 333 05101 70002;
0112532760999992000082703004+42400+112890FM-12+115299999V0202201N003012200019N0300001N1+02701-00021100541ADDGF102991011011012501001021MD1210051+9999REMSYN060AAXX  27031 53276 42680 22203 10270 21002 40054 52005 81102;
0186532760999992000082706004+42400+112890FM-12+115299999V0203601N007012200019N0300001N1+02971-00101100381ADDAA199000091GF102991021011012501001021KA1999N+01421MA1999999088011MD1710161+9999REMSYN076AAXX  27061 53276 32680 23607 10297 21010 38801 40038 57016 82102 333 20142;EQDQ01  00002PRCP99
0112532760999992000082709004+42400+112890FM-12+115299999V0202201N004012200019N0300001N1+02921-00181100311ADDGF102991021041012501001021MD1710091+9999REMSYN060AAXX  27091 53276 42680 22204 10292 21018 40031 57009 82402;
0175532760999992000082712004+42400+112890FM-12+115299999V0209999C000012200019N0300001N1+02351+00111100571ADDAA199000091GF104991041091012501061021MA1999999088121MD1210201+9999MW1131REMSYN072AAXX  27121 53276 31680 40000 10235 20011 38812 40057 52020 71300 84962;EQDQ01  00002PRCP99
0124532760999992000082715004+42400+112890FM-12+115299999V0202201N008010120019N0300001N1+02051+00361100651ADDGF106991051091012501001021MD1210141+9999MW1131REMSYN066AAXX  27151 53276 41680 62208 10205 20036 40065 52014 71300 85902;
0186532760999992000082718004+42400+112890FM-12+115299999V0202001N005012200019N0300001N1+01691+00781100821ADDAA199000091GF101991001001999999001021KA1999M+03101MA1999999088391MD1210131+9999REMSYN076AAXX  27181 53276 32980 12005 10169 20078 38839 40082 52013 80002 333 10310;EQDQ01  00002PRCP99
0112532760999992000082721004+42400+112890FM-12+115299999V0201801N005012200019N0300001N1+01651+00951100771ADDGF101991011051012501001021MD1710061+9999REMSYN060AAXX  27211 53276 42680 11805 10165 20095 40077 57006 81502;
0173532760999992000082800004+42400+112890FM-12+115299999V0202201N010010360019N0300001N1+02001+00851100831ADDAA199000091GF106991031091012501031021MA1999999088341MD1210011+0021REMSYN076AAXX  28001 53276 32680 62210 10200 20085 38834 40083 52001 83932 333 00200;EQDQ01  00002PRCP99
0112532760999992000082803004+42400+112890FM-12+115299999V0201801N008010360019N0300001N1+02381+00481100831ADDGF106991021011012501031021MD1210021+9999REMSYN060AAXX  28031 53276 42680 61808 10238 20048 40083 52002 82132;
0221532760999992000082806004+42400+112890FM-12+115299999V0203201N010010900019N0300001N1+02361+00291100761ADDAA199000091GF107991041091012501001021KA1240N+01531MA1999999088221MD1710141+9999MW1171OA130601801REMSYN094AAXX  28061 53276 31680 73210 10236 20029 38822 40076 57014 71700 84902 333 20153 91118 91529;EQDQ01  00002PRCP99
0112532760999992000082809004+42400+112890FM-12+115299999V0202201N004010900019N0300001N1+02491+00281100621ADDGF106991021091012501001021MD1710101+9999REMSYN060AAXX  28091 53276 42680 62204 10249 20028 40062 57010 82902;
0190532760999992000082812004+42400+112890FM-12+115299999V0209999C000012200019N0300001N1+02081+00291100741ADDAA199000091GF103991011091012501001021MA1999999088211MD1210091+9999OA130602001REMSYN082AAXX  28121 53276 32680 30000 10208 20029 38821 40074 52009 81902 333 91120 91525;EQDQ01  00002PRCP99
0112532760999992000082815004+42400+112890FM-12+115299999V0202501N005012200019N0300001N1+01591+00671100901ADDGF101991011041012501001021MD1210121+9999REMSYN060AAXX  28151 53276 42680 12505 10159 20067 40090 52012 81402;
0196532760999992000082818004+42400+112890FM-12+115299999V0202201N005012200019N0300001N1+01371+00831100931ADDAA199000091GA1001+999999999GF100991001001999999001001KA1999M+02691MA1999999088311MD1710021+9999REMSYN070AAXX  28181 53276 32980 02205 10137 20083 38831 40093 57002 333 10269;EQDQ01  00002PRCP99
0122532760999992000082821004+42400+112890FM-12+115299999V0201601N003012200019N0300001N1+01071+00591100951ADDGA1001+999999999GF100991001001999999001001MD1710021+9999REMSYN054AAXX  28211 53276 42980 01603 10107 20059 40095 57002;
0173532760999992000082900004+42400+112890FM-12+115299999V0202001N005012200019N0300001N1+01781+00831100881ADDAA199000091GF102991001001999999001021MA1999999088291MD1410001+0011REMSYN076AAXX  29001 53276 32980 22005 10178 20083 38829 40088 54000 80002 333 05152;EQDQ01  00002PRCP99
0112532760999992000082903004+42400+112890FM-12+115299999V0202201N006012200019N0300001N1+02411+00721100771ADDGF101991011011012501001021MD1710071+9999REMSYN060AAXX  29031 53276 42680 12206 10241 20072 40077 57007 81102;
0186532760999992000082906004+42400+112890FM-12+115299999V0202201N005010120019N0300001N1+02731+00541100511ADDAA199000091GF105991051091012501001001KA1999N+01041MA1999999088011MD1710211+9999REMSYN076AAXX  29061 53276 32680 52205 10273 20054 38801 40051 57021 85900 333 20104;EQDQ01  00002PRCP99
0140532760999992000082909004+42400+112890FM-12+115299999V0202201N006012200019N0300001N1+02451+00761100551ADDAY191031AY281031GF103991021091012501001021MD1710081+9999MW1001REMSYN066AAXX  29091 53276 41680 32206 10245 20076 40055 57008 70098 82902;
0205532760999992000082912004+42400+112890FM-12+115299999V0202201N005010120019N0300001N1+02061+00791100551ADDAA106001091AY191061AY281061GF107991051091012501001021MA1999999088001MD1210071+9999MW1001OA130602301REMSYN094AAXX  29121 53276 11680 72205 10206 20079 38800 40055 52007 60011 70098 85902 333 91123 91525;
0132532760999992000082915004+42400+112890FM-12+115299999V0202201N007010900019N0300001N1+01941+00811100591ADDAY161031GF106991021051012501001021MD1210131+9999MW1211REMSYN066AAXX  29151 53276 41680 62207 10194 20081 40059 52013 72160 82502;
0193532760999992000082918004+42400+112890FM-12+115299999V0202201N004012200019N0300001N1+01681+00771100561ADDAA106000791AY161061GF102991011051012501001021KA1999M+02811MA1999999088121MD1710011+9999MW1001REMSYN088AAXX  29181 53276 11680 22204 10168 20077 38812 40056 57001 69901 70060 81502 333 10281;
0133532760999992000082921004+42400+112890FM-12+115299999V0202001N005010900019N0300001N1+01631+00821100561ADDAA124001391GF107991021051012501001021MD1710071+9999REMSYN070AAXX  29211 53276 42680 72005 10163 20082 40056 57007 82502 333 70012;
0160532760999992000083000004+42400+112890FM-12+115299999V0202201N006019999999N0300001N1+01821+00841100691ADDAA124001391GF107991021001999999031081MA1999999088131MD1210081-0201REMSYN082AAXX  30001 53276 32980 72206 10182 20084 38813 40069 52008 82038 333 05200 70012;
0112532760999992000083003004+42400+112890FM-12+115299999V0202201N008019999999N0300001N1+02291+00691100571ADDGF107991021001999999031021MD1710041+9999REMSYN060AAXX  30031 53276 42980 72208 10229 20069 40057 57004 82032;
0186532760999992000083006004+42400+112890FM-12+115299999V0201801N010012200019N0300001N1+02431+00701100501ADDAA199000091GF103991011011012501001021KA1999N+01541MA1999999088011MD1710081+9999REMSYN076AAXX  30061 53276 32680 31810 10243 20070 38801 40050 57008 81102 333 20154;EQDQ01  00002PRCP99
0112532760999992000083009004+42400+112890FM-12+115299999V0201401N004012200019N0300001N1+02421+00601100361ADDGF101991001001999999001021MD1710141+9999REMSYN060AAXX  30091 53276 42980 11404 10242 20060 40036 57014 80002;
0163532760999992000083012004+42400+112890FM-12+115299999V0201401N004012200019N0300001N1+01891+00881100471ADDAA199000091GF101991001001999999001021MA1999999087901MD1210031+9999REMSYN066AAXX  30121 53276 32980 11404 10189 20088 38790 40047 52003 80002;EQDQ01  00002PRCP99
0122532760999992000083015004+42400+112890FM-12+115299999V0201401N003012200019N0300001N1+01711+01041100501ADDGA1001+999999999GF100991001001999999001001MD1210081+9999REMSYN054AAXX  30151 53276 42980 01403 10171 20104 40050 52008;
0196532760999992000083018004+42400+112890FM-12+115299999V0201801N004012200019N0300001N1+01511+01011100441ADDAA199000091GA1001+999999999GF100991001001999999001001KA1999M+02581MA1999999087921MD1710061+9999REMSYN070AAXX  30181 53276 32980 01804 10151 20101 38792 40044 57006 333 10258;EQDQ01  00002PRCP99
0122532760999992000083021004+42400+112890FM-12+115299999V0202201N002012200019N0300001N1+01341+00791100471ADDGA1001+999999999GF100991001001999999001001MD1710011+9999REMSYN054AAXX  30211 53276 42980 02202 10134 20079 40047 57001;
0183532760999992000083100004+42400+112890FM-12+115299999V0201601N004012200019N0300001N1+01831+00871100561ADDAA199000091GA1001+999999999GF100991001001999999001001MA1999999087981MD1210071+0021REMSYN070AAXX  31001 53276 32980 01604 10183 20087 38798 40056 52007 333 05200;EQDQ01  00002PRCP99
0122532760999992000083103004+42400+112890FM-12+115299999V0201801N001012200019N0300001N1+02661+00781100381ADDGA1001+999999999GF100991001001999999001001MD1710031+9999REMSYN054AAXX  31031 53276 42980 01801 10266 20078 40038 57003;
0186532760999992000083106004+42400+112890FM-12+115299999V0201101N001012200019N0300001N1+02921+00631100211ADDAA199000091GF101991011011017501001001KA1999N+01291MA1999999087811MD1710141+9999REMSYN076AAXX  31061 53276 32780 11101 10292 20063 38781 40021 57014 81100 333 20129;EQDQ01  00002PRCP99
0112532760999992000083109004+42400+112890FM-12+115299999V0200201N003012200019N0300001N1+02861+00331100141ADDGF101991011011017501001001MD1710101+9999REMSYN060AAXX  31091 53276 42780 10203 10286 20033 40014 57010 81100;
0163532760999992000083112004+42400+112890FM-12+115299999V0201101N002012200019N0300001N1+02301+00601100271ADDAA199000091GF101991011041012501001001MA1999999087811MD1210101+9999REMSYN066AAXX  31121 53276 32680 11102 10230 20060 38781 40027 52010 81400;EQDQ01  00002PRCP99
0122532760999992000083115004+42400+112890FM-12+115299999V0201801N003012200019N0300001N1+01921+00691100271ADDGA1001+999999999GF100991001001999999001001MD1210091+9999REMSYN054AAXX  31151 53276 42980 01803 10192 20069 40027 52009;
0196532760999992000083118004+42400+112890FM-12+115299999V0201601N004012200019N0300001N1+01791+00781100211ADDAA199000091GA1001+999999999GF100991001001999999001001KA1999M+03021MA1999999087871MD1710031+9999REMSYN070AAXX  31181 53276 32980 01604 10179 20078 38787 40021 57003 333 10302;EQDQ01  00002PRCP99
0112532760999992000083121004+42400+112890FM-12+115299999V0201801N002012200019N0300001N1+01591+00831100281ADDGF101991011011012501031001MD1210011+9999REMSYN060AAXX  31211 53276 42680 11802 10159 20083 40028 52001 81130;
0173532760999992000090100004+42400+112890FM-12+115299999V0201801N003012200019N0300001N1+02011+01041100441ADDAA199000091GF101991011011012501001001MA1999999087991MD1210111+0001REMSYN076AAXX  01001 53276 32680 11803 10201 20104 38799 40044 52011 81100 333 00002;EQDQ01  00002PRCP99
0122532760999992000090103004+42400+112890FM-12+115299999V0201401N002012200019N0300001N1+02751+01091100381ADDGA1001+999999999GF100991001001999999001001MD1210021+9999REMSYN054AAXX  01031 53276 42980 01402 10275 20109 40038 52002;
0186532760999992000090106004+42400+112890FM-12+115299999V0200901N002012200019N0300001N1+03001+00851100221ADDAA199000091GF102991021011012501001001KA1999N+01561MA1999999087891MD1710121+9999REMSYN076AAXX  01061 53276 32680 20902 10300 20085 38789 40022 57012 82100 333 20156;EQDQ01  00002PRCP99
0112532760999992000090109004+42400+112890FM-12+115299999V0203401N002012200019N0300001N1+03041+00781100161ADDGF101991011011012501001001MD1710081+9999REMSYN060AAXX  01091 53276 42680 13402 10304 20078 40016 57008 81100;
0163532760999992000090112004+42400+112890FM-12+115299999V0200701N004012200019N0300001N1+02501+00681100261ADDAA199000091GF102991011011012501001021MA1999999087871MD1210061+9999REMSYN066AAXX  01121 53276 32680 20704 10250 20068 38787 40026 52006 81102;EQDQ01  00002PRCP99
0122532760999992000090115004+42400+112890FM-12+115299999V0201801N005012200019N0300001N1+02151+00981100281ADDGA1001+999999999GF100991001001999999001001MD1210101+9999REMSYN054AAXX  01151 53276 42980 01805 10215 20098 40028 52010;
0186532760999992000090118004+42400+112890FM-12+115299999V0201801N006012200019N0300001N1+01991+00971100411ADDAA199000091GF101991011051012501001001KA1999M+03161MA1999999088101MD1210131+9999REMSYN076AAXX  01181 53276 32680 11806 10199 20097 38810 40041 52013 81500 333 10316;EQDQ01  00002PRCP99
0112532760999992000090121004+42400+112890FM-12+115299999V0201801N006012200019N0300001N1+01891+01091100471ADDGF101991011051012501001021MD1210041+9999REMSYN060AAXX  01211 53276 42680 11806 10189 20109 40047 52004 81502;
0173532760999992000090200004+42400+112890FM-12+115299999V0201801N008010900019N0300001N1+02121+01131100641ADDAA199000091GF105991011051012501031021MA1999999088231MD1210091+0021REMSYN076AAXX  02001 53276 32680 51808 10212 20113 38823 40064 52009 81532 333 00201;EQDQ01  00002PRCP99
0112532760999992000090203004+42400+112890FM-12+115299999V0202201N004012200019N0300001N1+02811+01011100601ADDGF102991001001999999001021MD1210031+9999REMSYN060AAXX  02031 53276 42980 22204 10281 20101 40060 52003 80002;
0186532760999992000090206004+42400+112890FM-12+115299999V0202201N005012200019N0300001N1+03051+00631100461ADDAA199000091GF101991011011012501001021KA1999N+01831MA1999999088151MD1710111+9999REMSYN076AAXX  02061 53276 32680 12205 10305 20063 38815 40046 57011 81102 333 20183;EQDQ01  00002PRCP99
0112532760999992000090209004+42400+112890FM-12+115299999V0202201N005010900019N0300001N1+02971+00711100441ADDGF107991021011012501001021MD1710051+9999REMSYN060AAXX  02091 53276 42680 72205 10297 20071 40044 57005 82102;
0163532760999992000090212004+42400+112890FM-12+115299999V0202001N004010360019N0300001N1+02711+00931100601ADDAA199000091GF108991021091012501031071MA1999999088231MD1210131+9999REMSYN066AAXX  02121 53276 32680 82004 10271 20093 38823 40060 52013 82937;EQDQ01  00002PRCP99
0112532760999992000090215004+42400+112890FM-12+115299999V0201801N003019999999N0300001N1+02341+01111100611ADDGF105991011001999999031021MD1210071+9999REMSYN060AAXX  02151 53276 42980 51803 10234 20111 40061 52007 81032;
0186532760999992000090218004+42400+112890FM-12+115299999V0201801N005010900019N0300001N1+02221+01201100601ADDAA199000091GF105991011051012501001021KA1999M+03191MA1999999088321MD1210021+9999REMSYN076AAXX  02181 53276 32680 51805 10222 20120 38832 40060 52002 81502 333 10319;EQDQ01  00002PRCP99
0112532760999992000090221004+42400+112890FM-12+115299999V0201801N005019999999N0300001N1+02101+01191100671ADDGF107991001001999999001021MD1210021+9999REMSYN060AAXX  02211 53276 42980 71805 10210 20119 40067 52002 80002;
0173532760999992000090300004+42400+112890FM-12+115299999V0202501N003010120019N0300001N1+02191+01221100821ADDAA199000091GF107991051051012501001021MA1999999088441MD1210101+0021REMSYN076AAXX  03001 53276 32680 72503 10219 20122 38844 40082 52010 85502 333 00201;EQDQ01  00002PRCP99
0132532760999992000090303004+42400+112890FM-12+115299999V0201101N002010360019N0150001N1+01911+01631101011ADDAY161031GF108991031051012501011999MD1210041+9999MW1211REMSYN066AAXX  03031 53276 41665 81102 10191 20163 40101 52004 72160 8351/;
0193532760999992000090306004+42400+112890FM-12+115299999V0203401N003019999999N0200001N1+02091+01551100961ADDAA106001091AY161061GF108991081001999999021999KA1999N+01861MA1999999088451MD1710031+9999MW1601REMSYN088AAXX  03061 53276 11970 83403 10209 20155 38845 40096 57003 69991 76060 8802/ 333 20186;
0132532760999992000090309004+42400+112890FM-12+115299999V0203401N006010120019N0200001N1+01971+01621101051ADDAY161031GF107991071051012501999999MD1210031+9999MW1601REMSYN066AAXX  03091 53276 41670 73406 10197 20162 40105 52003 76060 875//;
0170532760999992000090312004+42400+112890FM-12+115299999V0203401N005019999999N0150001N1+01761+01671101311ADDAA106008991AY161061GF108991081001999999021999MA1999999088681MD1210201+9999MW1601REMSYN078AAXX  03121 53276 11965 83405 10176 20167 38868 40131 52020 60091 76060 8802/;
0140532760999992000090315004+42400+112890FM-12+115299999V0203401N002019999999N0150001N1+01361+01241101681ADDAY161031AY261031GF108991081001999999021999MD1210191+9999MW1601REMSYN066AAXX  03151 53276 41965 83402 10136 20124 40168 52019 76066 8802/;
0193532760999992000090318004+42400+112890FM-12+115299999V0203401N005019999999N0150001N1+01321+01121101741ADDAA106005191AY161061GF108991081001999999021999KA1999M+02291MA1999999088951MD1210081+9999MW1601REMSYN088AAXX  03181 53276 11965 83405 10132 20112 38895 40174 52008 60051 76060 8802/ 333 10229;
0161532760999992000090321004+42400+112890FM-12+115299999V0202901N004010360019N0200001N1+01181+01031101851ADDAA124016591AY161031AY261031GF108991011051012501011999MD1210041+9999MW1601REMSYN076AAXX  03211 53276 41670 82904 10118 20103 40185 52004 76066 8151/ 333 70164;
0194532760999992000090400004+42400+112890FM-12+115299999V0202701N002010360019N0300001N1+01011+00801102041ADDAA106003091AY161061AY261061GF108991011051012501011999MA1999999089081MD1210091+0601MW1601REMSYN094AAXX  04001 53276 11680 82702 10101 20080 38908 40204 52009 60031 76066 8151/ 333 00662 70177;
0140532760999992000090403004+42400+112890FM-12+115299999V0202201N004010360019N0300001N1+01121+00771102211ADDAY161031AY261031GF108991031051012501011999MD1210091+9999MW1601REMSYN066AAXX  04031 53276 41680 82204 10112 20077 40221 52009 76066 8351/;
0125532760999992000090406004+42400+112890FM-12+115299999V0202901N004019999999N0300001N1+01381+99999999999ADDGF107991999999012501999999REMSYN087AAXX  04061 53276 11680 72904 10138 0088 38908 40206 57009 69951 70060 8251/ 333 20099;
0112532760999992000090409004+42400+112890FM-12+115299999V0203401N004010120019N0300001N1+01541+00631102021ADDGF107991051051012501031081MD1710031+9999REMSYN060AAXX  04091 53276 42680 73404 10154 20063 40202 57003 85538;
0144532760999992000090412004+42400+112890FM-12+115299999V0202701N003012200019N0300001N1+01311+00881102101ADDAA199000021GF104991031001999999031021MA1999999089041MD1710011+9999REMSYN066AAXX  04121 53276 32980 42703 10131 20088 38904 40210 57001 83032;
0112532760999992000090415004+42400+112890FM-12+115299999V0203401N005012200019N0300001N1+01011+00371102321ADDGF101991011001999999031001MD1210151+9999REMSYN060AAXX  04151 53276 42980 13405 10101 20037 40232 52015 81030;
0196532760999992000090418004+42400+112890FM-12+115299999V0209999C000012200019N0300001N1+00711+00311102421ADDAA199000091GA1001+999999999GF100991001001999999001001KA1999M+01591MA1999999089271MD1210081+9999REMSYN070AAXX  04181 53276 32980 00000 10071 20031 38927 40242 52008 333 10159;EQDQ01  00002PRCP99
0178532760999992000090500004+42400+112890FM-12+115299999V0202501N004012200019N0300001N1+00841+00311102511ADDAA124000591GF101991011001999999031001IA2999+00289MA1999999089361MD1210061+0301REMSYN088AAXX  05001 53276 32980 12504 10084 20031 38936 40251 52006 81030 333 00352 30028 70005;
0112532760999992000090503004+42400+112890FM-12+115299999V0203401N005012200019N0300001N1+01381+00111102491ADDGF101991011011012501001001MD1210031+9999REMSYN060AAXX  05031 53276 42680 13405 10138 20011 40249 52003 81100;
0186532760999992000090506004+42400+112890FM-12+115299999V0203401N007012200019N0300001N1+01481-00151102401ADDAA199000091GF101991011011012501001001KA1999N+00491MA1999999089271MD1710121+9999REMSYN076AAXX  05061 53276 32680 13407 10148 21015 38927 40240 57012 81100 333 20049;EQDQ01  00002PRCP99
0112532760999992000090509004+42400+112890FM-12+115299999V0203401N006012200019N0300001N1+01421-00381102351ADDGF101991011011012501001001MD1710081+9999REMSYN060AAXX  05091 53276 42680 13406 10142 21038 40235 57008 81100;
0173532760999992000090512004+42400+112890FM-12+115299999V0203401N003012200019N0300001N1+01051-00111102401ADDAA199000091GA1001+999999999GF100991001001999999001001MA1999999089211MD1210021+9999REMSYN060AAXX  05121 53276 32980 03403 10105 21011 38921 40240 52002;EQDQ01  00002PRCP99
0122532760999992000090515004+42400+112890FM-12+115299999V0203401N003012200019N0300001N1+00761-00121102391ADDGA1001+999999999GF100991001001999999001001MD1210041+9999REMSYN054AAXX  05151 53276 42980 03403 10076 21012 40239 52004;
0196532760999992000090518004+42400+112890FM-12+115299999V0202901N003012200019N0300001N1+00591-00171102321ADDAA199000091GA1001+999999999GF100991001001999999001001KA1999M+01531MA1999999089181MD1710071+9999REMSYN070AAXX  05181 53276 32980 02903 10059 21017 38918 40232 57007 333 10153;EQDQ01  00002PRCP99
0122532760999992000090521004+42400+112890FM-12+115299999V0202001N002012200019N0300001N1+00491-00061102351ADDGA1001+999999999GF100991001001999999001001MD1710011+9999REMSYN054AAXX  05211 53276 42980 02002 10049 21006 40235 57001;
0201532760999992000090600004+42400+112890FM-12+115299999V0202501N004012200019N0300001N1+00731-00011102401ADDAA199000091GA1001+999999999GF100991001001999999001001IA2999+00009MA1999999089181MD1210011-0201REMSYN076AAXX  06001 53276 32980 02504 10073 21001 38918 40240 52001 333 05251 30008;EQDQ01  00002PRCP99
0122532760999992000090603004+42400+112890FM-12+115299999V0202501N004012200019N0300001N1+01351-00311102271ADDGA1001+999999999GF100991001001999999001001MD1710041+9999REMSYN054AAXX  06031 53276 42980 02504 10135 21031 40227 57004;
0186532760999992000090606004+42400+112890FM-12+115299999V0203401N004012200019N0300001N1+01641-00071102031ADDAA199000091GF101991011011012501001001KA1999N+00341MA1999999088961MD1710181+9999REMSYN076AAXX  06061 53276 32680 13404 10164 21007 38896 40203 57018 81100 333 20034;EQDQ01  00002PRCP99
0112532760999992000090609004+42400+112890FM-12+115299999V0202901N005012200019N0300001N1+01781+00041101861ADDGF101991011011012501001001MD1710141+9999REMSYN060AAXX  06091 53276 42680 12905 10178 20004 40186 57014 81100;
0173532760999992000090612004+42400+112890FM-12+115299999V0202501N003012200019N0300001N1+01341+00441101961ADDAA199000091GA1001+999999999GF100991001001999999001001MA1999999088861MD1210041+9999REMSYN060AAXX  06121 53276 32980 02503 10134 20044 38886 40196 52004;EQDQ01  00002PRCP99
0122532760999992000090615004+42400+112890FM-12+115299999V0202201N004012200019N0300001N1+01071+00471101931ADDGA1001+999999999GF100991001001999999001001MD1210051+9999REMSYN054AAXX  06151 53276 42980 02204 10107 20047 40193 52005;
0196532760999992000090618004+42400+112890FM-12+115299999V0202201N005012200019N0300001N1+00991+00291101841ADDAA199000091GA1001+999999999GF100991001001999999001001KA1999M+01791MA1999999088881MD1710031+9999REMSYN070AAXX  06181 53276 32980 02205 10099 20029 38888 40184 57003 333 10179;EQDQ01  00002PRCP99
0122532760999992000090621004+42400+112890FM-12+115299999V0202201N007012200019N0300001N1+00991+00111101761ADDGA1001+999999999GF100991001001999999001001MD1710041+9999REMSYN054AAXX  06211 53276 42980 02207 10099 20011 40176 57004;
0173532760999992000090700004+42400+112890FM-12+115299999V0202201N007012200019N0300001N1+01131+00211101851ADDAA199000091GF101991001001999999001021MA1999999088851MD1210011+0031REMSYN076AAXX  07001 53276 32980 12207 10113 20021 38885 40185 52001 80002 333 05304;EQDQ01  00002PRCP99
0122532760999992000090703004+42400+112890FM-12+115299999V0202501N006012200019N0300001N1+01841-00281101751ADDGA1001+999999999GF100991001001999999001001MD1210011+9999REMSYN054AAXX  07031 53276 42980 02506 10184 21028 40175 52001;
0186532760999992000090706004+42400+112890FM-12+115299999V0202501N007012200019N0300001N1+02061-00371101541ADDAA199000091GF101991011011012501001001KA1999N+00881MA1999999088701MD1710161+9999REMSYN076AAXX  07061 53276 32680 12507 10206 21037 38870 40154 57016 81100 333 20088;EQDQ01  00002PRCP99
0112532760999992000090709004+42400+112890FM-12+115299999V0202901N005012200019N0300001N1+02121-00491101391ADDGF101991011011012501001001MD1710121+9999REMSYN060AAXX  07091 53276 42680 12905 10212 21049 40139 57012 81100;
0163532760999992000090712004+42400+112890FM-12+115299999V0202201N005012200019N0300001N1+01641-00211101501ADDAA199000091GF102991011041012501031001MA1999999088611MD1210031+9999REMSYN066AAXX  07121 53276 32680 22205 10164 21021 38861 40150 52003 81430;EQDQ01  00002PRCP99
0112532760999992000090715004+42400+112890FM-12+115299999V0203601N003012200019N0300001N1+01351+00071101591ADDGF101991011041012501001001MD1210161+9999REMSYN060AAXX  07151 53276 42680 13603 10135 20007 40159 52016 81400;
0143532760999992000090718004+42400+112890FM-12+115299999V0209999C000012200019N0300001N1+99999+99999999999ADDAA199000091GF101991999999012501999999REMSYN075AAXX  07181 53276 32680 10000 1010 20050 38881 40164 52004 81500 333 10219;EQDQ01  00002PRCP99
0112532760999992000090721004+42400+112890FM-12+115299999V0201601N002012200019N0300001N1+00871+00331101701ADDGF101991011051012501001001MD1210021+9999REMSYN060AAXX  07211 53276 42680 11602 10087 20033 40170 52002 81500;
0173532760999992000090800004+42400+112890FM-12+115299999V0202201N003012200019N0300001N1+01161+00281101861ADDAA199000091GF101991011051012501001001MA1999999088931MD1210101+0011REMSYN076AAXX  08001 53276 32680 12203 10116 20028 38893 40186 52010 81500 333 00100;EQDQ01  00002PRCP99
0112532760999992000090803004+42400+112890FM-12+115299999V0203401N003012200019N0300001N1+01891+00111101781ADDGF101991011011012501001001MD1210021+9999REMSYN060AAXX  08031 53276 42680 13403 10189 20011 40178 52002 81100;
0186532760999992000090806004+42400+112890FM-12+115299999V0202701N005012200019N0300001N1+02081-00091101641ADDAA199000091GF101991011011012501001001KA1999N+00741MA1999999088821MD1710131+9999REMSYN076AAXX  08061 53276 32680 12705 10208 21009 38882 40164 57013 81100 333 20074;EQDQ01  00002PRCP99
0112532760999992000090809004+42400+112890FM-12+115299999V0203201N005012200019N0300001N1+02121-00501101631ADDGF101991011011012501001001MD1710051+9999REMSYN060AAXX  08091 53276 42680 13205 10212 21050 40163 57005 81100;
0173532760999992000090812004+42400+112890FM-12+115299999V0202701N002012200019N0300001N1+01631-00051101791ADDAA199000091GA1001+999999999GF100991001001999999001001MA1999999088871MD1210101+9999REMSYN060AAXX  08121 53276 32980 02702 10163 21005 38887 40179 52010;EQDQ01  00002PRCP99
0196532760999992000090818004+42400+112890FM-12+115299999V0209999C000012200019N0300001N1+00871+00201101951ADDAA199000091GA1001+999999999GF100991001001999999001001KA1999M+02161MA1999999089041MD1210041+9999REMSYN070AAXX  08181 53276 32980 00000 10087 20020 38904 40195 52004 333 10216;EQDQ01  00002PRCP99
0122532760999992000090821004+42400+112890FM-12+115299999V0209999C000012200019N0300001N1+00671+00211102031ADDGA1001+999999999GF100991001001999999001001MD1210041+9999REMSYN054AAXX  08211 53276 42980 00000 10067 20021 40203 52004;
0201532760999992000090900004+42400+112890FM-12+115299999V0202201N003012200019N0300001N1+00941+00261101741ADDAA199000091GA1001+999999999GF100991001001999999001001IA2999+00309MA1999999088781MD1710301-0201REMSYN076AAXX  09001 53276 32980 02203 10094 20026 38878 40174 57030 333 05252 30030;EQDQ01  00002PRCP99
0122532760999992000090903004+42400+112890FM-12+115299999V0201101N001012200019N0300001N1+01851+00341102121ADDGA1001+999999999GF100991001001999999001001MD1210071+9999REMSYN054AAXX  09031 53276 42980 01101 10185 20034 40212 52007;
0196532760999992000090906004+42400+112890FM-12+115299999V0201401N002012200019N0300001N1+01991+00311101971ADDAA199000091GA1001+999999999GF100991001001999999001001KA1999N+00551MA1999999089041MD1710181+9999REMSYN070AAXX  09061 53276 32980 01402 10199 20031 38904 40197 57018 333 20055;EQDQ01  00002PRCP99
0122532760999992000090909004+42400+112890FM-12+115299999V0201401N002012200019N0300001N1+02051+00101101901ADDGA1001+999999999GF100991001001999999001001MD1710091+9999REMSYN054AAXX  09091 53276 42980 01402 10205 20010 40190 57009;
0173532760999992000090912004+42400+112890FM-12+115299999V0201801N001012200019N0300001N1+01651+00231101931ADDAA199000091GA1001+999999999GF100991001001999999001001MA1999999088951MD1410001+9999REMSYN060AAXX  09121 53276 32980 01801 10165 20023 38895 40193 54000;EQDQ01  00002PRCP99
0122532760999992000090915004+42400+112890FM-12+115299999V0202001N005012200019N0300001N1+01301+00231101791ADDGA1001+999999999GF100991001001999999001001MD1710011+9999REMSYN054AAXX  09151 53276 42980 02005 10130 20023 40179 57001;
0196532760999992000090918004+42400+112890FM-12+115299999V0202001N004012200019N0300001N1+01241-00041101691ADDAA199000091GA1001+999999999GF100991001001999999001001KA1999M+02171MA1999999088871MD1710071+9999REMSYN070AAXX  09181 53276 32980 02004 10124 21004 38887 40169 57007 333 10217;EQDQ01  00002PRCP99
0122532760999992000090921004+42400+112890FM-12+115299999V0201601N003012200019N0300001N1+01081-00161101621ADDGA1001+999999999GF100991001001999999001001MD1710081+9999REMSYN054AAXX  09211 53276 42980 01603 10108 21016 40162 57008;
0173532760999992000091000004+42400+112890FM-12+115299999V0202501N004012200019N0300001N1+01451-00031101661ADDAA199000091GF104991001001999999001021MA1999999088821MD1210031+0031REMSYN076AAXX  10001 53276 32980 42504 10145 21003 38882 40166 52003 80002 333 05305;EQDQ01  00002PRCP99
0112532760999992000091003004+42400+112890FM-12+115299999V0202501N002012200019N0300001N1+02201-00261101561ADDGF104991001001999999001021MD1710011+9999REMSYN060AAXX  10031 53276 42980 42502 10220 21026 40156 57001 80002;
0186532760999992000091006004+42400+112890FM-12+115299999V0202001N004010900019N0300001N1+02481-00461101281ADDAA199000091GF107991011011012501001021KA1999N+01001MA1999999088611MD1710201+9999REMSYN076AAXX  10061 53276 32680 72004 10248 21046 38861 40128 57020 81102 333 20100;EQDQ01  00002PRCP99
0112532760999992000091009004+42400+112890FM-12+115299999V0202201N001010360019N0300001N1+02301-00271101231ADDGF108991011041012501031021MD1710111+9999REMSYN060AAXX  10091 53276 42680 82201 10230 21027 40123 57011 81432;
0163532760999992000091012004+42400+112890FM-12+115299999V0202901N004010360019N0300001N1+01771+00451101311ADDAA199000091GF108991021051012501031071MA1999999088541MD1210041+9999REMSYN066AAXX  10121 53276 32680 82904 10177 20045 38854 40131 52004 82537;EQDQ01  00002PRCP99
0112532760999992000091015004+42400+112890FM-12+115299999V0209999C000010900019N0300001N1+01481+00691101351ADDGF108991021051012501001071MD1210121+9999REMSYN060AAXX  10151 53276 42680 80000 10148 20069 40135 52012 82507;
0186532760999992000091018004+42400+112890FM-12+115299999V0202001N003010900019N0300001N1+01441+00711101281ADDAA199000091GF108991031051012501001071KA1999M+02521MA1999999088651MD1710011+9999REMSYN076AAXX  10181 53276 32680 82003 10144 20071 38865 40128 57001 83507 333 10252;EQDQ01  00002PRCP99
0153532760999992000091021004+42400+112890FM-12+115299999V0201801N003010360019N0300001N1+01301+00891101341ADDAA124000791AY161031GF108991031051012501021999MD1710011+9999MW1601REMSYN076AAXX  10211 53276 41680 81803 10130 20089 40134 57001 76060 8352/ 333 79999;
0186532760999992000091100004+42400+112890FM-12+115299999V0201601N003010360019N0250001N1+01221+01041101511ADDAA106000391AY161061GF108991031051012501021999MA1999999088661MD1210021-0201MW1601REMSYN094AAXX  11001 53276 11675 81603 10122 20104 38866 40151 52002 69931 76060 8352/ 333 05252 70003;
0132532760999992000091103004+42400+112890FM-12+115299999V0201801N008012200019N0300001N1+01841+00791101371ADDAY161031GF102991021001999999031021MD1710051+9999MW1001REMSYN066AAXX  11031 53276 41980 21808 10184 20079 40137 57005 70060 82032;
0193532760999992000091106004+42400+112890FM-12+115299999V0202001N005010900019N0250001N1+02051+00441101131ADDAA106000391AY161061GF107991031091012501001021KA1999N+01191MA1999999088431MD1710181+9999MW1801REMSYN088AAXX  11061 53276 11675 72005 10205 20044 38843 40113 57018 69931 78060 83902 333 20119;
0132532760999992000091109004+42400+112890FM-12+115299999V0202201N006010120019N0120001N1+01311+00961101441ADDAY181031GF107991071091012501001021MD1210091+9999MW1951REMSYN066AAXX  11091 53276 41662 72206 10131 20096 40144 52009 79580 87902;
0195532760999992000091112004+42400+112890FM-12+115299999V0201101N005010120019N0150001N1+01231+00991101671ADDAA106008991AY191061AY281061GF107991071091012501001021HL10009MA1999999088691MD1210171+9999MW1951REMSYN088AAXX  11121 53276 11665 71105 10123 20099 38869 40167 52017 60091 79598 87902 333 93902;
0140532760999992000091115004+42400+112890FM-12+115299999V0201801N004012200019N0300001N1+01101+00891101581ADDAY191031AY281031GF101991001001999999001021MD1210021+9999MW1001REMSYN066AAXX  11151 53276 41980 11804 10110 20089 40158 52002 70098 80002;
0211532760999992000091118004+42400+112890FM-12+115299999V0201801N003012200019N0300001N1+00991+00841101541ADDAA106003091AY191061AY281061GA1001+999999999GF100991001001999999001001KA1999M+02191MA1999999088701MD1710011+9999MW1001REMSYN082AAXX  11181 53276 11980 01803 10099 20084 38870 40154 57001 60031 70098 333 10219;
0143532760999992000091121004+42400+112890FM-12+115299999V0202201N004012200019N0300001N1+00911+00751101821ADDAA124012291GA1001+999999999GF100991001001999999001001MD1210071+9999REMSYN064AAXX  11211 53276 42980 02204 10091 20075 40182 52007 333 70121;
0170532760999992000091200004+42400+112890FM-12+115299999V0202701N003012200019N0300001N1+01041+00851101981ADDAA124011791GA1001+999999999GF100991001001999999001001MA1999999088921MD1210151+0301REMSYN076AAXX  12001 53276 32980 02703 10104 20085 38892 40198 52015 333 00352 70118;
0112532760999992000091203004+42400+112890FM-12+115299999V0200201N002012200019N0300001N1+01511+01041102081ADDGF101991011011012501001001MD1210161+9999REMSYN060AAXX  12031 53276 42680 10202 10151 20104 40208 52016 81100;
0186532760999992000091206004+42400+112890FM-12+115299999V0203601N002012200019N0300001N1+01781+00821101981ADDAA199000091GF102991021011012501001001KA1999N+00821MA1999999089031MD1710051+9999REMSYN076AAXX  12061 53276 32680 23602 10178 20082 38903 40198 57005 82100 333 20082;EQDQ01  00002PRCP99
0112532760999992000091209004+42400+112890FM-12+115299999V0203601N002012200019N0300001N1+01881+00821101941ADDGF102991021011012501001021MD1710031+9999REMSYN060AAXX  12091 53276 42680 23602 10188 20082 40194 57003 82102;
0163532760999992000091212004+42400+112890FM-12+115299999V0200201N002012200019N0300001N1+01511+00961102131ADDAA199000091GF101991011041012501001001MA1999999089111MD1210111+9999REMSYN066AAXX  12121 53276 32680 10202 10151 20096 38911 40213 52011 81400;EQDQ01  00002PRCP99
0122532760999992000091215004+42400+112890FM-12+115299999V0202501N002012200019N0300001N1+01231+00971102221ADDGA1001+999999999GF100991001001999999001001MD1210121+9999REMSYN054AAXX  12151 53276 42980 02502 10123 20097 40222 52012;
0186532760999992000091218004+42400+112890FM-12+115299999V0201801N002012200019N0300001N1+01071+00881102201ADDAA199000091GF102991001001999999001021KA1999M+01901MA1999999089241MD1210011+9999REMSYN076AAXX  12181 53276 32980 21802 10107 20088 38924 40220 52001 80002 333 10190;EQDQ01  00002PRCP99
0112532760999992000091221004+42400+112890FM-12+115299999V0202001N003012200019N0300001N1+00961+00761102181ADDGF103991001001999999001021MD1710021+9999REMSYN060AAXX  12211 53276 42980 32003 10096 20076 40218 57002 80002;
0173532760999992000091300004+42400+112890FM-12+115299999V0202001N002019999999N0300001N1+01131+00861102311ADDAA199000091GF106991001001999999001021MA1999999089291MD1210071+0041REMSYN076AAXX  13001 53276 32980 62002 10113 20086 38929 40231 52007 80002 333 00401;EQDQ01  00002PRCP99
0112532760999992000091303004+42400+112890FM-12+115299999V0200901N002019999999N0300001N1+01851+00821102221ADDGF107991001001999999001021MD1210011+9999REMSYN060AAXX  13031 53276 42980 70902 10185 20082 40222 52001 80002;
0186532760999992000091306004+42400+112890FM-12+115299999V0201401N002010900019N0300001N1+02031+00641102031ADDAA199000091GF107991021011012501001021KA1999N+00841MA1999999089141MD1710161+9999REMSYN076AAXX  13061 53276 32680 71402 10203 20064 38914 40203 57016 82102 333 20084;EQDQ01  00002PRCP99
0112532760999992000091309004+42400+112890FM-12+115299999V0200201N001012200019N0300001N1+02121+00751101911ADDGF103991021011012501001021MD1710111+9999REMSYN060AAXX  13091 53276 42680 30201 10212 20075 40191 57011 82102;
0163532760999992000091312004+42400+112890FM-12+115299999V0200201N003012200019N0300001N1+01661+00761102031ADDAA199000091GF101991011051012501001001MA1999999089081MD1210051+9999REMSYN066AAXX  13121 53276 32680 10203 10166 20076 38908 40203 52005 81500;EQDQ01  00002PRCP99
0122532760999992000091315004+42400+112890FM-12+115299999V0201801N003012200019N0300001N1+01361+00721101981ADDGA1001+999999999GF100991001001999999001001MD1210041+9999REMSYN054AAXX  13151 53276 42980 01803 10136 20072 40198 52004;
0186532760999992000091318004+42400+112890FM-12+115299999V0202201N002012200019N0300001N1+01101+00681101951ADDAA199000091GF101991011001999999031001KA1999M+02171MA1999999089081MD1710041+9999REMSYN076AAXX  13181 53276 32980 12202 10110 20068 38908 40195 57004 81030 333 10217;EQDQ01  00002PRCP99
0112532760999992000091321004+42400+112890FM-12+115299999V0202001N002012200019N0300001N1+01091+00651101881ADDGF102991021051012501031021MD1710051+9999REMSYN060AAXX  13211 53276 42680 22002 10109 20065 40188 57005 82532;
0173532760999992000091400004+42400+112890FM-12+115299999V0209999C000012200019N0300001N1+01361+00771101951ADDAA199000091GF102991021051012501001021MA1999999089051MD1210021+0021REMSYN076AAXX  14001 53276 32680 20000 10136 20077 38905 40195 52002 82502 333 05202;EQDQ01  00002PRCP99
0112532760999992000091403004+42400+112890FM-12+115299999V0200701N001012200019N0300001N1+02071+00521101851ADDGF101991011011012501001001MD1410001+9999REMSYN060AAXX  14031 53276 42680 10701 10207 20052 40185 54000 81100;
0186532760999992000091406004+42400+112890FM-12+115299999V0202001N003012200019N0300001N1+02231+00271101641ADDAA199000091GF101991011011012501001001KA1999N+01011MA1999999088851MD1710201+9999REMSYN076AAXX  14061 53276 32680 12003 10223 20027 38885 40164 57020 81100 333 20101;EQDQ01  00002PRCP99
0112532760999992000091409004+42400+112890FM-12+115299999V0202501N002012200019N0300001N1+02271+00251101521ADDGF101991011011012501001001MD1710101+9999REMSYN060AAXX  14091 53276 42680 12502 10227 20025 40152 57010 81100;
0163532760999992000091412004+42400+112890FM-12+115299999V0201401N002012200019N0300001N1+01811+00421101591ADDAA199000091GF101991011041012501001001MA1999999088771MD1210021+9999REMSYN066AAXX  14121 53276 32680 11402 10181 20042 38877 40159 52002 81400;EQDQ01  00002PRCP99
0122532760999992000091415004+42400+112890FM-12+115299999V0201801N003012200019N0300001N1+01341+00421101501ADDGA1001+999999999GF100991001001999999001001MD1710031+9999REMSYN054AAXX  14151 53276 42980 01803 10134 20042 40150 57003;
0186532760999992000091418004+42400+112890FM-12+115299999V0201801N004012200019N0300001N1+01311+00351101341ADDAA199000091GF101991011001999999031001KA1999M+02351MA1999999088631MD1710111+9999REMSYN076AAXX  14181 53276 32980 11804 10131 20035 38863 40134 57011 81030 333 10235;EQDQ01  00002PRCP99
0112532760999992000091421004+42400+112890FM-12+115299999V0201801N005012200019N0300001N1+01161+00331101241ADDGF101991011001999999031001MD1710111+9999REMSYN060AAXX  14211 53276 42980 11805 10116 20033 40124 57011 81030;
0173532760999992000091500004+42400+112890FM-12+115299999V0202201N003012200019N0300001N1+01601+00521101241ADDAA199000091GF103991021051012501031021MA1999999088511MD1710011+0051REMSYN076AAXX  15001 53276 32680 32203 10160 20052 38851 40124 57001 82532 333 05502;EQDQ01  00002PRCP99
0112532760999992000091503004+42400+112890FM-12+115299999V0203601N003010360019N0300001N1+02151+00351101131ADDGF106991041051012501031021MD1710081+9999REMSYN060AAXX  15031 53276 42680 63603 10215 20035 40113 57008 84532;
0186532760999992000091506004+42400+112890FM-12+115299999V0203401N005012200019N0300001N1+02551+00201100871ADDAA199000091GF104991021011012501031021KA1999N+01071MA1999999088281MD1710151+9999REMSYN076AAXX  15061 53276 32680 43405 10255 20020 38828 40087 57015 82132 333 20107;EQDQ01  00002PRCP99
0112532760999992000091509004+42400+112890FM-12+115299999V0200401N003010360019N0300001N1+02471+00241100881ADDGF105991031091012501031021MD1710041+9999REMSYN060AAXX  15091 53276 42680 50403 10247 20024 40088 57004 83932;
0163532760999992000091512004+42400+112890FM-12+115299999V0209999C000012200019N0300001N1+01921+00571101031ADDAA199000091GF102991011011012501001021MA1999999088351MD1210111+9999REMSYN066AAXX  15121 53276 32680 20000 10192 20057 38835 40103 52011 81102;EQDQ01  00002PRCP99
0122532760999992000091515004+42400+112890FM-12+115299999V0202501N003012200019N0300001N1+01571+00531101111ADDGA1001+999999999GF100991001001999999001001MD1210111+9999REMSYN054AAXX  15151 53276 42980 02503 10157 20053 40111 52011;
0196532760999992000091518004+42400+112890FM-12+115299999V0202501N003012200019N0300001N1+01331+00271101081ADDAA199000091GA1001+999999999GF100991001001999999001001KA1999M+02671MA1999999088471MD1210011+9999REMSYN070AAXX  15181 53276 32980 02503 10133 20027 38847 40108 52001 333 10267;EQDQ01  00002PRCP99
0122532760999992000091521004+42400+112890FM-12+115299999V0202201N005012200019N0300001N1+01031+00191101161ADDGA1001+999999999GF100991001001999999001001MD1710011+9999REMSYN054AAXX  15211 53276 42980 02205 10103 20019 40116 57001;
0183532760999992000091600004+42400+112890FM-12+115299999V0202201N003012200019N0300001N1+01331+00191101311ADDAA199000091GA1001+999999999GF100991001001999999001001MA1999999088541MD1210081+0001REMSYN070AAXX  16001 53276 32980 02203 10133 20019 38854 40131 52008 333 00053;EQDQ01  00002PRCP99
0122532760999992000091603004+42400+112890FM-12+115299999V0203601N004012200019N0300001N1+01961+00411101281ADDGA1001+999999999GF100991001001999999001001MD1210031+9999REMSYN054AAXX  16031 53276 42980 03604 10196 20041 40128 52003;
0196532760999992000091606004+42400+112890FM-12+115299999V0200201N002012200019N0300001N1+02211+00361101181ADDAA199000091GA1001+999999999GF100991001001999999001001KA1999N+00941MA1999999088491MD1710081+9999REMSYN070AAXX  16061 53276 32980 00202 10221 20036 38849 40118 57008 333 20094;EQDQ01  00002PRCP99
0122532760999992000091609004+42400+112890FM-12+115299999V0203601N001012200019N0300001N1+02231+00391101181ADDGA1001+999999999GF100991001001999999001001MD1710061+9999REMSYN054AAXX  16091 53276 42980 03601 10223 20039 40118 57006;
0173532760999992000091612004+42400+112890FM-12+115299999V0209999C000012200019N0300001N1+01741+00401101301ADDAA199000091GA1001+999999999GF100991001001999999001001MA1999999088501MD1210071+9999REMSYN060AAXX  16121 53276 32980 00000 10174 20040 38850 40130 52007;EQDQ01  00002PRCP99
0122532760999992000091615004+42400+112890FM-12+115299999V0201801N002012200019N0300001N1+01491+00361101231ADDGA1001+999999999GF100991001001999999001001MD1210011+9999REMSYN054AAXX  16151 53276 42980 01802 10149 20036 40123 52001;
0196532760999992000091618004+42400+112890FM-12+115299999V0202701N004012200019N0300001N1+01421+00291101111ADDAA199000091GA1001+999999999GF100991001001999999001001KA1999M+02311MA1999999088441MD1710071+9999REMSYN070AAXX  16181 53276 32980 02704 10142 20029 38844 40111 57007 333 10231;EQDQ01  00002PRCP99
0122532760999992000091621004+42400+112890FM-12+115299999V0201601N002012200019N0300001N1+01151+00351101171ADDGA1001+999999999GF100991001001999999001001MD1210011+9999REMSYN054AAXX  16211 53276 42980 01602 10115 20035 40117 52001;
0183532760999992000091700004+42400+112890FM-12+115299999V0209999C000012200019N0300001N1+01331+00461101261ADDAA199000091GA1001+999999999GF100991001001999999001001MA1999999088461MD1210011+0011REMSYN070AAXX  17001 53276 32980 00000 10133 20046 38846 40126 52001 333 05100;EQDQ01  00002PRCP99
0122532760999992000091703004+42400+112890FM-12+115299999V0209999C000012200019N0300001N1+02391+00251101031ADDGA1001+999999999GF100991001001999999001001MD1710041+9999REMSYN054AAXX  17031 53276 42980 00000 10239 20025 40103 57004;
0186532760999992000091706004+42400+112890FM-12+115299999V0209999C000012200019N0300001N1+02621+00021100771ADDAA199000091GF101991001001999999001021KA1999N+00871MA1999999088231MD1710191+9999REMSYN076AAXX  17061 53276 32980 10000 10262 20002 38823 40077 57019 80002 333 20087;EQDQ01  00002PRCP99
0112532760999992000091709004+42400+112890FM-12+115299999V0201401N001012200019N0300001N1+02601+00131100711ADDGF101991011011012501001021MD1710111+9999REMSYN060AAXX  17091 53276 42680 11401 10260 20013 40071 57011 81102;
0163532760999992000091712004+42400+112890FM-12+115299999V0201601N002012200019N0300001N1+01891+00151100811ADDAA199000091GF102991001001999999001021MA1999999088101MD1710021+9999REMSYN066AAXX  17121 53276 32980 21602 10189 20015 38810 40081 57002 80002;EQDQ01  00002PRCP99
0112532760999992000091715004+42400+112890FM-12+115299999V0202001N005012200019N0300001N1+01701-00091100611ADDGF101991001001999999001021MD1410001+9999REMSYN060AAXX  17151 53276 42980 12005 10170 21009 40061 54000 80002;
0186532760999992000091718004+42400+112890FM-12+115299999V0201801N007012200019N0300001N1+01851-00051100451ADDAA199000091GF102991001001999999001021KA1999M+02711MA1999999088031MD1710071+9999REMSYN076AAXX  17181 53276 32980 21807 10185 21005 38803 40045 57007 80002 333 10271;EQDQ01  00002PRCP99
0112532760999992000091721004+42400+112890FM-12+115299999V0202201N008012200019N0300001N1+01881-00141100421ADDGF103991011001999999031021MD1710021+9999REMSYN060AAXX  17211 53276 42980 32208 10188 21014 40042 57002 81032;
0173532760999992000091800004+42400+112890FM-12+115299999V0202201N006010360019N0300001N1+02041+00191100581ADDAA199000091GF106991011091012501031021MA1999999088041MD1210031+0041REMSYN076AAXX  18001 53276 32680 62206 10204 20019 38804 40058 52003 81932 333 05407;EQDQ01  00002PRCP99
0112532760999992000091803004+42400+112890FM-12+115299999V0202501N010010360019N0300001N1+02751+00021100471ADDGF107991011011012501031021MD1210011+9999REMSYN060AAXX  18031 53276 42680 72510 10275 20002 40047 52001 81132;
0186532760999992000091806004+42400+112890FM-12+115299999V0203601N008010360019N0300001N1+02761-00121100311ADDAA199000091GF107991021091012501031021KA1999N+01601MA1999999087941MD1710111+9999REMSYN076AAXX  18061 53276 32680 73608 10276 21012 38794 40031 57011 82932 333 20160;EQDQ01  00002PRCP99
0112532760999992000091809004+42400+112890FM-12+115299999V0202201N008010900019N0300001N1+02471+00081100441ADDGF107991041091012501001021MD1210061+9999REMSYN060AAXX  18091 53276 42680 72208 10247 20008 40044 52006 84902;
0208532760999992000091812004+42400+112890FM-12+115299999V0203401N012010120019N0120001N1+01741+00891101112ADDAA106000191GF107991071091012501001021MA1999999088471MD1210471+9999MW1801OA130601901REMSYN094AAXX  18121 53276 11662 73412 10174 20089 38847 40111 52047 69911 78000 87902 333 91119 91518;EQDQ01+101113APOSLP
0132532760999992000091815004+42400+112890FM-12+115299999V0202201N007010900019N0300001N1+01781+00811100821ADDAY181031GF106991021041012501001021MD1710101+9999MW1001REMSYN066AAXX  18151 53276 41680 62207 10178 20081 40082 57010 70080 82402;
0216532760999992000091818004+42400+112890FM-12+115299999V0201801N005010900019N0300001N1+01751+00651100801ADDAA106001091AY181061GF105991011051012501001021KA1240M+02951MA1999999088351MD1710021+9999MW1001OA130601701REMSYN100AAXX  18181 53276 11680 51805 10175 20065 38835 40080 57002 60011 70080 81502 333 10295 91117 91518;
0133532760999992000091821004+42400+112890FM-12+115299999V0202001N004012200019N0300001N1+01371+00831100921ADDAA124001391GF102991011051012501001021MD1710031+9999REMSYN070AAXX  18211 53276 42680 22004 10137 20083 40092 57003 81502 333 70012;
0160532760999992000091900004+42400+112890FM-12+115299999V0202201N003012200019N0300001N1+01571+00831101261ADDAA124001391GF103991011001999999031021MA1999999088511MD1210191+0501REMSYN082AAXX  19001 53276 32980 32203 10157 20083 38851 40126 52019 81032 333 00555 70012;
0112532760999992000091903004+42400+112890FM-12+115299999V0209999C000019999999N0300001N1+01821+00521101321ADDGF106991011001999999031021MD1210111+9999REMSYN060AAXX  19031 53276 42980 60000 10182 20052 40132 52011 81032;
0186532760999992000091906004+42400+112890FM-12+115299999V0200201N003012200019N0300001N1+02181+00451101141ADDAA199000091GF104991011091012501001021KA1999N+01181MA1999999088531MD1710091+9999REMSYN076AAXX  19061 53276 32680 40203 10218 20045 38853 40114 57009 81902 333 20118;EQDQ01  00002PRCP99
0112532760999992000091909004+42400+112890FM-12+115299999V0200201N003010900019N0300001N1+02181+00151101201ADDGF106991011011012501001021MD1710021+9999REMSYN060AAXX  19091 53276 42680 60203 10218 20015 40120 57002 81102;
0163532760999992000091912004+42400+112890FM-12+115299999V0200201N002012200019N0300001N1+01671+00511101541ADDAA199000091GF104991001001999999001021MA1999999088741MD1210231+9999REMSYN066AAXX  19121 53276 32980 40202 10167 20051 38874 40154 52023 80002;EQDQ01  00002PRCP99
0112532760999992000091915004+42400+112890FM-12+115299999V0209999C000012200019N0300001N1+01351+00601101641ADDGF101991001001999999001021MD1210071+9999REMSYN060AAXX  19151 53276 42980 10000 10135 20060 40164 52007 80002;
0196532760999992000091918004+42400+112890FM-12+115299999V0202201N002012200019N0300001N1+01311+00731101561ADDAA199000091GA1001+999999999GF100991001001999999001001KA1999M+02291MA1999999088811MD1410001+9999REMSYN070AAXX  19181 53276 32980 02202 10131 20073 38881 40156 54000 333 10229;EQDQ01  00002PRCP99
0122532760999992000091921004+42400+112890FM-12+115299999V0201801N002012200019N0300001N1+00921+00661101691ADDGA1001+999999999GF100991001001999999001001MD1210031+9999REMSYN054AAXX  19211 53276 42980 01802 10092 20066 40169 52003;
0183532760999992000092000004+42400+112890FM-12+115299999V0202001N002012200019N0250001N1+01221+00711101831ADDAA199000091GA1001+999999999GF100991001001999999001001MA1999999088921MD1210081+0041REMSYN070AAXX  20001 53276 32975 02002 10122 20071 38892 40183 52008 333 00454;EQDQ01  00002PRCP99
0112532760999992000092003004+42400+112890FM-12+115299999V0200701N002012200019N0300001N1+02101+00791101661ADDGF101991001001999999001021MD1710031+9999REMSYN060AAXX  20031 53276 42980 10702 10210 20079 40166 57003 80002;
0186532760999992000092006004+42400+112890FM-12+115299999V0201401N004012200019N0300001N1+02531+00471101381ADDAA199000091GF101991011011012501001021KA1999N+00881MA1999999088721MD1710171+9999REMSYN076AAXX  20061 53276 32680 11404 10253 20047 38872 40138 57017 81102 333 20088;EQDQ01  00002PRCP99
0112532760999992000092009004+42400+112890FM-12+115299999V0201801N003012200019N0300001N1+02471+00171101331ADDGF102991011011012501001021MD1710131+9999REMSYN060AAXX  20091 53276 42680 21803 10247 20017 40133 57013 81102;
0163532760999992000092012004+42400+112890FM-12+115299999V0201601N010012200019N0300001N1+01861+00701101601ADDAA199000091GF101991001001999999001021MA1999999088761MD1210171+9999REMSYN066AAXX  20121 53276 32980 11610 10186 20070 38876 40160 52017 80002;EQDQ01  00002PRCP99
0122532760999992000092015004+42400+112890FM-12+115299999V0201801N008012200019N0300001N1+01511+00781101501ADDGA1001+999999999GF100991001001999999001001MD1210021+9999REMSYN054AAXX  20151 53276 42980 01808 10151 20078 40150 52002;
0196532760999992000092018004+42400+112890FM-12+115299999V0201601N005012200019N0300001N1+01401+00821101431ADDAA199000091GA1001+999999999GF100991001001999999001001KA1999M+02631MA1999999088781MD1410001+9999REMSYN070AAXX  20181 53276 32980 01605 10140 20082 38878 40143 54000 333 10263;EQDQ01  00002PRCP99
0122532760999992000092021004+42400+112890FM-12+115299999V0202001N004012200019N0300001N1+01291+00861101431ADDGA1001+999999999GF100991001001999999001001MD1710031+9999REMSYN054AAXX  20211 53276 42980 02004 10129 20086 40143 57003;
0173532760999992000092100004+42400+112890FM-12+115299999V0201801N005019999999N0200001N1+01511+00901101591ADDAA199000091GF107991001001999999001021MA1999999088811MD1210061+0011REMSYN076AAXX  21001 53276 32970 71805 10151 20090 38881 40159 52006 80002 333 05103;EQDQ01  00002PRCP99
0112532760999992000092103004+42400+112890FM-12+115299999V0202201N006012200019N0200001N1+02101+00871101561ADDGF104991001001999999001021MD1210021+9999REMSYN060AAXX  21031 53276 42970 42206 10210 20087 40156 52002 80002;
0186532760999992000092106004+42400+112890FM-12+115299999V0202001N004012200019N0300001N1+02471+00701101271ADDAA199000091GF102991011011012501001021KA1999N+01241MA1999999088631MD1710201+9999REMSYN076AAXX  21061 53276 32680 22004 10247 20070 38863 40127 57020 81102 333 20124;EQDQ01  00002PRCP99
0112532760999992000092109004+42400+112890FM-12+115299999V0202001N005012200019N0300001N1+02391+00461101211ADDGF104991021011012501001021MD1710091+9999REMSYN060AAXX  21091 53276 42680 42005 10239 20046 40121 57009 82102;
0163532760999992000092112004+42400+112890FM-12+115299999V0201801N006012200019N0300001N1+01831+00821101441ADDAA199000091GF102991001001999999001021MA1999999088671MD1210131+9999REMSYN066AAXX  21121 53276 32980 21806 10183 20082 38867 40144 52013 80002;EQDQ01  00002PRCP99
0122532760999992000092115004+42400+112890FM-12+115299999V0201801N006012200019N0300001N1+01571+00811101431ADDGA1001+999999999GF100991001001999999001001MD1210061+9999REMSYN054AAXX  21151 53276 42980 01806 10157 20081 40143 52006;
0196532760999992000092118004+42400+112890FM-12+115299999V0201801N005012200019N0300001N1+01431+00811101311ADDAA199000091GA1001+999999999GF100991001001999999001001KA1999M+02551MA1999999088671MD1710061+9999REMSYN070AAXX  21181 53276 32980 01805 10143 20081 38867 40131 57006 333 10255;EQDQ01  00002PRCP99
0122532760999992000092121004+42400+112890FM-12+115299999V0201801N005012200019N0300001N1+01301+00811101261ADDGA1001+999999999GF100991001001999999001001MD1710081+9999REMSYN054AAXX  21211 53276 42980 01805 10130 20081 40126 57008;
0173532760999992000092200004+42400+112890FM-12+115299999V0201801N005019999999N0200001N1+01491+00861101351ADDAA199000091GF107991011001999999031021MA1999999088591MD1410001+0021REMSYN076AAXX  22001 53276 32970 71805 10149 20086 38859 40135 54000 81032 333 05200;EQDQ01  00002PRCP99
0112532760999992000092203004+42400+112890FM-12+115299999V0201801N008019999999N0150001N1+02091+00831101171ADDGF105991001001999999001021MD1710091+9999REMSYN060AAXX  22031 53276 42965 51808 10209 20083 40117 57009 80002;
0185532760999992000092206004+42400+112890FM-12+115299999V0202201N005010150019N0200001N1+02471+00731100831ADDAA106000791GF106991051091017501001021KA1999N+01221MA1999999088251MD1710251+9999MW1801REMSYN088AAXX  22061 53276 11770 62205 10247 20073 38825 40083 57025 69901 78000 85902 333 20122;
0140532760999992000092209004+42400+112890FM-12+115299999V0201801N002010150019N0250001N1+01981+01181100921ADDAY191031AY281031GF107991061091017501001021MD1710041+9999MW1001REMSYN066AAXX  22091 53276 41775 71802 10198 20118 40092 57004 70098 86902;
0178532760999992000092212004+42400+112890FM-12+115299999V0209999C000010900019N0300001N1+01441+01081101341ADDAA106002091AY191061AY281061GF106991021091012501001021MA1999999088501MD1210291+9999MW1001REMSYN078AAXX  22121 53276 11680 60000 10144 20108 38850 40134 52029 60021 70098 82902;
0112532760999992000092215004+42400+112890FM-12+115299999V0203201N006012200019N0300001N1+01131+00741101481ADDGF102991011001999999031021MD1210181+9999REMSYN060AAXX  22151 53276 42980 23206 10113 20074 40148 52018 81032;
0167532760999992000092218004+42400+112890FM-12+115299999V0203401N004010900019N0300001N1+00761+00531101751ADDAA199000021GF107991031051012501001021KA1999M+02551MA1999999088921MD1210241+9999REMSYN076AAXX  22181 53276 32680 73404 10076 20053 38892 40175 52024 83502 333 10255;
0133532760999992000092221004+42400+112890FM-12+115299999V0203401N005010900019N0300001N1+00691+00381101941ADDAA124001591GF107991021051012501001021MD1210051+9999REMSYN070AAXX  22211 53276 42680 73405 10069 20038 40194 52005 82502 333 70016;
0160532760999992000092300004+42400+112890FM-12+115299999V0203401N004010120019N0300001N1+00561+00211102271ADDAA124001591GF107991071051012501999999MA1999999089121MD1210151+0501REMSYN082AAXX  23001 53276 32680 73404 10056 20021 38912 40227 52015 875// 333 00559 70016;
0112532760999992000092303004+42400+112890FM-12+115299999V0203601N004012200019N0300001N1+00781+00021102331ADDGF101991011011012501001001MD1210031+9999REMSYN060AAXX  23031 53276 42680 13604 10078 20002 40233 52003 81100;
0196532760999992000092306004+42400+112890FM-12+115299999V0200201N002012200019N0300001N1+01081-00341102131ADDAA199000091GA1001+999999999GF100991001001999999001001KA1999N+00521MA1999999088961MD1710191+9999REMSYN070AAXX  23061 53276 32980 00202 10108 21034 38896 40213 57019 333 20052;EQDQ01  00002PRCP99
0112532760999992000092309004+42400+112890FM-12+115299999V0203401N003012200019N0300001N1+01161-00391102061ADDGF102991001001999999001021MD1710061+9999REMSYN060AAXX  23091 53276 42980 23403 10116 21039 40206 57006 80002;
0163532760999992000092312004+42400+112890FM-12+115299999V0201801N002012200019N0300001N1+00811-00151102231ADDAA199000091GF101991001001999999001021MA1999999088951MD1210051+9999REMSYN066AAXX  23121 53276 32980 11802 10081 21015 38895 40223 52005 80002;EQDQ01  00002PRCP99
0112532760999992000092315004+42400+112890FM-12+115299999V0201801N002012200019N0300001N1+00511-00181102281ADDGF101991001001999999001021MD1210021+9999REMSYN060AAXX  23151 53276 42980 11802 10051 21018 40228 52002 80002;
0186532760999992000092318004+42400+112890FM-12+115299999V0201801N003012200019N0300001N1+00521-00331102161ADDAA199000091GF101991001001999999001021KA1999M+01261MA1999999088941MD1710031+9999REMSYN076AAXX  23181 53276 32980 11803 10052 21033 38894 40216 57003 80002 333 10126;EQDQ01  00002PRCP99
0112532760999992000092321004+42400+112890FM-12+115299999V0202001N003012200019N0300001N1+00491-00241102091ADDGF101991001001999999001021MD1710051+9999REMSYN060AAXX  23211 53276 42980 12003 10049 21024 40209 57005 80002;
0112532760999992000092403004+42400+112890FM-12+115299999V0202201N003012200019N0300001N1+01441-00491101991ADDGF101991001001999999001021MD1710041+9999REMSYN060AAXX  24031 53276 42980 12203 10144 21049 40199 57004 80002;
0186532760999992000092406004+42400+112890FM-12+115299999V0203401N004012200019N0300001N1+01801-00791101761ADDAA199000091GF101991001001999999001021KA1999N+00391MA1999999088741MD1710121+9999REMSYN076AAXX  24061 53276 32980 13404 10180 21079 38874 40176 57012 80002 333 20039;EQDQ01  00002PRCP99
0122532760999992000092409004+42400+112890FM-12+115299999V0203401N004012200019N0300001N1+01891-00921101671ADDGA1001+999999999GF100991001001999999001001MD1710061+9999REMSYN054AAXX  24091 53276 42980 03404 10189 21092 40167 57006;
0173532760999992000092412004+42400+112890FM-12+115299999V0209999C000012200019N0300001N1+01321-00211101871ADDAA199000091GA1001+999999999GF100991001001999999001001MA1999999088791MD1210111+9999REMSYN060AAXX  24121 53276 32980 00000 10132 21021 38879 40187 52011;EQDQ01  00002PRCP99
0122532760999992000092415004+42400+112890FM-12+115299999V0202001N002012200019N0300001N1+00981-00601101881ADDGA1001+999999999GF100991001001999999001001MD1210081+9999REMSYN054AAXX  24151 53276 42980 02002 10098 21060 40188 52008;
0196532760999992000092418004+42400+112890FM-12+115299999V0201801N005012200019N0300001N1+01021-00751101821ADDAA199000091GA1001+999999999GF100991001001999999001001KA1999M+01971MA1999999088901MD1210031+9999REMSYN070AAXX  24181 53276 32980 01805 10102 21075 38890 40182 52003 333 10197;EQDQ01  00002PRCP99
0122532760999992000092421004+42400+112890FM-12+115299999V0201401N003012200019N0300001N1+00701-00651101951ADDGA1001+999999999GF100991001001999999001001MD1210061+9999REMSYN054AAXX  24211 53276 42980 01403 10070 21065 40195 52006;
0201532760999992000092500004+42400+112890FM-12+115299999V0209999C000012200019N0300001N1+01021-00331102131ADDAA199000091GA1001+999999999GF100991001001999999001001IA2999+00209MA1999999089071MD1210111+0201REMSYN076AAXX  25001 53276 32980 00000 10102 21033 38907 40213 52011 333 00203 30021;EQDQ01  00002PRCP99
0112532760999992000092503004+42400+112890FM-12+115299999V0202201N004012200019N0300001N1+02041-00571102011ADDGF101991001001999999001021MD1210041+9999REMSYN060AAXX  25031 53276 42980 12204 10204 21057 40201 52004 80002;
0186532760999992000092506004+42400+112890FM-12+115299999V0201401N001012200019N0300001N1+02331-00481101781ADDAA199000091GF104991001001999999001021KA1999N+00541MA1999999088971MD1710141+9999REMSYN076AAXX  25061 53276 32980 41401 10233 21048 38897 40178 57014 80002 333 20054;EQDQ01  00002PRCP99
0112532760999992000092509004+42400+112890FM-12+115299999V0209999C000019999999N0300001N1+02161-00591101791ADDGF107991001001999999001021MD1710091+9999REMSYN060AAXX  25091 53276 42980 70000 10216 21059 40179 57009 80002;
0163532760999992000092512004+42400+112890FM-12+115299999V0201801N002012200019N0300001N1+01551-00481101941ADDAA199000091GF102991001001999999001021MA1999999088951MD1210071+9999REMSYN066AAXX  25121 53276 32980 21802 10155 21048 38895 40194 52007 80002;EQDQ01  00002PRCP99
0122532760999992000092515004+42400+112890FM-12+115299999V0202001N005012200019N0300001N1+01271-00781101811ADDGA1001+999999999GF100991001001999999001001MD1210041+9999REMSYN054AAXX  25151 53276 42980 02005 10127 21078 40181 52004;
0196532760999992000092518004+42400+112890FM-12+115299999V0201801N003012200019N0300001N1+01231-00421101741ADDAA199000091GA1001+999999999GF100991001001999999001001KA1999M+02391MA1999999088981MD1710011+9999REMSYN070AAXX  25181 53276 32980 01803 10123 21042 38898 40174 57001 333 10239;EQDQ01  00002PRCP99
0122532760999992000092521004+42400+112890FM-12+115299999V0201801N003012200019N0300001N1+01111-00181101741ADDGA1001+999999999GF100991001001999999001001MD1710061+9999REMSYN054AAXX  25211 53276 42980 01803 10111 21018 40174 57006;
0173532760999992000092600004+42400+112890FM-12+115299999V0201801N006010120019N0300001N1+01351+00001101831ADDAA199000091GF107991071051012501999999MA1999999088921MD1410001+0021REMSYN076AAXX  26001 53276 32680 71806 10135 20000 38892 40183 54000 875// 333 05203;EQDQ01  00002PRCP99
0112532760999992000092603004+42400+112890FM-12+115299999V0201601N010010360019N0300001N1+02041-00561101711ADDGF107991021051012501031021MD1710021+9999REMSYN060AAXX  26031 53276 42680 71610 10204 21056 40171 57002 82532;
0186532760999992000092606004+42400+112890FM-12+115299999V0202001N007010360019N0300001N1+02041-00661101591ADDAA199000091GF107991021051012501031021KA1999N+00971MA1999999088791MD1710111+9999REMSYN076AAXX  26061 53276 32680 72007 10204 21066 38879 40159 57011 82532 333 20097;EQDQ01  00002PRCP99
0132532760999992000092609004+42400+112890FM-12+115299999V0201801N009010120019N0300001N1+01491+00311101771ADDAY161031GF107991071051012501999999MD1210021+9999MW1001REMSYN066AAXX  26091 53276 41680 71809 10149 20031 40177 52002 70060 875//;
0197532760999992000092612004+42400+112890FM-12+115299999V0201601N007010120019N0300001N1+01551-00431101641ADDAA106000791AY161061GF107991071051012501999999MA1999999088761MD1710051+9999MW1001OA130601801REMSYN094AAXX  26121 53276 11680 71607 10155 21043 38876 40164 57005 69901 70060 875// 333 91118 91518;
0112532760999992000092615004+42400+112890FM-12+115299999V0201801N008010120019N0300001N1+01341+00201101531ADDGF107991071051012501999999MD1410001+9999REMSYN060AAXX  26151 53276 42680 71808 10134 20020 40153 54000 875//;
0186532760999992000092618004+42400+112890FM-12+115299999V0201801N004010120019N0300001N1+01281+00491101491ADDAA199000091GF107991071051012501999999KA1999M+02141MA1999999088711MD1710051+9999REMSYN076AAXX  26181 53276 32680 71804 10128 20049 38871 40149 57005 875// 333 10214;EQDQ01  00002PRCP99
0153532760999992000092621004+42400+112890FM-12+115299999V0201801N006010120019N0200001N1+01031+00841101581ADDAA124000891AY161031GF108991051051012501011999MD1710081+9999MW1601REMSYN076AAXX  26211 53276 41670 81806 10103 20084 40158 57008 76060 8551/ 333 70007;
0186532760999992000092700004+42400+112890FM-12+115299999V0201801N005010120019N0250001N1+01021+00851101611ADDAA106002091AY161061GF108991061051012501021999MA1999999088661MD1210031-0301MW1001REMSYN094AAXX  27001 53276 11675 81805 10102 20085 38866 40161 52003 60021 70060 8652/ 333 05353 70016;
0112532760999992000092703004+42400+112890FM-12+115299999V0201801N005010120019N0250001N1+01211+00831101601ADDGF107991061051012501011999MD1710011+9999REMSYN060AAXX  27031 53276 42675 71805 10121 20083 40160 57001 8651/;
0193532760999992000092706004+42400+112890FM-12+115299999V0202701N004010120019N0250001N1+01361+01021101461ADDAA106000791AY161061GF107991071051012501999999KA1999N+00941MA1999999088551MD1710101+9999MW1001REMSYN088AAXX  27061 53276 11675 72704 10136 20102 38855 40146 57010 69901 70060 875// 333 20094;
0132532760999992000092709004+42400+112890FM-12+115299999V0202501N003010120019N0250001N1+01381+01041101461ADDAY161031GF107991071051012501001081MD1710051+9999MW1001REMSYN066AAXX  27091 53276 41675 72503 10138 20104 40146 57005 70060 87508;
0170532760999992000092712004+42400+112890FM-12+115299999V0202901N002012200019N0300001N1+01301+01051101561ADDAA106000791AY161061GF102991011051012501001021MA1999999088571MD1210071+9999MW1001REMSYN078AAXX  27121 53276 11680 22902 10130 20105 38857 40156 52007 69901 70060 81502;
0112532760999992000092715004+42400+112890FM-12+115299999V0202201N003012200019N0300001N1+01141+01031101641ADDGF101991001001999999001021MD1210071+9999REMSYN060AAXX  27151 53276 42980 12203 10114 20103 40164 52007 80002;
0196532760999992000092718004+42400+112890FM-12+115299999V0202501N005012200019N0300001N1+00911+00831101721ADDAA199000091GA1001+999999999GF100991001001999999001001KA1999M+01411MA1999999088701MD1210061+9999REMSYN070AAXX  27181 53276 32980 02505 10091 20083 38870 40172 52006 333 10141;EQDQ01  00002PRCP99
0143532760999992000092721004+42400+112890FM-12+115299999V0202501N005012200019N0300001N1+00751+00671101831ADDAA124001091GA1001+999999999GF100991001001999999001001MD1210061+9999REMSYN064AAXX  27211 53276 42980 02505 10075 20067 40183 52006 333 70009;
0178532760999992000092800004+42400+112890FM-12+115299999V0202201N006012200019N0300001N1+00961+00591101901ADDAA124000791GF101991001001999999001021IA2999+00499MA1999999088851MD1210091+0201REMSYN088AAXX  28001 53276 32980 12206 10096 20059 38885 40190 52009 80002 333 00251 30049 79999;
0122532760999992000092803004+42400+112890FM-12+115299999V0203401N004012200019N0300001N1+01771+00471101771ADDGA1001+999999999GF100991001001999999001001MD1210021+9999REMSYN054AAXX  28031 53276 42980 03404 10177 20047 40177 52002;
0196532760999992000092806004+42400+112890FM-12+115299999V0200201N003012200019N0300001N1+02011+00431101661ADDAA199000091GA1001+999999999GF100991001001999999001001KA1999N+00661MA1999999088781MD1710091+9999REMSYN070AAXX  28061 53276 32980 00203 10201 20043 38878 40166 57009 333 20066;EQDQ01  00002PRCP99
0112532760999992000092809004+42400+112890FM-12+115299999V0203401N004019999999N0300001N1+02111+00241101671ADDGF105991001001999999001021MD1410001+9999REMSYN060AAXX  28091 53276 42980 53404 10211 20024 40167 54000 80002;
0163532760999992000092812004+42400+112890FM-12+115299999V0202501N004019999999N0300001N1+01601+00331101831ADDAA199000091GF106991001001999999001021MA1999999088851MD1210071+9999REMSYN066AAXX  28121 53276 32980 62504 10160 20033 38885 40183 52007 80002;EQDQ01  00002PRCP99
0112532760999992000092815004+42400+112890FM-12+115299999V0202201N005012200019N0300001N1+01451+00221101741ADDGF102991011051017501001021MD1210061+9999REMSYN060AAXX  28151 53276 42780 22205 10145 20022 40174 52006 81502;
0186532760999992000092818004+42400+112890FM-12+115299999V0202501N004012200019N0300001N1+01251+00211101731ADDAA199000091GF102991001001999999001021KA1999M+02141MA1999999088911MD1410001+9999REMSYN076AAXX  28181 53276 32980 22504 10125 20021 38891 40173 54000 80002 333 10214;EQDQ01  00002PRCP99
0112532760999992000092821004+42400+112890FM-12+115299999V0202501N004019999999N0300001N1+01251+00181101771ADDGF107991001001999999001021MD1210061+9999REMSYN060AAXX  28211 53276 42980 72504 10125 20018 40177 52006 80002;
0173532760999992000092900004+42400+112890FM-12+115299999V0202501N004019999999N0300001N1+01151-00121102081ADDAA199000091GF107991021001999999031021MA1999999089111MD1210141+0031REMSYN076AAXX  29001 53276 32980 72504 10115 21012 38911 40208 52014 82032 333 00302;EQDQ01  00002PRCP99
0112532760999992000092903004+42400+112890FM-12+115299999V0203401N007012200019N0300001N1+01521+00051102111ADDGF101991001001999999001021MD1210071+9999REMSYN060AAXX  29031 53276 42980 13407 10152 20005 40211 52007 80002;
0186532760999992000092906004+42400+112890FM-12+115299999V0203601N007012200019N0300001N1+01761-00031102011ADDAA199000091GF102991001001999999001021KA1999N+01071MA1999999089101MD1710081+9999REMSYN076AAXX  29061 53276 32980 23607 10176 21003 38910 40201 57008 80002 333 20107;EQDQ01  00002PRCP99
0112532760999992000092909004+42400+112890FM-12+115299999V0202701N006012200019N0300001N1+01701-00601102001ADDGF102991001001999999001021MD1710021+9999REMSYN060AAXX  29091 53276 42980 22706 10170 21060 40200 57002 80002;
0173532760999992000092912004+42400+112890FM-12+115299999V0203401N003012200019N0300001N1+01111-00221102311ADDAA199000091GA1001+999999999GF100991001001999999001001MA1999999089211MD1210131+9999REMSYN060AAXX  29121 53276 32980 03403 10111 21022 38921 40231 52013;EQDQ01  00002PRCP99
0122532760999992000092915004+42400+112890FM-12+115299999V0202901N004012200019N0300001N1+00811-00151102401ADDGA1001+999999999GF100991001001999999001001MD1210091+9999REMSYN054AAXX  29151 53276 42980 02904 10081 21015 40240 52009;
0196532760999992000092918004+42400+112890FM-12+115299999V0202201N001012200019N0300001N1+00591+00011102401ADDAA199000091GA1001+999999999GF100991001001999999001001KA1999M+01831MA1999999089311MD1210011+9999REMSYN070AAXX  29181 53276 32980 02201 10059 20001 38931 40240 52001 333 10183;EQDQ01  00002PRCP99
0122532760999992000092921004+42400+112890FM-12+115299999V0202201N005012200019N0300001N1+00391-00091102431ADDGA1001+999999999GF100991001001999999001001MD1710031+9999REMSYN054AAXX  29211 53276 42980 02205 10039 21009 40243 57003;
0191532760999992000093000004+42400+112890FM-12+115299999V0202201N003012200019N0300001N1+00571-00071102541ADDAA199000091GF101991011051012501001021IA2999+00109MA1999999089281MD1410001+0201REMSYN082AAXX  30001 53276 32680 12203 10057 21007 38928 40254 54000 81502 333 00256 30010;EQDQ01  00002PRCP99
0112532760999992000093003004+42400+112890FM-12+115299999V0202501N001019999999N0300001N1+01301+00251102351ADDGF107991011001999999031021MD1710071+9999REMSYN060AAXX  30031 53276 42980 72501 10130 20025 40235 57007 81032;
0186532760999992000093006004+42400+112890FM-12+115299999V0203601N003019999999N0300001N1+01581+00121102101ADDAA199000091GF107991021001999999031021KA1999N+00281MA1999999089011MD1710201+9999REMSYN076AAXX  30061 53276 32980 73603 10158 20012 38901 40210 57020 82032 333 20028;EQDQ01  00002PRCP99
0112532760999992000093009004+42400+112890FM-12+115299999V0202701N003019999999N0300001N1+01581-00641102031ADDGF107991021001999999031021MD1710111+9999REMSYN060AAXX  30091 53276 42980 72703 10158 21064 40203 57011 82032;
0163532760999992000093012004+42400+112890FM-12+115299999V0202501N002012200019N0300001N1+01251-00231102051ADDAA199000091GF104991021001999999031021MA1999999088891MD1710011+9999REMSYN066AAXX  30121 53276 32980 42502 10125 21023 38889 40205 57001 82032;EQDQ01  00002PRCP99
0112532760999992000093015004+42400+112890FM-12+115299999V0202201N003012200019N0300001N1+01181-00431101911ADDGF102991011001999999031021MD1210021+9999REMSYN060AAXX  30151 53276 42980 22203 10118 21043 40191 52002 81032;
0186532760999992000093018004+42400+112890FM-12+115299999V0201801N002019999999N0300001N1+01001-00261101831ADDAA199000091GF107991021001999999031021KA1999M+01681MA1999999088861MD1710051+9999REMSYN076AAXX  30181 53276 32980 71802 10100 21026 38886 40183 57005 82032 333 10168;EQDQ01  00002PRCP99
0112532760999992000093021004+42400+112890FM-12+115299999V0202501N004010120019N0300001N1+01011-00311101731ADDGF107991061051012501031021MD1710091+9999REMSYN060AAXX  30211 53276 42680 72504 10101 21031 40173 57009 86532;
0191532760999992000100100004+42400+112890FM-12+115299999V0202201N003010120019N0300001N1+01191-00661101741ADDAA199000091GF107991051051012501001021IA2999+00309MA1999999088751MD1710021-0501REMSYN082AAXX  01001 53276 32680 72203 10119 21066 38875 40174 57002 85502 333 05506 30034;EQDQ01  00002PRCP99
0112532760999992000100103004+42400+112890FM-12+115299999V0209999C000012200019N0300001N1+01841-00361101611ADDGF102991021051012501001021MD1210011+9999REMSYN060AAXX  01031 53276 42680 20000 10184 21036 40161 52001 82502;
0186532760999992000100106004+42400+112890FM-12+115299999V0203601N004012200019N0300001N1+02011+00101101391ADDAA199000091GF102991021011012501001001KA1999N+00881MA1999999088561MD1710201+9999REMSYN076AAXX  01061 53276 32680 23604 10201 20010 38856 40139 57020 82100 333 20088;EQDQ01  00002PRCP99
0112532760999992000100109004+42400+112890FM-12+115299999V0203401N004012200019N0300001N1+01951+00221101391ADDGF103991021011012501001021MD1710011+9999REMSYN060AAXX  01091 53276 42680 33404 10195 20022 40139 57001 82102;
0163532760999992000100112004+42400+112890FM-12+115299999V0203601N003010120019N0300001N1+01631+00401101541ADDAA199000091GF105991051051012501001001MA1999999088651MD1210101+9999REMSYN066AAXX  01121 53276 32680 53603 10163 20040 38865 40154 52010 85500;EQDQ01  00002PRCP99
0122532760999992000100115004+42400+112890FM-12+115299999V0209999C000012200019N0300001N1+01111+00291101571ADDGA1001+999999999GF100991001001999999001001MD1210061+9999REMSYN054AAXX  01151 53276 42980 00000 10111 20029 40157 52006;
0196532760999992000100118004+42400+112890FM-12+115299999V0201801N004012200019N0300001N1+01091+00191101541ADDAA199000091GA1001+999999999GF100991001001999999001001KA1999M+02131MA1999999088711MD1410001+9999REMSYN070AAXX  01181 53276 32980 01804 10109 20019 38871 40154 54000 333 10213;EQDQ01  00002PRCP99
0122532760999992000100121004+42400+112890FM-12+115299999V0209999C000012200019N0300001N1+00551+00181101681ADDGA1001+999999999GF100991001001999999001001MD1410001+9999REMSYN054AAXX  01211 53276 42980 00000 10055 20018 40168 54000;
0191532760999992000100200004+42400+112890FM-12+115299999V0203401N001012200019N0300001N1+00901+00231101741ADDAA199000091GF103991021091012501031021IA2999+00209MA1999999088771MD1210061+0001REMSYN082AAXX  02001 53276 32680 33401 10090 20023 38877 40174 52006 82932 333 00053 30024;EQDQ01  00002PRCP99
0112532760999992000100203004+42400+112890FM-12+115299999V0201801N002012200019N0300001N1+01791+00371101671ADDGF102991011011012501031001MD1210011+9999REMSYN060AAXX  02031 53276 42680 21802 10179 20037 40167 52001 81130;
0186532760999992000100206004+42400+112890FM-12+115299999V0202701N004012200019N0300001N1+02121+00131101351ADDAA199000091GF102991011011012501001021KA1999N+00451MA1999999088571MD1710211+9999REMSYN076AAXX  02061 53276 32680 22704 10212 20013 38857 40135 57021 81102 333 20045;EQDQ01  00002PRCP99
0112532760999992000100209004+42400+112890FM-12+115299999V0202701N005010360019N0300001N1+02101+00031101371ADDGF107991021011012501031021MD1710101+9999REMSYN060AAXX  02091 53276 42680 72705 10210 20003 40137 57010 82132;
0163532760999992000100212004+42400+112890FM-12+115299999V0201801N007012200019N0300001N1+01531+00231101491ADDAA199000091GF102991011041012501001021MA1999999088531MD1210061+9999REMSYN066AAXX  02121 53276 32680 21807 10153 20023 38853 40149 52006 81402;EQDQ01  00002PRCP99
0122532760999992000100215004+42400+112890FM-12+115299999V0202201N003012200019N0300001N1+01391+00511101281ADDGA1001+999999999GF100991001001999999001001MD1710031+9999REMSYN054AAXX  02151 53276 42980 02203 10139 20051 40128 57003;
0196532760999992000100218004+42400+112890FM-12+115299999V0203401N002012200019N0300001N1+01171+00471101261ADDAA199000091GA1001+999999999GF100991001001999999001001KA1999M+02271MA1999999088511MD1210011+9999REMSYN070AAXX  02181 53276 32980 03402 10117 20047 38851 40126 52001 333 10227;EQDQ01  00002PRCP99
0153532760999992000100221004+42400+112890FM-12+115299999V0202201N004010900019N0300001N1+01071+00421101271ADDAA124000791AY161031GF105991021051012501001021MD1710021+9999MW1211REMSYN076AAXX  02211 53276 41680 52204 10107 20042 40127 57002 72160 82502 333 79999;
0186532760999992000100300004+42400+112890FM-12+115299999V0202501N005019999999N0300001N1+01141+00331101431ADDAA106000791AY161061GF106991021001999999031021MA1999999088531MD1210041-0201MW1001REMSYN094AAXX  03001 53276 11980 62505 10114 20033 38853 40143 52004 69901 70060 82032 333 05202 79999;
0112532760999992000100303004+42400+112890FM-12+115299999V0202901N007012200019N0300001N1+01741+00401101351ADDGF101991011011012501001021MD1210021+9999REMSYN060AAXX  03031 53276 42680 12907 10174 20040 40135 52002 81102;
0167532760999992000100306004+42400+112890FM-12+115299999V0203401N005010360019N0300001N1+01961-00421101221ADDAA199000021GF106991011011012501031021KA1999N+00851MA1999999088441MD1710111+9999REMSYN076AAXX  03061 53276 32680 63405 10196 21042 38844 40122 57011 81132 333 20085;
0112532760999992000100309004+42400+112890FM-12+115299999V0203401N004010360019N0300001N1+01821-00441101261ADDGF106991041051012501031021MD1710021+9999REMSYN060AAXX  03091 53276 42680 63404 10182 21044 40126 57002 84532;
0163532760999992000100312004+42400+112890FM-12+115299999V0200201N003010360019N0300001N1+01371-00301101091ADDAA199000091GF106991041051012501031021MA1999999088201MD1710221+9999REMSYN066AAXX  03121 53276 32680 60203 10137 21030 38820 40109 57022 84532;EQDQ01  00002PRCP99
0112532760999992000100315004+42400+112890FM-12+115299999V0209999C000012200019N0300001N1+01211-00021101631ADDGF103991021051012501001021MD1210201+9999REMSYN060AAXX  03151 53276 42680 30000 10121 21002 40163 52020 82502;
0186532760999992000100318004+42400+112890FM-12+115299999V0203601N004012200019N0300001N1+00761-00281101681ADDAA199000091GF101991011051012501001001KA1999M+01991MA1999999088761MD1410001+9999REMSYN076AAXX  03181 53276 32680 13604 10076 21028 38876 40168 54000 81500 333 10199;EQDQ01  00002PRCP99
0122532760999992000100321004+42400+112890FM-12+115299999V0203601N002012200019N0300001N1+00461-00251101851ADDGA1001+999999999GF100991001001999999001001MD1210051+9999REMSYN054AAXX  03211 53276 42980 03602 10046 21025 40185 52005;
0191532760999992000100400004+42400+112890FM-12+115299999V0202201N003012200019N0300001N1+00611-00271102121ADDAA199000091GF101991011001999999031021IA2999+00009MA1999999088981MD1210171+0501REMSYN082AAXX  04001 53276 32980 12203 10061 21027 38898 40212 52017 81032 333 00555 31001;EQDQ01  00002PRCP99
0122532760999992000100403004+42400+112890FM-12+115299999V0200201N004012200019N0300001N1+01361-00151102031ADDGA1001+999999999GF100991001001999999001001MD1210051+9999REMSYN054AAXX  04031 53276 42980 00204 10136 21015 40203 52005;
0186532760999992000100406004+42400+112890FM-12+115299999V0200901N004012200019N0300001N1+01661-00371101921ADDAA199000091GF102991001001999999001011KA1999N+00281MA1999999088901MD1710131+9999REMSYN076AAXX  04061 53276 32980 20904 10166 21037 38890 40192 57013 80001 333 20028;EQDQ01  00002PRCP99
0112532760999992000100409004+42400+112890FM-12+115299999V0200901N002012200019N0300001N1+01621-00451101921ADDGF103991021001999999031021MD1710071+9999REMSYN060AAXX  04091 53276 42980 30902 10162 21045 40192 57007 82032;
0163532760999992000100412004+42400+112890FM-12+115299999V0200901N007010120019N0300001N1+01361-00531101861ADDAA199000091GF107991051051012501001021MA1999999088751MD1710081+9999REMSYN066AAXX  04121 53276 32680 70907 10136 21053 38875 40186 57008 85502;EQDQ01  00002PRCP99
0112532760999992000100415004+42400+112890FM-12+115299999V0201401N006010900019N0300001N1+01231-00451101761ADDGF107991021051012501001021MD1210051+9999REMSYN060AAXX  04151 53276 42680 71406 10123 21045 40176 52005 82502;
0186532760999992000100418004+42400+112890FM-12+115299999V0201601N004012200019N0300001N1+01211-00331101561ADDAA199000091GF103991021051012501001021KA1999M+01771MA1999999088681MD1710121+9999REMSYN076AAXX  04181 53276 32680 31604 10121 21033 38868 40156 57012 82502 333 10177;EQDQ01  00002PRCP99
0112532760999992000100421004+42400+112890FM-12+115299999V0202201N006010900019N0300001N1+01251+00211101351ADDGF107991041051012501001021MD1710181+9999REMSYN060AAXX  04211 53276 42680 72206 10125 20021 40135 57018 84502;
0178532760999992000100500004+42400+112890FM-12+115299999V0202001N006010120019N0300001N1+01361+00521101381ADDAA106000791GF107991071091012501001021MA1999999088491MD1710011-0501MW1801REMSYN094AAXX  05001 53276 11680 72006 10136 20052 38849 40138 57001 69901 78000 87902 333 05508 79999;
0112532760999992000100503004+42400+112890FM-12+115299999V0201801N012012200019N0300001N1+01831+00401101161ADDGF101991001001999999001021MD1710121+9999REMSYN060AAXX  05031 53276 42980 11812 10183 20040 40116 57012 80002;
0167532760999992000100506004+42400+112890FM-12+115299999V0202701N011012200019N0300001N1+02261-00361100781ADDAA199000021GF101991011011012501001021KA1999N+00991MA1999999088121MD1710251+9999REMSYN076AAXX  05061 53276 32680 12711 10226 21036 38812 40078 57025 81102 333 20099;
0112532760999992000100509004+42400+112890FM-12+115299999V0203601N010012200019N0300001N1+02091-00661100891ADDGF103991011011012501001021MD1210071+9999REMSYN060AAXX  05091 53276 42680 33610 10209 21066 40089 52007 81102;
0154532760999992000100512004+42400+112890FM-12+115299999V0202501N003012200019N0300001N1+01391-00381101281ADDAA199000021GA1001+999999999GF100991001001999999001001MA1999999088411MD1210221+9999REMSYN060AAXX  05121 53276 32980 02503 10139 21038 38841 40128 52022;
0122532760999992000100515004+42400+112890FM-12+115299999V0202201N003012200019N0300001N1+01441-00491101181ADDGA1001+999999999GF100991001001999999001001MD1210021+9999REMSYN054AAXX  05151 53276 42980 02203 10144 21049 40118 52002;
0186532760999992000100518004+42400+112890FM-12+115299999V0201801N004019999999N0300001N1+01091-00511101161ADDAA199000091GF107991001001999999001021KA1999M+02271MA1999999088431MD1410001+9999REMSYN076AAXX  05181 53276 32980 71804 10109 21051 38843 40116 54000 80002 333 10227;EQDQ01  00002PRCP99
0133532760999992000100521004+42400+112890FM-12+115299999V0201801N004012200019N0300001N1+01051-00311101011ADDAA124000791GF101991001001999999001021MD1710171+9999REMSYN070AAXX  05211 53276 42980 11804 10105 21031 40101 57017 80002 333 79999;
0194532760999992000100600004+42400+112890FM-12+115299999V0201801N006010360019N0150001N1+01441+01072100991ADDAA106000591AY191061AY281061GF107991021091012501031021MA1999999088181MD1710081-0301MW1001REMSYN094AAXX  06001 53276 11665 71806 10144 20107 38818 40099 57008 69951 70098 82932 333 05301 70005;
0112532760999992000100603004+42400+112890FM-12+115299999V0202001N007010120019N0150001N1+02171+00761100491ADDGF107991061051012501031021MD1710281+9999REMSYN060AAXX  06031 53276 42665 72007 10217 20076 40049 57028 86532;
0209532760999992000100606004+42400+112890FM-12+115299999V0202201N015010360019N0120001N1+02551-00161100181ADDAA199000091GF107991011051012501031021KA1240N+00951MA1999999087631MD1710271+9999OA130602001REMSYN088AAXX  06061 53276 32662 72215 10255 21016 38763 40018 57027 81532 333 20095 91120 91522;EQDQ01  00002PRCP99
0112532760999992000100609004+42400+112890FM-12+115299999V0202501N009010360019N0300001N1+02351+00681100431ADDGF107991011051012501031021MD1210171+9999REMSYN060AAXX  06091 53276 42680 72509 10235 20068 40043 52017 81532;
0190532760999992000100612004+42400+112890FM-12+115299999V0202701N006019999999N0150001N1+01941+00011100691ADDAA199000091GF107991031001999999031021MA1999999088031MD1210231+9999OA130601801REMSYN082AAXX  06121 53276 32965 72706 10194 20001 38803 40069 52023 83032 333 91118 91522;EQDQ01  00002PRCP99
0112532760999992000100615004+42400+112890FM-12+115299999V0202901N008019999999N0200001N1+01431-00781100901ADDGF107991021001999999031021MD1210221+9999REMSYN060AAXX  06151 53276 42970 72908 10143 21078 40090 52022 82032;
0186532760999992000100618004+42400+112890FM-12+115299999V0203601N008019999999N0200001N1+01281-00841101011ADDAA199000091GF106991011001999999031021KA1999M+02671MA1999999088401MD1210151+9999REMSYN076AAXX  06181 53276 32970 63608 10128 21084 38840 40101 52015 81032 333 10267;EQDQ01  00002PRCP99
0133532760999992000100621004+42400+112890FM-12+115299999V0202701N007012200019N0200001N1+00751-00331101471ADDAA124000591GF103991001001999999001021MD1210251+9999REMSYN070AAXX  06211 53276 42970 32707 10075 21033 40147 52025 80002 333 70005;
0191532760999992000100700004+42400+112890FM-12+115299999V0202701N007019999999N0300001N1+00471-00471101891ADDAA199000091GF107991001001999999001021IA2999+00509MA1999999088871MD1210221+0701REMSYN082AAXX  07001 53276 32980 72707 10047 21047 38887 40189 52022 80002 333 00760 30050;EQDQ01  00002PRCP99
0112532760999992000100703004+42400+112890FM-12+115299999V0202701N008010360019N0300001N1+00601-00531102041ADDGF107991011051012501011999MD1210051+9999REMSYN060AAXX  07031 53276 42680 72708 10060 21053 40204 52005 8151/;
0186532760999992000100706004+42400+112890FM-12+115299999V0202701N006019999999N0300001N1+00851-00591101931ADDAA199000091GF107991031001999999031021KA1999N+00471MA1999999088851MD1710071+9999REMSYN076AAXX  07061 53276 32980 72706 10085 21059 38885 40193 57007 83032 333 20047;EQDQ01  00002PRCP99
0112532760999992000100709004+42400+112890FM-12+115299999V0202701N006012200019N0300001N1+01071-00691102011ADDGF101991011001999999031021MD1410001+9999REMSYN060AAXX  07091 53276 42980 12706 10107 21069 40201 54000 81032;
0173532760999992000100712004+42400+112890FM-12+115299999V0202201N003012200019N0300001N1+00541-00671102301ADDAA199000091GA1001+999999999GF100991001001999999001001MA1999999088931MD1210081+9999REMSYN060AAXX  07121 53276 32980 02203 10054 21067 38893 40230 52008;EQDQ01  00002PRCP99
0122532760999992000100715004+42400+112890FM-12+115299999V0202501N004012200019N0300001N1+00321-00741102311ADDGA1001+999999999GF100991001001999999001001MD1710011+9999REMSYN054AAXX  07151 53276 42980 02504 10032 21074 40231 57001;
0122532760999992000100721004+42400+112890FM-12+115299999V0202201N003012200019N0300001N1-00061-00901102181ADDGA1001+999999999GF100991001001999999001001MD1710071+9999REMSYN054AAXX  07211 53276 42980 02203 11006 21090 40218 57007;
0173532760999992000100800004+42400+112890FM-12+115299999V0201801N002019999999N0300001N1+00081-00821102411ADDAA199000091GF105991001001999999001021MA1999999088941MD1210121+0011REMSYN076AAXX  08001 53276 32980 51802 10008 21082 38894 40241 52012 80002 333 00154;EQDQ01  00002PRCP99
0131532760999992000100803004+42400+112890FM-12+115299999V0201401N004019999999N0300001N1+01212-01351102001ADDGF106991001001999999001021MD1710161+9999REMSYN060AAXX  08031 53276 42980 61404 10121 21135 40200 57016 80002;EQDQ01+001213ATOT  
0186532760999992000100806004+42400+112890FM-12+115299999V0201601N002019999999N0300001N1+01541-01131101811ADDAA199000091GF106991001001999999001021KA1999N-00171MA1999999088611MD1710171+9999REMSYN076AAXX  08061 53276 32980 61602 10154 21113 38861 40181 57017 80002 333 21017;EQDQ01  00002PRCP99
0112532760999992000100809004+42400+112890FM-12+115299999V0201401N004019999999N0300001N1+01561-00941101591ADDGF107991001001999999001021MD1710191+9999REMSYN060AAXX  08091 53276 42980 71404 10156 21094 40159 57019 80002;
0163532760999992000100812004+42400+112890FM-12+115299999V0201801N004019999999N0300001N1+01061-00891101711ADDAA199000091GF107991001001999999001021MA1999999088441MD1210021+9999REMSYN066AAXX  08121 53276 32980 71804 10106 21089 38844 40171 52002 80002;EQDQ01  00002PRCP99
0112532760999992000100815004+42400+112890FM-12+115299999V0201801N006012200019N0300001N1+01111-00831101431ADDGF103991011051012501001021MD1210011+9999REMSYN060AAXX  08151 53276 42680 31806 10111 21083 40143 52001 81502;
0186532760999992000100818004+42400+112890FM-12+115299999V0201801N005019999999N0300001N1+01091-00781101351ADDAA199000091GF107991021001999999031021KA1999M+01691MA1999999088451MD1410001+9999REMSYN076AAXX  08181 53276 32980 71805 10109 21078 38845 40135 54000 82032 333 10169;EQDQ01  00002PRCP99
0112532760999992000100821004+42400+112890FM-12+115299999V0202001N003019999999N0300001N1+00951-00611101381ADDGF107991061001999999031021MD1410001+9999REMSYN060AAXX  08211 53276 42980 72003 10095 21061 40138 54000 86032;
0173532760999992000100900004+42400+112890FM-12+115299999V0201801N005010360019N0300001N1+01041-00441101481ADDAA199000091GF107991011051012501031021MA1999999088451MD1410001+0051REMSYN076AAXX  09001 53276 32680 71805 10104 21044 38845 40148 54000 81532 333 05510;EQDQ01  00002PRCP99
0112532760999992000100903004+42400+112890FM-12+115299999V0202201N004019999999N0300001N1+01531-00341101371ADDGF107991031001999999031021MD1210021+9999REMSYN060AAXX  09031 53276 42980 72204 10153 21034 40137 52002 83032;
0186532760999992000100906004+42400+112890FM-12+115299999V0201801N005010360019N0300001N1+01771-00251101121ADDAA199000091GF107991011011012501031021KA1999N+00831MA1999999088301MD1710171+9999REMSYN076AAXX  09061 53276 32680 71805 10177 21025 38830 40112 57017 81132 333 20083;EQDQ01  00002PRCP99
0112532760999992000100909004+42400+112890FM-12+115299999V0201801N004019999999N0300001N1+01671-00111101081ADDGF107991031001999999031021MD1710091+9999REMSYN060AAXX  09091 53276 42980 71804 10167 21011 40108 57009 83032;
0163532760999992000100912004+42400+112890FM-12+115299999V0201801N004019999999N0300001N1+01251+00271101271ADDAA199000091GF106991001001999999001021MA1999999088311MD1210101+9999REMSYN066AAXX  09121 53276 32980 61804 10125 20027 38831 40127 52010 80002;EQDQ01  00002PRCP99
0112532760999992000100915004+42400+112890FM-12+115299999V0201801N006019999999N0300001N1+01191+00351101201ADDGF107991001001999999001021MD1210031+9999REMSYN060AAXX  09151 53276 42980 71806 10119 20035 40120 52003 80002;
0186532760999992000100918004+42400+112890FM-12+115299999V0202201N007019999999N0300001N1+01091+00321101171ADDAA199000091GF105991001001999999001021KA1999M+01831MA1999999088341MD1410001+9999REMSYN076AAXX  09181 53276 32980 52207 10109 20032 38834 40117 54000 80002 333 10183;EQDQ01  00002PRCP99
0112532760999992000100921004+42400+112890FM-12+115299999V0202501N005012200019N0300001N1+00661-00131101491ADDGF101991001001999999001021MD1210171+9999REMSYN060AAXX  09211 53276 42980 12505 10066 21013 40149 52017 80002;
0191532760999992000101000004+42400+112890FM-12+115299999V0202701N006019999999N0300001N1+00511-00151101911ADDAA199000091GF106991001001999999001021IA2999+00209MA1999999088751MD1210241+0301REMSYN082AAXX  10001 53276 32980 62706 10051 21015 38875 40191 52024 80002 333 00355 30028;EQDQ01  00002PRCP99
0112532760999992000101003004+42400+112890FM-12+115299999V0203401N005012200019N0300001N1+00881-00141102091ADDGF102991011051012501031021MD1210231+9999REMSYN060AAXX  10031 53276 42680 23405 10088 21014 40209 52023 81532;
0186532760999992000101006004+42400+112890FM-12+115299999V0203401N007010360019N0300001N1+00941-00361102091ADDAA199000091GF106991011051012501031021KA1999N+00491MA1999999088971MD1710011+9999REMSYN076AAXX  10061 53276 32680 63407 10094 21036 38897 40209 57001 81532 333 20049;EQDQ01  00002PRCP99
0112532760999992000101009004+42400+112890FM-12+115299999V0203401N007010360019N0300001N1+00721-00501102431ADDGF108991011011012501031071MD1210151+9999REMSYN060AAXX  10091 53276 42680 83407 10072 21050 40243 52015 81137;
0163532760999992000101012004+42400+112890FM-12+115299999V0203401N008019999999N0300001N1+00391-00681102871ADDAA199000091GF107991021001999999031021MA1999999089401MD1210281+9999REMSYN066AAXX  10121 53276 32980 73408 10039 21068 38940 40287 52028 82032;EQDQ01  00002PRCP99
0112532760999992000101015004+42400+112890FM-12+115299999V0203401N008019999999N0300001N1+00131-00881103141ADDGF107991061001999999031021MD1210261+9999REMSYN060AAXX  10151 53276 42980 73408 10013 21088 40314 52026 86032;
0186532760999992000101018004+42400+112890FM-12+115299999V0203401N004012200019N0300001N1-00111-00941103311ADDAA199000091GF103991021001999999031021KA1999M+01101MA1999999089771MD1210111+9999REMSYN076AAXX  10181 53276 32980 33404 11011 21094 38977 40331 52011 82032 333 10110;EQDQ01  00002PRCP99
0112532760999992000101021004+42400+112890FM-12+115299999V0200201N003010360019N0300001N1-00291-01271103621ADDGF106991011051012501031021MD1210171+9999REMSYN060AAXX  10211 53276 42680 60203 11029 21127 40362 52017 81532;
0173532760999992000101100004+42400+112890FM-12+115299999V0202901N002012200019N0300001N1-00441-01311103821ADDAA199000091GF102991021001999999031001MA1999999090011MD1210071+0131REMSYN076AAXX  11001 53276 32980 22902 11044 21131 39001 40382 52007 82030 333 01360;EQDQ01  00002PRCP99
0112532760999992000101103004+42400+112890FM-12+115299999V0203401N003012200019N0300001N1-00061-01551103831ADDGF101991011001999999031001MD1210031+9999REMSYN060AAXX  11031 53276 42980 13403 11006 21155 40383 52003 81030;
0186532760999992000101106004+42400+112890FM-12+115299999V0202701N005012200019N0300001N1+00191-01561103691ADDAA199000091GF101991001001999999001021KA1999N-00521MA1999999089921MD1710121+9999REMSYN076AAXX  11061 53276 32980 12705 10019 21156 38992 40369 57012 80002 333 21052;EQDQ01  00002PRCP99
0122532760999992000101109004+42400+112890FM-12+115299999V0203401N006012200019N0300001N1+00181-01441103681ADDGA1001+999999999GF100991001001999999001001MD1710051+9999REMSYN054AAXX  11091 53276 42980 03406 10018 21144 40368 57005;
0173532760999992000101112004+42400+112890FM-12+115299999V0203401N004012200019N0300001N1-00151-01481103981ADDAA199000091GA1001+999999999GF100991001001999999001001MA1999999090021MD1210151+9999REMSYN060AAXX  11121 53276 32980 03404 11015 21148 39002 40398 52015;EQDQ01  00002PRCP99
0122532760999992000101115004+42400+112890FM-12+115299999V0202201N003012200019N0300001N1-00451-01581104021ADDGA1001+999999999GF100991001001999999001001MD1210051+9999REMSYN054AAXX  11151 53276 42980 02203 11045 21158 40402 52005;
0196532760999992000101118004+42400+112890FM-12+115299999V0202201N004012200019N0300001N1-00571-01751103961ADDAA199000091GA1001+999999999GF100991001001999999001001KA1999M+00301MA1999999090051MD1710021+9999REMSYN070AAXX  11181 53276 32980 02204 11057 21175 39005 40396 57002 333 10030;EQDQ01  00002PRCP99
0122532760999992000101121004+42400+112890FM-12+115299999V0202501N005012200019N0300001N1-00761-01611103921ADDGA1001+999999999GF100991001001999999001001MD1710081+9999REMSYN054AAXX  11211 53276 42980 02505 11076 21161 40392 57008;
0183532760999992000101200004+42400+112890FM-12+115299999V0202701N004012200019N0300001N1-00571-01751103991ADDAA199000091GA1001+999999999GF100991001001999999001001MA1999999090001MD1210031+0001REMSYN070AAXX  12001 53276 32980 02704 11057 21175 39000 40399 52003 333 00051;EQDQ01  00002PRCP99
0122532760999992000101203004+42400+112890FM-12+115299999V0203401N006012200019N0300001N1+00111-01171103831ADDGA1001+999999999GF100991001001999999001001MD1710051+9999REMSYN054AAXX  12031 53276 42980 03406 10011 21117 40383 57005;
0186532760999992000101206004+42400+112890FM-12+115299999V0203401N008012200019N0300001N1+00321-01291103601ADDAA199000091GF101991011011012501001001KA1999N-00791MA1999999089771MD1710181+9999REMSYN076AAXX  12061 53276 32680 13408 10032 21129 38977 40360 57018 81100 333 21079;EQDQ01  00002PRCP99
0112532760999992000101209004+42400+112890FM-12+115299999V0203201N009012200019N0300001N1+00251-01271103531ADDGF103991031011012501001001MD1710121+9999REMSYN060AAXX  12091 53276 42680 33209 10025 21127 40353 57012 83100;
0173532760999992000101212004+42400+112890FM-12+115299999V0202901N004012200019N0300001N1-00191-01441103681ADDAA199000091GA1001+999999999GF100991001001999999001001MA1999999089721MD1210071+9999REMSYN060AAXX  12121 53276 32980 02904 11019 21144 38972 40368 52007;EQDQ01  00002PRCP99
0122532760999992000101215004+42400+112890FM-12+115299999V0202501N004012200019N0300001N1-00491-01521103561ADDGA1001+999999999GF100991001001999999001001MD1710021+9999REMSYN054AAXX  12151 53276 42980 02504 11049 21152 40356 57002;
0196532760999992000101218004+42400+112890FM-12+115299999V0202501N005012200019N0300001N1-00601-01591103421ADDAA199000091GA1001+999999999GF100991001001999999001001KA1999M+00371MA1999999089611MD1710091+9999REMSYN070AAXX  12181 53276 32980 02505 11060 21159 38961 40342 57009 333 10037;EQDQ01  00002PRCP99
0122532760999992000101221004+42400+112890FM-12+115299999V0202501N006012200019N0300001N1-00661-01631103381ADDGA1001+999999999GF100991001001999999001001MD1710071+9999REMSYN054AAXX  12211 53276 42980 02506 11066 21163 40338 57007;
0173532760999992000101300004+42400+112890FM-12+115299999V0202501N006012200019N0300001N1-00411-01631103441ADDAA199000091GF101991001001999999001021MA1999999089551MD1210011+0051REMSYN076AAXX  13001 53276 32980 12506 11041 21163 38955 40344 52001 80002 333 05502;EQDQ01  00002PRCP99
0112532760999992000101303004+42400+112890FM-12+115299999V0202701N008012200019N0300001N1+00271-01281103251ADDGF101991001001999999001021MD1710081+9999REMSYN060AAXX  13031 53276 42980 12708 10027 21128 40325 57008 80002;
0186532760999992000101306004+42400+112890FM-12+115299999V0202901N007012200019N0300001N1+00521-02201102931ADDAA199000091GF102991001001999999001021KA1999N-00671MA1999999089231MD1710241+9999REMSYN076AAXX  13061 53276 32980 22907 10052 21220 38923 40293 57024 80002 333 21067;EQDQ01  00002PRCP99
0122532760999992000101309004+42400+112890FM-12+115299999V0202901N007012200019N0300001N1+00561-02021102751ADDGA1001+999999999GF100991001001999999001001MD1710161+9999REMSYN054AAXX  13091 53276 42980 02907 10056 21202 40275 57016;
0173532760999992000101312004+42400+112890FM-12+115299999V0202201N003012200019N0300001N1+00101-01641102771ADDAA199000091GA1001+999999999GF100991001001999999001001MA1999999089041MD1710031+9999REMSYN060AAXX  13121 53276 32980 02203 10010 21164 38904 40277 57003;EQDQ01  00002PRCP99
0122532760999992000101315004+42400+112890FM-12+115299999V0202201N009012200019N0300001N1+00071-01431102541ADDGA1001+999999999GF100991001001999999001001MD1710051+9999REMSYN054AAXX  13151 53276 42980 02209 10007 21143 40254 57005;
0186532760999992000101318004+42400+112890FM-12+115299999V0202201N005012200019N0300001N1-00211-01681102461ADDAA199000091GF101991001001999999001021KA1999M+00621MA1999999088911MD1710081+9999REMSYN076AAXX  13181 53276 32980 12205 11021 21168 38891 40246 57008 80002 333 10062;EQDQ01  00002PRCP99
0112532760999992000101321004+42400+112890FM-12+115299999V0202201N005012200019N0300001N1-00121-01281102301ADDGF101991001001999999001021MD1710111+9999REMSYN060AAXX  13211 53276 42980 12205 11012 21128 40230 57011 80002;
0183532760999992000101400004+42400+112890FM-12+115299999V0202201N007012200019N0300001N1+00071-01181102501ADDAA199000091GA1001+999999999GF100991001001999999001001MA1999999088911MD1210111+0061REMSYN070AAXX  14001 53276 32980 02207 10007 21118 38891 40250 52011 333 05605;EQDQ01  00002PRCP99
0112532760999992000101403004+42400+112890FM-12+115299999V0202701N008012200019N0300001N1+00641-01351102521ADDGF101991001001999999001021MD1210141+9999REMSYN060AAXX  14031 53276 42980 12708 10064 21135 40252 52014 80002;
0196532760999992000101406004+42400+112890FM-12+115299999V0203401N009012200019N0300001N1+00761-01761102561ADDAA199000091GA1001+999999999GF100991001001999999001001KA1999N-00221MA1999999089051MD1410001+9999REMSYN070AAXX  14061 53276 32980 03409 10076 21176 38905 40256 54000 333 21022;EQDQ01  00002PRCP99
0122532760999992000101409004+42400+112890FM-12+115299999V0203401N007012200019N0300001N1+00681-01871102651ADDGA1001+999999999GF100991001001999999001001MD1210081+9999REMSYN054AAXX  14091 53276 42980 03407 10068 21187 40265 52008;
0173532760999992000101412004+42400+112890FM-12+115299999V0203401N003012200019N0300001N1+00061-01431102991ADDAA199000091GA1001+999999999GF100991001001999999001001MA1999999089331MD1210201+9999REMSYN060AAXX  14121 53276 32980 03403 10006 21143 38933 40299 52020;EQDQ01  00002PRCP99
0112532760999992000101415004+42400+112890FM-12+115299999V0209999C000012200019N0300001N1-00221-01311103171ADDGF101991001001999999001021MD1210221+9999REMSYN060AAXX  14151 53276 42980 10000 11022 21131 40317 52022 80002;
0196532760999992000101418004+42400+112890FM-12+115299999V0202201N003012200019N0300001N1-00391-01521103301ADDAA199000091GA1001+999999999GF100991001001999999001001KA1999M+00831MA1999999089651MD1210101+9999REMSYN070AAXX  14181 53276 32980 02203 11039 21152 38965 40330 52010 333 10083;EQDQ01  00002PRCP99
0122532760999992000101421004+42400+112890FM-12+115299999V0202201N004012200019N0300001N1-00541-01481103371ADDGA1001+999999999GF100991001001999999001001MD1210011+9999REMSYN054AAXX  14211 53276 42980 02204 11054 21148 40337 52001;
0183532760999992000101500004+42400+112890FM-12+115299999V0202201N005012200019N0300001N1-00391-01461103631ADDAA199000091GA1001+999999999GF100991001001999999001001MA1999999089781MD1210121+0091REMSYN070AAXX  15001 53276 32980 02205 11039 21146 38978 40363 52012 333 00955;EQDQ01  00002PRCP99
0122532760999992000101503004+42400+112890FM-12+115299999V0202201N003012200019N0300001N1+00591-01751103551ADDGA1001+999999999GF100991001001999999001001MD1210091+9999REMSYN054AAXX  15031 53276 42980 02203 10059 21175 40355 52009;
0196532760999992000101506004+42400+112890FM-12+115299999V0202701N003012200019N0300001N1+00801-01211103301ADDAA199000091GA1001+999999999GF100991001001999999001001KA1999N-00651MA1999999089661MD1710211+9999REMSYN070AAXX  15061 53276 32980 02703 10080 21121 38966 40330 57021 333 21065;EQDQ01  00002PRCP99
0122532760999992000101509004+42400+112890FM-12+115299999V0202201N002012200019N0300001N1+00871-00931103101ADDGA1001+999999999GF100991001001999999001001MD1710191+9999REMSYN054AAXX  15091 53276 42980 02202 10087 21093 40310 57019;
0158532760999992000101512004+42400+112890FM-12+115299999V0201801N002012200019N0300001N1+00171-01101103171ADDAA199000091GA1001+999999999GF100991001001999999001001MA1999999089401REMSYN059AAXX  15121 53276 32980 01802 10017 21110 38940 40317 7007;EQDQ01  00002PRCP99
0122532760999992000101515004+42400+112890FM-12+115299999V0202001N006012200019N0300001N1+00361-01541102851ADDGA1001+999999999GF100991001001999999001001MD1710011+9999REMSYN054AAXX  15151 53276 42980 02006 10036 21154 40285 57001;
0186532760999992000101518004+42400+112890FM-12+115299999V0202201N007012200019N0300001N1+00221-01531102681ADDAA199000091GF101991001001999999001021KA1999M+00941MA1999999089261MD1710131+9999REMSYN076AAXX  15181 53276 32980 12207 10022 21153 38926 40268 57013 80002 333 10094;EQDQ01  00002PRCP99
0122532760999992000101521004+42400+112890FM-12+115299999V0202201N008012200019N0300001N1+00271-01231102521ADDGA1001+999999999GF100991001001999999001001MD1710111+9999REMSYN054AAXX  15211 53276 42980 02208 10027 21123 40252 57011;
0183532760999992000101600004+42400+112890FM-12+115299999V0202201N008012200019N0300001N1+00431-00961102511ADDAA199000091GA1001+999999999GF100991001001999999001001MA1999999089021MD1710131+0081REMSYN070AAXX  16001 53276 32980 02208 10043 21096 38902 40251 57013 333 05808;EQDQ01  00002PRCP99
0112532760999992000101603004+42400+112890FM-12+115299999V0202201N008012200019N0300001N1+01451-00971102061ADDGF101991001001999999001021MD1710131+9999REMSYN060AAXX  16031 53276 42980 12208 10145 21097 40206 57013 80002;
0186532760999992000101606004+42400+112890FM-12+115299999V0202701N009012200019N0300001N1+01741-01291101671ADDAA199000091GF102991001001999999001021KA1999N+00061MA1999999088591MD1710301+9999REMSYN076AAXX  16061 53276 32980 22709 10174 21129 38859 40167 57030 80002 333 20006;EQDQ01  00002PRCP99
0112532760999992000101609004+42400+112890FM-12+115299999V0202501N009012200019N0300001N1+01691-01101101521ADDGF101991001001999999001021MD1710131+9999REMSYN060AAXX  16091 53276 42980 12509 10169 21110 40152 57013 80002;
0173532760999992000101612004+42400+112890FM-12+115299999V0202501N006012200019N0300001N1+01061-00611101701ADDAA199000091GA1001+999999999GF100991001001999999001001MA1999999088511MD1210051+9999REMSYN060AAXX  16121 53276 32980 02506 10106 21061 38851 40170 52005;EQDQ01  00002PRCP99
0122532760999992000101615004+42400+112890FM-12+115299999V0202501N007012200019N0300001N1+00901-00311101491ADDGA1001+999999999GF100991001001999999001001MD1410001+9999REMSYN054AAXX  16151 53276 42980 02507 10090 21031 40149 54000;
0196532760999992000101618004+42400+112890FM-12+115299999V0202901N006012200019N0300001N1+00771-00271101601ADDAA199000091GA1001+999999999GF100991001001999999001001KA1999M+01821MA1999999088641MD1210131+9999REMSYN070AAXX  16181 53276 32980 02906 10077 21027 38864 40160 52013 333 10182;EQDQ01  00002PRCP99
0122532760999992000101621004+42400+112890FM-12+115299999V0203401N002012200019N0300001N1+00051-00621102081ADDGA1001+999999999GF100991001001999999001001MD1210261+9999REMSYN054AAXX  16211 53276 42980 03402 10005 21062 40208 52026;
0191532760999992000101700004+42400+112890FM-12+115299999V0200201N002012200019N0300001N1+00101-00321102541ADDAA199000091GF102991001001999999001021IA2999-00409MA1999999089171MD1210271+0201REMSYN082AAXX  17001 53276 32980 20202 10010 21032 38917 40254 52027 80002 333 00253 31049;EQDQ01  00002PRCP99
0112532760999992000101703004+42400+112890FM-12+115299999V0200901N004012200019N0300001N1+00501-00391102651ADDGF101991011001999999031021MD1210151+9999REMSYN060AAXX  17031 53276 42980 10904 10050 21039 40265 52015 81032;
0186532760999992000101706004+42400+112890FM-12+115299999V0200901N004012200019N0300001N1+00721-00701102481ADDAA199000091GF102991001001999999001021KA1999N-00091MA1999999089191MD1710131+9999REMSYN076AAXX  17061 53276 32980 20904 10072 21070 38919 40248 57013 80002 333 21009;EQDQ01  00002PRCP99
0112532760999992000101709004+42400+112890FM-12+115299999V0200901N006012200019N0300001N1+00771-01091102571ADDGF104991001001999999001021MD1710071+9999REMSYN060AAXX  17091 53276 42980 40906 10077 21109 40257 57007 80002;
0163532760999992000101712004+42400+112890FM-12+115299999V0201101N004012200019N0300001N1+00451-01251102511ADDAA199000091GF102991001001999999001021MA1999999089011MD1710111+9999REMSYN066AAXX  17121 53276 32980 21104 10045 21125 38901 40251 57011 80002;EQDQ01  00002PRCP99
0112532760999992000101715004+42400+112890FM-12+115299999V0201801N008012200019N0300001N1+00611-00951102091ADDGF104991001001999999001021MD1710241+9999REMSYN060AAXX  17151 53276 42980 41808 10061 21095 40209 57024 80002;
0186532760999992000101718004+42400+112890FM-12+115299999V0201801N004019999999N0300001N1+00581-00561101861ADDAA199000091GF106991001001999999001021KA1999M+00861MA1999999088611MD1710161+9999REMSYN076AAXX  17181 53276 32980 61804 10058 21056 38861 40186 57016 80002 333 10086;EQDQ01  00002PRCP99
0112532760999992000101721004+42400+112890FM-12+115299999V0201801N005019999999N0300001N1+00641-00291101601ADDGF107991001001999999001021MD1710201+9999REMSYN060AAXX  17211 53276 42980 71805 10064 21029 40160 57020 80002;
0191532760999992000101800004+42400+112890FM-12+115299999V0201801N005019999999N0250001N1+00961-00051101451ADDAA199000091GF107991051001999999031021IA2999+00009MA1999999088281MD1710131-0901REMSYN082AAXX  18001 53276 32975 71805 10096 21005 38828 40145 57013 85032 333 05909 31001;EQDQ01  00002PRCP99
0112532760999992000101803004+42400+112890FM-12+115299999V0201801N006019999999N0200001N1+01371-00121101271ADDGF107991021001999999031081MD1710041+9999REMSYN060AAXX  18031 53276 42970 71806 10137 21012 40127 57004 82038;
0208532760999992000101806004+42400+112890FM-12+115299999V0202201N007010120019N0150001N1+01341+00091101031ADDAA106000791GF108991051051012501011999KA1240N+00371MA1999999088021MD1710221+9999MW1601OA130601801REMSYN100AAXX  18061 53276 11665 82207 10134 20009 38802 40103 57022 69901 76000 8551/ 333 20037 91118 91522;
0132532760999992000101809004+42400+112890FM-12+115299999V0202201N012010120019N0150001N1+01221+00201101011ADDAY161031GF108991051051012501011999MD1710031+9999MW1001REMSYN066AAXX  18091 53276 41665 82212 10122 20020 40101 57003 70060 8551/;
0170532760999992000101812004+42400+112890FM-12+115299999V0202201N008019999999N0200001N1+01041+00361101071ADDAA106000591AY161061GF108991081001999999011999MA1999999088071MD1210081+9999MW1001REMSYN078AAXX  18121 53276 11970 82208 10104 20036 38807 40107 52008 69941 70060 8801/;
0112532760999992000101815004+42400+112890FM-12+115299999V0202201N008010900019N0200001N1+00941+00361101051ADDGF107991031051012501001021MD1210051+9999REMSYN060AAXX  18151 53276 42670 72208 10094 20036 40105 52005 83502;
0167532760999992000101818004+42400+112890FM-12+115299999V0202201N008010900019N0150001N1+00811-00881101231ADDAA199000021GF107991041051012501001021KA1999M+01531MA1999999088241MD1210121+9999REMSYN076AAXX  18181 53276 32665 72208 10081 21088 38824 40123 52012 84502 333 10153;
0133532760999992000101821004+42400+112890FM-12+115299999V0202901N006019999999N0300001N1+00391-01141101561ADDAA124000591GF107991001001999999001021MD1210181+9999REMSYN070AAXX  18211 53276 42980 72906 10039 21114 40156 52018 80002 333 70004;
0178532760999992000101900004+42400+112890FM-12+115299999V0202901N009012200019N0300001N1+00181-01551101891ADDAA124000591GF101991001001999999001021IA2999-00179MA1999999088621MD1210201+0301REMSYN088AAXX  19001 53276 32980 12909 10018 21155 38862 40189 52020 80002 333 00358 31017 70004;
0122532760999992000101903004+42400+112890FM-12+115299999V0202901N009012200019N0300001N1+00321-01551102001ADDGA1001+999999999GF100991001001999999001001MD1210101+9999REMSYN054AAXX  19031 53276 42980 02909 10032 21155 40200 52010;
0196532760999992000101906004+42400+112890FM-12+115299999V0202901N010012200019N0300001N1+00431-01411101971ADDAA199000091GA1001+999999999GF100991001001999999001001KA1999N+00151MA1999999088691MD1710031+9999REMSYN070AAXX  19061 53276 32980 02910 10043 21141 38869 40197 57003 333 20015;EQDQ01  00002PRCP99
0122532760999992000101909004+42400+112890FM-12+115299999V0202701N007012200019N0300001N1+00431-01171102071ADDGA1001+999999999GF100991001001999999001001MD1410001+9999REMSYN054AAXX  19091 53276 42980 02707 10043 21117 40207 54000;
0173532760999992000101912004+42400+112890FM-12+115299999V0202201N004012200019N0300001N1-00101-01561102411ADDAA199000091GA1001+999999999GF100991001001999999001001MA1999999088811MD1210121+9999REMSYN060AAXX  19121 53276 32980 02204 11010 21156 38881 40241 52012;EQDQ01  00002PRCP99
0122532760999992000101915004+42400+112890FM-12+115299999V0202201N004012200019N0300001N1-00171-01811102351ADDGA1001+999999999GF100991001001999999001001MD1710031+9999REMSYN054AAXX  19151 53276 42980 02204 11017 21181 40235 57003;
0196532760999992000101918004+42400+112890FM-12+115299999V0201801N005012200019N0300001N1-00521-02031102351ADDAA199000091GA1001+999999999GF100991001001999999001001KA1999M+00821MA1999999088721MD1710061+9999REMSYN070AAXX  19181 53276 32980 01805 11052 21203 38872 40235 57006 333 10082;EQDQ01  00002PRCP99
0112532760999992000101921004+42400+112890FM-12+115299999V0202001N005019999999N0300001N1-00281-01931102101ADDGF107991001001999999001021MD1710161+9999REMSYN060AAXX  19211 53276 42980 72005 11028 21193 40210 57016 80002;
0173532760999992000102000004+42400+112890FM-12+115299999V0201801N007010360019N0300001N1+00091-01441102051ADDAA199000091GF107991011051012501031081MA1999999088481MD1710081+0011REMSYN076AAXX  20001 53276 32680 71807 10009 21144 38848 40205 57008 81538 333 05151;EQDQ01  00002PRCP99
0112532760999992000102003004+42400+112890FM-12+115299999V0202501N010012200019N0300001N1+00721-01981101971ADDGF103991001001999999001021MD1210061+9999REMSYN060AAXX  20031 53276 42980 32510 10072 21198 40197 52006 80002;
0209532760999992000102006004+42400+112890FM-12+115299999V0202701N012012200019N0300001N1+00951-01861101961ADDAA199000091GF101991001001999999001021KA1240N-00531MA1999999088501MD1710041+9999OA130601801REMSYN088AAXX  20061 53276 32980 12712 10095 21186 38850 40196 57004 80002 333 21053 91118 91525;EQDQ01  00002PRCP99
0122532760999992000102009004+42400+112890FM-12+115299999V0202901N008012200019N0300001N1+00801-02491102091ADDGA1001+999999999GF100991001001999999001001MD1210141+9999REMSYN054AAXX  20091 53276 42980 02908 10080 21249 40209 52014;
0200532760999992000102012004+42400+112890FM-12+115299999V0203401N002012200019N0300001N1+00161-01761102581ADDAA199000091GA1001+999999999GF100991001001999999001001MA1999999089001MD1210361+9999OA130601801REMSYN076AAXX  20121 53276 32980 03402 10016 21176 38900 40258 52036 333 91118 91529;EQDQ01  00002PRCP99
0122532760999992000102015004+42400+112890FM-12+115299999V0202501N002012200019N0300001N1-00151-02031102761ADDGA1001+999999999GF100991001001999999001001MD1210231+9999REMSYN054AAXX  20151 53276 42980 02502 11015 21203 40276 52023;
0196532760999992000102018004+42400+112890FM-12+115299999V0202201N004012200019N0300001N1-00481-02131102811ADDAA199000091GA1001+999999999GF100991001001999999001001KA1999M+01051MA1999999089251MD1210021+9999REMSYN070AAXX  20181 53276 32980 02204 11048 21213 38925 40281 52002 333 10105;EQDQ01  00002PRCP99
0122532760999992000102021004+42400+112890FM-12+115299999V0201801N003012200019N0300001N1-00671-02141102801ADDGA1001+999999999GF100991001001999999001001MD1710091+9999REMSYN054AAXX  20211 53276 42980 01803 11067 21214 40280 57009;
0183532760999992000102100004+42400+112890FM-12+115299999V0201801N004012200019N0300001N1-00401-01831102841ADDAA199000091GA1001+999999999GF100991001001999999001001MA1999999089111MD1710051+0061REMSYN070AAXX  21001 53276 32980 01804 11040 21183 38911 40284 57005 333 00655;EQDQ01  00002PRCP99
0112532760999992000102103004+42400+112890FM-12+115299999V0201801N003012200019N0300001N1+00801-01701102501ADDGF101991001001999999001021MD1710091+9999REMSYN060AAXX  21031 53276 42980 11803 10080 21170 40250 57009 80002;
0186532760999992000102106004+42400+112890FM-12+115299999V0201801N002019999999N0300001N1+01201-01181102161ADDAA199000091GF107991021001999999031021KA1999N-00831MA1999999088741MD1710281+9999REMSYN076AAXX  21061 53276 32980 71802 10120 21118 38874 40216 57028 82032 333 21083;EQDQ01  00002PRCP99
0112532760999992000102109004+42400+112890FM-12+115299999V0202201N005012200019N0300001N1+01221-01541102061ADDGF101991011001999999031001MD1710121+9999REMSYN060AAXX  21091 53276 42980 12205 10122 21154 40206 57012 81030;
0173532760999992000102112004+42400+112890FM-12+115299999V0201801N004012200019N0300001N1+00691-01161102191ADDAA199000091GA1001+999999999GF100991001001999999001001MA1999999088671MD1210051+9999REMSYN060AAXX  21121 53276 32980 01804 10069 21116 38867 40219 52005;EQDQ01  00002PRCP99
0122532760999992000102115004+42400+112890FM-12+115299999V0202001N006012200019N0300001N1+00551-00971101931ADDGA1001+999999999GF100991001001999999001001MD1210011+9999REMSYN054AAXX  21151 53276 42980 02006 10055 21097 40193 52001;
0196532760999992000102118004+42400+112890FM-12+115299999V0201801N007012200019N0200001N1+00691-00661101621ADDAA199000091GA1001+999999999GF100991001001999999001001KA1999M+01311MA1999999088531MD1710151+9999REMSYN070AAXX  21181 53276 32970 01807 10069 21066 38853 40162 57015 333 10131;EQDQ01  00002PRCP99
0122532760999992000102121004+42400+112890FM-12+115299999V0201801N006012200019N0200001N1+00641-00581101451ADDGA1001+999999999GF100991001001999999001001MD1710161+9999REMSYN054AAXX  21211 53276 42970 01806 10064 21058 40145 57016;
0191532760999992000102200004+42400+112890FM-12+115299999V0201801N005010900019N0200001N1+00781-00251101471ADDAA199000091GF107991021051017501001021IA2999-00109MA1999999088311MD1710061-0801REMSYN082AAXX  22001 53276 32770 71805 10078 21025 38831 40147 57006 82502 333 05812 31013;EQDQ01  00002PRCP99
0132532760999992000102203004+42400+112890FM-12+115299999V0209999C000010150019N0200001N1+01031+00491101381ADDAY161031GF107991071051017501999999MD1710061+9999MW1211REMSYN066AAXX  22031 53276 41770 70000 10103 20049 40138 57006 72160 875//;
0193532760999992000102206004+42400+112890FM-12+115299999V0203601N005010360019N0150001N1+00641+00531101351ADDAA106005191AY161061GF108991031051017501021999KA1999N+00201MA1999999088171MD1710081+9999MW1611REMSYN088AAXX  22061 53276 11765 83605 10064 20053 38817 40135 57008 60051 76160 8352/ 333 20020;
0140532760999992000102209004+42400+112890FM-12+115299999V0201801N004010120019N0200001N1+00671+00541101241ADDAY161031AY261031GF107991061051012501031021MD1710101+9999MW1601REMSYN066AAXX  22091 53276 41670 71804 10067 20054 40124 57010 76066 86532;
0180532760999992000102212004+42400+112890FM-12+115299999V0202201N003012200019N0300001N1+00621+00491101331ADDAA106002091AY161061GA1001+999999999GF100991001001999999001001MA1999999088171MD1210101+9999MW1001REMSYN072AAXX  22121 53276 11980 02203 10062 20049 38817 40133 52010 60021 70060;
0122532760999992000102215004+42400+112890FM-12+115299999V0201801N005012200019N0300001N1+00471+00311101371ADDGA1001+999999999GF100991001001999999001001MD1210061+9999REMSYN054AAXX  22151 53276 42980 01805 10047 20031 40137 52006;
0177532760999992000102218004+42400+112890FM-12+115299999V0201801N006012200019N0300001N1+00421+00211101401ADDAA199000021GA1001+999999999GF100991001001999999001001KA1999M+01171MA1999999088161MD1710071+9999REMSYN070AAXX  22181 53276 32980 01806 10042 20021 38816 40140 57007 333 10117;
0133532760999992000102221004+42400+112890FM-12+115299999V0201801N009012200019N0300001N1+00721+00301101331ADDAA124006991GF101991001001999999001021MD1210011+9999REMSYN070AAXX  22211 53276 42980 11809 10072 20030 40133 52001 80002 333 70068;
0178532760999992000102300004+42400+112890FM-12+115299999V0203601N007010120019N0300001N1+00791+00381101451ADDAA124006991GF107991061051012501001081IA2999+00119MA1999999088281MD1210111+0001REMSYN088AAXX  23001 53276 32680 73607 10079 20038 38828 40145 52011 86508 333 00000 30011 70068;
0112532760999992000102303004+42400+112890FM-12+115299999V0202201N004010360019N0250001N1+01001+00641101541ADDGF108991011051017501011999MD1210091+9999REMSYN060AAXX  23031 53276 42775 82204 10100 20064 40154 52009 8151/;
0186532760999992000102306004+42400+112890FM-12+115299999V0203401N004010150019N0200001N1+01101+00731101431ADDAA199000091GF108991071051017501011999KA1999N+00391MA1999999088281MD1710091+9999REMSYN076AAXX  23061 53276 32770 83404 10110 20073 38828 40143 57009 8751/ 333 20039;EQDQ01  00002PRCP99
0112532760999992000102309004+42400+112890FM-12+115299999V0203401N004010120019N0300001N1+00931+00251101441ADDGF108991071051012501011999MD1210041+9999REMSYN060AAXX  23091 53276 42680 83404 10093 20025 40144 52004 8751/;
0178532760999992000102312004+42400+112890FM-12+115299999V0203201N006010120019N0250001N1+00231+00131102091ADDAA106000591AY171061AY261061GF108991061051012501021999MA1999999088751MD1210431+9999MW1601REMSYN078AAXX  23121 53276 11675 83206 10023 20013 38875 40209 52043 69941 76076 8652/;
0140532760999992000102315004+42400+112890FM-12+115299999V0202201N005019999999N0300001N1+00111+00081102211ADDAY171031AY261031GF108991081001999999021999MD1210121+9999MW1221REMSYN066AAXX  23151 53276 41980 82205 10011 20008 40221 52012 72276 8802/;
0201532760999992000102318004+42400+112890FM-12+115299999V0202201N008010120019N0300001N1+00171-00041102251ADDAA106000591AY171061AY261061GF107991071051012501999999KA1999M+01241MA1999999088941MD1210071+9999MW1001REMSYN088AAXX  23181 53276 11680 72208 10017 21004 38894 40225 52007 69961 70076 875// 333 10124;
0163532760999992000102321004+42400+112890FM-12+115299999V0202701N006012200019N0300001N1-00181-01351102741ADDAA124001091AY171031GA1001+999999999GF100991001001999999001001MD1210311+9999MW1001REMSYN070AAXX  23211 53276 41980 02706 11018 21135 40274 52031 70070 333 70010;
0186532760999992000102400004+42400+112890FM-12+115299999V0203401N009012200019N0300001N1-00561-01401103401ADDAA106000791AY171061GF102991011001999999031021MA1999999089581MD1210331+1301MW1001REMSYN094AAXX  24001 53276 11980 23409 11056 21140 38958 40340 52033 69901 70070 81032 333 01364 70010;
0112532760999992000102403004+42400+112890FM-12+115299999V0203401N008012200019N0300001N1-00551-01951103611ADDGF101991001001999999001021MD1210151+9999REMSYN060AAXX  24031 53276 42980 13408 11055 21195 40361 52015 80002;
0186532760999992000102406004+42400+112890FM-12+115299999V0202901N008012200019N0300001N1-00391-01731103481ADDAA199000091GF101991001001999999001021KA1999N-00601MA1999999089671MD1710061+9999REMSYN076AAXX  24061 53276 32980 12908 11039 21173 38967 40348 57006 80002 333 21060;EQDQ01  00002PRCP99
0112532760999992000102409004+42400+112890FM-12+115299999V0202901N007012200019N0300001N1-00301-01471103551ADDGF101991001001999999001021MD1410001+9999REMSYN060AAXX  24091 53276 42980 12907 11030 21147 40355 54000 80002;
0173532760999992000102412004+42400+112890FM-12+115299999V0202201N004012200019N0300001N1-00451-01381103611ADDAA199000091GA1001+999999999GF100991001001999999001001MA1999999089601MD1710071+9999REMSYN060AAXX  24121 53276 32980 02204 11045 21138 38960 40361 57007;EQDQ01  00002PRCP99
0122532760999992000102415004+42400+112890FM-12+115299999V0202201N004012200019N0300001N1-00541-01251103671ADDGA1001+999999999GF100991001001999999001001MD1210031+9999REMSYN054AAXX  24151 53276 42980 02204 11054 21125 40367 52003;
0196532760999992000102418004+42400+112890FM-12+115299999V0202201N003012200019N0300001N1-00691-01371103541ADDAA199000091GA1001+999999999GF100991001001999999001001KA1999M+00171MA1999999089521MD1710111+9999REMSYN070AAXX  24181 53276 32980 02203 11069 21137 38952 40354 57011 333 10017;EQDQ01  00002PRCP99
0122532760999992000102421004+42400+112890FM-12+115299999V0202001N007012200019N0300001N1-00561-01391103281ADDGA1001+999999999GF100991001001999999001001MD1710171+9999REMSYN054AAXX  24211 53276 42980 02007 11056 21139 40328 57017;
0183532760999992000102500004+42400+112890FM-12+115299999V0202201N005012200019N0300001N1-00531-01591103291ADDAA199000091GA1001+999999999GF100991001001999999001001MA1999999089331MD1710021+0031REMSYN070AAXX  25001 53276 32980 02205 11053 21159 38933 40329 57002 333 05300;EQDQ01  00002PRCP99
0122532760999992000102503004+42400+112890FM-12+115299999V0202901N005012200019N0300001N1+00131-02151103111ADDGA1001+999999999GF100991001001999999001001MD1710021+9999REMSYN054AAXX  25031 53276 42980 02905 10013 21215 40311 57002;
0196532760999992000102506004+42400+112890FM-12+115299999V0202901N008012200019N0300001N1+00391-01531103011ADDAA199000091GA1001+999999999GF100991001001999999001001KA1999N-00721MA1999999089251MD1710061+9999REMSYN070AAXX  25061 53276 32980 02908 10039 21153 38925 40301 57006 333 21072;EQDQ01  00002PRCP99
0122532760999992000102509004+42400+112890FM-12+115299999V0203601N004012200019N0300001N1+00171-01521103071ADDGA1001+999999999GF100991001001999999001001MD1210031+9999REMSYN054AAXX  25091 53276 42980 03604 10017 21152 40307 52003;
0173532760999992000102512004+42400+112890FM-12+115299999V0200701N002012200019N0300001N1-00351-01061103371ADDAA199000091GA1001+999999999GF100991001001999999001001MA1999999089421MD1210141+9999REMSYN060AAXX  25121 53276 32980 00702 11035 21106 38942 40337 52014;EQDQ01  00002PRCP99
0122532760999992000102515004+42400+112890FM-12+115299999V0201401N002012200019N0300001N1-00421-01171103281ADDGA1001+999999999GF100991001001999999001001MD1210061+9999REMSYN054AAXX  25151 53276 42980 01402 11042 21117 40328 52006;
0196532760999992000102518004+42400+112890FM-12+115299999V0201801N003012200019N0300001N1-00451-01211103171ADDAA199000091GA1001+999999999GF100991001001999999001001KA1999M+00411MA1999999089441MD1710041+9999REMSYN070AAXX  25181 53276 32980 01803 11045 21121 38944 40317 57004 333 10041;EQDQ01  00002PRCP99
0122532760999992000102521004+42400+112890FM-12+115299999V0201801N002012200019N0300001N1-00551-01111103061ADDGA1001+999999999GF100991001001999999001001MD1710171+9999REMSYN054AAXX  25211 53276 42980 01802 11055 21111 40306 57017;
0173532760999992000102600004+42400+112890FM-12+115299999V0201401N001012200019N0300001N1-00281-01041103031ADDAA199000091GF104991041001999999031001MA1999999089191MD1710081+0011REMSYN076AAXX  26001 53276 32980 41401 11028 21104 38919 40303 57008 84030 333 05103;EQDQ01  00002PRCP99
0112532760999992000102603004+42400+112890FM-12+115299999V0201801N002012200019N0300001N1+00481-00351102811ADDGF102991011001999999031021MD1710031+9999REMSYN060AAXX  26031 53276 42980 21802 10048 21035 40281 57003 81032;
0186532760999992000102606004+42400+112890FM-12+115299999V0202701N005010360019N0300001N1+01041-00301102391ADDAA199000091GF107991011051012501031021KA1999N-00591MA1999999088911MD1710251+9999REMSYN076AAXX  26061 53276 32680 72705 10104 21030 38891 40239 57025 81532 333 21059;EQDQ01  00002PRCP99
0112532760999992000102609004+42400+112890FM-12+115299999V0200201N004019999999N0300001N1+00601-00461102661ADDGF107991031001999999031021MD1210111+9999REMSYN060AAXX  26091 53276 42980 70204 10060 21046 40266 52011 83032;
0163532760999992000102612004+42400+112890FM-12+115299999V0200401N002019999999N0300001N1+00251-00261102861ADDAA199000091GF105991011001999999031021MA1999999089181MD1210161+9999REMSYN066AAXX  26121 53276 32980 50402 10025 21026 38918 40286 52016 81032;EQDQ01  00002PRCP99
0112532760999992000102615004+42400+112890FM-12+115299999V0209999C000012200019N0300001N1+00031-00441102831ADDGF102991001001999999001021MD1210101+9999REMSYN060AAXX  26151 53276 42980 20000 10003 21044 40283 52010 80002;
0196532760999992000102618004+42400+112890FM-12+115299999V0202201N003012200019N0300001N1-00021-00271102711ADDAA199000091GA1001+999999999GF100991001001999999001001KA1999M+01171MA1999999089291MD1210011+9999REMSYN070AAXX  26181 53276 32980 02203 11002 21027 38929 40271 52001 333 10117;EQDQ01  00002PRCP99
0122532760999992000102621004+42400+112890FM-12+115299999V0202201N004012200019N0300001N1-00151-00391102861ADDGA1001+999999999GF100991001001999999001001MD1410001+9999REMSYN054AAXX  26211 53276 42980 02204 11015 21039 40286 54000;
0201532760999992000102700004+42400+112890FM-12+115299999V0203601N005012200019N0300001N1+00091-00811102991ADDAA199000091GA1001+999999999GF100991001001999999001001IA2999-00409MA1999999089381MD1210091+0201REMSYN076AAXX  27001 53276 32980 03605 10009 21081 38938 40299 52009 333 00204 31041;EQDQ01  00002PRCP99
0112532760999992000102703004+42400+112890FM-12+115299999V0202201N007012200019N0300001N1+00561-01181103031ADDGF102991001001999999001021MD1210091+9999REMSYN060AAXX  27031 53276 42980 22207 10056 21118 40303 52009 80002;
0186532760999992000102706004+42400+112890FM-12+115299999V0203401N004019999999N0300001N1+00771-01221102881ADDAA199000091GF107991001001999999001021KA1999N-00151MA1999999089371MD1710101+9999REMSYN076AAXX  27061 53276 32980 73404 10077 21122 38937 40288 57010 80002 333 21015;EQDQ01  00002PRCP99
0112532760999992000102709004+42400+112890FM-12+115299999V0203401N003019999999N0300001N1+00651-00841102951ADDGF106991001001999999001021MD1210011+9999REMSYN060AAXX  27091 53276 42980 63403 10065 21084 40295 52001 80002;
0163532760999992000102712004+42400+112890FM-12+115299999V0200201N001012200019N0300001N1+00141-00651103171ADDAA199000091GF101991001001999999001021MA1999999089511MD1210131+9999REMSYN066AAXX  27121 53276 32980 10201 10014 21065 38951 40317 52013 80002;EQDQ01  00002PRCP99
0122532760999992000102715004+42400+112890FM-12+115299999V0209999C000012200019N0300001N1-00041-00601103191ADDGA1001+999999999GF100991001001999999001001MD1210081+9999REMSYN054AAXX  27151 53276 42980 00000 11004 21060 40319 52008;
0186532760999992000102718004+42400+112890FM-12+115299999V0209999C000012200019N0300001N1-00281-00531103161ADDAA199000091GF101991011001999999031021KA1999M+00871MA1999999089561MD1710031+9999REMSYN076AAXX  27181 53276 32980 10000 11028 21053 38956 40316 57003 81032 333 10087;EQDQ01  00002PRCP99
0112532760999992000102721004+42400+112890FM-12+115299999V0201801N002012200019N0300001N1-00331-00621103181ADDGF102991001001999999001021MD1710021+9999REMSYN060AAXX  27211 53276 42980 21802 11033 21062 40318 57002 80002;
0173532760999992000102800004+42400+112890FM-12+115299999V0202701N002010120019N0300001N1-00301-00541103371ADDAA199000091GF107991051051012501001021MA1999999089591MD1210051+0021REMSYN076AAXX  28001 53276 32680 72702 11030 21054 38959 40337 52005 85502 333 00254;EQDQ01  00002PRCP99
0112532760999992000102803004+42400+112890FM-12+115299999V0200201N002010120019N0300001N1+00051-00481103421ADDGF107991051051012501001021MD1210081+9999REMSYN060AAXX  28031 53276 42680 70202 10005 21048 40342 52008 85502;
0112532760999992000102809004+42400+112890FM-12+115299999V0203401N003019999999N0300001N1+00231-00941103301ADDGF107991001001999999001021MD1710041+9999REMSYN060AAXX  28091 53276 42980 73403 10023 21094 40330 57004 80002;
0163532760999992000102812004+42400+112890FM-12+115299999V0202701N003012200019N0300001N1-00091-00781103431ADDAA199000091GF104991001001999999001021MA1999999089591MD1210051+9999REMSYN066AAXX  28121 53276 32980 42703 11009 21078 38959 40343 52005 80002;EQDQ01  00002PRCP99
0112532760999992000102815004+42400+112890FM-12+115299999V0202501N004012200019N0300001N1-00281-00781103341ADDGF101991001001999999001021MD1710041+9999REMSYN060AAXX  28151 53276 42980 12504 11028 21078 40334 57004 80002;
0196532760999992000102818004+42400+112890FM-12+115299999V0202201N003012200019N0300001N1-00501-01001103241ADDAA199000091GA1001+999999999GF100991001001999999001001KA1999M+00391MA1999999089471MD1710081+9999REMSYN070AAXX  28181 53276 32980 02203 11050 21100 38947 40324 57008 333 10039;EQDQ01  00002PRCP99
0122532760999992000102821004+42400+112890FM-12+115299999V0202201N004012200019N0300001N1-00641-01101103091ADDGA1001+999999999GF100991001001999999001001MD1710181+9999REMSYN054AAXX  28211 53276 42980 02204 11064 21110 40309 57018;
0183532760999992000102900004+42400+112890FM-12+115299999V0202201N005012200019N0300001N1-00571-01141103161ADDAA199000091GA1001+999999999GF100991001001999999001001MA1999999089291MD1410001+0031REMSYN070AAXX  29001 53276 32980 02205 11057 21114 38929 40316 54000 333 05353;EQDQ01  00002PRCP99
0122532760999992000102903004+42400+112890FM-12+115299999V0202501N006012200019N0300001N1+00101-00971102811ADDGA1001+999999999GF100991001001999999001001MD1710191+9999REMSYN054AAXX  29031 53276 42980 02506 10010 21097 40281 57019;
0186532760999992000102906004+42400+112890FM-12+115299999V0202201N008012200019N0300001N1+00471-01251102351ADDAA199000091GF101991001001999999001021KA1999N-00711MA1999999088741MD1710361+9999REMSYN076AAXX  29061 53276 32980 12208 10047 21125 38874 40235 57036 80002 333 21071;EQDQ01  00002PRCP99
0112532760999992000102909004+42400+112890FM-12+115299999V0202201N007012200019N0300001N1+00411-01151102071ADDGF102991011001999999031021MD1710291+9999REMSYN060AAXX  29091 53276 42980 22207 10041 21115 40207 57029 81032;
0173532760999992000102912004+42400+112890FM-12+115299999V0201801N006012200019N0300001N1+00071-00831102091ADDAA199000091GA1001+999999999GF100991001001999999001001MA1999999088401MD1710051+9999REMSYN060AAXX  29121 53276 32980 01806 10007 21083 38840 40209 57005;EQDQ01  00002PRCP99
0122532760999992000102915004+42400+112890FM-12+115299999V0202201N006012200019N0300001N1+00131-00951101751ADDGA1001+999999999GF100991001001999999001001MD1710121+9999REMSYN054AAXX  29151 53276 42980 02206 10013 21095 40175 57012;
0196532760999992000102918004+42400+112890FM-12+115299999V0202501N006012200019N0300001N1+00111-00891101611ADDAA199000091GA1001+999999999GF100991001001999999001001KA1999M+00571MA1999999088231MD1710051+9999REMSYN070AAXX  29181 53276 32980 02506 10011 21089 38823 40161 57005 333 10057;EQDQ01  00002PRCP99
0112532760999992000102921004+42400+112890FM-12+115299999V0202201N007012200019N0300001N1+00011-01161101641ADDGF103991001001999999001021MD1710011+9999REMSYN060AAXX  29211 53276 42980 32207 10001 21116 40164 57001 80002;
0191532760999992000103000004+42400+112890FM-12+115299999V0202701N007010900019N0300001N1-00081-01281102031ADDAA199000091GF107991031051017501001021IA2999-00309MA1999999088461MD1210241-0801REMSYN082AAXX  30001 53276 32780 72707 11008 21128 38846 40203 52024 83502 333 05805 31031;EQDQ01  00002PRCP99
0112532760999992000103003004+42400+112890FM-12+115299999V0202701N008010360019N0300001N1+00121-01371102201ADDGF107991011051017501031021MD1210211+9999REMSYN060AAXX  30031 53276 42780 72708 10012 21137 40220 52021 81532;
0186532760999992000103006004+42400+112890FM-12+115299999V0203401N005010360019N0300001N1+00291-01421102231ADDAA199000091GF107991011051017501031021KA1999N-00081MA1999999088731MD1210061+9999REMSYN076AAXX  30061 53276 32780 73405 10029 21142 38873 40223 52006 81532 333 21008;EQDQ01  00002PRCP99
0112532760999992000103009004+42400+112890FM-12+115299999V0203401N006010360019N0300001N1+00151-01631102451ADDGF107991011051017501031021MD1210141+9999REMSYN060AAXX  30091 53276 42780 73406 10015 21163 40245 52014 81532;
0173532760999992000103012004+42400+112890FM-12+115299999V0203401N004012200019N0300001N1-00251-01361102841ADDAA199000091GA1001+999999999GF100991001001999999001001MA1999999089091MD1210221+9999REMSYN060AAXX  30121 53276 32980 03404 11025 21136 38909 40284 52022;EQDQ01  00002PRCP99
0122532760999992000103015004+42400+112890FM-12+115299999V0202901N003012200019N0300001N1-00471-01241102981ADDGA1001+999999999GF100991001001999999001001MD1210121+9999REMSYN054AAXX  30151 53276 42980 02903 11047 21124 40298 52012;
0196532760999992000103018004+42400+112890FM-12+115299999V0202201N004012200019N0300001N1-00631-01181102961ADDAA199000091GA1001+999999999GF100991001001999999001001KA1999M+00341MA1999999089191MD1710021+9999REMSYN070AAXX  30181 53276 32980 02204 11063 21118 38919 40296 57002 333 10034;EQDQ01  00002PRCP99
0122532760999992000103021004+42400+112890FM-12+115299999V0202201N005012200019N0300001N1-00681-01251102971ADDGA1001+999999999GF100991001001999999001001MD1710031+9999REMSYN054AAXX  30211 53276 42980 02205 11068 21125 40297 57003;
0183532760999992000103100004+42400+112890FM-12+115299999V0202201N005012200019N0300001N1-00531-01401103091ADDAA199000091GA1001+999999999GF100991001001999999001001MA1999999089201MD1210041+0071REMSYN070AAXX  31001 53276 32980 02205 11053 21140 38920 40309 52004 333 00755;EQDQ01  00002PRCP99
0122532760999992000103103004+42400+112890FM-12+115299999V0202201N005012200019N0300001N1+00211-01301102991ADDGA1001+999999999GF100991001001999999001001MD1210041+9999REMSYN054AAXX  31031 53276 42980 02205 10021 21130 40299 52004;
0196532760999992000103106004+42400+112890FM-12+115299999V0202901N006012200019N0300001N1+00431-01071102811ADDAA199000091GA1001+999999999GF100991001001999999001001KA1999N-00691MA1999999089101MD1710141+9999REMSYN070AAXX  31061 53276 32980 02906 10043 21107 38910 40281 57014 333 21069;EQDQ01  00002PRCP99
0122532760999992000103109004+42400+112890FM-12+115299999V0202201N004012200019N0300001N1+00421-01031102751ADDGA1001+999999999GF100991001001999999001001MD1710071+9999REMSYN054AAXX  31091 53276 42980 02204 10042 21103 40275 57007;
0173532760999992000103112004+42400+112890FM-12+115299999V0201801N006012200019N0300001N1+00091-01241102741ADDAA199000091GA1001+999999999GF100991001001999999001001MA1999999088981MD1710051+9999REMSYN060AAXX  31121 53276 32980 01806 10009 21124 38898 40274 57005;EQDQ01  00002PRCP99
0122532760999992000103115004+42400+112890FM-12+115299999V0202001N006012200019N0300001N1-00131-01031102601ADDGA1001+999999999GF100991001001999999001001MD1410001+9999REMSYN054AAXX  31151 53276 42980 02006 11013 21103 40260 54000;
0196532760999992000103118004+42400+112890FM-12+115299999V0202201N008012200019N0300001N1-00021-01091102341ADDAA199000091GA1001+999999999GF100991001001999999001001KA1999M+00521MA1999999088831MD1710151+9999REMSYN070AAXX  31181 53276 32980 02208 11002 21109 38883 40234 57015 333 10052;EQDQ01  00002PRCP99
0122532760999992000103121004+42400+112890FM-12+115299999V0201801N009012200019N0300001N1-00021-01141102161ADDGA1001+999999999GF100991001001999999001001MD1710161+9999REMSYN054AAXX  31211 53276 42980 01809 11002 21114 40216 57016;
0201532760999992000110100004+42400+112890FM-12+115299999V0201801N008012200019N0300001N1+00081-01051102091ADDAA199000091GA1001+999999999GF100991001001999999001001IA2999-00409MA1999999088561MD1710111-0601REMSYN076AAXX  01001 53276 32980 01808 10008 21105 38856 40209 57011 333 05606 31044;EQDQ01  00002PRCP99
0112532760999992000110103004+42400+112890FM-12+115299999V0202201N011012200019N0300001N1+00871-01071101901ADDGF101991001001999999001021MD1710041+9999REMSYN060AAXX  01031 53276 42980 12211 10087 21107 40190 57004 80002;
0219532760999992000110106004+42400+112890FM-12+115299999V0202501N010012200019N0300001N1+01101-01011101651ADDAA199000091GA1001+999999999GF100991001001999999001001KA1240N-00151MA1999999088381MD1710141+9999OA130601701REMSYN082AAXX  01061 53276 32980 02510 10110 21101 38838 40165 57014 333 21015 91117 91525;EQDQ01  00002PRCP99
0122532760999992000110109004+42400+112890FM-12+115299999V0202201N006012200019N0300001N1+01021-01101101791ADDGA1001+999999999GF100991001001999999001001MD1210101+9999REMSYN054AAXX  01091 53276 42980 02206 10102 21110 40179 52010;
0173532760999992000110112004+42400+112890FM-12+115299999V0202201N005012200019N0300001N1+00441-00891102051ADDAA199000091GA1001+999999999GF100991001001999999001001MA1999999088601MD1210121+9999REMSYN060AAXX  01121 53276 32980 02205 10044 21089 38860 40205 52012;EQDQ01  00002PRCP99
0122532760999992000110115004+42400+112890FM-12+115299999V0202201N003012200019N0300001N1+00031-00851102131ADDGA1001+999999999GF100991001001999999001001MD1210161+9999REMSYN054AAXX  01151 53276 42980 02203 10003 21085 40213 52016;
0196532760999992000110118004+42400+112890FM-12+115299999V0202201N005012200019N0300001N1+00071-00881102041ADDAA199000091GA1001+999999999GF100991001001999999001001KA1999M+01221MA1999999088741MD1710021+9999REMSYN070AAXX  01181 53276 32980 02205 10007 21088 38874 40204 57002 333 10122;EQDQ01  00002PRCP99
0122532760999992000110121004+42400+112890FM-12+115299999V0201801N004012200019N0300001N1-00171-00721102031ADDGA1001+999999999GF100991001001999999001001MD1710081+9999REMSYN054AAXX  01211 53276 42980 01804 11017 21072 40203 57008;
0201532760999992000110200004+42400+112890FM-12+115299999V0202201N003012200019N0300001N1+00051-00731102101ADDAA199000091GA1001+999999999GF100991001001999999001001IA2999-00409MA1999999088641MD1710021+0101REMSYN076AAXX  02001 53276 32980 02203 10005 21073 38864 40210 57002 333 00100 31043;EQDQ01  00002PRCP99
0122532760999992000110203004+42400+112890FM-12+115299999V0202501N005012200019N0300001N1+01121-00671101891ADDGA1001+999999999GF100991001001999999001001MD1710041+9999REMSYN054AAXX  02031 53276 42980 02505 10112 21067 40189 57004;
0196532760999992000110206004+42400+112890FM-12+115299999V0202201N005012200019N0300001N1+01531-00701101561ADDAA199000091GA1001+999999999GF100991001001999999001001KA1999N-00171MA1999999088411MD1710191+9999REMSYN070AAXX  02061 53276 32980 02205 10153 21070 38841 40156 57019 333 21017;EQDQ01  00002PRCP99
0112532760999992000110209004+42400+112890FM-12+115299999V0201801N002019999999N0300001N1+01411-00551101581ADDGF107991011001999999031021MD1710061+9999REMSYN060AAXX  02091 53276 42980 71802 10141 21055 40158 57006 81032;
0163532760999992000110212004+42400+112890FM-12+115299999V0201801N008012200019N0300001N1+00951-00791101601ADDAA199000091GF102991001001999999001021MA1999999088321MD1710031+9999REMSYN066AAXX  02121 53276 32980 21808 10095 21079 38832 40160 57003 80002;EQDQ01  00002PRCP99
0112532760999992000110215004+42400+112890FM-12+115299999V0202001N007012200019N0300001N1+00871-00721101401ADDGF101991001001999999001021MD1210041+9999REMSYN060AAXX  02151 53276 42980 12007 10087 21072 40140 52004 80002;
0196532760999992000110218004+42400+112890FM-12+115299999V0202001N006012200019N0300001N1+00521-00621101321ADDAA199000091GA1001+999999999GF100991001001999999001001KA1999M+01691MA1999999088301MD1710061+9999REMSYN070AAXX  02181 53276 32980 02006 10052 21062 38830 40132 57006 333 10169;EQDQ01  00002PRCP99
0112532760999992000110221004+42400+112890FM-12+115299999V0201801N007019999999N0300001N1+00831-00661101301ADDGF106991001001999999001021MD1210021+9999REMSYN060AAXX  02211 53276 42980 61807 10083 21066 40130 52002 80002;
0191532760999992000110300004+42400+112890FM-12+115299999V0202201N007010360019N0300001N1+00971-00661101551ADDAA199000091GF107991021051012501031021IA2999+00109MA1999999088471MD1210151-0201REMSYN082AAXX  03001 53276 32680 72207 10097 21066 38847 40155 52015 82532 333 05209 30010;EQDQ01  00002PRCP99
0112532760999992000110303004+42400+112890FM-12+115299999V0202201N010019999999N0300001N1+01011-00861101701ADDGF107991011001999999031021MD1210131+9999REMSYN060AAXX  03031 53276 42980 72210 10101 21086 40170 52013 81032;
0209532760999992000110306004+42400+112890FM-12+115299999V0202201N011019999999N0300001N1+01001-01501101731ADDAA199000091GF107991001001999999001021KA1240N+00491MA1999999088541MD1710061+9999OA130601801REMSYN088AAXX  03061 53276 32980 72211 10100 21150 38854 40173 57006 80002 333 20049 91118 91522;EQDQ01  00002PRCP99
0112532760999992000110309004+42400+112890FM-12+115299999V0202901N009019999999N0300001N1+00691-01411101701ADDGF107991001001999999001021MD1710021+9999REMSYN060AAXX  03091 53276 42980 72909 10069 21141 40170 57002 80002;
0162532760999992000110312004+42400+112890FM-12+115299999V0202501N010010900019N0250001N1+00451-01431101831ADDAA199000091GF107991021051012501001021MA1999999088611MD1210091+9999REMSYN065AAXX  03121 53276 3267572510 10045 21143 38861 40183 52009 82502;EQDQ01  00002PRCP99
0112532760999992000110315004+42400+112890FM-12+115299999V0202701N011012200019N0120001N1+00061-01591102051ADDGF103991001001999999001021MD1210111+9999REMSYN060AAXX  03151 53276 42962 32711 10006 21159 40205 52011 80002;
0219532760999992000110318004+42400+112890FM-12+115299999V0202501N009012200019N0200001N1-00171-01891102141ADDAA199000091GA1001+999999999GF100991001001999999001001KA1240M+01091MA1999999088751MD1210031+9999OA130602401REMSYN082AAXX  03181 53276 32970 02509 11017 21189 38875 40214 52003 333 10109 91124 91527;EQDQ01  00002PRCP99
0122532760999992000110321004+42400+112890FM-12+115299999V0202501N008012200019N0200001N1-00271-01651102131ADDGA1001+999999999GF100991001001999999001001MD1710101+9999REMSYN054AAXX  03211 53276 42970 02508 11027 21165 40213 57010;
0195532760999992000110400004+42400+112890FM-12+115299999V0202201N009012200019N0080001N1-00321-01711102171ADDAA199000091GA1001+999999999GF100991001001999999001001MA1999999088621MD1710031+0021MW1061REMSYN076AAXX  04001 53276 31958 02209 11032 21171 38862 40217 57003 70600 333 00263;EQDQ01  00002PRCP99
0122532760999992000110403004+42400+112890FM-12+115299999V0202501N011012200019N0120001N1+00041-01431102191ADDGA1001+999999999GF100991001001999999001001MD1210011+9999REMSYN054AAXX  04031 53276 42962 02511 10004 21143 40219 52001;
0219532760999992000110406004+42400+112890FM-12+115299999V0202701N010012200019N0200001N1+00361-01051101811ADDAA199000091GA1001+999999999GF100991001001999999001001KA1240N-00331MA1999999088321MD1710311+9999OA130601801REMSYN082AAXX  04061 53276 32970 02710 10036 21105 38832 40181 57031 333 21033 91118 91527;EQDQ01  00002PRCP99
0122532760999992000110409004+42400+112890FM-12+115299999V0202501N009012200019N0200001N1+00431-01781101731ADDGA1001+999999999GF100991001001999999001001MD1710081+9999REMSYN054AAXX  04091 53276 42970 02509 10043 21178 40173 57008;
0200532760999992000110412004+42400+112890FM-12+115299999V0202201N006012200019N0250001N1+00151-01471101911ADDAA199000091GA1001+999999999GF100991001001999999001001MA1999999088321MD1210081+9999OA130601801REMSYN076AAXX  04121 53276 32975 02206 10015 21147 38832 40191 52008 333 91118 91525;EQDQ01  00002PRCP99
0112532760999992000110415004+42400+112890FM-12+115299999V0202501N005012200019N0300001N1-00071-01121101831ADDGF101991001001999999001021MD1710031+9999REMSYN060AAXX  04151 53276 42980 12505 11007 21112 40183 57003 80002;
0196532760999992000110418004+42400+112890FM-12+115299999V0201801N005012200019N0300001N1-00031-01001101541ADDAA199000091GA1001+999999999GF100991001001999999001001KA1999M+00541MA1999999088121MD1710171+9999REMSYN070AAXX  04181 53276 32980 01805 11003 21100 38812 40154 57017 333 10054;EQDQ01  00002PRCP99
0112532760999992000110421004+42400+112890FM-12+115299999V0202201N006012200019N0300001N1-00101-00931101361ADDGF101991011051012501001021MD1710161+9999REMSYN060AAXX  04211 53276 42680 12206 11010 21093 40136 57016 81502;
0191532760999992000110500004+42400+112890FM-12+115299999V0202201N008012200019N0300001N1+00061-00931101311ADDAA199000091GF101991011051012501001021IA2999-00409MA1999999087891MD1710071-0701REMSYN082AAXX  05001 53276 32680 12208 10006 21093 38789 40131 57007 81502 333 05704 31046;EQDQ01  00002PRCP99
0112532760999992000110503004+42400+112890FM-12+115299999V0202501N010012200019N0300001N1+00851-01161101061ADDGF103991001001999999001021MD1710091+9999REMSYN060AAXX  05031 53276 42980 32510 10085 21116 40106 57009 80002;
0209532760999992000110506004+42400+112890FM-12+115299999V0202501N013012200019N0200001N1+00881-00871100961ADDAA199000091GF102991011011012501001021KA1240N-00171MA1999999087731MD1710071+9999OA130602101REMSYN088AAXX  05061 53276 32670 22513 10088 21087 38773 40096 57007 81102 333 21017 91121 91529;EQDQ01  00002PRCP99
0112532760999992000110509004+42400+112890FM-12+115299999V0203201N009012200019N0120001N1+00681-01001101131ADDGF103991001001999999001021MD1210091+9999REMSYN060AAXX  05091 53276 42962 33209 10068 21100 40113 52009 80002;
0190532760999992000110512004+42400+112890FM-12+115299999V0202701N005019999999N0300001N1+00311-01081101451ADDAA199000091GF105991001001999999001021MA1999999088051MD1210231+9999OA130601701REMSYN082AAXX  05121 53276 32980 52705 10031 21108 38805 40145 52023 80002 333 91117 91529;EQDQ01  00002PRCP99
0122532760999992000110515004+42400+112890FM-12+115299999V0203201N006012200019N0300001N1-00111-01511101601ADDGA1001+999999999GF100991001001999999001001MD1210211+9999REMSYN054AAXX  05151 53276 42980 03206 11011 21151 40160 52021;
0196532760999992000110518004+42400+112890FM-12+115299999V0202501N007012200019N0300001N1-00431-01651101871ADDAA199000091GA1001+999999999GF100991001001999999001001KA1999M+00951MA1999999088431MD1210171+9999REMSYN070AAXX  05181 53276 32980 02507 11043 21165 38843 40187 52017 333 10095;EQDQ01  00002PRCP99
0122532760999992000110521004+42400+112890FM-12+115299999V0202201N006012200019N0300001N1-00671-01641102181ADDGA1001+999999999GF100991001001999999001001MD1210171+9999REMSYN054AAXX  05211 53276 42980 02206 11067 21164 40218 52017;
0173532760999992000110600004+42400+112890FM-12+115299999V0202501N008012200019N0300001N1-00781-01641102621ADDAA199000091GF101991001001999999001021MA1999999088871MD1210271+0101REMSYN076AAXX  06001 53276 32980 12508 11078 21164 38887 40262 52027 80002 333 01058;EQDQ01  00002PRCP99
0122532760999992000110603004+42400+112890FM-12+115299999V0202901N010012200019N0300001N1-00621-02011102871ADDGA1001+999999999GF100991001001999999001001MD1210151+9999REMSYN054AAXX  06031 53276 42980 02910 11062 21201 40287 52015;
0219532760999992000110606004+42400+112890FM-12+115299999V0202901N011012200019N0300001N1-00621-02441103011ADDAA199000091GA1001+999999999GF100991001001999999001001KA1240N-00831MA1999999089071MD1210051+9999OA130601801REMSYN082AAXX  06061 53276 32980 02911 11062 21244 38907 40301 52005 333 21083 91118 91529;EQDQ01  00002PRCP99
0122532760999992000110609004+42400+112890FM-12+115299999V0202901N010012200019N0300001N1-00891-02651103371ADDGA1001+999999999GF100991001001999999001001MD1210191+9999REMSYN054AAXX  06091 53276 42980 02910 11089 21265 40337 52019;
0200532760999992000110612004+42400+112890FM-12+115299999V0202901N007012200019N0300001N1-01201-02371103901ADDAA199000091GA1001+999999999GF100991001001999999001001MA1999999089611MD1210351+9999OA130601801REMSYN076AAXX  06121 53276 32980 02907 11120 21237 38961 40390 52035 333 91118 91527;EQDQ01  00002PRCP99
0122532760999992000110615004+42400+112890FM-12+115299999V0202901N006012200019N0300001N1-01441-02421104131ADDGA1001+999999999GF100991001001999999001001MD1210181+9999REMSYN054AAXX  06151 53276 42980 02906 11144 21242 40413 52018;
0196532760999992000110618004+42400+112890FM-12+115299999V0202901N009012200019N0300001N1-01681-02431104321ADDAA199000091GA1001+999999999GF100991001001999999001001KA1999M-00411MA1999999089891MD1210101+9999REMSYN070AAXX  06181 53276 32980 02909 11168 21243 38989 40432 52010 333 11041;EQDQ01  00002PRCP99
0122532760999992000110621004+42400+112890FM-12+115299999V0202501N006012200019N0300001N1-01831-02491104481ADDGA1001+999999999GF100991001001999999001001MD1210031+9999REMSYN054AAXX  06211 53276 42980 02506 11183 21249 40448 52003;
0183532760999992000110700004+42400+112890FM-12+115299999V0202501N007012200019N0300001N1-01801-02441104711ADDAA199000091GA1001+999999999GF100991001001999999001001MA1999999090051MD1210131+0121REMSYN070AAXX  07001 53276 32980 02507 11180 21244 39005 40471 52013 333 01260;EQDQ01  00002PRCP99
0112532760999992000110703004+42400+112890FM-12+115299999V0202901N008012200019N0300001N1-01361-02221104761ADDGF101991001001999999001021MD1210091+9999REMSYN060AAXX  07031 53276 42980 12908 11136 21222 40476 52009 80002;
0186532760999992000110706004+42400+112890FM-12+115299999V0202901N005012200019N0300001N1-01051-02211104481ADDAA199000091GF101991001001999999001021KA1999N-01871MA1999999089921MD1710221+9999REMSYN076AAXX  07061 53276 32980 12905 11105 21221 38992 40448 57022 80002 333 21187;EQDQ01  00002PRCP99
0112532760999992000110709004+42400+112890FM-12+115299999V0203401N003012200019N0300001N1-01071-02351104431ADDGF101991001001999999001021MD1710091+9999REMSYN060AAXX  07091 53276 42980 13403 11107 21235 40443 57009 80002;
0163532760999992000110712004+42400+112890FM-12+115299999V0209999C000012200019N0300001N1-01441-02481104541ADDAA199000091GF101991001001999999001021MA1999999089841MD1210011+9999REMSYN066AAXX  07121 53276 32980 10000 11144 21248 38984 40454 52001 80002;EQDQ01  00002PRCP99
0112532760999992000110715004+42400+112890FM-12+115299999V0201801N002012200019N0300001N1-01531-02451104341ADDGF103991001001999999001021MD1710081+9999REMSYN060AAXX  07151 53276 42980 31802 11153 21245 40434 57008 80002;
0186532760999992000110718004+42400+112890FM-12+115299999V0201601N002010900019N0300001N1-01511-02391104011ADDAA199000091GF107991011051012501001021KA1999M-00951MA1999999089561MD1710201+9999REMSYN076AAXX  07181 53276 32680 71602 11151 21239 38956 40401 57020 81502 333 11095;EQDQ01  00002PRCP99
0112532760999992000110721004+42400+112890FM-12+115299999V0200201N002012200019N0300001N1-01381-02271103541ADDGF102991001001999999001021MD1710381+9999REMSYN060AAXX  07211 53276 42980 20202 11138 21227 40354 57038 80002;
0173532760999992000110800004+42400+112890FM-12+115299999V0200201N002019999999N0300001N1-01321-02191103501ADDAA199000091GF106991051001999999031021MA1999999089071MD1710111+0101REMSYN076AAXX  08001 53276 32980 60202 11132 21219 38907 40350 57011 85032 333 06005;EQDQ01  00002PRCP99
0185532760999992000110806004+42400+112890FM-12+115299999V0202901N003010900019N0300001N1-00341-00821102741ADDAA106000791GF107991021051017501001081KA1999N-01561MA1999999088641MD1710271+9999MW1701REMSYN088AAXX  08061 53276 11780 72903 11034 21082 38864 40274 57027 69901 77000 82508 333 21156;
0132532760999992000110809004+42400+112890FM-12+115299999V0203201N002010360019N0300001N1-00431-00901102741ADDAY171031GF108991021051017501011999MD1210011+9999MW1701REMSYN066AAXX  08091 53276 41780 83202 11043 21090 40274 52001 77070 8251/;
0170532760999992000110812004+42400+112890FM-12+115299999V0200201N003010360019N0300001N1-00591-02022102871ADDAA106000791AY171061GF107991021051017501031021MA1999999088741MD1210091+9999MW1001REMSYN078AAXX  08121 53276 11780 70203 11059 21202 38874 40287 52009 69901 70070 82532;
0112532760999992000110815004+42400+112890FM-12+115299999V0203601N004019999999N0300001N1-00841-01821103091ADDGF108991011001999999031071MD1210261+9999REMSYN060AAXX  08151 53276 42980 83604 11084 21182 40309 52026 81037;
0185532760999992000110818004+42400+112890FM-12+115299999V0203601N004019999999N0300001N1-01031-01441103201ADDAA106000791GF108991001001999999001071KA1999M-00261MA1999999089161MD1210161+9999MW1701REMSYN088AAXX  08181 53276 11980 83604 11103 21144 38916 40320 52016 69901 77000 80007 333 11026;
0161532760999992000110821004+42400+112890FM-12+115299999V0203401N004019999999N0200001N1-01091-01161103301ADDAA124000791AY171031AY271031GF108991081001999999011999MD1210051+9999MW1701REMSYN076AAXX  08211 53276 41970 83404 11109 21116 40330 52005 77077 8801/ 333 79999;
0192532760999992000110900004+42400+112890FM-12+115299999V0203401N004019999999N0300001N1-01291-01401103651ADDAA106000191AY171061GF107991031001999999031021MA1999999089421MD1210211+0401MW1001REMSYN100AAXX  09001 53276 11980 73404 11129 21140 38942 40365 52021 69921 70070 83032 333 00400 70002 92500;
0112532760999992000110903004+42400+112890FM-12+115299999V0202701N005019999999N0300001N1-01201-01361103921ADDGF107991011001999999031021MD1210191+9999REMSYN060AAXX  09031 53276 42980 72705 11120 21136 40392 52019 81032;
0167532760999992000110906004+42400+112890FM-12+115299999V0203401N004010120019N0300001N1-01051-01341103891ADDAA199000021GF107991071051012501999999KA1999N-01301MA1999999089581MD1710031+9999REMSYN076AAXX  09061 53276 32680 73404 11105 21134 38958 40389 57003 875// 333 21130;
0112532760999992000110909004+42400+112890FM-12+115299999V0203401N005010120019N0300001N1-01141-01481104081ADDGF107991071051012501001021MD1210121+9999REMSYN060AAXX  09091 53276 42680 73405 11114 21148 40408 52012 87502;
0163532760999992000110912004+42400+112890FM-12+115299999V0202501N003012200019N0300001N1-01361-01581104461ADDAA199000091GF101991011051012501001001MA1999999089921MD1210221+9999REMSYN066AAXX  09121 53276 32680 12503 11136 21158 38992 40446 52022 81500;EQDQ01  00002PRCP99
0112532760999992000110915004+42400+112890FM-12+115299999V0202901N003012200019N0300001N1-01571-01881104691ADDGF101991001001999999001021MD1210171+9999REMSYN060AAXX  09151 53276 42980 12903 11157 21188 40469 52017 80002;
0196532760999992000110918004+42400+112890FM-12+115299999V0202201N006012200019N0300001N1-01661-01941104691ADDAA199000091GA1001+999999999GF100991001001999999001001KA1999M-01001MA1999999090111MD1210021+9999REMSYN070AAXX  09181 53276 32980 02206 11166 21194 39011 40469 52002 333 11100;EQDQ01  00002PRCP99
0143532760999992000110921004+42400+112890FM-12+115299999V0202501N006012200019N0300001N1-01651-01941104651ADDAA124000391GA1001+999999999GF100991001001999999001001MD1710061+9999REMSYN064AAXX  09211 53276 42980 02506 11165 21194 40465 57006 333 70002;
0183532760999992000111000004+42400+112890FM-12+115299999V0202201N007012200019N0300001N1-01651-01971104761ADDAA199000091GA1001+999999999GF100991001001999999001001MA1999999090091MD1210041+0071REMSYN070AAXX  10001 53276 32980 02207 11165 21197 39009 40476 52004 333 00754;EQDQ01  00002PRCP99
0122532760999992000111003004+42400+112890FM-12+115299999V0202901N008012200019N0300001N1-01011-01811104661ADDGA1001+999999999GF100991001001999999001001MD1210021+9999REMSYN054AAXX  10031 53276 42980 02908 11101 21181 40466 52002;
0196532760999992000111006004+42400+112890FM-12+115299999V0202501N007012200019N0300001N1-00611-02311104311ADDAA199000091GA1001+999999999GF100991001001999999001001KA1999N-01771MA1999999089891MD1710221+9999REMSYN070AAXX  10061 53276 32980 02507 11061 21231 38989 40431 57022 333 21177;EQDQ01  00002PRCP99
0122532760999992000111009004+42400+112890FM-12+115299999V0202501N005012200019N0300001N1-00621-02221104091ADDGA1001+999999999GF100991001001999999001001MD1710191+9999REMSYN054AAXX  10091 53276 42980 02505 11062 21222 40409 57019;
0173532760999992000111012004+42400+112890FM-12+115299999V0202201N007012200019N0300001N1-00951-01731104191ADDAA199000091GA1001+999999999GF100991001001999999001001MA1999999089701MD1410001+9999REMSYN060AAXX  10121 53276 32980 02207 11095 21173 38970 40419 54000;EQDQ01  00002PRCP99
0112532760999992000111015004+42400+112890FM-12+115299999V0202201N005012200019N0300001N1-01061-01641103841ADDGF102991001001999999001021MD1710161+9999REMSYN060AAXX  10151 53276 42980 22205 11106 21164 40384 57016 80002;
0186532760999992000111018004+42400+112890FM-12+115299999V0202201N007012200019N0300001N1-01101-01661103511ADDAA199000091GF101991001001999999001021KA1999M-00531MA1999999089341MD1710201+9999REMSYN076AAXX  10181 53276 32980 12207 11110 21166 38934 40351 57020 80002 333 11053;EQDQ01  00002PRCP99
0112532760999992000111021004+42400+112890FM-12+115299999V0202201N008019999999N0300001N1-00891-01621103141ADDGF107991001001999999001021MD1710271+9999REMSYN060AAXX  10211 53276 42980 72208 11089 21162 40314 57027 80002;
0173532760999992000111100004+42400+112890FM-12+115299999V0202501N009019999999N0300001N1-00871-01731103091ADDAA199000091GF105991031001999999031021MA1999999088951MD1710121+0111REMSYN076AAXX  11001 53276 32980 52509 11087 21173 38895 40309 57012 83032 333 06108;EQDQ01  00002PRCP99
0112532760999992000111103004+42400+112890FM-12+115299999V0202701N010010900019N0300001N1-00631-01641103161ADDGF105991011051017501031021MD1210091+9999REMSYN060AAXX  11031 53276 42780 52710 11063 21164 40316 52009 81532;
0186532760999992000111106004+42400+112890FM-12+115299999V0202701N010012200019N0300001N1-00381-01631102981ADDAA199000091GF102991011051017501031001KA1999N-01161MA1999999088941MD1710101+9999REMSYN076AAXX  11061 53276 32780 22710 11038 21163 38894 40298 57010 81530 333 21116;EQDQ01  00002PRCP99
0112532760999992000111109004+42400+112890FM-12+115299999V0202901N009012200019N0300001N1-00601-01731103121ADDGF101991011001999999031001MD1210121+9999REMSYN060AAXX  11091 53276 42980 12909 11060 21173 40312 52012 81030;
0173532760999992000111112004+42400+112890FM-12+115299999V0203201N004012200019N0300001N1-00971-01831103431ADDAA199000091GA1001+999999999GF100991001001999999001001MA1999999089241MD1210181+9999REMSYN060AAXX  11121 53276 32980 03204 11097 21183 38924 40343 52018;EQDQ01  00002PRCP99
0196532760999992000111118004+42400+112890FM-12+115299999V0202201N006012200019N0300001N1-01141-01641103151ADDAA199000091GA1001+999999999GF100991001001999999001001KA1999M-00321MA1999999089081MD1710151+9999REMSYN070AAXX  11181 53276 32980 02206 11114 21164 38908 40315 57015 333 11032;EQDQ01  00002PRCP99
0122532760999992000111121004+42400+112890FM-12+115299999V0202201N006012200019N0300001N1-01131-01651102991ADDGA1001+999999999GF100991001001999999001001MD1710191+9999REMSYN054AAXX  11211 53276 42980 02206 11113 21165 40299 57019;
0183532760999992000111200004+42400+112890FM-12+115299999V0202201N009012200019N0300001N1-00831-01951102891ADDAA199000091GA1001+999999999GF100991001001999999001001MA1999999088781MD1710111+0021REMSYN070AAXX  12001 53276 32980 02209 11083 21195 38878 40289 57011 333 05200;EQDQ01  00002PRCP99
0122532760999992000111203004+42400+112890FM-12+115299999V0202501N012012200019N0300001N1-00161-01701102651ADDGA1001+999999999GF100991001001999999001001MD1710091+9999REMSYN054AAXX  12031 53276 42980 02512 11016 21170 40265 57009;
0209532760999992000111206004+42400+112890FM-12+115299999V0202501N011012200019N0300001N1+00101-01631102381ADDAA199000091GF101991011001999999031001KA1240N-01271MA1999999088531MD1710161+9999OA130601901REMSYN088AAXX  12061 53276 32980 12511 10010 21163 38853 40238 57016 81030 333 21127 91119 91525;EQDQ01  00002PRCP99
0122532760999992000111209004+42400+112890FM-12+115299999V0202501N005012200019N0300001N1+00041-01881102361ADDGA1001+999999999GF100991001001999999001001MD1710031+9999REMSYN054AAXX  12091 53276 42980 02505 10004 21188 40236 57003;
0173532760999992000111212004+42400+112890FM-12+115299999V0202201N007012200019N0300001N1-00411-01921102491ADDAA199000091GA1001+999999999GF100991001001999999001001MA1999999088571MD1210071+9999REMSYN060AAXX  12121 53276 32980 02207 11041 21192 38857 40249 52007;EQDQ01  00002PRCP99
0122532760999992000111215004+42400+112890FM-12+115299999V0201801N007012200019N0300001N1-00521-01941102391ADDGA1001+999999999GF100991001001999999001001MD1210051+9999REMSYN054AAXX  12151 53276 42980 01807 11052 21194 40239 52005;
0196532760999992000111218004+42400+112890FM-12+115299999V0202501N008012200019N0300001N1-00561-01861102211ADDAA199000091GA1001+999999999GF100991001001999999001001KA1999M+00211MA1999999088521MD1710101+9999REMSYN070AAXX  12181 53276 32980 02508 11056 21186 38852 40221 57010 333 10021;EQDQ01  00002PRCP99
0122532760999992000111221004+42400+112890FM-12+115299999V0202201N006012200019N0300001N1-00471-01901102141ADDGA1001+999999999GF100991001001999999001001MD1710061+9999REMSYN054AAXX  12211 53276 42980 02206 11047 21190 40214 57006;
0183532760999992000111300004+42400+112890FM-12+115299999V0202201N008012200019N0300001N1-00521-01941102271ADDAA199000091GA1001+999999999GF100991001001999999001001MA1999999088461MD1410001+0031REMSYN070AAXX  13001 53276 32980 02208 11052 21194 38846 40227 54000 333 05303;EQDQ01  00002PRCP99
0112532760999992000111303004+42400+112890FM-12+115299999V0202501N010012200019N0300001N1+00111-01261102131ADDGF101991011001999999031001MD1410001+9999REMSYN060AAXX  13031 53276 42980 12510 10011 21126 40213 54000 81030;
0196532760999992000111306004+42400+112890FM-12+115299999V0202501N010012200019N0300001N1+00391-02011101961ADDAA199000091GA1001+999999999GF100991001001999999001001KA1999N-00661MA1999999088371MD1710091+9999REMSYN070AAXX  13061 53276 32980 02510 10039 21201 38837 40196 57009 333 21066;EQDQ01  00002PRCP99
0122532760999992000111309004+42400+112890FM-12+115299999V0202901N004012200019N0300001N1+00221-02011102091ADDGA1001+999999999GF100991001001999999001001MD1210091+9999REMSYN054AAXX  13091 53276 42980 02904 10022 21201 40209 52009;
0173532760999992000111312004+42400+112890FM-12+115299999V0202501N005012200019N0300001N1-00461-01801102521ADDAA199000091GA1001+999999999GF100991001001999999001001MA1999999088661MD1210201+9999REMSYN060AAXX  13121 53276 32980 02505 11046 21180 38866 40252 52020;EQDQ01  00002PRCP99
0212532760999992000111318004+42400+112890FM-12+115299999V0202201N006012200019N0300001N1-00061-01771102741ADDAA199000091GA1001+999999999GF100991001001999999001001KA1999M+00461MA1999999089622MD1210141+9999REMSYN070AAXX  13181 53276 32980 02206 11006 21177 38962 40274 52014 333 10046;EQDQ01+089623APOSP Q02  00002PRCP99
0122532760999992000111321004+42400+112890FM-12+115299999V0202201N005012200019N0300001N1-00861-01781102911ADDGA1001+999999999GF100991001001999999001001MD1210061+9999REMSYN054AAXX  13211 53276 42980 02205 11086 21178 40291 52006;
0183532760999992000111400004+42400+112890FM-12+115299999V0202501N005012200019N0300001N1-00901-01711103281ADDAA199000091GA1001+999999999GF100991001001999999001001MA1999999089231MD1210151+0081REMSYN070AAXX  14001 53276 32980 02505 11090 21171 38923 40328 52015 333 00854;EQDQ01  00002PRCP99
0122532760999992000111403004+42400+112890FM-12+115299999V0203201N006012200019N0300001N1-00311-01491103421ADDGA1001+999999999GF100991001001999999001001MD1210231+9999REMSYN054AAXX  14031 53276 42980 03206 11031 21149 40342 52023;
0196532760999992000111406004+42400+112890FM-12+115299999V0203401N007012200019N0300001N1-00231-01661103561ADDAA199000091GA1001+999999999GF100991001001999999001001KA1999N-00901MA1999999089581MD1210121+9999REMSYN070AAXX  14061 53276 32980 03407 11023 21166 38958 40356 52012 333 21090;EQDQ01  00002PRCP99
0122532760999992000111409004+42400+112890FM-12+115299999V0203401N004012200019N0300001N1-00501-01681103871ADDGA1001+999999999GF100991001001999999001001MD1210161+9999REMSYN054AAXX  14091 53276 42980 03404 11050 21168 40387 52016;
0173532760999992000111412004+42400+112890FM-12+115299999V0203201N002012200019N0300001N1-00871-01811104161ADDAA199000091GA1001+999999999GF100991001001999999001001MA1999999089891MD1210151+9999REMSYN060AAXX  14121 53276 32980 03202 11087 21181 38989 40416 52015;EQDQ01  00002PRCP99
0122532760999992000111415004+42400+112890FM-12+115299999V0202501N002012200019N0300001N1-01111-01751104281ADDGA1001+999999999GF100991001001999999001001MD1210191+9999REMSYN054AAXX  14151 53276 42980 02502 11111 21175 40428 52019;
0196532760999992000111418004+42400+112890FM-12+115299999V0202501N002012200019N0300001N1-01331-01821104361ADDAA199000091GA1001+999999999GF100991001001999999001001KA1999M-00161MA1999999090111MD1210031+9999REMSYN070AAXX  14181 53276 32980 02502 11133 21182 39011 40436 52003 333 11016;EQDQ01  00002PRCP99
0112532760999992000111421004+42400+112890FM-12+115299999V0209999C000019999999N0300001N1-01421-01841104461ADDGF106991001001999999001021MD1410001+9999REMSYN060AAXX  14211 53276 42980 60000 11142 21184 40446 54000 80002;
0173532760999992000111500004+42400+112890FM-12+115299999V0209999C000019999999N0300001N1-01511-01841104671ADDAA199000091GF106991001001999999001021MA1999999090171MD1210061+0091REMSYN076AAXX  15001 53276 32980 60000 11151 21184 39017 40467 52006 80002 333 00956;EQDQ01  00002PRCP99
0112532760999992000111503004+42400+112890FM-12+115299999V0201401N002012200019N0300001N1-00501-01761104421ADDGF102991001001999999001021MD1710021+9999REMSYN060AAXX  15031 53276 42980 21402 11050 21176 40442 57002 80002;
0186532760999992000111506004+42400+112890FM-12+115299999V0201401N004019999999N0300001N1-00231-02001104021ADDAA199000091GF107991001001999999001021KA1999N-01541MA1999999089821MD1710331+9999REMSYN076AAXX  15061 53276 32980 71404 11023 21200 38982 40402 57033 80002 333 21154;EQDQ01  00002PRCP99
0112532760999992000111509004+42400+112890FM-12+115299999V0200901N003010120019N0300001N1-00341-02031103841ADDGF107991071051012501999999MD1710211+9999REMSYN060AAXX  15091 53276 42680 70903 11034 21203 40384 57021 875//;
0163532760999992000111512004+42400+112890FM-12+115299999V0201801N003019999999N0300001N1-00621-01851103791ADDAA199000091GF107991001001999999001021MA1999999089481MD1710131+9999REMSYN066AAXX  15121 53276 32980 71803 11062 21185 38948 40379 57013 80002;EQDQ01  00002PRCP99
0112532760999992000111515004+42400+112890FM-12+115299999V0201801N006019999999N0300001N1-00391-01651103281ADDGF107991001001999999001081MD1710141+9999REMSYN060AAXX  15151 53276 42980 71806 11039 21165 40328 57014 80008;
0193532760999992000111518004+42400+112890FM-12+115299999V0202201N006019999999N0150001N1-00441-00561103051ADDAA106000591AY171061GF108991081001999999021999KA1999M-00191MA1999999089191MD1710151+9999MW1701REMSYN088AAXX  15181 53276 11965 82206 11044 21056 38919 40305 57015 69951 77070 8802/ 333 11019;
0161532760999992000111521004+42400+112890FM-12+115299999V0201801N003019999999N0150001N1-00411-00501102791ADDAA124000891AY171031AY271031GF108991081001999999011999MD1710241+9999MW1701REMSYN076AAXX  15211 53276 41965 81803 11041 21050 40279 57024 77077 8801/ 333 70008;
0200532760999992000111600004+42400+112890FM-12+115299999V0202201N010019999999N0100001N1-00331-00541102801ADDAA106000591AY171061AY271061GF108991081001999999011999MA1999999088911MD1710041-1301MW1221REMSYN100AAXX  16001 53276 11960 82210 11033 21054 38891 40280 57004 69951 72277 8801/ 333 06312 70010 92503;
0112532760999992000111603004+42400+112890FM-12+115299999V0202201N008019999999N0200001N1-00371-00661102801ADDGF107991021001999999031021MD1210051+9999REMSYN060AAXX  16031 53276 42970 72208 11037 21066 40280 52005 82032;
0167532760999992000111606004+42400+112890FM-12+115299999V0202701N007010900019N0300001N1-00291-00671102781ADDAA199000021GF107991031051017501001021KA1999N-00631MA1999999088951MD1710011+9999REMSYN076AAXX  16061 53276 32780 72707 11029 21067 38895 40278 57001 83502 333 21063;
0132532760999992000111609004+42400+112890FM-12+115299999V0202701N008010150019N0300001N1-00381-00601102841ADDAY171031GF107991051051017501031021MD1210031+9999MW1221REMSYN066AAXX  16091 53276 41780 72708 11038 21060 40284 52003 72270 85532;
0170532760999992000111612004+42400+112890FM-12+115299999V0202701N003010900019N0200001N1-00721-00891103151ADDAA106000791AY171061GF107991031051017501001021MA1999999089191MD1210211+9999MW1701REMSYN078AAXX  16121 53276 11770 72703 11072 21089 38919 40315 52021 69901 77070 83502;
0140532760999992000111615004+42400+112890FM-12+115299999V0202701N003010150019N0200001N1-01041-01171103411ADDAY171031AY271031GF107991051051017501001021MD1210141+9999MW1701REMSYN066AAXX  16151 53276 41770 72703 11104 21117 40341 52014 77077 85502;
0201532760999992000111618004+42400+112890FM-12+115299999V0203401N005019999999N0200001N1-00941-01191103401ADDAA106000791AY171061AY271061GF108991081001999999011999KA1999M-00171MA1999999089361MD1210031+9999MW1701REMSYN088AAXX  16181 53276 11970 83405 11094 21119 38936 40340 52003 69901 77077 8801/ 333 11017;
0161532760999992000111621004+42400+112890FM-12+115299999V0202201N006012200019N0200001N1-01401-01611103581ADDAA124000391AY171031AY271031GF102991021051017501001001MD1210021+9999MW1221REMSYN076AAXX  16211 53276 41770 22206 11140 21161 40358 52002 72277 82500 333 70003;
0186532760999992000111700004+42400+112890FM-12+115299999V0202201N003012200019N0300001N1-01511-01721103891ADDAA106000191AY171061GF102991011051017501031021MA1999999089541MD1210161+0601MW1221REMSYN094AAXX  17001 53276 11780 22203 11151 21172 38954 40389 52016 69911 72270 81532 333 00662 70001;
0122532760999992000111703004+42400+112890FM-12+115299999V0202201N004012200019N0300001N1-00981-01401103791ADDGA1001+999999999GF100991001001999999001001MD1710031+9999REMSYN054AAXX  17031 53276 42980 02204 11098 21140 40379 57003;
0177532760999992000111706004+42400+112890FM-12+115299999V0202501N006012200019N0300001N1-00651-01371103451ADDAA199000021GA1001+999999999GF100991001001999999001001KA1999N-01551MA1999999089321MD1710191+9999REMSYN070AAXX  17061 53276 32980 02506 11065 21137 38932 40345 57019 333 21155;
0112532760999992000111709004+42400+112890FM-12+115299999V0201801N003012200019N0300001N1-00891-01331103481ADDGF102991001001999999001021MD1710151+9999REMSYN060AAXX  17091 53276 42980 21803 11089 21133 40348 57015 80002;
0154532760999992000111712004+42400+112890FM-12+115299999V0202201N006012200019N0300001N1-01011-01421103521ADDAA199000021GA1001+999999999GF100991001001999999001001MA1999999089151MD1710021+9999REMSYN060AAXX  17121 53276 32980 02206 11101 21142 38915 40352 57002;
0122532760999992000111715004+42400+112890FM-12+115299999V0202201N005012200019N0300001N1-00931-01501103321ADDGA1001+999999999GF100991001001999999001001MD1710021+9999REMSYN054AAXX  17151 53276 42980 02205 11093 21150 40332 57002;
0196532760999992000111718004+42400+112890FM-12+115299999V0202201N004012200019N0300001N1-01151-01561103301ADDAA199000091GA1001+999999999GF100991001001999999001001KA1999M-00531MA1999999089141MD1210011+9999REMSYN070AAXX  17181 53276 32980 02204 11115 21156 38914 40330 52001 333 11053;EQDQ01  00002PRCP99
0133532760999992000111721004+42400+112890FM-12+115299999V0201801N004012200019N0300001N1-01201-01611103341ADDAA124000791GF101991001001999999001021MD1710041+9999REMSYN070AAXX  17211 53276 42980 11804 11120 21161 40334 57004 80002 333 79999;
0173532760999992000111800004+42400+112890FM-12+115299999V0202201N004012200019N0300001N1-01181-01591103301ADDAA199000091GF102991001001999999001021MA1999999089041MD1710061+0051REMSYN076AAXX  18001 53276 32980 22204 11118 21159 38904 40330 57006 80002 333 05503;EQDQ01  00002PRCP99
0112532760999992000111803004+42400+112890FM-12+115299999V0201801N005019999999N0300001N1-00401-01241103001ADDGF106991011001999999031021MD1710051+9999REMSYN060AAXX  18031 53276 42980 61805 11040 21124 40300 57005 81032;
0186532760999992000111806004+42400+112890FM-12+115299999V0201601N002010900019N0300001N1-00071-00981102631ADDAA199000091GF108991031051012501001071KA1999N-01301MA1999999088701MD1710291+9999REMSYN076AAXX  18061 53276 32680 81602 11007 21098 38870 40263 57029 83507 333 21130;EQDQ01  00002PRCP99
0170532760999992000111812004+42400+112890FM-12+115299999V0202701N006019999999N0100001N1-00231-00321102741ADDAA106001091AY171061GF108991081001999999021999MA1999999088751MD1210081+9999MW1711REMSYN078AAXX  18121 53276 11960 82706 11023 21032 38875 40274 52008 60011 77170 8802/;
0140532760999992000111815004+42400+112890FM-12+115299999V0202201N008019999999N0008001N1-00561-00781102771ADDAY171031AY271031GF108991081001999999021999MD1210131+9999MW1731REMSYN066AAXX  18151 53276 41908 82208 11056 21078 40277 52013 77377 8802/;
0201532760999992000111818004+42400+112890FM-12+115299999V0202701N008019999999N0100001N1-00651-00811102851ADDAA106001091AY171061AY271061GF108991081001999999021999KA1999M-00031MA1999999089011MD1210131+9999MW1711REMSYN088AAXX  18181 53276 11960 82708 11065 21081 38901 40285 52013 60011 77177 8802/ 333 11003;
0153532760999992000111821004+42400+112890FM-12+115299999V0202201N006019999999N0090001N1-00521-00811102861ADDAA124002591AY171031GF108991081001999999011999MD1710051+9999MW1701REMSYN076AAXX  18211 53276 41959 82206 11052 21081 40286 57005 77070 8801/ 333 70025;
0192532760999992000111900004+42400+112890FM-12+115299999V0202701N009010360019N0200001N1-01031-01271103171ADDAA106000791AY171061GF107991031051017501031021MA1999999089161MD1210201+0101MW1001REMSYN100AAXX  19001 53276 11770 72709 11103 21127 38916 40317 52020 69901 70070 83532 333 00102 70025 92504;
0112532760999992000111903004+42400+112890FM-12+115299999V0202501N008019999999N0300001N1-01081-01331103451ADDGF107991001001999999001021MD1210151+9999REMSYN060AAXX  19031 53276 42980 72508 11108 21133 40345 52015 80002;
0167532760999992000111906004+42400+112890FM-12+115299999V0202501N008012200019N0300001N1-00961-01371103471ADDAA199000021GF102991001001999999001021KA1999N-01101MA1999999089331MD1210021+9999REMSYN076AAXX  19061 53276 32980 22508 11096 21137 38933 40347 52002 80002 333 21110;
0112532760999992000111909004+42400+112890FM-12+115299999V0202201N002012200019N0300001N1-01151-01451103501ADDGF102991021051017501001021MD1210011+9999REMSYN060AAXX  19091 53276 42780 22202 11115 21145 40350 52001 82502;
0173532760999992000111912004+42400+112890FM-12+115299999V0202701N002012200019N0300001N1-01401-01641103741ADDAA199000091GA1001+999999999GF100991001001999999001001MA1999999089361MD1210021+9999REMSYN060AAXX  19121 53276 32980 02702 11140 21164 38936 40374 52002;EQDQ01  00002PRCP99
0122532760999992000111915004+42400+112890FM-12+115299999V0202201N005012200019N0300001N1-01611-01831103891ADDGA1001+999999999GF100991001001999999001001MD1210061+9999REMSYN054AAXX  19151 53276 42980 02205 11161 21183 40389 52006;
0196532760999992000111918004+42400+112890FM-12+115299999V0202201N005012200019N0300001N1-01661-01901103651ADDAA199000091GA1001+999999999GF100991001001999999001001KA1999M-00521MA1999999089231MD1710191+9999REMSYN070AAXX  19181 53276 32980 02205 11166 21190 38923 40365 57019 333 11052;EQDQ01  00002PRCP99
0133532760999992000111921004+42400+112890FM-12+115299999V0202201N004012200019N0300001N1-01631-01891103581ADDAA124000791GF101991001001999999001021MD1710101+9999REMSYN070AAXX  19211 53276 42980 12204 11163 21189 40358 57010 80002 333 79999;
0173532760999992000112000004+42400+112890FM-12+115299999V0202501N005012200019N0300001N1-01681-01941103621ADDAA199000091GF104991011001999999031021MA1999999089091MD1710041+0011REMSYN076AAXX  20001 53276 32980 42505 11168 21194 38909 40362 57004 81032 333 05157;EQDQ01  00002PRCP99
0112532760999992000112003004+42400+112890FM-12+115299999V0202501N006019999999N0300001N1-01091-01381103511ADDGF107991011001999999031021MD1410001+9999REMSYN060AAXX  20031 53276 42980 72506 11109 21138 40351 54000 81032;
0193532760999992000112006004+42400+112890FM-12+115299999V0202901N007010900019N0300001N1-00941-01401103361ADDAA106000791AY171061GF106991011051017501001021KA1999N-01861MA1999999088991MD1710101+9999MW1221REMSYN088AAXX  20061 53276 11780 62907 11094 21140 38899 40336 57010 69901 72270 81502 333 21186;
0112532760999992000112009004+42400+112890FM-12+115299999V0202501N004012200019N0300001N1-01191-01501103401ADDGF101991011041017501001021MD1710021+9999REMSYN060AAXX  20091 53276 42780 12504 11119 21150 40340 57002 81402;
0154532760999992000112012004+42400+112890FM-12+115299999V0202201N003012200019N0300001N1-01511-01741103511ADDAA199000021GA1001+999999999GF100991001001999999001001MA1999999088971MD1410001+9999REMSYN060AAXX  20121 53276 32980 02203 11151 21174 38897 40351 54000;
0122532760999992000112015004+42400+112890FM-12+115299999V0202201N005012200019N0300001N1-01411-01731103311ADDGA1001+999999999GF100991001001999999001001MD1410001+9999REMSYN054AAXX  20151 53276 42980 02205 11141 21173 40331 54000;
0177532760999992000112018004+42400+112890FM-12+115299999V0201801N003012200019N0300001N1-01761-02041103291ADDAA199000021GA1001+999999999GF100991001001999999001001KA1999M-00931MA1999999088901MD1710071+9999REMSYN070AAXX  20181 53276 32980 01803 11176 21204 38890 40329 57007 333 11093;
0143532760999992000112021004+42400+112890FM-12+115299999V0201801N003012200019N0300001N1-01701-02001103121ADDAA124000791GA1001+999999999GF100991001001999999001001MD1710191+9999REMSYN064AAXX  20211 53276 42980 01803 11170 21200 40312 57019 333 79999;
0160532760999992000112100004+42400+112890FM-12+115299999V0201401N003012200019N0300001N1-01441-01781103001ADDAA124000791GF102991001001999999001021MA1999999088591MD1710121-0501REMSYN082AAXX  21001 53276 32980 21403 11144 21178 38859 40300 57012 80002 333 05502 79999;
0112532760999992000112103004+42400+112890FM-12+115299999V0201801N008012200019N0300001N1-00581-01251102491ADDGF102991001001999999001021MD1710201+9999REMSYN060AAXX  21031 53276 42980 21808 11058 21125 40249 57020 80002;
0186532760999992000112106004+42400+112890FM-12+115299999V0202201N008019999999N0300001N1+00131-00861102031ADDAA199000091GF107991001001999999001021KA1999N-01851MA1999999088081MD1710311+9999REMSYN076AAXX  21061 53276 32980 72208 10013 21086 38808 40203 57031 80002 333 21185;EQDQ01  00002PRCP99
0112532760999992000112109004+42400+112890FM-12+115299999V0202201N006012200019N0300001N1-00231-00781102051ADDGF101991001001999999001021MD1710051+9999REMSYN060AAXX  21091 53276 42980 12206 11023 21078 40205 57005 80002;
0163532760999992000112112004+42400+112890FM-12+115299999V0202501N009012200019N0300001N1-00311-00901102091ADDAA199000091GF102991001001999999001021MA1999999088111MD1210081+9999REMSYN066AAXX  21121 53276 32980 22509 11031 21090 38811 40209 52008 80002;EQDQ01  00002PRCP99
0122532760999992000112115004+42400+112890FM-12+115299999V0202201N008012200019N0300001N1-00411-01001101921ADDGA1001+999999999GF100991001001999999001001MD1210031+9999REMSYN054AAXX  21151 53276 42980 02208 11041 21100 40192 52003;
0196532760999992000112118004+42400+112890FM-12+115299999V0202201N006012200019N0300001N1-00571-01191101781ADDAA199000091GA1001+999999999GF100991001001999999001001KA1999M+00211MA1999999088151MD1210011+9999REMSYN070AAXX  21181 53276 32980 02206 11057 21119 38815 40178 52001 333 10021;EQDQ01  00002PRCP99
0112532760999992000112121004+42400+112890FM-12+115299999V0202701N009012200019N0300001N1-00571-01191101961ADDGF101991001001999999001021MD1210071+9999REMSYN060AAXX  21211 53276 42980 12709 11057 21119 40196 52007 80002;
0173532760999992000112200004+42400+112890FM-12+115299999V0202201N005012200019N0300001N1-00911-01471102391ADDAA199000091GF101991001001999999001021MA1999999088491MD1210271+0011REMSYN076AAXX  22001 53276 32980 12205 11091 21147 38849 40239 52027 80002 333 05105;EQDQ01  00002PRCP99
0122532760999992000112203004+42400+112890FM-12+115299999V0202201N009012200019N0300001N1-00521-01321102471ADDGA1001+999999999GF100991001001999999001001MD1210141+9999REMSYN054AAXX  22031 53276 42980 02209 11052 21132 40247 52014;
0186532760999992000112206004+42400+112890FM-12+115299999V0202901N009012200019N0300001N1-00501-01291102581ADDAA199000091GF101991011011012501031001KA1999N-00911MA1999999088691MD1210061+9999REMSYN076AAXX  22061 53276 32680 12909 11050 21129 38869 40258 52006 81130 333 21091;EQDQ01  00002PRCP99
0122532760999992000112209004+42400+112890FM-12+115299999V0209999C000012200019N0300001N1-00881-01541102841ADDGA1001+999999999GF100991001001999999001001MD1210141+9999REMSYN054AAXX  22091 53276 42980 00000 11088 21154 40284 52014;
0173532760999992000112212004+42400+112890FM-12+115299999V0201601N003012200019N0300001N1-01371-01691103171ADDAA199000091GA1001+999999999GF100991001001999999001001MA1999999088911MD1210081+9999REMSYN060AAXX  22121 53276 32980 01603 11137 21169 38891 40317 52008;EQDQ01  00002PRCP99
0122532760999992000112215004+42400+112890FM-12+115299999V0202001N001012200019N0300001N1-01301-01631102961ADDGA1001+999999999GF100991001001999999001001MD1710071+9999REMSYN054AAXX  22151 53276 42980 02001 11130 21163 40296 57007;
0196532760999992000112218004+42400+112890FM-12+115299999V0201801N003012200019N0300001N1-01091-01521102721ADDAA199000091GA1001+999999999GF100991001001999999001001KA1999M-00441MA1999999088691MD1710151+9999REMSYN070AAXX  22181 53276 32980 01803 11109 21152 38869 40272 57015 333 11044;EQDQ01  00002PRCP99
0122532760999992000112221004+42400+112890FM-12+115299999V0202201N002012200019N0300001N1-01181-01561102761ADDGA1001+999999999GF100991001001999999001001MD1710081+9999REMSYN054AAXX  22211 53276 42980 02202 11118 21156 40276 57008;
0183532760999992000112300004+42400+112890FM-12+115299999V0202201N005012200019N0300001N1-00721-01251102791ADDAA199000091GA1001+999999999GF100991001001999999001001MA1999999088631MD1210021+0011REMSYN070AAXX  23001 53276 32980 02205 11072 21125 38863 40279 52002 333 00102;EQDQ01  00002PRCP99
0112532760999992000112303004+42400+112890FM-12+115299999V0202501N005012200019N0300001N1-00271-01021102731ADDGF101991001001999999001021MD1210071+9999REMSYN060AAXX  23031 53276 42980 12505 11027 21102 40273 52007 80002;
0186532760999992000112306004+42400+112890FM-12+115299999V0202501N005019999999N0300001N1-00141-01051102571ADDAA199000091GF107991021001999999031021KA1999N-01421MA1999999088651MD1710051+9999REMSYN076AAXX  23061 53276 32980 72505 11014 21105 38865 40257 57005 82032 333 21142;EQDQ01  00002PRCP99
0112532760999992000112309004+42400+112890FM-12+115299999V0209999C000012200019N0300001N1-00501-01041102761ADDGF101991001001999999001021MD1210051+9999REMSYN060AAXX  23091 53276 42980 10000 11050 21104 40276 52005 80002;
0173532760999992000112312004+42400+112890FM-12+115299999V0209999C000012200019N0300001N1-00951-01361102881ADDAA199000091GA1001+999999999GF100991001001999999001001MA1999999088811MD1210111+9999REMSYN060AAXX  23121 53276 32980 00000 11095 21136 38881 40288 52011;EQDQ01  00002PRCP99
0122532760999992000112315004+42400+112890FM-12+115299999V0202001N001012200019N0300001N1-01041-01311102821ADDGA1001+999999999GF100991001001999999001001MD1210031+9999REMSYN054AAXX  23151 53276 42980 02001 11104 21131 40282 52003;
0196532760999992000112318004+42400+112890FM-12+115299999V0202001N003012200019N0300001N1-00981-01291102691ADDAA199000091GA1001+999999999GF100991001001999999001001KA1999M-00071MA1999999088781MD1710061+9999REMSYN070AAXX  23181 53276 32980 02003 11098 21129 38878 40269 57006 333 11007;EQDQ01  00002PRCP99
0122532760999992000112321004+42400+112890FM-12+115299999V0202001N003012200019N0300001N1-01061-01361102691ADDGA1001+999999999GF100991001001999999001001MD1710111+9999REMSYN054AAXX  23211 53276 42980 02003 11106 21136 40269 57011;
0183532760999992000112400004+42400+112890FM-12+115299999V0202201N003012200019N0300001N1-01001-01311102741ADDAA199000091GA1001+999999999GF100991001001999999001001MA1999999088621MD1710051+0001REMSYN070AAXX  24001 53276 32980 02203 11100 21131 38862 40274 57005 333 00053;EQDQ01  00002PRCP99
0112532760999992000112403004+42400+112890FM-12+115299999V0202201N004012200019N0300001N1-00051-00991102441ADDGF101991001001999999001021MD1710051+9999REMSYN060AAXX  24031 53276 42980 12204 11005 21099 40244 57005 80002;
0186532760999992000112406004+42400+112890FM-12+115299999V0202201N002012200019N0300001N1+00471-00831101941ADDAA199000091GF101991001001999999001021KA1999N-01301MA1999999088271MD1710301+9999REMSYN076AAXX  24061 53276 32980 12202 10047 21083 38827 40194 57030 80002 333 21130;EQDQ01  00002PRCP99
0112532760999992000112409004+42400+112890FM-12+115299999V0202201N004012200019N0300001N1+00341-00701101781ADDGF102991001001999999001021MD1710191+9999REMSYN060AAXX  24091 53276 42980 22204 10034 21070 40178 57019 80002;
0173532760999992000112412004+42400+112890FM-12+115299999V0201801N007012200019N0300001N1+00051-00811101761ADDAA199000091GA1001+999999999GF100991001001999999001001MA1999999088011MD1710071+9999REMSYN060AAXX  24121 53276 32980 01807 10005 21081 38801 40176 57007;EQDQ01  00002PRCP99
0122532760999992000112415004+42400+112890FM-12+115299999V0202701N005012200019N0300001N1-00311-00941101711ADDGA1001+999999999GF100991001001999999001001MD1210101+9999REMSYN054AAXX  24151 53276 42980 02705 11031 21094 40171 52010;
0180532760999992000112418004+42400+112890FM-12+115299999V0202201N008019999999N0300001N1-00411-00911999999ADDAA199000091GF107991001001999999001021KA1999M+00651MA1999999088341MD1210211+9999REMSYN070AAXX  24181 53276 32980 72208 11041 21091 38834 52021 80002 333 10065;EQDQ01  00002PRCP99
0153532760999992000112421004+42400+112890FM-12+115299999V0202701N003019999999N0120001N1-00701-00951102201ADDAA124000791AY171031GF108991081001999999011999MD1210191+9999MW1701REMSYN076AAXX  24211 53276 41962 82703 11070 21095 40220 52019 77070 8801/ 333 79999;
0186532760999992000112500004+42400+112890FM-12+115299999V0203401N004012200019N0300001N1-01061-01281102751ADDAA106000191AY171061GF104991031051017501001021MA1999999088851MD1210321+0201MW1001REMSYN094AAXX  25001 53276 11780 43404 11106 21128 38885 40275 52032 69921 70070 83502 333 00251 70002;
0132532760999992000112503004+42400+112890FM-12+115299999V0202201N003012200019N0300001N1-00901-01291103081ADDAY171031GF101991011051017501001001MD1210241+9999MW1001REMSYN066AAXX  25031 53276 41780 12203 11090 21129 40308 52024 70070 81500;
0193532760999992000112506004+42400+112890FM-12+115299999V0202901N005012200019N0300001N1-00621-01211102941ADDAA106000791AY171061GF101991011011017501001021KA1999N-01111MA1999999089011MD1710081+9999MW1001REMSYN088AAXX  25061 53276 11780 12905 11062 21121 38901 40294 57008 69901 70070 81102 333 21111;
0112532760999992000112509004+42400+112890FM-12+115299999V0203201N001012200019N0300001N1-00731-01221103121ADDGF101991001001999999001021MD1210061+9999REMSYN060AAXX  25091 53276 42980 13201 11073 21122 40312 52006 80002;
0173532760999992000112512004+42400+112890FM-12+115299999V0201401N003012200019N0300001N1-01161-01431103451ADDAA199000091GA1001+999999999GF100991001001999999001001MA1999999089161MD1210091+9999REMSYN060AAXX  25121 53276 32980 01403 11116 21143 38916 40345 52009;EQDQ01  00002PRCP99
0122532760999992000112515004+42400+112890FM-12+115299999V0202201N005012200019N0300001N1-00981-01451103341ADDGA1001+999999999GF100991001001999999001001MD1710011+9999REMSYN054AAXX  25151 53276 42980 02205 11098 21145 40334 57001;
0196532760999992000112518004+42400+112890FM-12+115299999V0202501N006012200019N0300001N1-01111-01541103281ADDAA199000091GA1001+999999999GF100991001001999999001001KA1999M-00391MA1999999089141MD1710011+9999REMSYN070AAXX  25181 53276 32980 02506 11111 21154 38914 40328 57001 333 11039;EQDQ01  00002PRCP99
0143532760999992000112521004+42400+112890FM-12+115299999V0202201N007012200019N0300001N1-01101-01691103241ADDAA124000391GA1001+999999999GF100991001001999999001001MD1710061+9999REMSYN064AAXX  25211 53276 42980 02207 11110 21169 40324 57006 333 70002;
0170532760999992000112600004+42400+112890FM-12+115299999V0202201N005012200019N0300001N1-01291-01811103461ADDAA124000791GA1001+999999999GF100991001001999999001001MA1999999089111MD1210031+0301REMSYN076AAXX  26001 53276 32980 02205 11129 21181 38911 40346 52003 333 00352 79999;
0122532760999992000112603004+42400+112890FM-12+115299999V0202501N008012200019N0300001N1-00581-01921103261ADDGA1001+999999999GF100991001001999999001001MD1210051+9999REMSYN054AAXX  26031 53276 42980 02508 11058 21192 40326 52005;
0196532760999992000112606004+42400+112890FM-12+115299999V0202701N008012200019N0300001N1-00391-01581103101ADDAA199000091GA1001+999999999GF100991001001999999001001KA1999N-01361MA1999999089041MD1710121+9999REMSYN070AAXX  26061 53276 32980 02708 11039 21158 38904 40310 57012 333 21136;EQDQ01  00002PRCP99
0122532760999992000112609004+42400+112890FM-12+115299999V0202501N003012200019N0300001N1-00601-01801103081ADDGA1001+999999999GF100991001001999999001001MD1710071+9999REMSYN054AAXX  26091 53276 42980 02503 11060 21180 40308 57007;
0173532760999992000112612004+42400+112890FM-12+115299999V0202201N004012200019N0300001N1-00861-01781103301ADDAA199000091GA1001+999999999GF100991001001999999001001MA1999999089051MD1210081+9999REMSYN060AAXX  26121 53276 32980 02204 11086 21178 38905 40330 52008;EQDQ01  00002PRCP99
0122532760999992000112615004+42400+112890FM-12+115299999V0202201N006012200019N0300001N1-01211-01911103231ADDGA1001+999999999GF100991001001999999001001MD1210031+9999REMSYN054AAXX  26151 53276 42980 02206 11121 21191 40323 52003;
0196532760999992000112618004+42400+112890FM-12+115299999V0202501N004012200019N0300001N1-01251-01951103211ADDAA199000091GA1001+999999999GF100991001001999999001001KA1999M-00301MA1999999089101MD1210021+9999REMSYN070AAXX  26181 53276 32980 02504 11125 21195 38910 40321 52002 333 11030;EQDQ01  00002PRCP99
0122532760999992000112621004+42400+112890FM-12+115299999V0202201N002012200019N0300001N1-01381-02051103271ADDGA1001+999999999GF100991001001999999001001MD1710031+9999REMSYN054AAXX  26211 53276 42980 02202 11138 21205 40327 57003;
0183532760999992000112700004+42400+112890FM-12+115299999V0202501N006012200019N0300001N1-01461-02061103491ADDAA199000091GA1001+999999999GF100991001001999999001001MA1999999089171MD1210101+0011REMSYN070AAXX  27001 53276 32980 02506 11146 21206 38917 40349 52010 333 00152;EQDQ01  00002PRCP99
0112532760999992000112703004+42400+112890FM-12+115299999V0202701N008012200019N0300001N1-00781-01711103481ADDGF102991001001999999001021MD1210081+9999REMSYN060AAXX  27031 53276 42980 22708 11078 21171 40348 52008 80002;
0186532760999992000112706004+42400+112890FM-12+115299999V0202501N005019999999N0300001N1-00421-01511103251ADDAA199000091GF107991021001999999031021KA1999N-01531MA1999999089131MD1710121+9999REMSYN076AAXX  27061 53276 32980 72505 11042 21151 38913 40325 57012 82032 333 21153;EQDQ01  00002PRCP99
0122532760999992000112709004+42400+112890FM-12+115299999V0202701N004012200019N0300001N1-00571-01601103311ADDGA1001+999999999GF100991001001999999001001MD1710021+9999REMSYN054AAXX  27091 53276 42980 02704 11057 21160 40331 57002;
0173532760999992000112712004+42400+112890FM-12+115299999V0202501N004012200019N0300001N1-01081-01811103621ADDAA199000091GA1001+999999999GF100991001001999999001001MA1999999089231MD1210121+9999REMSYN060AAXX  27121 53276 32980 02504 11108 21181 38923 40362 52012;EQDQ01  00002PRCP99
0122532760999992000112715004+42400+112890FM-12+115299999V0201801N004012200019N0300001N1-01091-01801103511ADDGA1001+999999999GF100991001001999999001001MD1210071+9999REMSYN054AAXX  27151 53276 42980 01804 11109 21180 40351 52007;
0196532760999992000112718004+42400+112890FM-12+115299999V0202201N006012200019N0300001N1-01121-01901103291ADDAA199000091GA1001+999999999GF100991001001999999001001KA1999M-00301MA1999999089191MD1710111+9999REMSYN070AAXX  27181 53276 32980 02206 11112 21190 38919 40329 57011 333 11030;EQDQ01  00002PRCP99
0122532760999992000112721004+42400+112890FM-12+115299999V0202201N008012200019N0300001N1-00931-01911103071ADDGA1001+999999999GF100991001001999999001001MD1710181+9999REMSYN054AAXX  27211 53276 42980 02208 11093 21191 40307 57018;
0183532760999992000112800004+42400+112890FM-12+115299999V0202001N006012200019N0300001N1-00831-01661103011ADDAA199000091GA1001+999999999GF100991001001999999001001MA1999999088861MD1710151+0031REMSYN070AAXX  28001 53276 32980 02006 11083 21166 38886 40301 57015 333 05306;EQDQ01  00002PRCP99
0122532760999992000112803004+42400+112890FM-12+115299999V0202201N009012200019N0300001N1+00041-01491102591ADDGA1001+999999999GF100991001001999999001001MD1710151+9999REMSYN054AAXX  28031 53276 42980 02209 10004 21149 40259 57015;
0186532760999992000112806004+42400+112890FM-12+115299999V0202201N010012200019N0300001N1+00301-01311102201ADDAA199000091GF101991001001999999001021KA1999N-01241MA1999999088421MD1710291+9999REMSYN076AAXX  28061 53276 32980 12210 10030 21131 38842 40220 57029 80002 333 21124;EQDQ01  00002PRCP99
0112532760999992000112809004+42400+112890FM-12+115299999V0209999C000012200019N0300001N1-00061-01391102351ADDGF101991001001999999001021MD1210091+9999REMSYN060AAXX  28091 53276 42980 10000 11006 21139 40235 52009 80002;
0163532760999992000112812004+42400+112890FM-12+115299999V0202501N005012200019N0300001N1-00381-01621102631ADDAA199000091GF101991001001999999001021MA1999999088701MD1210191+9999REMSYN066AAXX  28121 53276 32980 12505 11038 21162 38870 40263 52019 80002;EQDQ01  00002PRCP99
0122532760999992000112815004+42400+112890FM-12+115299999V0202501N007012200019N0300001N1-00791-01801102631ADDGA1001+999999999GF100991001001999999001001MD1210111+9999REMSYN054AAXX  28151 53276 42980 02507 11079 21180 40263 52011;
0196532760999992000112818004+42400+112890FM-12+115299999V0202501N006012200019N0300001N1-00941-01701102761ADDAA199000091GA1001+999999999GF100991001001999999001001KA1999M+00331MA1999999088951MD1210141+9999REMSYN070AAXX  28181 53276 32980 02506 11094 21170 38895 40276 52014 333 10033;EQDQ01  00002PRCP99
0122532760999992000112821004+42400+112890FM-12+115299999V0202501N005012200019N0300001N1-01171-01791103031ADDGA1001+999999999GF100991001001999999001001MD1210091+9999REMSYN054AAXX  28211 53276 42980 02505 11117 21179 40303 52009;
0183532760999992000112900004+42400+112890FM-12+115299999V0209999C000012200019N0300001N1-01321-01851103331ADDAA199000091GA1001+999999999GF100991001001999999001001MA1999999089191MD1210151+0031REMSYN070AAXX  29001 53276 32980 00000 11132 21185 38919 40333 52015 333 00355;EQDQ01  00002PRCP99
0112532760999992000112903004+42400+112890FM-12+115299999V0202901N007012200019N0300001N1-00511-01431103241ADDGF101991001001999999001021MD1210021+9999REMSYN060AAXX  29031 53276 42980 12907 11051 21143 40324 52002 80002;
0186532760999992000112906004+42400+112890FM-12+115299999V0202701N005012200019N0300001N1-00181-01411103021ADDAA199000091GF101991001001999999001021KA1999N-01401MA1999999089061MD1710151+9999REMSYN076AAXX  29061 53276 32980 12705 11018 21141 38906 40302 57015 80002 333 21140;EQDQ01  00002PRCP99
0112532760999992000112909004+42400+112890FM-12+115299999V0200401N002012200019N0300001N1-00511-01371103111ADDGF101991001001999999001021MD1710061+9999REMSYN060AAXX  29091 53276 42980 10402 11051 21137 40311 57006 80002;
0173532760999992000112912004+42400+112890FM-12+115299999V0201801N006012200019N0300001N1-00871-01661103121ADDAA199000091GA1001+999999999GF100991001001999999001001MA1999999088891MD1710111+9999REMSYN060AAXX  29121 53276 32980 01806 11087 21166 38889 40312 57011;EQDQ01  00002PRCP99
0122532760999992000112915004+42400+112890FM-12+115299999V0202001N007012200019N0300001N1-00451-01441102671ADDGA1001+999999999GF100991001001999999001001MD1710091+9999REMSYN054AAXX  29151 53276 42980 02007 11045 21144 40267 57009;
0196532760999992000112918004+42400+112890FM-12+115299999V0202201N006012200019N0300001N1-00611-01741102501ADDAA199000091GA1001+999999999GF100991001001999999001001KA1999M-00111MA1999999088691MD1710111+9999REMSYN070AAXX  29181 53276 32980 02206 11061 21174 38869 40250 57011 333 11011;EQDQ01  00002PRCP99
0122532760999992000112921004+42400+112890FM-12+115299999V0201801N006012200019N0300001N1-00521-01701102401ADDGA1001+999999999GF100991001001999999001001MD1710141+9999REMSYN054AAXX  29211 53276 42980 01806 11052 21170 40240 57014;
0173532760999992000113000004+42400+112890FM-12+115299999V0201801N008012200019N0300001N1-00551-01691102451ADDAA199000091GF101991011001999999031021MA1999999088501MD1710051+0071REMSYN076AAXX  30001 53276 32980 11808 11055 21169 38850 40245 57005 81032 333 05708;EQDQ01  00002PRCP99
0122532760999992000113003004+42400+112890FM-12+115299999V0202201N006012200019N0300001N1+00221-01451102151ADDGA1001+999999999GF100991001001999999001001MD1210021+9999REMSYN054AAXX  30031 53276 42980 02206 10022 21145 40215 52002;
0196532760999992000113006004+42400+112890FM-12+115299999V0202901N006012200019N0300001N1+00391-01311102061ADDAA199000091GA1001+999999999GF100991001001999999001001KA1999N-00891MA1999999088441MD1710081+9999REMSYN070AAXX  30061 53276 32980 02906 10039 21131 38844 40206 57008 333 21089;EQDQ01  00002PRCP99
0122532760999992000113009004+42400+112890FM-12+115299999V0203201N001012200019N0300001N1+00051-00911102161ADDGA1001+999999999GF100991001001999999001001MD1210031+9999REMSYN054AAXX  30091 53276 42980 03201 10005 21091 40216 52003;
0173532760999992000113012004+42400+112890FM-12+115299999V0201801N003012200019N0300001N1-00471-01351102451ADDAA199000091GA1001+999999999GF100991001001999999001001MA1999999088591MD1210121+9999REMSYN060AAXX  30121 53276 32980 01803 11047 21135 38859 40245 52012;EQDQ01  00002PRCP99
0122532760999992000113015004+42400+112890FM-12+115299999V0202001N006012200019N0300001N1-00411-01361102281ADDGA1001+999999999GF100991001001999999001001MD1210051+9999REMSYN054AAXX  30151 53276 42980 02006 11041 21136 40228 52005;
0196532760999992000113018004+42400+112890FM-12+115299999V0202201N006012200019N0300001N1-00211-01281102221ADDAA199000091GA1001+999999999GF100991001001999999001001KA1999M+00461MA1999999088671MD1210031+9999REMSYN070AAXX  30181 53276 32980 02206 11021 21128 38867 40222 52003 333 10046;EQDQ01  00002PRCP99
0122532760999992000113021004+42400+112890FM-12+115299999V0202201N007012200019N0300001N1-00291-01261102391ADDGA1001+999999999GF100991001001999999001001MD1210051+9999REMSYN054AAXX  30211 53276 42980 02207 11029 21126 40239 52005;
0173532760999992000120100004+42400+112890FM-12+115299999V0202201N007019999999N0300001N1-00391-01221102631ADDAA199000091GF106991001001999999001021MA1999999088791MD1210071+0031REMSYN076AAXX  01001 53276 32980 62207 11039 21122 38879 40263 52007 80002 333 00302;EQDQ01  00002PRCP99
0112532760999992000120103004+42400+112890FM-12+115299999V0202201N009019999999N0300001N1+00061-01091102601ADDGF107991001001999999001021MD1210091+9999REMSYN060AAXX  01031 53276 42980 72209 10006 21109 40260 52009 80002;
0185532760999992000120106004+42400+112890FM-12+115299999V0202901N009019999999N0300001N1+00141-00941102361ADDAA199000091GF107991001001999999001021KA1999N-00671MA1999999088741MD1710141+9999REMSYN075AAXX  01061 53276 32980 72909 10014 2109438874 40236 57014 80002 333 21067;EQDQ01  00002PRCP99
0112532760999992000120109004+42400+112890FM-12+115299999V0202701N009012200019N0300001N1-00081-01101102541ADDGF102991011001999999031021MD1210081+9999REMSYN060AAXX  01091 53276 42980 22709 11008 21110 40254 52008 81032;
0163532760999992000120112004+42400+112890FM-12+115299999V0202701N006019999999N0300001N1-00321-01211102991ADDAA199000091GF107991001001999999001021MA1999999089131MD1210311+9999REMSYN066AAXX  01121 53276 32980 72706 11032 21121 38913 40299 52031 80002;EQDQ01  00002PRCP99
0122532760999992000120115004+42400+112890FM-12+115299999V0202701N007012200019N0300001N1-00601-01461103211ADDGA1001+999999999GF100991001001999999001001MD1210231+9999REMSYN054AAXX  01151 53276 42980 02707 11060 21146 40321 52023;
0196532760999992000120118004+42400+112890FM-12+115299999V0203201N004012200019N0300001N1-01081-01771103541ADDAA199000091GA1001+999999999GF100991001001999999001001KA1999M+00271MA1999999089551MD1210191+9999REMSYN070AAXX  01181 53276 32980 03204 11108 21177 38955 40354 52019 333 10027;EQDQ01  00002PRCP99
0122532760999992000120121004+42400+112890FM-12+115299999V0202501N005012200019N0300001N1-01271-01821103701ADDGA1001+999999999GF100991001001999999001001MD1210041+9999REMSYN054AAXX  01211 53276 42980 02505 11127 21182 40370 52004;
0173532760999992000120200004+42400+112890FM-12+115299999V0202201N004012200019N0300001N1-01451-01981103931ADDAA199000091GF101991001001999999001021MA1999999089691MD1210101+0091REMSYN076AAXX  02001 53276 32980 12204 11145 21198 38969 40393 52010 80002 333 00961;EQDQ01  00002PRCP99
0112532760999992000120203004+42400+112890FM-12+115299999V0202501N004012200019N0250001N1-00851-02201103861ADDGF101991001001999999001021MD1210021+9999REMSYN060AAXX  02031 53276 42975 12504 11085 21220 40386 52002 80002;
0186532760999992000120206004+42400+112890FM-12+115299999V0202701N005012200019N0300001N1-00541-01921103611ADDAA199000091GF101991001001999999001021KA1999N-01451MA1999999089451MD1710261+9999REMSYN076AAXX  02061 53276 32980 12705 11054 21192 38945 40361 57026 80002 333 21145;EQDQ01  00002PRCP99
0112532760999992000120209004+42400+112890FM-12+115299999V0202201N004012200019N0300001N1-00701-02031103591ADDGF101991001001999999001021MD1710101+9999REMSYN060AAXX  02091 53276 42980 12204 11070 21203 40359 57010 80002;
0173532760999992000120212004+42400+112890FM-12+115299999V0202501N003012200019N0300001N1-01061-01941103681ADDAA199000091GA1001+999999999GF100991001001999999001001MA1999999089291MD1710061+9999REMSYN060AAXX  02121 53276 32980 02503 11106 21194 38929 40368 57006;EQDQ01  00002PRCP99
0122532760999992000120215004+42400+112890FM-12+115299999V0202201N007012200019N0300001N1-01081-01961103391ADDGA1001+999999999GF100991001001999999001001MD1710111+9999REMSYN054AAXX  02151 53276 42980 02207 11108 21196 40339 57011;
0196532760999992000120218004+42400+112890FM-12+115299999V0202201N006012200019N0300001N1-01011-01801103081ADDAA199000091GA1001+999999999GF100991001001999999001001KA1999M-00411MA1999999089011MD1710171+9999REMSYN070AAXX  02181 53276 32980 02206 11101 21180 38901 40308 57017 333 11041;EQDQ01  00002PRCP99
0122532760999992000120221004+42400+112890FM-12+115299999V0202201N007012200019N0300001N1-01181-01841102911ADDGA1001+999999999GF100991001001999999001001MD1710231+9999REMSYN054AAXX  02211 53276 42980 02207 11118 21184 40291 57023;
0173532760999992000120300004+42400+112890FM-12+115299999V0202201N007012200019N0300001N1-01091-01711102821ADDAA199000091GF101991001001999999001021MA1999999088641MD1710141+0111REMSYN076AAXX  03001 53276 32980 12207 11109 21171 38864 40282 57014 80002 333 06104;EQDQ01  00002PRCP99
0122532760999992000120303004+42400+112890FM-12+115299999V0202501N010012200019N0250001N1-00271-01591102461ADDGA1001+999999999GF100991001001999999001001MD1710121+9999REMSYN054AAXX  03031 53276 42975 02510 11027 21159 40246 57012;
0196532760999992000120306004+42400+112890FM-12+115299999V0202501N010012200019N0200001N1+00131-01341101911ADDAA199000091GA1001+999999999GF100991001001999999001001KA1999N-01221MA1999999088161MD1710361+9999REMSYN070AAXX  03061 53276 32970 02510 10013 21134 38816 40191 57036 333 21122;EQDQ01  00002PRCP99
0112532760999992000120309004+42400+112890FM-12+115299999V0202201N007019999999N0200001N1+00001-01321101721ADDGF107991021001999999031021MD1710241+9999REMSYN060AAXX  03091 53276 42970 72207 10000 21132 40172 57024 82032;
0163532760999992000120312004+42400+112890FM-12+115299999V0201801N010019999999N0250001N1-00301-01651101571ADDAA199000091GF107991001001999999001021MA1999999087741MD1710181+9999REMSYN066AAXX  03121 53276 32975 71810 11030 21165 38774 40157 57018 80002;EQDQ01  00002PRCP99
0112532760999992000120315004+42400+112890FM-12+115299999V0202201N009012200019N0250001N1-00231-01491101311ADDGF102991001001999999001021MD1710011+9999REMSYN060AAXX  03151 53276 42975 22209 11023 21149 40131 57001 80002;
0219532760999992000120318004+42400+112890FM-12+115299999V0202201N007012200019N0200001N1-00501-01801101311ADDAA199000091GA1001+999999999GF100991001001999999001001KA1240M+00211MA1999999087761MD1210031+9999OA130601901REMSYN082AAXX  03181 53276 32970 02207 11050 21180 38776 40131 52003 333 10021 91119 91525;EQDQ01  00002PRCP99
0122532760999992000120321004+42400+112890FM-12+115299999V0202701N011012200019N0150001N1-00681-01871101441ADDGA1001+999999999GF100991001001999999001001MD1210041+9999REMSYN054AAXX  03211 53276 42965 02711 11068 21187 40144 52004;
0183532760999992000120400004+42400+112890FM-12+115299999V0202501N009012200019N0200001N1-00871-01941101881ADDAA199000091GA1001+999999999GF100991001001999999001001MA1999999088061MD1210261+0061REMSYN070AAXX  04001 53276 32970 02509 11087 21194 38806 40188 52026 333 05602;EQDQ01  00002PRCP99
0122532760999992000120403004+42400+112890FM-12+115299999V0202901N011012200019N0300001N1-00741-01771102231ADDGA1001+999999999GF100991001001999999001001MD1210351+9999REMSYN054AAXX  04031 53276 42980 02911 11074 21177 40223 52035;
0219532760999992000120406004+42400+112890FM-12+115299999V0203201N009012200019N0300001N1-00711-01871102561ADDAA199000091GA1001+999999999GF100991001001999999001001KA1240N-00871MA1999999088641MD1210231+9999OA130601801REMSYN082AAXX  04061 53276 32980 03209 11071 21187 38864 40256 52023 333 21087 91118 91534;EQDQ01  00002PRCP99
0122532760999992000120409004+42400+112890FM-12+115299999V0200201N004012200019N0300001N1-01031-01861103021ADDGA1001+999999999GF100991001001999999001001MD1210281+9999REMSYN054AAXX  04091 53276 42980 00204 11103 21186 40302 52028;
0173532760999992000120412004+42400+112890FM-12+115299999V0201601N002012200019N0300001N1-01451-02011103291ADDAA199000091GA1001+999999999GF100991001001999999001001MA1999999089001MD1210081+9999REMSYN060AAXX  04121 53276 32980 01602 11145 21201 38900 40329 52008;EQDQ01  00002PRCP99
0112532760999992000120415004+42400+112890FM-12+115299999V0202201N004012200019N0300001N1-01381-01891103141ADDGF101991001001999999001021MD1710081+9999REMSYN060AAXX  04151 53276 42980 12204 11138 21189 40314 57008 80002;
0196532760999992000120418004+42400+112890FM-12+115299999V0201801N007012200019N0300001N1-01071-01721102881ADDAA199000091GA1001+999999999GF100991001001999999001001KA1999M-00531MA1999999088781MD1710141+9999REMSYN070AAXX  04181 53276 32980 01807 11107 21172 38878 40288 57014 333 11053;EQDQ01  00002PRCP99
0122532760999992000120421004+42400+112890FM-12+115299999V0201801N003012200019N0300001N1-00971-01981102651ADDGA1001+999999999GF100991001001999999001001MD1710251+9999REMSYN054AAXX  04211 53276 42980 01803 11097 21198 40265 57025;
0173532760999992000120500004+42400+112890FM-12+115299999V0202201N006012200019N0300001N1-00851-02081102651ADDAA199000091GF101991001001999999001021MA1999999088451MD1710081+0041REMSYN076AAXX  05001 53276 32980 12206 11085 21208 38845 40265 57008 80002 333 00400;EQDQ01  00002PRCP99
0112532760999992000120503004+42400+112890FM-12+115299999V0202201N008012200019N0300001N1-00011-01541102331ADDGF104991001001999999001021MD1710051+9999REMSYN060AAXX  05031 53276 42980 42208 11001 21154 40233 57005 80002;
0186532760999992000120506004+42400+112890FM-12+115299999V0202701N007012200019N0300001N1+00351-01371101911ADDAA199000091GF102991001001999999001021KA1999N-01591MA1999999088201MD1710201+9999REMSYN076AAXX  05061 53276 32980 22707 10035 21137 38820 40191 57020 80002 333 21159;EQDQ01  00002PRCP99
0112532760999992000120509004+42400+112890FM-12+115299999V0202201N003019999999N0300001N1+00311-01551101811ADDGF106991021001999999031021MD1710081+9999REMSYN060AAXX  05091 53276 42980 62203 10031 21155 40181 57008 82032;
0163532760999992000120512004+42400+112890FM-12+115299999V0202201N007019999999N0250001N1-00071-01291101891ADDAA199000091GF107991031001999999031021MA1999999088131MD1210011+9999REMSYN066AAXX  05121 53276 32975 72207 11007 21129 38813 40189 52001 83032;EQDQ01  00002PRCP99
0196532760999992000120518004+42400+112890FM-12+115299999V0202201N009012200019N0250001N1-00251-01541101811ADDAA199000091GA1001+999999999GF100991001001999999001001KA1999M+00501MA1999999088301MD1710051+9999REMSYN070AAXX  05181 53276 32975 02209 11025 21154 38830 40181 57005 333 10050;EQDQ01  00002PRCP99
0122532760999992000120521004+42400+112890FM-12+115299999V0202501N009012200019N0300001N1-00401-01591102011ADDGA1001+999999999GF100991001001999999001001MD1210131+9999REMSYN054AAXX  05211 53276 42980 02509 11040 21159 40201 52013;
0173532760999992000120600004+42400+112890FM-12+115299999V0202201N005012200019N0300001N1-00571-01661102511ADDAA199000091GF101991011001999999031021MA1999999088731MD1210301+0031REMSYN076AAXX  06001 53276 32980 12205 11057 21166 38873 40251 52030 81032 333 00303;EQDQ01  00002PRCP99
0112532760999992000120603004+42400+112890FM-12+115299999V0202501N010012200019N0300001N1-00211-01401102591ADDGF102991021001999999031021MD1210101+9999REMSYN060AAXX  06031 53276 42980 22510 11021 21140 40259 52010 82032;
0186532760999992000120606004+42400+112890FM-12+115299999V0202701N007012200019N0300001N1-00031-01401102561ADDAA199000091GF101991011001999999031001KA1999N-00631MA1999999088861MD1210031+9999REMSYN076AAXX  06061 53276 32980 12707 11003 21140 38886 40256 52003 81030 333 21063;EQDQ01  00002PRCP99
0122532760999992000120609004+42400+112890FM-12+115299999V0203201N002012200019N0300001N1-00331-01741102811ADDGA1001+999999999GF100991001001999999001001MD1210111+9999REMSYN054AAXX  06091 53276 42980 03202 11033 21174 40281 52011;
0173532760999992000120612004+42400+112890FM-12+115299999V0201801N003012200019N0300001N1-00641-01811103071ADDAA199000091GA1001+999999999GF100991001001999999001001MA1999999089081MD1210111+9999REMSYN060AAXX  06121 53276 32980 01803 11064 21181 38908 40307 52011;EQDQ01  00002PRCP99
0122532760999992000120615004+42400+112890FM-12+115299999V0202201N004012200019N0300001N1-00901-01851103111ADDGA1001+999999999GF100991001001999999001001MD1210061+9999REMSYN054AAXX  06151 53276 42980 02204 11090 21185 40311 52006;
0196532760999992000120618004+42400+112890FM-12+115299999V0202201N004012200019N0300001N1-00941-01641103051ADDAA199000091GA1001+999999999GF100991001001999999001001KA1999M+00021MA1999999089121MD1710021+9999REMSYN070AAXX  06181 53276 32980 02204 11094 21164 38912 40305 57002 333 10002;EQDQ01  00002PRCP99
0122532760999992000120621004+42400+112890FM-12+115299999V0202201N007012200019N0300001N1-00831-01731102901ADDGA1001+999999999GF100991001001999999001001MD1710171+9999REMSYN054AAXX  06211 53276 42980 02207 11083 21173 40290 57017;
0183532760999992000120700004+42400+112890FM-12+115299999V0201801N008012200019N0300001N1-00691-01681102891ADDAA199000091GA1001+999999999GF100991001001999999001001MA1999999088901MD1710051+0021REMSYN070AAXX  07001 53276 32980 01808 11069 21168 38890 40289 57005 333 00251;EQDQ01  00002PRCP99
0122532760999992000120703004+42400+112890FM-12+115299999V0202201N007012200019N0300001N1+00061-01321102651ADDGA1001+999999999GF100991001001999999001001MD1710091+9999REMSYN054AAXX  07031 53276 42980 02207 10006 21132 40265 57009;
0196532760999992000120706004+42400+112890FM-12+115299999V0202201N009012200019N0300001N1+00391-01341102241ADDAA199000091GA1001+999999999GF100991001001999999001001KA1999N-01071MA1999999088521MD1710291+9999REMSYN070AAXX  07061 53276 32980 02209 10039 21134 38852 40224 57029 333 21107;EQDQ01  00002PRCP99
0112532760999992000120709004+42400+112890FM-12+115299999V0202201N006012200019N0300001N1+00141-01321102181ADDGF101991001001999999001021MD1710081+9999REMSYN060AAXX  07091 53276 42980 12206 10014 21132 40218 57008 80002;
0173532760999992000120712004+42400+112890FM-12+115299999V0201801N007012200019N0300001N1-00281-01351102261ADDAA199000091GA1001+999999999GF100991001001999999001001MA1999999088441MD1410001+9999REMSYN060AAXX  07121 53276 32980 01807 11028 21135 38844 40226 54000;EQDQ01  00002PRCP99
0122532760999992000120715004+42400+112890FM-12+115299999V0202201N006012200019N0300001N1-00291-01371101991ADDGA1001+999999999GF100991001001999999001001MD1710061+9999REMSYN054AAXX  07151 53276 42980 02206 11029 21137 40199 57006;
0196532760999992000120718004+42400+112890FM-12+115299999V0202201N007012200019N0300001N1-00241-01461101841ADDAA199000091GA1001+999999999GF100991001001999999001001KA1999M+00481MA1999999088341MD1710041+9999REMSYN070AAXX  07181 53276 32980 02207 11024 21146 38834 40184 57004 333 10048;EQDQ01  00002PRCP99
0122532760999992000120721004+42400+112890FM-12+115299999V0202501N006012200019N0300001N1-00251-01291101811ADDGA1001+999999999GF100991001001999999001001MD1710091+9999REMSYN054AAXX  07211 53276 42980 02506 11025 21129 40181 57009;
0183532760999992000120800004+42400+112890FM-12+115299999V0202201N004012200019N0300001N1-00861-01641102151ADDAA199000091GA1001+999999999GF100991001001999999001001MA1999999088301MD1210051+0061REMSYN070AAXX  08001 53276 32980 02204 11086 21164 38830 40215 52005 333 05652;EQDQ01  00002PRCP99
0112532760999992000120803004+42400+112890FM-12+115299999V0202201N004012200019N0300001N1+00081-01601101881ADDGF101991011001999999031001MD1710011+9999REMSYN060AAXX  08031 53276 42980 12204 10008 21160 40188 57001 81030;
0186532760999992000120806004+42400+112890FM-12+115299999V0202201N003012200019N0300001N1+00441-01441101501ADDAA199000091GF102991011001999999031011KA1999N-00861MA1999999088051MD1710241+9999REMSYN076AAXX  08061 53276 32980 22203 10044 21144 38805 40150 57024 81031 333 21086;EQDQ01  00002PRCP99
0112532760999992000120809004+42400+112890FM-12+115299999V0209999C000012200019N0300001N1+00231-01231101461ADDGF103991011001999999031021MD1710081+9999REMSYN060AAXX  08091 53276 42980 30000 10023 21123 40146 57008 81032;
0163532760999992000120812004+42400+112890FM-12+115299999V0202201N005019999999N0300001N1-00361-01321101871ADDAA199000091GF105991001001999999001021MA1999999088041MD1210071+9999REMSYN066AAXX  08121 53276 32980 52205 11036 21132 38804 40187 52007 80002;EQDQ01  00002PRCP99
0112532760999992000120815004+42400+112890FM-12+115299999V0202701N006012200019N0300001N1-00581-01421101901ADDGF101991001001999999001021MD1210201+9999REMSYN060AAXX  08151 53276 42980 12706 11058 21142 40190 52020 80002;
0186532760999992000120818004+42400+112890FM-12+115299999V0202701N006019999999N0300001N1-00851-01621102111ADDAA199000091GF106991001001999999001021KA1999M+00521MA1999999088441MD1210201+9999REMSYN076AAXX  08181 53276 32980 62706 11085 21162 38844 40211 52020 80002 333 10052;EQDQ01  00002PRCP99
0112532760999992000120821004+42400+112890FM-12+115299999V0202701N005019999999N0300001N1-01101-01741102491ADDGF107991001001999999001021MD1210221+9999REMSYN060AAXX  08211 53276 42980 72705 11110 21174 40249 52022 80002;
0173532760999992000120900004+42400+112890FM-12+115299999V0202201N005010360019N0300001N1-01421-01801103121ADDAA199000091GF107991021051012501031021MA1999999088991MD1210331+0071REMSYN076AAXX  09001 53276 32680 72205 11142 21180 38899 40312 52033 82532 333 00756;EQDQ01  00002PRCP99
0112532760999992000120903004+42400+112890FM-12+115299999V0202901N007012200019N0300001N1-01241-01901103491ADDGF101991011001999999031001MD1210311+9999REMSYN060AAXX  09031 53276 42980 12907 11124 21190 40349 52031 81030;
0158532760999992000120906004+42400+112890FM-12+115299999V0202901N008012200019N0300001N1-01051-02181999999ADDAA199000091GF101991999999999999999999MA1999999089271REMSYN075AAXX  09061 53276 32980 12908 11105 21218 38927 0348 57003 81030 333 21142;EQDQ01  00002PRCP99
0112532760999992000120909004+42400+112890FM-12+115299999V0202901N004012200019N0300001N1-01281-02391103771ADDGF101991011001999999031001MD1210131+9999REMSYN060AAXX  09091 53276 42980 12904 11128 21239 40377 52013 81030;
0173532760999992000120912004+42400+112890FM-12+115299999V0202901N005012200019N0300001N1-01581-02471104051ADDAA199000091GA1001+999999999GF100991001001999999001001MA1999999089481MD1210081+9999REMSYN060AAXX  09121 53276 32980 02905 11158 21247 38948 40405 52008;EQDQ01  00002PRCP99
0122532760999992000120915004+42400+112890FM-12+115299999V0202501N004012200019N0300001N1-01881-02701104191ADDGA1001+999999999GF100991001001999999001001MD1210091+9999REMSYN054AAXX  09151 53276 42980 02504 11188 21270 40419 52009;
0196532760999992000120918004+42400+112890FM-12+115299999V0202201N005012200019N0300001N1-01871-02721104121ADDAA199000091GA1001+999999999GF100991001001999999001001KA1999M-00871MA1999999089561MD1710011+9999REMSYN070AAXX  09181 53276 32980 02205 11187 21272 38956 40412 57001 333 11087;EQDQ01  00002PRCP99
0122532760999992000120921004+42400+112890FM-12+115299999V0202001N006012200019N0300001N1-01871-02721104011ADDGA1001+999999999GF100991001001999999001001MD1710151+9999REMSYN054AAXX  09211 53276 42980 02006 11187 21272 40401 57015;
0183532760999992000121000004+42400+112890FM-12+115299999V0202501N006012200019N0300001N1-01841-02511104111ADDAA199000091GA1001+999999999GF100991001001999999001001MA1999999089421MD1210011+0041REMSYN070AAXX  10001 53276 32980 02506 11184 21251 38942 40411 52001 333 00454;EQDQ01  00002PRCP99
0122532760999992000121003004+42400+112890FM-12+115299999V0202501N007012200019N0300001N1-01401-02231104171ADDGA1001+999999999GF100991001001999999001001MD1210091+9999REMSYN054AAXX  10031 53276 42980 02507 11140 21223 40417 52009;
0196532760999992000121006004+42400+112890FM-12+115299999V0202701N009012200019N0300001N1-01041-02231103911ADDAA199000091GA1001+999999999GF100991001001999999001001KA1999N-01981MA1999999089381MD1710131+9999REMSYN070AAXX  10061 53276 32980 02709 11104 21223 38938 40391 57013 333 21198;EQDQ01  00002PRCP99
0122532760999992000121009004+42400+112890FM-12+115299999V0203201N006012200019N0300001N1-01231-02441104011ADDGA1001+999999999GF100991001001999999001001MD1210041+9999REMSYN054AAXX  10091 53276 42980 03206 11123 21244 40401 52004;
0173532760999992000121012004+42400+112890FM-12+115299999V0209999C000012200019N0300001N1-01721-02651104321ADDAA199000091GA1001+999999999GF100991001001999999001001MA1999999089571MD1210151+9999REMSYN060AAXX  10121 53276 32980 00000 11172 21265 38957 40432 52015;EQDQ01  00002PRCP99
0122532760999992000121015004+42400+112890FM-12+115299999V0201801N003012200019N0300001N1-01921-02741104401ADDGA1001+999999999GF100991001001999999001001MD1210131+9999REMSYN054AAXX  10151 53276 42980 01803 11192 21274 40440 52013;
0196532760999992000121018004+42400+112890FM-12+115299999V0202501N004012200019N0300001N1-01981-02771104361ADDAA199000091GA1001+999999999GF100991001001999999001001KA1999M-01001MA1999999089741MD1210041+9999REMSYN070AAXX  10181 53276 32980 02504 11198 21277 38974 40436 52004 333 11100;EQDQ01  00002PRCP99
0122532760999992000121021004+42400+112890FM-12+115299999V0202501N004012200019N0300001N1-02121-02861104551ADDGA1001+999999999GF100991001001999999001001MD1210081+9999REMSYN054AAXX  10211 53276 42980 02504 11212 21286 40455 52008;
0183532760999992000121100004+42400+112890FM-12+115299999V0202501N005012200019N0300001N1-02121-02831104821ADDAA199000091GA1001+999999999GF100991001001999999001001MA1999999089921MD1210101+0051REMSYN070AAXX  11001 53276 32980 02505 11212 21283 38992 40482 52010 333 00553;EQDQ01  00002PRCP99
0122532760999992000121103004+42400+112890FM-12+115299999V0202901N004012200019N0300001N1-01371-02331104741ADDGA1001+999999999GF100991001001999999001001MD1210081+9999REMSYN054AAXX  11031 53276 42980 02904 11137 21233 40474 52008;
0186532760999992000121106004+42400+112890FM-12+115299999V0202901N007012200019N0300001N1-01031-02161104471ADDAA199000091GF101991001001999999001021KA1999N-02171MA1999999089841MD1710161+9999REMSYN076AAXX  11061 53276 32980 12907 11103 21216 38984 40447 57016 80002 333 21217;EQDQ01  00002PRCP99
0122532760999992000121109004+42400+112890FM-12+115299999V0202701N003012200019N0300001N1-01111-02211104541ADDGA1001+999999999GF100991001001999999001001MD1410001+9999REMSYN054AAXX  11091 53276 42980 02703 11111 21221 40454 54000;
0173532760999992000121112004+42400+112890FM-12+115299999V0202201N004012200019N0300001N1-01311-02281104461ADDAA199000091GA1001+999999999GF100991001001999999001001MA1999999089721MD1710121+9999REMSYN060AAXX  11121 53276 32980 02204 11131 21228 38972 40446 57012;EQDQ01  00002PRCP99
0122532760999992000121115004+42400+112890FM-12+115299999V0202201N006012200019N0300001N1-01661-02551104151ADDGA1001+999999999GF100991001001999999001001MD1710161+9999REMSYN054AAXX  11151 53276 42980 02206 11166 21255 40415 57016;
0196532760999992000121118004+42400+112890FM-12+115299999V0202201N006012200019N0300001N1-01641-02531103891ADDAA199000091GA1001+999999999GF100991001001999999001001KA1999M-00941MA1999999089431MD1710131+9999REMSYN070AAXX  11181 53276 32980 02206 11164 21253 38943 40389 57013 333 11094;EQDQ01  00002PRCP99
0112532760999992000121121004+42400+112890FM-12+115299999V0202201N007012200019N0300001N1-01641-02501103741ADDGF101991001001999999001021MD1710151+9999REMSYN060AAXX  11211 53276 42980 12207 11164 21250 40374 57015 80002;
0183532760999992000121200004+42400+112890FM-12+115299999V0202501N007012200019N0300001N1-01651-02511103711ADDAA199000091GA1001+999999999GF100991001001999999001001MA1999999089201MD1710081+0071REMSYN070AAXX  12001 53276 32980 02507 11165 21251 38920 40371 57008 333 05705;EQDQ01  00002PRCP99
0122532760999992000121203004+42400+112890FM-12+115299999V0202501N009012200019N0300001N1-01011-02121103561ADDGA1001+999999999GF100991001001999999001001MD1710061+9999REMSYN054AAXX  12031 53276 42980 02509 11101 21212 40356 57006;
0196532760999992000121206004+42400+112890FM-12+115299999V0202501N008012200019N0300001N1-00601-02631103021ADDAA199000091GA1001+999999999GF100991001001999999001001KA1999N-01731MA1999999088791MD1710351+9999REMSYN070AAXX  12061 53276 32980 02508 11060 21263 38879 40302 57035 333 21173;EQDQ01  00002PRCP99
0122532760999992000121209004+42400+112890FM-12+115299999V0202501N003012200019N0300001N1-00761-02631102941ADDGA1001+999999999GF100991001001999999001001MD1710111+9999REMSYN054AAXX  12091 53276 42980 02503 11076 21263 40294 57011;
0163532760999992000121212004+42400+112890FM-12+115299999V0202201N006012200019N0300001N1-01071-02231102921ADDAA199000091GF101991011001999999031001MA1999999088581MD1710101+9999REMSYN066AAXX  12121 53276 32980 12206 11107 21223 38858 40292 57010 81030;EQDQ01  00002PRCP99
0122532760999992000121215004+42400+112890FM-12+115299999V0202201N005012200019N0300001N1-01101-01951102611ADDGA1001+999999999GF100991001001999999001001MD1710111+9999REMSYN054AAXX  12151 53276 42980 02205 11110 21195 40261 57011;
0196532760999992000121218004+42400+112890FM-12+115299999V0202201N006012200019N0300001N1-01391-02021102461ADDAA199000091GA1001+999999999GF100991001001999999001001KA1999M-00521MA1999999088371MD1710101+9999REMSYN070AAXX  12181 53276 32980 02206 11139 21202 38837 40246 57010 333 11052;EQDQ01  00002PRCP99
0122532760999992000121221004+42400+112890FM-12+115299999V0202201N007012200019N0300001N1-01461-02001102451ADDGA1001+999999999GF100991001001999999001001MD1710071+9999REMSYN054AAXX  12211 53276 42980 02207 11146 21200 40245 57007;
0183532760999992000121300004+42400+112890FM-12+115299999V0202201N006012200019N0300001N1-01741-02221102781ADDAA199000091GA1001+999999999GF100991001001999999001001MA1999999088441MD1210141+0081REMSYN070AAXX  13001 53276 32980 02206 11174 21222 38844 40278 52014 333 05851;EQDQ01  00002PRCP99
0122532760999992000121303004+42400+112890FM-12+115299999V0202501N007012200019N0300001N1-01261-01921102791ADDGA1001+999999999GF100991001001999999001001MD1210121+9999REMSYN054AAXX  13031 53276 42980 02507 11126 21192 40279 52012;
0186532760999992000121306004+42400+112890FM-12+115299999V0202701N006012200019N0300001N1-00961-02041102721ADDAA199000091GF101991011001999999031021KA1999N-01761MA1999999088501MD1710061+9999REMSYN076AAXX  13061 53276 32980 12706 11096 21204 38850 40272 57006 81032 333 21176;EQDQ01  00002PRCP99
0112532760999992000121309004+42400+112890FM-12+115299999V0202701N002012200019N0300001N1-01031-01911102891ADDGF101991011001999999031021MD1210111+9999REMSYN060AAXX  13091 53276 42980 12702 11103 21191 40289 52011 81032;
0173532760999992000121312004+42400+112890FM-12+115299999V0201801N001012200019N0300001N1-01511-02221103151ADDAA199000091GA1001+999999999GF100991001001999999001001MA1999999088641MD1210031+9999REMSYN060AAXX  13121 53276 32980 01801 11151 21222 38864 40315 52003;EQDQ01  00002PRCP99
0122532760999992000121315004+42400+112890FM-12+115299999V0201801N005012200019N0300001N1-01471-02201102921ADDGA1001+999999999GF100991001001999999001001MD1710061+9999REMSYN054AAXX  13151 53276 42980 01805 11147 21220 40292 57006;
0196532760999992000121318004+42400+112890FM-12+115299999V0201801N007012200019N0300001N1-01261-01961102601ADDAA199000091GA1001+999999999GF100991001001999999001001KA1999M-00881MA1999999088431MD1710151+9999REMSYN070AAXX  13181 53276 32980 01807 11126 21196 38843 40260 57015 333 11088;EQDQ01  00002PRCP99
0112532760999992000121321004+42400+112890FM-12+115299999V0201801N007012200019N0300001N1-01151-01861102361ADDGF101991001001999999001021MD1710201+9999REMSYN060AAXX  13211 53276 42980 11807 11115 21186 40236 57020 80002;
0173532760999992000121400004+42400+112890FM-12+115299999V0202201N006010150019N0300001N1-00991-01641102341ADDAA199000091GF107991061051017501001021MA1999999088141MD1710091+0031REMSYN076AAXX  14001 53276 32780 72206 11099 21164 38814 40234 57009 86502 333 05308;EQDQ01  00002PRCP99
0112532760999992000121403004+42400+112890FM-12+115299999V0202501N008010150019N0300001N1-00521-01371102011ADDGF107991051051017501031021MD1710161+9999REMSYN060AAXX  14031 53276 42780 72508 11052 21137 40201 57016 85532;
0209532760999992000121406004+42400+112890FM-12+115299999V0202501N012010120019N0200001N1-00251-01131101591ADDAA199000091GF107991071051012501999999KA1240N-01621MA1999999087731MD1710251+9999OA130601801REMSYN088AAXX  14061 53276 32670 72512 11025 21113 38773 40159 57025 875// 333 21162 91118 91527;EQDQ01  00002PRCP99
0132532760999992000121409004+42400+112890FM-12+115299999V0202701N011010900019N0200001N1-00451-01311101731ADDAY171031GF107991021051012501001021MD1210101+9999MW1001REMSYN066AAXX  14091 53276 41670 72711 11045 21131 40173 52010 70070 82502;
0197532760999992000121412004+42400+112890FM-12+115299999V0202201N006019999999N0200001N1-00581-01541102071ADDAA106000791AY171061GF107991001001999999001021MA1999999088131MD1210301+9999MW1001OA130601901REMSYN094AAXX  14121 53276 11970 72206 11058 21154 38813 40207 52030 69901 70070 80002 333 91119 91522;
0112532760999992000121415004+42400+112890FM-12+115299999V0202201N002012200019N0300001N1-01061-01711102411ADDGF102991001001999999001021MD1210291+9999REMSYN060AAXX  14151 53276 42980 22202 11106 21171 40241 52029 80002;
0196532760999992000121418004+42400+112890FM-12+115299999V0202201N004012200019N0300001N1-01361-01931102591ADDAA199000091GA1001+999999999GF100991001001999999001001KA1999M-00201MA1999999088571MD1210151+9999REMSYN070AAXX  14181 53276 32980 02204 11136 21193 38857 40259 52015 333 11020;EQDQ01  00002PRCP99
0143532760999992000121421004+42400+112890FM-12+115299999V0202701N005012200019N0300001N1-01571-02051102891ADDAA124000791GA1001+999999999GF100991001001999999001001MD1210161+9999REMSYN064AAXX  14211 53276 42980 02705 11157 21205 40289 52016 333 79999;
0170532760999992000121500004+42400+112890FM-12+115299999V0202201N003012200019N0300001N1-01791-02191103201ADDAA124000791GA1001+999999999GF100991001001999999001001MA1999999088911MD1210181+0801REMSYN076AAXX  15001 53276 32980 02203 11179 21219 38891 40320 52018 333 00858 79999;
0122532760999992000121503004+42400+112890FM-12+115299999V0202901N005012200019N0300001N1-01171-01811103321ADDGA1001+999999999GF100991001001999999001001MD1210141+9999REMSYN054AAXX  15031 53276 42980 02905 11117 21181 40332 52014;
0196532760999992000121506004+42400+112890FM-12+115299999V0202901N007012200019N0300001N1-00881-02061103341ADDAA199000091GA1001+999999999GF100991001001999999001001KA1999N-01811MA1999999089061MD1210011+9999REMSYN070AAXX  15061 53276 32980 02907 11088 21206 38906 40334 52001 333 21181;EQDQ01  00002PRCP99
0122532760999992000121509004+42400+112890FM-12+115299999V0203201N001012200019N0300001N1-00961-02241103511ADDGA1001+999999999GF100991001001999999001001MD1210081+9999REMSYN054AAXX  15091 53276 42980 03201 11096 21224 40351 52008;
0173532760999992000121512004+42400+112890FM-12+115299999V0201801N004012200019N0300001N1-01181-01951103661ADDAA199000091GA1001+999999999GF100991001001999999001001MA1999999089151MD1210011+9999REMSYN060AAXX  15121 53276 32980 01804 11118 21195 38915 40366 52001;EQDQ01  00002PRCP99
0122532760999992000121515004+42400+112890FM-12+115299999V0202201N007012200019N0300001N1-01211-01981103411ADDGA1001+999999999GF100991001001999999001001MD1710061+9999REMSYN054AAXX  15151 53276 42980 02207 11121 21198 40341 57006;
0186532760999992000121518004+42400+112890FM-12+115299999V0201801N008019999999N0300001N1-01111-01891103151ADDAA199000091GF106991011001999999031021KA1999M-00781MA1999999088961MD1710131+9999REMSYN076AAXX  15181 53276 32980 61808 11111 21189 38896 40315 57013 81032 333 11078;EQDQ01  00002PRCP99
0112532760999992000121521004+42400+112890FM-12+115299999V0201801N006019999999N0300001N1-00981-01921102881ADDGF107991021001999999031021MD1710221+9999REMSYN060AAXX  15211 53276 42980 71806 11098 21192 40288 57022 82032;
0173532760999992000121600004+42400+112890FM-12+115299999V0202201N006019999999N0300001N1-00651-01751102721ADDAA199000091GF107991061001999999031021MA1999999088631MD1710111+0031REMSYN076AAXX  16001 53276 32980 72206 11065 21175 38863 40272 57011 86032 333 05311;EQDQ01  00002PRCP99
0122532760999992000121603004+42400+112890FM-12+115299999V0202701N011012200019N0300001N1-00291-01501102701ADDGA1001+999999999GF100991001001999999001001MD1210061+9999REMSYN054AAXX  16031 53276 42980 02711 11029 21150 40270 52006;
0196532760999992000121606004+42400+112890FM-12+115299999V0202701N011012200019N0300001N1-00111-01511102461ADDAA199000091GA1001+999999999GF100991001001999999001001KA1999N-01591MA1999999088551MD1710141+9999REMSYN070AAXX  16061 53276 32980 02711 11011 21151 38855 40246 57014 333 21159;EQDQ01  00002PRCP99
0122532760999992000121609004+42400+112890FM-12+115299999V0202701N003012200019N0300001N1-00451-01781102691ADDGA1001+999999999GF100991001001999999001001MD1210151+9999REMSYN054AAXX  16091 53276 42980 02703 11045 21178 40269 52015;
0173532760999992000121612004+42400+112890FM-12+115299999V0202501N005012200019N0300001N1-00911-01951102841ADDAA199000091GA1001+999999999GF100991001001999999001001MA1999999088801MD1210101+9999REMSYN060AAXX  16121 53276 32980 02505 11091 21195 38880 40284 52010;EQDQ01  00002PRCP99
0122532760999992000121615004+42400+112890FM-12+115299999V0201801N003012200019N0300001N1-01041-01751102731ADDGA1001+999999999GF100991001001999999001001MD1710041+9999REMSYN054AAXX  16151 53276 42980 01803 11104 21175 40273 57004;
0186532760999992000121618004+42400+112890FM-12+115299999V0202001N002012200019N0300001N1-01201-01801102571ADDAA199000091GF102991001001999999001021KA1999M-00081MA1999999088631MD1710131+9999REMSYN076AAXX  16181 53276 32980 22002 11120 21180 38863 40257 57013 80002 333 11008;EQDQ01  00002PRCP99
0112532760999992000121621004+42400+112890FM-12+115299999V0202001N005010900019N0300001N1-00801-01601102331ADDGF107991011051012501001021MD1710201+9999REMSYN060AAXX  16211 53276 42680 72005 11080 21160 40233 57020 81502;
0173532760999992000121700004+42400+112890FM-12+115299999V0202201N005010360019N0300001N1-00621-01491102251ADDAA199000091GF107991031051012501031021MA1999999088301MD1710131+0031REMSYN076AAXX  17001 53276 32680 72205 11062 21149 38830 40225 57013 83532 333 05300;EQDQ01  00002PRCP99
0112532760999992000121703004+42400+112890FM-12+115299999V0202201N007012200019N0300001N1+00021-01371101971ADDGF104991021051012501001021MD1710121+9999REMSYN060AAXX  17031 53276 42680 42207 10002 21137 40197 57012 82502;
0186532760999992000121706004+42400+112890FM-12+115299999V0202201N008010120019N0300001N1+00391-01561101521ADDAA199000091GF107991061051012501001021KA1999N-01241MA1999999087841MD1710341+9999REMSYN076AAXX  17061 53276 32680 72208 10039 21156 38784 40152 57034 86502 333 21124;EQDQ01  00002PRCP99
0112532760999992000121709004+42400+112890FM-12+115299999V0202501N004010900019N0300001N1+00041-01171101541ADDGF107991031051012501001021MD1210031+9999REMSYN060AAXX  17091 53276 42680 72504 10004 21117 40154 52003 83502;
0163532760999992000121712004+42400+112890FM-12+115299999V0202201N004012200019N0300001N1-00301-00801101691ADDAA199000091GF103991011051012501001021MA1999999087961MD1210091+9999REMSYN066AAXX  17121 53276 32680 32204 11030 21080 38796 40169 52009 81502;EQDQ01  00002PRCP99
0112532760999992000121715004+42400+112890FM-12+115299999V0202701N005010900019N0300001N1-00401-00811101641ADDGF107991021051012501001021MD1210081+9999REMSYN060AAXX  17151 53276 42680 72705 11040 21081 40164 52008 82502;
0186532760999992000121718004+42400+112890FM-12+115299999V0202201N007019999999N0300001N1-00681-01251101781ADDAA199000091GF105991021001999999031021KA1999M+00541MA1999999088181MD1210141+9999REMSYN076AAXX  17181 53276 32980 52207 11068 21125 38818 40178 52014 82032 333 10054;EQDQ01  00002PRCP99
0153532760999992000121721004+42400+112890FM-12+115299999V0202901N010010900019N0200001N1-01101-01331102341ADDAA124000791AY171031GF107991021051012501001081MD1210311+9999MW1701REMSYN076AAXX  17211 53276 41670 72910 11110 21133 40234 52031 77070 82508 333 79999;
0192532760999992000121800004+42400+112890FM-12+115299999V0202201N004019999999N0070001N1-01161-01361102891ADDAA106000191AY171061GF108991081001999999021999MA1999999088871MD1210381+0601MW1711REMSYN100AAXX  18001 53276 11957 82204 11116 21136 38887 40289 52038 69911 77170 8802/ 333 00655 70001 92501;
0140532760999992000121803004+42400+112890FM-12+115299999V0203201N007010150019N0120001N1-01171-01381103211ADDAY171031AY271031GF107991071051017501999999MD1210251+9999MW1701REMSYN066AAXX  18031 53276 41762 73207 11117 21138 40321 52025 77077 875//;
0201532760999992000121806004+42400+112890FM-12+115299999V0202701N008010900019N0090001N1-00961-01371103231ADDAA106000791AY171061AY271061GF107991031051017501001021KA1999N-01211MA1999999089121MD1410001+9999MW1701REMSYN088AAXX  18061 53276 11759 72708 11096 21137 38912 40323 54000 69901 77077 83502 333 21121;
0132532760999992000121809004+42400+112890FM-12+115299999V0202701N005012200019N0200001N1-01151-01391103641ADDAY171031GF102991021051017501001021MD1210201+9999MW1001REMSYN066AAXX  18091 53276 41770 22705 11115 21139 40364 52020 70070 82502;
0180532760999992000121812004+42400+112890FM-12+115299999V0201801N003012200019N0300001N1-01581-01791103871ADDAA106000791AY171061GA1001+999999999GF100991001001999999001001MA1999999089391MD1210071+9999MW1001REMSYN072AAXX  18121 53276 11980 01803 11158 21179 38939 40387 52007 69901 70070;
0122532760999992000121815004+42400+112890FM-12+115299999V0201801N004012200019N0300001N1-01621-01811103971ADDGA1001+999999999GF100991001001999999001001MD1210081+9999REMSYN054AAXX  18151 53276 42980 01804 11162 21181 40397 52008;
0167532760999992000121818004+42400+112890FM-12+115299999V0201801N003012200019N0300001N1-01571-01791103791ADDAA199000021GF101991001001999999001021KA1999M-00681MA1999999089381MD1710091+9999REMSYN076AAXX  18181 53276 32980 11803 11157 21179 38938 40379 57009 80002 333 11068;
0133532760999992000121821004+42400+112890FM-12+115299999V0201801N004012200019N0300001N1-01481-01721103661ADDAA124000191GF102991001001999999001021MD1710141+9999REMSYN070AAXX  18211 53276 42980 21804 11148 21172 40366 57014 80002 333 70001;
0166532760999992000121900004+42400+112890FM-12+115299999V0202201N007019999999N0300001N1-00951-01531103401ADDAA124000791GF107991001001999999001021MA1999999089041MD1710201+0201REMSYN088AAXX  19001 53276 32980 72207 11095 21153 38904 40340 57020 80002 333 00202 79999 92501;
0112532760999992000121903004+42400+112890FM-12+115299999V0202001N007010900019N0300001N1-00521-01271103241ADDGF108991011051017501001071MD1710041+9999REMSYN060AAXX  19031 53276 42780 82007 11052 21127 40324 57004 81507;
0209532760999992000121906004+42400+112890FM-12+115299999V0202501N011010900019N0300001N1-00171-01321102821ADDAA199000091GF108991021051017501001071KA1240N-01741MA1999999088741MD1710261+9999OA130601801REMSYN088AAXX  19061 53276 32780 82511 11017 21132 38874 40282 57026 82507 333 21174 91118 91527;EQDQ01  00002PRCP99
0132532760999992000121909004+42400+112890FM-12+115299999V0202201N008010900019N0300001N1-00381-01001102891ADDAY171031GF107991011051017501001021MD1210031+9999MW1001REMSYN066AAXX  19091 53276 41780 72208 11038 21100 40289 52003 70070 81502;
0197532760999992000121912004+42400+112890FM-12+115299999V0202701N008012200019N0300001N1-00571-01531103041ADDAA106000791AY171061GF104991001001999999001021MA1999999088981MD1210211+9999MW1001OA130601901REMSYN094AAXX  19121 53276 11980 42708 11057 21153 38898 40304 52021 69901 70070 80002 333 91119 91527;
0112532760999992000121915004+42400+112890FM-12+115299999V0202701N008012200019N0300001N1-00861-01521103141ADDGF101991001001999999001021MD1210121+9999REMSYN060AAXX  19151 53276 42980 12708 11086 21152 40314 52012 80002;
0196532760999992000121918004+42400+112890FM-12+115299999V0202201N008012200019N0300001N1-01011-01401103021ADDAA199000091GA1001+999999999GF100991001001999999001001KA1999M-00141MA1999999089051MD1710051+9999REMSYN070AAXX  19181 53276 32980 02208 11101 21140 38905 40302 57005 333 11014;EQDQ01  00002PRCP99
0143532760999992000121921004+42400+112890FM-12+115299999V0202201N008012200019N0300001N1-01041-01421103011ADDAA124000791GA1001+999999999GF100991001001999999001001MD1710071+9999REMSYN064AAXX  19211 53276 42980 02208 11104 21142 40301 57007 333 79999;
0170532760999992000122000004+42400+112890FM-12+115299999V0202201N008012200019N0300001N1-01081-01401103051ADDAA124000791GA1001+999999999GF100991001001999999001001MA1999999088961MD1710021-0101REMSYN076AAXX  20001 53276 32980 02208 11108 21140 38896 40305 57002 333 05151 79999;
0122532760999992000122003004+42400+112890FM-12+115299999V0202201N012012200019N0300001N1-00571-01351103021ADDGA1001+999999999GF100991001001999999001001MD1210031+9999REMSYN054AAXX  20031 53276 42980 02212 11057 21135 40302 52003;
0196532760999992000122006004+42400+112890FM-12+115299999V0202501N009012200019N0300001N1-00251-01241102761ADDAA199000091GA1001+999999999GF100991001001999999001001KA1999N-01151MA1999999088801MD1710191+9999REMSYN070AAXX  20061 53276 32980 02509 11025 21124 38880 40276 57019 333 21115;EQDQ01  00002PRCP99
0122532760999992000122009004+42400+112890FM-12+115299999V0202201N005012200019N0300001N1-00331-01171102791ADDGA1001+999999999GF100991001001999999001001MD1410001+9999REMSYN054AAXX  20091 53276 42980 02205 11033 21117 40279 54000;
0173532760999992000122012004+42400+112890FM-12+115299999V0202201N006012200019N0300001N1-00691-01491102831ADDAA199000091GA1001+999999999GF100991001001999999001001MA1999999088741MD1710061+9999REMSYN060AAXX  20121 53276 32980 02206 11069 21149 38874 40283 57006;EQDQ01  00002PRCP99
0122532760999992000122015004+42400+112890FM-12+115299999V0202201N006012200019N0300001N1-00741-01451102571ADDGA1001+999999999GF100991001001999999001001MD1710111+9999REMSYN054AAXX  20151 53276 42980 02206 11074 21145 40257 57011;
0196532760999992000122018004+42400+112890FM-12+115299999V0202201N006012200019N0300001N1-00811-01381102261ADDAA199000091GA1001+999999999GF100991001001999999001001KA1999M-00181MA1999999088421MD1710211+9999REMSYN070AAXX  20181 53276 32980 02206 11081 21138 38842 40226 57021 333 11018;EQDQ01  00002PRCP99
0112532760999992000122021004+42400+112890FM-12+115299999V0202201N007012200019N0300001N1-00631-01281101901ADDGF102991001001999999001021MD1710291+9999REMSYN060AAXX  20211 53276 42980 22207 11063 21128 40190 57029 80002;
0173532760999992000122100004+42400+112890FM-12+115299999V0202201N008019999999N0300001N1-00411-01191101801ADDAA199000091GF106991021001999999031021MA1999999088011MD1710121+0101REMSYN076AAXX  21001 53276 32980 62208 11041 21119 38801 40180 57012 82032 333 06007;EQDQ01  00002PRCP99
0112532760999992000122103004+42400+112890FM-12+115299999V0202701N009010360019N0300001N1-00111-01091101771ADDGF107991011051012501031021MD1210031+9999REMSYN060AAXX  21031 53276 42680 72709 11011 21109 40177 52003 81532;
0209532760999992000122106004+42400+112890FM-12+115299999V0203201N008010900019N0200001N1-00101-01071101501ADDAA199000091GF107991031051012501001021KA1240N-00831MA1999999087801MD1710241+9999OA130601901REMSYN088AAXX  21061 53276 32670 73208 11010 21107 38780 40150 57024 83502 333 21083 91119 91529;EQDQ01  00002PRCP99
0122532760999992000122109004+42400+112890FM-12+115299999V0202701N007012200019N0300001N1-00281-01131101651ADDGA1001+999999999GF100991001001999999001001MD1210131+9999REMSYN054AAXX  21091 53276 42980 02707 11028 21113 40165 52013;
0173532760999992000122112004+42400+112890FM-12+115299999V0202701N007012200019N0300001N1-00611-01251101951ADDAA199000091GA1001+999999999GF100991001001999999001001MA1999999088161MD1210231+9999REMSYN060AAXX  21121 53276 32980 02707 11061 21125 38816 40195 52023;EQDQ01  00002PRCP99
0107532760999992000122115004+42400+112890FM-12+115299999V0201801N005012200019N0300001N1-01051+99999999999ADDGA1001+999999999GF100991001001999999001001REMSYN053AAXX  21151 53276 42980 01805 11105 2152 40215 52014;
0196532760999992000122118004+42400+112890FM-12+115299999V0202901N006012200019N0300001N1-01151-01541102241ADDAA199000091GA1001+999999999GF100991001001999999001001KA1999M-00021MA1999999088361MD1210061+9999REMSYN070AAXX  21181 53276 32980 02906 11115 21154 38836 40224 52006 333 11002;EQDQ01  00002PRCP99
0112532760999992000122121004+42400+112890FM-12+115299999V0201601N002012200019N0300001N1-01481-01751102501ADDGF101991011051017501001001MD1210101+9999REMSYN060AAXX  21211 53276 42780 11602 11148 21175 40250 52010 81500;
0173532760999992000122200004+42400+112890FM-12+115299999V0202201N004012200019N0300001N1-01511-01731102661ADDAA199000091GF102991011051017501001021MA1999999088511MD1210051+0051REMSYN076AAXX  22001 53276 32780 22204 11151 21173 38851 40266 52005 81502 333 00561;EQDQ01  00002PRCP99
0186532760999992000122206004+42400+112890FM-12+115299999V0202701N003019999999N0300001N1-00701-01561102351ADDAA199000091GF107991021001999999031021KA1999N-01561MA1999999088311MD1710201+9999REMSYN076AAXX  22061 53276 32980 72703 11070 21156 38831 40235 57020 82032 333 21156;EQDQ01  00002PRCP99
0112532760999992000122209004+42400+112890FM-12+115299999V0202201N002019999999N0300001N1-00741-01501102481ADDGF107991011001999999031021MD1210021+9999REMSYN060AAXX  22091 53276 42980 72202 11074 21150 40248 52002 81032;
0173532760999992000122212004+42400+112890FM-12+115299999V0202701N004012200019N0300001N1-01181-01571102721ADDAA199000091GA1001+999999999GF100991001001999999001001MA1999999088421MD1210091+9999REMSYN060AAXX  22121 53276 32980 02704 11118 21157 38842 40272 52009;EQDQ01  00002PRCP99
0122532760999992000122215004+42400+112890FM-12+115299999V0202201N007012200019N0300001N1-01211-01671102621ADDGA1001+999999999GF100991001001999999001001MD1210031+9999REMSYN054AAXX  22151 53276 42980 02207 11121 21167 40262 52003;
0196532760999992000122218004+42400+112890FM-12+115299999V0202701N006012200019N0300001N1-01441-01821102631ADDAA199000091GA1001+999999999GF100991001001999999001001KA1999M-00601MA1999999088481MD1210031+9999REMSYN070AAXX  22181 53276 32980 02706 11144 21182 38848 40263 52003 333 11060;EQDQ01  00002PRCP99
0122532760999992000122221004+42400+112890FM-12+115299999V0202901N005012200019N0300001N1-01661-01971102771ADDGA1001+999999999GF100991001001999999001001MD1210051+9999REMSYN054AAXX  22211 53276 42980 02905 11166 21197 40277 52005;
0173532760999992000122300004+42400+112890FM-12+115299999V0202501N004012200019N0300001N1-01891-02151103061ADDAA199000091GF101991011001999999031001MA1999999088611MD1210081+0011REMSYN076AAXX  23001 53276 32980 12504 11189 21215 38861 40306 52008 81030 333 00154;EQDQ01  00002PRCP99
0112532760999992000122303004+42400+112890FM-12+115299999V0202501N004012200019N0300001N1-01331-01731102951ADDGF101991011001999999031021MD1210041+9999REMSYN060AAXX  23031 53276 42980 12504 11133 21173 40295 52004 81032;
0186532760999992000122306004+42400+112890FM-12+115299999V0202501N005019999999N0300001N1-00871-02221102531ADDAA199000091GF106991011001999999031021KA1999N-01901MA1999999088351MD1710301+9999REMSYN076AAXX  23061 53276 32980 62505 11087 21222 38835 40253 57030 81032 333 21190;EQDQ01  00002PRCP99
0112532760999992000122309004+42400+112890FM-12+115299999V0200201N003019999999N0300001N1-00931-02071102531ADDGF107991051001999999031021MD1710071+9999REMSYN060AAXX  23091 53276 42980 70203 11093 21207 40253 57007 85032;
0163532760999992000122312004+42400+112890FM-12+115299999V0201101N002019999999N0300001N1-01161-01961102581ADDAA199000091GF107991001001999999001021MA1999999088201MD1710081+9999REMSYN066AAXX  23121 53276 32980 71102 11116 21196 38820 40258 57008 80002;EQDQ01  00002PRCP99
0132532760999992000122315004+42400+112890FM-12+115299999V0200401N003019999999N0150001N1-01261-01611102361ADDAY171031GF108991081001999999011999MD1710071+9999MW1701REMSYN066AAXX  23151 53276 41965 80403 11126 21161 40236 57007 77070 8801/;
0193532760999992000122318004+42400+112890FM-12+115299999V0200201N003019999999N0080001N1-01351-01491102261ADDAA106000591AY171061GF108991081001999999021999KA1999M-00751MA1999999088141MD1210011+9999MW1711REMSYN088AAXX  23181 53276 11958 80203 11135 21149 38814 40226 52001 69941 77170 8802/ 333 11075;
0161532760999992000122321004+42400+112890FM-12+115299999V0202701N002019999999N0080001N1-01491-01631102581ADDAA124000591AY171031AY271031GF108991081001999999021999MD1210221+9999MW1711REMSYN076AAXX  23211 53276 41958 82702 11149 21163 40258 52022 77177 8802/ 333 70006;
0200532760999992000122400004+42400+112890FM-12+115299999V0202901N007019999999N0100001N1-01401-01541102801ADDAA106000591AY171061AY271061GF108991081001999999011999MA1999999088521MD1210161-0101MW1711REMSYN100AAXX  24001 53276 11960 82907 11140 21154 38852 40280 52016 69961 77177 8801/ 333 05105 70010 92503;
0132532760999992000122403004+42400+112890FM-12+115299999V0202701N003010360019N0300001N1-01381-01591103021ADDAY171031GF107991021051012501031021MD1210171+9999MW1001REMSYN066AAXX  24031 53276 41680 72703 11138 21159 40302 52017 70070 82532;
0193532760999992000122406004+42400+112890FM-12+115299999V0202901N007019999999N0180001N1-01201-01441102901ADDAA106000191AY171061GF107991021001999999031021KA1999N-01511MA1999999088611MD1710081+9999MW1221REMSYN088AAXX  24061 53276 11968 72907 11120 21144 38861 40290 57008 69911 72270 82032 333 21151;
0112532760999992000122409004+42400+112890FM-12+115299999V0202701N004019999999N0300001N1-01341-01611103091ADDGF105991021001999999031021MD1210091+9999REMSYN060AAXX  24091 53276 42980 52704 11134 21161 40309 52009 82032;
0170532760999992000122412004+42400+112890FM-12+115299999V0202701N001010900019N0300001N1-01491-01671103331ADDAA106000791AY171061GF107991021051012501001021MA1999999088891MD1210191+9999MW1701REMSYN078AAXX  24121 53276 11680 72701 11149 21167 38889 40333 52019 69901 77070 82502;
0140532760999992000122415004+42400+112890FM-12+115299999V0201801N002012200019N0300001N1-01911-02061103581ADDAY171031AY271031GF101991001001999999001021MD1210111+9999MW1221REMSYN066AAXX  24151 53276 41980 11802 11191 21206 40358 52011 72277 80002;
0203532760999992000122418004+42400+112890FM-12+115299999V0202201N004012200019N0300001N1-02151-02311103691ADDAA106000791AY171061GA1001+999999999GF100991001001999999001001KA1999M-01161MA1999999089081MD1210081+9999MW1001REMSYN082AAXX  24181 53276 11980 02204 11215 21231 38908 40369 52008 69901 70070 333 11116;
0143532760999992000122421004+42400+112890FM-12+115299999V0202501N003012200019N0300001N1-02201-02361103841ADDAA124000591GA1001+999999999GF100991001001999999001001MD1210081+9999REMSYN064AAXX  24211 53276 42980 02503 11220 21236 40384 52008 333 70005;
0169532760999992000122500004+42400+112890FM-12+115299999V0202501N005012200019N0300001N1-01911-02101999999ADDAA199000021GA1001+999999999GF100991001001999999001001MA1999999089251MD1999999+0701REMSYN075AAXX  25001 53276 32980 02505 11191 21210 38925 4390 52009 333 00755 70001;
0122532760999992000122503004+42400+112890FM-12+115299999V0202201N006012200019N0300001N1-01671-01901104101ADDGA1001+999999999GF100991001001999999001001MD1210121+9999REMSYN054AAXX  25031 53276 42980 02206 11167 21190 40410 52012;
0196532760999992000122506004+42400+112890FM-12+115299999V0202901N004012200019N0300001N1-01091-01431103871ADDAA199000091GA1001+999999999GF100991001001999999001001KA1999N-02221MA1999999089261MD1710111+9999REMSYN070AAXX  25061 53276 32980 02904 11109 21143 38926 40387 57011 333 21222;EQDQ01  00002PRCP99
0112532760999992000122509004+42400+112890FM-12+115299999V0202201N002019999999N0300001N1-01281-01771103961ADDGF107991001001999999001021MD1210021+9999REMSYN060AAXX  25091 53276 42980 72202 11128 21177 40396 52002 80002;
0163532760999992000122512004+42400+112890FM-12+115299999V0201801N005012200019N0300001N1-01401-01951103821ADDAA199000091GF101991001001999999001021MA1999999089201MD1710081+9999REMSYN066AAXX  25121 53276 32980 11805 11140 21195 38920 40382 57008 80002;EQDQ01  00002PRCP99
0122532760999992000122515004+42400+112890FM-12+115299999V0201801N006012200019N0300001N1-01521-02061103581ADDGA1001+999999999GF100991001001999999001001MD1710171+9999REMSYN054AAXX  25151 53276 42980 01806 11152 21206 40358 57017;
0196532760999992000122518004+42400+112890FM-12+115299999V0201801N005012200019N0300001N1-01231-01831103161ADDAA199000091GA1001+999999999GF100991001001999999001001KA1999M-00981MA1999999088891MD1710141+9999REMSYN070AAXX  25181 53276 32980 01805 11123 21183 38889 40316 57014 333 11098;EQDQ01  00002PRCP99
0112532760999992000122521004+42400+112890FM-12+115299999V0201801N005012200019N0300001N1-00911-01471102851ADDGF102991001001999999001021MD1710241+9999REMSYN060AAXX  25211 53276 42980 21805 11091 21147 40285 57024 80002;
0173532760999992000122600004+42400+112890FM-12+115299999V0201801N007010360019N0300001N1-00631-01331102561ADDAA199000091GF107991011051012501031021MA1999999088441MD1710211+0081REMSYN076AAXX  26001 53276 32680 71807 11063 21133 38844 40256 57021 81532 333 05813;EQDQ01  00002PRCP99
0112532760999992000122603004+42400+112890FM-12+115299999V0202501N007019999999N0300001N1-00231-00831102501ADDGF107991031001999999031021MD1210021+9999REMSYN060AAXX  26031 53276 42980 72507 11023 21083 40250 52002 83032;
0193532760999992000122606004+42400+112890FM-12+115299999V0202701N012010360019N0300001N1-00351-00751102421ADDAA106000791AY171061GF107991041051012501031021KA1999N-01591MA1999999088431MD1710031+9999MW1001REMSYN088AAXX  26061 53276 11680 72712 11035 21075 38843 40242 57003 69901 70070 84532 333 21159;
0124532760999992000122609004+42400+112890FM-12+115299999V0202901N006010120019N0200001N1-00751-01101102901ADDGF107991051051012501031021MD1210401+9999MW1701REMSYN066AAXX  26091 53276 41670 72906 11075 21110 40290 52040 77000 85532;
0170532760999992000122612004+42400+112890FM-12+115299999V0202901N006010120019N0200001N1-01071-01451103291ADDAA106000791AY171061GF108991061051012501001021MA1999999089151MD1210321+9999MW1701REMSYN078AAXX  26121 53276 11670 82906 11107 21145 38915 40329 52032 69901 77070 86502;
0132532760999992000122615004+42400+112890FM-12+115299999V0202901N007010900019N0200001N1-01421-01781103531ADDAY171031GF107991031051012501001021MD1210221+9999MW1001REMSYN066AAXX  26151 53276 41670 72907 11142 21178 40353 52022 70070 83502;
0193532760999992000122618004+42400+112890FM-12+115299999V0202501N006012200019N0250001N1-01621-01961103771ADDAA106000791AY171061GF102991001001999999001021KA1999M-00151MA1999999089501MD1210131+9999MW1001REMSYN088AAXX  26181 53276 11975 22506 11162 21196 38950 40377 52013 69901 70070 80002 333 11015;
0153532760999992000122621004+42400+112890FM-12+115299999V0202201N005012200019N0300001N1-01731-02041103991ADDAA124000791AY171031GF101991011051012501001021MD1210061+9999MW1221REMSYN076AAXX  26211 53276 41680 12205 11173 21204 40399 52006 72270 81502 333 79999;
0186532760999992000122700004+42400+112890FM-12+115299999V0202701N006010120019N0300001N1-01641-01951104161ADDAA106000791AY171061GF107991051051012501001021MA1999999089651MD1210091+1201MW1701REMSYN094AAXX  27001 53276 11680 72706 11164 21195 38965 40416 52009 69901 77070 85502 333 01260 79999;
0140532760999992000122703004+42400+112890FM-12+115299999V0202501N005012200019N0250001N1-01351-01731104291ADDAY171031AY271031GF102991021001999999031001MD1210101+9999MW1701REMSYN066AAXX  27031 53276 41975 22505 11135 21173 40429 52010 77077 82030;
0193532760999992000122706004+42400+112890FM-12+115299999V0202501N007012200019N0300001N1-01151-01591104121ADDAA106000791AY171061GF101991011001999999031001KA1999N-01731MA1999999089601MD1710151+9999MW1221REMSYN088AAXX  27061 53276 11980 12507 11115 21159 38960 40412 57015 69901 72270 81030 333 21173;
0122532760999992000122709004+42400+112890FM-12+115299999V0202501N002012200019N0300001N1-01161-01641104131ADDGA1001+999999999GF100991001001999999001001MD1710021+9999REMSYN054AAXX  27091 53276 42980 02502 11116 21164 40413 57002;
0154532760999992000122712004+42400+112890FM-12+115299999V0202201N004012200019N0300001N1-01421-01841104141ADDAA199000021GA1001+999999999GF100991001001999999001001MA1999999089541MD1710041+9999REMSYN060AAXX  27121 53276 32980 02204 11142 21184 38954 40414 57004;
0122532760999992000122715004+42400+112890FM-12+115299999V0202001N005012200019N0300001N1-01351-01821103921ADDGA1001+999999999GF100991001001999999001001MD1710091+9999REMSYN054AAXX  27151 53276 42980 02005 11135 21182 40392 57009;
0177532760999992000122718004+42400+112890FM-12+115299999V0201801N003012200019N0300001N1-01631-02091103721ADDAA199000021GA1001+999999999GF100991001001999999001001KA1999M-01061MA1999999089251MD1710201+9999REMSYN070AAXX  27181 53276 32980 01803 11163 21209 38925 40372 57020 333 11106;
0143532760999992000122721004+42400+112890FM-12+115299999V0202201N002012200019N0300001N1-01671-02241103501ADDAA124000791GA1001+999999999GF100991001001999999001001MD1710201+9999REMSYN064AAXX  27211 53276 42980 02202 11167 21224 40350 57020 333 79999;
0160532760999992000122800004+42400+112890FM-12+115299999V0202001N007010900019N0300001N1-01341-01971103251ADDAA124000791GF106991011051017501001021MA1999999088851MD1710201-0801REMSYN082AAXX  28001 53276 32780 62007 11134 21197 38885 40325 57020 81502 333 05803 79999;
0112532760999992000122803004+42400+112890FM-12+115299999V0202201N007010900019N0300001N1-00541-01301102851ADDGF107991011051017501001021MD1710121+9999REMSYN060AAXX  28031 53276 42780 72207 11054 21130 40285 57012 81502;
0186532760999992000122806004+42400+112890FM-12+115299999V0201801N004019999999N0300001N1-00111-01001102531ADDAA199000091GF107991011001999999031021KA1999N-01731MA1999999088491MD1710241+9999REMSYN076AAXX  28061 53276 32980 71804 11011 21100 38849 40253 57024 81032 333 21173;EQDQ01  00002PRCP99
0112532760999992000122809004+42400+112890FM-12+115299999V0202501N004019999999N0300001N1-00291-00871102581ADDGF107991051001999999031021MD1710011+9999REMSYN060AAXX  28091 53276 42980 72504 11029 21087 40258 57001 85032;
0163532760999992000122812004+42400+112890FM-12+115299999V0202501N006012200019N0300001N1-00811-01171102771ADDAA199000091GF101991001001999999001021MA1999999088591MD1210111+9999REMSYN066AAXX  28121 53276 32980 12506 11081 21117 38859 40277 52011 80002;EQDQ01  00002PRCP99
0122532760999992000122815004+42400+112890FM-12+115299999V0202901N005012200019N0300001N1-01061-01451102711ADDGA1001+999999999GF100991001001999999001001MD1210091+9999REMSYN054AAXX  28151 53276 42980 02905 11106 21145 40271 52009;
0196532760999992000122818004+42400+112890FM-12+115299999V0202001N002012200019N0300001N1-01371-01741102681ADDAA199000091GA1001+999999999GF100991001001999999001001KA1999M-00081MA1999999088681MD1410001+9999REMSYN070AAXX  28181 53276 32980 02002 11137 21174 38868 40268 54000 333 11008;EQDQ01  00002PRCP99
0122532760999992000122821004+42400+112890FM-12+115299999V0201801N006012200019N0300001N1-00961-01481102461ADDGA1001+999999999GF100991001001999999001001MD1710131+9999REMSYN054AAXX  28211 53276 42980 01806 11096 21148 40246 57013;
0173532760999992000122900004+42400+112890FM-12+115299999V0202001N006012200019N0300001N1-01161-01701102541ADDAA199000091GF101991001001999999001021MA1999999088441MD1710111+0041REMSYN076AAXX  29001 53276 32980 12006 11116 21170 38844 40254 57011 80002 333 05402;EQDQ01  00002PRCP99
0112532760999992000122903004+42400+112890FM-12+115299999V0202001N006012200019N0300001N1-00471-01241102291ADDGF102991011001999999031021MD1710111+9999REMSYN060AAXX  29031 53276 42980 22006 11047 21124 40229 57011 81032;
0186532760999992000122906004+42400+112890FM-12+115299999V0202201N010012200019N0300001N1+00071-00701101871ADDAA199000091GF102991011011012501001021KA1999N-01421MA1999999088021MD1710311+9999REMSYN076AAXX  29061 53276 32680 22210 10007 21070 38802 40187 57031 81102 333 21142;EQDQ01  00002PRCP99
0124532760999992000122909004+42400+112890FM-12+115299999V0202201N010012200019N0050001N1-00211-00711101761ADDGF102991001001999999001021MD1710061+9999MW1071REMSYN066AAXX  29091 53276 41950 22210 11021 21071 40176 57006 70700 80002;
0212532760999992000122912004+42400+112890FM-12+115299999V0202201N013012200019N0090001N1-00401-00941102031ADDAA199000091GA1001+999999999GF100991001001999999001001MA1999999088101MD1210141+9999MW1071OA130601901REMSYN082AAXX  29121 53276 31959 02213 11040 21094 38810 40203 52014 70700 333 91119 91522;EQDQ01  00002PRCP99
0112532760999992000122915004+42400+112890FM-12+115299999V0202701N010012200019N0150001N1-00641-01191102181ADDGF101991001001999999001021MD1210241+9999REMSYN060AAXX  29151 53276 42965 12710 11064 21119 40218 52024 80002;
0219532760999992000122918004+42400+112890FM-12+115299999V0202701N010012200019N0250001N1-00891-01441102301ADDAA199000091GA1001+999999999GF100991001001999999001001KA1240M+00111MA1999999088511MD1210171+9999OA130601901REMSYN082AAXX  29181 53276 32975 02710 11089 21144 38851 40230 52017 333 10011 91119 91525;EQDQ01  00002PRCP99
0122532760999992000122921004+42400+112890FM-12+115299999V0202901N006012200019N0300001N1-01291-01781102681ADDGA1001+999999999GF100991001001999999001001MD1210171+9999REMSYN054AAXX  29211 53276 42980 02906 11129 21178 40268 52017;
0173532760999992000123000004+42400+112890FM-12+115299999V0202701N004010120019N0300001N1-01421-01891103051ADDAA199000091GF107991061051012501001021MA1999999088921MD1210241+0051REMSYN076AAXX  30001 53276 32680 72704 11142 21189 38892 40305 52024 86502 333 00553;EQDQ01  00002PRCP99
0132532760999992000123003004+42400+112890FM-12+115299999V0202701N005019999999N0300001N1-01151-01711103291ADDAY171031GF105991021001999999031021MD1210211+9999MW1001REMSYN066AAXX  30031 53276 41980 52705 11115 21171 40329 52021 70070 82032;
0203532760999992000123006004+42400+112890FM-12+115299999V0202901N006012200019N0300001N1-00871-01591103091ADDAA106000791AY171061GA1001+999999999GF100991001001999999001001KA1999N-01511MA1999999088971MD1710161+9999MW1001REMSYN082AAXX  30061 53276 11980 02906 11087 21159 38897 40309 57016 69901 70070 333 21151;
0122532760999992000123009004+42400+112890FM-12+115299999V0202701N004012200019N0300001N1-00911-01591103281ADDGA1001+999999999GF100991001001999999001001MD1210051+9999REMSYN054AAXX  30091 53276 42980 02704 11091 21159 40328 52005;
0173532760999992000123012004+42400+112890FM-12+115299999V0202701N005012200019N0300001N1-01281-01961103521ADDAA199000091GA1001+999999999GF100991001001999999001001MA1999999089101MD1210081+9999REMSYN060AAXX  30121 53276 32980 02705 11128 21196 38910 40352 52008;EQDQ01  00002PRCP99
0122532760999992000123015004+42400+112890FM-12+115299999V0202201N005012200019N0300001N1-01601-02181103521ADDGA1001+999999999GF100991001001999999001001MD1710011+9999REMSYN054AAXX  30151 53276 42980 02205 11160 21218 40352 57001;
0196532760999992000123018004+42400+112890FM-12+115299999V0202201N005012200019N0300001N1-01581-02221103331ADDAA199000091GA1001+999999999GF100991001001999999001001KA1999M-00761MA1999999089001MD1710091+9999REMSYN070AAXX  30181 53276 32980 02205 11158 21222 38900 40333 57009 333 11076;EQDQ01  00002PRCP99
0143532760999992000123021004+42400+112890FM-12+115299999V0201601N003012200019N0300001N1-01581-02281103071ADDAA124000791GA1001+999999999GF100991001001999999001001MD1710231+9999REMSYN064AAXX  30211 53276 42980 01603 11158 21228 40307 57023 333 79999;
0160532760999992000123100004+42400+112890FM-12+115299999V0202001N006012200019N0300001N1-01541-02221102941ADDAA124000791GF101991011001999999031001MA1999999088571MD1710201-0401REMSYN082AAXX  31001 53276 32980 12006 11154 21222 38857 40294 57020 81030 333 05451 79999;
0112532760999992000123103004+42400+112890FM-12+115299999V0202001N006012200019N0300001N1-00551-01551102441ADDGF101991001001999999001021MD1710261+9999REMSYN060AAXX  31031 53276 42980 12006 11055 21155 40244 57026 80002;
0186532760999992000123106004+42400+112890FM-12+115299999V0202201N009019999999N0300001N1+00031-00891101701ADDAA199000091GF107991011001999999031021KA1999N-01691MA1999999087821MD1710491+9999REMSYN076AAXX  31061 53276 32980 72209 10003 21089 38782 40170 57049 81032 333 21169;EQDQ01  00002PRCP99
0112532760999992000123109004+42400+112890FM-12+115299999V0202201N007010360019N0300001N1-00131-00881101501ADDGF107991011051012501031021MD1710211+9999REMSYN060AAXX  31091 53276 42680 72207 11013 21088 40150 57021 81532;
0190532760999992000123112004+42400+112890FM-12+115299999V0202501N011019999999N0300001N1-00381-00951101491ADDAA199000091GF107991001001999999001021MA1999999087551MD1710061+9999OA130601801REMSYN082AAXX  31121 53276 32980 72511 11038 21095 38755 40149 57006 80002 333 91118 91525;EQDQ01  00002PRCP99
0124532760999992000123115004+42400+112890FM-12+115299999V0202501N012019999999N0070001N1-00541-01401101171ADDGF106991001001999999001021MD1710081+9999MW1221REMSYN066AAXX  31151 53276 41957 62512 11054 21140 40117 57008 72200 80002;
0216532760999992000123118004+42400+112890FM-12+115299999V0202501N015012200019N0020001N1-00561-01691100701ADDAA106000791AY171061GF102991001001999999001021KA1240M+00101MA1999999087191MD1710281+9999MW1071OA130602701REMSYN100AAXX  31181 53276 11920 22515 11056 21169 38719 40070 57028 69901 70770 80002 333 10010 91127 91525;
0163532760999992000123121004+42400+112890FM-12+115299999V0202901N015010003019N0003001N1-01211-01941101161ADDAA124000791AY131031GA1091+999999999GF109991091999999999999999MD1210211+9999MW1351REMSYN070AAXX  31211 53276 41/03 92915 11121 21194 40116 52021 73530 333 79999;
