0213576330999992000010100004+28830+108770FM-12+066599999V0209999C000012200019N0070001N1+00631+00501102201ADDAA106000091GA1001+999999999GF100991001001999999001001IA2999+00109MA1999999094311MD1210161+0301MW1101REMSYN082AAXX  01001 57633 31957 00000 10063 20050 39431 40220 52016 71000 333 00300 30019;EQDQ01  00002PRCP06
0122576330999992000010103004+28830+108770FM-12+066599999V0209999C000012200019N0100001N1+01111+00661102231ADDGA1001+999999999GF100991001001999999001001MD1210081+9999REMSYN054AAXX  01031 57633 42960 00000 10111 20066 40223 52008;
0202576330999992000010106004+28830+108770FM-12+066599999V0201401N003012200019N0150001N1+01751+00661101791ADDAA106000091GA1001+999999999GF100991001001999999001001KA1999N+00561MA1999999094051MD1710341+0301REMSYN076AAXX  01061 57633 32965 01403 10175 20066 39405 40179 57034 333 00304 20056;EQDQ01  00002PRCP06
0132576330999992000010109004+28830+108770FM-12+066599999V0201601N001012200019N0150001N1+01761+00721101731ADDGA1001+999999999GF100991001001999999001001MD1710061+0021REMSYN064AAXX  01091 57633 42965 01601 10176 20072 40173 57006 333 00205;
0183576330999992000010112004+28830+108770FM-12+066599999V0209999C000012200019N0120001N1+01071+00701102201ADDAA106000091GA1001+999999999GF100991001001999999001001MA1999999094311MD1210321+0031REMSYN070AAXX  01121 57633 32962 00000 10107 20070 39431 40220 52032 333 00300;EQDQ01  00002PRCP06
0122576330999992000010115004+28830+108770FM-12+066599999V0209999C000012200019N0100001N1+00741+00591102391ADDGA1001+999999999GF100991001001999999001001MD1210201+9999REMSYN054AAXX  01151 57633 42960 00000 10074 20059 40239 52020;
0214576330999992000010118004+28830+108770FM-12+066599999V0209999C000012200019N0050001N1+00571+00481102411ADDAA106000091GA1001+999999999GF100991001001999999001001KA1999M+01871MA1999999094591MD1210081+0401MW1101REMSYN082AAXX  01181 57633 31950 00000 10057 20048 39459 40241 52008 71000 333 00453 10187;EQDQ01  00002PRCP06
0144576330999992000010121004+28830+108770FM-12+066599999V0209999C000012200019N0050001N1+00511+00441102431ADDGA1001+999999999GF100991001001999999001001MD1210011+0051MW1101REMSYN070AAXX  01211 57633 41950 00000 10051 20044 40243 52001 71000 333 00553;
0203576330999992000010200004+28830+108770FM-12+066599999V0209999C000019999999N0090001N1+00371+00321102641ADDAA106000091GF107991071001999999041999IA2999-00109MA1999999094681MD1210081+0401MW1101REMSYN088AAXX  02001 57633 31959 70000 10037 20032 39468 40264 52008 71000 8704/ 333 00453 31016;EQDQ01  00002PRCP06
0134576330999992000010203004+28830+108770FM-12+066599999V0209999C000012200019N0080001N1+01021+00651102631ADDGA1001+999999999GF100991001001999999001001MD1210041+9999MW1101REMSYN060AAXX  02031 57633 41958 00000 10102 20065 40263 52004 71000;
0202576330999992000010206004+28830+108770FM-12+066599999V0201801N001012200019N0150001N1+01701+00031102021ADDAA106000091GA1001+999999999GF100991001001999999001001KA1999N+00331MA1999999094221MD1710501+0201REMSYN076AAXX  02061 57633 32965 01801 10170 20003 39422 40202 57050 333 00251 20033;EQDQ01  00002PRCP06
0132576330999992000010209004+28830+108770FM-12+066599999V0201101N002012200019N0150001N1+01561+00251101831ADDGA1001+999999999GF100991001001999999001001MD1710201+0001REMSYN064AAXX  02091 57633 42965 01102 10156 20025 40183 57020 333 00052;
0183576330999992000010212004+28830+108770FM-12+066599999V0209999C000012200019N0120001N1+00941+00371102001ADDAA106000091GA1001+999999999GF100991001001999999001001MA1999999094071MD1210051+0021REMSYN070AAXX  02121 57633 32962 00000 10094 20037 39407 40200 52005 333 05251;EQDQ01  00002PRCP06
0122576330999992000010215004+28830+108770FM-12+066599999V0209999C000012200019N0100001N1+00661+00411101921ADDGA1001+999999999GF100991001001999999001001MD1710021+9999REMSYN054AAXX  02151 57633 42960 00000 10066 20041 40192 57002;
0192576330999992000010218004+28830+108770FM-12+066599999V0209999C000010210019N0100001N1+00671+00401101751ADDAA106000091GF107991071001022501041999KA1999M+01781MA1999999093981MD1710071-0601REMSYN082AAXX  02181 57633 32860 70000 10067 20040 39398 40175 57007 8704/ 333 05601 10178;EQDQ01  00002PRCP06
0122576330999992000010221004+28830+108770FM-12+066599999V0209999C000019999999N0100001N1+00711+00491101661ADDGF106991061001999999041001MD1710091+0071REMSYN070AAXX  02211 57633 42960 60000 10071 20049 40166 57009 86040 333 05702;
0203576330999992000010300004+28830+108770FM-12+066599999V0209999C000019999999N0070001N1+00721+00521101841ADDAA106000091GF108991081001999999071999IA2999+00109MA1999999093971MD1210081-0701MW1101REMSYN088AAXX  03001 57633 31957 80000 10072 20052 39397 40184 52008 71000 8807/ 333 05704 30018;EQDQ01  00002PRCP06
0112576330999992000010303004+28830+108770FM-12+066599999V0202001N001012200019N0120001N1+01341+00491101811ADDGF102991021001999999041001MD1210021+9999REMSYN060AAXX  03031 57633 42962 22001 10134 20049 40181 52002 82040;
0192576330999992000010306004+28830+108770FM-12+066599999V0201601N003012200019N0120001N1+01831+00751101351ADDAA106000091GF101991011011008001001001KA1999N+00571MA1999999093631MD1710361-0601REMSYN082AAXX  03061 57633 32562 11603 10183 20075 39363 40135 57036 81100 333 05601 20057;EQDQ01  00002PRCP06
0132576330999992000010309004+28830+108770FM-12+066599999V0209999C000012200019N0120001N1+01881+00931101131ADDGA1001+999999999GF100991001001999999001001MD1710191+0061REMSYN064AAXX  03091 57633 42962 00000 10188 20093 40113 57019 333 05603;
0173576330999992000010312004+28830+108770FM-12+066599999V0209999C000019999999N0100001N1+02261+00771101331ADDAA106000091GF107991071001999999041999MA1999999093551MD1210111+0051REMSYN076AAXX  03121 57633 32960 70000 10226 20077 39355 40133 52011 8704/ 333 05503;EQDQ01  00002PRCP06
0124576330999992000010315004+28830+108770FM-12+066599999V0209999C000019999999N0090001N1+01161+00851101301ADDGF108991081001999999071999MD1210041+9999MW1101REMSYN066AAXX  03151 57633 41959 80000 10116 20085 40130 52004 71000 8807/;
0204576330999992000010318004+28830+108770FM-12+066599999V0209999C000019999999N0080001N1+01001+00781101221ADDAA106000091GF108991081001999999071999KA1999M+01951MA1999999093551MD1710041-0401MW1101REMSYN088AAXX  03181 57633 31958 80000 10100 20078 39355 40122 57004 71000 8807/ 333 05403 10195;EQDQ01  00002PRCP06
0134576330999992000010321004+28830+108770FM-12+066599999V0209999C000019999999N0080001N1+01051+00811101071ADDGF108991081001999999071999MD1710121+0051MW1101REMSYN076AAXX  03211 57633 41958 80000 10105 20081 40107 57012 71000 8807/ 333 05503;
0185576330999992000010400004+28830+108770FM-12+066599999V0209999C000019999999N0070001N1+01101+00851101191ADDAA106000091GF108991081001999999071999MA1999999093471MD1210041+0051MW1101REMSYN082AAXX  04001 57633 31957 80000 10110 20085 39347 40119 52004 71000 8807/ 333 05504;EQDQ01  00002PRCP06
0112576330999992000010403004+28830+108770FM-12+066599999V0203601N001019999999N0100001N1+01461+00851101211ADDGF108991081001999999071999MD1210051+9999REMSYN060AAXX  04031 57633 42960 83601 10146 20085 40121 52005 8807/;
0192576330999992000010406004+28830+108770FM-12+066599999V0209999C000012200019N0150001N1+01891+00921100851ADDAA106000091GF104991021001999999041021KA1999N+00951MA1999999093221MD1710301-0401REMSYN082AAXX  04061 57633 32965 40000 10189 20092 39322 40085 57030 82042 333 05401 20095;EQDQ01  00002PRCP06
0122576330999992000010409004+28830+108770FM-12+066599999V0203601N001019999999N0150001N1+01671+00891100901ADDGF107991071001999999041999MD1210021+0021REMSYN070AAXX  04091 57633 42965 73601 10167 20089 40090 52002 8704/ 333 05252;
0173576330999992000010412004+28830+108770FM-12+066599999V0209999C000010210019N0120001N1+01291+00871101161ADDAA106000091GF106991061001022501041001MA1999999093441MD1210201+0011REMSYN076AAXX  04121 57633 32862 60000 10129 20087 39344 40116 52020 86040 333 05100;EQDQ01  00002PRCP06
0112576330999992000010415004+28830+108770FM-12+066599999V0209999C000012200019N0100001N1+01021+00821101311ADDGF102991021001022501041001MD1210151+9999REMSYN060AAXX  04151 57633 42860 20000 10102 20082 40131 52015 82040;
0204576330999992000010418004+28830+108770FM-12+066599999V0209999C000010210019N0070001N1+00961+00841101201ADDAA106000091GF107991071001022501041999KA1999M+01931MA1999999093541MD1710051+0001MW1101REMSYN088AAXX  04181 57633 31857 70000 10096 20084 39354 40120 57005 71000 8704/ 333 00000 10193;EQDQ01  00002PRCP06
0134576330999992000010421004+28830+108770FM-12+066599999V0209999C000010210019N0070001N1+01031+00871101111ADDGF108991081001022501071999MD1710101+0001MW1101REMSYN076AAXX  04211 57633 41857 80000 10103 20087 40111 57010 71000 8807/ 333 00000;
0173576330999992000010500004+28830+108770FM-12+066599999V0209999C000019999999N0100001N1+01071+00901101231ADDAA106000091GF108991081001999999071999MA1999999093501MD1210061+0001REMSYN076AAXX  05001 57633 32960 80000 10107 20090 39350 40123 52006 8807/ 333 00000;EQDQ01  00002PRCP06
0112576330999992000010503004+28830+108770FM-12+066599999V0203601N002019999999N0100001N1+01361+00901101381ADDGF108991081001999999071999MD1210141+9999REMSYN060AAXX  05031 57633 42960 83602 10136 20090 40138 52014 8807/;
0192576330999992000010506004+28830+108770FM-12+066599999V0209999C000019999999N0100001N1+01581+00991101031ADDAA106000091GF107991071001999999041999KA1999N+00901MA1999999093341MD1710301+0101REMSYN082AAXX  05061 57633 32960 70000 10158 20099 39334 40103 57030 8704/ 333 00153 20090;EQDQ01  00002PRCP06
0144576330999992000010509004+28830+108770FM-12+066599999V0200401N002012200019N0080001N1+01501+01001100981ADDGA1001+999999999GF100991001001999999001001MD1710051+0011MW1051REMSYN070AAXX  05091 57633 41958 00402 10150 20100 40098 57005 70500 333 00152;
0185576330999992000010512004+28830+108770FM-12+066599999V0203601N001019999999N0070001N1+01321+00961101271ADDAA106000091GF108991081001999999071999MA1999999093541MD1210251+0011MW1101REMSYN082AAXX  05121 57633 31957 83601 10132 20096 39354 40127 52025 71000 8807/ 333 00100;EQDQ01  00002PRCP06
0124576330999992000010515004+28830+108770FM-12+066599999V0201801N001010210019N0070001N1+01261+01001101491ADDGF108991081001022501071999MD1210241+9999MW1101REMSYN066AAXX  05151 57633 41857 81801 10126 20100 40149 52024 71000 8807/;
0199576330999992000010518004+28830+108770FM-12+066599999V0200401N001010210019N0060001N1+01011+00811101741ADDAA106000791AY161061GF108991081001022501071999KA1999M+01711MA1999999094001MD1210221+0501MW1601REMSYN094AAXX  05181 57633 11856 80401 10101 20081 39400 40174 52022 69901 76060 8807/ 333 00501 10171;
0167576330999992000010521004+28830+108770FM-12+066599999V0201101N003010210019N0070001N1+00691+00471101921ADDAA124000791AY161031AY261031GF108991081001022501071999MD1210121+0701MW1601REMSYN082AAXX  05211 57633 41857 81103 10069 20047 40192 52012 76066 8807/ 333 00753 79999;
0132576330999992000010603004+28830+108770FM-12+066599999V0209999C000010360019N0090001N1+00621+00271102511ADDAY161031GF108991011071004501071999MD1210251+9999MW1601REMSYN066AAXX  06031 57633 41459 80000 10062 20027 40251 52025 76060 8177/;
0207576330999992000010606004+28830+108770FM-12+066599999V0209999C000010360019N0100001N1+00571+00131102391ADDAA106000591AY171061AY261061GF108991011071004501021999KA1999N+00521MA1999999094471MD1710151+1101MW1601REMSYN094AAXX  06061 57633 11460 80000 10057 20013 39447 40239 57015 69961 76076 8172/ 333 01160 20052;
0142576330999992000010609004+28830+108770FM-12+066599999V0209999C000010360019N0120001N1+00601+00061102441ADDAY161031GF108991031011008001021999MD1210011+0121MW1001REMSYN076AAXX  06091 57633 41562 80000 10060 20006 40244 52001 70060 8312/ 333 01259;
0180576330999992000010612004+28830+108770FM-12+066599999V0209999C000019999999N0100001N1+00581+00001102571ADDAA106000391AY161061GF108991081001999999021999MA1999999094581MD1210101+0101MW1001REMSYN088AAXX  06121 57633 11960 80000 10058 20000 39458 40257 52010 69931 70060 8802/ 333 01057;
0112576330999992000010615004+28830+108770FM-12+066599999V0209999C000010150019N0120001N1+00581+00091102641ADDGF108991081051017501999999MD1210071+9999REMSYN060AAXX  06151 57633 42762 80000 10058 20009 40264 52007 885//;
0163576330999992000010618004+28830+108770FM-12+066599999V0209999C000010150019N0150001N1+00531+00001102501ADDAA106000091GF107991071051017501999999MA1999999094511MD1710141+9999REMSYN066AAXX  06181 57633 32765 70000 10053 20000 39451 40250 57014 875//;EQDQ01  00002PRCP06
0139576330999992000010621004+28830+108770FM-12+066599999V0209999C000010150019N0120001N1+00531+00031102251ADDAA124001091GF108991081051017501999999MD1710231+0201REMSYN076AAXX  06211 57633 42762 80000 10053 20003 40225 57023 885// 333 00252 70009;
0197576330999992000010700004+28830+108770FM-12+066599999V0209999C000010150019N0120001N1+00521+00101102281ADDAA106000091GF108991081051017501999999IA2999+00319MA1999999094301MD1210021-0101REMSYN088AAXX  07001 57633 32762 80000 10052 20010 39430 40228 52002 885// 333 05151 30031 70009;EQDQ01  00002PRCP06
0112576330999992000010703004+28830+108770FM-12+066599999V0209999C000010150019N0150001N1+00591+00071102281ADDGF108991081051017501999999MD1210011+9999REMSYN060AAXX  07031 57633 42765 80000 10059 20007 40228 52001 885//;
0199576330999992000010706004+28830+108770FM-12+066599999V0201401N001010150019N0120001N1+00521+00101101921ADDAA106000791AY161061GF108991081051017501999999KA1999N+00461MA1999999093971MD1710341-0501MW1601REMSYN094AAXX  07061 57633 11762 81401 10052 20010 39397 40192 57034 69901 76060 885// 333 05551 20046;
0134576330999992000010709004+28830+108770FM-12+066599999V0209999C000010150019N0120001N1+00491+00251101881ADDGF108991081051017501999999MD1710051+0061MW1601REMSYN076AAXX  07091 57633 41762 80000 10049 20025 40188 57005 76000 885// 333 05651;
0180576330999992000010712004+28830+108770FM-12+066599999V0209999C000010150019N0120001N1+00451+00311101991ADDAA106000791AY161061GF108991081051017501999999MA1999999094021MD1210101+0061MW1601REMSYN088AAXX  07121 57633 11762 80000 10045 20031 39402 40199 52010 69901 76060 885// 333 05651;
0132576330999992000010715004+28830+108770FM-12+066599999V0209999C000010150019N0100001N1+00491+00281102021ADDAY161031GF108991081051017501999999MD1210041+9999MW1601REMSYN066AAXX  07151 57633 41760 80000 10049 20028 40202 52004 76060 885//;
0199576330999992000010718004+28830+108770FM-12+066599999V0209999C000010150019N0100001N1+00421+00351101921ADDAA106000791AY161061GF108991081051017501999999KA1999M+00611MA1999999093951MD1710111-0601MW1601REMSYN094AAXX  07181 57633 11760 80000 10042 20035 39395 40192 57011 69901 76060 885// 333 05651 10061;
0159576330999992000010721004+28830+108770FM-12+066599999V0209999C000010042019N0100001N1+00451+00281101811ADDAA124000791AY161031GF108991081071004501999999MD1710101-0401MW1001REMSYN082AAXX  07211 57633 41460 80000 10045 20028 40181 57010 70060 887// 333 05451 79999;
0204576330999992000010800004+28830+108770FM-12+066599999V0209999C000010042019N0120001N1+00431+00261101871ADDAA106000791AY161061GF108991081071004501999999IA2999+00429MA1999999093901MD1210051-0401MW1211REMSYN100AAXX  08001 57633 11462 80000 10043 20026 39390 40187 52005 69901 72160 887// 333 05451 30042 79999;
0112576330999992000010803004+28830+108770FM-12+066599999V0209999C000010120019N0150001N1+00521+00291101951ADDGF108991081051012501999999MD1210091+9999REMSYN060AAXX  08031 57633 42665 80000 10052 20029 40195 52009 885//;
0173576330999992000010806004+28830+108770FM-12+066599999V0209999C000010120019N0170001N1+00711+00321101601ADDAA106000021GF108991081051012501999999KA1999N+00381MA1999999093681MD1710311-0301REMSYN082AAXX  08061 57633 32667 80000 10071 20032 39368 40160 57031 885// 333 05302 20038;
0122576330999992000010809004+28830+108770FM-12+066599999V0209999C000010120019N0150001N1+00731+00351101561ADDGF108991081051012501999999MD1710031+0031REMSYN070AAXX  08091 57633 42665 80000 10073 20035 40156 57003 885// 333 05302;
0173576330999992000010812004+28830+108770FM-12+066599999V0203401N001010150019N0120001N1+00591+00341101821ADDAA106000091GF108991081051017501999999MA1999999093871MD1210221+0021REMSYN076AAXX  08121 57633 32762 83401 10059 20034 39387 40182 52022 885// 333 05201;EQDQ01  00002PRCP06
0112576330999992000010815004+28830+108770FM-12+066599999V0209999C000010150019N0120001N1+00561+00301101951ADDGF108991081051017501999999MD1210131+9999REMSYN060AAXX  08151 57633 42762 80000 10056 20030 40195 52013 885//;
0192576330999992000010818004+28830+108770FM-12+066599999V0209999C000010150019N0100001N1+00551+00291101901ADDAA106000091GF108991081051017501999999KA1999M+00731MA1999999093981MD1710021+0001REMSYN082AAXX  08181 57633 32760 80000 10055 20029 39398 40190 57002 885// 333 00001 10073;EQDQ01  00002PRCP06
0139576330999992000010821004+28830+108770FM-12+066599999V0209999C000010150019N0100001N1+00531+00351101811ADDAA124000791GF108991081051017501999999MD1710091+0001REMSYN076AAXX  08211 57633 42760 80000 10053 20035 40181 57009 885// 333 00001 79999;
0191576330999992000010900004+28830+108770FM-12+066599999V0209999C000010150019N0120001N1+00581+00331101911ADDAA106000091GF108991081051017501999999IA2999+00509MA1999999093971MD1210081+0101REMSYN082AAXX  09001 57633 32762 80000 10058 20033 39397 40191 52008 885// 333 00102 30050;EQDQ01  00002PRCP06
0124576330999992000010903004+28830+108770FM-12+066599999V0209999C000010150019N0120001N1+00651+00401102111ADDGF108991081051017501999999MD1210191+9999MW1601REMSYN066AAXX  09031 57633 41762 80000 10065 20040 40211 52019 76000 885//;
0142576330999992000010909004+28830+108770FM-12+066599999V0209999C000010042019N0120001N1+00641+00461101841ADDAY161031GF108991081071004501999999MD1410001+0031MW1211REMSYN076AAXX  09091 57633 41462 80000 10064 20046 40184 54000 72160 887// 333 00351;
0180576330999992000010912004+28830+108770FM-12+066599999V0203201N001010042019N0120001N1+00651+00451101941ADDAA106000791AY161061GF108991081071004501999999MA1999999094011MD1210101+0011MW1001REMSYN088AAXX  09121 57633 11462 83201 10065 20045 39401 40194 52010 69901 70060 887// 333 00101;
0112576330999992000010915004+28830+108770FM-12+066599999V0209999C000010150019N0120001N1+00641+00421102081ADDGF108991081051017501999999MD1210141+9999REMSYN060AAXX  09151 57633 42762 80000 10064 20042 40208 52014 885//;
0191576330999992000010918004+28830+108770FM-12+066599999V0209999C000010150019N0100001N1+00641+00391101961ADDAA106000791GF108991081051017501999999KA1999M+00691MA1999999094031MD1710121+0101MW1601REMSYN094AAXX  09181 57633 11760 80000 10064 20039 39403 40196 57012 69901 76000 885// 333 00101 10069;
0167576330999992000010921004+28830+108770FM-12+066599999V0209999C000010042019N0100001N1+00621+00491101731ADDAA124002091AY161031AY261031GF108991081071004501999999MD1710211-0101MW1601REMSYN082AAXX  09211 57633 41460 80000 10062 20049 40173 57021 76066 887// 333 05101 70020;
0194576330999992000011000004+28830+108770FM-12+066599999V0209999C000010042019N0080001N1+00601+00511101791ADDAA106006191AY161061AY261061GF108991081071004501999999MA1999999093871MD1210051-0101MW1601REMSYN094AAXX  10001 57633 11458 80000 10060 20051 39387 40179 52005 60061 76066 887// 333 05100 70062;
0140576330999992000011003004+28830+108770FM-12+066599999V0203601N001010042019N0150001N1+00661+00461101881ADDAY161031AY261031GF108991081071004501999999MD1210091+9999MW1601REMSYN066AAXX  10031 57633 41465 83601 10066 20046 40188 52009 76066 887//;
0207576330999992000011006004+28830+108770FM-12+066599999V0203401N001010042019N0170001N1+00631+00451101581ADDAA106000191AY161061AY261061GF108991081071004501999999KA1999N+00541MA1999999093681MD1710281-0201MW1601REMSYN094AAXX  10061 57633 11467 83401 10063 20045 39368 40158 57028 69911 76066 887// 333 05200 20054;
0150576330999992000011009004+28830+108770FM-12+066599999V0200201N001010042019N0150001N1+00601+00491101531ADDAY161031AY261031GF108991081071004501999999MD1710051+0031MW1601REMSYN076AAXX  10091 57633 41465 80201 10060 20049 40153 57005 76066 887// 333 05300;
0188576330999992000011012004+28830+108770FM-12+066599999V0209999C000010042019N0100001N1+00581+00451101661ADDAA106000391AY161061AY261061GF108991081071004501999999MA1999999093741MD1210111+0031MW1601REMSYN088AAXX  10121 57633 11460 80000 10058 20045 39374 40166 52011 69931 76066 887// 333 05351;
0140576330999992000011015004+28830+108770FM-12+066599999V0200201N002010042019N0100001N1+00551+00371101641ADDAY161031AY261031GF108991081071004501999999MD1710011+9999MW1601REMSYN066AAXX  10151 57633 41460 80202 10055 20037 40164 57001 76066 887//;
0207576330999992000011018004+28830+108770FM-12+066599999V0209999C000010042019N0100001N1+00511+00351101671ADDAA106001091AY191061AY281061GF108991081071004501999999KA1999M+00691MA1999999093751MD1210021-0301MW1601REMSYN094AAXX  10181 57633 11460 80000 10051 20035 39375 40167 52002 60011 76098 887// 333 05351 10069;
0167576330999992000011021004+28830+108770FM-12+066599999V0209999C000010042019N0100001N1+00491+00351101591ADDAA124006991AY181031AY261031GF108991081071004501999999MD1710081-0201MW1601REMSYN082AAXX  10211 57633 41460 80000 10049 20035 40159 57008 76086 887// 333 05251 70068;
0212576330999992000011100004+28830+108770FM-12+066599999V0209999C000010360019N0120001N1+00481+00391101791ADDAA106001091AY181061AY261061GF108991031071004501071999IA2999+00499MA1999999093851MD1210181+0001MW1211REMSYN100AAXX  11001 57633 11462 80000 10048 20039 39385 40179 52018 69991 72186 8377/ 333 00051 30049 70027;
0112576330999992000011103004+28830+108770FM-12+066599999V0200201N001010120019N0150001N1+00671+00381101931ADDGF108991061041012501071999MD1210151+9999REMSYN060AAXX  11031 57633 42665 80201 10067 20038 40193 52015 8647/;
0173576330999992000011106004+28830+108770FM-12+066599999V0200701N002010120019N0170001N1+00731+00371101661ADDAA106000021GF108991061041012501071999KA1999N+00441MA1999999093761MD1710241+0101REMSYN082AAXX  11061 57633 32667 80702 10073 20037 39376 40166 57024 8647/ 333 00101 20044;
0122576330999992000011109004+28830+108770FM-12+066599999V0200401N001010150019N0150001N1+00621+00421101781ADDGF108991081051017501999999MD1210081+0021REMSYN070AAXX  11091 57633 42765 80401 10062 20042 40178 52008 885// 333 00200;
0173576330999992000011112004+28830+108770FM-12+066599999V0203601N002010150019N0150001N1+00611+00411102031ADDAA106000091GF108991081051017501999999MA1999999094071MD1210231+0031REMSYN076AAXX  11121 57633 32765 83602 10061 20041 39407 40203 52023 885// 333 00300;EQDQ01  00002PRCP06
0132576330999992000011115004+28830+108770FM-12+066599999V0209999C000010150019N0150001N1+00551+00341102301ADDAY161031GF108991081051017501999999MD1210271+9999MW1601REMSYN066AAXX  11151 57633 41765 80000 10055 20034 40230 52027 76060 885//;
0199576330999992000011118004+28830+108770FM-12+066599999V0209999C000010150019N0120001N1+00541+00281102301ADDAA106000791AY161061GF108991081051017501999999KA1999M+00761MA1999999094351MD1210011+0601MW1601REMSYN094AAXX  11181 57633 11762 80000 10054 20028 39435 40230 52001 69901 76060 885// 333 00600 10076;
0159576330999992000011121004+28830+108770FM-12+066599999V0200201N001010150019N0120001N1+00491+00201102271ADDAA124000191AY161031GF108991081051017501999999MD1710051+0601MW1001REMSYN082AAXX  11211 57633 41762 80201 10049 20020 40227 57005 70060 885// 333 00600 70001;
0204576330999992000011200004+28830+108770FM-12+066599999V0209999C000010150019N0150001N1+00441+00251102391ADDAA106000791AY161061GF108991081051017501999999IA2999+00459MA1999999094401MD1210101+0601MW1601REMSYN100AAXX  12001 57633 11765 80000 10044 20025 39440 40239 52010 69901 76060 885// 333 00600 30045 79999;
0132576330999992000011203004+28830+108770FM-12+066599999V0209999C000010360019N0150001N1+00551+00241102501ADDAY161031GF108991031011008001071999MD1210111+9999MW1001REMSYN066AAXX  12031 57633 41565 80000 10055 20024 40250 52011 70060 8317/;
0199576330999992000011206004+28830+108770FM-12+066599999V0209999C000010120019N0170001N1+00711+00201102101ADDAA106000791AY161061GF108991061041012501071999KA1999N+00391MA1999999094171MD1710341+0401MW1001REMSYN094AAXX  12061 57633 11667 80000 10071 20020 39417 40210 57034 69901 70060 8647/ 333 00400 20039;
0122576330999992000011209004+28830+108770FM-12+066599999V0201401N001010360019N0150001N1+00601+00151102071ADDGF108991011011008001071999MD1710051+0031REMSYN070AAXX  12091 57633 42565 81401 10060 20015 40207 57005 8117/ 333 00300;
0173576330999992000011212004+28830+108770FM-12+066599999V0209999C000010210019N0150001N1+00521+00161102291ADDAA106000091GF108991081001022501071999MA1999999094291MD1210161+0021REMSYN076AAXX  12121 57633 32865 80000 10052 20016 39429 40229 52016 8807/ 333 00251;EQDQ01  00002PRCP06
0112576330999992000011215004+28830+108770FM-12+066599999V0201601N001010150019N0120001N1+00491+00201102351ADDGF107991071051017501999999MD1210071+9999REMSYN060AAXX  12151 57633 42762 71601 10049 20020 40235 52007 875//;
0192576330999992000011218004+28830+108770FM-12+066599999V0209999C000012200019N0100001N1+00461+00191102181ADDAA106000091GF104991041051017501001001KA1999M+00731MA1999999094221MD1710141-0101REMSYN082AAXX  12181 57633 32760 40000 10046 20019 39422 40218 57014 84500 333 05151 10073;EQDQ01  00002PRCP06
0139576330999992000011221004+28830+108770FM-12+066599999V0209999C000010150019N0120001N1+00431+00081102071ADDAA124000791GF108991081051017501999999MD1710121-0201REMSYN076AAXX  12211 57633 42762 80000 10043 20008 40207 57012 885// 333 05251 79999;
0197576330999992000011300004+28830+108770FM-12+066599999V0209999C000010150019N0120001N1+00411+00031102151ADDAA106000091GF108991081051017501999999IA2999+00369MA1999999094161MD1210061-0201REMSYN088AAXX  13001 57633 32762 80000 10041 20003 39416 40215 52006 885// 333 05200 30036 79999;EQDQ01  00002PRCP06
0112576330999992000011303004+28830+108770FM-12+066599999V0203601N002010150019N0150001N1+00491-00051102221ADDGF108991081051017501999999MD1210071+9999REMSYN060AAXX  13031 57633 42765 83602 10049 21005 40222 52007 885//;
0192576330999992000011306004+28830+108770FM-12+066599999V0201401N001010150019N0180001N1+00621-00191101861ADDAA106000091GF108991081051017501999999KA1999N+00371MA1999999093911MD1710321-0301REMSYN082AAXX  13061 57633 32768 81401 10062 21019 39391 40186 57032 885// 333 05351 20037;EQDQ01  00002PRCP06
0122576330999992000011309004+28830+108770FM-12+066599999V0209999C000010150019N0180001N1+00561-00271101741ADDGF108991081051017501999999MD1710121+0031REMSYN070AAXX  13091 57633 42768 80000 10056 21027 40174 57012 885// 333 05300;
0173576330999992000011312004+28830+108770FM-12+066599999V0209999C000010150019N0150001N1+00511-00211101811ADDAA106000091GF108991081051017501999999MA1999999093851MD1210061+0041REMSYN076AAXX  13121 57633 32765 80000 10051 21021 39385 40181 52006 885// 333 05400;EQDQ01  00002PRCP06
0112576330999992000011315004+28830+108770FM-12+066599999V0209999C000010150019N0120001N1+00481-00061102091ADDGF108991081051017501999999MD1210261+9999REMSYN060AAXX  13151 57633 42762 80000 10048 21006 40209 52026 885//;
0192576330999992000011318004+28830+108770FM-12+066599999V0209999C000010150019N0100001N1+00461-00051101991ADDAA106000091GF108991081051017501999999KA1999M+00661MA1999999094031MD1710081-0201REMSYN082AAXX  13181 57633 32760 80000 10046 21005 39403 40199 57008 885// 333 05200 10066;EQDQ01  00002PRCP06
0163576330999992000011321004+28830+108770FM-12+066599999V0209999C000010042019N0100001N1+00331+00081101881ADDAA124000791AY161031GF108991081071004501999999MD1710121-0201MW1601REMSYN086    AAXX  13211 57633 41460 80000 10033 20008 40188 57012 76060 887// 333 05251 79999;
0208576330999992000011400004+28830+108770FM-12+066599999V0209999C000010042019N0100001N1+00291+00171101961ADDAA106000891AY161061GF108991081071004501999999IA2999+00309MA1999999093971MD1210061-0201MW1601REMSYN104    AAXX  14001 57633 11460 80000 10029 20017 39397 40196 52006 69971 76060 887// 333 05251 30030 70007;
0144576330999992000011403004+28830+108770FM-12+066599999V0209999C000010042019N0120001N1+00281+00161102041ADDAY171031AY261031GF108991081071004501999999MD1210071+9999MW1791REMSYN070    AAXX  14031 57633 41462 80000 10028 20016 40204 52007 77976 887//;
0211576330999992000011406004+28830+108770FM-12+066599999V0209999C000010042019N0120001N1+00231+00051101801ADDAA106002091AY171061AY261061GF108991081071004501999999KA1999N+00191MA1999999093811MD1710231-0101MW1601REMSYN098    AAXX  14061 57633 11462 80000 10023 20005 39381 40180 57023 60021 76076 887// 333 05154 20019;
0146576330999992000011409004+28830+108770FM-12+066599999V0209999C000010042019N0120001N1+00221+00041101721ADDAY161031GF108991081071004501999999MD1710101+0011MW1601REMSYN080    AAXX  14091 57633 41462 80000 10022 20004 40172 57010 76060 887// 333 05153;
0184576330999992000011412004+28830+108770FM-12+066599999V0201101N002010042019N0120001N1+00211+00031101891ADDAA106000791AY161061GF108991081071004501999999MA1999999093861MD1210151+0001MW1601REMSYN092    AAXX  14121 57633 11462 81102 10021 20003 39386 40189 52015 69901 76060 887// 333 00053;
0144576330999992000011415004+28830+108770FM-12+066599999V0209999C000010042019N0120001N1+00191+00011102031ADDAY161031AY261031GF108991081071004501999999MD1210131+9999MW1601REMSYN070    AAXX  14151 57633 41462 80000 10019 20001 40203 52013 76066 887//;
0211576330999992000011418004+28830+108770FM-12+066599999V0209999C000010042019N0100001N1+00171+00041102011ADDAA106000191AY161061AY261061GF108991081071004501999999KA1999M+00471MA1999999093961MD1710031-0101MW1601REMSYN098    AAXX  14181 57633 11460 80000 10017 20004 39396 40201 57003 69921 76066 887// 333 05153 10047;
0171576330999992000011421004+28830+108770FM-12+066599999V0203601N001010042019N0120001N1+00171+00011101961ADDAA124003391AY161031AY261031GF108991081071004501999999MD1710051+0001MW1211REMSYN086    AAXX  14211 57633 41462 83601 10017 20001 40196 57005 72166 887// 333 00052 70032;
0208576330999992000011500004+28830+108770FM-12+066599999V0209999C000010042019N0150001N1+00181-00031102101ADDAA106000391AY161061GF108991081071004501999999IA2999+00209MA1999999094041MD1210131+0101MW1601REMSYN104    AAXX  15001 57633 11465 80000 10018 21003 39404 40210 52013 69931 76060 887// 333 00151 30020 70025;
0136576330999992000011503004+28830+108770FM-12+066599999V0200701N002010042019N0150001N1+00171-00011102321ADDAY161031GF108991081071004501999999MD1210201+9999MW1601REMSYN070    AAXX  15031 57633 41465 80702 10017 21001 40232 52020 76060 887//;
0203576330999992000011506004+28830+108770FM-12+066599999V0209999C000010042019N0150001N1+00211+00031102101ADDAA106000791AY161061GF108991081071004501999999KA1999N+00111MA1999999094041MD1710201+0201MW1601REMSYN098    AAXX  15061 57633 11465 80000 10021 20003 39404 40210 57020 69901 76060 887// 333 00200 20011;
0146576330999992000011509004+28830+108770FM-12+066599999V0209999C000010042019N0120001N1+00221+00041102071ADDAY161031GF108991081071004501999999MD1710031+0031MW1601REMSYN080    AAXX  15091 57633 41462 80000 10022 20004 40207 57003 76060 887// 333 00300;
0167576330999992000011512004+28830+108770FM-12+066599999V0209999C000010042019N0120001N1+00181+00021102351ADDAY161061GF108991081071004501999999MA1999999094271MD1210261+0041MW1601REMSYN086    AAXX  15121 57633 11462 80000 10018 20002 39427 40235 52026 76060 887// 333 00400;
0144576330999992000011515004+28830+108770FM-12+066599999V0209999C000010042019N0120001N1+00171-00041102651ADDAY161031AY261031GF108991081071004501999999MD1210271+9999MW1601REMSYN070    AAXX  15151 57633 41462 80000 10017 21004 40265 52027 76066 887//;
0203576330999992000011518004+28830+108770FM-12+066599999V0201601N002010150019N0100001N1+00161-00141102601ADDAA106000791AY161061GF108991081051017501999999KA1999M+00261MA1999999094501MD1710041+0501MW1001REMSYN098    AAXX  15181 57633 11760 81602 10016 21014 39450 40260 57004 69901 70060 885// 333 00500 10026;
0182576330999992000011521004+28830+108770FM-12+066599999V0209999C000019999999N0100001N1+00121-00191102571ADDAA124000791AY161031GF107991999071004501999999MD1710031+0601MW1211REMSYN086    AAXX  15211 57633 41460 70000 10012 21019 40257 57003 72160 887// 333 00651 79999;EQDQ01+000082SCOTLC
0208576330999992000011600004+28830+108770FM-12+066599999V0209999C000010042019N0120001N1+00081-00261102771ADDAA106000791AY161061GF108991081071004501999999IA2999+00099MA1999999094641MD1210171+0601MW1001REMSYN104    AAXX  16001 57633 11462 80000 10008 21026 39464 40277 52017 69901 70060 887// 333 00651 30009 79999;
0116576330999992000011603004+28830+108770FM-12+066599999V0201401N002010150019N0150001N1+00091-00351102941ADDGF108991081051017501999999MD1210161+9999REMSYN064    AAXX  16031 57633 42765 81402 10009 21035 40294 52016 885//;
0195576330999992000011606004+28830+108770FM-12+066599999V0209999C000010150019N0150001N1+00081-00231102741ADDAA106000791GF108991081051017501999999KA1999N+00031MA1999999094611MD1710191+0601MW1601REMSYN098    AAXX  16061 57633 11765 80000 10008 21023 39461 40274 57019 69901 76000 885// 333 00651 20003;
0146576330999992000011609004+28830+108770FM-12+066599999V0209999C000010150019N0120001N1+00121-00221102651ADDAY161031GF108991081051017501999999MD1710081+0051MW1001REMSYN080    AAXX  16091 57633 41762 80000 10012 21022 40265 57008 70060 885// 333 00551;
0184576330999992000011612004+28830+108770FM-12+066599999V0209999C000010150019N0120001N1+00101-00011102871ADDAA106000791AY161061GF108991081051017501999999MA1999999094721MD1210191+0051MW1001REMSYN092    AAXX  16121 57633 11762 80000 10010 21001 39472 40287 52019 69901 70060 885// 333 00551;
0116576330999992000011615004+28830+108770FM-12+066599999V0209999C000010150019N0120001N1+00071-00121103011ADDGF108991081051017501999999MD1210131+9999REMSYN064    AAXX  16151 57633 42762 80000 10007 21012 40301 52013 885//;
0177576330999992000011618004+28830+108770FM-12+066599999V0209999C000010150019N0120001N1+00111-00201102981ADDAA199000021GF108991081051017501999999KA1999M+00191MA1999999094821MD1710031+0301REMSYN086    AAXX  16181 57633 32762 80000 10011 21020 39482 40298 57003 885// 333 00351 10019;
0143576330999992000011621004+28830+108770FM-12+066599999V0209999C000010150019N0120001N1+00091-00221102931ADDAA124000791GF108991081051017501999999MD1710041+0301REMSYN080    AAXX  16211 57633 42762 80000 10009 21022 40293 57004 885// 333 00300 79999;
0193576330999992000011700004+28830+108770FM-12+066599999V0209999C000010150019N0120001N1+00081-00171103081ADDAA199000091GF108991081051017501999999IA2999+00109MA1999999094911MD1999999+0301REMSYN084    AAXX  17001 57633 32762 80000 10008 21017 39491 40308 885// 333 00300 30010 999;EQDQ01  00002PRCP99
0136576330999992000011703004+28830+108770FM-12+066599999V0209999C000010042019N0100001N1+00161-00081103211ADDAY171031GF108991071071004501021999MD1210131+9999MW1701REMSYN070    AAXX  17031 57633 41460 80000 10016 21008 40321 52013 77070 8772/;
0203576330999992000011706004+28830+108770FM-12+066599999V0209999C000010042019N0120001N1+00301-00191102851ADDAA106000791AY171061GF108991071071004501021999KA1999N+00021MA1999999094731MD1710311+0101MW1701REMSYN098    AAXX  17061 57633 11462 80000 10030 21019 39473 40285 57031 69901 77070 8772/ 333 00102 20002;
0146576330999992000011709004+28830+108770FM-12+066599999V0209999C000019999999N0150001N1+00291-00171102731ADDAY171031GF108991081001999999021999MD1710111+0011MW1001REMSYN080    AAXX  17091 57633 41965 80000 10029 21017 40273 57011 70070 8802/ 333 00102;
0184576330999992000011712004+28830+108770FM-12+066599999V0209999C000019999999N0150001N1+00261-00091102971ADDAA106000791AY171061GF108991081001999999021999MA1999999094831MD1210211+0011MW1001REMSYN092    AAXX  17121 57633 11965 80000 10026 21009 39483 40297 52021 69901 70070 8802/ 333 00102;
0116576330999992000011715004+28830+108770FM-12+066599999V0209999C000019999999N0150001N1+00251-00011103131ADDGF108991081001999999021999MD1210161+9999REMSYN064    AAXX  17151 57633 42965 80000 10025 21001 40313 52016 8802/;
0177576330999992000011718004+28830+108770FM-12+066599999V0209999C000019999999N0150001N1+00231+00021103111ADDAA199000021GF108991081001999999021999KA1999M+00331MA1999999094991MD1410001+0201REMSYN086    AAXX  17181 57633 32965 80000 10023 20002 39499 40311 54000 8802/ 333 00201 10033;
0159576330999992000011721004+28830+108770FM-12+066599999V0209999C000012200019N0150001N1+00211+00051103021ADDAA124000791GA1001+999999999GF100991001001999999001001MD1710091+0101REMSYN080    AAXX  17211 57633 42965 00000 10021 20005 40302 57009 8802/ 333 00101 79999;
0182576330999992000011800004+28830+108770FM-12+066599999V0209999C000019999999N0150001N1+00221+00071103121ADDAA124000791GF108991081001999999071999IA2999+00159MA1999999094991MD1210091+0101REMSYN092    AAXX  18001 57633 32965 80000 10022 20007 39499 40312 52009 8807/ 333 00101 30015 79999;
0116576330999992000011803004+28830+108770FM-12+066599999V0209999C000019999999N0150001N1+00461+00031103171ADDGF107991071001999999041999MD1210081+9999REMSYN064    AAXX  18031 57633 42965 70000 10046 20003 40317 52008 8704/;
0196576330999992000011806004+28830+108770FM-12+066599999V0209999C000019999999N0150001N1+00631+00121102911ADDAA199000091GF108991081001999999071999KA1999N+00161MA1999999094851MD1710221+0101REMSYN086    AAXX  18061 57633 32965 80000 10063 20012 39485 40291 57022 8807/ 333 00103 20016;EQDQ01  00002PRCP99
0126576330999992000011809004+28830+108770FM-12+066599999V0209999C000010360019N0150001N1+00671+00171102891ADDGF108991021011008001071999MD1710011+0021REMSYN074    AAXX  18091 57633 42565 80000 10067 20017 40289 57001 8217/ 333 00204;
0187576330999992000011812004+28830+108770FM-12+066599999V0209999C000012200019N0150001N1+00291+00111103021ADDAA199000091GA1001+999999999GF100991001001999999001001MA1999999094901MD1210061+0011REMSYN074    AAXX  18121 57633 32965 00000 10029 20011 39490 40302 52006 333 00100;EQDQ01  00002PRCP99
0206576330999992000011818004+28830+108770FM-12+066599999V0209999C000012200019N0120001N1+00031+00001103161ADDAA199000091GA1001+999999999GF100991001001999999001001KA1999M+00711MA1999999095051MD1710011+0101REMSYN080    AAXX  18181 57633 32962 00000 10003 20000 39505 40316 57001 333 00152 10071;EQDQ01  00002PRCP99
0138576330999992000011821004+28830+108770FM-12+066599999V0209999C000019999999N0070001N1+00001-00031103081ADDGF108991081001999999071999MD1710071+0011MW1101REMSYN080    AAXX  18211 57633 41957 80000 10000 21003 40308 57007 71000 8807/ 333 00152;
0207576330999992000011900004+28830+108770FM-12+066599999V0209999C000019999999N0020001N1-00021-00051103231ADDAA199000091GF108991081001999999071999IA2999-00209MA1999999095061MD1210081+0101MW1101REMSYN092    AAXX  19001 57633 31920 80000 11002 21005 39506 40323 52008 71000 8807/ 333 00152 31026;EQDQ01  00002PRCP99
0128576330999992000011903004+28830+108770FM-12+066599999V0209999C000010150019N0070001N1+00271+00171103351ADDGF107991071051017501999999MD1210131+9999MW1101REMSYN070    AAXX  19031 57633 41757 70000 10027 20017 40335 52013 71000 875//;
0196576330999992000011906004+28830+108770FM-12+066599999V0201601N002010075019N0180001N1+00781-00311102941ADDAA199000091GF106991061011008001001001KA1999N-00061MA1999999094871MD1710321+0001REMSYN086    AAXX  19061 57633 32568 61602 10078 21031 39487 40294 57032 86100 333 00002 21006;EQDQ01  00002PRCP99
0126576330999992000011909004+28830+108770FM-12+066599999V0201801N002010360019N0150001N1+00711-00341102721ADDGF107991011011008001031999MD1710211+0021REMSYN074    AAXX  19091 57633 42565 71802 10071 21034 40272 57021 8113/ 333 05200;
0177576330999992000011912004+28830+108770FM-12+066599999V0209999C000019999999N0150001N1+00601-00191102861ADDAA199000091GF107991071001999999031999MA1999999094771MD1210111+0011REMSYN080    AAXX  19121 57633 32965 70000 10060 21019 39477 40286 52011 8703/ 333 05103;EQDQ01  00002PRCP99
0112576330999992000011915004+28830+108770FM-12+066599999V0209999C000019999999N0150001N1+00241-00201103021ADDGF107991071001999999031999MD1210131+9999REMSYN060AAXX  19151 57633 42965 70000 10024 21020 40302 52013 8703/;
0192576330999992000011918004+28830+108770FM-12+066599999V0203401N001019999999N0150001N1+00281-00151102911ADDAA199000091GF108991081001999999071999KA1999M+00851MA1999999094881MD1710021-0201REMSYN082AAXX  19181 57633 32965 83401 10028 21015 39488 40291 57002 8807/ 333 05203 10085;EQDQ01  00002PRCP99
0122576330999992000011921004+28830+108770FM-12+066599999V0203601N001019999999N0150001N1+00291-00301102801ADDGF108991081001999999071999MD1710111+0021REMSYN070AAXX  19211 57633 42965 83601 10029 21030 40280 57011 8807/ 333 05203;
0191576330999992000012000004+28830+108770FM-12+066599999V0203601N001019999999N0150001N1+00231-00381102961ADDAA199000091GF107991071001999999071999IA2999-00109MA1999999094891MD1210121-0201REMSYN082AAXX  20001 57633 32965 73601 10023 21038 39489 40296 52012 8707/ 333 05203 31011;EQDQ01  00002PRCP99
0112576330999992000012003004+28830+108770FM-12+066599999V0209999C000019999999N0150001N1+00311-00421103181ADDGF108991081001999999071999MD1210171+9999REMSYN060AAXX  20031 57633 42965 80000 10031 21042 40318 52017 8807/;
0199576330999992000012006004+28830+108770FM-12+066599999V0203601N001010360019N0120001N1+00221-00261102971ADDAA106000791AY171061GF108991011071004501021999KA1999N+00181MA1999999094861MD1710201+0001MW1701REMSYN094AAXX  20061 57633 11462 83601 10022 21026 39486 40297 57020 69901 77070 8172/ 333 00056 20018;
0150576330999992000012009004+28830+108770FM-12+066599999V0203401N001010360019N0100001N1+00161-00051102921ADDAY171031AY271031GF108991021071004501021999MD1710061+0011MW1701REMSYN076AAXX  20091 57633 41460 83401 10016 21005 40292 57006 77077 8272/ 333 00156;
0188576330999992000012012004+28830+108770FM-12+066599999V0203601N001010042019N0060001N1+00061-00051102981ADDAA106003091AY171061AY271061GF108991061071004501021999MA1999999094841MD1210041+0011MW1701REMSYN088AAXX  20121 57633 11456 83601 10006 21005 39484 40298 52004 60031 77077 8672/ 333 00155;
0140576330999992000012015004+28830+108770FM-12+066599999V0209999C000010360019N0070001N1+00031-00051103111ADDAY171031AY271031GF108991021071004501021999MD1210121+9999MW1711REMSYN066AAXX  20151 57633 41457 80000 10003 21005 40311 52012 77177 8272/;
0207576330999992000012018004+28830+108770FM-12+066599999V0209999C000010360019N0060001N1+00011-00081103071ADDAA106005191AY171061AY271061GF108991021071004501021999KA1999M+00351MA1999999094911MD1710051+0001MW1711REMSYN094AAXX  20181 57633 11456 80000 10001 21008 39491 40307 57005 60051 77177 8272/ 333 00053 10035;
0167576330999992000012021004+28830+108770FM-12+066599999V0209999C000010360019N0050001N1-00021-00081102931ADDAA124008991AY171031AY271031GF108991031071004501021999MD1710141+0001MW1711REMSYN082AAXX  20211 57633 41450 80000 11002 21008 40293 57014 77177 8372/ 333 00053 70089;
0218576330999992000012100004+28830+108770FM-12+066599999V0209999C000010360019N0020001N1-00041-00101102991ADDAA106004191AY171061AY271061GF108991021071004501021999IA2999-00039MA1999999094811MD1210041-0101MW1711REMSYN106AAXX  21001 57633 11420 80000 11004 21010 39481 40299 52004 60041 77177 8272/ 333 05153 31003 70118 92510;
0140576330999992000012103004+28830+108770FM-12+066599999V0209999C000010042019N0100001N1+00021-00031103131ADDAY171031AY271031GF108991051071004501021999MD1210131+9999MW1711REMSYN066AAXX  21031 57633 41460 80000 10002 21003 40313 52013 77177 8572/;
0207576330999992000012106004+28830+108770FM-12+066599999V0209999C000010042019N0100001N1+00041-00041102791ADDAA106004191AY171061AY271061GF108991061071004501021999KA1999N-00081MA1999999094631MD1710311-0201MW1681REMSYN094AAXX  21061 57633 11460 80000 10004 21004 39463 40279 57031 60041 76877 8672/ 333 05252 21008;
0150576330999992000012109004+28830+108770FM-12+066599999V0209999C000010360019N0100001N1+00051-00091102681ADDAY171031AY261031GF108991041071004501021999MD1710111+0031MW1601REMSYN076AAXX  21091 57633 41460 80000 10005 21009 40268 57011 76076 8472/ 333 05351;
0188576330999992000012112004+28830+108770FM-12+066599999V0209999C000010042019N0100001N1+00051-00091102801ADDAA106000591AY171061AY261061GF108991051071004501021999MA1999999094631MD1210111+0021MW1601REMSYN088AAXX  21121 57633 11460 80000 10005 21009 39463 40280 52011 69951 76076 8572/ 333 05200;
0132576330999992000012115004+28830+108770FM-12+066599999V0209999C000010360019N0100001N1+00081-00111102861ADDAY161031GF108991011071004501021999MD1210071+9999MW1001REMSYN066AAXX  21151 57633 41460 80000 10008 21011 40286 52007 70060 8172/;
0199576330999992000012118004+28830+108770FM-12+066599999V0209999C000010360019N0100001N1+00061-00051102831ADDAA106000791AY161061GF108991031071004501021999KA1999M+00101MA1999999094671MD1710031-0201MW1601REMSYN094AAXX  21181 57633 11460 80000 10006 21005 39467 40283 57003 69901 76060 8372/ 333 05201 10010;
0167576330999992000012121004+28830+108770FM-12+066599999V0209999C000010360019N0100001N1+00041-00011102751ADDAA124007191AY161031AY261031GF108991021071004501021999MD1710071-0201MW1601REMSYN082AAXX  21211 57633 41460 80000 10004 21001 40275 57007 76066 8272/ 333 05201 70070;
0218576330999992000012200004+28830+108770FM-12+066599999V0209999C000010360019N0060001N1+00051+00021102801ADDAA106000591AY161061AY261061GF108991011071004501021999IA2999-00019MA1999999094641MD1210041-0201MW1601REMSYN106AAXX  22001 57633 11456 80000 10005 20002 39464 40280 52004 69951 76066 8172/ 333 05201 31001 70046 92506;
0132576330999992000012203004+28830+108770FM-12+066599999V0209999C000010360019N0150001N1+00121+00011102851ADDAY161031GF108991021071004501021999MD1210061+9999MW1001REMSYN066AAXX  22031 57633 41465 80000 10012 20001 40285 52006 70060 8272/;
0199576330999992000012206004+28830+108770FM-12+066599999V0209999C000010360019N0150001N1+00221+00011102541ADDAA106000591AY161061GF108991021011008001021999KA1999N-00011MA1999999094431MD1710271-0201MW1001REMSYN094AAXX  22061 57633 11565 80000 10022 20001 39443 40254 57027 69941 70060 8212/ 333 05202 21001;
0122576330999992000012209004+28830+108770FM-12+066599999V0209999C000019999999N0150001N1+00241+00061102431ADDGF108991081001999999021999MD1710101+0021REMSYN070AAXX  22091 57633 42965 80000 10024 20006 40243 57010 8802/ 333 05202;
0154576330999992000012212004+28830+108770FM-12+066599999V0209999C000010150019N0120001N1+00211+00001102461ADDAA199000021GF108991081051017501999999MA1999999094351MD1210021+0031REMSYN076AAXX  22121 57633 32762 80000 10021 20000 39435 40246 52002 885// 333 05302;
0132576330999992000012215004+28830+108770FM-12+066599999V0209999C000010042019N0120001N1+00171+00051102461ADDAY161031GF108991081051004501999999MD1210021+9999MW1601REMSYN066AAXX  22151 57633 41462 80000 10017 20005 40246 52002 76060 885//;
0199576330999992000012218004+28830+108770FM-12+066599999V0209999C000010042019N0120001N1+00171+00071102401ADDAA106002091AY161061GF108991081091004501999999KA1999M+00301MA1999999094321MD1710051-0401MW1911REMSYN094AAXX  22181 57633 11462 80000 10017 20007 39432 40240 57005 60021 79160 889// 333 05401 10030;
0167576330999992000012221004+28830+108770FM-12+066599999V0209999C000010150019N0120001N1+00171+00121102341ADDAA124002891AY181031AY261031GF108991081051017501999999MD1710051-0301MW1001REMSYN082AAXX  22211 57633 41762 80000 10017 20012 40234 57005 70086 885// 333 05301 70028;
0218576330999992000012300004+28830+108770FM-12+066599999V0209999C000010042019N0120001N1+00171+00151102441ADDAA106000191AY181061AY261061GF108991081071004501999999IA2999+00149MA1999999094361MD1210091-0301MW1001REMSYN106AAXX  23001 57633 11462 80000 10017 20015 39436 40244 52009 69921 70086 887// 333 05301 30014 70023 92503;
0112576330999992000012303004+28830+108770FM-12+066599999V0209999C000010042019N0120001N1+00281+00161102601ADDGF108991081051004501999999MD1210151+9999REMSYN060AAXX  23031 57633 42462 80000 10028 20016 40260 52015 885//;
0173576330999992000012312004+28830+108770FM-12+066599999V0209999C000010075019N0120001N1+00261+00111102571ADDAA199000091GF108991081051008001999999MA1999999094481MD1210151+0011REMSYN076AAXX  23121 57633 32562 80000 10026 20011 39448 40257 52015 885// 333 00101;EQDQ01  00002PRCP99
0132576330999992000012315004+28830+108770FM-12+066599999V0201401N003010042019N0120001N1+00231+00081102731ADDAY161031GF108991081051004501999999MD1210161+9999MW1601REMSYN066AAXX  23151 57633 41462 81403 10023 20008 40273 52016 76060 885//;
0207576330999992000012318004+28830+108770FM-12+066599999V0209999C000010042019N0150001N1+00171+00091102761ADDAA106002091AY191061AY281061GF108991081071004501999999KA1999M+00321MA1999999094661MD1210021+0301MW1601REMSYN094AAXX  23181 57633 11465 80000 10017 20009 39466 40276 52002 60021 76098 887// 333 00300 10032;
0167576330999992000012321004+28830+108770FM-12+066599999V0209999C000010042019N0100001N1+00181+00021102771ADDAA124002391AY181031AY261031GF108991081091004501999999MD1210011+0401MW1931REMSYN082AAXX  23211 57633 41460 80000 10018 20002 40277 52001 79386 889// 333 00400 70024;
0218576330999992000012400004+28830+108770FM-12+066599999V0209999C000010042019N0100001N1+00091+00041103121ADDAA106005191AY191061AY281061GF108991081051004501999999IA2999+00009MA1999999094971MD1210301+0601MW1701REMSYN106AAXX  24001 57633 11460 80000 10009 20004 39497 40312 52030 60051 77098 885// 333 00651 30000 70069 92502;
0140576330999992000012403004+28830+108770FM-12+066599999V0209999C000010042019N0120001N1+00191+00061103401ADDAY171031AY271031GF108991081071004501999999MD1210271+9999MW1701REMSYN066AAXX  24031 57633 41462 80000 10019 20006 40340 52027 77077 887//;
0207576330999992000012406004+28830+108770FM-12+066599999V0209999C000010042019N0170001N1+00291-00111103321ADDAA106000191AY171061AY261061GF107991051071004501041999KA1999N+00031MA1999999095171MD1710071+0901MW1001REMSYN094AAXX  24061 57633 11467 70000 10029 21011 39517 40332 57007 69921 70076 8574/ 333 00900 20003;
0157576330999992000012409004+28830+108770FM-12+066599999V0201601N002010360019N0170001N1+00191-00111999999ADDGF108991021011008001071999MD1210081+0091REMSYN070AAXX  24091 57633 42567 81602 10019 21011 49342 52008 8217/ 333 00951;EQDQ01+093423APOSLPQ02 093423APOSLP
0173576330999992000012412004+28830+108770FM-12+066599999V0209999C000019999999N0150001N1+00131-00151103702ADDAA199000021GF108991081001999999071999MA1999999095491MD1210241+0101REMSYN076AAXX  24121 57633 32965 80000 10013 21015 39549 40370 52024 8807/ 333 01051;EQDQ01+103703APOSLP
0112576330999992000012415004+28830+108770FM-12+066599999V0200201N001019999999N0150001N1+00091-00161103861ADDGF108991081001999999071999MD1210161+9999REMSYN060AAXX  24151 57633 42965 80201 10009 21016 40386 52016 8807/;
0192576330999992000012418004+28830+108770FM-12+066599999V0200901N002019999999N0150001N1+00021-00211103851ADDAA199000091GF108991081001999999071999KA1999M+00321MA1999999095641MD1710011+1001REMSYN082AAXX  24181 57633 32965 80902 10002 21021 39564 40385 57001 8807/ 333 01052 10032;EQDQ01  00002PRCP99
0159576330999992000012421004+28830+108770FM-12+066599999V0201101N001010360019N0150001N1-00041-00261103841ADDAA124005191AY171031GF108991031071004501021999MD1710031+0901MW1701REMSYN082AAXX  24211 57633 41465 81101 11004 21026 40384 57003 77070 8372/ 333 00952 70051;
0210576330999992000012500004+28830+108770FM-12+066599999V0209999C000010360019N0070001N1-00151+99999103911ADDAA106001091AY171061GF108991021071004501021999IA2999-00069MA1999999095651MD1210041+0701MW1701REMSYN106AAXX  25001 57633 11457 80000 11015 21003 39565 40391 52004 60011 77070 8272/ 333 00752 31006 70012 92502;
0140576330999992000012503004+28830+108770FM-12+066599999V0209999C000010042019N0150001N1-00011-00341104091ADDAY171031AY271031GF108991051071004501021999MD1210181+9999MW1221REMSYN066AAXX  25031 57633 41465 80000 11001 21034 40409 52018 72277 8572/;
0160576330999992000012506004+28830+108770FM-12+066599999V0209999C000019999999N0150001N1+00021-00371103801ADDGF108991999999008001999999MA1999999095561MD1710271+0401REMSYN093AAXX  25061 57633 11565 80000 10002 21037 39556 40380 57027 6931 70070 8412/ 333 00453 21021;
0142576330999992000012509004+28830+108770FM-12+066599999V0209999C000010360019N0120001N1-00031-00451103811ADDAY171031GF108991021071004501021999MD1710011+0031MW1701REMSYN076AAXX  25091 57633 41462 80000 11003 21045 40381 57001 77070 8272/ 333 00352;
0180576330999992000012512004+28830+108770FM-12+066599999V0209999C000010042019N0060001N1-00091-00321104011ADDAA106000191AY171061GF108991061071004501021999MA1999999095711MD1210161+0021MW1701REMSYN088AAXX  25121 57633 11456 80000 11009 21032 39571 40401 52016 69911 77070 8672/ 333 00252;
0140576330999992000012515004+28830+108770FM-12+066599999V0201601N001010360019N0070001N1-00111-00561104141ADDAY171031AY271031GF108991031071004501021999MD1210141+9999MW1701REMSYN066AAXX  25151 57633 41457 81601 11011 21056 40414 52014 77077 8372/;
0199576330999992000012518004+28830+108770FM-12+066599999V0209999C000010360019N0100001N1-00161-00481104151ADDAA106000591AY171061GF108991011071004501021999KA1999M+00061MA1999999095851MD1410001+0201MW1701REMSYN094AAXX  25181 57633 11460 80000 11016 21048 39585 40415 54000 69961 77070 8172/ 333 00252 10006;
0167576330999992000012521004+28830+108770FM-12+066599999V0209999C000010360019N0100001N1-00191-00521104131ADDAA124001591AY171031AY271031GF108991011071004501021999MD1710031+0201MW1701REMSYN082AAXX  25211 57633 41460 80000 11019 21052 40413 57003 77077 8172/ 333 00252 70016;
0210576330999992000012600004+28830+108770FM-12+066599999V0209999C000019999999N0120001N1-00191-00451104221ADDAA106000791AY171061GF108991081001999999071999IA2999-00099MA1999999095901MD1210081+0301MW1001REMSYN106AAXX  26001 57633 11962 80000 11019 21045 39590 40422 52008 69901 70070 8807/ 333 00300 31009 70010 92502;
0112576330999992000012603004+28830+108770FM-12+066599999V0209999C000019999999N0120001N1+00001-00491104321ADDGF108991081001999999071999MD1210111+9999REMSYN060AAXX  26031 57633 42962 80000 10000 21049 40432 52011 8807/;
0173576330999992000012606004+28830+108770FM-12+066599999V0201601N002019999999N0120001N1+00091-00551104041ADDAA199000021GF108991081001999999071999KA1999N-00241MA1999999095761MD1710251+0201REMSYN082AAXX  26061 57633 32962 81602 10009 21055 39576 40404 57025 8807/ 333 00201 21024;
0122576330999992000012609004+28830+108770FM-12+066599999V0209999C000010360019N0120001N1+00061-00401103941ADDGF108991031041012501071999MD1710101+0011REMSYN070AAXX  26091 57633 42662 80000 10006 21040 40394 57010 8347/ 333 00101;
0173576330999992000012612004+28830+108770FM-12+066599999V0209999C000010360019N0100001N1+00031-00361104041ADDAA199000091GF108991021041012501071999MA1999999095751MD1210091+0001REMSYN076AAXX  26121 57633 32660 80000 10003 21036 39575 40404 52009 8247/ 333 00001;EQDQ01  00002PRCP99
0179576330999992000012615004+28830+108770FM-12+066599999V0209999C000010360019N0100001N1+00031-00361999999ADDAA199000091GF108991021041012501071999MA1999999095751MD1210091+9999REMSYN066AAXX  26151 57633 32660 80000 10003 21036 39575 40304 52009 8247/;EQDQ01+103043APOSLPQ02  00002PRCP99
0192576330999992000012618004+28830+108770FM-12+066599999V0209999C000019999999N0120001N1+00001-00501104021ADDAA199000091GF107991071001999999041999KA1999M+00161MA1999999095771MD1710101-0101REMSYN082AAXX  26181 57633 32962 70000 10000 21050 39577 40402 57010 8704/ 333 05102 10016;EQDQ01  00002PRCP99
0139576330999992000012621004+28830+108770FM-12+066599999V0209999C000012200019N0100001N1-00091-00401103931ADDAA124000791GF102991021001999999041001MD1710101-0201REMSYN076AAXX  26211 57633 42960 20000 11009 21040 40393 57010 82040 333 05201 79999;
0191576330999992000012700004+28830+108770FM-12+066599999V0209999C000019999999N0100001N1-00151-00431103941ADDAA199000091GF107991071001999999031999IA2999-00109MA1999999095661MD1710011-0201REMSYN082AAXX  27001 57633 32960 70000 11015 21043 39566 40394 57001 8703/ 333 05200 31016;EQDQ01  00002PRCP99
0112576330999992000012703004+28830+108770FM-12+066599999V0200401N001010360019N0120001N1+00031-00571103971ADDGF108991031011008001071999MD1210061+9999REMSYN060AAXX  27031 57633 42562 80401 10003 21057 40397 52006 8317/;
0199576330999992000012706004+28830+108770FM-12+066599999V0209999C000010360019N0120001N1+00101-00461103641ADDAA106000791AY171061GF108991011071004501021999KA1999N-00231MA1999999095421MD1710301-0301MW1001REMSYN094AAXX  27061 57633 11462 80000 10010 21046 39542 40364 57030 69901 70070 8172/ 333 05300 21023;
0142576330999992000012709004+28830+108770FM-12+066599999V0209999C000010360019N0100001N1-00021-00371103521ADDAY171031GF108991021071004501071999MD1710141+0041MW1701REMSYN076AAXX  27091 57633 41460 80000 11002 21037 40352 57014 77070 8277/ 333 05451;
0180576330999992000012712004+28830+108770FM-12+066599999V0209999C000010360019N0100001N1-00051-00411103641ADDAA106000791AY171061GF108991031071004501071999MA1999999095371MD1210091+0041MW1701REMSYN088AAXX  27121 57633 11460 80000 11005 21041 39537 40364 52009 69901 77070 8377/ 333 05451;
0140576330999992000012715004+28830+108770FM-12+066599999V0203601N001010042019N0100001N1-00061-00421103571ADDAY171031AY271031GF108991051071004501021999MD1710041+9999MW1701REMSYN066AAXX  27151 57633 41460 83601 11006 21042 40357 57004 77077 8572/;
0207576330999992000012718004+28830+108770FM-12+066599999V0203601N001010042019N0100001N1-00091-00501103521ADDAA106000191AY171061AY271061GF108991061071004501021999KA1999M+00121MA1999999095291MD1710041-0501MW1701REMSYN094AAXX  27181 57633 11460 83601 11009 21050 39529 40352 57004 69911 77077 8672/ 333 05551 10012;
0167576330999992000012721004+28830+108770FM-12+066599999V0209999C000010042019N0100001N1-00161-00441103381ADDAA124000191AY171031AY271031GF108991051071004501021999MD1710151-0501MW1711REMSYN082AAXX  27211 57633 41460 80000 11016 21044 40338 57015 77177 8572/ 333 05551 70001;
0212576330999992000012800004+28830+108770FM-12+066599999V0209999C000010042019N0120001N1-00151-00651103411ADDAA106000791AY171061AY271061GF108991051071004501021999IA2999-00089MA1999999095161MD1210021-0501MW1711REMSYN100AAXX  28001 57633 11462 80000 11015 21065 39516 40341 52002 69901 77177 8572/ 333 05500 31008 72500;
0140576330999992000012803004+28830+108770FM-12+066599999V0209999C000010360019N0150001N1-00091-00651103491ADDAY171031AY271031GF108991031071004501021999MD1210081+9999MW1711REMSYN066AAXX  28031 57633 41465 80000 11009 21065 40349 52008 77177 8372/;
0207576330999992000012806004+28830+108770FM-12+066599999V0209999C000010360019N0150001N1-00021-00561103211ADDAA106000191AY171061AY271061GF108991011071004501021999KA1999N-00201MA1999999094991MD1710251-0401MW1711REMSYN094AAXX  28061 57633 11465 80000 11002 21056 39499 40321 57025 69921 77177 8172/ 333 05451 21020;
0150576330999992000012809004+28830+108770FM-12+066599999V0209999C000010360019N0100001N1-00031-00451103071ADDAY171031AY271031GF108991011071004501021999MD1710141+0041MW1711REMSYN076AAXX  28091 57633 41460 80000 11003 21045 40307 57014 77177 8172/ 333 05400;
0140576330999992000012815004+28830+108770FM-12+066599999V0209999C000010360019N0100001N1-00041-00471103391ADDAY171031AY271031GF108991011071004501021999MD1210131+9999MW1711REMSYN066AAXX  28151 57633 41460 80000 11004 21047 40339 52013 77177 8172/;
0199576330999992000012818004+28830+108770FM-12+066599999V0209999C000019999999N0100001N1-00111-00281103431ADDAA106000791AY171061GF108991081001999999021999KA1999M+00051MA1999999095191MD1210041-0101MW1001REMSYN094AAXX  28181 57633 11960 80000 11011 21028 39519 40343 52004 69901 70070 8802/ 333 05100 10005;
0139576330999992000012821004+28830+108770FM-12+066599999V0209999C000019999999N0100001N1-00171-00291103491ADDAA124000391GF107991071001999999031999MD1210051+0101REMSYN076AAXX  28211 57633 42960 70000 11017 21029 40349 52005 8703/ 333 00100 70002;
0210576330999992000012900004+28830+108770FM-12+066599999V0209999C000019999999N0100001N1-00141-00281103721ADDAA106000791AY171061GF107991071001999999031999IA2999-00179MA1999999095451MD1210211+0301MW1001REMSYN106AAXX  29001 57633 11960 70000 11014 21028 39545 40372 52021 69901 70070 8703/ 333 00300 31017 70002 92500;
0132576330999992000012903004+28830+108770FM-12+066599999V0209999C000019999999N0100001N1+00161-00271103881ADDAY171031GF107991071001999999041999MD1210191+9999MW1001REMSYN066AAXX  29031 57633 41960 70000 10016 21027 40388 52019 70070 8704/;
0199576330999992000012906004+28830+108770FM-12+066599999V0203401N001010360019N0150001N1+00551-00411103601ADDAA106000791AY171061GF107991021011008001031999KA1999N-00191MA1999999095431MD1710211+0401MW1001REMSYN094AAXX  29061 57633 11565 73401 10055 21041 39543 40360 57021 69901 70070 8213/ 333 00406 21019;
0122576330999992000012909004+28830+108770FM-12+066599999V0209999C000010360019N0150001N1+00511-00281103541ADDGF107991011011008001031999MD1710071+0051REMSYN070AAXX  29091 57633 42565 70000 10051 21028 40354 57007 8113/ 333 00505;
0183576330999992000012912004+28830+108770FM-12+066599999V0209999C000012200019N0120001N1+00191-00141103921ADDAA199000091GA1001+999999999GF100991001001999999001001MA1999999095671MD1210311+0071REMSYN070AAXX  29121 57633 32962 00000 10019 21014 39567 40392 52031 333 00702;EQDQ01  00002PRCP99
0112576330999992000012915004+28830+108770FM-12+066599999V0209999C000019999999N0100001N1+00231-00011104111ADDGF108991081001999999071999MD1210221+9999REMSYN060AAXX  29151 57633 42960 80000 10023 21001 40411 52022 8807/;
0192576330999992000012918004+28830+108770FM-12+066599999V0209999C000019999999N0100001N1+00221+00011104051ADDAA199000091GF108991081001999999071999KA1999M+00661MA1999999095891MD1410001+0701REMSYN082AAXX  29181 57633 32960 80000 10022 20001 39589 40405 54000 8807/ 333 00703 10066;EQDQ01  00002PRCP99
0133576330999992000012921004+28830+108770FM-12+066599999V0209999C000019999999N0100001N1+99999+99999103971ADDAA124000791GF108991081001999999071999MD1719999+0601REMSYN070AAXX  29211 57633 42960 80000 21040 40397 570/8 8807/ 333 00604 79999;
0178576330999992000013000004+28830+108770FM-12+066599999V0209999C000019999999N0150001N1+00131-00571104151ADDAA124000791GF107991071001999999031999IA2999-00019MA1999999095921MD1210111+0501REMSYN088AAXX  30001 57633 32965 70000 10013 21057 39592 40415 52011 8703/ 333 00503 31001 79999;
0124576330999992000013003004+28830+108770FM-12+066599999V0209999C000010360019N0150001N1+00181-00731104341ADDGF108991011071004501021999MD1210191+9999MW1701REMSYN066AAXX  30031 57633 41465 80000 10018 21073 40434 52019 77000 8172/;
0199576330999992000013006004+28830+108770FM-12+066599999V0201401N001010360019N0150001N1+00191-00551104041ADDAA106000791AY171061GF108991031011008001071999KA1999N+00091MA1999999095831MD1710281+0401MW1001REMSYN094AAXX  30061 57633 11565 81401 10019 21055 39583 40404 57028 69901 70070 8317/ 333 00454 20009;
0134576330999992000013009004+28830+108770FM-12+066599999V0201101N001019999999N0150001N1+00111-00691104061ADDGF108991081001999999071999MD1410001+0051MW1701REMSYN076AAXX  30091 57633 41965 81101 10011 21069 40406 54000 77000 8807/ 333 00554;
0180576330999992000013012004+28830+108770FM-12+066599999V0209999C000019999999N0120001N1-00191-00451104301ADDAA106000191AY171061GF108991081001999999021999MA1999999096001MD1210171+0031MW1701REMSYN088AAXX  30121 57633 11962 80000 11019 21045 39600 40430 52017 69911 77070 8802/ 333 00354;
0140576330999992000013015004+28830+108770FM-12+066599999V0209999C000019999999N0080001N1-00251-00381104391ADDAY171031AY271031GF108991081001999999021999MD1210081+9999MW1711REMSYN066AAXX  30151 57633 41958 80000 11025 21038 40439 52008 77177 8802/;
0207576330999992000013018004+28830+108770FM-12+066599999V0209999C000019999999N0070001N1-00281-00451104311ADDAA106004191AY171061AY271061GF108991081001999999021999KA1999M+00261MA1999999096011MD1710071+0101MW1711REMSYN094AAXX  30181 57633 11957 80000 11028 21045 39601 40431 57007 60041 77177 8802/ 333 00155 10026;
0167576330999992000013021004+28830+108770FM-12+066599999V0209999C000010360019N0060001N1-00321-00501104171ADDAA124005691AY171031AY271031GF108991021071004501021999MD1710151+0101MW1711REMSYN082AAXX  30211 57633 41456 80000 11032 21050 40417 57015 77177 8272/ 333 00155 70055;
0218576330999992000013100004+28830+108770FM-12+066599999V0209999C000010360019N0120001N1-00291-00541104281ADDAA106002091AY171061AY271061GF108991021071004501021999IA2999-00379MA1999999095921MD1210061+0001MW1711REMSYN106AAXX  31001 57633 11462 80000 11029 21054 39592 40428 52006 60021 77177 8272/ 333 00054 31037 70061 92509;
0140576330999992000013103004+28830+108770FM-12+066599999V0209999C000010360019N0100001N1-00211-00551104341ADDAY171031AY271031GF108991031071004501021999MD1210061+9999MW1711REMSYN066AAXX  31031 57633 41460 80000 11021 21055 40434 52006 77177 8372/;
0199576330999992000013106004+28830+108770FM-12+066599999V0200401N002010042019N0150001N1-00131-00761104021ADDAA106000391AY171061GF108991081071004501999999KA1999N-00371MA1999999095691MD1710291-0101MW1701REMSYN094AAXX  31061 57633 11465 80402 11013 21076 39569 40402 57029 69931 77070 887// 333 05153 21037;
0142576330999992000013109004+28830+108770FM-12+066599999V0209999C000010360019N0100001N1-00191-00591103871ADDAY171031GF108991011071004501021999MD1710151+0031MW1701REMSYN076AAXX  31091 57633 41460 80000 11019 21059 40387 57015 77070 8172/ 333 05353;
0180576330999992000013112004+28830+108770FM-12+066599999V0209999C000010150019N0150001N1-00281-00761103991ADDAA106000791AY171061GF108991081051017501999999MA1999999095641MD1210101+0041MW1001REMSYN088AAXX  31121 57633 11765 80000 11028 21076 39564 40399 52010 69901 70070 885// 333 05451;
0132576330999992000013115004+28830+108770FM-12+066599999V0209999C000010360019N0120001N1-00311-00601104041ADDAY171031GF108991021071004501021999MD1210061+9999MW1701REMSYN066AAXX  31151 57633 41462 80000 11031 21060 40404 52006 77070 8272/;
0199576330999992000013118004+28830+108770FM-12+066599999V0209999C000010042019N0120001N1-00341-00671103931ADDAA106000791AY171061GF108991061071004501021999KA1999M-00071MA1999999095601MD1710101-0401MW1701REMSYN094AAXX  31181 57633 11462 80000 11034 21067 39560 40393 57010 69901 77070 8672/ 333 05451 11007;
0167576330999992000013121004+28830+108770FM-12+066599999V0209999C000010042019N0120001N1-00351-00811103821ADDAA124001091AY171031AY271031GF108991051071004501021999MD1710111-0401MW1701REMSYN082AAXX  31211 57633 41462 80000 11035 21081 40382 57011 77077 8572/ 333 05400 70009;
0218576330999992000020100004+28830+108770FM-12+066599999V0209999C000010360019N0120001N1-00391-00621103881ADDAA106000791AY171061AY271061GF108991021071004501021999IA2999-00299MA1999999095531MD1210041-0401MW1701REMSYN106AAXX  01001 57633 11462 80000 11039 21062 39553 40388 52004 69901 77077 8272/ 333 05451 31029 70003 92507;
0140576330999992000020103004+28830+108770FM-12+066599999V0209999C000010360019N0150001N1-00241-00661103851ADDAY171031AY271031GF108991031071004501021999MD1710011+9999MW1221REMSYN066AAXX  01031 57633 41465 80000 11024 21066 40385 57001 72277 8372/;
0199576330999992000020106004+28830+108770FM-12+066599999V0203601N001010360019N0180001N1-00121-00661103441ADDAA106000591AY171061GF108991021071004501071999KA1999N-00421MA1999999095151MD1710371-0501MW1001REMSYN094AAXX  01061 57633 11468 83601 11012 21066 39515 40344 57037 69951 70070 8277/ 333 05500 21042;
0134576330999992000020109004+28830+108770FM-12+066599999V0209999C000010360019N0150001N1-00161-00511103281ADDGF108991011071004501071999MD1710151+0051MW1701REMSYN076AAXX  01091 57633 41465 80000 11016 21051 40328 57015 77000 8177/ 333 05500;
0180576330999992000020112004+28830+108770FM-12+066599999V0200401N001019999999N0120001N1-00221-00711103231ADDAA106000791AY171061GF108991081001999999071999MA1999999094941MD1710061+0071MW1001REMSYN088AAXX  01121 57633 11962 80401 11022 21071 39494 40323 57006 69901 70070 8807/ 333 05701;
0112576330999992000020115004+28830+108770FM-12+066599999V0209999C000019999999N0120001N1-00231-00651103231ADDGF108991081001999999071999MD1210021+9999REMSYN060AAXX  01151 57633 42962 80000 11023 21065 40323 52002 8807/;
0199576330999992000020118004+28830+108770FM-12+066599999V0209999C000010042019N0100001N1-00291-00431103181ADDAA106000791AY161061GF108991061071004501071999KA1999M-00041MA1999999094921MD1710041-0701MW1601REMSYN094AAXX  01181 57633 11460 80000 11029 21043 39492 40318 57004 69901 76060 8677/ 333 05701 11004;
0167576330999992000020121004+28830+108770FM-12+066599999V0209999C000010042019N0120001N1-00251-00481103051ADDAA124000591AY161031AY261031GF108991081071004501999999MD1710201-0701MW1661REMSYN082AAXX  01211 57633 41462 80000 11025 21048 40305 5702/ 76666 887// 333 05701 70006;
0224576330999992000020200004+28830+108770FM-12+066599999V0209999C000010042019N0120001N1-00251-00411103201ADDAA106000191AY171061AY261061GF108991081071004501999999IA2999-00209MA1999999094931MD1210131-0601MW1681REMSYN112AAXX  02001 57633 11462 80000 11025 21041 39493 40320 52013 69911 76876 887// 333 05601 31020 70006 92500 93404;
0140576330999992000020203004+28830+108770FM-12+066599999V0209999C000010042019N0120001N1-00151-00401103291ADDAY171031AY271031GF108991081071004501999999MD1210101+9999MW1701REMSYN066AAXX  02031 57633 41462 80000 11015 21040 40329 52010 77077 887//;
0207576330999992000020206004+28830+108770FM-12+066599999V0209999C000010360019N0150001N1-00021-00481103031ADDAA106000391AY171061AY271061GF108991031071004501071999KA1999N-00331MA1999999094801MD1710231-0401MW1221REMSYN094AAXX  02061 57633 11465 80000 11002 21048 39480 40303 57023 69931 72277 8377/ 333 05401 21033;
0122576330999992000020209004+28830+108770FM-12+066599999V0209999C000019999999N0150001N1+00031-00341102891ADDGF108991081001999999071999MD1710121+0031REMSYN070AAXX  02091 57633 42965 80000 10003 21034 40289 57012 8807/ 333 05302;
0154576330999992000020212004+28830+108770FM-12+066599999V0209999C000010360019N0120001N1-00031-00311102991ADDAA199000021GF108991011011004501071999MA1999999094761MD1210081+0021REMSYN076AAXX  02121 57633 32462 80000 11003 21031 39476 40299 52008 8117/ 333 05202;
0112576330999992000020215004+28830+108770FM-12+066599999V0209999C000019999999N0120001N1-00031-00351103091ADDGF108991081001999999071999MD1210111+9999REMSYN060AAXX  02151 57633 42962 80000 11003 21035 40309 52011 8807/;
0173576330999992000020218004+28830+108770FM-12+066599999V0209999C000019999999N0120001N1-00021-00301103001ADDAA199000021GF108991081001999999071999KA1999M+00061MA1999999094811MD1710061-0101REMSYN082AAXX  02181 57633 32962 80000 11002 21030 39481 40300 57006 8807/ 333 05103 10006;
0126576330999992000020221004+28830+108770FM-12+066599999V0209999C000019999999N0100001N1-00031-00391102921ADDAY131031GF108991999999999999999999MD1710071+9999MW1001REMSYN060AAXX  02211 57633 42960 80000 11003 21039 40292 57007 70003;
0202576330999992000020300004+28830+108770FM-12+066599999V0209999C000010150019N0100001N1-00071-00311103031ADDAA106000791GF108991081051017501999999IA2999-00049MA1999999094831MD1210091-0101MW1601REMSYN106AAXX  03001 57633 11760 80000 11007 21031 39483 40303 52009 69901 76000 885// 333 05102 31004 70003 92500;
0132576330999992000020303004+28830+108770FM-12+066599999V0200201N001010042019N0120001N1+00001-00331103081ADDAY161031GF108991081071004501999999MD1210051+9999MW1001REMSYN066AAXX  03031 57633 41462 80201 10000 21033 40308 52005 70060 887//;
0185576330999992000020306004+28830+108770FM-12+066599999V0209999C000010150019N0120001N1+00011-00351102781ADDAA106000791AY161061GF108991081051017501999999MA1999999094611MD1710271+9999MW1001REMSYN093AAXX  03061 57633 11762 80000 10001 21035 39461 40278 57027 69901 70060 885// 33 05200 21011;
0142576330999992000020309004+28830+108770FM-12+066599999V0209999C000010042019N0120001N1-00031-00261102661ADDAY161031GF108991081071004501999999MD1710121+0021MW1601REMSYN076AAXX  03091 57633 41462 80000 11003 21026 40266 57012 76060 887// 333 05251;
0180576330999992000020312004+28830+108770FM-12+066599999V0203601N001010042019N0120001N1-00031-00231102871ADDAA106000791AY161061GF108991081071004501999999MA1999999094681MD1210191+0011MW1601REMSYN088AAXX  03121 57633 11462 83601 11003 21023 39468 40287 52019 69901 76060 887// 333 05100;
0140576330999992000020315004+28830+108770FM-12+066599999V0209999C000010042019N0100001N1-00051-00191102951ADDAY161031AY261031GF108991081071004501999999MD1210081+9999MW1601REMSYN066AAXX  03151 57633 41460 80000 11005 21019 40295 52008 76066 887//;
0207576330999992000020318004+28830+108770FM-12+066599999V0209999C000010042019N0100001N1-00051-00191102881ADDAA106000791AY161061AY261061GF108991081071004501999999KA1999M+00041MA1999999094701MD1710061-0101MW1601REMSYN094AAXX  03181 57633 11460 80000 11005 21019 39470 40288 57006 69901 76066 887// 333 05100 10004;
0167576330999992000020321004+28830+108770FM-12+066599999V0209999C000010042019N0100001N1-00071-00211102831ADDAA124000791AY161031AY261031GF108991081071004501999999MD1710061-0101MW1601REMSYN082AAXX  03211 57633 41460 80000 11007 21021 40283 57006 76066 887// 333 05100 79999;
0212576330999992000020400004+28830+108770FM-12+066599999V0209999C000010042019N0100001N1-00071-00161102871ADDAA106000791AY161061AY261061GF108991081071004501999999IA2999-00029MA1999999094681MD1210041-0201MW1601REMSYN100AAXX  04001 57633 11460 80000 11007 21016 39468 40287 52004 69901 76066 887// 333 05200 31002 79999;
0140576330999992000020403004+28830+108770FM-12+066599999V0209999C000010042019N0150001N1+00031-00171102961ADDAY161031AY261031GF108991081071004501999999MD1210091+9999MW1601REMSYN066AAXX  04031 57633 41465 80000 10003 21017 40296 52009 76066 887//;
0207576330999992000020406004+28830+108770FM-12+066599999V0209999C000010042019N0180001N1+00141-00131102741ADDAA106000791AY171061AY261061GF108991081071004501999999KA1999N-00111MA1999999094591MD1710181+0001MW1701REMSYN094AAXX  04061 57633 11468 80000 10014 21013 39459 40274 57018 69901 77076 887// 333 00001 21011;
0142576330999992000020409004+28830+108770FM-12+066599999V0209999C000010150019N0120001N1+00181-00091102641ADDAY171031GF108991081051017501999999MD1710091+0001MW1001REMSYN076AAXX  04091 57633 41762 80000 10018 21009 40264 57009 70070 885// 333 00002;
0180576330999992000020412004+28830+108770FM-12+066599999V0209999C000010150019N0100001N1+00131-00061102821ADDAA106000791AY171061GF108991081051017501999999MA1999999094661MD1210161+0001MW1001REMSYN088AAXX  04121 57633 11760 80000 10013 21006 39466 40282 52016 69901 70070 885// 333 00002;
0112576330999992000020415004+28830+108770FM-12+066599999V0209999C000010150019N0100001N1+00111-00111102951ADDGF108991081051017501999999MD1210131+9999REMSYN060AAXX  04151 57633 42760 80000 10011 21011 40295 52013 885//;
0173576330999992000020418004+28830+108770FM-12+066599999V0209999C000010150019N0100001N1+00081-00081102931ADDAA199000021GF108991081051017501999999KA1999M+00211MA1999999094781MD1710011+0101REMSYN082AAXX  04181 57633 32760 80000 10008 21008 39478 40293 57001 885// 333 00101 10021;
0139576330999992000020421004+28830+108770FM-12+066599999V0209999C000010150019N0100001N1+00091-00101102901ADDAA124000791GF108991081051017501999999MD1710021+0101REMSYN076AAXX  04211 57633 42760 80000 10009 21010 40290 57002 885// 333 00102 79999;
0178576330999992000020500004+28830+108770FM-12+066599999V0209999C000010150019N0100001N1+00111-00081103001ADDAA124000791GF108991081051017501999999IA2999+00129MA1999999094851MD1210091+0201REMSYN088AAXX  05001 57633 32760 80000 10011 21008 39485 40300 52009 885// 333 00202 30012 79999;
0112576330999992000020503004+28830+108770FM-12+066599999V0209999C000010150019N0100001N1+00291-00021103061ADDGF108991081051017501999999MD1210081+9999REMSYN060AAXX  05031 57633 42760 80000 10029 21002 40306 52008 885//;
0192576330999992000020506004+28830+108770FM-12+066599999V0209999C000010360019N0120001N1+00591+00101102671ADDAA199000091GF108991011011008001071999KA1999N+00041MA1999999094601MD1710331+0001REMSYN082AAXX  05061 57633 32562 80000 10059 20010 39460 40267 57033 8117/ 333 00005 20004;EQDQ01  00002PRCP99
0122576330999992000020509004+28830+108770FM-12+066599999V0209999C000019999999N0150001N1+00541-00051102581ADDGF108991081001999999071999MD1710081+0001REMSYN070AAXX  05091 57633 42965 80000 10054 21005 40258 57008 8807/ 333 00004;
0173576330999992000020512004+28830+108770FM-12+066599999V0209999C000019999999N0120001N1+00361+00191102681ADDAA199000091GF108991081001999999071999MA1999999094591MD1210071+0011REMSYN076AAXX  05121 57633 32962 80000 10036 20019 39459 40268 52007 8807/ 333 05102;EQDQ01  00002PRCP99
0208576330999992000020518004+28830+108770FM-12+066599999V0209999C000012200019N9999999N1-00041-00101102821ADDAA199000091GA1001+999999999GF100991001001999999001001KA1999M+00671MA1999999094731MD1210011-0101REMSYN082AAXX  05181 57633 3/6// 00000 11004 21010 39473 40282 52001 71000 333 05151 10067;EQDQ01  00002PRCP99
0134576330999992000020521004+28830+108770FM-12+066599999V0209999C000019999999N0030001N1-00091-00121102701ADDGF108991081001999999071999MD1710131+0021MW1101REMSYN076AAXX  05211 57633 41930 80000 11009 21012 40270 57013 71000 8807/ 333 05252;
0221576330999992000020600004+28830+108770FM-12+066599999V0209999C000010003019N0004001N1-00171-00171102771ADDAA199000091AY141061GA1091+999999999GF109991091999999999999999IA2999-00309MA1999999094631MD1210031-0201MW1451REMSYN082AAXX  06001 57633 31/04 90000 11017 21017 39463 40277 52003 74540 333 05253 31033;EQDQ01  00002PRCP99
0150576330999992000020603004+28830+108770FM-12+066599999V0209999C000012200019N0040001N1+00091+00061102751ADDAY141031AY241031GA1001+999999999GF100991001001999999001001MD1710021+9999MW1281REMSYN060AAXX  06031 57633 41940 00000 10009 20006 40275 57002 72844;
0222576330999992000020606004+28830+108770FM-12+066599999V0209999C000012200019N0150001N1+01001-00431102161ADDAA199000091AY141061GA1001+999999999GF100991001001999999001001KA1999N-00211MA1999999094171MD1710441-0401MW1001REMSYN082AAXX  06061 57633 31965 00000 10100 21043 39417 40216 57044 70040 333 05404 21021;EQDQ01  00002PRCP99
0132576330999992000020609004+28830+108770FM-12+066599999V0203601N001012200019N0150001N1+01041-00251102051ADDGA1001+999999999GF100991001001999999001001MD1710101+0051REMSYN064AAXX  06091 57633 42965 03601 10104 21025 40205 57010 333 05505;
0183576330999992000020612004+28830+108770FM-12+066599999V0209999C000012200019N0150001N1+00421-00051102371ADDAA199000091GA1001+999999999GF100991001001999999001001MA1999999094271MD1210201+0031REMSYN070AAXX  06121 57633 32965 00000 10042 21005 39427 40237 52020 333 05301;EQDQ01  00002PRCP99
0122576330999992000020615004+28830+108770FM-12+066599999V0209999C000012200019N0100001N1+00171-00041102551ADDGA1001+999999999GF100991001001999999001001MD1210171+9999REMSYN054AAXX  06151 57633 42960 00000 10017 21004 40255 52017;
0202576330999992000020618004+28830+108770FM-12+066599999V0209999C000012200019N0100001N1+00031-00051102641ADDAA199000091GA1001+999999999GF100991001001999999001001KA1999M+01151MA1999999094631MD1210191-0101REMSYN076AAXX  06181 57633 32960 00000 10003 21005 39463 40264 52019 333 05101 10115;EQDQ01  00002PRCP99
0122576330999992000020621004+28830+108770FM-12+066599999V0209999C000019999999N0100001N1+00071-00041102701ADDGF108991081001999999071999MD1210061+0011REMSYN070AAXX  06211 57633 42960 80000 10007 21004 40270 52006 8807/ 333 00102;
0191576330999992000020700004+28830+108770FM-12+066599999V0209999C000019999999N0120001N1+00131+00001102871ADDAA199000091GF108991081001999999071999IA2999-00109MA1999999094771MD1210081+0101REMSYN082AAXX  07001 57633 32962 80000 10013 20000 39477 40287 52008 8807/ 333 00103 31011;EQDQ01  00002PRCP99
0112576330999992000020703004+28830+108770FM-12+066599999V0209999C000019999999N0120001N1+00401+00041103011ADDGF108991081001999999071999MD1210131+9999REMSYN060AAXX  07031 57633 42962 80000 10040 20004 40301 52013 8807/;
0192576330999992000020706004+28830+108770FM-12+066599999V0209999C000019999999N0150001N1+01021-00011102661ADDAA199000091GF107991071001999999041999KA1999N-00031MA1999999094651MD1710251+0501REMSYN082AAXX  07061 57633 32965 70000 10102 21001 39465 40266 57025 8704/ 333 00500 21003;EQDQ01  00002PRCP99
0122576330999992000020709004+28830+108770FM-12+066599999V0201601N001019999999N0150001N1+01001-00111102501ADDGF107991071001999999031999MD1710151+0041REMSYN070AAXX  07091 57633 42965 71601 10100 21011 40250 57015 8703/ 333 00400;
0183576330999992000020712004+28830+108770FM-12+066599999V0209999C000012200019N0120001N1+00611-00021102651ADDAA199000091GA1001+999999999GF100991001001999999001001MA1999999094601MD1210101+0031REMSYN070AAXX  07121 57633 32962 00000 10061 21002 39460 40265 52010 333 00302;EQDQ01  00002PRCP99
0112576330999992000020715004+28830+108770FM-12+066599999V0209999C000019999999N0120001N1+00281+00021102701ADDGF107991071001999999041999MD1210031+9999REMSYN060AAXX  07151 57633 42962 70000 10028 20002 40270 52003 8704/;
0192576330999992000020718004+28830+108770FM-12+066599999V0209999C000019999999N0100001N1+00231+00101102561ADDAA199000091GF108991081001999999071999KA1999M+01111MA1999999094581MD1710051-0101REMSYN082AAXX  07181 57633 32960 80000 10023 20010 39458 40256 57005 8807/ 333 05102 10111;EQDQ01  00002PRCP99
0134576330999992000020721004+28830+108770FM-12+066599999V0209999C000012200019N0090001N1+00231+00051102411ADDGF104991041001999999041001MD1710141+0031MW1101REMSYN076AAXX  07211 57633 41959 40000 10023 20005 40241 57014 71000 84040 333 05302;
0191576330999992000020800004+28830+108770FM-12+066599999V0209999C000019999999N0100001N1+00221+00091102471ADDAA199000091GF108991081001999999071999IA2999+00009MA1999999094441MD1410001-0301REMSYN082AAXX  08001 57633 32960 80000 10022 20009 39444 40247 54000 8807/ 333 05301 31002;EQDQ01  00002PRCP99
0112576330999992000020803004+28830+108770FM-12+066599999V0209999C000019999999N0120001N1+00401+00071102651ADDGF108991081001999999071999MD1210151+9999REMSYN060AAXX  08031 57633 42962 80000 10040 20007 40265 52015 8807/;
0192576330999992000020806004+28830+108770FM-12+066599999V0203401N001010360019N0120001N1+00631-00351102431ADDAA199000091GF107991011011008001041999KA1999N+00151MA1999999094411MD1710181-0201REMSYN082AAXX  08061 57633 32562 73401 10063 21035 39441 40243 57018 8114/ 333 05254 20015;EQDQ01  00002PRCP99
0122576330999992000020809004+28830+108770FM-12+066599999V0200701N001019999999N0120001N1+00631-00241102281ADDGF108991081001999999071999MD1710141+0021REMSYN070AAXX  08091 57633 42962 80701 10063 21024 40228 57014 8807/ 333 05254;
0173576330999992000020812004+28830+108770FM-12+066599999V0209999C000019999999N0120001N1+00471-00261102471ADDAA199000091GF108991081001999999071999MA1999999094421MD1210151+0021REMSYN076AAXX  08121 57633 32962 80000 10047 21026 39442 40247 52015 8807/ 333 05251;EQDQ01  00002PRCP99
0112576330999992000020815004+28830+108770FM-12+066599999V0209999C000019999999N0120001N1+00421-00151102461ADDGF108991081001999999071999MD1210011+9999REMSYN060AAXX  08151 57633 42962 80000 10042 21015 40246 52001 8807/;
0192576330999992000020818004+28830+108770FM-12+066599999V0209999C000019999999N0120001N1+00401-00101102391ADDAA199000091GF108991081001999999071999KA1999M+00681MA1999999094401MD1710031-0201REMSYN082AAXX  08181 57633 32962 80000 10040 21010 39440 40239 57003 8807/ 333 05202 10068;EQDQ01  00002PRCP99
0122576330999992000020821004+28830+108770FM-12+066599999V0209999C000019999999N0100001N1+00381-00091102231ADDGF108991081001999999071999MD1710151+0021REMSYN070AAXX  08211 57633 42960 80000 10038 21009 40223 57015 8807/ 333 05202;
0191576330999992000020900004+28830+108770FM-12+066599999V0209999C000019999999N0150001N1+00371-00201102321ADDAA199000091GF108991081001999999071999IA2999+00209MA1999999094311MD1210061-0101REMSYN082AAXX  09001 57633 32965 80000 10037 21020 39431 40232 52006 8807/ 333 05102 30024;EQDQ01  00002PRCP99
0112576330999992000020903004+28830+108770FM-12+066599999V0209999C000019999999N0150001N1+00471-00561102391ADDGF108991081001999999071999MD1210071+9999REMSYN060AAXX  09031 57633 42965 80000 10047 21056 40239 52007 8807/;
0199576330999992000020906004+28830+108770FM-12+066599999V0209999C000019999999N0150001N1+00431-00321102121ADDAA106000791AY171061GF108991081001999999071999KA1999N+00311MA1999999094121MD1710261-0301MW1001REMSYN094AAXX  09061 57633 11965 80000 10043 21032 39412 40212 57026 69901 70070 8807/ 333 05352 20031;
0122576330999992000020909004+28830+108770FM-12+066599999V0209999C000019999999N0150001N1+00421-00301101941ADDGF108991081001999999071999MD1710171+0031REMSYN070AAXX  09091 57633 42965 80000 10042 21030 40194 57017 8807/ 333 05352;
0180576330999992000020912004+28830+108770FM-12+066599999V0209999C000019999999N0120001N1+00341-00411102181ADDAA106000791AY171061GF108991081001999999071999MA1999999094161MD1210211+0031MW1221REMSYN088AAXX  09121 57633 11962 80000 10034 21041 39416 40218 52021 69901 72270 8807/ 333 05351;
0112576330999992000020915004+28830+108770FM-12+066599999V0209999C000019999999N0120001N1+00331-00251102231ADDGF108991081001999999071999MD1210061+9999REMSYN060AAXX  09151 57633 42962 80000 10033 21025 40223 52006 8807/;
0173576330999992000020918004+28830+108770FM-12+066599999V0209999C000019999999N0100001N1+00291-00081102181ADDAA199000021GF108991081001999999071999KA1999M+00511MA1999999094161MD1710061-0201REMSYN082AAXX  09181 57633 32960 80000 10029 21008 39416 40218 57006 8807/ 333 05251 10051;
0139576330999992000020921004+28830+108770FM-12+066599999V0209999C000019999999N0100001N1+00271-00071102081ADDAA124000791GF108991081001999999071999MD1710101-0201REMSYN076AAXX  09211 57633 42960 80000 10027 21007 40208 57010 8807/ 333 05251 79999;
0178576330999992000021000004+28830+108770FM-12+066599999V0209999C000019999999N0120001N1+00281-00031102161ADDAA124000791GF107991071001999999071999IA2999+00239MA1999999094131MD1210071-0201REMSYN088AAXX  10001 57633 32962 70000 10028 21003 39413 40216 52007 8707/ 333 05251 30023 79999;
0112576330999992000021003004+28830+108770FM-12+066599999V0209999C000019999999N0120001N1+00431-00091102191ADDGF108991081001999999071999MD1210041+9999REMSYN060AAXX  10031 57633 42962 80000 10043 21009 40219 52004 8807/;
0192576330999992000021006004+28830+108770FM-12+066599999V0201401N001019999999N0120001N1+00711-00101101781ADDAA199000091GF108991081001999999071999KA1999N+00221MA1999999093831MD1710341-0301REMSYN082AAXX  10061 57633 32962 81401 10071 21010 39383 40178 57034 8807/ 333 05303 20022;EQDQ01  00002PRCP99
0122576330999992000021009004+28830+108770FM-12+066599999V0209999C000019999999N0150001N1+00861-00021101651ADDGF108991081001999999071999MD1710101+0021REMSYN070AAXX  10091 57633 42965 80000 10086 21002 40165 57010 8807/ 333 05204;
0173576330999992000021012004+28830+108770FM-12+066599999V0209999C000019999999N0120001N1+00621+00141101851ADDAA199000091GF107991071001999999031999MA1999999093881MD1210151+0031REMSYN076AAXX  10121 57633 32962 70000 10062 20014 39388 40185 52015 8703/ 333 05303;EQDQ01  00002PRCP99
0112576330999992000021015004+28830+108770FM-12+066599999V0209999C000012200019N0120001N1+00411+00141102111ADDGF104991041001999999041001MD1210231+9999REMSYN060AAXX  10151 57633 42962 40000 10041 20014 40211 52023 84040;
0192576330999992000021018004+28830+108770FM-12+066599999V0209999C000019999999N0100001N1+00151+00071102101ADDAA199000091GF107991071001999999041001KA1999M+00891MA1999999094111MD1410001-0101REMSYN082AAXX  10181 57633 32960 70000 10015 20007 39411 40210 54000 87040 333 05151 10089;EQDQ01  00002PRCP99
0144576330999992000021021004+28830+108770FM-12+066599999V0209999C000012200019N0090001N1+00021-00031101971ADDGA1001+999999999GF100991001001999999001001MD1710121+0011MW1101REMSYN070AAXX  10211 57633 41959 00000 10002 21003 40197 57012 71000 333 05153;
0213576330999992000021100004+28830+108770FM-12+066599999V0209999C000012200019N0090001N1-00021-00071102151ADDAA199000091GA1001+999999999GF100991001001999999001001IA2999-00209MA1999999094121MD1210131+0001MW1101REMSYN082AAXX  11001 57633 31959 00000 11002 21007 39412 40215 52013 71000 333 00053 31029;EQDQ01  00002PRCP99
0112576330999992000021103004+28830+108770FM-12+066599999V0209999C000019999999N0150001N1+00711+00191102111ADDGF105991051001999999041001MD1210031+9999REMSYN060AAXX  11031 57633 42965 50000 10071 20019 40211 52003 85040;
0192576330999992000021106004+28830+108770FM-12+066599999V0209999C000019999999N0170001N1+01211+00201101771ADDAA199000091GF108991081001999999071999KA1999N-00081MA1999999093871MD1710281+0001REMSYN082AAXX  11061 57633 32967 80000 10121 20020 39387 40177 57028 8807/ 333 00005 21008;EQDQ01  00002PRCP99
0122576330999992000021109004+28830+108770FM-12+066599999V0201401N001019999999N0150001N1+01081+00201101731ADDGF108991081001999999071999MD1710071+0011REMSYN070AAXX  11091 57633 42965 81401 10108 20020 40173 57007 8807/ 333 00102;
0158576330999992000021112004+28830+108770FM-12+066599999V0209999C000019999999N0120001N1+00891+00281999999ADDAA199000091GF108991999999999999999999MA1999999093921REMSYN075AAXX  11121 57633 32962 80000 10089 20028 39392 0190 52012 8807/ 333 00003;EQDQ01  00002PRCP99
0112576330999992000021115004+28830+108770FM-12+066599999V0209999C000019999999N0120001N1+00801+00351101981ADDGF108991081001999999071999MD1210161+9999REMSYN060AAXX  11151 57633 42962 80000 10080 20035 40198 52016 8807/;
0192576330999992000021118004+28830+108770FM-12+066599999V0209999C000019999999N0120001N1+00751+00291101821ADDAA199000091GF108991081001999999071999KA1999M+01281MA1999999094001MD1819999-0101REMSYN082AAXX  11181 57633 32962 80000 10075 20029 39400 40182 58/08 8807/ 333 05106 10128;EQDQ01  00002PRCP99
0122576330999992000021121004+28830+108770FM-12+066599999V0209999C000019999999N0120001N1+00681+00311101691ADDGF108991081001999999071999MD1710151+0011REMSYN070AAXX  11211 57633 42962 80000 10068 20031 40169 57015 8807/ 333 05107;
0191576330999992000021200004+28830+108770FM-12+066599999V0209999C000019999999N0150001N1+00631+00361101781ADDAA199000091GF108991081001999999071999IA2999+00409MA1999999093901MD1210051-0201REMSYN082AAXX  12001 57633 32965 80000 10063 20036 39390 40178 52005 8807/ 333 05207 30048;EQDQ01  00002PRCP99
0112576330999992000021203004+28830+108770FM-12+066599999V0209999C000019999999N0150001N1+00851+00381101801ADDGF108991081001999999071999MD1210041+9999REMSYN060AAXX  12031 57633 42965 80000 10085 20038 40180 52004 8807/;
0192576330999992000021206004+28830+108770FM-12+066599999V0209999C000019999999N0150001N1+01031+00271101491ADDAA199000091GF108991081001999999071999KA1999N+00561MA1999999093671MD1710271-0201REMSYN082AAXX  12061 57633 32965 80000 10103 20027 39367 40149 57027 8807/ 333 05252 20056;EQDQ01  00002PRCP99
0122576330999992000021209004+28830+108770FM-12+066599999V0203601N001019999999N0150001N1+01031+00271101341ADDGF108991081001999999071999MD1710151+0031REMSYN070AAXX  12091 57633 42965 83601 10103 20027 40134 57015 8807/ 333 05351;
0173576330999992000021212004+28830+108770FM-12+066599999V0200201N001019999999N0150001N1+00941+00291101481ADDAA199000091GF108991081001999999071999MA1999999093631MD1210111+0031REMSYN076AAXX  12121 57633 32965 80201 10094 20029 39363 40148 52011 8807/ 333 05301;EQDQ01  00002PRCP99
0112576330999992000021215004+28830+108770FM-12+066599999V0209999C000019999999N0100001N1+00871+00381101561ADDGF108991081001999999071999MD1210091+9999REMSYN060AAXX  12151 57633 42960 80000 10087 20038 40156 52009 8807/;
0199576330999992000021218004+28830+108770FM-12+066599999V0209999C000019999999N0100001N1+00821+00521101461ADDAA106000791AY161061GF108991081001999999071999KA1999M+01111MA1999999093651MD1710071-0401MW1601REMSYN094AAXX  12181 57633 11960 80000 10082 20052 39365 40146 57007 69901 76060 8807/ 333 05401 10111;
0167576330999992000021221004+28830+108770FM-12+066599999V0209999C000010042019N0100001N1+00741+00611101351ADDAA124000191AY161031AY261031GF108991051071004501071999MD1710111-0301MW1601REMSYN082AAXX  12211 57633 41460 80000 10074 20061 40135 57011 76066 8577/ 333 05301 70001;
0194576330999992000021300004+28830+108770FM-12+066599999V0209999C000010042019N0080001N1+00721+00641101581ADDAA106000191AY161061AY261061GF108991061071004501071999MA1999999093731MD1210191-0201MW1601REMSYN094AAXX  13001 57633 11458 80000 10072 20064 39373 40158 52019 69921 76066 8677/ 333 05201 70002;
0140576330999992000021303004+28830+108770FM-12+066599999V0209999C000010042019N0070001N1+00831+00731101741ADDAY161031AY261031GF108991081071004501999999MD1210161+9999MW1601REMSYN066AAXX  13031 57633 41457 80000 10083 20073 40174 52016 76066 887//;
0199576330999992000021306004+28830+108770FM-12+066599999V0209999C000010042019N0150001N1+01031+00791101561ADDAA106000591AY161061GF108991081071004501999999KA1999N+00681MA1999999093741MD1710151+0101MW1001REMSYN094AAXX  13061 57633 11465 80000 10103 20079 39374 40156 57015 69941 70060 887// 333 00100 20068;
0122576330999992000021309004+28830+108770FM-12+066599999V0201601N001010150019N0120001N1+01021+00761101561ADDGF108991081051017501999999MD1710011+0021REMSYN070AAXX  13091 57633 42762 81601 10102 20076 40156 57001 885// 333 00200;
0172576330999992000021312004+28830+108770FM-12+066599999V0209999C000010150019N0120001N1+00911+00771101871ADDAA106000791GF108991081051017501999999MA1999999094001MD1210271+0041MW1601REMSYN088AAXX  13121 57633 11762 80000 10091 20077 39400 40187 52027 69901 76000 885// 333 00400;
0132576330999992000021315004+28830+108770FM-12+066599999V0209999C000010150019N0120001N1+00871+00571102171ADDAY161031GF108991081051017501999999MD1210281+9999MW1211REMSYN066AAXX  13151 57633 41762 80000 10087 20057 40217 52028 72160 885//;
0199576330999992000021318004+28830+108770FM-12+066599999V0209999C000010042019N0120001N1+00821+00561102221ADDAA106000791AY161061GF108991081051004501999999KA1999M+01091MA1999999094351MD1210071+0701MW1601REMSYN094AAXX  13181 57633 11462 80000 10082 20056 39435 40222 52007 69901 76060 885// 333 00700 10109;
0167576330999992000021321004+28830+108770FM-12+066599999V0209999C000010042019N0080001N1+00701+00591102241ADDAA124001091AY161031AY261031GF108991081071004501999999MD1410001+0801MW1601REMSYN082AAXX  13211 57633 41458 80000 10070 20059 40224 54000 76066 887// 333 00800 70010;
0186576330999992000021400004+28830+108770FM-12+066599999V0209999C000010042019N0100001N1+00671+00471102511ADDAA106000591AY161061GF108991081051004501999999MA1999999094581MD1210231+0901MW1001REMSYN094AAXX  14001 57633 11460 80000 10067 20047 39458 40251 52023 69961 70060 885// 333 00951 70010;
0132576330999992000021403004+28830+108770FM-12+066599999V0209999C000010042019N0120001N1+00751+00371102701ADDAY161031GF108991081051004501999999MD1210181+9999MW1601REMSYN066AAXX  14031 57633 41462 80000 10075 20037 40270 52018 76060 885//;
0199576330999992000021406004+28830+108770FM-12+066599999V0201601N001010360019N0150001N1+00801+00111102491ADDAA106000791AY161061GF108991021011008001071999KA1999N+00621MA1999999094571MD1710191+0801MW1001REMSYN094AAXX  14061 57633 11565 81601 10080 20011 39457 40249 57019 69901 70060 8217/ 333 00852 20062;
0122576330999992000021409004+28830+108770FM-12+066599999V0201101N001010360019N0150001N1+00821-00051102391ADDGF108991011011008001071999MD1710111+0071REMSYN070AAXX  14091 57633 42565 81101 10082 21005 40239 57011 8117/ 333 00752;
0154576330999992000021412004+28830+108770FM-12+066599999V0209999C000019999999N0150001N1+00731-00041102641ADDAA199000021GF107991071001999999071999MA1999999094681MD1210221+0071REMSYN076AAXX  14121 57633 32965 70000 10073 21004 39468 40264 52022 8707/ 333 00752;
0186576330999992000021418004+28830+108770FM-12+066599999V0209999C000019999999N0120001N1+00601+99999999999ADDAA199000091GF108991081001999999071999KA1999M+00831MA1999999094751MD1710051+0401REMSYN076AAXX  14181 57633 32962 80000 10060 2/022 39475 57005 8807/ 333 00452 10083;EQDQ01  00002PRCP99
0139576330999992000021421004+28830+108770FM-12+066599999V0209999C000019999999N0100001N1+00541+00281102561ADDAA124000191GF108991081001999999071999MD1710151+0301REMSYN076AAXX  14211 57633 42960 80000 10054 20028 40256 57015 8807/ 333 00352 70001;
0178576330999992000021500004+28830+108770FM-12+066599999V0209999C000019999999N0120001N1+00531+00241102641ADDAA124000791GF108991081001999999071999IA2999+00439MA1999999094661MD1210061+0101REMSYN088AAXX  15001 57633 32962 80000 10053 20024 39466 40264 52006 8807/ 333 00151 30043 79999;
0112576330999992000021503004+28830+108770FM-12+066599999V0209999C000019999999N0120001N1+00671+00271102791ADDGF108991081001999999071999MD1210151+9999REMSYN060AAXX  15031 57633 42962 80000 10067 20027 40279 52015 8807/;
0192576330999992000021506004+28830+108770FM-12+066599999V0202201N002019999999N0200001N1+01011-00271102421ADDAA199000091GF107991071001999999031999KA1999N+00471MA1999999094501MD1710311-0101REMSYN082AAXX  15061 57633 32970 72202 10101 21027 39450 40242 57031 8703/ 333 05102 20047;EQDQ01  00002PRCP99
0122576330999992000021509004+28830+108770FM-12+066599999V0201101N002010150019N0180001N1+00911-00281102261ADDGF108991081051017501999999MD1710171+0011REMSYN070AAXX  15091 57633 42768 81102 10091 21028 40226 57017 885// 333 05101;
0173576330999992000021512004+28830+108770FM-12+066599999V0209999C000019999999N0150001N1+00811-00221102361ADDAA199000091GF108991081001999999071999MA1999999094411MD1210081+0031REMSYN076AAXX  15121 57633 32965 80000 10081 21022 39441 40236 52008 8807/ 333 05301;EQDQ01  00002PRCP99
0112576330999992000021515004+28830+108770FM-12+066599999V0209999C000019999999N0150001N1+00811-00411102471ADDGF108991081001999999071999MD1210121+9999REMSYN060AAXX  15151 57633 42965 80000 10081 21041 40247 52012 8807/;
0218576330999992000021518004+28830+108770FM-12+066599999V0201401N003019999999N0150001N1+00701-00431102331ADDAA106999999AY171061GF108991081001999999021999KA1999M+01071MA1999999094431MD1710101-0301MW1601REMSYN094AAXX  15181 57633 11965 81403 10070 21043 39443 40233 57010 69001 76070 8802/ 333 05301 10107;EQDQ01  89992PRCP06
0167576330999992000021521004+28830+108770FM-12+066599999V0209999C000019999999N0150001N1+00411+00081102281ADDAA124000791AY161031AY261031GF108991081001999999071999MD1710101-0301MW1211REMSYN082AAXX  15211 57633 41965 80000 10041 20008 40228 57010 72166 8807/ 333 05351 79999;
0204576330999992000021600004+28830+108770FM-12+066599999V0209999C000019999999N0150001N1+00391+00121102361ADDAA106000791AY161061GF108991081001999999071999IA2999+00329MA1999999094391MD1210061-0301MW1001REMSYN100AAXX  16001 57633 11965 80000 10039 20012 39439 40236 52006 69901 70060 8807/ 333 05351 30032 79999;
0112576330999992000021603004+28830+108770FM-12+066599999V0209999C000019999999N0150001N1+00571-00011102421ADDGF108991081001999999071999MD1210081+9999REMSYN060AAXX  16031 57633 42965 80000 10057 21001 40242 52008 8807/;
0173576330999992000021606004+28830+108770FM-12+066599999V0201601N001010360019N0150001N1+00951-00181102121ADDAA199000021GF107991011011008001041999KA1999N+00341MA1999999094231MD1710241-0301REMSYN082AAXX  16061 57633 32565 71601 10095 21018 39423 40212 57024 8114/ 333 05351 20034;
0122576330999992000021609004+28830+108770FM-12+066599999V0201601N002012200019N0180001N1+01051+00071101891ADDGF101991011011008001001001MD1710241+0031REMSYN070AAXX  16091 57633 42568 11602 10105 20007 40189 57024 81100 333 05301;
0173576330999992000021612004+28830+108770FM-12+066599999V0209999C000019999999N0150001N1+00661+00191102161ADDAA199000091GF107991071001999999041001MA1999999094191MD1210201+0021REMSYN076AAXX  16121 57633 32965 70000 10066 20019 39419 40216 52020 87040 333 05252;EQDQ01  00002PRCP99
0122576330999992000021615004+28830+108770FM-12+066599999V0209999C000012200019N0150001N1+00411+00161102371ADDGA1001+999999999GF100991001001999999001001MD1210181+9999REMSYN054AAXX  16151 57633 42965 00000 10041 20016 40237 52018;
0202576330999992000021618004+28830+108770FM-12+066599999V0209999C000012200019N0150001N1+00221+00121102191ADDAA199000091GA1001+999999999GF100991001001999999001001KA1999M+01151MA1999999094231MD1710141-0201REMSYN076AAXX  16181 57633 32965 00000 10022 20012 39423 40219 57014 333 05255 10115;EQDQ01  00002PRCP99
0122576330999992000021621004+28830+108770FM-12+066599999V0209999C000010150019N0120001N1+00161+00081102121ADDGF108991081051017501999999MD1710061+0021REMSYN070AAXX  16211 57633 42762 80000 10016 20008 40212 57006 885// 333 05253;
0191576330999992000021700004+28830+108770FM-12+066599999V0203601N001010150019N0120001N1+00271+00151102081ADDAA199000091GF107991071051017501999999IA2999-00109MA1999999094101MD1710071-0301REMSYN082AAXX  17001 57633 32762 73601 10027 20015 39410 40208 57007 875// 333 05351 31013;EQDQ01  00002PRCP99
0112576330999992000021703004+28830+108770FM-12+066599999V0203601N003010150019N0150001N1+00521+00131102191ADDGF108991081051017501999999MD1210101+9999REMSYN060AAXX  17031 57633 42765 83603 10052 20013 40219 52010 885//;
0192576330999992000021706004+28830+108770FM-12+066599999V0209999C000010150019N0150001N1+00521+00101101881ADDAA199000091GF108991081051017501999999KA1999N+00071MA1999999093891MD1710311-0301REMSYN082AAXX  17061 57633 32765 80000 10052 20010 39389 40188 57031 885// 333 05354 20007;EQDQ01  00002PRCP99
0142576330999992000021709004+28830+108770FM-12+066599999V0209999C000010042019N0120001N1+00421+00231101651ADDAY161031GF108991081071004501999999MD1710241+0031MW1601REMSYN076AAXX  17091 57633 41462 80000 10042 20023 40165 57024 76060 887// 333 05356;
0180576330999992000021712004+28830+108770FM-12+066599999V0203601N001010042019N0120001N1+00401+00261101611ADDAA106000591AY161061GF108991081071004501999999MA1999999093631MD1710021+0061MW1601REMSYN088AAXX  17121 57633 11462 83601 10040 20026 39363 40161 57002 69941 76060 887// 333 05653;
0140576330999992000021715004+28830+108770FM-12+066599999V0209999C000010042019N0100001N1+00381+00331101701ADDAY161031AY261031GF108991081071004501999999MD1210111+9999MW1601REMSYN066AAXX  17151 57633 41460 80000 10038 20033 40170 52011 76066 887//;
0207576330999992000021718004+28830+108770FM-12+066599999V0209999C000010042019N0080001N1+00391+00341101631ADDAA106003091AY161061AY261061GF108991061071004501021999KA1999M+00551MA1999999093681MD1710061-0601MW1611REMSYN094AAXX  17181 57633 11458 80000 10039 20034 39368 40163 57006 60031 76166 8672/ 333 05602 10055;
0167576330999992000021721004+28830+108770FM-12+066599999V0209999C000010042019N0100001N1+00401+00331101491ADDAA124005191AY161031AY261031GF108991051071004501021999MD1710141-0601MW1611REMSYN082AAXX  17211 57633 41460 80000 10040 20033 40149 57014 76166 8572/ 333 05602 70050;
0212576330999992000021800004+28830+108770FM-12+066599999V0209999C000010042019N0150001N1+00401+00311101581ADDAA106002091AY161061AY261061GF108991061071004501021999IA2999+00379MA1999999093621MD1210081-0501MW1611REMSYN100AAXX  18001 57633 11465 80000 10040 20031 39362 40158 52008 60021 76166 8672/ 333 05501 30037 70054;
0132576330999992000021803004+28830+108770FM-12+066599999V0209999C000010042019N0170001N1+00521+00291101641ADDAY161031GF108991061071004501021999MD1210071+9999MW1001REMSYN066AAXX  18031 57633 41467 80000 10052 20029 40164 52007 70060 8672/;
0199576330999992000021806004+28830+108770FM-12+066599999V0209999C000010075019N0170001N1+00641+00321101321ADDAA106000191AY161061GF108991051011008001071999KA1999N+00321MA1999999093411MD1710281-0501MW1001REMSYN094AAXX  18061 57633 11567 80000 10064 20032 39341 40132 57028 69921 70060 8517/ 333 05501 20032;
0122576330999992000021809004+28830+108770FM-12+066599999V0209999C000010360019N0170001N1+00661+00391101161ADDGF108991021011008001071999MD1710141+0041REMSYN070AAXX  18091 57633 42567 80000 10066 20039 40116 57014 8217/ 333 05402;
0180576330999992000021812004+28830+108770FM-12+066599999V0209999C000010042019N0170001N1+00591+00411101351ADDAA106000791AY161061GF108991081071004501999999MA1999999093431MD1210161+0021MW1601REMSYN088AAXX  18121 57633 11467 80000 10059 20041 39343 40135 52016 69901 76060 887// 333 05202;
0140576330999992000021815004+28830+108770FM-12+066599999V0209999C000010042019N0120001N1+00571+00481101471ADDAY161031AY261031GF108991081071004501999999MD1210131+9999MW1601REMSYN066AAXX  18151 57633 41462 80000 10057 20048 40147 52013 76066 887//;
0207576330999992000021818004+28830+108770FM-12+066599999V0209999C000010042019N0150001N1+00591+00411101481ADDAA106000591AY161061AY261061GF108991081071004501999999KA1999M+00691MA1999999093581MD1210021-0101MW1611REMSYN094AAXX  18181 57633 11465 80000 10059 20041 39358 40148 52002 69941 76166 887// 333 05102 10069;
0167576330999992000021821004+28830+108770FM-12+066599999V0209999C000010042019N0120001N1+00521+00481101481ADDAA124002091AY161031AY261031GF108991081071004501999999MD1410001+0001MW1601REMSYN082AAXX  18211 57633 41462 80000 10052 20048 40148 54000 76066 887// 333 00001 70021;
0212576330999992000021900004+28830+108770FM-12+066599999V0209999C000010042019N0120001N1+00491+00471101741ADDAA106003091AY161061AY261061GF108991071071004501071999IA2999+00489MA1999999093801MD1210221+0201MW1601REMSYN100AAXX  19001 57633 11462 80000 10049 20047 39380 40174 52022 60031 76066 8777/ 333 00201 30048 70033;
0140576330999992000021903004+28830+108770FM-12+066599999V0209999C000010042019N0170001N1+00551+00371101951ADDAY161031AY261031GF108991061071004501071999MD1210201+9999MW1211REMSYN066AAXX  19031 57633 41467 80000 10055 20037 40195 52020 72166 8677/;
0199576330999992000021906004+28830+108770FM-12+066599999V0200201N001010075019N0180001N1+00631+00231101731ADDAA106000191AY161061GF108991051011008001071999KA1999N+00451MA1999999093811MD1710191+0401MW1001REMSYN094AAXX  19061 57633 11568 80201 10063 20023 39381 40173 57019 69911 70060 8517/ 333 00400 20045;
0122576330999992000021909004+28830+108770FM-12+066599999V0200401N001010075019N0200001N1+00601+00141101671ADDGF108991061041008001071999MD1710071+0051REMSYN070AAXX  19091 57633 42570 80401 10060 20014 40167 57007 8647/ 333 00551;
0154576330999992000021912004+28830+108770FM-12+066599999V0209999C000010150019N0150001N1+00551+00191101861ADDAA199000021GF108991081051017501999999MA1999999093911MD1210171+0051REMSYN076AAXX  19121 57633 32765 80000 10055 20019 39391 40186 52017 885// 333 00500;
0140576330999992000021915004+28830+108770FM-12+066599999V0209999C000010042019N0150001N1+00511+00151101961ADDAY171031AY261031GF108991081051004501999999MD1210091+9999MW1601REMSYN066AAXX  19151 57633 41465 80000 10051 20015 40196 52009 76076 885//;
0207576330999992000021918004+28830+108770FM-12+066599999V0209999C000010042019N0120001N1+00331+00211102081ADDAA106002091AY171061AY261061GF108991081071004501999999KA1999M+00661MA1999999094101MD1210101+0501MW1791REMSYN094AAXX  19181 57633 11462 80000 10033 20021 39410 40208 52010 60021 77976 887// 333 00553 10066;
0167576330999992000021921004+28830+108770FM-12+066599999V0209999C000010042019N0120001N1+00311+00161102151ADDAA124004191AY171031AY261031GF108991081071004501999999MD1210061+0601MW1791REMSYN082AAXX  19211 57633 41462 80000 10031 20016 40215 52006 77976 887// 333 00652 70040;
0212576330999992000022000004+28830+108770FM-12+066599999V0209999C000010042019N0120001N1+00311+00191102271ADDAA106000891AY171061AY261061GF108991081071004501999999IA2999+00189MA1999999094261MD1210101+0501MW1001REMSYN100AAXX  20001 57633 11462 80000 10031 20019 39426 40227 52010 69981 70076 887// 333 00552 30018 70028;
0132576330999992000022003004+28830+108770FM-12+066599999V0209999C000010042019N0150001N1+00431+00111102451ADDAY161031GF108991081071004501999999MD1210181+9999MW1211REMSYN066AAXX  20031 57633 41465 80000 10043 20011 40245 52018 72160 887//;
0199576330999992000022006004+28830+108770FM-12+066599999V0201401N002010075019N0150001N1+00581+00031102121ADDAA106000791AY161061GF108991081041008001999999KA1999N+00241MA1999999094131MD1710311+0301MW1001REMSYN094AAXX  20061 57633 11565 81402 10058 20003 39413 40212 57031 69901 70060 884// 333 00351 20024;
0122576330999992000022009004+28830+108770FM-12+066599999V0201401N001010120019N0150001N1+00521+00071102001ADDGF108991081051012501999999MD1710121+0031REMSYN070AAXX  20091 57633 42665 81401 10052 20007 40200 57012 885// 333 00351;
0154576330999992000022012004+28830+108770FM-12+066599999V0209999C000010150019N0150001N1+00491+00121102091ADDAA199000021GF108991081051017501999999MA1999999094091MD1210081+0021REMSYN076AAXX  20121 57633 32765 80000 10049 20012 39409 40209 52008 885// 333 00251;
0112576330999992000022015004+28830+108770FM-12+066599999V0209999C000010150019N0150001N1+00491+00181102201ADDGF108991081051017501999999MD1210121+9999REMSYN060AAXX  20151 57633 42765 80000 10049 20018 40220 52012 885//;
0199576330999992000022018004+28830+108770FM-12+066599999V0209999C000010150019N0120001N1+00471+00211102171ADDAA106000791AY161061GF108991081051017501999999KA1999M+00651MA1999999094201MD1710011+0101MW1601REMSYN094AAXX  20181 57633 11762 80000 10047 20021 39420 40217 57001 69901 76060 885// 333 00101 10065;
0167576330999992000022021004+28830+108770FM-12+066599999V0209999C000010042019N0150001N1+00441+00171102101ADDAA124000591AY161031AY261031GF108991081051004501999999MD1710081+0001MW1601REMSYN082AAXX  20211 57633 41465 80000 10044 20017 40210 57008 76066 885// 333 00001 70004;
0212576330999992000022100004+28830+108770FM-12+066599999V0209999C000010042019N0100001N1+00371+00171102141ADDAA106000191AY161061AY261061GF108991081071004501999999IA2999+00349MA1999999094141MD1210021-0101MW1601REMSYN100AAXX  21001 57633 11460 80000 10037 20017 39414 40214 52002 69911 76066 887// 333 05101 30034 70001;
0140576330999992000022103004+28830+108770FM-12+066599999V0209999C000010042019N0100001N1+00401+00181102261ADDAY161031AY261031GF108991081071004501999999MD1210121+9999MW1601REMSYN066AAXX  21031 57633 41460 80000 10040 20018 40226 52012 76066 887//;
0199576330999992000022106004+28830+108770FM-12+066599999V0201601N001010042019N0150001N1+00451+00161101921ADDAA106000791AY161061GF108991081071004501999999KA1999N+00311MA1999999093951MD1710311-0201MW1001REMSYN094AAXX  21061 57633 11465 81601 10045 20016 39395 40192 57031 69901 70060 887// 333 05251 20031;
0134576330999992000022109004+28830+108770FM-12+066599999V0201101N001010042019N0150001N1+00421+00151101771ADDGF108991081071004501999999MD1710151+0021MW1601REMSYN076AAXX  21091 57633 41465 81101 10042 20015 40177 57015 76000 887// 333 05251;
0170576330999992000022112004+28830+108770FM-12+066599999V0209999C000010042019N0100001N1+00411+00191101921ADDAA106000791AY161061GF108991081071004501999999MA1999999093931MD1210131+9999MW1601REMSYN078AAXX  21121 57633 11460 80000 10041 20019 39393 40192 52013 69901 76060 887//;
0132576330999992000022115004+28830+108770FM-12+066599999V0209999C000010150019N0120001N1+00421+00151102121ADDAY161031GF108991081051017501999999MD1210191+9999MW1001REMSYN066AAXX  21151 57633 41762 80000 10042 20015 40212 52019 70060 885//;
0199576330999992000022118004+28830+108770FM-12+066599999V0209999C000010150019N0120001N1+00391+00141102161ADDAA106000791AY161061GF108991081051017501999999KA1999M+00521MA1999999094161MD1210041+0001MW1001REMSYN094AAXX  21181 57633 11762 80000 10039 20014 39416 40216 52004 69901 70060 885// 333 00051 10052;
0139576330999992000022121004+28830+108770FM-12+066599999V0209999C000010150019N0120001N1+00371+00121102081ADDAA124000191GF108991081051017501999999MD1710081+0001REMSYN076AAXX  21211 57633 42762 80000 10037 20012 40208 57008 885// 333 00051 70001;
0178576330999992000022200004+28830+108770FM-12+066599999V0209999C000010042019N0150001N1+00351+00131102151ADDAA124000791GF108991081071004501999999IA2999+00319MA1999999094141MD1210061+0001REMSYN088AAXX  22001 57633 32465 80000 10035 20013 39414 40215 52006 887// 333 00000 30031 79999;
0112576330999992000022203004+28830+108770FM-12+066599999V0209999C000010150019N0150001N1+00361+00081102181ADDGF108991081051017501999999MD1210031+9999REMSYN060AAXX  22031 57633 42765 80000 10036 20008 40218 52003 885//;
0192576330999992000022206004+28830+108770FM-12+066599999V0209999C000010150019N0150001N1+00421+00071101961ADDAA199000091GF108991081051017501999999KA1999N+00301MA1999999093971MD1710201+0001REMSYN082AAXX  22061 57633 32765 80000 10042 20007 39397 40196 57020 885// 333 00000 20030;EQDQ01  00002PRCP99
0142576330999992000022209004+28830+108770FM-12+066599999V0209999C000010042019N0120001N1+00401+00131101851ADDAY161031GF108991081071004501999999MD1710111+0011MW1601REMSYN076AAXX  22091 57633 41462 80000 10040 20013 40185 57011 76060 887// 333 00100;
0180576330999992000022212004+28830+108770FM-12+066599999V0209999C000010042019N0100001N1+00391+00171102051ADDAA106000791AY161061GF108991081071004501999999MA1999999094041MD1210181+0011MW1601REMSYN088AAXX  22121 57633 11460 80000 10039 20017 39404 40205 52018 69901 76060 887// 333 00100;
0140576330999992000022215004+28830+108770FM-12+066599999V0209999C000010042019N0100001N1+00391+00201102301ADDAY161031AY261031GF108991081071004501999999MD1210231+9999MW1601REMSYN066AAXX  22151 57633 41460 80000 10039 20020 40230 52023 76066 887//;
0207576330999992000022218004+28830+108770FM-12+066599999V0209999C000010042019N0120001N1+00381+00181102321ADDAA106000791AY161061AY261061GF108991081051004501999999KA1999M+00441MA1999999094301MD1210031+0101MW1211REMSYN094AAXX  22181 57633 11462 80000 10038 20018 39430 40232 52003 69901 72166 885// 333 00100 10044;
0139576330999992000022221004+28830+108770FM-12+066599999V0209999C000010150019N0120001N1+00381+00181102291ADDAA124000791GF108991081051017501999999MD1710031+0201REMSYN076AAXX  22211 57633 42762 80000 10038 20018 40229 57003 885// 333 00200 79999;
0178576330999992000022300004+28830+108770FM-12+066599999V0209999C000010150019N0120001N1+00401+00181102421ADDAA124000791GF108991081051017501999999IA2999+00309MA1999999094391MD1210121+0301REMSYN088AAXX  23001 57633 32762 80000 10040 20018 39439 40242 52012 885// 333 00301 30030 79999;
0132576330999992000022303004+28830+108770FM-12+066599999V0209999C000010150019N0120001N1+00491+00171102571ADDAY161031GF108991081051017501999999MD1210151+9999MW1601REMSYN066AAXX  23031 57633 41762 80000 10049 20017 40257 52015 76060 885//;
0199576330999992000022306004+28830+108770FM-12+066599999V0201401N001010120019N0150001N1+00611+00071102321ADDAA106000791AY161061GF108991081051012501999999KA1999N+00311MA1999999094331MD1710211+0401MW1001REMSYN094AAXX  23061 57633 11665 81401 10061 20007 39433 40232 57021 69901 70060 885// 333 00402 20031;
0122576330999992000022309004+28830+108770FM-12+066599999V0201401N002010120019N0150001N1+00671+00031102141ADDGF107991071081008001999999MD1710161+0031REMSYN070AAXX  23091 57633 42565 71402 10067 20003 40214 57016 878// 333 00303;
0154576330999992000022312004+28830+108770FM-12+066599999V0203601N001010150019N0120001N1+00561+00091102361ADDAA199000021GF108991081051017501999999MA1999999094361MD1210191+0031REMSYN076AAXX  23121 57633 32762 83601 10056 20009 39436 40236 52019 885// 333 00302;
0112576330999992000022315004+28830+108770FM-12+066599999V0209999C000010150019N0100001N1+00531+00221102581ADDGF108991081051017501999999MD1210211+9999REMSYN060AAXX  23151 57633 42760 80000 10053 20022 40258 52021 885//;
0162576330999992000022318004+28830+108770FM-12+066599999V0209999C000010150019N0100001N1+00461+00291102641ADDGF108991081051017501999999KA1999M+00711MA1999999094631MD1210061+0301REMSYN082AAXX  23181 57633 42760 80000 10046 20029 39463 40264 52006 885// 333 00301 10071;
0139576330999992000022321004+28830+108770FM-12+066599999V0209999C000010150019N0100001N1+00441+00301102511ADDAA124000791GF108991081051017501999999MD1710111+0301REMSYN076AAXX  23211 57633 42760 80000 10044 20030 40251 57011 885// 333 00301 79999;
0178576330999992000022400004+28830+108770FM-12+066599999V0209999C000010360019N0150001N1+00441-00021102701ADDAA124000791GF108991011011008001071999IA2999+00329MA1999999094681MD1210161+0301REMSYN088AAXX  24001 57633 32565 80000 10044 21002 39468 40270 52016 8117/ 333 00300 30032 79999;
0112576330999992000022403004+28830+108770FM-12+066599999V0201601N001010360019N0150001N1+00641-00071102851ADDGF108991041011008001071999MD1210161+9999REMSYN060AAXX  24031 57633 42565 81601 10064 21007 40285 52016 8417/;
0192576330999992000022406004+28830+108770FM-12+066599999V0200401N001010075019N0150001N1+00761+00001102501ADDAA199000091GF107991061011008001041999KA1999N+00401MA1999999094521MD1710321+0201REMSYN082AAXX  24061 57633 32565 70401 10076 20000 39452 40250 57032 8614/ 333 00202 20040;EQDQ01  00002PRCP99
0122576330999992000022409004+28830+108770FM-12+066599999V0200401N001010120019N0150001N1+00671+00031102401ADDGF108991081051012501999999MD1710101+0031REMSYN070AAXX  24091 57633 42665 80401 10067 20003 40240 57010 885// 333 00300;
0173576330999992000022412004+28830+108770FM-12+066599999V0209999C000010150019N0120001N1+00591+00071102541ADDAA199000091GF108991081051017501999999MA1999999094531MD1210111+0021REMSYN076AAXX  24121 57633 32762 80000 10059 20007 39453 40254 52011 885// 333 00200;EQDQ01  00002PRCP99
0124576330999992000022415004+28830+108770FM-12+066599999V0200701N001010150019N0100001N1+00531+00111102801ADDGF108991081051017501999999MD1210261+9999MW1601REMSYN066AAXX  24151 57633 41760 80701 10053 20011 40280 52026 76000 885//;
0199576330999992000022418004+28830+108770FM-12+066599999V0209999C000010150019N0100001N1+00471+00101102841ADDAA106000791AY161061GF108991081051017501999999KA1999M+00791MA1999999094841MD1210051+0201MW1001REMSYN094AAXX  24181 57633 11760 80000 10047 20010 39484 40284 52005 69901 70060 885// 333 00200 10079;
0139576330999992000022421004+28830+108770FM-12+066599999V0209999C000010150019N0100001N1+00421+00091102921ADDAA124000791GF108991081051017501999999MD1210051+0401REMSYN076AAXX  24211 57633 42760 80000 10042 20009 40292 52005 885// 333 00400 79999;
0198576330999992000022500004+28830+108770FM-12+066599999V0209999C000010150019N0100001N1+00301+00191103151ADDAA106000791AY161061GF108991081051017501999999IA2999+00309MA1999999095091MD1210201+0401MW1601REMSYN094AAXX  25001 57633 11760 80000 1003/ 20019 39509 40315 52020 69901 76060 885// 333 00451 30032;
0132576330999992000022503004+28830+108770FM-12+066599999V0203401N001010120019N0150001N1+00611+00181103191ADDAY161031GF106991061081008001001001MD1210061+9999MW1001REMSYN066AAXX  25031 57633 41565 63401 10061 20018 40319 52006 70060 86800;
0199576330999992000022506004+28830+108770FM-12+066599999V0209999C000010120019N0170001N1+00761+00171102921ADDAA106000191AY161061GF107991071081008001999999KA1999N+00341MA1999999094911MD1710241+0401MW1001REMSYN094AAXX  25061 57633 11567 70000 10076 20017 39491 40292 57024 69911 70060 878// 333 00400 20034;
0122576330999992000022509004+28830+108770FM-12+066599999V0201601N001010360019N0180001N1+00891+00111102691ADDGF106991011011008001041001MD1710201+0031REMSYN070AAXX  25091 57633 42568 61601 10089 20011 40269 57020 81140 333 00302;
0154576330999992000022512004+28830+108770FM-12+066599999V0209999C000012200019N0100001N1+00641+00161102871ADDAA199000021GF104991041001999999041001MA1999999094841MD1210131+0031REMSYN076AAXX  25121 57633 32960 40000 10064 20016 39484 40287 52013 84040 333 00301;
0124576330999992000022515004+28830+108770FM-12+066599999V0209999C000019999999N0080001N1+00541+00261103011ADDGF108991081001999999071999MD1210141+9999MW1101REMSYN066AAXX  25151 57633 41958 80000 10054 20026 40301 52014 71000 8807/;
0204576330999992000022518004+28830+108770FM-12+066599999V0209999C000019999999N0080001N1+00491+00281102991ADDAA199000091GF108991081001999999071999KA1999M+00911MA1999999094981MD1410001+0101MW1101REMSYN088AAXX  25181 57633 31958 80000 10049 20028 39498 40299 54000 71000 8807/ 333 00100 10091;EQDQ01  00002PRCP99
0151576330999992000022521004+28830+108770FM-12+066599999V0209999C000019999999N0080001N1+00441+00301102961ADDAA124000191GF108991081001999999071999MD1710021+0101MW1101REMSYN082AAXX  25211 57633 41958 80000 10044 20030 40296 57002 71000 8807/ 333 00100 70001;
0178576330999992000022600004+28830+108770FM-12+066599999V0209999C000019999999N0100001N1+00361+00191103101ADDAA124000191GF107991071001999999041999IA2999+00199MA1999999095051MD1210091+0001REMSYN088AAXX  26001 57633 32960 70000 10036 20019 39505 40310 52009 8704/ 333 00000 30019 70001;
0112576330999992000022603004+28830+108770FM-12+066599999V0209999C000012200019N0150001N1+01101-00311102951ADDGF101991011001999999041001MD1710051+9999REMSYN060AAXX  26031 57633 42965 10000 10110 21031 40295 57005 81040;
0192576330999992000022606004+28830+108770FM-12+066599999V0201401N002010120019N0150001N1+01151-00291102591ADDAA199000091GF106991061081008001001001KA1999N+00321MA1999999094661MD1710341-0301REMSYN082AAXX  26061 57633 32565 61402 10115 21029 39466 40259 57034 86800 333 05304 20032;EQDQ01  00002PRCP99
0122576330999992000022609004+28830+108770FM-12+066599999V0201601N001010360019N0180001N1+01131-00211102351ADDGF107991011011008001041999MD1710231+0031REMSYN070AAXX  26091 57633 42568 71601 10113 21021 40235 57023 8114/ 333 05302;
0173576330999992000022612004+28830+108770FM-12+066599999V0209999C000019999999N0150001N1+00881+00241102451ADDAA199000091GF108991081001999999071999MA1999999094481MD1210051+0041REMSYN076AAXX  26121 57633 32965 80000 10088 20024 39448 40245 52005 8807/ 333 05402;EQDQ01  00002PRCP99
0112576330999992000022615004+28830+108770FM-12+066599999V0209999C000019999999N0100001N1+00761+00111102501ADDGF108991081001999999071999MD1210131+9999REMSYN060AAXX  26151 57633 42960 80000 10076 20011 40250 52013 8807/;
0186576330999992000022618004+28830+108770FM-12+066599999V0209999C000019999999N0100001N1+00701+00211102371ADDAA199000091GF108991999999999999999999KA1999M+01281MA1999999094501MD1999999-0501REMSYN076AAXX  26181 57633 32960 80000 10070 20021 39450 40237 97011 333 05502 10128;EQDQ01  00002PRCP99
0159576330999992000022621004+28830+108770FM-12+066599999V0209999C000010360019N0100001N1+00561+00251102461ADDAA124000391AY161031GF108991021071004501071999MD1210051-0401MW1601REMSYN082AAXX  26211 57633 41460 80000 10056 20025 40246 52005 76060 8277/ 333 05401 70003;
0204576330999992000022700004+28830+108770FM-12+066599999V0209999C000010360019N0120001N1+00431+00261102591ADDAA106001091AY161061GF108991021071004501021999IA2999+00399MA1999999094621MD1210071-0401MW1601REMSYN100AAXX  27001 57633 11462 80000 10043 20026 39462 40259 52007 60011 76060 8272/ 333 05401 30039 70013;
0132576330999992000022703004+28830+108770FM-12+066599999V0209999C000010042019N0150001N1+00551+00191102681ADDAY161031GF108991061071004501021999MD1210091+9999MW1601REMSYN066AAXX  27031 57633 41465 80000 10055 20019 40268 52009 76060 8672/;
0199576330999992000022706004+28830+108770FM-12+066599999V0200901N001010360019N0120001N1+00521+00211102411ADDAA106001091AY161061GF108991031071004501021999KA1999N+00391MA1999999094441MD1710271-0201MW1601REMSYN094AAXX  27061 57633 11462 80901 10052 20021 39444 40241 57027 60011 76060 8372/ 333 05256 20039;
0150576330999992000022709004+28830+108770FM-12+066599999V0209999C000010042019N0120001N1+00421+00251102391ADDAY161031AY261031GF108991061071004501021999MD1710051+0001MW1601REMSYN076AAXX  27091 57633 41462 80000 10042 20025 40239 57005 76066 8672/ 333 00057;
0188576330999992000022712004+28830+108770FM-12+066599999V0209999C000010042019N0120001N1+00411+00291102481ADDAA106001091AY161061AY261061GF108991061071004501021999MA1999999094451MD1210061+0001MW1601REMSYN088AAXX  27121 57633 11462 80000 10041 20029 39445 40248 52006 60011 76066 8672/ 333 00055;
0140576330999992000022715004+28830+108770FM-12+066599999V0209999C000010042019N0120001N1+00411+00271102651ADDAY161031AY261031GF108991051071004501021999MD1210181+9999MW1611REMSYN066AAXX  27151 57633 41462 80000 10041 20027 40265 52018 76166 8572/;
0207576330999992000022718004+28830+108770FM-12+066599999V0209999C000010042019N0120001N1+00431+00211102611ADDAA106000891AY161061AY261061GF108991061071004501021999KA1999M+00721MA1999999094591MD1710041+0101MW1611REMSYN094AAXX  27181 57633 11462 80000 10043 20021 39459 40261 57004 69971 76166 8672/ 333 00153 10072;
0159576330999992000022721004+28830+108770FM-12+066599999V0209999C000019999999N0120001N1+00371+00251102551ADDAA124004391AY161031GF108991081001999999071999MD1710081+0001MW1001REMSYN082AAXX  27211 57633 41962 80000 10037 20025 40255 57008 70060 8807/ 333 00052 70042;
0204576330999992000022800004+28830+108770FM-12+066599999V0209999C000010360019N0120001N1+00331+00231102721ADDAA106000791AY161061GF106991011061004501041001IA2999+00199MA1999999094661MD1210151+0001MW1001REMSYN100AAXX  28001 57633 11462 60000 10033 20023 39466 40272 52015 69901 70060 81640 333 00051 30019 70032;
0112576330999992000022803004+28830+108770FM-12+066599999V0201401N001010120019N0150001N1+00751+00241102821ADDGF107991071081008001999999MD1210151+9999REMSYN060AAXX  28031 57633 42565 71401 10075 20024 40282 52015 878//;
0173576330999992000022806004+28830+108770FM-12+066599999V0201601N002010120019N0170001N1+00721+00151102751ADDAA199000021GF108991081081008001999999KA1999N+00291MA1999999094741MD1710071+0301REMSYN082AAXX  28061 57633 32567 81602 10072 20015 39474 40275 57007 888// 333 00302 20029;
0142576330999992000022809004+28830+108770FM-12+066599999V0200401N001010042019N0180001N1+00701+00071102721ADDAY161031GF108991081071004501999999MD1710031+0031MW1601REMSYN076AAXX  28091 57633 41468 80401 10070 20007 40272 57003 76060 887// 333 00303;
0180576330999992000022812004+28830+108770FM-12+066599999V0209999C000010042019N0150001N1+00651+00121102991ADDAA106000191AY161061GF108991081051004501999999MA1999999094941MD1210231+0051MW1601REMSYN088AAXX  28121 57633 11465 80000 10065 20012 39494 40299 52023 69911 76060 885// 333 00502;
0132576330999992000022815004+28830+108770FM-12+066599999V0209999C000010042019N0150001N1+00581+00111103241ADDAY161031GF108991081051004501999999MD1210281+9999MW1601REMSYN066AAXX  28151 57633 41465 80000 10058 20011 40324 52028 76060 885//;
0199576330999992000022818004+28830+108770FM-12+066599999V0209999C000010150019N0150001N1+00471+00181103221ADDAA106000791AY161061GF108991081051017501999999KA1999M+00931MA1999999095191MD1710031+0601MW1001REMSYN094AAXX  28181 57633 11765 80000 10047 20018 39519 40322 57003 69901 70060 885// 333 00600 10093;
0139576330999992000022821004+28830+108770FM-12+066599999V0209999C000012200019N0150001N1+00331+00181103131ADDAA124000191GF102991021051017501001001MD1710111+0601REMSYN076AAXX  28211 57633 42765 20000 10033 20018 40313 57011 82500 333 00600 70001;
0188576330999992000022900004+28830+108770FM-12+066599999V0209999C000012200019N0120001N1+00141+00011103201ADDAA124000191GA1001+999999999GF100991001001999999001001IA2999-00099MA1999999095111MD1210031+0501REMSYN082AAXX  29001 57633 32962 00000 10014 20001 39511 40320 52003 333 00552 31009 70001;
0112576330999992000022903004+28830+108770FM-12+066599999V0201601N003012200019N0200001N1+00881-00121103001ADDGF102991021011008001001001MD1710091+9999REMSYN060AAXX  29031 57633 42570 21603 10088 21012 40300 57009 82100;
0192576330999992000022906004+28830+108770FM-12+066599999V0202001N002010120019N0250001N1+01061-00301102721ADDAA199000091GF107991071081008001999999KA1999N+00081MA1999999094771MD1710251+0001REMSYN082AAXX  29061 57633 32575 72002 10106 21030 39477 40272 57025 878// 333 00003 20008;EQDQ01  00002PRCP99
0122576330999992000022909004+28830+108770FM-12+066599999V0201401N004010120019N0250001N1+00881-00121102571ADDGF108991081081008001999999MD1710181+0011REMSYN070AAXX  29091 57633 42575 81404 10088 21012 40257 57018 888// 333 05102;
0173576330999992000022912004+28830+108770FM-12+066599999V0209999C000019999999N0250001N1+00691+00141102741ADDAA199000091GF107991071001999999041001MA1999999094611MD1210101+0031REMSYN076AAXX  29121 57633 32975 70000 10069 20014 39461 40274 52010 87040 333 05300;EQDQ01  00002PRCP99
0112576330999992000022915004+28830+108770FM-12+066599999V0209999C000019999999N0150001N1+00491+00171102811ADDGF106991061001999999041001MD1210141+9999REMSYN060AAXX  29151 57633 42965 60000 10049 20017 40281 52014 86040;
0192576330999992000022918004+28830+108770FM-12+066599999V0209999C000019999999N0120001N1+00511+00251102721ADDAA199000091GF108991081001999999071999KA1999M+01081MA1999999094771MD1710061-0401REMSYN082AAXX  29181 57633 32962 80000 10051 20025 39477 40272 57006 8807/ 333 05400 10108;EQDQ01  00002PRCP99
0122576330999992000022921004+28830+108770FM-12+066599999V0209999C000019999999N0100001N1+00481+00291102551ADDGF107991071001999999041999MD1710181+0051REMSYN070AAXX  29211 57633 42960 70000 10048 20029 40255 57018 8704/ 333 05502;
0191576330999992000030100004+28830+108770FM-12+066599999V0209999C000019999999N0120001N1+00451+00311102681ADDAA199000091GF107991071001999999041999IA2999+00109MA1999999094681MD1210091-0401REMSYN082AAXX  01001 57633 32962 70000 10045 20031 39468 40268 52009 8704/ 333 05403 30013;EQDQ01  00002PRCP99
0112576330999992000030103004+28830+108770FM-12+066599999V0209999C000019999999N0150001N1+00881+00011102731ADDGF107991071001999999041999MD1210081+9999REMSYN060AAXX  01031 57633 42965 70000 10088 20001 40273 52008 8704/;
0192576330999992000030106004+28830+108770FM-12+066599999V0201601N002010360019N0170001N1+01161+00041102401ADDAA199000091GF105991021011008001041001KA1999N+00391MA1999999094491MD1710271-0301REMSYN082AAXX  01061 57633 32567 51602 10116 20004 39449 40240 57027 82140 333 05301 20039;EQDQ01  00002PRCP99
0122576330999992000030109004+28830+108770FM-12+066599999V0209999C000012200019N0170001N1+01091+00141102171ADDGF104991041081008001001001MD1710211+0031REMSYN070AAXX  01091 57633 42567 40000 10109 20014 40217 57021 84800 333 05302;
0183576330999992000030112004+28830+108770FM-12+066599999V0202701N001012200019N0150001N1+00751+00131102371ADDAA199000091GA1001+999999999GF100991001001999999001001MA1999999094401MD1210111+0031REMSYN070AAXX  01121 57633 32965 02701 10075 20013 39440 40237 52011 333 05301;EQDQ01  00002PRCP99
0112576330999992000030115004+28830+108770FM-12+066599999V0209999C000019999999N0120001N1+00571+00241102421ADDGF108991081001999999071999MD1210081+9999REMSYN060AAXX  01151 57633 42962 80000 10057 20024 40242 52008 8807/;
0191576330999992000030118004+28830+108770FM-12+066599999V0209999C000019999999N0100001N1+00571+00291102281ADDAA106000791GF108991081001999999071999KA1999M+01191MA1999999094391MD1710091-0401MW1601REMSYN094AAXX  01181 57633 11960 80000 10057 20029 39439 40228 57009 69901 76000 8807/ 333 05401 10119;
0167576330999992000030121004+28830+108770FM-12+066599999V0203401N002010042019N0100001N1+00561+00401102191ADDAA124003891AY161031AY261031GF108991061071004501071999MD1710091-0301MW1601REMSYN082AAXX  01211 57633 41460 83402 10056 20040 40219 57009 76066 8677/ 333 05301 70039;
0212576330999992000030200004+28830+108770FM-12+066599999V0209999C000010042019N0100001N1+00461+00291102341ADDAA106007191AY161061AY261061GF108991051071004501071999IA2999+00239MA1999999094371MD1210071-0301MW1601REMSYN100AAXX  02001 57633 11460 80000 10046 20029 39437 40234 52007 60071 76066 8577/ 333 05300 30023 70067;
0140576330999992000030203004+28830+108770FM-12+066599999V0209999C000010042019N0080001N1+00511+00371102401ADDAY161031AY261031GF108991051071004501021999MD1210041+9999MW1611REMSYN066AAXX  02031 57633 41458 80000 10051 20037 40240 52004 76166 8572/;
0207576330999992000030206004+28830+108770FM-12+066599999V0200201N001010042019N0150001N1+00571+00341102191ADDAA106002091AY161061AY261061GF108991061071004501021999KA1999N+00421MA1999999094231MD1710181-0301MW1211REMSYN094AAXX  02061 57633 11465 80201 10057 20034 39423 40219 57018 60021 72166 8672/ 333 05356 20042;
0134576330999992000030209004+28830+108770FM-12+066599999V0203601N001010042019N0120001N1+00601+00341102001ADDGF108991061071004501021999MD1710171+0021MW1601REMSYN076AAXX  02091 57633 41462 83601 10060 20034 40200 57017 76000 8672/ 333 05255;
0180576330999992000030212004+28830+108770FM-12+066599999V0209999C000010042019N0100001N1+00591+00361102141ADDAA106000391AY161061GF108991061071004501021999MA1999999094171MD1210111+0021MW1601REMSYN088AAXX  02121 57633 11460 80000 10059 20036 39417 40214 52011 69931 76060 8672/ 333 05252;
0140576330999992000030215004+28830+108770FM-12+066599999V0209999C000010042019N0080001N1+00561+00451102311ADDAY161031AY261031GF108991071071004501021999MD1210161+9999MW1601REMSYN066AAXX  02151 57633 41458 80000 10056 20045 40231 52016 76066 8772/;
0207576330999992000030218004+28830+108770FM-12+066599999V0209999C000010042019N0070001N1+00561+00471102241ADDAA106001091AY161061AY261061GF108991071071004501021999KA1999M+00651MA1999999094271MD1710061-0101MW1601REMSYN094AAXX  02181 57633 11457 80000 10056 20047 39427 40224 57006 60011 76066 8772/ 333 05100 10065;
0159576330999992000030221004+28830+108770FM-12+066599999V0209999C000010360019N0080001N1+00551+00461102071ADDAA124005891AY161031GF108991031071004501021999MD1710151-0201MW1101REMSYN082AAXX  02211 57633 41458 80000 10055 20046 40207 57015 71060 8372/ 333 05200 70059;
0204576330999992000030300004+28830+108770FM-12+066599999V0209999C000010360019N0080001N1+00571+00481102181ADDAA106000191AY161061GF108991031071004501021999IA2999+00479MA1999999094221MD1210101-0201MW1101REMSYN100AAXX  03001 57633 11458 80000 10057 20048 39422 40218 52010 69911 71060 8372/ 333 05201 30047 70032;
0124576330999992000030303004+28830+108770FM-12+066599999V0202201N001010360019N0150001N1+00731+00471102211ADDGF108991021071004501021999MD1210051+9999MW1601REMSYN066AAXX  03031 57633 41465 82201 10073 20047 40221 52005 76000 8272/;
0199576330999992000030306004+28830+108770FM-12+066599999V0201801N001010042019N0100001N1+00711+00581101971ADDAA106002091AY161061GF108991061071004501021999KA1999N+00491MA1999999094041MD1710231-0201MW1601REMSYN094AAXX  03061 57633 11460 81801 10071 20058 39404 40197 57023 60021 76060 8672/ 333 05201 20049;
0150576330999992000030309004+28830+108770FM-12+066599999V0209999C000010042019N0150001N1+00751+00561101731ADDAY161031AY261031GF108991051071004501021999MD1710221+0021MW1211REMSYN076AAXX  03091 57633 41465 80000 10075 20056 40173 57022 72166 8572/ 333 05202;
0180576330999992000030312004+28830+108770FM-12+066599999V0209999C000010360019N0120001N1+00711+00601101861ADDAA106000391AY161061GF108991041071004501071999MA1999999093941MD1210121+0021MW1601REMSYN088AAXX  03121 57633 11462 80000 10071 20060 39394 40186 52012 69931 76060 8477/ 333 05201;
0132576330999992000030315004+28830+108770FM-12+066599999V0209999C000019999999N0100001N1+00681+00621101981ADDAY161031GF108991021071004501999999MD1210131+9999MW1001REMSYN066AAXX  03151 57633 41460 80000 10068 20062 40198 52013 70060 827//;
0199576330999992000030318004+28830+108770FM-12+066599999V0209999C000010360019N0080001N1+00641+00581101911ADDAA106000191AY161061GF108991021071004501071999KA1999M+00771MA1999999094001MD1710071-0301MW1601REMSYN094AAXX  03181 57633 11458 80000 10064 20058 39400 40191 57007 69911 76060 8277/ 333 05301 10077;
0159576330999992000030321004+28830+108770FM-12+066599999V0209999C000010360019N0100001N1+00621+00551101811ADDAA124002391AY161031GF108991021071004501071999MD1710091-0201MW1001REMSYN082AAXX  03211 57633 41460 80000 10062 20055 40181 57009 70060 8277/ 333 05201 70023;
0204576330999992000030400004+28830+108770FM-12+066599999V0209999C000019999999N0080001N1+00641+00581101981ADDAA106000791AY161061GF108991081001999999071999IA2999+00509MA1999999094061MD1210151-0201MW1101REMSYN100AAXX  04001 57633 11958 80000 10064 20058 39406 40198 52015 69901 71060 8807/ 333 05201 30050 70022;
0112576330999992000030403004+28830+108770FM-12+066599999V0209999C000010360019N0120001N1+00991+00571102021ADDGF108991011011008001071999MD1210081+9999REMSYN060AAXX  04031 57633 42562 80000 10099 20057 40202 52008 8117/;
0173576330999992000030406004+28830+108770FM-12+066599999V0209999C000010360019N0170001N1+01171+00691101801ADDAA199000021GF108991021011008001071999KA1999N+00571MA1999999093961MD1710181-0101REMSYN082AAXX  04061 57633 32567 80000 10117 20069 39396 40180 57018 8217/ 333 05105 20057;
0122576330999992000030409004+28830+108770FM-12+066599999V0209999C000010360019N0150001N1+01091+00571101711ADDGF108991021011008001071999MD1710101+0001REMSYN070AAXX  04091 57633 42565 80000 10109 20057 40171 57010 8217/ 333 00003;
0173576330999992000030412004+28830+108770FM-12+066599999V0209999C000010360019N0120001N1+01011+00661101891ADDAA199000091GF108991021011008001071999MA1999999094021MD1210161+0011REMSYN076AAXX  04121 57633 32562 80000 10101 20066 39402 40189 52016 8217/ 333 00103;EQDQ01  00002PRCP99
0112576330999992000030415004+28830+108770FM-12+066599999V0209999C000019999999N0100001N1+00931+00681102081ADDGF108991081001999999071999MD1210211+9999REMSYN060AAXX  04151 57633 42960 80000 10093 20068 40208 52021 8807/;
0192576330999992000030418004+28830+108770FM-12+066599999V0209999C000019999999N0100001N1+00851+00731101981ADDAA199000091GF108991081001999999071999KA1999M+01201MA1999999094151MD1710081+0201REMSYN082AAXX  04181 57633 32960 80000 10085 20073 39415 40198 57008 8807/ 333 00202 10120;EQDQ01  00002PRCP99
0122576330999992000030421004+28830+108770FM-12+066599999V0209999C000012200019N0120001N1+00701+00591101861ADDGF102991021001999999041001MD1710141+0011REMSYN070AAXX  04211 57633 42962 20000 10070 20059 40186 57014 82040 333 00101;
0203576330999992000030500004+28830+108770FM-12+066599999V0202001N001019999999N0080001N1+00641+00581102001ADDAA199000091GF108991081001999999071999IA2999+00309MA1999999094121MD1210111+0101MW1101REMSYN088AAXX  05001 57633 31958 82001 10064 20058 39412 40200 52011 71000 8807/ 333 00100 30036;EQDQ01  00002PRCP99
0112576330999992000030503004+28830+108770FM-12+066599999V0200401N001019999999N0150001N1+01031+00621102011ADDGF108991081001999999071999MD1210051+9999REMSYN060AAXX  05031 57633 42965 80401 10103 20062 40201 52005 8807/;
0192576330999992000030506004+28830+108770FM-12+066599999V0209999C000010360019N0150001N1+01281+00461101661ADDAA199000091GF108991011011008001071999KA1999N+00601MA1999999093871MD1710301-0101REMSYN082AAXX  05061 57633 32565 80000 10128 20046 39387 40166 57030 8117/ 333 05101 20060;EQDQ01  00002PRCP99
0122576330999992000030509004+28830+108770FM-12+066599999V0200201N001019999999N0150001N1+01281+00411101511ADDGF108991081001999999071999MD1710161+0021REMSYN070AAXX  05091 57633 42965 80201 10128 20041 40151 57016 8807/ 333 05202;
0173576330999992000030512004+28830+108770FM-12+066599999V0209999C000019999999N0120001N1+01061+00531101721ADDAA199000091GF108991081001999999071999MA1999999093871MD1210161+0021REMSYN076AAXX  05121 57633 32962 80000 10106 20053 39387 40172 52016 8807/ 333 05201;EQDQ01  00002PRCP99
0112576330999992000030515004+28830+108770FM-12+066599999V0209999C000019999999N0100001N1+00921+00581101861ADDGF107991071001999999041999MD1210161+9999REMSYN060AAXX  05151 57633 42960 70000 10092 20058 40186 52016 8704/;
0204576330999992000030518004+28830+108770FM-12+066599999V0209999C000019999999N0070001N1+00781+00571101841ADDAA199000091GF107991071001999999031999KA1999M+01371MA1999999094031MD1410001-0101MW1101REMSYN088AAXX  05181 57633 31957 70000 10078 20057 39403 40184 54000 71000 8703/ 333 05151 10137;EQDQ01  00002PRCP99
0134576330999992000030521004+28830+108770FM-12+066599999V0209999C000019999999N0070001N1+00701+00571101741ADDGF107991071001999999041999MD1710111+0011MW1101REMSYN076AAXX  05211 57633 41957 70000 10070 20057 40174 57011 71000 8704/ 333 05100;
0196576330999992000030600004+28830+108770FM-12+066599999V0209999C000019999999N0060001N1+00711+00581101941ADDAA106000791GF108991081001999999071999IA2999+00429MA1999999094081MD1210161+0001MW1601REMSYN100AAXX  06001 57633 11956 80000 10071 20058 39408 40194 52016 69901 76000 8807/ 333 00001 30042 79999;
0140576330999992000030603004+28830+108770FM-12+066599999V0209999C000010360019N0060001N1+00941+00721102031ADDAY161031AY261031GF108991021071004501071999MD1210101+9999MW1601REMSYN066AAXX  06031 57633 41456 80000 10094 20072 40203 52010 76066 8277/;
0199576330999992000030606004+28830+108770FM-12+066599999V0203601N002010360019N0120001N1+01251+00451101791ADDAA106000191AY161061GF108991021071004501071999KA1999N+00631MA1999999093981MD1710201+0101MW1601REMSYN094AAXX  06061 57633 11462 83602 10125 20045 39398 40179 57020 69911 76060 8277/ 333 00100 20063;
0142576330999992000030609004+28830+108770FM-12+066599999V0209999C000010360019N0120001N1+01141+00491101701ADDAY161031GF108991011071004501071999MD1710111+0021MW1211REMSYN076AAXX  06091 57633 41462 80000 10114 20049 40170 57011 72160 8177/ 333 00251;
0180576330999992000030612004+28830+108770FM-12+066599999V0209999C000019999999N0100001N1+01031+00621101901ADDAA106000791AY161061GF108991081001999999071999MA1999999094041MD1210171+0021MW1601REMSYN088AAXX  06121 57633 11960 80000 10103 20062 39404 40190 52017 69901 76060 8807/ 333 00200;
0132576330999992000030615004+28830+108770FM-12+066599999V0203401N001019999999N0100001N1+00971+00641102021ADDAY161031GF108991081001999999071999MD1210131+9999MW1001REMSYN066AAXX  06151 57633 41960 83401 10097 20064 40202 52013 70060 8807/;
0199576330999992000030618004+28830+108770FM-12+066599999V0209999C000010360019N0100001N1+00941+00651101981ADDAA106000191AY161061GF108991021071004501071999KA1999M+01311MA1999999094171MD1410001+0101MW1601REMSYN094AAXX  06181 57633 11460 80000 10094 20065 39417 40198 54000 69921 76060 8277/ 333 00102 10131;
0167576330999992000030621004+28830+108770FM-12+066599999V0200201N001010360019N0070001N1+00891+00661101901ADDAA124001091AY161031AY261031GF108991031071004501021999MD1710091+0201MW1601REMSYN082AAXX  06211 57633 41457 80201 10089 20066 40190 57009 76066 8372/ 333 00202 70011;
0194576330999992000030700004+28830+108770FM-12+066599999V0203401N001010360019N0100001N1+00871+00531102071ADDAA106002091AY161061AY261061GF108991021071004501021999MA1999999094221MD1210141+0101MW1211REMSYN094AAXX  07001 57633 11460 83401 10087 20053 39422 40207 52014 60021 72166 8272/ 333 00102 70018;
0178576330999992000030703004+28830+108770FM-12+066599999V0203401N001010360019N0100001N1+00871+00531102071ADDAA106002091AY161031AY261031GF108991021071004501021999MA1999999094221MD1210141+9999MW1211REMSYN078AAXX  07031 57633 11460 83401 10087 20053 39422 40207 52014 60021 72166 8272/;
0199576330999992000030706004+28830+108770FM-12+066599999V0209999C000010360019N0150001N1+00891+00361102161ADDAA106000791AY161061GF108991011011008001071999KA1999N+00781MA1999999094291MD1710121+0301MW1001REMSYN094AAXX  07061 57633 11565 80000 10089 20036 39429 40216 57012 69901 70060 8117/ 333 00354 20078;
0122576330999992000030709004+28830+108770FM-12+066599999V0200701N002010360019N0150001N1+00851+00411102061ADDGF108991031011008001071999MD1710101+0031REMSYN070AAXX  07091 57633 42565 80702 10085 20041 40206 57010 8317/ 333 00353;
0154576330999992000030712004+28830+108770FM-12+066599999V0200701N001010360019N0150001N1+00771+00391102291ADDAA199000021GF108991021011008001071999MA1999999094391MD1210201+0041REMSYN076AAXX  07121 57633 32565 80701 10077 20039 39439 40229 52020 8217/ 333 00453;
0132576330999992000030715004+28830+108770FM-12+066599999V0209999C000019999999N0120001N1+00751+00391102401ADDAY161031GF108991081001999999071999MD1210101+9999MW1001REMSYN066AAXX  07151 57633 41962 80000 10075 20039 40240 52010 70060 8807/;
0199576330999992000030718004+28830+108770FM-12+066599999V0209999C000019999999N0100001N1+00731+00371102361ADDAA106000191AY161061GF108991081001999999071999KA1999M+00971MA1999999094451MD1710041+0301MW1601REMSYN094AAXX  07181 57633 11960 80000 10073 20037 39445 40236 57004 69921 76060 8807/ 333 00352 10097;
0167576330999992000030721004+28830+108770FM-12+066599999V0209999C000010360019N0080001N1+00671+00351102251ADDAA124001591AY161031AY261031GF108991031071004501071999MD1710121+0301MW1601REMSYN082AAXX  07211 57633 41458 80000 10067 20035 40225 57012 76066 8377/ 333 00352 70014;
0212576330999992000030800004+28830+108770FM-12+066599999V0209999C000010042019N0100001N1+00521+00261102481ADDAA106003091AY161061AY261061GF108991061071004501021999IA2999+00479MA1999999094511MD1210181+0301MW1601REMSYN100AAXX  08001 57633 11460 80000 10052 20026 39451 40248 52018 60031 76066 8672/ 333 00354 30047 70029;
0207576330999992000030806004+28830+108770FM-12+066599999V0203601N001010042019N0150001N1+00571+00261102301ADDAA106003091AY161061AY261061GF108991051071004501021999KA1999N+00451MA1999999094351MD1710241+0101MW1611REMSYN094AAXX  08061 57633 11465 83601 10057 20026 39435 40230 57024 60031 76166 8572/ 333 00153 20045;
0150576330999992000030809004+28830+108770FM-12+066599999V0200701N001010042019N0150001N1+00571+00261102141ADDAY161031AY261031GF108991061071004501021999MD1710161+0001MW1611REMSYN076AAXX  08091 57633 41465 80701 10057 20026 40214 57016 76166 8672/ 333 00053;
0180576330999992000030812004+28830+108770FM-12+066599999V0209999C000010042019N0120001N1+00571+00261102241ADDAA106001091AY161061GF108991061071004501021999MA1999999094271MD1210081+0011MW1601REMSYN088AAXX  08121 57633 11462 80000 10057 20026 39427 40224 52008 60011 76060 8672/ 333 05152;
0132576330999992000030815004+28830+108770FM-12+066599999V0209999C000010042019N0100001N1+00601+00321102381ADDAY161031GF108991081071004501999999MD1210131+9999MW1601REMSYN066AAXX  08151 57633 41460 80000 10060 20032 40238 52013 76060 887//;
0199576330999992000030818004+28830+108770FM-12+066599999V0209999C000010042019N0100001N1+00521+00261102371ADDAA106002091AY161061GF108991081071004501999999KA1999M+00761MA1999999094391MD1710011-0101MW1601REMSYN094AAXX  08181 57633 11460 80000 10052 20026 39439 40237 57001 60021 76060 887// 333 05152 10076;
0167576330999992000030821004+28830+108770FM-12+066599999V0209999C000010042019N0100001N1+00441+00271102391ADDAA124009491AY161031AY261031GF108991081071004501999999MD1410001+0101MW1601REMSYN082AAXX  08211 57633 41460 80000 10044 20027 40239 54000 76066 887// 333 00152 70094;
0212576330999992000030900004+28830+108770FM-12+066599999V0209999C000010042019N0150001N1+00401+00211102501ADDAA106002091AY161061AY261061GF108991081071004501999999IA2999+00329MA1999999094491MD1210101+0001MW1601REMSYN100AAXX  09001 57633 11465 80000 10040 20021 39449 40250 52010 60021 76066 887// 333 00051 30032 70083;
0140576330999992000030903004+28830+108770FM-12+066599999V0203601N001010042019N0150001N1+00441+00201102611ADDAY161031AY261031GF108991071071004501021999MD1210111+9999MW1611REMSYN066AAXX  09031 57633 41465 83601 10044 20020 40261 52011 76166 8772/;
0207576330999992000030906004+28830+108770FM-12+066599999V0203601N001010042019N0170001N1+00541+00231102491ADDAA106002091AY161061AY261061GF108991071071004501021999KA1999N+00331MA1999999094491MD1710111+0101MW1611REMSYN094AAXX  09061 57633 11467 83601 10054 20023 39449 40249 57011 60021 76166 8772/ 333 00100 20033;
0180576330999992000030912004+28830+108770FM-12+066599999V0209999C000010042019N0150001N1+00511+00251102251ADDAA106000191AY161061GF108991071071004501021999MA1999999094251MD1710061+0001MW1601REMSYN088AAXX  09121 57633 11465 80000 10051 20025 39425 40225 57006 69921 76060 8772/ 333 00051;
0132576330999992000030915004+28830+108770FM-12+066599999V0209999C000010042019N0100001N1+00531+00301102391ADDAY161031GF108991061071004501021999MD1210141+9999MW1601REMSYN066AAXX  09151 57633 41460 80000 10053 20030 40239 52014 76060 8672/;
0207576330999992000030918004+28830+108770FM-12+066599999V0209999C000010042019N0100001N1+00431+00361102271ADDAA106003091AY171061AY261061GF108991051071004501021999KA1999M+00581MA1999999094281MD1710111-0101MW1791REMSYN094AAXX  09181 57633 11460 80000 10043 20036 39428 40227 57011 60031 77976 8572/ 333 05151 10058;
0167576330999992000030921004+28830+108770FM-12+066599999V0209999C000010042019N0100001N1+00341+00241102101ADDAA124009191AY171031AY261031GF108991051071004501021999MD1710171-0301MW1601REMSYN082AAXX  09211 57633 41460 80000 10034 20024 40210 57017 76076 8572/ 333 05351 70091;
0212576330999992000031000004+28830+108770FM-12+066599999V0209999C000010042019N0150001N1+00361+00241102191ADDAA106005191AY171061AY261061GF108991061071004501021999IA2999+00259MA1999999094191MD1210081-0301MW1601REMSYN100AAXX  10001 57633 11465 80000 10036 20024 39419 40219 52008 60051 76076 8672/ 333 05300 30025 70093;
0132576330999992000031003004+28830+108770FM-12+066599999V0200201N001010075019N0150001N1+00521+00211102331ADDAY161031GF108991071041008001021999MD1210151+9999MW1001REMSYN066AAXX  10031 57633 41565 80201 10052 20021 40233 52015 70060 8742/;
0199576330999992000031006004+28830+108770FM-12+066599999V0209999C000010075019N0150001N1+00641+00241102161ADDAA106000191AY161061GF108991061041008001071999KA1999N+00291MA1999999094191MD1710151-0301MW1001REMSYN094AAXX  10061 57633 11565 80000 10064 20024 39419 40216 57015 69911 70060 8647/ 333 05301 20029;
0122576330999992000031009004+28830+108770FM-12+066599999V0209999C000010075019N0170001N1+00751+00321101931ADDGF108991071041008001071999MD1710211+0031REMSYN070AAXX  10091 57633 42567 80000 10075 20032 40193 57021 8747/ 333 05302;
0154576330999992000031012004+28830+108770FM-12+066599999V0201101N001010150019N0150001N1+00581+00351102071ADDAA199000021GF108991081051017501999999MA1999999094091MD1210111+0021REMSYN076AAXX  10121 57633 32765 81101 10058 20035 39409 40207 52011 885// 333 05201;
0132576330999992000031015004+28830+108770FM-12+066599999V0209999C000010042019N0120001N1+00531+00391102191ADDAY161031GF108991081071004501999999MD1210121+9999MW1601REMSYN066AAXX  10151 57633 41462 80000 10053 20039 40219 52012 76060 887//;
0199576330999992000031018004+28830+108770FM-12+066599999V0201401N001019999999N0120001N1+00431+00341102191ADDAA106004191AY161061GF108991081001008001071999KA1999M+00781MA1999999094221MD1210011+0101MW1601REMSYN094AAXX  10181 57633 11562 81401 10043 20034 39422 40219 52001 60041 76060 8807/ 333 00100 10078;
0167576330999992000031021004+28830+108770FM-12+066599999V0209999C000010042019N0120001N1+00331+00231102061ADDAA124008491AY161031AY261031GF108991081071004501999999MD1710121+0001MW1601REMSYN082AAXX  10211 57633 41462 80000 10033 20023 40206 57012 76066 887// 333 00000 70083;
0204576330999992000031100004+28830+108770FM-12+066599999V0209999C000010042019N0150001N1+00391+00271102131ADDAA106003091AY161061GF107991071071004501999999IA2999+00349MA1999999094151MD1210051+0001MW1601REMSYN100AAXX  11001 57633 11465 70000 10039 20027 39415 40213 52005 60031 76060 877// 333 00000 30034 70073;
0112576330999992000031103004+28830+108770FM-12+066599999V0209999C000010120019N0170001N1+00701+00361102131ADDGF107991071081008001001001MD1210031+9999REMSYN060AAXX  11031 57633 42567 70000 10070 20036 40213 52003 87800;
0173576330999992000031106004+28830+108770FM-12+066599999V0209999C000010120019N0180001N1+00931+00381101851ADDAA199000021GF108991081081008001999999KA1999N+00301MA1999999093941MD1710241-0301REMSYN082AAXX  11061 57633 32568 80000 10093 20038 39394 40185 57024 888// 333 05303 20030;
0122576330999992000031109004+28830+108770FM-12+066599999V0209999C000010120019N0180001N1+00891+00411101681ADDGF108991081081008001999999MD1710171+0021REMSYN070AAXX  11091 57633 42568 80000 10089 20041 40168 57017 888// 333 05201;
0154576330999992000031112004+28830+108770FM-12+066599999V0209999C000010150019N0150001N1+00651+00401101861ADDAA199000021GF107991071051017501999999MA1999999093911MD1210141+0021REMSYN076AAXX  11121 57633 32765 70000 10065 20040 39391 40186 52014 875// 333 05201;
0112576330999992000031115004+28830+108770FM-12+066599999V0209999C000019999999N0120001N1+00451+00381102021ADDGF107991071001999999041001MD1210161+9999REMSYN060AAXX  11151 57633 42962 70000 10045 20038 40202 52016 87040;
0204576330999992000031118004+28830+108770FM-12+066599999V0209999C000019999999N0080001N1+00431+00381101931ADDAA199000091GF107991071001999999031999KA1999M+00951MA1999999094021MD1710051-0201MW1101REMSYN088AAXX  11181 57633 31958 70000 10043 20038 39402 40193 57005 71000 8703/ 333 05200 10095;EQDQ01  00002PRCP99
0151576330999992000031121004+28830+108770FM-12+066599999V0209999C000019999999N0070001N1+00451+00401101761ADDAA124000391GF108991081001999999071999MD1710161-0201MW1101REMSYN082AAXX  11211 57633 41957 80000 10045 20040 40176 57016 71000 8807/ 333 05201 70003;
0203576330999992000031200004+28830+108770FM-12+066599999V0209999C000019999999N0060001N1+00481+00431101831ADDAA199000091GF108991081001999999071999IA2999+00109MA1999999093891MD1210031-0301MW1101REMSYN088AAXX  12001 57633 31956 80000 10048 20043 39389 40183 52003 71000 8807/ 333 05301 30019;EQDQ01  00002PRCP99
0112576330999992000031203004+28830+108770FM-12+066599999V0202201N001010360019N0150001N1+01181+00431101741ADDGF107991031011008001041001MD1710011+9999REMSYN060AAXX  12031 57633 42565 72201 10118 20043 40174 57001 83140;
0192576330999992000031206004+28830+108770FM-12+066599999V0200401N001010360019N0200001N1+01311+00421101441ADDAA199000091GF107991021011008001041999KA1999N+00371MA1999999093621MD1710261-0301REMSYN082AAXX  12061 57633 32570 70401 10131 20042 39362 40144 57026 8214/ 333 05304 20037;EQDQ01  00002PRCP99
0122576330999992000031209004+28830+108770FM-12+066599999V0201401N001010120019N0250001N1+01261+00441101331ADDGF108991081081008001999999MD1710111+0031REMSYN070AAXX  12091 57633 42575 81401 10126 20044 40133 57011 888// 333 05304;
0173576330999992000031212004+28830+108770FM-12+066599999V0209999C000010150019N0200001N1+01071+00571101551ADDAA199000091GF108991081051017501999999MA1999999093691MD1210181+0021REMSYN076AAXX  12121 57633 32770 80000 10107 20057 39369 40155 52018 885// 333 05204;EQDQ01  00002PRCP99
0112576330999992000031215004+28830+108770FM-12+066599999V0209999C000010150019N0120001N1+00961+00671101591ADDGF108991081051017501999999MD1210121+9999REMSYN060AAXX  12151 57633 42762 80000 10096 20067 40159 52012 885//;
0192576330999992000031218004+28830+108770FM-12+066599999V0209999C000010150019N0100001N1+00901+00691101591ADDAA199000091GF108991081051017501999999KA1999M+01351MA1999999093821MD1210011-0201REMSYN082AAXX  12181 57633 32760 80000 10090 20069 39382 40159 52001 885// 333 05205 10135;EQDQ01  00002PRCP99
0122576330999992000031221004+28830+108770FM-12+066599999V0209999C000010150019N0120001N1+00831+00691101571ADDGF108991081051017501999999MD1710041+0011REMSYN070AAXX  12211 57633 42762 80000 10083 20069 40157 57004 885// 333 05104;
0173576330999992000031300004+28830+108770FM-12+066599999V0209999C000010210019N0150001N1+00831+00691101701ADDAA199000091GF108991081001022501071999MA1999999093881MD1210101+0001REMSYN076AAXX  13001 57633 32865 80000 10083 20069 39388 40170 52010 8807/ 333 00004;EQDQ01  00002PRCP99
0112576330999992000031303004+28830+108770FM-12+066599999V0209999C000019999999N0120001N1+01091+00641101741ADDGF108991081001999999071999MD1210051+9999REMSYN060AAXX  13031 57633 42962 80000 10109 20064 40174 52005 8807/;
0192576330999992000031306004+28830+108770FM-12+066599999V0203601N002019999999N0180001N1+01201+00511101571ADDAA199000091GF108991081001999999071999KA1999N+00791MA1999999093781MD1710151+0201REMSYN082AAXX  13061 57633 32968 83602 10120 20051 39378 40157 57015 8807/ 333 00251 20079;EQDQ01  00002PRCP99
0122576330999992000031309004+28830+108770FM-12+066599999V0200201N001010150019N0170001N1+01161+00441101431ADDGF107991071051017501999999MD1710141+0011REMSYN070AAXX  13091 57633 42767 70201 10116 20044 40143 57014 875// 333 00151;
0172576330999992000031312004+28830+108770FM-12+066599999V0209999C000010150019N0150001N1+01021+00511101611ADDAA106000791GF106991061051017501001001MA1999999093791MD1210151+0011MW1601REMSYN088AAXX  13121 57633 11765 60000 10102 20051 39379 40161 52015 69901 76000 86500 333 00151;
0132576330999992000031315004+28830+108770FM-12+066599999V0209999C000010150019N0150001N1+00901+00561101821ADDAY161031GF108991081051017501999999MD1210211+9999MW1601REMSYN066AAXX  13151 57633 41765 80000 10090 20056 40182 52021 76060 885//;
0199576330999992000031318004+28830+108770FM-12+066599999V0209999C000010150019N0100001N1+00861+00691101821ADDAA106000191AY161061GF108991081051017501999999KA1999M+01311MA1999999094011MD1210011+0201MW1601REMSYN094AAXX  13181 57633 11760 80000 10086 20069 39401 40182 52001 69921 76060 885// 333 00200 10131;
0159576330999992000031321004+28830+108770FM-12+066599999V0203401N001010150019N0100001N1+00881+00671101771ADDAA124000391AY161031GF108991081051017501999999MD1710051+0201MW1001REMSYN082AAXX  13211 57633 41760 83401 10088 20067 40177 57005 70060 885// 333 00201 70003;
0186576330999992000031400004+28830+108770FM-12+066599999V0200201N001010360019N0170001N1+00971+00591101921ADDAA106000191AY161061GF108991011011008001071999MA1999999094091MD1210131+0201MW1001REMSYN094AAXX  14001 57633 11567 80201 10097 20059 39409 40192 52013 69911 70060 8117/ 333 00201 70003;
0132576330999992000031403004+28830+108770FM-12+066599999V0203601N001010360019N0150001N1+01001+00561101921ADDAY161031GF108991011011008001071999MD1710011+9999MW1001REMSYN066AAXX  14031 57633 41565 83601 10100 20056 40192 57001 70060 8117/;
0199576330999992000031406004+28830+108770FM-12+066599999V0203601N001010360019N0170001N1+01111+00521101571ADDAA106000791AY161061GF108991021011008001071999KA1999N+00811MA1999999093771MD1710311+0001MW1001REMSYN094AAXX  14061 57633 11567 83601 10111 20052 39377 40157 57031 69901 70060 8217/ 333 00051 20081;
0122576330999992000031409004+28830+108770FM-12+066599999V0200201N001010360019N0150001N1+01031+00551101371ADDGF108991031011008001071999MD1710201+0011REMSYN070AAXX  14091 57633 42565 80201 10103 20055 40137 57020 8317/ 333 05151;
0172576330999992000031412004+28830+108770FM-12+066599999V0201101N001019999999N0120001N1+00961+00581101521ADDAA106000791GF108991081001999999071999MA1999999093711MD1210141+0011MW1601REMSYN088AAXX  14121 57633 11962 81101 10096 20058 39371 40152 52014 69901 76000 8807/ 333 05151;
0140576330999992000031415004+28830+108770FM-12+066599999V0209999C000010360019N0080001N1+00871+00731101681ADDAY161031AY261031GF108991021071004501021999MD1210141+9999MW1601REMSYN066AAXX  14151 57633 41458 80000 10087 20073 40168 52014 76066 8272/;
0207576330999992000031418004+28830+108770FM-12+066599999V0203401N001010042019N0090001N1+00811+00691101481ADDAA106000191AY161061AY261061GF108991061071004501021999KA1999M+01151MA1999999093681MD1710171-0301MW1601REMSYN094AAXX  14181 57633 11459 83401 10081 20069 39368 40148 57017 69911 76066 8672/ 333 05351 10115;
0133576330999992000031421004+28830+108770FM-12+066599999V0209999C000019999999N0080001N1+00781+00701101421ADDGF108991999999004501999999MD1710071+9999REMSYN081AAXX  14211 57633 41458 80000 10078 20070 40142 57007 6066 8772/ 333 05451 70006;
0194576330999992000031500004+28830+108770FM-12+066599999V0209999C000010042019N0060001N1+00771+00711101581ADDAA106000891AY161061AY261061GF108991071071004501021999MA1999999093741MD1210131-0401MW1601REMSYN094AAXX  15001 57633 11456 80000 10077 20071 39374 40158 52013 69971 76066 8772/ 333 05452 70008;
0132576330999992000031503004+28830+108770FM-12+066599999V0209999C000010042019N0080001N1+00861+00721101811ADDAY161031GF108991071071004501021999MD1210221+9999MW1601REMSYN066AAXX  15031 57633 41458 80000 10086 20072 40181 52022 76060 8772/;
0199576330999992000031506004+28830+108770FM-12+066599999V0201401N002010360019N0150001N1+01231+00841101621ADDAA106000591AY161061GF107991021011008001041999KA1999N+00721MA1999999093821MD1710141+0101MW1001REMSYN094AAXX  15061 57633 11565 71402 10123 20084 39382 40162 57014 69941 70060 8214/ 333 00101 20072;
0122576330999992000031509004+28830+108770FM-12+066599999V0209999C000010360019N0150001N1+01201+00891101561ADDGF108991021011008001071999MD1710061+0021REMSYN070AAXX  15091 57633 42565 80000 10120 20089 40156 57006 8217/ 333 00202;
0180576330999992000031512004+28830+108770FM-12+066599999V0209999C000010360019N0150001N1+01071+00851101811ADDAA106000791AY161061GF108991021071008001071999MA1999999093971MD1210211+0031MW1211REMSYN088AAXX  15121 57633 11565 80000 10107 20085 39397 40181 52021 69901 72160 8277/ 333 00301;
0124576330999992000031515004+28830+108770FM-12+066599999V0209999C000010360019N0120001N1+01001+00821101931ADDGF108991021071004501071999MD1210111+9999MW1601REMSYN066AAXX  15151 57633 41462 80000 10100 20082 40193 52011 76000 8277/;
0199576330999992000031518004+28830+108770FM-12+066599999V0209999C000010360019N0100001N1+00941+00801101961ADDAA106000791AY161061GF108991011071004501071999KA1999M+01291MA1999999094151MD1210071+0501MW1601REMSYN094AAXX  15181 57633 11460 80000 10094 20080 39415 40196 52007 69901 76060 8177/ 333 00501 10129;
0167576330999992000031521004+28830+108770FM-12+066599999V0209999C000010360019N0120001N1+00891+00601101901ADDAA124002391AY161031AY261031GF108991021071004501021999MD1710061+0501MW1211REMSYN082AAXX  15211 57633 41462 80000 10089 20060 40190 57006 72166 8272/ 333 00501 70024;
0186576330999992000031600004+28830+108770FM-12+066599999V0209999C000010210019N0150001N1+00791+00641102031ADDAA106002091AY161061GF107991071051022501999999MA1999999094181MD1210091+0401MW1001REMSYN094AAXX  16001 57633 11865 70000 10079 20064 39418 40203 52009 60021 70060 875// 333 00400 70022;
0112576330999992000031603004+28830+108770FM-12+066599999V0209999C000010120019N0250001N1+01101+00601102131ADDGF107991071081008001999999MD1210121+9999REMSYN060AAXX  16031 57633 42575 70000 10110 20060 40213 52012 878//;
0173576330999992000031606004+28830+108770FM-12+066599999V0200201N002012200019N0300001N1+01461+00281101761ADDAA199000021GF103991011011008001041001KA1999N+00741MA1999999094001MD1710301+0201REMSYN082AAXX  16061 57633 32580 30202 10146 20028 39400 40176 57030 81140 333 00202 20074;
0122576330999992000031609004+28830+108770FM-12+066599999V0209999C000010075019N0300001N1+01431+00371101521ADDGF107991071011008001041999MD1710231+0001REMSYN070AAXX  16091 57633 42580 70000 10143 20037 40152 57023 8714/ 333 00002;
0183576330999992000031612004+28830+108770FM-12+066599999V0209999C000012200019N0200001N1+01091+00521101611ADDAA199000091GA1001+999999999GF100991001001999999001001MA1999999093791MD1210021+0021REMSYN070AAXX  16121 57633 32970 00000 10109 20052 39379 40161 52002 333 05200;EQDQ01  00002PRCP99
0112576330999992000031615004+28830+108770FM-12+066599999V0209999C000019999999N0150001N1+00821+00521101781ADDGF107991071001999999041999MD1210161+9999REMSYN060AAXX  16151 57633 42965 70000 10082 20052 40178 52016 8704/;
0192576330999992000031618004+28830+108770FM-12+066599999V0209999C000019999999N0150001N1+00761+00571101631ADDAA199000091GF107991071001999999041999KA1999M+01541MA1999999093851MD1710101-0301REMSYN082AAXX  16181 57633 32965 70000 10076 20057 39385 40163 57010 8704/ 333 05352 10154;EQDQ01  00002PRCP99
0159576330999992000031621004+28830+108770FM-12+066599999V0209999C000019999999N0150001N1+00791+00551101511ADDAA124000791AY161031GF108991081001999999071999MD1710111-0401MW1001REMSYN082AAXX  16211 57633 41965 80000 10079 20055 40151 57011 70060 8807/ 333 05451 79999;
0204576330999992000031700004+28830+108770FM-12+066599999V0209999C000019999999N0170001N1+00821+00611101591ADDAA106000791AY161061GF108991081001999999071999IA2999+00469MA1999999093781MD1210041-0401MW1001REMSYN100AAXX  17001 57633 11967 80000 10082 20061 39378 40159 52004 69901 70060 8807/ 333 05400 30046 79999;
0112576330999992000031703004+28830+108770FM-12+066599999V0203601N001019999999N0180001N1+01131+00241101631ADDGF108991081001999999071999MD1210041+9999REMSYN060AAXX  17031 57633 42968 83601 10113 20024 40163 52004 8807/;
0192576330999992000031706004+28830+108770FM-12+066599999V0200401N001019999999N0170001N1+01281+00301101391ADDAA199000091GF108991081001999999071999KA1999N+00701MA1999999093611MD1710211-0401REMSYN082AAXX  17061 57633 32967 80401 10128 20030 39361 40139 57021 8807/ 333 05452 20070;EQDQ01  00002PRCP99
0122576330999992000031709004+28830+108770FM-12+066599999V0202201N001010150019N0180001N1+01441+00361101141ADDGF107991061051017501041999MD1710211+0041REMSYN070AAXX  17091 57633 42768 72201 10144 20036 40114 57021 8654/ 333 05400;
0173576330999992000031712004+28830+108770FM-12+066599999V0209999C000019999999N0150001N1+01091+00351101311ADDAA199000091GF107991071001999999041999MA1999999093521MD1210121+0031REMSYN076AAXX  17121 57633 32965 70000 10109 20035 39352 40131 52012 8704/ 333 05300;EQDQ01  00002PRCP99
0112576330999992000031715004+28830+108770FM-12+066599999V0209999C000019999999N0150001N1+00971+00591101471ADDGF105991051001999999041001MD1210171+9999REMSYN060AAXX  17151 57633 42965 50000 10097 20059 40147 52017 85040;
0192576330999992000031718004+28830+108770FM-12+066599999V0202901N001019999999N0150001N1+00881+00611101491ADDAA199000091GF106991061001999999041001KA1999M+01501MA1999999093721MD1210031-0101REMSYN082AAXX  17181 57633 32965 62901 10088 20061 39372 40149 52003 86040 333 05101 10150;EQDQ01  00002PRCP99
0122576330999992000031721004+28830+108770FM-12+066599999V0209999C000019999999N0120001N1+00851+00621101431ADDGF107991071001999999071999MD1710041+0011REMSYN070AAXX  17211 57633 42962 70000 10085 20062 40143 57004 8707/ 333 05101;
0173576330999992000031800004+28830+108770FM-12+066599999V0209999C000019999999N0100001N1+00831+00691101641ADDAA199000091GF107991071001999999041999MA1999999093821MD1210141+0001REMSYN076AAXX  18001 57633 32960 70000 10083 20069 39382 40164 52014 8704/ 333 00000;EQDQ01  00002PRCP99
0112576330999992000031803004+28830+108770FM-12+066599999V0201401N002012200019N0150001N1+01511+00781101651ADDGF101991011001999999041001MD1210091+9999REMSYN060AAXX  18031 57633 42965 11402 10151 20078 40165 52009 81040;
0122576330999992000031809004+28830+108770FM-12+066599999V0202201N001010120019N0180001N1+01891+00781101151ADDGF107991071081008001001001MD1710151+0011REMSYN070AAXX  18091 57633 42568 72201 10189 20078 40115 57015 87800 333 00105;
0183576330999992000031812004+28830+108770FM-12+066599999V0209999C000012200019N0150001N1+01421+00851101371ADDAA199000091GA1001+999999999GF100991001001999999001001MA1999999093621MD1210141+0011REMSYN070AAXX  18121 57633 32965 00000 10142 20085 39362 40137 52014 333 00103;EQDQ01  00002PRCP99
0122576330999992000031815004+28830+108770FM-12+066599999V0209999C000012200019N0150001N1+01091+00831101631ADDGA1001+999999999GF100991001001999999001001MD1210281+9999REMSYN054AAXX  18151 57633 42965 00000 10109 20083 40163 52028;
0202576330999992000031818004+28830+108770FM-12+066599999V0209999C000012200019N0150001N1+00871+00751101641ADDAA199000091GA1001+999999999GF100991001001999999001001KA1999M+01951MA1999999093931MD1210031+0201REMSYN076AAXX  18181 57633 32965 00000 10087 20075 39393 40164 52003 333 00200 10195;EQDQ01  00002PRCP99
0122576330999992000031821004+28830+108770FM-12+066599999V0209999C000019999999N0150001N1+00881+00761101621ADDGF108991081001999999071999MD1710011+0021REMSYN070AAXX  18211 57633 42965 80000 10088 20076 40162 57001 8807/ 333 00200;
0191576330999992000031900004+28830+108770FM-12+066599999V0209999C000019999999N0120001N1+00891+00791101781ADDAA199000091GF107991071001999999031999IA2999+00409MA1999999094001MD1210081+0201REMSYN082AAXX  19001 57633 32962 70000 10089 20079 39400 40178 52008 8703/ 333 00201 30043;EQDQ01  00002PRCP99
0112576330999992000031903004+28830+108770FM-12+066599999V0203401N001010360019N0150001N1+01481+00981101811ADDGF107991011011008001031999MD1210081+9999REMSYN060AAXX  19031 57633 42565 73401 10148 20098 40181 52008 8113/;
0192576330999992000031906004+28830+108770FM-12+066599999V0201601N003010360019N0170001N1+01701+00491101531ADDAA199000091GF107991011011008001031999KA1999N+00771MA1999999093811MD1710271+0201REMSYN082AAXX  19061 57633 32567 71603 10170 20049 39381 40153 57027 8113/ 333 00252 20077;EQDQ01  00002PRCP99
0122576330999992000031909004+28830+108770FM-12+066599999V0209999C000019999999N0170001N1+01791+00381101221ADDGF107991071001999999031999MD1710281+0011REMSYN070AAXX  19091 57633 42967 70000 10179 20038 40122 57028 8703/ 333 00151;
0173576330999992000031912004+28830+108770FM-12+066599999V0209999C000010150019N0150001N1+01591+00621101391ADDAA199000091GF107991071051017501999999MA1999999093671MD1210141+0011REMSYN076AAXX  19121 57633 32765 70000 10159 20062 39367 40139 52014 875// 333 00102;EQDQ01  00002PRCP99
0112576330999992000031915004+28830+108770FM-12+066599999V0200201N001019999999N0150001N1+01441+00741101521ADDGF108991081001999999071999MD1210171+9999REMSYN060AAXX  19151 57633 42965 80201 10144 20074 40152 52017 8807/;
0192576330999992000031918004+28830+108770FM-12+066599999V0209999C000019999999N0120001N1+01331+00811101401ADDAA199000091GF108991081001999999071999KA1999M+01881MA1999999093751MD1710091-0201REMSYN082AAXX  19181 57633 32962 80000 10133 20081 39375 40140 57009 8807/ 333 05205 10188;EQDQ01  00002PRCP99
0122576330999992000031921004+28830+108770FM-12+066599999V0209999C000019999999N0120001N1+01241+00791101291ADDGF108991081001999999071999MD1710111+0031REMSYN070AAXX  19211 57633 42962 80000 10124 20079 40129 57011 8807/ 333 05304;
0178576330999992000032000004+28830+108770FM-12+066599999V0209999C000019999999N0120001N1+01231+00821101341ADDAA106000791GF108991081001999999071999MA1999999093661MD1210021-0301MW1601REMSYN094AAXX  20001 57633 11962 80000 10123 20082 39366 40134 52002 69901 76000 8807/ 333 05303 79999;
0132576330999992000032003004+28830+108770FM-12+066599999V0200201N002019999999N0120001N1+01251+00841101411ADDAY161031GF108991081001999999071999MD1210051+9999MW1001REMSYN066AAXX  20031 57633 41962 80202 10125 20084 40141 52005 70060 8807/;
0199576330999992000032006004+28830+108770FM-12+066599999V0200201N001019999999N0150001N1+01321+00941101161ADDAA106000791AY161061GF108991081001999999071999KA1999N+01201MA1999999093481MD1710231-0301MW1001REMSYN094AAXX  20061 57633 11965 80201 10132 20094 39348 40116 57023 69901 70060 8807/ 333 05354 20120;
0122576330999992000032009004+28830+108770FM-12+066599999V0200201N001019999999N0100001N1+01311+00951100971ADDGF108991081001999999071999MD1710191+0021REMSYN070AAXX  20091 57633 42960 80201 10131 20095 40097 57019 8807/ 333 05255;
0112576330999992000032015004+28830+108770FM-12+066599999V0209999C000019999999N0100001N1+01241+01001101351ADDGF108991081001999999071999MD1210201+9999REMSYN060AAXX  20151 57633 42960 80000 10124 20100 40135 52020 8807/;
0199576330999992000032018004+28830+108770FM-12+066599999V0209999C000010360019N0070001N1+01171+01081101341ADDAA106000191AY161061GF108991011071004501071999KA1999M+01371MA1999999093621MD1710011-0101MW1211REMSYN094AAXX  20181 57633 11457 80000 10117 20108 39362 40134 57001 69911 72160 8177/ 333 05152 10137;
0151576330999992000032021004+28830+108770FM-12+066599999V0209999C000019999999N0070001N1+01191+01041101221ADDAA124000191GF108991081001999999071999MD1710111+0101MW1601REMSYN082AAXX  20211 57633 41957 80000 10119 20104 40122 57011 76000 8807/ 333 00151 70001;
0186576330999992000032100004+28830+108770FM-12+066599999V0209999C000010150019N0060001N1+01181+01071101411ADDAA106000791AY161061GF108991081051017501999999MA1999999093681MD1210171+0001MW1101REMSYN094AAXX  21001 57633 11756 80000 10118 20107 39368 40141 52017 69901 71060 885// 333 00051 70001;
0132576330999992000032103004+28830+108770FM-12+066599999V0209999C000010042019N0080001N1+01261+01111101521ADDAY161031GF108991081051004501999999MD1210111+9999MW1601REMSYN066AAXX  21031 57633 41458 80000 10126 20111 40152 52011 76060 885//;
0199576330999992000032106004+28830+108770FM-12+066599999V0209999C000010150019N0120001N1+01401+01131101371ADDAA106000791AY161061GF108991081051017501999999KA1999N+01121MA1999999093661MD1710131+0201MW1001REMSYN094AAXX  21061 57633 11762 80000 10140 20113 39366 40137 57013 69901 70060 885// 333 00201 20112;
0122576330999992000032109004+28830+108770FM-12+066599999V0203601N001010120019N0150001N1+01391+01141101321ADDGF108991081081008001999999MD1710051+0031REMSYN070AAXX  21091 57633 42565 83601 10139 20114 40132 57005 888// 333 00301;
0180576330999992000032112004+28830+108770FM-12+066599999V0203601N001010075019N0120001N1+01281+01101101561ADDAA106000791AY161061GF108991081071008001999999MA1999999093821MD1210211+0041MW1211REMSYN088AAXX  21121 57633 11562 83601 10128 20110 39382 40156 52021 69901 72160 887// 333 00401;
0132576330999992000032115004+28830+108770FM-12+066599999V0203601N001010042019N0120001N1+01271+01031101721ADDAY161031GF108991081071004501999999MD1210161+9999MW1601REMSYN066AAXX  21151 57633 41462 83601 10127 20103 40172 52016 76060 887//;
0199576330999992000032118004+28830+108770FM-12+066599999V0209999C000010042019N0100001N1+01161+01091101721ADDAA106000191AY161061GF108991081071004501999999KA1999M+01441MA1999999093981MD1410001+0401MW1601REMSYN094AAXX  21181 57633 11460 80000 10116 20109 39398 40172 54000 69911 76060 887// 333 00400 10144;
0167576330999992000032121004+28830+108770FM-12+066599999V0202201N001010042019N0100001N1+01151+01001101651ADDAA124000391AY161031AY261031GF108991081071004501999999MD1710071+0401MW1601REMSYN082AAXX  21211 57633 41460 82201 10115 20100 40165 57007 76066 887// 333 00400 70002;
0194576330999992000032200004+28830+108770FM-12+066599999V0200901N001010042019N0150001N1+01171+00901101761ADDAA106000191AY161061AY261061GF108991081071004501999999MA1999999094001MD1210091+0301MW1601REMSYN094AAXX  22001 57633 11465 80901 10117 20090 39400 40176 52009 69921 76066 887// 333 00300 70003;
0132576330999992000032203004+28830+108770FM-12+066599999V0209999C000010042019N0150001N1+01131+00961101901ADDAY161031GF108991081071004501999999MD1210131+9999MW1601REMSYN066AAXX  22031 57633 41465 80000 10113 20096 40190 52013 76060 887//;
0199576330999992000032206004+28830+108770FM-12+066599999V0203601N002010042019N0150001N1+01131+00881101761ADDAA106000191AY161061GF108991081071004501999999KA1999N+01071MA1999999093981MD1710151+0301MW1601REMSYN094AAXX  22061 57633 11465 83602 10113 20088 39398 40176 57015 69921 76060 887// 333 00353 20107;
0142576330999992000032209004+28830+108770FM-12+066599999V0203601N001010042019N0150001N1+01151+00861101691ADDAY161031GF108991081071004501999999MD1710061+0031MW1601REMSYN076AAXX  22091 57633 41465 83601 10115 20086 40169 57006 76060 887// 333 00352;
0180576330999992000032212004+28830+108770FM-12+066599999V0203601N001010042019N0150001N1+01091+00861101871ADDAA106000791AY161061GF108991081071004501999999MA1999999094081MD1210161+0031MW1001REMSYN088AAXX  22121 57633 11465 83601 10109 20086 39408 40187 52016 69901 70060 887// 333 00352;
0132576330999992000032215004+28830+108770FM-12+066599999V0209999C000010042019N0120001N1+01021+00881102231ADDAY161031GF108991081071004501999999MD1210321+9999MW1601REMSYN066AAXX  22151 57633 41462 80000 10102 20088 40223 52032 76060 887//;
0207576330999992000032218004+28830+108770FM-12+066599999V0202201N003010042019N0120001N1+00931+00751102411ADDAA106002091AY191061AY261061GF108991081091004501999999KA1999M+01191MA1999999094551MD1210151+0601MW1951REMSYN094AAXX  22181 57633 11462 82203 10093 20075 39455 40241 52015 60021 79596 889// 333 00652 10119;
0159576330999992000032221004+28830+108770FM-12+066599999V0209999C000010150019N0150001N1+00891+00641102511ADDAA124003891AY181031GF108991081051017501999999MD1210091+0701MW1601REMSYN082AAXX  22211 57633 41765 80000 10089 20064 40251 52009 76080 885// 333 00753 70039;
0194576330999992000032300004+28830+108770FM-12+066599999V0209999C000010360019N0150001N1+00891+00591102801ADDAA106001091AY181061AY261061GF108991011011008001071999MA1999999094901MD1210261+0901MW1001REMSYN094AAXX  23001 57633 11565 80000 10089 20059 39490 40280 52026 60011 70086 8117/ 333 00953 70038;
0112576330999992000032303004+28830+108770FM-12+066599999V0209999C000010360019N0150001N1+01061+00581102881ADDGF108991011011008001071999MD1210091+9999REMSYN060AAXX  23031 57633 42565 80000 10106 20058 40288 52009 8117/;
0173576330999992000032306004+28830+108770FM-12+066599999V0209999C000010360019N0150001N1+01171+00341102781ADDAA199000021GF108991011011008001071999KA1999N+00841MA1999999094901MD1710091+0901REMSYN082AAXX  23061 57633 32565 80000 10117 20034 39490 40278 57009 8117/ 333 00900 20084;
0122576330999992000032309004+28830+108770FM-12+066599999V0209999C000010360019N0150001N1+01211+00401102591ADDGF108991011011008001071999MD1710171+0081REMSYN070AAXX  23091 57633 42565 80000 10121 20040 40259 57017 8117/ 333 00801;
0165576330999992000032311004+28830+108770FM-12+066599999V0209999C000010150019N0120001N1+00901+99999102761ADDAA199000091GF108991081051017501999999KA1999M+01241MD1719999+0301REMSYN070AAXX  23111 57633 32762 80000 10090 40276 570/9 885// 333 00300 10124;EQDQ01  00002PRCP99
0112576330999992000032315004+28830+108770FM-12+066599999V0209999C000010150019N0120001N1+00981+00601102861ADDGF108991081051017501999999MD1210151+9999REMSYN060AAXX  23151 57633 42762 80000 10098 20060 40286 52015 885//;
0192576330999992000032318004+28830+108770FM-12+066599999V0209999C000010150019N0120001N1+00911+00621102761ADDAA199000091GF108991081051017501999999KA1999M+01241MA1999999094881MD1710091+0301REMSYN082AAXX  23181 57633 32762 80000 10091 20062 39488 40276 57009 885// 333 00300 10124;EQDQ01  00002PRCP99
0139576330999992000032321004+28830+108770FM-12+066599999V0209999C000010150019N0120001N1+00871+00661102541ADDAA124000791GF108991081051017501999999MD1710201+0001REMSYN076AAXX  23211 57633 42762 80000 10087 20066 40254 57020 885// 333 00000 79999;
0173576330999992000032400004+28830+108770FM-12+066599999V0209999C000010150019N0120001N1+00851+00681102681ADDAA199000091GF107991071051017501999999MA1999999094781MD1210101+0011REMSYN076AAXX  24001 57633 32762 70000 10085 20068 39478 40268 52010 875// 333 05100;EQDQ01  00002PRCP99
0112576330999992000032403004+28830+108770FM-12+066599999V0209999C000010360019N0150001N1+01241+00601102651ADDGF107991011011008001041999MD1210021+9999REMSYN060AAXX  24031 57633 42565 70000 10124 20060 40265 52002 8114/;
0192576330999992000032406004+28830+108770FM-12+066599999V0209999C000010360019N0150001N1+01441+00061102271ADDAA199000091GF107991011011008001041999KA1999N+00781MA1999999094461MD1710341-0401REMSYN082AAXX  24061 57633 32565 70000 10144 20006 39446 40227 57034 8114/ 333 05403 20078;EQDQ01  00002PRCP99
0122576330999992000032409004+28830+108770FM-12+066599999V0200401N001019999999N0150001N1+01401+00331101991ADDGF108991081001999999071999MD1710271+0061REMSYN070AAXX  24091 57633 42965 80401 10140 20033 40199 57027 8807/ 333 05602;
0173576330999992000032412004+28830+108770FM-12+066599999V0209999C000019999999N0120001N1+01271+00501102071ADDAA199000091GF108991081001999999071999MA1999999094251MD1210061+0061REMSYN076AAXX  24121 57633 32962 80000 10127 20050 39425 40207 52006 8807/ 333 05602;EQDQ01  00002PRCP99
0112576330999992000032415004+28830+108770FM-12+066599999V0209999C000019999999N0100001N1+01161+00671102281ADDGF108991081001999999071999MD1210231+9999REMSYN060AAXX  24151 57633 42960 80000 10116 20067 40228 52023 8807/;
0192576330999992000032418004+28830+108770FM-12+066599999V0209999C000019999999N0100001N1+01081+00631102341ADDAA199000091GF108991081001999999071999KA1999M+01531MA1999999094551MD1210071-0301REMSYN082AAXX  24181 57633 32960 80000 10108 20063 39455 40234 52007 8807/ 333 05302 10153;EQDQ01  00002PRCP99
0122576330999992000032421004+28830+108770FM-12+066599999V0209999C000019999999N0120001N1+01011+00751102351ADDGF108991081001999999071999MD1710011+0011REMSYN070AAXX  24211 57633 42962 80000 10101 20075 40235 57001 8807/ 333 05101;
0173576330999992000032500004+28830+108770FM-12+066599999V0209999C000019999999N0150001N1+00991+00571102551ADDAA199000091GF108991081001999999071999MA1999999094711MD1210171+0011REMSYN076AAXX  25001 57633 32965 80000 10099 20057 39471 40255 52017 8807/ 333 05101;EQDQ01  00002PRCP99
0112576330999992000032503004+28830+108770FM-12+066599999V0209999C000019999999N0150001N1+01261+00561102681ADDGF108991081001999999071999MD1210141+9999REMSYN060AAXX  25031 57633 42965 80000 10126 20056 40268 52014 8807/;
0192576330999992000032506004+28830+108770FM-12+066599999V0209999C000010360019N0170001N1+01671+00321102371ADDAA199000091GF108991041011008001071999KA1999N+00931MA1999999094611MD1710241+0201REMSYN082AAXX  25061 57633 32567 80000 10167 20032 39461 40237 57024 8417/ 333 00202 20093;EQDQ01  00002PRCP99
0122576330999992000032509004+28830+108770FM-12+066599999V0202201N001019999999N0150001N1+01611+00431102281ADDGF108991081001999999071999MD1710101+0031REMSYN070AAXX  25091 57633 42965 82201 10161 20043 40228 57010 8807/ 333 00302;
0173576330999992000032512004+28830+108770FM-12+066599999V0209999C000019999999N0150001N1+01381+00681102471ADDAA199000091GF108991081001999999071999MA1999999094651MD1210141+0041REMSYN076AAXX  25121 57633 32965 80000 10138 20068 39465 40247 52014 8807/ 333 00401;EQDQ01  00002PRCP99
0122576330999992000032515004+28830+108770FM-12+066599999V0209999C000012200019N0120001N1+01001+00671102711ADDGA1001+999999999GF100991001001999999001001MD1210211+9999REMSYN054AAXX  25151 57633 42962 00000 10100 20067 40271 52021;
0202576330999992000032518004+28830+108770FM-12+066599999V0209999C000012200019N0120001N1+00791+00621102751ADDAA199000091GA1001+999999999GF100991001001999999001001KA1999M+01721MA1999999094921MD1210061+0401REMSYN076AAXX  25181 57633 32962 00000 10079 20062 39492 40275 52006 333 00453 10172;EQDQ01  00002PRCP99
0122576330999992000032521004+28830+108770FM-12+066599999V0209999C000019999999N0120001N1+00701+00591102651ADDGF107991071001999999031999MD1710111+0031REMSYN070AAXX  25211 57633 42962 70000 10070 20059 40265 57011 8703/ 333 00353;
0201576330999992000032600004+28830+108770FM-12+066599999V0209999C000012200019N0100001N1+00651+00541102901ADDAA199000091GA1001+999999999GF100991001001999999001001IA2999+00209MA1999999095001MD1210191+0301REMSYN076AAXX  26001 57633 32960 00000 10065 20054 39500 40290 52019 333 00353 30024;EQDQ01  00002PRCP99
0122576330999992000032603004+28830+108770FM-12+066599999V0201601N001012200019N0150001N1+01611+00661102671ADDGA1001+999999999GF100991001001999999001001MD1710131+9999REMSYN054AAXX  26031 57633 42965 01601 10161 20066 40267 57013;
0192576330999992000032606004+28830+108770FM-12+066599999V0201601N002012200019N0180001N1+01991+00531102261ADDAA199000091GF102991021011008001001001KA1999N+00581MA1999999094511MD1710361-0101REMSYN082AAXX  26061 57633 32568 21602 10199 20053 39451 40226 57036 82100 333 05103 20058;EQDQ01  00002PRCP99
0122576330999992000032609004+28830+108770FM-12+066599999V0202701N001012200019N0180001N1+02041+00131101961ADDGF101991011011008001001001MD1710281+0031REMSYN070AAXX  26091 57633 42568 12701 10204 20013 40196 57028 81100 333 05304;
0183576330999992000032612004+28830+108770FM-12+066599999V0209999C000012200019N0150001N1+01511+00481102021ADDAA199000091GA1001+999999999GF100991001001999999001001MA1999999094211MD1710021+0041REMSYN070AAXX  26121 57633 32965 00000 10151 20048 39421 40202 57002 333 05401;EQDQ01  00002PRCP99
0122576330999992000032615004+28830+108770FM-12+066599999V0209999C000012200019N0150001N1+01101+00671102031ADDGA1001+999999999GF100991001001999999001001MD1210081+9999REMSYN054AAXX  26151 57633 42965 00000 10110 20067 40203 52008;
0202576330999992000032618004+28830+108770FM-12+066599999V0209999C000012200019N0150001N1+00871+00601101881ADDAA199000091GA1001+999999999GF100991001001999999001001KA1999M+02171MA1999999094171MD1710121-0801REMSYN076AAXX  26181 57633 32965 00000 10087 20060 39417 40188 57012 333 05801 10217;EQDQ01  00002PRCP99
0132576330999992000032621004+28830+108770FM-12+066599999V0209999C000012200019N0120001N1+00731+00511101731ADDGA1001+999999999GF100991001001999999001001MD1710151+0081REMSYN064AAXX  26211 57633 42962 00000 10073 20051 40173 57015 333 05800;
0191576330999992000032700004+28830+108770FM-12+066599999V0209999C000019999999N0120001N1+00721+00571101941ADDAA199000091GF107991021001999999041011IA2999+00209MA1999999094141MD1210121-0901REMSYN082AAXX  27001 57633 32962 70000 10072 20057 39414 40194 52012 82041 333 05901 30025;EQDQ01  00002PRCP99
0131576330999992000032703004+28830+108770FM-12+066599999V0201601N003012200019N0150001N1+01922+00651101771ADDGF103991001001999999001021MD1710051+9999REMSYN060AAXX  27031 57633 42965 31603 10192 20065 40177 57005 80002;EQDQ01+001923ATOT  
0192576330999992000032706004+28830+108770FM-12+066599999V0202201N002019999999N0200001N1+02441+00651101441ADDAA199000091GF107991001001999999001021KA1999N+00591MA1999999093821MD1710271-0701REMSYN082AAXX  27061 57633 32970 72202 10244 20065 39382 40144 57027 80002 333 05705 20059;EQDQ01  00002PRCP99
0122576330999992000032709004+28830+108770FM-12+066599999V0202201N003019999999N0250001N1+02551+00431101241ADDGF107991001001999999001021MD1710191+0061REMSYN070AAXX  27091 57633 42975 72203 10255 20043 40124 57019 80002 333 05605;
0173576330999992000032710004+28830+108770FM-12+066599999V0209999C000019999999N0200001N1+01921+00981101491ADDAA199000091GF107991001001999999001021MA1999999093781MD1210151+0041REMSYN076AAXX  27101 57633 32970 70000 10192 20098 39378 40149 52015 80002 333 05404;EQDQ01  00002PRCP99
0173576330999992000032712004+28830+108770FM-12+066599999V0209999C000019999999N0200001N1+01921+00981101491ADDAA199000091GF107991001001999999001021MA1999999093781MD1210151+0041REMSYN076AAXX  27121 57633 32970 70000 10192 20098 39378 40149 52015 80002 333 05404;EQDQ01  00002PRCP99
0122576330999992000032715004+28830+108770FM-12+066599999V0209999C000012200019N0120001N1+01441+00911101641ADDGA1001+999999999GF100991001001999999001001MD1210231+9999REMSYN054AAXX  27151 57633 42962 00000 10144 20091 40164 52023;
0202576330999992000032718004+28830+108770FM-12+066599999V0209999C000012200019N0100001N1+01121+00851101621ADDAA199000091GA1001+999999999GF100991001001999999001001KA1999M+02671MA1999999094021MD1210011-0201REMSYN076AAXX  27181 57633 32960 00000 10112 20085 39402 40162 52001 333 05203 10267;EQDQ01  00002PRCP99
0122576330999992000032721004+28830+108770FM-12+066599999V0209999C000019999999N0120001N1+00971+00811101601ADDGF107991001001999999001021MD1710031+0001REMSYN070AAXX  27211 57633 42962 70000 10097 20081 40160 57003 80002 333 00002;
0191576330999992000032800004+28830+108770FM-12+066599999V0209999C000019999999N0150001N1+00981+00801101951ADDAA199000091GF106991001001999999001021IA2999+00409MA1999999094241MD1210251+0101REMSYN082AAXX  28001 57633 32965 60000 10098 20080 39424 40195 52025 80002 333 00103 30047;EQDQ01  00002PRCP99
0131576330999992000032803004+28830+108770FM-12+066599999V0209999C000012200019N0170001N1+02292+00971101831ADDGF102991001001999999001021MD1710011+9999REMSYN060AAXX  28031 57633 42967 20000 10229 20097 40183 57001 80002;EQDQ01+002293ATOT  
0192576330999992000032806004+28830+108770FM-12+066599999V0201601N002012200019N0180001N1+02781+00721101491ADDAA199000091GF102991001001999999001021KA1999N+00871MA1999999093941MD1710291+0101REMSYN082AAXX  28061 57633 32968 21602 10278 20072 39394 40149 57029 80002 333 00103 20087;EQDQ01  00002PRCP99
0122576330999992000032809004+28830+108770FM-12+066599999V0201401N003012200019N0180001N1+02781+00751101341ADDGF102991001001999999001021MD1710161+0021REMSYN070AAXX  28091 57633 42968 21403 10278 20075 40134 57016 80002 333 00202;
0173576330999992000032812004+28830+108770FM-12+066599999V0209999C000012200019N0150001N1+01991+01001101681ADDAA199000091GF102991001001999999001021MA1999999094001MD1210221+0021REMSYN076AAXX  28121 57633 32965 20000 10199 20100 39400 40168 52022 80002 333 00201;EQDQ01  00002PRCP99
0122576330999992000032815004+28830+108770FM-12+066599999V0209999C000012200019N0120001N1+01611+01051101791ADDGA1001+999999999GF100991001001999999001001MD1210221+9999REMSYN054AAXX  28151 57633 42962 00000 10161 20105 40179 52022;
0202576330999992000032818004+28830+108770FM-12+066599999V0209999C000012200019N0100001N1+01411+01041101751ADDAA199000091GA1001+999999999GF100991001001999999001001KA1999M+02891MA1999999094211MD1710011+0201REMSYN076AAXX  28181 57633 32960 00000 10141 20104 39421 40175 57001 333 00203 10289;EQDQ01  00002PRCP99
0173576330999992000032900004+28830+108770FM-12+066599999V0203201N001019999999N0100001N1+01461+00591102011ADDAA199000091GF107991001001999999001021MA1999999094361MD1210181+0011REMSYN076AAXX  29001 57633 32960 73201 10146 20059 39436 40201 52018 80002 333 00105;EQDQ01  00002PRCP99
0112576330999992000032903004+28830+108770FM-12+066599999V0203401N002012200019N0150001N1+02051+00181101951ADDGF102991021001999999041011MD1710031+9999REMSYN060AAXX  29031 57633 42965 23402 10205 20018 40195 57003 82041;
0192576330999992000032906004+28830+108770FM-12+066599999V0203601N001019999999N0150001N1+02441+00561101501ADDAA199000091GF107991071001999999031999KA1999N+01291MA1999999093941MD1710391+0001REMSYN082AAXX  29061 57633 32965 73601 10244 20056 39394 40150 57039 8703/ 333 00053 20129;EQDQ01  00002PRCP99
0122576330999992000032909004+28830+108770FM-12+066599999V0201801N003019999999N0120001N1+02471+00561101171ADDGF107991071001999999031999MD1710281+0011REMSYN070AAXX  29091 57633 42962 71803 10247 20056 40117 57028 8703/ 333 05153;
0173576330999992000032912004+28830+108770FM-12+066599999V0209999C000019999999N0120001N1+02051+00901101251ADDAA199000091GF107991071001999999031999MA1999999093671MD1210011+0031REMSYN076AAXX  29121 57633 32962 70000 10205 20090 39367 40125 52001 8703/ 333 05301;EQDQ01  00002PRCP99
0112576330999992000032915004+28830+108770FM-12+066599999V0209999C000019999999N0120001N1+01781+00981101301ADDGF108991081001999999071999MD1210081+9999REMSYN060AAXX  29151 57633 42962 80000 10178 20098 40130 52008 8807/;
0192576330999992000032918004+28830+108770FM-12+066599999V0209999C000019999999N0120001N1+01601+00951101111ADDAA199000091GF108991081001999999071999KA1999M+02601MA1999999093601MD1710151-0601REMSYN082AAXX  29181 57633 32962 80000 10160 20095 39360 40111 57015 8807/ 333 05602 10260;EQDQ01  00002PRCP99
0106576330999992000032921004+28830+108770FM-12+066599999V0209999C000019999999N0120001N1+01501+00941999999ADDGF107991071001999999041999MD1710151+9999REMSYN054AAXX  29211 57633 /2962 70000 10150 20094 57015 8704/;
0173576330999992000033000004+28830+108770FM-12+066599999V0209999C000010360019N0150001N1+01431+01081101091ADDAA199000091GF108991021011008001071999MA1999999093521MD1210071+0081REMSYN076AAXX  30001 57633 32565 80000 10143 20108 39352 40109 52007 8217/ 333 05800;EQDQ01  00002PRCP99
0112576330999992000033003004+28830+108770FM-12+066599999V0201401N005019999999N0150001N1+02241+01001100941ADDGF107991071001999999041999MD1710081+9999REMSYN060AAXX  30031 57633 42965 71405 10224 20100 40094 57008 8704/;
0192576330999992000033006004+28830+108770FM-12+066599999V0201601N003010360019N0180001N1+02471+00811100711ADDAA199000091GF107991011011008001031999KA1999N+01371MA1999999093241MD1710201-0701REMSYN082AAXX  30061 57633 32568 71603 10247 20081 39324 40071 57020 8113/ 333 05700 20137;EQDQ01  00002PRCP99
0134576330999992000033009004+28830+108770FM-12+066599999V0201601N003019999999N0180001N1+02101+00791100651ADDGF108991081001999999071999MD1710121+0051MW1601REMSYN076AAXX  30091 57633 41968 81603 10210 20079 40065 57012 76000 8807/ 333 05554;
0180576330999992000033012004+28830+108770FM-12+066599999V0209999C000019999999N0150001N1+01781+01001100831ADDAA106000791AY161061GF108991081001999999071999MA1999999093241MD1210121+0041MW1601REMSYN088AAXX  30121 57633 11965 80000 10178 20100 39324 40083 52012 69901 76060 8807/ 333 05453;
0132576330999992000033015004+28830+108770FM-12+066599999V0209999C000019999999N0120001N1+01621+00981100901ADDAY161031GF108991081001999999071999MD1210151+9999MW1601REMSYN066AAXX  30151 57633 41962 80000 10162 20098 40090 52015 76060 8807/;
0199576330999992000033018004+28830+108770FM-12+066599999V0203201N001010360019N0100001N1+01451+01161100741ADDAA106000191AY161061GF108991011071004501071999KA1999M+02491MA1999999093251MD1710141-0401MW1601REMSYN094AAXX  30181 57633 11460 83201 10145 20116 39325 40074 57014 69921 76060 8177/ 333 05452 10249;
0159576330999992000033021004+28830+108770FM-12+066599999V0201601N002010042019N0100001N1+01391+01181100521ADDAA124000391AY161031GF108991081071004501999999MD1710261-0501MW1601REMSYN082AAXX  30211 57633 41460 81602 10139 20118 40052 57026 76060 887// 333 05551 70003;
0186576330999992000033100004+28830+108770FM-12+066599999V0209999C000010042019N0150001N1+01411+01121100781ADDAA106000191AY161061GF108991081051004501999999MA1999999093191MD1210201-0301MW1601REMSYN094AAXX  31001 57633 11465 80000 10141 20112 39319 40078 52020 69911 76060 885// 333 05300 70003;
0132576330999992000033103004+28830+108770FM-12+066599999V0209999C000019999999N0180001N1+01721+01191100841ADDAY161031GF107991071001999999041999MD1210081+9999MW1211REMSYN066AAXX  31031 57633 41968 70000 10172 20119 40084 52008 72160 8704/;
0199576330999992000033106004+28830+108770FM-12+066599999V0209999C000010360019N0170001N1+02091+01331100601ADDAA106000791AY161061GF108991021011008001071999KA1999N+01351MA1999999093071MD1710201-0201MW1601REMSYN094AAXX  31061 57633 11567 80000 10209 20133 39307 40060 57020 69901 76060 8217/ 333 05254 20135;
0142576330999992000033109004+28830+108770FM-12+066599999V0209999C000019999999N0150001N1+02011+01321100471ADDAY161031GF107991071001999999041999MD1710141+0021MW1001REMSYN076AAXX  31091 57633 41965 70000 10201 20132 40047 57014 70060 8704/ 333 05251;
0180576330999992000033112004+28830+108770FM-12+066599999V0209999C000010360019N0150001N1+01691+01351100791ADDAA106000791AY161061GF107991021041012501041999MA1999999093191MD1210261+0011MW1001REMSYN088AAXX  31121 57633 11665 70000 10169 20135 39319 40079 52026 69901 70060 8244/ 333 05151;
0112576330999992000033115004+28830+108770FM-12+066599999V0209999C000019999999N0120001N1+01481+01311100961ADDGF107991071001999999041999MD1210171+9999REMSYN060AAXX  31151 57633 42962 70000 10148 20131 40096 52017 8704/;
0183576330999992000033118004+28830+108770FM-12+066599999V0209999C000012200019N0100001N1+01401+01241100921ADDAA199000021GA1001+999999999GF100991001001999999001001KA1999M+02121MA1999999093361MD1410001+0101REMSYN076AAXX  31181 57633 32960 00000 10140 20124 39336 40092 54000 333 00151 10212;
0139576330999992000033121004+28830+108770FM-12+066599999V0209999C000019999999N0100001N1+01321+01211100871ADDAA124000791GF106991061001999999041001MD1710071+0301REMSYN076AAXX  31211 57633 42960 60000 10132 20121 40087 57007 86040 333 00351 79999;
0160576330999992000040100004+28830+108770FM-12+066599999V0209999C000019999999N0100001N1+01401+01281100971ADDAA124000791GF108991081001999999071999MA1999999093361MD1210071+0201REMSYN082AAXX  01001 57633 32960 80000 10140 20128 39336 40097 52007 8807/ 333 00200 79999;
0112576330999992000040103004+28830+108770FM-12+066599999V0209999C000010150019N0150001N1+01711+01221101061ADDGF108991081051017501999999MD1210091+9999REMSYN060AAXX  01031 57633 42765 80000 10171 20122 40106 52009 885//;
0192576330999992000040106004+28830+108770FM-12+066599999V0200201N001010150019N0150001N1+01721+01251100871ADDAA199000091GF108991081051017501999999KA1999N+01261MA1999999093271MD1710181+0201REMSYN082AAXX  01061 57633 32765 80201 10172 20125 39327 40087 57018 885// 333 00254 20126;EQDQ01  00002PRCP99
0122576330999992000040109004+28830+108770FM-12+066599999V0203601N001010150019N0150001N1+01681+01361100731ADDGF108991081051017501999999MD1710151+0021REMSYN070AAXX  01091 57633 42765 83601 10168 20136 40073 57015 885// 333 00253;
0173576330999992000040112004+28830+108770FM-12+066599999V0209999C000010150019N0120001N1+01641+01371101061ADDAA199000091GF108991081051017501999999MA1999999093431MD1210311+0021REMSYN076AAXX  01121 57633 32762 80000 10164 20137 39343 40106 52031 885// 333 00251;EQDQ01  00002PRCP99
0112576330999992000040115004+28830+108770FM-12+066599999V0209999C000010150019N0120001N1+01611+01371101261ADDGF108991081051017501999999MD1210221+9999REMSYN060AAXX  01151 57633 42762 80000 10161 20137 40126 52022 885//;
0192576330999992000040118004+28830+108770FM-12+066599999V0209999C000010150019N0100001N1+01641+01331101151ADDAA199000091GF108991081051017501999999KA1999M+01761MA1999999093561MD1710091+0201REMSYN082AAXX  01181 57633 32760 80000 10164 20133 39356 40115 57009 885// 333 00202 10176;EQDQ01  00002PRCP99
0159576330999992000040121004+28830+108770FM-12+066599999V0209999C000010042019N0100001N1+01491+01421101091ADDAA124002391AY161031GF108991081071004501999999MD1710081+0201MW1601REMSYN082AAXX  01211 57633 41460 80000 10149 20142 40109 57008 76060 887// 333 00202 70022;
0186576330999992000040200004+28830+108770FM-12+066599999V0200201N001010042019N0100001N1+01491+01321101311ADDAA106003091AY161061GF108991081071004501999999MA1999999093681MD1210201+0301MW1601REMSYN094AAXX  02001 57633 11460 80201 10149 20132 39368 40131 52020 60031 76060 887// 333 00301 70025;
0140576330999992000040203004+28830+108770FM-12+066599999V0203601N001010042019N0150001N1+01391+01121101561ADDAY161031AY261031GF108991081071004501999999MD1210211+9999MW1601REMSYN066AAXX  02031 57633 41465 83601 10139 20112 40156 52021 76066 887//;
0199576330999992000040206004+28830+108770FM-12+066599999V0209999C000010042019N0120001N1+01401+01191101481ADDAA106000191AY161061GF108991081071004501999999KA1999N+01331MA1999999093821MD1710071+0601MW1211REMSYN094AAXX  02061 57633 11462 80000 10140 20119 39382 40148 57007 69911 72160 887// 333 00653 20133;
0142576330999992000040209004+28830+108770FM-12+066599999V0203601N002010042019N0100001N1+01361+01141101431ADDAY161031GF108991071071004501071999MD1710071+0061MW1601REMSYN076AAXX  02091 57633 41460 83602 10136 20114 40143 57007 76060 8777/ 333 00653;
0180576330999992000040212004+28830+108770FM-12+066599999V0209999C000010360019N0100001N1+01351+01091101551ADDAA106000191AY161061GF108991031071004501071999MA1999999093861MD1210111+0041MW1601REMSYN088AAXX  02121 57633 11460 80000 10135 20109 39386 40155 52011 69921 76060 8377/ 333 00453;
0132576330999992000040215004+28830+108770FM-12+066599999V0209999C000010360019N0100001N1+01361+00971101741ADDAY161031GF108991021071004501071999MD1210161+9999MW1001REMSYN066AAXX  02151 57633 41460 80000 10136 20097 40174 52016 70060 8277/;
0199576330999992000040218004+28830+108770FM-12+066599999V0209999C000010360019N0100001N1+01251+01081101691ADDAA106000791AY161061GF108991011071004501071999KA1999M+01661MA1999999093971MD1710051+0401MW1211REMSYN094AAXX  02181 57633 11460 80000 10125 20108 39397 40169 57005 69901 72160 8177/ 333 00454 10166;
0159576330999992000040221004+28830+108770FM-12+066599999V0209999C000019999999N0080001N1+01161+01031101721ADDAA124001591AY161031GF108991051071999999071999MD1210011+0501MW1601REMSYN082AAXX  02211 57633 41/58 80000 10116 20103 40172 52001 76060 8577/ 333 00553 70014;
0186576330999992000040300004+28830+108770FM-12+066599999V0202201N001010042019N0050001N1+01111+01021101871ADDAA106004191AY161061GF108991081071004501999999MA1999999094111MD1210131+0401MW1601REMSYN094AAXX  03001 57633 11450 82201 10111 20102 39411 40187 52013 60041 76060 887// 333 00454 70046;
0140576330999992000040303004+28830+108770FM-12+066599999V0202201N001010042019N0100001N1+01241+01091101961ADDAY161031AY261031GF108991081071004501999999MD1210101+9999MW1601REMSYN066AAXX  03031 57633 41460 82201 10124 20109 40196 52010 76066 887//;
0199576330999992000040306004+28830+108770FM-12+066599999V0201601N001010042019N0120001N1+01311+01071101751ADDAA106002091AY161061GF108991081051004501999999KA1999N+01071MA1999999094011MD1710201+0201MW1601REMSYN094AAXX  03061 57633 11462 81601 10131 20107 39401 40175 57020 60021 76060 885// 333 00251 20107;
0142576330999992000040309004+28830+108770FM-12+066599999V0209999C000019999999N0120001N1+01371+01021101541ADDAY161031GF108991081001999999071999MD1710201+0011MW1001REMSYN076AAXX  03091 57633 41962 80000 10137 20102 40154 57020 70060 8807/ 333 00100;
0180576330999992000040312004+28830+108770FM-12+066599999V0209999C000019999999N0120001N1+01281+01121101681ADDAA106000791AY161061GF108991081001999999071999MA1999999093921MD1210111+0011MW1001REMSYN088AAXX  03121 57633 11962 80000 10128 20112 39392 40168 52011 69901 70060 8807/ 333 00151;
0112576330999992000040315004+28830+108770FM-12+066599999V0209999C000019999999N0100001N1+01151+01061101741ADDGF107991071001999999041999MD1210061+9999REMSYN060AAXX  03151 57633 42960 70000 10115 20106 40174 52006 8704/;
0185576330999992000040318004+28830+108770FM-12+066599999V0209999C000019999999N0070001N1+01041+00921101661ADDAA199000021GF108991081001999999071999KA1999M+01381MA1999999093901MD1710011-0101MW1101REMSYN088AAXX  03181 57633 31957 80000 10104 20092 39390 40166 57001 71000 8807/ 333 05152 10138;
0151576330999992000040321004+28830+108770FM-12+066599999V0209999C000019999999N0070001N1+01041+00941101541ADDAA124005191GF108991081001999999071999MD1710101-0201MW1101REMSYN082AAXX  03211 57633 41957 80000 10104 20094 40154 57010 71000 8807/ 333 05251 70050;
0172576330999992000040400004+28830+108770FM-12+066599999V0203201N001019999999N0060001N1+01031+00911101681ADDAA124001591GF108991081001999999071999MA1999999093911MD1210111-0201MW1101REMSYN088AAXX  04001 57633 31956 83201 10103 20091 39391 40168 52011 71000 8807/ 333 05251 70015;
0112576330999992000040403004+28830+108770FM-12+066599999V0203601N001019999999N0120001N1+01451+01051101661ADDGF108991081001999999071999MD1210021+9999REMSYN060AAXX  04031 57633 42962 83601 10145 20105 40166 52002 8807/;
0192576330999992000040406004+28830+108770FM-12+066599999V0203601N001010360019N0150001N1+01681+01051101411ADDAA199000091GF108991011011008001071999KA1999N+00991MA1999999093721MD1710211-0301REMSYN082AAXX  04061 57633 32565 83601 10168 20105 39372 40141 57021 8117/ 333 05304 20099;EQDQ01  00002PRCP99
0142576330999992000040409004+28830+108770FM-12+066599999V0209999C000019999999N0150001N1+01621+01101101281ADDAY161031GF108991081001999999071999MD1710131+0021MW1601REMSYN076AAXX  04091 57633 41965 80000 10162 20110 40128 57013 76060 8807/ 333 05203;
0180576330999992000040412004+28830+108770FM-12+066599999V0209999C000010360019N0120001N1+01301+01191101631ADDAA106001091AY161061GF108991031071004501071999MA1999999093871MD1210281+0011MW1601REMSYN088AAXX  04121 57633 11462 80000 10130 20119 39387 40163 52028 69991 76060 8377/ 333 05100;
0140576330999992000040415004+28830+108770FM-12+066599999V0209999C000010042019N0100001N1+01201+01131101911ADDAY161031AY261031GF108991061071004501021999MD1210301+9999MW1611REMSYN066AAXX  04151 57633 41460 80000 10120 20113 40191 52030 76166 8672/;
0207576330999992000040418004+28830+108770FM-12+066599999V0209999C000010042019N0080001N1+01181+01121101971ADDAA106006191AY161061AY261061GF108991071071004501021999KA1999M+01731MA1999999094251MD1210081+0401MW1611REMSYN094AAXX  04181 57633 11458 80000 10118 20112 39425 40197 52008 60061 76166 8772/ 333 00401 10173;
0167576330999992000040421004+28830+108770FM-12+066599999V0209999C000010042019N0080001N1+01181+01091101831ADDAA124008491AY161031AY261031GF108991051071004501021999MD1710091+0401MW1601REMSYN082AAXX  04211 57633 41458 80000 10118 20109 40183 57009 76066 8572/ 333 00401 70083;
0186576330999992000040500004+28830+108770FM-12+066599999V0209999C000012200019N0070001N1+01091+01011102051ADDAA106001091AY161061GF102991021001999999041001MA1999999094261MD1210101+0401MW1101REMSYN094AAXX  05001 57633 11957 20000 10109 20101 39426 40205 52010 60011 71060 82040 333 00401 70083;
0112576330999992000040503004+28830+108770FM-12+066599999V0209999C000010075019N0180001N1+01691+00841102061ADDGF106991051011008001041021MD1210081+9999REMSYN060AAXX  05031 57633 42568 60000 10169 20084 40206 52008 85142;
0173576330999992000040506004+28830+108770FM-12+066599999V0209999C000010075019N0300001N1+01851+00621101821ADDAA199000021GF106991061011008001041021KA1999N+01031MA1999999094131MD1710211+0401REMSYN082AAXX  05061 57633 32580 60000 10185 20062 39413 40182 57021 86142 333 00402 20103;
0122576330999992000040509004+28830+108770FM-12+066599999V0201601N001010360019N0300001N1+01721+00791101661ADDGF107991011011008001031999MD1710161+0041REMSYN070AAXX  05091 57633 42580 71601 10172 20079 40166 57016 8113/ 333 00401;
0140576330999992000040515004+28830+108770FM-12+066599999V0209999C000010360019N0120001N1+01301+01121101951ADDAY161031AY261031GF108991021071004501071999MD1210171+9999MW1601REMSYN066AAXX  05151 57633 41462 80000 10130 20112 40195 52017 76066 8277/;
0207576330999992000040518004+28830+108770FM-12+066599999V0209999C000010042019N0100001N1+01221+01071101851ADDAA106002091AY161061AY261061GF108991061071004501071999KA1999M+01951MA1999999094171MD1710081-0101MW1601REMSYN094AAXX  05181 57633 11460 80000 10122 20107 39417 40185 57008 60021 76066 8677/ 333 05100 10195;
0167576330999992000040521004+28830+108770FM-12+066599999V0209999C000010042019N0070001N1+01211+01141101711ADDAA124003091AY161031AY261031GF108991081071004501999999MD1710151-0101MW1211REMSYN082AAXX  05211 57633 41457 80000 10121 20114 40171 57015 72166 887// 333 05100 70030;
0186576330999992000040600004+28830+108770FM-12+066599999V0209999C000010042019N0090001N1+01191+01001101881ADDAA106000591AY161061GF108991081051004501999999MA1999999094141MD1210121-0101MW1601REMSYN094AAXX  06001 57633 11459 80000 10119 20100 39414 40188 52012 69941 76060 885// 333 05101 70031;
0140576330999992000040603004+28830+108770FM-12+066599999V0209999C000010042019N0100001N1+01221+00991102021ADDAY161031AY261031GF108991081051004501999999MD1210111+9999MW1601REMSYN066AAXX  06031 57633 41460 80000 10122 20099 40202 52011 76066 885//;
0207576330999992000040606004+28830+108770FM-12+066599999V0209999C000010360019N0100001N1+01241+00981101871ADDAA106001091AY161061AY261061GF108991011071004501021999KA1999N+01151MA1999999094111MD1710141+0001MW1601REMSYN094AAXX  06061 57633 11460 80000 10124 20098 39411 40187 57014 60011 76066 8172/ 333 00056 20115;
0150576330999992000040609004+28830+108770FM-12+066599999V0209999C000010360019N0100001N1+01261+01061101741ADDAY161031AY261031GF108991031071004501021999MD1710121+0001MW1601REMSYN076AAXX  06091 57633 41460 80000 10126 20106 40174 57012 76066 8372/ 333 00055;
0180576330999992000040612004+28830+108770FM-12+066599999V0209999C000019999999N0100001N1+01161+00991101871ADDAA106000591AY161061GF108991081001999999071999MA1999999094091MD1210101+0001MW1001REMSYN088AAXX  06121 57633 11960 80000 10116 20099 39409 40187 52010 69941 70060 8807/ 333 00053;
0124576330999992000040615004+28830+108770FM-12+066599999V0209999C000019999999N0080001N1+01101+01021102041ADDGF108991081001999999071999MD1210161+9999MW1101REMSYN066AAXX  06151 57633 41958 80000 10110 20102 40204 52016 71000 8807/;
0185576330999992000040618004+28830+108770FM-12+066599999V0209999C000019999999N0070001N1+01061+00981101981ADDAA199000021GF108991081001999999071999KA1999M+01291MA1999999094191MD1710061+0001MW1101REMSYN088AAXX  06181 57633 31957 80000 10106 20098 39419 40198 57006 71000 8807/ 333 00052 10129;
0151576330999992000040621004+28830+108770FM-12+066599999V0209999C000019999999N0070001N1+01081+00981101921ADDAA124001891GF108991081001999999071999MD1710051+0101MW1101REMSYN082AAXX  06211 57633 41957 80000 10108 20098 40192 57005 71000 8807/ 333 00151 70019;
0186576330999992000040700004+28830+108770FM-12+066599999V0209999C000010042019N0060001N1+01071+00971102041ADDAA106000391AY161061GF108991051071004501071999MA1999999094231MD1210091+0101MW1601REMSYN094AAXX  07001 57633 11456 80000 10107 20097 39423 40204 52009 69931 76060 8577/ 333 00151 70021;
0132576330999992000040703004+28830+108770FM-12+066599999V0209999C000010360019N0080001N1+01251+01031102161ADDAY161031GF108991021071004501071999MD1210131+9999MW1101REMSYN066AAXX  07031 57633 41458 80000 10125 20103 40216 52013 71060 8277/;
0199576330999992000040706004+28830+108770FM-12+066599999V0209999C000010360019N0120001N1+01581+01051101871ADDAA106000191AY161061GF107991011011008001071999KA1999N+01011MA1999999094131MD1710231+0001MW1001REMSYN094AAXX  07061 57633 11562 70000 10158 20105 39413 40187 57023 69911 70060 8117/ 333 00003 20101;
0122576330999992000040709004+28830+108770FM-12+066599999V0209999C000010360019N0170001N1+01741+01011101621ADDGF107991011011008001041999MD1710211+0011REMSYN070AAXX  07091 57633 42567 70000 10174 20101 40162 57021 8114/ 333 05105;
0154576330999992000040712004+28830+108770FM-12+066599999V0209999C000012200019N0150001N1+01341+00921101831ADDAA199000021GF103991021001999999041021MA1999999094061MD1210141+0001REMSYN076AAXX  07121 57633 32965 30000 10134 20092 39406 40183 52014 82042 333 00002;
0112576330999992000040715004+28830+108770FM-12+066599999V0209999C000019999999N0150001N1+01131+00981102051ADDGF107991071001999999041999MD1210201+9999REMSYN060AAXX  07151 57633 42965 70000 10113 20098 40205 52020 8704/;
0192576330999992000040718004+28830+108770FM-12+066599999V0209999C000019999999N0120001N1+01061+00941101891ADDAA199000091GF108991081001999999071999KA1999M+01771MA1999999094151MD1710111+0001REMSYN082AAXX  07181 57633 32962 80000 10106 20094 39415 40189 57011 8807/ 333 00000 10177;EQDQ01  00002PRCP99
0149576330999992000040721004+28830+108770FM-12+066599999V0209999C000012200019N0120001N1+00971+00931101741ADDAA124000591GA1001+999999999GF100991001001999999001001MD1710131-0101REMSYN070AAXX  07211 57633 42962 00000 10097 20093 40174 57013 333 05151 70004;
0172576330999992000040800004+28830+108770FM-12+066599999V0209999C000019999999N0070001N1+01081+00981101801ADDAA124000191GF107991071001999999041001MA1999999094041MD1210021-0201MW1101REMSYN088AAXX  08001 57633 31957 70000 10108 20098 39404 40180 52002 71000 87040 333 05200 70001;
0124576330999992000040803004+28830+108770FM-12+066599999V0209999C000019999999N0080001N1+01311+01091101761ADDGF108991081001999999071999MD1710041+9999MW1101REMSYN066AAXX  08031 57633 41958 80000 10131 20109 40176 57004 71000 8807/;
0192576330999992000040806004+28830+108770FM-12+066599999V0203601N001010360019N0120001N1+01671+01011101451ADDAA199000091GF108991021011008001071999KA1999N+00921MA1999999093751MD1710251-0401REMSYN082AAXX  08061 57633 32562 83601 10167 20101 39375 40145 57025 8217/ 333 05401 20092;EQDQ01  00002PRCP99
0122576330999992000040809004+28830+108770FM-12+066599999V0203601N001010360019N0150001N1+01641+01001101281ADDGF108991011011008001071999MD1710171+0031REMSYN070AAXX  08091 57633 42565 83601 10164 20100 40128 57017 8117/ 333 05351;
0173576330999992000040812004+28830+108770FM-12+066599999V0209999C000010150019N0120001N1+01471+01091101431ADDAA199000091GF108991081051017501999999MA1999999093711MD1210131+0041REMSYN076AAXX  08121 57633 32762 80000 10147 20109 39371 40143 52013 885// 333 05401;EQDQ01  00002PRCP99
0112576330999992000040815004+28830+108770FM-12+066599999V0209999C000010150019N0120001N1+01381+01111101551ADDGF108991081051017501999999MD1210131+9999REMSYN060AAXX  08151 57633 42762 80000 10138 20111 40155 52013 885//;
0134576330999992000040821004+28830+108770FM-12+066599999V0209999C000010150019N0080001N1+01211+01061101351ADDGF105991051051017501001001MD1710121+0031MW1101REMSYN076AAXX  08211 57633 41758 50000 10121 20106 40135 57012 71000 85500 333 05302;
0186576330999992000040900004+28830+108770FM-12+066599999V0209999C000010150019N0090001N1+01221+01111101461ADDAA106000791AY161061GF107991071051017501999999MA1999999093761MD1210081-0301MW1601REMSYN094AAXX  09001 57633 11759 70000 10122 20111 39376 40146 52008 69901 76060 875// 333 05301 79999;
0124576330999992000040903004+28830+108770FM-12+066599999V0209999C000010150019N0120001N1+01491+01211101551ADDGF108991081051017501999999MD1210101+9999MW1601REMSYN066AAXX  09031 57633 41762 80000 10149 20121 40155 52010 76000 885//;
0199576330999992000040906004+28830+108770FM-12+066599999V0209999C000010042019N0120001N1+01571+01291101421ADDAA106000891AY161061GF108991081071004501999999KA1999N+01151MA1999999093751MD1710111+0001MW1601REMSYN094AAXX  09061 57633 11462 80000 10157 20129 39375 40142 57011 69971 76060 887// 333 00051 20115;
0142576330999992000040909004+28830+108770FM-12+066599999V0201401N001010120019N0150001N1+01771+01361101351ADDAY161031GF107991071081008001999999MD1710061+0011MW1001REMSYN076AAXX  09091 57633 41565 71401 10177 20136 40135 57006 70060 878// 333 00101;
0180576330999992000040912004+28830+108770FM-12+066599999V0209999C000010150019N0120001N1+01571+01291101781ADDAA106000191AY161061GF108991081051017501999999MA1999999094071MD1210381+0041MW1601REMSYN088AAXX  09121 57633 11762 80000 10157 20129 39407 40178 52038 69911 76060 885// 333 00401;
0140576330999992000040915004+28830+108770FM-12+066599999V0203601N001010150019N0100001N1+01471+01241101971ADDAY161031AY261031GF108991081051017501999999MD1210191+9999MW1211REMSYN066AAXX  09151 57633 41760 83601 10147 20124 40197 52019 72166 885//;
0199576330999992000040918004+28830+108770FM-12+066599999V0203401N001010042019N0090001N1+01361+01221102121ADDAA106001091AY161061GF108991081071004501999999KA1999M+01801MA1999999094401MD1210141+0601MW1601REMSYN094AAXX  09181 57633 11459 83401 10136 20122 39440 40212 52014 69991 76060 887// 333 00600 10180;
0167576330999992000040921004+28830+108770FM-12+066599999V0209999C000010042019N0070001N1+01301+01211102181ADDAA124006191AY161031AY261031GF108991081071004501999999MD1210071+0801MW1601REMSYN082AAXX  09211 57633 41457 80000 10130 20121 40218 52007 76066 887// 333 00801 70062;
0186576330999992000041000004+28830+108770FM-12+066599999V0209999C000010360019N0100001N1+01291+01201102221ADDAA106005191AY161061GF108991011071004501071999MA1999999094481MD1210011+0701MW1601REMSYN094AAXX  10001 57633 11460 80000 10129 20120 39448 40222 52001 60051 76060 8177/ 333 00701 70064;
0132576330999992000041003004+28830+108770FM-12+066599999V0201401N003010360019N0120001N1+01451+00741102431ADDAY161031GF108991031071004501021999MD1210201+9999MW1601REMSYN066AAXX  10031 57633 41462 81403 10145 20074 40243 52020 76060 8372/;
0199576330999992000041006004+28830+108770FM-12+066599999V0203601N001010360019N0100001N1+01251+00501102311ADDAA106000191AY161061GF108991011071004501021999KA1999N+01221MA1999999094531MD1710151+0801MW1211REMSYN094AAXX  10061 57633 11460 83601 10125 20050 39453 40231 57015 69911 72160 8172/ 333 00853 20122;
0122576330999992000041009004+28830+108770FM-12+066599999V0209999C000019999999N0100001N1+01301+00151102091ADDGF108991081001999999071999MD1710201+0061REMSYN070AAXX  10091 57633 42960 80000 10130 20015 40209 57020 8807/ 333 00655;
0154576330999992000041012004+28830+108770FM-12+066599999V0209999C000010150019N0100001N1+01181-00131102141ADDAA199000021GF108991081051017501999999MA1999999094361MD1210031+0031REMSYN076AAXX  10121 57633 32760 80000 10118 21013 39436 40214 52003 885// 333 00354;
0112576330999992000041015004+28830+108770FM-12+066599999V0209999C000010150019N0100001N1+01111+00231102221ADDGF108991081051017501999999MD1210081+9999REMSYN060AAXX  10151 57633 42760 80000 10111 20023 40222 52008 885//;
0207576330999992000041018004+28830+108770FM-12+066599999V0209999C000010150019N0100001N1+01051+00371102161ADDAA106000791AY191061AY281061GF108991081051017501999999KA1999M+01481MA1999999094351MD1710091-0101MW1801REMSYN094AAXX  10181 57633 11760 80000 10105 20037 39435 40216 57009 69901 78098 885// 333 05153 10148;
0159576330999992000041021004+28830+108770FM-12+066599999V0209999C000010150019N0120001N1+00911+00571102011ADDAA124000891AY181031GF108991081051017501999999MD1710151-0301MW1001REMSYN082AAXX  10211 57633 41762 80000 10091 20057 40201 57015 70080 885// 333 05354 70007;
0194576330999992000041100004+28830+108770FM-12+066599999V0209999C000010150019N0120001N1+00921+00611102041ADDAA106000591AY181061AY261061GF108991081051017501999999MA1999999094221MD1210021-0301MW1001REMSYN094AAXX  11001 57633 11762 80000 10092 20061 39422 40204 52002 69961 70086 885// 333 05354 70007;
0112576330999992000041103004+28830+108770FM-12+066599999V0202001N001010150019N0120001N1+01221+00561102021ADDGF108991081051017501999999MD1210011+9999REMSYN060AAXX  11031 57633 42762 82001 10122 20056 40202 52001 885//;
0173576330999992000041106004+28830+108770FM-12+066599999V0201601N002010150019N0120001N1+01421+00621101711ADDAA199000021GF107991071051017501999999KA1999N+00841MA1999999093961MD1710271-0601REMSYN082AAXX  11061 57633 32762 71602 10142 20062 39396 40171 57027 875// 333 05602 20084;
0122576330999992000041109004+28830+108770FM-12+066599999V0201801N002019999999N0120001N1+01601+00801101431ADDGF107991071001999999031999MD1710251+0061REMSYN070AAXX  11091 57633 42962 71802 10160 20080 40143 57025 8703/ 333 05603;
0173576330999992000041112004+28830+108770FM-12+066599999V0209999C000019999999N0120001N1+01321+00771101581ADDAA199000091GF107991071001999999031999MA1999999093811MD1210101+0061REMSYN076AAXX  11121 57633 32962 70000 10132 20077 39381 40158 52010 8703/ 333 05601;EQDQ01  00002PRCP99
0112576330999992000041115004+28830+108770FM-12+066599999V0209999C000019999999N0120001N1+01071+00771101761ADDGF108991081001999999071999MD1210171+9999REMSYN060AAXX  11151 57633 42962 80000 10107 20077 40176 52017 8807/;
0192576330999992000041118004+28830+108770FM-12+066599999V0209999C000019999999N0120001N1+00931+00731101641ADDAA199000091GF105991051001999999041001KA1999M+01631MA1999999093881MD1710101-0501REMSYN082AAXX  11181 57633 32962 50000 10093 20073 39388 40164 57010 85040 333 05551 10163;EQDQ01  00002PRCP99
0139576330999992000041121004+28830+108770FM-12+066599999V0209999C000019999999N0100001N1+00871+00751101531ADDAA124000391GF107991071001999999031999MD1710091-0401REMSYN076AAXX  11211 57633 42960 70000 10087 20075 40153 57009 8703/ 333 05400 70002;
0185576330999992000041200004+28830+108770FM-12+066599999V0209999C000010360019N0090001N1+00971+00811101541ADDAA199000091GF108991021041012501071999MA1999999093781MD1710011+0041MW1101REMSYN082AAXX  12001 57633 31659 80000 10097 20081 39378 40154 57001 71000 8247/ 333 05401;EQDQ01  00002PRCP99
0112576330999992000041203004+28830+108770FM-12+066599999V0201401N002019999999N0120001N1+01591+00981101441ADDGF107991071001999999041999MD1710041+9999REMSYN060AAXX  12031 57633 42962 71402 10159 20098 40144 57004 8704/;
0192576330999992000041206004+28830+108770FM-12+066599999V0201401N002019999999N0120001N1+01911+01081101141ADDAA199000091GF107991071001999999041999KA1999N+00821MA1999999092482MD1710261-0501REMSYN082AAXX  12061 57633 32962 71402 10191 20108 39248 40114 57026 8704/ 333 05505 20082;EQDQ01  00002PRCP99
0122576330999992000041209004+28830+108770FM-12+066599999V0201601N001019999999N0150001N1+02241+01001100791ADDGF105991001001999999001011MD1710291+0051REMSYN070AAXX  12091 57633 42965 51601 10224 20100 40079 57029 80001 333 05506;
0173576330999992000041212004+28830+108770FM-12+066599999V0209999C000012200019N0120001N1+01681+01051100901ADDAA199000091GF104991041001999999041001MA1999999093241MD1210051+0061REMSYN076AAXX  12121 57633 32962 40000 10168 20105 39324 40090 52005 84040 333 05604;EQDQ01  00002PRCP99
0112576330999992000041215004+28830+108770FM-12+066599999V0209999C000019999999N0120001N1+01321+01061101001ADDGF107991071001999999041001MD1210121+9999REMSYN060AAXX  12151 57633 42962 70000 10132 20106 40100 52012 87040;
0192576330999992000041218004+28830+108770FM-12+066599999V0209999C000019999999N0100001N1+01201+01091100831ADDAA199000091GF107991071001999999041999KA1999M+02291MA1999999093231MD1710131-0701REMSYN082AAXX  12181 57633 32960 70000 10120 20109 39323 40083 57013 8704/ 333 05703 10229;EQDQ01  00002PRCP99
0122576330999992000041221004+28830+108770FM-12+066599999V0209999C000019999999N0100001N1+01161+01051100651ADDGF107991071001999999031999MD1710131+0071REMSYN070AAXX  12211 57633 42960 70000 10116 20105 40065 57013 8703/ 333 05703;
0173576330999992000041300004+28830+108770FM-12+066599999V0209999C000019999999N0100001N1+01301+01141100791ADDAA199000091GF108991081001999999071999MA1999999093181MD1210081+0061REMSYN076AAXX  13001 57633 32960 80000 10130 20114 39318 40079 52008 8807/ 333 05603;EQDQ01  00002PRCP99
0112576330999992000041303004+28830+108770FM-12+066599999V0209999C000019999999N0120001N1+01571+01261100721ADDGF108991081001999999071999MD1710081+9999REMSYN060AAXX  13031 57633 42962 80000 10157 20126 40072 57008 8807/;
0192576330999992000041306004+28830+108770FM-12+066599999V0200201N002010360019N0150001N1+01791+01201100471ADDAA199000091GF108991031041012501071999KA1999N+01121MA1999999092881MD1710221-0601REMSYN082AAXX  13061 57633 32665 80202 10179 20120 39288 40047 57022 8347/ 333 05651 20112;EQDQ01  00002PRCP99
0142576330999992000041309004+28830+108770FM-12+066599999V0203601N001019999999N0150001N1+01811+01201100361ADDAY161031GF108991081001999999071999MD1710101+0041MW1001REMSYN076AAXX  13091 57633 41965 83601 10181 20120 40036 57010 70060 8807/ 333 05454;
0180576330999992000041312004+28830+108770FM-12+066599999V0209999C000019999999N0120001N1+01671+01361100541ADDAA106000791AY161061GF108991081001999999071999MA1999999092941MD1210161+0031MW1001REMSYN088AAXX  13121 57633 11962 80000 10167 20136 39294 40054 52016 69901 70060 8807/ 333 05300;
0112576330999992000041315004+28830+108770FM-12+066599999V0209999C000019999999N0120001N1+01571+01381100741ADDGF108991081001999999071999MD1210211+9999REMSYN060AAXX  13151 57633 42962 80000 10157 20138 40074 52021 8807/;
0207576330999992000041318004+28830+108770FM-12+066599999V0209999C000010150019N0150001N1+01471+01421100831ADDAA106002091AY191061AY261061GF106991061051017501001001KA1999M+01821MA1999999093251MD1210101+0001MW1251REMSYN094AAXX  13181 57633 11765 60000 10147 20142 39325 40083 52010 60021 72596 86500 333 00003 10182;
0139576330999992000041321004+28830+108770FM-12+066599999V0209999C000010150019N0150001N1+01351+01281100781ADDAA124002091GF105991051051017501001001MD1710061+0101REMSYN076AAXX  13211 57633 42765 50000 10135 20128 40078 57006 85500 333 00102 70021;
0160576330999992000041400004+28830+108770FM-12+066599999V0209999C000010150019N0120001N1+01391+01281101101ADDAA124002091GF107991071051017501999999MA1999999093471MD1210281+0301REMSYN082AAXX  14001 57633 32762 70000 10139 20128 39347 40110 52028 875// 333 00301 70021;
0112576330999992000041403004+28830+108770FM-12+066599999V0209999C000010150019N0120001N1+01631+01391101261ADDGF108991081051017501999999MD1210171+9999REMSYN060AAXX  14031 57633 42762 80000 10163 20139 40126 52017 885//;
0199576330999992000041406004+28830+108770FM-12+066599999V0201601N001010042019N0120001N1+01621+01261101241ADDAA106000391AY161061GF108991081071004501999999KA1999N+01261MA1999999093611MD1710031+0701MW1001REMSYN094AAXX  14061 57633 11462 81601 10162 20126 39361 40124 57003 69931 70060 887// 333 00752 20126;
0134576330999992000041409004+28830+108770FM-12+066599999V0201101N003010075019N0120001N1+01501+01241101321ADDGF108991081071008001999999MD1210041+0091MW1601REMSYN076AAXX  14091 57633 41562 81103 10150 20124 40132 52004 76000 887// 333 00953;
0140576330999992000041415004+28830+108770FM-12+066599999V0209999C000010042019N0120001N1+01281+01111102111ADDAY161031AY261031GF108991081071004501999999MD1210431+9999MW1601REMSYN066AAXX  14151 57633 41462 80000 10128 20111 40211 52043 76066 887//;
0207576330999992000041418004+28830+108770FM-12+066599999V0201801N001010042019N0120001N1+01161+01071102101ADDAA106008991AY161061AY261061GF108991081051004501999999KA1999M+01711MA1999999094361MD1710031+1101MW1601REMSYN094AAXX  14181 57633 11462 81801 10116 20107 39436 40210 57003 60091 76066 885// 333 01153 10171;
0159576330999992000041421004+28830+108770FM-12+066599999V0209999C000010042019N0150001N1+01141+00951102181ADDAA124009991AY161031GF108991081051004501999999MD1210061+1201MW1001REMSYN082AAXX  14211 57633 41465 80000 10114 20095 40218 52006 70060 885// 333 01252 70099;
0186576330999992000041500004+28830+108770FM-12+066599999V0201101N002010042019N0100001N1+01061+00981102341ADDAA106000191AY161061GF108991081071004501999999MA1999999094541MD1210121+1101MW1601REMSYN094AAXX  15001 57633 11460 81102 10106 20098 39454 40234 52012 69911 76060 887// 333 01153 70099;
0112576330999992000041503004+28830+108770FM-12+066599999V0201401N003010075019N0150001N1+01371+01111102371ADDGF107991071051008001999999MD1210051+9999REMSYN060AAXX  15031 57633 42565 71403 10137 20111 40237 52005 875//;
0173576330999992000041506004+28830+108770FM-12+066599999V0201401N002012200019N0300001N1+01861+01071101911ADDAA199000021GF104991041021008001001001KA1999N+01021MA1999999094221MD1710371+0601REMSYN082AAXX  15061 57633 32580 41402 10186 20107 39422 40191 57037 84200 333 00602 20102;
0122576330999992000041509004+28830+108770FM-12+066599999V0203201N001012200019N0300001N1+02091+00931101581ADDGF103991031021008001001001MD1710281+0031REMSYN070AAXX  15091 57633 42580 33201 10209 20093 40158 57028 83200 333 00306;
0164576330999992000041512004+28830+108770FM-12+066599999V0209999C000012200019N0200001N1+01631+01091101681ADDAA199000021GA1001+999999999GF100991001001999999001001MA1999999093961MD1210021+0001REMSYN070AAXX  15121 57633 32970 00000 10163 20109 39396 40168 52002 333 00003;
0202576330999992000041515004+28830+108770FM-12+066599999V0209999C000012200019N0120001N1+01061+00941101831ADDAA199000091GA1001+999999999GF100991001001999999001001KA1999M+02131MA1999999094131MD1210021-0201REMSYN076AAXX  15151 57633 32962 00000 10106 20094 39413 40183 52002 333 05251 10213;EQDQ01  00002PRCP99
0149576330999992000041521004+28830+108770FM-12+066599999V0209999C000012200019N0120001N1+00921+00881101821ADDAA124000791GA1001+999999999GF100991001001999999001001MD1410001-0301REMSYN070AAXX  15211 57633 42962 00000 10092 20088 40182 54000 333 05352 79999;
0213576330999992000041600004+28830+108770FM-12+066599999V0209999C000012200019N0080001N1+00931+00891101971ADDAA199000091GA1001+999999999GF100991001001999999001001IA2999+00509MA1999999094211MD1210081-0301MW1101REMSYN082AAXX  16001 57633 31958 00000 10093 20089 39421 40197 52008 71000 333 05351 30050;EQDQ01  00002PRCP99
0122576330999992000041603004+28830+108770FM-12+066599999V0201401N002012200019N0150001N1+01911+01011101751ADDGA1001+999999999GF100991001001999999001001MD1710131+9999REMSYN054AAXX  16031 57633 42965 01402 10191 20101 40175 57013;
0202576330999992000041606004+28830+108770FM-12+066599999V0201401N002012200019N0200001N1+02291+00861101381ADDAA199000091GA1001+999999999GF100991001001999999001001KA1999N+00831MA1999999093771MD1710311-0501REMSYN076AAXX  16061 57633 32970 01402 10229 20086 39377 40138 57031 333 05504 20083;EQDQ01  00002PRCP99
0122576330999992000041609004+28830+108770FM-12+066599999V0201601N002012200019N0200001N1+02381+01041101111ADDGF101991001001999999001011MD1710261+0041REMSYN070AAXX  16091 57633 42970 11602 10238 20104 40111 57026 80001 333 05403;
0173576330999992000041612004+28830+108770FM-12+066599999V0209999C000012200019N0200001N1+01811+01081101251ADDAA199000091GF103991001001999999001011MA1999999093571MD1210061+0041REMSYN076AAXX  16121 57633 32970 30000 10181 20108 39357 40125 52006 80001 333 05402;EQDQ01  00002PRCP99
0112576330999992000041615004+28830+108770FM-12+066599999V0209999C000012200019N0200001N1+01421+01131101281ADDGF102991001001999999001021MD1210101+9999REMSYN060AAXX  16151 57633 42970 20000 10142 20113 40128 52010 80002;
0202576330999992000041618004+28830+108770FM-12+066599999V0209999C000012200019N0200001N1+01171+01041101171ADDAA199000091GA1001+999999999GF100991001001999999001001KA1999M+02501MA1999999093591MD1710081-0501REMSYN076AAXX  16181 57633 32970 00000 10117 20104 39359 40117 57008 333 05501 10250;EQDQ01  00002PRCP99
0132576330999992000041621004+28830+108770FM-12+066599999V0209999C000012200019N0200001N1+01051+00971101091ADDGA1001+999999999GF100991001001999999001001MD1710081+0061REMSYN064AAXX  16211 57633 42970 00000 10105 20097 40109 57008 333 05601;
0173576330999992000041700004+28830+108770FM-12+066599999V0209999C000012200019N0120001N1+01161+01031101131ADDAA199000091GF102991011001999999041021MA1999999093491MD1710021+0071REMSYN076AAXX  17001 57633 32962 20000 10116 20103 39349 40113 57002 81042 333 05702;EQDQ01  00002PRCP99
0112576330999992000041703004+28830+108770FM-12+066599999V0203601N001012200019N0200001N1+02141+01051100941ADDGF101991011001999999041001MD1710101+9999REMSYN060AAXX  17031 57633 42970 13601 10214 20105 40094 57010 81040;
0192576330999992000041706004+28830+108770FM-12+066599999V0201401N005010360019N0300001N1+02441+01121100621ADDAA199000091GF106991011011008001041001KA1999N+00971MA1999999093101MD1710291-0701REMSYN082AAXX  17061 57633 32580 61405 10244 20112 39310 40062 57029 81140 333 05702 20097;EQDQ01  00002PRCP99
0122576330999992000041709004+28830+108770FM-12+066599999V0202001N003012200019N0300001N1+02521+01211100491ADDGF102991021001999999041021MD1710131+0051REMSYN070AAXX  17091 57633 42980 22003 10252 20121 40049 57013 82042 333 05501;
0173576330999992000041712004+28830+108770FM-12+066599999V0209999C000019999999N0300001N1+02151+01291100651ADDAA199000091GF106991061001999999031001MA1999999093091MD1210121+0051REMSYN076AAXX  17121 57633 32980 60000 10215 20129 39309 40065 52012 86030 333 05503;EQDQ01  00002PRCP99
0112576330999992000041715004+28830+108770FM-12+066599999V0200201N001019999999N0200001N1+01981+01281100781ADDGF107991071001999999031999MD1210221+9999REMSYN060AAXX  17151 57633 42970 70201 10198 20128 40078 52022 8703/;
0192576330999992000041718004+28830+108770FM-12+066599999V0209999C000019999999N0180001N1+01811+01421100711ADDAA199000091GF108991081001999999071999KA1999M+02581MA1999999093261MD1710051-0301REMSYN082AAXX  17181 57633 32968 80000 10181 20142 39326 40071 57005 8807/ 333 05306 10258;EQDQ01  00002PRCP99
0122576330999992000041721004+28830+108770FM-12+066599999V0209999C000019999999N0150001N1+01681+01321100751ADDGF108991081001999999071999MD1210031+0021REMSYN070AAXX  17211 57633 42965 80000 10168 20132 40075 52003 8807/ 333 05206;
0173576330999992000041800004+28830+108770FM-12+066599999V0209999C000010150019N0150001N1+01701+01401100991ADDAA199000091GF108991081051017501999999MA1999999093471MD1210181+0001REMSYN076AAXX  18001 57633 32765 80000 10170 20140 39347 40099 52018 885// 333 00005;EQDQ01  00002PRCP99
0112576330999992000041803004+28830+108770FM-12+066599999V0209999C000010150019N0150001N1+01871+01451101111ADDGF108991081051017501999999MD1210111+9999REMSYN060AAXX  18031 57633 42765 80000 10187 20145 40111 52011 885//;
0192576330999992000041806004+28830+108770FM-12+066599999V0201401N003012200019N0180001N1+02321+01491100871ADDAA199000091GF102991011011008001041001KA1999N+01611MA1999999093391MD1710191+0301REMSYN082AAXX  18061 57633 32568 21403 10232 20149 39339 40087 57019 81140 333 00351 20161;EQDQ01  00002PRCP99
0122576330999992000041809004+28830+108770FM-12+066599999V0200901N002010120019N0180001N1+02311+01441100781ADDGF107991051041012501041999MD1710101+0031REMSYN070AAXX  18091 57633 42668 70902 10231 20144 40078 57010 8544/ 333 00352;
0173576330999992000041812004+28830+108770FM-12+066599999V0209999C000010120019N0150001N1+02041+01571100981ADDAA199000091GF108991081051012501999999MA1999999093451MD1210161+0041REMSYN076AAXX  18121 57633 32665 80000 10204 20157 39345 40098 52016 885// 333 00451;EQDQ01  00002PRCP99
0112576330999992000041815004+28830+108770FM-12+066599999V0209999C000012200019N0150001N1+01741+01531101191ADDGF102991021001999999041001MD1210171+9999REMSYN060AAXX  18151 57633 42965 20000 10174 20153 40119 52017 82040;
0192576330999992000041818004+28830+108770FM-12+066599999V0209999C000010150019N0150001N1+01621+01521101011ADDAA199000091GF107991071051017501999999KA1999M+02471MA1999999093501MD1710121+0201REMSYN082AAXX  18181 57633 32765 70000 10162 20152 39350 40101 57012 875// 333 00252 10247;EQDQ01  00002PRCP99
0151576330999992000041821004+28830+108770FM-12+066599999V0209999C000010150019N0120001N1+01651+01551100951ADDAA124000391GF108991081051017501999999MD1710051+0201MW1601REMSYN082AAXX  18211 57633 41762 80000 10165 20155 40095 57005 76000 885// 333 00200 70002;
0186576330999992000041900004+28830+108770FM-12+066599999V0209999C000010042019N0050001N1+01641+01611100991ADDAA106007191AY161061GF108991081071004501999999MA1999999093451MD1410001+0001MW1601REMSYN094AAXX  19001 57633 11450 80000 10164 20161 39345 40099 54000 60071 76060 887// 333 00051 70067;
0140576330999992000041903004+28830+108770FM-12+066599999V0203401N001010042019N0080001N1+01811+01711101031ADDAY161031AY261031GF108991081071004501999999MD1210021+9999MW1601REMSYN066AAXX  19031 57633 41458 83401 10181 20171 40103 52002 76066 887//;
0207576330999992000041906004+28830+108770FM-12+066599999V0203601N001010042019N0120001N1+01831+01641100831ADDAA106003091AY161061AY261061GF108991081071004501999999KA1999N+01591MA1999999093271MD1710201-0101MW1211REMSYN094AAXX  19061 57633 11462 83601 10183 20164 39327 40083 57020 60031 72166 887// 333 05155 20159;
0122576330999992000041909004+28830+108770FM-12+066599999V0203601N001010042019N0150001N1+01801+01591100721ADDGF108991081071004501999999MD1710101+0011REMSYN070AAXX  19091 57633 42465 83601 10180 20159 40072 57010 887// 333 05155;
0154576330999992000041912004+28830+108770FM-12+066599999V0203401N001010150019N0150001N1+01781+01581100811ADDAA199000021GF108991081051017501999999MA1999999093251MD1210081+0021REMSYN076AAXX  19121 57633 32765 83401 10178 20158 39325 40081 52008 885// 333 05253;
0112576330999992000041915004+28830+108770FM-12+066599999V0203601N001010150019N0150001N1+01751+01551100941ADDGF108991081051017501999999MD1210141+9999REMSYN060AAXX  19151 57633 42765 83601 10175 20155 40094 52014 885//;
0173576330999992000041918004+28830+108770FM-12+066599999V0209999C000010150019N0150001N1+01701+01591100891ADDAA199000021GF108991081051017501999999KA1999M+01851MA1999999093341MD1710051-0201REMSYN082AAXX  19181 57633 32765 80000 10170 20159 39334 40089 57005 885// 333 05201 10185;
0167576330999992000041921004+28830+108770FM-12+066599999V0209999C000010042019N0100001N1+01651+01621100831ADDAA124016091AY191031AY281031GF108991081091004501999999MD1710071-0201MW1951REMSYN082AAXX  19211 57633 41460 80000 10165 20162 40083 57007 79598 889// 333 05200 70160;
0194576330999992000042000004+28830+108770FM-12+066599999V0209999C000010042019N0070001N1+01691+01621101011ADDAA106010991AY191061AY281061GF108991081071004501999999MA1999999093441MD1210171+0001MW1601REMSYN094AAXX  20001 57633 11457 80000 10169 20162 39344 40101 52017 60111 76098 887// 333 00001 70139;
0132576330999992000042003004+28830+108770FM-12+066599999V0201801N001010042019N0120001N1+01821+01691101281ADDAY161031GF108991081071004501999999MD1210261+9999MW1601REMSYN066AAXX  20031 57633 41462 81801 10182 20169 40128 52026 76060 887//;
0199576330999992000042006004+28830+108770FM-12+066599999V0200201N002010042019N0300001N1+01641+01261101371ADDAA106002091AY161061GF108991081071004501999999KA1999N+01591MA1999999093761MD1210061+0501MW1601REMSYN094AAXX  20061 57633 11480 80202 10164 20126 39376 40137 52006 60021 76060 887// 333 00552 20159;
0142576330999992000042009004+28830+108770FM-12+066599999V0202201N001010075019N0300001N1+01961+01281101231ADDAY161031GF107991061011008001041001MD1710101+0051MW1001REMSYN076AAXX  20091 57633 41580 72201 10196 20128 40123 57010 70060 86140 333 00502;
0180576330999992000042012004+28830+108770FM-12+066599999V0209999C000012200019N0300001N1+01631+01411101351ADDAA106000191AY161061GF102991021001999999041001MA1999999093741MD1210081+0051MW1001REMSYN088AAXX  20121 57633 11980 20000 10163 20141 39374 40135 52008 69921 70060 82040 333 00552;
0112576330999992000042015004+28830+108770FM-12+066599999V0209999C000019999999N0200001N1+01411+01341101581ADDGF107991071001999999031999MD1210201+9999REMSYN060AAXX  20151 57633 42970 70000 10141 20134 40158 52020 8703/;
0173576330999992000042018004+28830+108770FM-12+066599999V0209999C000019999999N0150001N1+01301+01231101651ADDAA199000021GF107991071001999999041999KA1999M+02031MA1999999093971MD1210031+0601REMSYN082AAXX  20181 57633 32965 70000 10130 20123 39397 40165 52003 8704/ 333 00654 10203;
0151576330999992000042021004+28830+108770FM-12+066599999V0209999C000010150019N0060001N1+01321+01281101481ADDAA124006191GF108991081051017501999999MD1710121+0601MW1101REMSYN082AAXX  20211 57633 41756 80000 10132 20128 40148 57012 71000 885// 333 00653 70062;
0132576330999992000042103004+28830+108770FM-12+066599999V0203601N002010042019N0100001N1+01471+01351101711ADDAY161031GF108991081071004501999999MD1710071+9999MW1601REMSYN066AAXX  21031 57633 41460 83602 10147 20135 40171 57007 76060 887//;
0199576330999992000042106004+28830+108770FM-12+066599999V0209999C000010042019N0150001N1+01691+01421101541ADDAA106001091AY161061GF108991081051004501999999KA1999N+01261MA1999999093871MD1710141+0101MW1211REMSYN094AAXX  21061 57633 11465 80000 10169 20142 39387 40154 57014 60011 72160 885// 333 00101 20126;
0122576330999992000042109004+28830+108770FM-12+066599999V0209999C000010150019N0150001N1+01731+01041101341ADDGF108991081051017501999999MD1710181+0001REMSYN070AAXX  21091 57633 42765 80000 10173 20104 40134 57018 885// 333 00052;
0154576330999992000042112004+28830+108770FM-12+066599999V0209999C000010150019N0150001N1+01561+01151101311ADDAA199000021GF108991081051017501999999MA1999999093651MD1710041+0011REMSYN076AAXX  21121 57633 32765 80000 10156 20115 39365 40131 57004 885// 333 05151;
0112576330999992000042115004+28830+108770FM-12+066599999V0209999C000010150019N0120001N1+01501+01181101551ADDGF108991081051017501999999MD1210231+9999REMSYN060AAXX  21151 57633 42762 80000 10150 20118 40155 52023 885//;
0207576330999992000042118004+28830+108770FM-12+066599999V0209999C000010120019N0100001N1+01231+00861101601ADDAA106002091AY191061AY261061GF108991081051012501999999KA1999M+01821MA1999999093921MD1210041-0101MW1911REMSYN094AAXX  21181 57633 11660 80000 10123 20086 39392 40160 52004 60021 79196 885// 333 05151 10182;
0167576330999992000042121004+28830+108770FM-12+066599999V0209999C000010150019N0100001N1+01121+00911101591ADDAA124005691AY181031AY261031GF108991081051017501999999MD1710021+0101MW1211REMSYN082AAXX  21211 57633 41760 80000 10112 20091 40159 57002 72186 885// 333 00152 70056;
0192576330999992000042200004+28830+108770FM-12+066599999V0209999C000012200019N0200001N1+01191+01141999999ADDAA199000021GF101991011001999999041001KA1999M+02031MA1999999093291MD1710211-0401REMSYN082AAXX  23181 57633 32970 10000 10119 20114 39329 40090 57021 81040 333 05400 10203;EQDQ01+100903APOSLP
0112576330999992000042203004+28830+108770FM-12+066599999V0201401N001010360019N0200001N1+01361+01031101721ADDGF108991011011008001071999MD1210051+9999REMSYN060AAXX  22031 57633 42570 81401 10136 20103 40172 52005 8117/;
0173576330999992000042206004+28830+108770FM-12+066599999V0201601N002019999999N0250001N1+01791+01181101421ADDAA199000021GF107991071001999999031999KA1999N+01071MA1999999093761MD1710261-0101REMSYN082AAXX  22061 57633 32975 71602 10179 20118 39376 40142 57026 8703/ 333 05101 20107;
0132576330999992000042209004+28830+108770FM-12+066599999V0209999C000012200019N0300001N1+02191+01181101051ADDGA1001+999999999GF100991001001999999001001MD1710301+0021REMSYN064AAXX  22091 57633 42980 00000 10219 20118 40105 57030 333 05205;
0122576330999992000042215004+28830+108770FM-12+066599999V0209999C000012200019N0200001N1+01311+01031101411ADDGA1001+999999999GF100991001001999999001001MD1210191+9999REMSYN054AAXX  22151 57633 42970 00000 10131 20103 40141 52019;
0192576330999992000042218004+28830+108770FM-12+066599999V0209999C000019999999N0200001N1+01231+01101101321ADDAA199000091GF107991071001999999041999KA1999M+02221MA1999999093671MD1710041-0301REMSYN082AAXX  22181 57633 32970 70000 10123 20110 39367 40132 57004 8704/ 333 05300 10222;EQDQ01  00002PRCP99
0159576330999992000042221004+28830+108770FM-12+066599999V0209999C000010150019N0150001N1+01331+01221101231ADDAA124000591AY161031GF108991081051017501999999MD1710021-0301MW1601REMSYN082AAXX  22211 57633 41765 80000 10133 20122 40123 57002 76060 885// 333 05302 70006;
0186576330999992000042300004+28830+108770FM-12+066599999V0209999C000010042019N0150001N1+01321+01161101411ADDAA106003091AY161061GF108991081071004501999999MA1999999093751MD1210101-0201MW1601REMSYN094AAXX  23001 57633 11465 80000 10132 20116 39375 40141 52010 60031 76060 887// 333 05202 70031;
0132576330999992000042303004+28830+108770FM-12+066599999V0209999C000019999999N0250001N1+01521+01181101411ADDAY161031GF108991081001999999071999MD1710021+9999MW1001REMSYN066AAXX  23031 57633 41975 80000 10152 20118 40141 57002 70060 8807/;
0199576330999992000042306004+28830+108770FM-12+066599999V0200701N003010360019N0300001N1+01901+00981101111ADDAA106000191AY161061GF108991011011008001071999KA1999N+01161MA1999999093491MD1710241-0301MW1001REMSYN094AAXX  23061 57633 11580 80703 10190 20098 39349 40111 57024 69911 70060 8117/ 333 05301 20116;
0122576330999992000042309004+28830+108770FM-12+066599999V0201401N001010120019N0300001N1+01941+01151100851ADDGF107991071081008001001001MD1710221+0021REMSYN070AAXX  23091 57633 42580 71401 10194 20115 40085 57022 87800 333 05253;
0154576330999992000042312004+28830+108770FM-12+066599999V0209999C000012200019N0300001N1+01631+01261100961ADDAA199000021GF101991011001999999041001MA1999999093331MD1210061+0021REMSYN076AAXX  23121 57633 32980 10000 10163 20126 39333 40096 52006 81040 333 05200;
0122576330999992000042315004+28830+108770FM-12+066599999V0209999C000012200019N0200001N1+01321+01161101161ADDGA1001+999999999GF100991001001999999001001MD1210171+9999REMSYN054AAXX  23151 57633 42970 00000 10132 20116 40116 52017;
0141576330999992000042321004+28830+108770FM-12+066599999V0209999C000019999999N0150001N1+01171+01111100771ADDGF107991071001999999041999KA1999N+00271MD1710121-0501REMSYN076AAXX  23211 57633 42965 70000 10117 20111 40077 57012 8704/ 333 05552 20027;
0160576330999992000042400004+28830+108770FM-12+066599999V0209999C000010360019N0180001N1+01281+01171100831ADDAA124000191GF107991011061002501041999MA1999999093201MD1210031-0601REMSYN082AAXX  24001 57633 32368 70000 10128 20117 39320 40083 52003 8164/ 333 05600 70001;
0112576330999992000042403004+28830+108770FM-12+066599999V0209999C000010360019N0250001N1+01801+01271100741ADDGF108991011011008001071999MD1710051+9999REMSYN060AAXX  24031 57633 42575 80000 10180 20127 40074 57005 8117/;
0192576330999992000042406004+28830+108770FM-12+066599999V0201601N001010360019N0300001N1+01991+01331100511ADDAA199000091GF107991011011008001041999KA1999N+01101MA1999999092941MD1710211-0601REMSYN082AAXX  24061 57633 32580 71601 10199 20133 39294 40051 57021 8114/ 333 05601 20110;EQDQ01  00002PRCP99
0122576330999992000042409004+28830+108770FM-12+066599999V0201601N001010360019N0300001N1+01931+01361100371ADDGF108991011011008001071999MD1710141+0051REMSYN070AAXX  24091 57633 42580 81601 10193 20136 40037 57014 8117/ 333 05500;
0112576330999992000042415004+28830+108770FM-12+066599999V0209999C000010150019N0150001N1+01541+01391100671ADDGF107991071051017501999999MD1210241+9999REMSYN060AAXX  24151 57633 42765 70000 10154 20139 40067 52024 875//;
0192576330999992000042418004+28830+108770FM-12+066599999V0209999C000010150019N0120001N1+01471+01381100521ADDAA199000091GF107991071051017501999999KA1999M+02031MA1999999092991MD1710121-0301REMSYN082AAXX  24181 57633 32762 70000 10147 20138 39299 40052 57012 875// 333 05303 10203;EQDQ01  00002PRCP99
0122576330999992000042421004+28830+108770FM-12+066599999V0209999C000010150019N0120001N1+01461+01391100501ADDGF108991081051017501999999MD1710031+0021REMSYN070AAXX  24211 57633 42762 80000 10146 20139 40050 57003 885// 333 05203;
0173576330999992000042500004+28830+108770FM-12+066599999V0209999C000010150019N0100001N1+01511+01431100671ADDAA199000091GF108991081051017501999999MA1999999093101MD1210141+0011REMSYN076AAXX  25001 57633 32760 80000 10151 20143 39310 40067 52014 885// 333 05102;EQDQ01  00002PRCP99
0132576330999992000042503004+28830+108770FM-12+066599999V0202001N001010150019N0180001N1+01891+01371100721ADDAY161031GF107991071051017501999999MD1210071+9999MW1001REMSYN066AAXX  25031 57633 41768 72001 10189 20137 40072 52007 70060 875//;
0199576330999992000042506004+28830+108770FM-12+066599999V0209999C000010120019N0200001N1+01971+01381100701ADDAA106000791AY161061GF108991081081008001999999KA1999N+01431MA1999999093151MD1710021+0201MW1001REMSYN094AAXX  25061 57633 11570 80000 10197 20138 39315 40070 57002 69901 70060 888// 333 00200 20143;
0122576330999992000042509004+28830+108770FM-12+066599999V0209999C000019999999N0200001N1+01991+01521100701ADDGF108991081001999999071999MD1410001+0041REMSYN070AAXX  25091 57633 42970 80000 10199 20152 40070 54000 8807/ 333 00401;
0173576330999992000042512004+28830+108770FM-12+066599999V0209999C000010150019N0170001N1+01881+01341100941ADDAA199000091GF108991081051017501999999MA1999999093371MD1210221+0051REMSYN076AAXX  25121 57633 32767 80000 10188 20134 39337 40094 52022 885// 333 00502;EQDQ01  00002PRCP99
0132576330999992000042515004+28830+108770FM-12+066599999V0203401N001010150019N0120001N1+01711+01411101021ADDAY161031GF108991081051017501999999MD1210101+9999MW1211REMSYN066AAXX  25151 57633 41762 83401 10171 20141 40102 52010 72160 885//;
0199576330999992000042518004+28830+108770FM-12+066599999V0209999C000010150019N0100001N1+01621+01431101071ADDAA106000191AY161061GF108991081051017501999999KA1999M+02031MA1999999093511MD1210041+0501MW1601REMSYN094AAXX  25181 57633 11760 80000 10162 20143 39351 40107 52004 69911 76060 885// 333 00502 10203;
0167576330999992000042521004+28830+108770FM-12+066599999V0209999C000010042019N0100001N1+01491+01351101211ADDAA124002091AY161031AY261031GF108991081071004501999999MD1210121+0701MW1601REMSYN082AAXX  25211 57633 41460 80000 10149 20135 40121 52012 76066 887// 333 00700 70021;
0194576330999992000042600004+28830+108770FM-12+066599999V0209999C000010042019N0120001N1+01451+01241101561ADDAA106002091AY161061AY261061GF108991081071004501999999MA1999999093931MD1210301+0801MW1601REMSYN094AAXX  26001 57633 11462 80000 10145 20124 39393 40156 52030 60021 76066 887// 333 00851 70024;
0132576330999992000042603004+28830+108770FM-12+066599999V0209999C000019999999N0150001N1+01431+01181101751ADDAY161031GF108991081001999999071999MD1210151+9999MW1001REMSYN066AAXX  26031 57633 41965 80000 10143 20118 40175 52015 70060 8807/;
0199576330999992000042606004+28830+108770FM-12+066599999V0203401N001010360019N0300001N1+01841+00881101511ADDAA106000191AY161061GF108991011011008001071999KA1999N+01361MA1999999093901MD1710181+0801MW1001REMSYN094AAXX  26061 57633 11580 83401 10184 20088 39390 40151 57018 69921 70060 8117/ 333 00851 20136;
0122576330999992000042609004+28830+108770FM-12+066599999V0201801N001019999999N0300001N1+01921+00841101311ADDGF107991071001999999031999MD1710191+0061REMSYN070AAXX  26091 57633 42980 71801 10192 20084 40131 57019 8703/ 333 00651;
0154576330999992000042612004+28830+108770FM-12+066599999V0209999C000012200019N0300001N1+01511+01111101471ADDAA199000021GF103991021001999999041021MA1999999093801MD1210091+0041REMSYN076AAXX  26121 57633 32980 30000 10151 20111 39380 40147 52009 82042 333 00454;
0122576330999992000042615004+28830+108770FM-12+066599999V0209999C000012200019N0200001N1+01201+01031101701ADDGA1001+999999999GF100991001001999999001001MD1210171+9999REMSYN054AAXX  26151 57633 42970 00000 10120 20103 40170 52017;
0202576330999992000042618004+28830+108770FM-12+066599999V0209999C000012200019N0150001N1+01051+00951101621ADDAA199000091GA1001+999999999GF100991001001999999001001KA1999M+01931MA1999999093931MD1710041+0401REMSYN076AAXX  26181 57633 32965 00000 10105 20095 39393 40162 57004 333 00456 10193;EQDQ01  00002PRCP99
0139576330999992000042621004+28830+108770FM-12+066599999V0209999C000019999999N0120001N1+01061+00981101471ADDAA124000591GF107991071001999999041999MD1710131+0201REMSYN076AAXX  26211 57633 42962 70000 10106 20098 40147 57013 8704/ 333 00254 70005;
0178576330999992000042700004+28830+108770FM-12+066599999V0209999C000010150019N0180001N1+01141+01031101581ADDAA106000791GF108991051051017501071999MA1999999093861MD1210061-0101MW1601REMSYN094AAXX  27001 57633 11768 80000 10114 20103 39386 40158 52006 69901 76000 8557/ 333 05153 70002;
0132576330999992000042703004+28830+108770FM-12+066599999V0209999C000010150019N0180001N1+01451+01161101551ADDAY161031GF108991081051017501999999MD1710021+9999MW1211REMSYN066AAXX  27031 57633 41768 80000 10145 20116 40155 57002 72160 885//;
0199576330999992000042706004+28830+108770FM-12+066599999V0209999C000010150019N0150001N1+01671+01331101351ADDAA106000191AY161061GF108991081051017501999999KA1999N+01011MA1999999093661MD1710181-0201MW1601REMSYN094AAXX  27061 57633 11765 80000 10167 20133 39366 40135 57018 69911 76060 885// 333 05252 20101;
0142576330999992000042709004+28830+108770FM-12+066599999V0209999C000010150019N0180001N1+01641+01121101291ADDAY161031GF108991081051017501999999MD1710061+0011MW1601REMSYN076AAXX  27091 57633 41768 80000 10164 20112 40129 57006 76060 885// 333 05153;
0180576330999992000042712004+28830+108770FM-12+066599999V0209999C000010150019N0150001N1+01531+00971101291ADDAA106000791AY161061GF108991081051017501999999MA1999999093601MD1410001+0021MW1001REMSYN088AAXX  27121 57633 11765 80000 10153 20097 39360 40129 54000 69901 70060 885// 333 05200;
0112576330999992000042715004+28830+108770FM-12+066599999V0209999C000010150019N0150001N1+01421+00971101361ADDGF108991081051017501999999MD1210091+9999REMSYN060AAXX  27151 57633 42765 80000 10142 20097 40136 52009 885//;
0173576330999992000042718004+28830+108770FM-12+066599999V0209999C000010150019N0120001N1+01371+00981101281ADDAA199000021GF108991081051017501999999KA1999M+01731MA1999999093641MD1710051-0301REMSYN082AAXX  27181 57633 32762 80000 10137 20098 39364 40128 57005 885// 333 05303 10173;
0139576330999992000042721004+28830+108770FM-12+066599999V0209999C000010150019N0120001N1+01301+01121101171ADDAA124000191GF108991081051017501999999MD1710121-0301REMSYN076AAXX  27211 57633 42762 80000 10130 20112 40117 57012 885// 333 05302 70001;
0160576330999992000042800004+28830+108770FM-12+066599999V0209999C000019999999N0150001N1+01321+01081101271ADDAA124000191GF108991081001999999071999MA1999999093601MD1210081-0301REMSYN082AAXX  28001 57633 32965 80000 10132 20108 39360 40127 52008 8807/ 333 05302 70001;
0112576330999992000042803004+28830+108770FM-12+066599999V0209999C000019999999N0170001N1+01671+00971101211ADDGF108991081001999999071999MD1710021+9999REMSYN060AAXX  28031 57633 42967 80000 10167 20097 40121 57002 8807/;
0192576330999992000042806004+28830+108770FM-12+066599999V0201601N001019999999N0180001N1+01991+01231100951ADDAA199000091GF108991081001999999071999KA1999N+01271MA1999999093371MD1710211-0301REMSYN082AAXX  28061 57633 32968 81601 10199 20123 39337 40095 57021 8807/ 333 05303 20127;EQDQ01  00002PRCP99
0122576330999992000042809004+28830+108770FM-12+066599999V0201601N002010360019N0200001N1+02071+01351100711ADDGF107991011011008001041999MD1710221+0051REMSYN070AAXX  28091 57633 42570 71602 10207 20135 40071 57022 8114/ 333 05504;
0173576330999992000042812004+28830+108770FM-12+066599999V0209999C000012200019N0180001N1+01831+01391100871ADDAA199000091GF101991011011008001041001MA1999999093271MD1210121+0031REMSYN076AAXX  28121 57633 32568 10000 10183 20139 39327 40087 52012 81140 333 05303;EQDQ01  00002PRCP99
0112576330999992000042815004+28830+108770FM-12+066599999V0209999C000010150019N0120001N1+01491+01351101121ADDGF108991081051017501999999MD1210231+9999REMSYN060AAXX  28151 57633 42762 80000 10149 20135 40112 52023 885//;
0199576330999992000042818004+28830+108770FM-12+066599999V0209999C000010150019N0100001N1+01531+01411100981ADDAA106000791AY161061GF108991081051017501999999KA1999M+02121MA1999999093421MD1710081-0201MW1001REMSYN094AAXX  28181 57633 11760 80000 10153 20141 39342 40098 57008 69901 70060 885// 333 05202 10212;
0159576330999992000042821004+28830+108770FM-12+066599999V0209999C000010042019N0050001N1+01501+01471100951ADDAA124002391AY161031GF108991081071004501999999MD1710021-0101MW1601REMSYN082AAXX  28211 57633 41450 80000 10150 20147 40095 57002 76060 887// 333 05102 70022;
0186576330999992000042900004+28830+108770FM-12+066599999V0209999C000010021019N0050001N1+01541+01511101231ADDAA106004191AY161061GF108991081071002501999999MA1999999093631MD1210231+0001MW1601REMSYN094AAXX  29001 57633 11350 80000 10154 20151 39363 40123 52023 60041 76060 887// 333 00002 70039;
0140576330999992000042903004+28830+108770FM-12+066599999V0209999C000010042019N0050001N1+01631+01561101341ADDAY161031AY261031GF108991081071004501999999MD1210071+9999MW1601REMSYN066AAXX  29031 57633 41450 80000 10163 20156 40134 52007 76066 887//;
0199576330999992000042906004+28830+108770FM-12+066599999V0209999C000010042019N0120001N1+01771+01501101281ADDAA106000591AY161061GF108991081071004501999999KA1999N+01471MA1999999093671MD1710031+0301MW1001REMSYN094AAXX  29061 57633 11462 80000 10177 20150 39367 40128 57003 69961 70060 887// 333 00352 20147;
0142576330999992000042909004+28830+108770FM-12+066599999V0209999C000010042019N0040001N1+01641+01561101311ADDAY161031GF108991081071004501999999MD1210011+0051MW1601REMSYN076AAXX  29091 57633 41440 80000 10164 20156 40131 52001 76060 887// 333 00554;
0180576330999992000042912004+28830+108770FM-12+066599999V0209999C000010042019N0060001N1+01471+01371101631ADDAA106002091AY161061GF108991081051004501999999MA1999999093961MD1210281+0071MW1601REMSYN088AAXX  29121 57633 11456 80000 10147 20137 39396 40163 52028 60021 76060 885// 333 00754;
0132576330999992000042915004+28830+108770FM-12+066599999V0209999C000010150019N0070001N1+01441+01341101791ADDAY161031GF108991081051017501999999MD1210151+9999MW1101REMSYN066AAXX  29151 57633 41757 80000 10144 20134 40179 52015 71060 885//;
0199576330999992000042918004+28830+108770FM-12+066599999V0209999C000010150019N0090001N1+01421+01371101661ADDAA106000191AY161061GF108991081051017501999999KA1999M+01831MA1999999094011MD1710101+0601MW1601REMSYN094AAXX  29181 57633 11759 80000 10142 20137 39401 40166 57010 69911 76060 885// 333 00651 10183;
0159576330999992000042921004+28830+108770FM-12+066599999V0209999C000010042019N0080001N1+01391+01361101701ADDAA124005391AY161031GF108991081071004501999999MD1210011+0601MW1601REMSYN082AAXX  29211 57633 41458 80000 10139 20136 40170 52001 76060 887// 333 00651 70053;
0186576330999992000043000004+28830+108770FM-12+066599999V0209999C000010042019N0080001N1+01401+01331101821ADDAA106002091AY161061GF108991081051004501999999MA1999999094111MD1210091+0501MW1211REMSYN094AAXX  30001 57633 11458 80000 10140 20133 39411 40182 52009 60021 72160 885// 333 00551 70041;
0132576330999992000043003004+28830+108770FM-12+066599999V0209999C000010042019N0100001N1+01601+01341101841ADDAY161031GF108991081051004501999999MD1210041+9999MW1001REMSYN066AAXX  30031 57633 41460 80000 10160 20134 40184 52004 70060 885//;
0199576330999992000043006004+28830+108770FM-12+066599999V0203601N001010120019N0120001N1+01711+01181101611ADDAA106000191AY161061GF108991081081008001999999KA1999N+01351MA1999999093951MD1710201+0301MW1001REMSYN094AAXX  30061 57633 11562 83601 10171 20118 39395 40161 57020 69911 70060 888// 333 00351 20135;
0122576330999992000043009004+28830+108770FM-12+066599999V0209999C000010120019N0150001N1+01721+01191101351ADDGF108991081081008001999999MD1710241+0001REMSYN070AAXX  30091 57633 42565 80000 10172 20119 40135 57024 888// 333 00001;
0154576330999992000043012004+28830+108770FM-12+066599999V0209999C000010150019N0150001N1+01621+01231101311ADDAA199000021GF108991081051017501999999MA1999999093661MD1710051+0031REMSYN076AAXX  30121 57633 32765 80000 10162 20123 39366 40131 57005 885// 333 05302;
0112576330999992000043015004+28830+108770FM-12+066599999V0209999C000010150019N0120001N1+01531+01271101361ADDGF108991081051017501999999MD1210061+9999REMSYN060AAXX  30151 57633 42762 80000 10153 20127 40136 52006 885//;
0199576330999992000043018004+28830+108770FM-12+066599999V0209999C000010042019N0080001N1+01431+01341101291ADDAA106001091AY161061GF108991081051004501999999KA1999M+01791MA1999999093661MD1710061-0401MW1601REMSYN094AAXX  30181 57633 11458 80000 10143 20134 39366 40129 57006 60011 76060 885// 333 05400 10179;
0167576330999992000043021004+28830+108770FM-12+066599999V0209999C000010042019N0100001N1+01401+01351101241ADDAA124002891AY161031AY261031GF108991081071004501999999MD1710051-0401MW1601REMSYN082AAXX  30211 57633 41460 80000 10140 20135 40124 57005 76066 887// 333 05400 70027;
0194576330999992000050100004+28830+108770FM-12+066599999V0209999C000010042019N0060001N1+01451+01381101331ADDAA106001091AY161061AY261061GF108991081071004501999999MA1999999093691MD1210081-0401MW1211REMSYN094AAXX  01001 57633 11456 80000 10145 20138 39369 40133 52008 60011 72166 887// 333 05401 70023;
0112576330999992000050103004+28830+108770FM-12+066599999V0209999C000010120019N0100001N1+01671+01361101411ADDGF108991081081008001999999MD1210091+9999REMSYN060AAXX  01031 57633 42560 80000 10167 20136 40141 52009 888//;
0173576330999992000050106004+28830+108770FM-12+066599999V0200201N001010360019N0150001N1+01891+01331101251ADDAA199000021GF108991021011008001071999KA1999N+01361MA1999999093641MD1710141-0301REMSYN082AAXX  01061 57633 32565 80201 10189 20133 39364 40125 57014 8217/ 333 05302 20136;
0122576330999992000050109004+28830+108770FM-12+066599999V0203201N001010075019N0200001N1+01921+01291101171ADDGF108991061011008001071999MD1710071+0011REMSYN070AAXX  01091 57633 42570 83201 10192 20129 40117 57007 8617/ 333 05102;
0154576330999992000050112004+28830+108770FM-12+066599999V0209999C000010360019N0200001N1+01741+01381101221ADDAA199000021GF107991011011008001031999MA1999999093601MD1210031+0011REMSYN076AAXX  01121 57633 32570 70000 10174 20138 39360 40122 52003 8113/ 333 05101;
0112576330999992000050115004+28830+108770FM-12+066599999V0209999C000019999999N0180001N1+01541+01351101491ADDGF108991081001999999071999MD1210251+9999REMSYN060AAXX  01151 57633 42968 80000 10154 20135 40149 52025 8807/;
0192576330999992000050118004+28830+108770FM-12+066599999V0209999C000019999999N0150001N1+01481+01381101511ADDAA199000091GF107991071001999999041999KA1999M+01981MA1999999093891MD1210041+0201REMSYN082AAXX  01181 57633 32965 70000 10148 20138 39389 40151 52004 8704/ 333 00201 10198;EQDQ01  00002PRCP99
0149576330999992000050121004+28830+108770FM-12+066599999V0209999C000012200019N0150001N1+01301+01231101491ADDAA124000191GA1001+999999999GF100991001001999999001001MD1710041+0201REMSYN070AAXX  01211 57633 42965 00000 10130 20123 40149 57004 333 00251 70001;
0173576330999992000050200004+28830+108770FM-12+066599999V0209999C000012200019N0100001N1+01421+01281101711ADDAA199000091GF102991021001999999041001MA1999999094051MD1210201+0041REMSYN076AAXX  02001 57633 32960 20000 10142 20128 39405 40171 52020 82040 333 00400;EQDQ01  00002PRCP99
0112576330999992000050203004+28830+108770FM-12+066599999V0202501N001010900019N0180001N1+02261+01321101581ADDGF105991011011008001041011MD1710041+9999REMSYN060AAXX  02031 57633 42568 52501 10226 20132 40158 57004 81141;
0192576330999992000050206004+28830+108770FM-12+066599999V0203601N002010360019N0270001N1+02391+00931101501ADDAA199000091GF107991011011008001041001KA1999N+01211MA1999999093941MD1710071+0301REMSYN082AAXX  02061 57633 32577 73602 10239 20093 39394 40150 57007 81140 333 00305 20121;EQDQ01  00002PRCP99
0122576330999992000050209004+28830+108770FM-12+066599999V0201401N004012200019N0270001N1+02591+01191101391ADDGF102991021011008001001001MD1710101+0031REMSYN070AAXX  02091 57633 42577 21404 10259 20119 40139 57010 82100 333 00307;
0173576330999992000050212004+28830+108770FM-12+066599999V0209999C000012200019N0270001N1+01991+01231101541ADDAA199000091GF101991001001999999001021MA1999999093921MD1210081+0031REMSYN076AAXX  02121 57633 32977 10000 10199 20123 39392 40154 52008 80002 333 00303;EQDQ01  00002PRCP99
0122576330999992000050215004+28830+108770FM-12+066599999V0209999C000012200019N0200001N1+01551+01321101711ADDGA1001+999999999GF100991001001999999001001MD1210211+9999REMSYN054AAXX  02151 57633 42970 00000 10155 20132 40171 52021;
0202576330999992000050218004+28830+108770FM-12+066599999V0209999C000012200019N0150001N1+01321+01191101691ADDAA199000091GA1001+999999999GF100991001001999999001001KA1999M+02631MA1999999094101MD1710031+0201REMSYN076AAXX  02181 57633 32965 00000 10132 20119 39410 40169 57003 333 00252 10263;EQDQ01  00002PRCP99
0132576330999992000050221004+28830+108770FM-12+066599999V0209999C000012200019N0150001N1+01151+01041101621ADDGA1001+999999999GF100991001001999999001001MD1710061+0021REMSYN064AAXX  02211 57633 42965 00000 10115 20104 40162 57006 333 00252;
0173576330999992000050300004+28830+108770FM-12+066599999V0209999C000012200019N0200001N1+01341+01121101731ADDAA199000091GF101991001001999999001021MA1999999094091MD1210051+0001REMSYN076AAXX  03001 57633 32970 10000 10134 20112 39409 40173 52005 80002 333 00051;EQDQ01  00002PRCP99
0112576330999992000050303004+28830+108770FM-12+066599999V0201401N001012200019N0300001N1+02401+01341101551ADDGF103991001001999999001021MD1710091+9999REMSYN060AAXX  03031 57633 42980 31401 10240 20134 40155 57009 80002;
0192576330999992000050306004+28830+108770FM-12+066599999V0200401N001010360019N0300001N1+02901+00701101321ADDAA199000091GF108991011011008001041071KA1999N+01081MA1999999093821MD1710181-0101REMSYN082AAXX  03061 57633 32580 80401 10290 20070 39382 40132 57018 81147 333 05105 20108;EQDQ01  00002PRCP99
0122576330999992000050309004+28830+108770FM-12+066599999V0209999C000010900019N0300001N1+02981+00821101151ADDGF106991011011008001001081MD1710171+0021REMSYN070AAXX  03091 57633 42580 60000 10298 20082 40115 57017 81108 333 05204;
0173576330999992000050312004+28830+108770FM-12+066599999V0209999C000019999999N0200001N1+02281+01461101251ADDAA199000091GF108991001001999999001071MA1999999093681MD1210031+0021REMSYN076AAXX  03121 57633 32970 80000 10228 20146 39368 40125 52003 80007 333 05203;EQDQ01  00002PRCP99
0122576330999992000050315004+28830+108770FM-12+066599999V0209999C000012200019N0150001N1+01781+01411101421ADDGA1001+999999999GF100991001001999999001001MD1210231+9999REMSYN054AAXX  03151 57633 42965 00000 10178 20141 40142 52023;
0202576330999992000050318004+28830+108770FM-12+066599999V0209999C000012200019N0120001N1+01611+01391101301ADDAA199000091GA1001+999999999GF100991001001999999001001KA1999M+03061MA1999999093841MD1710071-0301REMSYN076AAXX  03181 57633 32962 00000 10161 20139 39384 40130 57007 333 05303 10306;EQDQ01  00002PRCP99
0122576330999992000050321004+28830+108770FM-12+066599999V0209999C000019999999N0120001N1+01511+01341101181ADDGF107991071001999999031999MD1710121+0031REMSYN070AAXX  03211 57633 42962 70000 10151 20134 40118 57012 8703/ 333 05304;
0173576330999992000050400004+28830+108770FM-12+066599999V0209999C000012200019N0180001N1+01591+01351101391ADDAA199000091GF104991041001999999041001MA1999999093841MD1210121+0031REMSYN076AAXX  04001 57633 32968 40000 10159 20135 39384 40139 52012 84040 333 05303;EQDQ01  00002PRCP99
0112576330999992000050403004+28830+108770FM-12+066599999V0209999C000019999999N0200001N1+02371+01421101441ADDGF107991071001999999031999MD1210081+9999REMSYN060AAXX  04031 57633 42970 70000 10237 20142 40144 52008 8703/;
0192576330999992000050406004+28830+108770FM-12+066599999V0201601N002010360019N0300001N1+02791+01091101211ADDAA199000091GF108991011011008001011999KA1999N+01371MA1999999093741MD1710181-0101REMSYN082AAXX  04061 57633 32580 81602 10279 20109 39374 40121 57018 8111/ 333 05151 20137;EQDQ01  00002PRCP99
0122576330999992000050409004+28830+108770FM-12+066599999V0209999C000019999999N0300001N1+02581+01491101151ADDGF108991081001999999071999MD1710091+0001REMSYN070AAXX  04091 57633 42980 80000 10258 20149 40115 57009 8807/ 333 00054;
0173576330999992000050412004+28830+108770FM-12+066599999V0209999C000019999999N0250001N1+02151+01101101201ADDAA199000091GF107991071001999999041999MA1999999093651MD1410001+0001REMSYN076AAXX  04121 57633 32975 70000 10215 20110 39365 40120 54000 8704/ 333 00051;EQDQ01  00002PRCP99
0112576330999992000050415004+28830+108770FM-12+066599999V0209999C000012200019N0150001N1+01771+01341101281ADDGF102991021001999999041001MD1210121+9999REMSYN060AAXX  04151 57633 42965 20000 10177 20134 40128 52012 82040;
0202576330999992000050418004+28830+108770FM-12+066599999V0209999C000012200019N0120001N1+01561+01321101221ADDAA199000091GA1001+999999999GF100991001001999999001001KA1999M+02951MA1999999093741MD1710031-0101REMSYN076AAXX  04181 57633 32962 00000 10156 20132 39374 40122 57003 333 05151 10295;EQDQ01  00002PRCP99
0122576330999992000050421004+28830+108770FM-12+066599999V0209999C000019999999N0120001N1+01581+01371101201ADDGF108991081001999999071999MD1710041+0001REMSYN070AAXX  04211 57633 42962 80000 10158 20137 40120 57004 8807/ 333 00001;
0173576330999992000050500004+28830+108770FM-12+066599999V0209999C000019999999N0150001N1+01661+01371101291ADDAA199000091GF107991071001999999031999MA1999999093741MD1210041+0011REMSYN076AAXX  05001 57633 32965 70000 10166 20137 39374 40129 52004 8703/ 333 05101;EQDQ01  00002PRCP99
0112576330999992000050503004+28830+108770FM-12+066599999V0209999C000019999999N0250001N1+02661+01221101251ADDGF106991021001999999041021MD1210041+9999REMSYN060AAXX  05031 57633 42975 60000 10266 20122 40125 52004 82042;
0192576330999992000050506004+28830+108770FM-12+066599999V0201801N001010120019N0300001N1+02821+01181101141ADDAA199000091GF107991071081008001999999KA1999N+01491MA1999999093671MD1710111-0101REMSYN082AAXX  05061 57633 32580 71801 10282 20118 39367 40114 57011 878// 333 05100 20149;EQDQ01  00002PRCP99
0122576330999992000050509004+28830+108770FM-12+066599999V0201401N002010120019N0300001N1+02861+00961101011ADDGF107991071081008001999999MD1710111+0011REMSYN070AAXX  05091 57633 42580 71402 10286 20096 40101 57011 878// 333 05103;
0173576330999992000050512004+28830+108770FM-12+066599999V0209999C000012200019N0300001N1+02271+01231101201ADDAA199000091GF101991011011008001001001MA1999999093671MD1210111+0001REMSYN076AAXX  05121 57633 32580 10000 10227 20123 39367 40120 52011 81100 333 00001;EQDQ01  00002PRCP99
0122576330999992000050515004+28830+108770FM-12+066599999V0209999C000012200019N0180001N1+01851+01381101351ADDGA1001+999999999GF100991001001999999001001MD1210211+9999REMSYN054AAXX  05151 57633 42968 00000 10185 20138 40135 52021;
0202576330999992000050518004+28830+108770FM-12+066599999V0209999C000012200019N0150001N1+01651+01361101351ADDAA199000091GA1001+999999999GF100991001001999999001001KA1999M+02981MA1999999093881MD1410001+0101REMSYN076AAXX  05181 57633 32965 00000 10165 20136 39388 40135 54000 333 00101 10298;EQDQ01  00002PRCP99
0132576330999992000050521004+28830+108770FM-12+066599999V0209999C000012200019N0100001N1+01521+01351101361ADDGA1001+999999999GF100991001001999999001001MD1410001+0021REMSYN064AAXX  05211 57633 42960 00000 10152 20135 40136 54000 333 00251;
0173576330999992000050600004+28830+108770FM-12+066599999V0209999C000012200019N0150001N1+01611+01411101651ADDAA199000091GF102991021001999999041001MA1999999094081MD1210201+0031REMSYN076AAXX  06001 57633 32965 20000 10161 20141 39408 40165 52020 82040 333 00351;EQDQ01  00002PRCP99
0112576330999992000050603004+28830+108770FM-12+066599999V0201801N002010360019N0180001N1+02461+01231101691ADDGF107991011011008001041999MD1210091+9999REMSYN060AAXX  06031 57633 42568 71802 10246 20123 40169 52009 8114/;
0192576330999992000050606004+28830+108770FM-12+066599999V0201601N001010360019N0180001N1+02501+01481101511ADDAA199000091GF107991021011008001041999KA1999N+01451MA1999999093991MD1710181+0301REMSYN082AAXX  06061 57633 32568 71601 10250 20148 39399 40151 57018 8214/ 333 00353 20145;EQDQ01  00002PRCP99
0122576330999992000050609004+28830+108770FM-12+066599999V0201601N003010120019N0180001N1+02491+01621101281ADDGF107991071081008001001001MD1710231+0021REMSYN070AAXX  06091 57633 42568 71603 10249 20162 40128 57023 87800 333 00254;
0173576330999992000050612004+28830+108770FM-12+066599999V0209999C000010360019N0180001N1+02281+01481101481ADDAA199000091GF106991021011008001041001MA1999999093931MD1210171+0031REMSYN076AAXX  06121 57633 32568 60000 10228 20148 39393 40148 52017 82140 333 00300;EQDQ01  00002PRCP99
0112576330999992000050615004+28830+108770FM-12+066599999V0209999C000019999999N0150001N1+02061+01541101581ADDGF107991071001999999041999MD1210171+9999REMSYN060AAXX  06151 57633 42965 70000 10206 20154 40158 52017 8704/;
0192576330999992000050618004+28830+108770FM-12+066599999V0203401N002019999999N0150001N1+02021+01401101511ADDAA199000091GF108991081001999999071999KA1999M+02661MA1999999094031MD1710071+0201REMSYN082AAXX  06181 57633 32965 83402 10202 20140 39403 40151 57007 8807/ 333 00204 10266;EQDQ01  00002PRCP99
0122576330999992000050621004+28830+108770FM-12+066599999V0200201N001019999999N0150001N1+01931+01301101421ADDGF108991081001999999071999MD1710091+0011REMSYN070AAXX  06211 57633 42965 80201 10193 20130 40142 57009 8807/ 333 00104;
0173576330999992000050700004+28830+108770FM-12+066599999V0200401N001019999999N0150001N1+01841+01211101561ADDAA199000091GF108991081001999999071999MA1999999094031MD1210091+0011REMSYN076AAXX  07001 57633 32965 80401 10184 20121 39403 40156 52009 8807/ 333 05102;EQDQ01  00002PRCP99
0112576330999992000050703004+28830+108770FM-12+066599999V0203601N002019999999N0150001N1+01981+01221101571ADDGF108991081001999999071999MD1410001+9999REMSYN060AAXX  07031 57633 42965 83602 10198 20122 40157 54000 8807/;
0191576330999992000050706004+28830+108770FM-12+066599999V0201601N001019999999N0150001N1+02061+01221101361ADDAA106000791GF108991081001999999071999KA1999N+01821MA1999999093841MD1710191-0201MW1601REMSYN094AAXX  07061 57633 11965 81601 10206 20122 39384 40136 57019 69901 76000 8807/ 333 05254 20182;
0142576330999992000050709004+28830+108770FM-12+066599999V0200201N001010210019N0150001N1+01841+01271101221ADDAY161031GF108991081051022501999999MD1710171+0011MW1601REMSYN076AAXX  07091 57633 41865 80201 10184 20127 40122 57017 76060 885// 333 05157;
0180576330999992000050712004+28830+108770FM-12+066599999V0209999C000010150019N0150001N1+01671+01331101211ADDAA106000591AY161061GF108991081051017501999999MA1999999093631MD1710041+0031MW1001REMSYN088AAXX  07121 57633 11765 80000 10167 20133 39363 40121 57004 69941 70060 885// 333 05356;
0132576330999992000050715004+28830+108770FM-12+066599999V0209999C000010150019N0120001N1+01631+01361101291ADDAY161031GF108991081051017501999999MD1210091+9999MW1211REMSYN066AAXX  07151 57633 41762 80000 10163 20136 40129 52009 72160 885//;
0199576330999992000050718004+28830+108770FM-12+066599999V0203601N001010150019N0120001N1+01611+01371101121ADDAA106000191AY161061GF108991081051017501999999KA1999M+02121MA1999999093571MD1710151-0501MW1001REMSYN094AAXX  07181 57633 11762 83601 10161 20137 39357 40112 57015 69911 70060 885// 333 05554 10212;
0151576330999992000050721004+28830+108770FM-12+066599999V0209999C000010150019N0120001N1+01611+01391101041ADDAA124000591GF108991081051017501999999MD1710101-0501MW1601REMSYN082AAXX  07211 57633 41762 80000 10161 20139 40104 57010 76000 885// 333 05553 70005;
0186576330999992000050800004+28830+108770FM-12+066599999V0203601N001010042019N0080001N1+01601+01471101131ADDAA106000591AY161061GF108991081071004501999999MA1999999093531MD1210061-0501MW1211REMSYN094AAXX  08001 57633 11458 83601 10160 20147 39353 40113 52006 69941 72160 887// 333 05552 70009;
0132576330999992000050803004+28830+108770FM-12+066599999V0209999C000010042019N0100001N1+01701+01531101141ADDAY161031GF108991081071004501999999MD1210011+9999MW1211REMSYN066AAXX  08031 57633 41460 80000 10170 20153 40114 52001 72160 887//;
0199576330999992000050806004+28830+108770FM-12+066599999V0203601N001010120019N0150001N1+01911+01591100951ADDAA106004191AY161061GF108991081081008001999999KA1999N+01541MA1999999093391MD1710151-0501MW1001REMSYN094AAXX  08061 57633 11565 83601 10191 20159 39339 40095 57015 60041 70060 888// 333 05552 20154;
0122576330999992000050809004+28830+108770FM-12+066599999V0201101N001010120019N0150001N1+01931+01591100771ADDGF108991081081008001999999MD1710161+0041REMSYN070AAXX  08091 57633 42565 81101 10193 20159 40077 57016 888// 333 05401;
0180576330999992000050812004+28830+108770FM-12+066599999V0209999C000010120019N0150001N1+01811+01671100861ADDAA106000191AY161061GF108991081081008001999999MA1999999093291MD1210061+0031MW1001REMSYN088AAXX  08121 57633 11565 80000 10181 20167 39329 40086 52006 69911 70060 888// 333 05301;
0132576330999992000050815004+28830+108770FM-12+066599999V0209999C000010042019N0120001N1+01771+01671100981ADDAY161031GF108991081071004501999999MD1210121+9999MW1601REMSYN066AAXX  08151 57633 41462 80000 10177 20167 40098 52012 76060 887//;
0199576330999992000050818004+28830+108770FM-12+066599999V0209999C000010042019N0100001N1+01721+01691100811ADDAA106005191AY161061GF108991081071004501999999KA1999M+01981MA1999999093281MD1710131-0301MW1601REMSYN094AAXX  08181 57633 11460 80000 10172 20169 39328 40081 57013 60051 76060 887// 333 05301 10198;
0159576330999992000050821004+28830+108770FM-12+066599999V0209999C000010042019N0100001N1+01731+01681100801ADDAA124009991AY161031GF108991081071004501999999MD1710011-0201MW1001REMSYN082AAXX  08211 57633 41460 80000 10173 20168 40080 57001 70060 887// 333 05201 70099;
0186576330999992000050900004+28830+108770FM-12+066599999V0209999C000010150019N0090001N1+01791+01711101041ADDAA106000191AY161061GF108991081051017501999999MA1999999093481MD1210211-0101MW1101REMSYN094AAXX  09001 57633 11759 80000 10179 20171 39348 40104 52021 69921 71060 885// 333 05102 70095;
0112576330999992000050903004+28830+108770FM-12+066599999V0209999C000010120019N0150001N1+02111+01781101051ADDGF107991071081008001999999MD1210051+9999REMSYN060AAXX  09031 57633 42565 70000 10211 20178 40105 52005 878//;
0173576330999992000050906004+28830+108770FM-12+066599999V0201401N003010075019N0300001N1+02331+01811100881ADDAA199000021GF107991071021008001999999KA1999N+01711MA1999999093391MD1710141+0001REMSYN082AAXX  09061 57633 32580 71403 10233 20181 39339 40088 57014 872// 333 00004 20171;
0122576330999992000050909004+28830+108770FM-12+066599999V0203401N001010075019N0300001N1+02431+01751100821ADDGF106991061021008001001001MD1710041+0011REMSYN070AAXX  09091 57633 42580 63401 10243 20175 40082 57004 86200 333 00105;
0173576330999992000050912004+28830+108770FM-12+066599999V0209999C000012200019N0300001N1+02141+01731100981ADDAA199000091GF103991031051017501001001MA1999999093471MD1210121+0021REMSYN076AAXX  09121 57633 32780 30000 10214 20173 39347 40098 52012 83500 333 00203;EQDQ01  00002PRCP99
0122576330999992000050915004+28830+108770FM-12+066599999V0209999C000012200019N0200001N1+01781+01651101191ADDGA1001+999999999GF100991001001999999001001MD1210191+9999REMSYN054AAXX  09151 57633 42970 00000 10178 20165 40119 52019;
0173576330999992000050918004+28830+108770FM-12+066599999V0209999C000012200019N0100001N1+01631+99999999999ADDAA199000091GA1001+999999999GF100991001001999999001001MD1999999+0401REMSYN075AAXX  09181 57633 32960 00000 10163 2016 39363 40115 57003 333 00451 10250;EQDQ01  00002PRCP99
0134576330999992000050921004+28830+108770FM-12+066599999V0209999C000010150019N0060001N1+01581+01551101121ADDGF108991081051017501999999MD1710021+0031MW1101REMSYN076AAXX  09211 57633 41756 80000 10158 20155 40112 57002 71000 885// 333 00352;
0185576330999992000051000004+28830+108770FM-12+066599999V0209999C000010042019N0040001N1+01621+01551101251ADDAA199000091GF108991081061004501999999MA1999999093701MD1210091+0021MW1101REMSYN082AAXX  10001 57633 31440 80000 10162 20155 39370 40125 52009 71000 886// 333 00252;EQDQ01  00002PRCP99
0112576330999992000051003004+28830+108770FM-12+066599999V0201401N002012200019N0180001N1+02381+01621101161ADDGF101991011011008001001001MD1710041+9999REMSYN060AAXX  10031 57633 42568 11402 10238 20162 40116 57004 81100;
0192576330999992000051006004+28830+108770FM-12+066599999V0201601N004012200019N0300001N1+02741+01521100901ADDAA199000091GF102991021011008001001001KA1999N+01541MA1999999093451MD1710211+0101REMSYN082AAXX  10061 57633 32580 21604 10274 20152 39345 40090 57021 82100 333 00104 20154;EQDQ01  00002PRCP99
0132576330999992000051009004+28830+108770FM-12+066599999V0201801N001012200019N0300001N1+02901+01021100651ADDGA1001+999999999GF100991001001999999001001MD1710221+0011REMSYN064AAXX  10091 57633 42980 01801 10290 20102 40065 57022 333 05105;
0183576330999992000051012004+28830+108770FM-12+066599999V0209999C000012200019N0250001N1+02281+01431100801ADDAA199000091GA1001+999999999GF100991001001999999001001MA1999999093301MD1210071+0021REMSYN070AAXX  10121 57633 32975 00000 10228 20143 39330 40080 52007 333 05201;EQDQ01  00002PRCP99
0122576330999992000051015004+28830+108770FM-12+066599999V0209999C000012200019N0200001N1+01821+01341100901ADDGA1001+999999999GF100991001001999999001001MD1210131+9999REMSYN054AAXX  10151 57633 42970 00000 10182 20134 40090 52013;
0202576330999992000051018004+28830+108770FM-12+066599999V0209999C000012200019N0150001N1+01571+01401100901ADDAA199000091GA1001+999999999GF100991001001999999001001KA1999M+02951MA1999999093441MD1210011-0201REMSYN076AAXX  10181 57633 32965 00000 10157 20140 39344 40090 52001 333 05251 10295;EQDQ01  00002PRCP99
0132576330999992000051021004+28830+108770FM-12+066599999V0209999C000012200019N0150001N1+01411+01271100821ADDGA1001+999999999GF100991001001999999001001MD1710071+0021REMSYN064AAXX  10211 57633 42965 00000 10141 20127 40082 57007 333 05252;
0173576330999992000051100004+28830+108770FM-12+066599999V0209999C000019999999N0180001N1+01561+01341100941ADDAA199000091GF105991051001999999041001MA1999999093421MD1210051+0031REMSYN076AAXX  11001 57633 32968 50000 10156 20134 39342 40094 52005 85040 333 05351;EQDQ01  00002PRCP99
0112576330999992000051103004+28830+108770FM-12+066599999V0209999C000010210019N0200001N1+02541+01171100921ADDGF107991071051022501999999MD1210051+9999REMSYN060AAXX  11031 57633 42870 70000 10254 20117 40092 52005 875//;
0199576330999992000051106004+28830+108770FM-12+066599999V0200201N003010360019N0300001N1+02681+01121100931ADDAA106000791AY181061GF108991011011008001041021KA1999N+01331MA1999999093461MD1710011+0001MW1001REMSYN094AAXX  11061 57633 11580 80203 10268 20112 39346 40093 57001 69901 70080 81142 333 00051 20133;
0142576330999992000051109004+28830+108770FM-12+066599999V0203201N002010150019N0300001N1+02571+01211100801ADDAY181031GF107991071051017501999999MD1710151+0011MW1001REMSYN076AAXX  11091 57633 41780 73202 10257 20121 40080 57015 70080 875// 333 00153;
0180576330999992000051112004+28830+108770FM-12+066599999V0209999C000019999999N0200001N1+02161+01401100931ADDAA106000791AY181061GF106991041001999999041021MA1999999093401MD1210091+0011MW1001REMSYN088AAXX  11121 57633 11970 60000 10216 20140 39340 40093 52009 69901 70080 84042 333 00151;
0112576330999992000051115004+28830+108770FM-12+066599999V0209999C000012200019N0150001N1+01741+01401101071ADDGF103991001001999999001021MD1210201+9999REMSYN060AAXX  11151 57633 42965 30000 10174 20140 40107 52020 80002;
0202576330999992000051118004+28830+108770FM-12+066599999V0209999C000012200019N0150001N1+01551+01381101021ADDAA199000091GA1001+999999999GF100991001001999999001001KA1999M+02841MA1999999093541MD1710061+0101REMSYN076AAXX  11181 57633 32965 00000 10155 20138 39354 40102 57006 333 00100 10284;EQDQ01  00002PRCP99
0149576330999992000051121004+28830+108770FM-12+066599999V0209999C000012200019N0150001N1+01401+01331101011ADDAA124000791GA1001+999999999GF100991001001999999001001MD1710041+0101REMSYN070AAXX  11211 57633 42965 00000 10140 20133 40101 57004 333 00100 79999;
0160576330999992000051200004+28830+108770FM-12+066599999V0209999C000019999999N0150001N1+01561+01351101151ADDAA124000791GF106991011001999999041021MA1999999093601MD1210101+0201REMSYN082AAXX  12001 57633 32965 60000 10156 20135 39360 40115 52010 81042 333 00200 79999;
0112576330999992000051203004+28830+108770FM-12+066599999V0201601N002012200019N0300001N1+02541+01591100961ADDGF101991001001999999001021MD1710111+9999REMSYN060AAXX  12031 57633 42980 11602 10254 20159 40096 57011 80002;
0192576330999992000051206004+28830+108770FM-12+066599999V0202501N001012200019N0300001N1+03001+00661100741ADDAA199000091GF101991001001999999001021KA1999N+01361MA1999999093321MD1710171-0101REMSYN082AAXX  12061 57633 32980 12501 10300 20066 39332 40074 57017 80002 333 05103 20136;EQDQ01  00002PRCP99
0122576330999992000051209004+28830+108770FM-12+066599999V0202001N002012200019N0300001N1+03041+00651100491ADDGF101991001001999999001021MD1710241+0021REMSYN070AAXX  12091 57633 42980 12002 10304 20065 40049 57024 80002 333 05205;
0173576330999992000051212004+28830+108770FM-12+066599999V0209999C000012200019N0250001N1+02371+01201100601ADDAA199000091GF101991011001999999041001MA1999999093121MD1210041+0031REMSYN076AAXX  12121 57633 32975 10000 10237 20120 39312 40060 52004 81040 333 05302;EQDQ01  00002PRCP99
0122576330999992000051215004+28830+108770FM-12+066599999V0209999C000012200019N0200001N1+01881+01241100701ADDGA1001+999999999GF100991001001999999001001MD1210151+9999REMSYN054AAXX  12151 57633 42970 00000 10188 20124 40070 52015;
0202576330999992000051218004+28830+108770FM-12+066599999V0209999C000012200019N0200001N1+01591+01331100681ADDAA199000091GA1001+999999999GF100991001001999999001001KA1999M+03081MA1999999093271MD1410001-0301REMSYN076AAXX  12181 57633 32970 00000 10159 20133 39327 40068 54000 333 05300 10308;EQDQ01  00002PRCP99
0132576330999992000051221004+28830+108770FM-12+066599999V0209999C000012200019N0150001N1+01441+01261100671ADDGA1001+999999999GF100991001001999999001001MD1710021+0031REMSYN064AAXX  12211 57633 42965 00000 10144 20126 40067 57002 333 05300;
0183576330999992000051300004+28830+108770FM-12+066599999V0209999C000012200019N0150001N1+01651+01301100911ADDAA199000091GA1001+999999999GF100991001001999999001001MA1999999093421MD1210171+0021REMSYN070AAXX  13001 57633 32965 00000 10165 20130 39342 40091 52017 333 05201;EQDQ01  00002PRCP99
0141576330999992000051303004+28830+108770FM-12+066599999V0201601N003012200019N0200001N1+02842+01301100741ADDGA1001+999999999GF100991001001999999001001MD1710081+9999REMSYN054AAXX  13031 57633 42970 01603 10284 20130 40074 57008;EQDQ01+002843ATOT  
0202576330999992000051306004+28830+108770FM-12+066599999V0201601N002012200019N0300001N1+03141+01271100451ADDAA199000091GA1001+999999999GF100991001001999999001001KA1999N+01371MA1999999093081MD1710261-0201REMSYN076AAXX  13061 57633 32980 01602 10314 20127 39308 40045 57026 333 05201 20137;EQDQ01  00002PRCP99
0132576330999992000051309004+28830+108770FM-12+066599999V0200901N003012200019N0300001N1+03221+01441100201ADDGA1001+999999999GF100991001001999999001001MD1710241+0021REMSYN064AAXX  13091 57633 42980 00903 10322 20144 40020 57024 333 05202;
0173576330999992000051312004+28830+108770FM-12+066599999V0209999C000012200019N0300001N1+02631+01571100371ADDAA199000091GF101991011001999999041001MA1999999092951MD1210111+0021REMSYN076AAXX  13121 57633 32980 10000 10263 20157 39295 40037 52011 81040 333 05203;EQDQ01  00002PRCP99
0122576330999992000051315004+28830+108770FM-12+066599999V0209999C000012200019N0200001N1+02171+01631100521ADDGA1001+999999999GF100991001001999999001001MD1210221+9999REMSYN054AAXX  13151 57633 42970 00000 10217 20163 40052 52022;
0202576330999992000051318004+28830+108770FM-12+066599999V0209999C000012200019N0200001N1+01931+01591100531ADDAA199000091GA1001+999999999GF100991001001999999001001KA1999M+03371MA1999999093191MD1210021-0101REMSYN076AAXX  13181 57633 32970 00000 10193 20159 39319 40053 52002 333 05103 10337;EQDQ01  00002PRCP99
0132576330999992000051321004+28830+108770FM-12+066599999V0209999C000012200019N0200001N1+01701+01541100531ADDGA1001+999999999GF100991001001999999001001MD1710021+0011REMSYN064AAXX  13211 57633 42970 00000 10170 20154 40053 57002 333 05103;
0173576330999992000051400004+28830+108770FM-12+066599999V0209999C000012200019N0200001N1+01911+01621100781ADDAA199000091GF101991011011008001001001MA1999999093361MD1210191+0011REMSYN076AAXX  14001 57633 32570 10000 10191 20162 39336 40078 52019 81100 333 05103;EQDQ01  00002PRCP99
0122576330999992000051403004+28830+108770FM-12+066599999V0201601N004012200019N0250001N1+02801+01271100701ADDGA1001+999999999GF100991001001999999001001MD1710021+9999REMSYN054AAXX  14031 57633 42975 01604 10280 20127 40070 57002;
0202576330999992000051406004+28830+108770FM-12+066599999V0202001N003012200019N0300001N1+03221+01091100391ADDAA199000091GA1001+999999999GF100991001001999999001001KA1999N+01601MA1999999093071MD1710271+0001REMSYN076AAXX  14061 57633 32980 02003 10322 20109 39307 40039 57027 333 00001 20160;EQDQ01  00002PRCP99
0132576330999992000051409004+28830+108770FM-12+066599999V0201801N002012200019N0300001N1+03291+01161100181ADDGA1001+999999999GF100991001001999999001001MD1710211+0001REMSYN064AAXX  14091 57633 42980 01802 10329 20116 40018 57021 333 00001;
0183576330999992000051412004+28830+108770FM-12+066599999V0209999C000012200019N0300001N1+02751+01551100371ADDAA199000091GA1001+999999999GF100991001001999999001001MA1999999092991MD1210131+0001REMSYN070AAXX  14121 57633 32980 00000 10275 20155 39299 40037 52013 333 00001;EQDQ01  00002PRCP99
0122576330999992000051415004+28830+108770FM-12+066599999V0209999C000012200019N0200001N1+02211+01661100601ADDGA1001+999999999GF100991001001999999001001MD1210261+9999REMSYN054AAXX  14151 57633 42970 00000 10221 20166 40060 52026;
0202576330999992000051418004+28830+108770FM-12+066599999V0209999C000012200019N0200001N1+01911+01601100531ADDAA199000091GA1001+999999999GF100991001001999999001001KA1999M+03331MA1999999093201MD1710051+0001REMSYN076AAXX  14181 57633 32970 00000 10191 20160 39320 40053 57005 333 00000 10333;EQDQ01  00002PRCP99
0132576330999992000051421004+28830+108770FM-12+066599999V0209999C000012200019N0200001N1+01761+01531100581ADDGA1001+999999999GF100991001001999999001001MD1210031+0011REMSYN064AAXX  14211 57633 42970 00000 10176 20153 40058 52003 333 00101;
0173576330999992000051500004+28830+108770FM-12+066599999V0209999C000012200019N0200001N1+01921+01601100741ADDAA199000091GF101991001001999999001021MA1999999093341MD1210111+0001REMSYN076AAXX  15001 57633 32970 10000 10192 20160 39334 40074 52011 80002 333 00000;EQDQ01  00002PRCP99
0112576330999992000051503004+28830+108770FM-12+066599999V0202201N004012200019N0180001N1+02891+01611100581ADDGF102991011011008001001021MD1710101+9999REMSYN060AAXX  15031 57633 42568 22204 10289 20161 40058 57010 81102;
0192576330999992000051506004+28830+108770FM-12+066599999V0201401N003010075019N0200001N1+03111+01751100341ADDAA199000091GF107991061011008001001021KA1999N+01661MA1999999093011MD1710231-0101REMSYN082AAXX  15061 57633 32570 71403 10311 20175 39301 40034 57023 86102 333 05151 20166;EQDQ01  00002PRCP99
0122576330999992000051509004+28830+108770FM-12+066599999V0201601N003010075019N0300001N1+03121+01661100261ADDGF106991061011008001001001MD1710091+0011REMSYN070AAXX  15091 57633 42580 61603 10312 20166 40026 57009 86100 333 00152;
0173576330999992000051512004+28830+108770FM-12+066599999V0201401N001010075019N0200001N1+02881+01661100441ADDAA199000091GF107991071041008001999999MA1999999093071MD1210151+0011REMSYN076AAXX  15121 57633 32570 71401 10288 20166 39307 40044 52015 874// 333 00101;EQDQ01  00002PRCP99
0112576330999992000051515004+28830+108770FM-12+066599999V0209999C000010360019N0200001N1+02531+01651100551ADDGF108991031041012501021999MD1210181+9999REMSYN060AAXX  15151 57633 42670 80000 10253 20165 40055 52018 8342/;
0191576330999992000051518004+28830+108770FM-12+066599999V0201601N002010150019N0120001N1+02591+01631100531ADDAA106000791GF108991081051017501999999KA1999M+03181MA1999999093261MD1210011+0101MW1601REMSYN094AAXX  15181 57633 11762 81602 10259 20163 39326 40053 52001 69901 76000 885// 333 00107 10318;
0159576330999992000051521004+28830+108770FM-12+066599999V0201801N002010150019N0100001N1+02291+01851100591ADDAA124000191AY161031GF108991081051017501999999MD1210031+0101MW1601REMSYN082AAXX  15211 57633 41760 81802 10229 20185 40059 52003 76060 885// 333 00105 70001;
0186576330999992000051600004+28830+108770FM-12+066599999V0203601N002010042019N0100001N1+01801+01621101161ADDAA106031091AY161061GF108991071071004501021999MA1999999093731MD1210441+0401MW1601REMSYN094AAXX  16001 57633 11460 83602 10180 20162 39373 40116 52044 60311 76060 8772/ 333 00451 70310;
0159576330999992000051603004+28830+108770FM-12+066599999V0203401N003010042019N0100001N1+01691+01421101472ADDAY161031AY261031GF108991071071004501021999MD1210231+9999MW1601REMSYN066AAXX  16031 57633 41460 83403 10169 20142 40147 52023 76066 8772/;EQDQ01+101473APOSLP
0199576330999992000051606004+28830+108770FM-12+066599999V0200201N002010120019N0170001N1+01741+01351101361ADDAA106003091AY161061GF108991071041012501071999KA1999N+01661MA1999999093871MD1710091+0901MW1001REMSYN094AAXX  16061 57633 11667 80202 10174 20135 39387 40136 57009 60031 70060 8747/ 333 00964 20166;
0122576330999992000051609004+28830+108770FM-12+066599999V0200701N001010360019N0200001N1+01801+01341101241ADDGF108991011011008001071999MD1710141+0081REMSYN070AAXX  16091 57633 42570 80701 10180 20134 40124 57014 8117/ 333 00863;
0180576330999992000051612004+28830+108770FM-12+066599999V0209999C000019999999N0200001N1+01761+01421101351ADDAA106000791AY161061GF108991081001999999071999MA1999999093771MD1210041+0071MW1001REMSYN088AAXX  16121 57633 11970 80000 10176 20142 39377 40135 52004 69901 70060 8807/ 333 00761;
0112576330999992000051615004+28830+108770FM-12+066599999V0209999C000019999999N0200001N1+01711+01491101511ADDGF107991071001999999041999MD1210121+9999REMSYN060AAXX  16151 57633 42970 70000 10171 20149 40151 52012 8704/;
0192576330999992000051618004+28830+108770FM-12+066599999V0209999C000019999999N0200001N1+01641+01511101411ADDAA199000091GF107991071001999999031999KA1999M+02601MA1999999093801MD1710091+0501REMSYN082AAXX  16181 57633 32970 70000 10164 20151 39380 40141 57009 8703/ 333 00560 10260;EQDQ01  00002PRCP99
0139576330999992000051621004+28830+108770FM-12+066599999V0209999C000019999999N0170001N1+01551+01451101321ADDAA124033891GF108991081001999999071999MD1710091+0401REMSYN076AAXX  16211 57633 42967 80000 10155 20145 40132 57009 8807/ 333 00457 70338;
0160576330999992000051700004+28830+108770FM-12+066599999V0209999C000019999999N0120001N1+01621+01451101381ADDAA124002891GF107991071001999999041999MA1999999093771MD1210061+0001REMSYN082AAXX  17001 57633 32962 70000 10162 20145 39377 40138 52006 8704/ 333 00052 70029;
0132576330999992000051703004+28830+108770FM-12+066599999V0203601N001019999999N0200001N1+02021+01291101341ADDAY161031GF108991081001999999071999MD1210011+9999MW1211REMSYN066AAXX  17031 57633 41970 83601 10202 20129 40134 52001 72160 8807/;
0199576330999992000051706004+28830+108770FM-12+066599999V0201101N002019999999N0180001N1+01861+01101101281ADDAA106000791AY161061GF108991081001999999071999KA1999N+01521MA1999999093691MD1710091-0201MW1601REMSYN094AAXX  17061 57633 11968 81102 10186 20110 39369 40128 57009 69901 76060 8807/ 333 05201 20152;
0150576330999992000051709004+28830+108770FM-12+066599999V0209999C000010042019N0100001N1+01571+01401101261ADDAY161031AY261031GF108991061071004501021999MD1710061+0011MW1611REMSYN076AAXX  17091 57633 41460 80000 10157 20140 40126 57006 76166 8672/ 333 05152;
0188576330999992000051712004+28830+108770FM-12+066599999V0202001N001010360019N0120001N1+01561+01441101341ADDAA106005191AY161061AY261061GF108991031071004501021999MA1999999093711MD1210081+0011MW1211REMSYN088AAXX  17121 57633 11462 82001 10156 20144 39371 40134 52008 60051 72166 8372/ 333 05152;
0132576330999992000051715004+28830+108770FM-12+066599999V0209999C000019999999N0100001N1+01511+01371101431ADDAY161031GF108991081001999999071999MD1210131+9999MW1601REMSYN066AAXX  17151 57633 41960 80000 10151 20137 40143 52013 76060 8807/;
0199576330999992000051718004+28830+108770FM-12+066599999V0203401N001010360019N0100001N1+01411+01271101581ADDAA106003091AY161061GF108991021071004501021999KA1999M+02081MA1999999093941MD1210101+0101MW1601REMSYN094AAXX  17181 57633 11460 83401 10141 20127 39394 40158 52010 60031 76060 8272/ 333 00152 10208;
0167576330999992000051721004+28830+108770FM-12+066599999V0209999C000010360019N0100001N1+01361+01271101551ADDAA124010991AY161031AY261031GF108991031071004501021999MD1710071+0201MW1601REMSYN082AAXX  17211 57633 41460 80000 10136 20127 40155 57007 76066 8372/ 333 00252 70108;
0186576330999992000051800004+28830+108770FM-12+066599999V0209999C000010360019N0100001N1+01431+01311101641ADDAA106004191AY161061GF108991021071004501071999MA1999999093961MD1210091+0201MW1601REMSYN094AAXX  18001 57633 11460 80000 10143 20131 39396 40164 52009 60041 76060 8277/ 333 00252 70112;
0140576330999992000051803004+28830+108770FM-12+066599999V0201601N002010360019N0200001N1+01701+01321101651ADDAY161031AY261031GF107991021011008001041001MD1210041+9999MW1211REMSYN066AAXX  18031 57633 41570 71602 10170 20132 40165 52004 72166 82140;
0199576330999992000051806004+28830+108770FM-12+066599999V0201601N003010360019N0170001N1+01991+01481101391ADDAA106000591AY161061GF106991011011008001041001KA1999N+01361MA1999999093781MD1710221+0101MW1001REMSYN094AAXX  18061 57633 11567 61603 10199 20148 39378 40139 57022 69951 70060 81140 333 00101 20136;
0122576330999992000051809004+28830+108770FM-12+066599999V0202201N001010360019N0200001N1+02251+01651101121ADDGF107991011011008001041999MD1710221+0011REMSYN070AAXX  18091 57633 42570 72201 10225 20165 40112 57022 8114/ 333 05107;
0154576330999992000051812004+28830+108770FM-12+066599999V0209999C000019999999N0180001N1+01951+01561101271ADDAA199000021GF108991081001999999071999MA1999999093671MD1210111+0001REMSYN076AAXX  18121 57633 32968 80000 10195 20156 39367 40127 52011 8807/ 333 00004;
0112576330999992000051815004+28830+108770FM-12+066599999V0201801N001019999999N0150001N1+01831+01551101351ADDGF108991081001999999011999MD1210091+9999REMSYN060AAXX  18151 57633 42965 81801 10183 20155 40135 52009 8801/;
0192576330999992000051818004+28830+108770FM-12+066599999V0209999C000019999999N0170001N1+01641+01471101251ADDAA199000091GF108991001001999999001071KA1999M+02361MA1999999093681MD1710081-0301REMSYN082AAXX  18181 57633 32967 80000 10164 20147 39368 40125 57008 80007 333 05302 10236;EQDQ01  00002PRCP99
0139576330999992000051821004+28830+108770FM-12+066599999V0209999C000019999999N0150001N1+01491+01391101241ADDAA124001091GF108991001001999999001071MD1210011-0201REMSYN076AAXX  18211 57633 42965 80000 10149 20139 40124 52001 80007 333 05201 70009;
0160576330999992000051900004+28830+108770FM-12+066599999V0209999C000010360019N0120001N1+01551+01451101411ADDAA124000591GF107991031061004501041999MA1999999093811MD1210121-0201REMSYN082AAXX  19001 57633 32462 70000 10155 20145 39381 40141 52012 8364/ 333 05201 70005;
0112576330999992000051903004+28830+108770FM-12+066599999V0201601N002019999999N0120001N1+02261+01591101271ADDGF106991061001999999041001MD1710051+9999REMSYN060AAXX  19031 57633 42962 61602 10226 20159 40127 57005 86040;
0192576330999992000051906004+28830+108770FM-12+066599999V0209999C000012200019N0200001N1+02831+01431101001ADDAA199000091GF102991021011008001001021KA1999N+01441MA1999999093551MD1710211-0201REMSYN082AAXX  19061 57633 32570 20000 10283 20143 39355 40100 57021 82102 333 05208 20144;EQDQ01  00002PRCP99
0122576330999992000051909004+28830+108770FM-12+066599999V0201801N001010900019N0200001N1+02911+01381100841ADDGF107991021021008001001021MD1710151+0021REMSYN070AAXX  19091 57633 42570 71801 10291 20138 40084 57015 82202 333 05207;
0173576330999992000051912004+28830+108770FM-12+066599999V0209999C000019999999N0150001N1+02351+01621100971ADDAA199000091GF107991001001999999001021MA1999999093461MD1210061+0021REMSYN076AAXX  19121 57633 32965 70000 10235 20162 39346 40097 52006 80002 333 05204;EQDQ01  00002PRCP99
0112576330999992000051915004+28830+108770FM-12+066599999V0209999C000012200019N0120001N1+01841+01441101141ADDGF102991021001999999041001MD1210181+9999REMSYN060AAXX  19151 57633 42962 20000 10184 20144 40114 52018 82040;
0192576330999992000051918004+28830+108770FM-12+066599999V0209999C000019999999N0100001N1+01661+01541101041ADDAA199000091GF108991001001999999001071KA1999M+02941MA1999999093591MD1710051-0101REMSYN082AAXX  19181 57633 32960 80000 10166 20154 39359 40104 57005 80007 333 05100 10294;EQDQ01  00002PRCP99
0122576330999992000051921004+28830+108770FM-12+066599999V0209999C000019999999N0100001N1+01611+01441101011ADDGF108991001001999999001071MD1710021+0011REMSYN070AAXX  19211 57633 42960 80000 10161 20144 40101 57002 80007 333 05101;
0173576330999992000052000004+28830+108770FM-12+066599999V0209999C000019999999N0100001N1+01701+01551101191ADDAA199000091GF107991071001999999041999MA1999999093681MD1210111+0011REMSYN076AAXX  20001 57633 32960 70000 10170 20155 39368 40119 52011 8704/ 333 05102;EQDQ01  00002PRCP99
0112576330999992000052003004+28830+108770FM-12+066599999V0202201N001019999999N0170001N1+02561+01691101131ADDGF107991001001999999001021MD1710011+9999REMSYN060AAXX  20031 57633 42967 72201 10256 20169 40113 57001 80002;
0192576330999992000052006004+28830+108770FM-12+066599999V0201601N002012200019N0300001N1+02961+00861100931ADDAA199000091GF103991021021008001001021KA1999N+01531MA1999999093511MD1710161+0001REMSYN082AAXX  20061 57633 32580 31602 10296 20086 39351 40093 57016 82202 333 00001 20153;EQDQ01  00002PRCP99
0122576330999992000052009004+28830+108770FM-12+066599999V0202701N002012200019N0300001N1+03001+01201100731ADDGF102991011021008001001011MD1710191+0011REMSYN070AAXX  20091 57633 42580 22702 10300 20120 40073 57019 81201 333 05101;
0183576330999992000052012004+28830+108770FM-12+066599999V0209999C000012200019N0300001N1+02381+01191100871ADDAA199000091GA1001+999999999GF100991001001999999001001MA1999999093391MD1210071+0011REMSYN070AAXX  20121 57633 32980 00000 10238 20119 39339 40087 52007 333 05100;EQDQ01  00002PRCP99
0122576330999992000052015004+28830+108770FM-12+066599999V0209999C000012200019N0150001N1+01931+01361101001ADDGA1001+999999999GF100991001001999999001001MD1210171+9999REMSYN054AAXX  20151 57633 42965 00000 10193 20136 40100 52017;
0202576330999992000052018004+28830+108770FM-12+066599999V0209999C000012200019N0120001N1+01671+01341100931ADDAA199000091GA1001+999999999GF100991001001999999001001KA1999M+03081MA1999999093511MD1710051-0101REMSYN076AAXX  20181 57633 32962 00000 10167 20134 39351 40093 57005 333 05100 10308;EQDQ01  00002PRCP99
0132576330999992000052021004+28830+108770FM-12+066599999V0209999C000012200019N0120001N1+01501+01311100951ADDGA1001+999999999GF100991001001999999001001MD1410001+0011REMSYN064AAXX  20211 57633 42962 00000 10150 20131 40095 54000 333 05151;
0173576330999992000052100004+28830+108770FM-12+066599999V0209999C000012200019N0120001N1+01701+01401101121ADDAA199000091GF101991001001999999001021MA1999999093621MD1210111+0011REMSYN076AAXX  21001 57633 32962 10000 10170 20140 39362 40112 52011 80002 333 05100;EQDQ01  00002PRCP99
0122576330999992000052103004+28830+108770FM-12+066599999V0201101N003012200019N0250001N1+02711+01331101011ADDGA1001+999999999GF100991001001999999001001MD1710041+9999REMSYN054AAXX  21031 57633 42975 01103 10271 20133 40101 57004;
0192576330999992000052106004+28830+108770FM-12+066599999V0202001N002012200019N0300001N1+02961+00971100811ADDAA199000091GF101991011011008001001001KA1999N+01441MA1999999093401MD1710181-0101REMSYN082AAXX  21061 57633 32580 12002 10296 20097 39340 40081 57018 81100 333 05100 20144;EQDQ01  00002PRCP99
0122576330999992000052109004+28830+108770FM-12+066599999V0209999C000012200019N0300001N1+02971+01181100641ADDGF102991021011008001001021MD1710181+0011REMSYN070AAXX  21091 57633 42580 20000 10297 20118 40064 57018 82102 333 05100;
0183576330999992000052112004+28830+108770FM-12+066599999V0209999C000012200019N0300001N1+02451+01501100771ADDAA199000091GA1001+999999999GF100991001001999999001001MA1999999093301MD1210081+0011REMSYN070AAXX  21121 57633 32980 00000 10245 20150 39330 40077 52008 333 05101;EQDQ01  00002PRCP99
0112576330999992000052115004+28830+108770FM-12+066599999V0209999C000012200019N0150001N1+01971+01361100891ADDGF102991001001999999001021MD1210181+9999REMSYN060AAXX  21151 57633 42965 20000 10197 20136 40089 52018 80002;
0202576330999992000052118004+28830+108770FM-12+066599999V0209999C000012200019N0150001N1+01711+01461100871ADDAA199000091GA1001+999999999GF100991001001999999001001KA1999M+03121MA1999999093461MD1710021-0101REMSYN076AAXX  21181 57633 32965 00000 10171 20146 39346 40087 57002 333 05100 10312;EQDQ01  00002PRCP99
0122576330999992000052121004+28830+108770FM-12+066599999V0209999C000019999999N0150001N1+01561+01351100861ADDGF107991071001999999041999MD1710031+0011REMSYN070AAXX  21211 57633 42965 70000 10156 20135 40086 57003 8704/ 333 05101;
0173576330999992000052200004+28830+108770FM-12+066599999V0209999C000019999999N0180001N1+01731+01371101061ADDAA199000091GF107991021001999999041021MA1999999093571MD1210141+0011REMSYN076AAXX  22001 57633 32968 70000 10173 20137 39357 40106 52014 82042 333 05100;EQDQ01  00002PRCP99
0112576330999992000052203004+28830+108770FM-12+066599999V0201401N004019999999N0300001N1+02611+00971100971ADDGF106991001001999999001021MD1710031+9999REMSYN060AAXX  22031 57633 42980 61404 10261 20097 40097 57003 80002;
0192576330999992000052206004+28830+108770FM-12+066599999V0201801N003012200019N0300001N1+02961+01191100751ADDAA199000091GF102991011011008001041001KA1999N+01461MA1999999093351MD1710191-0101REMSYN082AAXX  22061 57633 32580 21803 10296 20119 39335 40075 57019 81140 333 05100 20146;EQDQ01  00002PRCP99
0122576330999992000052209004+28830+108770FM-12+066599999V0209999C000019999999N0300001N1+03011+01281100621ADDGF106991031001999999041011MD1710141+0001REMSYN070AAXX  22091 57633 42980 60000 10301 20128 40062 57014 83041 333 00000;
0173576330999992000052212004+28830+108770FM-12+066599999V0201601N001019999999N0300001N1+02511+01301100711ADDAA199000091GF105991051001999999031001MA1999999093261MD1210051+0001REMSYN076AAXX  22121 57633 32980 51601 10251 20130 39326 40071 52005 85030 333 00001;EQDQ01  00002PRCP99
0112576330999992000052215004+28830+108770FM-12+066599999V0209999C000012200019N0180001N1+02211+01361100791ADDGF102991021001999999041001MD1210141+9999REMSYN060AAXX  22151 57633 42968 20000 10221 20136 40079 52014 82040;
0192576330999992000052218004+28830+108770FM-12+066599999V0209999C000019999999N0180001N1+01991+01571100711ADDAA199000091GF107991071001999999031999KA1999M+03031MA1999999093341MD1710061-0101REMSYN082AAXX  22181 57633 32968 70000 10199 20157 39334 40071 57006 8703/ 333 05103 10303;EQDQ01  00002PRCP99
0122576330999992000052221004+28830+108770FM-12+066599999V0209999C000019999999N0180001N1+01971+01581100691ADDGF108991081001999999071999MD1710011+0011REMSYN070AAXX  22211 57633 42968 80000 10197 20158 40069 57001 8807/ 333 05104;
0173576330999992000052300004+28830+108770FM-12+066599999V0209999C000019999999N0200001N1+02041+01691100841ADDAA199000091GF107991071001999999031999MA1999999093421MD1210091+0021REMSYN076AAXX  23001 57633 32970 70000 10204 20169 39342 40084 52009 8703/ 333 05203;EQDQ01  00002PRCP99
0112576330999992000052303004+28830+108770FM-12+066599999V0200901N001010360019N0200001N1+02671+01621100741ADDGF107991011011008001041999MD1710061+9999REMSYN060AAXX  23031 57633 42570 70901 10267 20162 40074 57006 8114/;
0192576330999992000052306004+28830+108770FM-12+066599999V0201601N002010360019N0180001N1+02561+01711100671ADDAA199000091GF108991031011008001071999KA1999N+01911MA1999999093261MD1710101-0101REMSYN082AAXX  23061 57633 32568 81602 10256 20171 39326 40067 57010 8317/ 333 05154 20191;EQDQ01  00002PRCP99
0142576330999992000052309004+28830+108770FM-12+066599999V0209999C000010360019N0150001N1+02501+01691100591ADDAY161031GF108991011011008001071999MD1710091+0001MW1001REMSYN076AAXX  23091 57633 41565 80000 10250 20169 40059 57009 70060 8117/ 333 00055;
0180576330999992000052312004+28830+108770FM-12+066599999V0202701N001019999999N0150001N1+02401+01781100621ADDAA106000791AY161061GF108991081001999999071999MA1999999093201MD1210031+0011MW1001REMSYN088AAXX  23121 57633 11965 82701 10240 20178 39320 40062 52003 69901 70060 8807/ 333 05151;
0112576330999992000052315004+28830+108770FM-12+066599999V0209999C000019999999N0150001N1+02311+01801100691ADDGF108991081001999999071999MD1210131+9999REMSYN060AAXX  23151 57633 42965 80000 10231 20180 40069 52013 8807/;
0218576330999992000052318004+28830+108770FM-12+066599999V0209999C000010042019N0120001N1+02091+01941100631ADDAA106000891AY161061GF108991081051004501999999KA1999M+99999MA1999999093231MD1710101-0101MW1601REMSYN094AAXX  23181 57633 11462 80000 10209 20194 39323 40063 57010 69981 76060 885// 333 05101 10074;EQDQ01 +00742ATMX  
0159576330999992000052321004+28830+108770FM-12+066599999V0209999C000010150019N0100001N1+02041+01921100531ADDAA124001091AY161031GF108991081051017501999999MD1710101-0201MW1211REMSYN082AAXX  23211 57633 41760 80000 10204 20192 40053 57010 72160 885// 333 05201 70009;
0186576330999992000052400004+28830+108770FM-12+066599999V0209999C000010042019N0070001N1+02031+01891100551ADDAA106004191AY161061GF108991081071004501999999MA1999999093131MD1410001-0301MW1601REMSYN094AAXX  24001 57633 11457 80000 10203 20189 39313 40055 54000 60041 76060 887// 333 05300 70043;
0140576330999992000052403004+28830+108770FM-12+066599999V0203601N001010042019N0070001N1+02011+01921100511ADDAY161031AY261031GF108991081071004501999999MD1710051+9999MW1601REMSYN066AAXX  24031 57633 41457 83601 10201 20192 40051 57005 76066 887//;
0207576330999992000052406004+28830+108770FM-12+066599999V0209999C000010042019N0120001N1+02021+01931100341ADDAA106022191AY161061AY261061GF108991071071004501021999KA1999N+02001MA1999999092901MD1710181-0401MW1211REMSYN094AAXX  24061 57633 11462 80000 10202 20193 39290 40034 57018 60221 72166 8772/ 333 05455 20200;
0122576330999992000052409004+28830+108770FM-12+066599999V0200201N001010360019N0150001N1+02151+01941100151ADDGF108991011071004501021999MD1710171+0041REMSYN070AAXX  24091 57633 42465 80201 10215 20194 40015 57017 8172/ 333 05454;
0180576330999992000052412004+28830+108770FM-12+066599999V0209999C000010042019N0070001N1+02031+02031100201ADDAA106009991AY161061GF108991081091004501999999MA1999999092761MD1210031+0041MW1951REMSYN088AAXX  24121 57633 11457 80000 10203 20203 39276 40020 52003 60101 79560 889// 333 05454;
0140576330999992000052415004+28830+108770FM-12+066599999V0209999C000010042019N0050001N1+02051+02021100221ADDAY181031AY261031GF108991081071004501999999MD1210021+9999MW1601REMSYN066AAXX  24151 57633 41450 80000 10205 20202 40022 52002 76086 887//;
0207576330999992000052418004+28830+108770FM-12+066599999V0209999C000010042019N0050001N1+02031+02001100111ADDAA106024991AY181061AY261061GF108991071071004501021999KA1999M+02191MA1999999092681MD1710101-0601MW1601REMSYN094AAXX  24181 57633 11450 80000 10203 20200 39268 40011 57010 60251 76086 8772/ 333 05651 10219;
0167576330999992000052421004+28830+108770FM-12+066599999V0209999C000010042019N0040001N1+01981+01951100001ADDAA124067391AY161031AY261031GF108991071071004501021999MD1710091-0501MW1611REMSYN082AAXX  24211 57633 41440 80000 10198 20195 40000 57009 76166 8772/ 333 05551 70672;
0186576330999992000052500004+28830+108770FM-12+066599999V0209999C000010042019N0120001N1+02001+01941100151ADDAA106007191AY161061GF108991071071004501021999MA1999999092711MD1210121-0401MW1001REMSYN094AAXX  25001 57633 11462 80000 10200 20194 39271 40015 52012 60071 70060 8772/ 333 05400 70638;
0112576330999992000052503004+28830+108770FM-12+066599999V0201401N002010120019N0120001N1+02291+01931100151ADDGF107991071081008001999999MD1210041+9999REMSYN060AAXX  25031 57633 42562 71402 10229 20193 40015 52004 878//;
0173576330999992000052506004+28830+108770FM-12+066599999V0203201N002010120019N0170001N1+02581+01771099961ADDAA199000021GF107991071081008001999999KA1999N+01951MA1999999092611MD1710141-0301REMSYN082AAXX  25061 57633 32567 73202 10258 20177 39261 49996 57014 878// 333 05306 20195;
0122576330999992000052509004+28830+108770FM-12+066599999V0209999C000010120019N0200001N1+02621+01831099891ADDGF105991051081008001001001MD1710071+0021REMSYN070AAXX  25091 57633 42570 50000 10262 20183 49989 57007 85800 333 05205;
0173576330999992000052512004+28830+108770FM-12+066599999V0209999C000012200019N0250001N1+02221+01821100081ADDAA199000091GF101991001001999999001021MA1999999092671MD1210131+0011REMSYN076AAXX  25121 57633 32975 10000 10222 20182 39267 40008 52013 80002 333 05102;EQDQ01  00002PRCP99
0122576330999992000052515004+28830+108770FM-12+066599999V0209999C000012200019N0120001N1+01931+01741100301ADDGA1001+999999999GF100991001001999999001001MD1210211+9999REMSYN054AAXX  25151 57633 42962 00000 10193 20174 40030 52021;
0192576330999992000052518004+28830+108770FM-12+066599999V0209999C000019999999N0100001N1+01791+01731100251ADDAA199000091GF106991021001999999041021KA1999M+02711MA1999999092851MD1710031+0201REMSYN082AAXX  25181 57633 32960 60000 10179 20173 39285 40025 57003 82042 333 00252 10271;EQDQ01  00002PRCP99
0139576330999992000052521004+28830+108770FM-12+066599999V0209999C000012200019N0100001N1+01701+01651100291ADDAA124000791GF101991011001999999041001MD1210031+0301REMSYN076AAXX  25211 57633 42960 10000 10170 20165 40029 52003 81040 333 00353 79999;
0185576330999992000052600004+28830+108770FM-12+066599999V0209999C000010360019N0080001N1+01851+01761100451ADDAA199000091GF107991011011008001041999MA1999999093001MD1210121+0031MW1101REMSYN082AAXX  26001 57633 31558 70000 10185 20176 39300 40045 52012 71000 8114/ 333 00352;EQDQ01  00002PRCP99
0112576330999992000052603004+28830+108770FM-12+066599999V0203201N001010360019N0150001N1+02591+01961100351ADDGF106991021011008001041011MD1710041+9999REMSYN060AAXX  26031 57633 42565 63201 10259 20196 40035 57004 82141;
0191576330999992000052606004+28830+108770FM-12+066599999V0201601N001010042019N0170001N1+02491+01901100381ADDAA106000791GF108991051071004501071999KA1999N+01651MA1999999092961MD1410001+0401MW1601REMSYN094AAXX  26061 57633 11467 81601 10249 20190 39296 40038 54000 69901 76000 8577/ 333 00451 20165;
0142576330999992000052609004+28830+108770FM-12+066599999V0209999C000010360019N0150001N1+02471+01941100371ADDAY161031GF108991021071004501071999MD1710031+0041MW1001REMSYN076AAXX  26091 57633 41465 80000 10247 20194 40037 57003 70060 8277/ 333 00452;
0180576330999992000052612004+28830+108770FM-12+066599999V0209999C000010360019N0150001N1+02211+02051100561ADDAA106000191AY161061GF108991021071004501071999MA1999999093101MD1210171+0041MW1001REMSYN088AAXX  26121 57633 11465 80000 10221 20205 39310 40056 52017 69911 70060 8277/ 333 00400;
0112576330999992000052615004+28830+108770FM-12+066599999V0209999C000019999999N0120001N1+02101+01981100651ADDGF105991051001999999041001MD1210161+9999REMSYN060AAXX  26151 57633 42962 50000 10210 20198 40065 52016 85040;
0173576330999992000052618004+28830+108770FM-12+066599999V0201601N001019999999N0100001N1+02041+01961100671ADDAA199000021GF108991081001999999071999KA1999M+02651MA1999999093261MD1410001+0401REMSYN082AAXX  26181 57633 32960 81601 10204 20196 39326 40067 54000 8807/ 333 00403 10265;
0139576330999992000052621004+28830+108770FM-12+066599999V0209999C000010360019N0100001N1+01981+01951100691ADDAA124000191GF108991011041012501071999MD1410001+0401REMSYN076AAXX  26211 57633 42660 80000 10198 20195 40069 54000 8147/ 333 00403 70001;
0172576330999992000052700004+28830+108770FM-12+066599999V0209999C000019999999N0060001N1+02101+01991100781ADDAA124000191GF107991071001999999031999MA1999999093331MD1210071+0301MW1101REMSYN088AAXX  27001 57633 31956 70000 10210 20199 39333 40078 52007 71000 8703/ 333 00303 70001;
0112576330999992000052703004+28830+108770FM-12+066599999V0209999C000010360019N0150001N1+02511+01971100831ADDGF108991021021008001071999MD1210081+9999REMSYN060AAXX  27031 57633 42565 80000 10251 20197 40083 52008 8227/;
0192576330999992000052706004+28830+108770FM-12+066599999V0201801N002010360019N0150001N1+02671+01711100691ADDAA199000091GF107991021011008001041999KA1999N+01951MA1999999093301MD1710111+0301REMSYN082AAXX  27061 57633 32565 71802 10267 20171 39330 40069 57011 8214/ 333 00302 20195;EQDQ01  00002PRCP99
0122576330999992000052709004+28830+108770FM-12+066599999V0209999C000010360019N0150001N1+02611+01831100551ADDGF107991011011008001041999MD1710151+0021REMSYN070AAXX  27091 57633 42565 70000 10261 20183 40055 57015 8114/ 333 00201;
0173576330999992000052712004+28830+108770FM-12+066599999V0209999C000019999999N0120001N1+02401+01821100701ADDAA199000091GF108991081001999999071999MA1999999093281MD1210131+0021REMSYN076AAXX  27121 57633 32962 80000 10240 20182 39328 40070 52013 8807/ 333 00202;EQDQ01  00002PRCP99
0112576330999992000052715004+28830+108770FM-12+066599999V0201801N001019999999N0120001N1+02341+01801100871ADDGF108991081001999999071999MD1210201+9999REMSYN060AAXX  27151 57633 42962 81801 10234 20180 40087 52020 8807/;
0167576330999992000052721004+28830+108770FM-12+066599999V0203201N001010360019N0080001N1+01981+01761100931ADDAA124000891AY161031AY261031GF108991011071004501071999MD1210031+0201MW1601REMSYN082AAXX  27211 57633 41458 83201 10198 20176 40093 52003 76066 8177/ 333 00200 70008;
0186576330999992000052800004+28830+108770FM-12+066599999V0209999C000010360019N0120001N1+01941+01681101061ADDAA106000891AY161061GF108991021071004501071999MA1999999093591MD1210091+0301MW1001REMSYN094AAXX  28001 57633 11462 80000 10194 20168 39359 40106 52009 69981 70060 8277/ 333 00352 70008;
0124576330999992000052803004+28830+108770FM-12+066599999V0209999C000010042019N0120001N1+01911+01551101181ADDGF108991071071004501071999MD1210101+9999MW1601REMSYN066AAXX  28031 57633 42462 80000 10191 20155 40118 52010 76000 8777/;
0199576330999992000052806004+28830+108770FM-12+066599999V0203601N001010042019N0120001N1+01871+01511101091ADDAA106000791AY161061GF108991061071004501071999KA1999N+01781MA1999999093591MD1710101+0301MW1601REMSYN094AAXX  28061 57633 11462 83601 10187 20151 39359 40109 57010 69901 76060 8677/ 333 00358 20178;
0142576330999992000052809004+28830+108770FM-12+066599999V0203601N002010075019N0150001N1+01821+01581101021ADDAY161031GF108991081051008001999999MD1710101+0031MW1601REMSYN076AAXX  28091 57633 41565 83602 10182 20158 40102 57010 76060 885// 333 00358;
0180576330999992000052812004+28830+108770FM-12+066599999V0200701N002010042019N0100001N1+01761+01531101141ADDAA106000791AY161061GF108991081071004501999999MA1999999093591MD1210101+0031MW1601REMSYN088AAXX  28121 57633 11460 80702 10176 20153 39359 40114 52010 69901 76060 887// 333 00356;
0132576330999992000052815004+28830+108770FM-12+066599999V0200401N003010042019N0100001N1+01691+01421101381ADDAY161031GF108991081071004501999999MD1210211+9999MW1601REMSYN066AAXX  28151 57633 41460 80403 10169 20142 40138 52021 76060 887//;
0199576330999992000052818004+28830+108770FM-12+066599999V0200401N001010042019N0100001N1+01581+01361101251ADDAA106000591AY161061GF108991081071004501999999KA1999M+02251MA1999999093661MD1710141+0201MW1601REMSYN094AAXX  28181 57633 11460 80401 10158 20136 39366 40125 57014 69951 76060 887// 333 00257 10225;
0151576330999992000052821004+28830+108770FM-12+066599999V0203401N001010042019N0100001N1+01541+01331101211ADDAA124000591GF108991081071004501999999MD1710051+0101MW1601REMSYN082AAXX  28211 57633 41460 83401 10154 20133 40121 57005 76000 887// 333 00154 70006;
0186576330999992000052900004+28830+108770FM-12+066599999V0209999C000010042019N0150001N1+01561+01301101251ADDAA106000391AY161061GF108991081071004501999999MA1999999093641MD1210031+0101MW1001REMSYN094AAXX  29001 57633 11465 80000 10156 20130 39364 40125 52003 69931 70060 887// 333 00154 70008;
0112576330999992000052903004+28830+108770FM-12+066599999V0200201N001010120019N0170001N1+01681+01341101181ADDGF108991081081008001999999MD1710051+9999REMSYN060AAXX  29031 57633 42567 80201 10168 20134 40118 57005 888//;
0173576330999992000052906004+28830+108770FM-12+066599999V0209999C000010075019N0170001N1+01841+01391100961ADDAA199000021GF108991061011008001021999KA1999N+01481MA1999999093391MD1710201-0201REMSYN082AAXX  29061 57633 32567 80000 10184 20139 39339 40096 57020 8612/ 333 05200 20148;
0142576330999992000052909004+28830+108770FM-12+066599999V0200201N001010360019N0150001N1+01781+01461100801ADDAY161031GF108991041071004501021999MD1710161+0031MW1601REMSYN076AAXX  29091 57633 41465 80201 10178 20146 40080 57016 76060 8472/ 333 05300;
0180576330999992000052912004+28830+108770FM-12+066599999V0200201N001010120019N0150001N1+01761+01441100891ADDAA106000791AY161061GF108991051041012501071999MA1999999093311MD1210081+0031MW1001REMSYN088AAXX  29121 57633 11665 80201 10176 20144 39331 40089 52008 69901 70060 8547/ 333 05300;
0132576330999992000052915004+28830+108770FM-12+066599999V0209999C000010042019N0100001N1+01661+01481101021ADDAY161031GF108991081071004501999999MD1210121+9999MW1601REMSYN066AAXX  29151 57633 41460 80000 10166 20148 40102 52012 76060 887//;
0199576330999992000052918004+28830+108770FM-12+066599999V0209999C000010042019N0120001N1+01661+01511100821ADDAA106000791AY161061GF108991081051004501999999KA1999M+01891MA1999999093271MD1710161-0401MW1601REMSYN094AAXX  29181 57633 11462 80000 10166 20151 39327 40082 57016 69901 76060 885// 333 05401 10189;
0167576330999992000052921004+28830+108770FM-12+066599999V0209999C000010042019N0100001N1+01591+01521100811ADDAA124001391AY161031AY261031GF108991081071004501999999MD1710031-0401MW1601REMSYN082AAXX  29211 57633 41460 80000 10159 20152 40081 57003 76066 887// 333 05401 70012;
0194576330999992000053000004+28830+108770FM-12+066599999V0209999C000010042019N0100001N1+01621+01591100891ADDAA106009991AY191061AY261061GF108991081091004501999999MA1999999093321MD1210081-0301MW1801REMSYN094AAXX  30001 57633 11460 80000 10162 20159 39332 40089 52008 60101 78096 889// 333 05301 70103;
0140576330999992000053003004+28830+108770FM-12+066599999V0201601N001010042019N0170001N1+01951+01661100881ADDAY181031AY261031GF107991071071004501999999MD1210021+9999MW1211REMSYN066AAXX  30031 57633 41467 71601 10195 20166 40088 52002 72186 877//;
0207576330999992000053006004+28830+108770FM-12+066599999V0202201N001010120019N0200001N1+02131+01691100731ADDAA106000191AY181061AY261061GF107991071041012501999999KA1999N+01571MA1999999093221MD1710121-0201MW1001REMSYN094AAXX  30061 57633 11670 72201 10213 20169 39322 40073 57012 69911 70086 874// 333 05203 20157;
0122576330999992000053009004+28830+108770FM-12+066599999V0209999C000010120019N0300001N1+02271+01621100651ADDGF107991071041012501999999MD1710061+0011REMSYN070AAXX  30091 57633 42680 70000 10227 20162 40065 57006 874// 333 05105;
0143576330999992000053012004+28830+108770FM-12+066599999V0209999C000010360019N0250001N1+02101+01721100781ADDGF107991021041012501041001MA1999999093261MD1210101+0011REMSYN076AAXX  30121 57633 42675 70000 10210 20172 39326 40078 52010 82440 333 05103;
0122576330999992000053015004+28830+108770FM-12+066599999V0209999C000012200019N0150001N1+01731+01601100931ADDGA1001+999999999GF100991001001999999001001MD1210131+9999REMSYN054AAXX  30151 57633 42965 00000 10173 20160 40093 52013;
0202576330999992000053018004+28830+108770FM-12+066599999V0209999C000012200019N0100001N1+01541+01491100821ADDAA199000091GA1001+999999999GF100991001001999999001001KA1999M+02331MA1999999093291MD1710101+0001REMSYN076AAXX  30181 57633 32960 00000 10154 20149 39329 40082 57010 333 00051 10233;EQDQ01  00002PRCP99
0161576330999992000053021004+28830+108770FM-12+066599999V0209999C000010006019N0009001N1+01501+01501100791ADDAA124009491GA1091+999999999GF109991091999999999999999MD1710021+0001MW1471REMSYN076AAXX  30211 57633 41/09 90000 10150 20150 40079 57002 74700 333 00051 70094;
0190576330999992000053100004+28830+108770FM-12+066599999V0209999C000010006019N0006001N1+01491+01491100931ADDAA124000191AY141061GA1091+999999999GF109991091999999999999999MA1999999093381MD1210111+0101MW1451REMSYN082AAXX  31001 57633 31/06 90000 10149 20149 39338 40093 52011 74540 333 00151 70001;
0212576330999992000053106004+28830+108770FM-12+066599999V0201101N002012200019N0300001N1+02781+01611100541ADDAA199000091AY141061GF101991011011008001001001KA1999N+01451MA1999999093111MD1710211-0101MW1001REMSYN088AAXX  31061 57633 31580 11102 10278 20161 39311 40054 57021 70040 81100 333 05107 20145;EQDQ01  00002PRCP99
0122576330999992000053109004+28830+108770FM-12+066599999V0201601N002012200019N0300001N1+02921+01711100291ADDGF101991011011008001001001MD1710221+0031REMSYN070AAXX  31091 57633 42580 11602 10292 20171 40029 57022 81100 333 05307;
0173576330999992000053112004+28830+108770FM-12+066599999V0209999C000012200019N0300001N1+02401+01781100411ADDAA199000091GF101991011001999999041001MA1999999092941MD1210051+0031REMSYN076AAXX  31121 57633 32980 10000 10240 20178 39294 40041 52005 81040 333 05303;EQDQ01  00002PRCP99
0122576330999992000053115004+28830+108770FM-12+066599999V0209999C000012200019N0150001N1+01941+01731100521ADDGA1001+999999999GF100991001001999999001001MD1210161+9999REMSYN054AAXX  31151 57633 42965 00000 10194 20173 40052 52016;
0202576330999992000053118004+28830+108770FM-12+066599999V0209999C000012200019N0120001N1+01821+01721100461ADDAA199000091GA1001+999999999GF100991001001999999001001KA1999M+02981MA1999999093071MD1710031-0201REMSYN076AAXX  31181 57633 32962 00000 10182 20172 39307 40046 57003 333 05203 10298;EQDQ01  00002PRCP99
0122576330999992000053121004+28830+108770FM-12+066599999V0209999C000019999999N0120001N1+01841+01751100411ADDGF106991061001999999041001MD1710031+0021REMSYN070AAXX  31211 57633 42962 60000 10184 20175 40041 57003 86040 333 05203;
0173576330999992000060100004+28830+108770FM-12+066599999V0209999C000019999999N0100001N1+01991+01831100561ADDAA199000091GF107991071001999999041999MA1999999093141MD1210101+0021REMSYN076AAXX  01001 57633 32960 70000 10199 20183 39314 40056 52010 8704/ 333 05205;EQDQ01  00002PRCP99
0112576330999992000060103004+28830+108770FM-12+066599999V0200201N001010360019N0150001N1+02581+02111100511ADDGF107991011011008001041999MD1710031+9999REMSYN060AAXX  01031 57633 42565 70201 10258 20211 40051 57003 8114/;
0191576330999992000060106004+28830+108770FM-12+066599999V0201601N002010360019N0170001N1+02831+02121100341ADDAA106000791GF107991031011008001041999KA1999N+01771MA1999999092961MD1710151-0201MW1251REMSYN094AAXX  01061 57633 11567 71602 10283 20212 39296 40034 57015 69901 72500 8314/ 333 05201 20177;
0122576330999992000060109004+28830+108770FM-12+066599999V0209999C000010120019N0200001N1+02871+02211100111ADDGF107991071081008001999999MD1710201+0011REMSYN070AAXX  01091 57633 42570 70000 10287 20221 40011 57020 878// 333 05151;
0154576330999992000060112004+28830+108770FM-12+066599999V0209999C000010120019N0250001N1+02631+02171100211ADDAA199000021GF107991071041012501001001MA1999999092841MD1210081+0011REMSYN076AAXX  01121 57633 32675 70000 10263 20217 39284 40021 52008 87400 333 05102;
0112576330999992000060115004+28830+108770FM-12+066599999V0209999C000010150019N0150001N1+02451+02161100421ADDGF108991081051017501999999MD1210241+9999REMSYN060AAXX  01151 57633 42765 80000 10245 20216 40042 52024 885//;
0173576330999992000060118004+28830+108770FM-12+066599999V0209999C000010150019N0150001N1+02301+02151100321ADDAA199000021GF107991071051017501999999KA1999M+02931MA1999999093001MD1710081-0101REMSYN082AAXX  01181 57633 32765 70000 10230 20215 39300 40032 57008 875// 333 05105 10293;
0139576330999992000060121004+28830+108770FM-12+066599999V0209999C000012200019N0150001N1+02231+02131100291ADDAA124000791GF102991021001999999041001MD1710031-0101REMSYN076AAXX  01211 57633 42965 20000 10223 20213 40029 57003 82040 333 05104 79999;
0160576330999992000060200004+28830+108770FM-12+066599999V0209999C000010360019N0170001N1+02241+02141100461ADDAA124000791GF107991011011008001031999MA1999999093101MD1210131+0001REMSYN082AAXX  02001 57633 32567 70000 10224 20214 39310 40046 52013 8113/ 333 00003 79999;
0112576330999992000060203004+28830+108770FM-12+066599999V0201601N003010075019N0300001N1+02991+02111100291ADDGF106991061021008001001001MD1710091+9999REMSYN060AAXX  02031 57633 42580 61603 10299 20211 40029 57009 86200;
0192576330999992000060206004+28830+108770FM-12+066599999V0201401N004010075019N0300001N1+03021+02191100141ADDAA199000091GF107991071021008001001001KA1999N+02141MA1999999092861MD1710151-0101REMSYN082AAXX  02061 57633 32580 71404 10302 20219 39286 40014 57015 87200 333 05102 20214;EQDQ01  00002PRCP99
0122576330999992000060209004+28830+108770FM-12+066599999V0201401N003010075019N0300001N1+03041+02101100011ADDGF107991071021008001001001MD1710131+0001REMSYN070AAXX  02091 57633 42580 71403 10304 20210 40001 57013 87200 333 00002;
0173576330999992000060212004+28830+108770FM-12+066599999V0209999C000012200019N0300001N1+02811+02181100131ADDAA199000091GF103991031011008001001001MA1999999092821MD1210091+0001REMSYN076AAXX  02121 57633 32580 30000 10281 20218 39282 40013 52009 83100 333 00002;EQDQ01  00002PRCP99
0112576330999992000060215004+28830+108770FM-12+066599999V0209999C000010150019N0200001N1+02461+02181100301ADDGF107991071051017501001001MD1210201+9999REMSYN060AAXX  02151 57633 42770 70000 10246 20218 40030 52020 87500;
0192576330999992000060218004+28830+108770FM-12+066599999V0209999C000010150019N0150001N1+02361+02171100291ADDAA199000091GF107991071051017501999999KA1999M+03151MA1999999093001MD1710021+0001REMSYN082AAXX  02181 57633 32765 70000 10236 20217 39300 40029 57002 875// 333 00001 10315;EQDQ01  00002PRCP99
0122576330999992000060221004+28830+108770FM-12+066599999V0209999C000010150019N0150001N1+02461+02081100291ADDGF108991081051017501999999MD1210021+0011REMSYN070AAXX  02211 57633 42765 80000 10246 20208 40029 52002 885// 333 00102;
0173576330999992000060300004+28830+108770FM-12+066599999V0203401N001010360019N0300001N1+02461+02081100421ADDAA199000091GF107991021011008001041021MA1999999093111MD1210091+0001REMSYN076AAXX  03001 57633 32580 73401 10246 20208 39311 40042 52009 82142 333 00002;EQDQ01  00002PRCP99
0112576330999992000060303004+28830+108770FM-12+066599999V0201801N002010360019N0300001N1+02871+02021100431ADDGF107991011011008001041021MD1210021+9999REMSYN060AAXX  03031 57633 42580 71802 10287 20202 40043 52002 81142;
0192576330999992000060306004+28830+108770FM-12+066599999V0202001N001010360019N0300001N1+03041+01981100321ADDAA199000091GF107991021011008001031999KA1999N+02281MA1999999093031MD1710101+0201REMSYN082AAXX  03061 57633 32580 72001 10304 20198 39303 40032 57010 8213/ 333 00200 20228;EQDQ01  00002PRCP99
0122576330999992000060309004+28830+108770FM-12+066599999V0209999C000010360019N0300001N1+03071+02101100171ADDGF107991011011008001031999MD1710121+0021REMSYN070AAXX  03091 57633 42580 70000 10307 20210 40017 57012 8113/ 333 00200;
0173576330999992000060312004+28830+108770FM-12+066599999V0209999C000010120019N0300001N1+02771+02211100271ADDAA199000091GF107991071051012501999999MA1999999092971MD1210061+0021REMSYN076AAXX  03121 57633 32680 70000 10277 20221 39297 40027 52006 875// 333 00200;EQDQ01  00002PRCP99
0112576330999992000060315004+28830+108770FM-12+066599999V0209999C000010150019N0180001N1+02581+02261100421ADDGF107991071051017501999999MD1210161+9999REMSYN060AAXX  03151 57633 42768 70000 10258 20226 40042 52016 875//;
0199576330999992000060318004+28830+108770FM-12+066599999V0209999C000010150019N0150001N1+02481+02261100331ADDAA106000791AY181061GF108991081051017501999999KA1999M+03131MA1999999093061MD1710071+0101MW1131REMSYN094AAXX  03181 57633 11765 80000 10248 20226 39306 40033 57007 69901 71380 885// 333 00101 10313;
0159576330999992000060321004+28830+108770FM-12+066599999V0209999C000010075019N0120001N1+02371+02281100381ADDAA124001891AY181031GF108991081051008001999999MD1210031+0101MW1801REMSYN082AAXX  03211 57633 41562 80000 10237 20228 40038 52003 78080 885// 333 00151 70017;
0194576330999992000060400004+28830+108770FM-12+066599999V0203401N003010042019N0100001N1+02101+01961100761ADDAA106052191AY191061AY281061GF108991081091004501999999MA1999999093381MD1210291+0301MW1951REMSYN094AAXX  04001 57633 11460 83403 10210 20196 39338 40076 52029 60521 79598 889// 333 00354 70518;
0140576330999992000060403004+28830+108770FM-12+066599999V0200201N002010042019N0150001N1+02111+01961100891ADDAY191031AY281031GF108991081071004501999999MD1210101+9999MW1601REMSYN066AAXX  04031 57633 41465 80202 10211 20196 40089 52010 76098 887//;
0207576330999992000060406004+28830+108770FM-12+066599999V0203601N001010042019N0170001N1+02101+01871100901ADDAA106029091AY191061AY281061GF108991081071004501999999KA1999N+01971MA1999999093471MD1710011+0401MW1601REMSYN094AAXX  04061 57633 11467 83601 10210 20187 39347 40090 57001 60291 76098 887// 333 00459 20197;
0142576330999992000060409004+28830+108770FM-12+066599999V0203401N001010042019N0170001N1+02151+01841100751ADDAY161031GF108991061071004501021999MD1710141+0041MW1001REMSYN076AAXX  04091 57633 41467 83401 10215 20184 40075 57014 70060 8672/ 333 00459;
0180576330999992000060412004+28830+108770FM-12+066599999V0201401N001010042019N0150001N1+02051+01831100791ADDAA106000791AY161061GF108991071071004501021999MA1999999093321MD1710011+0041MW1601REMSYN088AAXX  04121 57633 11465 81401 10205 20183 39332 40079 57001 69901 76060 8772/ 333 00457;
0132576330999992000060415004+28830+108770FM-12+066599999V0200201N001010042019N0150001N1+02031+01881100931ADDAY161031GF108991081071004501999999MD1210131+9999MW1211REMSYN066AAXX  04151 57633 41465 80201 10203 20188 40093 52013 72160 887//;
0207576330999992000060418004+28830+108770FM-12+066599999V0209999C000010042019N0150001N1+01991+01821100721ADDAA106005191AY191061AY261061GF108991081091004501999999KA1999M+02481MA1999999093251MD1710201+0201MW1251REMSYN094AAXX  04181 57633 11465 80000 10199 20182 39325 40072 57020 60051 72596 889// 333 00255 10248;
0159576330999992000060421004+28830+108770FM-12+066599999V0209999C000010075019N0120001N1+01961+01851100841ADDAA124084691AY181031GF108991081051008001999999MD1210111+0301MW1001REMSYN082AAXX  04211 57633 41562 80000 10196 20185 40084 52011 70080 885// 333 00354 70846;
0194576330999992000060500004+28830+108770FM-12+066599999V0209999C000010042019N0120001N1+01961+01821100851ADDAA106000591AY181061AY261061GF108991081071004501999999MA1999999093361MD1410001+0001MW1601REMSYN094AAXX  05001 57633 11462 80000 10196 20182 39336 40085 54000 69941 76086 887// 333 00051 70349;
0132576330999992000060503004+28830+108770FM-12+066599999V0209999C000010042019N0150001N1+01991+01721100811ADDAY161031GF108991081051004501999999MD1710041+9999MW1601REMSYN066AAXX  05031 57633 41465 80000 10199 20172 40081 57004 76060 885//;
0199576330999992000060506004+28830+108770FM-12+066599999V0203601N002010042019N0150001N1+02021+01831100621ADDAA106001091AY161061GF108991081071004501999999KA1999N+01941MA1999999093151MD1710171-0301MW1601REMSYN094AAXX  05061 57633 11465 83602 10202 20183 39315 40062 57017 60011 76060 887// 333 05351 20194;
0142576330999992000060509004+28830+108770FM-12+066599999V0209999C000010042019N0120001N1+01971+01811100581ADDAY161031GF108991081071004501999999MD1710051+0021MW1211REMSYN076AAXX  05091 57633 41462 80000 10197 20181 40058 57005 72160 887// 333 05252;
0180576330999992000060512004+28830+108770FM-12+066599999V0200201N001010042019N0120001N1+01991+01801100561ADDAA106000191AY161061GF108991081071004501999999MA1999999093081MD1710021+0021MW1601REMSYN088AAXX  05121 57633 11462 80201 10199 20180 39308 40056 57002 69921 76060 887// 333 05251;
0140576330999992000060515004+28830+108770FM-12+066599999V0203201N001010042019N0120001N1+01951+01811100691ADDAY161031AY261031GF108991081071004501999999MD1210121+9999MW1601REMSYN066AAXX  05151 57633 41462 83201 10195 20181 40069 52012 76066 887//;
0207576330999992000060518004+28830+108770FM-12+066599999V0209999C000010042019N0150001N1+01911+01831100611ADDAA106018091AY191061AY261061GF108991081091004501999999KA1999M+02071MA1999999093131MD1710071-0101MW1911REMSYN094AAXX  05181 57633 11465 80000 10191 20183 39313 40061 57007 60181 79196 889// 333 05151 10207;
0159576330999992000060521004+28830+108770FM-12+066599999V0209999C000010042019N0100001N1+01891+01831100561ADDAA124020191AY181031GF108991081051004501999999MD1710061-0301MW1801REMSYN082AAXX  05211 57633 41460 80000 10189 20183 40056 57006 78080 885// 333 05351 70200;
0194576330999992000060600004+28830+108770FM-12+066599999V0209999C000010042019N0150001N1+01901+01811100641ADDAA106006191AY181061AY261061GF108991081071004501999999MA1999999093151MD1210081-0201MW1601REMSYN094AAXX  06001 57633 11465 80000 10190 20181 39315 40064 52008 60061 76086 887// 333 05251 70246;
0140576330999992000060603004+28830+108770FM-12+066599999V0209999C000010042019N0080001N1+01971+01831100711ADDAY161031AY261031GF108991081071004501999999MD1210071+9999MW1601REMSYN066AAXX  06031 57633 41458 80000 10197 20183 40071 52007 76066 887//;
0207576330999992000060606004+28830+108770FM-12+066599999V0209999C000010042019N0080001N1+01991+01881100671ADDAA106007991AY161061AY261061GF108991071071004501021999KA1999N+01831MA1999999093181MD1710041+0001MW1601REMSYN094AAXX  06061 57633 11458 80000 10199 20188 39318 40067 57004 60081 76066 8772/ 333 00000 20183;
0142576330999992000060609004+28830+108770FM-12+066599999V0209999C000010042019N0100001N1+02121+01841100571ADDAY161031GF108991061071004501021999MD1710081+0001MW1001REMSYN076AAXX  06091 57633 41460 80000 10212 20184 40057 57008 70060 8672/ 333 00002;
0180576330999992000060612004+28830+108770FM-12+066599999V0203401N001010360019N0100001N1+02021+01831100701ADDAA106000391AY161061GF107991021071004501071999MA1999999093211MD1210111+0011MW1211REMSYN088AAXX  06121 57633 11460 73401 10202 20183 39321 40070 52011 69931 72160 8277/ 333 00100;
0112576330999992000060615004+28830+108770FM-12+066599999V0209999C000010150019N0120001N1+02001+01881100831ADDGF108991081051017501999999MD1210131+9999REMSYN060AAXX  06151 57633 42762 80000 10200 20188 40083 52013 885//;
0173576330999992000060618004+28830+108770FM-12+066599999V0209999C000010150019N0120001N1+01941+01881100741ADDAA199000021GF108991081051017501999999KA1999M+02141MA1999999093251MD1710091+0101REMSYN082AAXX  06181 57633 32762 80000 10194 20188 39325 40074 57009 885// 333 00100 10214;
0151576330999992000060621004+28830+108770FM-12+066599999V0209999C000010150019N0080001N1+01931+01901100641ADDAA124013291GF108991081051017501999999MD1710081+0101MW1101REMSYN082AAXX  06211 57633 41758 80000 10193 20190 40064 57008 71000 885// 333 00100 70132;
0186576330999992000060700004+28830+108770FM-12+066599999V0209999C000010042019N0090001N1+01981+01921100671ADDAA106000791AY161061GF108991081071004501999999MA1999999093191MD1210021+0001MW1101REMSYN094AAXX  07001 57633 11459 80000 10198 20192 39319 40067 52002 69901 71060 887// 333 00001 70082;
0112576330999992000060703004+28830+108770FM-12+066599999V0209999C000019999999N0150001N1+02191+01921100691ADDGF108991081001999999071999MD1210041+9999REMSYN060AAXX  07031 57633 42965 80000 10219 20192 40069 52004 8807/;
0192576330999992000060706004+28830+108770FM-12+066599999V0209999C000010360019N0150001N1+02281+01981100611ADDAA199000091GF108991021011008001071999KA1999N+01901MA1999999093161MD1710071+0001REMSYN082AAXX  07061 57633 32565 80000 10228 20198 39316 40061 57007 8217/ 333 00003 20190;EQDQ01  00002PRCP99
0122576330999992000060709004+28830+108770FM-12+066599999V0201601N002010120019N0170001N1+02351+02011100471ADDGF107991051041012501071999MD1710121+0011REMSYN070AAXX  07091 57633 42667 71602 10235 20201 40047 57012 8547/ 333 05102;
0173576330999992000060712004+28830+108770FM-12+066599999V0209999C000010360019N0170001N1+02231+02021100531ADDAA199000091GF107991031041012501041999MA1999999093091MD1210051+0011REMSYN076AAXX  07121 57633 32667 70000 10223 20202 39309 40053 52005 8344/ 333 05102;EQDQ01  00002PRCP99
0112576330999992000060715004+28830+108770FM-12+066599999V0209999C000019999999N0150001N1+02161+02041100661ADDGF108991081001999999071999MD1210131+9999REMSYN060AAXX  07151 57633 42965 80000 10216 20204 40066 52013 8807/;
0192576330999992000060718004+28830+108770FM-12+066599999V0209999C000019999999N0100001N1+02001+01951100501ADDAA199000091GF106991061001999999041001KA1999M+02391MA1999999093071MD1710151-0201REMSYN082AAXX  07181 57633 32960 60000 10200 20195 39307 40050 57015 86040 333 05201 10239;EQDQ01  00002PRCP99
0151576330999992000060721004+28830+108770FM-12+066599999V0209999C000019999999N0050001N1+01951+01931100481ADDAA124000791GF108991081001999999071999MD1710021-0101MW1101REMSYN082AAXX  07211 57633 41950 80000 10195 20193 40048 57002 71000 8807/ 333 05100 79999;
0193576330999992000060800004+28830+108770FM-12+066599999V0209999C000019999999N0020001N1+02041+01991100551ADDAA199000091AY141061GF107991071001999999041999MA1999999093111MD1210061+0011MW1101REMSYN082AAXX  08001 57633 31920 70000 10204 20199 39311 40055 52006 71040 8704/ 333 05101;EQDQ01  00002PRCP99
0199576330999992000060806004+28830+108770FM-12+066599999V0209999C000010042019N0120001N1+02361+02191100531ADDAA106000591AY161061GF108991081071004501999999KA1999N+01921MA1999999093111MD1710021-0101MW1601REMSYN094AAXX  08061 57633 11462 80000 10236 20219 39311 40053 57002 69961 76060 887// 333 05101 20192;
0142576330999992000060809004+28830+108770FM-12+066599999V0200401N003010042019N0120001N1+02061+01911100721ADDAY161031GF108991081071004501999999MD1210131+0021MW1601REMSYN076AAXX  08091 57633 41462 80403 10206 20191 40072 52013 76060 887// 333 00253;
0180576330999992000060812004+28830+108770FM-12+066599999V0209999C000010042019N0250001N1+01901+01771100801ADDAA106000891AY161061GF108991081051004501999999MA1999999093301MD1210061+0021MW1211REMSYN088AAXX  08121 57633 11475 80000 10190 20177 39330 40080 52006 69981 72160 885// 333 00253;
0112576330999992000060815004+28830+108770FM-12+066599999V0209999C000019999999N0150001N1+01811+01701100781ADDGF106991061001999999041001MD1210031+9999REMSYN060AAXX  08151 57633 42965 60000 10181 20170 40078 52003 86040;
0173576330999992000060818004+28830+108770FM-12+066599999V0209999C000019999999N0120001N1+01721+01661100721ADDAA199000021GF105991051001999999041001KA1999M+02551MA1999999093251MD1710081+0201REMSYN082AAXX  08181 57633 32962 50000 10172 20166 39325 40072 57008 85040 333 00253 10255;
0151576330999992000060821004+28830+108770FM-12+066599999V0209999C000010150019N0080001N1+01701+01671100791ADDAA124001591GF108991081051017501999999MD1210021+0201MW1101REMSYN082AAXX  08211 57633 41758 80000 10170 20167 40079 52002 71000 885// 333 00253 70014;
0172576330999992000060900004+28830+108770FM-12+066599999V0209999C000019999999N0070001N1+01801+01701100771ADDAA124001591GF107991071001999999041999MA1999999093251MD1710021+0101MW1101REMSYN088AAXX  09001 57633 31957 70000 10180 20170 39325 40077 57002 71000 8704/ 333 00152 70014;
0112576330999992000060903004+28830+108770FM-12+066599999V0209999C000019999999N0300001N1+02261+01711100661ADDGF108991081001999999071999MD1710061+9999REMSYN060AAXX  09031 57633 42980 80000 10226 20171 40066 57006 8807/;
0192576330999992000060906004+28830+108770FM-12+066599999V0202501N001010360019N0300001N1+02631+01481100441ADDAA199000091GF107991011011008001041999KA1999N+01661MA1999999093021MD1710171-0101REMSYN082AAXX  09061 57633 32580 72501 10263 20148 39302 40044 57017 8114/ 333 05103 20166;EQDQ01  00002PRCP99
0122576330999992000060909004+28830+108770FM-12+066599999V0200201N001019999999N0300001N1+02351+01731100461ADDGF108991081001999999071999MD1710021+0021REMSYN070AAXX  09091 57633 42980 80201 10235 20173 40046 57002 8807/ 333 05203;
0180576330999992000060912004+28830+108770FM-12+066599999V0200401N001019999999N0170001N1+02081+01551100611ADDAA106000791AY161061GF108991081001999999071999MA1999999093121MD1210121+0021MW1001REMSYN088AAXX  09121 57633 11967 80401 10208 20155 39312 40061 52012 69901 70060 8807/ 333 05202;
0112576330999992000060915004+28830+108770FM-12+066599999V0209999C000019999999N0150001N1+02001+01731100651ADDGF108991081001999999071999MD1210081+9999REMSYN060AAXX  09151 57633 42965 80000 10200 20173 40065 52008 8807/;
0192576330999992000060918004+28830+108770FM-12+066599999V0203601N002019999999N0120001N1+02071+01661100521ADDAA199000091GF108991081001999999071999KA1999M+02671MA1999999093141MD1710061-0101REMSYN082AAXX  09181 57633 32962 83602 10207 20166 39314 40052 57006 8807/ 333 05104 10267;EQDQ01  00002PRCP99
0139576330999992000060921004+28830+108770FM-12+066599999V0209999C000019999999N0120001N1+02101+01641100511ADDAA124000791GF108991081001999999071999MD1710041-0201REMSYN076AAXX  09211 57633 42962 80000 10210 20164 40051 57004 8807/ 333 05204 79999;
0186576330999992000061000004+28830+108770FM-12+066599999V0200401N002010360019N0150001N1+02021+01231100801ADDAA106000791AY161061GF108991031071008001071999MA1999999093321MD1210221+0101MW1601REMSYN094AAXX  10001 57633 11565 80402 10202 20123 39332 40080 52022 69901 76060 8377/ 333 00102 79999;
0140576330999992000061003004+28830+108770FM-12+066599999V0203201N001010360019N0100001N1+01701+01471101031ADDAY161031AY261031GF108991021071004501021999MD1210171+9999MW1601REMSYN066AAXX  10031 57633 41460 83201 10170 20147 40103 52017 76066 8272/;
0207576330999992000061006004+28830+108770FM-12+066599999V0209999C000010042019N0100001N1+01641+01561101051ADDAA106006191AY161061AY261061GF108991071071004501021999KA1999N+01601MA1999999093511MD1210021+0501MW1601REMSYN094AAXX  10061 57633 11460 80000 10164 20156 39351 40105 52002 60061 76066 8772/ 333 00560 20160;
0150576330999992000061009004+28830+108770FM-12+066599999V0203401N002010042019N0120001N1+01741+01511100931ADDAY161031AY261031GF108991071071004501021999MD1710101+0041MW1601REMSYN076AAXX  10091 57633 41462 83402 10174 20151 40093 57010 76066 8772/ 333 00456;
0180576330999992000061012004+28830+108770FM-12+066599999V0203601N001010042019N0150001N1+01721+01431101101ADDAA106006191AY161061GF108991061071004501021999MA1999999093561MD1210151+0041MW1601REMSYN088AAXX  10121 57633 11465 83601 10172 20143 39356 40110 52015 60061 76060 8672/ 333 00454;
0132576330999992000061015004+28830+108770FM-12+066599999V0209999C000010042019N0150001N1+01651+01481101251ADDAY161031GF108991051071004501021999MD1210091+9999MW1001REMSYN066AAXX  10151 57633 41465 80000 10165 20148 40125 52009 70060 8572/;
0199576330999992000061018004+28830+108770FM-12+066599999V0209999C000010042019N0120001N1+01611+01481101091ADDAA106000191AY161061GF108991061071004501021999KA1999M+02121MA1999999093491MD1710161+0401MW1001REMSYN094AAXX  10181 57633 11462 80000 10161 20148 39349 40109 57016 69921 70060 8672/ 333 00455 10212;
0159576330999992000061021004+28830+108770FM-12+066599999V0209999C000010042019N0100001N1+01601+01521100991ADDAA124011991AY161031GF108991061071004501021999MD1710081+0301MW1001REMSYN082AAXX  10211 57633 41460 80000 10160 20152 40099 57008 70060 8672/ 333 00355 70120;
0186576330999992000061100004+28830+108770FM-12+066599999V0209999C000010360019N0120001N1+01681+01561101071ADDAA106000191AY161061GF108991021071004501021999MA1999999093491MD1210081+0201MW1001REMSYN094AAXX  11001 57633 11462 80000 10168 20156 39349 40107 52008 69911 70060 8272/ 333 00253 70120;
0112576330999992000061103004+28830+108770FM-12+066599999V0209999C000019999999N0300001N1+01991+01551101091ADDGF108991081001999999071999MD1210051+9999REMSYN060AAXX  11031 57633 42980 80000 10199 20155 40109 52005 8807/;
0192576330999992000061106004+28830+108770FM-12+066599999V0203601N002019999999N0300001N1+02171+01331100951ADDAA199000091GF108991081001999999071999KA1999N+01581MA1999999093421MD1710121-0101REMSYN082AAXX  11061 57633 32980 83602 10217 20133 39342 40095 57012 8807/ 333 05105 20158;EQDQ01  00002PRCP99
0142576330999992000061109004+28830+108770FM-12+066599999V0203601N001010360019N0200001N1+02081+01541100941ADDAY161031GF108991021071004501071999MD1710021+0001MW1601REMSYN076AAXX  11091 57633 41470 83601 10208 20154 40094 57002 76060 8277/ 333 00003;
0180576330999992000061112004+28830+108770FM-12+066599999V0209999C000019999999N0120001N1+01891+01621101101ADDAA106000191AY161061GF108991081001999999071999MA1999999093541MD1210141+0001MW1601REMSYN088AAXX  11121 57633 11962 80000 10189 20162 39354 40110 52014 69911 76060 8807/ 333 00002;
0132576330999992000061115004+28830+108770FM-12+066599999V0209999C000019999999N0150001N1+01751+01601101181ADDAY161031GF108991081001999999021999MD1210091+9999MW1001REMSYN066AAXX  11151 57633 41965 80000 10175 20160 40118 52009 70060 8802/;
0199576330999992000061118004+28830+108770FM-12+066599999V0209999C000010360019N0120001N1+01691+01591101031ADDAA106000191AY161061GF108991011071004501021999KA1999M+02261MA1999999093511MD1710121+0001MW1601REMSYN094AAXX  11181 57633 11462 80000 10169 20159 39351 40103 57012 69911 76060 8172/ 333 00001 10226;
0159576330999992000061121004+28830+108770FM-12+066599999V0209999C000019999999N0120001N1+01641+01571100991ADDAA124000391AY161031GF108991081001999999071999MD1710061+0001MW1001REMSYN082AAXX  11211 57633 41962 80000 10164 20157 40099 57006 70060 8807/ 333 00000 70002;
0186576330999992000061200004+28830+108770FM-12+066599999V0209999C000010360019N0120001N1+01701+01601101171ADDAA106000791AY161061GF108991011061004501071999MA1999999093601MD1210151+0101MW1001REMSYN094AAXX  12001 57633 11462 80000 10170 20160 39360 40117 52015 69901 70060 8167/ 333 00100 70002;
0132576330999992000061203004+28830+108770FM-12+066599999V0209999C000019999999N0120001N1+01901+01591101271ADDAY161031GF108991081001999999071999MD1210101+9999MW1601REMSYN066AAXX  12031 57633 41962 80000 10190 20159 40127 52010 76060 8807/;
0199576330999992000061206004+28830+108770FM-12+066599999V0201401N004010360019N0170001N1+02161+01771101141ADDAA106000791AY161061GF107991021041008001011999KA1999N+01611MA1999999093611MD1710091+0201MW1001REMSYN094AAXX  12061 57633 11567 71404 10216 20177 39361 40114 57009 69901 70060 8241/ 333 00200 20161;
0122576330999992000061209004+28830+108770FM-12+066599999V0201401N002010360019N0150001N1+02101+01691101091ADDGF108991011011008001071999MD1710061+0021REMSYN070AAXX  12091 57633 42565 81402 10210 20169 40109 57006 8117/ 333 00200;
0154576330999992000061212004+28830+108770FM-12+066599999V0201401N001019999999N0120001N1+01951+01701101161ADDAA199000021GF108991081001999999071999MA1999999093601MD1210051+0011REMSYN076AAXX  12121 57633 32962 81401 10195 20170 39360 40116 52005 8807/ 333 00101;
0112576330999992000061215004+28830+108770FM-12+066599999V0209999C000019999999N0120001N1+01791+01681101341ADDGF107991071001999999041999MD1210171+9999REMSYN060AAXX  12151 57633 42962 70000 10179 20168 40134 52017 8704/;
0192576330999992000061218004+28830+108770FM-12+066599999V0209999C000019999999N0100001N1+01701+01651101241ADDAA199000091GF108991081001999999071999KA1999M+02191MA1999999093701MD1710071+0201REMSYN082AAXX  12181 57633 32960 80000 10170 20165 39370 40124 57007 8807/ 333 00200 10219;EQDQ01  00002PRCP99
0151576330999992000061221004+28830+108770FM-12+066599999V0209999C000019999999N0080001N1+01721+01671101201ADDAA124000791GF108991081001999999071999MD1710041+0201MW1101REMSYN082AAXX  12211 57633 41958 80000 10172 20167 40120 57004 71000 8807/ 333 00201 79999;
0160576330999992000061300004+28830+108770FM-12+066599999V0209999C000010360019N0100001N1+01771+01641101331ADDAA124000791GF108991011061004501071999MA1999999093771MD1210111+0201REMSYN082AAXX  13001 57633 32460 80000 10177 20164 39377 40133 52011 8167/ 333 00201 79999;
0112576330999992000061303004+28830+108770FM-12+066599999V0209999C000019999999N0120001N1+01911+01691101411ADDGF108991081001999999071999MD1210071+9999REMSYN060AAXX  13031 57633 42962 80000 10191 20169 40141 52007 8807/;
0192576330999992000061306004+28830+108770FM-12+066599999V0209999C000019999999N0150001N1+02141+01651101251ADDAA199000091GF108991081001999999071999KA1999N+01671MA1999999093711MD1710131+0101REMSYN082AAXX  13061 57633 32965 80000 10214 20165 39371 40125 57013 8807/ 333 00100 20167;EQDQ01  00002PRCP99
0122576330999992000061309004+28830+108770FM-12+066599999V0203401N001019999999N0150001N1+02321+01441101011ADDGF107991071001999999041001MD1710201+0001REMSYN070AAXX  13091 57633 42965 73401 10232 20144 40101 57020 87040 333 00002;
0173576330999992000061312004+28830+108770FM-12+066599999V0209999C000019999999N0150001N1+02051+01631101081ADDAA199000091GF107991071001999999031999MA1999999093551MD1210041+0011REMSYN076AAXX  13121 57633 32965 70000 10205 20163 39355 40108 52004 8703/ 333 05101;EQDQ01  00002PRCP99
0112576330999992000061315004+28830+108770FM-12+066599999V0209999C000019999999N0120001N1+01771+01621101271ADDGF107991071001999999031999MD1210161+9999REMSYN060AAXX  13151 57633 42962 70000 10177 20162 40127 52016 8703/;
0204576330999992000061318004+28820+108770FM-12+066599999V0209999C000019999999N0090001N1+01641+01561101121ADDAA199000091GF106991061001999999041001KA1999M+02421MA1999999093581MD1710131-0101MW1101REMSYN088AAXX  13181 57633 31959 60000 10164 20156 39358 40112 57013 71000 86040 333 05151 10242;EQDQ01  00002PRCP99
0134576330999992000061321004+28820+108770FM-12+066599999V0209999C000019999999N0060001N1+01591+01541101041ADDGF107991071001999999041999MD1710061+0011MW1101REMSYN076AAXX  13211 57633 41956 70000 10159 20154 40104 57006 71000 8704/ 333 05151;
0185576330999992000061400004+28820+108770FM-12+066599999V0209999C000019999999N0050001N1+01641+01571101141ADDAA199000091GF107991071001999999041999MA1999999093591MD1210071+0021MW1101REMSYN082AAXX  14001 57633 31950 70000 10164 20157 39359 40114 52007 71000 8704/ 333 05251;EQDQ01  00002PRCP99
0112576330999992000061403004+28820+108770FM-12+066599999V0201401N003019999999N0150001N1+02171+01681101101ADDGF107991071001999999041999MD1710011+9999REMSYN060AAXX  14031 57633 42965 71403 10217 20168 40110 57001 8704/;
0192576330999992000061406004+28820+108770FM-12+066599999V0202501N002010360019N0170001N1+02251+01651100951ADDAA199000091GF108991011011008001071999KA1999N+01541MA1999999093441MD1710141-0301REMSYN082AAXX  14061 57633 32567 82502 10225 20165 39344 40095 57014 8117/ 333 05301 20154;EQDQ01  00002PRCP99
0122576330999992000061409004+28820+108770FM-12+066599999V0202501N001010360019N0150001N1+02411+01511100711ADDGF108991011011008001071999MD1710211+0031REMSYN070AAXX  14091 57633 42565 82501 10241 20151 40071 57021 8117/ 333 05301;
0173576330999992000061412004+28820+108770FM-12+066599999V0201401N002010360019N0120001N1+02151+01731100801ADDAA199000091GF107991011011008001041999MA1999999093291MD1210061+0031REMSYN076AAXX  14121 57633 32562 71402 10215 20173 39329 40080 52006 8114/ 333 05301;EQDQ01  00002PRCP99
0112576330999992000061415004+28820+108770FM-12+066599999V0209999C000019999999N0120001N1+01851+01691100851ADDGF107991071001999999041999MD1210071+9999REMSYN060AAXX  14151 57633 42962 70000 10185 20169 40085 52007 8704/;
0192576330999992000061418004+28820+108770FM-12+066599999V0209999C000012200019N0100001N1+01731+01651100771ADDAA199000091GF102991021001999999041001KA1999M+02491MA1999999093281MD1710081-0301REMSYN082AAXX  14181 57633 32960 20000 10173 20165 39328 40077 57008 82040 333 05301 10249;EQDQ01  00002PRCP99
0134576330999992000061421004+28820+108770FM-12+066599999V0209999C000019999999N0070001N1+01691+01621100721ADDGF107991071001999999031999MD1710031+0031MW1101REMSYN076AAXX  14211 57633 41957 70000 10169 20162 40072 57003 71000 8703/ 333 05301;
0203576330999992000061500004+28820+108770FM-12+066599999V0209999C000010006019N0009001N1+01711+01651100771ADDAA199000091AY141061GA1091+999999999GF109991091999999999999999MA1999999093271MD1210021+0031MW1431REMSYN076AAXX  15001 57633 31/09 90000 10171 20165 39327 40077 52002 74340 333 05301;EQDQ01  00002PRCP99
0112576330999992000061503004+28820+108770FM-12+066599999V0201601N001012200019N0150001N1+02441+01621100621ADDGF101991011011008001001001MD1710091+9999REMSYN060AAXX  15031 57633 42565 11601 10244 20162 40062 57009 81100;
0192576330999992000061506004+28820+108770FM-12+066599999V0209999C000012200019N0150001N1+02731+01581100411ADDAA199000091GF103991031011008001001001KA1999N+01621MA1999999093011MD1710171-0401REMSYN082AAXX  15061 57633 32565 30000 10273 20158 39301 40041 57017 83100 333 05405 20162;EQDQ01  00002PRCP99
0122576330999992000061509004+28820+108770FM-12+066599999V0202201N001012200019N0180001N1+02861+01581100231ADDGF101991011011008001001001MD1710161+0041REMSYN070AAXX  15091 57633 42568 12201 10286 20158 40023 57016 81100 333 05405;
0183576330999992000061512004+28820+108770FM-12+066599999V0209999C000012200019N0180001N1+02401+01711100381ADDAA199000091GA1001+999999999GF100991001001999999001001MA1999999092941MD1210091+0041REMSYN070AAXX  15121 57633 32968 00000 10240 20171 39294 40038 52009 333 05403;EQDQ01  00002PRCP99
0122576330999992000061515004+28820+108770FM-12+066599999V0209999C000012200019N0150001N1+01921+01711100631ADDGA1001+999999999GF100991001001999999001001MD1210261+9999REMSYN054AAXX  15151 57633 42965 00000 10192 20171 40063 52026;
0202576330999992000061518004+28820+108770FM-12+066599999V0209999C000012200019N0100001N1+01731+01651100601ADDAA199000091GA1001+999999999GF100991001001999999001001KA1999M+02911MA1999999093181MD1710021-0101REMSYN076AAXX  15181 57633 32960 00000 10173 20165 39318 40060 57002 333 05100 10291;EQDQ01  00002PRCP99
0132576330999992000061521004+28820+108770FM-12+066599999V0209999C000012200019N0100001N1+01621+01541100661ADDGA1001+999999999GF100991001001999999001001MD1210061+0001REMSYN064AAXX  15211 57633 42960 00000 10162 20154 40066 52006 333 00051;
0195576330999992000061600004+28820+108770FM-12+066599999V0209999C000012200019N0080001N1+01831+01601100821ADDAA199000091GA1001+999999999GF100991001001999999001001MA1999999093361MD1210121+0011MW1101REMSYN076AAXX  16001 57633 31958 00000 10183 20160 39336 40082 52012 71000 333 00101;EQDQ01  00002PRCP99
0112576330999992000061603004+28820+108770FM-12+066599999V0201401N002012200019N0170001N1+02711+01831100681ADDGF101991011011008001001001MD1710081+9999REMSYN060AAXX  16031 57633 42567 11402 10271 20183 40068 57008 81100;
0192576330999992000061606004+28820+108770FM-12+066599999V0201401N003012200019N0170001N1+03011+01621100571ADDAA199000091GF103991031021008001001021KA1999N+01551MA1999999093191MD1710091+0201REMSYN082AAXX  16061 57633 32567 31403 10301 20162 39319 40057 57009 83202 333 00203 20155;EQDQ01  00002PRCP99
0122576330999992000061609004+28820+108770FM-12+066599999V0201401N001012200019N0170001N1+03041+01731100391ADDGF103991021011008001041021MD1710181+0021REMSYN070AAXX  16091 57633 42567 31401 10304 20173 40039 57018 82142 333 00202;
0173576330999992000061612004+28820+108770FM-12+066599999V0209999C000012200019N0170001N1+02561+01911100561ADDAA199000091GF101991001001999999001021MA1999999093141MD1210131+0021REMSYN076AAXX  16121 57633 32967 10000 10256 20191 39314 40056 52013 80002 333 00202;EQDQ01  00002PRCP99
0112576330999992000061615004+28820+108770FM-12+066599999V0209999C000012200019N0150001N1+02171+01861100851ADDGF101991011011008001001001MD1210321+9999REMSYN060AAXX  16151 57633 42565 10000 10217 20186 40085 52032 81100;
0192576330999992000061618004+28820+108770FM-12+066599999V0209999C000019999999N0120001N1+01981+01841100831ADDAA199000091GF106991061001999999041001KA1999M+03151MA1999999093461MD1410001+0301REMSYN082AAXX  16181 57633 32962 60000 10198 20184 39346 40083 54000 86040 333 00303 10315;EQDQ01  00002PRCP99
0122576330999992000061621004+28820+108770FM-12+066599999V0209999C000019999999N0120001N1+01941+01831100831ADDGF106991061001999999031001MD1410001+0021REMSYN070AAXX  16211 57633 42962 60000 10194 20183 40083 54000 86030 333 00203;
0173576330999992000061700004+28820+108770FM-12+066599999V0209999C000010360019N0100001N1+02041+01891101001ADDAA199000091GF106991011011008001041001MA1999999093571MD1210111+0021REMSYN076AAXX  17001 57633 32560 60000 10204 20189 39357 40100 52011 81140 333 00202;EQDQ01  00002PRCP99
0112576330999992000061703004+28820+108770FM-12+066599999V0202001N001010360019N0120001N1+02541+01971101001ADDGF107991021021008001041999MD1210011+9999REMSYN060AAXX  17031 57633 42562 72001 10254 20197 40100 52001 8224/;
0192576330999992000061706004+28820+108770FM-12+066599999V0201401N002010075019N0150001N1+02801+01871100911ADDAA199000091GF106991061021008001001001KA1999N+01891MA1999999093511MD1710071+0301REMSYN082AAXX  17061 57633 32565 61402 10280 20187 39351 40091 57007 86200 333 00352 20189;EQDQ01  00002PRCP99
0122576330999992000061709004+28820+108770FM-12+066599999V0201101N003012200019N0150001N1+02861+01671100791ADDGF102991011021008001001021MD1710111+0041REMSYN070AAXX  17091 57633 42565 21103 10286 20167 40079 57011 81202 333 00452;
0173576330999992000061712004+28820+108770FM-12+066599999V0209999C000012200019N0150001N1+02571+01751100861ADDAA199000091GF102991021001999999041021MA1999999093441MD1210041+0031REMSYN076AAXX  17121 57633 32965 20000 10257 20175 39344 40086 52004 82042 333 00300;EQDQ01  00002PRCP99
0122576330999992000061715004+28820+108770FM-12+066599999V0209999C000012200019N0150001N1+02121+01741101091ADDGA1001+999999999GF100991001001999999001001MD1210221+9999REMSYN054AAXX  17151 57633 42965 00000 10212 20174 40109 52022;
0202576330999992000061718004+28820+108770FM-12+066599999V0209999C000012200019N0150001N1+01931+01711101051ADDAA199000091GA1001+999999999GF100991001001999999001001KA1999M+02921MA1999999093631MD1710031+0201REMSYN076AAXX  17181 57633 32965 00000 10193 20171 39363 40105 57003 333 00251 10292;EQDQ01  00002PRCP99
0122576330999992000061721004+28820+108770FM-12+066599999V0209999C000019999999N0120001N1+01841+01741101021ADDGF107991071001999999041999MD1710031+0011REMSYN070AAXX  17211 57633 42962 70000 10184 20174 40102 57003 8704/ 333 00151;
0173576330999992000061800004+28820+108770FM-12+066599999V0209999C000010360019N0100001N1+01971+01781101141ADDAA199000091GF107991011011008001041999MA1999999093691MD1210091+0011REMSYN076AAXX  18001 57633 32560 70000 10197 20178 39369 40114 52009 8114/ 333 00151;EQDQ01  00002PRCP99
0112576330999992000061803004+28820+108770FM-12+066599999V0200701N001010075019N0120001N1+02591+01691101131ADDGF107991051011008001041021MD1210011+9999REMSYN060AAXX  18031 57633 42562 70701 10259 20169 40113 52001 85142;
0192576330999992000061806004+28820+108770FM-12+066599999V0201801N002010075019N0150001N1+02821+01661100951ADDAA199000091GF107991051021008001041999KA1999N+01801MA1999999093541MD1710161+0001REMSYN082AAXX  18061 57633 32565 71802 10282 20166 39354 40095 57016 8524/ 333 00000 20180;EQDQ01  00002PRCP99
0122576330999992000061809004+28820+108770FM-12+066599999V0201801N001010360019N0150001N1+02911+01641100721ADDGF106991021021008001041001MD1710211+0011REMSYN070AAXX  18091 57633 42565 61801 10291 20164 40072 57021 82240 333 05101;
0173576330999992000061812004+28820+108770FM-12+066599999V0209999C000019999999N0150001N1+02551+01821100791ADDAA199000091GF107991071001999999041999MA1999999093371MD1210041+0011REMSYN076AAXX  18121 57633 32965 70000 10255 20182 39337 40079 52004 8704/ 333 05100;EQDQ01  00002PRCP99
0124576330999992000061815004+28820+108770FM-12+066599999V0209999C000019999999N0120001N1+02321+01831100901ADDGF108991081001999999071999MD1210141+9999MW1211REMSYN066AAXX  18151 57633 41962 80000 10232 20183 40090 52014 72100 8807/;
0199576330999992000061818004+28820+108770FM-12+066599999V0209999C000019999999N0120001N1+02171+01851100821ADDAA106000791AY161061GF107991071001999999041999KA1999M+02951MA1999999093451MD1710061-0201MW1001REMSYN094AAXX  18181 57633 11962 70000 10217 20185 39345 40082 57006 69901 70060 8704/ 333 05202 10295;
0139576330999992000061821004+28820+108770FM-12+066599999V0201101N001019999999N0120001N1+01981+01821100811ADDAA124000791GF107991071001999999041999MD1710021-0201REMSYN076AAXX  18211 57633 42962 71101 10198 20182 40081 57002 8704/ 333 05201 79999;
0160576330999992000061900004+28820+108770FM-12+066599999V0209999C000019999999N0120001N1+02081+01851100891ADDAA124000791GF107991071001999999031999MA1999999093471MD1210041-0201REMSYN082AAXX  19001 57633 32962 70000 10208 20185 39347 40089 52004 8703/ 333 05201 79999;
0112576330999992000061903004+28820+108770FM-12+066599999V0203601N001010360019N0120001N1+02501+01761100841ADDGF108991011011008001021999MD1710021+9999REMSYN060AAXX  19031 57633 42562 83601 10250 20176 40084 57002 8112/;
0192576330999992000061906004+28820+108770FM-12+066599999V0202001N001019999999N0150001N1+02651+01611100731ADDAA199000091GF108991001001999999001071KA1999N+01951MA1999999093351MD1710101-0201REMSYN082AAXX  19061 57633 32965 82001 10265 20161 39335 40073 57010 80007 333 05252 20195;EQDQ01  00002PRCP99
0122576330999992000061909004+28820+108770FM-12+066599999V0201401N001010900019N0150001N1+02731+01751100521ADDGF106991011011008001001021MD1710211+0021REMSYN070AAXX  19091 57633 42565 61401 10273 20175 40052 57021 81102 333 05252;
0173576330999992000061912004+28820+108770FM-12+066599999V0209999C000012200019N0100001N1+02481+01871100611ADDAA199000091GF101991011011008001001001MA1999999093201MD1210061+0021REMSYN076AAXX  19121 57633 32560 10000 10248 20187 39320 40061 52006 81100 333 05251;EQDQ01  00002PRCP99
0112576330999992000061915004+28820+108770FM-12+066599999V0209999C000019999999N0100001N1+02111+01851100781ADDGF107991071001999999041999MD1210171+9999REMSYN060AAXX  19151 57633 42960 70000 10211 20185 40078 52017 8704/;
0192576330999992000061918004+28820+108770FM-12+066599999V0201401N001019999999N0120001N1+02001+01861100731ADDAA199000091GF108991081001999999011999KA1999M+02781MA1999999093331MD1710041-0101REMSYN082AAXX  19181 57633 32962 81401 10200 20186 39333 40073 57004 8801/ 333 05152 10278;EQDQ01  00002PRCP99
0122576330999992000061921004+28820+108770FM-12+066599999V0209999C000019999999N0100001N1+01891+01811100591ADDGF108991081001999999011999MD1710141+0021REMSYN070AAXX  19211 57633 42960 80000 10189 20181 40059 57014 8801/ 333 05251;
0173576330999992000062000004+28820+108770FM-12+066599999V0201401N001019999999N0120001N1+02041+01891100691ADDAA199000091GF108991081001999999071999MA1999999093271MD1210081+0021REMSYN076AAXX  20001 57633 32962 81401 10204 20189 39327 40069 52008 8807/ 333 05200;EQDQ01  00002PRCP99
0132576330999992000062003004+28820+108770FM-12+066599999V0200401N002010042019N0100001N1+02311+01851100741ADDAY161031GF108991051071004501021999MD1210041+9999MW1601REMSYN066AAXX  20031 57633 41460 80402 10231 20185 40074 52004 76060 8572/;
0199576330999992000062006004+28820+108770FM-12+066599999V0200401N001010042019N0100001N1+02291+01931100661ADDAA106000591AY161061GF107991071071004501021999KA1999N+01881MA1999999093221MD1710091-0101MW1601REMSYN094AAXX  20061 57633 11460 70401 10229 20193 39322 40066 57009 69961 76060 8772/ 333 05154 20188;
0150576330999992000062009004+28820+108770FM-12+066599999V0209999C000010042019N0080001N1+02071+01961100581ADDAY161031AY261031GF108991051071004501021999MD1710121+0001MW1611REMSYN076AAXX  20091 57633 41458 80000 10207 20196 40058 57012 76166 8572/ 333 00057;
0180576330999992000062012004+28820+108770FM-12+066599999V0209999C000010360019N0100001N1+02121+01941100531ADDAA106007991AY161061GF107991011011008001041001MA1999999093081MD1710021+0011MW1001REMSYN088AAXX  20121 57633 11560 70000 10212 20194 39308 40053 57002 60081 70060 81140 333 05154;
0112576330999992000062015004+28820+108770FM-12+066599999V0209999C000019999999N0120001N1+02061+01941100651ADDGF108991081001999999071999MD1210141+9999REMSYN060AAXX  20151 57633 42962 80000 10206 20194 40065 52014 8807/;
0173576330999992000062018004+28820+108770FM-12+066599999V0209999C000019999999N0100001N1+02041+01981100541ADDAA199000021GF108991081001999999071999KA1999M+02361MA1999999093111MD1710111-0201REMSYN082AAXX  20181 57633 32960 80000 10204 20198 39311 40054 57011 8807/ 333 05200 10236;
0159576330999992000062021004+28820+108770FM-12+066599999V0209999C000019999999N0070001N1+02201+01941100451ADDAA124008491AY161031GF108991081001999999071999MD1710111-0201MW1101REMSYN082AAXX  20211 57633 41957 80000 10220 20194 40045 57011 71060 8807/ 333 05201 70084;
0186576330999992000062100004+28820+108770FM-12+066599999V0209999C000010360019N0100001N1+02061+01941100481ADDAA106000791AY161061GF108991021061004501071999MA1999999093041MD1210041-0201MW1001REMSYN094AAXX  21001 57633 11460 80000 10206 20194 39304 40048 52004 69901 70060 8267/ 333 05200 70084;
0112576330999992000062103004+28820+108770FM-12+066599999V0201401N002010120019N0200001N1+02471+01901100451ADDGF107991071081008001999999MD1210011+9999REMSYN060AAXX  21031 57633 42570 71402 10247 20190 40045 52001 878//;
0192576330999992000062106004+28820+108770FM-12+066599999V0201401N001010120019N0300001N1+02711+01901100311ADDAA199000091GF107991071081008001999999KA1999N+01981MA1999999092951MD1710101-0301REMSYN082AAXX  21061 57633 32580 71401 10271 20190 39295 40031 57010 878// 333 05304 20198;EQDQ01  00002PRCP99
0122576330999992000062109004+28820+108770FM-12+066599999V0201601N003010120019N0300001N1+02761+01941100171ADDGF107991071081008001999999MD1710131+0031REMSYN070AAXX  21091 57633 42580 71603 10276 20194 40017 57013 878// 333 05307;
0173576330999992000062112004+28820+108770FM-12+066599999V0209999C000010360019N0200001N1+02511+02051100271ADDAA199000091GF107991011011008001041999MA1999999092891MD1210071+0021REMSYN076AAXX  21121 57633 32570 70000 10251 20205 39289 40027 52007 8114/ 333 05204;EQDQ01  00002PRCP99
0122576330999992000062115004+28820+108770FM-12+066599999V0209999C000012200019N0120001N1+02201+01991100371ADDGA1001+999999999GF100991001001999999001001MD1210101+9999REMSYN054AAXX  21151 57633 42962 00000 10220 20199 40037 52010;
0192576330999992000062118004+28820+108770FM-12+066599999V0209999C000019999999N0120001N1+02151+02031100281ADDAA199000091GF108991081001999999071999KA1999M+02791MA1999999092931MD1710061-0201REMSYN082AAXX  21181 57633 32962 80000 10215 20203 39293 40028 57006 8807/ 333 05201 10279;EQDQ01  00002PRCP99
0151576330999992000062121004+28820+108770FM-12+066599999V0209999C000010360019N0120001N1+02151+02061100171ADDAA124000191GF108991031091012501071999MD1710091-0201MW1801REMSYN082AAXX  21211 57633 41662 80000 10215 20206 40017 57009 78000 8397/ 333 05202 70001;
0194576330999992000062200004+28820+108770FM-12+066599999V0209999C000010042019N0100001N1+02181+02081100331ADDAA106000191AY181061AY261061GF108991081051004501999999MA1999999092961MD1210121-0101MW1001REMSYN094AAXX  22001 57633 11460 80000 10218 20208 39296 40033 52012 69911 70086 885// 333 05101 70001;
0132576330999992000062203004+28820+108770FM-12+066599999V0209999C000010360019N0120001N1+02451+02111100351ADDAY161031GF108991021011008001071999MD1210011+9999MW1001REMSYN066AAXX  22031 57633 41562 80000 10245 20211 40035 52001 70060 8217/;
0199576330999992000062206004+28820+108770FM-12+066599999V0201601N002010042019N0120001N1+02421+02141100291ADDAA106000391AY161061GF108991081071004501999999KA1999N+02121MA1999999092911MD1710061+0001MW1601REMSYN094AAXX  22061 57633 11462 81602 10242 20214 39291 40029 57006 69931 76060 887// 333 00053 20212;
0142576330999992000062209004+28820+108770FM-12+066599999V0209999C000012200019N0180001N1+02761+02311100001ADDAY161031GF102991021021008001001001MD1710231+0011MW1001REMSYN076AAXX  22091 57633 41568 20000 10276 20231 40000 57023 70060 82200 333 05100;
0180576330999992000062212004+28820+108770FM-12+066599999V0209999C000010150019N0170001N1+02521+02201100081ADDAA106002091AY161061GF106991051051017501001011MA1999999092731MD1210051+0021MW1001REMSYN088AAXX  22121 57633 11767 60000 10252 20220 39273 40008 52005 60021 70060 85501 333 05200;
0112576330999992000062215004+28820+108770FM-12+066599999V0209999C000010150019N0120001N1+02341+02241100201ADDGF108991081051017501999999MD1210121+9999REMSYN060AAXX  22151 57633 42762 80000 10234 20224 40020 52012 885//;
0173576330999992000062218004+28820+108770FM-12+066599999V0209999C000010150019N0100001N1+02321+02251100081ADDAA199000021GF108991081051017501999999KA1999M+02811MA1999999092731MD1710121-0201REMSYN082AAXX  22181 57633 32760 80000 10232 20225 39273 40008 57012 885// 333 05202 10281;
0139576330999992000062221004+28820+108770FM-12+066599999V0209999C000010150019N0100001N1+02261+02221100001ADDAA124001891GF108991081051017501999999MD1710041-0201REMSYN076AAXX  22211 57633 42760 80000 10226 20222 40000 57004 885// 333 05201 70018;
0178576330999992000062300004+28820+108770FM-12+066599999V0209999C000010150019N0060001N1+02301+02241100051ADDAA106000791GF108991081051017501999999MA1999999092721MD1210031-0201MW1601REMSYN094AAXX  23001 57633 11756 80000 10230 20224 39272 40005 52003 69901 76000 885// 333 05201 70018;
0140576330999992000062303004+28820+108770FM-12+066599999V0209999C000010042019N0090001N1+02321+02281100031ADDAY191031AY261031GF108991081071004501999999MD1710041+9999MW1801REMSYN066AAXX  23031 57633 41459 80000 10232 20228 40003 57004 78096 887//;
0207576330999992000062306004+28820+108770FM-12+066599999V0201401N002010120019N0150001N1+02691+02291099811ADDAA106023191AY191061AY281061GF108991081041012501999999KA1999N+02241MA1999999092521MD1710161-0401MW1601REMSYN094AAXX  23061 57633 11665 81402 10269 20229 39252 49981 57016 60231 76098 884// 333 05403 20224;
0150576330999992000062309004+28820+108770FM-12+066599999V0201801N001010042019N0100001N1+02231+02201099911ADDAY191031AY261031GF108991081091004501999999MD1210031+0011MW1951REMSYN076AAXX  23091 57633 41460 81801 10223 20220 49991 52003 79596 889// 333 05155;
0140576330999992000062315004+28820+108770FM-12+066599999V0209999C000010042019N0100001N1+02221+02181099981ADDAY161031AY261031GF108991061071004501021999MD1210081+9999MW1601REMSYN066AAXX  23151 57633 41460 80000 10222 20218 49998 52008 76066 8672/;
0207576330999992000062318004+28820+108770FM-12+066599999V0203601N001010042019N0100001N1+02211+02171099711ADDAA106023191AY161061AY261061GF108991071071004501021999KA1999M+02741MA1999999092411MD1710211-0301MW1601REMSYN094AAXX  23181 57633 11460 83601 10221 20217 39241 49971 57021 60231 76066 8772/ 333 05351 10274;
0167576330999992000062321004+28820+108770FM-12+066599999V0209999C000010042019N0080001N1+02181+02171099691ADDAA124128091AY161031AY261031GF108991081091004501999999MD1710081-0401MW1801REMSYN082AAXX  23211 57633 41458 80000 10218 20217 49969 57008 78066 889// 333 05451 71281;
0194576330999992000062400004+28820+108770FM-12+066599999V0209999C000010042019N0080001N1+02181+02151099751ADDAA106051191AY181061AY261061GF108991071071004501021999MA1999999092391MD1210061-0301MW1601REMSYN094AAXX  24001 57633 11458 80000 10218 20215 39239 49975 52006 60511 76086 8772/ 333 05351 71469;
0159576330999992000062403004+28820+108770FM-12+066599999V0209999C000010042019N0060001N1+02231+02221099801ADDAY161031AY261031GF108991999071004501021999MD1210051+9999MW1611REMSYN066AAXX  24031 57633 41456 80000 10223 20222 49980 52005 76166 8872/;EQDQ01+000082SCOTLC
0207576330999992000062406004+28820+108770FM-12+066599999V0209999C000010042019N0150001N1+02381+02241099671ADDAA106025991AY161061AY261061GF108991061071004501021999KA1999N+02151MA1999999092341MD1710101-0201MW1611REMSYN094AAXX  24061 57633 11465 80000 10238 20224 39234 49967 57010 60261 76166 8672/ 333 05253 20215;
0150576330999992000062409004+28820+108770FM-12+066599999V0209999C000010042019N0100001N1+02361+02291099591ADDAY161031AY261031GF108991071071004501021999MD1710081+0031MW1611REMSYN076AAXX  24091 57633 41460 80000 10236 20229 49959 57008 76166 8772/ 333 05301;
0207576330999992000062412004+28820+108770FM-12+066599999V0209999C000010042019N0100001N1+02301+02231099721ADDAA106017091AY161061AY261061GF108991999071004501021999MA1999999092371MD1210111+0021MW1601REMSYN088AAXX  24121 57633 11460 80000 10230 20223 39237 49972 52011 60171 76066 8872/ 333 05201;EQDQ01+000082SCOTLC
0132576330999992000062415004+28820+108770FM-12+066599999V0209999C000010042019N0100001N1+02231+02201099931ADDAY161031GF108991061071004501021999MD1210191+9999MW1001REMSYN066AAXX  24151 57633 41460 80000 10223 20220 49993 52019 70060 8672/;
0199576330999992000062418004+28820+108770FM-12+066599999V0209999C000010042019N0070001N1+02191+02181099831ADDAA106000591AY161061GF108991071071004501021999KA1999M+02431MA1999999092481MD1710081+0101MW1601REMSYN094AAXX  24181 57633 11457 80000 10219 20218 39248 49983 57008 69941 76060 8772/ 333 00100 10243;
0167576330999992000062421004+28820+108770FM-12+066599999V0209999C000010042019N0060001N1+02181+02171099841ADDAA124063291AY161031AY261031GF108991071071004501021999MD1210041+0201MW1601REMSYN082AAXX  24211 57633 41456 80000 10218 20217 49984 52004 76066 8772/ 333 00200 70632;
0194576330999992000062500004+28820+108770FM-12+066599999V0209999C000010042019N0100001N1+02191+02181099991ADDAA106003091AY161061AY261061GF108991071071004501021999MA1999999092621MD1210131+0201MW1211REMSYN094AAXX  25001 57633 11460 80000 10219 20218 39262 49999 52013 60031 72166 8772/ 333 00200 70459;
0132576330999992000062503004+28820+108770FM-12+066599999V0209999C000010042019N0100001N1+02281+02251100091ADDAY161031GF108991071071004501021999MD1210101+9999MW1601REMSYN066AAXX  25031 57633 41460 80000 10228 20225 40009 52010 76060 8772/;
0199576330999992000062506004+28820+108770FM-12+066599999V0209999C000010042019N0100001N1+02361+02271100051ADDAA106003091AY161061GF108991071071004501021999KA1999N+02151MA1999999092681MD1710041+0301MW1601REMSYN094AAXX  25061 57633 11460 80000 10236 20227 39268 40005 57004 60031 76060 8772/ 333 00300 20215;
0150576330999992000062509004+28820+108770FM-12+066599999V0200201N001010042019N0250001N1+02431+02261099961ADDAY161031AY261031GF108991071071004501021999MD1710071+0041MW1211REMSYN076AAXX  25091 57633 41475 80201 10243 20226 49996 57007 72166 8772/ 333 00401;
0180576330999992000062512004+28820+108770FM-12+066599999V0209999C000010075019N0150001N1+02351+02261100091ADDAA106004191AY161061GF108991061041008001071999MA1999999092721MD1210111+0041MW1001REMSYN088AAXX  25121 57633 11565 80000 10235 20226 39272 40009 52011 60041 70060 8647/ 333 00401;
0132576330999992000062515004+28820+108770FM-12+066599999V0209999C000010150019N0120001N1+02271+02231100231ADDAY161031GF107991071051017501999999MD1210131+9999MW1001REMSYN066AAXX  25151 57633 41762 70000 10227 20223 40023 52013 70060 875//;
0199576330999992000062518004+28820+108770FM-12+066599999V0209999C000010042019N0060001N1+02221+02211100181ADDAA106000791AY161061GF108991081051004501999999KA1999M+02481MA1999999092811MD1710041+0301MW1211REMSYN094AAXX  25181 57633 11456 80000 10222 20221 39281 40018 57004 69901 72160 885// 333 00300 10248;
0151576330999992000062521004+28820+108770FM-12+066599999V0209999C000010150019N0050001N1+02211+02201100191ADDAA124008191GF108991081051017501999999MD1210011+0301MW1601REMSYN082AAXX  25211 57633 41750 80000 10221 20220 40019 52001 76000 885// 333 00300 70082;
0186576330999992000062600004+28820+108770FM-12+066599999V0209999C000010042019N0050001N1+02261+02221100371ADDAA106000891AY161061GF108991081071004501999999MA1999999092991MD1210171+0401MW1601REMSYN094AAXX  26001 57633 11450 80000 10226 20222 39299 40037 52017 69981 76060 887// 333 00401 70075;
0132576330999992000062603004+28820+108770FM-12+066599999V0209999C000010360019N0300001N1+02581+02221100341ADDAY161031GF108991031011008001071999MD1410001+9999MW1001REMSYN066AAXX  26031 57633 41580 80000 10258 20222 40034 54000 70060 8317/;
0199576330999992000062606004+28820+108770FM-12+066599999V0209999C000010120019N0300001N1+02671+02181100251ADDAA106000591AY161061GF108991051041012501071999KA1999N+02171MA1999999092911MD1710081+0201MW1001REMSYN094AAXX  26061 57633 11680 80000 10267 20218 39291 40025 57008 69951 70060 8547/ 333 00203 20217;
0122576330999992000062609004+28820+108770FM-12+066599999V0209999C000010075019N0300001N1+02621+02311100141ADDGF108991061041008001071999MD1710111+0021REMSYN070AAXX  26091 57633 42580 80000 10262 20231 40014 57011 8647/ 333 00202;
0172576330999992000062612004+28820+108770FM-12+066599999V0209999C000010075019N0200001N1+02441+02251100311ADDAA106000891GF107991051041008001041999MA1999999092941MD1210141+0021MW1251REMSYN088AAXX  26121 57633 11570 70000 10244 20225 39294 40031 52014 69981 72500 8544/ 333 00201;
0112576330999992000062615004+28820+108770FM-12+066599999V0209999C000012200019N0100001N1+02271+02231100451ADDGF102991021001999999041001MD1210151+9999REMSYN060AAXX  26151 57633 42960 20000 10227 20223 40045 52015 82040;
0185576330999992000062618004+28820+108770FM-12+066599999V0209999C000019999999N0060001N1+02191+02181100431ADDAA199000021GF108991081001999999071999KA1999M+02731MA1999999093071MD1710021+0301MW1101REMSYN088AAXX  26181 57633 31956 80000 10219 20218 39307 40043 57002 71000 8807/ 333 00300 10273;
0151576330999992000062621004+28820+108770FM-12+066599999V0209999C000019999999N0030001N1+02201+02191100421ADDAA124002091GF108991081001999999071999MD1710011+0201MW1101REMSYN082AAXX  26211 57633 41930 80000 10220 20219 40042 57001 71000 8807/ 333 00200 70021;
0180576330999992000062700004+28820+108770FM-12+066599999V0209999C000010360019N0050001N1+02201+02171100561ADDAA124001391AY141061GF108991011061004501071999MA1999999093171MD1210011+0201MW1101REMSYN088AAXX  27001 57633 31450 80000 10220 20217 39317 40056 52001 71040 8167/ 333 00251 70013;
0112576330999992000062703004+28820+108770FM-12+066599999V0202201N001010120019N0300001N1+02711+02131100541ADDGF107991071081008001999999MD1210021+9999REMSYN060AAXX  27031 57633 42580 72201 10271 20213 40054 52002 878//;
0192576330999992000062706004+28820+108770FM-12+066599999V0201601N002010120019N0300001N1+02891+02071100411ADDAA199000091GF107991071081008001999999KA1999N+02141MA1999999093081MD1710111+0201REMSYN082AAXX  27061 57633 32580 71602 10289 20207 39308 40041 57011 878// 333 00202 20214;EQDQ01  00002PRCP99
0134576330999992000062709004+28820+108770FM-12+066599999V0201401N001010075019N0300001N1+02811+02221100321ADDGF107991071091008001999999MD1710091+0021MW1801REMSYN076AAXX  27091 57633 41580 71401 10281 20222 40032 57009 78000 879// 333 00202;
0180576330999992000062712004+28820+108770FM-12+066599999V0209999C000010360019N0300001N1+02601+02391100441ADDAA106000191AY181061GF107991021011008001041001MA1999999093071MD1210081+0011MW1001REMSYN088AAXX  27121 57633 11580 70000 10260 20239 39307 40044 52008 69911 70080 82140 333 00102;
0112576330999992000062715004+28820+108770FM-12+066599999V0209999C000012200019N0170001N1+02341+02251100601ADDGF102991021001999999041001MD1210181+9999REMSYN060AAXX  27151 57633 42967 20000 10234 20225 40060 52018 82040;
0173576330999992000062718004+28820+108770FM-12+066599999V0209999C000012200019N0100001N1+02201+02161100521ADDAA199000021GF103991031001999999041001KA1999M+02971MA1999999093181MD1710071+0101REMSYN082AAXX  27181 57633 32960 30000 10220 20216 39318 40052 57007 83040 333 00100 10297;
0151576330999992000062721004+28820+108770FM-12+066599999V0209999C000019999999N0070001N1+02161+02101100511ADDAA124000191GF106991061001999999041001MD1710021+0101MW1101REMSYN082AAXX  27211 57633 41957 60000 10216 20210 40051 57002 71000 86040 333 00100 70001;
0160576330999992000062800004+28820+108770FM-12+066599999V0209999C000010360019N0100001N1+02261+02171100581ADDAA124000191GF107991011061004501041001MA1999999093211MD1210051+0001REMSYN082AAXX  28001 57633 32460 70000 10226 20217 39321 40058 52005 81640 333 00001 70001;
0112576330999992000062803004+28820+108770FM-12+066599999V0209999C000010120019N0300001N1+02721+02081100531ADDGF108991081081008001999999MD1710021+9999REMSYN060AAXX  28031 57633 42580 80000 10272 20208 40053 57002 888//;
0192576330999992000062806004+28820+108770FM-12+066599999V0201601N003010120019N0300001N1+02961+02061100351ADDAA199000091GF107991071081008001999999KA1999N+02121MA1999999093031MD1710161-0101REMSYN082AAXX  28061 57633 32580 71603 10296 20206 39303 40035 57016 878// 333 05101 20212;EQDQ01  00002PRCP99
0122576330999992000062809004+28820+108770FM-12+066599999V0201601N002010120019N0300001N1+02971+02171100191ADDGF107991071081008001999999MD1710151+0011REMSYN070AAXX  28091 57633 42580 71602 10297 20217 40019 57015 878// 333 05102;
0173576330999992000062812004+28820+108770FM-12+066599999V0209999C000012200019N0250001N1+02711+02281100201ADDAA199000091GF102991021001999999041021MA1999999092871MD1710011+0021REMSYN076AAXX  28121 57633 32975 20000 10271 20228 39287 40020 57001 82042 333 05201;EQDQ01  00002PRCP99
0112576330999992000062815004+28820+108770FM-12+066599999V0209999C000010150019N0170001N1+02531+02351100311ADDGF107991071051017501999999MD1210141+9999REMSYN060AAXX  28151 57633 42767 70000 10253 20235 40031 52014 875//;
0199576330999992000062818004+28820+108770FM-12+066599999V0209999C000010075019N0120001N1+02451+02311100231ADDAA106000791AY181061GF107991071091008001999999KA1999M+03091MA1999999092951MD1710061-0201MW1131REMSYN094AAXX  28181 57633 11562 70000 10245 20231 39295 40023 57006 69901 71380 879// 333 05203 10309;
0167576330999992000062821004+28820+108770FM-12+066599999V0209999C000010075019N0120001N1+02421+02291100251ADDAA124000791AY191031AY281031GF108991081091008001999999MD1210021-0201MW1951REMSYN082AAXX  28211 57633 41562 80000 10242 20229 40025 52002 79598 889// 333 05203 79999;
0194576330999992000062900004+28820+108770FM-12+066599999V0209999C000010042019N0070001N1+02321+02231100451ADDAA106005191AY191061AY281061GF108991081091004501999999MA1999999093111MD1210141-0101MW1951REMSYN094AAXX  29001 57633 11457 80000 10232 20223 39311 40045 52014 60051 79598 889// 333 05101 70054;
0132576330999992000062903004+28820+108770FM-12+066599999V0209999C000010042019N0120001N1+02441+02271100581ADDAY181031GF108991081051004501999999MD1210111+9999MW1801REMSYN066AAXX  29031 57633 41462 80000 10244 20227 40058 52011 78080 885//;
0207576330999992000062906004+28820+108770FM-12+066599999V0201101N001010075019N0300001N1+02771+02231100411ADDAA106001091AY181061AY261061GF107991051011008001041999KA1999N+02281MA1999999093101MD1710121+0101MW1001REMSYN094AAXX  29061 57633 11580 71101 10277 20223 39310 40041 57012 60011 70086 8514/ 333 00152 20228;
0122576330999992000062909004+28820+108770FM-12+066599999V0209999C000010360019N0300001N1+02821+02261100301ADDGF107991011011008001041999MD1710101+0011REMSYN070AAXX  29091 57633 42580 70000 10282 20226 40030 57010 8114/ 333 00152;
0154576330999992000062912004+28820+108770FM-12+066599999V0209999C000019999999N0250001N1+02671+02361100441ADDAA199000021GF107991071001999999041999MA1999999093101MD1210101+0021REMSYN076AAXX  29121 57633 32975 70000 10267 20236 39310 40044 52010 8704/ 333 00200;
0112576330999992000062915004+28820+108770FM-12+066599999V0209999C000019999999N0150001N1+02401+02241100631ADDGF105991051001999999041001MD1210161+9999REMSYN060AAXX  29151 57633 42965 50000 10240 20224 40063 52016 85040;
0192576330999992000062918004+28820+108770FM-12+066599999V0209999C000019999999N0100001N1+02281+02221100551ADDAA199000091GF106991061001999999041001KA1999M+02861MA1999999093211MD1710051+0301REMSYN082AAXX  29181 57633 32960 60000 10228 20222 39321 40055 57005 86040 333 00352 10286;EQDQ01  00002PRCP99
0151576330999992000062921004+28820+108770FM-12+066599999V0209999C000019999999N0080001N1+02321+02221100511ADDAA124006991GF108991081001999999071999MD1710031+0201MW1101REMSYN082AAXX  29211 57633 41958 80000 10232 20222 40051 57003 71000 8807/ 333 00251 70068;
0194576330999992000063000004+28820+108770FM-12+066599999V0209999C000010042019N0100001N1+02181+02121100761ADDAA106023191AY191061AY281061GF108991081091004501999999MA1999999093381MD1210201+0301MW1951REMSYN094AAXX  30001 57633 11460 80000 10218 20212 39338 40076 52020 60231 79598 889// 333 00351 70246;
0140576330999992000063003004+28820+108770FM-12+066599999V0209999C000010042019N0060001N1+02211+02151100871ADDAY191031AY281031GF108991061091004501021999MD1210071+9999MW1801REMSYN066AAXX  30031 57633 41456 80000 10221 20215 40087 52007 78098 8692/;
0207576330999992000063006004+28820+108770FM-12+066599999V0209999C000010042019N0080001N1+02351+02191100751ADDAA106015091AY191061AY281061GF108991071071004501021999KA1999N+02151MA1999999093341MD1710111+0201MW1601REMSYN094AAXX  30061 57633 11458 80000 10235 20219 39334 40075 57011 60151 76098 8772/ 333 00254 20215;
0142576330999992000063009004+28820+108770FM-12+066599999V0201401N001010075019N0150001N1+02621+02291100441ADDAY161031GF108991051011008001071999MD1710251+0011MW1001REMSYN076AAXX  30091 57633 41565 81401 10262 20229 40044 57025 70060 8517/ 333 00152;
0180576330999992000063012004+28820+108770FM-12+066599999V0202901N001010075019N0300001N1+02301+02001100631ADDAA106000791AY161061GF107991051041008001041999MA1999999093211MD1210121+0011MW1001REMSYN088AAXX  30121 57633 11580 72901 10230 20200 39321 40063 52012 69901 70060 8544/ 333 00154;
0112576330999992000063015004+28820+108770FM-12+066599999V0209999C000019999999N0120001N1+02211+02031100831ADDGF108991081001999999071999MD1210181+9999REMSYN060AAXX  30151 57633 42962 80000 10221 20203 40083 52018 8807/;
0185576330999992000063018004+28820+108770FM-12+066599999V0209999C000010075019N0100001N1+02161+02091100741ADDAA199000021GF108991081091008001999999KA1999M+02671MA1999999093321MD1710071+0101MW1131REMSYN088AAXX  30181 57633 31560 80000 10216 20209 39332 40074 57007 71300 889// 333 00151 10267;
0159576330999992000063021004+28820+108770FM-12+066599999V0209999C000010150019N0100001N1+02141+02081100621ADDAA124038691AY181031GF108991081051017501999999MD1710081+0101MW1001REMSYN082AAXX  30211 57633 41760 80000 10214 20208 40062 57008 70080 885// 333 00152 70385;
0186576330999992000070100004+28820+108770FM-12+066599999V0209999C000010360019N0100001N1+02241+02141100661ADDAA106000791AY181061GF107991011061004501041999MA1999999093251MD1210011-0101MW1001REMSYN094AAXX  01001 57633 11460 70000 10224 20214 39325 40066 52001 69901 70080 8164/ 333 05101 70153;
0112576330999992000070103004+28820+108770FM-12+066599999V0209999C000010120019N0150001N1+02701+02241100631ADDGF107991071081008001999999MD1210011+9999REMSYN060AAXX  01031 57633 42565 70000 10270 20224 40063 52001 878//;
0192576330999992000070106004+28820+108770FM-12+066599999V0209999C000010075019N0300001N1+02971+02181100461ADDAA199000091GF107991051011008001041021KA1999N+02111MA1999999093131MD1710131-0201REMSYN082AAXX  01061 57633 32580 70000 10297 20218 39313 40046 57013 85142 333 05206 20211;EQDQ01  00002PRCP99
0122576330999992000070109004+28820+108770FM-12+066599999V0209999C000010075019N0300001N1+03001+02321100281ADDGF106991051021008001041001MD1710161+0011REMSYN070AAXX  01091 57633 42580 60000 10300 20232 40028 57016 85240 333 05104;
0173576330999992000070112004+28820+108770FM-12+066599999V0209999C000010360019N0250001N1+02741+02371100331ADDAA199000091GF107991031041008001041999MA1999999092991MD1210021+0021REMSYN076AAXX  01121 57633 32575 70000 10274 20237 39299 40033 52002 8344/ 333 05204;EQDQ01  00002PRCP99
0124576330999992000070115004+28820+108770FM-12+066599999V0209999C000010150019N0120001N1+02501+02391100361ADDGF108991081051017501999999MD1210061+9999MW1801REMSYN066AAXX  01151 57633 41762 80000 10250 20239 40036 52006 78000 885//;
0199576330999992000070118004+28820+108770FM-12+066599999V0209999C000010075019N0100001N1+02461+02321100201ADDAA106000791AY181061GF108991081091008001999999KA1999M+03081MA1999999092931MD1710121-0401MW1131REMSYN094AAXX  01181 57633 11560 80000 10246 20232 39293 40020 57012 69901 71380 889// 333 05403 10308;
0159576330999992000070121004+28820+108770FM-12+066599999V0209999C000010042019N0100001N1+02361+02291100251ADDAA124001391AY181031GF108991081091004501999999MD1210031-0301MW1801REMSYN082AAXX  01211 57633 41460 80000 10236 20229 40025 52003 78080 889// 333 05302 70012;
0194576330999992000070200004+28820+108770FM-12+066599999V0209999C000010042019N0090001N1+02351+02261100371ADDAA106005191AY181061AY261061GF108991081071004501999999MA1999999093041MD1210081-0201MW1601REMSYN094AAXX  02001 57633 11459 80000 10235 20226 39304 40037 52008 60051 76086 887// 333 05201 70054;
0140576330999992000070203004+28820+108770FM-12+066599999V0203601N001010042019N0100001N1+02431+02291100431ADDAY161031AY261031GF108991051071004501071999MD1210041+9999MW1601REMSYN066AAXX  02031 57633 41460 83601 10243 20229 40043 52004 76066 8577/;
0199576330999992000070206004+28820+108770FM-12+066599999V0209999C000010360019N0180001N1+02771+02301100241ADDAA106000591AY161061GF107991011011008001041999KA1999N+02311MA1999999092941MD1710141-0201MW1001REMSYN094AAXX  02061 57633 11568 70000 10277 20230 39294 40024 57014 69941 70060 8114/ 333 05252 20231;
0122576330999992000070209004+28820+108770FM-12+066599999V0201601N001010360019N0200001N1+02901+02151100141ADDGF106991011011008001041001MD1710091+0011REMSYN070AAXX  02091 57633 42570 61601 10290 20215 40014 57009 81140 333 05151;
0154576330999992000070212004+28820+108770FM-12+066599999V0209999C000012200019N0200001N1+02581+02251100251ADDAA199000021GF103991011011008001041021MA1999999092911MD1210061+0011REMSYN076AAXX  02121 57633 32570 30000 10258 20225 39291 40025 52006 81142 333 05152;
0112576330999992000070215004+28820+108770FM-12+066599999V0209999C000019999999N0150001N1+02371+02241100441ADDGF107991071001999999041999MD1210161+9999REMSYN060AAXX  02151 57633 42965 70000 10237 20224 40044 52016 8704/;
0192576330999992000070218004+28820+108770FM-12+066599999V0209999C000019999999N0150001N1+02331+02261100311ADDAA199000091GF108991081001999999071999KA1999M+02981MA1999999092991MD1710081+0101REMSYN082AAXX  02181 57633 32965 80000 10233 20226 39299 40031 57008 8807/ 333 00151 10298;EQDQ01  00002PRCP99
0169576330999992000070221004+28820+108770FM-12+066599999V0209999C000012200019N0050001N1+02191+02161100281ADDAA124004691AY141031GA1001+999999999GF100991001001999999001001MD1710031+0001MW1101REMSYN076AAXX  02211 57633 41950 00000 10219 20216 40028 57003 71004 333 00052 70046;
0180576330999992000070300004+28820+108770FM-12+066599999V0209999C000010012019N0015001N1+02221+02191100461ADDAA124000591AY141061GF108991081061001501999999MA1999999093091MD1210131+0101MW1281REMSYN088AAXX  03001 57633 31215 80000 10222 20219 39309 40046 52013 72840 886// 333 00151 70004;
0112576330999992000070303004+28820+108770FM-12+066599999V0201801N002010120019N0200001N1+02711+02001100391ADDGF107991071081008001999999MD1710031+9999REMSYN060AAXX  03031 57633 42570 71802 10271 20200 40039 57003 878//;
0192576330999992000070306004+28820+108770FM-12+066599999V0201401N003010360019N0170001N1+02891+01991100251ADDAA199000091GF107991021011008001041999KA1999N+02141MA1999999092951MD1710111+0001REMSYN082AAXX  03061 57633 32567 71403 10289 20199 39295 40025 57011 8214/ 333 00001 20214;EQDQ01  00002PRCP99
0116576330999992000070309004+28820+108770FM-12+066599999V0200901N001019999999N0170001N1+02841+02151100181ADDGF107991999999008001999999MD1710091+0001REMSYN064AAXX  03091 57633 42567 70901 10284 20215 40018 57009 333 00051;
0173576330999992000070312004+28820+108770FM-12+066599999V0209999C000019999999N0170001N1+02621+02251100261ADDAA199000091GF108991081001999999071999MA1999999092911MD1210051+0001REMSYN076AAXX  03121 57633 32967 80000 10262 20225 39291 40026 52005 8807/ 333 00000;EQDQ01  00002PRCP99
0112576330999992000070315004+28820+108770FM-12+066599999V0209999C000019999999N0120001N1+02351+02221100401ADDGF107991071001999999041999MD1210161+9999REMSYN060AAXX  03151 57633 42962 70000 10235 20222 40040 52016 8704/;
0204576330999992000070318004+28820+108770FM-12+066599999V0209999C000019999999N0090001N1+02301+02241100291ADDAA199000091GF108991081001999999071999KA1999M+02971MA1999999092981MD1710091+0001MW1101REMSYN088AAXX  03181 57633 31959 80000 10230 20224 39298 40029 57009 71000 8807/ 333 00000 10297;EQDQ01  00002PRCP99
0134576330999992000070321004+28820+108770FM-12+066599999V0209999C000019999999N0060001N1+02261+02201100281ADDGF107991071001999999041999MD1710021+0001MW1101REMSYN076AAXX  03211 57633 41956 70000 10226 20220 40028 57002 71000 8704/ 333 00001;
0185576330999992000070400004+28820+108770FM-12+066599999V0209999C000019999999N0080001N1+02311+02221100341ADDAA199000091GF107991071001999999041999MA1999999093001MD1210041+0011MW1101REMSYN082AAXX  04001 57633 31958 70000 10231 20222 39300 40034 52004 71000 8704/ 333 05101;EQDQ01  00002PRCP99
0112576330999992000070403004+28820+108770FM-12+066599999V0201401N002010075019N0150001N1+02821+02191100301ADDGF107991071011008001031999MD1710011+9999REMSYN060AAXX  04031 57633 42565 71402 10282 20219 40030 57001 8713/;
0192576330999992000070406004+28820+108770FM-12+066599999V0201601N001010075019N0200001N1+02871+02271100201ADDAA199000091GF107991061021008001031999KA1999N+02191MA1999999092901MD1710091-0101REMSYN082AAXX  04061 57633 32570 71601 10287 20227 39290 40020 57009 8623/ 333 05100 20219;EQDQ01  00002PRCP99
0134576330999992000070409004+28820+108770FM-12+066599999V0209999C000010360019N0200001N1+02821+02221100101ADDGF108991021091008001011999MD1710111+0011MW1171REMSYN076AAXX  04091 57633 41570 80000 10282 20222 40010 57011 71700 8291/ 333 05100;
0188576330999992000070412004+28820+108770FM-12+066599999V0209999C000010150019N0150001N1+02681+02311100241ADDAA106000791AY191061AY281061GF108991081051017501999999MA1999999092911MD1210121+0001MW1001REMSYN088AAXX  04121 57633 11765 80000 10268 20231 39291 40024 52012 69901 70098 885// 333 00001;
0140576330999992000070415004+28820+108770FM-12+066599999V0209999C000010075019N0100001N1+02411+02271100361ADDAY191031AY281031GF108991081091008001999999MD1210141+9999MW1801REMSYN066AAXX  04151 57633 41560 80000 10241 20227 40036 52014 78098 889//;
0207576330999992000070418004+28820+108770FM-12+066599999V0209999C000010120019N0100001N1+02341+02241100361ADDAA106001091AY191061AY281061GF108991081051012501999999KA1999M+03201MA1999999093051MD1410001+0101MW1001REMSYN094AAXX  04181 57633 11660 80000 10234 20224 39305 40036 54000 60011 70098 885// 333 00100 10320;
0194576330999992000070500004+28820+108770FM-12+066599999V0201801N001010042019N0100001N1+02171+02041100511ADDAA106009991AY191061AY281061GF108991081091004501999999MA1999999093151MD1210141+0201MW1951REMSYN094AAXX  05001 57633 11460 81801 10217 20204 39315 40051 52014 60101 79598 889// 333 00251 70111;
0140576330999992000070503004+28820+108770FM-12+066599999V0209999C000010042019N0170001N1+02241+02091100661ADDAY191031AY281031GF108991081051004501999999MD1210111+9999MW1601REMSYN066AAXX  05031 57633 41467 80000 10224 20209 40066 52011 76098 885//;
0207576330999992000070506004+28820+108770FM-12+066599999V0203201N001010042019N0120001N1+02391+02201100521ADDAA106004191AY191061AY281061GF108991081071004501999999KA1999N+02061MA1999999093141MD1710121+0201MW1601REMSYN094AAXX  05061 57633 11462 83201 10239 20220 39314 40052 57012 60041 76098 887// 333 00255 20206;
0142576330999992000070509004+28820+108770FM-12+066599999V0201801N001010120019N0150001N1+02551+02221100381ADDAY161031GF108991081081008001999999MD1710111+0021MW1001REMSYN076AAXX  05091 57633 41565 81801 10255 20222 40038 57011 70060 888// 333 00253;
0180576330999992000070512004+28820+108770FM-12+066599999V0209999C000019999999N0150001N1+02421+02251100451ADDAA106000791AY161061GF105991021001999999041021MA1999999093061MD1210031+0021MW1001REMSYN088AAXX  05121 57633 11965 50000 10242 20225 39306 40045 52003 69901 70060 82042 333 00253;
0112576330999992000070515004+28820+108770FM-12+066599999V0209999C000019999999N0120001N1+02301+02171100601ADDGF108991081001999999071999MD1210131+9999REMSYN060AAXX  05151 57633 42962 80000 10230 20217 40060 52013 8807/;
0173576330999992000070518004+28820+108770FM-12+066599999V0209999C000019999999N0100001N1+02221+02161100551ADDAA199000021GF108991081001999999071999KA1999M+02601MA1999999093151MD1710041+0101REMSYN082AAXX  05181 57633 32960 80000 10222 20216 39315 40055 57004 8807/ 333 00151 10260;
0139576330999992000070521004+28820+108770FM-12+066599999V0209999C000019999999N0100001N1+02161+02131100531ADDAA124013791GF108991081001999999071999MD1410001+0101REMSYN076AAXX  05211 57633 42960 80000 10216 20213 40053 54000 8807/ 333 00152 70137;
0124576330999992000070603004+28820+108770FM-12+066599999V0203401N001010042019N0150001N1+02531+02181100661ADDGF108991051071004501071999MD1210051+9999MW1601REMSYN066AAXX  06031 57633 41465 83401 10253 20218 40066 52005 76000 8577/;
0199576330999992000070606004+28820+108770FM-12+066599999V0209999C000010360019N0170001N1+02711+02281100411ADDAA106000791AY161061GF108991011011008001071999KA1999N+02151MA1999999093061MD1710221-0101MW1001REMSYN094AAXX  06061 57633 11567 80000 10271 20228 39306 40041 57022 69901 70060 8117/ 333 05103 20215;
0122576330999992000070609004+28820+108770FM-12+066599999V0201401N002012200019N0200001N1+02921+02221100181ADDGF102991021021008001041001MD1710191+0021REMSYN070AAXX  06091 57633 42570 21402 10292 20222 40018 57019 82240 333 05204;
0154576330999992000070612004+28820+108770FM-12+066599999V0209999C000010360019N0200001N1+02701+02361100271ADDAA199000021GF107991031021008001041999MA1999999092941MD1210071+0011REMSYN076AAXX  06121 57633 32570 70000 10270 20236 39294 40027 52007 8324/ 333 05103;
0122576330999992000070615004+28820+108770FM-12+066599999V0209999C000012200019N0150001N1+02391+02221100481ADDGA1001+999999999GF100991001001999999001001MD1210191+9999REMSYN054AAXX  06151 57633 42965 00000 10239 20222 40048 52019;
0202576330999992000070618004+28820+108770FM-12+066599999V0209999C000012200019N0100001N1+02231+02171100411ADDAA199000091GA1001+999999999GF100991001001999999001001KA1999M+02981MA1999999093061MD1710071-0101REMSYN076AAXX  06181 57633 32960 00000 10223 20217 39306 40041 57007 333 05100 10298;EQDQ01  00002PRCP99
0151576330999992000070621004+28820+108770FM-12+066599999V0209999C000010075019N0090001N1+02201+02161100361ADDAA124000791GF105991051091008001001001MD1710021-0101MW1131REMSYN082AAXX  06211 57633 41559 50000 10220 20216 40036 57002 71300 85900 333 05100 79999;
0160576330999992000070700004+28820+108770FM-12+066599999V0209999C000010360019N0150001N1+02461+02151100361ADDAA124000791GF106991021011008001041001MA1999999093041MD1410001-0201REMSYN082AAXX  07001 57633 32565 60000 10246 20215 39304 40036 54000 82140 333 05202 79999;
0124576330999992000070703004+28820+108770FM-12+066599999V0200401N001010120019N0170001N1+02541+02211100431ADDGF108991071041012501071999MD1210041+9999MW1801REMSYN066AAXX  07031 57633 41667 80401 10254 20221 40043 52004 78000 8747/;
0199576330999992000070706004+28820+108770FM-12+066599999V0209999C000010360019N0170001N1+02921+02241100171ADDAA106000191AY181061GF106991041021008001041001KA1999N+02161MA1999999092871MD1710211-0201MW1001REMSYN094AAXX  07061 57633 11567 60000 10292 20224 39287 40017 57021 69911 70080 84240 333 05202 20216;
0122576330999992000070709004+28820+108770FM-12+066599999V0209999C000010360019N0170001N1+02841+02151100041ADDGF107991031091008001071999MD1710141+0011REMSYN070AAXX  07091 57633 42567 70000 10284 20215 40004 57014 8397/ 333 05151;
0154576330999992000070712004+28820+108770FM-12+066599999V0209999C000010360019N0170001N1+02601+02231100201ADDAA199000021GF108991031041012501071999MA1999999092881MD1210151+0011REMSYN076AAXX  07121 57633 32667 80000 10260 20223 39288 40020 52015 8347/ 333 05151;
0112576330999992000070715004+28820+108770FM-12+066599999V0209999C000019999999N0150001N1+02361+02201100391ADDGF108991081001999999071999MD1210161+9999REMSYN060AAXX  07151 57633 42965 80000 10236 20220 40039 52016 8807/;
0191576330999992000070718004+28820+108770FM-12+066599999V0209999C000019999999N0120001N1+02291+02201100261ADDAA106000791GF108991081001999999071999KA1999M+03081MA1999999092961MD1710081-0101MW1601REMSYN094AAXX  07181 57633 11962 80000 10229 20220 39296 40026 57008 69901 76000 8807/ 333 05101 10308;
0159576330999992000070721004+28820+108770FM-12+066599999V0209999C000010360019N0100001N1+02251+02181100231ADDAA124003891AY161031GF108991011071004501021999MD1710051-0101MW1211REMSYN082AAXX  07211 57633 41460 80000 10225 20218 40023 57005 72160 8172/ 333 05101 70039;
0186576330999992000070800004+28820+108770FM-12+066599999V0209999C000010360019N0120001N1+02331+02211100391ADDAA106004191AY161061GF108991031041012501071999MA1999999093041MD1210131+0001MW1001REMSYN094AAXX  08001 57633 11662 80000 10233 20221 39304 40039 52013 60041 70060 8347/ 333 00051 70039;
0112576330999992000070803004+28820+108770FM-12+066599999V0203601N001010120019N0150001N1+02611+02181100391ADDGF107991071081008001999999MD1210011+9999REMSYN060AAXX  08031 57633 42565 73601 10261 20218 40039 52001 878//;
0173576330999992000070806004+28820+108770FM-12+066599999V0203601N002010075019N0300001N1+02821+02041100151ADDAA199000021GF107991061021008001041999KA1999N+02221MA1999999092841MD1710211+0001REMSYN082AAXX  08061 57633 32580 73602 10282 20204 39284 40015 57021 8624/ 333 00051 20222;
0122576330999992000070809004+28820+108770FM-12+066599999V0200401N002010075019N0300001N1+02991+02121099981ADDGF107991071091008001041999MD1710141+0001REMSYN070AAXX  08091 57633 42580 70402 10299 20212 49998 57014 8794/ 333 00002;
0188576330999992000070812004+28820+108770FM-12+066599999V0209999C000010360019N0180001N1+02441+02211100291ADDAA106000191AY191061AY281061GF106991041041008001041001MA1999999092931MD1210231+0011MW1251REMSYN088AAXX  08121 57633 11568 60000 10244 20221 39293 40029 52023 69911 72598 84440 333 00152;
0112576330999992000070815004+28820+108770FM-12+066599999V0209999C000019999999N0150001N1+02311+02161100391ADDGF107991071001999999041999MD1210111+9999REMSYN060AAXX  08151 57633 42965 70000 10231 20216 40039 52011 8704/;
0173576330999992000070818004+28820+108770FM-12+066599999V0209999C000019999999N0100001N1+02191+02071100341ADDAA199000021GF107991071001999999041031KA1999M+03111MA1999999093011MD1710031+0101REMSYN082AAXX  08181 57633 32960 70000 10219 20207 39301 40034 57003 87043 333 00151 10311;
0139576330999992000070821004+28820+108770FM-12+066599999V0209999C000019999999N0100001N1+02191+02061100321ADDAA124000191GF108991081001999999071999MD1410001+0101REMSYN076AAXX  08211 57633 42960 80000 10219 20206 40032 54000 8807/ 333 00151 70001;
0160576330999992000070900004+28820+108770FM-12+066599999V0209999C000010360019N0100001N1+02281+02131100491ADDAA124000191GF108991011011008001071999MA1999999093111MD1210101+0101REMSYN082AAXX  09001 57633 32560 80000 10228 20213 39311 40049 52010 8117/ 333 00151 70001;
0112576330999992000070903004+28820+108770FM-12+066599999V0200901N001010360019N0150001N1+02671+01991100441ADDGF106991031011008001041001MD1710011+9999REMSYN060AAXX  09031 57633 42565 60901 10267 20199 40044 57001 83140;
0192576330999992000070906004+28820+108770FM-12+066599999V0203601N002010360019N0170001N1+02891+01561100331ADDAA199000091GF107991031011008001041001KA1999N+02171MA1999999093011MD1710091+0201REMSYN082AAXX  09061 57633 32567 73602 10289 20156 39301 40033 57009 83140 333 00201 20217;EQDQ01  00002PRCP99
0122576330999992000070909004+28820+108770FM-12+066599999V0200401N001019999999N0200001N1+02931+01691100171ADDGF108991021001999999041071MD1710151+0021REMSYN070AAXX  09091 57633 42970 80401 10293 20169 40017 57015 82047 333 00251;
0173576330999992000070912004+28820+108770FM-12+066599999V0209999C000019999999N0170001N1+02541+02011100371ADDAA199000091GF108991081001999999011999MA1999999093011MD1210151+0011REMSYN076AAXX  09121 57633 32967 80000 10254 20201 39301 40037 52015 8801/ 333 00101;EQDQ01  00002PRCP99
0122576330999992000070915004+28820+108770FM-12+066599999V0209999C000012200019N0150001N1+02301+02031100561ADDGA1001+999999999GF100991001001999999001001MD1210201+9999REMSYN054AAXX  09151 57633 42965 00000 10230 20203 40056 52020;
0192576330999992000070918004+28820+108770FM-12+066599999V0209999C000019999999N0100001N1+02161+02041100511ADDAA199000091GF107991071001999999041999KA1999M+03051MA1999999093171MD1710041+0201REMSYN082AAXX  09181 57633 32960 70000 10216 20204 39317 40051 57004 8704/ 333 00200 10305;EQDQ01  00002PRCP99
0122576330999992000070921004+28820+108770FM-12+066599999V0209999C000019999999N0100001N1+02061+01981100541ADDGF108991081001999999071999MD1210021+0021REMSYN070AAXX  09211 57633 42960 80000 10206 20198 40054 52002 8807/ 333 00251;
0185576330999992000071000004+28820+108770FM-12+066599999V0209999C000019999999N0090001N1+02151+02051100701ADDAA199000091GF108991081001999999071999MA1999999093301MD1210111+0021MW1101REMSYN082AAXX  10001 57633 31959 80000 10215 20205 39330 40070 52011 71000 8807/ 333 00251;EQDQ01  00002PRCP99
0112576330999992000071003004+28820+108770FM-12+066599999V0209999C000012200019N0150001N1+02731+01961100681ADDGF103991031011008001001001MD1210021+9999REMSYN060AAXX  10031 57633 42565 30000 10273 20196 40068 52002 83100;
0192576330999992000071006004+28820+108770FM-12+066599999V0201401N002010075019N0170001N1+03011+02101100491ADDAA199000091GF106991061021008001001001KA1999N+02041MA1999999093161MD1710161+0201REMSYN082AAXX  10061 57633 32567 61402 10301 20210 39316 40049 57016 86200 333 00201 20204;EQDQ01  00002PRCP99
0122576330999992000071009004+28820+108770FM-12+066599999V0201401N001010360019N0200001N1+02921+01981100401ADDGF106991011011008001041001MD1710101+0021REMSYN070AAXX  10091 57633 42570 61401 10292 20198 40040 57010 81140 333 00200;
0173576330999992000071012004+28820+108770FM-12+066599999V0209999C000010360019N0200001N1+02561+01991100571ADDAA199000091GF107991011011008001041001MA1999999093181MD1210121+0021REMSYN076AAXX  10121 57633 32570 70000 10256 20199 39318 40057 52012 81140 333 00200;EQDQ01  00002PRCP99
0112576330999992000071015004+28820+108770FM-12+066599999V0209999C000012200019N0150001N1+02261+02021100731ADDGF103991001001999999001021MD1210191+9999REMSYN060AAXX  10151 57633 42965 30000 10226 20202 40073 52019 80002;
0202576330999992000071018004+28820+108770FM-12+066599999V0209999C000012200019N0120001N1+02081+01971100721ADDAA199000091GA1001+999999999GF100991001001999999001001KA1999M+03081MA1999999093371MD1410001+0201REMSYN076AAXX  10181 57633 32962 00000 10208 20197 39337 40072 54000 333 00251 10308;EQDQ01  00002PRCP99
0144576330999992000071021004+28820+108770FM-12+066599999V0209999C000012200019N0080001N1+01971+01911100701ADDGA1001+999999999GF100991001001999999001001MD1710041+0011MW1101REMSYN070AAXX  10211 57633 41958 00000 10197 20191 40070 57004 71000 333 00151;
0195576330999992000071100004+28820+108770FM-12+066599999V0209999C000012200019N0080001N1+02141+01941100841ADDAA199000091GA1001+999999999GF100991001001999999001001MA1999999093431MD1210101+0011MW1101REMSYN076AAXX  11001 57633 31958 00000 10214 20194 39343 40084 52010 71000 333 00100;EQDQ01  00002PRCP99
0112576330999992000071103004+28820+108770FM-12+066599999V0201601N002012200019N0150001N1+02841+01811100791ADDGF102991011011008001001021MD1410001+9999REMSYN060AAXX  11031 57633 42565 21602 10284 20181 40079 54000 81102;
0192576330999992000071106004+28820+108770FM-12+066599999V0201601N001012200019N0180001N1+03001+01831100621ADDAA199000091GF103991031011008001001001KA1999N+01901MA1999999093271MD1710161+0101REMSYN082AAXX  11061 57633 32568 31601 10300 20183 39327 40062 57016 83100 333 00100 20190;EQDQ01  00002PRCP99
0122576330999992000071109004+28820+108770FM-12+066599999V0201401N002010360019N0150001N1+02961+01921100541ADDGF106991011011008001041001MD1710091+0011REMSYN070AAXX  11091 57633 42565 61402 10296 20192 40054 57009 81140 333 00100;
0173576330999992000071112004+28820+108770FM-12+066599999V0209999C000019999999N0150001N1+02701+02101100671ADDAA199000091GF106991061001999999041001MA1999999093291MD1210111+0011REMSYN076AAXX  11121 57633 32965 60000 10270 20210 39329 40067 52011 86040 333 00101;EQDQ01  00002PRCP99
0112576330999992000071115004+28820+108770FM-12+066599999V0209999C000012200019N0150001N1+02391+02141100771ADDGF104991041001999999041001MD1210141+9999REMSYN060AAXX  11151 57633 42965 40000 10239 20214 40077 52014 84040;
0192576330999992000071118004+28820+108770FM-12+066599999V0209999C000019999999N0120001N1+02231+02101100701ADDAA199000091GF107991071001999999041999KA1999M+03121MA1999999093371MD1710061+0001REMSYN082AAXX  11181 57633 32962 70000 10223 20210 39337 40070 57006 8704/ 333 00002 10312;EQDQ01  00002PRCP99
0122576330999992000071121004+28820+108770FM-12+066599999V0209999C000019999999N0100001N1+02161+02071100581ADDGF108991081001999999071999MD1710131+0011REMSYN070AAXX  11211 57633 42960 80000 10216 20207 40058 57013 8807/ 333 05102;
0178576330999992000071200004+28820+108770FM-12+066599999V0209999C000019999999N0120001N1+02261+02081100701ADDAA106000791GF108991081001999999071999MA1999999093331MD1210091-0101MW1601REMSYN094AAXX  12001 57633 11962 80000 10226 20208 39333 40070 52009 69901 76000 8807/ 333 05101 79999;
0132576330999992000071203004+28820+108770FM-12+066599999V0201601N002010120019N0120001N1+02811+02181100631ADDAY161031GF107991071081008001999999MD1710031+9999MW1001REMSYN066AAXX  12031 57633 41562 71602 10281 20218 40063 57003 70060 878//;
0199576330999992000071206004+28820+108770FM-12+066599999V0202501N002010075019N0150001N1+02791+02221100511ADDAA106000791AY161061GF108991081091008001999999KA1999N+02131MA1999999093171MD1710131-0101MW1801REMSYN094AAXX  12061 57633 11565 82502 10279 20222 39317 40051 57013 69901 78060 889// 333 05152 20213;
0179576330999992000071212004+28820+108770FM-12+066599999V0209999C000010900019N0200001N1+02721+02261100361ADDAA106000791AY181061GF107991011041008001001021MA1999999093021MD1210011+0031MW1001REMSYN087AAXX  12121 57633 11570 70000 10272 20226 39302 40036 52001 69901 7008081402 333 05300;
0112576330999992000071215004+28820+108770FM-12+066599999V0209999C000019999999N0170001N1+02451+02221100461ADDGF105991051001999999041001MD1210131+9999REMSYN060AAXX  12151 57633 42967 50000 10245 20222 40046 52013 85040;
0173576330999992000071218004+28820+108770FM-12+066599999V0209999C000019999999N0150001N1+02281+02191100431ADDAA199000021GF107991071001999999031001KA1999M+02971MA1999999093101MD1710051-0301REMSYN082AAXX  12181 57633 32965 70000 10228 20219 39310 40043 57005 87030 333 05301 10297;
0149576330999992000071221004+28820+108770FM-12+066599999V0209999C000012200019N0150001N1+02161+02101100361ADDAA124000791GA1001+999999999GF100991001001999999001001MD1710061-0201REMSYN070AAXX  12211 57633 42965 00000 10216 20210 40036 57006 333 05200 79999;
0160576330999992000071300004+28820+108770FM-12+066599999V0209999C000012200019N0100001N1+02381+02161100461ADDAA124000791GF103991011011008001041001MA1999999093131MD1210091-0201REMSYN082AAXX  13001 57633 32560 30000 10238 20216 39313 40046 52009 81140 333 05201 79999;
0112576330999992000071303004+28820+108770FM-12+066599999V0201401N003010075019N0300001N1+02741+02031100471ADDGF108991081051008001999999MD1210021+9999REMSYN060AAXX  13031 57633 42580 81403 10274 20203 40047 52002 885//;
0192576330999992000071306004+28820+108770FM-12+066599999V0201801N002010120019N0300001N1+02881+02031100321ADDAA199000091GF107991071081008001999999KA1999N+02091MA1999999093011MD1710141-0201REMSYN082AAXX  13061 57633 32580 71802 10288 20203 39301 40032 57014 878// 333 05201 20209;EQDQ01  00002PRCP99
0122576330999992000071309004+28820+108770FM-12+066599999V0201101N001010360019N0300001N1+02891+02091100141ADDGF108991031041008001071999MD1710181+0021REMSYN070AAXX  13091 57633 42580 81101 10289 20209 40014 57018 8347/ 333 05251;
0173576330999992000071312004+28820+108770FM-12+066599999V0209999C000010075019N0300001N1+02721+02261100191ADDAA199000091GF107991061041008001071999MA1999999092881MD1210051+0011REMSYN076AAXX  13121 57633 32580 70000 10272 20226 39288 40019 52005 8647/ 333 05100;EQDQ01  00002PRCP99
0112576330999992000071315004+28820+108770FM-12+066599999V0209999C000019999999N0250001N1+02491+02221100251ADDGF106991061001999999041001MD1210071+9999REMSYN060AAXX  13151 57633 42975 60000 10249 20222 40025 52007 86040;
0202576330999992000071318004+28820+108770FM-12+066599999V0209999C000012200019N0200001N1+02291+02161100131ADDAA199000091GA1001+999999999GF100991001001999999001001KA1999M+03061MA1999999092831MD1710121-0301REMSYN076AAXX  13181 57633 32970 00000 10229 20216 39283 40013 57012 333 05300 10306;EQDQ01  00002PRCP99
0122576330999992000071321004+28820+108770FM-12+066599999V0209999C000019999999N0150001N1+02261+02171100101ADDGF108991081001999999071999MD1710031+0021REMSYN070AAXX  13211 57633 42965 80000 10226 20217 40010 57003 8807/ 333 05201;
0173576330999992000071400004+28820+108770FM-12+066599999V0209999C000019999999N0250001N1+02431+02171100171ADDAA199000091GF107991071001999999041999MA1999999092871MD1210071+0031REMSYN076AAXX  14001 57633 32975 70000 10243 20217 39287 40017 52007 8704/ 333 05301;EQDQ01  00002PRCP99
0112576330999992000071403004+28820+108770FM-12+066599999V0201801N002010120019N0300001N1+02791+02031100171ADDGF107991071041012501999999MD1210011+9999REMSYN060AAXX  14031 57633 42680 71802 10279 20203 40017 52001 874//;
0192576330999992000071406004+28820+108770FM-12+066599999V0202001N001010120019N0300001N1+02791+01961100111ADDAA199000091GF108991081041012501999999KA1999N+02221MA1999999092801MD1710081-0201REMSYN082AAXX  14061 57633 32680 82001 10279 20196 39280 40011 57008 884// 333 05251 20222;EQDQ01  00002PRCP99
0122576330999992000071409004+28820+108770FM-12+066599999V0203401N001010120019N0300001N1+02761+02181100051ADDGF107991071081008001999999MD1710061+0011REMSYN070AAXX  14091 57633 42580 73401 10276 20218 40005 57006 878// 333 05151;
0173576330999992000071412004+28820+108770FM-12+066599999V0209999C000012200019N0300001N1+02571+02181100081ADDAA199000091GF104991021001999999041021MA1999999092761MD1210021+0011REMSYN076AAXX  14121 57633 32980 40000 10257 20218 39276 40008 52002 82042 333 05152;EQDQ01  00002PRCP99
0112576330999992000071415004+28820+108770FM-12+066599999V0209999C000019999999N0200001N1+02371+02201100171ADDGF107991071001999999031999MD1210111+9999REMSYN060AAXX  14151 57633 42970 70000 10237 20220 40017 52011 8703/;
0192576330999992000071418004+28820+108770FM-12+066599999V0209999C000019999999N0150001N1+02271+02141100101ADDAA199000091GF107991071001999999031001KA1999M+02881MA1999999092791MD1710081+0001REMSYN082AAXX  14181 57633 32965 70000 10227 20214 39279 40010 57008 87030 333 00000 10288;EQDQ01  00002PRCP99
0122576330999992000071421004+28820+108770FM-12+066599999V0209999C000019999999N0120001N1+02221+02151100061ADDGF108991081001999999071999MD1710051+0011REMSYN070AAXX  14211 57633 42962 80000 10222 20215 40006 57005 8807/ 333 05100;
0186576330999992000071500004+28820+108770FM-12+066599999V0209999C000010210019N0250001N1+02301+02181100181ADDAA106000791AY161061GF108991081051022501999999MA1999999092841MD1210101+0001MW1211REMSYN094AAXX  15001 57633 11875 80000 10230 20218 39284 40018 52010 69901 72160 885// 333 00051 79999;
0112576330999992000071503004+28820+108770FM-12+066599999V0201401N001010075019N0300001N1+02761+02091100181ADDGF107991061041008001041999MD1210031+9999REMSYN060AAXX  15031 57633 42580 71401 10276 20209 40018 52003 8644/;
0199576330999992000071506004+28820+108770FM-12+066599999V0202201N001010075019N0300001N1+02941+02071100061ADDAA106000791AY181061GF107991061011008001041999KA1999N+02211MA1999999092771MD1710101+0001MW1001REMSYN094AAXX  15061 57633 11580 72201 10294 20207 39277 40006 57010 69901 70080 8614/ 333 00002 20221;
0142576330999992000071509004+28820+108770FM-12+066599999V0202201N001010360019N0300001N1+02931+02121100001ADDAY181031GF107991021011008001041999MD1710061+0001MW1001REMSYN076AAXX  15091 57633 41580 72201 10293 20212 40000 57006 70080 8214/ 333 00002;
0188576330999992000071512004+28820+108770FM-12+066599999V0209999C000010360019N0200001N1+02591+02311100231ADDAA106000191AY191061AY281061GF107991011021008001041999MA1999999092891MD1210181+0011MW1001REMSYN088AAXX  15121 57633 11570 70000 10259 20231 39289 40023 52018 69921 70098 8124/ 333 00100;
0112576330999992000071515004+28820+108770FM-12+066599999V0209999C000019999999N0180001N1+02471+02271100341ADDGF107991071001999999041999MD1210141+9999REMSYN060AAXX  15151 57633 42968 70000 10247 20227 40034 52014 8704/;
0192576330999992000071518004+28820+108770FM-12+066599999V0209999C000019999999N0150001N1+02391+02291100251ADDAA199000091GF107991071001999999071999KA1999M+03001MA1999999092961MD1710071+0201REMSYN082AAXX  15181 57633 32965 70000 10239 20229 39296 40025 57007 8707/ 333 00201 10300;EQDQ01  00002PRCP99
0160576330999992000071600004+28820+108770FM-12+066599999V0209999C000012200019N0100001N1+02381+02221100411ADDAA124000391GF102991021051004501001001MA1999999093071MD1210131+0201REMSYN082AAXX  16001 57633 32460 20000 10238 20222 39307 40041 52013 82500 333 00201 70002;
0112576330999992000071603004+28820+108770FM-12+066599999V0201801N002010360019N0300001N1+02991+02121100341ADDGF105991041021008001041001MD1710011+9999REMSYN060AAXX  16031 57633 42580 51802 10299 20212 40034 57001 84240;
0192576330999992000071606004+28820+108770FM-12+066599999V0202201N002010075019N0300001N1+03221+02041100191ADDAA199000091GF107991071021008001001001KA1999N+02211MA1999999092941MD1710121+0201REMSYN082AAXX  16061 57633 32580 72202 10322 20204 39294 40019 57012 87200 333 00203 20221;EQDQ01  00002PRCP99
0122576330999992000071609004+28820+108770FM-12+066599999V0209999C000010360019N0300001N1+03191+02091100041ADDGF105991031021008001041001MD1710161+0011REMSYN070AAXX  16091 57633 42580 50000 10319 20209 40004 57016 83240 333 00103;
0173576330999992000071612004+28820+108770FM-12+066599999V0209999C000012200019N0300001N1+02811+02191100091ADDAA199000091GF101991011041008001001001MA1999999092801MD1210021+0011REMSYN076AAXX  16121 57633 32580 10000 10281 20219 39280 40009 52002 81400 333 05102;EQDQ01  00002PRCP99
0112576330999992000071615004+28820+108770FM-12+066599999V0209999C000012200019N0150001N1+02481+02221100261ADDGF101991011001999999041001MD1210191+9999REMSYN060AAXX  16151 57633 42965 10000 10248 20222 40026 52019 81040;
0202576330999992000071618004+28820+108770FM-12+066599999V0209999C000012200019N0200001N1+02301+02171100201ADDAA199000091GA1001+999999999GF100991001001999999001001KA1999M+03371MA1999999092941MD1710051+0001REMSYN076AAXX  16181 57633 32970 00000 10230 20217 39294 40020 57005 333 00051 10337;EQDQ01  00002PRCP99
0132576330999992000071621004+28820+108770FM-12+066599999V0209999C000012200019N0200001N1+02201+02131100181ADDGA1001+999999999GF100991001001999999001001MD1710041+0001REMSYN064AAXX  16211 57633 42970 00000 10220 20213 40018 57004 333 00051;
0183576330999992000071700004+28820+108770FM-12+066599999V0209999C000012200019N0150001N1+02401+02171100261ADDAA199000091GA1001+999999999GF100991001001999999001001MA1999999092961MD1210061+0011REMSYN070AAXX  17001 57633 32965 00000 10240 20217 39296 40026 52006 333 05100;EQDQ01  00002PRCP99
0112576330999992000071703004+28820+108770FM-12+066599999V0201401N003012200019N0300001N1+03161+02121100081ADDGF103991031021008001001001MD1710121+9999REMSYN060AAXX  17031 57633 42580 31403 10316 20212 40008 57012 83200;
0192576330999992000071706004+28820+108770FM-12+066599999V0201401N002010360019N0300001N1+03331+02141099941ADDAA199000091GF105991041021008001041001KA1999N+02151MA1999999092711MD1710131-0201REMSYN082AAXX  17061 57633 32580 51402 10333 20214 39271 49994 57013 84240 333 05201 20215;EQDQ01  00002PRCP99
0122576330999992000071709004+28820+108770FM-12+066599999V0201601N003012200019N0300001N1+03321+02051099721ADDGF103991021021008001041001MD1710221+0031REMSYN070AAXX  17091 57633 42580 31603 10332 20205 49972 57022 82240 333 05301;
0173576330999992000071712004+28820+108770FM-12+066599999V0209999C000012200019N0300001N1+03001+02281099781ADDAA199000091GF103991001001999999001021MA1999999092531MD1210041+0031REMSYN076AAXX  17121 57633 32980 30000 10300 20228 39253 49978 52004 80002 333 05302;EQDQ01  00002PRCP99
0112576330999992000071715004+28820+108770FM-12+066599999V0209999C000012200019N0180001N1+02621+02291099951ADDGF102991021041008001041001MD1210201+9999REMSYN060AAXX  17151 57633 42568 20000 10262 20229 49995 52020 82440;
0192576330999992000071718004+28820+108770FM-12+066599999V0209999C000019999999N0200001N1+02491+02301099851ADDAA199000091GF107991001001999999001021KA1999M+03471MA1999999092651MD1710081-0301REMSYN082AAXX  17181 57633 32970 70000 10249 20230 39265 49985 57008 80002 333 05302 10347;EQDQ01  00002PRCP99
0132576330999992000071721004+28820+108770FM-12+066599999V0209999C000012200019N0200001N1+02391+02261099811ADDGA1001+999999999GF100991001001999999001001MD1710051+0031REMSYN064AAXX  17211 57633 42970 00000 10239 20226 49981 57005 333 05302;
0173576330999992000071800004+28820+108770FM-12+066599999V0209999C000019999999N0120001N1+02411+02271099941ADDAA199000091GF107991071001999999041999MA1999999092681MD1210081+0031REMSYN076AAXX  18001 57633 32962 70000 10241 20227 39268 49994 52008 8704/ 333 05300;EQDQ01  00002PRCP99
0112576330999992000071803004+28820+108770FM-12+066599999V0209999C000010360019N0150001N1+02971+02291099891ADDGF107991021011008001041001MD1710021+9999REMSYN060AAXX  18031 57633 42565 70000 10297 20229 49989 57002 82140;
0204576330999992000071806004+28820+108770FM-12+066599999V0200901N002010075019N0170001N1+03231+02111099741ADDAA199000091GF106991061091008001001001KA1999N+02291MA1999999092531MD1710131-0201MW1171REMSYN088AAXX  18061 57633 31567 60902 10323 20211 39253 49974 57013 71700 86900 333 05251 20229;EQDQ01  00002PRCP99
0122576330999992000071809004+28820+108770FM-12+066599999V0201101N002010120019N0180001N1+03121+02271099541ADDGF107991071081008001999999MD1710211+0021REMSYN070AAXX  18091 57633 42568 71102 10312 20227 49954 57021 878// 333 05252;
0173576330999992000071812004+28820+108770FM-12+066599999V0209999C000010360019N0150001N1+02871+02211099671ADDAA199000091GF106991021021008001041001MA1999999092421MD1210101+0011REMSYN076AAXX  18121 57633 32565 60000 10287 20221 39242 49967 52010 82240 333 05151;EQDQ01  00002PRCP99
0112576330999992000071815004+28820+108770FM-12+066599999V0203601N001019999999N0150001N1+02671+02271099841ADDGF107991071001999999041001MD1210201+9999REMSYN060AAXX  18151 57633 42965 73601 10267 20227 49984 52020 87040;
0192576330999992000071818004+28820+108770FM-12+066599999V0209999C000019999999N0150001N1+02501+02121099761ADDAA199000091GF106991061001999999041001KA1999M+03361MA1999999092551MD1710071-0101REMSYN082AAXX  18181 57633 32965 60000 10250 20212 39255 49976 57007 86040 333 05100 10336;EQDQ01  00002PRCP99
0122576330999992000071821004+28820+108770FM-12+066599999V0209999C000019999999N0150001N1+02361+02161099711ADDGF107991071001999999031999MD1710071+0011REMSYN070AAXX  18211 57633 42965 70000 10236 20216 49971 57007 8703/ 333 05100;
0173576330999992000071900004+28820+108770FM-12+066599999V0209999C000019999999N0150001N1+02391+02171099871ADDAA199000091GF108991081001999999071999MA1999999092601MD1210121+0011REMSYN076AAXX  19001 57633 32965 80000 10239 20217 39260 49987 52012 8807/ 333 05100;EQDQ01  00002PRCP99
0112576330999992000071903004+28820+108770FM-12+066599999V0209999C000010360019N0150001N1+02941+02131099781ADDGF106991011011008001041001MD1710041+9999REMSYN060AAXX  19031 57633 42565 60000 10294 20213 49978 57004 81140;
0207576330999992000071906004+28820+108770FM-12+066599999V0201401N001010360019N0170001N1+02831+02311099771ADDAA106002091AY191061AY281061GF106991011011008001041001KA1999N+02281MA1999999092521MD1710041+0001MW1291REMSYN094AAXX  19061 57633 11567 61401 10283 20231 39252 49977 57004 60021 72998 81140 333 00054 20228;
0134576330999992000071909004+28820+108770FM-12+066599999V0202501N001012200019N0150001N1+02991+02311099641ADDGF102991021011008001001001MD1710121+0011MW1251REMSYN076AAXX  19091 57633 41565 22501 10299 20231 49964 57012 72500 82100 333 00151;
0188576330999992000071912004+28820+108770FM-12+066599999V0209999C000010075019N0150001N1+02331+02141100111ADDAA106003091AY191061AY281061GF108991081091008001999999MA1999999092761MD1210361+0031MW1951REMSYN088AAXX  19121 57633 11565 80000 10233 20214 39276 40011 52036 60031 79598 889// 333 00355;
0140576330999992000071915004+28820+108770FM-12+066599999V0209999C000010120019N0150001N1+02271+02121100211ADDAY191031AY281031GF108991081051012501999999MD1210151+9999MW1251REMSYN066AAXX  19151 57633 41665 80000 10227 20212 40021 52015 72598 885//;
0207576330999992000071918004+28820+108770FM-12+066599999V0209999C000019999999N0150001N1+02261+02191100181ADDAA106000591AY191061AY281061GF108991081001999999071999KA1999M+03231MA1999999092871MD1710041+0301MW1001REMSYN094AAXX  19181 57633 11965 80000 10226 20219 39287 40018 57004 69951 70098 8807/ 333 00352 10323;
0139576330999992000071921004+28820+108770FM-12+066599999V0209999C000019999999N0120001N1+02231+02171100081ADDAA124005891GF105991051001999999041001MD1710081+0301REMSYN076AAXX  19211 57633 42962 50000 10223 20217 40008 57008 85040 333 00351 70058;
0172576330999992000072000004+28820+108770FM-12+066599999V0209999C000010360019N0090001N1+02321+02171100351ADDAA124005891GF107991011061004501041999MA1999999092971MD1210181+0401MW1101REMSYN088AAXX  20001 57633 31459 70000 10232 20217 39297 40035 52018 71000 8164/ 333 00451 70058;
0112576330999992000072003004+28820+108770FM-12+066599999V0200901N001010120019N0120001N1+02691+02261100401ADDGF107991071081008001999999MD1210091+9999REMSYN060AAXX  20031 57633 42562 70901 10269 20226 40040 52009 878//;
0207576330999992000072006004+28820+108770FM-12+066599999V0202201N001010120019N0180001N1+02691+02321100411ADDAA106015091AY181061AY261061GF107991071081008001999999KA1999N+02201MA1999999093061MD1410001+0501MW1801REMSYN094AAXX  20061 57633 11568 72201 10269 20232 39306 40041 54000 60151 78086 878// 333 00551 20220;
0142576330999992000072009004+28820+108770FM-12+066599999V0201801N001010360019N0250001N1+02591+02231100321ADDAY181031GF107991011011008001041021MD1710091+0061MW1001REMSYN076AAXX  20091 57633 41575 71801 10259 20223 40032 57009 70080 81142 333 00654;
0180576330999992000072012004+28820+108770FM-12+066599999V0209999C000010900019N0220001N1+02481+02261100471ADDAA106000791AY181061GF105991011041008001041021MA1999999093101MD1210131+0031MW1001REMSYN088AAXX  20121 57633 11572 50000 10248 20226 39310 40047 52013 69901 70080 81442 333 00302;
0112576330999992000072015004+28820+108770FM-12+066599999V0209999C000012200019N0120001N1+02301+02211100631ADDGF103991031001999999041001MD1210171+9999REMSYN060AAXX  20151 57633 42962 30000 10230 20221 40063 52017 83040;
0199576330999992000072018004+28820+108770FM-12+066599999V0209999C000010075019N0150001N1+02321+02231100611ADDAA106002091AY181061GF108991081051008001999999KA1999M+02751MA1999999093261MD1710011+0401MW1001REMSYN094AAXX  20181 57633 11565 80000 10232 20223 39326 40061 57001 60021 70080 885// 333 00401 10275;
0151576330999992000072021004+28820+108770FM-12+066599999V0209999C000010150019N0120001N1+02281+02221100621ADDAA124016591GF107991071051017501999999MD1710011+0501MW1211REMSYN082AAXX  20211 57633 41762 70000 10228 20222 40062 57001 72100 875// 333 00501 70165;
0186576330999992000072100004+28820+108770FM-12+066599999V0209999C000010360019N0100001N1+02361+02231100721ADDAA106000791AY161061GF107991021011008001041021MA1999999093341MD1210091+0401MW1001REMSYN094AAXX  21001 57633 11560 70000 10236 20223 39334 40072 52009 69901 70060 82142 333 00400 70165;
0112576330999992000072103004+28820+108770FM-12+066599999V0201101N002010075019N0300001N1+02821+02281100691ADDGF107991061041008001041021MD1410001+9999REMSYN060AAXX  21031 57633 42580 71102 10282 20228 40069 54000 86442;
0199576330999992000072106004+28820+108770FM-12+066599999V0201401N005010075019N0100001N1+02641+02161100671ADDAA106000791AY181061GF108991081091008001999999KA1999N+02261MA1999999093311MD1710031+0301MW1951REMSYN094AAXX  21061 57633 11560 81405 10264 20216 39331 40067 57003 69901 79580 889// 333 00351 20226;
0150576330999992000072109004+28820+108770FM-12+066599999V0202001N002010042019N0170001N1+02501+02241100571ADDAY191031AY281031GF108991081051004501999999MD1710121+0021MW1601REMSYN076AAXX  21091 57633 41467 82002 10250 20224 40057 57012 76098 885// 333 00251;
0188576330999992000072112004+28820+108770FM-12+066599999V0201401N001010360019N0300001N1+02491+02321100571ADDAA106003091AY191061AY261061GF106991041021008001041001MA1999999093201MD1210011+0011MW1801REMSYN088AAXX  21121 57633 11580 61401 10249 20232 39320 40057 52001 60031 78096 84240 333 00100;
0132576330999992000072115004+28820+108770FM-12+066599999V0209999C000019999999N0150001N1+02371+02271100681ADDAY181031GF106991061001999999041001MD1210141+9999MW1001REMSYN066AAXX  21151 57633 41965 60000 10237 20227 40068 52014 70080 86040;
0199576330999992000072118004+28820+108770FM-12+066599999V0209999C000019999999N0120001N1+02311+02241100611ADDAA106000791AY181061GF107991071001999999041999KA1999M+02951MA1999999093251MD1710091+0001MW1001REMSYN094AAXX  21181 57633 11962 70000 10231 20224 39325 40061 57009 69901 70080 8704/ 333 00000 10295;
0139576330999992000072121004+28820+108770FM-12+066599999V0209999C000019999999N0100001N1+02311+02251100551ADDAA124002891GF108991081001999999011999MD1710071-0101REMSYN076AAXX  21211 57633 42960 80000 10231 20225 40055 57007 8801/ 333 05100 70028;
0160576330999992000072200004+28820+108770FM-12+066599999V0209999C000010120019N0120001N1+02431+02261100561ADDAA124002891GF107991071081008001999999MA1999999093201MD1210021-0101REMSYN082AAXX  22001 57633 32562 70000 10243 20226 39320 40056 52002 878// 333 05101 70028;
0112576330999992000072203004+28820+108770FM-12+066599999V0201601N002010075019N0250001N1+02691+02221100521ADDGF106991061021008001001001MD1710021+9999REMSYN060AAXX  22031 57633 42575 61602 10269 20222 40052 57002 86200;
0192576330999992000072206004+28820+108770FM-12+066599999V0201601N002010075019N0300001N1+03041+02131100301ADDAA199000091GF106991061021008001001001KA1999N+02291MA1999999093011MD1710171-0301REMSYN082AAXX  22061 57633 32580 61602 10304 20213 39301 40030 57017 86200 333 05304 20229;EQDQ01  00002PRCP99
0122576330999992000072209004+28820+108770FM-12+066599999V0201401N002012200019N0300001N1+03081+02111100081ADDGF102991021021008001001001MD1710201+0041REMSYN070AAXX  22091 57633 42580 21402 10308 20211 40008 57020 82200 333 05406;
0173576330999992000072212004+28820+108770FM-12+066599999V0201401N001012200019N0300001N1+02771+02231100181ADDAA199000091GF102991011011008001041001MA1999999092881MD1210071+0031REMSYN076AAXX  22121 57633 32580 21401 10277 20223 39288 40018 52007 81140 333 05303;EQDQ01  00002PRCP99
0112576330999992000072215004+28820+108770FM-12+066599999V0209999C000012200019N0150001N1+02471+02251100411ADDGF101991011001999999041001MD1210211+9999REMSYN060AAXX  22151 57633 42965 10000 10247 20225 40041 52021 81040;
0202576330999992000072218004+28820+108770FM-12+066599999V0209999C000012200019N0150001N1+02321+02171100251ADDAA199000091GA1001+999999999GF100991001001999999001001KA1999M+03121MA1999999092961MD1710131-0301REMSYN076AAXX  22181 57633 32965 00000 10232 20217 39296 40025 57013 333 05300 10312;EQDQ01  00002PRCP99
0122576330999992000072221004+28820+108770FM-12+066599999V0209999C000012200019N0150001N1+02221+02131100181ADDGF102991011011008001041001MD1710071+0031REMSYN070AAXX  22211 57633 42565 20000 10222 20213 40018 57007 81140 333 05351;
0173576330999992000072300004+28820+108770FM-12+066599999V0209999C000010075019N0120001N1+02341+02191100261ADDAA199000091GF105991051011008001001001MA1999999092941MD1210051+0031REMSYN076AAXX  23001 57633 32562 50000 10234 20219 39294 40026 52005 85100 333 05351;EQDQ01  00002PRCP99
0112576330999992000072303004+28820+108770FM-12+066599999V0202001N002012200019N0300001N1+02881+02091100241ADDGF103991031011008001001001MD1210011+9999REMSYN060AAXX  23031 57633 42580 32002 10288 20209 40024 52001 83100;
0192576330999992000072306004+28820+108770FM-12+066599999V0202501N003012200019N0300001N1+03061+02011100101ADDAA199000091GF104991041011008001001021KA1999N+02171MA1999999092831MD1710121-0201REMSYN082AAXX  23061 57633 32580 42503 10306 20201 39283 40010 57012 84102 333 05200 20217;EQDQ01  00002PRCP99
0122576330999992000072309004+28820+108770FM-12+066599999V0202201N001012200019N0300001N1+03131+02121099901ADDGF103991021011008001001021MD1710191+0021REMSYN070AAXX  23091 57633 42580 32201 10313 20212 49990 57019 82102 333 05201;
0173576330999992000072312004+28820+108770FM-12+066599999V0209999C000012200019N0300001N1+02841+02211099981ADDAA199000091GF102991001001999999001021MA1999999092691MD1210051+0021REMSYN076AAXX  23121 57633 32980 20000 10284 20221 39269 49998 52005 80002 333 05201;EQDQ01  00002PRCP99
0112576330999992000072315004+28820+108770FM-12+066599999V0209999C000019999999N0300001N1+02491+02231100141ADDGF106991061001999999041001MD1210171+9999REMSYN060AAXX  23151 57633 42980 60000 10249 20223 40014 52017 86040;
0192576330999992000072318004+28820+108770FM-12+066599999V0209999C000019999999N0200001N1+02361+02231100051ADDAA199000091GF107991071001999999041999KA1999M+03231MA1999999092791MD1710071-0201REMSYN082AAXX  23181 57633 32970 70000 10236 20223 39279 40005 57007 8704/ 333 05200 10323;EQDQ01  00002PRCP99
0122576330999992000072321004+28820+108770FM-12+066599999V0209999C000019999999N0150001N1+02301+02171100071ADDGF107991071001999999031999MD1210021+0011REMSYN070AAXX  23211 57633 42965 70000 10230 20217 40007 52002 8703/ 333 05101;
0173576330999992000072400004+28820+108770FM-12+066599999V0209999C000012200019N0180001N1+02521+02231100211ADDAA199000091GF104991011011008001001021MA1999999092931MD1210121+0001REMSYN076AAXX  24001 57633 32568 40000 10252 20223 39293 40021 52012 81102 333 00002;EQDQ01  00002PRCP99
0112576330999992000072403004+28820+108770FM-12+066599999V0202501N002012200019N0300001N1+02951+02011100211ADDGF103991021011008001001021MD1210011+9999REMSYN060AAXX  24031 57633 42580 32502 10295 20201 40021 52001 82102;
0192576330999992000072406004+28820+108770FM-12+066599999V0202001N003012200019N0300001N1+03151+02131100111ADDAA199000091GF104991031011008001001021KA1999N+02251MA1999999092851MD1710091+0001REMSYN082AAXX  24061 57633 32580 42003 10315 20213 39285 40011 57009 83102 333 00001 20225;EQDQ01  00002PRCP99
0122576330999992000072409004+28820+108770FM-12+066599999V0202501N002012200019N0300001N1+03211+02081099921ADDGF102991021011008001001001MD1710171+0001REMSYN070AAXX  24091 57633 42580 22502 10321 20208 49992 57017 82100 333 00001;
0173576330999992000072412004+28820+108770FM-12+066599999V0209999C000012200019N0300001N1+02921+02191100011ADDAA199000091GF104991011011008001041021MA1999999092751MD1210071+0011REMSYN076AAXX  24121 57633 32580 40000 10292 20219 39275 40001 52007 81142 333 00101;EQDQ01  00002PRCP99
0112576330999992000072415004+28820+108770FM-12+066599999V0209999C000019999999N0200001N1+02641+02191100121ADDGF107991071001999999031999MD1210121+9999REMSYN060AAXX  24151 57633 42970 70000 10264 20219 40012 52012 8703/;
0192576330999992000072418004+28820+108770FM-12+066599999V0209999C000019999999N0150001N1+02431+02211100101ADDAA199000091GF107991071001999999041001KA1999M+03271MA1999999092851MD1710021+0101REMSYN082AAXX  24181 57633 32965 70000 10243 20221 39285 40010 57002 87040 333 00101 10327;EQDQ01  00002PRCP99
0122576330999992000072421004+28820+108770FM-12+066599999V0209999C000012200019N0120001N1+02301+02181100111ADDGF102991021001999999041001MD1410001+0001REMSYN070AAXX  24211 57633 42962 20000 10230 20218 40011 54000 82040 333 00000;
0173576330999992000072500004+28820+108770FM-12+066599999V0209999C000012200019N0120001N1+02501+02211100231ADDAA199000091GF102991021001999999041001MA1999999092951MD1210101+0001REMSYN076AAXX  25001 57633 32962 20000 10250 20221 39295 40023 52010 82040 333 00000;EQDQ01  00002PRCP99
0112576330999992000072503004+28820+108770FM-12+066599999V0201401N002010120019N0300001N1+02941+02181100171ADDGF107991071081008001999999MD1710031+9999REMSYN060AAXX  25031 57633 42580 71402 10294 20218 40017 57003 878//;
0192576330999992000072506004+28820+108770FM-12+066599999V0201801N001010075019N0250001N1+03131+02251100031ADDAA199000091GF106991061011008001001001KA1999N+02271MA1999999092781MD1710141-0101REMSYN082AAXX  25061 57633 32575 61801 10313 20225 39278 40003 57014 86100 333 05100 20227;EQDQ01  00002PRCP99
0122576330999992000072509004+28820+108770FM-12+066599999V0201401N002010075019N0300001N1+03201+02191099831ADDGF106991061021008001001001MD1710191+0011REMSYN070AAXX  25091 57633 42580 61402 10320 20219 49983 57019 86200 333 05100;
0173576330999992000072512004+28820+108770FM-12+066599999V0209999C000012200019N0200001N1+02941+02431099861ADDAA199000091GF101991001001999999001011MA1999999092611MD1210021+0011REMSYN076AAXX  25121 57633 32970 10000 10294 20243 39261 49986 52002 80001 333 05100;EQDQ01  00002PRCP99
0112576330999992000072515004+28820+108770FM-12+066599999V0209999C000019999999N0120001N1+02691+02411100031ADDGF107991071001999999041999MD1210181+9999REMSYN060AAXX  25151 57633 42962 70000 10269 20241 40003 52018 8704/;
0192576330999992000072518004+28820+108770FM-12+066599999V0209999C000012200019N0100001N1+02501+02361100011ADDAA199000091GF102991021001999999041001KA1999M+03331MA1999999092771MD1710021-0101REMSYN082AAXX  25181 57633 32960 20000 10250 20236 39277 40001 57002 82040 333 05101 10333;EQDQ01  00002PRCP99
0122576330999992000072521004+28820+108770FM-12+066599999V0209999C000012200019N0100001N1+02431+02331100001ADDGF102991021001999999041001MD1710011+0011REMSYN070AAXX  25211 57633 42960 20000 10243 20233 40000 57001 82040 333 05101;
0173576330999992000072600004+28820+108770FM-12+066599999V0209999C000019999999N0120001N1+02491+02331100131ADDAA199000091GF108991081001999999011999MA1999999092861MD1210101+0011REMSYN076AAXX  26001 57633 32962 80000 10249 20233 39286 40013 52010 8801/ 333 05100;EQDQ01  00002PRCP99
0112576330999992000072603004+28820+108770FM-12+066599999V0201601N003010075019N0150001N1+02981+02221100131ADDGF105991051011008001001021MD1210031+9999REMSYN060AAXX  26031 57633 42565 51603 10298 20222 40013 52003 85102;
0192576330999992000072606004+28820+108770FM-12+066599999V0201101N002012200019N0250001N1+03321+02231099901ADDAA199000091GF103991031021008001001021KA1999N+02361MA1999999092691MD1710201-0101REMSYN082AAXX  26061 57633 32575 31102 10332 20223 39269 49990 57020 83202 333 05102 20236;EQDQ01  00002PRCP99
0122576330999992000072609004+28820+108770FM-12+066599999V0209999C000010360019N0300001N1+03291+02231099741ADDGF108991021011008001021999MD1710161+0011REMSYN070AAXX  26091 57633 42580 80000 10329 20223 49974 57016 8212/ 333 05101;
0173576330999992000072612004+28820+108770FM-12+066599999V0209999C000019999999N0150001N1+02941+02461099901ADDAA199000091GF108991081001999999021999MA1999999092651MD1210121+0001REMSYN076AAXX  26121 57633 32965 80000 10294 20246 39265 49990 52012 8802/ 333 00000;EQDQ01  00002PRCP99
0112576330999992000072615004+28820+108770FM-12+066599999V0209999C000019999999N0150001N1+02711+02471099961ADDGF108991081001999999021999MD1210081+9999REMSYN060AAXX  26151 57633 42965 80000 10271 20247 49996 52008 8802/;
0192576330999992000072618004+28820+108770FM-12+066599999V0209999C000019999999N0150001N1+02581+02411099811ADDAA199000091GF106991061001999999041001KA1999M+03371MA1999999092621MD1710111-0201REMSYN082AAXX  26181 57633 32965 60000 10258 20241 39262 49981 57011 86040 333 05201 10337;EQDQ01  00002PRCP99
0132576330999992000072621004+28820+108770FM-12+066599999V0209999C000012200019N0100001N1+02461+02381099821ADDGA1001+999999999GF100991001001999999001001MD1710011+0021REMSYN064AAXX  26211 57633 42960 00000 10246 20238 49982 57001 333 05200;
0183576330999992000072700004+28820+108770FM-12+066599999V0209999C000012200019N0120001N1+02561+02361099951ADDAA199000091GA1001+999999999GF100991001001999999001001MA1999999092701MD1210091+0021REMSYN070AAXX  27001 57633 32962 00000 10256 20236 39270 49995 52009 333 05201;EQDQ01  00002PRCP99
0112576330999992000072703004+28820+108770FM-12+066599999V0201401N002012200019N0200001N1+03171+02391099901ADDGF102991021011008001001001MD1410001+9999REMSYN060AAXX  27031 57633 42570 21402 10317 20239 49990 54000 82100;
0192576330999992000072706004+28820+108770FM-12+066599999V0201401N003012200019N0250001N1+03371+02341099701ADDAA199000091GF104991041021008001001001KA1999N+02381MA1999999092521MD1710181-0201REMSYN082AAXX  27061 57633 32575 41403 10337 20234 39252 49970 57018 84200 333 05201 20238;EQDQ01  00002PRCP99
0150576330999992000072709004+28820+108770FM-12+066599999V0209999C000010075019N0100001N1+02391+02211099891ADDAY191031AY281031GF107991071091008001001001MD1210061+0011MW1951REMSYN076AAXX  27091 57633 41560 70000 10239 20221 49989 52006 79598 87900 333 00159;
0188576330999992000072712004+28820+108770FM-12+066599999V0201601N002019999999N0150001N1+02461+02311099961ADDAA106005191AY191061AY281061GF108991081001999999071999MA1999999092661MD1210081+0001MW1001REMSYN088AAXX  27121 57633 11965 81602 10246 20231 39266 49996 52008 60051 70098 8807/ 333 00055;
0112576330999992000072715004+28820+108770FM-12+066599999V0209999C000019999999N0120001N1+02421+02351100021ADDGF108991081001999999071999MD1210131+9999REMSYN060AAXX  27151 57633 42962 80000 10242 20235 40002 52013 8807/;
0159576330999992000072718004+28820+108770FM-12+066599999V0209999C000012200019N0100001N1+02351+02311099951ADDAA199000021GF103991999999999999999999MA1999999092731MD1999999+0101REMSYN081AAXX  27181 57633 32960 30000 10235 20231 39273 49995 5700 83040 333 00152 10339;
0151576330999992000072721004+28820+108770FM-12+066599999V0209999C000012200019N0070001N1+02301+02261100001ADDAA124005191GF102991021001999999041001MD1710061+0101MW1101REMSYN082AAXX  27211 57633 41957 20000 10230 20226 40000 57006 71000 82040 333 00152 70052;
0172576330999992000072800004+28820+108770FM-12+066599999V0209999C000019999999N0070001N1+02431+02321100171ADDAA124005191GF106991021001999999041021MA1999999092841MD1210171+0101MW1101REMSYN088AAXX  28001 57633 31957 60000 10243 20232 39284 40017 52017 71000 82042 333 00151 70052;
0112576330999992000072803004+28820+108770FM-12+066599999V0201401N003010900019N0170001N1+03081+02351100141ADDGF108991011011008001001071MD1210051+9999REMSYN060AAXX  28031 57633 42567 81403 10308 20235 40014 52005 81107;
0192576330999992000072806004+28820+108770FM-12+066599999V0201401N002010360019N0200001N1+03261+02321100001ADDAA199000091GF108991011021008001011999KA1999N+02261MA1999999092761MD1710121+0201REMSYN082AAXX  28061 57633 32570 81402 10326 20232 39276 40000 57012 8121/ 333 00251 20226;EQDQ01  00002PRCP99
0122576330999992000072809004+28820+108770FM-12+066599999V0201101N003010360019N0180001N1+03331+02401099811ADDGF108991011021008001011999MD1710171+0001REMSYN070AAXX  28091 57633 42568 81103 10333 20240 49981 57017 8121/ 333 00009;
0173576330999992000072812004+28820+108770FM-12+066599999V0209999C000010360019N0150001N1+03001+02591100001ADDAA199000091GF108991011021008001071999MA1999999092741MD1210151+0011REMSYN076AAXX  28121 57633 32565 80000 10300 20259 39274 40000 52015 8127/ 333 00105;EQDQ01  00002PRCP99
0112576330999992000072815004+28820+108770FM-12+066599999V0209999C000019999999N0120001N1+02721+02551100121ADDGF107991071001999999041999MD1210151+9999REMSYN060AAXX  28151 57633 42962 70000 10272 20255 40012 52015 8704/;
0204576330999992000072818004+28820+108770FM-12+066599999V0209999C000010075019N0100001N1+02631+02511100061ADDAA199000091GF107991071091008001001001KA1999M+03411MA1999999092851MD1710041+0101MW1131REMSYN088AAXX  28181 57633 31560 70000 10263 20251 39285 40006 57004 71300 87900 333 00103 10341;EQDQ01  00002PRCP99
0122576330999992000072821004+28820+108770FM-12+066599999V0209999C000019999999N0100001N1+02541+02431100051ADDGF108991081001999999071999MD1710011+0021REMSYN070AAXX  28211 57633 42960 80000 10254 20243 40005 57001 8807/ 333 00202;
0173576330999992000072900004+28820+108770FM-12+066599999V0209999C000019999999N0100001N1+02601+02471100201ADDAA199000091GF105991051001999999041001MA1999999092951MD1210111+0011REMSYN076AAXX  29001 57633 32960 50000 10260 20247 39295 40020 52011 85040 333 00102;EQDQ01  00002PRCP99
0112576330999992000072903004+28820+108770FM-12+066599999V0201401N002012200019N0200001N1+03081+02311100181ADDGF103991021011008001041001MD1210011+9999REMSYN060AAXX  29031 57633 42570 31402 10308 20231 40018 52001 82140;
0192576330999992000072906004+28820+108770FM-12+066599999V0201401N002010075019N0180001N1+03341+02291099921ADDAA199000091GF105991051021008001001001KA1999N+02481MA1999999092741MD1710221+0001REMSYN082AAXX  29061 57633 32568 51402 10334 20229 39274 49992 57022 85200 333 00001 20248;EQDQ01  00002PRCP99
0150576330999992000072909004+28820+108770FM-12+066599999V0200701N002010075019N0170001N1+02581+02171100241ADDAY191031AY281031GF108991061091008001021999MD1210191+0031MW1171REMSYN076AAXX  29091 57633 41567 80702 10258 20217 40024 52019 71798 8692/ 333 00358;
0188576330999992000072912004+28820+108770FM-12+066599999V0209999C000010360019N0150001N1+02431+02271100441ADDAA106000591AY191061AY281061GF108991021071004501021999MA1999999093101MD1210181+0041MW1911REMSYN088AAXX  29121 57633 11465 80000 10243 20227 39310 40044 52018 69941 79198 8272/ 333 00456;
0132576330999992000072915004+28820+108770FM-12+066599999V0201401N002010360019N0120001N1+02391+02221100521ADDAY161031GF108991031071004501021999MD1210131+9999MW1211REMSYN066AAXX  29151 57633 41462 81402 10239 20222 40052 52013 72160 8372/;
0199576330999992000072918004+28820+108770FM-12+066599999V0209999C000019999999N0120001N1+02391+02171100481ADDAA106000191AY161061GF108991081001999999021999KA1999M+03371MA1999999093221MD1710011+0401MW1001REMSYN094AAXX  29181 57633 11962 80000 10239 20217 39322 40048 57001 69911 70060 8802/ 333 00452 10337;
0159576330999992000072921004+28820+108770FM-12+066599999V0203401N001019999999N0100001N1+02201+01861100741ADDAA124001591AY161031GF108991081001999999021999MD1210131+0501MW1601REMSYN082AAXX  29211 57633 41960 83401 10220 20186 40074 52013 76060 8802/ 333 00553 70015;
0186576330999992000073000004+28820+108770FM-12+066599999V0200201N001019999999N0300001N1+02041+01821100841ADDAA106003091AY161061GF108991081001999999071999MA1999999093411MD1210061+0501MW1001REMSYN094AAXX  30001 57633 11980 80201 10204 20182 39341 40084 52006 60031 70060 8807/ 333 00556 70034;
0112576330999992000073003004+28820+108770FM-12+066599999V0201401N001019999999N0300001N1+02341+01851100861ADDGF108991081001999999071999MD1210051+9999REMSYN060AAXX  30031 57633 42980 81401 10234 20185 40086 52005 8807/;
0144576330999992000073006004+28820+108770FM-12+066599999V0201401N003019999999N0300001N1+02701+99999999999ADDAA199000021GF107991999999999999999999MD1999999+0601REMSYN081AAXX  30061 57633 32980 71403 10270 2016 39328 40062 57018 8704/ 333 00656 20192;
0142576330999992000073009004+28820+108770FM-12+066599999V0202001N001010360019N0300001N1+02711+01901100511ADDAY161031GF107991011011008001041999MD1710131+0021MW1001REMSYN076AAXX  30091 57633 41580 72001 10271 20190 40051 57013 70060 8114/ 333 00201;
0180576330999992000073012004+28820+108770FM-12+066599999V0201401N001019999999N0300001N1+02441+01891100571ADDAA106000791AY161061GF107991021001999999041021MA1999999093161MD1210011+0011MW1001REMSYN088AAXX  30121 57633 11980 71401 10244 20189 39316 40057 52001 69901 70060 82042 333 00100;
0122576330999992000073015004+28820+108770FM-12+066599999V0209999C000012200019N0150001N1+02211+01941100741ADDGA1001+999999999GF100991001001999999001001MD1210161+9999REMSYN054AAXX  30151 57633 42965 00000 10221 20194 40074 52016;
0202576330999992000073018004+28820+108770FM-12+066599999V0209999C000012200019N0150001N1+02011+01861100661ADDAA199000091GA1001+999999999GF100991001001999999001001KA1999M+02761MA1999999093271MD1710051+0101REMSYN076AAXX  30181 57633 32965 00000 10201 20186 39327 40066 57005 333 00154 10276;EQDQ01  00002PRCP99
0149576330999992000073021004+28820+108770FM-12+066599999V0209999C000012200019N0100001N1+01861+01781100631ADDAA124001891GA1001+999999999GF100991001001999999001001MD1710051-0101REMSYN070AAXX  30211 57633 42960 00000 10186 20178 40063 57005 333 05153 70019;
0170576330999992000073100004+28820+108770FM-12+066599999V0209999C000012200019N0100001N1+01911+01801100721ADDAA124000791GA1001+999999999GF100991001001999999001001MA1999999093281MD1210061-0101REMSYN076AAXX  31001 57633 32960 00000 10191 20180 39328 40072 52006 333 05151 79999;
0112576330999992000073103004+28820+108770FM-12+066599999V0201601N002012200019N0300001N1+02771+01721100561ADDGF101991011011008001001001MD1710071+9999REMSYN060AAXX  31031 57633 42580 11602 10277 20172 40056 57007 81100;
0192576330999992000073106004+28820+108770FM-12+066599999V0201401N002012200019N0300001N1+03111+01511100331ADDAA199000091GF103991031021008001001001KA1999N+01791MA1999999093011MD1710201-0301REMSYN082AAXX  31061 57633 32580 31402 10311 20151 39301 40033 57020 83200 333 05304 20179;EQDQ01  00002PRCP99
0122576330999992000073109004+28820+108770FM-12+066599999V0201601N002012200019N0300001N1+03161+01501100161ADDGF103991031011008001001001MD1710171+0031REMSYN070AAXX  31091 57633 42580 31602 10316 20150 40016 57017 83100 333 05305;
0173576330999992000073112004+28820+108770FM-12+066599999V0202001N002012200019N0300001N1+02611+01571100301ADDAA199000091GF101991011011008001001001MA1999999092911MD1210071+0031REMSYN076AAXX  31121 57633 32580 12002 10261 20157 39291 40030 52007 81100 333 05302;EQDQ01  00002PRCP99
0122576330999992000073115004+28820+108770FM-12+066599999V0209999C000012200019N0180001N1+02141+01751100491ADDGA1001+999999999GF100991001001999999001001MD1210221+9999REMSYN054AAXX  31151 57633 42968 00000 10214 20175 40049 52022;
0202576330999992000073118004+28820+108770FM-12+066599999V0209999C000012200019N0150001N1+01931+01761100471ADDAA199000091GA1001+999999999GF100991001001999999001001KA1999M+03201MA1999999093131MD1410001-0101REMSYN076AAXX  31181 57633 32965 00000 10193 20176 39313 40047 54000 333 05151 10320;EQDQ01  00002PRCP99
0132576330999992000073121004+28820+108770FM-12+066599999V0209999C000012200019N0100001N1+01781+01681100461ADDGA1001+999999999GF100991001001999999001001MD1710021+0011REMSYN064AAXX  31211 57633 42960 00000 10178 20168 40046 57002 333 05151;
0173576330999992000080100004+28820+108770FM-12+066599999V0209999C000019999999N0200001N1+01951+01711100581ADDAA199000091GF107991001001999999001021MA1999999093181MD1210071+0011REMSYN076AAXX  01001 57633 32970 70000 10195 20171 39318 40058 52007 80002 333 05100;EQDQ01  00002PRCP99
0112576330999992000080103004+28820+108770FM-12+066599999V0201401N002010360019N0300001N1+02801+01711100551ADDGF107991011011008001041999MD1210011+9999REMSYN060AAXX  01031 57633 42580 71402 10280 20171 40055 52001 8114/;
0192576330999992000080106004+28820+108770FM-12+066599999V0201401N002010360019N0300001N1+02951+01501100461ADDAA199000091GF107991011011008001041999KA1999N+01711MA1999999093101MD1710091+0101REMSYN082AAXX  01061 57633 32580 71402 10295 20150 39310 40046 57009 8114/ 333 00152 20171;EQDQ01  00002PRCP99
0180576330999992000080112004+28820+108770FM-12+066599999V0209999C000019999999N0180001N1+02561+01961100411ADDAA106000791AY161061GF108991081001999999071999MA1999999093011MD1210011+0011MW1211REMSYN088AAXX  01121 57633 11968 80000 10256 20196 39301 40041 52001 69901 72160 8807/ 333 00151;
0132576330999992000080115004+28820+108770FM-12+066599999V0209999C000010150019N0150001N1+02361+01951100541ADDAY161031GF108991081051017501999999MD1210201+9999MW1601REMSYN066AAXX  01151 57633 41765 80000 10236 20195 40054 52020 76060 885//;
0199576330999992000080118004+28820+108770FM-12+066599999V0209999C000010150019N0120001N1+02231+02051100511ADDAA106000791AY161061GF108991081051017501999999KA1999M+03071MA1999999093181MD1710031+0101MW1601REMSYN094AAXX  01181 57633 11762 80000 10223 20205 39318 40051 57003 69901 76060 885// 333 00103 10307;
0167576330999992000080121004+28820+108770FM-12+066599999V0209999C000010042019N0090001N1+02141+02041100441ADDAA124000591AY161031AY261031GF108991081051004501999999MD1710081+0001MW1601REMSYN082AAXX  01211 57633 41459 80000 10214 20204 40044 57008 76066 885// 333 00004 70005;
0194576330999992000080200004+28820+108770FM-12+066599999V0209999C000010042019N0070001N1+02121+02031100531ADDAA106004191AY161061AY261061GF108991081071004501999999MA1999999093141MD1210041+0001MW1601REMSYN094AAXX  02001 57633 11457 80000 10212 20203 39314 40053 52004 60041 76066 887// 333 00002 70038;
0140576330999992000080203004+28820+108770FM-12+066599999V0203201N001010042019N0120001N1+02151+01981100561ADDAY161031AY261031GF108991081071004501999999MD1210011+9999MW1601REMSYN066AAXX  02031 57633 41462 83201 10215 20198 40056 52001 76066 887//;
0199576330999992000080206004+28820+108770FM-12+066599999V0203401N001010120019N0150001N1+02301+01891100361ADDAA106006191AY161061GF108991081081008001999999KA1999N+02081MA1999999092971MD1710181-0101MW1001REMSYN094AAXX  02061 57633 11565 83401 10230 20189 39297 40036 57018 60061 70060 888// 333 05157 20208;
0122576330999992000080209004+28820+108770FM-12+066599999V0200201N001010150019N0150001N1+02261+01991100281ADDGF108991081051017501999999MD1710091+0011REMSYN070AAXX  02091 57633 42765 80201 10226 20199 40028 57009 885// 333 05157;
0180576330999992000080212004+28820+108770FM-12+066599999V0209999C000010042019N0120001N1+02181+02001100341ADDAA106000791AY161061GF108991081051004501999999MA1999999092921MD1210041+0011MW1601REMSYN088AAXX  02121 57633 11462 80000 10218 20200 39292 40034 52004 69901 76060 885// 333 05154;
0140576330999992000080215004+28820+108770FM-12+066599999V0209999C000010042019N0100001N1+02161+02071100431ADDAY161031AY261031GF108991081071004501999999MD1210091+9999MW1601REMSYN066AAXX  02151 57633 41460 80000 10216 20207 40043 52009 76066 887//;
0207576330999992000080218004+28820+108770FM-12+066599999V0209999C000010042019N0090001N1+02181+02081100291ADDAA106001091AY161061AY261061GF108991081051004501999999KA1999M+02351MA1999999092901MD1710111-0301MW1211REMSYN094AAXX  02181 57633 11459 80000 10218 20208 39290 40029 57011 60011 72166 885// 333 05351 10235;
0159576330999992000080221004+28820+108770FM-12+066599999V0209999C000010042019N0090001N1+02141+01991100281ADDAA124010291AY161031GF108991081051004501999999MD1710021-0201MW1601REMSYN082AAXX  02211 57633 41459 80000 10214 20199 40028 57002 76060 885// 333 05200 70101;
0186576330999992000080300004+28820+108770FM-12+066599999V0209999C000010042019N0070001N1+02091+02051100421ADDAA106005191AY161061GF108991081071004501999999MA1999999092991MD1210111-0201MW1601REMSYN094AAXX  03001 57633 11457 80000 10209 20205 39299 40042 52011 60051 76060 887// 333 05200 70121;
0140576330999992000080303004+28820+108770FM-12+066599999V0209999C000010042019N0120001N1+02161+02091100461ADDAY161031AY261031GF108991081071004501999999MD1210051+9999MW1601REMSYN066AAXX  03031 57633 41462 80000 10216 20209 40046 52005 76066 887//;
0207576330999992000080306004+28820+108770FM-12+066599999V0209999C000010042019N0150001N1+02261+02081100381ADDAA106005191AY161061AY261061GF108991081071004501999999KA1999N+02061MA1999999092981MD1710061+0001MW1601REMSYN094AAXX  03061 57633 11465 80000 10226 20208 39298 40038 57006 60051 76066 887// 333 00000 20206;
0142576330999992000080309004+28820+108770FM-12+066599999V0209999C000010042019N0150001N1+02291+02021100351ADDAY161031GF108991081071004501999999MD1710021+0011MW1601REMSYN076AAXX  03091 57633 41465 80000 10229 20202 40035 57002 76060 887// 333 00100;
0180576330999992000080312004+28820+108770FM-12+066599999V0200201N001010042019N0150001N1+02241+02051100441ADDAA106000791AY161061GF108991081071004501999999MA1999999093021MD1210081+0011MW1001REMSYN088AAXX  03121 57633 11465 80201 10224 20205 39302 40044 52008 69901 70060 887// 333 00101;
0132576330999992000080315004+28820+108770FM-12+066599999V0209999C000010042019N0100001N1+02181+02051100521ADDAY161031GF108991081071004501999999MD1210071+9999MW1601REMSYN066AAXX  03151 57633 41460 80000 10218 20205 40052 52007 76060 887//;
0199576330999992000080318004+28820+108770FM-12+066599999V0209999C000010042019N0100001N1+02151+02061100431ADDAA106000191AY161061GF108991081071004501999999KA1999M+02371MA1999999093021MD1710071+0101MW1601REMSYN094AAXX  03181 57633 11460 80000 10215 20206 39302 40043 57007 69911 76060 887// 333 00100 10237;
0167576330999992000080321004+28820+108770FM-12+066599999V0209999C000010042019N0080001N1+02111+02071100421ADDAA124017591AY161031AY261031GF108991081071004501999999MD1710011+0101MW1601REMSYN082AAXX  03211 57633 41458 80000 10211 20207 40042 57001 76066 887// 333 00100 70175;
0194576330999992000080400004+28820+108770FM-12+066599999V0209999C000010042019N0090001N1+02141+02071100491ADDAA106010991AY161061AY261061GF108991081071004501999999MA1999999093071MD1210061+0101MW1601REMSYN094AAXX  04001 57633 11459 80000 10214 20207 39307 40049 52006 60111 76066 887// 333 00101 70155;
0140576330999992000080403004+28820+108770FM-12+066599999V0209999C000010042019N0120001N1+02261+02051100591ADDAY161031AY261031GF108991081071004501999999MD1210101+9999MW1601REMSYN066AAXX  04031 57633 41462 80000 10226 20205 40059 52010 76066 887//;
0199576330999992000080406004+28820+108770FM-12+066599999V0209999C000010042019N0100001N1+02321+02081100541ADDAA106001091AY161061GF108991081071004501999999KA1999N+02101MA1999999093131MD1710041+0201MW1601REMSYN094AAXX  04061 57633 11460 80000 10232 20208 39313 40054 57004 69991 76060 887// 333 00201 20210;
0142576330999992000080409004+28820+108770FM-12+066599999V0209999C000010042019N0170001N1+02381+02151100461ADDAY161031GF108991081071004501999999MD1710071+0011MW1001REMSYN076AAXX  04091 57633 41467 80000 10238 20215 40046 57007 70060 887// 333 00101;
0180576330999992000080412004+28820+108770FM-12+066599999V0200201N001010042019N0150001N1+02321+02131100581ADDAA106000191AY161061GF108991081051004501999999MA1999999093161MD1210101+0011MW1001REMSYN088AAXX  04121 57633 11465 80201 10232 20213 39316 40058 52010 69911 70060 885// 333 00101;
0132576330999992000080415004+28820+108770FM-12+066599999V0209999C000010042019N0100001N1+02241+02181100771ADDAY161031GF108991081071004501999999MD1210181+9999MW1601REMSYN066AAXX  04151 57633 41460 80000 10224 20218 40077 52018 76060 887//;
0199576330999992000080418004+28820+108770FM-12+066599999V0209999C000010042019N0080001N1+02231+02191100671ADDAA106001091AY161061GF108991081071004501999999KA1999M+02401MA1999999093261MD1710081+0201MW1601REMSYN094AAXX  04181 57633 11458 80000 10223 20219 39326 40067 57008 60011 76060 887// 333 00201 10240;
0159576330999992000080421004+28820+108770FM-12+066599999V0209999C000010042019N0070001N1+02241+02181100651ADDAA124005691AY161031GF108991081071004501999999MD1710031+0201MW1101REMSYN082AAXX  04211 57633 41457 80000 10224 20218 40065 57003 71060 887// 333 00201 70055;
0186576330999992000080500004+28820+108770FM-12+066599999V0209999C000010042019N0080001N1+02301+02201100701ADDAA106000191AY161061GF108991081051004501999999MA1999999093291MD1210061+0201MW1211REMSYN094AAXX  05001 57633 11458 80000 10230 20220 39329 40070 52006 69911 72160 885// 333 00202 70022;
0132576330999992000080503004+28820+108770FM-12+066599999V0209999C000010042019N0060001N1+02371+02281100751ADDAY161031GF108991081071004501999999MD1210051+9999MW1601REMSYN066AAXX  05031 57633 41456 80000 10237 20228 40075 52005 76060 887//;
0199576330999992000080506004+28820+108770FM-12+066599999V0203601N001010042019N0150001N1+02491+02221100641ADDAA106000591AY161061GF108991081071004501999999KA1999N+02221MA1999999093251MD1710091+0101MW1211REMSYN094AAXX  05061 57633 11465 83601 10249 20222 39325 40064 57009 69961 72160 887// 333 00102 20222;
0122576330999992000080509004+28820+108770FM-12+066599999V0203401N001010120019N0150001N1+02691+02281100471ADDGF107991071081008001999999MD1710131+0011REMSYN070AAXX  05091 57633 42565 73401 10269 20228 40047 57013 878// 333 00103;
0154576330999992000080512004+28820+108770FM-12+066599999V0203201N001010075019N0150001N1+02561+02201100591ADDAA199000021GF106991051041008001041001MA1999999093221MD1210101+0011REMSYN076AAXX  05121 57633 32565 63201 10256 20220 39322 40059 52010 85440 333 00102;
0112576330999992000080515004+28820+108770FM-12+066599999V0202901N001019999999N0100001N1+02321+02221100791ADDGF107991071001999999041999MD1210171+9999REMSYN060AAXX  05151 57633 42960 72901 10232 20222 40079 52017 8704/;
0191576330999992000080518004+28820+108770FM-12+066599999V0200201N001010360019N0070001N1+02271+02231100751ADDAA106000891GF108991021041012501071999KA1999M+02811MA1999999093361MD1710031+0101MW1801REMSYN094AAXX  05181 57633 11657 80201 10227 20223 39336 40075 57003 69981 78000 8247/ 333 00100 10281;
0159576330999992000080521004+28820+108770FM-12+066599999V0209999C000010150019N0050001N1+02301+02241100681ADDAA124001591AY181031GF108991081051017501999999MD1710041+0101MW1101REMSYN082AAXX  05211 57633 41750 80000 10230 20224 40068 57004 71080 885// 333 00101 70015;
0186576330999992000080600004+28820+108770FM-12+066599999V0209999C000010150019N0100001N1+02341+02271100791ADDAA106000191AY181061GF108991081051017501999999MA1999999093411MD1210091+0101MW1001REMSYN094AAXX  06001 57633 11760 80000 10234 20227 39341 40079 52009 69911 70080 885// 333 00100 70015;
0132576330999992000080603004+28820+108770FM-12+066599999V0209999C000010120019N0100001N1+02611+02251100831ADDAY181031GF108991081081008001999999MD1210041+9999MW1001REMSYN066AAXX  06031 57633 41560 80000 10261 20225 40083 52004 70080 888//;
0199576330999992000080606004+28820+108770FM-12+066599999V0203601N001010075019N0170001N1+02791+02261100661ADDAA106000791AY181061GF107991071021008001041999KA1999N+02221MA1999999093311MD1710141+0101MW1001REMSYN094AAXX  06061 57633 11567 73601 10279 20226 39331 40066 57014 69901 70080 8724/ 333 00103 20222;
0150576330999992000080609004+28820+108770FM-12+066599999V0201801N002010075019N0170001N1+02821+02261100561ADDAY191031AY281031GF107991071041008001041999MD1710091+0011MW1001REMSYN076AAXX  06091 57633 41567 71802 10282 20226 40056 57009 70098 8744/ 333 00101;
0188576330999992000080612004+28820+108770FM-12+066599999V0209999C000010075019N0150001N1+02561+02271100721ADDAA106000191AY191061AY281061GF107991061041008001041999MA1999999093351MD1210131+0011MW1001REMSYN088AAXX  06121 57633 11565 70000 10256 20227 39335 40072 52013 69911 70098 8644/ 333 00100;
0112576330999992000080615004+28820+108770FM-12+066599999V0209999C000010150019N0120001N1+02421+02281100901ADDGF107991071051017501999999MD1210181+9999REMSYN060AAXX  06151 57633 42762 70000 10242 20228 40090 52018 875//;
0192576330999992000080618004+28820+108770FM-12+066599999V0209999C000010150019N0120001N1+02391+02261100801ADDAA199000091GF108991081051017501999999KA1999M+02971MA1999999093451MD1710081+0101REMSYN082AAXX  06181 57633 32762 80000 10239 20226 39345 40080 57008 885// 333 00101 10297;EQDQ01  00002PRCP99
0159576330999992000080621004+28820+108770FM-12+066599999V0209999C000010150019N0120001N1+02311+02241100731ADDAA124000391AY161031GF108991081051017501999999MD1710071+0101MW1211REMSYN082AAXX  06211 57633 41762 80000 10231 20224 40073 57007 72160 885// 333 00100 70003;
0186576330999992000080700004+28820+108770FM-12+066599999V0209999C000019999999N0070001N1+02331+02301100841ADDAA106006191AY161061GF107991071001999999041999MA1999999093461MD1210081+0101MW1211REMSYN094AAXX  07001 57633 11957 70000 10233 20230 39346 40084 52008 60061 72160 8704/ 333 00100 70059;
0112576330999992000080703004+28820+108770FM-12+066599999V0201801N002010075019N0150001N1+02801+02241100761ADDGF107991071021008001999999MD1710041+9999REMSYN060AAXX  07031 57633 42565 71802 10280 20224 40076 57004 872//;
0173576330999992000080706004+28820+108770FM-12+066599999V0209999C000010075019N0180001N1+02971+02211100591ADDAA199000021GF107991071021008001999999KA1999N+02271MA1999999093281MD1710141+0001REMSYN082AAXX  07061 57633 32568 70000 10297 20221 39328 40059 57014 872// 333 00002 20227;
0150576330999992000080709004+28820+108770FM-12+066599999V0203401N001010120019N0300001N1+02431+02231100631ADDAY191031AY281031GF107991071041012501999999MD1710041+0001MW1251REMSYN076AAXX  07091 57633 41680 73401 10243 20223 40063 57004 72598 874// 333 00054;
0188576330999992000080712004+28820+108770FM-12+066599999V0209999C000010360019N0180001N1+02411+02221100731ADDAA106023991AY191061AY281061GF107991021041008001041999MA1999999093341MD1210101+0001MW1001REMSYN088AAXX  07121 57633 11568 70000 10241 20222 39334 40073 52010 60241 70098 8244/ 333 00052;
0112576330999992000080715004+28820+108770FM-12+066599999V0209999C000019999999N0150001N1+02321+02231100891ADDGF107991071001999999031999MD1210191+9999REMSYN060AAXX  07151 57633 42965 70000 10232 20223 40089 52019 8703/;
0173576330999992000080718004+28820+108770FM-12+066599999V0209999C000019999999N0120001N1+02261+02201100771ADDAA199000021GF107991071001999999031999KA1999M+03041MA1999999093431MD1710101+0001REMSYN082AAXX  07181 57633 32962 70000 10226 20220 39343 40077 57010 8703/ 333 00051 10304;
0151576330999992000080721004+28820+108770FM-12+066599999V0209999C000019999999N0070001N1+02191+02161100811ADDAA124029791GF108991081001999999071999MD1710031+0001MW1101REMSYN082AAXX  07211 57633 41957 80000 10219 20216 40081 57003 71000 8807/ 333 00051 70298;
0160576330999992000080800004+28820+108770FM-12+066599999V0209999C000010120019N0100001N1+02331+02211100921ADDAA124024191GF107991071081008001999999MA1999999093511MD1210111+0101REMSYN082AAXX  08001 57633 32560 70000 10233 20221 39351 40092 52011 878// 333 00100 70242;
0112576330999992000080803004+28820+108770FM-12+066599999V0201601N002010075019N0150001N1+02681+02251100931ADDGF107991051041008001041999MD1210041+9999REMSYN060AAXX  08031 57633 42565 71602 10268 20225 40093 52004 8544/;
0192576330999992000080806004+28820+108770FM-12+066599999V0202001N003010075019N0170001N1+02991+02151100671ADDAA199000091GF108991061011008001001071KA1999N+02141MA1999999093351MD1710201+0101REMSYN082AAXX  08061 57633 32567 82003 10299 20215 39335 40067 57020 86107 333 00100 20214;EQDQ01  00002PRCP99
0122576330999992000080809004+28820+108770FM-12+066599999V0201801N001010120019N0250001N1+03051+02191100541ADDGF107991071081008001999999MD1710131+0001REMSYN070AAXX  08091 57633 42575 71801 10305 20219 40054 57013 878// 333 00006;
0173576330999992000080812004+28820+108770FM-12+066599999V0209999C000010360019N0180001N1+02671+02301100661ADDAA199000091GF107991021011008001041999MA1999999093301MD1210081+0001REMSYN076AAXX  08121 57633 32568 70000 10267 20230 39330 40066 52008 8214/ 333 00003;EQDQ01  00002PRCP99
0112576330999992000080815004+28820+108770FM-12+066599999V0209999C000019999999N0150001N1+02431+02291100791ADDGF107991071001999999041001MD1210141+9999REMSYN060AAXX  08151 57633 42965 70000 10243 20229 40079 52014 87040;
0192576330999992000080818004+28820+108770FM-12+066599999V0209999C000019999999N0120001N1+02311+02251100741ADDAA199000091GF107991071001999999031999KA1999M+03081MA1999999093411MD1710031+0001REMSYN082AAXX  08181 57633 32962 70000 10231 20225 39341 40074 57003 8703/ 333 00001 10308;EQDQ01  00002PRCP99
0134576330999992000080821004+28820+108770FM-12+066599999V0209999C000010210019N0080001N1+02251+02211100621ADDGF108991081051022501999999MD1710111+0011MW1101REMSYN076AAXX  08211 57633 41858 80000 10225 20221 40062 57011 71000 885// 333 05101;
0185576330999992000080900004+28820+108770FM-12+066599999V0209999C000010120019N0060001N1+02341+02221100781ADDAA199000091GF107991071081008001999999MA1999999093411MD1210111+0011MW1101REMSYN082AAXX  09001 57633 31556 70000 10234 20222 39341 40078 52011 71000 878// 333 05100;EQDQ01  00002PRCP99
0112576330999992000080903004+28820+108770FM-12+066599999V0201401N003010120019N0150001N1+02841+02291100751ADDGF107991071081008001999999MD1210011+9999REMSYN060AAXX  09031 57633 42565 71403 10284 20229 40075 52001 878//;
0192576330999992000080906004+28820+108770FM-12+066599999V0201801N001010120019N0150001N1+03011+02231100501ADDAA199000091GF107991071081008001001001KA1999N+02201MA1999999093191MD1710231-0201REMSYN082AAXX  09061 57633 32565 71801 10301 20223 39319 40050 57023 87800 333 05200 20220;EQDQ01  00002PRCP99
0122576330999992000080909004+28820+108770FM-12+066599999V0200201N002010360019N0220001N1+03181+02211100321ADDGF108991031021008001011999MD1710151+0021REMSYN070AAXX  09091 57633 42572 80202 10318 20221 40032 57015 8321/ 333 05201;
0172576330999992000080912004+28820+108770FM-12+066599999V0209999C000010075019N0150001N1+02781+02271100501ADDAA106000791GF108991051091008001021999MA1999999093171MD1210131+0011MW1801REMSYN088AAXX  09121 57633 11565 80000 10278 20227 39317 40050 52013 69901 78000 8592/ 333 05101;
0132576330999992000080915004+28820+108770FM-12+066599999V0209999C000010360019N0120001N1+02471+02331100601ADDAY181031GF108991021041008001011999MD1210111+9999MW1001REMSYN066AAXX  09151 57633 41562 80000 10247 20233 40060 52011 70080 8241/;
0209576330999992000080918004+28820+108770FM-12+066599999V0209999C000012200019N0100001N1+02361+02271100501ADDAA106000591AY181061GA1001+999999999GF100991001001999999001001KA1999M+03261MA1999999093201MD1710081-0201MW1001REMSYN088AAXX  09181 57633 11960 00000 10236 20227 39320 40050 57008 69961 70080 333 05201 10326;
0151576330999992000080921004+28820+108770FM-12+066599999V0209999C000010150019N0060001N1+02291+02221100461ADDAA124000591GF107991071051017501999999MD1710031-0101MW1101REMSYN082AAXX  09211 57633 41756 70000 10229 20222 40046 57003 71000 875// 333 05100 70006;
0182576330999992000081000004+28820+108770FM-12+066599999V0209999C000012200019N0050001N1+02321+02231100581ADDAA124000591GA1001+999999999GF100991001001999999001001MA1999999093241MD1210071-0201MW1101REMSYN082AAXX  10001 57633 31950 00000 10232 20223 39324 40058 52007 71000 333 05200 70006;
0112576330999992000081003004+28820+108770FM-12+066599999V0201401N002010075019N0180001N1+02871+02271100501ADDGF107991071011008001001001MD1710051+9999REMSYN060AAXX  10031 57633 42568 71402 10287 20227 40050 57005 87100;
0192576330999992000081006004+28820+108770FM-12+066599999V0201401N003012200019N0170001N1+03151+02261100271ADDAA199000091GF103991031011008001001001KA1999N+02221MA1999999093001MD1710191-0201REMSYN082AAXX  10061 57633 32567 31403 10315 20226 39300 40027 57019 83100 333 05201 20222;EQDQ01  00002PRCP99
0142576330999992000081009004+28820+108770FM-12+066599999V0209999C000010075019N0180001N1+03041+02311100131ADDAY191031GF107991071091008001999999MD1710151+0021MW1171REMSYN076AAXX  10091 57633 41568 70000 10304 20231 40013 57015 71790 879// 333 05251;
0193576330999992000081012004+28820+108770FM-12+066599999V0209999C000012200019N0150001N1+02691+02261100241ADDAA199000091AY191061GF101991001001999999001031MA1999999092911MD1210061+0031MW1001REMSYN082AAXX  10121 57633 31965 10000 10269 20226 39291 40024 52006 70090 80003 333 05351;EQDQ01  00002PRCP99
0122576330999992000081015004+28820+108770FM-12+066599999V0209999C000012200019N0120001N1+02411+02281100361ADDGA1001+999999999GF100991001001999999001001MD1210151+9999REMSYN054AAXX  10151 57633 42962 00000 10241 20228 40036 52015;
0202576330999992000081018004+28820+108770FM-12+066599999V0209999C000012200019N0120001N1+02271+02201100211ADDAA199000091GA1001+999999999GF100991001001999999001001KA1999M+03231MA1999999092931MD1710131-0301REMSYN076AAXX  10181 57633 32962 00000 10227 20220 39293 40021 57013 333 05351 10323;EQDQ01  00002PRCP99
0185576330999992000081100004+28820+108770FM-12+066599999V0209999C000012200019N0090001N1+02341+02211100351ADDAA199000091GF102991021001999999041001MA1999999093021MD1210131+0021MW1101REMSYN082AAXX  11001 57633 31959 20000 10234 20221 39302 40035 52013 71000 82040 333 05200;EQDQ01  00002PRCP99
0112576330999992000081103004+28820+108770FM-12+066599999V0201401N002012200019N0300001N1+03041+02311100271ADDGF104991041021008001001001MD1710031+9999REMSYN060AAXX  11031 57633 42580 41402 10304 20231 40027 57003 84200;
0192576330999992000081106004+28820+108770FM-12+066599999V0201601N001010075019N0300001N1+03321+02331100111ADDAA199000091GF106991061021008001001001KA1999N+02201MA1999999092861MD1710131-0101REMSYN082AAXX  11061 57633 32580 61601 10332 20233 39286 40011 57013 86200 333 05102 20220;EQDQ01  00002PRCP99
0173576330999992000081112004+28820+108770FM-12+066599999V0209999C000012200019N0250001N1+02821+02371100211ADDAA199000091GF101991001001999999001021MA1999999092901MD1210211+0001REMSYN076AAXX  11121 57633 32975 10000 10282 20237 39290 40021 52021 80002 333 00001;EQDQ01  00002PRCP99
0112576330999992000081115004+28820+108770FM-12+066599999V0209999C000012200019N0150001N1+02611+02371100301ADDGF103991031041012501001001MD1210141+9999REMSYN060AAXX  11151 57633 42665 30000 10261 20237 40030 52014 83400;
0191576330999992000081118004+28820+108770FM-12+066599999V0209999C000010075019N0120001N1+02511+02381100261ADDAA106000791GF107991071091008001999999KA1999M+03321MA1999999093031MD1710011+0101MW1951REMSYN094AAXX  11181 57633 11562 70000 10251 20238 39303 40026 57001 69901 79500 879// 333 00102 10332;
0167576330999992000081121004+28820+108770FM-12+066599999V0209999C000010075019N0100001N1+02451+02401100231ADDAA124006691AY191031AY281031GF106991061091008001001001MD1710041+0101MW1291REMSYN082AAXX  11211 57633 41560 60000 10245 20240 40023 57004 72998 86900 333 00102 70067;
0194576330999992000081200004+28820+108770FM-12+066599999V0209999C000010150019N0100001N1+02521+02411100411ADDAA106007191AY191061AY281061GF107991071051017501999999MA1999999093111MD1210121+0101MW1001REMSYN094AAXX  12001 57633 11760 70000 10252 20241 39311 40041 52012 60071 70098 875// 333 00102 70067;
0112576330999992000081203004+28820+108770FM-12+066599999V0201801N001010075019N0150001N1+03031+02481100381ADDGF106991061021008001001001MD1210011+9999REMSYN060AAXX  12031 57633 42565 61801 10303 20248 40038 52001 86200;
0185576330999992000081206004+28820+108770FM-12+066599999V0202001N002010075019N0200001N1+03201+02461100151ADDAA199000021GF106991061091008001001001KA1999N+02381MA1999999092911MD1710211+0101MW1291REMSYN088AAXX  12061 57633 31570 62002 10320 20246 39291 40015 57021 72900 86900 333 00151 20238;
0193576330999992000081212004+28820+108770FM-12+066599999V0203201N001010900019N0180001N1+02971+02411100151ADDAA199000091AY191061GF106991011091008001001021MA1999999092891MD1210081+0001MW1131REMSYN082AAXX  12121 57633 31568 63201 10297 20241 39289 40015 52008 71390 81902 333 00002;EQDQ01  00002PRCP99
0207576330999992000081218004+28820+108770FM-12+066599999V0203201N002010075019N0060001N1+02161+02091100501ADDAA106045091AY191061AY281061GF108991081091008001999999KA1999M+03421MA1999999093201MD1210101+0201MW1951REMSYN094AAXX  12181 57633 11556 83202 10216 20209 39320 40050 52010 60451 79598 889// 333 00254 10342;
0167576330999992000081221004+28820+108770FM-12+066599999V0209999C000010075019N0150001N1+02221+02111100401ADDAA124045291AY191031AY281031GF108991081041008001999999MD1710051+0201MW1251REMSYN082AAXX  12211 57633 41565 80000 10222 20211 40040 57005 72598 884// 333 00252 70453;
0194576330999992000081300004+28820+108770FM-12+066599999V0209999C000010120019N0300001N1+02341+02131100491ADDAA106000591AY191061AY281061GF107991071081008001001001MA1999999093181MD1210031+0101MW1001REMSYN094AAXX  13001 57633 11580 70000 10234 20213 39318 40049 52003 69941 70098 87800 333 00152 70453;
0112576330999992000081303004+28820+108770FM-12+066599999V0209999C000010360019N0250001N1+02711+02241100481ADDGF107991031011008001041999MD1210011+9999REMSYN060AAXX  13031 57633 42575 70000 10271 20224 40048 52001 8314/;
0173576330999992000081306004+28820+108770FM-12+066599999V0209999C000010360019N0200001N1+03041+02131100371ADDAA199000021GF107991031011008001041999KA1999N+02091MA1999999093061MD1710131+0201REMSYN082AAXX  13061 57633 32570 70000 10304 20213 39306 40037 57013 8314/ 333 00252 20209;
0122576330999992000081309004+28820+108770FM-12+066599999V0202001N001010360019N0200001N1+02951+02351100241ADDGF107991021021008001041999MD1710131+0011REMSYN070AAXX  13091 57633 42570 72001 10295 20235 40024 57013 8224/ 333 00155;
0173576330999992000081312004+28820+108770FM-12+066599999V0209999C000010360019N0150001N1+02721+02221100381ADDAA199000091GF105991021041012501041001MA1999999093051MD1210121+0021REMSYN076AAXX  13121 57633 32665 50000 10272 20222 39305 40038 52012 82440 333 00253;EQDQ01  00002PRCP99
0112576330999992000081315004+28820+108770FM-12+066599999V0209999C000012200019N0150001N1+02461+02231100591ADDGF102991021001999999041001MD1210211+9999REMSYN060AAXX  13151 57633 42965 20000 10246 20223 40059 52021 82040;
0192576330999992000081318004+28820+108770FM-12+066599999V0209999C000019999999N0150001N1+02351+02251100521ADDAA199000091GF108991081001999999071999KA1999M+03071MA1999999093221MD1710041+0001REMSYN082AAXX  13181 57633 32965 80000 10235 20225 39322 40052 57004 8807/ 333 00002 10307;EQDQ01  00002PRCP99
0122576330999992000081321004+28820+108770FM-12+066599999V0209999C000019999999N0100001N1+02291+02231100511ADDGF106991061001999999041001MD1710031+0001REMSYN070AAXX  13211 57633 42960 60000 10229 20223 40051 57003 86040 333 00001;
0185576330999992000081400004+28820+108770FM-12+066599999V0201101N001012200019N0070001N1+02351+02231100541ADDAA199000091GF101991011061002501041001MA1999999093201MD1210011+0001MW1101REMSYN082AAXX  14001 57633 31357 11101 10235 20223 39320 40054 52001 71000 81640 333 00000;EQDQ01  00002PRCP99
0112576330999992000081403004+28820+108770FM-12+066599999V0201401N001010075019N0170001N1+02921+02251100481ADDGF105991051021008001001001MD1710021+9999REMSYN060AAXX  14031 57633 42567 51401 10292 20225 40048 57002 85200;
0192576330999992000081406004+28820+108770FM-12+066599999V0201401N003010075019N0300001N1+03151+02241100251ADDAA199000091GF105991051021008001001001KA1999N+02241MA1999999092981MD1710201-0101REMSYN082AAXX  14061 57633 32580 51403 10315 20224 39298 40025 57020 85200 333 05101 20224;EQDQ01  00002PRCP99
0122576330999992000081409004+28820+108770FM-12+066599999V0202701N002010360019N0300001N1+03051+02241100111ADDGF107991021021008001071001MD1710151+0011REMSYN070AAXX  14091 57633 42580 72702 10305 20224 40011 57015 82270 333 05101;
0173576330999992000081412004+28820+108770FM-12+066599999V0209999C000019999999N0200001N1+02731+02331100281ADDAA199000091GF108991081001999999071999MA1999999092961MD1210131+0011REMSYN076AAXX  14121 57633 32970 80000 10273 20233 39296 40028 52013 8807/ 333 05100;EQDQ01  00002PRCP99
0112576330999992000081415004+28820+108770FM-12+066599999V0209999C000019999999N0200001N1+02481+02341100521ADDGF107991071001999999031999MD1210261+9999REMSYN060AAXX  14151 57633 42970 70000 10248 20234 40052 52026 8703/;
0192576330999992000081418004+28820+108770FM-12+066599999V0209999C000019999999N0150001N1+02341+02131100351ADDAA199000091GF107991071001999999041001KA1999M+03251MA1999999093071MD1710151-0201REMSYN082AAXX  14181 57633 32965 70000 10234 20213 39307 40035 57015 87040 333 05200 10325;EQDQ01  00002PRCP99
0132576330999992000081421004+28820+108770FM-12+066599999V0209999C000012200019N0150001N1+02191+02071100371ADDGA1001+999999999GF100991001001999999001001MD1710011+0011REMSYN064AAXX  14211 57633 42965 00000 10219 20207 40037 57001 333 05151;
0173576330999992000081500004+28820+108770FM-12+066599999V0209999C000012200019N0170001N1+02271+02081100461ADDAA199000091GF101991011001999999041001MA1999999093121MD1210061+0011REMSYN076AAXX  15001 57633 32967 10000 10227 20208 39312 40046 52006 81040 333 05151;EQDQ01  00002PRCP99
0112576330999992000081503004+28820+108770FM-12+066599999V0201401N002010360019N0150001N1+02801+02241100481ADDGF107991011011008001041999MD1210051+9999REMSYN060AAXX  15031 57633 42565 71402 10280 20224 40048 52005 8114/;
0199576330999992000081506004+28820+108770FM-12+066599999V0201801N001010075019N0150001N1+03081+02191100191ADDAA106000791AY161061GF106991051011008001041001KA1999N+02161MA1999999092921MD1710251-0101MW1001REMSYN094AAXX  15061 57633 11565 61801 10308 20219 39292 40019 57025 69901 70060 85140 333 05151 20216;
0122576330999992000081509004+28820+108770FM-12+066599999V0201601N001010360019N0300001N1+03101+02251100041ADDGF107991011011008001041999MD1710161+0011REMSYN070AAXX  15091 57633 42580 71601 10310 20225 40004 57016 8114/ 333 05101;
0193576330999992000081512004+28820+108770FM-12+066599999V0203401N002010360019N0150001N1+02681+02081100231ADDAA199000091AY191061GF108991021041012501071999MA1999999092901MD1210141+0011MW1001REMSYN082AAXX  15121 57633 31665 83402 10268 20208 39290 40023 52014 70090 8247/ 333 05151;EQDQ01  00002PRCP99
0124576330999992000081515004+28820+108770FM-12+066599999V0209999C000010120019N0150001N1+02471+02211100341ADDGF108991081091012501999999MD1210141+9999MW1131REMSYN066AAXX  15151 57633 41665 80000 10247 20221 40034 52014 71300 889//;
0199576330999992000081518004+28820+108770FM-12+066599999V0201401N001010075019N0120001N1+02451+02251100221ADDAA106000791AY191061GF108991081091008001999999KA1999M+03191MA1999999092961MD1710081-0101MW1951REMSYN094AAXX  15181 57633 11562 81401 10245 20225 39296 40022 57008 69901 79590 889// 333 05101 10319;
0167576330999992000081521004+28820+108770FM-12+066599999V0209999C000010042019N0100001N1+02351+02231100211ADDAA124004691AY191031AY261031GF108991061091004501021999MD1710021-0101MW1951REMSYN082AAXX  15211 57633 41460 80000 10235 20223 40021 57002 79596 8692/ 333 05102 70045;
0194576330999992000081600004+28820+108770FM-12+066599999V0209999C000010042019N0090001N1+02291+02201100361ADDAA106010991AY191061AY261061GF108991081091004501999999MA1999999093021MD1210081-0101MW1801REMSYN094AAXX  16001 57633 11459 80000 10229 20220 39302 40036 52008 60111 78096 889// 333 05100 70112;
0132576330999992000081603004+28820+108770FM-12+066599999V0209999C000010120019N0150001N1+02671+02211100371ADDAY181031GF107991071081008001999999MD1210031+9999MW1001REMSYN066AAXX  16031 57633 41565 70000 10267 20221 40037 52003 70080 878//;
0199576330999992000081606004+28820+108770FM-12+066599999V0201401N001010075019N0100001N1+02631+02241100231ADDAA106002091AY181061GF107991071091008001999999KA1999N+02261MA1999999092911MD1710141+0001MW1801REMSYN094AAXX  16061 57633 11560 71401 10263 20224 39291 40023 57014 60021 78080 879// 333 00055 20226;
0142576330999992000081609004+28820+108770FM-12+066599999V0201601N001012200019N0250001N1+02901+02281100031ADDAY181031GF102991021011008001001001MD1710161+0001MW1001REMSYN076AAXX  16091 57633 41575 21601 10290 20228 40003 57016 70080 82100 333 00052;
0180576330999992000081612004+28820+108770FM-12+066599999V0203201N001010360019N0170001N1+02631+02271100201ADDAA106000591AY181061GF106991021041008001041001MA1999999092871MD1210121+0001MW1001REMSYN088AAXX  16121 57633 11567 63201 10263 20227 39287 40020 52012 69941 70080 82440 333 00051;
0112576330999992000081615004+28820+108770FM-12+066599999V0203201N002010075019N0150001N1+02541+02241100391ADDGF108991061041008001071999MD1210211+9999REMSYN060AAXX  16151 57633 42565 83202 10254 20224 40039 52021 8647/;
0173576330999992000081618004+28820+108770FM-12+066599999V0209999C000010360019N0150001N1+02421+02291100321ADDAA199000021GF107991021041008001041999KA1999M+03021MA1999999092991MD1710091+0001REMSYN082AAXX  16181 57633 32565 70000 10242 20229 39299 40032 57009 8244/ 333 00000 10302;
0178576330999992000081700004+28820+108770FM-12+066599999V0209999C000010360019N0120001N1+02401+02291100481ADDAA106000791GF107991031041008001041999MA1999999093141MD1210151+0101MW1251REMSYN094AAXX  17001 57633 11562 70000 10240 20229 39314 40048 52015 69901 72500 8344/ 333 00101 70021;
0132576330999992000081703004+28820+108770FM-12+066599999V0209999C000010120019N0150001N1+02771+02271100481ADDAY181031GF107991071081008001999999MD1210031+9999MW1001REMSYN066AAXX  17031 57633 41565 70000 10277 20227 40048 52003 70080 878//;
0199576330999992000081706004+28820+108770FM-12+066599999V0203201N002010075019N0180001N1+02771+02271100311ADDAA106001091AY181061GF107991071091008001999999KA1999N+02321MA1999999093001MD1710171+0101MW1801REMSYN094AAXX  17061 57633 11568 73202 10277 20227 39300 40031 57017 69991 78080 879// 333 00101 20232;
0188576330999992000081712004+28820+108770FM-12+066599999V0203401N001010360019N0150001N1+02591+02251100431ADDAA106001091AY191061AY281061GF108991011041008001071999MA1999999093091MD1210151+0021MW1001REMSYN088AAXX  17121 57633 11565 83401 10259 20225 39309 40043 52015 60011 70098 8147/ 333 00200;
0140576330999992000081715004+28820+108770FM-12+066599999V0209999C000010075019N0120001N1+02421+02321100561ADDAY191031AY281031GF108991081091008001999999MD1210141+9999MW1251REMSYN066AAXX  17151 57633 41562 80000 10242 20232 40056 52014 72598 889//;
0207576330999992000081718004+28820+108770FM-12+066599999V0209999C000010150019N0150001N1+02371+02301100501ADDAA106000791AY191061AY281061GF107991071051017501001001KA1999M+02981MA1999999093171MD1710061+0201MW1001REMSYN094AAXX  17181 57633 11765 70000 10237 20230 39317 40050 57006 69901 70098 87500 333 00251 10298;
0139576330999992000081721004+28820+108770FM-12+066599999V0209999C000019999999N0120001N1+02301+02241100561ADDAA124002391GF108991081001999999071999MD1210031+0201REMSYN076AAXX  17211 57633 42962 80000 10230 20224 40056 52003 8807/ 333 00251 70022;
0160576330999992000081800004+28820+108770FM-12+066599999V0209999C000010360019N0100001N1+02391+02271100661ADDAA124002391GF108991011011008001071999MA1999999093301MD1210101+0201REMSYN082AAXX  18001 57633 32560 80000 10239 20227 39330 40066 52010 8117/ 333 00200 70022;
0112576330999992000081803004+28820+108770FM-12+066599999V0201601N001010075019N0300001N1+02721+02121100701ADDGF108991061021008001071999MD1210061+9999REMSYN060AAXX  18031 57633 42580 81601 10272 20212 40070 52006 8627/;
0192576330999992000081806004+28820+108770FM-12+066599999V0209999C000010360019N0300001N1+02831+02211100501ADDAA199000091GF107991021021008001041999KA1999N+02281MA1999999093181MD1710181+0201REMSYN082AAXX  18061 57633 32580 70000 10283 20221 39318 40050 57018 8224/ 333 00201 20228;EQDQ01  00002PRCP99
0122576330999992000081809004+28820+108770FM-12+066599999V0201401N001010360019N0300001N1+02871+02261100381ADDGF107991021021008001041999MD1710121+0011REMSYN070AAXX  18091 57633 42580 71401 10287 20226 40038 57012 8224/ 333 00102;
0173576330999992000081812004+28820+108770FM-12+066599999V0209999C000019999999N0170001N1+02621+02311100481ADDAA199000091GF108991081001999999071999MA1999999093141MD1210081+0011REMSYN076AAXX  18121 57633 32967 80000 10262 20231 39314 40048 52008 8807/ 333 00100;EQDQ01  00002PRCP99
0124576330999992000081815004+28820+108770FM-12+066599999V0209999C000010075019N0120001N1+02501+02331100561ADDGF108991081091008001999999MD1210101+9999MW1131REMSYN066AAXX  18151 57633 41562 80000 10250 20233 40056 52010 71300 889//;
0207576330999992000081818004+28820+108770FM-12+066599999V0209999C000010075019N0080001N1+02431+02361100451ADDAA106004191AY191061AY281061GF108991081091008001999999KA1999M+02901MA1999999093141MD1710101+0001MW1951REMSYN094AAXX  18181 57633 11558 80000 10243 20236 39314 40045 57010 60041 79598 889// 333 00001 10290;
0167576330999992000081821004+28820+108770FM-12+066599999V0209999C000010042019N0060001N1+02381+02321100361ADDAA124016591AY191031AY281031GF108991081091004501999999MD1710091-0201MW1951REMSYN082AAXX  18211 57633 41456 80000 10238 20232 40036 57009 79598 889// 333 05201 70164;
0194576330999992000081900004+28820+108770FM-12+066599999V0209999C000010042019N0090001N1+02321+02281100471ADDAA106026991AY191061AY281061GF108991081091004501999999MA1999999093121MD1210071-0201MW1911REMSYN094AAXX  19001 57633 11459 80000 10232 20228 39312 40047 52007 60271 79198 889// 333 05251 70308;
0140576330999992000081903004+28820+108770FM-12+066599999V0209999C000010042019N0150001N1+02411+02241100501ADDAY181031AY261031GF108991071071004501021999MD1210021+9999MW1601REMSYN066AAXX  19031 57633 41465 80000 10241 20224 40050 52002 76086 8772/;
0207576330999992000081906004+28820+108770FM-12+066599999V0201601N001010042019N0120001N1+02441+02281100431ADDAA106014091AY181061AY261061GF108991061071004501021999KA1999N+02301MA1999999093071MD1710071-0101MW1211REMSYN094AAXX  19061 57633 11462 81601 10244 20228 39307 40043 57007 60141 72186 8672/ 333 05154 20230;
0142576330999992000081909004+28820+108770FM-12+066599999V0209999C000010042019N0080001N1+02311+02251100421ADDAY161031GF108991071071004501021999MD1710031+0001MW1601REMSYN076AAXX  19091 57633 41458 80000 10231 20225 40042 57003 76060 8772/ 333 00056;
0180576330999992000081912004+28820+108770FM-12+066599999V0209999C000010042019N0090001N1+02281+02211100551ADDAA106023991AY161061GF108991071071004501021999MA1999999093151MD1210111+0001MW1601REMSYN088AAXX  19121 57633 11459 80000 10228 20221 39315 40055 52011 60241 76060 8772/ 333 00053;
0132576330999992000081915004+28820+108770FM-12+066599999V0203601N002010042019N0100001N1+02301+02121100711ADDAY161031GF108991071071004501021999MD1210161+9999MW1601REMSYN066AAXX  19151 57633 41460 83602 10230 20212 40071 52016 76060 8772/;
0199576330999992000081918004+28820+108770FM-12+066599999V0200201N002010042019N0120001N1+02301+02021100671ADDAA106000591AY161061GF108991061071004501021999KA1999M+02551MA1999999093281MD1710031+0101MW1001REMSYN094AAXX  19181 57633 11462 80202 10230 20202 39328 40067 57003 69941 70060 8672/ 333 00151 10255;
0159576330999992000081921004+28820+108770FM-12+066599999V0209999C000010042019N0120001N1+02211+02081100701ADDAA124053191AY161031GF108991071071004501999999MD1410001+0201MW1601REMSYN082AAXX  19211 57633 41462 80000 10221 20208 40070 54000 76060 877// 333 00252 70532;
0186576330999992000082000004+28820+108770FM-12+066599999V0209999C000010042019N0100001N1+02131+02061100841ADDAA106003091AY161061GF108991071071004501021999MA1999999093401MD1210121+0301MW1601REMSYN094AAXX  20001 57633 11460 80000 10213 20206 39340 40084 52012 60031 76060 8772/ 333 00352 70421;
0132576330999992000082003004+28820+108770FM-12+066599999V0209999C000010042019N0150001N1+02291+02111100881ADDAY161031GF108991061071004501021999MD1210061+9999MW1601REMSYN066AAXX  20031 57633 41465 80000 10229 20211 40088 52006 76060 8672/;
0199576330999992000082006004+28820+108770FM-12+066599999V0209999C000010042019N0100001N1+02381+02031100771ADDAA106000791AY161061GF108991061071004501021999KA1999N+02091MA1999999093371MD1710091+0301MW1001REMSYN094AAXX  20061 57633 11460 80000 10238 20203 39337 40077 57009 69901 70060 8672/ 333 00351 20209;
0142576330999992000082009004+28820+108770FM-12+066599999V0201801N001010360019N0100001N1+02321+02051100691ADDAY161031GF108991021071004501021999MD1710101+0021MW1601REMSYN076AAXX  20091 57633 41460 81801 10232 20205 40069 57010 76060 8272/ 333 00200;
0180576330999992000082012004+28820+108770FM-12+066599999V0209999C000019999999N0090001N1+02211+02111100781ADDAA106000791AY161061GF108991081001999999021999MA1999999093331MD1210061+0021MW1101REMSYN088AAXX  20121 57633 11959 80000 10221 20211 39333 40078 52006 69901 71060 8802/ 333 00251;
0124576330999992000082015004+28820+108770FM-12+066599999V0209999C000019999999N0090001N1+02201+02111100921ADDGF108991081001999999071999MD1210151+9999MW1601REMSYN066AAXX  20151 57633 41959 80000 10220 20211 40092 52015 76000 8807/;
0199576330999992000082018004+28820+108770FM-12+066599999V0203601N001019999999N0100001N1+02171+02081100871ADDAA106001091AY161061GF108991081001999999071999KA1999M+02391MA1999999093441MD1710041+0201MW1211REMSYN094AAXX  20181 57633 11960 83601 10217 20208 39344 40087 57004 60011 72160 8807/ 333 00251 10239;
0159576330999992000082021004+28820+108770FM-12+066599999V0209999C000010042019N0080001N1+02121+02061100811ADDAA124005691AY161031GF108991081071004501999999MD1710071+0101MW1601REMSYN082AAXX  20211 57633 41458 80000 10212 20206 40081 57007 76060 887// 333 00151 70056;
0186576330999992000082100004+28820+108770FM-12+066599999V0203601N001010150019N0070001N1+02171+02001100901ADDAA106001091AY161061GF108991081051017501999999MA1999999093451MD1210081+0101MW1101REMSYN094AAXX  21001 57633 11757 83601 10217 20200 39345 40090 52008 69991 71060 885// 333 00100 70023;
0132576330999992000082103004+28820+108770FM-12+066599999V0203401N001010042019N0100001N1+02191+02011101001ADDAY161031GF108991081051004501999999MD1210091+9999MW1601REMSYN066AAXX  21031 57633 41460 83401 10219 20201 40100 52009 76060 885//;
0199576330999992000082106004+28820+108770FM-12+066599999V0203601N001010150019N0150001N1+02271+02001100881ADDAA106000791AY161061GF108991081051017501999999KA1999N+02101MA1999999093441MD1710101+0101MW1001REMSYN094AAXX  21061 57633 11765 83601 10227 20200 39344 40088 57010 69901 70060 885// 333 00151 20210;
0142576330999992000082109004+28820+108770FM-12+066599999V0203201N002010042019N0120001N1+02191+01991100821ADDAY161031GF108991081071004501999999MD1710071+0011MW1211REMSYN076AAXX  21091 57633 41462 83202 10219 20199 40082 57007 72160 887// 333 00151;
0180576330999992000082112004+28820+108770FM-12+066599999V0209999C000010150019N0100001N1+02181+01981100891ADDAA106002091AY161061GF108991081051017501999999MA1999999093441MD1210071+0011MW1001REMSYN088AAXX  21121 57633 11760 80000 10218 20198 39344 40089 52007 60021 70060 885// 333 00100;
0124576330999992000082115004+28820+108770FM-12+066599999V0209999C000010150019N0090001N1+02171+02041101071ADDGF108991081051017501999999MD1210171+9999MW1101REMSYN066AAXX  21151 57633 41759 80000 10217 20204 40107 52017 71000 885//;
0185576330999992000082118004+28820+108770FM-12+066599999V0209999C000010150019N0070001N1+02141+02051101011ADDAA199000021GF108991081051017501999999KA1999M+02311MA1999999093561MD1710051+0101MW1101REMSYN088AAXX  21181 57633 31757 80000 10214 20205 39356 40101 57005 71000 885// 333 00100 10231;
0151576330999992000082121004+28820+108770FM-12+066599999V0209999C000010150019N0080001N1+02141+02071100941ADDAA124001891GF108991081051017501999999MD1710081+0101MW1101REMSYN082AAXX  21211 57633 41758 80000 10214 20207 40094 57008 71000 885// 333 00100 70019;
0186576330999992000082200004+28820+108770FM-12+066599999V0209999C000010150019N0100001N1+02141+02051101081ADDAA106000791AY161061GF108991081051017501999999MA1999999093611MD1210131+0201MW1601REMSYN094AAXX  22001 57633 11760 80000 10214 20205 39361 40108 52013 69901 76060 885// 333 00200 70019;
0132576330999992000082203004+28820+108770FM-12+066599999V0209999C000010150019N0100001N1+02301+02061101131ADDAY161031GF108991081051017501999999MD1210061+9999MW1001REMSYN066AAXX  22031 57633 41760 80000 10230 20206 40113 52006 70060 885//;
0199576330999992000082206004+28820+108770FM-12+066599999V0203401N001010075019N0120001N1+02681+02191100941ADDAA106000191AY161061GF107991061041008001041999KA1999N+02111MA1999999093541MD1710131+0101MW1001REMSYN094AAXX  22061 57633 11562 73401 10268 20219 39354 40094 57013 69911 70060 8644/ 333 00104 20211;
0122576330999992000082209004+28820+108770FM-12+066599999V0209999C000010075019N0150001N1+02851+02191100731ADDGF106991061011008001001021MD1710171+0001REMSYN070AAXX  22091 57633 42565 60000 10285 20219 40073 57017 86102 333 00007;
0154576330999992000082212004+28820+108770FM-12+066599999V0209999C000012200019N0120001N1+02511+02221100921ADDAA199000021GF103991021001999999041021MA1999999093501MD1210131+0011REMSYN076AAXX  22121 57633 32962 30000 10251 20222 39350 40092 52013 82042 333 00103;
0122576330999992000082215004+28820+108770FM-12+066599999V0209999C000012200019N0100001N1+02241+02151101041ADDGA1001+999999999GF100991001001999999001001MD1210101+9999REMSYN054AAXX  22151 57633 42960 00000 10224 20215 40104 52010;
0214576330999992000082218004+28820+108770FM-12+066599999V0209999C000012200019N0070001N1+02131+02091100871ADDAA199000091GA1001+999999999GF100991001001999999001001KA1999M+02901MA1999999093471MD1710131-0101MW1101REMSYN082AAXX  22181 57633 31957 00000 10213 20209 39347 40087 57013 71000 333 05100 10290;EQDQ01  00002PRCP99
0161576330999992000082221004+28820+108770FM-12+066599999V0209999C000012200019N0050001N1+02101+02071100851ADDAA124000191GA1001+999999999GF100991001001999999001001MD1410001+0001MW1101REMSYN076AAXX  22211 57633 41950 00000 10210 20207 40085 54000 71000 333 00000 70001;
0182576330999992000082300004+28820+108770FM-12+066599999V0202701N001012200019N0020001N1+02131+02091101011ADDAA124000191GA1001+999999999GF100991001001999999001001MA1999999093581MD1210111+0001MW1101REMSYN082AAXX  23001 57633 31920 02701 10213 20209 39358 40101 52011 71000 333 00000 70001;
0112576330999992000082303004+28820+108770FM-12+066599999V0202001N001010360019N0120001N1+02771+02071100861ADDGF106991041011008001041001MD1710091+9999REMSYN060AAXX  23031 57633 42562 62001 10277 20207 40086 57009 84140;
0192576330999992000082306004+28820+108770FM-12+066599999V0201401N001010075019N0170001N1+03011+02101100611ADDAA199000091GF107991071021008001001001KA1999N+02071MA1999999093271MD1710221-0301REMSYN082AAXX  23061 57633 32567 71401 10301 20210 39327 40061 57022 87200 333 05303 20207;EQDQ01  00002PRCP99
0142576330999992000082309004+28820+108770FM-12+066599999V0203201N001010360019N0200001N1+02661+02351100521ADDAY181031GF105991011021008001041001MD1710131+0021MW1001REMSYN076AAXX  23091 57633 41570 53201 10266 20235 40052 57013 70080 81240 333 05252;
0180576330999992000082312004+28820+108770FM-12+066599999V0200201N002010075019N0100001N1+02561+02361100631ADDAA106000591AY181061GF108991061091008001021999MA1999999093241MD1210101+0031MW1951REMSYN088AAXX  23121 57633 11560 80202 10256 20236 39324 40063 52010 69941 79580 8692/ 333 05301;
0140576330999992000082315004+28820+108770FM-12+066599999V0209999C000010042019N0070001N1+02301+02241100701ADDAY191031AY281031GF108991081051004501999999MD1210111+9999MW1251REMSYN066AAXX  23151 57633 41457 80000 10230 20224 40070 52011 72598 885//;
0207576330999992000082318004+28820+108770FM-12+066599999V0209999C000010150019N0080001N1+02291+02251100571ADDAA106007191AY191061AY281061GF108991081051017501999999KA1999M+03101MA1999999093251MD1710101-0201MW1101REMSYN094AAXX  23181 57633 11758 80000 10229 20225 39325 40057 57010 60071 71098 885// 333 05202 10310;
0151576330999992000082321004+28820+108770FM-12+066599999V0209999C000010150019N0060001N1+02281+02221100571ADDAA124007691GF108991081051017501999999MD1710041-0301MW1101REMSYN082AAXX  23211 57633 41756 80000 10228 20222 40057 57004 71000 885// 333 05302 70076;
0172576330999992000082400004+28820+108770FM-12+066599999V0209999C000010150019N0070001N1+02301+02211100681ADDAA124007691GF108991081051017501999999MA1999999093301MD1210091-0301MW1101REMSYN088AAXX  24001 57633 31757 80000 10230 20221 39330 40068 52009 71000 885// 333 05302 70076;
0132576330999992000082403004+28820+108770FM-12+066599999V0201601N003010360019N0150001N1+02741+02191100601ADDAY161031GF107991021011008001041999MD1710051+9999MW1001REMSYN066AAXX  24031 57633 41565 71603 10274 20219 40060 57005 70060 8214/;
0199576330999992000082406004+28820+108770FM-12+066599999V0201801N002010075019N0150001N1+02691+02141100441ADDAA106000791AY161061GF107991061091008001041999KA1999N+02241MA1999999093101MD1710151-0201MW1251REMSYN094AAXX  24061 57633 11565 71802 10269 20214 39310 40044 57015 69901 72560 8694/ 333 05253 20224;
0134576330999992000082409004+28820+108770FM-12+066599999V0201401N001010150019N0200001N1+02731+02211100321ADDGF107991071051017501999999MD1710111+0021MW1601REMSYN076AAXX  24091 57633 41770 71401 10273 20221 40032 57011 76000 875// 333 05201;
0180576330999992000082412004+28820+108770FM-12+066599999V0209999C000019999999N0150001N1+02451+02161100471ADDAA106000791AY161061GF107991071001999999041999MA1999999093101MD1210111+0011MW1001REMSYN088AAXX  24121 57633 11965 70000 10245 20216 39310 40047 52011 69901 70060 8704/ 333 05151;
0112576330999992000082415004+28820+108770FM-12+066599999V0209999C000019999999N0120001N1+02351+02141100611ADDGF107991071001999999041999MD1210171+9999REMSYN060AAXX  24151 57633 42962 70000 10235 20214 40061 52017 8704/;
0195576330999992000082418004+28820+108770FM-12+066599999V0209999C000012200019N0060001N1+02221+02161100631ADDAA199000021GA1001+999999999GF100991001001999999001001KA1999M+02841MA1999999093261MD1710021+0001MW1101REMSYN082AAXX  24181 57633 31956 00000 10222 20216 39326 40063 57002 71000 333 00005 10284;
0151576330999992000082421004+28820+108770FM-12+066599999V0209999C000012200019N0070001N1+02161+02101100651ADDAA124000791GF102991021001999999041001MD1210021+0101MW1101REMSYN082AAXX  24211 57633 41957 20000 10216 20210 40065 52002 71000 82040 333 00151 79999;
0172576330999992000082500004+28820+108770FM-12+066599999V0209999C000010012019N0040001N1+02131+02091100801ADDAA124000791GF108991081061001501999999MA1999999093381MD1210101+0101MW1101REMSYN088AAXX  25001 57633 31240 80000 10213 20209 39338 40080 52010 71000 886// 333 00152 79999;
0112576330999992000082503004+28820+108770FM-12+066599999V0201601N001012200019N0200001N1+02881+02061100711ADDGF102991021021008001041001MD1410001+9999REMSYN060AAXX  25031 57633 42570 21601 10288 20206 40071 54000 82240;
0192576330999992000082506004+28820+108770FM-12+066599999V0202501N002012200019N0300001N1+03021+02121100521ADDAA199000091GF104991041021008001001001KA1999N+02081MA1999999093201MD1710181+0101REMSYN082AAXX  25061 57633 32580 42502 10302 20212 39320 40052 57018 84200 333 00103 20208;EQDQ01  00002PRCP99
0122576330999992000082509004+28820+108770FM-12+066599999V0202901N001012200019N0300001N1+03081+02101100361ADDGF101991011021008001001001MD1710151+0011REMSYN070AAXX  25091 57633 42580 12901 10308 20210 40036 57015 81200 333 00104;
0173576330999992000082512004+28820+108770FM-12+066599999V0209999C000010075019N0150001N1+02671+02221100531ADDAA199000091GF107991071041008001001001MA1999999093161MD1210111+0011REMSYN076AAXX  25121 57633 32565 70000 10267 20222 39316 40053 52011 87400 333 00102;EQDQ01  00002PRCP99
0132576330999992000082515004+28820+108770FM-12+066599999V0202001N001010120019N0100001N1+02501+02241100701ADDAY181031GF108991081041012501999999MD1210221+9999MW1801REMSYN066AAXX  25151 57633 41660 82001 10250 20224 40070 52022 78080 884//;
0199576330999992000082518004+28820+108770FM-12+066599999V0209999C000010120019N0120001N1+02311+02191100671ADDAA106007191AY181061GF108991081051012501999999KA1999M+03241MA1999999093351MD1710031+0101MW1801REMSYN094AAXX  25181 57633 11662 80000 10231 20219 39335 40067 57003 60071 78080 885// 333 00101 10324;
0159576330999992000082521004+28820+108770FM-12+066599999V0209999C000010150019N0100001N1+02261+02161100631ADDAA124006991AY181031GF108991081051017501999999MD1710041+0001MW1001REMSYN082AAXX  25211 57633 41760 80000 10226 20216 40063 57004 70080 885// 333 00001 70068;
0186576330999992000082600004+28820+108770FM-12+066599999V0209999C000010150019N0100001N1+02291+02201100761ADDAA106000791AY181061GF108991081051017501999999MA1999999093391MD1210081+0001MW1001REMSYN094AAXX  26001 57633 11760 80000 10229 20220 39339 40076 52008 69901 70080 885// 333 00002 70068;
0132576330999992000082603004+28820+108770FM-12+066599999V0209999C000010042019N0070001N1+02211+02091100881ADDAY161031GF108991081071004501999999MD1210081+9999MW1601REMSYN066AAXX  26031 57633 41457 80000 10221 20209 40088 52008 76060 887//;
0199576330999992000082606004+28820+108770FM-12+066599999V0203601N001010042019N0080001N1+02251+02031100791ADDAA106010991AY161061GF108991081071004501999999KA1999N+02121MA1999999093371MD1710101+0201MW1211REMSYN094AAXX  26061 57633 11458 83601 10225 20203 39337 40079 57010 60111 72160 887// 333 00258 20212;
0142576330999992000082609004+28820+108770FM-12+066599999V0209999C000010042019N0120001N1+02271+02031100661ADDAY161031GF108991081051004501999999MD1710121+0021MW1001REMSYN076AAXX  26091 57633 41462 80000 10227 20203 40066 57012 70060 885// 333 00258;
0180576330999992000082612004+28820+108770FM-12+066599999V0209999C000010042019N0080001N1+02171+02001100821ADDAA106000391AY161061GF108991081071004501999999MA1999999093391MD1210141+0021MW1211REMSYN088AAXX  26121 57633 11458 80000 10217 20200 39339 40082 52014 69931 72160 887// 333 00255;
0132576330999992000082615004+28820+108770FM-12+066599999V0209999C000010042019N0080001N1+02151+02031100961ADDAY161031GF108991081071004501999999MD1210111+9999MW1601REMSYN066AAXX  26151 57633 41458 80000 10215 20203 40096 52011 76060 887//;
0199576330999992000082618004+28820+108770FM-12+066599999V0209999C000010150019N0060001N1+02131+02071100881ADDAA106000891AY161061GF108991081051017501999999KA1999M+02381MA1999999093431MD1710071+0101MW1101REMSYN094AAXX  26181 57633 11756 80000 10213 20207 39343 40088 57007 69971 71060 885// 333 00152 10238;
0159576330999992000082621004+28820+108770FM-12+066599999V0209999C000010042019N0040001N1+02081+02021100921ADDAA124015291AY161031GF108991081071004501999999MD1210041+0201MW1601REMSYN082AAXX  26211 57633 41440 80000 10208 20202 40092 52004 76060 887// 333 00252 70153;
0186576330999992000082700004+28820+108770FM-12+066599999V0209999C000010042019N0150001N1+01801+01601101031ADDAA106005191AY161061GF107991071051004501999999MA1999999093521MD1210051+0101MW1211REMSYN094AAXX  27001 57633 11465 70000 10180 20160 39352 40103 52005 60051 72160 875// 333 00155 70176;
0112576330999992000082703004+28820+108770FM-12+066599999V0209999C000010360019N0170001N1+02341+01771101011ADDGF107991011011008001041999MD1210051+9999REMSYN060AAXX  27031 57633 42567 70000 10234 20177 40101 52005 8114/;
0173576330999992000082706004+28820+108770FM-12+066599999V0201601N001010075019N0200001N1+02551+01731100841ADDAA199000021GF107991051011008001041999KA1999N+01741MA1999999093431MD1710141+0101REMSYN082AAXX  27061 57633 32570 71601 10255 20173 39343 40084 57014 8514/ 333 00103 20174;
0122576330999992000082709004+28820+108770FM-12+066599999V0209999C000010360019N0300001N1+02641+01531100741ADDGF105991011011008001041001MD1710091+0011REMSYN070AAXX  27091 57633 42580 50000 10264 20153 40074 57009 81140 333 00104;
0164576330999992000082712004+28820+108770FM-12+066599999V0209999C000012200019N0200001N1+02211+01941100941ADDAA199000021GA1001+999999999GF100991001001999999001001MA1999999093441MD1210101+0011REMSYN070AAXX  27121 57633 32970 00000 10221 20194 39344 40094 52010 333 00100;
0122576330999992000082715004+28820+108770FM-12+066599999V0209999C000012200019N0120001N1+01951+01791101081ADDGA1001+999999999GF100991001001999999001001MD1210171+9999REMSYN054AAXX  27151 57633 42962 00000 10195 20179 40108 52017;
0202576330999992000082718004+28820+108770FM-12+066599999V0209999C000012200019N0100001N1+01821+01661101021ADDAA199000091GA1001+999999999GF100991001001999999001001KA1999M+02701MA1999999093561MD1710051+0101REMSYN076AAXX  27181 57633 32960 00000 10182 20166 39356 40102 57005 333 00153 10270;EQDQ01  00002PRCP99
0161576330999992000082721004+28820+108770FM-12+066599999V0209999C000012200019N0020001N1+01711+01681100921ADDAA124002391GA1001+999999999GF100991001001999999001001MD1710091+0001MW1101REMSYN076AAXX  27211 57633 41920 00000 10171 20168 40092 57009 71000 333 00054 70023;
0193576330999992000082800004+28820+108770FM-12+066599999V0209999C000012200019N0050001N1+01761+01701101051ADDAA199000091AY141061GF103991031061002501001001MA1999999093541MD1210071+0001MW1101REMSYN082AAXX  28001 57633 31350 30000 10176 20170 39354 40105 52007 71040 83600 333 00000;EQDQ01  00002PRCP99
0112576330999992000082803004+28820+108770FM-12+066599999V0201601N001010900019N0150001N1+02491+01801101031ADDGF106991011011008001001021MD1210041+9999REMSYN060AAXX  28031 57633 42565 61601 10249 20180 40103 52004 81102;
0192576330999992000082806004+28820+108770FM-12+066599999V0202501N002010360019N0180001N1+02701+01891100881ADDAA199000091GF107991031021008001041999KA1999N+01671MA1999999093451MD1710131+0001REMSYN082AAXX  28061 57633 32568 72502 10270 20189 39345 40088 57013 8324/ 333 00002 20167;EQDQ01  00002PRCP99
0122576330999992000082809004+28820+108770FM-12+066599999V0209999C000019999999N0200001N1+02671+01681100761ADDGF107991071001999999041999MD1710131+0001REMSYN070AAXX  28091 57633 42970 70000 10267 20168 40076 57013 8704/ 333 00000;
0173576330999992000082812004+28820+108770FM-12+066599999V0209999C000019999999N0150001N1+02351+01831100881ADDAA199000091GF108991081001999999071999MA1999999093401MD1210081+0001REMSYN076AAXX  28121 57633 32965 80000 10235 20183 39340 40088 52008 8807/ 333 00001;EQDQ01  00002PRCP99
0112576330999992000082815004+28820+108770FM-12+066599999V0209999C000019999999N0120001N1+02171+01941100961ADDGF108991081001999999071999MD1210141+9999REMSYN060AAXX  28151 57633 42962 80000 10217 20194 40096 52014 8807/;
0199576330999992000082818004+28820+108770FM-12+066599999V0209999C000019999999N0080001N1+02091+01951100891ADDAA106000791AY161061GF108991081001999999071999KA1999M+02771MA1999999093491MD1710051-0101MW1101REMSYN094AAXX  28181 57633 11958 80000 10209 20195 39349 40089 57005 69901 71060 8807/ 333 05103 10277;
0159576330999992000082821004+28820+108770FM-12+066599999V0209999C000019999999N0080001N1+02041+01951100851ADDAA124000791AY161031GF108991081001999999071999MD1710051+0001MW1601REMSYN082AAXX  28211 57633 41958 80000 10204 20195 40085 57005 76060 8807/ 333 00003 79999;
0186576330999992000082900004+28820+108770FM-12+066599999V0209999C000019999999N0100001N1+02061+01971100941ADDAA106000191AY161061GF107991021001999999041021MA1999999093491MD1210051-0101MW1211REMSYN094AAXX  29001 57633 11960 70000 10206 20197 39349 40094 52005 69911 72160 82042 333 05103 70001;
0112576330999992000082903004+28820+108770FM-12+066599999V0203201N001010360019N0120001N1+02601+01721100851ADDGF107991011011008001041999MD1710041+9999REMSYN060AAXX  29031 57633 42562 73201 10260 20172 40085 57004 8114/;
0191576330999992000082906004+28820+108770FM-12+066599999V0209999C000010360019N0150001N1+02661+01821100701ADDAA106000791GF108991011071004501071999KA1999N+02011MA1999999093311MD1710141-0101MW1211REMSYN094AAXX  29061 57633 11465 80000 10266 20182 39331 40070 57014 69901 72100 8177/ 333 05100 20201;
0142576330999992000082909004+28820+108770FM-12+066599999V0209999C000010360019N0150001N1+02221+01901100671ADDAY161031GF108991021071004501071999MD1710091+0011MW1601REMSYN076AAXX  29091 57633 41465 80000 10222 20190 40067 57009 76060 8277/ 333 05155;
0180576330999992000082912004+28820+108770FM-12+066599999V0209999C000019999999N0120001N1+02171+01971100661ADDAA106000591AY161061GF108991081001999999071999MA1999999093211MD1710011+0021MW1001REMSYN088AAXX  29121 57633 11962 80000 10217 20197 39321 40066 57001 69961 70060 8807/ 333 05252;
0124576330999992000082915004+28820+108770FM-12+066599999V0209999C000019999999N0080001N1+02051+01961100751ADDGF107991071001999999041001MD1210131+9999MW1101REMSYN066AAXX  29151 57633 41958 70000 10205 20196 40075 52013 71000 87040;
0185576330999992000082918004+28820+108770FM-12+066599999V0209999C000019999999N0070001N1+02031+01941100661ADDAA199000021GF108991081001999999071999KA1999M+02781MA1999999093271MD1710071-0201MW1101REMSYN088AAXX  29181 57633 31957 80000 10203 20194 39327 40066 57007 71000 8807/ 333 05251 10278;
0151576330999992000082921004+28820+108770FM-12+066599999V0209999C000019999999N0070001N1+01981+01871100601ADDAA124000891GF105991051001999999041001MD1710121-0301MW1101REMSYN082AAXX  29211 57633 41957 50000 10198 20187 40060 57012 71000 85040 333 05351 70007;
0182576330999992000083000004+28820+108770FM-12+066599999V0202001N001012200019N0050001N1+01971+01911100641ADDAA124000591GA1001+999999999GF100991001001999999001001MA1999999093181MD1210031-0301MW1101REMSYN082AAXX  30001 57633 31950 02001 10197 20191 39318 40064 52003 71000 333 05351 70006;
0112576330999992000083003004+28820+108770FM-12+066599999V0202001N001010075019N0150001N1+02611+01951100561ADDGF106991051011008001041001MD1710011+9999REMSYN060AAXX  30031 57633 42565 62001 10261 20195 40056 57001 85140;
0192576330999992000083006004+28820+108770FM-12+066599999V0201401N002010075019N0170001N1+02711+01871100381ADDAA199000091GF107991071021008001001001KA1999N+01881MA1999999093011MD1710161-0301REMSYN082AAXX  30061 57633 32567 71402 10271 20187 39301 40038 57016 87200 333 05301 20188;EQDQ01  00002PRCP99
0142576330999992000083009004+28820+108770FM-12+066599999V0209999C000010360019N0150001N1+02711+02101100221ADDAY181031GF106991021021008001041001MD1710151+0041MW1001REMSYN076AAXX  30091 57633 41565 60000 10271 20210 40022 57015 70080 82240 333 05405;
0180576330999992000083012004+28820+108770FM-12+066599999V0209999C000019999999N0120001N1+02371+02061100341ADDAA106000791AY181061GF108991081001999999011999MA1999999092931MD1210071+0031MW1001REMSYN088AAXX  30121 57633 11962 80000 10237 20206 39293 40034 52007 69901 70080 8801/ 333 05302;
0134576330999992000083015004+28820+108770FM-12+066599999V0209999C000012200019N0070001N1+02171+02051100441ADDGA1001+999999999GF100991001001999999001001MD1210141+9999MW1101REMSYN060AAXX  30151 57633 41957 00000 10217 20205 40044 52014 71000;
0214576330999992000083018004+28820+108770FM-12+066599999V0209999C000012200019N0050001N1+02061+02001100411ADDAA199000091GA1001+999999999GF100991001001999999001001KA1999M+02861MA1999999093041MD1710031-0201MW1101REMSYN082AAXX  30181 57633 31950 00000 10206 20200 39304 40041 57003 71000 333 05200 10286;EQDQ01  00002PRCP99
0151576330999992000083021004+28820+108770FM-12+066599999V0209999C000019999999N0040001N1+02021+01961100381ADDAA124000791GF107991071001999999041999MD1710031-0101MW1101REMSYN082AAXX  30211 57633 41940 70000 10202 20196 40038 57003 71000 8704/ 333 05100 79999;
0172576330999992000083100004+28820+108770FM-12+066599999V0209999C000012200019N0060001N1+02041+01981100551ADDAA124000791GF102991021001999999041001MA1999999093131MD1210121-0101MW1101REMSYN088AAXX  31001 57633 31956 20000 10204 20198 39313 40055 52012 71000 82040 333 05101 79999;
0112576330999992000083103004+28820+108770FM-12+066599999V0209999C000012200019N0150001N1+02691+02041100511ADDGF104991041011008001001001MD1210021+9999REMSYN060AAXX  31031 57633 42565 40000 10269 20204 40051 52002 84100;
0192576330999992000083106004+28820+108770FM-12+066599999V0209999C000010075019N0150001N1+03011+02011100291ADDAA199000091GF106991061011008001001001KA1999N+01951MA1999999092971MD1710181+0001REMSYN082AAXX  31061 57633 32565 60000 10301 20201 39297 40029 57018 86100 333 00003 20195;EQDQ01  00002PRCP99
0122576330999992000083109004+28820+108770FM-12+066599999V0201401N001012200019N0150001N1+02911+02001100231ADDGF102991021021008001001001MD1710071+0001REMSYN070AAXX  31091 57633 42565 21401 10291 20200 40023 57007 82200 333 00002;
0183576330999992000083112004+28820+108770FM-12+066599999V0209999C000012200019N0120001N1+02451+02051100381ADDAA199000091GA1001+999999999GF100991001001999999001001MA1999999092981MD1210081+0011REMSYN070AAXX  31121 57633 32962 00000 10245 20205 39298 40038 52008 333 00101;EQDQ01  00002PRCP99
0122576330999992000083115004+28820+108770FM-12+066599999V0209999C000012200019N0100001N1+02191+02041100531ADDGA1001+999999999GF100991001001999999001001MD1210191+9999REMSYN054AAXX  31151 57633 42960 00000 10219 20204 40053 52019;
0214576330999992000083118004+28820+108770FM-12+066599999V0209999C000012200019N0070001N1+02031+01971100491ADDAA199000091GA1001+999999999GF100991001001999999001001KA1999M+03041MA1999999093151MD1710021+0101MW1101REMSYN082AAXX  31181 57633 31957 00000 10203 20197 39315 40049 57002 71000 333 00100 10304;EQDQ01  00002PRCP99
0144576330999992000083121004+28820+108770FM-12+066599999V0209999C000012200019N0050001N1+01951+01891100521ADDGA1001+999999999GF100991001001999999001001MD1210011+0021MW1101REMSYN070AAXX  31211 57633 41950 00000 10195 20189 40052 52001 71000 333 00251;
0195576330999992000090100004+28820+108770FM-12+066599999V0209999C000012200019N0060001N1+01991+01931100691ADDAA199000091GA1001+999999999GF100991001001999999001001MA1999999093261MD1210101+0011MW1101REMSYN076AAXX  01001 57633 31956 00000 10199 20193 39326 40069 52010 71000 333 00151;EQDQ01  00002PRCP99
0112576330999992000090103004+28820+108770FM-12+066599999V0209999C000012200019N0150001N1+02841+02061100571ADDGF101991011011008001001001MD1710041+9999REMSYN060AAXX  01031 57633 42565 10000 10284 20206 40057 57004 81100;
0192576330999992000090106004+28820+108770FM-12+066599999V0209999C000012200019N0170001N1+02981+02011100371ADDAA199000091GF104991041021008001001001KA1999N+01901MA1999999093031MD1710191+0101REMSYN082AAXX  01061 57633 32567 40000 10298 20201 39303 40037 57019 84200 333 00100 20190;EQDQ01  00002PRCP99
0122576330999992000090109004+28820+108770FM-12+066599999V0200901N001012200019N0180001N1+03021+01831100201ADDGF101991011021008001001001MD1710161+0001REMSYN070AAXX  01091 57633 42568 10901 10302 20183 40020 57016 81200 333 00001;
0183576330999992000090112004+28820+108770FM-12+066599999V0209999C000012200019N0150001N1+02461+01871100351ADDAA199000091GA1001+999999999GF100991001001999999001001MA1999999092951MD1210081+0001REMSYN070AAXX  01121 57633 32965 00000 10246 20187 39295 40035 52008 333 00000;EQDQ01  00002PRCP99
0122576330999992000090115004+28820+108770FM-12+066599999V0209999C000012200019N0100001N1+02171+01971100451ADDGA1001+999999999GF100991001001999999001001MD1210161+9999REMSYN054AAXX  01151 57633 42960 00000 10217 20197 40045 52016;
0214576330999992000090118004+28820+108770FM-12+066599999V0202501N001012200019N0080001N1+02081+01941100491ADDAA199000091GA1001+999999999GF100991001001999999001001KA1999M+03191MA1999999093151MD1210041+0001MW1101REMSYN082AAXX  01181 57633 31958 02501 10208 20194 39315 40049 52004 71000 333 00001 10319;EQDQ01  00002PRCP99
0144576330999992000090121004+28820+108770FM-12+066599999V0209999C000012200019N0080001N1+02001+01911100461ADDGA1001+999999999GF100991001001999999001001MD1710031+0001MW1101REMSYN070AAXX  01211 57633 41958 00000 10200 20191 40046 57003 71000 333 00001;
0185576330999992000090200004+28820+108770FM-12+066599999V0209999C000012200019N0070001N1+02031+01941100631ADDAA199000091GF101991011011008001001001MA1999999093211MD1210091+0011MW1101REMSYN082AAXX  02001 57633 31557 10000 10203 20194 39321 40063 52009 71000 81100 333 05100;EQDQ01  00002PRCP99
0112576330999992000090203004+28820+108770FM-12+066599999V0201601N001012200019N0150001N1+02831+02101100471ADDGF102991021021008001001001MD1710081+9999REMSYN060AAXX  02031 57633 42565 21601 10283 20210 40047 57008 82200;
0192576330999992000090206004+28820+108770FM-12+066599999V0201801N001010075019N0170001N1+03051+02011100311ADDAA199000091GF106991061021008001001001KA1999N+01921MA1999999092991MD1710141+0001REMSYN082AAXX  02061 57633 32567 61801 10305 20201 39299 40031 57014 86200 333 00001 20192;EQDQ01  00002PRCP99
0122576330999992000090209004+28820+108770FM-12+066599999V0201401N003010360019N0170001N1+02971+01831100261ADDGF107991011011008001041999MD1710061+0011REMSYN070AAXX  02091 57633 42567 71403 10297 20183 40026 57006 8114/ 333 00151;
0173576330999992000090212004+28820+108770FM-12+066599999V0209999C000019999999N0150001N1+02621+02011100421ADDAA199000091GF107991071001999999031999MA1999999093041MD1210111+0011REMSYN076AAXX  02121 57633 32965 70000 10262 20201 39304 40042 52011 8703/ 333 00102;EQDQ01  00002PRCP99
0112576330999992000090215004+28820+108770FM-12+066599999V0209999C000019999999N0100001N1+02421+02081100531ADDGF108991081001999999071999MD1210171+9999REMSYN060AAXX  02151 57633 42960 80000 10242 20208 40053 52017 8807/;
0199576330999992000090218004+28820+108770FM-12+066599999V0209999C000019999999N0100001N1+02331+02141100481ADDAA106000791AY161061GF108991081001999999071999KA1999M+03171MA1999999093181MD1710031+0001MW1601REMSYN094AAXX  02181 57633 11960 80000 10233 20214 39318 40048 57003 69901 76060 8807/ 333 00003 10317;
0159576330999992000090221004+28820+108770FM-12+066599999V0209999C000010360019N0070001N1+02221+02131100561ADDAA124003391AY161031GF108991021071004501021999MD1210051+0101MW1601REMSYN082AAXX  02211 57633 41457 80000 10222 20213 40056 52005 76060 8272/ 333 00102 70033;
0186576330999992000090300004+28820+108770FM-12+066599999V0209999C000010042019N0050001N1+02121+02061100741ADDAA106011991AY161061GF108991061071004501021999MA1999999093351MD1210121+0101MW1601REMSYN094AAXX  03001 57633 11450 80000 10212 20206 39335 40074 52012 60121 76060 8672/ 333 00101 70117;
0199576330999992000090306004+28820+108770FM-12+066599999V0209999C000010075019N0170001N1+02461+02011100771ADDAA106002091AY161061GF108991051041008001071999KA1999N+02091MA1999999093381MD1710051+0401MW1001REMSYN094AAXX  03061 57633 11567 80000 10246 20201 39338 40077 57005 60021 70060 8547/ 333 00456 20209;
0122576330999992000090309004+28820+108770FM-12+066599999V0209999C000010360019N0170001N1+02501+02061100681ADDGF107991011011008001041001MD1710091+0041REMSYN070AAXX  03091 57633 42567 70000 10250 20206 40068 57009 81140 333 00455;
0154576330999992000090312004+28820+108770FM-12+066599999V0209999C000012200019N0150001N1+02261+02051100861ADDAA199000021GF101991011001999999041001MA1999999093411MD1210121+0041REMSYN076AAXX  03121 57633 32965 10000 10226 20205 39341 40086 52012 81040 333 00454;
0122576330999992000090315004+28820+108770FM-12+066599999V0209999C000012200019N0100001N1+02071+02011101021ADDGA1001+999999999GF100991001001999999001001MD1210151+9999REMSYN054AAXX  03151 57633 42960 00000 10207 20201 40102 52015;
0214576330999992000090318004+28820+108770FM-12+066599999V0209999C000012200019N0080001N1+02031+01981100971ADDAA199000091GA1001+999999999GF100991001001999999001001KA1999M+02531MA1999999093531MD1710031+0401MW1101REMSYN082AAXX  03181 57633 31958 00000 10203 20198 39353 40097 57003 71000 333 00453 10253;EQDQ01  00002PRCP99
0161576330999992000090321004+28820+108770FM-12+066599999V0209999C000012200019N0050001N1+01991+01961100951ADDAA124010491GA1001+999999999GF100991001001999999001001MD1710021+0301MW1101REMSYN076AAXX  03211 57633 41950 00000 10199 20196 40095 57002 71000 333 00352 70104;
0172576330999992000090400004+28820+108770FM-12+066599999V0209999C000012200019N0040001N1+02031+02001101031ADDAA124002091GF102991021061002501001001MA1999999093561MD1210051+0201MW1101REMSYN088AAXX  04001 57633 31340 20000 10203 20200 39356 40103 52005 71000 82600 333 00251 70020;
0112576330999992000090403004+28820+108770FM-12+066599999V0209999C000012200019N0170001N1+02791+02201100951ADDGF103991031021008001001001MD1710011+9999REMSYN060AAXX  04031 57633 42567 30000 10279 20220 40095 57001 83200;
0192576330999992000090406004+28820+108770FM-12+066599999V0201601N002010360019N0170001N1+02921+02191100771ADDAA199000091GF107991021011008001041999KA1999N+01931MA1999999093401MD1710151+0001REMSYN082AAXX  04061 57633 32567 71602 10292 20219 39340 40077 57015 8214/ 333 00005 20193;EQDQ01  00002PRCP99
0122576330999992000090409004+28820+108770FM-12+066599999V0201601N001010360019N0170001N1+03061+02201100591ADDGF106991031021008001041001MD1710161+0011REMSYN070AAXX  04091 57633 42567 61601 10306 20220 40059 57016 83240 333 05106;
0173576330999992000090412004+28820+108770FM-12+066599999V0209999C000019999999N0150001N1+02611+02301100701ADDAA199000091GF107991071001999999041999MA1999999093301MD1210061+0011REMSYN076AAXX  04121 57633 32965 70000 10261 20230 39330 40070 52006 8704/ 333 05104;EQDQ01  00002PRCP99
0134576330999992000090415004+28820+108770FM-12+066599999V0209999C000012200019N0080001N1+02351+02191100781ADDGA1001+999999999GF100991001001999999001001MD1210131+9999MW1101REMSYN060AAXX  04151 57633 41958 00000 10235 20219 40078 52013 71000;
0204576330999992000090418004+28820+108770FM-12+066599999V0209999C000019999999N0070001N1+02281+02211100741ADDAA199000091GF108991081001999999071999KA1999M+03101MA1999999093401MD1710031-0101MW1101REMSYN088AAXX  04181 57633 31957 80000 10228 20221 39340 40074 57003 71000 8807/ 333 05103 10310;EQDQ01  00002PRCP99
0144576330999992000090421004+28820+108770FM-12+066599999V0209999C000012200019N0050001N1+02201+02141100691ADDGA1001+999999999GF100991001001999999001001MD1710041+0021MW1101REMSYN070AAXX  04211 57633 41950 00000 10220 20214 40069 57004 71000 333 05202;
0185576330999992000090500004+28820+108770FM-12+066599999V0209999C000010360019N0080001N1+02251+02181100831ADDAA199000091GF107991011061004501041999MA1999999093441MD1210081+0011MW1101REMSYN082AAXX  05001 57633 31458 70000 10225 20218 39344 40083 52008 71000 8164/ 333 05102;EQDQ01  00002PRCP99
0112576330999992000090503004+28820+108770FM-12+066599999V0201601N002010360019N0150001N1+02981+02301100761ADDGF105991041011008001041001MD1710011+9999REMSYN060AAXX  05031 57633 42565 51602 10298 20230 40076 57001 84140;
0199576330999992000090506004+28820+108770FM-12+066599999V0209999C000010042019N0120001N1+02381+02161100711ADDAA106003091AY191061GF108991081091004501999999KA1999N+02141MA1999999093311MD1710121-0101MW1951REMSYN094AAXX  05061 57633 11462 80000 10238 20216 39331 40071 57012 60031 79590 889// 333 05155 20214;
0150576330999992000090509004+28820+108770FM-12+066599999V0209999C000019999999N0150001N1+02661+02231100441ADDAY191031AY281031GF107991071001999999041999MD1710231+0021MW1001REMSYN076AAXX  05091 57633 41965 70000 10266 20223 40044 57023 70098 8704/ 333 05254;
0188576330999992000090512004+28820+108770FM-12+066599999V0209999C000010042019N0090001N1+02191+02071100791ADDAA106009991AY191061AY281061GF108991081091004501999999MA1999999093361MD1210281+0011MW1951REMSYN088AAXX  05121 57633 11459 80000 10219 20207 39336 40079 52028 60101 79598 889// 333 00154;
0140576330999992000090515004+28820+108770FM-12+066599999V0201401N001010042019N0100001N1+02191+02101100881ADDAY191031AY281031GF108991081091004501999999MD1210171+9999MW1911REMSYN066AAXX  05151 57633 41460 81401 10219 20210 40088 52017 79198 889//;
0207576330999992000090518004+28820+108770FM-12+066599999V0201801N001010042019N0100001N1+02001+01831101071ADDAA106011991AY191061AY281061GF108991081071004501999999KA1999M+03071MA1999999093611MD1210081+0201MW1601REMSYN094AAXX  05181 57633 11460 81801 10200 20183 39361 40107 52008 60121 76098 887// 333 00253 10307;
0159576330999992000090521004+28820+108770FM-12+066599999V0209999C000010150019N0120001N1+01961+01641101061ADDAA124023991AY161031GF107991071051017501999999MD1210021+0301MW1001REMSYN082AAXX  05211 57633 41762 70000 10196 20164 40106 52002 70060 875// 333 00352 70238;
0186576330999992000090600004+28820+108770FM-12+066599999V0200201N001010150019N0220001N1+01941+01631101251ADDAA106000191AY161061GF108991081051017501999999MA1999999093741MD1210111+0301MW1001REMSYN094AAXX  06001 57633 11772 80201 10194 20163 39374 40125 52011 69911 70060 885// 333 00353 70238;
0112576330999992000090603004+28820+108770FM-12+066599999V0201801N001010120019N0300001N1+02011+01551101291ADDGF108991081051012501999999MD1210051+9999REMSYN060AAXX  06031 57633 42680 81801 10201 20155 40129 52005 885//;
0191576330999992000090606004+28820+108770FM-12+066599999V0201401N001010120019N0300001N1+02051+01581101131ADDAA106000791GF108991081051012501999999KA1999N+01911MA1999999093621MD1710171+0301MW1251REMSYN094AAXX  06061 57633 11680 81401 10205 20158 39362 40113 57017 69901 72500 885// 333 00353 20191;
0142576330999992000090609004+28820+108770FM-12+066599999V0209999C000010075019N0300001N1+02031+01521101121ADDAY161031GF108991081051008001999999MD1710011+0051MW1001REMSYN076AAXX  06091 57633 41580 80000 10203 20152 40112 57001 70060 885// 333 00556;
0180576330999992000090612004+28820+108770FM-12+066599999V0209999C000010150019N0300001N1+01941+01631101301ADDAA106000791AY161061GF108991081051017501999999MA1999999093761MD1210151+0041MW1001REMSYN088AAXX  06121 57633 11780 80000 10194 20163 39376 40130 52015 69901 70060 885// 333 00453;
0132576330999992000090615004+28820+108770FM-12+066599999V0209999C000010042019N0150001N1+01941+01331101541ADDAY161031GF108991081051004501999999MD1210231+9999MW1601REMSYN066AAXX  06151 57633 41465 80000 10194 20133 40154 52023 76060 885//;
0199576330999992000090618004+28820+108770FM-12+066599999V0200201N002010150019N0120001N1+01671+01311101611ADDAA106000191AY161061GF108991081051017501999999KA1999M+02091MA1999999094031MD1210041+0401MW1001REMSYN094AAXX  06181 57633 11762 80202 10167 20131 39403 40161 52004 69921 70060 885// 333 00453 10209;
0139576330999992000090621004+28820+108770FM-12+066599999V0200701N001010150019N0100001N1+01641+01201101611ADDAA124000391GF108991081051017501999999MD1710011+0401REMSYN076AAXX  06211 57633 42760 80701 10164 20120 40161 57001 885// 333 00453 70002;
0160576330999992000090700004+28820+108770FM-12+066599999V0200201N001010150019N0250001N1+01631+01071101761ADDAA124000391GF108991081051017501999999MA1999999094151MD1210131+0401REMSYN082AAXX  07001 57633 32775 80201 10163 20107 39415 40176 52013 885// 333 00453 70002;
0112576330999992000090703004+28820+108770FM-12+066599999V0200901N001010360019N0250001N1+01661+01041101861ADDGF108991031041012501071999MD1210091+9999REMSYN060AAXX  07031 57633 42675 80901 10166 20104 40186 52009 8347/;
0191576330999992000090706004+28820+108770FM-12+066599999V0203601N002010150019N0250001N1+01671+01111101811ADDAA106000791GF108991081051017501999999KA1999N+01591MA1999999094161MD1710081+0501MW1601REMSYN094AAXX  07061 57633 11775 83602 10167 20111 39416 40181 57008 69901 76000 885// 333 00554 20159;
0150576330999992000090709004+28820+108770FM-12+066599999V0203601N001010042019N0180001N1+01611+01161101811ADDAY161031AY261031GF108991081071004501999999MD1710011+0051MW1601REMSYN076AAXX  07091 57633 41468 83601 10161 20116 40181 57001 76066 887// 333 00554;
0188576330999992000090712004+28820+108770FM-12+066599999V0209999C000010150019N0150001N1+01551+01251101881ADDAA106000791AY161061AY261061GF108991081051017501999999MA1999999094211MD1210061+0051MW1211REMSYN088AAXX  07121 57633 11765 80000 10155 20125 39421 40188 52006 69901 72166 885// 333 00554;
0132576330999992000090715004+28820+108770FM-12+066599999V0209999C000010150019N0120001N1+01571+01251101971ADDAY161031GF108991081051017501999999MD1210091+9999MW1211REMSYN066AAXX  07151 57633 41762 80000 10157 20125 40197 52009 72160 885//;
0199576330999992000090718004+28820+108770FM-12+066599999V0203601N001010150019N0090001N1+01531+01251101901ADDAA106000791AY161061GF108991081051017501999999KA1999M+01741MA1999999094231MD1710071+0201MW1601REMSYN094AAXX  07181 57633 11759 83601 10153 20125 39423 40190 57007 69901 76060 885// 333 00251 10174;
0139576330999992000090721004+28820+108770FM-12+066599999V0209999C000010150019N0120001N1+01501+01291101781ADDAA124000791GF108991081051017501999999MD1710121+0101REMSYN076AAXX  07211 57633 42762 80000 10150 20129 40178 57012 885// 333 00151 79999;
0160576330999992000090800004+28820+108770FM-12+066599999V0209999C000010150019N0150001N1+01531+01341101881ADDAA124000791GF108991081051017501999999MA1999999094201MD1210091+0101REMSYN082AAXX  08001 57633 32765 80000 10153 20134 39420 40188 52009 885// 333 00151 79999;
0124576330999992000090803004+28820+108770FM-12+066599999V0209999C000010120019N0150001N1+01791+01361101901ADDGF108991081081008001999999MD1210051+9999MW1211REMSYN066AAXX  08031 57633 41565 80000 10179 20136 40190 52005 72100 888//;
0199576330999992000090806004+28820+108770FM-12+066599999V0201801N001010120019N0300001N1+01911+01271101721ADDAA106000791AY161061GF107991071041012501999999KA1999N+01491MA1999999094091MD1710161-0101MW1001REMSYN094AAXX  08061 57633 11680 71801 10191 20127 39409 40172 57016 69901 70060 874// 333 05102 20149;
0122576330999992000090809004+28820+108770FM-12+066599999V0201801N002010120019N0250001N1+01921+01291101591ADDGF108991081051012501999999MD1710121+0021REMSYN070AAXX  08091 57633 42675 81802 10192 20129 40159 57012 885// 333 05203;
0154576330999992000090812004+28820+108770FM-12+066599999V0203601N001010150019N0150001N1+01811+01421101691ADDAA199000021GF108991081051017501999999MA1999999094051MD1210081+0021REMSYN076AAXX  08121 57633 32765 83601 10181 20142 39405 40169 52008 885// 333 05203;
0112576330999992000090815004+28820+108770FM-12+066599999V0209999C000010150019N0120001N1+01741+01491101801ADDGF108991081051017501999999MD1210131+9999REMSYN060AAXX  08151 57633 42762 80000 10174 20149 40180 52013 885//;
0199576330999992000090818004+28820+108770FM-12+066599999V0209999C000010150019N0120001N1+01671+01501101661ADDAA106000791AY161061GF108991081051017501999999KA1999M+01991MA1999999094061MD1710121-0201MW1001REMSYN094AAXX  08181 57633 11762 80000 10167 20150 39406 40166 57012 69901 70060 885// 333 05201 10199;
0139576330999992000090821004+28820+108770FM-12+066599999V0209999C000010150019N0120001N1+01641+01471101571ADDAA124000791GF108991081051017501999999MD1710091-0101REMSYN076AAXX  08211 57633 42762 80000 10164 20147 40157 57009 885// 333 05101 79999;
0160576330999992000090900004+28820+108770FM-12+066599999V0209999C000019999999N0150001N1+01681+01441101661ADDAA124000791GF107991071001999999041999MA1999999094041MD1210071-0201REMSYN082AAXX  09001 57633 32965 70000 10168 20144 39404 40166 52007 8704/ 333 05202 79999;
0112576330999992000090903004+28820+108770FM-12+066599999V0209999C000010360019N0250001N1+01971+01211101711ADDGF108991021011008001071999MD1210081+9999REMSYN060AAXX  09031 57633 42575 80000 10197 20121 40171 52008 8217/;
0192576330999992000090906004+28820+108770FM-12+066599999V0201601N002010360019N0250001N1+02031+01241101511ADDAA199000091GF108991031011008001071999KA1999N+01611MA1999999093931MD1710191-0201REMSYN082AAXX  09061 57633 32575 81602 10203 20124 39393 40151 57019 8317/ 333 05201 20161;EQDQ01  00002PRCP99
0122576330999992000090909004+28820+108770FM-12+066599999V0200401N001010360019N0170001N1+01941+01371101461ADDGF108991021011008001071999MD1710061+0011REMSYN070AAXX  09091 57633 42567 80401 10194 20137 40146 57006 8217/ 333 05100;
0173576330999992000090912004+28820+108770FM-12+066599999V0209999C000019999999N0150001N1+01871+01361101531ADDAA199000091GF108991081001999999071999MA1999999093931MD1210061+0011REMSYN076AAXX  09121 57633 32965 80000 10187 20136 39393 40153 52006 8807/ 333 05101;EQDQ01  00002PRCP99
0132576330999992000090915004+28820+108770FM-12+066599999V0200201N001019999999N0120001N1+01771+01381101681ADDAY161031GF108991081001999999071999MD1210161+9999MW1001REMSYN066AAXX  09151 57633 41962 80201 10177 20138 40168 52016 70060 8807/;
0199576330999992000090918004+28820+108770FM-12+066599999V0203601N002019999999N0120001N1+01651+01411101581ADDAA106000791AY161061GF108991081001999999071999KA1999M+02091MA1999999093991MD1710101-0101MW1211REMSYN094AAXX  09181 57633 11962 83602 10165 20141 39399 40158 57010 69901 72160 8807/ 333 05100 10209;
0139576330999992000090921004+28820+108770FM-12+066599999V0203601N001019999999N0100001N1+01641+01401101501ADDAA124000791GF108991081001999999071999MD1710081-0101REMSYN076AAXX  09211 57633 42960 83601 10164 20140 40150 57008 8807/ 333 05100 79999;
0160576330999992000091000004+28820+108770FM-12+066599999V0209999C000019999999N0150001N1+01651+01291101611ADDAA124000791GF108991081001999999071999MA1999999094001MD1210091+0001REMSYN082AAXX  10001 57633 32965 80000 10165 20129 39400 40161 52009 8807/ 333 00000 79999;
0112576330999992000091003004+28820+108770FM-12+066599999V0209999C000019999999N0170001N1+01741+01201101651ADDGF108991081001999999071999MD1210041+9999REMSYN060AAXX  10031 57633 42967 80000 10174 20120 40165 52004 8807/;
0199576330999992000091006004+28820+108770FM-12+066599999V0209999C000010360019N0150001N1+01721+01211101521ADDAA106000791AY161061GF108991011071004501071999KA1999N+01591MA1999999093901MD1710141+0001MW1001REMSYN094AAXX  10061 57633 11465 80000 10172 20121 39390 40152 57014 69901 70060 8177/ 333 00053 20159;
0122576330999992000091009004+28820+108770FM-12+066599999V0201101N002019999999N0150001N1+01661+01281101451ADDGF108991081001999999071999MD1710071+0001REMSYN070AAXX  10091 57633 42965 81102 10166 20128 40145 57007 8807/ 333 00053;
0180576330999992000091012004+28820+108770FM-12+066599999V0209999C000019999999N0120001N1+01601+01321101511ADDAA106000791AY161061GF108991081001999999071999MA1999999093881MD1210051+0011MW1601REMSYN088AAXX  10121 57633 11962 80000 10160 20132 39388 40151 52005 69901 76060 8807/ 333 05153;
0140576330999992000091015004+28820+108770FM-12+066599999V0209999C000019999999N0120001N1+01551+01401101631ADDAY161031AY261031GF108991081001999999071999MD1210111+9999MW1211REMSYN066AAXX  10151 57633 41962 80000 10155 20140 40163 52011 72166 8807/;
0199576330999992000091018004+28820+108770FM-12+066599999V0209999C000019999999N0120001N1+01531+01391101491ADDAA106000591AY161061GF108991081001999999071999KA1999M+01771MA1999999093861MD1710131-0101MW1211REMSYN094AAXX  10181 57633 11962 80000 10153 20139 39386 40149 57013 69941 72160 8807/ 333 05151 10177;
0167576330999992000091021004+28820+108770FM-12+066599999V0209999C000010042019N0100001N1+01501+01411101361ADDAA124000591AY161031AY261031GF108991081071004501999999MD1710131-0201MW1601REMSYN082AAXX  10211 57633 41460 80000 10150 20141 40136 57013 76066 887// 333 05251 70005;
0194576330999992000091100004+28820+108770FM-12+066599999V0209999C000010042019N0060001N1+01531+01431101461ADDAA106000191AY161061AY261061GF108991081071004501999999MA1999999093811MD1210081-0201MW1211REMSYN094AAXX  11001 57633 11456 80000 10153 20143 39381 40146 52008 69921 72166 887// 333 05251 70006;
0112576330999992000091103004+28820+108770FM-12+066599999V0209999C000010075019N0150001N1+01631+01391101501ADDGF108991081051008001999999MD1210051+9999REMSYN060AAXX  11031 57633 42565 80000 10163 20139 40150 52005 885//;
0191576330999992000091106004+28820+108770FM-12+066599999V0200401N001010042019N0150001N1+01721+01401101341ADDAA106000791GF108991081051004501999999KA1999N+01471MA1999999093721MD1710141-0201MW1601REMSYN094AAXX  11061 57633 11465 80401 10172 20140 39372 40134 57014 69901 76000 885// 333 05200 20147;
0142576330999992000091109004+28820+108770FM-12+066599999V0209999C000010042019N0150001N1+01771+01431101301ADDAY161031GF108991081051004501999999MD1710041+0021MW1001REMSYN076AAXX  11091 57633 41465 80000 10177 20143 40130 57004 70060 885// 333 05201;
0180576330999992000091112004+28820+108770FM-12+066599999V0200201N001010150019N0150001N1+01691+01421101451ADDAA106000791AY161061GF108991081051017501999999MA1999999093821MD1210141+0011MW1601REMSYN088AAXX  11121 57633 11765 80201 10169 20142 39382 40145 52014 69901 76060 885// 333 05101;
0132576330999992000091115004+28820+108770FM-12+066599999V0209999C000010150019N0150001N1+01671+01421101661ADDAY161031GF108991081051017501999999MD1210201+9999MW1601REMSYN066AAXX  11151 57633 41765 80000 10167 20142 40166 52020 76060 885//;
0199576330999992000091118004+28820+108770FM-12+066599999V0209999C000010042019N0100001N1+01561+01491101611ADDAA106001091AY161061GF108991081071004501999999KA1999M+01801MA1999999093971MD1710051+0101MW1601REMSYN094AAXX  11181 57633 11460 80000 10156 20149 39397 40161 57005 60011 76060 887// 333 00100 10180;
0167576330999992000091121004+28820+108770FM-12+066599999V0209999C000010042019N0060001N1+01561+01491101541ADDAA124002391AY161031AY261031GF108991081071004501999999MD1710061+0201MW1601REMSYN082AAXX  11211 57633 41456 80000 10156 20149 40154 57006 76066 887// 333 00201 70024;
0186576330999992000091200004+28820+108770FM-12+066599999V0203201N001010042019N0100001N1+01601+01431101691ADDAA106001091AY161061GF108991081071004501999999MA1999999094051MD1210141+0201MW1601REMSYN094AAXX  12001 57633 11460 83201 10160 20143 39405 40169 52014 60011 76060 887// 333 00201 70023;
0132576330999992000091203004+28820+108770FM-12+066599999V0209999C000010042019N0100001N1+01691+01471101821ADDAY161031GF108991081051004501999999MD1210131+9999MW1001REMSYN066AAXX  12031 57633 41460 80000 10169 20147 40182 52013 70060 885//;
0199576330999992000091206004+28820+108770FM-12+066599999V0209999C000010042019N0070001N1+01671+01591101741ADDAA106000791AY161061GF108991081071004501999999KA1999N+01521MA1999999094091MD1710091+0401MW1601REMSYN094AAXX  12061 57633 11457 80000 10167 20159 39409 40174 57009 69901 76060 887// 333 00451 20152;
0142576330999992000091209004+28820+108770FM-12+066599999V0209999C000010120019N0100001N1+01821+01591101591ADDAY161031GF107991071081008001999999MD1710121+0031MW1001REMSYN076AAXX  12091 57633 41560 70000 10182 20159 40159 57012 70060 878// 333 00301;
0180576330999992000091212004+28820+108770FM-12+066599999V0209999C000010150019N0120001N1+01781+01531101681ADDAA106000791AY161061GF108991081051017501999999MA1999999094051MD1210081+0021MW1001REMSYN088AAXX  12121 57633 11762 80000 10178 20153 39405 40168 52008 69901 70060 885// 333 00201;
0124576330999992000091215004+28820+108770FM-12+066599999V0209999C000010150019N0070001N1+01691+01621101841ADDGF108991081051017501999999MD1210151+9999MW1101REMSYN066AAXX  12151 57633 41757 80000 10169 20162 40184 52015 71000 885//;
0185576330999992000091218004+28820+108770FM-12+066599999V0209999C000010150019N0060001N1+01651+01601101821ADDAA199000021GF108991081051017501999999KA1999M+01871MA1999999094171MD1710031+0201MW1101REMSYN088AAXX  12181 57633 31756 80000 10165 20160 39417 40182 57003 71000 885// 333 00201 10187;
0151576330999992000091221004+28820+108770FM-12+066599999V0209999C000010150019N0050001N1+01631+01601101701ADDAA124000791GF108991081051017501999999MD1710091+0201MW1101REMSYN082AAXX  12211 57633 41750 80000 10163 20160 40170 57009 71000 885// 333 00201 79999;
0172576330999992000091300004+28820+108770FM-12+066599999V0209999C000010150019N0050001N1+01651+01601101841ADDAA124000791GF108991081051017501999999MA1999999094201MD1210121+0201MW1101REMSYN088AAXX  13001 57633 31750 80000 10165 20160 39420 40184 52012 71000 885// 333 00201 79999;
0112576330999992000091303004+28820+108770FM-12+066599999V0209999C000010360019N0150001N1+02271+01371101811ADDGF107991041011008001041001MD1210041+9999REMSYN060AAXX  13031 57633 42565 70000 10227 20137 40181 52004 84140;
0192576330999992000091306004+28820+108770FM-12+066599999V0203601N001012200019N0170001N1+02531+01081101551ADDAA199000091GF102991021011008001001001KA1999N+01591MA1999999094031MD1710211-0101REMSYN082AAXX  13061 57633 32567 23601 10253 20108 39403 40155 57021 82100 333 05109 20159;EQDQ01  00002PRCP99
0122576330999992000091309004+28820+108770FM-12+066599999V0201401N002012200019N0180001N1+02541+01381101391ADDGF103991031021008001001001MD1710151+0011REMSYN070AAXX  13091 57633 42568 31402 10254 20138 40139 57015 83200 333 05107;
0183576330999992000091312004+28820+108770FM-12+066599999V0209999C000012200019N0150001N1+01921+01531101591ADDAA199000091GA1001+999999999GF100991001001999999001001MA1999999093991MD1210111+0011REMSYN070AAXX  13121 57633 32965 00000 10192 20153 39399 40159 52011 333 05101;EQDQ01  00002PRCP99
0122576330999992000091315004+28820+108770FM-12+066599999V0209999C000012200019N0120001N1+01621+01491101741ADDGA1001+999999999GF100991001001999999001001MD1210181+9999REMSYN054AAXX  13151 57633 42962 00000 10162 20149 40174 52018;
0202576330999992000091318004+28820+108770FM-12+066599999V0209999C000012200019N0100001N1+01491+01401101711ADDAA199000091GA1001+999999999GF100991001001999999001001KA1999M+02681MA1999999094161MD1710011+0001REMSYN076AAXX  13181 57633 32960 00000 10149 20140 39416 40171 57001 333 00052 10268;EQDQ01  00002PRCP99
0122576330999992000091321004+28820+108770FM-12+066599999V0209999C000019999999N0100001N1+01411+01361101671ADDGF107991071001999999041999MD1710051+0001REMSYN070AAXX  13211 57633 42960 70000 10141 20136 40167 57005 8704/ 333 00052;
0185576330999992000091400004+28820+108770FM-12+066599999V0209999C000012200019N0070001N1+01431+01361101841ADDAA199000091GF102991021001999999041001MA1999999094191MD1210081+0001MW1101REMSYN082AAXX  14001 57633 31957 20000 10143 20136 39419 40184 52008 71000 82040 333 00052;EQDQ01  00002PRCP99
0122576330999992000091403004+28820+108770FM-12+066599999V0202501N001012200019N0250001N1+02431+01121101681ADDGA1001+999999999GF100991001001999999001001MD1710061+9999REMSYN054AAXX  14031 57633 42975 02501 10243 20112 40168 57006;
0192576330999992000091406004+28820+108770FM-12+066599999V0200901N002012200019N0300001N1+02691+01081101391ADDAA199000091GF102991021011008001001001KA1999N+01331MA1999999093881MD1710251-0201REMSYN082AAXX  14061 57633 32580 20902 10269 20108 39388 40139 57025 82100 333 05202 20133;EQDQ01  00002PRCP99
0122576330999992000091409004+28820+108770FM-12+066599999V0200901N002012200019N0250001N1+02631+01291101221ADDGF102991021011008001001001MD1710171+0021REMSYN070AAXX  14091 57633 42575 20902 10263 20129 40122 57017 82100 333 05201;
0183576330999992000091412004+28820+108770FM-12+066599999V0209999C000012200019N0180001N1+01981+01381101341ADDAA199000091GA1001+999999999GF100991001001999999001001MA1999999093741MD1210031+0031REMSYN070AAXX  14121 57633 32968 00000 10198 20138 39374 40134 52003 333 05301;EQDQ01  00002PRCP99
0122576330999992000091415004+28820+108770FM-12+066599999V0209999C000012200019N0150001N1+01661+01491101381ADDGA1001+999999999GF100991001001999999001001MD1210121+9999REMSYN054AAXX  14151 57633 42965 00000 10166 20149 40138 52012;
0202576330999992000091418004+28820+108770FM-12+066599999V0209999C000012200019N0120001N1+01541+01421101351ADDAA199000091GA1001+999999999GF100991001001999999001001KA1999M+02861MA1999999093851MD1710011-0301REMSYN076AAXX  14181 57633 32962 00000 10154 20142 39385 40135 57001 333 05301 10286;EQDQ01  00002PRCP99
0132576330999992000091421004+28820+108770FM-12+066599999V0209999C000012200019N0100001N1+01421+01351101341ADDGA1001+999999999GF100991001001999999001001MD1710031+0031REMSYN064AAXX  14211 57633 42960 00000 10142 20135 40134 57003 333 05300;
0183576330999992000091500004+28820+108770FM-12+066599999V0209999C000012200019N0100001N1+01441+01371101521ADDAA199000091GA1001+999999999GF100991001001999999001001MA1999999093911MD1210091+0031REMSYN070AAXX  15001 57633 32960 00000 10144 20137 39391 40152 52009 333 05300;EQDQ01  00002PRCP99
0112576330999992000091503004+28820+108770FM-12+066599999V0209999C000012200019N0150001N1+02501+01611101371ADDGF101991011011008001001001MD1710051+9999REMSYN060AAXX  15031 57633 42565 10000 10250 20161 40137 57005 81100;
0192576330999992000091506004+28820+108770FM-12+066599999V0209999C000010075019N0170001N1+02671+01421101171ADDAA199000091GF106991061011008001001001KA1999N+01341MA1999999093681MD1710181-0201REMSYN082AAXX  15061 57633 32567 60000 10267 20142 39368 40117 57018 86100 333 05200 20134;EQDQ01  00002PRCP99
0122576330999992000091509004+28820+108770FM-12+066599999V0209999C000012200019N0250001N1+02821+01421101041ADDGF102991021011008001001001MD1710121+0021REMSYN070AAXX  15091 57633 42575 20000 10282 20142 40104 57012 82100 333 05202;
0183576330999992000091512004+28820+108770FM-12+066599999V0209999C000012200019N0150001N1+02071+01531101241ADDAA199000091GA1001+999999999GF100991001001999999001001MA1999999093661MD1210101+0011REMSYN070AAXX  15121 57633 32965 00000 10207 20153 39366 40124 52010 333 05101;EQDQ01  00002PRCP99
0112576330999992000091515004+28820+108770FM-12+066599999V0209999C000012200019N0120001N1+01751+01521101351ADDGF102991021001999999041001MD1210191+9999REMSYN060AAXX  15151 57633 42962 20000 10175 20152 40135 52019 82040;
0192576330999992000091518004+28820+108770FM-12+066599999V0209999C000019999999N0120001N1+01631+01511101321ADDAA199000091GF106991001001999999001021KA1999M+02881MA1999999093831MD1710021+0001REMSYN082AAXX  15181 57633 32962 60000 10163 20151 39383 40132 57002 80002 333 00001 10288;EQDQ01  00002PRCP99
0122576330999992000091521004+28820+108770FM-12+066599999V0209999C000019999999N0120001N1+01561+01481101281ADDGF107991071001999999031999MD1710031+0001REMSYN070AAXX  15211 57633 42962 70000 10156 20148 40128 57003 8703/ 333 00001;
0185576330999992000091600004+28820+108770FM-12+066599999V0209999C000019999999N0090001N1+01581+01501101511ADDAA199000091GF108991081001999999071999MA1999999093931MD1210131+0001MW1101REMSYN082AAXX  16001 57633 31959 80000 10158 20150 39393 40151 52013 71000 8807/ 333 00001;EQDQ01  00002PRCP99
0112576330999992000091603004+28820+108770FM-12+066599999V0209999C000019999999N0150001N1+02391+01571101471ADDGF107991071001999999041001MD1210021+9999REMSYN060AAXX  16031 57633 42965 70000 10239 20157 40147 52002 87040;
0192576330999992000091606004+28820+108770FM-12+066599999V0201401N001010360019N0180001N1+02751+01471101191ADDAA199000091GF107991021011008001041021KA1999N+01511MA1999999093721MD1710231+0001REMSYN082AAXX  16061 57633 32568 71401 10275 20147 39372 40119 57023 82142 333 00001 20151;EQDQ01  00002PRCP99
0122576330999992000091609004+28820+108770FM-12+066599999V0202201N001010900019N0180001N1+02661+01611101091ADDGF106991011011008001001021MD1710111+0011REMSYN070AAXX  16091 57633 42568 62201 10266 20161 40109 57011 81102 333 00152;
0183576330999992000091612004+28820+108770FM-12+066599999V0209999C000012200019N0100001N1+02061+01641101351ADDAA199000091GA1001+999999999GF100991001001999999001001MA1999999093781MD1210171+0011REMSYN070AAXX  16121 57633 32960 00000 10206 20164 39378 40135 52017 333 00100;EQDQ01  00002PRCP99
0112576330999992000091615004+28820+108770FM-12+066599999V0209999C000019999999N0100001N1+01831+01651101421ADDGF107991001001999999001021MD1210131+9999REMSYN060AAXX  16151 57633 42960 70000 10183 20165 40142 52013 80002;
0192576330999992000091618004+28820+108770FM-12+066599999V0209999C000019999999N0100001N1+01641+01511101371ADDAA199000091GF107991071001999999041999KA1999M+02851MA1999999093891MD1710021+0101REMSYN082AAXX  16181 57633 32960 70000 10164 20151 39389 40137 57002 8704/ 333 00100 10285;EQDQ01  00002PRCP99
0132576330999992000091621004+28820+108770FM-12+066599999V0209999C000012200019N0100001N1+01541+01421101371ADDGA1001+999999999GF100991001001999999001001MD1710031+0011REMSYN064AAXX  16211 57633 42960 00000 10154 20142 40137 57003 333 00100;
0183576330999992000091700004+28820+108770FM-12+066599999V0209999C000012200019N0100001N1+01511+01411101541ADDAA199000091GA1001+999999999GF100991001001999999001001MA1999999093941MD1210081+0001REMSYN070AAXX  17001 57633 32960 00000 10151 20141 39394 40154 52008 333 00051;EQDQ01  00002PRCP99
0122576330999992000091703004+28820+108770FM-12+066599999V0209999C000012200019N0170001N1+02601+01411101361ADDGA1001+999999999GF100991001001999999001001MD1710061+9999REMSYN054AAXX  17031 57633 42967 00000 10260 20141 40136 57006;
0192576330999992000091706004+28820+108770FM-12+066599999V0201601N002012200019N0180001N1+02961+01091101071ADDAA199000091GF102991021021008001001001KA1999N+01411MA1999999093631MD1710251-0101REMSYN082AAXX  17061 57633 32568 21602 10296 20109 39363 40107 57025 82200 333 05102 20141;EQDQ01  00002PRCP99
0122576330999992000091709004+28820+108770FM-12+066599999V0201601N002012200019N0250001N1+02841+01431100921ADDGF101991011011008001001001MD1710161+0011REMSYN070AAXX  17091 57633 42575 11602 10284 20143 40092 57016 81100 333 05102;
0173576330999992000091712004+28820+108770FM-12+066599999V0209999C000012200019N0150001N1+02151+01531101141ADDAA199000091GF102991001001999999001021MA1999999093581MD1210111+0021REMSYN076AAXX  17121 57633 32965 20000 10215 20153 39358 40114 52011 80002 333 05201;EQDQ01  00002PRCP99
0122576330999992000091715004+28820+108770FM-12+066599999V0209999C000012200019N0120001N1+01781+01581101221ADDGA1001+999999999GF100991001001999999001001MD1210171+9999REMSYN054AAXX  17151 57633 42962 00000 10178 20158 40122 52017;
0192576330999992000091718004+28820+108770FM-12+066599999V0209999C000012200019N0120001N1+01621+01501101181ADDAA199000091GF103991001001999999001021KA1999M+03061MA1999999093731MD1710021-0201REMSYN082AAXX  17181 57633 32962 30000 10162 20150 39373 40118 57002 80002 333 05200 10306;EQDQ01  00002PRCP99
0132576330999992000091721004+28820+108770FM-12+066599999V0209999C000012200019N0100001N1+01511+01411101161ADDGA1001+999999999GF100991001001999999001001MD1710041+0021REMSYN064AAXX  17211 57633 42960 00000 10151 20141 40116 57004 333 05200;
0173576330999992000091800004+28820+108770FM-12+066599999V0209999C000012200019N0120001N1+01521+01401101371ADDAA199000091GF104991001001999999001021MA1999999093801MD1210111+0011REMSYN076AAXX  18001 57633 32962 40000 10152 20140 39380 40137 52011 80002 333 05100;EQDQ01  00002PRCP99
0112576330999992000091803004+28820+108770FM-12+066599999V0209999C000019999999N0200001N1+02541+01611101311ADDGF107991061001999999041021MD1210021+9999REMSYN060AAXX  18031 57633 42970 70000 10254 20161 40131 52002 86042;
0192576330999992000091806004+28820+108770FM-12+066599999V0201101N001010360019N0300001N1+02921+01101101091ADDAA199000091GF106991011011008001041021KA1999N+01401MA1999999093651MD1710171+0001REMSYN082AAXX  18061 57633 32580 61101 10292 20110 39365 40109 57017 81142 333 00000 20140;EQDQ01  00002PRCP99
0122576330999992000091809004+28820+108770FM-12+066599999V0209999C000012200019N0300001N1+02691+01551101031ADDGF102991021011008001001021MD1710101+0011REMSYN070AAXX  18091 57633 42580 20000 10269 20155 40103 57010 82102 333 00152;
0183576330999992000091812004+28820+108770FM-12+066599999V0209999C000012200019N0150001N1+02081+01361101281ADDAA199000091GA1001+999999999GF100991001001999999001001MA1999999093711MD1210161+0011REMSYN070AAXX  18121 57633 32965 00000 10208 20136 39371 40128 52016 333 00151;EQDQ01  00002PRCP99
0112576330999992000091815004+28820+108770FM-12+066599999V0201601N001019999999N0120001N1+01901+01561101321ADDGF108991081001999999071999MD1210141+9999REMSYN060AAXX  18151 57633 42962 81601 10190 20156 40132 52014 8807/;
0192576330999992000091818004+28820+108770FM-12+066599999V0209999C000019999999N0120001N1+01801+01521101221ADDAA199000091GF107991071001999999041999KA1999M+02981MA1999999093791MD1710061+0101REMSYN082AAXX  18181 57633 32962 70000 10180 20152 39379 40122 57006 8704/ 333 00102 10298;EQDQ01  00002PRCP99
0122576330999992000091821004+28820+108770FM-12+066599999V0201601N001019999999N0120001N1+01651+01471101251ADDGF107991071001999999031999MD1710021+0011REMSYN070AAXX  18211 57633 42962 71601 10165 20147 40125 57002 8703/ 333 00101;
0173576330999992000091900004+28820+108770FM-12+066599999V0209999C000019999999N0150001N1+01691+01521101491ADDAA199000091GF108991081001999999071999MA1999999093921MD1210151+0011REMSYN076AAXX  19001 57633 32965 80000 10169 20152 39392 40149 52015 8807/ 333 00102;EQDQ01  00002PRCP99
0112576330999992000091903004+28820+108770FM-12+066599999V0209999C000019999999N0150001N1+02161+01561101511ADDGF108991081001999999011999MD1210061+9999REMSYN060AAXX  19031 57633 42965 80000 10216 20156 40151 52006 8801/;
0199576330999992000091906004+28820+108770FM-12+066599999V0201601N001019999999N0170001N1+02151+01461101461ADDAA106000791AY181061GF108991081001999999071999KA1999N+01561MA1999999093921MD1710061+0301MW1601REMSYN094AAXX  19061 57633 11967 81601 10215 20146 39392 40146 57006 69901 76080 8807/ 333 00358 20156;
0142576330999992000091909004+28820+108770FM-12+066599999V0209999C000019999999N0170001N1+02201+01691101381ADDAY161031GF108991081001999999021999MD1710091+0031MW1601REMSYN076AAXX  19091 57633 41967 80000 10220 20169 40138 57009 76060 8802/ 333 00355;
0180576330999992000091912004+28820+108770FM-12+066599999V0209999C000019999999N0100001N1+01981+01641101621ADDAA106000791AY161061GF108991081001999999071999MA1999999094031MD1210201+0031MW1001REMSYN088AAXX  19121 57633 11960 80000 10198 20164 39403 40162 52020 69901 70060 8807/ 333 00351;
0112576330999992000091915004+28820+108770FM-12+066599999V0209999C000019999999N0100001N1+01871+01691101711ADDGF108991081001999999071999MD1210131+9999REMSYN060AAXX  19151 57633 42960 80000 10187 20169 40171 52013 8807/;
0173576330999992000091918004+28820+108770FM-12+066599999V0209999C000012200019N0100001N1+01661+01531101671ADDAA199000021GF102991021001999999041001KA1999M+02301MA1999999094091MD1710071+0301REMSYN082AAXX  19181 57633 32960 20000 10166 20153 39409 40167 57007 82040 333 00351 10230;
0149576330999992000091921004+28820+108770FM-12+066599999V0209999C000012200019N0100001N1+01511+01441101671ADDAA124000791GA1001+999999999GF100991001001999999001001MD1710011+0301REMSYN070AAXX  19211 57633 42960 00000 10151 20144 40167 57001 333 00351 79999;
0172576330999992000092000004+28820+108770FM-12+066599999V0209999C000012200019N0070001N1+01561+01481101801ADDAA124000791GF102991021001999999041001MA1999999094181MD1210101+0301MW1101REMSYN088AAXX  20001 57633 31957 20000 10156 20148 39418 40180 52010 71000 82040 333 00351 79999;
0112576330999992000092003004+28820+108770FM-12+066599999V0209999C000012200019N0120001N1+02301+01671101701ADDGF102991021011008001001001MD1710011+9999REMSYN060AAXX  20031 57633 42562 20000 10230 20167 40170 57001 82100;
0192576330999992000092006004+28820+108770FM-12+066599999V0201601N002010075019N0150001N1+02491+01471101441ADDAA199000091GF106991061011008001001001KA1999N+01451MA1999999093921MD1710251+0001REMSYN082AAXX  20061 57633 32565 61602 10249 20147 39392 40144 57025 86100 333 00003 20145;EQDQ01  00002PRCP99
0122576330999992000092009004+28820+108770FM-12+066599999V0201601N002010075019N0150001N1+02391+01541101361ADDGF107991071091008001999999MD1710101+0001REMSYN070AAXX  20091 57633 42565 71602 10239 20154 40136 57010 879// 333 00002;
0183576330999992000092012004+28820+108770FM-12+066599999V0209999C000012200019N0150001N1+01991+01601101531ADDAA199000091GA1001+999999999GF100991001001999999001001MA1999999093931MD1210111+0011REMSYN070AAXX  20121 57633 32965 00000 10199 20160 39393 40153 52011 333 05100;EQDQ01  00002PRCP99
0122576330999992000092015004+28820+108770FM-12+066599999V0209999C000012200019N0100001N1+01691+01521101631ADDGA1001+999999999GF100991001001999999001001MD1210151+9999REMSYN054AAXX  20151 57633 42960 00000 10169 20152 40163 52015;
0202576330999992000092018004+28820+108770FM-12+066599999V0209999C000012200019N0100001N1+01571+01491101621ADDAA199000091GA1001+999999999GF100991001001999999001001KA1999M+02621MA1999999094081MD1410001+0001REMSYN076AAXX  20181 57633 32960 00000 10157 20149 39408 40162 54000 333 00051 10262;EQDQ01  00002PRCP99
0144576330999992000092021004+28820+108770FM-12+066599999V0209999C000012200019N0080001N1+01481+01411101641ADDGA1001+999999999GF100991001001999999001001MD1710011+0001MW1101REMSYN070AAXX  20211 57633 41958 00000 10148 20141 40164 57001 71000 333 00000;
0185576330999992000092100004+28820+108770FM-12+066599999V0209999C000019999999N0090001N1+01501+01431101771ADDAA199000091GF107991071001999999041999MA1999999094151MD1210081+0001MW1101REMSYN082AAXX  21001 57633 31959 70000 10150 20143 39415 40177 52008 71000 8704/ 333 00051;EQDQ01  00002PRCP99
0112576330999992000092103004+28820+108770FM-12+066599999V0209999C000010360019N0120001N1+02371+01661101691ADDGF106991031011008001041001MD1710011+9999REMSYN060AAXX  21031 57633 42562 60000 10237 20166 40169 57001 83140;
0192576330999992000092106004+28820+108770FM-12+066599999V0209999C000010360019N0170001N1+02581+01641101461ADDAA199000091GF105991041011008001041001KA1999N+01401MA1999999093941MD1710201+0001REMSYN082AAXX  21061 57633 32567 50000 10258 20164 39394 40146 57020 84140 333 00001 20140;EQDQ01  00002PRCP99
0122576330999992000092109004+28820+108770FM-12+066599999V0201801N002010075019N0150001N1+02601+01731101361ADDGF105991051011008001001001MD1710101+0001REMSYN070AAXX  21091 57633 42565 51802 10260 20173 40136 57010 85100 333 00002;
0173576330999992000092112004+28820+108770FM-12+066599999V0209999C000019999999N0100001N1+02271+01771101541ADDAA199000091GF107991071001999999041999MA1999999093971MD1210131+0001REMSYN076AAXX  21121 57633 32960 70000 10227 20177 39397 40154 52013 8704/ 333 00003;EQDQ01  00002PRCP99
0112576330999992000092115004+28820+108770FM-12+066599999V0209999C000012200019N0100001N1+01971+01781101601ADDGF103991031001999999041001MD1210121+9999REMSYN060AAXX  21151 57633 42960 30000 10197 20178 40160 52012 83040;
0204576330999992000092118004+28820+108770FM-12+066599999V0209999C000019999999N0070001N1+01921+01781101561ADDAA199000091GF107991071001999999041999KA1999M+02801MA1999999094081MD1710011+0001MW1101REMSYN088AAXX  21181 57633 31957 70000 10192 20178 39408 40156 57001 71000 8704/ 333 00004 10280;EQDQ01  00002PRCP99
0134576330999992000092121004+28820+108770FM-12+066599999V0209999C000019999999N0060001N1+01881+01791101531ADDGF108991081001999999071999MD1710031+0001MW1101REMSYN076AAXX  21211 57633 41956 80000 10188 20179 40153 57003 71000 8807/ 333 00004;
0185576330999992000092200004+28820+108770FM-12+066599999V0209999C000019999999N0060001N1+01941+01811101621ADDAA199000091GF107991071001999999031999MA1999999094101MD1210051+0011MW1101REMSYN082AAXX  22001 57633 31956 70000 10194 20181 39410 40162 52005 71000 8703/ 333 05104;EQDQ01  00002PRCP99
0112576330999992000092203004+28820+108770FM-12+066599999V0201101N003010075019N0150001N1+02651+01861101561ADDGF106991061011008001001001MD1710011+9999REMSYN060AAXX  22031 57633 42565 61103 10265 20186 40156 57001 86100;
0192576330999992000092206004+28820+108770FM-12+066599999V0201601N003010075019N0150001N1+02821+01911101211ADDAA199000091GF107991071021008001001001KA1999N+01841MA1999999093781MD1710311-0201REMSYN082AAXX  22061 57633 32565 71603 10282 20191 39378 40121 57031 87200 333 05202 20184;EQDQ01  00002PRCP99
0122576330999992000092209004+28820+108770FM-12+066599999V0201401N001012200019N0150001N1+02811+01891101061ADDGF103991031041008001001001MD1710141+0021REMSYN070AAXX  22091 57633 42565 31401 10281 20189 40106 57014 83400 333 05202;
0173576330999992000092212004+28820+108770FM-12+066599999V0209999C000019999999N0100001N1+02361+01971101261ADDAA199000091GF107991071001999999041999MA1999999093771MD1210131+0021REMSYN076AAXX  22121 57633 32960 70000 10236 20197 39377 40126 52013 8704/ 333 05201;EQDQ01  00002PRCP99
0112576330999992000092215004+28820+108770FM-12+066599999V0209999C000019999999N0100001N1+02161+01981101301ADDGF107991071001999999031999MD1210101+9999REMSYN060AAXX  22151 57633 42960 70000 10216 20198 40130 52010 8703/;
0204576330999992000092218004+28820+108770FM-12+066599999V0209999C000019999999N0070001N1+02091+01071101251ADDAA199000091GF105991051001999999041001KA1999M+02911MA1999999093841MD1710031-0201MW1101REMSYN088AAXX  22181 57633 31957 50000 10209 20107 39384 40125 57003 71000 85040 333 05202 10291;EQDQ01  00002PRCP99
0134576330999992000092221004+28820+108770FM-12+066599999V0209999C000019999999N0060001N1+01961+01901101251ADDGF108991081001999999071999MD1710021+0021MW1101REMSYN076AAXX  22211 57633 41956 80000 10196 20190 40125 57002 71000 8807/ 333 05201;
0195576330999992000092300004+28820+108770FM-12+066599999V0209999C000012200019N0050001N1+01971+01891101341ADDAA199000091GA1001+999999999GF100991001001999999001001MA1999999093851MD1210031+0031MW1101REMSYN076AAXX  23001 57633 31950 00000 10197 20189 39385 40134 52003 71000 333 05300;EQDQ01  00002PRCP99
0112576330999992000092303004+28820+108770FM-12+066599999V0201601N002010075019N0200001N1+02851+01891101211ADDGF106991061011008001001001MD1710041+9999REMSYN060AAXX  23031 57633 42570 61602 10285 20189 40121 57004 86100;
0192576330999992000092306004+28820+108770FM-12+066599999V0201101N002010075019N0200001N1+02911+01941100881ADDAA199000091GF107991071021008001001001KA1999N+01881MA1999999093511MD1710301-0301REMSYN082AAXX  23061 57633 32570 71102 10291 20194 39351 40088 57030 87200 333 05301 20188;EQDQ01  00002PRCP99
0122576330999992000092309004+28820+108770FM-12+066599999V0201401N002012200019N0250001N1+02941+01891100661ADDGF104991041021008001001001MD1710221+0041REMSYN070AAXX  23091 57633 42575 41402 10294 20189 40066 57022 84200 333 05401;
0173576330999992000092312004+28820+108770FM-12+066599999V0209999C000012200019N0170001N1+02421+02001100841ADDAA199000091GF102991021001999999041001MA1999999093401MD1210111+0041REMSYN076AAXX  23121 57633 32967 20000 10242 20200 39340 40084 52011 82040 333 05401;EQDQ01  00002PRCP99
0112576330999992000092315004+28820+108770FM-12+066599999V0201801N001019999999N0120001N1+02221+01991100861ADDGF105991051001999999041001MD1210101+9999REMSYN060AAXX  23151 57633 42962 51801 10222 20199 40086 52010 85040;
0192576330999992000092318004+28820+108770FM-12+066599999V0209999C000019999999N0100001N1+02151+01971100831ADDAA199000091GF108991081001999999071999KA1999M+03001MA1999999093471MD1710031-0401REMSYN082AAXX  23181 57633 32960 80000 10215 20197 39347 40083 57003 8807/ 333 05401 10300;EQDQ01  00002PRCP99
0151576330999992000092321004+28820+108770FM-12+066599999V0209999C000019999999N0080001N1+02111+02001100781ADDAA124000791GF108991081001999999071999MD1710051-0401MW1211REMSYN082AAXX  23211 57633 41958 80000 10211 20200 40078 57005 72100 8807/ 333 05402 79999;
0132576330999992000092403004+28820+108770FM-12+066599999V0209999C000010042019N0150001N1+02141+01901100951ADDAY181031GF108991071071004501071999MD1710011+9999MW1211REMSYN066AAXX  24031 57633 41465 80000 10214 20190 40095 57001 72180 8777/;
0207576330999992000092406004+28820+108770FM-12+066599999V0200201N001010042019N0170001N1+02411+02051100671ADDAA106001091AY181061AY261061GF108991051071004501071999KA1999N+02051MA1999999093261MD1710231-0301MW1001REMSYN094AAXX  24061 57633 11467 80201 10241 20205 39326 40067 57023 60011 70086 8577/ 333 05355 20205;
0142576330999992000092409004+28820+108770FM-12+066599999V0203401N001010042019N0150001N1+02301+02111100541ADDAY161031GF108991061071004501071999MD1710141+0021MW1601REMSYN076AAXX  24091 57633 41465 83401 10230 20211 40054 57014 76060 8677/ 333 05256;
0180576330999992000092412004+28820+108770FM-12+066599999V0209999C000010360019N0100001N1+02251+02071100651ADDAA106009991AY161061GF108991021071004501071999MA1999999093211MD1210091+0021MW1001REMSYN088AAXX  24121 57633 11460 80000 10225 20207 39321 40065 52009 60101 70060 8277/ 333 05252;
0124576330999992000092415004+28820+108770FM-12+066599999V0209999C000010075019N0100001N1+02251+02101100761ADDGF108991081091008001999999MD1210111+9999MW1131REMSYN066AAXX  24151 57633 41560 80000 10225 20210 40076 52011 71300 889//;
0191576330999992000092418004+28820+108770FM-12+066599999V0209999C000010042019N0100001N1+02181+02111100661ADDAA106000791GF108991081091004501999999KA1999M+02541MA1999999093251MD1710071-0201MW1951REMSYN094AAXX  24181 57633 11460 80000 10218 20211 39325 40066 57007 69901 79500 889// 333 05200 10254;
0155576330999992000092421004+28820+108770FM-12+066599999V0209999C000019999999N0070001N1+02141+02081100661ADDAY191031AY281031GF108991999999004501999999MD1710011+9999MW1901REMSYN081AAXX  24211 57633 41457 80000 10214 20208 40066 57001 79098 889/ 333 05200 70197;
0194576330999992000092500004+28820+108770FM-12+066599999V0209999C000010360019N0120001N1+02101+02041100821ADDAA106009991AY191061AY281061GF108991031071004501071999MA1999999093371MD1210131-0101MW1601REMSYN094AAXX  25001 57633 11462 80000 10210 20204 39337 40082 52013 60101 76098 8377/ 333 05100 70216;
0207576330999992000092501004+28820+108770FM-12+066599999V0201601N002010360019N0250001N1+02501+01981100711ADDAA106002091AY161999AY261999GF107991031021008001041999KA1999N+02061MA1999999093311MD1710151+0101MW1211REMSYN094AAXX  25011 57633 11575 71602 10250 20198 39331 40071 57015 60021 72166 8324/ 333 00101 20206;
0140576330999992000092503004+28820+108770FM-12+066599999V0209999C000010360019N0150001N1+02261+02071100891ADDAY161031AY261031GF108991031071004501071999MD1210091+9999MW1601REMSYN066AAXX  25031 57633 41465 80000 10226 20207 40089 52009 76066 8377/;
0207576330999992000092506004+28820+108770FM-12+066599999V0201601N002010360019N0250001N1+02501+01981100711ADDAA106002091AY161061AY261061GF107991031021008001041999KA1999N+02061MA1999999093311MD1710151+0101MW1211REMSYN094AAXX  25061 57633 11575 71602 10250 20198 39331 40071 57015 60021 72166 8324/ 333 00101 20206;
0142576330999992000092509004+28820+108770FM-12+066599999V0209999C000010042019N0300001N1+02271+02001100681ADDAY181031GF107991071091004501999999MD1710061+0011MW1801REMSYN076AAXX  25091 57633 41480 70000 10227 20200 40068 57006 78080 879// 333 00100;
0180576330999992000092512004+28820+108770FM-12+066599999V0203201N001010042019N0150001N1+02131+01931100921ADDAA106000591AY181061GF108991081051004501999999MA1999999093451MD1210201+0021MW1601REMSYN088AAXX  25121 57633 11465 83201 10213 20193 39345 40092 52020 69941 76080 885// 333 00251;
0140576330999992000092515004+28820+108770FM-12+066599999V0209999C000010042019N0100001N1+02021+01931101121ADDAY161031AY261031GF108991081071004501999999MD1210191+9999MW1601REMSYN066AAXX  25151 57633 41460 80000 10202 20193 40112 52019 76066 887//;
0207576330999992000092518004+28820+108770FM-12+066599999V0203401N001010042019N0150001N1+01971+01851101071ADDAA106008991AY161061AY261061GF108991081071004501999999KA1999M+02721MA1999999093621MD1710021+0401MW1601REMSYN094AAXX  25181 57633 11465 83401 10197 20185 39362 40107 57002 60091 76066 887// 333 00452 10272;
0159576330999992000092521004+28820+108770FM-12+066599999V0200201N001010042019N0120001N1+01921+01791101081ADDAA124015591AY161031GF108991081071004501999999MD1710031+0401MW1601REMSYN082AAXX  25211 57633 41462 80201 10192 20179 40108 57003 76060 887// 333 00452 70156;
0186576330999992000092600004+28820+108770FM-12+066599999V0209999C000010042019N0150001N1+01901+01811101261ADDAA106000391AY161061GF108991081071004501999999MA1999999093741MD1210151+0401MW1001REMSYN094AAXX  26001 57633 11465 80000 10190 20181 39374 40126 52015 69931 70060 887// 333 00452 70117;
0132576330999992000092603004+28820+108770FM-12+066599999V0209999C000010042019N0150001N1+02071+01761101331ADDAY161031GF108991081071004501999999MD1210071+9999MW1001REMSYN066AAXX  26031 57633 41465 80000 10207 20176 40133 52007 70060 887//;
0199576330999992000092606004+28820+108770FM-12+066599999V0209999C000010120019N0150001N1+02101+01751101231ADDAA106000791AY161061GF108991081051012501999999KA1999N+01841MA1999999093721MD1710091+0401MW1001REMSYN094AAXX  26061 57633 11665 80000 10210 20175 39372 40123 57009 69901 70060 885// 333 00454 20184;
0122576330999992000092609004+28820+108770FM-12+066599999V0203601N001010120019N0150001N1+02061+01831101141ADDGF108991081051012501999999MD1710101+0041REMSYN070AAXX  26091 57633 42665 83601 10206 20183 40114 57010 885// 333 00452;
0173576330999992000092612004+28820+108770FM-12+066599999V0209999C000010150019N0150001N1+02011+01791101271ADDAA199000091GF108991081051017501999999MA1999999093741MD1210121+0031REMSYN076AAXX  26121 57633 32765 80000 10201 20179 39374 40127 52012 885// 333 00351;EQDQ01  00002PRCP99
0132576330999992000092615004+28820+108770FM-12+066599999V0209999C000010042019N0120001N1+01971+01851101371ADDAY161031GF108991081071004501999999MD1210101+9999MW1601REMSYN066AAXX  26151 57633 41462 80000 10197 20185 40137 52010 76060 887//;
0199576330999992000092618004+28820+108770FM-12+066599999V0209999C000010042019N0100001N1+01951+01811101271ADDAA106000791AY161061GF108991081071004501999999KA1999M+02131MA1999999093751MD1710091+0101MW1001REMSYN094AAXX  26181 57633 11460 80000 10195 20181 39375 40127 57009 69901 70060 887// 333 00100 10213;
0159576330999992000092621004+28820+108770FM-12+066599999V0209999C000010042019N0090001N1+01921+01791101161ADDAA124000191AY161031GF108991081071004501999999MD1710111+0101MW1211REMSYN082AAXX  26211 57633 41459 80000 10192 20179 40116 57011 72160 887// 333 00100 70001;
0186576330999992000092700004+28820+108770FM-12+066599999V0209999C000010042019N0100001N1+01871+01821101311ADDAA106002091AY161061GF108991081071004501999999MA1999999093771MD1210131+0001MW1601REMSYN094AAXX  27001 57633 11460 80000 10187 20182 39377 40131 52013 60021 76060 887// 333 00000 70021;
0132576330999992000092703004+28820+108770FM-12+066599999V0203601N002010042019N0150001N1+01961+01741101371ADDAY161031GF108991081071004501999999MD1210061+9999MW1001REMSYN066AAXX  27031 57633 41465 83602 10196 20174 40137 52006 70060 887//;
0199576330999992000092706004+28820+108770FM-12+066599999V0209999C000010042019N0150001N1+01921+01791101251ADDAA106000191AY161061GF108991081071004501999999KA1999N+01841MA1999999093711MD1710121+0001MW1601REMSYN094AAXX  27061 57633 11465 80000 10192 20179 39371 40125 57012 69921 76060 887// 333 00052 20184;
0142576330999992000092709004+28820+108770FM-12+066599999V0200201N001010042019N0150001N1+01951+01781101131ADDAY161031GF108991081051004501999999MD1710111+0001MW1001REMSYN076AAXX  27091 57633 41465 80201 10195 20178 40113 57011 70060 885// 333 00051;
0180576330999992000092712004+28820+108770FM-12+066599999V0203601N002010042019N0150001N1+01921+01761101251ADDAA106000191AY161061GF108991081051004501999999MA1999999093701MD1210101+0001MW1001REMSYN088AAXX  27121 57633 11465 83602 10192 20176 39370 40125 52010 69921 70060 885// 333 00051;
0112576330999992000092715004+28820+108770FM-12+066599999V0209999C000010150019N0100001N1+01931+01771101291ADDGF108991081051017501999999MD1210051+9999REMSYN060AAXX  27151 57633 42760 80000 10193 20177 40129 52005 885//;
0199576330999992000092718004+28820+108770FM-12+066599999V0209999C000010150019N0100001N1+01911+01801101221ADDAA106000791AY161061GF108991081051017501999999KA1999M+02001MA1999999093681MD1710071-0101MW1211REMSYN094AAXX  27181 57633 11760 80000 10191 20180 39368 40122 57007 69901 72160 885// 333 05100 10200;
0186576330999992000092800004+28820+108770FM-12+066599999V0202201N001010042019N0100001N1+01891+01841101321ADDAA106004191AY161061GF108991081071004501999999MA1999999093771MD1210121+0001MW1601REMSYN094AAXX  28001 57633 11460 82201 10189 20184 39377 40132 52012 60041 76060 887// 333 00000 70047;
0132576330999992000092803004+28820+108770FM-12+066599999V0203601N001010042019N0150001N1+01991+01811101411ADDAY161031GF108991081071004501999999MD1210101+9999MW1001REMSYN066AAXX  28031 57633 41465 83601 10199 20181 40141 52010 70060 887//;
0199576330999992000092806004+28820+108770FM-12+066599999V0203601N002010042019N0150001N1+02031+01811101281ADDAA106001091AY161061GF108991081071004501999999KA1999N+01861MA1999999093751MD1710131+0001MW1211REMSYN094AAXX  28061 57633 11465 83602 10203 20181 39375 40128 57013 60011 72160 887// 333 00001 20186;
0122576330999992000092809004+28820+108770FM-12+066599999V0209999C000010120019N0170001N1+02021+01791101221ADDGF108991081051012501999999MD1710061+0011REMSYN070AAXX  28091 57633 42667 80000 10202 20179 40122 57006 885// 333 00101;
0154576330999992000092812004+28820+108770FM-12+066599999V0203601N001010150019N0150001N1+01951+01741101351ADDAA199000021GF108991081051017501999999MA1999999093801MD1210111+0011REMSYN076AAXX  28121 57633 32765 83601 10195 20174 39380 40135 52011 885// 333 00100;
0173576330999992000092818004+28820+108770FM-12+066599999V0203601N001010150019N0100001N1+01891+01731101411ADDAA199000021GF108991081051017501999999KA1999M+02151MA1999999093871MD1710031+0201REMSYN082AAXX  28181 57633 32760 83601 10189 20173 39387 40141 57003 885// 333 00200 10215;
0139576330999992000092821004+28820+108770FM-12+066599999V0203601N001010150019N0120001N1+01871+01691101321ADDAA124005391GF108991081051017501999999MD1710091+0101REMSYN076AAXX  28211 57633 42762 83601 10187 20169 40132 57009 885// 333 00151 70053;
0178576330999992000092900004+28820+108770FM-12+066599999V0203601N001010042019N0150001N1+01861+01681101551ADDAA106000791GF108991081051004501999999MA1999999093981MD1210201+0201MW1601REMSYN094AAXX  29001 57633 11465 83601 10186 20168 39398 40155 52020 69901 76000 885// 333 00200 70010;
0132576330999992000092903004+28820+108770FM-12+066599999V0203601N001010150019N0150001N1+01891+01681101631ADDAY161031GF108991081051017501999999MD1210081+9999MW1001REMSYN066AAXX  29031 57633 41765 83601 10189 20168 40163 52008 70060 885//;
0199576330999992000092906004+28820+108770FM-12+066599999V0203401N002010150019N0150001N1+01921+01701101441ADDAA106000791AY161061GF108991081051017501999999KA1999N+01821MA1999999093881MD1710181+0101MW1001REMSYN094AAXX  29061 57633 11765 83402 10192 20170 39388 40144 57018 69901 70060 885// 333 00151 20182;
0122576330999992000092909004+28820+108770FM-12+066599999V0203201N001010150019N0150001N1+01861+01681101341ADDGF108991081051017501999999MD1710101+0011REMSYN070AAXX  29091 57633 42765 83201 10186 20168 40134 57010 885// 333 00152;
0154576330999992000092912004+28820+108770FM-12+066599999V0209999C000010150019N0120001N1+01821+01631101471ADDAA199000021GF108991081051017501999999MA1999999093891MD1210111+0011REMSYN076AAXX  29121 57633 32762 80000 10182 20163 39389 40147 52011 885// 333 00151;
0112576330999992000092915004+28820+108770FM-12+066599999V0203601N001010150019N0120001N1+01801+01601101611ADDGF108991081051017501999999MD1210131+9999REMSYN060AAXX  29151 57633 42762 83601 10180 20160 40161 52013 885//;
0192576330999992000092918004+28820+108770FM-12+066599999V0203601N002010150019N0100001N1+01781+01581101551ADDAA199000091GF108991081051017501999999KA1999M+01951MA1999999093971MD1710051+0101REMSYN082AAXX  29181 57633 32760 83602 10178 20158 39397 40155 57005 885// 333 00151 10195;EQDQ01  00002PRCP99
0139576330999992000092921004+28820+108770FM-12+066599999V0203601N001010150019N0100001N1+01771+01561101521ADDAA124000791GF108991081051017501999999MD1710041+0201REMSYN076AAXX  29211 57633 42760 83601 10177 20156 40152 57004 885// 333 00251 79999;
0186576330999992000093000004+28820+108770FM-12+066599999V0203601N001010150019N0150001N1+01721+01541101691ADDAA106000791AY161061GF108991081051017501999999MA1999999094081MD1210151+0101MW1001REMSYN094AAXX  30001 57633 11765 83601 10172 20154 39408 40169 52015 69901 70060 885// 333 00151 79999;
0112576330999992000093003004+28820+108770FM-12+066599999V0203601N002010150019N0150001N1+01761+01561101801ADDGF108991081051017501999999MD1210101+9999REMSYN060AAXX  30031 57633 42765 83602 10176 20156 40180 52010 885//;
0192576330999992000093006004+28820+108770FM-12+066599999V0203401N002010150019N0170001N1+01861+01581101621ADDAA199000091GF108991081051017501999999KA1999N+01691MA1999999094031MD1710151+0201REMSYN082AAXX  30061 57633 32767 83402 10186 20158 39403 40162 57015 885// 333 00251 20169;EQDQ01  00002PRCP99
0122576330999992000093009004+28820+108770FM-12+066599999V0209999C000010150019N0150001N1+01831+01601101531ADDGF108991081051017501999999MD1710091+0021REMSYN070AAXX  30091 57633 42765 80000 10183 20160 40153 57009 885// 333 00200;
0173576330999992000093012004+28820+108770FM-12+066599999V0203401N001010150019N0120001N1+01801+01591101671ADDAA199000091GF108991081051017501999999MA1999999094061MD1210121+0021REMSYN076AAXX  30121 57633 32762 83401 10180 20159 39406 40167 52012 885// 333 00200;EQDQ01  00002PRCP99
0112576330999992000093015004+28820+108770FM-12+066599999V0200201N001010150019N0120001N1+01791+01591101791ADDGF108991081051017501999999MD1210111+9999REMSYN060AAXX  30151 57633 42762 80201 10179 20159 40179 52011 885//;
0192576330999992000093018004+28820+108770FM-12+066599999V0203601N002010150019N0100001N1+01761+01601101691ADDAA199000091GF108991081051017501999999KA1999M+01881MA1999999094091MD1710081+0101REMSYN082AAXX  30181 57633 32760 83602 10176 20160 39409 40169 57008 885// 333 00100 10188;EQDQ01  00002PRCP99
0159576330999992000093021004+28820+108770FM-12+066599999V0209999C000010042019N0100001N1+01711+01631101621ADDAA124000391AY161031GF108991081051004501999999MD1710081+0101MW1601REMSYN082AAXX  30211 57633 41460 80000 10171 20163 40162 57008 76060 885// 333 00151 70003;
0186576330999992000100100004+28820+108770FM-12+066599999V0203401N001010042019N0150001N1+01741+01611101631ADDAA106000891AY161061GF108991081071004501999999MA1999999094021MD1210011-0101MW1001REMSYN094AAXX  01001 57633 11465 83401 10174 20161 39402 40163 52001 69971 70060 887// 333 05100 70007;
0112576330999992000100103004+28820+108770FM-12+066599999V0203601N001010120019N0150001N1+01931+01691101551ADDGF107991071081008001999999MD1710051+9999REMSYN060AAXX  01031 57633 42565 73601 10193 20169 40155 57005 878//;
0173576330999992000100106004+28820+108770FM-12+066599999V0203601N003010120019N0220001N1+02421+01921101201ADDAA199000021GF107991071081008001999999KA1999N+01691MA1999999093701MD1710271-0301REMSYN082AAXX  01061 57633 32572 73603 10242 20192 39370 40120 57027 878// 333 05306 20169;
0122576330999992000100109004+28820+108770FM-12+066599999V0203401N002010120019N0200001N1+02121+01811101221ADDGF108991081081008001999999MD1710021+0031REMSYN070AAXX  01091 57633 42570 83402 10212 20181 40122 57002 888// 333 05303;
0173576330999992000100112004+28820+108770FM-12+066599999V0203401N002010150019N0120001N1+02021+01801101351ADDAA199000091GF108991081051017501999999MA1999999093791MD1210111+0031REMSYN076AAXX  01121 57633 32762 83402 10202 20180 39379 40135 52011 885// 333 05302;EQDQ01  00002PRCP99
0112576330999992000100115004+28820+108770FM-12+066599999V0209999C000010150019N0120001N1+01991+01831101371ADDGF108991081051017501999999MD1210041+9999REMSYN060AAXX  01151 57633 42762 80000 10199 20183 40137 52004 885//;
0192576330999992000100118004+28820+108770FM-12+066599999V0209999C000010150019N0120001N1+01971+01881101191ADDAA199000091GF108991081051017501999999KA1999M+02461MA1999999093721MD1710111-0401REMSYN082AAXX  01181 57633 32762 80000 10197 20188 39372 40119 57011 885// 333 05402 10246;EQDQ01  00002PRCP99
0150576330999992000100121004+28820+108770FM-12+066599999V0200701N002010042019N0090001N1+01951+01871101241ADDAA124004391GF108991081091004501999999MD1210011+0031MW1951REMSYN081AAXX  01211 57633 41459 80702 10195 20187 40124 52001 79500 889// 33305302 70042;
0194576330999992000100200004+28820+108770FM-12+066599999V0209999C000010042019N0070001N1+01911+01891101411ADDAA106032091AY191061AY281061GF108991081091004501999999MA1999999093871MD1210141-0201MW1801REMSYN094AAXX  02001 57633 11457 80000 10191 20189 39387 40141 52014 60321 78098 889// 333 05202 70318;
0140576330999992000100203004+28820+108770FM-12+066599999V0201101N001010042019N0150001N1+02001+01861101461ADDAY181031AY261031GF108991061071004501021999MD1210051+9999MW1601REMSYN066AAXX  02031 57633 41465 81101 10200 20186 40146 52005 76086 8672/;
0207576330999992000100206004+28820+108770FM-12+066599999V0209999C000010042019N0150001N1+02161+01881101331ADDAA106006191AY181061AY261061GF108991081051004501999999KA1999N+01861MA1999999093821MD1710101+0101MW1601REMSYN094AAXX  02061 57633 11465 80000 10216 20188 39382 40133 57010 60061 76086 885// 333 00153 20186;
0142576330999992000100209004+28820+108770FM-12+066599999V0200201N002010120019N0170001N1+02101+01841101321ADDAY161031GF108991081041012501999999MD1710021+0011MW1001REMSYN076AAXX  02091 57633 41667 80202 10210 20184 40132 57002 70060 884// 333 00100;
0180576330999992000100212004+28820+108770FM-12+066599999V0209999C000010120019N0150001N1+01851+01641101631ADDAA106000191AY161061GF108991081051012501999999MA1999999094051MD1210251+0031MW1001REMSYN088AAXX  02121 57633 11665 80000 10185 20164 39405 40163 52025 69921 70060 885// 333 00352;
0112576330999992000100215004+28820+108770FM-12+066599999V0209999C000010150019N0150001N1+01841+01651101721ADDGF107991071051017501999999MD1210091+9999REMSYN060AAXX  02151 57633 42765 70000 10184 20165 40172 52009 875//;
0173576330999992000100218004+28820+108770FM-12+066599999V0209999C000010150019N0150001N1+01711+01601101701ADDAA199000021GF107991071051017501999999KA1999M+02221MA1999999094131MD1710011+0401REMSYN082AAXX  02181 57633 32765 70000 10171 20160 39413 40170 57001 875// 333 00453 10222;
0139576330999992000100221004+28820+108770FM-12+066599999V0209999C000010150019N0100001N1+01691+01621101611ADDAA124034391GF108991081051017501999999MD1710091+0301REMSYN076AAXX  02211 57633 42760 80000 10169 20162 40161 57009 885// 333 00353 70344;
0160576330999992000100300004+28820+108770FM-12+066599999V0209999C000010360019N0120001N1+01701+01631101741ADDAA124006491GF108991011061002501071999MA1999999094131MD1210091+0301REMSYN082AAXX  03001 57633 32362 80000 10170 20163 39413 40174 52009 8167/ 333 00352 70064;
0112576330999992000100303004+28820+108770FM-12+066599999V0209999C000010360019N0150001N1+02031+01581101781ADDGF107991021011008001041999MD1210071+9999REMSYN060AAXX  03031 57633 42565 70000 10203 20158 40178 52007 8214/;
0192576330999992000100306004+28820+108770FM-12+066599999V0201601N001010360019N0170001N1+02301+01411101541ADDAA199000091GF107991021011008001041999KA1999N+01641MA1999999094001MD1710201+0201REMSYN082AAXX  03061 57633 32567 71601 10230 20141 39400 40154 57020 8214/ 333 00201 20164;EQDQ01  00002PRCP99
0122576330999992000100309004+28820+108770FM-12+066599999V0201401N002010360019N0170001N1+02151+01531101481ADDGF108991011011008001071999MD1710081+0011REMSYN070AAXX  03091 57633 42567 81402 10215 20153 40148 57008 8117/ 333 00101;
0173576330999992000100312004+28820+108770FM-12+066599999V0209999C000019999999N0120001N1+01891+01611101571ADDAA199000091GF108991081001999999071999MA1999999093971MD1210051+0011REMSYN076AAXX  03121 57633 32962 80000 10189 20161 39397 40157 52005 8807/ 333 05100;EQDQ01  00002PRCP99
0112576330999992000100315004+28820+108770FM-12+066599999V0209999C000019999999N0100001N1+01761+01651101661ADDGF108991081001999999071999MD1210111+9999REMSYN060AAXX  03151 57633 42960 80000 10176 20165 40166 52011 8807/;
0204576330999992000100318004+28820+108770FM-12+066599999V0209999C000019999999N0090001N1+01701+01631101581ADDAA199000091GF108991081001999999071999KA1999M+02371MA1999999094031MD1710051-0101MW1101REMSYN088AAXX  03181 57633 31959 80000 10170 20163 39403 40158 57005 71000 8807/ 333 05100 10237;EQDQ01  00002PRCP99
0134576330999992000100321004+28820+108770FM-12+066599999V0209999C000019999999N0080001N1+01711+01611101551ADDGF108991081001999999071999MD1710041+0011MW1101REMSYN076AAXX  03211 57633 41958 80000 10171 20161 40155 57004 71000 8807/ 333 05100;
0185576330999992000100400004+28820+108770FM-12+066599999V0209999C000019999999N0060001N1+01651+01581101731ADDAA199000091GF107991071001999999031999MA1999999094121MD1210131+0001MW1101REMSYN082AAXX  04001 57633 31956 70000 10165 20158 39412 40173 52013 71000 8703/ 333 00051;EQDQ01  00002PRCP99
0192576330999992000100406004+28820+108770FM-12+066599999V0201601N001010360019N0150001N1+02361+99999101441ADDAA199000091GF107991011011008001041001KA1999N+01611MA1999999093911MD1710221-0101REMSYN082AAXX  04061 57633 32565 71601 10236 20317 39391 40144 57022 81140 333 05101 20161;EQDQ01  00002PRCP99
0122576330999992000100409004+28820+108770FM-12+066599999V0209999C000012200019N0150001N1+02501+01541101321ADDGF102991021011008001001001MD1710091+0011REMSYN070AAXX  04091 57633 42565 20000 10250 20154 40132 57009 82100 333 05104;
0173576330999992000100412004+28820+108770FM-12+066599999V0209999C000012200019N0120001N1+01881+01621101581ADDAA199000091GF101991011001999999041001MA1999999093981MD1210161+0001REMSYN076AAXX  04121 57633 32962 10000 10188 20162 39398 40158 52016 81040 333 00000;EQDQ01  00002PRCP99
0134576330999992000100415004+28820+108770FM-12+066599999V0209999C000012200019N0090001N1+01661+01531101721ADDGA1001+999999999GF100991001001999999001001MD1210151+9999MW1101REMSYN060AAXX  04151 57633 41959 00000 10166 20153 40172 52015 71000;
0153576330999992000100421004+28820+108770FM-12+066599999V0209999C000019999999N0070001N1+01511+01461101641ADDGF107991999071999999041999MD1410001+0011MW1101REMSYN076AAXX  04211 57633 41957 70000 10151 20146 40164 54000 71000 8074/ 333 00152;EQDQ01+000002SCOTLC
0185576330999992000100500004+28820+108770FM-12+066599999V0209999C000019999999N0060001N1+01521+01471101891ADDAA199000091GF108991081001999999071999MA1999999094251MD1210161+0011MW1101REMSYN082AAXX  05001 57633 31956 80000 10152 20147 39425 40189 52016 71000 8807/ 333 00151;EQDQ01  00002PRCP99
0112576330999992000100503004+28820+108770FM-12+066599999V0209999C000019999999N0120001N1+02131+01631101801ADDGF107991071001999999041999MD1710041+9999REMSYN060AAXX  05031 57633 42962 70000 10213 20163 40180 57004 8704/;
0192576330999992000100506004+28820+108770FM-12+066599999V0201401N002010360019N0150001N1+02501+01671101541ADDAA199000091GF107991021011008001041021KA1999N+01451MA1999999094001MD1710211+0101REMSYN082AAXX  05061 57633 32565 71402 10250 20167 39400 40154 57021 82142 333 00101 20145;EQDQ01  00002PRCP99
0122576330999992000100509004+28820+108770FM-12+066599999V0201801N001010360019N0150001N1+02431+01601101481ADDGF107991021011008001041001MD1710071+0011REMSYN070AAXX  05091 57633 42565 71801 10243 20160 40148 57007 82140 333 00151;
0182576330999992000100512004+28820+108770FM-12+066599999V0209999C000012200019N0150001N1+01891+01611101711ADDAA199000091GA1001+999999999GF100991001001999999001001MA1999999094081MD1210151+1001REMSYN069AAXX  05121 57633 32965 00000 10189 20161 39408 40171 52015 333 0100;EQDQ01  00002PRCP99
0112576330999992000100515004+28820+108770FM-12+066599999V0209999C000019999999N0100001N1+01711+01601101771ADDGF107991071001999999041999MD1210111+9999REMSYN060AAXX  05151 57633 42960 70000 10171 20160 40177 52011 8704/;
0214576330999992000100518004+28820+108770FM-12+066599999V0209999C000012200019N0070001N1+01591+01541101741ADDAA199000091GA1001+999999999GF100991001001999999001001KA1999M+02541MA1999999094191MD1410001+0101MW1101REMSYN082AAXX  05181 57633 31957 00000 10159 20154 39419 40174 54000 71000 333 00100 10254;EQDQ01  00002PRCP99
0144576330999992000100521004+28820+108770FM-12+066599999V0209999C000012200019N0060001N1+01501+01471101731ADDGA1001+999999999GF100991001001999999001001MD1710031+0011MW1101REMSYN070AAXX  05211 57633 41956 00000 10150 20147 40173 57003 71000 333 00100;
0185576330999992000100600004+28820+108770FM-12+066599999V0209999C000019999999N0030001N1+01551+01521101901ADDAA199000091GF108991081001999999071999MA1999999094261MD1210101+0001MW1101REMSYN082AAXX  06001 57633 31930 80000 10155 20152 39426 40190 52010 71000 8807/ 333 00000;EQDQ01  00002PRCP99
0112576330999992000100603004+28820+108770FM-12+066599999V0209999C000012200019N0170001N1+02311+01531101721ADDGF101991011011008001001001MD1710091+9999REMSYN060AAXX  06031 57633 42567 10000 10231 20153 40172 57009 81100;
0192576330999992000100606004+28820+108770FM-12+066599999V0202001N002012200019N0170001N1+02601+01531101421ADDAA199000091GF102991021011008001001001KA1999N+01481MA1999999093911MD1710261-0101REMSYN082AAXX  06061 57633 32567 22002 10260 20153 39391 40142 57026 82100 333 05101 20148;EQDQ01  00002PRCP99
0122576330999992000100609004+28820+108770FM-12+066599999V0201401N002012200019N0170001N1+02511+01481101321ADDGF101991011011008001001001MD1710121+0011REMSYN070AAXX  06091 57633 42567 11402 10251 20148 40132 57012 81100 333 05101;
0183576330999992000100612004+28820+108770FM-12+066599999V0209999C000012200019N0150001N1+01971+01621101481ADDAA199000091GA1001+999999999GF100991001001999999001001MA1999999093881MD1210091+0021REMSYN070AAXX  06121 57633 32965 00000 10197 20162 39388 40148 52009 333 05201;EQDQ01  00002PRCP99
0112576330999992000100615004+28820+108770FM-12+066599999V0209999C000012200019N0120001N1+01721+01611101541ADDGF101991011001999999041001MD1210121+9999REMSYN060AAXX  06151 57633 42962 10000 10172 20161 40154 52012 81040;
0192576330999992000100618004+28820+108770FM-12+066599999V0209999C000012200019N0100001N1+01611+01541101521ADDAA199000091GF101991011001999999041001KA1999M+02651MA1999999094001MD1410001-0201REMSYN082AAXX  06181 57633 32960 10000 10161 20154 39400 40152 54000 81040 333 05200 10265;EQDQ01  00002PRCP99
0144576330999992000100621004+28820+108770FM-12+066599999V0209999C000012200019N0060001N1+01531+01501101521ADDGA1001+999999999GF100991001001999999001001MD1710021+0021MW1101REMSYN070AAXX  06211 57633 41956 00000 10153 20150 40152 57002 71000 333 05200;
0185576330999992000100700004+28820+108770FM-12+066599999V0209999C000010150019N0050001N1+01591+01521101681ADDAA199000091GF107991071051017501999999MA1999999094071MD1210091+0021MW1101REMSYN082AAXX  07001 57633 31750 70000 10159 20152 39407 40168 52009 71000 875// 333 05200;EQDQ01  00002PRCP99
0112576330999992000100703004+28820+108770FM-12+066599999V0209999C000010120019N0120001N1+02211+01651101621ADDGF108991081081008001999999MD1710011+9999REMSYN060AAXX  07031 57633 42562 80000 10221 20165 40162 57001 888//;
0192576330999992000100706004+28820+108770FM-12+066599999V0209999C000010075019N0150001N1+02421+01801101361ADDAA199000091GF107991061011008001041999KA1999N+01471MA1999999093831MD1710231-0101REMSYN082AAXX  07061 57633 32565 70000 10242 20180 39383 40136 57023 8614/ 333 05152 20147;EQDQ01  00002PRCP99
0122576330999992000100709004+28820+108770FM-12+066599999V0209999C000010075019N0150001N1+02391+01801101231ADDGF105991051021008001001001MD1710131+0011REMSYN070AAXX  07091 57633 42565 50000 10239 20180 40123 57013 85200 333 05151;
0173576330999992000100712004+28820+108770FM-12+066599999V0209999C000012200019N0150001N1+02011+01761101421ADDAA199000091GF101991011041012501001001MA1999999093841MD1210141+0001REMSYN076AAXX  07121 57633 32665 10000 10201 20176 39384 40142 52014 81400 333 00000;EQDQ01  00002PRCP99
0122576330999992000100715004+28820+108770FM-12+066599999V0209999C000012200019N0120001N1+01791+01711101521ADDGA1001+999999999GF100991001001999999001001MD1210141+9999REMSYN054AAXX  07151 57633 42962 00000 10179 20171 40152 52014;
0144576330999992000100721004+28820+108770FM-12+066599999V0209999C000012200019N0020001N1+01641+01621101311ADDGA1001+999999999GF100991001001999999001001MD1710111+0021MW1101REMSYN070AAXX  07211 57633 41920 00000 10164 20162 40131 57011 71000 333 05201;
0203576330999992000100800004+28820+108770FM-12+066599999V0209999C000010006019N0008001N1+01631+01631101431ADDAA199000091AY141061GA1091+999999999GF109991091999999999999999MA1999999093851MD1210061+0021MW1431REMSYN076AAXX  08001 57633 31/08 90000 10163 20163 39385 40143 52006 74340 333 05200;EQDQ01  00002PRCP99
0132576330999992000100803004+28820+108770FM-12+066599999V0209999C000010360019N0120001N1+02301+01821101271ADDAY141031GF107991021011008001041999MD1710091+9999MW1001REMSYN066AAXX  08031 57633 41562 70000 10230 20182 40127 57009 70040 8214/;
0212576330999992000100806004+28820+108770FM-12+066599999V0209999C000010120019N0150001N1+02571+01731100921ADDAA199000091AY141061GF107991071081008001999999KA1999N+01581MA1999999093451MD1710311-0401MW1001REMSYN088AAXX  08061 57633 31565 70000 10257 20173 39345 40092 57031 70040 878// 333 05402 20158;EQDQ01  00002PRCP99
0122576330999992000100809004+28820+108770FM-12+066599999V0201401N001012200019N0150001N1+02581+01831100781ADDGF102991021011008001001001MD1710131+0041REMSYN070AAXX  08091 57633 42565 21401 10258 20183 40078 57013 82100 333 05402;
0173576330999992000100812004+28820+108770FM-12+066599999V0209999C000010150019N0120001N1+02211+01901101001ADDAA199000091GF107991071051017501999999MA1999999093481MD1210161+0041REMSYN076AAXX  08121 57633 32762 70000 10221 20190 39348 40100 52016 875// 333 05402;EQDQ01  00002PRCP99
0122576330999992000100815004+28820+108770FM-12+066599999V0209999C000012200019N0100001N1+01971+01831101071ADDGA1001+999999999GF100991001001999999001001MD1210111+9999REMSYN054AAXX  08151 57633 42960 00000 10197 20183 40107 52011;
0204576330999992000100818004+28820+108770FM-12+066599999V0209999C000019999999N0090001N1+01911+01831101061ADDAA199000091GF107991071001999999041999KA1999M+02741MA1999999093611MD1210021-0301MW1101REMSYN088AAXX  08181 57633 31959 70000 10191 20183 39361 40106 52002 71000 8704/ 333 05303 10274;EQDQ01  00002PRCP99
0134576330999992000100821004+28820+108770FM-12+066599999V0209999C000019999999N0070001N1+01891+01831101051ADDGF107991071001999999041999MD1710011+0021MW1101REMSYN076AAXX  08211 57633 41957 70000 10189 20183 40105 57001 71000 8704/ 333 05203;
0185576330999992000100900004+28820+108770FM-12+066599999V0209999C000010360019N0080001N1+01931+01871101231ADDAA199000091GF105991031011008001041001MA1999999093731MD1210131+0011MW1101REMSYN082AAXX  09001 57633 31558 50000 10193 20187 39373 40123 52013 71000 83140 333 05103;EQDQ01  00002PRCP99
0112576330999992000100903004+28820+108770FM-12+066599999V0209999C000010075019N0120001N1+02561+01991101111ADDGF106991051011008001041001MD1710071+9999REMSYN060AAXX  09031 57633 42562 60000 10256 20199 40111 57007 85140;
0192576330999992000100906004+28820+108770FM-12+066599999V0201601N001010075019N0150001N1+02711+01881100801ADDAA199000091GF106991061021008001001001KA1999N+01851MA1999999093391MD1710271-0101REMSYN082AAXX  09061 57633 32565 61601 10271 20188 39339 40080 57027 86200 333 05101 20185;EQDQ01  00002PRCP99
0122576330999992000100909004+28820+108770FM-12+066599999V0201401N001012200019N0150001N1+02681+01911100691ADDGF101991011011008001001001MD1710111+0001REMSYN070AAXX  09091 57633 42565 11401 10268 20191 40069 57011 81100 333 00001;
0173576330999992000100912004+28820+108770FM-12+066599999V0209999C000012200019N0120001N1+02381+02041100891ADDAA199000091GF104991041041008001001001MA1999999093431MD1210151+0011REMSYN076AAXX  09121 57633 32562 40000 10238 20204 39343 40089 52015 84400 333 05102;EQDQ01  00002PRCP99
0112576330999992000100915004+28820+108770FM-12+066599999V0209999C000010150019N0100001N1+02171+02041100971ADDGF107991071051017501999999MD1210131+9999REMSYN060AAXX  09151 57633 42760 70000 10217 20204 40097 52013 875//;
0192576330999992000100918004+28820+108770FM-12+066599999V0209999C000010150019N0100001N1+02101+02011100921ADDAA199000091GF107991071051017501999999KA1999M+02781MA1999999093521MD1710041-0101REMSYN082AAXX  09181 57633 32760 70000 10210 20201 39352 40092 57004 875// 333 05102 10278;EQDQ01  00002PRCP99
0144576330999992000100921004+28820+108770FM-12+066599999V0209999C000012200019N0050001N1+01991+01941100871ADDGA1001+999999999GF100991001001999999001001MD1710061+0011MW1101REMSYN070AAXX  09211 57633 41950 00000 10199 20194 40087 57006 71000 333 05101;
0185576330999992000101000004+28820+108770FM-12+066599999V0209999C000019999999N0050001N1+01991+01951101031ADDAA199000091GF105991051001999999041001MA1999999093581MD1210121+0021MW1101REMSYN082AAXX  10001 57633 31950 50000 10199 20195 39358 40103 52012 71000 85040 333 05201;EQDQ01  00002PRCP99
0112576330999992000101003004+28820+108770FM-12+066599999V0201401N002010075019N0150001N1+02691+01941100961ADDGF105991051011008001001001MD1710031+9999REMSYN060AAXX  10031 57633 42565 51402 10269 20194 40096 57003 85100;
0192576330999992000101006004+28820+108770FM-12+066599999V0201601N001010075019N0150001N1+02891+01871100641ADDAA199000091GF107991071021008001001001KA1999N+01931MA1999999093281MD1710281-0101REMSYN082AAXX  10061 57633 32565 71601 10289 20187 39328 40064 57028 87200 333 05102 20193;EQDQ01  00002PRCP99
0122576330999992000101009004+28820+108770FM-12+066599999V0201601N002012200019N0150001N1+02811+01931100681ADDGF103991011011008001041001MD1210021+0001REMSYN070AAXX  10091 57633 42565 31602 10281 20193 40068 52002 81140 333 00001;
0173576330999992000101012004+28820+108770FM-12+066599999V0209999C000019999999N0100001N1+02461+02041100911ADDAA199000091GF106991061001999999041001MA1999999093471MD1210171+0001REMSYN076AAXX  10121 57633 32960 60000 10246 20204 39347 40091 52017 86040 333 00001;EQDQ01  00002PRCP99
0112576330999992000101015004+28820+108770FM-12+066599999V0209999C000019999999N0100001N1+02281+02071100951ADDGF107991071001999999031999MD1210101+9999REMSYN060AAXX  10151 57633 42960 70000 10228 20207 40095 52010 8703/;
0192576330999992000101018004+28820+108770FM-12+066599999V0209999C000019999999N0100001N1+02201+02071100911ADDAA199000091GF107991071001999999041999KA1999M+02971MA1999999093541MD1710031+0001REMSYN082AAXX  10181 57633 32960 70000 10220 20207 39354 40091 57003 8704/ 333 00001 10297;EQDQ01  00002PRCP99
0134576330999992000101021004+28820+108770FM-12+066599999V0209999C000010150019N0080001N1+02171+02051100951ADDGF108991081051017501999999MD1210031+0011MW1101REMSYN076AAXX  10211 57633 41758 80000 10217 20205 40095 52003 71000 885// 333 00102;
0186576330999992000101100004+28820+108770FM-12+066599999V0203201N001010150019N0070001N1+02141+02001101181ADDAA106002091AY161061GF108991081051017501999999MA1999999093741MD1210171+0201MW1601REMSYN094AAXX  11001 57633 11757 83201 10214 20200 39374 40118 52017 60021 76060 885// 333 00202 70017;
0132576330999992000101103004+28820+108770FM-12+066599999V0209999C000010150019N0100001N1+02331+01981101281ADDAY161031GF107991071051017501999999MD1210091+9999MW1001REMSYN066AAXX  11031 57633 41760 70000 10233 20198 40128 52009 70060 875//;
0199576330999992000101106004+28820+108770FM-12+066599999V0209999C000010120019N0150001N1+02731+02021101021ADDAA106001091AY161061GF107991071081008001999999KA1999N+02121MA1999999093631MD1710201+0401MW1001REMSYN094AAXX  11061 57633 11565 70000 10273 20202 39363 40102 57020 60011 70060 878// 333 00452 20212;
0150576330999992000101109004+28820+108770FM-12+066599999V0202701N001010075019N0150001N1+02291+02051101061ADDAY191031AY281031GF107991071091008001999999MD1710021+0031MW1801REMSYN076AAXX  11091 57633 41565 72701 10229 20205 40106 57002 78098 879// 333 00355;
0188576330999992000101112004+28820+108770FM-12+066599999V0200701N001010150019N0120001N1+01941+01701101521ADDAA106003091AY191061AY281061GF108991081051017501999999MA1999999093991MD1210381+0051MW1001REMSYN088AAXX  11121 57633 11762 80701 10194 20170 39399 40152 52038 60031 70098 885// 333 00555;
0132576330999992000101115004+28820+108770FM-12+066599999V0203601N003010042019N0120001N1+01731+01341101971ADDAY161031GF108991081051004501999999MD1210411+9999MW1601REMSYN066AAXX  11151 57633 41462 83603 10173 20134 40197 52041 76060 885//;
0199576330999992000101118004+28820+108770FM-12+066599999V0200201N002010042019N0120001N1+01541+01301102031ADDAA106006191AY161061GF108991081051004501999999KA1999M+02791MA1999999094481MD1210081+0901MW1601REMSYN094AAXX  11181 57633 11462 80202 10154 20130 39448 40203 52008 60061 76060 885// 333 00957 10279;
0167576330999992000101121004+28820+108770FM-12+066599999V0201401N001010042019N0080001N1+01401+01241102101ADDAA124013291AY161031AY261031GF108991081071004501999999MD1410001+0901MW1601REMSYN082AAXX  11211 57633 41458 81401 10140 20124 40210 54000 76066 887// 333 00958 70131;
0194576330999992000101200004+28820+108770FM-12+066599999V0209999C000010042019N0120001N1+01361+01251102381ADDAA106003091AY161061AY261061GF108991081071004501999999MA1999999094691MD1210211+1001MW1601REMSYN094AAXX  12001 57633 11462 80000 10136 20125 39469 40238 52021 60031 76066 887// 333 01058 70128;
0132576330999992000101203004+28820+108770FM-12+066599999V0209999C000010042019N0120001N1+01381+01201102521ADDAY161031GF108991081071004501999999MD1210101+9999MW1601REMSYN066AAXX  12031 57633 41462 80000 10138 20120 40252 52010 76060 887//;
0199576330999992000101206004+28820+108770FM-12+066599999V0200201N001010042019N0150001N1+01371+01191102361ADDAA106000391AY161061GF108991081071004501999999KA1999N+01331MA1999999094621MD1710171+1001MW1601REMSYN094AAXX  12061 57633 11465 80201 10137 20119 39462 40236 57017 69931 76060 887// 333 01064 20133;
0142576330999992000101209004+28820+108770FM-12+066599999V0200401N002010042019N0150001N1+01351+01051102311ADDAY161031GF108991081071004501999999MD1710071+0091MW1211REMSYN076AAXX  12091 57633 41465 80402 10135 20105 40231 57007 72160 887// 333 00959;
0180576330999992000101212004+28820+108770FM-12+066599999V0209999C000010042019N0120001N1+01241+01131102461ADDAA106000591AY161061GF108991081071004501999999MA1999999094671MD1210121+0071MW1601REMSYN088AAXX  12121 57633 11462 80000 10124 20113 39467 40246 52012 69961 76060 887// 333 00757;
0140576330999992000101215004+28820+108770FM-12+066599999V0201801N001010042019N0120001N1+01151+00961102611ADDAY161031AY261031GF108991081071004501999999MD1210131+9999MW1601REMSYN066AAXX  12151 57633 41462 81801 10115 20096 40261 52013 76066 887//;
0207576330999992000101218004+28820+108770FM-12+066599999V0203601N001010042019N0120001N1+01121+00931102521ADDAA106004191AY161061AY261061GF108991081071004501999999KA1999M+01561MA1999999094711MD1710091+0201MW1601REMSYN094AAXX  12181 57633 11462 83601 10112 20093 39471 40252 57009 60041 76066 887// 333 00254 10156;
0167576330999992000101221004+28820+108770FM-12+066599999V0209999C000010042019N0100001N1+01031+00891102441ADDAA124007491AY161031AY261031GF108991081071004501999999MD1710091+0101MW1601REMSYN082AAXX  12211 57633 41460 80000 10103 20089 40244 57009 76066 887// 333 00154 70074;
0194576330999992000101300004+28820+108770FM-12+066599999V0209999C000010042019N0120001N1+01021+00861102551ADDAA106005191AY161061AY261061GF108991081071004501999999MA1999999094711MD1210091+0001MW1601REMSYN094AAXX  13001 57633 11462 80000 10102 20086 39471 40255 52009 60051 76066 887// 333 00053 70097;
0140576330999992000101303004+28820+108770FM-12+066599999V0201401N002010042019N0150001N1+01001+00901102581ADDAY161031AY261031GF108991081071004501999999MD1210011+9999MW1601REMSYN066AAXX  13031 57633 41465 81402 10100 20090 40258 52001 76066 887//;
0207576330999992000101306004+28820+108770FM-12+066599999V0209999C000010042019N0150001N1+01041+00861102321ADDAA106000391AY161061AY261061GF108991081071004501999999KA1999N+00961MA1999999094481MD1710241-0101MW1601REMSYN094AAXX  13061 57633 11465 80000 10104 20086 39448 40232 57024 69931 76066 887// 333 05153 20096;
0150576330999992000101309004+28820+108770FM-12+066599999V0200701N001010042019N0150001N1+01061+00801102301ADDAY161031AY261031GF108991071071004501021999MD1710021+0011MW1601REMSYN076AAXX  13091 57633 41465 80701 10106 20080 40230 57002 76066 8772/ 333 05153;
0188576330999992000101312004+28820+108770FM-12+066599999V0201601N002010042019N0150001N1+00991+00911102501ADDAA106000791AY161061AY261061GF108991071071004501021999MA1999999094631MD1210171+0001MW1601REMSYN088AAXX  13121 57633 11465 81602 10099 20091 39463 40250 52017 69901 76066 8772/ 333 00053;
0140576330999992000101315004+28820+108770FM-12+066599999V0209999C000010042019N0120001N1+00981+00841102691ADDAY161031AY261031GF108991071071004501021999MD1210171+9999MW1601REMSYN066AAXX  13151 57633 41462 80000 10098 20084 40269 52017 76066 8772/;
0207576330999992000101318004+28820+108770FM-12+066599999V0209999C000010042019N0100001N1+00961+00801102561ADDAA106000191AY161061AY261061GF108991071071004501021999KA1999M+01151MA1999999094681MD1710121+0001MW1601REMSYN094AAXX  13181 57633 11460 80000 10096 20080 39468 40256 57012 69921 76066 8772/ 333 00052 10115;
0153576330999992000101321004+28820+108770FM-12+066599999V0201601N001019999999N0120001N1+00961+00781102471ADDGF108991999001004501061001MD1710081+9999REMSYN082AAXX  13211 57633 41462 81601 10096 20078 40247 57008 80060 8572/ 333 00051 70042;EQDQ01+000002SCOTLC
0186576330999992000101400004+28820+108770FM-12+066599999V0209999C000010360019N0150001N1+00971+00811102601ADDAA106000791AY161061GF108991021071004501021999MA1999999094721MD1210121+0001MW1601REMSYN094AAXX  14001 57633 11465 80000 10097 20081 39472 40260 52012 69901 76060 8272/ 333 00051 70005;
0132576330999992000101403004+28820+108770FM-12+066599999V0209999C000010075019N0150001N1+01181+00851102631ADDAY161031GF108991051041008001071999MD1210051+9999MW1001REMSYN066AAXX  14031 57633 41565 80000 10118 20085 40263 52005 70060 8547/;
0199576330999992000101406004+28820+108770FM-12+066599999V0209999C000010075019N0300001N1+01401+00931102391ADDAA106000791AY161061GF107991071041008001071999KA1999N+00911MA1999999094571MD1710201+0101MW1001REMSYN094AAXX  14061 57633 11580 70000 10140 20093 39457 40239 57020 69901 70060 8747/ 333 00104 20091;
0122576330999992000101409004+28820+108770FM-12+066599999V0200201N001010360019N0300001N1+01361+00941102301ADDGF108991011041008001071999MD1710081+0001REMSYN070AAXX  14091 57633 42580 80201 10136 20094 40230 57008 8147/ 333 00003;
0154576330999992000101412004+28820+108770FM-12+066599999V0209999C000019999999N0150001N1+01281+01021102501ADDAA199000021GF108991081001999999071999MA1999999094661MD1210171+0001REMSYN076AAXX  14121 57633 32965 80000 10128 20102 39466 40250 52017 8807/ 333 00003;
0112576330999992000101415004+28820+108770FM-12+066599999V0209999C000019999999N0150001N1+01251+01061102641ADDGF107991071001999999041999MD1210151+9999REMSYN060AAXX  14151 57633 42965 70000 10125 20106 40264 52015 8704/;
0192576330999992000101418004+28820+108770FM-12+066599999V0209999C000019999999N0150001N1+01231+01001102571ADDAA199000091GF108991081001999999071999KA1999M+01411MA1999999094781MD1710031+0101REMSYN082AAXX  14181 57633 32965 80000 10123 20100 39478 40257 57003 8807/ 333 00103 10141;EQDQ01  00002PRCP99
0139576330999992000101421004+28820+108770FM-12+066599999V0209999C000019999999N0120001N1+01201+01011102531ADDAA124000791GF107991071001999999041999MD1710051+0101REMSYN076AAXX  14211 57633 42962 70000 10120 20101 40253 57005 8704/ 333 00102 79999;
0160576330999992000101500004+28820+108770FM-12+066599999V0209999C000010360019N0150001N1+01221+01051102681ADDAA124000791GF107991011011008001041999MA1999999094861MD1210131+0101REMSYN082AAXX  15001 57633 32565 70000 10122 20105 39486 40268 52013 8114/ 333 00103 79999;
0112576330999992000101503004+28820+108770FM-12+066599999V0203201N001010075019N0300001N1+01481+00981102781ADDGF108991061041008001071999MD1210121+9999REMSYN060AAXX  15031 57633 42580 83201 10148 20098 40278 52012 8647/;
0199576330999992000101506004+28820+108770FM-12+066599999V0201801N001010360019N0200001N1+01411+00871102621ADDAA106000791AY181061GF108991021041008001071999KA1999N+01171MA1999999094821MD1710161+0301MW1801REMSYN094AAXX  15061 57633 11570 81801 10141 20087 39482 40262 57016 69901 78080 8247/ 333 00300 20117;
0150576330999992000101509004+28820+108770FM-12+066599999V0209999C000010360019N0120001N1+01261+01111102651ADDAY181031AY261031GF108991031071004501021999MD1210011+0031MW1601REMSYN076AAXX  15091 57633 41462 80000 10126 20111 40265 52001 76086 8372/ 333 00351;
0188576330999992000101512004+28820+108770FM-12+066599999V0209999C000010360019N0120001N1+01191+01061102791ADDAA106003091AY181061AY261061GF108991021071004501021999MA1999999094951MD1210121+0031MW1601REMSYN088AAXX  15121 57633 11462 80000 10119 20106 39495 40279 52012 60031 76086 8272/ 333 00351;
0140576330999992000101515004+28820+108770FM-12+066599999V0209999C000010360019N0120001N1+01201+01111102791ADDAY161031AY261031GF108991031071004501021999MD1210041+9999MW1601REMSYN066AAXX  15151 57633 41462 80000 10120 20111 40279 52004 76066 8372/;
0207576330999992000101518004+28820+108770FM-12+066599999V0203401N001010042019N0100001N1+01171+01081102701ADDAA106007191AY161061AY261061GF108991071071004501021999KA1999M+01601MA1999999094891MD1710101+0101MW1601REMSYN094AAXX  15181 57633 11460 83401 10117 20108 39489 40270 57010 60071 76066 8772/ 333 00151 10160;
0167576330999992000101521004+28820+108770FM-12+066599999V0209999C000010042019N0100001N1+01121+00991102701ADDAA124015091AY161031AY261031GF108991061071004501021999MD1710031+0101MW1601REMSYN082AAXX  15211 57633 41460 80000 10112 20099 40270 57003 76066 8672/ 333 00151 70149;
0194576330999992000101600004+28820+108770FM-12+066599999V0203401N001010042019N0100001N1+01131+01051102801ADDAA106007191AY161061AY261061GF108991071071004501021999MA1999999094951MD1210091+0101MW1601REMSYN094AAXX  16001 57633 11460 83401 10113 20105 39495 40280 52009 60071 76066 8772/ 333 00151 70172;
0140576330999992000101603004+28820+108770FM-12+066599999V0203401N001010042019N0100001N1+01201+01031102821ADDAY161031AY261031GF108991061071004501021999MD1210031+9999MW1601REMSYN066AAXX  16031 57633 41460 83401 10120 20103 40282 52003 76066 8672/;
0207576330999992000101606004+28820+108770FM-12+066599999V0209999C000010360019N0100001N1+01231+01081102521ADDAA106011991AY161061AY261061GF108991021071004501021999KA1999N+01071MA1999999094701MD1710281-0101MW1601REMSYN094AAXX  16061 57633 11460 80000 10123 20108 39470 40252 57028 60121 76066 8272/ 333 05152 20107;
0150576330999992000101609004+28820+108770FM-12+066599999V0209999C000010360019N0120001N1+01301+01141102401ADDAY161031AY261031GF108991031071004501021999MD1710111+0021MW1601REMSYN076AAXX  16091 57633 41462 80000 10130 20114 40240 57011 76066 8372/ 333 05200;
0188576330999992000101612004+28820+108770FM-12+066599999V0209999C000010360019N0100001N1+01251+01141102491ADDAA106004191AY161061AY261061GF108991021071004501021999MA1999999094671MD1210081+0031MW1601REMSYN088AAXX  16121 57633 11460 80000 10125 20114 39467 40249 52008 60041 76066 8272/ 333 05301;
0140576330999992000101615004+28820+108770FM-12+066599999V0209999C000010360019N0120001N1+01241+01171102511ADDAY161031AY261031GF108991021071004501021999MD1210031+9999MW1601REMSYN066AAXX  16151 57633 41462 80000 10124 20117 40251 52003 76066 8272/;
0207576330999992000101618004+28820+108770FM-12+066599999V0209999C000010360019N0120001N1+01221+01171102401ADDAA106004191AY161061AY261061GF108991031071004501021999KA1999M+01341MA1999999094601MD1710101-0301MW1601REMSYN094AAXX  16181 57633 11462 80000 10122 20117 39460 40240 57010 60041 76066 8372/ 333 05301 10134;
0167576330999992000101621004+28820+108770FM-12+066599999V0209999C000010360019N0120001N1+01231+01161102241ADDAA124022991AY161031AY261031GF108991021071004501021999MD1710141-0401MW1601REMSYN082AAXX  16211 57633 41462 80000 10123 20116 40224 57014 76066 8272/ 333 05401 70229;
0186576330999992000101700004+28820+108770FM-12+066599999V0209999C000010042019N0150001N1+01271+01201102291ADDAA106000191AY161061GF108991081071004501999999MA1999999094501MD1210041-0501MW1001REMSYN094AAXX  17001 57633 11465 80000 10127 20120 39450 40229 52004 69911 70060 887// 333 05501 70206;
0112576330999992000101703004+28820+108770FM-12+066599999V0201401N002010150019N0150001N1+01491+01241102301ADDGF108991081051017501999999MD1210041+9999REMSYN060AAXX  17031 57633 42765 81402 10149 20124 40230 52004 885//;
0173576330999992000101706004+28820+108770FM-12+066599999V0201801N001010120019N0170001N1+01971+01251101931ADDAA199000021GF107991071081008001999999KA1999N+01191MA1999999094261MD1710281-0401REMSYN082AAXX  17061 57633 32567 71801 10197 20125 39426 40193 57028 878// 333 05407 20119;
0122576330999992000101709004+28820+108770FM-12+066599999V0200901N003010120019N0300001N1+01861+01331101901ADDGF107991061041012501041999MD1710041+0041REMSYN070AAXX  17091 57633 42680 70903 10186 20133 40190 57004 8644/ 333 05406;
0173576330999992000101712004+28820+108770FM-12+066599999V0200201N001010120019N0180001N1+01671+01361102071ADDAA199000091GF107991051041012501041999MA1999999094351MD1210131+0031REMSYN076AAXX  17121 57633 32668 70201 10167 20136 39435 40207 52013 8544/ 333 05304;EQDQ01  00002PRCP99
0112576330999992000101715004+28820+108770FM-12+066599999V0209999C000019999999N0150001N1+01571+01381102111ADDGF108991081001999999071999MD1210061+9999REMSYN060AAXX  17151 57633 42965 80000 10157 20138 40211 52006 8807/;
0192576330999992000101718004+28820+108770FM-12+066599999V0209999C000019999999N0150001N1+01471+01351102031ADDAA199000091GF108991081001999999071999KA1999M+02171MA1999999094381MD1710031-0201REMSYN082AAXX  17181 57633 32965 80000 10147 20135 39438 40203 57003 8807/ 333 05203 10217;EQDQ01  00002PRCP99
0139576330999992000101721004+28820+108770FM-12+066599999V0209999C000019999999N0150001N1+01341+01271102031ADDAA124000791GF107991071001999999031999MD1710031-0101REMSYN076AAXX  17211 57633 42965 70000 10134 20127 40203 57003 8703/ 333 05101 79999;
0173576330999992000101800004+28820+108770FM-12+066599999V0209999C000010360019N0150001N1+01331+01261102141ADDAA199000091GF107991011061002501031999MA1999999094431MD1210081+0011REMSYN076AAXX  18001 57633 32365 70000 10133 20126 39443 40214 52008 8163/ 333 05101;EQDQ01  00002PRCP99
0112576330999992000101803004+28820+108770FM-12+066599999V0201101N003010360019N0180001N1+01681+01041102061ADDGF107991031041008001041999MD1710051+9999REMSYN060AAXX  18031 57633 42568 71103 10168 20104 40206 57005 8344/;
0192576330999992000101806004+28820+108770FM-12+066599999V0201101N004010360019N0250001N1+01751+01001101751ADDAA199000091GF108991031041008001071999KA1999N+01261MA1999999094091MD1710291-0201REMSYN082AAXX  18061 57633 32575 81104 10175 20100 39409 40175 57029 8347/ 333 05252 20126;EQDQ01  00002PRCP99
0122576330999992000101809004+28820+108770FM-12+066599999V0200401N001010360019N0180001N1+01641+01001101651ADDGF108991021011008001071999MD1710121+0031REMSYN070AAXX  18091 57633 42568 80401 10164 20100 40165 57012 8217/ 333 05352;
0173576330999992000101812004+28820+108770FM-12+066599999V0209999C000019999999N0150001N1+01531+01111101741ADDAA199000091GF108991081001999999071999MA1999999094041MD1210071+0031REMSYN076AAXX  18121 57633 32965 80000 10153 20111 39404 40174 52007 8807/ 333 05351;EQDQ01  00002PRCP99
0112576330999992000101815004+28820+108770FM-12+066599999V0200901N001019999999N0120001N1+01481+01081101831ADDGF108991081001999999071999MD1210121+9999REMSYN060AAXX  18151 57633 42962 80901 10148 20108 40183 52012 8807/;
0199576330999992000101818004+28820+108770FM-12+066599999V0209999C000010042019N0100001N1+01281+01191101861ADDAA106000391AY161061GF108991081051004501999999KA1999M+01811MA1999999094171MD1210011-0201MW1601REMSYN094AAXX  18181 57633 11460 80000 10128 20119 39417 40186 52001 69931 76060 885// 333 05252 10181;
0167576330999992000101821004+28820+108770FM-12+066599999V0203601N001010360019N0100001N1+01241+01151101751ADDAA124006691AY161031AY261031GF108991031071004501021999MD1710121-0301MW1601REMSYN082AAXX  18211 57633 41460 83601 10124 20115 40175 57012 76066 8372/ 333 05351 70066;
0194576330999992000101900004+28820+108770FM-12+066599999V0209999C000010042019N0100001N1+01271+01181101851ADDAA106010991AY161061AY261061GF108991061071004501021999MA1999999094131MD1210081-0301MW1601REMSYN094AAXX  19001 57633 11460 80000 10127 20118 39413 40185 52008 60111 76066 8672/ 333 05351 70112;
0132576330999992000101903004+28820+108770FM-12+066599999V0209999C000010360019N0150001N1+01441+01191101881ADDAY161031GF108991041041008001071999MD1210051+9999MW1001REMSYN066AAXX  19031 57633 41565 80000 10144 20119 40188 52005 70060 8447/;
0199576330999992000101906004+28820+108770FM-12+066599999V0209999C000010075019N0170001N1+01601+01231101601ADDAA106000191AY161061GF108991061041008001071999KA1999N+01211MA1999999093911MD1710271-0201MW1001REMSYN094AAXX  19061 57633 11567 80000 10160 20123 39391 40160 57027 69911 70060 8647/ 333 05252 20121;
0122576330999992000101909004+28820+108770FM-12+066599999V0209999C000010150019N0170001N1+01601+01271101531ADDGF108991081051017501999999MD1710071+0011REMSYN070AAXX  19091 57633 42767 80000 10160 20127 40153 57007 885// 333 05100;
0154576330999992000101912004+28820+108770FM-12+066599999V0209999C000010150019N0100001N1+01491+01281101781ADDAA199000021GF108991081051017501999999MA1999999094061MD1210221+0001REMSYN076AAXX  19121 57633 32760 80000 10149 20128 39406 40178 52022 885// 333 00000;
0122576330999992000101915004+28820+108770FM-12+066599999V0209999C000012200019N0100001N1+01321+01211101961ADDGA1001+999999999GF100991001001999999001001MD1210171+9999REMSYN054AAXX  19151 57633 42960 00000 10132 20121 40196 52017;
0204576330999992000101918004+28820+108770FM-12+066599999V0209999C000012200019N0050001N1+01211+01171101911ADDAA199000091GF102991021001999999041001KA1999M+01621MA1999999094191MD1710041+0001MW1101REMSYN088AAXX  19181 57633 31950 20000 10121 20117 39419 40191 57004 71000 82040 333 00051 10162;EQDQ01  00002PRCP99
0151576330999992000101921004+28820+108770FM-12+066599999V0209999C000019999999N0040001N1+01191+01151101821ADDAA124004891GF105991051001999999041001MD1710091+0101MW1101REMSYN082AAXX  19211 57633 41940 50000 10119 20115 40182 57009 71000 85040 333 00151 70047;
0172576330999992000102000004+28820+108770FM-12+066599999V0209999C000010360019N0050001N1+01211+01141101931ADDAA124000191GF108991021061002501071999MA1999999094191MD1210091+0101MW1101REMSYN088AAXX  20001 57633 31350 80000 10121 20114 39419 40193 52009 71000 8267/ 333 00151 70001;
0112576330999992000102003004+28820+108770FM-12+066599999V0203201N001010120019N0150001N1+01591+01241101991ADDGF107991071081008001001001MD1210091+9999REMSYN060AAXX  20031 57633 42565 73201 10159 20124 40199 52009 87800;
0192576330999992000102006004+28820+108770FM-12+066599999V0209999C000010120019N0180001N1+01801+01131101731ADDAA199000091GF107991071081008001999999KA1999N+01141MA1999999094051MD1710231+0101REMSYN082AAXX  20061 57633 32568 70000 10180 20113 39405 40173 57023 878// 333 00102 20114;EQDQ01  00002PRCP99
0122576330999992000102009004+28820+108770FM-12+066599999V0209999C000010360019N0200001N1+01861+01141101591ADDGF107991021011008001041001MD1710131+0011REMSYN070AAXX  20091 57633 42570 70000 10186 20114 40159 57013 82140 333 00103;
0173576330999992000102012004+28820+108770FM-12+066599999V0209999C000019999999N0150001N1+01601+01251101841ADDAA199000091GF108991081001999999071999MA1999999094121MD1210201+0011REMSYN076AAXX  20121 57633 32965 80000 10160 20125 39412 40184 52020 8807/ 333 00101;EQDQ01  00002PRCP99
0132576330999992000102015004+28820+108770FM-12+066599999V0209999C000019999999N0100001N1+01491+01321101921ADDAY161031GF108991081001999999071999MD1210111+9999MW1211REMSYN066AAXX  20151 57633 41960 80000 10149 20132 40192 52011 72160 8807/;
0199576330999992000102018004+28820+108770FM-12+066599999V0209999C000010042019N0070001N1+01391+01321101821ADDAA106006191AY161061GF108991051071004501071999KA1999M+01931MA1999999094151MD1710081+0001MW1601REMSYN094AAXX  20181 57633 11457 80000 10139 20132 39415 40182 57008 60061 76060 8577/ 333 00002 10193;
0167576330999992000102021004+28820+108770FM-12+066599999V0209999C000010042019N0070001N1+01391+01321101711ADDAA124006991AY161031AY261031GF108991061071004501021999MD1710091+0001MW1601REMSYN082AAXX  20211 57633 41457 80000 10139 20132 40171 57009 76066 8672/ 333 00002 70069;
0194576330999992000102100004+28820+108770FM-12+066599999V0203401N001010042019N0070001N1+01411+01271101881ADDAA106001091AY161061AY261061GF108991071071004501021999MA1999999094191MD1210131+0001MW1601REMSYN094AAXX  21001 57633 11457 83401 10141 20127 39419 40188 52013 60011 76066 8772/ 333 00002 70075;
0140576330999992000102103004+28820+108770FM-12+066599999V0203201N002010042019N0100001N1+01441+01301101941ADDAY161031AY261031GF108991061071004501021999MD1210041+9999MW1601REMSYN066AAXX  21031 57633 41460 83202 10144 20130 40194 52004 76066 8672/;
0207576330999992000102106004+28820+108770FM-12+066599999V0209999C000010360019N0100001N1+01491+01371101731ADDAA106013091AY161061AY261061GF108991031071004501021999KA1999N+01341MA1999999094031MD1710201+0001MW1601REMSYN094AAXX  21061 57633 11460 80000 10149 20137 39403 40173 57020 60131 76066 8372/ 333 00053 20134;
0142576330999992000102109004+28820+108770FM-12+066599999V0209999C000010042019N0170001N1+01571+01331101591ADDAY161031GF108991071071004501021999MD1710121+0001MW1001REMSYN076AAXX  21091 57633 41467 80000 10157 20133 40159 57012 70060 8772/ 333 00053;
0180576330999992000102112004+28820+108770FM-12+066599999V0209999C000010042019N0120001N1+01461+01391101651ADDAA106000891AY161061GF108991061071004501021999MA1999999093961MD1210051+0021MW1601REMSYN088AAXX  21121 57633 11462 80000 10146 20139 39396 40165 52005 69971 76060 8672/ 333 05251;
0140576330999992000102115004+28820+108770FM-12+066599999V0209999C000010042019N0120001N1+01461+01391101751ADDAY161031AY261031GF108991061071004501021999MD1210091+9999MW1601REMSYN066AAXX  21151 57633 41462 80000 10146 20139 40175 52009 76066 8672/;
0207576330999992000102118004+28820+108770FM-12+066599999V0209999C000010042019N0100001N1+01461+01411101641ADDAA106000191AY161061AY261061GF108991061071004501021999KA1999M+01621MA1999999093961MD1710091-0201MW1601REMSYN094AAXX  21181 57633 11460 80000 10146 20141 39396 40164 57009 69921 76066 8672/ 333 05201 10162;
0167576330999992000102121004+28820+108770FM-12+066599999V0209999C000010042019N0100001N1+01461+01411101591ADDAA124014791AY161031AY261031GF108991061071004501021999MD1710041-0101MW1601REMSYN082AAXX  21211 57633 41460 80000 10146 20141 40159 57004 76066 8672/ 333 05101 70147;
0186576330999992000102200004+28820+108770FM-12+066599999V0209999C000010360019N0100001N1+01471+01421101611ADDAA106000791AY161061GF108991031071004501021999MA1999999093931MD1210011-0301MW1001REMSYN094AAXX  22001 57633 11460 80000 10147 20142 39393 40161 52001 69901 70060 8372/ 333 05301 70141;
0112576330999992000102203004+28820+108770FM-12+066599999V0209999C000010360019N0170001N1+01731+01391101621ADDGF108991011011008001071999MD1210041+9999REMSYN060AAXX  22031 57633 42567 80000 10173 20139 40162 52004 8117/;
0173576330999992000102206004+28820+108770FM-12+066599999V0209999C000010360019N0200001N1+01911+01431101341ADDAA199000021GF108991011011008001071999KA1999N+01401MA1999999093731MD1710241-0301REMSYN082AAXX  22061 57633 32570 80000 10191 20143 39373 40134 57024 8117/ 333 05304 20140;
0122576330999992000102209004+28820+108770FM-12+066599999V0201401N001010360019N0180001N1+01891+01531101241ADDGF108991011011008001071999MD1710091+0031REMSYN070AAXX  22091 57633 42568 81401 10189 20153 40124 57009 8117/ 333 05303;
0173576330999992000102212004+28820+108770FM-12+066599999V0209999C000019999999N0170001N1+01761+01581101381ADDAA199000091GF108991081001999999071999MA1999999093751MD1210111+0021REMSYN076AAXX  22121 57633 32967 80000 10176 20158 39375 40138 52011 8807/ 333 05203;EQDQ01  00002PRCP99
0112576330999992000102215004+28820+108770FM-12+066599999V0209999C000012200019N0100001N1+01541+01461101451ADDGF102991021001999999041001MD1210071+9999REMSYN060AAXX  22151 57633 42960 20000 10154 20146 40145 52007 82040;
0204576330999992000102218004+28820+108770FM-12+066599999V0209999C000019999999N0070001N1+01521+01471101361ADDAA199000091GF108991081001999999071999KA1999M+01981MA1999999093761MD1710061-0201MW1101REMSYN088AAXX  22181 57633 31957 80000 10152 20147 39376 40136 57006 71000 8807/ 333 05201 10198;EQDQ01  00002PRCP99
0151576330999992000102221004+28820+108770FM-12+066599999V0209999C000019999999N0080001N1+01571+01501101291ADDAA124000791GF108991081001999999071999MD1710061-0201MW1101REMSYN082AAXX  22211 57633 41958 80000 10157 20150 40129 57006 71000 8807/ 333 05201 79999;
0173576330999992000102300004+28820+108770FM-12+066599999V0209999C000010120019N0120001N1+01631+01501101391ADDAA199000091GF108991061041012501071999MA1999999093781MD1210081+0021REMSYN076AAXX  23001 57633 32662 80000 10163 20150 39378 40139 52008 8647/ 333 05202;EQDQ01  00002PRCP99
0112576330999992000102303004+28820+108770FM-12+066599999V0203601N001010120019N0150001N1+01781+01481101461ADDGF108991061041012501071999MD1210061+9999REMSYN060AAXX  23031 57633 42665 83601 10178 20148 40146 52006 8647/;
0192576330999992000102306004+28820+108770FM-12+066599999V0209999C000010120019N0150001N1+01841+01541101191ADDAA199000091GF108991081081008001999999KA1999N+01471MA1999999093591MD1710251-0101REMSYN082AAXX  23061 57633 32565 80000 10184 20154 39359 40119 57025 888// 333 05151 20147;EQDQ01  00002PRCP99
0122576330999992000102309004+28820+108770FM-12+066599999V0203601N001010150019N0150001N1+01751+01541101161ADDGF108991081051017501999999MD1710031+0011REMSYN070AAXX  23091 57633 42765 83601 10175 20154 40116 57003 885// 333 05151;
0173576330999992000102312004+28820+108770FM-12+066599999V0203601N001010150019N0120001N1+01721+01541101321ADDAA199000091GF108991081051017501999999MA1999999093711MD1210151+0001REMSYN076AAXX  23121 57633 32762 83601 10172 20154 39371 40132 52015 885// 333 00000;EQDQ01  00002PRCP99
0112576330999992000102315004+28820+108770FM-12+066599999V0203601N001010150019N0120001N1+01711+01581101421ADDGF108991081051017501999999MD1210111+9999REMSYN060AAXX  23151 57633 42762 83601 10171 20158 40142 52011 885//;
0199576330999992000102318004+28820+108770FM-12+066599999V0209999C000010150019N0100001N1+01701+01601101371ADDAA106000791AY161061GF108991081051017501999999KA1999M+01881MA1999999093781MD1710041+0001MW1001REMSYN094AAXX  23181 57633 11760 80000 10170 20160 39378 40137 57004 69901 70060 885// 333 00002 10188;
0139576330999992000102321004+28820+108770FM-12+066599999V0203401N001010150019N0100001N1+01721+01611101371ADDAA124000791GF108991081051017501999999MD1710011+0101REMSYN076AAXX  23211 57633 42760 83401 10172 20161 40137 57001 885// 333 00102 79999;
0160576330999992000102400004+28820+108770FM-12+066599999V0203601N001010150019N0120001N1+01741+01631101551ADDAA124000791GF108991081051017501999999MA1999999093941MD1210171+0201REMSYN082AAXX  24001 57633 32762 83601 10174 20163 39394 40155 52017 885// 333 00201 79999;
0132576330999992000102403004+28820+108770FM-12+066599999V0203601N001010150019N0150001N1+01881+01671101671ADDAY161031GF108991081051017501999999MD1210131+9999MW1001REMSYN066AAXX  24031 57633 41765 83601 10188 20167 40167 52013 70060 885//;
0199576330999992000102406004+28820+108770FM-12+066599999V0203401N002010120019N0150001N1+01901+01691101481ADDAA106000791AY161061GF108991081081008001999999KA1999N+01651MA1999999093891MD1710181+0301MW1001REMSYN094AAXX  24061 57633 11565 83402 10190 20169 39389 40148 57018 69901 70060 888// 333 00301 20165;
0122576330999992000102409004+28820+108770FM-12+066599999V0203401N001010120019N0150001N1+01871+01681101481ADDGF108991081081008001999999MD1410001+0031REMSYN070AAXX  24091 57633 42565 83401 10187 20168 40148 54000 888// 333 00301;
0173576330999992000102412004+28820+108770FM-12+066599999V0203601N002010150019N0150001N1+01841+01701101681ADDAA199000091GF108991081051017501999999MA1999999094071MD1210181+0041REMSYN076AAXX  24121 57633 32765 83602 10184 20170 39407 40168 52018 885// 333 00401;EQDQ01  00002PRCP99
0132576330999992000102415004+28820+108770FM-12+066599999V0209999C000010150019N0120001N1+01801+01741101851ADDAY161031GF108991081051017501999999MD1210171+9999MW1211REMSYN066AAXX  24151 57633 41762 80000 10180 20174 40185 52017 72160 885//;
0199576330999992000102418004+28820+108770FM-12+066599999V0209999C000010042019N0120001N1+01801+01671101801ADDAA106000791AY161061GF108991081071004501999999KA1999M+01961MA1999999094201MD1710041+0401MW1001REMSYN094AAXX  24181 57633 11462 80000 10180 20167 39420 40180 57004 69901 70060 887// 333 00401 10196;
0151576330999992000102421004+28820+108770FM-12+066599999V0201401N004010042019N0100001N1+01711+01391101791ADDAA124000791GF108991081071004501999999MD1710021+0401MW1601REMSYN082AAXX  24211 57633 41460 81404 10171 20139 40179 57002 76000 887// 333 00400 79999;
0194576330999992000102500004+28820+108770FM-12+066599999V0203401N001010042019N0120001N1+01491+01391102091ADDAA106016091AY191061AY261061GF108991081091004501999999MA1999999094421MD1210241+0501MW1911REMSYN094AAXX  25001 57633 11462 83401 10149 20139 39442 40209 52024 60161 79196 889// 333 00553 70161;
0140576330999992000102503004+28820+108770FM-12+066599999V0209999C000010042019N0170001N1+01531+01301102201ADDAY181031AY261031GF108991081071004501999999MD1210101+9999MW1601REMSYN066AAXX  25031 57633 41467 80000 10153 20130 40220 52010 76086 887//;
0207576330999992000102506004+28820+108770FM-12+066599999V0200701N001010042019N0120001N1+01471+01241102011ADDAA106004191AY181061AY261061GF108991081071004501999999KA1999N+01441MA1999999094341MD1710181+0501MW1601REMSYN094AAXX  25061 57633 11462 80701 10147 20124 39434 40201 57018 60041 76086 887// 333 00554 20144;
0185576330999992000102509004+28820+108770FM-12+066599999V0203601N999990042019N0120001N1+01391+01231101991ADDAY161031AY261031GF108991081071004501999999MD1710041+0041MW1601REMSYN076AAXX  25091 57633 41462 83641 10139 20123 40199 57004 76066 887// 333 00455;EQDQ01+004103WOSPD Q020004103WOSPD 
0188576330999992000102512004+28820+108770FM-12+066599999V0203401N001010042019N0120001N1+01371+01191102211ADDAA106004191AY161061AY261061GF108991081071004501999999MA1999999094471MD1210171+0041MW1601REMSYN088AAXX  25121 57633 11462 83401 10137 20119 39447 40221 52017 60041 76066 887// 333 00455;
0132576330999992000102515004+28820+108770FM-12+066599999V0203401N002010042019N0100001N1+01361+01221102331ADDAY161031GF108991081071004501999999MD1210121+9999MW1601REMSYN066AAXX  25151 57633 41460 83402 10136 20122 40233 52012 76060 887//;
0199576330999992000102518004+28820+108770FM-12+066599999V0203201N001010042019N0100001N1+01291+01091102331ADDAA106001091AY161061GF108991071071004501021999KA1999M+01841MA1999999094571MD1710021+0401MW1601REMSYN094AAXX  25181 57633 11460 83201 10129 20109 39457 40233 57002 60011 76060 8772/ 333 00455 10184;
0167576330999992000102521004+28820+108770FM-12+066599999V0209999C000010042019N0100001N1+01211+01061102331ADDAA124025491AY161031AY261031GF108991071071004501021999MD1710021+0401MW1601REMSYN082AAXX  25211 57633 41460 80000 10121 20106 40233 57002 76066 8772/ 333 00455 70253;
0194576330999992000102600004+28820+108770FM-12+066599999V0203601N001010042019N0150001N1+01201+01011102431ADDAA106002091AY161061AY261061GF108991061071004501021999MA1999999094641MD1210091+0201MW1601REMSYN094AAXX  26001 57633 11465 83601 10120 20101 39464 40243 52009 60021 76066 8672/ 333 00253 70101;
0140576330999992000102603004+28820+108770FM-12+066599999V0209999C000010042019N0150001N1+01231+01041102541ADDAY161031AY261031GF108991071071004501021999MD1210101+9999MW1601REMSYN066AAXX  26031 57633 41465 80000 10123 20104 40254 52010 76066 8772/;
0207576330999992000102606004+28820+108770FM-12+066599999V0200201N001010042019N0150001N1+01251+01031102341ADDAA106001091AY161061AY261061GF108991061071004501021999KA1999N+01161MA1999999094551MD1710191+0201MW1601REMSYN094AAXX  26061 57633 11465 80201 10125 20103 39455 40234 57019 60011 76066 8672/ 333 00252 20116;
0150576330999992000102609004+28820+108770FM-12+066599999V0209999C000010042019N0150001N1+01201+00951102291ADDAY161031AY261031GF108991071071004501021999MD1710061+0021MW1601REMSYN076AAXX  26091 57633 41465 80000 10120 20095 40229 57006 76066 8772/ 333 00252;
0180576330999992000102612004+28820+108770FM-12+066599999V0203601N001010042019N0120001N1+01161+01031102421ADDAA106000591AY161061GF108991061071004501021999MA1999999094601MD1210111+0011MW1601REMSYN088AAXX  26121 57633 11462 83601 10116 20103 39460 40242 52011 69961 76060 8672/ 333 00152;
0140576330999992000102615004+28820+108770FM-12+066599999V0209999C000010042019N0100001N1+01121+00971102491ADDAY161031AY261031GF108991071071004501021999MD1210071+9999MW1601REMSYN066AAXX  26151 57633 41460 80000 10112 20097 40249 52007 76066 8772/;
0207576330999992000102618004+28820+108770FM-12+066599999V0200201N001010042019N0100001N1+01091+00961102441ADDAA106002091AY161061AY261061GF108991061071004501021999KA1999M+01341MA1999999094621MD1710051+0101MW1601REMSYN094AAXX  26181 57633 11460 80201 10109 20096 39462 40244 57005 60021 76066 8672/ 333 00152 10134;
0167576330999992000102621004+28820+108770FM-12+066599999V0200401N002010042019N0100001N1+01091+00851102451ADDAA124004691AY161031AY261031GF108991071071004501021999MD1410001+0101MW1211REMSYN082AAXX  26211 57633 41460 80402 10109 20085 40245 54000 72166 8772/ 333 00151 70046;
0186576330999992000102700004+28820+108770FM-12+066599999V0200701N001010042019N0120001N1+01071+00871102541ADDAA106000191AY161061GF108991081071004501999999MA1999999094701MD1210081+0101MW1601REMSYN094AAXX  27001 57633 11462 80701 10107 20087 39470 40254 52008 69921 76060 887// 333 00151 70037;
0132576330999992000102703004+28820+108770FM-12+066599999V0200401N001010042019N0150001N1+01111+00851102621ADDAY161031GF108991081071004501999999MD1210071+9999MW1001REMSYN066AAXX  27031 57633 41465 80401 10111 20085 40262 52007 70060 887//;
0199576330999992000102706004+28820+108770FM-12+066599999V0203601N001010042019N0150001N1+01121+00891102371ADDAA106000791AY161061GF108991081071004501999999KA1999N+01031MA1999999094541MD1710231+0001MW1601REMSYN094AAXX  27061 57633 11465 83601 10112 20089 39454 40237 57023 69901 76060 887// 333 00051 20103;
0150576330999992000102709004+28820+108770FM-12+066599999V0200201N001010042019N0150001N1+01111+00941102231ADDAY161031AY261031GF108991081071004501999999MD1710131+0011MW1601REMSYN076AAXX  27091 57633 41465 80201 10111 20094 40223 57013 76066 887// 333 05151;
0188576330999992000102712004+28820+108770FM-12+066599999V0203401N001010042019N0120001N1+01071+00951102351ADDAA106000191AY161061AY261061GF108991081071004501999999MA1999999094511MD1210101+0011MW1601REMSYN088AAXX  27121 57633 11462 83401 10107 20095 39451 40235 52010 69911 76066 887// 333 05151;
0140576330999992000102715004+28820+108770FM-12+066599999V0209999C000010042019N0150001N1+01101+00911102431ADDAY161031AY261031GF108991081071004501999999MD1210081+9999MW1211REMSYN066AAXX  27151 57633 41465 80000 10110 20091 40243 52008 72166 887//;
0199576330999992000102718004+28820+108770FM-12+066599999V0209999C000010042019N0120001N1+01061+00981102401ADDAA106000591AY161061GF108991081071004501999999KA1999M+01181MA1999999094561MD1710031-0101MW1601REMSYN094AAXX  27181 57633 11462 80000 10106 20098 39456 40240 57003 69941 76060 887// 333 05100 10118;
0159576330999992000102721004+28820+108770FM-12+066599999V0209999C000010042019N0120001N1+01101+00951102341ADDAA124000591AY161031GF108991081071004501999999MD1710051-0101MW1001REMSYN082AAXX  27211 57633 41462 80000 10110 20095 40234 57005 70060 887// 333 05100 70005;
0186576330999992000102800004+28820+108770FM-12+066599999V0209999C000010042019N0120001N1+01061+00981102481ADDAA106000791AY161061GF108991081071004501999999MA1999999094631MD1210121-0101MW1601REMSYN094AAXX  28001 57633 11462 80000 10106 20098 39463 40248 52012 69901 76060 887// 333 05100 70005;
0132576330999992000102803004+28820+108770FM-12+066599999V0209999C000010042019N0120001N1+01211+00981102491ADDAY161031GF108991071071004501071999MD1210031+9999MW1001REMSYN066AAXX  28031 57633 41462 80000 10121 20098 40249 52003 70060 8777/;
0142576330999992000102809004+28820+108770FM-12+066599999V0209999C000010042019N0100001N1+01221+01091102431ADDAY161031GF108991061071004501071999MD1210041+0021MW1211REMSYN076AAXX  28091 57633 41460 80000 10122 20109 40243 52004 72160 8677/ 333 00201;
0180576330999992000102812004+28820+108770FM-12+066599999V0209999C000010360019N0100001N1+01211+01041102661ADDAA106000591AY161061GF108991031071004501071999MA1999999094811MD1210201+0031MW1001REMSYN088AAXX  28121 57633 11460 80000 10121 20104 39481 40266 52020 69951 70060 8377/ 333 00301;
0132576330999992000102815004+28820+108770FM-12+066599999V0209999C000010042019N0100001N1+01141+01051102931ADDAY161031GF108991061071004501071999MD1210261+9999MW1601REMSYN066AAXX  28151 57633 41460 80000 10114 20105 40293 52026 76060 8677/;
0199576330999992000102818004+28820+108770FM-12+066599999V0209999C000010042019N0100001N1+01081+01001102881ADDAA106005191AY161061GF108991051071004501021999KA1999M+01281MA1999999095021MD1710051+0501MW1601REMSYN094AAXX  28181 57633 11460 80000 10108 20100 39502 40288 57005 60051 76060 8572/ 333 00500 10128;
0167576330999992000102821004+28820+108770FM-12+066599999V0209999C000010042019N0100001N1+01071+01011102881ADDAA124005891AY161031AY261031GF108991071071004501021999MD1410001+0501MW1601REMSYN082AAXX  28211 57633 41460 80000 10107 20101 40288 54000 76066 8772/ 333 00500 70059;
0186576330999992000102900004+28820+108770FM-12+066599999V0209999C000010360019N0180001N1+01091+01011103011ADDAA106001091AY161061GF108991021071004501021999MA1999999095141MD1210121+0501MW1001REMSYN094AAXX  29001 57633 11468 80000 10109 20101 39514 40301 52012 69991 70060 8272/ 333 00500 70060;
0112576330999992000102903004+28820+108770FM-12+066599999V0201101N001010360019N0300001N1+01441+01091102991ADDGF107991031011008001041999MD1210021+9999REMSYN060AAXX  29031 57633 42580 71101 10144 20109 40299 52002 8314/;
0173576330999992000102906004+28820+108770FM-12+066599999V0201401N002010360019N0300001N1+01501+01181102611ADDAA199000021GF108991021011008001071999KA1999N+01051MA1999999094811MD1710351+0201REMSYN082AAXX  29061 57633 32580 81402 10150 20118 39481 40261 57035 8217/ 333 00202 20105;
0122576330999992000102909004+28820+108770FM-12+066599999V0201401N003010360019N0250001N1+01491+01171102441ADDGF107991011011008001041999MD1710161+0001REMSYN070AAXX  29091 57633 42575 71403 10149 20117 40244 57016 8114/ 333 00003;
0173576330999992000102912004+28820+108770FM-12+066599999V0209999C000019999999N0120001N1+01271+01141102531ADDAA199000091GF108991081001999999071999MA1999999094701MD1210051+0011REMSYN076AAXX  29121 57633 32962 80000 10127 20114 39470 40253 52005 8807/ 333 05101;EQDQ01  00002PRCP99
0112576330999992000102915004+28820+108770FM-12+066599999V0209999C000010150019N0100001N1+01211+01161102441ADDGF108991081051017501999999MD1710041+9999REMSYN060AAXX  29151 57633 42760 80000 10121 20116 40244 57004 885//;
0192576330999992000102918004+28820+108770FM-12+066599999V0209999C000010150019N0100001N1+01221+01151102251ADDAA199000091GF107991071051017501999999KA1999M+01601MA1999999094491MD1710171-0501REMSYN082AAXX  29181 57633 32760 70000 10122 20115 39449 40225 57017 875// 333 05501 10160;EQDQ01  00002PRCP99
0139576330999992000102921004+28820+108770FM-12+066599999V0209999C000012200019N0100001N1+01201+01151102071ADDAA124000191GF102991021051017501001001MD1710171-0701REMSYN076AAXX  29211 57633 42760 20000 10120 20115 40207 57017 82500 333 05701 70001;
0185576330999992000103000004+28820+108770FM-12+066599999V0209999C000010150019N0070001N1+01171+01111102161ADDAA199000091GF107991071051017501999999MA1999999094371MD1210051+0081MW1101REMSYN082AAXX  30001 57633 31757 70000 10117 20111 39437 40216 52005 71000 875// 333 05801;EQDQ01  00002PRCP99
0112576330999992000103003004+28820+108770FM-12+066599999V0201401N001010075019N0250001N1+01581+00861102021ADDGF106991061011008001001001MD1710081+9999REMSYN060AAXX  30031 57633 42575 61401 10158 20086 40202 57008 86100;
0192576330999992000103006004+28820+108770FM-12+066599999V0201801N001012200019N0200001N1+01901+00911101621ADDAA199000091GF101991011011008001001001KA1999N+01141MA1999999093961MD1710331-0901REMSYN082AAXX  30061 57633 32570 11801 10190 20091 39396 40162 57033 81100 333 05904 20114;EQDQ01  00002PRCP99
0122576330999992000103009004+28820+108770FM-12+066599999V0200401N001012200019N0180001N1+01771+01011101591ADDGF101991011011008001001001MD1710051+0071REMSYN070AAXX  30091 57633 42568 10401 10177 20101 40159 57005 81100 333 05703;
0183576330999992000103012004+28820+108770FM-12+066599999V0202501N001012200019N0150001N1+01291+01031101941ADDAA199000091GA1001+999999999GF100991001001999999001001MA1999999094171MD1210261+0051REMSYN070AAXX  30121 57633 32965 02501 10129 20103 39417 40194 52026 333 05500;EQDQ01  00002PRCP99
0122576330999992000103015004+28820+108770FM-12+066599999V0209999C000012200019N0120001N1+01051+00951102181ADDGA1001+999999999GF100991001001999999001001MD1210251+9999REMSYN054AAXX  30151 57633 42962 00000 10105 20095 40218 52025;
0202576330999992000103018004+28820+108770FM-12+066599999V0209999C000012200019N0120001N1+00941+00861102311ADDAA199000091GA1001+999999999GF100991001001999999001001KA1999M+02001MA1999999094561MD1210141+0101REMSYN076AAXX  30181 57633 32962 00000 10094 20086 39456 40231 52014 333 00153 10200;EQDQ01  00002PRCP99
0132576330999992000103021004+28820+108770FM-12+066599999V0209999C000012200019N0100001N1+00891+00811102361ADDGA1001+999999999GF100991001001999999001001MD1210031+0031REMSYN064AAXX  30211 57633 42960 00000 10089 20081 40236 52003 333 00353;
0185576330999992000103100004+28820+108770FM-12+066599999V0209999C000010042019N0020001N1+00881+00841102621ADDAA199000091GF108991081061004501999999MA1999999094761MD1210171+0041MW1101REMSYN082AAXX  31001 57633 31420 80000 10088 20084 39476 40262 52017 71000 886// 333 00453;EQDQ01  00002PRCP99
0112576330999992000103103004+28820+108770FM-12+066599999V0201401N001012200019N0150001N1+01761+01121102511ADDGF101991011011008001001001MD1710021+9999REMSYN060AAXX  31031 57633 42565 11401 10176 20112 40251 57002 81100;
0192576330999992000103106004+28820+108770FM-12+066599999V0209999C000010075019N0200001N1+01901+01021102201ADDAA199000091GF106991061021008001001001KA1999N+00801MA1999999094461MD1710281+0501REMSYN082AAXX  31061 57633 32570 60000 10190 20102 39446 40220 57028 86200 333 00500 20080;EQDQ01  00002PRCP99
0122576330999992000103109004+28820+108770FM-12+066599999V0201101N002012200019N0180001N1+01821+01071102151ADDGF101991011021008001001001MD1710061+0051REMSYN070AAXX  31091 57633 42568 11102 10182 20107 40215 57006 81200 333 00501;
0183576330999992000103112004+28820+108770FM-12+066599999V0209999C000012200019N0120001N1+01291+01091102391ADDAA199000091GA1001+999999999GF100991001001999999001001MA1999999094551MD1210151+0041REMSYN070AAXX  31121 57633 32962 00000 10129 20109 39455 40239 52015 333 00400;EQDQ01  00002PRCP99
0122576330999992000103115004+28820+108770FM-12+066599999V0209999C000012200019N0120001N1+01151+01061102491ADDGA1001+999999999GF100991001001999999001001MD1210191+9999REMSYN054AAXX  31151 57633 42962 00000 10115 20106 40249 52019;
0214576330999992000103118004+28820+108770FM-12+066599999V0209999C000012200019N0080001N1+00961+00921102531ADDAA199000091GA1001+999999999GF100991001001999999001001KA1999M+02121MA1999999094771MD1210031+0201MW1101REMSYN082AAXX  31181 57633 31958 00000 10096 20092 39477 40253 52003 71000 333 00200 10212;EQDQ01  00002PRCP99
0144576330999992000103121004+28820+108770FM-12+066599999V0209999C000012200019N0040001N1+00871+00851102561ADDGA1001+999999999GF100991001001999999001001MD1410001+0021MW1101REMSYN070AAXX  31211 57633 41940 00000 10087 20085 40256 54000 71000 333 00200;
0203576330999992000110100004+28820+108770FM-12+066599999V0209999C000010006019N0009001N1+00831+00831102781ADDAA199000091AY141061GA1091+999999999GF109991091999999999999999MA1999999094901MD1210131+0011MW1431REMSYN076AAXX  01001 57633 31/09 90000 10083 20083 39490 40278 52013 74340 333 00151;EQDQ01  00002PRCP99
0132576330999992000110103004+28820+108770FM-12+066599999V0209999C000012200019N0200001N1+01531+00731102681ADDAY141031GF101991011011008001001001MD1710021+9999MW1001REMSYN066AAXX  01031 57633 41570 10000 10153 20073 40268 57002 70040 81100;
0212576330999992000110106004+28820+108770FM-12+066599999V0201401N002012200019N0300001N1+01881+00711102341ADDAA199000091AY141061GF101991011011008001001001KA1999N+00791MA1999999094591MD1710291+0101MW1001REMSYN088AAXX  01061 57633 31580 11402 10188 20071 39459 40234 57029 70040 81100 333 00100 20079;EQDQ01  00002PRCP99
0122576330999992000110109004+28820+108770FM-12+066599999V0209999C000012200019N0250001N1+01831+00721102231ADDGF101991011011008001001001MD1710121+0011REMSYN070AAXX  01091 57633 42575 10000 10183 20072 40223 57012 81100 333 00100;
0183576330999992000110112004+28820+108770FM-12+066599999V0209999C000012200019N0150001N1+01211+00841102521ADDAA199000091GA1001+999999999GF100991001001999999001001MA1999999094651MD1210181+0011REMSYN070AAXX  01121 57633 32965 00000 10121 20084 39465 40252 52018 333 00151;EQDQ01  00002PRCP99
0122576330999992000110115004+28820+108770FM-12+066599999V0209999C000012200019N0100001N1+00961+00801102521ADDGA1001+999999999GF100991001001999999001001MD1210061+9999REMSYN054AAXX  01151 57633 42960 00000 10096 20080 40252 52006;
0214576330999992000110118004+28820+108770FM-12+066599999V0209999C000012200019N0080001N1+00801+00741102421ADDAA199000091GA1001+999999999GF100991001001999999001001KA1999M+01981MA1999999094641MD1710071-0101MW1101REMSYN082AAXX  01181 57633 31958 00000 10080 20074 39464 40242 57007 71000 333 05152 10198;EQDQ01  00002PRCP99
0144576330999992000110121004+28820+108770FM-12+066599999V0209999C000012200019N0060001N1+00711+00621102371ADDGA1001+999999999GF100991001001999999001001MD1710061+0021MW1101REMSYN070AAXX  01211 57633 41956 00000 10071 20062 40237 57006 71000 333 05252;
0203576330999992000110200004+28820+108770FM-12+066599999V0209999C000010021019N0020001N1+00691+00651102551ADDAA199000091GF108991081061002501999999IA2999+00309MA1999999094661MD1210081-0201MW1101REMSYN088AAXX  02001 57633 31320 80000 10069 20065 39466 40255 52008 71000 886// 333 05251 30039;EQDQ01  00002PRCP99
0122576330999992000110203004+28820+108770FM-12+066599999V0209999C000012200019N0150001N1+01541+00831102431ADDGA1001+999999999GF100991001001999999001001MD1710031+9999REMSYN054AAXX  02031 57633 42965 00000 10154 20083 40243 57003;
0202576330999992000110206004+28820+108770FM-12+066599999V0201101N003012200019N0170001N1+02001+00811102071ADDAA199000091GA1001+999999999GF100991001001999999001001KA1999N+00601MA1999999094341MD1710291-0301REMSYN076AAXX  02061 57633 32967 01103 10200 20081 39434 40207 57029 333 05301 20060;EQDQ01  00002PRCP99
0132576330999992000110209004+28820+108770FM-12+066599999V0201401N001012200019N0250001N1+02021+00811101941ADDGA1001+999999999GF100991001001999999001001MD1710131+0031REMSYN064AAXX  02091 57633 42975 01401 10202 20081 40194 57013 333 05302;
0183576330999992000110212004+28820+108770FM-12+066599999V0209999C000012200019N0150001N1+01271+00891102241ADDAA199000091GA1001+999999999GF100991001001999999001001MA1999999094381MD1210171+0031REMSYN070AAXX  02121 57633 32965 00000 10127 20089 39438 40224 52017 333 05301;EQDQ01  00002PRCP99
0122576330999992000110215004+28820+108770FM-12+066599999V0209999C000012200019N0120001N1+01001+00841102251ADDGA1001+999999999GF100991001001999999001001MD1210091+9999REMSYN054AAXX  02151 57633 42962 00000 10100 20084 40225 52009;
0202576330999992000110218004+28820+108770FM-12+066599999V0209999C000012200019N0100001N1+00851+00751102231ADDAA199000091GA1001+999999999GF100991001001999999001001KA1999M+02141MA1999999094491MD1210021-0201REMSYN076AAXX  02181 57633 32960 00000 10085 20075 39449 40223 52002 333 05201 10214;EQDQ01  00002PRCP99
0144576330999992000110221004+28820+108770FM-12+066599999V0209999C000012200019N0080001N1+00721+00661102211ADDGA1001+999999999GF100991001001999999001001MD1710031+0011MW1101REMSYN070AAXX  02211 57633 41958 00000 10072 20066 40221 57003 71000 333 05100;
0191576330999992000110300004+28820+108770FM-12+066599999V0209999C000012200019N0120001N1+00641+00601102401ADDAA199000091GF101991011011008001001001IA2999+00309MA1999999094521MD1210061-0101REMSYN082AAXX  03001 57633 32562 10000 10064 20060 39452 40240 52006 81100 333 05151 30037;EQDQ01  00002PRCP99
0122576330999992000110303004+28820+108770FM-12+066599999V0209999C000012200019N0150001N1+01721+00921102271ADDGA1001+999999999GF100991001001999999001001MD1710011+9999REMSYN054AAXX  03031 57633 42965 00000 10172 20092 40227 57001;
0202576330999992000110306004+28820+108770FM-12+066599999V0201601N001012200019N0300001N1+02211+00611101891ADDAA199000091GA1001+999999999GF100991001001999999001001KA1999N+00601MA1999999094201MD1710311-0101REMSYN076AAXX  03061 57633 32980 01601 10221 20061 39420 40189 57031 333 05102 20060;EQDQ01  00002PRCP99
0132576330999992000110309004+28820+108770FM-12+066599999V0201401N002012200019N0300001N1+02101+00831101881ADDGA1001+999999999GF100991001001999999001001MD1710041+0011REMSYN064AAXX  03091 57633 42980 01402 10210 20083 40188 57004 333 05101;
0183576330999992000110312004+28820+108770FM-12+066599999V0209999C000012200019N0200001N1+01321+01001102281ADDAA199000091GA1001+999999999GF100991001001999999001001MA1999999094421MD1210261+0001REMSYN070AAXX  03121 57633 32970 00000 10132 20100 39442 40228 52026 333 00001;EQDQ01  00002PRCP99
0122576330999992000110315004+28820+108770FM-12+066599999V0209999C000012200019N0150001N1+01041+00841102431ADDGA1001+999999999GF100991001001999999001001MD1210241+9999REMSYN054AAXX  03151 57633 42965 00000 10104 20084 40243 52024;
0202576330999992000110318004+28820+108770FM-12+066599999V0209999C000012200019N0100001N1+00831+00751102451ADDAA199000091GA1001+999999999GF100991001001999999001001KA1999M+02321MA1999999094721MD1210061+0201REMSYN076AAXX  03181 57633 32960 00000 10083 20075 39472 40245 52006 333 00200 10232;EQDQ01  00002PRCP99
0132576330999992000110321004+28820+108770FM-12+066599999V0201601N001012200019N0100001N1+00741+00631102461ADDGA1001+999999999GF100991001001999999001001MD1710021+0021REMSYN064AAXX  03211 57633 42960 01601 10074 20063 40246 57002 333 00200;
0191576330999992000110400004+28820+108770FM-12+066599999V0209999C000012200019N0180001N1+00731+00601102771ADDAA199000091GF103991031001999999041001IA2999+00409MA1999999094881MD1210181+0401REMSYN082AAXX  04001 57633 32968 30000 10073 20060 39488 40277 52018 83040 333 00401 30045;EQDQ01  00002PRCP99
0122576330999992000110403004+28820+108770FM-12+066599999V0209999C000012200019N0300001N1+01791+00831102651ADDGA1001+999999999GF100991001001999999001001MD1410001+9999REMSYN054AAXX  04031 57633 42980 00000 10179 20083 40265 54000;
0202576330999992000110406004+28820+108770FM-12+066599999V0201601N003012200019N0300001N1+02181+00551102291ADDAA199000091GA1001+999999999GF100991001001999999001001KA1999N+00651MA1999999094571MD1710311+0401REMSYN076AAXX  04061 57633 32980 01603 10218 20055 39457 40229 57031 333 00400 20065;EQDQ01  00002PRCP99
0132576330999992000110409004+28820+108770FM-12+066599999V0200901N002012200019N0300001N1+02051+00681102161ADDGA1001+999999999GF100991001001999999001001MD1710151+0031REMSYN064AAXX  04091 57633 42980 00902 10205 20068 40216 57015 333 00351;
0183576330999992000110412004+28820+108770FM-12+066599999V0209999C000012200019N0200001N1+01301+00921102391ADDAA199000091GA1001+999999999GF100991001001999999001001MA1999999094531MD1210111+0011REMSYN070AAXX  04121 57633 32970 00000 10130 20092 39453 40239 52011 333 00100;EQDQ01  00002PRCP99
0122576330999992000110415004+28820+108770FM-12+066599999V0209999C000012200019N0120001N1+01021+00861102271ADDGA1001+999999999GF100991001001999999001001MD1710011+9999REMSYN054AAXX  04151 57633 42962 00000 10102 20086 40227 57001;
0202576330999992000110418004+28820+108770FM-12+066599999V0209999C000012200019N0100001N1+00871+00771102081ADDAA199000091GA1001+999999999GF100991001001999999001001KA1999M+02221MA1999999094381MD1710141-0301REMSYN076AAXX  04181 57633 32960 00000 10087 20077 39438 40208 57014 333 05300 10222;EQDQ01  00002PRCP99
0144576330999992000110421004+28820+108770FM-12+066599999V0209999C000012200019N0080001N1+00781+00701101911ADDGA1001+999999999GF100991001001999999001001MD1710191+0051MW1101REMSYN070AAXX  04211 57633 41958 00000 10078 20070 40191 57019 71000 333 05500;
0213576330999992000110500004+28820+108770FM-12+066599999V0209999C000012200019N0070001N1+00711+00651101991ADDAA199000091GA1001+999999999GF100991001001999999001001IA2999+00409MA1999999094161MD1710031-0701MW1101REMSYN082AAXX  05001 57633 31957 00000 10071 20065 39416 40199 57003 71000 333 05700 30044;EQDQ01  00002PRCP99
0122576330999992000110503004+28820+108770FM-12+066599999V0209999C000012200019N0150001N1+01791+01111101731ADDGA1001+999999999GF100991001001999999001001MD1710141+9999REMSYN054AAXX  05031 57633 42965 00000 10179 20111 40173 57014;
0202576330999992000110506004+28820+108770FM-12+066599999V0209999C000012200019N0170001N1+02211+00961101251ADDAA199000091GA1001+999999999GF100991001001999999001001KA1999N+00651MA1999999093611MD1710411-1001REMSYN076AAXX  05061 57633 32967 00000 10221 20096 39361 40125 57041 333 06000 20065;EQDQ01  00002PRCP99
0132576330999992000110509004+28820+108770FM-12+066599999V0200701N001012200019N0180001N1+02121+01041101221ADDGA1001+999999999GF100991001001999999001001MD1710061+0091REMSYN064AAXX  05091 57633 42968 00701 10212 20104 40122 57006 333 05901;
0183576330999992000110512004+28820+108770FM-12+066599999V0209999C000012200019N0150001N1+01351+01041101461ADDAA199000091GA1001+999999999GF100991001001999999001001MA1999999093681MD1210121+0091REMSYN070AAXX  05121 57633 32965 00000 10135 20104 39368 40146 52012 333 05901;EQDQ01  00002PRCP99
0122576330999992000110515004+28820+108770FM-12+066599999V0209999C000012200019N0120001N1+01101+00991101481ADDGA1001+999999999GF100991001001999999001001MD1210121+9999REMSYN054AAXX  05151 57633 42962 00000 10110 20099 40148 52012;
0181576330999992000110518004+28820+108770FM-12+066599999V0209999C000012200019N0100001N1+00971+00871101441ADDAA199000091GA1001+999999999GF100991001001999999001001KA1999M+02331MD1410001-0601REMSYN070AAXX  05181 57633 32960 00000 10097 20087 40144 54000 333 05601 10233;EQDQ01  00002PRCP99
0144576330999992000110521004+28820+108770FM-12+066599999V0209999C000012200019N0080001N1+00871+00791101421ADDGA1001+999999999GF100991001001999999001001MD1710041+0041MW1101REMSYN070AAXX  05211 57633 41958 00000 10087 20079 40142 57004 71000 333 05401;
0195576330999992000110600004+28820+108770FM-12+066599999V0209999C000012200019N0080001N1+00851+00791101611ADDAA199000091GA1001+999999999GF100991001001999999001001MA1999999093831MD1210071+0031MW1101REMSYN076AAXX  06001 57633 31958 00000 10085 20079 39383 40161 52007 71000 333 05301;EQDQ01  00002PRCP99
0122576330999992000110603004+28820+108770FM-12+066599999V0209999C000012200019N0150001N1+01771+01071101481ADDGA1001+999999999GF100991001001999999001001MD1710031+9999REMSYN054AAXX  06031 57633 42965 00000 10177 20107 40148 57003;
0202576330999992000110606004+28820+108770FM-12+066599999V0201601N002012200019N0180001N1+02241+00861101151ADDAA199000091GA1001+999999999GF100991001001999999001001KA1999N+00791MA1999999093541MD1710261-0101REMSYN076AAXX  06061 57633 32968 01602 10224 20086 39354 40115 57026 333 05100 20079;EQDQ01  00002PRCP99
0132576330999992000110609004+28820+108770FM-12+066599999V0201601N001012200019N0180001N1+02151+00991101221ADDGA1001+999999999GF100991001001999999001001MD1210041+0001REMSYN064AAXX  06091 57633 42968 01601 10215 20099 40122 52004 333 00000;
0183576330999992000110612004+28820+108770FM-12+066599999V0209999C000012200019N0150001N1+01491+01091101571ADDAA199000091GA1001+999999999GF100991001001999999001001MA1999999093811MD1210231+0011REMSYN070AAXX  06121 57633 32965 00000 10149 20109 39381 40157 52023 333 00101;EQDQ01  00002PRCP99
0122576330999992000110615004+28820+108770FM-12+066599999V0209999C000012200019N0120001N1+01181+01031101661ADDGA1001+999999999GF100991001001999999001001MD1210171+9999REMSYN054AAXX  06151 57633 42962 00000 10118 20103 40166 52017;
0173576330999992000110618004+28820+108770FM-12+066599999V0209999C000012200019N0100001N1+01061+00961999999ADDAA199000091GA1001+999999999GF100991001001999999001001MD1999999+0301REMSYN075AAXX  06181 57633 32960 00000 10106 20096 3906 40170 52008 333 00301 10241;EQDQ01  00002PRCP99
0144576330999992000110621004+28820+108770FM-12+066599999V0209999C000012200019N0090001N1+00971+00891101811ADDGA1001+999999999GF100991001001999999001001MD1210081+0041MW1101REMSYN070AAXX  06211 57633 41959 00000 10097 20089 40181 52008 71000 333 00401;
0183576330999992000110700004+28820+108770FM-12+066599999V0209999C000012200019N0120001N1+00901+00841102201ADDAA199000091GA1001+999999999GF100991001001999999001001MA1999999094401MD1210261+0061REMSYN070AAXX  07001 57633 32962 00000 10090 20084 39440 40220 52026 333 00601;EQDQ01  00002PRCP99
0112576330999992000110703004+28820+108770FM-12+066599999V0200201N002012200019N0150001N1+01721+00811102171ADDGF101991011011008001001001MD1210041+9999REMSYN060AAXX  07031 57633 42565 10202 10172 20081 40217 52004 81100;
0192576330999992000110706004+28820+108770FM-12+066599999V0200201N002012200019N0150001N1+01931+00881101791ADDAA199000091GF101991011011008001001001KA1999N+00861MA1999999094101MD1710341+0601REMSYN082AAXX  07061 57633 32565 10202 10193 20088 39410 40179 57034 81100 333 00653 20086;EQDQ01  00002PRCP99
0122576330999992000110709004+28820+108770FM-12+066599999V0201401N002010075019N0120001N1+01851+01001101771ADDGF105991051011008001001001MD1710041+0051REMSYN070AAXX  07091 57633 42562 51402 10185 20100 40177 57004 85100 333 00553;
0173576330999992000110712004+28820+108770FM-12+066599999V0209999C000010150019N0120001N1+01501+01141102021ADDAA199000091GF107991071051017501999999MA1999999094241MD1210181+0041REMSYN076AAXX  07121 57633 32762 70000 10150 20114 39424 40202 52018 875// 333 00400;EQDQ01  00002PRCP99
0122576330999992000110715004+28820+108770FM-12+066599999V0209999C000012200019N0120001N1+01291+01111102131ADDGA1001+999999999GF100991001001999999001001MD1210181+9999REMSYN054AAXX  07151 57633 42962 00000 10129 20111 40213 52018;
0192576330999992000110718004+28820+108770FM-12+066599999V0209999C000019999999N0100001N1+01331+01051102081ADDAA199000091GF107991071001999999041999KA1999M+01971MA1999999094401MD1710021+0301REMSYN082AAXX  07181 57633 32960 70000 10133 20105 39440 40208 57002 8704/ 333 00303 10197;EQDQ01  00002PRCP99
0122576330999992000110721004+28820+108770FM-12+066599999V0203601N002019999999N0100001N1+01351+00891102041ADDGF108991081001999999071999MD1710041+0021REMSYN070AAXX  07211 57633 42960 83602 10135 20089 40204 57004 8807/ 333 00204;
0185576330999992000110800004+28820+108770FM-12+066599999V0203601N001019999999N0070001N1+01311+00911102241ADDAA199000091GF108991081001999999071999MA1999999094491MD1210131+0011MW1101REMSYN082AAXX  08001 57633 31957 83601 10131 20091 39449 40224 52013 71000 8807/ 333 00104;EQDQ01  00002PRCP99
0204576330999992000110806004+28820+108770FM-12+066599999V0209999C000019999999N0070001N1+01401+00991102021ADDAA199000091GF108991081001999999071999KA1999N+01201MA1999999094281MD1710281+0201MW1051REMSYN088AAXX  08061 57633 31957 80000 10140 20099 39428 40202 57028 70500 8807/ 333 00255 20120;EQDQ01  00002PRCP99
0134576330999992000110809004+28820+108770FM-12+066599999V0201401N002019999999N0070001N1+01381+00991101981ADDGF108991081001999999071999MD1710041+0021MW1051REMSYN076AAXX  08091 57633 41957 81402 10138 20099 40198 57004 70500 8807/ 333 00255;
0185576330999992000110812004+28820+108770FM-12+066599999V0201101N001019999999N0080001N1+01291+00991102081ADDAA199000091GF108991081001999999071999MA1999999094321MD1210081+0011MW1051REMSYN082AAXX  08121 57633 31958 81101 10129 20099 39432 40208 52008 70500 8807/ 333 00152;EQDQ01  00002PRCP99
0124576330999992000110815004+28820+108770FM-12+066599999V0209999C000019999999N0050001N1+01251+00991102111ADDGF108991081001999999071999MD1210031+9999MW1101REMSYN066AAXX  08151 57633 41950 80000 10125 20099 40211 52003 71000 8807/;
0204576330999992000110818004+28820+108770FM-12+066599999V0209999C000019999999N0040001N1+01221+00991101971ADDAA199000091GF108991081001999999071999KA1999M+01471MA1999999094221MD1710131-0201MW1101REMSYN088AAXX  08181 57633 31940 80000 10122 20099 39422 40197 57013 71000 8807/ 333 05251 10147;EQDQ01  00002PRCP99
0134576330999992000110821004+28820+108770FM-12+066599999V0209999C000019999999N0040001N1+01551+00961101851ADDGF108991081001999999071999MD1710121+0031MW1101REMSYN076AAXX  08211 57633 41940 80000 10155 20096 40185 57012 71000 8807/ 333 05352;
0178576330999992000110900004+28820+108770FM-12+066599999V0209999C000019999999N0050001N1+01171+00941101921ADDAA106000791GF108991081001999999071999MA1999999094151MD1210051-0301MW1601REMSYN094AAXX  09001 57633 11950 80000 10117 20094 39415 40192 52005 69901 76000 8807/ 333 05351 79999;
0132576330999992000110903004+28820+108770FM-12+066599999V0200201N001010360019N0100001N1+01271+00991101901ADDAY161031GF108991011071004501071999MD1710011+9999MW1001REMSYN066AAXX  09031 57633 41460 80201 10127 20099 40190 57001 70060 8177/;
0122576330999992000110909004+28820+108770FM-12+066599999V0200201N001010120019N0120001N1+01211+00941101701ADDGF108991081051012501999999MD1210021+0031REMSYN070AAXX  09091 57633 42662 80201 10121 20094 40170 52002 885// 333 05352;
0154576330999992000110912004+28820+108770FM-12+066599999V0203601N002010150019N0120001N1+01191+01001101961ADDAA199000021GF108991081051017501999999MA1999999094181MD1210241+0011REMSYN076AAXX  09121 57633 32762 83602 10119 20100 39418 40196 52024 885// 333 05151;
0124576330999992000110915004+28820+108770FM-12+066599999V0200201N001010150019N0090001N1+01171+01001102171ADDGF108991081051017501999999MD1210201+9999MW1601REMSYN066AAXX  09151 57633 41759 80201 10117 20100 40217 52020 76000 885//;
0199576330999992000110918004+28820+108770FM-12+066599999V0209999C000010042019N0060001N1+01121+01081102301ADDAA106000191AY161061GF108991081051004501999999KA1999M+01371MA1999999094501MD1210121+0301MW1601REMSYN094AAXX  09181 57633 11456 80000 10112 20108 39450 40230 52012 69921 76060 885// 333 00351 10137;
0159576330999992000110921004+28820+108770FM-12+066599999V0209999C000010042019N0090001N1+01151+01001102351ADDAA124000391AY161031GF108991081071004501999999MD1210041+0401MW1601REMSYN082AAXX  09211 57633 41459 80000 10115 20100 40235 52004 76060 887// 333 00400 70002;
0186576330999992000111000004+28820+108770FM-12+066599999V0200901N003010042019N0100001N1+00961+00741102751ADDAA106000791AY161061GF108991081071004501999999MA1999999094881MD1210341+0701MW1601REMSYN094AAXX  10001 57633 11460 80903 10096 20074 39488 40275 52034 69901 76060 887// 333 00752 70002;
0140576330999992000111003004+28820+108770FM-12+066599999V0201101N002010042019N0120001N1+00811+00461103151ADDAY161031AY261031GF108991081071004501999999MD1210351+9999MW1211REMSYN066AAXX  10031 57633 41462 81102 10081 20046 40315 52035 72166 887//;
0199576330999992000111006004+28820+108770FM-12+066599999V0201401N001010042019N0120001N1+00671+00421102981ADDAA106001091AY161061GF108991081071004501999999KA1999N+00651MA1999999095041MD1710191+1101MW1601REMSYN094AAXX  10061 57633 11462 81401 10067 20042 39504 40298 57019 60011 76060 887// 333 01157 20065;
0150576330999992000111009004+28820+108770FM-12+066599999V0202201N002019999999N0120001N1+00631+00351102981ADDAY161031AY261031GF108991081001004501071999MD1410001+0111MW1601REMSYN076AAXX  10091 57633 41462 82202 10063 20035 40298 54000 76066 8807/ 333 01156;
0188576330999992000111012004+28820+108770FM-12+066599999V0209999C000010042019N0120001N1+00591+00261103221ADDAA106000391AY161061AY261061GF108991081071004501999999MA1999999095231MD1210191+0111MW1601REMSYN088AAXX  10121 57633 11462 80000 10059 20026 39523 40322 52019 69931 76066 887// 333 01156;
0140576330999992000111015004+28820+108770FM-12+066599999V0201101N001010042019N0120001N1+00511+00221103361ADDAY161031AY261031GF108991081071004501999999MD1210101+9999MW1601REMSYN066AAXX  10151 57633 41462 81101 10051 20022 40336 52010 76066 887//;
0207576330999992000111018004+28820+108770FM-12+066599999V0200701N001010042019N0120001N1+00481+00111103271ADDAA106000391AY161061AY261061GF108991081071004501999999KA1999M+01211MA1999999095221MD1710111+0701MW1601REMSYN094AAXX  10181 57633 11462 80701 10048 20011 39522 40327 57011 69931 76066 887// 333 00756 10121;
0167576330999992000111021004+28820+108770FM-12+066599999V0200701N001010042019N0120001N1+00401+00131103261ADDAA124002091AY161031AY261031GF108991081071004501999999MD1710021+0701MW1601REMSYN082AAXX  10211 57633 41462 80701 10040 20013 40326 57002 76066 887// 333 00758 70020;
0212576330999992000111100004+28820+108770FM-12+066599999V0200201N002010042019N0060001N1+00361+00241103391ADDAA106001091AY171061AY261061GF108991081071004501999999IA2999+00049MA1999999095311MD1210111+0401MW1601REMSYN100AAXX  11001 57633 11456 80202 10036 20024 39531 40339 52011 60011 76076 887// 333 00456 30004 70033;
0140576330999992000111103004+28820+108770FM-12+066599999V0200401N001010042019N0120001N1+00331+00161103491ADDAY171031AY261031GF108991061071004501021999MD1210071+9999MW1601REMSYN066AAXX  11031 57633 41462 80401 10033 20016 40349 52007 76076 8672/;
0207576330999992000111106004+28820+108770FM-12+066599999V0200901N001010120019N0150001N1+00551+00161103031ADDAA106002091AY171061AY261061GF107991061041012501041999KA1999N+00261MA1999999094991MD1710391-0101MW1001REMSYN094AAXX  11061 57633 11665 70901 10055 20016 39499 40303 57039 60021 70076 8644/ 333 05151 20026;
0122576330999992000111109004+28820+108770FM-12+066599999V0200901N002010150019N0150001N1+00541+00151102881ADDGF108991081051017501999999MD1710151+0021REMSYN070AAXX  11091 57633 42765 80902 10054 20015 40288 57015 885// 333 05251;
0154576330999992000111112004+28820+108770FM-12+066599999V0209999C000010150019N0120001N1+00481+00191103171ADDAA199000021GF108991081051017501999999MA1999999095091MD1210251+0011REMSYN076AAXX  11121 57633 32762 80000 10048 20019 39509 40317 52025 885// 333 05151;
0112576330999992000111115004+28820+108770FM-12+066599999V0209999C000019999999N0120001N1+00481+00211103451ADDGF108991081001999999071999MD1210251+9999REMSYN060AAXX  11151 57633 42962 80000 10048 20021 40345 52025 8807/;
0192576330999992000111118004+28820+108770FM-12+066599999V0209999C000019999999N0120001N1+00521+00261103341ADDAA199000091GF108991081001999999071999KA1999M+00601MA1999999095281MD1710061+0101REMSYN082AAXX  11181 57633 32962 80000 10052 20026 39528 40334 57006 8807/ 333 00100 10060;EQDQ01  00002PRCP99
0139576330999992000111121004+28820+108770FM-12+066599999V0209999C000019999999N0120001N1+00531+00291103201ADDAA124003391GF108991081001999999071999MD1710131-0101REMSYN076AAXX  11211 57633 42962 80000 10053 20029 40320 57013 8807/ 333 05101 70033;
0160576330999992000111200004+28820+108770FM-12+066599999V0209999C000019999999N0150001N1+00561+00331103261ADDAA124002091GF108991081001999999071999MA1999999095201MD1210051-0101REMSYN082AAXX  12001 57633 32965 80000 10056 20033 39520 40326 52005 8807/ 333 05102 70020;
0112576330999992000111203004+28820+108770FM-12+066599999V0209999C000010360019N0150001N1+00781+00401103271ADDGF107991021011008001041999MD1210041+9999REMSYN060AAXX  12031 57633 42565 70000 10078 20040 40327 52004 8214/;
0192576330999992000111206004+28820+108770FM-12+066599999V0201801N002010075019N0250001N1+01191+00111102811ADDAA199000091GF106991051011008001041001KA1999N+00431MA1999999094881MD1710361-0101REMSYN082AAXX  12061 57633 32575 61802 10119 20011 39488 40281 57036 85140 333 05106 20043;EQDQ01  00002PRCP99
0122576330999992000111209004+28820+108770FM-12+066599999V0201401N001019999999N0300001N1+00951-00021102761ADDGF107991071001999999041999MD1710081+0001REMSYN070AAXX  12091 57633 42980 71401 10095 21002 40276 57008 8704/ 333 00004;
0173576330999992000111212004+28820+108770FM-12+066599999V0209999C000019999999N0150001N1+00871+00331102771ADDAA199000091GF108991081001999999071999MA1999999094801MD1410001+0031REMSYN076AAXX  12121 57633 32965 80000 10087 20033 39480 40277 54000 8807/ 333 05304;EQDQ01  00002PRCP99
0112576330999992000111215004+28820+108770FM-12+066599999V0209999C000019999999N0120001N1+00841+00391102781ADDGF108991081001999999071999MD1210041+9999REMSYN060AAXX  12151 57633 42962 80000 10084 20039 40278 52004 8807/;
0192576330999992000111218004+28820+108770FM-12+066599999V0209999C000019999999N0120001N1+00801+00421102631ADDAA199000091GF108991081001999999071999KA1999M+01251MA1999999094751MD1710091-0501REMSYN082AAXX  12181 57633 32962 80000 10080 20042 39475 40263 57009 8807/ 333 05503 10125;EQDQ01  00002PRCP99
0122576330999992000111221004+28820+108770FM-12+066599999V0209999C000019999999N0120001N1+00771+00391102491ADDGF108991081001999999071999MD1710171+0061REMSYN070AAXX  12211 57633 42962 80000 10077 20039 40249 57017 8807/ 333 05602;
0178576330999992000111300004+28820+108770FM-12+066599999V0201601N001019999999N0150001N1+00731+00271102581ADDAA106000791GF108991081001999999071999MA1999999094651MD1210071-0601MW1601REMSYN094AAXX  13001 57633 11965 81601 10073 20027 39465 40258 52007 69901 76000 8807/ 333 05602 79999;
0140576330999992000111303004+28820+108770FM-12+066599999V0209999C000010360019N0150001N1+00661+00361102621ADDAY161031AY261031GF108991011071004501021999MD1210021+9999MW1211REMSYN066AAXX  13031 57633 41465 80000 10066 20036 40262 52002 72166 8172/;
0199576330999992000111306004+28820+108770FM-12+066599999V0202201N001010360019N0180001N1+00801+00111102321ADDAA106001091AY161061GF108991021011008001071999KA1999N+00601MA1999999094411MD1710261-0501MW1001REMSYN094AAXX  13061 57633 11568 82201 10080 20011 39441 40232 57026 69991 70060 8217/ 333 05554 20060;
0122576330999992000111309004+28820+108770FM-12+066599999V0201401N001010120019N0170001N1+00771+00291102191ADDGF108991061041012501071999MD1710131+0051REMSYN070AAXX  13091 57633 42667 81401 10077 20029 40219 57013 8647/ 333 05552;
0192576330999992000111318004+28820+108770FM-12+066599999V0200201N002019999999N0150001N1+00711+00301102361ADDAA199000091GF108991081001999999071999KA1999M+00901MA1999999094431MD1710051-0301REMSYN082AAXX  13181 57633 32965 80202 10071 20030 39443 40236 57005 8807/ 333 05351 10090;EQDQ01  00002PRCP99
0139576330999992000111321004+28820+108770FM-12+066599999V0209999C000019999999N0150001N1+00691+00171102371ADDAA124001091GF108991081001999999071999MD1210011-0101REMSYN076AAXX  13211 57633 42965 80000 10069 20017 40237 52001 8807/ 333 05151 70009;
0186576330999992000111400004+28820+108770FM-12+066599999V0200201N001019999999N0150001N1+00671+00111102461ADDAA106000791AY161061GF108991081001999999071999MA1999999094511MD1210071-0101MW1001REMSYN094AAXX  14001 57633 11965 80201 10067 20011 39451 40246 52007 69901 70060 8807/ 333 05151 70009;
0140576330999992000111403004+28820+108770FM-12+066599999V0209999C000010360019N0080001N1+00591+00341102641ADDAY161031AY261031GF108991011071004501071999MD1210151+9999MW1601REMSYN066AAXX  14031 57633 41458 80000 10059 20034 40264 52015 76066 8177/;
0199576330999992000111406004+28820+108770FM-12+066599999V0209999C000010360019N0120001N1+00691+00421102361ADDAA106000191AY161061GF108991021071004501071999KA1999N+00541MA1999999094421MD1710241+0001MW1601REMSYN094AAXX  14061 57633 11462 80000 10069 20042 39442 40236 57024 69921 76060 8277/ 333 00051 20054;
0142576330999992000111409004+28820+108770FM-12+066599999V0209999C000010360019N0150001N1+00701+00501102381ADDAY161031GF108991011071004501071999MD1210021+0021MW1211REMSYN076AAXX  14091 57633 41465 80000 10070 20050 40238 52002 72160 8177/ 333 00251;
0132576330999992000111415004+28820+108770FM-12+066599999V0209999C000019999999N0100001N1+00721+00501102751ADDAY161031GF108991081001999999071999MD1210161+9999MW1601REMSYN066AAXX  14151 57633 41960 80000 10072 20050 40275 52016 76060 8807/;
0199576330999992000111418004+28820+108770FM-12+066599999V0209999C000010360019N0100001N1+00721+00551102721ADDAA106000591AY161061GF108991011071004501021999KA1999M+00791MA1999999094751MD1710021+0301MW1601REMSYN094AAXX  14181 57633 11460 80000 10072 20055 39475 40272 57002 69961 76060 8172/ 333 00300 10079;
0167576330999992000111421004+28820+108770FM-12+066599999V0209999C000010042019N0100001N1+00671+00581102711ADDAA124001091AY161031AY261031GF108991051071004501021999MD1710011+0301MW1601REMSYN082AAXX  14211 57633 41460 80000 10067 20058 40271 57001 76066 8572/ 333 00300 70011;
0194576330999992000111500004+28820+108770FM-12+066599999V0209999C000010042019N0100001N1+00671+00581102851ADDAA106001091AY161061AY261061GF108991071071004501021999MA1999999094871MD1210131+0401MW1601REMSYN094AAXX  15001 57633 11460 80000 10067 20058 39487 40285 52013 60011 76066 8772/ 333 00400 70019;
0140576330999992000111503004+28820+108770FM-12+066599999V0209999C000010042019N0150001N1+00761+00571102951ADDAY161031AY261031GF108991061071004501021999MD1210101+9999MW1211REMSYN066AAXX  15031 57633 41465 80000 10076 20057 40295 52010 72166 8672/;
0199576330999992000111506004+28820+108770FM-12+066599999V0209999C000010042019N0150001N1+00791+00461102801ADDAA106001091AY161061GF108991051071004501021999KA1999N+00621MA1999999094841MD1710131+0401MW1001REMSYN094AAXX  15061 57633 11465 80000 10079 20046 39484 40280 57013 60011 70060 8572/ 333 00401 20062;
0122576330999992000111509004+28820+108770FM-12+066599999V0209999C000010150019N0150001N1+00791+00481102851ADDGF108991081051017501999999MD1210041+0041REMSYN070AAXX  15091 57633 42765 80000 10079 20048 40285 52004 885// 333 00401;
0180576330999992000111512004+28820+108770FM-12+066599999V0209999C000010150019N0120001N1+00761+00571103031ADDAA106000791AY161061GF108991081051017501999999MA1999999095041MD1210161+0041MW1001REMSYN088AAXX  15121 57633 11762 80000 10076 20057 39504 40303 52016 69901 70060 885// 333 00400;
0112576330999992000111515004+28820+108770FM-12+066599999V0209999C000010150019N0120001N1+00751+00561103151ADDGF108991081051017501999999MD1210121+9999REMSYN060AAXX  15151 57633 42762 80000 10075 20056 40315 52012 885//;
0192576330999992000111518004+28820+108770FM-12+066599999V0209999C000010150019N0120001N1+00751+00621103071ADDAA199000091GF108991081051017501999999KA1999M+00861MA1999999095091MD1710071+0301REMSYN082AAXX  15181 57633 32762 80000 10075 20062 39509 40307 57007 885// 333 00300 10086;EQDQ01  00002PRCP99
0139576330999992000111521004+28820+108770FM-12+066599999V0209999C000010150019N0120001N1+00741+00591102981ADDAA124002091GF108991081051017501999999MD1710081+0301REMSYN076AAXX  15211 57633 42762 80000 10074 20059 40298 57008 885// 333 00301 70021;
0160576330999992000111600004+28820+108770FM-12+066599999V0201101N001010150019N0120001N1+00751+00601103071ADDAA124001391GF108991081051017501999999MA1999999095091MD1210081+0201REMSYN082AAXX  16001 57633 32762 81101 10075 20060 39509 40307 52008 885// 333 00201 70013;
0112576330999992000111603004+28820+108770FM-12+066599999V0209999C000010150019N0150001N1+00951+00681103121ADDGF108991081051017501999999MD1210071+9999REMSYN060AAXX  16031 57633 42765 80000 10095 20068 40312 52007 885//;
0192576330999992000111606004+28820+108770FM-12+066599999V0203601N002010120019N0150001N1+00961+00561102931ADDAA199000091GF108991081041012501999999KA1999N+00691MA1999999094991MD1710171+0201REMSYN082AAXX  16061 57633 32665 83602 10096 20056 39499 40293 57017 884// 333 00202 20069;EQDQ01  00002PRCP99
0122576330999992000111609004+28820+108770FM-12+066599999V0201801N001010120019N0150001N1+00861+00561102981ADDGF108991081041012501999999MD1210031+0011REMSYN070AAXX  16091 57633 42665 81801 10086 20056 40298 52003 884// 333 00101;
0173576330999992000111612004+28820+108770FM-12+066599999V0209999C000010150019N0150001N1+00811+00601103191ADDAA199000091GF108991081051017501999999MA1999999095211MD1210191+0021REMSYN076AAXX  16121 57633 32765 80000 10081 20060 39521 40319 52019 885// 333 00201;EQDQ01  00002PRCP99
0112576330999992000111615004+28820+108770FM-12+066599999V0200701N003010150019N0150001N1+00661+00391103331ADDGF108991081051017501999999MD1210131+9999REMSYN060AAXX  16151 57633 42765 80703 10066 20039 40333 52013 885//;
0192576330999992000111618004+28820+108770FM-12+066599999V0200201N001010150019N0120001N1+00651+00351103321ADDAA199000091GF108991081051017501999999KA1999M+01001MA1999999095331MD1710011+0201REMSYN082AAXX  16181 57633 32762 80201 10065 20035 39533 40332 57001 885// 333 00251 10100;EQDQ01  00002PRCP99
0122576330999992000111621004+28820+108770FM-12+066599999V0209999C000010150019N0120001N1+00651+00351103231ADDGF108991081051017501999999MD1710091+0021REMSYN070AAXX  16211 57633 42762 80000 10065 20035 40323 57009 885// 333 00251;
0201576330999992000111700004+28820+108770FM-12+066599999V0209999C000012200019N0250001N1+00441+00321103221ADDAA199000091GA1001+999999999GF100991001001999999001001IA2999+00209MA1999999095191MD1710051+0101REMSYN076AAXX  17001 57633 32975 00000 10044 20032 39519 40322 57005 333 00153 30025;EQDQ01  00002PRCP99
0112576330999992000111703004+28820+108770FM-12+066599999V0200201N002012200019N0170001N1+00951+00521103051ADDGF101991011011008001001001MD1710111+9999REMSYN060AAXX  17031 57633 42567 10202 10095 20052 40305 57011 81100;
0192576330999992000111706004+28820+108770FM-12+066599999V0203601N003012200019N0200001N1+00971+00501102721ADDAA199000091GF101991011011008001001001KA1999N+00421MA1999999094781MD1710301-0201REMSYN082AAXX  17061 57633 32570 13603 10097 20050 39478 40272 57030 81100 333 05200 20042;EQDQ01  00002PRCP99
0122576330999992000111709004+28820+108770FM-12+066599999V0201601N001012200019N0300001N1+01061+00251102591ADDGF101991011011008001001001MD1710111+0041REMSYN070AAXX  17091 57633 42580 11601 10106 20025 40259 57011 81100 333 05402;
0183576330999992000111712004+28820+108770FM-12+066599999V0203401N001012200019N0150001N1+00771+00391102791ADDAA199000091GA1001+999999999GF100991001001999999001001MA1999999094791MD1210121+0041REMSYN070AAXX  17121 57633 32965 03401 10077 20039 39479 40279 52012 333 05400;EQDQ01  00002PRCP99
0112576330999992000111715004+28820+108770FM-12+066599999V0209999C000010150019N0120001N1+00791+00481102791ADDGF107991071051017501999999MD1210071+9999REMSYN060AAXX  17151 57633 42762 70000 10079 20048 40279 52007 875//;
0192576330999992000111718004+28820+108770FM-12+066599999V0209999C000010150019N0120001N1+00731+00391102731ADDAA199000091GF108991081051017501999999KA1999M+01161MA1999999094801MD1710061-0501REMSYN082AAXX  17181 57633 32762 80000 10073 20039 39480 40273 57006 885// 333 05501 10116;EQDQ01  00002PRCP99
0122576330999992000111721004+28820+108770FM-12+066599999V0203601N001010150019N0120001N1+00731+00081102491ADDGF108991081051017501999999MD1710211+0071REMSYN070AAXX  17211 57633 42762 83601 10073 20008 40249 57021 885// 333 05701;
0191576330999992000111800004+28820+108770FM-12+066599999V0200701N001010150019N0180001N1+00671+00001102551ADDAA199000091GF108991081051017501999999IA2999+00409MA1999999094601MD1210011-0601REMSYN082AAXX  18001 57633 32768 80701 10067 20000 39460 40255 52001 885// 333 05602 30040;EQDQ01  00002PRCP99
0112576330999992000111803004+28820+108770FM-12+066599999V0203601N002019999999N0150001N1+00681+00011102561ADDGF108991081001999999071999MD1210011+9999REMSYN060AAXX  18031 57633 42965 83602 10068 20001 40256 52001 8807/;
0192576330999992000111806004+28820+108770FM-12+066599999V0200201N002010360019N0150001N1+00751+00161102181ADDAA199000091GF108991021011008001071999KA1999N+00631MA1999999094261MD1710351-0501REMSYN082AAXX  18061 57633 32565 80202 10075 20016 39426 40218 57035 8217/ 333 05552 20063;EQDQ01  00002PRCP99
0122576330999992000111809004+28820+108770FM-12+066599999V0200201N002010075019N0150001N1+00711+00191102111ADDGF108991051011008001071999MD1710071+0051REMSYN070AAXX  18091 57633 42565 80202 10071 20019 40211 57007 8517/ 333 05554;
0180576330999992000111812004+28820+108770FM-12+066599999V0209999C000010042019N0100001N1+00571+00391102301ADDAA106000791AY161061GF108991081051004501999999MA1999999094341MD1210151+0051MW1601REMSYN088AAXX  18121 57633 11460 80000 10057 20039 39434 40230 52015 69901 76060 885// 333 05552;
0140576330999992000111815004+28820+108770FM-12+066599999V0203601N001010042019N0070001N1+00581+00421102361ADDAY161031AY261031GF108991081071004501999999MD1210061+9999MW1601REMSYN066AAXX  18151 57633 41457 83601 10058 20042 40236 52006 76066 887//;
0207576330999992000111818004+28820+108770FM-12+066599999V0203401N001010042019N0100001N1+00611+00431102321ADDAA106005191AY161061AY261061GF108991081071004501999999KA1999M+00811MA1999999094381MD1710021-0401MW1601REMSYN094AAXX  18181 57633 11460 83401 10061 20043 39438 40232 57002 60051 76066 887// 333 05451 10081;
0167576330999992000111821004+28820+108770FM-12+066599999V0209999C000010042019N0090001N1+00571+00481102401ADDAA124005891AY161031AY261031GF108991081071004501999999MD1210061-0201MW1601REMSYN082AAXX  18211 57633 41459 80000 10057 20048 40240 52006 76066 887// 333 05252 70058;
0194576330999992000111900004+28820+108770FM-12+066599999V0209999C000010042019N0150001N1+00621+00461102641ADDAA106002091AY161061AY261061GF108991081071004501999999MA1999999094651MD1210211+0101MW1601REMSYN094AAXX  19001 57633 11465 80000 10062 20046 39465 40264 52021 60021 76066 887// 333 00151 70072;
0140576330999992000111903004+28820+108770FM-12+066599999V0209999C000010042019N0150001N1+00641+00511102901ADDAY161031AY261031GF108991081071004501999999MD1210241+9999MW1601REMSYN066AAXX  19031 57633 41465 80000 10064 20051 40290 52024 76066 887//;
0199576330999992000111906004+28820+108770FM-12+066599999V0209999C000010042019N0150001N1+00661+00461102821ADDAA106000191AY161061GF108991081071004501999999KA1999N+00561MA1999999094831MD1710061+0601MW1601REMSYN094AAXX  19061 57633 11465 80000 10066 20046 39483 40282 57006 69911 76060 887// 333 00651 20056;
0150576330999992000111909004+28820+108770FM-12+066599999V0209999C000010042019N0150001N1+00651+00471103031ADDAY161031AY261031GF108991081071004501999999MD1210181+0081MW1601REMSYN076AAXX  19091 57633 41465 80000 10065 20047 40303 52018 76066 887// 333 00851;
0188576330999992000111912004+28820+108770FM-12+066599999V0209999C000010042019N0120001N1+00621+00491103261ADDAA106002091AY161061AY261061GF108991061071004501021999MA1999999095231MD1210221+0091MW1601REMSYN088AAXX  19121 57633 11462 80000 10062 20049 39523 40326 52022 60021 76066 8672/ 333 00901;
0140576330999992000111915004+28820+108770FM-12+066599999V0209999C000010042019N0100001N1+00621+00491103551ADDAY161031AY261031GF108991071071004501021999MD1210271+9999MW1601REMSYN066AAXX  19151 57633 41460 80000 10062 20049 40355 52027 76066 8772/;
0207576330999992000111918004+28820+108770FM-12+066599999V0209999C000010042019N0090001N1+00591+00451103591ADDAA106002091AY161061AY261061GF108991051071004501021999KA1999M+00721MA1999999095531MD1210031+1201MW1211REMSYN094AAXX  19181 57633 11459 80000 10059 20045 39553 40359 52003 60021 72166 8572/ 333 01200 10072;
0139576330999992000111921004+28820+108770FM-12+066599999V0209999C000012200019N0120001N1+00451+00331103451ADDAA124004891GF102991021001999999041001MD1710151+0901REMSYN076AAXX  19211 57633 42962 20000 10045 20033 40345 57015 82040 333 00951 70048;
0178576330999992000112000004+28820+108770FM-12+066599999V0209999C000012200019N0150001N1+00281+00181103641ADDAA124003391GF102991021061002501001001IA2999+00069MA1999999095531MD1210151+0901REMSYN088AAXX  20001 57633 32365 20000 10028 20018 39553 40364 52015 82600 333 00953 30006 70034;
0112576330999992000112003004+28820+108770FM-12+066599999V0209999C000012200019N0300001N1+00971+00241103491ADDGF101991011011008001001001MD1710041+9999REMSYN060AAXX  20031 57633 42580 10000 10097 20024 40349 57004 81100;
0173576330999992000112006004+28820+108770FM-12+066599999V0201601N003012200019N0300001N1+01191+00341103041ADDAA199000021GF102991021011008001001001KA1999N+00251MA1999999095101MD1710391+0301REMSYN082AAXX  20061 57633 32580 21603 10119 20034 39510 40304 57039 82100 333 00305 20025;
0122576330999992000112009004+28820+108770FM-12+066599999V0209999C000010360019N0300001N1+01201+00241102841ADDGF107991011011008001041999MD1710201+0011REMSYN070AAXX  20091 57633 42580 70000 10120 20024 40284 57020 8114/ 333 05106;
0183576330999992000112012004+28820+108770FM-12+066599999V0209999C000012200019N0300001N1+00601+00321103081ADDAA199000091GA1001+999999999GF100991001001999999001001MA1999999095011MD1210111+0021REMSYN070AAXX  20121 57633 32980 00000 10060 20032 39501 40308 52011 333 05200;EQDQ01  00002PRCP99
0122576330999992000112015004+28820+108770FM-12+066599999V0209999C000012200019N0120001N1+00381+00231103011ADDGA1001+999999999GF100991001001999999001001MD1410001+9999REMSYN054AAXX  20151 57633 42962 00000 10038 20023 40301 54000;
0202576330999992000112018004+28820+108770FM-12+066599999V0209999C000012200019N0120001N1+00221+00121102951ADDAA199000091GA1001+999999999GF100991001001999999001001KA1999M+01341MA1999999094961MD1710051-0601REMSYN076AAXX  20181 57633 32962 00000 10022 20012 39496 40295 57005 333 05654 10134;EQDQ01  00002PRCP99
0144576330999992000112021004+28820+108770FM-12+066599999V0209999C000012200019N0090001N1+00161+00061102841ADDGA1001+999999999GF100991001001999999001001MD1710101+0051MW1101REMSYN070AAXX  20211 57633 41959 00000 10016 20006 40284 57010 71000 333 05553;
0191576330999992000112100004+28820+108770FM-12+066599999V0209999C000012200019N0100001N1+00071+00041103051ADDAA199000091GF104991031001999999041021IA2999-00109MA1999999094951MD1210091-0601REMSYN082AAXX  21001 57633 32960 40000 10007 20004 39495 40305 52009 83042 333 05652 31018;EQDQ01  00002PRCP99
0112576330999992000112103004+28820+108770FM-12+066599999V0209999C000012200019N0250001N1+00971+00211102911ADDGF102991021001999999041001MD1710031+9999REMSYN060AAXX  21031 57633 42975 20000 10097 20021 40291 57003 82040;
0202576330999992000112106004+28820+108770FM-12+066599999V0201401N002012200019N0300001N1+01441-00151102481ADDAA199000091GA1001+999999999GF100991001001999999001001KA1999N+00061MA1999999094561MD1710361-0501REMSYN076AAXX  21061 57633 32980 01402 10144 21015 39456 40248 57036 333 05503 20006;EQDQ01  00002PRCP99
0132576330999992000112109004+28820+108770FM-12+066599999V0209999C000012200019N0300001N1+01491-00031102371ADDGA1001+999999999GF100991001001999999001001MD1710101+0041REMSYN064AAXX  21091 57633 42980 00000 10149 21003 40237 57010 333 05403;
0183576330999992000112112004+28820+108770FM-12+066599999V0209999C000012200019N0150001N1+00691+00271102731ADDAA199000091GA1001+999999999GF100991001001999999001001MA1999999094671MD1210211+0031REMSYN070AAXX  21121 57633 32965 00000 10069 20027 39467 40273 52021 333 05301;EQDQ01  00002PRCP99
0122576330999992000112115004+28820+108770FM-12+066599999V0209999C000012200019N0120001N1+00411+00241102731ADDGA1001+999999999GF100991001001999999001001MD1210091+9999REMSYN054AAXX  21151 57633 42962 00000 10041 20024 40273 52009;
0202576330999992000112118004+28820+108770FM-12+066599999V0209999C000012200019N0100001N1+00261+00131102701ADDAA199000091GA1001+999999999GF100991001001999999001001KA1999M+01621MA1999999094771MD1210011-0201REMSYN076AAXX  21181 57633 32960 00000 10026 20013 39477 40270 52001 333 05200 10162;EQDQ01  00002PRCP99
0144576330999992000112121004+28820+108770FM-12+066599999V0209999C000012200019N0080001N1+00151+00071102611ADDGA1001+999999999GF100991001001999999001001MD1710091+0021MW1101REMSYN070AAXX  21211 57633 41958 00000 10015 20007 40261 57009 71000 333 05200;
0191576330999992000112200004+28820+108770FM-12+066599999V0209999C000012200019N0100001N1+00091+00041102801ADDAA199000091GF101991011041008001001001IA2999-00109MA1999999094741MD1210061-0201REMSYN082AAXX  22001 57633 32560 10000 10009 20004 39474 40280 52006 81400 333 05200 31018;EQDQ01  00002PRCP99
0122576330999992000112203004+28820+108770FM-12+066599999V0209999C000012200019N0200001N1+01071+00421102691ADDGA1001+999999999GF100991001001999999001001MD1710011+9999REMSYN054AAXX  22031 57633 42970 00000 10107 20042 40269 57001;
0202576330999992000112206004+28820+108770FM-12+066599999V0201401N002012200019N0300001N1+01631+00081102251ADDAA199000091GA1001+999999999GF100991001001999999001001KA1999N+00071MA1999999094381MD1710351-0201REMSYN076AAXX  22061 57633 32980 01402 10163 20008 39438 40225 57035 333 05202 20007;EQDQ01  00002PRCP99
0132576330999992000112209004+28820+108770FM-12+066599999V0200701N001012200019N0300001N1+01481+00301102151ADDGA1001+999999999GF100991001001999999001001MD1710121+0021REMSYN064AAXX  22091 57633 42980 00701 10148 20030 40215 57012 333 05200;
0183576330999992000112212004+28820+108770FM-12+066599999V0202501N001012200019N0150001N1+00881+00391102501ADDAA199000091GA1001+999999999GF100991001001999999001001MA1999999094491MD1210231+0021REMSYN070AAXX  22121 57633 32965 02501 10088 20039 39449 40250 52023 333 05202;EQDQ01  00002PRCP99
0112576330999992000112215004+28820+108770FM-12+066599999V0209999C000019999999N0120001N1+00651+00471102521ADDGF108991081001999999071999MD1210121+9999REMSYN060AAXX  22151 57633 42962 80000 10065 20047 40252 52012 8807/;
0204576330999992000112218004+28820+108770FM-12+066599999V0209999C000019999999N0080001N1+00691+00491102421ADDAA199000091GF107991071001999999041999KA1999M+01741MA1999999094601MD1710011-0201MW1101REMSYN088AAXX  22181 57633 31958 70000 10069 20049 39460 40242 57001 71000 8704/ 333 05204 10174;EQDQ01  00002PRCP99
0134576330999992000112221004+28820+108770FM-12+066599999V0209999C000019999999N0080001N1+00711+00561102361ADDGF108991081001999999071999MD1710081+0021MW1101REMSYN076AAXX  22211 57633 41958 80000 10071 20056 40236 57008 71000 8807/ 333 05206;
0191576330999992000112300004+28820+108770FM-12+066599999V0209999C000010150019N0120001N1+00761+00591102481ADDAA199000091GF108991081051017501999999IA2999+00309MA1999999094561MD1210041-0201REMSYN082AAXX  23001 57633 32762 80000 10076 20059 39456 40248 52004 885// 333 05207 30035;EQDQ01  00002PRCP99
0112576330999992000112303004+28820+108770FM-12+066599999V0209999C000019999999N0120001N1+01161+00631102511ADDGF108991081001999999071999MD1210051+9999REMSYN060AAXX  23031 57633 42962 80000 10116 20063 40251 52005 8807/;
0192576330999992000112306004+28820+108770FM-12+066599999V0201401N002019999999N0250001N1+01601+00221101991ADDAA199000091GF107991071001999999031999KA1999N+00621MA1999999094201MD1710411-0201REMSYN082AAXX  23061 57633 32975 71402 10160 20022 39420 40199 57041 8703/ 333 05200 20062;EQDQ01  00002PRCP99
0122576330999992000112309004+28820+108770FM-12+066599999V0201401N003012200019N0200001N1+01571+00461101921ADDGF102991021001999999041001MD1710071+0011REMSYN070AAXX  23091 57633 42970 21403 10157 20046 40192 57007 82040 333 05101;
0173576330999992000112312004+28820+108770FM-12+066599999V0203601N001019999999N0150001N1+01221+00411102151ADDAA199000091GF108991081001999999071999MA1999999094301MD1210171+0021REMSYN076AAXX  23121 57633 32965 83601 10122 20041 39430 40215 52017 8807/ 333 05203;EQDQ01  00002PRCP99
0112576330999992000112315004+28820+108770FM-12+066599999V0209999C000019999999N0120001N1+00991+00571102231ADDGF105991051001999999041001MD1210101+9999REMSYN060AAXX  23151 57633 42962 50000 10099 20057 40223 52010 85040;
0192576330999992000112318004+28820+108770FM-12+066599999V0209999C000019999999N0120001N1+00921+00611102111ADDAA199000091GF108991081001999999071999KA1999M+01731MA1999999094341MD1710061-0301REMSYN082AAXX  23181 57633 32962 80000 10092 20061 39434 40211 57006 8807/ 333 05302 10173;EQDQ01  00002PRCP99
0122576330999992000112321004+28820+108770FM-12+066599999V0209999C000019999999N0100001N1+00901+00631102031ADDGF108991081001999999071999MD1710081+0031REMSYN070AAXX  23211 57633 42960 80000 10090 20063 40203 57008 8807/ 333 05302;
0173576330999992000112400004+28820+108770FM-12+066599999V0209999C000019999999N0100001N1+00941+00671102151ADDAA199000091GF108991081001999999071999MA1999999094331MD1210071+0021REMSYN076AAXX  24001 57633 32960 80000 10094 20067 39433 40215 52007 8807/ 333 05202;EQDQ01  00002PRCP99
0112576330999992000112403004+28820+108770FM-12+066599999V0209999C000019999999N0170001N1+01271+00571102141ADDGF107991071001999999031999MD1410001+9999REMSYN060AAXX  24031 57633 42967 70000 10127 20057 40214 54000 8703/;
0192576330999992000112406004+28820+108770FM-12+066599999V0201801N002019999999N0180001N1+01581+00551101741ADDAA199000091GF108991081001999999071999KA1999N+00861MA1999999093991MD1710341-0201REMSYN082AAXX  24061 57633 32968 81802 10158 20055 39399 40174 57034 8807/ 333 05200 20086;EQDQ01  00002PRCP99
0122576330999992000112409004+28820+108770FM-12+066599999V0201401N002019999999N0150001N1+01471+00631101681ADDGF107991071001999999041999MD1710071+0021REMSYN070AAXX  24091 57633 42965 71402 10147 20063 40168 57007 8704/ 333 05251;
0173576330999992000112412004+28820+108770FM-12+066599999V0209999C000019999999N0120001N1+01291+00801101871ADDAA199000091GF108991081001999999071999MA1999999094081MD1210161+0021REMSYN076AAXX  24121 57633 32962 80000 10129 20080 39408 40187 52016 8807/ 333 05201;EQDQ01  00002PRCP99
0112576330999992000112415004+28820+108770FM-12+066599999V0209999C000019999999N0100001N1+01171+00861101981ADDGF108991081001999999071999MD1210131+9999REMSYN060AAXX  24151 57633 42960 80000 10117 20086 40198 52013 8807/;
0204576330999992000112418004+28820+108770FM-12+066599999V0209999C000019999999N0090001N1+01111+00861101911ADDAA199000091GF108991081001999999071999KA1999M+01681MA1999999094171MD1710041-0201MW1101REMSYN088AAXX  24181 57633 31959 80000 10111 20086 39417 40191 57004 71000 8807/ 333 05202 10168;EQDQ01  00002PRCP99
0159576330999992000112421004+28820+108770FM-12+066599999V0209999C000019999999N0080001N1+01091+00901101861ADDAA124000791AY161031GF108991081001999999071999MD1710061-0201MW1211REMSYN082AAXX  24211 57633 41958 80000 10109 20090 40186 57006 72160 8807/ 333 05202 79999;
0186576330999992000112500004+28820+108770FM-12+066599999V0209999C000010042019N0100001N1+01061+00861101991ADDAA106000191AY161061GF108991081051004501999999MA1999999094201MD1210091-0101MW1601REMSYN094AAXX  25001 57633 11460 80000 10106 20086 39420 40199 52009 69911 76060 885// 333 05101 70001;
0140576330999992000112503004+28820+108770FM-12+066599999V0209999C000010042019N0100001N1+01101+00971102061ADDAY161031AY261031GF108991081071004501999999MD1210061+9999MW1211REMSYN066AAXX  25031 57633 41460 80000 10110 20097 40206 52006 72166 887//;
0199576330999992000112506004+28820+108770FM-12+066599999V0209999C000010120019N0150001N1+01381+01011101701ADDAA106004191AY161061GF108991081081008001999999KA1999N+01031MA1999999093951MD1710311+0001MW1001REMSYN094AAXX  25061 57633 11565 80000 10138 20101 39395 40170 57031 60041 70060 888// 333 00052 20103;
0122576330999992000112509004+28820+108770FM-12+066599999V0209999C000010150019N0150001N1+01371+01061101671ADDGF108991081051017501999999MD1710031+0001REMSYN070AAXX  25091 57633 42765 80000 10137 20106 40167 57003 885// 333 00051;
0154576330999992000112512004+28820+108770FM-12+066599999V0209999C000010150019N0120001N1+01271+01071101891ADDAA199000021GF108991081051017501999999MA1999999094111MD1210191+0001REMSYN076AAXX  25121 57633 32762 80000 10127 20107 39411 40189 52019 885// 333 00000;
0112576330999992000112515004+28820+108770FM-12+066599999V0209999C000010150019N0100001N1+01061+00981102091ADDGF106991061051017501001001MD1210161+9999REMSYN060AAXX  25151 57633 42760 60000 10106 20098 40209 52016 86500;
0204576330999992000112518004+28820+108770FM-12+066599999V0209999C000010150019N0070001N1+01101+01011102101ADDAA199000091GF108991081051017501999999KA1999M+01451MA1999999094321MD1210051+0201MW1101REMSYN088AAXX  25181 57633 31757 80000 10110 20101 39432 40210 52005 71000 885// 333 00200 10145;EQDQ01  00002PRCP99
0151576330999992000112521004+28820+108770FM-12+066599999V0201101N001010042019N0060001N1+01121+01031102071ADDAA124004691GF108991081051004501999999MD1710021+0201MW1601REMSYN082AAXX  25211 57633 41456 81101 10112 20103 40207 57002 76000 885// 333 00200 70045;
0186576330999992000112600004+28820+108770FM-12+066599999V0209999C000010042019N0070001N1+01101+01061102351ADDAA106005191AY161061GF108991081071004501999999MA1999999094541MD1210241+0301MW1601REMSYN094AAXX  26001 57633 11457 80000 10110 20106 39454 40235 52024 60051 76060 887// 333 00300 70088;
0140576330999992000112603004+28820+108770FM-12+066599999V0209999C000010042019N0080001N1+01121+01041102631ADDAY161031AY261031GF108991081071004501999999MD1210231+9999MW1601REMSYN066AAXX  26031 57633 41458 80000 10112 20104 40263 52023 76066 887//;
0199576330999992000112606004+28820+108770FM-12+066599999V0200901N002010042019N0120001N1+01101+00781102451ADDAA106003091AY161061GF108991081071004501999999KA1999N+01041MA1999999094611MD1710161+0701MW1001REMSYN094AAXX  26061 57633 11462 80902 10110 20078 39461 40245 57016 60031 70060 887// 333 00753 20104;
0134576330999992000112609004+28820+108770FM-12+066599999V0203601N002010042019N0100001N1+00981+00741102491ADDGF108991081071004501999999MD1210021+0071MW1601REMSYN076AAXX  26091 57633 41460 83602 10098 20074 40249 52002 76000 887// 333 00754;
0180576330999992000112612004+28820+108770FM-12+066599999V0209999C000010042019N0100001N1+00931+00661102621ADDAA106000791AY161061GF108991081071004501999999MA1999999094741MD1210111+0061MW1001REMSYN088AAXX  26121 57633 11460 80000 10093 20066 39474 40262 52011 69901 70060 887// 333 00653;
0124576330999992000112615004+28820+108770FM-12+066599999V0209999C000010150019N0060001N1+00931+00591102721ADDGF108991081051017501999999MD1210101+9999MW1101REMSYN066AAXX  26151 57633 41756 80000 10093 20059 40272 52010 71000 885//;
0199576330999992000112618004+28820+108770FM-12+066599999V0209999C000010042019N0050001N1+00801+00701102711ADDAA106001091AY161061GF108991081051004501999999KA1999M+01171MA1999999094811MD1710031+0501MW1601REMSYN094AAXX  26181 57633 11450 80000 10080 20070 39481 40271 57003 60011 76060 885// 333 00553 10117;
0159576330999992000112621004+28820+108770FM-12+066599999V0203601N001010042019N0060001N1+00811+00621102711ADDAA124008691AY161031GF108991081071004501999999MD1710021+0501MW1211REMSYN082AAXX  26211 57633 41456 83601 10081 20062 40271 57002 72160 887// 333 00553 70087;
0186576330999992000112700004+28820+108770FM-12+066599999V0203601N001010042019N0070001N1+00801+00591102791ADDAA106000591AY161061GF108991081051004501999999MA1999999094861MD1210071+0301MW1101REMSYN094AAXX  27001 57633 11457 83601 10080 20059 39486 40279 52007 69951 71060 885// 333 00353 70043;
0132576330999992000112703004+28820+108770FM-12+066599999V0200201N001010042019N0080001N1+00791+00551102901ADDAY161031GF108991081051004501999999MD1210101+9999MW1211REMSYN066AAXX  27031 57633 41458 80201 10079 20055 40290 52010 72160 885//;
0199576330999992000112706004+28820+108770FM-12+066599999V0209999C000010042019N0150001N1+00831+00481102651ADDAA106000791AY161061GF108991081051004501999999KA1999N+00771MA1999999094721MD1710241+0101MW1001REMSYN094AAXX  27061 57633 11465 80000 10083 20048 39472 40265 57024 69901 70060 885// 333 00153 20077;
0122576330999992000112709004+28820+108770FM-12+066599999V0209999C000010150019N0120001N1+00881+00541102601ADDGF108991081051017501999999MD1710041+0011REMSYN070AAXX  27091 57633 42762 80000 10088 20054 40260 57004 885// 333 00151;
0154576330999992000112712004+28820+108770FM-12+066599999V0209999C000010150019N0100001N1+00861+00491102741ADDAA199000021GF108991081051017501999999MA1999999094801MD1210121+0011REMSYN076AAXX  27121 57633 32760 80000 10086 20049 39480 40274 52012 885// 333 00151;
0112576330999992000112715004+28820+108770FM-12+066599999V0209999C000010150019N0100001N1+00851+00551102791ADDGF108991081051017501999999MD1210051+9999REMSYN060AAXX  27151 57633 42760 80000 10085 20055 40279 52005 885//;
0199576330999992000112718004+28820+108770FM-12+066599999V0209999C000010042019N0070001N1+00771+00621102701ADDAA106000391AY161061GF108991081051004501999999KA1999M+00931MA1999999094761MD1710091-0101MW1601REMSYN094AAXX  27181 57633 11457 80000 10077 20062 39476 40270 57009 69931 76060 885// 333 05100 10093;
0159576330999992000112721004+28820+108770FM-12+066599999V0209999C000010042019N0070001N1+00781+00571102551ADDAA124000391AY161031GF108991081051004501999999MD1710131-0201MW1101REMSYN082AAXX  27211 57633 41457 80000 10078 20057 40255 57013 71060 885// 333 05200 70003;
0186576330999992000112800004+28820+108770FM-12+066599999V0203601N001010042019N0070001N1+00771+00581102571ADDAA106000791AY161061GF108991081071004501999999MA1999999094641MD1210011-0201MW1601REMSYN094AAXX  28001 57633 11457 83601 10077 20058 39464 40257 52001 69901 76060 887// 333 05200 70003;
0132576330999992000112803004+28820+108770FM-12+066599999V0203401N001010042019N0100001N1+00811+00551102631ADDAY161031GF108991081071004501999999MD1210061+9999MW1001REMSYN066AAXX  28031 57633 41460 83401 10081 20055 40263 52006 70060 887//;
0199576330999992000112806004+28820+108770FM-12+066599999V0209999C000010042019N0100001N1+00761+00541102321ADDAA106000791AY161061GF108991081071004501999999KA1999N+00751MA1999999094401MD1710301-0301MW1601REMSYN094AAXX  28061 57633 11460 80000 10076 20054 39440 40232 57030 69901 76060 887// 333 05351 20075;
0142576330999992000112809004+28820+108770FM-12+066599999V0203601N001010042019N0120001N1+00771+00511102231ADDAY161031GF108991081071004501999999MD1710081+0041MW1001REMSYN076AAXX  28091 57633 41462 83601 10077 20051 40223 57008 70060 887// 333 05451;
0180576330999992000112812004+28820+108770FM-12+066599999V0200201N001010042019N0120001N1+00751+00561102321ADDAA106000791AY161061GF108991081071004501999999MA1999999094401MD1210081+0041MW1211REMSYN088AAXX  28121 57633 11462 80201 10075 20056 39440 40232 52008 69901 72160 887// 333 05451;
0132576330999992000112815004+28820+108770FM-12+066599999V0203601N001010042019N0120001N1+00721+00591102411ADDAY161031GF108991081071004501999999MD1210081+9999MW1601REMSYN066AAXX  28151 57633 41462 83601 10072 20059 40241 52008 76060 887//;
0199576330999992000112818004+28820+108770FM-12+066599999V0209999C000010042019N0120001N1+00741+00591102381ADDAA106000891AY161061GF108991081071004501999999KA1999M+00851MA1999999094451MD1710031-0301MW1211REMSYN094AAXX  28181 57633 11462 80000 10074 20059 39445 40238 57003 69971 72160 887// 333 05300 10085;
0159576330999992000112821004+28820+108770FM-12+066599999V0209999C000010042019N0100001N1+00721+00611102371ADDAA124000891AY161031GF108991081071004501999999MD1710011-0201MW1001REMSYN082AAXX  28211 57633 41460 80000 10072 20061 40237 57001 70060 887// 333 05251 70007;
0186576330999992000112900004+28820+108770FM-12+066599999V0200401N001010042019N0120001N1+00731+00601102391ADDAA106000791AY161061GF108991081071004501999999MA1999999094461MD1210021-0201MW1001REMSYN094AAXX  29001 57633 11462 80401 10073 20060 39446 40239 52002 69901 70060 887// 333 05200 70007;
0191576330999992000112906004+28820+108770FM-12+066599999V0203601N001010042019N0150001N1+00871+00621102181ADDAA106000791GF108991081071004501999999KA1999N+00691MA1999999094281MD1710281-0101MW1601REMSYN094AAXX  29061 57633 11465 83601 10087 20062 39428 40218 57028 69901 76000 887// 333 05101 20069;
0150576330999992000112909004+28820+108770FM-12+066599999V0209999C000010042019N0120001N1+00821+00651102031ADDAY161031AY261031GF108991081071004501999999MD1710151+0021MW1601REMSYN076AAXX  29091 57633 41462 80000 10082 20065 40203 57015 76066 887// 333 05201;
0188576330999992000112912004+28820+108770FM-12+066599999V0209999C000010042019N0120001N1+00761+00681102211ADDAA106004191AY161061AY261061GF108991081071004501999999MA1999999094291MD1210161+0011MW1601REMSYN088AAXX  29121 57633 11462 80000 10076 20068 39429 40221 52016 60041 76066 887// 333 05100;
0140576330999992000112915004+28820+108770FM-12+066599999V0209999C000010042019N0090001N1+00741+00661102301ADDAY161031AY261031GF108991071071004501021999MD1210101+9999MW1601REMSYN066AAXX  29151 57633 41459 80000 10074 20066 40230 52010 76066 8772/;
0207576330999992000112918004+28820+108770FM-12+066599999V0209999C000010042019N0070001N1+00741+00661102311ADDAA106005191AY161061AY261061GF108991061071004501021999KA1999M+00931MA1999999094401MD1210011-0101MW1601REMSYN094AAXX  29181 57633 11457 80000 10074 20066 39440 40231 52001 60051 76066 8672/ 333 05100 10093;
0167576330999992000112921004+28820+108770FM-12+066599999V0209999C000010360019N0150001N1+00751+00671102341ADDAA124009491AY161031AY261031GF108991031071004501021999MD1210021+0001MW1211REMSYN082AAXX  29211 57633 41465 80000 10075 20067 40234 52002 72166 8372/ 333 00000 70095;
0186576330999992000113000004+28820+108770FM-12+066599999V0209999C000010360019N0150001N1+00761+00651102461ADDAA106000191AY161061GF108991011061002501071999MA1999999094531MD1210111+0101MW1001REMSYN094AAXX  30001 57633 11365 80000 10076 20065 39453 40246 52011 69921 70060 8167/ 333 00100 70095;
0112576330999992000113003004+28820+108770FM-12+066599999V0209999C000010075019N0150001N1+00871+00661102481ADDGF108991051041008001071999MD1210031+9999REMSYN060AAXX  30031 57633 42565 80000 10087 20066 40248 52003 8547/;
0173576330999992000113006004+28820+108770FM-12+066599999V0200701N002010075019N0150001N1+00971+00681102201ADDAA199000021GF108991081051008001999999KA1999N+00731MA1999999094311MD1710251+0001REMSYN082AAXX  30061 57633 32565 80702 10097 20068 39431 40220 57025 885// 333 00001 20073;
0122576330999992000113009004+28820+108770FM-12+066599999V0209999C000010075019N0150001N1+00901+00611102221ADDGF108991081051008001999999MD1210011+0021REMSYN070AAXX  30091 57633 42565 80000 10090 20061 40222 52001 885// 333 00201;
0180576330999992000113012004+28820+108770FM-12+066599999V0209999C000010150019N0120001N1+00821+00591102361ADDAA106000791AY161061GF108991081051017501999999MA1999999094441MD1210121+0021MW1001REMSYN088AAXX  30121 57633 11762 80000 10082 20059 39444 40236 52012 69901 70060 885// 333 00201;
0112576330999992000113015004+28820+108770FM-12+066599999V0200701N002010150019N0120001N1+00761+00541102471ADDGF108991081051017501999999MD1210111+9999REMSYN060AAXX  30151 57633 42762 80702 10076 20054 40247 52011 885//;
0191576330999992000113018004+28820+108770FM-12+066599999V0201401N001010150019N0100001N1+00711+00441102391ADDAA106000791GF108991081051017501999999KA1999M+01061MA1999999094481MD1710071+0101MW1601REMSYN094AAXX  30181 57633 11760 81401 10071 20044 39448 40239 57007 69901 76000 885// 333 00100 10106;
0159576330999992000113021004+28820+108770FM-12+066599999V0203401N001010042019N0100001N1+00701+00411102281ADDAA124000791AY161031GF108991081051004501999999MD1710111-0101MW1001REMSYN082AAXX  30211 57633 41460 83401 10070 20041 40228 57011 70060 885// 333 05151 79999;
0186576330999992000120100004+28820+108770FM-12+066599999V0203201N001010042019N0120001N1+00671+00421102361ADDAA106000791AY161061GF108991081071004501999999MA1999999094431MD1210061-0101MW1001REMSYN094AAXX  01001 57633 11462 83201 10067 20042 39443 40236 52006 69901 70060 887// 333 05151 79999;
0112576330999992000120103004+28820+108770FM-12+066599999V0209999C000010075019N0150001N1+00701+00411102451ADDGF108991081041008001999999MD1210081+9999REMSYN060AAXX  01031 57633 42565 80000 10070 20041 40245 52008 884//;
0199576330999992000120106004+28820+108770FM-12+066599999V0201601N001010042019N0150001N1+00701+00381102221ADDAA106000791AY161061GF108991081051004501999999KA1999N+00651MA1999999094291MD1710221+0001MW1001REMSYN094AAXX  01061 57633 11465 81601 10070 20038 39429 40222 57022 69901 70060 885// 333 00053 20065;
0134576330999992000120109004+28820+108770FM-12+066599999V0200201N001010042019N0150001N1+00631+00431102321ADDGF108991081051004501999999MD1210081+0011MW1601REMSYN076AAXX  01091 57633 41465 80201 10063 20043 40232 52008 76000 885// 333 00153;
0180576330999992000120112004+28820+108770FM-12+066599999V0200701N001010042019N0120001N1+00631+00381102511ADDAA106000791AY161061GF108991081071004501999999MA1999999094541MD1210171+0011MW1211REMSYN088AAXX  01121 57633 11462 80701 10063 20038 39454 40251 52017 69901 72160 887// 333 00152;
0112576330999992000120115004+28820+108770FM-12+066599999V0209999C000010150019N0120001N1+00641+00391102651ADDGF108991081051017501999999MD1210141+9999REMSYN060AAXX  01151 57633 42762 80000 10064 20039 40265 52014 885//;
0173576330999992000120118004+28820+108770FM-12+066599999V0209999C000010150019N0120001N1+00661+00311102701ADDAA199000021GF108991081051017501999999KA1999M+00751MA1999999094731MD1210051+0301REMSYN082AAXX  01181 57633 32762 80000 10066 20031 39473 40270 52005 885// 333 00351 10075;
0139576330999992000120121004+28820+108770FM-12+066599999V0209999C000010150019N0120001N1+00651+00381102811ADDAA124000791GF108991081051017501999999MD1210091+0501REMSYN076AAXX  01211 57633 42762 80000 10065 20038 40281 52009 885// 333 00551 79999;
0160576330999992000120200004+28820+108770FM-12+066599999V0209999C000010150019N0120001N1+00651+00421103061ADDAA124000791GF108991081051017501999999MA1999999095051MD1210231+0601REMSYN082AAXX  02001 57633 32762 80000 10065 20042 39505 40306 52023 885// 333 00600 79999;
0112576330999992000120203004+28820+108770FM-12+066599999V0203401N001010360019N0200001N1+00861+00261103081ADDGF107991011011008001041999MD1210051+9999REMSYN060AAXX  02031 57633 42570 73401 10086 20026 40308 52005 8114/;
0192576330999992000120206004+28820+108770FM-12+066599999V0209999C000010360019N0250001N1+00991+00241102811ADDAA199000091GF108991021011008001071999KA1999N+00591MA1999999094871MD1710231+0601REMSYN082AAXX  02061 57633 32575 80000 10099 20024 39487 40281 57023 8217/ 333 00603 20059;EQDQ01  00002PRCP99
0122576330999992000120209004+28820+108770FM-12+066599999V0201601N001010360019N0170001N1+00921+00261102811ADDGF108991031011008001071999MD1710011+0051REMSYN070AAXX  02091 57633 42567 81601 10092 20026 40281 57001 8317/ 333 00503;
0173576330999992000120212004+28820+108770FM-12+066599999V0209999C000019999999N0150001N1+00851+00481103031ADDAA199000091GF108991081001999999071999MA1999999095051MD1210191+0051REMSYN076AAXX  02121 57633 32965 80000 10085 20048 39505 40303 52019 8807/ 333 00502;EQDQ01  00002PRCP99
0112576330999992000120215004+28820+108770FM-12+066599999V0209999C000019999999N0120001N1+00811+00461103111ADDGF108991081001999999071999MD1210101+9999REMSYN060AAXX  02151 57633 42962 80000 10081 20046 40311 52010 8807/;
0192576330999992000120218004+28820+108770FM-12+066599999V0209999C000019999999N0120001N1+00761+00541103131ADDAA199000091GF108991081001999999071999KA1999M+01031MA1999999095181MD1210031+0501REMSYN082AAXX  02181 57633 32962 80000 10076 20054 39518 40313 52003 8807/ 333 00501 10103;EQDQ01  00002PRCP99
0122576330999992000120221004+28820+108770FM-12+066599999V0209999C000019999999N0100001N1+00761+00591103051ADDGF108991081001999999071999MD1710091+0031REMSYN070AAXX  02211 57633 42960 80000 10076 20059 40305 57009 8807/ 333 00301;
0186576330999992000120300004+28820+108770FM-12+066599999V0209999C000010360019N0100001N1+00751+00511103121ADDAA106000791AY161061GF108991021071004501071999MA1999999095151MD1210061+0101MW1001REMSYN094AAXX  03001 57633 11460 80000 10075 20051 39515 40312 52006 69901 70060 8277/ 333 00101 79999;
0112576330999992000120303004+28820+108770FM-12+066599999V0201401N002010360019N0150001N1+00871+00481103151ADDGF108991011011008001071999MD1210041+9999REMSYN060AAXX  03031 57633 42565 81402 10087 20048 40315 52004 8117/;
0192576330999992000120306004+28820+108770FM-12+066599999V0201401N001010360019N0150001N1+01061+00531102771ADDAA199000091GF107991021011008001041999KA1999N+00741MA1999999094851MD1710341+0001REMSYN082AAXX  03061 57633 32565 71401 10106 20053 39485 40277 57034 8214/ 333 00001 20074;EQDQ01  00002PRCP99
0122576330999992000120309004+28820+108770FM-12+066599999V0209999C000010120019N0180001N1+01101+00431102581ADDGF107991071081008001999999MD1710171+0021REMSYN070AAXX  03091 57633 42568 70000 10110 20043 40258 57017 878// 333 05202;
0173576330999992000120312004+28820+108770FM-12+066599999V0209999C000010150019N0150001N1+00921+00581102681ADDAA199000091GF107991071051017501999999MA1999999094751MD1210071+0031REMSYN076AAXX  03121 57633 32765 70000 10092 20058 39475 40268 52007 875// 333 05301;EQDQ01  00002PRCP99
0122576330999992000120315004+28820+108770FM-12+066599999V0209999C000012200019N0150001N1+00581+00441102681ADDGA1001+999999999GF100991001001999999001001MD1710031+9999REMSYN054AAXX  03151 57633 42965 00000 10058 20044 40268 57003;
0202576330999992000120318004+28820+108770FM-12+066599999V0209999C000012200019N0100001N1+00391+00321102571ADDAA199000091GA1001+999999999GF100991001001999999001001KA1999M+01141MA1999999094621MD1710101-0601REMSYN076AAXX  03181 57633 32960 00000 10039 20032 39462 40257 57010 333 05654 10114;EQDQ01  00002PRCP99
0151576330999992000120321004+28820+108770FM-12+066599999V0209999C000012200019N0060001N1+00341+00091102471ADDAA124000791GF103991031051017501001001MD1710091-0601MW1101REMSYN082AAXX  03211 57633 41756 30000 10034 20009 40247 57009 71000 83500 333 05654 79999;
0203576330999992000120400004+28820+108770FM-12+066599999V0209999C000010042019N0060001N1+00331+00261102551ADDAA199000091GF108991081061004501999999IA2999+00109MA1999999094571MD1210041-0601MW1101REMSYN088AAXX  04001 57633 31456 80000 10033 20026 39457 40255 52004 71000 886// 333 05654 30012;EQDQ01  00002PRCP99
0122576330999992000120403004+28820+108770FM-12+066599999V0209999C000012200019N0100001N1+00711+00401102541ADDGA1001+999999999GF100991001001999999001001MD1410001+9999REMSYN054AAXX  04031 57633 42960 00000 10071 20040 40254 54000;
0132576330999992000120409004+28820+108770FM-12+066599999V0201101N002012200019N0170001N1+01281+00431101961ADDGA1001+999999999GF100991001001999999001001MD1710161+0061REMSYN064AAXX  04091 57633 42967 01102 10128 20043 40196 57016 333 05602;
0183576330999992000120412004+28820+108770FM-12+066599999V0209999C000012200019N0150001N1+00741+00431102251ADDAA199000091GA1001+999999999GF100991001001999999001001MA1999999094271MD1210191+0051REMSYN070AAXX  04121 57633 32965 00000 10074 20043 39427 40225 52019 333 05552;EQDQ01  00002PRCP99
0122576330999992000120415004+28820+108770FM-12+066599999V0209999C000012200019N0120001N1+00491+00351102501ADDGA1001+999999999GF100991001001999999001001MD1210251+9999REMSYN054AAXX  04151 57633 42962 00000 10049 20035 40250 52025;
0204576330999992000120418004+28820+108770FM-12+066599999V0209999C000012200019N0060001N1+00381+00281102291ADDAA199000091GF101991011001999999041001KA1999M+01531MA1999999094401MD1710121-0201MW1101REMSYN088AAXX  04181 57633 31956 10000 10038 20028 39440 40229 57012 71000 81040 333 05200 10153;EQDQ01  00002PRCP99
0113576330999992000120421004+28820+108770FM-12+066599999V0209999C000019999999N0040001N1+00531+00391102301ADDGF108991999999999999999999REMSYN075AAXX  04211 57633 41940 80000 10053 20039 40230 2002 71000 8807/ 333 05102;
0203576330999992000120500004+28820+108770FM-12+066599999V0209999C000019999999N0080001N1+00611+00451102491ADDAA199000091GF107991071001999999041999IA2999+00109MA1999999094531MD1210111+0001MW1101REMSYN088AAXX  05001 57633 31958 70000 10061 20045 39453 40249 52011 71000 8704/ 333 00003 30013;EQDQ01  00002PRCP99
0112576330999992000120503004+28820+108770FM-12+066599999V0209999C000019999999N0100001N1+00761+00541102571ADDGF108991081001999999071999MD1210061+9999REMSYN060AAXX  05031 57633 42960 80000 10076 20054 40257 52006 8807/;
0192576330999992000120506004+28820+108770FM-12+066599999V0209999C000010360019N0180001N1+01131+00371102261ADDAA199000091GF108991011011008001071999KA1999N+00361MA1999999094341MD1710251+0101REMSYN082AAXX  05061 57633 32568 80000 10113 20037 39434 40226 57025 8117/ 333 00152 20036;EQDQ01  00002PRCP99
0122576330999992000120509004+28820+108770FM-12+066599999V0209999C000019999999N0180001N1+01061+00311102131ADDGF108991081001999999071999MD1710111+0021REMSYN070AAXX  05091 57633 42968 80000 10106 20031 40213 57011 8807/ 333 00252;
0173576330999992000120512004+28820+108770FM-12+066599999V0209999C000019999999N0150001N1+00941+00341102211ADDAA199000091GF108991081001999999071999MA1999999094301MD1210071+0001REMSYN076AAXX  05121 57633 32965 80000 10094 20034 39430 40221 52007 8807/ 333 00002;EQDQ01  00002PRCP99
0112576330999992000120515004+28820+108770FM-12+066599999V0209999C000019999999N0150001N1+00851+00461102351ADDGF108991081001999999071999MD1210141+9999REMSYN060AAXX  05151 57633 42965 80000 10085 20046 40235 52014 8807/;
0192576330999992000120518004+28820+108770FM-12+066599999V0209999C000019999999N0100001N1+00861+00471102261ADDAA199000091GF108991081001999999071999KA1999M+01181MA1999999094411MD1710031+0001REMSYN082AAXX  05181 57633 32960 80000 10086 20047 39441 40226 57003 8807/ 333 00005 10118;EQDQ01  00002PRCP99
0122576330999992000120521004+28820+108770FM-12+066599999V0209999C000019999999N0100001N1+00841+00591102161ADDGF108991081001999999071999MD1710111+0011REMSYN070AAXX  05211 57633 42960 80000 10084 20059 40216 57011 8807/ 333 05103;
0173576330999992000120600004+28820+108770FM-12+066599999V0209999C000019999999N0120001N1+00851+00601102301ADDAA199000091GF108991081001999999071999MA1999999094421MD1210121+0011REMSYN076AAXX  06001 57633 32962 80000 10085 20060 39442 40230 52012 8807/ 333 05102;EQDQ01  00002PRCP99
0112576330999992000120603004+28820+108770FM-12+066599999V0203401N001019999999N0120001N1+01021+00411102411ADDGF108991081001999999071999MD1210111+9999REMSYN060AAXX  06031 57633 42962 83401 10102 20041 40241 52011 8807/;
0192576330999992000120606004+28820+108770FM-12+066599999V0203401N001019999999N0150001N1+01101+00411102111ADDAA199000091GF108991081001999999071999KA1999N+00821MA1999999094261MD1710271-0101REMSYN082AAXX  06061 57633 32965 83401 10110 20041 39426 40211 57027 8807/ 333 05100 20082;EQDQ01  00002PRCP99
0122576330999992000120609004+28820+108770FM-12+066599999V0209999C000019999999N0150001N1+01071+00501102161ADDGF108991081001999999071999MD1210041+0011REMSYN070AAXX  06091 57633 42965 80000 10107 20050 40216 52004 8807/ 333 00100;
0173576330999992000120612004+28820+108770FM-12+066599999V0209999C000019999999N0120001N1+00981+00561102391ADDAA199000091GF108991081001999999071999MA1999999094501MD1210201+0021REMSYN076AAXX  06121 57633 32962 80000 10098 20056 39450 40239 52020 8807/ 333 00200;EQDQ01  00002PRCP99
0124576330999992000120615004+28820+108770FM-12+066599999V0209999C000019999999N0080001N1+00921+00631102511ADDGF108991081001999999071999MD1210131+9999MW1101REMSYN066AAXX  06151 57633 41958 80000 10092 20063 40251 52013 71000 8807/;
0204576330999992000120618004+28820+108770FM-12+066599999V0209999C000012200019N0080001N1+00751+00531102581ADDAA199000091GF103991031001999999041001KA1999M+01141MA1999999094681MD1210051+0301MW1101REMSYN088AAXX  06181 57633 31958 30000 10075 20053 39468 40258 52005 71000 83040 333 00351 10114;EQDQ01  00002PRCP99
0144576330999992000120621004+28820+108770FM-12+066599999V0209999C000012200019N0070001N1+00601+00471102561ADDGA1001+999999999GF100991001001999999001001MD1710041+0031MW1101REMSYN070AAXX  06211 57633 41957 00000 10060 20047 40256 57004 71000 333 00352;
0203576330999992000120700004+28820+108770FM-12+066599999V0209999C000019999999N0080001N1+00551+00461102701ADDAA199000091GF107991071001999999031999IA2999+00209MA1999999094751MD1210111+0301MW1101REMSYN088AAXX  07001 57633 31958 70000 10055 20046 39475 40270 52011 71000 8703/ 333 00353 30026;EQDQ01  00002PRCP99
0124576330999992000120703004+28820+108770FM-12+066599999V0209999C000012200019N0090001N1+01031+00591102701ADDGF103991011011008001041001MD1210061+9999MW1101REMSYN066AAXX  07031 57633 41559 30000 10103 20059 40270 52006 71000 81140;
0192576330999992000120706004+28820+108770FM-12+066599999V0201601N002010360019N0150001N1+01331+00501102331ADDAA199000091GF107991021041012501031999KA1999N+00511MA1999999094481MD1710331+0201REMSYN082AAXX  07061 57633 32665 71602 10133 20050 39448 40233 57033 8243/ 333 00202 20051;EQDQ01  00002PRCP99
0122576330999992000120709004+28820+108770FM-12+066599999V0209999C000019999999N0150001N1+01301+00631102291ADDGF107991071001999999031999MD1710061+0011REMSYN070AAXX  07091 57633 42965 70000 10130 20063 40229 57006 8703/ 333 00102;
0183576330999992000120712004+28820+108770FM-12+066599999V0209999C000012200019N0150001N1+01001+00631102451ADDAA199000091GA1001+999999999GF100991001001999999001001MA1999999094521MD1210101+0001REMSYN070AAXX  07121 57633 32965 00000 10100 20063 39452 40245 52010 333 00000;EQDQ01  00002PRCP99
0112576330999992000120715004+28820+108770FM-12+066599999V0209999C000019999999N0120001N1+00761+00611102561ADDGF107991071001999999031999MD1210141+9999REMSYN060AAXX  07151 57633 42962 70000 10076 20061 40256 52014 8703/;
0192576330999992000120718004+28820+108770FM-12+066599999V0209999C000019999999N0100001N1+00691+00581102441ADDAA199000091GF107991071001999999031999KA1999M+01471MA1999999094581MD1710081-0101REMSYN082AAXX  07181 57633 32960 70000 10069 20058 39458 40244 57008 8703/ 333 05151 10147;EQDQ01  00002PRCP99
0122576330999992000120721004+28820+108770FM-12+066599999V0209999C000019999999N0100001N1+00731+00601102201ADDGF108991081001999999071999MD1710221+0031REMSYN070AAXX  07211 57633 42960 80000 10073 20060 40220 57022 8807/ 333 05301;
0204576330999992000120800004+28820+108770FM-12+066599999V0209999C000019999999N0070001N1+00781+00651102211ADDAA106000791AY161061GF108991081001999999071999IA2999+00429MA1999999094331MD1710031-0401MW1101REMSYN100AAXX  08001 57633 11957 80000 10078 20065 39433 40221 57003 69901 71060 8807/ 333 05402 30042 79999;
0132576330999992000120803004+28820+108770FM-12+066599999V0209999C000019999999N0070001N1+00901+00721102231ADDAY161031GF108991081001999999071999MD1410001+9999MW1211REMSYN066AAXX  08031 57633 41957 80000 10090 20072 40223 54000 72160 8807/;
0199576330999992000120806004+28820+108770FM-12+066599999V0209999C000019999999N0100001N1+01081+00561101821ADDAA106000791AY161061GF108991081001999999071999KA1999N+00671MA1999999093971MD1710361-0501MW1001REMSYN094AAXX  08061 57633 11960 80000 10108 20056 39397 40182 57036 69901 70060 8807/ 333 05553 20067;
0122576330999992000120809004+28820+108770FM-12+066599999V0200401N001019999999N0120001N1+01051+00621101751ADDGF108991081001999999071999MD1710061+0051REMSYN070AAXX  08091 57633 42962 80401 10105 20062 40175 57006 8807/ 333 05553;
0180576330999992000120812004+28820+108770FM-12+066599999V0209999C000019999999N0100001N1+00961+00691101881ADDAA106000791AY161061GF108991081001999999071999MA1999999094021MD1210111+0051MW1211REMSYN088AAXX  08121 57633 11960 80000 10096 20069 39402 40188 52011 69901 72160 8807/ 333 05500;
0112576330999992000120815004+28820+108770FM-12+066599999V0209999C000019999999N0100001N1+00961+00721101841ADDGF107991071001999999031999MD1710021+9999REMSYN060AAXX  08151 57633 42960 70000 10096 20072 40184 57002 8703/;
0171576330999992000120818004+28820+108770FM-12+066599999V0209999C000019999999N0090001N1+00881+00741101761ADDAA106000791GF108991999999999999999999MA1999999093941MD1710061-0601REMSYN093AAXX  08181 57633 11959 80000 10088 20074 39394 40176 57006 69901 7600 8807/ 333 05602 10112;
0159576330999992000120821004+28820+108770FM-12+066599999V0209999C000019999999N0080001N1+00881+00761101651ADDAA124000791AY161031GF108991081001999999071999MD1710111-0501MW1101REMSYN082AAXX  08211 57633 41958 80000 10088 20076 40165 57011 71060 8807/ 333 05502 79999;
0186576330999992000120900004+28820+108770FM-12+066599999V0209999C000019999999N0080001N1+00901+00821101641ADDAA106000791AY161061GF108991081001999999071999MA1999999093821MD1710011-0501MW1601REMSYN094AAXX  09001 57633 11958 80000 10090 20082 39382 40164 57001 69901 76060 8807/ 333 05501 79999;
0132576330999992000120903004+28820+108770FM-12+066599999V0209999C000019999999N0090001N1+01001+00841101691ADDAY161031GF108991081001999999071999MD1210061+9999MW1101REMSYN066AAXX  09031 57633 41959 80000 10100 20084 40169 52006 71060 8807/;
0199576330999992000120906004+28820+108770FM-12+066599999V0209999C000019999999N0100001N1+01111+00881101431ADDAA106000791AY161061GF108991081001999999071999KA1999N+00851MA1999999093641MD1710241-0301MW1001REMSYN094AAXX  09061 57633 11960 80000 10111 20088 39364 40143 57024 69901 70060 8807/ 333 05300 20085;
0122576330999992000120909004+28820+108770FM-12+066599999V0203601N001019999999N0100001N1+01181+00891101441ADDGF108991081001999999071999MD1210021+0031REMSYN070AAXX  09091 57633 42960 83601 10118 20089 40144 52002 8807/ 333 05301;
0154576330999992000120912004+28820+108770FM-12+066599999V0209999C000019999999N0100001N1+01081+00891101721ADDAA199000021GF107991071001999999041999MA1999999093911MD1210251+0011REMSYN076AAXX  09121 57633 32960 70000 10108 20089 39391 40172 52025 8704/ 333 05101;
0132576330999992000120915004+28820+108770FM-12+066599999V0200701N002019999999N0100001N1+01101+00891101901ADDAY161031GF108991081001999999071999MD1210181+9999MW1601REMSYN066AAXX  09151 57633 41960 80702 10110 20089 40190 52018 76060 8807/;
0199576330999992000120918004+28820+108770FM-12+066599999V0209999C000010360019N0080001N1+01061+01001102021ADDAA106000591AY161061GF108991021071004501071999KA1999M+01211MA1999999094211MD1210121+0301MW1601REMSYN094AAXX  09181 57633 11458 80000 10106 20100 39421 40202 52012 69951 76060 8277/ 333 00302 10121;
0167576330999992000120921004+28820+108770FM-12+066599999V0209999C000010042019N0030001N1+01031+01011102191ADDAA124004891AY161031AY261031GF108991061071004501021999MD1210161+0501MW1601REMSYN082AAXX  09211 57633 41430 80000 10103 20101 40219 52016 76066 8672/ 333 00502 70047;
0194576330999992000121000004+28820+108770FM-12+066599999V0201601N002010042019N0120001N1+01011+00751102551ADDAA106006191AY161061AY261061GF108991071071004501021999MA1999999094691MD1210321+0901MW1601REMSYN094AAXX  10001 57633 11462 81602 10101 20075 39469 40255 52032 60061 76066 8772/ 333 00901 70066;
0132576330999992000121003004+28820+108770FM-12+066599999V0203601N002010042019N0150001N1+00861+00471102901ADDAY161031GF108991061071004501021999MD1210301+9999MW1211REMSYN066AAXX  10031 57633 41465 83602 10086 20047 40290 52030 72160 8672/;
0199576330999992000121006004+28820+108770FM-12+066599999V0202701N001010042019N0150001N1+00781+00381102741ADDAA106000191AY161061GF108991051071004501021999KA1999N+00781MA1999999094831MD1710161+1201MW1001REMSYN094AAXX  10061 57633 11465 82701 10078 20038 39483 40274 57016 69911 70060 8572/ 333 01253 20078;
0142576330999992000121009004+28820+108770FM-12+066599999V0200401N002019999999N0150001N1+00651+00001102871ADDAY161031GF108991081001999999071999MD1210101+0131MW1211REMSYN076AAXX  10091 57633 41965 80402 10065 20000 40287 52010 72160 8807/ 333 01355;
0180576330999992000121012004+28820+108770FM-12+066599999V0209999C000019999999N0150001N1+00601+00081102921ADDAA106000791AY161061GF108991081001999999071999MA1999999094961MD1210031+0111MW1001REMSYN088AAXX  10121 57633 11965 80000 10060 20008 39496 40292 52003 69901 70060 8807/ 333 01155;
0112576330999992000121015004+28820+108770FM-12+066599999V0209999C000019999999N0150001N1+00621+00081103031ADDGF108991081001999999071999MD1210091+9999REMSYN060AAXX  10151 57633 42965 80000 10062 20008 40303 52009 8807/;
0173576330999992000121018004+28820+108770FM-12+066599999V0200401N001019999999N0150001N1+00581-00181102901ADDAA199000021GF108991081001999999071999KA1999M+01081MA1999999094911MD1710141+0701REMSYN082AAXX  10181 57633 32965 80401 10058 21018 39491 40290 57014 8807/ 333 00755 10108;
0139576330999992000121021004+28820+108770FM-12+066599999V0200901N001019999999N0150001N1+00551-00191102841ADDAA124002091GF108991081001999999071999MD1710081+0501REMSYN076AAXX  10211 57633 42965 80901 10055 21019 40284 57008 8807/ 333 00555 70020;
0178576330999992000121100004+28820+108770FM-12+066599999V0209999C000019999999N0150001N1+00521-00171102981ADDAA124000191GF108991081001999999071999IA2999+00429MA1999999094951MD1210121+0301REMSYN088AAXX  11001 57633 32965 80000 10052 21017 39495 40298 52012 8807/ 333 00355 30042 70001;
0140576330999992000121103004+28820+108770FM-12+066599999V0200401N001019999999N0120001N1+00511+00001103081ADDAY171031AY261031GF108991081001999999021999MD1210101+9999MW1211REMSYN066AAXX  11031 57633 41962 80401 10051 20000 40308 52010 72176 8802/;
0207576330999992000121106004+28820+108770FM-12+066599999V0200401N002010360019N0120001N1+00431+00081102921ADDAA106000191AY171061AY261061GF108991021071004501021999KA1999N+00421MA1999999094881MD1710171+0101MW1601REMSYN094AAXX  11061 57633 11462 80402 10043 20008 39488 40292 57017 69911 76076 8272/ 333 00154 20042;
0150576330999992000121109004+28820+108770FM-12+066599999V0209999C000010042019N0100001N1+00381+00131102961ADDAY171031AY261031GF108991061071004501021999MD1210031+0001MW1601REMSYN076AAXX  11091 57633 41460 80000 10038 20013 40296 52003 76076 8672/ 333 00053;
0188576330999992000121112004+28820+108770FM-12+066599999V0203601N001010042019N0100001N1+00361+00141103221ADDAA106000591AY171061AY261061GF108991061071004501021999MA1999999095141MD1210231+0021MW1601REMSYN088AAXX  11121 57633 11460 83601 10036 20014 39514 40322 52023 69941 76076 8672/ 333 00252;
0140576330999992000121115004+28820+108770FM-12+066599999V0209999C000010042019N0100001N1+00331+00161103341ADDAY161031AY261031GF108991061071004501021999MD1210111+9999MW1791REMSYN066AAXX  11151 57633 41460 80000 10033 20016 40334 52011 77966 8672/;
0207576330999992000121118004+28820+108770FM-12+066599999V0201401N002010360019N0120001N1+00221+00041103361ADDAA106002091AY171061AY261061GF108991031071004501021999KA1999M+00641MA1999999095241MD1710011+0301MW1791REMSYN094AAXX  11181 57633 11462 81402 10022 20004 39524 40336 57001 60021 77976 8372/ 333 00354 10064;
0167576330999992000121121004+28820+108770FM-12+066599999V0209999C000010360019N0120001N1+00151-00011103381ADDAA124003391AY171031AY261031GF108991031071004501021999MD1410001+0401MW1791REMSYN082AAXX  11211 57633 41462 80000 10015 21001 40338 54000 77976 8372/ 333 00454 70032;
0212576330999992000121200004+28820+108770FM-12+066599999V0209999C000010042019N0120001N1+00221-00111103481ADDAA106001091AY171061AY261061GF108991061071004501021999IA2999+00019MA1999999095341MD1210101+0401MW1601REMSYN100AAXX  12001 57633 11462 80000 10022 21011 39534 40348 52010 60011 76076 8672/ 333 00453 30001 70037;
0140576330999992000121203004+28820+108770FM-12+066599999V0209999C000010360019N0090001N1+00151+00041103641ADDAY171031AY261031GF108991031071004501021999MD1210131+9999MW1701REMSYN066AAXX  12031 57633 41459 80000 10015 20004 40364 52013 77076 8372/;
0207576330999992000121206004+28820+108770FM-12+066599999V0209999C000010042019N0150001N1+00311-00121103271ADDAA106002091AY171061AY261061GF108991081071004501999999KA1999N+00091MA1999999095141MD1710331+0301MW1001REMSYN094AAXX  12061 57633 11465 80000 10031 21012 39514 40327 57033 60021 70076 887// 333 00351 20009;
0142576330999992000121209004+28820+108770FM-12+066599999V0201801N001010360019N0150001N1+00321-00051103191ADDAY171031GF108991031071004501021999MD1710081+0021MW1221REMSYN076AAXX  12091 57633 41465 81801 10032 21005 40319 57008 72270 8372/ 333 00251;
0171576330999992000121212004+28820+108770FM-12+066599999V0209999C000010360019N0150001N1+00231+00051103251ADDAY171061AY261061GF108991021071004501021999MA1999999095111MD1210051+0001MW1601REMSYN082AAXX  12121 57633 11465 80000 10023 20005 39511 40325 52005 76076 8272/ 333 00051;
0132576330999992000121215004+28820+108770FM-12+066599999V0201401N001019999999N0120001N1+00261+00111103281ADDAY161031GF108991081001999999021999MD1210021+9999MW1001REMSYN066AAXX  12151 57633 41962 81401 10026 20011 40328 52002 70060 8802/;
0199576330999992000121218004+28820+108770FM-12+066599999V0201601N001019999999N0150001N1+00271+00041103161ADDAA106000791AY161061GF108991081001999999021999KA1999M+00361MA1999999095041MD1710091-0201MW1001REMSYN094AAXX  12181 57633 11965 81601 10027 20004 39504 40316 57009 69901 70060 8802/ 333 05201 10036;
0139576330999992000121221004+28820+108770FM-12+066599999V0201401N001019999999N0150001N1+00271+00091102971ADDAA124002091GF108991081001999999021999MD1710171-0401REMSYN076AAXX  12211 57633 42965 81401 10027 20009 40297 57017 8802/ 333 05401 70020;
0178576330999992000121300004+28820+108770FM-12+066599999V0201401N001010360019N0150001N1+00271+00091102981ADDAA124001591GF107991021061004501041999IA2999+00279MA1999999094871MD1410001-0501REMSYN088AAXX  13001 57633 32465 71401 10027 20009 39487 40298 54000 8264/ 333 05501 30027 70015;
0112576330999992000121303004+28820+108770FM-12+066599999V0209999C000010120019N0150001N1+00481+00051102871ADDGF107991071081008001999999MD1710071+9999REMSYN060AAXX  13031 57633 42565 70000 10048 20005 40287 57007 878//;
0192576330999992000121306004+28820+108770FM-12+066599999V0201801N001010120019N0170001N1+00681-00051102491ADDAA199000091GF107991071081008001001001KA1999N+00211MA1999999094481MD1710321-0701REMSYN082AAXX  13061 57633 32567 71801 10068 21005 39448 40249 57032 87800 333 05704 20021;EQDQ01  00002PRCP99
0173576330999992000121312004+28820+108770FM-12+066599999V0209999C000010150019N0150001N1+00491+00121102611ADDAA199000091GF108991081051017501999999MA1999999094561MD1210101+0061REMSYN076AAXX  13121 57633 32765 80000 10049 20012 39456 40261 52010 885// 333 05603;EQDQ01  00002PRCP99
0112576330999992000121315004+28820+108770FM-12+066599999V0209999C000010150019N0150001N1+00461-00061102711ADDGF108991081051017501999999MD1210121+9999REMSYN060AAXX  13151 57633 42765 80000 10046 21006 40271 52012 885//;
0192576330999992000121318004+28820+108770FM-12+066599999V0209999C000010150019N0150001N1+00401-00041102741ADDAA199000091GF107991071051017501999999KA1999M+00771MA1999999094731MD1210051-0301REMSYN082AAXX  13181 57633 32765 70000 10040 21004 39473 40274 52005 875// 333 05301 10077;EQDQ01  00002PRCP99
0132576330999992000121321004+28820+108770FM-12+066599999V0209999C000012200019N0150001N1+00121-00041102761ADDGA1001+999999999GF100991001001999999001001MD1710031+0021REMSYN064AAXX  13211 57633 42965 00000 10012 21004 40276 57003 333 05252;
0201576330999992000121400004+28820+108770FM-12+066599999V0209999C000012200019N0120001N1-00011-00091102901ADDAA199000091GA1001+999999999GF100991001001999999001001IA2999-00109MA1999999094791MD1210091-0101REMSYN076AAXX  14001 57633 32962 00000 11001 21009 39479 40290 52009 333 05153 31014;EQDQ01  00002PRCP99
0112576330999992000121403004+28820+108770FM-12+066599999V0201601N001010150019N0150001N1+00431+00021102891ADDGF107991071051017501999999MD1210051+9999REMSYN060AAXX  14031 57633 42765 71601 10043 20002 40289 52005 875//;
0202576330999992000121406004+28820+108770FM-12+066599999V0201401N002012200019N0150001N1+00881+00131102481ADDAA199000091GA1001+999999999GF100991001001999999001001KA1999N-00031MA1999999094511MD1710331+0001REMSYN076AAXX  14061 57633 32965 01402 10088 20013 39451 40248 57033 333 00002 21003;EQDQ01  00002PRCP99
0132576330999992000121409004+28820+108770FM-12+066599999V0201801N001012200019N0150001N1+00971+00131102351ADDGA1001+999999999GF100991001001999999001001MD1710141+0011REMSYN064AAXX  14091 57633 42965 01801 10097 20013 40235 57014 333 05104;
0183576330999992000121412004+28820+108770FM-12+066599999V0209999C000012200019N0120001N1+00471+00261102551ADDAA199000091GA1001+999999999GF100991001001999999001001MA1999999094461MD1210091+0011REMSYN070AAXX  14121 57633 32962 00000 10047 20026 39446 40255 52009 333 05100;EQDQ01  00002PRCP99
0112576330999992000121415004+28820+108770FM-12+066599999V0209999C000019999999N0100001N1+00331+00181102511ADDGF106991061001999999041001MD1210011+9999REMSYN060AAXX  14151 57633 42960 60000 10033 20018 40251 52001 86040;
0191576330999992000121418004+28820+108770FM-12+066599999V0209999C000019999999N0100001N1+00461+00291102361ADDAA106000791GF108991081001999999071999KA1999M+01081MA1999999094411MD1710061-0301MW1601REMSYN094AAXX  14181 57633 11960 80000 10046 20029 39441 40236 57006 69901 76000 8807/ 333 05301 10108;
0159576330999992000121421004+28820+108770FM-12+066599999V0209999C000019999999N0120001N1+00501+00311102311ADDAA124000791AY161031GF108991081001999999071999MD1710031-0301MW1601REMSYN082AAXX  14211 57633 41962 80000 10050 20031 40231 57003 76060 8807/ 333 05304 79999;
0204576330999992000121500004+28820+108770FM-12+066599999V0209999C000019999999N0080001N1+00541+00381102521ADDAA106000791AY161061GF108991081001999999071999IA2999+00099MA1999999094511MD1210131-0301MW1601REMSYN100AAXX  15001 57633 11958 80000 10054 20038 39451 40252 52013 69901 76060 8807/ 333 05306 30009 79999;
0132576330999992000121503004+28820+108770FM-12+066599999V0201801N001019999999N0090001N1+00611+00431102571ADDAY161031GF108991081001999999071999MD1210041+9999MW1101REMSYN066AAXX  15031 57633 41959 81801 10061 20043 40257 52004 71060 8807/;
0199576330999992000121506004+28820+108770FM-12+066599999V0201601N001019999999N0120001N1+00731+00391102311ADDAA106000791AY161061GF108991081001999999071999KA1999N+00281MA1999999094341MD1710211-0201MW1001REMSYN094AAXX  15061 57633 11962 81601 10073 20039 39434 40231 57021 69901 70060 8807/ 333 05252 20028;
0122576330999992000121509004+28820+108770FM-12+066599999V0201801N001019999999N0120001N1+00801+00471102271ADDGF108991081001999999071999MD1710021+0011REMSYN070AAXX  15091 57633 42962 81801 10080 20047 40227 57002 8807/ 333 05152;
0154576330999992000121512004+28820+108770FM-12+066599999V0209999C000019999999N0120001N1+00741+00501102491ADDAA199000021GF108991081001999999071999MA1999999094521MD1210201+0011REMSYN076AAXX  15121 57633 32962 80000 10074 20050 39452 40249 52020 8807/ 333 00103;
0112576330999992000121515004+28820+108770FM-12+066599999V0209999C000019999999N0100001N1+00701+00481102601ADDGF107991071001999999041999MD1210111+9999REMSYN060AAXX  15151 57633 42960 70000 10070 20048 40260 52011 8704/;
0191576330999992000121518004+28820+108770FM-12+066599999V0209999C000019999999N0090001N1+00701+00551102691ADDAA106000791GF108991081001999999071999KA1999M+00831MA1999999094731MD1210101+0301MW1601REMSYN094AAXX  15181 57633 11959 80000 10070 20055 39473 40269 52010 69901 76000 8807/ 333 00302 10083;
0167576330999992000121521004+28820+108770FM-12+066599999V0209999C000010360019N0100001N1+00611+00481102781ADDAA124002391AY161031AY261031GF108991021071004501021999MD1210081+0401MW1601REMSYN082AAXX  15211 57633 41460 80000 10061 20048 40278 52008 76066 8272/ 333 00401 70024;
0194576330999992000121600004+28820+108770FM-12+066599999V0209999C000010360019N0120001N1+00581+00471102961ADDAA106003091AY161061AY261061GF108991011071004501021999MA1999999094961MD1210151+0501MW1601REMSYN094AAXX  16001 57633 11462 80000 10058 20047 39496 40296 52015 60031 76066 8172/ 333 00500 70031;
0132576330999992000121603004+28820+108770FM-12+066599999V0209999C000010360019N0150001N1+00711+00441102931ADDAY161031GF108991021071004501021999MD1710011+9999MW1001REMSYN066AAXX  16031 57633 41465 80000 10071 20044 40293 57001 70060 8272/;
0199576330999992000121606004+28820+108770FM-12+066599999V0209999C000010360019N0170001N1+00781+00351102621ADDAA106000791AY161061GF108991011011008001071999KA1999N+00571MA1999999094671MD1710281+0301MW1001REMSYN094AAXX  16061 57633 11567 80000 10078 20035 39467 40262 57028 69901 70060 8117/ 333 00301 20057;
0122576330999992000121609004+28820+108770FM-12+066599999V0209999C000010360019N0150001N1+00851+00431102581ADDGF108991011011008001071999MD1710041+0031REMSYN070AAXX  16091 57633 42565 80000 10085 20043 40258 57004 8117/ 333 00301;
0154576330999992000121612004+28820+108770FM-12+066599999V0209999C000019999999N0150001N1+00741+00451102751ADDAA199000021GF108991081001999999071999MA1999999094771MD1210141+0031REMSYN076AAXX  16121 57633 32965 80000 10074 20045 39477 40275 52014 8807/ 333 00300;
0112576330999992000121615004+28820+108770FM-12+066599999V0209999C000019999999N0120001N1+00701+00461102851ADDGF108991081001999999071999MD1210101+9999REMSYN060AAXX  16151 57633 42962 80000 10070 20046 40285 52010 8807/;
0192576330999992000121618004+28820+108770FM-12+066599999V0209999C000019999999N0100001N1+00671+00401102811ADDAA199000091GF108991081001999999071999KA1999M+00901MA1999999094841MD1710031+0101REMSYN082AAXX  16181 57633 32960 80000 10067 20040 39484 40281 57003 8807/ 333 00100 10090;EQDQ01  00002PRCP99
0139576330999992000121621004+28820+108770FM-12+066599999V0209999C000019999999N0100001N1+00661+00481102641ADDAA124000891GF108991081001999999071999MD1710151-0101REMSYN076AAXX  16211 57633 42960 80000 10066 20048 40264 57015 8807/ 333 05101 70007;
0160576330999992000121700004+28820+108770FM-12+066599999V0209999C000019999999N0100001N1+00641+00461102561ADDAA124000791GF108991081001999999071999MA1999999094601MD1710091-0401REMSYN082AAXX  17001 57633 32960 80000 10064 20046 39460 40256 57009 8807/ 333 05401 79999;
0112576330999992000121703004+28820+108770FM-12+066599999V0209999C000019999999N0150001N1+00751+00321102611ADDGF108991081001999999071999MD1210061+9999REMSYN060AAXX  17031 57633 42965 80000 10075 20032 40261 52006 8807/;
0192576330999992000121706004+28820+108770FM-12+066599999V0202001N001010360019N0150001N1+00831+00411102191ADDAA199000091GF108991011011008001071999KA1999N+00631MA1999999094281MD1710381-0401REMSYN082AAXX  17061 57633 32565 82001 10083 20041 39428 40219 57038 8117/ 333 05401 20063;EQDQ01  00002PRCP99
0122576330999992000121709004+28820+108770FM-12+066599999V0209999C000019999999N0150001N1+00861+00491102081ADDGF108991081001999999071999MD1710101+0051REMSYN070AAXX  17091 57633 42965 80000 10086 20049 40208 57010 8807/ 333 05500;
0173576330999992000121712004+28820+108770FM-12+066599999V0209999C000019999999N0120001N1+00811+00551102181ADDAA199000091GF108991081001999999071999MA1999999094261MD1210081+0051REMSYN076AAXX  17121 57633 32962 80000 10081 20055 39426 40218 52008 8807/ 333 05501;EQDQ01  00002PRCP99
0112576330999992000121715004+28820+108770FM-12+066599999V0209999C000019999999N0100001N1+00781+00611102181ADDGF108991081001999999071999MD1210011+9999REMSYN060AAXX  17151 57633 42960 80000 10078 20061 40218 52001 8807/;
0208576330999992000121718004+28820+108770FM-12+066599999V0209999C000019999999N0100001N1+00761+00571999999ADDAA199000091GF108991081001999999071999KA1999M+00901MA1999999094171MD1710101-0701REMSYN082AAXX  17181 57633 32960 80000 10076 20057 39417 49206 57010 8807/ 333 05701 10090;EQDQ01+092063APOSLPQ02  00002PRCP99
0122576330999992000121721004+28820+108770FM-12+066599999V0209999C000019999999N0100001N1+00751+00581101971ADDGF108991081001999999071999MD1710081+0061REMSYN070AAXX  17211 57633 42960 80000 10075 20058 40197 57008 8807/ 333 05601;
0178576330999992000121800004+28820+108770FM-12+066599999V0209999C000019999999N0100001N1+00801+00611102011ADDAA106000791GF108991081001999999071999MA1999999094121MD1210031-0501MW1601REMSYN094AAXX  18001 57633 11960 80000 10080 20061 39412 40201 52003 69901 76000 8807/ 333 05502 79999;
0132576330999992000121803004+28820+108770FM-12+066599999V0209999C000019999999N0150001N1+00881+00581102101ADDAY161031GF108991081001999999071999MD1210091+9999MW1211REMSYN066AAXX  18031 57633 41965 80000 10088 20058 40210 52009 72160 8807/;
0199576330999992000121806004+28820+108770FM-12+066599999V0203401N001019999999N0150001N1+00881+00561101751ADDAA106000791AY161061GF108991081001999999071999KA1999N+00741MA1999999093891MD1710321-0401MW1601REMSYN094AAXX  18061 57633 11965 83401 10088 20056 39389 40175 57032 69901 76060 8807/ 333 05401 20074;
0150576330999992000121809004+28820+108770FM-12+066599999V0209999C000010360019N0070001N1+00821+00651101681ADDAY161031AY261031GF108991021071004501071999MD1710081+0041MW1601REMSYN076AAXX  18091 57633 41457 80000 10082 20065 40168 57008 76066 8277/ 333 05400;
0180576330999992000121812004+28820+108770FM-12+066599999V0209999C000010360019N0100001N1+00841+00671101891ADDAA106000891AY161061GF108991031071004501071999MA1999999094021MD1210211+0021MW1601REMSYN088AAXX  18121 57633 11460 80000 10084 20067 39402 40189 52021 69971 76060 8377/ 333 05200;
0140576330999992000121815004+28820+108770FM-12+066599999V0209999C000010042019N0070001N1+00811+00751102051ADDAY161031AY261031GF108991071071004501021999MD1210151+9999MW1601REMSYN066AAXX  18151 57633 41457 80000 10081 20075 40205 52015 76066 8772/;
0199576330999992000121818004+28820+108770FM-12+066599999V0209999C000010042019N0060001N1+00801+00761102051ADDAA106003091AY161061GF108991061071004501021999KA1999M+00921MA1999999094171MD1410001+0001MW1601REMSYN094AAXX  18181 57633 11456 80000 10080 20076 39417 40205 54000 60031 76060 8672/ 333 00000 10092;
0159576330999992000121821004+28820+108770FM-12+066599999V0209999C000010042019N0080001N1+00831+00731102021ADDAA124004891AY161031GF108991061071004501021999MD1710031+0101MW1601REMSYN082AAXX  18211 57633 41458 80000 10083 20073 40202 57003 76060 8672/ 333 00101 70049;
0186576330999992000121900004+28820+108770FM-12+066599999V0203201N001010042019N0120001N1+00791+00711102121ADDAA106004191AY161061GF108991051071004501021999MA1999999094231MD1210091+0101MW1601REMSYN094AAXX  19001 57633 11462 83201 10079 20071 39423 40212 52009 60041 76060 8572/ 333 00100 70070;
0140576330999992000121903004+28820+108770FM-12+066599999V0209999C000010042019N0150001N1+00801+00701102291ADDAY161031AY261031GF108991061071004501021999MD1210151+9999MW1601REMSYN066AAXX  19031 57633 41465 80000 10080 20070 40229 52015 76066 8672/;
0207576330999992000121906004+28820+108770FM-12+066599999V0203601N001010042019N0150001N1+00811+00641102071ADDAA106004191AY161061AY261061GF108991061071004501021999KA1999N+00781MA1999999094181MD1710201+0301MW1601REMSYN094AAXX  19061 57633 11465 83601 10081 20064 39418 40207 57020 60041 76066 8672/ 333 00351 20078;
0142576330999992000121909004+28820+108770FM-12+066599999V0203601N001010042019N0120001N1+00771+00601102171ADDAY161031GF108991061071004501021999MD1210091+0051MW1601REMSYN076AAXX  19091 57633 41462 83601 10077 20060 40217 52009 76060 8672/ 333 00551;
0180576330999992000121912004+28820+108770FM-12+066599999V0200201N001010042019N0120001N1+00751+00621102511ADDAA106003091AY161061GF108991061071004501021999MA1999999094581MD1210311+0061MW1601REMSYN088AAXX  19121 57633 11462 80201 10075 20062 39458 40251 52031 60031 76060 8672/ 333 00651;
0140576330999992000121915004+28820+108770FM-12+066599999V0209999C000010042019N0100001N1+00731+00581102871ADDAY161031AY261031GF108991051071004501021999MD1210331+9999MW1601REMSYN066AAXX  19151 57633 41460 80000 10073 20058 40287 52033 76066 8572/;
0207576330999992000121918004+28820+108770FM-12+066599999V0209999C000010042019N0080001N1+00681+00591102961ADDAA106003091AY161061AY261061GF108991061071004501021999KA1999M+00901MA1999999094981MD1210071+0801MW1601REMSYN094AAXX  19181 57633 11458 80000 10068 20059 39498 40296 52007 60031 76066 8672/ 333 00851 10090;
0167576330999992000121921004+28820+108770FM-12+066599999V0209999C000010042019N0080001N1+00671+00521102991ADDAA124011791AY161031AY261031GF108991061071004501021999MD1210031+0901MW1601REMSYN082AAXX  19211 57633 41458 80000 10067 20052 40299 52003 76066 8672/ 333 00952 70118;
0194576330999992000122000004+28820+108770FM-12+066599999V0203201N001010042019N0120001N1+00621+00441103161ADDAA106000191AY161061AY261061GF108991061071004501021999MA1999999095151MD1210141+0901MW1601REMSYN094AAXX  20001 57633 11462 83201 10062 20044 39515 40316 52014 69921 76066 8672/ 333 00952 70097;
0140576330999992000122003004+28820+108770FM-12+066599999V0209999C000010042019N0120001N1+00681+00501103361ADDAY161031AY261031GF108991061071004501021999MD1210191+9999MW1601REMSYN066AAXX  20031 57633 41462 80000 10068 20050 40336 52019 76066 8672/;
0207576330999992000122006004+28820+108770FM-12+066599999V0201601N001010042019N0150001N1+00701+00431103061ADDAA106001091AY161061AY261061GF108991051071004501021999KA1999N+00611MA1999999095061MD1710281+0901MW1601REMSYN094AAXX  20061 57633 11465 81601 10070 20043 39506 40306 57028 69991 76066 8572/ 333 00951 20061;
0142576330999992000122009004+28820+108770FM-12+066599999V0203401N001010042019N0150001N1+00701+00461102991ADDAY161031GF108991061071004501021999MD1710061+0071MW1001REMSYN076AAXX  20091 57633 41465 83401 10070 20046 40299 57006 70060 8672/ 333 00751;
0180576330999992000122012004+28820+108770FM-12+066599999V0209999C000010042019N0120001N1+00591+00461103101ADDAA106000191AY161061GF108991071071004501021999MA1999999095081MD1210081+0051MW1601REMSYN088AAXX  20121 57633 11462 80000 10059 20046 39508 40310 52008 69921 76060 8772/ 333 00552;
0132576330999992000122015004+28820+108770FM-12+066599999V0201601N001010360019N0100001N1+00601+00421103121ADDAY161031GF108991031071004501021999MD1210021+9999MW1001REMSYN066AAXX  20151 57633 41460 81601 10060 20042 40312 52002 70060 8372/;
0199576330999992000122018004+28820+108770FM-12+066599999V0201601N001010360019N0100001N1+00571+00461103111ADDAA106000791AY161061GF108991021071004501021999KA1999M+00751MA1999999095091MD1710011+0101MW1601REMSYN094AAXX  20181 57633 11460 81601 10057 20046 39509 40311 57001 69901 76060 8272/ 333 00151 10075;
0167576330999992000122021004+28820+108770FM-12+066599999V0201401N001010042019N0100001N1+00561+00471103001ADDAA124001091AY161031AY261031GF108991071061004501021999MD1710101+0001MW1211REMSYN082AAXX  20211 57633 41460 81401 10056 20047 40300 57010 72166 8762/ 333 00051 70011;
0204576330999992000122100004+28820+108770FM-12+066599999V0209999C000010360019N0100001N1+00511+00371103091ADDAA106000791AY161061GF107991021011008001031999IA2999+00369MA1999999095051MD1210061-0101MW1001REMSYN100AAXX  21001 57633 11560 70000 10051 20037 39505 40309 52006 69901 70060 8213/ 333 05151 30036 70011;
0112576330999992000122103004+28820+108770FM-12+066599999V0201401N002010075019N0150001N1+00931+00451103061ADDGF105991051011008001001001MD1210031+9999REMSYN060AAXX  21031 57633 42565 51402 10093 20045 40306 52003 85100;
0173576330999992000122106004+28820+108770FM-12+066599999V0201801N001010120019N0170001N1+01021+00381102591ADDAA199000021GF106991061081008001001001KA1999N+00501MA1999999094661MD1710421-0401REMSYN082AAXX  21061 57633 32567 61801 10102 20038 39466 40259 57042 86800 333 05403 20050;
0122576330999992000122109004+28820+108770FM-12+066599999V0201801N001012200019N0170001N1+01061+00381102431ADDGF102991021051017501001001MD1710151+0051REMSYN070AAXX  21091 57633 42767 21801 10106 20038 40243 57015 82500 333 05504;
0183576330999992000122112004+28820+108770FM-12+066599999V0209999C000012200019N0120001N1+00581+00371102571ADDAA199000091GA1001+999999999GF100991001001999999001001MA1999999094571MD1210061+0051REMSYN070AAXX  21121 57633 32962 00000 10058 20037 39457 40257 52006 333 05500;EQDQ01  00002PRCP99
0122576330999992000122115004+28820+108770FM-12+066599999V0209999C000012200019N0100001N1+00361+00291102511ADDGA1001+999999999GF100991001001999999001001MD1710031+9999REMSYN054AAXX  21151 57633 42960 00000 10036 20029 40251 57003;
0204576330999992000122118004+28820+108770FM-12+066599999V0209999C000019999999N0060001N1+00291+00221102431ADDAA199000091GF105991051001999999041001KA1999M+01121MA1999999094471MD1710071-0601MW1101REMSYN088AAXX  21181 57633 31956 50000 10029 20022 39447 40243 57007 71000 85040 333 05653 10112;EQDQ01  00002PRCP99
0169576330999992000122121004+28820+108770FM-12+066599999V0209999C000010003019N0005001N1+00221+00201102351ADDAA124000791AY141031GA1091+999999999GF109991091999999999999999MD1710081-0601MW1471REMSYN076AAXX  21211 57633 41/05 90000 10022 20020 40235 57008 74740 333 05653 79999;
0221576330999992000122200004+28820+108770FM-12+066599999V0209999C000010003019N0003001N1+00151+00151102491ADDAA199000091AY141061GA1091+999999999GF109991091999999999999999IA2999+00009MA1999999094451MD1210061-0601MW1471REMSYN082AAXX  22001 57633 31/03 90000 10015 20015 39445 40249 52006 74740 333 05654 30001;EQDQ01  00002PRCP99
0150576330999992000122203004+28820+108770FM-12+066599999V0209999C000012200019N0020001N1+00341+00291102661ADDAY141031AY241031GA1001+999999999GF100991001001999999001001MD1210151+9999MW1281REMSYN060AAXX  22031 57633 41920 00000 10034 20029 40266 52015 72844;
0212576330999992000122206004+28820+108770FM-12+066599999V0209999C000012200019N0200001N1+01582+00421102121ADDAA199000091AY141061GF101991001001999999001021KA1999N+00131MA1999999094261MD1710341-0401MW1001REMSYN088AAXX  22061 57633 31970 10000 10158 20042 39426 40212 57034 70040 80002 333 05406 20013;EQDQ01  00002PRCP99
0132576330999992000122209004+28820+108770FM-12+066599999V0201801N002012200019N0200001N1+01381+00591102271ADDGA1001+999999999GF100991001001999999001001MD1210101+0021REMSYN064AAXX  22091 57633 42970 01802 10138 20059 40227 52010 333 05203;
0183576330999992000122212004+28820+108770FM-12+066599999V0209999C000012200019N0150001N1+00771+00531102601ADDAA199000091GA1001+999999999GF100991001001999999001001MA1999999094571MD1210211+0001REMSYN070AAXX  22121 57633 32965 00000 10077 20053 39457 40260 52021 333 00002;EQDQ01  00002PRCP99
0134576330999992000122215004+28820+108770FM-12+066599999V0209999C000012200019N0090001N1+00491+00421102751ADDGA1001+999999999GF100991001001999999001001MD1210131+9999MW1101REMSYN060AAXX  22151 57633 41959 00000 10049 20042 40275 52013 71000;
0214576330999992000122218004+28820+108770FM-12+066599999V0209999C000012200019N0040001N1+00321+00271102571ADDAA199000091GA1001+999999999GF100991001001999999001001KA1999M+01681MA1999999094681MD1710021+0201MW1101REMSYN082AAXX  22181 57633 31940 00000 10032 20027 39468 40257 57002 71000 333 00200 10168;EQDQ01  00002PRCP99
0152576330999992000122221004+28820+108770FM-12+066599999V0209999C000010006019N0007001N1+00251+00231102471ADDAY141031GA1091+999999999GF109991091999999999999999MD1710131+0021MW1471REMSYN070AAXX  22211 57633 41/07 90000 10025 20023 40247 57013 74740 333 00200;
0221576330999992000122300004+28820+108770FM-12+066599999V0209999C000010003019N0005001N1+00201+00171102691ADDAA199000091AY141061GA1091+999999999GF109991091999999999999999IA2999+00009MA1999999094661MD1210111+0201MW1451REMSYN082AAXX  23001 57633 31/05 90000 10020 20017 39466 40269 52011 74540 333 00201 31003;EQDQ01  00002PRCP99
0150576330999992000122303004+28820+108770FM-12+066599999V0200701N001012200019N0060001N1+00481+00411102731ADDAY141031AY241031GA1001+999999999GF100991001001999999001001MD1210041+9999MW1281REMSYN060AAXX  23031 57633 41956 00701 10048 20041 40273 52004 72844;
0238576330999992000122306004+28820+108770FM-12+066599999V0202001N001012200019N0150001N1+01662+00511102112ADDAA199000091AY141061GA1001+999999999GF100991001001999999001001KA1999N+00191MA1999999094271MD1710431+0001MW1001REMSYN082AAXX  23061 57633 31965 02001 10166 20051 39427 40211 57043 70040 333 00001 20019;EQDQ01+102113APOSLPQ02  00002PRCP99
0132576330999992000122309004+28820+108770FM-12+066599999V0201401N002012200019N0300001N1+01501+00121102121ADDGA1001+999999999GF100991001001999999001001MD1710031+0011REMSYN064AAXX  23091 57633 42980 01402 10150 20012 40212 57003 333 05101;
0183576330999992000122312004+28820+108770FM-12+066599999V0209999C000012200019N0150001N1+00851+00361102491ADDAA199000091GA1001+999999999GF100991001001999999001001MA1999999094491MD1210251+0011REMSYN070AAXX  23121 57633 32965 00000 10085 20036 39449 40249 52025 333 05101;EQDQ01  00002PRCP99
0122576330999992000122315004+28820+108770FM-12+066599999V0209999C000012200019N0120001N1+00521+00331102581ADDGA1001+999999999GF100991001001999999001001MD1210081+9999REMSYN054AAXX  23151 57633 42962 00000 10052 20033 40258 52008;
0202576330999992000122318004+28820+108770FM-12+066599999V0209999C000012200019N0100001N1+00381+00261102401ADDAA199000091GA1001+999999999GF100991001001999999001001KA1999M+01731MA1999999094541MD1710031-0101REMSYN076AAXX  23181 57633 32960 00000 10038 20026 39454 40240 57003 333 05101 10173;EQDQ01  00002PRCP99
0132576330999992000122321004+28820+108770FM-12+066599999V0209999C000012200019N0100001N1+00271+00201102371ADDGA1001+999999999GF100991001001999999001001MD1710061+0011REMSYN064AAXX  23211 57633 42960 00000 10027 20020 40237 57006 333 05100;
0201576330999992000122400004+28820+108770FM-12+066599999V0209999C000012200019N0100001N1+00211+00131102591ADDAA199000091GA1001+999999999GF100991001001999999001001IA2999+00009MA1999999094581MD1210101-0101REMSYN076AAXX  24001 57633 32960 00000 10021 20013 39458 40259 52010 333 05100 31008;EQDQ01  00002PRCP99
0122576330999992000122403004+28820+108770FM-12+066599999V0209999C000012200019N0120001N1+00951+00451102621ADDGA1001+999999999GF100991001001999999001001MD1210091+9999REMSYN054AAXX  24031 57633 42962 00000 10095 20045 40262 52009;
0202576330999992000122406004+28820+108770FM-12+066599999V0202201N001012200019N0170001N1+01761+00381102231ADDAA199000091GA1001+999999999GF100991001001999999001001KA1999N+00181MA1999999094401MD1710271+0101REMSYN076AAXX  24061 57633 32967 02201 10176 20038 39440 40223 57027 333 00101 20018;EQDQ01  00002PRCP99
0132576330999992000122409004+28820+108770FM-12+066599999V0209999C000012200019N0300001N1+01571+00561102291ADDGA1001+999999999GF100991001001999999001001MD1210011+0021REMSYN064AAXX  24091 57633 42980 00000 10157 20056 40229 52001 333 00201;
0183576330999992000122412004+28820+108770FM-12+066599999V0209999C000012200019N0150001N1+00841+00471102591ADDAA199000091GA1001+999999999GF100991001001999999001001MA1999999094581MD1210171+0011REMSYN070AAXX  24121 57633 32965 00000 10084 20047 39458 40259 52017 333 00100;EQDQ01  00002PRCP99
0112576330999992000122415004+28820+108770FM-12+066599999V0209999C000019999999N0100001N1+00761+00471102601ADDGF108991081001999999071999MD1210101+9999REMSYN060AAXX  24151 57633 42960 80000 10076 20047 40260 52010 8807/;
0192576330999992000122418004+28820+108770FM-12+066599999V0201801N001019999999N0100001N1+00661+00481102511ADDAA199000091GF106991061001999999041001KA1999M+01811MA1999999094691MD1210011+0201REMSYN082AAXX  24181 57633 32960 61801 10066 20048 39469 40251 52001 86040 333 00203 10181;EQDQ01  00002PRCP99
0122576330999992000122421004+28820+108770FM-12+066599999V0209999C000019999999N0100001N1+00671+00521102451ADDGF108991081001999999071999MD1710081+0011REMSYN070AAXX  24211 57633 42960 80000 10067 20052 40245 57008 8807/ 333 00104;
0191576330999992000122500004+28820+108770FM-12+066599999V0209999C000019999999N0100001N1+00711+00511102601ADDAA199000091GF107991071001999999041999IA2999+00309MA1999999094661MD1210051+0101REMSYN082AAXX  25001 57633 32960 70000 10071 20051 39466 40260 52005 8704/ 333 00105 30039;EQDQ01  00002PRCP99
0112576330999992000122503004+28820+108770FM-12+066599999V0209999C000019999999N0200001N1+00951+00481102671ADDGF108991081001999999071999MD1210091+9999REMSYN060AAXX  25031 57633 42970 80000 10095 20048 40267 52009 8807/;
0192576330999992000122506004+28820+108770FM-12+066599999V0200201N002019999999N0250001N1+01511-00251102291ADDAA199000091GF106991061001999999041001KA1999N+00591MA1999999094461MD1710301+0101REMSYN082AAXX  25061 57633 32975 60202 10151 21025 39446 40229 57030 86040 333 00153 20059;EQDQ01  00002PRCP99
0122576330999992000122509004+28820+108770FM-12+066599999V0209999C000012200019N0250001N1+01431-00321102291ADDGF101991011001999999041001MD1710011+0001REMSYN070AAXX  25091 57633 42975 10000 10143 21032 40229 57001 81040 333 00051;
0183576330999992000122512004+28820+108770FM-12+066599999V0209999C000012200019N0200001N1+00811+00181102511ADDAA199000091GA1001+999999999GF100991001001999999001001MA1999999094571MD1210121+0001REMSYN070AAXX  25121 57633 32970 00000 10081 20018 39457 40251 52012 333 00000;EQDQ01  00002PRCP99
0122576330999992000122515004+28820+108770FM-12+066599999V0209999C000012200019N0150001N1+00561+00231102641ADDGA1001+999999999GF100991001001999999001001MD1210121+9999REMSYN054AAXX  25151 57633 42965 00000 10056 20023 40264 52012;
0202576330999992000122518004+28820+108770FM-12+066599999V0209999C000012200019N0150001N1+00401+00261102561ADDAA199000091GA1001+999999999GF100991001001999999001001KA1999M+01531MA1999999094671MD1710021+0001REMSYN076AAXX  25181 57633 32965 00000 10040 20026 39467 40256 57002 333 00053 10153;EQDQ01  00002PRCP99
0122576330999992000122521004+28820+108770FM-12+066599999V0209999C000019999999N0100001N1+00381+00231102531ADDGF105991051001999999041001MD1710041+0001REMSYN070AAXX  25211 57633 42960 50000 10038 20023 40253 57004 85040 333 00053;
0191576330999992000122600004+28820+108770FM-12+066599999V0209999C000019999999N0170001N1+00461+00261102661ADDAA199000091GF107991071001999999041999IA2999+00009MA1999999094681MD1210051+0001REMSYN082AAXX  26001 57633 32967 70000 10046 20026 39468 40266 52005 8704/ 333 00053 30005;EQDQ01  00002PRCP99
0112576330999992000122603004+28820+108770FM-12+066599999V0209999C000019999999N0150001N1+01101+00431102671ADDGF107991071001999999041999MD1210061+9999REMSYN060AAXX  26031 57633 42965 70000 10110 20043 40267 52006 8704/;
0202576330999992000122606004+28820+108770FM-12+066599999V0201601N001012200019N0170001N1+01581+00191102221ADDAA199000091GA1001+999999999GF100991001001999999001001KA1999N+00361MA1999999094371MD1710371-0101REMSYN076AAXX  26061 57633 32967 01601 10158 20019 39437 40222 57037 333 05101 20036;EQDQ01  00002PRCP99
0132576330999992000122609004+28820+108770FM-12+066599999V0201601N001012200019N0150001N1+01471+00291102211ADDGA1001+999999999GF100991001001999999001001MD1710031+0011REMSYN064AAXX  26091 57633 42965 01601 10147 20029 40221 57003 333 05100;
0183576330999992000122612004+28820+108770FM-12+066599999V0203201N001012200019N0120001N1+00951+00351102421ADDAA199000091GA1001+999999999GF100991001001999999001001MA1999999094481MD1210141+0011REMSYN070AAXX  26121 57633 32962 03201 10095 20035 39448 40242 52014 333 05101;EQDQ01  00002PRCP99
0122576330999992000122615004+28820+108770FM-12+066599999V0209999C000012200019N0120001N1+00611+00381102501ADDGA1001+999999999GF100991001001999999001001MD1210111+9999REMSYN054AAXX  26151 57633 42962 00000 10061 20038 40250 52011;
0192576330999992000122618004+28820+108770FM-12+066599999V0209999C000019999999N0120001N1+00601+00421102441ADDAA199000091GF107991071001999999031999KA1999M+01701MA1999999094601MD1210011-0101REMSYN082AAXX  26181 57633 32962 70000 10060 20042 39460 40244 52001 8703/ 333 05102 10170;EQDQ01  00002PRCP99
0122576330999992000122621004+28820+108770FM-12+066599999V0209999C000019999999N0120001N1+00691+00491102381ADDGF108991081001999999071999MD1710061+0011REMSYN070AAXX  26211 57633 42962 80000 10069 20049 40238 57006 8807/ 333 05103;
0191576330999992000122700004+28820+108770FM-12+066599999V0209999C000019999999N0120001N1+00731+00561102531ADDAA199000091GF107991071001999999071999IA2999+00209MA1999999094611MD1210071-0101REMSYN082AAXX  27001 57633 32962 70000 10073 20056 39461 40253 52007 8707/ 333 05103 30021;EQDQ01  00002PRCP99
0097576330999992000122703004+28820+108770FM-12+066599999V0203201N001019999999N0150001N1+01161+99999999999ADDGF107991999999999999999999REMSYN059AAXX  27031 57633 42965 73201 10116 2003 40264 52012 8704/;
0192576330999992000122706004+28820+108770FM-12+066599999V0201801N001019999999N0150001N1+01401+00441102271ADDAA199000091GF107991071001999999031999KA1999N+00521MA1999999094421MD1710311+0101REMSYN082AAXX  27061 57633 32965 71801 10140 20044 39442 40227 57031 8703/ 333 00152 20052;EQDQ01  00002PRCP99
0122576330999992000122709004+28820+108770FM-12+066599999V0201601N002012200019N0150001N1+01291+00421102311ADDGF102991021001999999041001MD1210031+0011REMSYN070AAXX  27091 57633 42965 21602 10129 20042 40231 52003 82040 333 00152;
0173576330999992000122712004+28820+108770FM-12+066599999V0209999C000019999999N0100001N1+01131+00471102601ADDAA199000091GF108991081001999999071999MA1999999094701MD1210251+0021REMSYN076AAXX  27121 57633 32960 80000 10113 20047 39470 40260 52025 8807/ 333 00202;EQDQ01  00002PRCP99
0112576330999992000122715004+28820+108770FM-12+066599999V0203601N001019999999N0100001N1+01051+00521102741ADDGF108991081001999999071999MD1210181+9999REMSYN060AAXX  27151 57633 42960 83601 10105 20052 40274 52018 8807/;
0192576330999992000122718004+28820+108770FM-12+066599999V0200201N002019999999N0100001N1+00921+00441102751ADDAA199000091GF108991081001999999071999KA1999M+01451MA1999999094901MD1210021+0301REMSYN082AAXX  27181 57633 32960 80202 10092 20044 39490 40275 52002 8807/ 333 00303 10145;EQDQ01  00002PRCP99
0122576330999992000122721004+28820+108770FM-12+066599999V0200401N001019999999N0100001N1+00851+00411102731ADDGF108991081001999999071999MD1710041+0031REMSYN070AAXX  27211 57633 42960 80401 10085 20041 40273 57004 8807/ 333 00302;
0173576330999992000122800004+28820+108770FM-12+066599999V0200201N001019999999N0100001N1+00811+00311102791ADDAA199000091GF108991081001999999071999MA1999999094891MD1210031+0031REMSYN076AAXX  28001 57633 32960 80201 10081 20031 39489 40279 52003 8807/ 333 00301;EQDQ01  00002PRCP99
0112576330999992000122803004+28820+108770FM-12+066599999V0209999C000019999999N0120001N1+00861+00181102921ADDGF108991081001999999071999MD1210111+9999REMSYN060AAXX  28031 57633 42962 80000 10086 20018 40292 52011 8807/;
0192576330999992000122806004+28820+108770FM-12+066599999V0209999C000019999999N0150001N1+01031+00151102541ADDAA199000091GF108991081001999999071999KA1999N+00801MA1999999094661MD1710341+0201REMSYN082AAXX  28061 57633 32965 80000 10103 20015 39466 40254 57034 8807/ 333 00254 20080;EQDQ01  00002PRCP99
0132576330999992000122809004+28820+108770FM-12+066599999V0201401N002012200019N0150001N1+00981+00171102441ADDGA1001+999999999GF100991001001999999001001MD1710111+0011REMSYN064AAXX  28091 57633 42965 01402 10098 20017 40244 57011 333 00153;
0183576330999992000122812004+28820+108770FM-12+066599999V0209999C000012200019N0150001N1+00791+00181102531ADDAA199000091GA1001+999999999GF100991001001999999001001MA1999999094601MD1210051+0011REMSYN070AAXX  28121 57633 32965 00000 10079 20018 39460 40253 52005 333 05153;EQDQ01  00002PRCP99
0112576330999992000122815004+28820+108770FM-12+066599999V0200201N001019999999N0150001N1+00801+00221102501ADDGF108991081001999999071999MD1710021+9999REMSYN060AAXX  28151 57633 42965 80201 10080 20022 40250 57002 8807/;
0192576330999992000122818004+28820+108770FM-12+066599999V0200701N001019999999N0150001N1+00741+00231102361ADDAA199000091GF108991081001999999071999KA1999M+01121MA1999999094471MD1710111-0401REMSYN082AAXX  28181 57633 32965 80701 10074 20023 39447 40236 57011 8807/ 333 05452 10112;EQDQ01  00002PRCP99
0122576330999992000122821004+28820+108770FM-12+066599999V0203601N001019999999N0100001N1+00671+00251102251ADDGF108991081001999999071999MD1710121+0051REMSYN070AAXX  28211 57633 42960 83601 10067 20025 40225 57012 8807/ 333 05552;
0186576330999992000122900004+28820+108770FM-12+066599999V0203601N001010360019N0100001N1+00621+00241102361ADDAA106000791AY161061GF108991011071004501071999MA1999999094421MD1210071-0501MW1601REMSYN094AAXX  29001 57633 11460 83601 10062 20024 39442 40236 52007 69901 76060 8177/ 333 05552 79999;
0140576330999992000122903004+28820+108770FM-12+066599999V0209999C000010042019N0100001N1+00581+00281102461ADDAY161031AY261031GF108991051071004501021999MD1210091+9999MW1211REMSYN066AAXX  29031 57633 41460 80000 10058 20028 40246 52009 72166 8572/;
0199576330999992000122906004+28820+108770FM-12+066599999V0209999C000010360019N0100001N1+00591+00291102221ADDAA106000591AY161061GF108991011071004501021999KA1999N+00571MA1999999094281MD1710231-0401MW1001REMSYN094AAXX  29061 57633 11460 80000 10059 20029 39428 40222 57023 69961 70060 8172/ 333 05454 20057;
0142576330999992000122909004+28820+108770FM-12+066599999V0209999C000010360019N0100001N1+00611+00331102171ADDAY161031GF108991011071004501021999MD1710051+0031MW1601REMSYN076AAXX  29091 57633 41460 80000 10061 20033 40217 57005 76060 8172/ 333 05354;
0180576330999992000122912004+28820+108770FM-12+066599999V0209999C000010360019N0080001N1+00581+00371102381ADDAA106000791AY161061GF108991011071004501021999MA1999999094411MD1210181+0021MW1101REMSYN088AAXX  29121 57633 11458 80000 10058 20037 39441 40238 52018 69901 71060 8172/ 333 05252;
0124576330999992000122915004+28820+108770FM-12+066599999V0209999C000019999999N0070001N1+00571+00411102481ADDGF108991081001999999021999MD1210091+9999MW1101REMSYN066AAXX  29151 57633 41957 80000 10057 20041 40248 52009 71000 8802/;
0185576330999992000122918004+28820+108770FM-12+066599999V0209999C000019999999N0070001N1+00541+00401102461ADDAA199000021GF108991081001999999021999KA1999M+00791MA1999999094471MD1710031+0001MW1101REMSYN088AAXX  29181 57633 31957 80000 10054 20040 39447 40246 57003 71000 8802/ 333 00052 10079;
0151576330999992000122921004+28820+108770FM-12+066599999V0209999C000019999999N0070001N1+00531+00421102461ADDAA124000591GF108991081001999999021999MD1210011+0101MW1101REMSYN082AAXX  29211 57633 41957 80000 10053 20042 40246 52001 71000 8802/ 333 00151 70006;
0190576330999992000123000004+28820+108770FM-12+066599999V0209999C000019999999N0060001N1+00591+00481102541ADDAA124000591GF108991081001999999021999IA2999+00359MA1999999094551MD1210071+0101MW1101REMSYN094AAXX  30001 57633 31956 80000 10059 20048 39455 40254 52007 71000 8802/ 333 00100 30035 70006;
0124576330999992000123003004+28820+108770FM-12+066599999V0201601N001019999999N0070001N1+00761+00501102641ADDGF108991081001999999071999MD1210121+9999MW1101REMSYN066AAXX  30031 57633 41957 81601 10076 20050 40264 52012 71000 8807/;
0192576330999992000123006004+28820+108770FM-12+066599999V0201401N001019999999N0100001N1+00911+00551102401ADDAA199000091GF108991081001999999071999KA1999N+00501MA1999999094461MD1710211+0201REMSYN082AAXX  30061 57633 32960 81401 10091 20055 39446 40240 57021 8807/ 333 00203 20050;EQDQ01  00002PRCP99
0122576330999992000123009004+28820+108770FM-12+066599999V0202201N001019999999N0100001N1+00981+00581102391ADDGF108991081001999999071999MD1410001+0021REMSYN070AAXX  30091 57633 42960 82201 10098 20058 40239 54000 8807/ 333 00204;
0183576330999992000123012004+28820+108770FM-12+066599999V0209999C000012200019N0100001N1+00721+00591102601ADDAA199000091GA1001+999999999GF100991001001999999001001MA1999999094631MD1210171+0021REMSYN070AAXX  30121 57633 32960 00000 10072 20059 39463 40260 52017 333 00201;EQDQ01  00002PRCP99
0134576330999992000123015004+28820+108770FM-12+066599999V0209999C000012200019N0080001N1+00461+00411102761ADDGA1001+999999999GF100991001001999999001001MD1210131+9999MW1101REMSYN060AAXX  30151 57633 41958 00000 10046 20041 40276 52013 71000;
0204576330999992000123018004+28820+108770FM-12+066599999V0209999C000019999999N0060001N1+00461+00411102701ADDAA199000091GF108991081001999999071999KA1999M+01001MA1999999094731MD1710031+0301MW1101REMSYN088AAXX  30181 57633 31956 80000 10046 20041 39473 40270 57003 71000 8807/ 333 00351 10100;EQDQ01  00002PRCP99
0152576330999992000123021004+28820+108770FM-12+066599999V0209999C000010006019N0009001N1+00391+00371102661ADDAY141031GA1091+999999999GF109991091999999999999999MD1710041+0021MW1431REMSYN070AAXX  30211 57633 41/09 90000 10039 20037 40266 57004 74340 333 00251;
0211576330999992000123100004+28820+108770FM-12+066599999V0209999C000019999999N0040001N1+00331+00281102711ADDAA199000091AY141061GF108991081001999999071999IA2999+00109MA1999999094691MD1410001+0101MW1101REMSYN088AAXX  31001 57633 31940 80000 10033 20028 39469 40271 54000 71040 8807/ 333 00153 30012;EQDQ01  00002PRCP99
0124576330999992000123103004+28820+108770FM-12+066599999V0209999C000019999999N0030001N1+00451+00381102771ADDGF108991081001999999071999MD1210041+9999MW1101REMSYN066AAXX  31031 57633 41930 80000 10045 20038 40277 52004 71000 8807/;
0192576330999992000123106004+28820+108770FM-12+066599999V0201401N002010075019N0150001N1+01261+00431102241ADDAA199000091GF105991051011008001001001KA1999N+00321MA1999999094351MD1710381-0101REMSYN082AAXX  31061 57633 32565 51402 10126 20043 39435 40224 57038 85100 333 05104 20032;EQDQ01  00002PRCP99
0122576330999992000123109004+28820+108770FM-12+066599999V0201601N002012200019N0150001N1+01201+00271102121ADDGF101991011011008001001001MD1710131+0021REMSYN070AAXX  31091 57633 42565 11602 10120 20027 40212 57013 81100 333 05202;
0183576330999992000123112004+28820+108770FM-12+066599999V0209999C000012200019N0120001N1+00611+00331102231ADDAA199000091GA1001+999999999GF100991001001999999001001MA1999999094241MD1210021+0041REMSYN070AAXX  31121 57633 32962 00000 10061 20033 39424 40223 52002 333 05451;EQDQ01  00002PRCP99
0134576330999992000123115004+28820+108770FM-12+066599999V0209999C000012200019N0080001N1+00391+00271102261ADDGA1001+999999999GF100991001001999999001001MD1210011+9999MW1101REMSYN060AAXX  31151 57633 41958 00000 10039 20027 40226 52001 71000;
0214576330999992000123118004+28820+108770FM-12+066599999V0209999C000012200019N0070001N1+00251+00151102041ADDAA199000091GA1001+999999999GF100991001001999999001001KA1999M+01331MA1999999094141MD1710111-0601MW1101REMSYN082AAXX  31181 57633 32957 00000 10025 20015 39414 40204 57011 71000 333 05652 10133;EQDQ01  00002PRCP99
0134576330999992000123121004+28820+108770FM-12+066599999V0209999C000019999999N0070001N1+00401+00211101861ADDGF108991081001999999071999MD1710161+0071MW1101REMSYN076AAXX  31211 57633 41957 80000 10040 20021 40186 57016 71000 8807/ 333 05700;
