0173581220999992000010100004+33900+117950FM-12+002699999V0200401N001010075019N0100001N1+00641+00601102101ADDAA106003091AY161061AY261061GF108991081051008001999999MD1210091-0401MW1211REMSYN088AAXX  01001 58122 11560 80401 10064 20060 40210 52009 60031 72166 885// 333 05406 70025;
0176581220999992000010106004+33900+117950FM-12+002699999V0202901N002010003019N0002001N1+00631+00611102041ADDAA106000021AY141061GA1091+999999999GF109991091999999999999999KA1999N+00471MD1710111+9999MW1451REMSYN070AAXX  01061 58122 31/02 92902 10063 20061 40204 57011 74540 333 20047;
0182581220999992000010200004+33900+117950FM-12+002699999V0202701N002019999999N0080001N1+00181+00041102581ADDAA106000091GF108991081001999999071999IA2999+00109MD1210161+0501MW1101REMSYN082AAXX  02001 58122 31958 82702 10018 20004 40258 52016 71000 8807/ 333 00555 30015;EQDQ01  00002PRCP06
0175581220999992000010206004+33900+117950FM-12+002699999V0209999C000012200019N0200001N1+00641+00161102351ADDAA106000091GA1001+999999999GF100991001001999999001001KA1999N+00161MD1710281+9999REMSYN064AAXX  02061 58122 32970 00000 10064 20016 40235 57028 333 20016;EQDQ01  00002PRCP06
0170581220999992000010300004+33900+117950FM-12+002699999V0200901N003019999999N0200001N1+00231+00101102151ADDAA106000091GF105991051001999999041001IA2999-00109MD1210061-0401REMSYN076AAXX  03001 58122 32970 50903 10023 20010 40215 52006 85040 333 05401 31019;EQDQ01  00002PRCP06
0175581220999992000010306004+33900+117950FM-12+002699999V0201101N004012200019N0300001N1+00981-00031101771ADDAA106000091GA1001+999999999GF100991001001999999001001KA1999N+00101MD1710321+9999REMSYN064AAXX  03061 58122 32980 01104 10098 21003 40177 57032 333 20010;EQDQ01  00002PRCP06
0112581220999992000010321004+33900+117950FM-12+002699999V0200701N004019999999N0150001N1+00311+00131101841ADDGF108991081001999999071999MD1710091+9999REMSYN060AAXX  03211 58122 42965 80704 10031 20013 40184 57009 8807/;
0165581220999992000010406004+33900+117950FM-12+002699999V0200401N002019999999N0220001N1+00761+00541101571ADDAA106000091GF108991081001999999071999KA1999N+00281MD1710251+9999REMSYN070AAXX  04061 58122 32972 80402 10076 20054 40157 57025 8807/ 333 20028;EQDQ01  00002PRCP06
0183581220999992000010500004+33900+117950FM-12+002699999V0203401N003019999999N0020001N1+00171+00141101681ADDAA106000591AY161061GF108991081001999999071999IA2999+00259MD1210061-0101MW1601REMSYN094AAXX  05001 58122 11920 83403 10017 20014 40168 52006 69951 76060 8807/ 333 05152 30025 70107;
0190581220999992000010506004+33900+117950FM-12+002699999V0203201N004010003019N0005001N1+00171+00141101641ADDAA106000791AY161061AY241061GA1091+999999999GF109991091999999999999999KA1999N+00141MD1710181+9999MW1471REMSYN076AAXX  05061 58122 11/05 93204 10017 20014 40164 57018 69901 74764 333 20014;
0165581220999992000010606004+33900+117950FM-12+002699999V0203201N003012200019N0300001N1+00521+00051102511ADDAA106000091GF101991001001999999001021KA1999N-00011MD1710281+9999REMSYN070AAXX  06061 58122 32980 13203 10052 20005 40251 57028 80002 333 21001;EQDQ01  00002PRCP06
0112581220999992000010621004+33900+117950FM-12+002699999V0200701N003010075019N0200001N1-00091-00381102941ADDGF108991081051008001999999MD1210021+9999REMSYN060AAXX  06211 58122 42570 80703 11009 21038 40294 52002 885//;
0170581220999992000010700004+33900+117950FM-12+002699999V0200701N004019999999N0250001N1-00151-00561103011ADDAA106000091GF108991081001999999071999IA2999-00309MD1210071+0401REMSYN076AAXX  07001 58122 32975 80704 11015 21056 40301 52007 8807/ 333 00452 31032;EQDQ01  00002PRCP06
0165581220999992000010706004+33900+117950FM-12+002699999V0200901N004019999999N0300001N1-00031-00601102711ADDAA106000091GF107991071001999999041999KA1999N-00191MD1710361+9999REMSYN070AAXX  07061 58122 32980 70904 11003 21060 40271 57036 8704/ 333 21019;EQDQ01  00002PRCP06
0142581220999992000010800004+33900+117950FM-12+002699999V0200701N003010075019N0200001N1-00041-00321102401ADDAA106000091GF108991081051008001999999MD1210051+9999REMSYN060AAXX  08001 58122 32570 80703 11004 21032 40240 52005 885//;EQDQ01  00002PRCP06
0165581220999992000010806004+33900+117950FM-12+002699999V0200701N003019999999N0300001N1+00091-00241102191ADDAA106000091GF108991081001999999071999KA1999N-00091MD1710261+9999REMSYN070AAXX  08061 58122 32980 80703 10009 21024 40219 57026 8807/ 333 21009;EQDQ01  00002PRCP06
0161581220999992000010821004+33900+117950FM-12+002699999V0200201N003010075019N0150001N1+00181+00131999999ADDAA124003391AY161031AY261031GF108991081051008001999999MD1710071+9999MW1601REMSYN076AAXX  08211 58122 41565 80203 10018 20013 4/2/9 57007 76066 885// 333 70032;
0183581220999992000010900004+33900+117950FM-12+002699999V0200201N001010360019N0200001N1+00221+00171102091ADDAA106001091AY161061GF108991021051008001071999IA2999+00019MD1210101-0301MW1601REMSYN094AAXX  09001 58122 11570 80201 10022 20017 40209 52010 69991 76060 8257/ 333 05303 30001 70032;
0183581220999992000011000004+33900+117950FM-12+002699999V0200701N004019999999N0005001N1+00451+00431102551ADDAA106000791AY161061GF108991081001999999071999IA2999+00369MD1210071+0501MW1461REMSYN094AAXX  10001 58122 11905 80704 10045 20043 40255 52007 69901 74660 8807/ 333 00502 30036 70001;
0180581220999992000011006004+33900+117950FM-12+002699999V0200701N003010042019N0180001N1+00581+00441102491ADDAA106000191AY161061AY241061GF108991071071004501071999KA1999N+00341MD1710131+9999MW1601REMSYN082AAXX  10061 58122 11468 80703 10058 20044 40249 57013 69911 76064 8777/ 333 20034;
0161581220999992000011021004+33900+117950FM-12+002699999V0200701N006010042019N0150001N1+00361+00211102151ADDAA124003391AY161031AY261031GF108991071071004501071999MD1710221+9999MW1601REMSYN076AAXX  10211 58122 41465 80706 10036 20021 40215 57022 76066 8777/ 333 70034;
0191581220999992000011100004+33900+117950FM-12+002699999V0200701N004010042019N0150001N1+00211+00131102251ADDAA106005191AY161061AY261061GF108991071071004501021999IA2999+00089MD1210101-0301MW1791REMSYN094AAXX  11001 58122 11465 80704 10021 20013 40225 52010 60051 77966 8772/ 333 05352 30008 70069;
0180581220999992000011106004+33900+117950FM-12+002699999V0200201N006010042019N0200001N1+00051-00011102101ADDAA106006191AY171061AY261061GF108991071071004501021999KA1999N+00031MD1710161+9999MW1791REMSYN082AAXX  11061 58122 11470 80206 10005 21001 40210 57016 60061 77976 8772/ 333 20003;
0140581220999992000011109004+33900+117950FM-12+002699999V0200201N004010042019N0200001N1+00051-00031102201ADDAY171031AY271031GF108991071071004501021999MD1210101+9999MW1791REMSYN066AAXX  11091 58122 41470 80204 10005 21003 40220 52010 77977 8772/;
0189581220999992000011200004+33900+117950FM-12+002699999V0203401N002010360019N0150001N1-00051-00121102561ADDAA106000191AY171061GF108991021051008001071999IA2999-00029MD1210231+0301MW1001REMSYN100AAXX  12001 58122 11565 83402 11005 21012 40256 52023 69911 70070 8257/ 333 00353 31002 70089 92500;
0172581220999992000011206004+33900+117950FM-12+002699999V0203201N004010075019N0250001N1-00051-00181102351ADDAA106000191AY171061GF108991081051008001999999KA1999N-00091MD1710231+9999MW1001REMSYN082AAXX  12061 58122 11575 83204 11005 21018 40235 57023 69911 70070 885// 333 21009;
0133581220999992000011221004+33900+117950FM-12+002699999V0202901N002010075019N0200001N1-00291-00431102451ADDAA124000191GF108991081051008001999999MD1710061+9999REMSYN070AAXX  12211 58122 42570 82902 11029 21043 40245 57006 885// 333 70001;
0176581220999992000011300004+33900+117950FM-12+002699999V0203201N003010075019N0200001N1-00231-00361102581ADDAA106000091GF108991081051008001999999IA2999-00169MD1210131+0001REMSYN082AAXX  13001 58122 32570 83203 11023 21036 40258 52013 885// 333 00052 31016 70001;EQDQ01  00002PRCP06
0172581220999992000011306004+33900+117950FM-12+002699999V0200201N002010075019N0250001N1-00011-00301102481ADDAA106000791AY171061GF108991081051008001999999KA1999N-00301MD1710241+9999MW1001REMSYN082AAXX  13061 58122 11575 80202 11001 21030 40248 57024 69901 70070 885// 333 21030;
0161581220999992000011400004+33900+117950FM-12+002699999V0200401N002012200019N0200001N1-00121-00441102781ADDAA124000791GF103991031001999999041001IA2999-00149MD1210141+0201REMSYN086    AAXX  14001 58122 32970 30402 11012 21044 40278 52014 83040 333 00201 31014 79999;
0169581220999992000011406004+33900+117950FM-12+002699999V0201101N003010900019N0300001N1+00201-00381102601ADDAA199000091GF107991031051008001001021KA1999N-00131MD1710211+9999REMSYN074    AAXX  14061 58122 32580 71103 10020 21038 40260 57021 83502 333 21013;EQDQ01  00002PRCP99
0116581220999992000011421004+33900+117950FM-12+002699999V0200401N003019999999N9999999N1-00021-00331102681ADDGF108991081001999999071999MD1210041+9999REMSYN064    AAXX  14211 58122 42/6/ 80403 11002 21033 40268 52004 8807/;
0179581220999992000011500004+33900+117950FM-12+002699999V0200401N005019999999N0200001N1-00091-00261102611ADDAA106000791GF108991081001999999071999IA2999-00079MD1710071-0201MW1701REMSYN098    AAXX  15001 58122 11970 80405 11009 21026 40261 57007 69901 77000 8807/ 333 05200 31007 79999;
0184581220999992000011506004+33900+117950FM-12+002699999V0200401N004010042019N0180001N1-00051-00151102501ADDAA106000591AY171061AY271061GF108991051071004501021999KA1999N-00101MD1710231+9999MW1701REMSYN086    AAXX  15061 58122 11468 80404 11005 21015 40250 57023 69961 77077 8572/ 333 21010;
0137581220999992000011521004+33900+117950FM-12+002699999V0200201N003019999999N0150001N1-00071-00241102961ADDAA124002091GF108991081001999999021999MD1710021+9999REMSYN074    AAXX  15211 58122 42965 80203 11007 21024 40296 57002 8802/ 333 70021;
0167581220999992000011600004+33900+117950FM-12+002699999V0200401N002019999999N0250001N1-00101-00311103111ADDAA124002091GF108991081001999999021999IA2999-00119MD1210151+0501REMSYN092    AAXX  16001 58122 32975 80402 11010 21031 40311 52015 8802/ 333 00500 31011 70021 92501;
0169581220999992000011606004+33900+117950FM-12+002699999V0200401N003012200019N0300001N1+00221-00431102961ADDAA199000091GF101991011051008001001001KA1999N-00121MD1710231+9999REMSYN074    AAXX  16061 58122 32580 10403 10022 21043 40296 57023 81500 333 21012;EQDQ01  00002PRCP99
0116581220999992000011621004+33900+117950FM-12+002699999V0203401N002019999999N0120001N1-00071-00161103031ADDGF108991081001999999071999MD1210011+9999REMSYN064    AAXX  16211 58122 42962 83402 11007 21016 40303 52001 8807/;
0176581220999992000011706004+33900+117950FM-12+002699999V0209999C000019999999N0100001N1+00031-00181102891ADDAA106000791AY171061GF108991081001999999071999KA1999N-00111MD1710231+9999MW1001REMSYN086    AAXX  17061 58122 11960 80000 10003 21018 40289 57023 69901 70070 8807/ 333 21011;
0168581220999992000011721004+33900+117950FM-12+002699999V0209999C000019999999N0080001N1-00301-00441102831ADDAA124000791GF108991081001999999021999MD1310722+9999MW1101REMSYN080    AAXX  17211 58122 41958 80000 11030 21044 40283 53072 71000 8802/ 333 79999;EQDQ01+000722APC3  
0123581220999992000011800004+33900+117950FM-12+002699999V0209999C000019999999N0050001N1-00391-00511102921ADDAA124000791MD1210091-0201MW1101REMSYN080    AAXX  18001 58122 31950 /0000 11039 21051 40292 52009 71000 333 05253 79999;
0179581220999992000011806004+33900+117950FM-12+002699999V0202201N003012200019N0220001N1+00351-00161102671ADDAA199000091GA1001+999999999GF100991001001999999001001KA1999N-00411MD1710331+9999REMSYN068    AAXX  18061 58122 32972 02203 10035 21016 40267 57033 333 21041;EQDQ01  00002PRCP99
0126581220999992000011821004+33900+117950FM-12+002699999V0203201N003012200019N0150001N1-00391-00631103221ADDGA1001+999999999GF100991001001999999001001MD1210101+9999REMSYN058    AAXX  18211 58122 42965 03203 11039 21063 40322 52010;
0150581220999992000011900004+33900+117950FM-12+002699999V0200301N999999999999N0300001N1+99999+99999103521ADDAA199000091MD1210301+0061REMSYN062    AAXX  19001 58122 32980 /0340 21071 40352 52030 333 00651;EQDQ01+004003WOSPD Q02  00002PRCP99Q030004003WOSPD 
0179581220999992000011906004+33900+117950FM-12+002699999V0202901N001012200019N0300001N1+00121-01281103311ADDAA199000091GA1001+999999999GF100991001001999999001001KA1999N-00541MD1710361+9999REMSYN068    AAXX  19061 58122 32980 02901 10012 21128 40331 57036 333 21054;EQDQ01  00002PRCP99
0122581220999992000011921004+33900+117950FM-12+002699999V0200901N002012200019N9999999N1-00451-01141103431ADDGA1001+999999999GF100991001001999999001001MD1710051+9999REMSYN054AAXX  19211 58122 2/70/ 00902 11045 21114 40343 57005;
0162581220999992000012000004+33900+117950FM-12+002699999V0201101N001012200019N0220001N1-00471-01061103621ADDAA199000091GA1001+999999999GF100991001001999999001001MD1210181+0011REMSYN064AAXX  20001 58122 32972 01101 11047 21106 40362 52018 333 00101;EQDQ01  00002PRCP99
0165581220999992000012006004+33900+117950FM-12+002699999V0200901N002012200019N0300001N1+00431-01201103681ADDAA199000091GF102991001001999999001021KA1999N-00521MD1710111+9999REMSYN070AAXX  20061 58122 32980 20902 10043 21120 40368 57011 80002 333 21052;EQDQ01  00002PRCP99
0122581220999992000012021004+33900+117950FM-12+002699999V0200901N004012200019N0200001N1-00311-00971103781ADDGA1001+999999999GF100991001001999999001001MD1710161+9999REMSYN054AAXX  20211 58122 42970 00904 11031 21097 40378 57016;
0152581220999992000012100004+33900+117950FM-12+002699999V0200901N003019999999N0200001N1-00261-00801103861ADDAA199000091GF107991071001999999041999MD1210081+0031REMSYN070AAXX  21001 58122 32970 70903 11026 21080 40386 52008 8704/ 333 00302;EQDQ01  00002PRCP99
0153581220999992000012121004+33900+117950FM-12+002699999V0200401N003019999999N0150001N1+00031-00061102761ADDAA124000891AY171031GF108991081001999999071999MD1710231+9999MW1001REMSYN076AAXX  21211 58122 41965 80403 10003 21006 40276 57023 70070 8807/ 333 70007;
0189581220999992000012200004+33900+117950FM-12+002699999V0200201N002019999999N0120001N1+00021-00041102731ADDAA106000791AY171061GF108991081001999999071999IA2999+00009MD1710031-1101MW1001REMSYN100AAXX  22001 58122 11962 80202 10002 21004 40273 57003 69901 70070 8807/ 333 06103 30000 70007 92500;
0185581220999992000012206004+33900+117950FM-12+002699999V0202901N002010360019N0200001N1+00181+00041102571ADDAA199000091AY141061GF108991031051008001071999KA1999N+00001MD1710201+9999MW1001REMSYN076AAXX  22061 58122 31570 82902 10018 20004 40257 57020 70040 8357/ 333 20000;EQDQ01  00002PRCP99
0170581220999992000012300004+33900+117950FM-12+002699999V0200401N003019999999N0200001N1-00041-00291102951ADDAA199000091GF108991081001999999071999IA2999+00009MD1210171+0201REMSYN076AAXX  23001 58122 32970 80403 11004 21029 40295 52017 8807/ 333 00251 31004;EQDQ01  00002PRCP99
0165581220999992000012306004+33900+117950FM-12+002699999V0200901N003019999999N0200001N1+00231-00171102911ADDAA199000091GF108991081001999999071999KA1999N-00051MD1710111+9999REMSYN070AAXX  23061 58122 32970 80903 10023 21017 40291 57011 8807/ 333 21005;EQDQ01  00002PRCP99
0133581220999992000012321004+33900+117950FM-12+002699999V0200201N005019999999N0150001N1-00141-00551103551ADDAA124000791GF108991081001999999071999MD1210101+9999REMSYN070AAXX  23211 58122 42965 80205 11014 21055 40355 52010 8807/ 333 79999;
0157581220999992000012400004+33900+117950FM-12+002699999V0200401N006019999999N0200001N1-00241-00821103781ADDAA124000791GF108991081001999999071999IA2999-00189MD1210231+0801REMSYN082AAXX  24001 58122 32970 80406 11024 21082 40378 52023 8807/ 333 00852 31018 79999;
0172581220999992000012406004+33900+117950FM-12+002699999V0200401N005019999999N0150001N1-00311-01081103971ADDAA106000191AY171061GF108991081001999999071999KA1999N-00391MD1710131+9999MW1701REMSYN082AAXX  24061 58122 11965 80405 11031 21108 40397 57013 69911 77070 8807/ 333 21039;
0137581220999992000012421004+33900+117950FM-12+002699999V0200401N002012200019N0200001N1+99999+99999104321ADDAA124000191GA1001+999999999GF100991001001999999001001MD1710011+9999REMSYN058AAXX  24211 58122 42970 00402 21096 40432 57001 333 70001;
0149581220999992000012500004+33900+117950FM-12+002699999V0200701N001012200019N0250001N1-00651-01221104411ADDAA124000191GA1001+999999999GF100991001001999999001001MD1210091+0601REMSYN070AAXX  25001 58122 32975 00701 11065 21122 40441 52009 333 00654 70001;
0152581220999992000012506004+33900+117950FM-12+002699999V0202901N002012200019N0300001N1-00151-01031104201ADDAA199000091GF102991001001999999001021MD1710301+9999REMSYN070AAXX  25061 58122 32980 22902 11015 21103 40420 57030 80002 333 21/67;EQDQ01  00002PRCP99
0162581220999992000012600004+33900+117950FM-12+002699999V0200401N001012200019N0250001N1-00821-01541104391ADDAA199000091GA1001+999999999GF100991001001999999001001MD1210111+0001REMSYN064AAXX  26001 58122 32975 00401 11082 21154 40439 52011 333 00052;EQDQ01  00002PRCP99
0175581220999992000012606004+33900+117950FM-12+002699999V0203401N004012200019N0300001N1-00031-02311104201ADDAA199000091GA1001+999999999GF100991001001999999001001KA1999N-00851MD1710231+9999REMSYN064AAXX  26061 58122 32980 03404 11003 21231 40420 57023 333 21085;EQDQ01  00002PRCP99
0122581220999992000012621004+33900+117950FM-12+002699999V0203201N002012200019N0200001N1-00701-01291104161ADDGA1001+999999999GF100991001001999999001001MD1710041+9999REMSYN054AAXX  26211 58122 42970 03202 11070 21129 40416 57004;
0162581220999992000012700004+33900+117950FM-12+002699999V0209999C000012200019N0250001N1-00771-01271104251ADDAA199000091GA1001+999999999GF100991001001999999001001MD1210091+0011REMSYN064AAXX  27001 58122 32975 00000 11077 21127 40425 52009 333 05101;EQDQ01  00002PRCP99
0175581220999992000012706004+33900+117950FM-12+002699999V0203401N002012200019N0300001N1+00091-01351103931ADDAA199000091GA1001+999999999GF100991001001999999001001KA1999N-00851MD1710271+9999REMSYN064AAXX  27061 58122 32980 03402 10009 21135 40393 57027 333 21085;EQDQ01  00002PRCP99
0122581220999992000012721004+33900+117950FM-12+002699999V0209999C000012200019N0200001N1-00611-01001103661ADDGA1001+999999999GF100991001001999999001001MD1710141+9999REMSYN054AAXX  27211 58122 42970 00000 11061 21100 40366 57014;
0151581220999992000012800004+33900+117950FM-12+002699999V0209999C000019999999N0200001N1-00641+99999103721ADDAA199000091GF106991001001999999001021MD1210051+0051REMSYN069AAXX  28001 58122 32970 60000 11064 2/099 4037252005 80002 333 05501;EQDQ01  00002PRCP99
0165581220999992000012806004+33900+117950FM-12+002699999V0201601N003019999999N0300001N1+00251-01051103401ADDAA199000091GF105991001001999999001021KA1999N-00721MD1710321+9999REMSYN070AAXX  28061 58122 32980 51603 10025 21105 40340 57032 80002 333 21072;EQDQ01  00002PRCP99
0112581220999992000012821004+33900+117950FM-12+002699999V0201401N001019999999N0150001N1-00101-00511103391ADDGF108991081001999999071999MD1710051+9999REMSYN060AAXX  28211 58122 42965 81401 1101/ 21051 40339 57005 8807/;
0170581220999992000012900004+33900+117950FM-12+002699999V0209999C000019999999N0200001N1-00151-00411103551ADDAA199000091GF108991081001999999041999IA2999-00409MD1210161-0201REMSYN076AAXX  29001 58122 32970 80000 11015 21041 40355 52016 8804/ 333 05205 31043;EQDQ01  00002PRCP99
0165581220999992000012906004+33900+117950FM-12+002699999V0202501N001019999999N0300001N1+00491-00701103511ADDAA199000091GF107991071001999999041001KA1999N-00201MD1710191+9999REMSYN070AAXX  29061 58122 32980 72501 10049 21070 40351 57019 87040 333 21020;EQDQ01  00002PRCP99
0116581220999992000012921004+33900+117950FM-12+002699999V0203401N003012200019N0200001N1-00401+99999999999ADDGA1001+999999999GF100991001001999999001001MD1210221+9999REMSYN048AAXX  29211 58122 42970 03403 11040 45/37 52022;
0162581220999992000013000004+33900+117950FM-12+002699999V0203201N002012200019N0200001N1-00471-01011104641ADDAA199000091GA1001+999999999GF100991001001999999001001MD1210261+0111REMSYN064AAXX  30001 58122 32970 03202 11047 21101 40464 52026 333 01153;EQDQ01  00002PRCP99
0175581220999992000013006004+33900+117950FM-12+002699999V0203601N004012200019N0300001N1+00121-01431104471ADDAA199000091GA1001+999999999GF100991001001999999001001KA1999N-00501MD1710231+9999REMSYN064AAXX  30061 58122 32980 03604 10012 21143 40447 57023 333 21050;EQDQ01  00002PRCP99
0122581220999992000013021004+33900+117950FM-12+002699999V0200401N003012200019N0200001N1-00471-01571104671ADDGA1001+999999999GF100991001001999999001001MD1710091+9999REMSYN054AAXX  30211 58122 42970 00403 11047 21157 40467 57009;
0152581220999992000013100004+33900+117950FM-12+002699999V0200401N002019999999N0200001N1-00501-01411104791ADDAA199000091GF107991001001999999001021MD1210121+0021REMSYN070AAXX  31001 58122 32970 70402 11050 21141 40479 52012 80002 333 00200;EQDQ01  00002PRCP99
0165581220999992000013106004+33900+117950FM-12+002699999V0200201N003019999999N0300001N1-00071-01771104461ADDAA199000091GF107991061001999999041021KA1999N-00511MD1710311+9999REMSYN070AAXX  31061 58122 32980 70203 11007 21177 40446 57031 86042 333 21051;EQDQ01  00002PRCP99
0122581220999992000013121004+33900+117950FM-12+002699999V0200201N002012200019N0200001N1-00621-01701104071ADDGA1001+999999999GF100991001001999999001001MD1710111+9999REMSYN054AAXX  31211 58122 42970 00202 11062 21170 40407 57011;
0162581220999992000020100004+33900+117950FM-12+002699999V0209999C000012200019N0200001N1-00751-01431104081ADDAA199000091GA1001+999999999GF100991001001999999001001MD1210011+0071REMSYN064AAXX  01001 58122 32970 00000 11075 21143 40408 52001 333 05753;EQDQ01  00002PRCP99
0175581220999992000020106004+33900+117950FM-12+002699999V0203401N002012200019N0300001N1+00071-02021103691ADDAA199000091GA1001+999999999GF100991001001999999001001KA1999N-00781MD1710361+9999REMSYN064AAXX  01061 58122 32980 03402 10007 21202 40369 57036 333 21078;EQDQ01  00002PRCP99
0122581220999992000020121004+33900+117950FM-12+002699999V0200901N001012200019N0200001N1-00471-01171103421ADDGA1001+999999999GF100991001001999999001001MD1710031+9999REMSYN054AAXX  01211 58122 42970 00901 11047 21117 40342 57003;
0152581220999992000020200004+33900+117950FM-12+002699999V0200701N002019999999N0200001N1-00501-01101103481ADDAA199000091GF107991001001999999001021MD1210061+0061REMSYN070AAXX  02001 58122 32970 70702 11050 21110 40348 52006 80002 333 05603;EQDQ01  00002PRCP99
0165581220999992000020206004+33900+117950FM-12+002699999V0202701N002012200019N0300001N1+00351-01441103161ADDAA199000091GF101991001001999999001021KA1999N-00561MD1710301+9999REMSYN070AAXX  02061 58122 32980 12702 10035 21144 40316 57030 80002 333 21056;EQDQ01  00002PRCP99
0122581220999992000020221004+33900+117950FM-12+002699999V0209999C000012200019N0200001N1-00521-00751103171ADDGA1001+999999999GF100991001001999999001001MD1710061+9999REMSYN054AAXX  02211 58122 42970 00000 11052 21075 40317 57006;
0162581220999992000020300004+33900+117950FM-12+002699999V0209999C000012200019N0200001N1-00581-00821103341ADDAA199000091GA1001+999999999GF100991001001999999001001MD1210171+0011REMSYN064AAXX  03001 58122 32970 00000 11058 21082 40334 52017 333 05151;EQDQ01  00002PRCP99
0165581220999992000020306004+33900+117950FM-12+002699999V0200401N002012200019N0300001N1+00591-00481103141ADDAA199000091GF101991001001999999001021KA1999N-00621MD1710241+9999REMSYN070AAXX  03061 58122 32980 10402 10059 21048 40314 57024 80002 333 21062;EQDQ01  00002PRCP99
0112581220999992000020321004+33900+117950FM-12+002699999V0200701N001019999999N0150001N1-00031-00691103171ADDGF108991081001999999071999MD1710081+9999REMSYN060AAXX  03211 58122 42965 80701 11003 21069 40317 57008 8807/;
0152581220999992000020400004+33900+117950FM-12+002699999V0201101N001019999999N0180001N1-00051-00631103271ADDAA199000091GF108991081001999999071999MD1210101+0011REMSYN070AAXX  04001 58122 32968 81101 11005 21063 40327 52010 8807/ 333 05105;EQDQ01  00002PRCP99
0165581220999992000020406004+33900+117950FM-12+002699999V0201101N003019999999N0300001N1+00381-00991102951ADDAA199000091GF108991081001999999071999KA1999N-00151MD1710291+9999REMSYN070AAXX  04061 58122 32980 81103 10038 21099 40295 57029 8807/ 333 21015;EQDQ01  00002PRCP99
0161581220999992000020421004+33900+117950FM-12+002699999V0200201N001019999999N0150001N1-00071-00171102721ADDAA124001891AY171031AY271031GF108991081001999999071999MD1710111+9999MW1701REMSYN076AAXX  04211 58122 41965 80201 11007 21017 40272 57011 77077 8807/ 333 70019;
0172581220999992000020506004+33900+117950FM-12+002699999V0202701N002010075019N0250001N1+00221-00121102601ADDAA106000791AY171061GF107991061051008001001021KA1999N-00091MD1710181+9999MW1001REMSYN082AAXX  05061 58122 11575 72702 10022 21012 40260 57018 69901 70070 86502 333 21009;
0146581220999992000020521004+33900+117950FM-12+002699999V0202801N999999999999N0150001N1+99999+99999102521ADDAA124000791GF107991071001999999041999MD1710161+9999REMSYN064AAXX  05211 58122 42965 77817 21030 40252 57016 8704/ 333 79999;EQDQ01+011701WOSPD 
0165581220999992000020606004+33900+117950FM-12+002699999V0202501N003012200019N0250001N1+00851+00221102321ADDAA199000091GF102991001001999999001021KA1999N-00231MD1710281+9999REMSYN070AAXX  06061 58122 32975 22503 10085 20022 40232 57028 80002 333 21023;EQDQ01  00002PRCP99
0132581220999992000020621004+33900+117950FM-12+002699999V0202701N004019999999N0180001N1-00041-00101102191ADDAY141031GF107991001001999999001021MD1710071+9999MW1001REMSYN066AAXX  06211 58122 41968 72704 11004 21010 40219 57007 70040 80002;
0165581220999992000020706004+33900+117950FM-12+002699999V0203401N003010075019N0300001N1+00281-00631102711ADDAA199000091GF107991071051008001999999KA1999N-00131MD1710041+9999REMSYN070AAXX  07061 58122 32580 73403 10028 21063 40271 57004 875// 333 21013;EQDQ01  00002PRCP99
0122581220999992000020721004+33900+117950FM-12+002699999V0202501N002012200019N0200001N1-00331-00681102551ADDGA1001+999999999GF100991001001999999001001MD1210011+9999REMSYN054AAXX  07211 58122 42970 02502 11033 21068 40255 52001;
0162581220999992000020800004+33900+117950FM-12+002699999V0203201N001012200019N0200001N1-00281-00611102811ADDAA199000091GA1001+999999999GF100991001001999999001001MD1210261+0031REMSYN064AAXX  08001 58122 32970 03201 11028 21061 40281 52026 333 00353;EQDQ01  00002PRCP99
0175581220999992000020806004+33900+117950FM-12+002699999V0200701N005012200019N0300001N1+00481-01131102851ADDAA199000091GA1001+999999999GF100991001001999999001001KA1999N-00371MD1710161+9999REMSYN064AAXX  08061 58122 32980 00705 10048 21113 40285 57016 333 21037;EQDQ01  00002PRCP99
0122581220999992000020821004+33900+117950FM-12+002699999V0200901N003012200019N0200001N1-00451-00831102781ADDGA1001+999999999GF100991001001999999001001MD1710111+9999REMSYN054AAXX  08211 58122 42970 00903 11045 21083 40278 57011;
0152581220999992000020900004+33900+117950FM-12+002699999V0201101N004019999999N0250001N1-00421-00671102831ADDAA199000091GF107991071001999999071999MD1210051+0001REMSYN070AAXX  09001 58122 32975 71104 11042 21067 40283 52005 8707/ 333 00051;EQDQ01  00002PRCP99
0162581220999992000021000004+33900+117950FM-12+002699999V0200701N002012200019N0250001N1-00231-00591102151ADDAA199000091GA1001+999999999GF100991001001999999001001MD1210021+0071REMSYN064AAXX  10001 58122 32975 00702 11023 21059 40215 52002 333 05702;EQDQ01  00002PRCP99
0175581220999992000021006004+33900+117950FM-12+002699999V0209999C000012200019N0300001N1+01001-00241101811ADDAA199000091GA1001+999999999GF100991001001999999001001KA1999N-00261MD1710291+9999REMSYN064AAXX  10061 58122 32980 00000 10100 21024 40181 57029 333 21026;EQDQ01  00002PRCP99
0106581220999992000021021004+33900+117950FM-12+002699999V0200701N002019999999N0200001N1+00141+99999102041ADDGF107991001001999999001021MD1710031+9999REMSYN054AAXX  10211 58122 42970 70702 10014 40204 57003 80002;
0162581220999992000021100004+33900+117950FM-12+002699999V0200401N003012200019N0200001N1+00101-00331102241ADDAA199000091GA1001+999999999GF100991001001999999001001MD1210201+0011REMSYN064AAXX  11001 58122 32970 00403 10010 21033 40224 52020 333 00103;EQDQ01  00002PRCP99
0165581220999992000021106004+33900+117950FM-12+002699999V0201601N002019999999N0300001N1+01271+00111102161ADDAA199000091GF107991001001999999001021KA1999N+00071MD1710181+9999REMSYN070AAXX  11061 58122 32980 71602 10127 20011 40216 57018 80002 333 20007;EQDQ01  00002PRCP99
0122581220999992000021121004+33900+117950FM-12+002699999V0201101N001012200019N0200001N1+00211-00131101981ADDGA1001+999999999GF100991001001999999001001MD1710131+9999REMSYN054AAXX  11211 58122 42970 01101 10021 21013 40198 57013;
0164581220999992000021200004+33900+117950FM-12+002699999V02099999999992200019N0001001N1+00161-00161102061ADDAA199000091GF101991999999999999999999IA2999-00409MD1210081-0201REMSYN070AAXX  12001 58122 32901 1/102 10016 21016 40206 52008 333 05201 31047;EQDQ01  00002PRCP99
0165581220999992000021206004+33900+117950FM-12+002699999V0201601N002019999999N0300001N1+01501-00721101741ADDAA199000091GF107991071001999999041001KA1999N+00111MD1710351+9999REMSYN070AAXX  12061 58122 32980 71602 10150 21072 40174 57035 87040 333 20011;EQDQ01  00002PRCP99
0122581220999992000021221004+33900+117950FM-12+002699999V0200901N002012200019N0200001N1+00341+00021101711ADDGA1001+999999999GF100991001001999999001001MD1710211+9999REMSYN054AAXX  12211 58122 42970 00902 10034 20002 40171 57021;
0170581220999992000021300004+33900+117950FM-12+002699999V0200901N002019999999N0200001N1+00391+00161101951ADDAA199000091GF107991071001999999071999IA2999-00109MD1210231-0101REMSYN076AAXX  13001 58122 32970 70902 10039 20016 40195 52023 8707/ 333 05102 31011;EQDQ01  00002PRCP99
0165581220999992000021306004+33900+117950FM-12+002699999V0200701N002019999999N0250001N1+00861+00401101711ADDAA199000091GF108991081001999999071999KA1999N+00311MD1710181+9999REMSYN070AAXX  13061 58122 32975 80702 10086 20040 40171 57018 8807/ 333 20031;EQDQ01  00002PRCP99
0182581220999992000021400004+33900+117950FM-12+002699999V0200201N002019999999N0020001N1+00151+00071102601ADDAA199000091GF108991081001999999071999IA2999+00009MD1210231+0701MW1101REMSYN082AAXX  14001 58122 31920 80202 10015 20007 40260 52023 71000 8807/ 333 00752 30004;EQDQ01  00002PRCP99
0175581220999992000021406004+33900+117950FM-12+002699999V0202701N002012200019N0250001N1+00601+00091102411ADDAA199000091GA1001+999999999GF100991001001999999001001KA1999N+00121MD1710201+9999REMSYN064AAXX  14061 58122 32975 02702 10060 20009 40241 57020 333 20012;EQDQ01  00002PRCP99
0112581220999992000021421004+33900+117950FM-12+002699999V0200701N002019999999N0150001N1+00061-00741102761ADDGF108991081001999999071999MD1710061+9999REMSYN060AAXX  14211 58122 42965 80702 10006 21074 40276 57006 8807/;
0152581220999992000021500004+33900+117950FM-12+002699999V0200701N002012200019N0220001N1-00031-00611102901ADDAA199000091GF102991001001999999001021MD1210141+0031REMSYN070AAXX  15001 58122 32972 20702 11003 21061 40290 52014 80002 333 00352;EQDQ01  00002PRCP99
0175581220999992000021506004+33900+117950FM-12+002699999V0202201N001012200019N0300001N1+00781-00941102691ADDAA199000091GA1001+999999999GF100991001001999999001001KA1999N-00051MD1710321+9999REMSYN064AAXX  15061 58122 32980 02201 10078 21094 40269 57032 333 21005;EQDQ01  00002PRCP99
0122581220999992000021521004+33900+117950FM-12+002699999V0201101N002012200019N0200001N1-00181-01131102541ADDGA1001+999999999GF100991001001999999001001MD1710151+9999REMSYN054AAXX  15211 58122 42970 01102 11018 21113 40254 57015;
0126581220999992000021600004+33900+117950FM-12+002699999V0200901N003019999999N0200001N1-00171-01171102611ADDAA199000091GF107991001001999999001021REMSYN058AAXX  16001 58122 32970 70903 11017 21117 40261 80002 333;EQDQ01  00002PRCP99
0112581220999992000021621004+33900+117950FM-12+002699999V0200901N002019999999N0200001N1-00041-00351102591ADDGF107991001001999999001021MD1210021+9999REMSYN060AAXX  16211 58122 42970 70902 11004 21035 40259 52002 80002;
0180581220999992000021700004+33900+117950FM-12+002699999V0201101N002012200019N0150001N1-00091-00301102611ADDAA199000091GA1001+999999999GF100991001001999999001001IA2999-00409MD1210021+0001REMSYN070AAXX  17001 58122 32965 01102 11009 21030 40261 52002 333 00001 31047;EQDQ01  00002PRCP99
0165581220999992000021706004+33900+117950FM-12+002699999V0201401N004019999999N0300001N1+01121-00161102361ADDAA199000091GF108991001001999999001071KA1999N-00151MD1710241+9999REMSYN070AAXX  17061 58122 32980 81404 10112 21016 40236 57024 80007 333 21015;EQDQ01  00002PRCP99
0112581220999992000021721004+33900+117950FM-12+002699999V0200701N004019999999N0200001N1+00341-00141101941ADDGF107991071001999999071999MD1710341+9999REMSYN060AAXX  17211 58122 42970 70704 10034 21014 40194 57034 8707/;
0170581220999992000021800004+33900+117950FM-12+002699999V0200701N003019999999N0220001N1+00331-00051102081ADDAA199000091GF108991081001999999071999IA2999+00009MD1210141-0501REMSYN076AAXX  18001 58122 32972 80703 10033 21005 40208 52014 8807/ 333 05504 31004;EQDQ01  00002PRCP99
0172581220999992000021806004+33900+117950FM-12+002699999V0200701N004010042019N0150001N1+00441+00341101651ADDAA106004191AY161061GF108991071071004501071999KA1999N+00271MD1710311+9999MW1601REMSYN082AAXX  18061 58122 11465 80704 10044 20034 40165 57031 60041 76060 8777/ 333 20027;
0161581220999992000021821004+33900+117950FM-12+002699999V0200701N004010042019N0150001N1+00221+00111101691ADDAA124010291AY161031AY261031GF108991071071004501071999MD1710081+9999MW1601REMSYN076AAXX  18211 58122 41465 80704 10022 20011 40169 57008 76066 8777/ 333 70101;
0191581220999992000021900004+33900+117950FM-12+002699999V0200201N004010042019N0200001N1+00271+00191101751ADDAA106000191AY161061AY261061GF108991071071004501071999IA2999+00219MD1210061-0301MW1601REMSYN094AAXX  19001 58122 11470 80204 10027 20019 40175 52006 69911 76066 8777/ 333 05351 30021 70101;
0180581220999992000021906004+33900+117950FM-12+002699999V0200401N004010042019N0200001N1+00411+00311101881ADDAA106000591AY161061AY261061GF108991071071004501071999KA1999N+00181MD1710181+9999MW1601REMSYN082AAXX  19061 58122 11470 80404 10041 20031 40188 57018 69951 76066 8777/ 333 20018;
0133581220999992000021921004+33900+117950FM-12+002699999V0200401N002010075019N0150001N1+00131+00021102221ADDAA124002091GF108991081051008001999999MD1710081+9999REMSYN070AAXX  19211 58122 42565 80402 10013 20002 40222 57008 885// 333 70020;
0146581220999992000022000004+33900+117950FM-12+002699999V0200901N002010075019N0150001N1+00201-00241102421ADDAA199000091GF108991081051008001999999MD1210201+9999REMSYN064AAXX  20001 58122 32565 80902 10020 21024 40242 52020 885// 333;EQDQ01  00002PRCP99
0175581220999992000022006004+33900+117950FM-12+002699999V0200401N001012200019N0300001N1+00591-00481102261ADDAA199000091GA1001+999999999GF100991001001999999001001KA1999N+00081MD1710221+9999REMSYN064AAXX  20061 58122 32980 00401 10059 21048 40226 57022 333 20008;EQDQ01  00002PRCP99
0162581220999992000022100004+33900+117950FM-12+002699999V0200901N003012200019N0200001N1+00051-00321102701ADDAA199000091GA1001+999999999GF100991001001999999001001MD1210091+0031REMSYN064AAXX  21001 58122 32970 00903 10005 21032 40270 52009 333 00352;EQDQ01  00002PRCP99
0165581220999992000022106004+33900+117950FM-12+002699999V0201401N004019999999N0300001N1+00711-00371102351ADDAA199000091GF107991001001999999001021KA1999N-00111MD1710311+9999REMSYN070AAXX  21061 58122 32980 71404 10071 21037 40235 57031 80002 333 21011;EQDQ01  00002PRCP99
0112581220999992000022121004+33900+117950FM-12+002699999V0200901N002019999999N0200001N1+00131-00131102501ADDGF108991081001999999071999MD1210011+9999REMSYN060AAXX  21211 58122 42970 80902 10013 21013 40250 52001 8807/;
0180581220999992000022200004+33900+117950FM-12+002699999V0200701N001012200019N0200001N1+00071-00201102531ADDAA199000091GA1001+999999999GF100991001001999999001001IA2999-00209MD1210031-0201REMSYN070AAXX  22001 58122 32970 00701 10007 21020 40253 52003 333 05200 31020;EQDQ01  00002PRCP99
0165581220999992000022206004+33900+117950FM-12+002699999V0200901N001010900019N0250001N1+00821-00031102331ADDAA199000091GF107991031051008001001021KA1999N+00021MD1710251+9999REMSYN070AAXX  22061 58122 32575 70901 10082 21003 40233 57025 83502 333 20002;EQDQ01  00002PRCP99
0122581220999992000022221004+33900+117950FM-12+002699999V0200701N002012200019N0150001N1+00241-00011102481ADDGA1001+999999999GF100991001001999999001001MD1410001+9999REMSYN054AAXX  22211 58122 42965 00702 10024 21001 40248 54000;
0170581220999992000022300004+33900+117950FM-12+002699999V0200701N003019999999N0200001N1+00231+00011102661ADDAA199000091GF107991001001999999001021IA2999-00209MD1210181+0101REMSYN076AAXX  23001 58122 32970 70703 10023 20001 40266 52018 80002 333 00102 31020;EQDQ01  00002PRCP99
0165581220999992000022306004+33900+117950FM-12+002699999V0200401N001010900019N0300001N1+01021+00031102541ADDAA199000091GF107991011011008001001021KA1999N+00181MD1710201+9999REMSYN070AAXX  23061 58122 32580 70401 10102 20003 40254 57020 81102 333 20018;EQDQ01  00002PRCP99
0112581220999992000022321004+33900+117950FM-12+002699999V0200701N003019999999N0200001N1+00241+99999103061ADDGF107991001001999999001021MD1210051+9999REMSYN060AAXX  23211 58122 42970 70703 10024 271/0 40306 52005 80002;
0170581220999992000022400004+33900+117950FM-12+002699999V0200701N003019999999N0200001N1+00171-00091103321ADDAA199000091GF107991071001999999041999IA2999-00109MD1210261+0701REMSYN076AAXX  24001 58122 32970 70703 10017 21009 40332 52026 8704/ 333 00751 31016;EQDQ01  00002PRCP99
0165581220999992000022406004+33900+117950FM-12+002699999V0200701N004019999999N0250001N1+00741-00761103071ADDAA199000091GF108991001001999999001071KA1999N+00061MD1710341+9999REMSYN070AAXX  24061 58122 32975 80704 10074 21076 40307 57034 80007 333 20006;EQDQ01  00002PRCP99
0112581220999992000022421004+33900+117950FM-12+002699999V0200901N001019999999N0200001N1-00031-00341103031ADDGF107991071001999999041999MD1710111+9999REMSYN060AAXX  24211 58122 42970 70901 11003 21034 40303 57011 8704/;
0170581220999992000022500004+33900+117950FM-12+002699999V0201601N002019999999N0250001N1+00091-00451102961ADDAA199000091GF107991001001999999001021IA2999-00309MD1710071-0401REMSYN076AAXX  25001 58122 32975 71602 10009 21045 40296 57007 80002 333 05451 31036;EQDQ01  00002PRCP99
0165581220999992000022506004+33900+117950FM-12+002699999V0200201N006019999999N0300001N1+00781-00221102391ADDAA199000091GF107991021001999999041021KA1999N-00061MD1710491+9999REMSYN070AAXX  25061 58122 32980 70206 10078 21022 40239 57049 82042 333 21006;EQDQ01  00002PRCP99
0122581220999992000022521004+33900+117950FM-12+002699999V0202701N002012200019N0200001N1+00051-00661102641ADDGA1001+999999999GF100991001001999999001001MD1710011+9999REMSYN054AAXX  25211 58122 42970 02702 10005 21066 40264 57001;
0162581220999992000022600004+33900+117950FM-12+002699999V0202701N002012200019N0250001N1+00001-00691102721ADDAA199000091GA1001+999999999GF100991001001999999001001MD1210081+0021REMSYN064AAXX  26001 58122 32975 02702 10000 21069 40272 52008 333 05251;EQDQ01  00002PRCP99
0175581220999992000022606004+33900+117950FM-12+002699999V0203201N004012200019N0300001N1+01221-01061102511ADDAA199000091GA1001+999999999GF100991001001999999001001KA1999N-00121MD1710291+9999REMSYN064AAXX  26061 58122 32980 03204 10122 21106 40251 57029 333 21012;EQDQ01  00002PRCP99
0180581220999992000022700004+33900+117950FM-12+002699999V0202201N002012200019N0250001N1+00191-00391102571ADDAA199000091GA1001+999999999GF100991001001999999001001IA2999-00409MD1210161-0201REMSYN070AAXX  27001 58122 32975 02202 10019 21039 40257 52016 333 05202 31040;EQDQ01  00002PRCP99
0175581220999992000022706004+33900+117950FM-12+002699999V0202701N003012200019N0300001N1+01531-00771102251ADDAA199000091GA1001+999999999GF100991001001999999001001KA1999N+00051MD1710271+9999REMSYN064AAXX  27061 58122 32980 02703 10153 21077 40225 57027 333 20005;EQDQ01  00002PRCP99
0122581220999992000022721004+33900+117950FM-12+002699999V0200701N005012200019N0180001N1+00351-00741102701ADDGA1001+999999999GF100991001001999999001001MD1210051+9999REMSYN054AAXX  27211 58122 42968 00705 10035 21074 40270 52005;
0170581220999992000022800004+33900+117950FM-12+002699999V0200701N004012200019N0250001N1+00251-00391103081ADDAA199000091GF101991001001999999001021IA2999-00209MD1210381+0501REMSYN076AAXX  28001 58122 32975 10704 10025 21039 40308 52038 80002 333 00501 31024;EQDQ01  00002PRCP99
0175581220999992000022806004+33900+117950FM-12+002699999V0200701N006012200019N0300001N1+00961-00281103171ADDAA199000091GA1001+999999999GF100991001001999999001001KA1999N+00201MD1710091+9999REMSYN064AAXX  28061 58122 32980 00706 10096 21028 40317 57009 333 20020;EQDQ01  00002PRCP99
0122581220999992000022821004+33900+117950FM-12+002699999V0201101N002012200019N0200001N1-00021-00521103441ADDGA1001+999999999GF100991001001999999001001MD1710051+9999REMSYN054AAXX  28211 58122 42970 01102 11002 21052 40344 57005;
0180581220999992000022900004+33900+117950FM-12+002699999V0201101N003012200019N0250001N1-00031-00421103551ADDAA199000091GA1001+999999999GF100991001001999999001001IA2999-00409MD1210101+0501REMSYN070AAXX  29001 58122 32975 01103 11003 21042 40355 52010 333 00553 31044;EQDQ01  00002PRCP99
0175581220999992000022906004+33900+117950FM-12+002699999V0201401N003012200019N0300001N1+01101-00681103081ADDAA199000091GA1001+999999999GF100991001001999999001001KA1999N-00111MD1710351+9999REMSYN064AAXX  29061 58122 32980 01403 10110 21068 40308 57035 333 21011;EQDQ01  00002PRCP99
0180581220999992000030100004+33900+117950FM-12+002699999V0200901N002012200019N0220001N1+00151-00301102981ADDAA199000091GA1001+999999999GF100991001001999999001001IA2999-00409MD1210111-0601REMSYN070AAXX  01001 58122 32972 00902 10015 21030 40298 52011 333 05602 31049;EQDQ01  00002PRCP99
0139581220999992000030106004+33900+117950FM-12+002699999V02099999999999999999N0300001N1+01331-01221102601ADDAA199000091KA1999N+00021MD1710381+9999REMSYN070AAXX  01061 58122 32980 /077/ 10133 21122 40260 57038 80002 333 20002;EQDQ01  00002PRCP99
0116581220999992000030121004+33900+117950FM-12+002699999V02099999999992200019N0200001N1+99999+99999102581ADDGA1001+999999999GF100991001001999999001001MD1210011+9999REMSYN048AAXX  01211 58122 42970 071// 21/71 40258 52001;
0170581220999992000030200004+33900+117950FM-12+002699999V0201101N002012200019N0250001N1+00291-00011102601ADDAA199000091GF101991001001999999001021IA2999-00309MD1210021-0401REMSYN076AAXX  02001 58122 32975 11102 10029 21001 40260 52002 80002 333 05401 31035;EQDQ01  00002PRCP99
0175581220999992000031406004+33900+117950FM-12+002699999V0201101N004012200019N0300001N1+01631+00021101991ADDAA199000091GA1001+999999999GF100991001001999999001001KA1999N+00521MD1710341+9999REMSYN064AAXX  14061 58122 32980 01104 10163 20002 40199 57034 333 20052;EQDQ01  00002PRCP99
0112581220999992000031421004+33900+117950FM-12+002699999V0200401N002019999999N0150001N1+00921+00541101541ADDGF108991081001999999071999MD1719999+9999REMSYN060AAXX  14211 58122 42965 80402 10092 20054 40154 57/11 8807/;
0152581220999992000031500004+33900+117950FM-12+002699999V0200401N002019999999N0200001N1+00901+00551101441ADDAA199000091GF108991081001999999071999MD1710101+0091REMSYN070AAXX  15001 58122 32970 80402 10090 20055 40144 57010 8807/ 333 05903;EQDQ01  00002PRCP99
0122581220999992000032421004+33900+117950FM-12+002699999V02099999999992200019N0200001N1+00851-00021102291ADDGA1001+999999999GF100991001001999999001001MD1710111+9999REMSYN054AAXX  24211 58122 42970 0/402 10085 21002 40229 57011;
0170581220999992000032500004+33900+117950FM-12+002699999V0202001N002019999999N0200001N1+00861+00181102451ADDAA199000091GF107991001001999999001021IA2999+00209MD1210161-0101REMSYN076AAXX  25001 58122 32970 72002 10086 20018 40245 52016 80002 333 05102 30023;EQDQ01  00002PRCP99
0165581220999992000032506004+33900+117950FM-12+002699999V0202501N003019999999N0300001N1+01961+00051102031ADDAA199000091GF107991001001999999001021KA1999N+00671MD1710311+9999REMSYN070AAXX  25061 58122 32980 72503 10196 20005 40203 57031 80002 333 20067;EQDQ01  00002PRCP99
0170581220999992000032600004+33900+117950FM-12+002699999V0201601N001019999999N0250001N1+00911-00061102131ADDAA199000091GF107991001001999999001021IA2999+00009MD1210011-0301REMSYN076AAXX  26001 58122 32975 71601 10091 21006 40213 52001 80002 333 05301 30001;EQDQ01  00002PRCP99
0175581220999992000032606004+33900+117950FM-12+002699999V0202501N003012200019N0300001N1+02271-00671101591ADDAA199000091GA1001+999999999GF100991001001999999001001KA1999N+00631MD1710441+9999REMSYN064AAXX  26061 58122 32980 02503 10227 21067 40159 57044 333 20063;EQDQ01  00002PRCP99
0112581220999992000032621004+33900+117950FM-12+002699999V0202001N003019999999N0200001N1+01121+00301100761ADDGF107991001001999999001021MD1710341+9999REMSYN060AAXX  26211 58122 42970 72003 10112 20030 40076 57034 80002;
0152581220999992000032700004+33900+117950FM-12+002699999V0202201N005019999999N0220001N1+01321+00291100671ADDAA199000091GF107991001001999999001021MD1710091+0151REMSYN070AAXX  27001 58122 32972 72205 10132 20029 40067 57009 80002 333 06504;EQDQ01  00002PRCP99
0122581220999992000032721004+33900+117950FM-12+002699999V0203201N004012200019N0150001N1+01221-01101101511ADDGA1001+999999999GF100991001001999999001001MD1210311+9999REMSYN054AAXX  27211 58122 42965 03204 10122 21110 40151 52031;
0175581220999992000032806004+33900+117950FM-12+002699999V0202901N008012200019N0250001N1+01591-01581101871ADDAA199000091GA1001+999999999GF100991001001999999001001KA1999N+00961MD1710071+9999REMSYN064AAXX  28061 58122 32975 02908 10159 21158 40187 57007 333 20096;EQDQ01  00002PRCP99
0122581220999992000032821004+33900+117950FM-12+002699999V0209999C000012200019N0200001N1+00581-00301102301ADDGA1001+999999999GF100991001001999999001001MD1710011+9999REMSYN054AAXX  28211 58122 42970 00000 10058 21030 40230 57001;
0180581220999992000032900004+33900+117950FM-12+002699999V0209999C000012200019N0250001N1+01051-00671102461ADDAA199000091GA1001+999999999GF100991001001999999001001IA2999-00309MD1210161+0601REMSYN070AAXX  29001 58122 32975 00000 10105 21067 40246 52016 333 00600 31033;EQDQ01  00002PRCP99
0175581220999992000032906004+33900+117950FM-12+002699999V0202201N003012200019N0300001N1+01911-00441102071ADDAA199000091GA1001+999999999GF100991001001999999001001KA1999N+00371MD1710361+9999REMSYN064AAXX  29061 58122 32980 02203 10191 21044 40207 57036 333 20037;EQDQ01  00002PRCP99
0162581220999992000033000004+33900+117950FM-12+002699999V0201101N003012200019N0250001N1+01051+00111101181ADDAA199000091GA1001+999999999GF100991001001999999001001MD1210011+0131REMSYN064AAXX  30001 58122 32975 01103 10105 20011 40118 52001 333 06300;EQDQ01  00002PRCP99
0175581220999992000033006004+33900+117950FM-12+002699999V0202001N004012200019N0300001N1+02601+00581100531ADDAA199000091GA1001+999999999GF100991001001999999001001KA1999N+00851MD1710421+9999REMSYN064AAXX  30061 58122 32980 02004 10260 20058 40053 57042 333 20085;EQDQ01  00002PRCP99
0122581220999992000033021004+33900+117950FM-12+002699999V0202901N002012200019N0200001N1+01501+01051100601ADDGA1001+999999999GF100991001001999999001001MD1210051+9999REMSYN054AAXX  30211 58122 42970 02902 10150 20105 40060 52005;
0162581220999992000033100004+33900+117950FM-12+002699999V0200201N004012200019N0200001N1+01431+00791100891ADDAA199000091GA1001+999999999GF100991001001999999001001MD1210291+0031REMSYN064AAXX  31001 58122 32970 00204 10143 20079 40089 52029 333 05304;EQDQ01  00002PRCP99
0175581220999992000033106004+33900+117950FM-12+002699999V0200701N005012200019N0300001N1+02151+00501101071ADDAA199000091GA1001+999999999GF100991001001999999001001KA1999N+01361MD1410001+9999REMSYN064AAXX  31061 58122 32980 00705 10215 20050 40107 54000 333 20136;EQDQ01  00002PRCP99
0112581220999992000033121004+33900+117950FM-12+002699999V0201101N004010150019N9999999N1+01181+00201101751ADDGF108991081051017501999999MD1210071+9999REMSYN060AAXX  31211 58122 //70/ 81104 10118 20020 40175 52007 885//;
0142581220999992000040106004+33900+117950FM-12+002699999V0200701N005019999999N0250001N1+01691-00511101461ADDAA199000091GF107991071011999999999999MD1710291+9999REMSYN060AAXX  01061 58122 32975 70705 10169 21051 40146 57029 871//;EQDQ01  00002PRCP99
0112581220999992000040121004+33900+117950FM-12+002699999V0200401N003010075019N0150001N1+01101-00321101611ADDGF108991081051008001999999MD1210061+9999REMSYN060AAXX  01211 58122 42565 80403 10110 21032 40161 52006 885//;
0165581220999992000040200004+33900+117950FM-12+002699999V0200401N004019999999N0200001N1+01031+00761101831ADDAA106000791AY161061GF108991081001999999071999MD1210221+0001MW1601REMSYN088AAXX  02001 58122 11970 80404 10103 20076 40183 52022 69901 76060 8807/ 333 00051 79999;
0172581220999992000040206004+33900+117950FM-12+002699999V0200401N004019999999N0250001N1+01141+00831101901ADDAA106000791AY161061GF108991081001999999071999KA1999N+00971MD1210021+9999MW1001REMSYN082AAXX  02061 58122 11975 80404 10114 20083 40190 52002 69901 70060 8807/ 333 20097;
0143581220999992000040221004+33900+117950FM-12+002699999V0200401N003012200019N0200001N1+00551+00231102001ADDAA124000791GA1001+999999999GF100991001001999999001001MD1710111+9999REMSYN064AAXX  02211 58122 42970 00403 10055 20023 40200 57011 333 79999;
0167581220999992000040300004+33900+117950FM-12+002699999V02099999999992200019N0250001N1+00751+00241102121ADDAA124000791GA1001+999999999GF100991001001999999001001IA2999+00189MD1210131+0301REMSYN076AAXX  03001 58122 /2975 004/4 10075 20024 40212 52013 333 00353 30018 79999;
0165581220999992000040306004+33900+117950FM-12+002699999V0201401N003019999999N0300001N1+01771+00641101801ADDAA199000091GF107991001001999999001021KA1999N+00511MD1710321+9999REMSYN070AAXX  03061 58122 32980 71403 10177 20064 40180 57032 80002 333 20051;EQDQ01  00002PRCP99
0112581220999992000040321004+33900+117950FM-12+002699999V0200401N001019999999N0200001N1+01331+01121101351ADDGF108991081001999999071999MD1710141+9999REMSYN060AAXX  03211 58122 42970 80401 10133 20112 40135 57014 8807/;
0165581220999992000040406004+33900+117950FM-12+002699999V0202901N002012200019N0300001N1+02111+01251101271ADDAA199000091GF103991031011008001001001KA1999N+01281MD1710221+9999REMSYN070AAXX  04061 58122 32580 32902 10211 20125 40127 57022 83100 333 20128;EQDQ01  00002PRCP99
