0196583140999992000010100004+31400+116330FM-12+006899999V0201601N002019999999N0030001N1+00451+00301102241ADDAA106000791GF108991081001999999071999IA2999+00259MA1999999101331MD1210121-0201MW1211REMSYN100AAXX  01001 58314 11930 81602 10045 20030 30133 40224 52012 69901 72100 8807/ 333 05204 30025 79999;
0124583140999992000010103004+31400+116330FM-12+006899999V0200701N001019999999N0040001N1+00561+00291102271ADDGF107991071001999999071999MD1210031+9999MW1101REMSYN066AAXX  01031 58314 41940 70701 10056 20029 40227 52003 71000 8707/;
0179583140999992000010106004+31400+116330FM-12+006899999V0200701N002019999999N0050001N1+00811+00341102001ADDAA106000021GF107991071001999999071999KA1999N+00401MA1999999101101MD1710261+9999MW1101REMSYN082AAXX  01061 58314 31950 70702 10081 20034 30110 40200 57026 71000 8707/ 333 20040;
0124583140999992000010109004+31400+116330FM-12+006899999V0200401N002019999999N0040001N1+00551+00281102151ADDGF108991081001999999071999MD1210141+9999MW1101REMSYN066AAXX  01091 58314 41940 80402 10055 20028 40215 52014 71000 8807/;
0175583140999992000010112004+31400+116330FM-12+006899999V0200901N001019999999N0080001N1+00501+00251102441ADDAA106000091GF108991081001999999071999MA1999999101531MD1210291+9999MW1101REMSYN072AAXX  01121 58314 31958 80901 10050 20025 30153 40244 52029 71000 8807/;EQDQ01  00002PRCP06
0124583140999992000010115004+31400+116330FM-12+006899999V0209999C000019999999N0080001N1+00491+00291102491ADDGF108991081001999999071999MD1210051+9999MW1101REMSYN066AAXX  01151 58314 41958 80000 10049 20029 40249 52005 71000 8807/;
0186583140999992000010118004+31400+116330FM-12+006899999V0202201N002019999999N0120001N1+00441+00291102521ADDAA106000091GF108991081001999999071999KA1999M+00821MA1999999101611MD1210031+9999REMSYN076AAXX  01181 58314 32962 82202 10044 20029 30161 40252 52003 8807/ 333 10082;EQDQ01  00002PRCP06
0143583140999992000010121004+31400+116330FM-12+006899999V0209999C000012200019N0120001N1+00201+00121102491ADDAA124000791GA1001+999999999GF100991001001999999001001MD1710041+9999REMSYN064AAXX  01211 58314 42962 00000 10020 20012 40249 57004 333 79999;
0213583140999992000010200004+31400+116330FM-12+006899999V0200701N001010006019N0008001N1+00051+00021102651ADDAA106000091GA1091+999999999GF109991091999999999999999IA2999+00009MA1999999101731MD1210161+0401MW1471REMSYN082AAXX  02001 58314 31/08 90701 10005 20002 30173 40265 52016 74700 333 00454 31005;EQDQ01  00002PRCP06
0140583140999992000010203004+31400+116330FM-12+006899999V0201101N001019999999N0009001N1+00181+00131102711ADDAY141031AY241031GF108991081001999999071999MD1210061+9999MW1421REMSYN066AAXX  02031 58314 41909 81101 10018 20013 40271 52006 74244 8807/;
0216583140999992000010206004+31400+116330FM-12+006899999V0201601N001012200019N0120001N1+00961+00101102331ADDAA106000091AY141061GA1001+999999999GF100991001001999999001001KA1999N+00001MA1999999101431MD1710361+9999MW1001REMSYN076AAXX  02061 58314 31962 01601 10096 20010 30143 40233 57036 70040 333 20000;EQDQ01  00002PRCP06
0122583140999992000010209004+31400+116330FM-12+006899999V0200901N002012200019N0120001N1+00961+00281102301ADDGA1001+999999999GF100991001001999999001001MD1710041+9999REMSYN054AAXX  02091 58314 42962 00902 10096 20028 40230 57004;
0173583140999992000010212004+31400+116330FM-12+006899999V0209999C000012200019N0200001N1+00411+00181102211ADDAA106000091GA1001+999999999GF100991001001999999001001MA1999999101291MD1710101+9999REMSYN060AAXX  02121 58314 32970 00000 10041 20018 30129 40221 57010;EQDQ01  00002PRCP06
0122583140999992000010215004+31400+116330FM-12+006899999V0209999C000012200019N0100001N1+00131+00051102091ADDGA1001+999999999GF100991001001999999001001MD1710121+9999REMSYN054AAXX  02151 58314 42960 00000 10013 20005 40209 57012;
0208583140999992000010218004+31400+116330FM-12+006899999V0209999C000012200019N0060001N1-00061-00091101931ADDAA106000091GA1001+999999999GF100991001001999999001001KA1999M+01121MA1999999101021MD1710151+9999MW1101REMSYN076AAXX  02181 58314 31956 00000 11006 21009 30102 40193 57015 71000 333 10112;EQDQ01  00002PRCP06
0155583140999992000010221004+31400+116330FM-12+006899999V0209999C000012200019N0090001N1-00091-00121101831ADDAA124000791GA1001+999999999GF100991001001999999001001MD1710101+9999MW1101REMSYN070AAXX  02211 58314 41959 00000 11009 21012 40183 57010 71000 333 79999;
0201583140999992000010300004+31400+116330FM-12+006899999V02099999999992200019N0120001N1-00021-00201101951ADDAA106000091GA1001+999999999GF100991001001999999001001IA2999-00309MA1999999101031MD1210111+9999REMSYN076AAXX  03001 58314 32962 0/001 11002 21020 30103 40195 52011 333 0/751 31035;EQDQ01  00002PRCP06
0122583140999992000010303004+31400+116330FM-12+006899999V0200701N001012200019N0150001N1+00421+00221102021ADDGA1001+999999999GF100991001001999999001001MD1210081+9999REMSYN054AAXX  03031 58314 42965 00701 10042 20022 40202 52008;
0196583140999992000010306004+31400+116330FM-12+006899999V0200701N003012200019N0200001N1+01121+00181101631ADDAA106000091GA1001+999999999GF100991001001999999001001KA1999N-00131MA1999999100731MD1710381+9999REMSYN070AAXX  03061 58314 32970 00703 10112 20018 30073 40163 57038 333 21013;EQDQ01  00002PRCP06
0122583140999992000010309004+31400+116330FM-12+006899999V0209999C000012200019N0200001N1+01121+00581101611ADDGA1001+999999999GF100991001001999999001001MD1710021+9999REMSYN054AAXX  03091 58314 42970 00000 10112 20058 40161 57002;
0173583140999992000010312004+31400+116330FM-12+006899999V0209999C000012200019N0120001N1+00571+00381101721ADDAA106000091GA1001+999999999GF100991001001999999001001MA1999999100811MD1210101+9999REMSYN060AAXX  03121 58314 32962 00000 10057 20038 30081 40172 52010;EQDQ01  00002PRCP06
0122583140999992000010315004+31400+116330FM-12+006899999V0209999C000012200019N0120001N1+00371+00271101751ADDGA1001+999999999GF100991001001999999001001MD1210031+9999REMSYN054AAXX  03151 58314 42962 00000 10037 20027 40175 52003;
0186583140999992000010318004+31400+116330FM-12+006899999V0209999C000019999999N0120001N1+00311+00231101691ADDAA106000091GF108991081001999999071999KA1999M+01301MA1999999100791MD1710051+9999REMSYN076AAXX  03181 58314 32962 80000 10031 20023 30079 40169 57005 8807/ 333 10130;EQDQ01  00002PRCP06
0074583140999992000010321004+31400+116330FM-12+006899999V0201601N002019999999N0120001N1+00451+99999999999ADDGF107991999999999999999999REMSYN036AAXX  03211 58314 42962 71602 10045;
0203583140999992000010400004+31400+116330FM-12+006899999V0201401N002019999999N0080001N1+00501+00331101791ADDAA106000091GF108991081001999999071999IA2999+00009MA1999999100891MD1210121-0101MW1101REMSYN088AAXX  04001 58314 31958 81402 10050 20033 30089 40179 52012 71000 8807/ 333 05105 31002;EQDQ01  00002PRCP06
0124583140999992000010403004+31400+116330FM-12+006899999V0201101N001019999999N0080001N1+00711+00431101741ADDGF108991081001999999071999MD1710051+9999MW1101REMSYN066AAXX  04031 58314 41958 81101 10071 20043 40174 57005 71000 8807/;
0198583140999992000010406004+31400+116330FM-12+006899999V0203601N002019999999N0080001N1+01031+00501101461ADDAA106000091GF108991081001999999071999KA1999N+00251MA1999999100561MD1710281+9999MW1101REMSYN082AAXX  04061 58314 31958 83602 10103 20050 30056 40146 57028 71000 8807/ 333 20025;EQDQ01  00002PRCP06
0124583140999992000010409004+31400+116330FM-12+006899999V0201601N001019999999N0080001N1+00731+00411101551ADDGF108991081001999999071999MD1210091+9999MW1601REMSYN066AAXX  04091 58314 41958 81601 10073 20041 40155 52009 76000 8807/;
0170583140999992000010412004+31400+116330FM-12+006899999V0200901N002019999999N0080001N1+00621+00411101641ADDAA106000191AY161061GF108991081001999999071999MA1999999100741MD1210091+9999MW1601REMSYN078AAXX  04121 58314 11958 80902 10062 20041 30074 40164 52009 69921 76060 8807/;
0140583140999992000010415004+31400+116330FM-12+006899999V0201601N002019999999N0070001N1+00531+00461101731ADDAY161031AY261031GF108991081001999999071999MD1210091+9999MW1601REMSYN066AAXX  04151 58314 41957 81602 10053 20046 40173 52009 76066 8807/;
0201583140999992000010418004+31400+116330FM-12+006899999V0200701N002019999999N0050001N1+00491+00351101741ADDAA106000191AY161061AY261061GF108991081001999999071999KA1999M+01051MA1999999100841MD1210011+9999MW1211REMSYN088AAXX  04181 58314 11950 80702 10049 20035 30084 40174 52001 69911 72166 8807/ 333 10105;
0119583140999992000010421004+31400+116330FM-12+006899999V0200201N004019999999N0050001N1+00431+00301999999ADDAA124000391GF108991081001999999071999MW1101REMSYN064AAXX  04211 58314 41950 80204 10043 2003/ 71000 8807/ 333 70003;
0178583140999992000010500004+31400+116330FM-12+006899999V0200901N002019999999N0040001N1+00381+00281999999ADDAA106000021GF108991081001999999071999MA1999999100941MD1210221+0101MW1101REMSYN094AAXX  05001 58314 31940 80902 10038 20028 30094 401// 52022 71000 8807/ 333 00151 3/012 70003;
0124583140999992000010503004+31400+116330FM-12+006899999V0200701N003019999999N0060001N1+00321+00241101891ADDGF108991081001999999071999MD1210041+9999MW1101REMSYN066AAXX  05031 58314 41956 80703 10032 20024 40189 52004 71000 8807/;
0198583140999992000010506004+31400+116330FM-12+006899999V0200901N001019999999N0040001N1+00421+00251101631ADDAA106000091GF108991081001999999071999KA1999N+00251MA1999999100731MD1710251+9999MW1101REMSYN082AAXX  05061 58314 31940 80901 10042 20025 30073 40163 57025 71000 8807/ 333 20025;EQDQ01  00002PRCP06
0124583140999992000010509004+31400+116330FM-12+006899999V0200401N002019999999N0040001N1+00361+00181101751ADDGF108991081001999999071999MD1210111+9999MW1101REMSYN066AAXX  05091 58314 41940 80402 10036 20018 40175 52011 71000 8807/;
0175583140999992000010512004+31400+116330FM-12+006899999V0200201N002019999999N0080001N1+00241+00051102171ADDAA106000091GF108991081001999999071999MA1999999101261MD1210421+9999MW1101REMSYN072AAXX  05121 58314 31958 80202 10024 20005 30126 40217 52042 71000 8807/;EQDQ01  00002PRCP06
0132583140999992000010515004+31400+116330FM-12+006899999V0202901N001019999999N0090001N1+00211+00131102391ADDAY161031GF108991081001999999071999MD1210211+9999MW1601REMSYN066AAXX  05151 58314 41959 82901 10021 20013 40239 52021 76060 8807/;
0128583140999992000010521004+31400+116330FM-12+006899999V0203401N002010075019N0080001N1+00251+00151102391ADDGF108991081051008001999999MD1210031+9999MW1601REMSYN070AAXX  05211 58314 41558 83402 10025 20015 40239 52003 76000 885// 333;
0140583140999992000010603004+31400+116330FM-12+006899999V0201801N001010075019N0080001N1+00321+00221102821ADDAY171031AY261031GF108991081051008001999999MD1210221+9999MW1601REMSYN066AAXX  06031 58314 41558 81801 10032 20022 40282 52022 76076 885//;
0201583140999992000010606004+31400+116330FM-12+006899999V0203201N001019999999N0120001N1+00511+00211102621ADDAA106000191AY171061AY261061GF108991081001999999071999KA1999N+00151MA1999999101701MD1710201+9999MW1001REMSYN088AAXX  06061 58314 11962 83201 10051 20021 30170 40262 57020 69911 70076 8807/ 333 20015;
0112583140999992000010609004+31400+116330FM-12+006899999V0209999C000012200019N0120001N1+00511+00151102541ADDGF102991021001999999041001MD1710081+9999REMSYN060AAXX  06091 58314 42962 20000 10051 20015 40254 57008 82040;
0173583140999992000010612004+31400+116330FM-12+006899999V0201601N001012200019N0120001N1+00221+00091102781ADDAA106000091GA1001+999999999GF100991001001999999001001MA1999999101861MD1210241+9999REMSYN060AAXX  06121 58314 32962 01601 10022 20009 30186 40278 52024;EQDQ01  00002PRCP06
0122583140999992000010615004+31400+116330FM-12+006899999V0209999C000012200019N0120001N1+00091+00011102851ADDGA1001+999999999GF100991001001999999001001MD1210071+9999REMSYN054AAXX  06151 58314 42962 00000 10009 20001 40285 52007;
0145583140999992000010621004+31400+116330FM-12+006899999V0203201N001019999999N0060001N1+00041-00021102741ADDAA124001091GF108991081001999999071999MD1710081+9999MW1101REMSYN076AAXX  06211 58314 41956 83201 10004 21002 40274 57008 71000 8807/ 333 70009;
0209583140999992000010700004+31400+116330FM-12+006899999V0202501N002010075019N0040001N1+00121+00071102871ADDAA106000091GF108991081051008001999999IA2999-00239MA1999999101941MD1210121+0301MW1101REMSYN094AAXX  07001 58314 31540 82502 10012 20007 30194 40287 52012 71000 885// 333 00351 31023 70001;EQDQ01  00002PRCP06
0112583140999992000010703004+31400+116330FM-12+006899999V0201101N003010075019N0100001N1+00351+00031102821ADDGF108991081051008001999999MD1710041+9999REMSYN060AAXX  07031 58314 42560 81103 10035 20003 40282 57004 885//;
0137583140999992000010705004+31400+116330FM-12+006899999V0200901N004019999999N0100001N1+00381+00031102351ADDGF108991999001008001001001MD1710051+9999REMSYN066AAXX  07051 58314 41560 80904 10038 20003 40235 57005 86000 885//;EQDQ01+000062SCOTLC
0186583140999992000010706004+31400+116330FM-12+006899999V0200901N002010075019N0100001N1+00451+00031102401ADDAA106000091GF108991081051008001999999KA1999N-00061MA1999999101481MD1710421+9999REMSYN076AAXX  07061 58314 32560 80902 10045 20003 30148 40240 57042 885// 333 21006;EQDQ01  00002PRCP06
0124583140999992000010709004+31400+116330FM-12+006899999V0200901N004010075019N0100001N1+00381+00031102351ADDGF108991081051008001999999MD1710051+9999MW1601REMSYN066AAXX  07091 58314 41560 80904 10038 20003 40235 57005 76000 885//;
0170583140999992000010712004+31400+116330FM-12+006899999V0201101N002010120019N0100001N1+00331+00121102421ADDAA106000191AY161061GF108991081051012501999999MA1999999101501MD1210071+9999MW1001REMSYN078AAXX  07121 58314 11660 81102 10033 20012 30150 40242 52007 69921 70060 885//;
0112583140999992000010715004+31400+116330FM-12+006899999V0209999C000010075019N0100001N1+00311+00131102381ADDGF108991081051008001999999MD1710041+9999REMSYN060AAXX  07151 58314 42560 80000 10031 20013 40238 57004 885//;
0166583140999992000010718004+31400+116330FM-12+006899999V0201401N002010120019N0150001N1+00301+00141102251ADDAA106000091GF108991081051012501999999KA1999M+00481MA1999999101341REMSYN070AAXX  07181 58314 32665 81402 10030 20014 30134 40225 885// 333 10048;EQDQ01  00002PRCP06
0153583140999992000010721004+31400+116330FM-12+006899999V0200701N002010075019N0090001N1+00261+00181102141ADDAA124000591AY161031GF108991081051008001999999MD1710111+9999MW1601REMSYN076AAXX  07211 58314 41559 80702 10026 20018 40214 57011 76060 885// 333 70005;
0184583140999992000010800004+31400+116330FM-12+006899999V0200701N002019999999N0040001N1+00271+00191102131ADDAA106000591GF108991081001999999071999IA2999+00179MA1999999101221MD1710011-0701REMSYN094AAXX  08001 58314 11940 80702 10027 20019 30122 40213 57001 69951 8807/ 333 05702 30017 70007;
0124583140999992000010803004+31400+116330FM-12+006899999V0200901N001019999999N0040001N1+00341+00211102251ADDGF108991081001999999071999MD1210121+9999MW1101REMSYN066AAXX  08031 58314 41940 80901 10034 20021 40225 52012 71000 8807/;
0193583140999992000010806004+31400+116330FM-12+006899999V0200701N002010120019N0040001N1+00331+00281101881ADDAA106001091AY161061GF108991081051012501999999KA1999N+00231MA1999999100971MD1710371+9999MW1601REMSYN088AAXX  08061 58314 11640 80702 10033 20028 30097 40188 57037 60011 76060 885// 333 20023;
0140583140999992000010809004+31400+116330FM-12+006899999V0203401N001010075019N0040001N1+00331+00251101961ADDAY161031AY261031GF108991081051008001999999MD1210081+9999MW1601REMSYN066AAXX  08091 58314 41540 83401 10033 20025 40196 52008 76066 885//;
0178583140999992000010812004+31400+116330FM-12+006899999V0200201N002010075019N0040001N1+00321+00241101981ADDAA106006191AY161061AY261061GF108991081051008001999999MA1999999101071MD1210021+9999MW1601REMSYN078AAXX  08121 58314 11540 80202 10032 20024 30107 40198 52002 60061 76066 885//;
0132583140999992000010815004+31400+116330FM-12+006899999V0209999C000010120019N0040001N1+00321+00271102041ADDAY161031GF108991081051012501999999MD1210061+9999MW1101REMSYN066AAXX  08151 58314 41640 80000 10032 20027 40204 52006 71060 885//;
0193583140999992000010818004+31400+116330FM-12+006899999V0203401N002019999999N0120001N1+00211+00131102061ADDAA106001091AY161061GF108991081001999999071999KA1999M+00341MA1999999101151MD1210021+9999MW1001REMSYN088AAXX  08181 58314 11962 83402 10021 20013 30115 40206 52002 60011 70060 8807/ 333 10034;
0127583140999992000010821004+31400+116330FM-12+006899999V0200901N001019999999N0100001N1+00301+99999102031ADDAA124008991GF108991081001999999071999MD1710031+9999REMSYN064AAXX  08211 58314 42960 80901 10030 40203 57003 8807/ 333 70089;
0209583140999992000010900004+31400+116330FM-12+006899999V0200901N001010075019N0060001N1+00301+00221102261ADDAA106000091GF108991081051008001999999IA2999+00269MA1999999101341MD1210221+0101MW1101REMSYN094AAXX  09001 58314 31556 80901 10030 20022 30134 40226 52022 71000 885// 333 00100 30026 70087;EQDQ01  00002PRCP06
0124583140999992000010903004+31400+116330FM-12+006899999V0200701N002010075019N0060001N1+00311+00261102381ADDGF108991081051008001999999MD1210121+9999MW1101REMSYN066AAXX  09031 58314 41556 80702 10031 20026 40238 52012 71000 885//;
0112583140999992000010909004+31400+116330FM-12+006899999V0203401N001019999999N0120001N1+00481+00281102251ADDGF108991081001999999071999MD1210151+9999REMSYN060AAXX  09091 58314 42962 83401 10048 20028 40225 52015 8807/;
0170583140999992000010912004+31400+116330FM-12+006899999V0200901N001019999999N0050001N1+00421+00321102271ADDAA106000791AY161061GF108991081001999999071999MA1999999101361MD1210021+9999MW1601REMSYN078AAXX  09121 58314 11950 80901 10042 20032 30136 40227 52002 69901 76060 8807/;
0140583140999992000010915004+31400+116330FM-12+006899999V0203201N002019999999N0050001N1+00441+00371102301ADDAY161031AY261031GF108991081001999999071999MD1210031+9999MW1601REMSYN066AAXX  09151 58314 41950 83202 10044 20037 40230 52003 76066 8807/;
0201583140999992000010918004+31400+116330FM-12+006899999V0203601N001019999999N0080001N1+00421+00371102451ADDAA106000191AY161061AY261061GF108991081001999999071999KA1999M+00611MA1999999101541MD1210151+9999MW1601REMSYN088AAXX  09181 58314 11958 83601 10042 20037 30154 40245 52015 69911 76066 8807/ 333 10061;
0161583140999992000010921004+31400+116330FM-12+006899999V0200901N002019999999N0080001N1+00381+00311102441ADDAA124000591AY161031AY261031GF108991081001999999071999MD1710011+9999MW1601REMSYN076AAXX  09211 58314 41958 80902 10038 20031 40244 57001 76066 8807/ 333 70005;
0212583140999992000011000004+31400+116330FM-12+006899999V0200901N002010075019N0070001N1+00371+00271102441ADDAA106001091AY161061AY261061GF108991081051008001999999IA2999+00309MA1999999101531MD1410001+0201MW1601REMSYN100AAXX  10001 58314 11557 80902 10037 20027 30153 40244 54000 60011 76066 885// 333 00201 30030 70014;
0140583140999992000011003004+31400+116330FM-12+006899999V0200701N003019999999N0070001N1+00451+00301102491ADDAY161031AY261031GF108991081001999999071999MD1210051+9999MW1601REMSYN066AAXX  10031 58314 41957 80703 10045 20030 40249 52005 76066 8807/;
0193583140999992000011006004+31400+116330FM-12+006899999V0200901N003019999999N0090001N1+00561+00391102211ADDAA106000591AY161061GF108991081001999999071999KA1999N+00321MA1999999101301MD1710281+9999MW1101REMSYN088AAXX  10061 58314 11959 80903 10056 20039 30130 40221 57028 69951 71060 8807/ 333 20032;
0132583140999992000011009004+31400+116330FM-12+006899999V0201101N001019999999N0060001N1+00521+00451102221ADDAY161031GF108991081001999999071999MD1210011+9999MW1601REMSYN066AAXX  10091 58314 41956 81101 10052 20045 40222 52001 76060 8807/;
0170583140999992000011012004+31400+116330FM-12+006899999V0202901N001010120019N0040001N1+00531+00481102191ADDAA106006191AY161061GF108991081051012501999999MA1999999101281MD1710031+9999MW1601REMSYN078AAXX  10121 58314 11640 82901 10053 20048 30128 40219 57003 60061 76060 885//;
0140583140999992000011015004+31400+116330FM-12+006899999V0202701N002010075019N0040001N1+00541+00491102071ADDAY161031AY261031GF108991081051008001999999MD1710121+9999MW1601REMSYN066AAXX  10151 58314 41540 82702 10054 20049 40207 57012 76066 885//;
0201583140999992000011018004+31400+116330FM-12+006899999V0209999C000010075019N0040001N1+00551+00501101821ADDAA106006191AY161061AY261061GF108991081051008001999999KA1999M+00591MA1999999100921MD1710241+9999MW1601REMSYN088AAXX  10181 58314 11540 80000 10055 20050 30092 40182 57024 60061 76066 885// 333 10059;
0161583140999992000011021004+31400+116330FM-12+006899999V0202901N003010075019N0040001N1+00491+00441101681ADDAA124016091AY161031AY261031GF108991081051008001999999MD1710141+9999MW1601REMSYN076AAXX  10211 58314 41540 82903 10049 20044 40168 57014 76066 885// 333 70161;
0212583140999992000011100004+31400+116330FM-12+006899999V0202701N002010075019N0040001N1+00661+00621101811ADDAA106007991AY161061AY261061GF108991081051008001999999IA2999+00469MA1999999100911MD1210131-0601MW1601REMSYN100AAXX  11001 58314 11540 82702 10066 20062 30091 40181 52013 60081 76066 885// 333 05603 30046 70201;
0140583140999992000011103004+31400+116330FM-12+006899999V0203401N002010075019N0040001N1+00661+00591101941ADDAY161031AY261031GF108991081051008001999999MD1210131+9999MW1601REMSYN066AAXX  11031 58314 41540 83402 10066 20059 40194 52013 76066 885//;
0201583140999992000011106004+31400+116330FM-12+006899999V0203201N002010075019N0040001N1+00591+00501101761ADDAA106008991AY161061AY261061GF108991081051008001999999KA1999N+00491MA1999999100861MD1710181+9999MW1601REMSYN088AAXX  11061 58314 11540 83202 10059 20050 30086 40176 57018 60091 76066 885// 333 20049;
0140583140999992000011109004+31400+116330FM-12+006899999V0203201N003010075019N0040001N1+00551+00431101991ADDAY161031AY261031GF108991081051008001999999MD1210221+9999MW1601REMSYN066AAXX  11091 58314 41540 83203 10055 20043 40199 52022 76066 885//;
0178583140999992000011112004+31400+116330FM-12+006899999V0203401N004010075019N0040001N1+00361+00231102281ADDAA106000391AY161061AY261061GF108991081051008001999999MA1999999101371MD1210291+9999MW1601REMSYN078AAXX  11121 58314 11540 83404 10036 20023 30137 40228 52029 69931 76066 885//;
0140583140999992000011115004+31400+116330FM-12+006899999V0203401N003010075019N0040001N1+00281+00151102371ADDAY161031AY261031GF108991081051008001999999MD1210091+9999MW1211REMSYN066AAXX  11151 58314 41540 83403 10028 20015 40237 52009 72166 885//;
0173583140999992000011118004+31400+116330FM-12+006899999V0203401N002010075019N0040001N1+00181+00071102401ADDAA106001091AY161061GF108991081051008001999999KA1999M+00671MA1999999101491MW1601REMSYN082AAXX  11181 58314 11540 83402 10018 20007 30149 40240 69991 76060 885// 333 10067;
0161583140999992000011121004+31400+116330FM-12+006899999V0203401N003010075019N0040001N1+00131-00011102381ADDAA124014591AY161031AY261031GF108991081051008001999999MD1710031+9999MW1601REMSYN076AAXX  11211 58314 41540 83403 10013 21001 40238 57003 76066 885// 333 70144;
0212583140999992000011200004+31400+116330FM-12+006899999V0203401N002010075019N0060001N1+00141+00001102621ADDAA106000391AY161061AY261061GF108991081051008001999999IA2999+00109MA1999999101701MD1210241+0801MW1211REMSYN100AAXX  12001 58314 11556 83402 10014 20000 30170 40262 52024 69931 72166 885// 333 00855 30010 70096;
0124583140999992000011203004+31400+116330FM-12+006899999V0202701N003010075019N0060001N1+00181+00041102611ADDGF108991081051008001999999MD1710011+9999MW1101REMSYN066AAXX  12031 58314 41556 82703 10018 20004 40261 57001 71000 885//;
0167583140999992000011206004+31400+116330FM-12+006899999V0203201N002010075019N0100001N1+00301+00061102421ADDAA106000021GF108991081051008001999999KA1999N+00091MA1999999101501MD1710191+9999REMSYN076AAXX  12061 58314 32560 83202 10030 20006 30150 40242 57019 885// 333 20009;
0112583140999992000011209004+31400+116330FM-12+006899999V0200401N002010075019N0100001N1+00341+00101102411ADDGF108991081051008001999999MD1710011+9999REMSYN060AAXX  12091 58314 42560 80402 10034 20010 40241 57001 885//;
0163583140999992000011212004+31400+116330FM-12+006899999V0203601N003019999999N0120001N1+00211-00011102501ADDAA106000091GF108991081001999999071999MA1999999101581MD1210091+9999REMSYN066AAXX  12121 58314 32962 83603 10021 21001 30158 40250 52009 8807/;EQDQ01  00002PRCP06
0112583140999992000011215004+31400+116330FM-12+006899999V0200901N002019999999N0120001N1+00161+00021102511ADDGF108991081001999999071999MD1210011+9999REMSYN060AAXX  12151 58314 42962 80902 10016 20002 40251 52001 8807/;
0186583140999992000011218004+31400+116330FM-12+006899999V0200701N001019999999N0100001N1+00141-00031102441ADDAA106000091GF108991081001999999071999KA1999M+00371MA1999999101521MD1710071+9999REMSYN076AAXX  12181 58314 32960 80701 10014 21003 30152 40244 57007 8807/ 333 10037;EQDQ01  00002PRCP06
0145583140999992000011221004+31400+116330FM-12+006899999V0203401N002019999999N0080001N1+00101-00041102411ADDAA124000191GF108991081001999999071999MD1710031+9999MW1101REMSYN076AAXX  12211 58314 41958 83402 10010 21004 40241 57003 71000 8807/ 333 70001;
0191583140999992000011300004+31400+116330FM-12+006899999V0200401N001019999999N0100001N1+00061-00141102531ADDAA106000091GF108991081001999999071999IA2999+00009MA1999999101611MD1210121-0101REMSYN082AAXX  13001 58314 32960 80401 10006 21014 30161 40253 52012 8807/ 333 05151 30004;EQDQ01  00002PRCP06
0124583140999992000011303004+31400+116330FM-12+006899999V0200901N001019999999N0080001N1+00141-00151102561ADDGF108991081001999999071999MD1210031+9999MW1101REMSYN066AAXX  13031 58314 41958 80901 10014 21015 40256 52003 71000 8807/;
0198583140999992000011306004+31400+116330FM-12+006899999V0200701N003019999999N0080001N1+00081-00121102361ADDAA106000091GF108991081001999999071999KA1999N+00031MA1999999101441MD1710201+9999MW1101REMSYN082AAXX  13061 58314 31958 80703 10008 21012 30144 40236 57020 71000 8807/ 333 20003;EQDQ01  00002PRCP06
0124583140999992000011309004+31400+116330FM-12+006899999V0200201N002019999999N0080001N1+00051-00151102491ADDGF108991081001999999071999MD1210121+9999MW1101REMSYN066AAXX  13091 58314 41958 80202 10005 21015 40249 52012 71000 8807/;
0163583140999992000011312004+31400+116330FM-12+006899999V0200701N002010075019N0100001N1+00031-00181102621ADDAA106000091GF108991081051008001999999MA1999999101691MD1210131+9999REMSYN066AAXX  13121 58314 32560 80702 10003 21018 30169 40262 52013 885//;EQDQ01  00002PRCP06
0112583140999992000011315004+31400+116330FM-12+006899999V0201101N002010075019N0100001N1+00061-00241102601ADDGF108991081051008001999999MD1710021+9999REMSYN060AAXX  13151 58314 42560 81102 10006 21024 40260 57002 885//;
0198583140999992000011318004+31400+116330FM-12+006899999V0200401N001010075019N0060001N1+00061-00141102631ADDAA106000091GF108991081051008001999999KA1999M+00151MA1999999101701MD1210031+9999MW1101REMSYN082AAXX  13181 58314 31556 80401 10006 21014 30170 40263 52003 71000 885// 333 10015;EQDQ01  00002PRCP06
0128583140999992000011321004+31400+116330FM-12+006899999V0200401N001010075019N0060001N1+00031-00091102641ADDGF108991081051008001999999MD1210011+9999MW1101REMSYN070    AAXX  13211 58314 41556 80401 10003 21009 40264 52001 71000 885//;
0207583140999992000011400004+31400+116330FM-12+006899999V0201101N002010075019N0060001N1+00061-00081102691ADDAA199000091GF108991081051008001999999IA2999+00009MA1999999101761MD1210051+0201MW1101REMSYN092    AAXX  14001 58314 31556 81102 10006 21008 30176 40269 52005 71000 885// 333 00200 31005;EQDQ01  00002PRCP99
0116583140999992000011403004+31400+116330FM-12+006899999V0201101N002010075019N0100001N1+00171-00181102711ADDGF108991081051008001999999MD1210021+9999REMSYN064    AAXX  14031 58314 42560 81102 10017 21018 40271 52002 885//;
0190583140999992000011406004+31400+116330FM-12+006899999V0200901N003010075019N0100001N1+00361-00111102361ADDAA199000091GF107991071051008001999999KA1999N-00021MA1999999101441MD1710341+9999REMSYN080    AAXX  14061 58314 32560 70903 10036 21011 30144 40236 57034 875// 333 21002;EQDQ01  00002PRCP99
0116583140999992000011409004+31400+116330FM-12+006899999V0200901N002010075019N0120001N1+00361-00081102321ADDGF108991081051008001999999MD1710041+9999REMSYN064    AAXX  14091 58314 42562 80902 10036 21008 40232 57004 885//;
0167583140999992000011412004+31400+116330FM-12+006899999V0200901N003010120019N0100001N1+00321+00021102461ADDAA199000091GF108991081051012501999999MA1999999101541MD1210141+9999REMSYN070    AAXX  14121 58314 32660 80903 10032 20002 30154 40246 52014 885//;EQDQ01  00002PRCP99
0136583140999992000011415004+31400+116330FM-12+006899999V0200901N002010075019N0090001N1+00281+00041102401ADDAY161031GF108991081051008001999999MD1710061+9999MW1601REMSYN070    AAXX  14151 58314 41559 80902 10028 20004 40240 57006 76060 885//;
0197583140999992000011418004+31400+116330FM-12+006899999V0200701N002010075019N0120001N1+00151+00041102381ADDAA106002091AY161061GF108991081051008001999999KA1999M+00401MA1999999101461MD1710021+9999MW1601REMSYN092    AAXX  14181 58314 11562 80702 10015 20004 30146 40238 57002 60021 76060 885// 333 10040;
0165583140999992000011421004+31400+116330FM-12+006899999V0200701N002010075019N0080001N1+00091+00011102371ADDAA124002891AY161031AY261031GF108991081051008001999999MD1710011+9999MW1601REMSYN080    AAXX  14211 58314 41558 80702 10009 20001 40237 57001 76066 885// 333 70029;
0216583140999992000011500004+31400+116330FM-12+006899999V0200701N003010075019N0060001N1+00081+00001102361ADDAA106002091AY161061AY261061GF108991081051008001999999IA2999-00069MA1999999101441MD1710011-0301MW1601REMSYN104    AAXX  15001 58314 11556 80703 10008 20000 30144 40236 57001 60021 76066 885// 333 05300 31006 70034;
0144583140999992000011503004+31400+116330FM-12+006899999V0203401N002010075019N0060001N1+00101+00021102511ADDAY161031AY261031GF108991081051008001999999MD1210151+9999MW1601REMSYN070    AAXX  15031 58314 41556 83402 10010 20002 40251 52015 76066 885//;
0197583140999992000011506004+31400+116330FM-12+006899999V0203401N002010075019N0060001N1+00101-00011102351ADDAA106000191AY161061GF108991081051008001999999KA1999N+00051MA1999999101431MD1710161+9999MW1101REMSYN092    AAXX  15061 58314 11556 83402 10010 21001 30143 40235 57016 69921 71060 885// 333 20005;
0128583140999992000011509004+31400+116330FM-12+006899999V0203401N002010075019N0060001N1+00101-00011102411ADDGF108991081051008001999999MD1210061+9999MW1701REMSYN070    AAXX  15091 58314 41556 83402 10010 21001 40241 52006 77000 885//;
0174583140999992000011512004+31400+116330FM-12+006899999V0203201N001010075019N0060001N1+00091+00011102541ADDAA106000191AY171061GF108991081051008001999999MA1999999101611MD1210121+9999MW1701REMSYN082    AAXX  15121 58314 11556 83201 10009 20001 30161 40254 52012 69911 77070 885//;
0144583140999992000011515004+31400+116330FM-12+006899999V0202901N002010075019N0060001N1+00091+00031102701ADDAY171031AY271031GF108991081051008001999999MD1210161+9999MW1701REMSYN070    AAXX  15151 58314 41556 82902 10009 20003 40270 52016 77077 885//;
0205583140999992000011518004+31400+116330FM-12+006899999V0202901N001010075019N0050001N1+00101+00021102831ADDAA106000191AY161061AY261061GF108991081051008001999999KA1999M+00151MA1999999101901MD1210131+9999MW1601REMSYN092    AAXX  15181 58314 11550 82901 10010 20002 30190 40283 52013 69921 76066 885// 333 10015;
0165583140999992000011521004+31400+116330FM-12+006899999V0202701N001010075019N0040001N1+00061+00001102801ADDAA124001591AY161031AY261031GF108991081051008001999999MD1710031+9999MW1701REMSYN080    AAXX  15211 58314 41540 82701 10006 20000 40280 57003 77066 885// 333 70015;
0173583140999992000011600004+31400+116330FM-12+006899999V0209999C000010075019N0060001N1+00121+00041103021ADDAA106001091GF108991081051008001999999IA2999-00059MD1110221+0701REMSYN098    AAXX  16001 58314 11556 80000 10012 20004 3/209 40302 51022 69991 885// 333 00700 31005 70014;
0144583140999992000011603004+31400+116330FM-12+006899999V0200701N003010075019N0060001N1+00161+00081103131ADDAY161031AY261031GF108991081051008001999999MD1210111+9999MW1601REMSYN070    AAXX  16031 58314 41556 80703 10016 20008 40313 52011 76066 885//;
0205583140999992000011606004+31400+116330FM-12+006899999V0203601N002010075019N0060001N1+00131+00021102971ADDAA106000591AY161061AY261061GF108991081051008001999999KA1999N+00011MA1999999102041MD1710161+9999MW1601REMSYN092    AAXX  16061 58314 11556 83602 10013 20002 30204 40297 57016 69951 76066 885// 333 20001;
0144583140999992000011609004+31400+116330FM-12+006899999V0200201N001010075019N0060001N1+00121+00041102921ADDAY161031AY261031GF108991081051008001999999MD1710051+9999MW1601REMSYN070    AAXX  16091 58314 41556 80201 10012 20004 40292 57005 76066 885//;
0182583140999992000011612004+31400+116330FM-12+006899999V0202901N001010075019N0060001N1+00121+00071103031ADDAA106000891AY161061AY261061GF108991081051008001999999MA1999999102101MD1210111+9999MW1601REMSYN082    AAXX  16121 58314 11556 82901 10012 20007 30210 40303 52011 69971 76066 885//;
0144583140999992000011615004+31400+116330FM-12+006899999V0203201N002010075019N0060001N1+00121+00041103121ADDAY161031AY261031GF108991081051008001999999MD1210091+9999MW1601REMSYN070    AAXX  16151 58314 41556 83202 10012 20004 40312 52009 76066 885//;
0197583140999992000011618004+31400+116330FM-12+006899999V0209999C000010150019N0100001N1+00121-00021103071ADDAA106000591AY161061GF108991081051017501999999KA1999M+00781MA1999999102141MD1710051+9999MW1001REMSYN092    AAXX  16181 58314 11760 80000 10012 21002 30214 40307 57005 69951 70060 885// 333 10078;
0131583140999992000011621004+31400+116330FM-12+006899999V0209999C000010120019N0100001N1+99999+99999103011ADDAA124002091GF108991081051012501999999MD1710061+9999REMSYN068    AAXX  16211 58314 42660 80000 21006 40301 57006 885// 333 70021;
0194583140999992000011700004+31400+116330FM-12+006899999V0200701N001010150019N0090001N1+00091-00051103201ADDAA124001891GF108991081051017501999999IA2999-00059MA1999999102271MD1210191+0201MW1101REMSYN098    AAXX  17001 58314 31759 80701 10009 21005 30227 40320 52019 71000 885// 333 00200 31005 70017;
0116583140999992000011703004+31400+116330FM-12+006899999V0200401N002019999999N0120001N1+00161-00131103121ADDGF108991081001999999071999MD1710081+9999REMSYN064    AAXX  17031 58314 42962 80402 10016 21013 40312 57008 8807/;
0190583140999992000011706004+31400+116330FM-12+006899999V0201601N001019999999N0150001N1+00341-00171102931ADDAA199000091GF108991081001999999071999KA1999N+00051MA1999999102011MD1710181+9999REMSYN080    AAXX  17061 58314 32965 81601 10034 21017 30201 40293 57018 8807/ 333 20005;EQDQ01  00002PRCP99
0116583140999992000011709004+31400+116330FM-12+006899999V0209999C000019999999N0150001N1+00331-00121102881ADDGF108991081001999999071999MD1710051+9999REMSYN064    AAXX  17091 58314 42965 80000 10033 21012 40288 57005 8807/;
0167583140999992000011712004+31400+116330FM-12+006899999V0200701N001019999999N0150001N1+00261+00021102931ADDAA199000091GF107991071001999999071999MA1999999102001MD1210041+9999REMSYN070    AAXX  17121 58314 32965 70701 10026 20002 30200 40293 52004 8707/;EQDQ01  00002PRCP99
0116583140999992000011715004+31400+116330FM-12+006899999V0200901N001019999999N0120001N1+00191+00001103021ADDGF108991081001999999071999MD1210091+9999REMSYN064    AAXX  17151 58314 42962 80901 10019 20000 40302 52009 8807/;
0190583140999992000011718004+31400+116330FM-12+006899999V0200901N001019999999N0120001N1+00171-00021102961ADDAA199000091GF108991081001999999071999KA1999M+00371MA1999999102041MD1710051+9999REMSYN080    AAXX  17181 58314 32962 80901 10017 21002 30204 40296 57005 8807/ 333 10037;EQDQ01  00002PRCP99
0116583140999992000011721004+31400+116330FM-12+006899999V0209999C000019999999N0120001N1+00131-00011102881ADDGF108991081001999999071999MD1710081+9999REMSYN064    AAXX  17211 58314 42962 80000 10013 21001 40288 57008 8807/;
0195583140999992000011800004+31400+116330FM-12+006899999V0202501N001019999999N0100001N1+00111+00001102961ADDAA199000091GF108991081001999999071999IA2999-00109MA1999999102031MD1210071-0201REMSYN086    AAXX  18001 58314 32960 82501 10011 20000 30203 40296 52007 8807/ 333 05200 31015;EQDQ01  00002PRCP99
0116583140999992000011803004+31400+116330FM-12+006899999V0203201N003019999999N0120001N1+00501-00161103041ADDGF107991071001999999071999MD1210091+9999REMSYN064    AAXX  18031 58314 42962 73203 10050 21016 40304 52009 8707/;
0190583140999992000011806004+31400+116330FM-12+006899999V0202901N003019999999N0120001N1+00751-00161102751ADDAA199000091GF107991071001999999071999KA1999N+00081MA1999999101841MD1710281+9999REMSYN080    AAXX  18061 58314 32962 72903 10075 21016 30184 40275 57028 8707/ 333 20008;EQDQ01  00002PRCP99
0126583140999992000011809004+31400+116330FM-12+006899999V0203401N002012200019N0150001N1+00761-00251102761ADDGA1001+999999999GF100991001001999999001001MD1410001+9999REMSYN058    AAXX  18091 58314 42965 03402 10076 21025 40276 54000;
0167583140999992000011812004+31400+116330FM-12+006899999V0202701N002019999999N0120001N1+00221+00031103041ADDAA199000091GF107991001001999999001021MA1999999102111MD1210271+9999REMSYN070    AAXX  18121 58314 32962 72702 10022 20003 30211 40304 52027 80002;EQDQ01  00002PRCP99
0126583140999992000011815004+31400+116330FM-12+006899999V0202901N001012200019N0150001N1+00071-00071103181ADDGA1001+999999999GF100991001001999999001001MD1210151+9999REMSYN058    AAXX  18151 58314 42965 02901 10007 21007 40318 52015;
0200583140999992000011818004+31400+116330FM-12+006899999V0203201N001012200019N0200001N1-00071-00221103101ADDAA199000091GA1001+999999999GF100991001001999999001001KA1999M+00871MA1999999102181MD1710081+9999REMSYN074    AAXX  18181 58314 32970 03201 11007 21022 30218 40310 57008 333 10087;EQDQ01  00002PRCP99
0126583140999992000011821004+31400+116330FM-12+006899999V0202201N001012200019N0200001N1-00151-00281103121ADDGA1001+999999999GF100991001001999999001001MD1210021+9999REMSYN058    AAXX  18211 58314 42970 02201 11015 21028 40312 52002;
0231583140999992000011900004+31400+116330FM-12+006899999V0203201N003012200019N0080001N1+99999+99999103541ADDAA199000091GA1001+999999999GF100991001001999999001001MA1999999999999MD1210411+0061MW1101REMSYN080    AAXX  19001 58314 31958 03203 11/06 21048 38261 40354 52041 71000 333 00652;EQDQ01+082613APOSP Q02  00002PRCP99Q03 082613APOSP 
0126583140999992000011903004+31400+116330FM-12+006899999V0202201N001012200019N0100001N1+00121-00381103711ADDGA1001+999999999GF100991001001999999001001MD1210161+9999REMSYN058    AAXX  19031 58314 42960 02201 10012 21038 40371 52016;
0200583140999992000011906004+31400+116330FM-12+006899999V0200701N002012200019N0150001N1+00421-00711103361ADDAA199000091GA1001+999999999GF100991001001999999001001KA1999N-00241MA1999999102431MD1710341+9999REMSYN074    AAXX  19061 58314 32965 00702 10042 21071 30243 40336 57034 333 21024;EQDQ01  00002PRCP99
0126583140999992000011909004+31400+116330FM-12+006899999V0201401N002012200019N0150001N1+00371-00661103241ADDGA1001+999999999GF100991001001999999001001MD1710121+9999REMSYN058    AAXX  19091 58314 42965 01402 10037 21066 40324 57012;
0177583140999992000011912004+31400+116330FM-12+006899999V0201401N001012200019N0120001N1-00041-00391103291ADDAA199000091GA1001+999999999GF100991001001999999001001MA1999999102351MD1210041+9999REMSYN064    AAXX  19121 58314 32962 01401 11004 21039 30235 40329 52004;EQDQ01  00002PRCP99
0122583140999992000011915004+31400+116330FM-12+006899999V0202901N001012200019N0120001N1-00231-00461103391ADDGA1001+999999999GF100991001001999999001001MD1210101+9999REMSYN054AAXX  19151 58314 42962 02901 11023 21046 40339 52010;
0196583140999992000011918004+31400+116330FM-12+006899999V0209999C000012200019N0150001N1-00321-00421103441ADDAA199000091GA1001+999999999GF100991001001999999001001KA1999M+00461MA1999999102511MD1210061+9999REMSYN070AAXX  19181 58314 32965 00000 11032 21042 30251 40344 52006 333 10046;EQDQ01  00002PRCP99
0122583140999992000011921004+31400+116330FM-12+006899999V02099999999992200019N9999999N1-00401-00491103401ADDGA1001+999999999GF100991001001999999001001MD1710051+9999REMSYN054AAXX  19211 58314 429// 02//1 11040 21049 40340 57005;
0183583140999992000012000004+31400+116330FM-12+006899999V0209999C000012200019N0200001N1-00441-00531103521ADDAA199000091GA1001+999999999GF100991001001999999001001MA1999999102571MD1210111+0001REMSYN070AAXX  20001 58314 32970 00000 11044 21053 30257 40352 52011 333 00054;EQDQ01  00002PRCP99
0112583140999992000012003004+31400+116330FM-12+006899999V0201101N001019999999N0150001N1-00011-00411103701ADDGF107991071001999999071999MD1210191+9999REMSYN060AAXX  20031 58314 42965 71101 11001 21041 40370 52019 8707/;
0186583140999992000012006004+31400+116330FM-12+006899999V0200901N003019999999N0150001N1+00531-00381103401ADDAA199000091GF107991071001999999071999KA1999N-00481MA1999999102481MD1710281+9999REMSYN076AAXX  20061 58314 32965 70903 10053 21038 30248 40340 57028 8707/ 333 21048;EQDQ01  00002PRCP99
0112583140999992000012009004+31400+116330FM-12+006899999V0201101N003019999999N0150001N1+00421-00351103501ADDGF106991061001999999041001MD1210081+9999REMSYN060AAXX  20091 58314 42965 61103 10042 21035 40350 52008 86040;
0173583140999992000012012004+31400+116330FM-12+006899999V0200901N002012200019N0150001N1+00081-00391103641ADDAA199000091GA1001+999999999GF100991001001999999001001MA1999999102701MD1210141+9999REMSYN060AAXX  20121 58314 32965 00902 10008 21039 30270 40364 52014;EQDQ01  00002PRCP99
0122583140999992000012015004+31400+116330FM-12+006899999V0202901N002012200019N0150001N1-00181-00411103621ADDGA1001+999999999GF100991001001999999001001MD1710021+9999REMSYN054AAXX  20151 58314 42965 02902 11018 21041 40362 57002;
0196583140999992000012018004+31400+116330FM-12+006899999V0209999C000012200019N0150001N1-00281-00381103601ADDAA199000091GA1001+999999999GF100991001001999999001001KA1999M+00651MA1999999102671MD1710011+9999REMSYN070AAXX  20181 58314 32965 00000 11028 21038 30267 40360 57001 333 10065;EQDQ01  00002PRCP99
0112583140999992000012021004+31400+116330FM-12+006899999V0202901N002019999999N0120001N1-00261-00361103551ADDGF108991081001999999071999MD1710051+9999REMSYN060AAXX  20211 58314 42962 82902 11026 21036 40355 57005 8807/;
0173583140999992000012100004+31400+116330FM-12+006899999V0202701N002019999999N0150001N1-00131-00421103581ADDAA199000091GF108991081001999999071999MA1999999102641MD1210021+0011REMSYN076AAXX  21001 58314 32965 82702 11013 21042 30264 40358 52002 8807/ 333 00103;EQDQ01  00002PRCP99
0112583140999992000012103004+31400+116330FM-12+006899999V0203601N002019999999N0120001N1+00191-00361103521ADDGF108991081001999999071999MD1710061+9999REMSYN060AAXX  21031 58314 42962 83602 10019 21036 40352 57006 8807/;
0186583140999992000012106004+31400+116330FM-12+006899999V0200901N002019999999N0150001N1+00201-00281103251ADDAA199000091GF108991081001999999071999KA1999N-00321MA1999999102311MD1710271+9999REMSYN076AAXX  21061 58314 32965 80902 10020 21028 30231 40325 57027 8807/ 333 21032;EQDQ01  00002PRCP99
0112583140999992000012109004+31400+116330FM-12+006899999V0200901N001019999999N0120001N1+00201-00181103131ADDGF108991081001999999071999MD1710111+9999REMSYN060AAXX  21091 58314 42962 80901 10020 21018 40313 57011 8807/;
0162583140999992000012112004+31400+116330FM-12+006899999V0203601N001019999999N0120001N1+00191-00091103081ADDAA106000791GF108991081001999999071999MA1999999102151MD1710051+9999MW1701REMSYN078AAXX  21121 58314 11962 83601 10019 21009 30215 40308 57005 69901 77000 8807/;
0140583140999992000012115004+31400+116330FM-12+006899999V0202701N002019999999N0100001N1+00111+00001102991ADDAY171031AY271031GF108991081001999999071999MD1710091+9999MW1701REMSYN066AAXX  21151 58314 41960 82702 10011 20000 40299 57009 77077 8807/;
0201583140999992000012118004+31400+116330FM-12+006899999V0202901N002010075019N0120001N1+00151-00021102911ADDAA106000191AY171061AY271061GF108991081051008001999999KA1999M+00651MA1999999101981MD1710081+9999MW1701REMSYN088AAXX  21181 58314 11562 82902 10015 21002 30198 40291 57008 69921 77077 885// 333 10065;
0161583140999992000012121004+31400+116330FM-12+006899999V0209999C000010075019N0120001N1+00071-00011102811ADDAA124000591AY171031AY271031GF108991081051008001999999MD1710101+9999MW1701REMSYN076AAXX  21211 58314 41562 80000 10007 21001 40281 57010 77077 885// 333 70006;
0218583140999992000012200004+31400+116330FM-12+006899999V0201101N001010120019N0040001N1+00071+00011102821ADDAA106003091AY171061AY271061GF108991081051012501999999IA2999-00109MA1999999101891MD1210011-0801MW1221REMSYN106AAXX  22001 58314 11640 81101 10007 20001 30189 40282 52001 60031 72277 885// 333 05802 31010 70031 92501;
0124583140999992000012203004+31400+116330FM-12+006899999V0201801N002010120019N0040001N1+00111+00061102861ADDGF108991081051012501999999MD1210041+9999MW1101REMSYN066AAXX  22031 58314 41640 81802 10011 20006 40286 52004 71000 885//;
0193583140999992000012206004+31400+116330FM-12+006899999V0200201N002010120019N0080001N1+00171+00031102651ADDAA106000191AY171061GF108991081051012501999999KA1999N+00021MA1999999101731MD1710201+9999MW1101REMSYN088AAXX  22061 58314 11658 80202 10017 20003 30173 40265 57020 69921 71070 885// 333 20002;
0112583140999992000012209004+31400+116330FM-12+006899999V0200701N003010120019N0100001N1+00151-00051102711ADDGF108991081051012501999999MD1210051+9999REMSYN060AAXX  22091 58314 42660 80703 10015 21005 40271 52005 885//;
0144583140999992000012212004+31400+116330FM-12+006899999V0201101N001010120019N0100001N1+00131-00011102741ADDAA199000021GF108991081051012501999999MA1999999101811MD1210031+9999REMSYN066AAXX  22121 58314 32660 81101 10013 21001 30181 40274 52003 885//;
0112583140999992000012215004+31400+116330FM-12+006899999V0209999C000010120019N0100001N1+00141+00001102781ADDGF108991081051012501999999MD1210041+9999REMSYN060AAXX  22151 58314 42660 80000 10014 20000 40278 52004 885//;
0193583140999992000012218004+31400+116330FM-12+006899999V0200701N002010075019N0080001N1+00111+00001102771ADDAA106000791AY161061GF108991081051008001999999KA1999M+00181MA1999999101841MD1710011+9999MW1211REMSYN088AAXX  22181 58314 11558 80702 10011 20000 30184 40277 57001 69901 72160 885// 333 10018;
0145583140999992000012221004+31400+116330FM-12+006899999V0201101N002010075019N0080001N1+00091-00021102711ADDAA124002891GF108991081051008001999999MD1710061+9999MW1601REMSYN076AAXX  22211 58314 41558 81102 10009 21002 40271 57006 76000 885// 333 70027;
0204583140999992000012300004+31400+116330FM-12+006899999V0209999C000010075019N0060001N1+00111+00061102941ADDAA106000391AY161061GF108991081051008001999999IA2999+00019MA1999999102011MD1210231+0101MW1601REMSYN100AAXX  23001 58314 11556 80000 10011 20006 30201 40294 52023 69931 76060 885// 333 00100 30001 70005;
0140583140999992000012303004+31400+116330FM-12+006899999V0209999C000010075019N0060001N1+00131+00051103011ADDAY161031AY261031GF108991081051008001999999MD1210071+9999MW1601REMSYN066AAXX  23031 58314 41556 80000 10013 20005 40301 52007 76066 885//;
0188583140999992000012306004+31400+116330FM-12+006899999V0200401N001010075019N0060001N1+00201+00061102841ADDAA106005191AY161061AY261061GF108991081051008001999999MA1999999101911MD1710171+9999MW1601REMSYN088AAXX  23061 58314 11556 80401 10020 20006 30191 40284 57017 60051 76066 885// 333 2/005;
0140583140999992000012309004+31400+116330FM-12+006899999V0200701N002010075019N0060001N1+00171+00121102911ADDAY161031AY261031GF108991081051008001999999MD1210071+9999MW1601REMSYN066AAXX  23091 58314 41556 80702 10017 20012 40291 52007 76066 885//;
0178583140999992000012312004+31400+116330FM-12+006899999V0200401N002010075019N0060001N1+00131+00051103071ADDAA106005191AY161061AY261061GF108991081051008001999999MA1999999102141MD1210161+9999MW1601REMSYN078AAXX  23121 58314 11556 80402 10013 20005 30214 40307 52016 60051 76066 885//;
0140583140999992000012315004+31400+116330FM-12+006899999V0209999C000010075019N0060001N1+00111+00031103191ADDAY161031AY261031GF108991081051008001999999MD1210121+9999MW1601REMSYN066AAXX  23151 58314 41556 80000 10011 20003 40319 52012 76066 885//;
0201583140999992000012318004+31400+116330FM-12+006899999V0200701N002010075019N0060001N1+00141+00061103271ADDAA106001091AY161061AY261061GF108991081051008001999999KA1999M+00231MA1999999102341MD1210081+9999MW1601REMSYN088AAXX  23181 58314 11556 80702 10014 20006 30234 40327 52008 60011 76066 885// 333 10023;
0161583140999992000012321004+31400+116330FM-12+006899999V0200701N003010075019N0060001N1+00081+00001103261ADDAA124011291AY161031AY261031GF108991081051008001999999MD1710011+9999MW1601REMSYN076AAXX  23211 58314 41556 80703 10008 20000 40326 57001 76066 885// 333 70112;
0212583140999992000012400004+31400+116330FM-12+006899999V0200701N003010075019N0070001N1+00011-00081103461ADDAA106002091AY161061AY261061GF108991081051008001999999IA2999-00089MA1999999102531MD1210201+0501MW1701REMSYN100AAXX  24001 58314 11557 80703 10001 21008 30253 40346 52020 60021 77066 885// 333 00551 31008 70127;
0140583140999992000012403004+31400+116330FM-12+006899999V0200701N002010075019N0070001N1-00041-00131103791ADDAY171031AY271031GF108991081001008001021999MD1210321+9999MW1711REMSYN066AAXX  24031 58314 41557 80702 11004 21013 40379 52032 77177 8802/;
0201583140999992000012406004+31400+116330FM-12+006899999V0200701N003010075019N0060001N1-00201-00401103761ADDAA106008991AY171061AY271061GF108991081001008001021999KA1999N-00231MA1999999102821MD1710031+9999MW1711REMSYN088AAXX  24061 58314 11556 80703 11020 21040 30282 40376 57003 60091 77177 8802/ 333 21023;
0140583140999992000012409004+31400+116330FM-12+006899999V0200701N002010075019N0080001N1-00281-00421104061ADDAY171031AY271031GF108991081001008001021999MD1210291+9999MW1711REMSYN066AAXX  24091 58314 41558 80702 11028 21042 40406 52029 77177 8802/;
0178583140999992000012412004+31400+116330FM-12+006899999V0200701N003010075019N0060001N1-00331-00441104281ADDAA106005191AY171061AY271061GF108991081001008001021999MA1999999103331MD1210221+9999MW1711REMSYN078AAXX  24121 58314 11556 80703 11033 21044 30333 40428 52022 60051 77177 8802/;
0140583140999992000012415004+31400+116330FM-12+006899999V0200701N003010075019N0100001N1-00381-00501104341ADDAY171031AY271031GF108991081051008001999999MD1210061+9999MW1221REMSYN066AAXX  24151 58314 41560 80703 11038 21050 40434 52006 72277 885//;
0193583140999992000012418004+31400+116330FM-12+006899999V0200701N003010075019N0100001N1-00411-00581104361ADDAA106000191AY171061GF108991081051008001999999KA1999M+00151MA1999999103401MD1210011+9999MW1001REMSYN088AAXX  24181 58314 11560 80703 11041 21058 30340 40436 52001 69921 70070 885// 333 10015;
0133583140999992000012421004+31400+116330FM-12+006899999V0200701N002010075019N0100001N1-00471-00691104341ADDAA124015791GF108991081051008001999999MD1710021+9999REMSYN070AAXX  24211 58314 42560 80702 11047 21069 40434 57002 885// 333 70157;
0166583140999992000012500004+31400+116330FM-12+006899999V0200701N001010075019N0120001N1-00541-00731104461ADDAA124014091GF108991081051008001999999MA1999999103501MD1210121+1001REMSYN088AAXX  25001 58314 32562 80701 11054 21073 30350 40446 52012 885// 333 01056 70139 92508;
0112583140999992000012503004+31400+116330FM-12+006899999V0203401N002019999999N0120001N1-00281-00501104521ADDGF107991071001999999071999MD1210061+9999REMSYN060AAXX  25031 58314 42962 73402 11028 21050 40452 52006 8707/;
0186583140999992000012506004+31400+116330FM-12+006899999V0202901N001012200019N0150001N1-00081-00661104251ADDAA199000091GF103991031001999999041001KA1999N-00561MA1999999103301MD1710261+9999REMSYN076AAXX  25061 58314 32965 32901 11008 21066 30330 40425 57026 83040 333 21056;EQDQ01  00002PRCP99
0122583140999992000012509004+31400+116330FM-12+006899999V0200701N002012200019N0150001N1-00161-00501104241ADDGA1001+999999999GF100991001001999999001001MD1710011+9999REMSYN054AAXX  25091 58314 42965 00702 11016 21050 40424 57001;
0173583140999992000012512004+31400+116330FM-12+006899999V0200901N001012200019N0150001N1-00351-00621104301ADDAA199000091GA1001+999999999GF100991001001999999001001MA1999999103341MD1210051+9999REMSYN060AAXX  25121 58314 32965 00901 11035 21062 30334 40430 52005;EQDQ01  00002PRCP99
0122583140999992000012515004+31400+116330FM-12+006899999V0203401N001012200019N0100001N1-00491-00631104391ADDGA1001+999999999GF100991001001999999001001MD1210091+9999REMSYN054AAXX  25151 58314 42960 03401 11049 21063 40439 52009;
0186583140999992000012518004+31400+116330FM-12+006899999V0209999C000019999999N0100001N1-00511-00611104421ADDAA199000091GF108991081001999999071999KA1999M+00041MA1999999103461MD1210031+9999REMSYN076AAXX  25181 58314 32960 80000 11051 21061 30346 40442 52003 8807/ 333 10004;EQDQ01  00002PRCP99
0141583140999992000012521004+31400+116330FM-12+006899999V02099999999992200019N0150001N1-00601-00721104331ADDGA1001+999999999GF100991001001999999001001MD1710091+9999REMSYN054AAXX  25211 58314 42965 0/000 11060 21072 40433 57533;EQDQ01+005337APC3  
0189583140999992000012600004+31400+116330FM-12+006899999V0203201N002012200019N0150001N1-00701-00921104501ADDAA199000091GA1001+999999999GF100991001001999999001001MA1999999103541MD1210171+0001REMSYN076AAXX  26001 58314 32965 03202 11070 21092 30354 40450 52017 333 00052 95206;EQDQ01  00002PRCP99
0122583140999992000012603004+31400+116330FM-12+006899999V0200901N002012200019N0200001N1-00171-01011104461ADDGA1001+999999999GF100991001001999999001001MD1710041+9999REMSYN054AAXX  26031 58314 42970 00902 11017 21101 40446 57004;
0196583140999992000012606004+31400+116330FM-12+006899999V0200401N002012200019N0200001N1-00061-00691104291ADDAA199000091GA1001+999999999GF100991001001999999001001KA1999N-00741MA1999999103341MD1710161+9999REMSYN070AAXX  26061 58314 32970 00402 11006 21069 30334 40429 57016 333 21074;EQDQ01  00002PRCP99
0122583140999992000012609004+31400+116330FM-12+006899999V0200901N001012200019N0200001N1-00201-01011104301ADDGA1001+999999999GF100991001001999999001001MD1410001+9999REMSYN054AAXX  26091 58314 42970 00901 11020 21101 40430 54000;
0173583140999992000012612004+31400+116330FM-12+006899999V0201401N002012200019N0200001N1-00491-00801104281ADDAA199000091GA1001+999999999GF100991001001999999001001MA1999999103321MD1710021+9999REMSYN060AAXX  26121 58314 32970 01402 11049 21080 30332 40428 57002;EQDQ01  00002PRCP99
0122583140999992000012615004+31400+116330FM-12+006899999V0200901N001012200019N0200001N1-00701-00791104351ADDGA1001+999999999GF100991001001999999001001MD1210071+9999REMSYN054AAXX  26151 58314 42970 00901 11070 21079 40435 52007;
0196583140999992000012618004+31400+116330FM-12+006899999V0209999C000012200019N0200001N1-00831-00981104321ADDAA199000091GA1001+999999999GF100991001001999999001001KA1999M+00001MA1999999103361MD1710031+9999REMSYN070AAXX  26181 58314 32970 00000 11083 21098 30336 40432 57003 333 10000;EQDQ01  00002PRCP99
0122583140999992000012621004+31400+116330FM-12+006899999V0209999C000012200019N0200001N1-00871-01031104311ADDGA1001+999999999GF100991001001999999001001MD1710011+9999REMSYN054AAXX  26211 58314 42970 00000 11087 21103 40431 57001;
0189583140999992000012700004+31400+116330FM-12+006899999V0209999C000012200019N0200001N1-00931-01091104331ADDAA199000091GA1001+999999999GF100991001001999999001001MA1999999103361MD1210011-0201REMSYN076AAXX  27001 58314 32970 00000 11093 21109 30336 40433 52001 333 05252 92503;EQDQ01  00002PRCP99
0122583140999992000012703004+31400+116330FM-12+006899999V0200701N002012200019N0200001N1-00231-00811104291ADDGA1001+999999999GF100991001001999999001001MD1710031+9999REMSYN054AAXX  27031 58314 42970 00702 11023 21081 40429 57003;
0196583140999992000012706004+31400+116330FM-12+006899999V0201401N002012200019N0200001N1+00101-01321103981ADDAA199000091GA1001+999999999GF100991001001999999001001KA1999N-00971MA1999999103031MD1710301+9999REMSYN070AAXX  27061 58314 32970 01402 10010 21132 30303 40398 57030 333 21097;EQDQ01  00002PRCP99
0122583140999992000012709004+31400+116330FM-12+006899999V0200201N002012200019N0200001N1+00021-00991103871ADDGA1001+999999999GF100991001001999999001001MD1710111+9999REMSYN054AAXX  27091 58314 42970 00202 10002 21099 40387 57011;
0122583140999992000012715004+31400+116330FM-12+006899999V0202701N002012200019N0200001N1-00541-00731103911ADDGA1001+999999999GF100991001001999999001001MD1710031+9999REMSYN054AAXX  27151 58314 42970 02702 11054 21073 40391 57003;
0196583140999992000012718004+31400+116330FM-12+006899999V0209999C000012200019N0200001N1-00691-00821103861ADDAA199000091GA1001+999999999GF100991001001999999001001KA1999M+00161MA1999999102911MD1710051+9999REMSYN070AAXX  27181 58314 32970 00000 11069 21082 30291 40386 57005 333 10016;EQDQ01  00002PRCP99
0122583140999992000012721004+31400+116330FM-12+006899999V0201401N001012200019N0200001N1-00711-00841103681ADDGA1001+999999999GF100991001001999999001001MD1710181+9999REMSYN054AAXX  27211 58314 42970 01401 11071 21084 40368 57018;
0191583140999992000012800004+31400+116330FM-12+006899999V0209999C000019999999N0090001N1-00681-00811103681ADDAA199000091GF107991071001999999071999MA1999999102721MD1710011-0601MW1101REMSYN088AAXX  28001 58314 31959 70000 11068 21081 30272 40368 57001 71000 8707/ 333 05603 92501;EQDQ01  00002PRCP99
0112583140999992000012803004+31400+116330FM-12+006899999V0200701N001019999999N0110001N1-00221-00741103691ADDGF107991071001999999071999MD1210021+9999REMSYN060AAXX  28031 58314 42961 70701 11022 21074 40369 52002 8707/;
0186583140999992000012806004+31400+116330FM-12+006899999V0209999C000019999999N0150001N1+00171-00541103361ADDAA199000091GF107991071001999999071999KA1999N-00741MA1999999102421MD1710321+9999REMSYN076AAXX  28061 58314 32965 70000 10017 21054 30242 40336 57032 8707/ 333 21074;EQDQ01  00002PRCP99
0112583140999992000012809004+31400+116330FM-12+006899999V0200701N001019999999N0150001N1+00201-00421103291ADDGF108991081001999999071999MD1710071+9999REMSYN060AAXX  28091 58314 42965 80701 10020 21042 40329 57007 8807/;
0163583140999992000012812004+31400+116330FM-12+006899999V0200901N002019999999N0150001N1+00031-00411103351ADDAA199000091GF108991081001999999071999MA1999999102401MD1210051+9999REMSYN066AAXX  28121 58314 32965 80902 10003 21041 30240 40335 52005 8807/;EQDQ01  00002PRCP99
0112583140999992000012815004+31400+116330FM-12+006899999V0209999C000019999999N0150001N1-00021-00231103431ADDGF108991081001999999071999MD1210091+9999REMSYN060AAXX  28151 58314 42965 80000 11002 21023 40343 52009 8807/;
0186583140999992000012818004+31400+116330FM-12+006899999V0209999C000019999999N0150001N1-00071-00311103401ADDAA199000091GF108991081001999999071999KA1999M+00231MA1999999102471MD1710021+9999REMSYN076AAXX  28181 58314 32965 80000 11007 21031 30247 40340 57002 8807/ 333 10023;EQDQ01  00002PRCP99
0112583140999992000012821004+31400+116330FM-12+006899999V0209999C000019999999N0200001N1-00071-00141103391ADDGF108991081001999999071999MD1710011+9999REMSYN060AAXX  28211 58314 42970 80000 11007 21014 40339 57001 8807/;
0191583140999992000012900004+31400+116330FM-12+006899999V0209999C000019999999N0150001N1-00051-00251103621ADDAA199000091GF108991081001999999071999IA2999-00209MA1999999102681MD1210221+0001REMSYN082AAXX  29001 58314 32965 80000 11005 21025 30268 40362 52022 8807/ 333 00006 31023;EQDQ01  00002PRCP99
0112583140999992000012903004+31400+116330FM-12+006899999V0209999C000019999999N0150001N1+00221-00511103711ADDGF108991081001999999071999MD1210091+9999REMSYN060AAXX  29031 58314 42965 80000 10022 21051 40371 52009 8807/;
0186583140999992000012906004+31400+116330FM-12+006899999V0200901N002019999999N0200001N1+00461-00251103601ADDAA199000091GF107991071001999999071999KA1999N-00101MA1999999102671MD1710101+9999REMSYN076AAXX  29061 58314 32970 70902 10046 21025 30267 40360 57010 8707/ 333 21010;EQDQ01  00002PRCP99
0112583140999992000012909004+31400+116330FM-12+006899999V0200401N002019999999N0200001N1+00451-00341103671ADDGF107991071001999999071999MD1210071+9999REMSYN060AAXX  29091 58314 42970 70402 10045 21034 40367 52007 8707/;
0163583140999992000012912004+31400+116330FM-12+006899999V0209999C000019999999N0150001N1+00101-00161103971ADDAA199000091GF108991081001999999071999MA1999999103031MD1210291+9999REMSYN066AAXX  29121 58314 32965 80000 10010 21016 30303 40397 52029 8807/;EQDQ01  00002PRCP99
0112583140999992000012915004+31400+116330FM-12+006899999V0202701N002019999999N0150001N1+00061-00151104221ADDGF108991081001999999071999MD1210251+9999REMSYN060AAXX  29151 58314 42965 82702 10006 21015 40422 52025 8807/;
0186583140999992000012918004+31400+116330FM-12+006899999V0202701N002012200019N0120001N1+00011-00231104291ADDAA199000091GF103991031001999999041001KA1999M+00501MA1999999103351MD1210071+9999REMSYN076AAXX  29181 58314 32962 32702 10001 21023 30335 40429 52007 83040 333 10050;EQDQ01  00002PRCP99
0121583140999992000012921004+31400+116330FM-12+006899999V0202901N002012200019N0150001N1-00181-00381104331ADDGA1001+999999999GF100991001001999999001001MD1210041+9999REMSYN053AAXX  29211 58314 42965 0290211018 21038 40433 52004;
0213583140999992000013000004+31400+116330FM-12+006899999V0209999C000012200019N0060001N1-00281-00421104641ADDAA199000091GA1001+999999999GF100991001001999999001001IA2999-00409MA1999999103691MD1210301+1001MW1101REMSYN082AAXX  30001 58314 31956 00000 11028 21042 30369 40464 52030 71000 333 01052 31040;EQDQ01  00002PRCP99
0122583140999992000013003004+31400+116330FM-12+006899999V0203401N003012200019N0150001N1+00061-00611104691ADDGA1001+999999999GF100991001001999999001001MD1210051+9999REMSYN054AAXX  30031 58314 42965 03403 10006 21061 40469 52005;
0196583140999992000013006004+31400+116330FM-12+006899999V0200901N002012200019N0200001N1+00261-00671104471ADDAA199000091GA1001+999999999GF100991001001999999001001KA1999N-00331MA1999999103531MD1710211+9999REMSYN070AAXX  30061 58314 32970 00902 10026 21067 30353 40447 57021 333 21033;EQDQ01  00002PRCP99
0122583140999992000013009004+31400+116330FM-12+006899999V0200701N002012200019N0200001N1+00141-00631104441ADDGA1001+999999999GF100991001001999999001001MD1710041+9999REMSYN054AAXX  30091 58314 42970 00702 10014 21063 40444 57004;
0173583140999992000013012004+31400+116330FM-12+006899999V0200701N001012200019N0200001N1-00081-00591104591ADDAA199000091GA1001+999999999GF100991001001999999001001MA1999999103641MD1210151+9999REMSYN060AAXX  30121 58314 32970 00701 11008 21059 30364 40459 52015;EQDQ01  00002PRCP99
0122583140999992000013015004+31400+116330FM-12+006899999V0209999C000012200019N0200001N1-00121-00611104641ADDGA1001+999999999GF100991001001999999001001MD1210051+9999REMSYN054AAXX  30151 58314 42970 00000 11012 21061 40464 52005;
0186583140999992000013018004+31400+116330FM-12+006899999V0203401N001019999999N0120001N1-00151-00831104601ADDAA199000091GF108991081001999999071999KA1999M+00301MA1999999103661MD1710031+9999REMSYN076AAXX  30181 58314 32962 83401 11015 21083 30366 40460 57003 8807/ 333 10030;EQDQ01  00002PRCP99
0112583140999992000013021004+31400+116330FM-12+006899999V0200201N002019999999N0120001N1-00191-00751104601ADDGF108991081001999999071999MD1710011+9999REMSYN060AAXX  30211 58314 42962 80202 11019 21075 40460 57001 8807/;
0191583140999992000013100004+31400+116330FM-12+006899999V0201101N002019999999N0120001N1-00221-00791104701ADDAA199000091GF108991081001999999071999IA2999-00309MA1999999103791MD1210101+0101REMSYN082AAXX  31001 58314 32962 81102 11022 21079 30379 40470 52010 8807/ 333 00101 31035;EQDQ01  00002PRCP99
0112583140999992000013103004+31400+116330FM-12+006899999V0200901N002019999999N0120001N1-00161-00581104671ADDGF108991081001999999071999MD1710031+9999REMSYN060AAXX  31031 58314 42962 80902 11016 21058 40467 57003 8807/;
0185583140999992000013106004+31400+116330FM-12+006899999V0201101N003019999999N0120001N1-00141-00911104461ADDAA106000791GF108991081001999999071999KA1999N-00251MA1999999103511MD1710211+9999MW1701REMSYN088AAXX  31061 58314 11962 81103 11014 21091 30351 40446 57021 69901 77000 8807/ 333 21025;
0132583140999992000013109004+31400+116330FM-12+006899999V0209999C000019999999N0120001N1-00101-00751104291ADDAY171031GF108991081001999999071999MD1710171+9999MW1001REMSYN066AAXX  31091 58314 41962 80000 11010 21075 40429 57017 70070 8807/;
0170583140999992000013112004+31400+116330FM-12+006899999V0201101N003012200019N0120001N1-00131-00991104271ADDAA106000791AY171061GF104991041001999999041001MA1999999103321MD1710021+9999MW1001REMSYN078AAXX  31121 58314 11962 41103 11013 21099 30332 40427 57002 69901 70070 84040;
0112583140999992000013115004+31400+116330FM-12+006899999V0201401N001019999999N0120001N1-00191-00891104241ADDGF108991081001999999071999MD1710031+9999REMSYN060AAXX  31151 58314 42962 81401 11019 21089 40424 57003 8807/;
0177583140999992000013118004+31400+116330FM-12+006899999V0209999C000012200019N0200001N1-00311-00691104191ADDAA199000021GA1001+999999999GF100991001001999999001001KA1999M-00081MA1999999103241MD1710051+9999REMSYN070AAXX  31181 58314 32970 00000 11031 21069 30324 40419 57005 333 11008;
0122583140999992000013121004+31400+116330FM-12+006899999V0203201N001012200019N0200001N1-00491-00711999999ADDGA1001+999999999GF100991001001999999001001MD1710151+9999REMSYN054AAXX  31211 58314 42970 03201 11049 21071 404// 57015;
0183583140999992000020100004+31400+116330FM-12+006899999V0202201N002012200019N0150001N1-00551-00781104061ADDAA199000091GA1001+999999999GF100991001001999999001001MA1999999103111MD1210021+0061REMSYN070AAXX  01001 58314 32965 02202 11055 21078 30311 40406 52002 333 05653;EQDQ01  00002PRCP99
0112583140999992000020103004+31400+116330FM-12+006899999V0203201N001012200019N0200001N1-00041-00541103991ADDGF101991011011008001001001MD1710071+9999REMSYN060AAXX  01031 58314 42570 13201 11004 21054 40399 57007 81100;
0186583140999992000020106004+31400+116330FM-12+006899999V0200401N002012200019N0200001N1+00201-00541103631ADDAA199000091GF101991001001999999001021KA1999N-00581MA1999999102691MD1710351+9999REMSYN076AAXX  01061 58314 32970 10402 10020 21054 30269 40363 57035 80002 333 21058;EQDQ01  00002PRCP99
0122583140999992000020109004+31400+116330FM-12+006899999V0200901N003012200019N0200001N1+00151-00651103441ADDGA1001+999999999GF100991001001999999001001MD1710191+9999REMSYN054AAXX  01091 58314 42970 00903 10015 21065 40344 57019;
0173583140999992000020112004+31400+116330FM-12+006899999V0201401N001012200019N0200001N1-00111-00631103501ADDAA199000091GA1001+999999999GF100991001001999999001001MA1999999102551MD1210051+9999REMSYN060AAXX  01121 58314 32970 01401 11011 21063 30255 40350 52005;EQDQ01  00002PRCP99
0122583140999992000020115004+31400+116330FM-12+006899999V0209999C000012200019N0150001N1-00321-00581103471ADDGA1001+999999999GF100991001001999999001001MD1710021+9999REMSYN054AAXX  01151 58314 42965 00000 11032 21058 40347 57002;
0196583140999992000020118004+31400+116330FM-12+006899999V0209999C000012200019N0150001N1-00431-00601103421ADDAA199000091GA1001+999999999GF100991001001999999001001KA1999M+00271MA1999999102481MD1710051+9999REMSYN070AAXX  01181 58314 32965 00000 11043 21060 30248 40342 57005 333 10027;EQDQ01  00002PRCP99
0112583140999992000020121004+31400+116330FM-12+006899999V0209999C000019999999N0150001N1-00461-00591103311ADDGF105991051001999999041001MD1710111+9999REMSYN060AAXX  01211 58314 42965 50000 11046 21059 40331 57011 85040;
0173583140999992000020200004+31400+116330FM-12+006899999V0200901N002019999999N0150001N1-00421-00591103371ADDAA199000091GF108991081001999999071999MA1999999102431MD1210061+0071REMSYN076AAXX  02001 58314 32965 80902 11042 21059 30243 40337 52006 8807/ 333 05701;EQDQ01  00002PRCP99
0124583140999992000020203004+31400+116330FM-12+006899999V0209999C000019999999N0100001N1-00201-00551103411ADDGF108991081001999999071999MD1210041+9999MW1701REMSYN066AAXX  02031 58314 41960 80000 11020 21055 40341 52004 77000 8807/;
0193583140999992000020206004+31400+116330FM-12+006899999V0200901N002019999999N0150001N1+00011-00541103211ADDAA106000791AY171061GF107991071001999999071999KA1999N-00471MA1999999102271MD1710201+9999MW1701REMSYN088AAXX  02061 58314 11965 70902 10001 21054 30227 40321 57020 69901 77070 8707/ 333 21047;
0140583140999992000020209004+31400+116330FM-12+006899999V0200701N001019999999N0100001N1+00031-00151103151ADDAY171031AY271031GF108991081001999999071999MD1710061+9999MW1701REMSYN066AAXX  02091 58314 41960 80701 10003 21015 40315 57006 77077 8807/;
0170583140999992000020212004+31400+116330FM-12+006899999V0201101N002019999999N0120001N1-00041-00341103181ADDAA106000791AY171061GF108991081001999999071999MA1999999102241MD1210031+9999MW1001REMSYN078AAXX  02121 58314 11962 81102 11004 21034 30224 40318 52003 69901 70070 8807/;
0112583140999992000020215004+31400+116330FM-12+006899999V0209999C000019999999N0120001N1-00081-00251103231ADDGF108991081001999999071999MD1210051+9999REMSYN060AAXX  02151 58314 42962 80000 11008 21025 40323 52005 8807/;
0167583140999992000020218004+31400+116330FM-12+006899999V0209999C000019999999N0120001N1-00081-00171103171ADDAA199000021GF108991081001999999071999KA1999M+00051MA1999999102241MD1710051+9999REMSYN076AAXX  02181 58314 32962 80000 11008 21017 30224 40317 57005 8807/ 333 10005;
0133583140999992000020221004+31400+116330FM-12+006899999V0209999C000019999999N0120001N1-00061-00241103191ADDAA124000791GF108991081001999999071999MD1210021+9999REMSYN070AAXX  02211 58314 42962 80000 11006 21024 40319 52002 8807/ 333 79999;
0190583140999992000020300004+31400+116330FM-12+006899999V0201401N001019999999N0060001N1-00051-00171103271ADDAA124000791GF108991081001999999071999IA2999-00369MA1999999102331MD1210071-0101MW1101REMSYN094AAXX  03001 58314 31956 81401 11005 21017 30233 40327 52007 71000 8807/ 333 05104 31036 79999;
0124583140999992000020303004+31400+116330FM-12+006899999V0201401N001019999999N0090001N1+00181-00271103321ADDGF108991081001999999071999MD1210061+9999MW1101REMSYN066AAXX  03031 58314 41959 81401 10018 21027 40332 52006 71000 8807/;
0196583140999992000020306004+31400+116330FM-12+006899999V0200701N004012200019N0200001N1+00511-00481103051ADDAA199000091GA1001+999999999GF100991001001999999001001KA1999N-00101MA1999999102121MD1710271+9999REMSYN070AAXX  03061 58314 32970 00704 10051 21048 30212 40305 57027 333 21010;EQDQ01  00002PRCP99
0112583140999992000020309004+31400+116330FM-12+006899999V0201101N003019999999N0200001N1+00381-00481103051ADDGF107991071001999999071999MD1410001+9999REMSYN060AAXX  03091 58314 42970 71103 10038 21048 40305 54000 8707/;
0163583140999992000020312004+31400+116330FM-12+006899999V0201101N002019999999N0200001N1+00241-00481103151ADDAA199000091GF108991081001999999071999MA1999999102221MD1210101+9999REMSYN066AAXX  03121 58314 32970 81102 10024 21048 30222 40315 52010 8807/;EQDQ01  00002PRCP99
0112583140999992000020315004+31400+116330FM-12+006899999V0200901N001019999999N0200001N1+00221-00431103121ADDGF108991081001999999071999MD1710031+9999REMSYN060AAXX  03151 58314 42970 80901 10022 21043 40312 57003 8807/;
0186583140999992000020318004+31400+116330FM-12+006899999V0201101N001019999999N0200001N1+00181-00581103071ADDAA199000091GF108991081001999999071999KA1999M+00591MA1999999102151MD1710041+9999REMSYN076AAXX  03181 58314 32970 81101 10018 21058 30215 40307 57004 8807/ 333 10059;EQDQ01  00002PRCP99
0112583140999992000020321004+31400+116330FM-12+006899999V0209999C000019999999N0200001N1+00151-00271102981ADDGF108991081001999999071999MD1710091+9999REMSYN060AAXX  03211 58314 42970 80000 10015 21027 40298 57009 8807/;
0196583140999992000020400004+31400+116330FM-12+006899999V0200701N002019999999N0150001N1+00161-00161103101ADDAA106000791GF108991081001999999071999IA2999+00009MA1999999102171MD1210111-0201MW1701REMSYN100AAXX  04001 58314 11965 80702 10016 21016 30217 40310 52011 69901 77000 8807/ 333 05202 30000 79999;
0140583140999992000020403004+31400+116330FM-12+006899999V0201101N002019999999N0150001N1+00201-00181103101ADDAY171031AY271031GF108991081001999999071999MD1410001+9999MW1221REMSYN066AAXX  04031 58314 41965 81102 10020 21018 40310 54000 72277 8807/;
0193583140999992000020406004+31400+116330FM-12+006899999V0201101N002019999999N0120001N1+00241-00191102741ADDAA106000791AY171061GF108991081001999999071999KA1999N-00051MA1999999101821MD1710351+9999MW1601REMSYN088AAXX  04061 58314 11962 81102 10024 21019 30182 40274 57035 69901 76070 8807/ 333 21005;
0140583140999992000020409004+31400+116330FM-12+006899999V0200901N002019999999N0120001N1+00071-00161102741ADDAY171031AY261031GF108991081001999999071999MD1710011+9999MW1701REMSYN066AAXX  04091 58314 41962 80902 10007 21016 40274 57001 77076 8807/;
0163583140999992000020412004+31400+116330FM-12+006899999V0203201N002010075019N0080001N1+00001-00151102841ADDAA106002091AY171061AY261061GF108991081051008001999999MD1210101+9999MW1701REMSYN078AAXX  04121 58314 11558 83202 10000 21015 3/91/ 40284 52010 60021 77076 885//;
0132583140999992000020415004+31400+116330FM-12+006899999V0202901N001010075019N0120001N1-00021-00111102881ADDAY171031GF108991081051008001999999MD1210041+9999MW1001REMSYN066AAXX  04151 58314 41562 82901 11002 21011 40288 52004 70070 885//;
0193583140999992000020418004+31400+116330FM-12+006899999V0202901N001010120019N0100001N1+00011-00111102771ADDAA106001091AY171061GF108991081051012501999999KA1999M+00251MA1999999101841MD1710111+9999MW1001REMSYN088AAXX  04181 58314 11660 82901 10001 21011 30184 40277 57011 69991 70070 885// 333 10025;
0145583140999992000020421004+31400+116330FM-12+006899999V0209999C000010075019N0080001N1+00021-00131102681ADDAA124002891GF108991081051008001999999MD1710091+9999MW1101REMSYN076AAXX  04211 58314 41558 80000 10002 21013 40268 57009 71000 885// 333 70029;
0197583140999992000020500004+31400+116330FM-12+006899999V0200701N999999999999N9999999N1+99999+99999102821ADDAA124002891GF107991051999008001999999IA2999-00109MA1999999101891MD1210141-0301MW1101REMSYN082AAXX  05001 58314 31551 70777 30189 40282 52014 71000 85/// 333 05351 31010 70029;EQDQ01+007703WOSPD 
0190583140999992000020501004+31400+116330FM-12+006899999V0209999C000010075019N0060001N1+00041-00071102821ADDAA124999999GF108991081051008001999999IA2999-00109MA1999999101891MD1210141-0301MW1101REMSYN094AAXX  05011 58314 31556 80000 10004 21007 30189 40282 52014 71000 885// 333 05351 31010 7009/;
0124583140999992000020503004+31400+116330FM-12+006899999V0200701N001010075019N0040001N1+00041-00051103001ADDGF108991081051008001999999MD1210181+9999MW1101REMSYN066AAXX  05031 58314 41540 80701 10004 21005 40300 52018 71000 885//;
0198583140999992000020506004+31400+116330FM-12+006899999V0209999C000010075019N0090001N1+00281+00041102681ADDAA199000091GF108991081051008001999999KA1999N-00051MA1999999101761MD1710311+9999MW1101REMSYN082AAXX  05061 58314 31559 80000 10028 20004 30176 40268 57031 71000 885// 333 21005;EQDQ01  00002PRCP99
0112583140999992000020509004+31400+116330FM-12+006899999V0201101N002019999999N0100001N1+00401+00141102601ADDGF107991001001999999001021MD1710081+9999REMSYN060AAXX  05091 58314 42960 71102 10040 20014 40260 57008 80002;
0163583140999992000020512004+31400+116330FM-12+006899999V0209999C000019999999N0120001N1+00141+00061102651ADDAA199000091GF107991001001999999001021MA1999999101721MD1210041+9999REMSYN066AAXX  05121 58314 32962 70000 10014 20006 30172 40265 52004 80002;EQDQ01  00002PRCP99
0124583140999992000020515004+31400+116330FM-12+006899999V0202901N002019999999N0080001N1+00051-00011102751ADDGF108991081001999999071999MD1210101+9999MW1101REMSYN066AAXX  05151 58314 41958 82902 10005 21001 40275 52010 71000 8807/;
0198583140999992000020518004+31400+116330FM-12+006899999V0209999C000019999999N0050001N1-00031-00091102771ADDAA199000091GF108991081001999999071999KA1999M+00451MA1999999101841MD1210021+9999MW1101REMSYN082AAXX  05181 58314 31950 80000 11003 21009 30184 40277 52002 71000 8807/ 333 10045;EQDQ01  00002PRCP99
0124583140999992000020521004+31400+116330FM-12+006899999V0202701N002019999999N0020001N1-00171-00231102681ADDGF108991081001999999071999MD1710091+9999MW1101REMSYN066AAXX  05211 58314 41920 82702 11017 21023 40268 57009 71000 8807/;
0211583140999992000020600004+31400+116330FM-12+006899999V0209999C000019999999N0008001N1-00201-00231102671ADDAA199000091AY141061GF108991081001999999071999IA2999-00209MA1999999101741MD1710011-0201MW1421REMSYN088AAXX  06001 58314 31908 80000 11020 21023 30174 40267 57001 74240 8807/ 333 05252 31020;EQDQ01  00002PRCP99
0150583140999992000020603004+31400+116330FM-12+006899999V0202901N001012200019N0070001N1+00381-00091102631ADDAY141031AY241031GA1001+999999999GF100991001001999999001001MD1710031+9999MW1281REMSYN060AAXX  06031 58314 41957 02901 10038 21009 40263 57003 72844;
0216583140999992000020606004+31400+116330FM-12+006899999V0200901N003012200019N0120001N1+01101-00011102291ADDAA199000091AY141061GA1001+999999999GF100991001001999999001001KA1999N-00251MA1999999101381MD1710331+9999MW1001REMSYN076AAXX  06061 58314 31962 00903 10110 21001 30138 40229 57033 70040 333 21025;EQDQ01  00002PRCP99
0122583140999992000020609004+31400+116330FM-12+006899999V0201101N004012200019N0150001N1+00901+00151102241ADDGA1001+999999999GF100991001001999999001001MD1710051+9999REMSYN054AAXX  06091 58314 42965 01104 10090 20015 40224 57005;
0173583140999992000020612004+31400+116330FM-12+006899999V0209999C000012200019N0120001N1+00391+00211102291ADDAA199000091GA1001+999999999GF100991001001999999001001MA1999999101371MD1210041+9999REMSYN060AAXX  06121 58314 32962 00000 10039 20021 30137 40229 52004;EQDQ01  00002PRCP99
0112583140999992000020615004+31400+116330FM-12+006899999V0209999C000019999999N0100001N1+00201+00091102311ADDGF108991081001999999071999MD1210021+9999REMSYN060AAXX  06151 58314 42960 80000 10020 20009 40231 52002 8807/;
0196583140999992000020618004+31400+116330FM-12+006899999V0209999C000012200019N0200001N1+00191+00111102361ADDAA199000091GA1001+999999999GF100991001001999999001001KA1999M+01181MA1999999101451MD1210061+9999REMSYN070AAXX  06181 58314 32970 00000 10019 20011 30145 40236 52006 333 10118;EQDQ01  00002PRCP99
0122583140999992000020621004+31400+116330FM-12+006899999V0200401N001012200019N0150001N1+00001-00061102381ADDGA1001+999999999GF100991001001999999001001MD1210021+9999REMSYN054AAXX  06211 58314 42965 00401 10000 21006 40238 52002;
0191583140999992000020700004+31400+116330FM-12+006899999V0203401N006012200019N0250001N1+00611-01232102821ADDAA199000091GF103991031001999999041001IA2999-00309MA1999999101911MD1210441+0201REMSYN082AAXX  07001 58314 32975 33406 10061 21123 30191 40282 52044 83040 333 00208 31035;EQDQ01  00002PRCP99
0122583140999992000020703004+31400+116330FM-12+006899999V0203201N007012200019N0200001N1+00671-01131102931ADDGA1001+999999999GF100991001001999999001001MD1210091+9999REMSYN054AAXX  07031 58314 42970 03207 10067 21113 40293 52009;
0196583140999992000020706004+31400+116330FM-12+006899999V0203401N005012200019N0200001N1+00801-00731102761ADDAA199000091GA1001+999999999GF100991001001999999001001KA1999N-00101MA1999999101851MD1710161+9999REMSYN070AAXX  07061 58314 32970 03405 10080 21073 30185 40276 57016 333 21010;EQDQ01  00002PRCP99
0122583140999992000020709004+31400+116330FM-12+006899999V0200201N004012200019N0250001N1+00681-00581102721ADDGA1001+999999999GF100991001001999999001001MD1710051+9999REMSYN054AAXX  07091 58314 42975 00204 10068 21058 40272 57005;
0173583140999992000020712004+31400+116330FM-12+006899999V0202201N001012200019N0200001N1+00261-00341102791ADDAA199000091GA1001+999999999GF100991001001999999001001MA1999999101871MD1210071+9999REMSYN060AAXX  07121 58314 32970 02201 10026 21034 30187 40279 52007;EQDQ01  00002PRCP99
0122583140999992000020715004+31400+116330FM-12+006899999V0202701N002012200019N0200001N1-00081-00301102731ADDGA1001+999999999GF100991001001999999001001MD1710061+9999REMSYN054AAXX  07151 58314 42970 02702 11008 21030 40273 57006;
0196583140999992000020718004+31400+116330FM-12+006899999V0202701N001012200019N0200001N1-00181-00371102661ADDAA199000091GA1001+999999999GF100991001001999999001001KA1999M+00861MA1999999101741MD1710071+9999REMSYN070AAXX  07181 58314 32970 02701 11018 21037 30174 40266 57007 333 10086;EQDQ01  00002PRCP99
0122583140999992000020721004+31400+116330FM-12+006899999V0209999C000012200019N0200001N1-00321-00491102641ADDGA1001+999999999GF100991001001999999001001MD1710021+9999REMSYN054AAXX  07211 58314 42970 00000 11032 21049 40264 57002;
0183583140999992000020800004+31400+116330FM-12+006899999V0209999C000012200019N0200001N1-00371-00531102771ADDAA199000091GA1001+999999999GF100991001001999999001001MA1999999101841MD1210121+0011REMSYN070AAXX  08001 58314 32970 00000 11037 21053 30184 40277 52012 333 05160;EQDQ01  00002PRCP99
0122583140999992000020803004+31400+116330FM-12+006899999V0209999C000012200019N0200001N1+00701-00551102871ADDGA1001+999999999GF100991001001999999001001MD1210111+9999REMSYN054AAXX  08031 58314 42970 00000 10070 21055 40287 52011;
0183583140999992000020806004+31400+116330FM-12+006899999V0203401N004012200019N0200001N1+00911-01461102751ADDAA199000091GA1001+999999999GF100991001001999999001001MA1999999101831MD1710121+9999REMSYN070AAXX  08061 58314 32970 03404 10091 21146 30183 40275 57012 333 210/3;EQDQ01  00002PRCP99
0112583140999992000020809004+31400+116330FM-12+006899999V0200701N003012200019N0200001N1+00861-00921102671ADDGF101991011001999999041001MD1710081+9999REMSYN060AAXX  08091 58314 42970 10703 10086 21092 40267 57008 81040;
0153583140999992000020812004+31400+116330FM-12+006899999V0200901N001012200019N0200001N1+00321-00371102771ADDAA199000091GA1001+999999999GF100991001001999999001001MA1999999101841REMSYN054AAXX  08121 58314 32970 00901 10032 21037 30184 40277;EQDQ01  00002PRCP99
0122583140999992000020815004+31400+116330FM-12+006899999V0209999C000012200019N0200001N1+00101-00161102821ADDGA1001+999999999GF100991001001999999001001MD1210061+9999REMSYN054AAXX  08151 58314 42970 00000 10010 21016 40282 52006;
0196583140999992000020818004+31400+116330FM-12+006899999V0202901N001012200019N0150001N1-00021-00201102751ADDAA199000091GA1001+999999999GF100991001001999999001001KA1999M+01001MA1999999101831MD1710071+9999REMSYN070AAXX  08181 58314 32965 02901 11002 21020 30183 40275 57007 333 10100;EQDQ01  00002PRCP99
0122583140999992000020821004+31400+116330FM-12+006899999V0200901N001012200019N0150001N1-00081-00201102621ADDGA1001+999999999GF100991001001999999001001MD1710131+9999REMSYN054AAXX  08211 58314 42965 00901 11008 21020 40262 57013;
0191583140999992000020900004+31400+116330FM-12+006899999V0201101N001019999999N0100001N1-00061-00241102631ADDAA199000091GF108991081001999999071999IA2999-00409MA1999999101711MD1210011-0101REMSYN082AAXX  09001 58314 32960 81101 11006 21024 30171 40263 52001 8807/ 333 05103 31046;EQDQ01  00002PRCP99
0112583140999992000020903004+31400+116330FM-12+006899999V0200701N002019999999N0100001N1+00201-00421102591ADDGF108991081001999999071999MD1710041+9999REMSYN060AAXX  09031 58314 42960 80702 10020 21042 40259 57004 8807/;
0186583140999992000020906004+31400+116330FM-12+006899999V0200401N002019999999N0150001N1+00521-00201102241ADDAA199000091GF107991071001999999071999KA1999N-00111MA1999999101321MD1710351+9999REMSYN076AAXX  09061 58314 32965 70402 10052 21020 30132 40224 57035 8707/ 333 21011;EQDQ01  00002PRCP99
0112583140999992000020909004+31400+116330FM-12+006899999V0201101N003019999999N0150001N1+00601-00061102131ADDGF108991081001999999071999MD1710111+9999REMSYN060AAXX  09091 58314 42965 81103 10060 21006 40213 57011 8807/;
0163583140999992000020912004+31400+116330FM-12+006899999V0201101N002012200019N0200001N1+00351-00121102201ADDAA199000091GF103991031001999999041001MA1999999101281MD1210071+9999REMSYN066AAXX  09121 58314 32970 31102 10035 21012 30128 40220 52007 83040;EQDQ01  00002PRCP99
0112583140999992000020915004+31400+116330FM-12+006899999V0201101N001019999999N0150001N1+00261-00041102211ADDGF107991071001999999071999MD1210011+9999REMSYN060AAXX  09151 58314 42965 71101 10026 21004 40221 52001 8707/;
0186583140999992000020918004+31400+116330FM-12+006899999V0203201N001019999999N0200001N1+00241-00011102141ADDAA199000091GF108991081001999999071999KA1999M+00641MA1999999101231MD1710061+9999REMSYN076AAXX  09181 58314 32970 83201 10024 21001 30123 40214 57006 8807/ 333 10064;EQDQ01  00002PRCP99
0122583140999992000020921004+31400+116330FM-12+006899999V0209999C000012200019N0200001N1+00071-00011102041ADDGA1001+999999999GF100991001001999999001001MD1710101+9999REMSYN054AAXX  09211 58314 42970 00000 10007 21001 40204 57010;
0201583140999992000021000004+31400+116330FM-12+006899999V0209999C000012200019N0200001N1+00001-00121102141ADDAA199000091GA1001+999999999GF100991001001999999001001IA2999-00309MA1999999101221MD1210091-0501REMSYN076AAXX  10001 58314 32970 00000 10000 21012 30122 40214 52009 333 05501 31037;EQDQ01  00002PRCP99
0122583140999992000021003004+31400+116330FM-12+006899999V0200901N001012200019N0200001N1+00891+00101102111ADDGA1001+999999999GF100991001001999999001001MD1710021+9999REMSYN054AAXX  10031 58314 42970 00901 10089 20010 40211 57002;
0196583140999992000021006004+31400+116330FM-12+006899999V0200701N002012200019N0200001N1+01381-00271101751ADDAA199000091GA1001+999999999GF100991001001999999001001KA1999N-00021MA1999999100861MD1710341+9999REMSYN070AAXX  10061 58314 32970 00702 10138 21027 30086 40175 57034 333 21002;EQDQ01  00002PRCP99
0122583140999992000021009004+31400+116330FM-12+006899999V0201101N004012200019N0200001N1+01261+00041101701ADDGA1001+999999999GF100991001001999999001001MD1710061+9999REMSYN054AAXX  10091 58314 42970 01104 10126 20004 40170 57006;
0173583140999992000021012004+31400+116330FM-12+006899999V0209999C000012200019N0200001N1+00641+00221101921ADDAA199000091GA1001+999999999GF100991001001999999001001MA1999999101011MD1210211+9999REMSYN060AAXX  10121 58314 32970 00000 10064 20022 30101 40192 52021;EQDQ01  00002PRCP99
0122583140999992000021015004+31400+116330FM-12+006899999V0209999C000012200019N0200001N1+00301+00061102031ADDGA1001+999999999GF100991001001999999001001MD1210121+9999REMSYN054AAXX  10151 58314 42970 00000 10030 20006 40203 52012;
0196583140999992000021018004+31400+116330FM-12+006899999V0209999C000012200019N0150001N1+00141+00001102061ADDAA199000091GA1001+999999999GF100991001001999999001001KA1999M+01471MA1999999101161MD1210031+9999REMSYN070AAXX  10181 58314 32965 00000 10014 20000 30116 40206 52003 333 10147;EQDQ01  00002PRCP99
0122583140999992000021021004+31400+116330FM-12+006899999V0200401N001012200019N0150001N1+00031-00081102021ADDGA1001+999999999GF100991001001999999001001MD1710041+9999REMSYN054AAXX  10211 58314 42965 00401 10003 21008 40202 57004;
0201583140999992000021100004+31400+116330FM-12+006899999V0209999C000012200019N0150001N1+00041-00051102241ADDAA199000091GA1001+999999999GF100991001001999999001001IA2999-00409MA1999999101331MD1210211+0101REMSYN076AAXX  11001 58314 32965 00000 10004 21005 30133 40224 52021 333 00100 31040;EQDQ01  00002PRCP99
0122583140999992000021103004+31400+116330FM-12+006899999V0209999C000012200019N0200001N1+00991+00211102241ADDGA1001+999999999GF100991001001999999001001MD1210011+9999REMSYN054AAXX  11031 58314 42970 00000 10099 20021 40224 52001;
0196583140999992000021106004+31400+116330FM-12+006899999V0200701N002012200019N0250001N1+01551-00111102021ADDAA199000091GA1001+999999999GF100991001001999999001001KA1999N-00061MA1999999101121MD1710221+9999REMSYN070AAXX  11061 58314 32975 00702 10155 21011 30112 40202 57022 333 21006;EQDQ01  00002PRCP99
0122583140999992000021109004+31400+116330FM-12+006899999V0200901N005012200019N0200001N1+01321+00161101921ADDGA1001+999999999GF100991001001999999001001MD1710101+9999REMSYN054AAXX  11091 58314 42970 00905 10132 20016 40192 57010;
0173583140999992000021112004+31400+116330FM-12+006899999V0209999C000012200019N0200001N1+00731+00351102051ADDAA199000091GA1001+999999999GF100991001001999999001001MA1999999101141MD1210121+9999REMSYN060AAXX  11121 58314 32970 00000 10073 20035 30114 40205 52012;EQDQ01  00002PRCP99
0122583140999992000021115004+31400+116330FM-12+006899999V0200701N001012200019N0200001N1+00421+00301102091ADDGA1001+999999999GF100991001001999999001001MD1210051+9999REMSYN054AAXX  11151 58314 42970 00701 10042 20030 40209 52005;
0196583140999992000021118004+31400+116330FM-12+006899999V0209999C000012200019N0150001N1+00271+00141102011ADDAA199000091GA1001+999999999GF100991001001999999001001KA1999M+01581MA1999999101121MD1710071+9999REMSYN070AAXX  11181 58314 32965 00000 10027 20014 30112 40201 57007 333 10158;EQDQ01  00002PRCP99
0122583140999992000021121004+31400+116330FM-12+006899999V0202001N001012200019N0150001N1+00141+00031101901ADDGA1001+999999999GF100991001001999999001001MD1710121+9999REMSYN054AAXX  11211 58314 42965 02001 10014 20003 40190 57012;
0191583140999992000021200004+31400+116330FM-12+006899999V0209999C000019999999N0120001N1+00111+00031101971ADDAA199000091GF105991051001999999041001IA2999-00309MA1999999101061MD1210061-0301REMSYN082AAXX  12001 58314 32962 50000 10011 20003 30106 40197 52006 85040 333 05301 31036;EQDQ01  00002PRCP99
0112583140999992000021203004+31400+116330FM-12+006899999V0201101N001019999999N0150001N1+00661+00351101951ADDGF107991071001999999071999MD1710011+9999REMSYN060AAXX  12031 58314 42965 71101 10066 20035 40195 57001 8707/;
0186583140999992000021206004+31400+116330FM-12+006899999V0201101N002012200019N0200001N1+01601+00371101631ADDAA199000091GF101991011001999999041001KA1999N+00041MA1999999100741MD1710311+9999REMSYN076AAXX  12061 58314 32970 11102 10160 20037 30074 40163 57031 81040 333 20004;EQDQ01  00002PRCP99
0112583140999992000021209004+31400+116330FM-12+006899999V0200901N002019999999N0150001N1+01541+00341101611ADDGF107991001001999999001021MD1710021+9999REMSYN060AAXX  12091 58314 42965 70902 10154 20034 40161 57002 80002;
0173583140999992000021212004+31400+116330FM-12+006899999V0201101N001012200019N0200001N1+00951+00501101661ADDAA199000091GA1001+999999999GF100991001001999999001001MA1999999100761MD1210041+9999REMSYN060AAXX  12121 58314 32970 01101 10095 20050 30076 40166 52004;EQDQ01  00002PRCP99
0122583140999992000021215004+31400+116330FM-12+006899999V0209999C000012200019N0150001N1+00611+00471101741ADDGA1001+999999999GF100991001001999999001001MD1210081+9999REMSYN054AAXX  12151 58314 42965 00000 10061 20047 40174 52008;
0196583140999992000021218004+31400+116330FM-12+006899999V0202901N002012200019N0200001N1+00431+00331101741ADDAA199000091GA1001+999999999GF100991001001999999001001KA1999M+01681MA1999999100851MD1210011+9999REMSYN070AAXX  12181 58314 32970 02902 10043 20033 30085 40174 52001 333 10168;EQDQ01  00002PRCP99
0112583140999992000021221004+31400+116330FM-12+006899999V0202701N001019999999N0200001N1+00431+00361101541ADDGF108991081001999999071999MD1710201+9999REMSYN060AAXX  12211 58314 42970 82701 10043 20036 40154 57020 8807/;
0196583140999992000021300004+31400+116330FM-12+006899999V0203401N001019999999N0120001N1+00541+00421101731ADDAA106000791GF108991081001999999071999IA2999+00009MA1999999100831MD1210181-0201MW1601REMSYN100AAXX  13001 58314 11962 83401 10054 20042 30083 40173 52018 69901 76000 8807/ 333 05204 30000 79999;
0140583140999992000021303004+31400+116330FM-12+006899999V0209999C000019999999N0080001N1+00661+00551101701ADDAY161031AY261031GF108991081001999999071999MD1710031+9999MW1601REMSYN066AAXX  13031 58314 41958 80000 10066 20055 40170 57003 76066 8807/;
0201583140999992000021306004+31400+116330FM-12+006899999V0201101N001019999999N0070001N1+00731+00641101691ADDAA106002091AY161061AY261061GF108991081001999999071999KA1999N+00351MA1999999100791MD1710011+9999MW1601REMSYN088AAXX  13061 58314 11957 81101 10073 20064 30079 40169 57001 60021 76066 8807/ 333 20035;
0140583140999992000021309004+31400+116330FM-12+006899999V0202201N001019999999N0060001N1+00781+00671101811ADDAY161031AY261031GF108991081001999999071999MD1210121+9999MW1601REMSYN066AAXX  13091 58314 41956 82201 10078 20067 40181 52012 76066 8807/;
0178583140999992000021312004+31400+116330FM-12+006899999V0202701N002019999999N0060001N1+00761+00611101961ADDAA106002091AY161061AY261061GF108991081001999999071999MA1999999101061MD1210151+9999MW1601REMSYN078AAXX  13121 58314 11956 82702 10076 20061 30106 40196 52015 60021 76066 8807/;
0132583140999992000021315004+31400+116330FM-12+006899999V0203201N001019999999N0060001N1+00681+00571102071ADDAY161031GF108991081001999999071999MD1210111+9999MW1101REMSYN066AAXX  13151 58314 41956 83201 10068 20057 40207 52011 71060 8807/;
0193583140999992000021318004+31400+116330FM-12+006899999V0202701N001019999999N0080001N1+00701+00541102271ADDAA106000191AY161061GF108991081001999999071999KA1999M+00801MA1999999101371MD1210201+9999MW1101REMSYN088AAXX  13181 58314 11958 82701 10070 20054 30137 40227 52020 69921 71060 8807/ 333 10080;
0145583140999992000021321004+31400+116330FM-12+006899999V0203401N002019999999N0090001N1+00671+00391102291ADDAA124004191GF108991081001999999071999MD1210021+9999MW1101REMSYN076AAXX  13211 58314 41959 83402 10067 20039 40229 52002 71000 8807/ 333 70040;
0190583140999992000021400004+31400+116330FM-12+006899999V0200201N001019999999N0080001N1+00551+00381102521ADDAA124004191GF108991081001999999071999IA2999+00429MA1999999101611MD1210221+0801MW1101REMSYN094AAXX  14001 58314 31958 80201 10055 20038 30161 40252 52022 71000 8807/ 333 00800 30042 70040;
0124583140999992000021403004+31400+116330FM-12+006899999V0201101N001019999999N0080001N1+00551+00311102681ADDGF108991081001999999071999MD1210161+9999MW1101REMSYN066AAXX  14031 58314 41958 81101 10055 20031 40268 52016 71000 8807/;
0186583140999992000021406004+31400+116330FM-12+006899999V0202001N002019999999N0100001N1+00891+00361102501ADDAA199000091GF107991001001999999001021KA1999N+00501MA1999999101601MD1710171+9999REMSYN076AAXX  14061 58314 32960 72002 10089 20036 30160 40250 57017 80002 333 20050;EQDQ01  00002PRCP99
0112583140999992000021409004+31400+116330FM-12+006899999V0200401N002012200019N0100001N1+00861+00351102491ADDGF101991011001999999041001MD1710011+9999REMSYN060AAXX  14091 58314 42960 10402 10086 20035 40249 57001 81040;
0173583140999992000021412004+31400+116330FM-12+006899999V0201101N001012200019N0150001N1+00521+00301102701ADDAA199000091GA1001+999999999GF100991001001999999001001MA1999999101791MD1210201+9999REMSYN060AAXX  14121 58314 32965 01101 10052 20030 30179 4027/ 52020;EQDQ01  00002PRCP99
0122583140999992000021415004+31400+116330FM-12+006899999V0200901N001012200019N0120001N1+00271+00191102821ADDGA1001+999999999GF100991001001999999001001MD1210111+9999REMSYN054AAXX  14151 58314 42962 00901 10027 20019 40282 52011;
0198583140999992000021418004+31400+116330FM-12+006899999V0203401N001019999999N0080001N1+00041+00011102831ADDAA199000091GF108991081001999999071999KA1999M+01001MA1999999101911MD1210011+9999MW1101REMSYN082AAXX  14181 58314 31958 83401 10004 20001 30191 40283 52001 71000 8807/ 333 10100;EQDQ01  00002PRCP99
0124583140999992000021421004+31400+116330FM-12+006899999V0209999C000019999999N0060001N1-00101-00191102711ADDGF108991081001999999071999MD1710121+9999MW1101REMSYN066AAXX  14211 58314 41956 80000 11010 21019 40271 57012 71000 8807/;
0221583140999992000021500004+31400+116330FM-12+006899999V0202901N001010003019N0004001N1-00131-00151102821ADDAA199000091AY141061GA1091+999999999GF109991091999999999999999IA2999-00109MA1999999101901MD1210111+0301MW1471REMSYN082AAXX  15001 58314 31/04 92901 11013 21015 30190 40282 52011 74740 333 00357 31015;EQDQ01  00002PRCP99
0142583140999992000021503004+31400+116330FM-12+006899999V0200901N002012200019N0150001N1+00621+00021102861ADDAY141031GA1001+999999999GF100991001001999999001001MD1210041+9999MW1001REMSYN060AAXX  15031 58314 41965 00902 10062 20002 40286 52004 70040;
0206583140999992000021506004+31400+116330FM-12+006899999V0200701N002012200019N0200001N1+01211-00311102601ADDAA199000091AY141061GF104991001001999999001021KA1999N-00201MA1999999101691MD1710251+9999MW1001REMSYN082AAXX  15061 58314 31970 40702 10121 21031 30169 40260 57025 70040 80002 333 21020;EQDQ01  00002PRCP99
0112583140999992000021509004+31400+116330FM-12+006899999V0200701N003019999999N0200001N1+01061-00381102531ADDGF106991001001999999001021MD1710071+9999REMSYN060AAXX  15091 58314 42970 60703 10106 21038 40253 57007 80002;
0167583140999992000021512004+31400+116330FM-12+006899999V0209999C000012200019N0200001N1+99999+99999102671ADDAA199000091GA1001+999999999GF100991001001999999001001MA1999999101751MD1210131+9999REMSYN054AAXX  15121 58314 32970 00000 20016 30175 40267 52013;EQDQ01  00002PRCP99
0122583140999992000021515004+31400+116330FM-12+006899999V0202701N001012200019N0200001N1+00341+00101102711ADDGA1001+999999999GF100991001001999999001001MD1210051+9999REMSYN054AAXX  15151 58314 42970 02701 10034 20010 40271 52005;
0186583140999992000021518004+31400+116330FM-12+006899999V0209999C000019999999N0100001N1+00251+00061102591ADDAA199000091GF107991071001999999071999KA1999M+01301MA1999999101691MD1710111+9999REMSYN076AAXX  15181 58314 32960 70000 10025 20006 30169 40259 57011 8707/ 333 10130;EQDQ01  00002PRCP99
0122583140999992000021521004+31400+116330FM-12+006899999V0202901N001012200019N0100001N1+00071-00011102391ADDGA1001+999999999GF100991001001999999001001MD1710211+9999REMSYN054AAXX  15211 58314 42960 02901 10007 21001 40239 57021;
0185583140999992000021600004+31400+116330FM-12+006899999V0209999C000019999999N0120001N1+00101-00041102551ADDAA199000091GF108991999999999999999999IA2999-00209MA1999999101631MD1210181-0301REMSYN076AAXX  16001 58314 32962 80000 10010 21004 30163 40255 52018 333 05302 31023;EQDQ01  00002PRCP99
0112583140999992000021603004+31400+116330FM-12+006899999V0201101N001019999999N0120001N1+00441+00041102571ADDGF108991081001999999071999MD1210021+9999REMSYN060AAXX  16031 58314 42962 81101 10044 20004 40257 52002 8807/;
0186583140999992000021606004+31400+116330FM-12+006899999V0201801N001019999999N0120001N1+00841+00001102361ADDAA199000091GF107991071001999999071999KA1999N+00031MA1999999101451MD1710201+9999REMSYN076AAXX  16061 58314 32962 71801 10084 20000 30145 40236 57020 8707/ 333 20003;EQDQ01  00002PRCP99
0112583140999992000021609004+31400+116330FM-12+006899999V0201101N002019999999N0120001N1+00901+00091102251ADDGF108991081001999999071999MD1710111+9999REMSYN060AAXX  16091 58314 42962 81102 10090 20009 40225 57011 8807/;
0163583140999992000021612004+31400+116330FM-12+006899999V0209999C000019999999N0120001N1+00671+00151102331ADDAA199000091GF107991001001999999001021MA1999999101421MD1210081+9999REMSYN066AAXX  16121 58314 32962 70000 10067 20015 30142 40233 52008 80002;EQDQ01  00002PRCP99
0112583140999992000021615004+31400+116330FM-12+006899999V0202701N001019999999N0120001N1+00441+00191102461ADDGF108991081001999999071999MD1210131+9999REMSYN060AAXX  16151 58314 42962 82701 10044 20019 40246 52013 8807/;
0196583140999992000021618004+31400+116330FM-12+006899999V0201101N001012200019N0150001N1+00191+00081102441ADDAA199000091GA1001+999999999GF100991001001999999001001KA1999M+00951MA1999999101531MD1710021+9999REMSYN070AAXX  16181 58314 32965 01101 10019 20008 30153 40244 57002 333 10095;EQDQ01  00002PRCP99
0122583140999992000021621004+31400+116330FM-12+006899999V0202901N002012200019N0150001N1+00071-00011102461ADDGA1001+999999999GF100991001001999999001001MD1210021+9999REMSYN054AAXX  16211 58314 42965 02902 10007 21001 40246 52002;
0183583140999992000021700004+31400+116330FM-12+006899999V0209999C000012200019N0200001N1+00001-00091102631ADDAA199000091GA1001+999999999GF100991001001999999001001MA1999999101711MD1210161+0011REMSYN070AAXX  17001 58314 32970 00000 10000 21009 30171 40263 52016 333 00151;EQDQ01  00002PRCP99
0112583140999992000021703004+31400+116330FM-12+006899999V0201601N001019999999N0200001N1+00901+00111102531ADDGF107991001001999999001021MD1710091+9999REMSYN060AAXX  17031 58314 42970 71601 10090 20011 40253 57009 80002;
0186583140999992000021706004+31400+116330FM-12+006899999V0200901N002019999999N0200001N1+01201+00291102131ADDAA199000091GF107991001001999999001021KA1999N-00111MA1999999101231MD1710391+9999REMSYN076AAXX  17061 58314 32970 70902 10120 20029 30123 40213 57039 80002 333 21011;EQDQ01  00002PRCP99
0112583140999992000021709004+31400+116330FM-12+006899999V0200701N004019999999N0200001N1+01191+00361102011ADDGF107991071001999999041021MD1710121+9999REMSYN060AAXX  17091 58314 42970 70704 10119 20036 40201 57012 87042;
0163583140999992000021712004+31400+116330FM-12+006899999V0201801N002019999999N0150001N1+00891+00461102151ADDAA199000091GF107991071001999999071999MA1999999101241MD1210131+9999REMSYN066AAXX  17121 58314 32965 71802 10089 20046 30124 40215 52013 8707/;EQDQ01  00002PRCP99
0112583140999992000021715004+31400+116330FM-12+006899999V0202201N002019999999N0120001N1+00821+00481102081ADDGF108991081001999999071999MD1710061+9999REMSYN060AAXX  17151 58314 42962 82202 10082 20048 40208 57006 8807/;
0193583140999992000021718004+31400+116330FM-12+006899999V0200701N002019999999N0120001N1+00771+00571101971ADDAA106000191AY161061GF108991081001999999071999KA1999M+01331MA1999999101081MD1710101+9999MW1601REMSYN088AAXX  17181 58314 11962 80702 10077 20057 30108 40197 57010 69911 76060 8807/ 333 10133;
0161583140999992000021721004+31400+116330FM-12+006899999V0201401N003019999999N0080001N1+00651+00511101661ADDAA124000391AY161031AY261031GF108991081001999999071999MD1710311+9999MW1601REMSYN076AAXX  17211 58314 41958 81403 10065 20051 40166 57031 76066 8807/ 333 70002;
0212583140999992000021800004+31400+116330FM-12+006899999V0203201N002010075019N0070001N1+00621+00551101701ADDAA106014091AY161061AY261061GF108991081051008001999999IA2999+00059MA1999999100801MD1210031-0901MW1601REMSYN100AAXX  18001 58314 11557 83202 10062 20055 30080 40170 52003 60141 76066 885// 333 05906 30005 70138;
0140583140999992000021803004+31400+116330FM-12+006899999V0200901N001010075019N0060001N1+00621+00551101611ADDAY161031AY261031GF108991081051008001999999MD1710091+9999MW1601REMSYN066AAXX  18031 58314 41556 80901 10062 20055 40161 57009 76066 885//;
0201583140999992000021806004+31400+116330FM-12+006899999V0209999C000010075019N0060001N1+00661+00591101351ADDAA106007991AY161061AY261061GF108991081051008001999999KA1999N+00561MA1999999100461MD1710251+9999MW1601REMSYN088AAXX  18061 58314 11556 80000 10066 20059 30046 40135 57025 60081 76066 885// 333 20056;
0140583140999992000021809004+31400+116330FM-12+006899999V0200401N002010075019N0060001N1+00661+00591101281ADDAY161031AY261031GF108991081051008001999999MD1710081+9999MW1601REMSYN066AAXX  18091 58314 41556 80402 10066 20059 40128 57008 76066 885//;
0178583140999992000021812004+31400+116330FM-12+006899999V0203401N001010075019N0060001N1+00621+00551101371ADDAA106000891AY161061AY261061GF108991081051008001999999MA1999999100471MD1210091+9999MW1601REMSYN078AAXX  18121 58314 11556 83401 10062 20055 30047 40137 52009 69981 76066 885//;
0140583140999992000021815004+31400+116330FM-12+006899999V0203401N002010075019N0060001N1+00611+00501101491ADDAY161031AY261031GF108991081051008001999999MD1210121+9999MW1601REMSYN066AAXX  18151 58314 41556 83402 10061 20050 40149 52012 76066 885//;
0193583140999992000021818004+31400+116330FM-12+006899999V0203201N002010075019N0150001N1+00601+00481101591ADDAA106000391AY161061GF108991081051008001999999KA1999M+00781MA1999999100691MD1210101+9999MW1211REMSYN088AAXX  18181 58314 11565 83202 10060 20048 30069 40159 52010 69931 72160 885// 333 10078;
0133583140999992000021821004+31400+116330FM-12+006899999V0203201N004010075019N0100001N1+00461+00341101611ADDAA124022991GF108991081051008001999999MD1210021+9999REMSYN070AAXX  18211 58314 42560 83204 10046 20034 40161 52002 885// 333 70229;
0178583140999992000021900004+31400+116330FM-12+006899999V0203601N003019999999N0120001N1+00391+00341101711ADDAA124009491GF108991081001999999071999IA2999+00369MA1999999100811MD1210101+0001REMSYN088AAXX  19001 58314 32962 83603 10039 20034 30081 40171 52010 8807/ 333 00052 30036 70093;
0132583140999992000021903004+31400+116330FM-12+006899999V0203401N003019999999N0090001N1+00361+00231101891ADDAY161031GF108991081001999999071999MD1210171+9999MW1601REMSYN066AAXX  19031 58314 41959 83403 10036 20023 40189 52017 76060 8807/;
0193583140999992000021906004+31400+116330FM-12+006899999V0202701N002019999999N0080001N1+00321+00191101851ADDAA106005191AY161061GF108991081001999999071999KA1999N+00221MA1999999100941MD1710041+9999MW1601REMSYN088AAXX  19061 58314 11958 82702 10032 20019 30094 40185 57004 60051 76060 8807/ 333 20022;
0140583140999992000021909004+31400+116330FM-12+006899999V0203401N002010075019N0120001N1+00381+00201101791ADDAY161031AY261031GF108991081051008001999999MD1710061+9999MW1601REMSYN066AAXX  19091 58314 41562 83402 10038 20020 40179 57006 76066 885//;
0178583140999992000021912004+31400+116330FM-12+006899999V0203401N002010075019N0080001N1+00341+00191102061ADDAA106000391AY161061AY261061GF108991081051008001999999MA1999999101151MD1210271+9999MW1601REMSYN078AAXX  19121 58314 11558 83402 10034 20019 30115 40206 52027 69931 76066 885//;
0140583140999992000021915004+31400+116330FM-12+006899999V0202501N003010075019N0080001N1+00361+00261102221ADDAY161031AY261031GF108991081051008001999999MD1210161+9999MW1601REMSYN066AAXX  19151 58314 41558 82503 10036 20026 40222 52016 76066 885//;
0201583140999992000021918004+31400+116330FM-12+006899999V0202701N001010075019N0060001N1+00361+00311102221ADDAA106001091AY161061AY261061GF108991081051008001999999KA1999M+00621MA1999999101311MD1410001+9999MW1601REMSYN088AAXX  19181 58314 11556 82701 10036 20031 30131 40222 54000 60011 76066 885// 333 10062;
0161583140999992000021921004+31400+116330FM-12+006899999V0209999C000010075019N0060001N1+00401+00331102161ADDAA124007191AY161031AY261031GF108991081051008001999999MD1710061+9999MW1601REMSYN076AAXX  19211 58314 41556 80000 10040 20033 40216 57006 76066 885// 333 70072;
0190583140999992000022000004+31400+116330FM-12+006899999V0200201N003010075019N0080001N1+00391+00271102341ADDAA106000591GF108991081051008001999999IA2999+00289MA1999999101431MD1210181+0601REMSYN100AAXX  20001 58314 1/558 80203 10039 20027 30143 40234 52018 69951 76066 885// 333 00600 30028 70074;
0124583140999992000022003004+31400+116330FM-12+006899999V0202701N001010075019N0080001N1+00471+00251102471ADDGF108991081051008001999999MD1210131+9999MW1101REMSYN066AAXX  20031 58314 41558 82701 10047 20025 40247 52013 71000 885//;
0161583140999992000022006004+31400+116330FM-12+006899999V0202201N001019999999N0100001N1+00631+00211999999ADDAA199000021GF108991081001999999071999KA1999N+00301MA1999999101361MD1710201+9999REMSYN070AAXX  20061 58314 32960 82201 10063 20021 30136 57020 8807/ 333 20030;
0112583140999992000022009004+31400+116330FM-12+006899999V0209999C000019999999N0100001N1+00651+00231102221ADDGF108991081001999999071999MD1710051+9999REMSYN060AAXX  20091 58314 42960 80000 10065 20023 40222 57005 8807/;
0163583140999992000022012004+31400+116330FM-12+006899999V0209999C000019999999N0120001N1+00601+00391102351ADDAA199000091GF108991081001999999071999MA1999999101441MD1210131+9999REMSYN066AAXX  20121 58314 32962 80000 10060 20039 30144 40235 52013 8807/;EQDQ01  00002PRCP99
0112583140999992000022015004+31400+116330FM-12+006899999V0200901N002019999999N0120001N1+00541+00371102471ADDGF108991081001999999071999MD1210121+9999REMSYN060AAXX  20151 58314 42962 80902 10054 20037 40247 52012 8807/;
0186583140999992000022018004+31400+116330FM-12+006899999V0200901N001019999999N0120001N1+00461+00311102501ADDAA199000091GF107991001001999999001021KA1999M+00671MA1999999101591MD1210031+9999REMSYN076AAXX  20181 58314 32962 70901 10046 20031 30159 40250 52003 80002 333 10067;EQDQ01  00002PRCP99
0113583140999992000022021004+31400+116330FM-12+006899999V0200901N002019999999N0120001N1+00421+00301102471ADDAA124000391GF108991999999999999999999REMSYN064AAXX  20211 58314 42962 80902 10042 20030 40247 5//21 333 70002;
0203583140999992000022100004+31400+116330FM-12+006899999V0201401N002019999999N0060001N1+00361+00291102501ADDAA199000091GF108991081001999999071999IA2999+00109MA1999999101591MD1210031+0201MW1101REMSYN088AAXX  21001 58314 31956 81402 10036 20029 30159 40250 52003 71000 8807/ 333 00200 30010;EQDQ01  00002PRCP99
0124583140999992000022103004+31400+116330FM-12+006899999V0200901N005019999999N0080001N1+00581+00091102531ADDGF107991071001999999071999MD1210031+9999MW1101REMSYN066AAXX  21031 58314 41958 70905 10058 20009 40253 52003 71000 8707/;
0186583140999992000022106004+31400+116330FM-12+006899999V0201101N003019999999N0120001N1+00721+00061102201ADDAA199000091GF107991071001999999071999KA1999N+00301MA1999999101291MD1710331+9999REMSYN076AAXX  21061 58314 32962 71103 10072 20006 30129 40220 57033 8707/ 333 20030;EQDQ01  00002PRCP99
0112583140999992000022109004+31400+116330FM-12+006899999V0200901N004019999999N0120001N1+00601-00381102071ADDGF108991081001999999071999MD1710131+9999REMSYN060AAXX  21091 58314 42962 80904 10060 21038 40207 57013 8807/;
0163583140999992000022112004+31400+116330FM-12+006899999V0200901N003019999999N0150001N1+00461-00111102201ADDAA199000091GF108991081001999999071999MA1999999101291MD1210131+9999REMSYN066AAXX  21121 58314 32965 80903 10046 21011 30129 40220 52013 8807/;EQDQ01  00002PRCP99
0124583140999992000022115004+31400+116330FM-12+006899999V0201601N004019999999N0120001N1+00351-00151102351ADDGF108991081001999999071999MD1210151+9999MW1601REMSYN066AAXX  21151 58314 41962 81604 10035 21015 40235 52015 76000 8807/;
0193583140999992000022118004+31400+116330FM-12+006899999V02099999999999999999N0120001N1+99999+99999102331ADDAA106000791AY161061GF108991081001999999071999KA1999M+00751MA1999999101421MD1710021+9999MW1001REMSYN088AAXX  21181 58314 11962 818/2 10/29 20005 30142 40233 57002 69901 70060 8807/ 333 10075;
0133583140999992000022121004+31400+116330FM-12+006899999V0202701N001019999999N0120001N1+00211+00081102301ADDAA124000791GF108991081001999999071999MD1710031+9999REMSYN070AAXX  21211 58314 42962 82701 10021 20008 40230 57003 8807/ 333 79999;
0178583140999992000022200004+31400+116330FM-12+006899999V0200701N003019999999N0120001N1+00271+00141102371ADDAA124000791GF107991071001999999071999IA2999+00089MA1999999101461MD1210071-0101REMSYN088AAXX  22001 58314 32962 70703 10027 20014 30146 40237 52007 8707/ 333 05151 30008 79999;
0112583140999992000022203004+31400+116330FM-12+006899999V0201401N004019999999N0120001N1+00431+00061102421ADDGF108991081001999999071999MD1210051+9999REMSYN060AAXX  22031 58314 42962 81404 10043 20006 40242 52005 8807/;
0186583140999992000022206004+31400+116330FM-12+006899999V0201101N003019999999N0120001N1+00471+00141102281ADDAA199000091GF108991081001999999071999KA1999N+00181MA1999999101371MD1710141+9999REMSYN076AAXX  22061 58314 32962 81103 10047 20014 30137 40228 57014 8807/ 333 20018;EQDQ01  00002PRCP99
0112583140999992000022209004+31400+116330FM-12+006899999V0201101N004019999999N0120001N1+00441+00131102191ADDGF108991081001999999071999MD1710091+9999REMSYN060AAXX  22091 58314 42962 81104 10044 20013 40219 57009 8807/;
0163583140999992000022212004+31400+116330FM-12+006899999V0201101N002019999999N0120001N1+00411+00231102321ADDAA199000091GF108991081001999999071999MA1999999101411MD1210131+9999REMSYN066AAXX  22121 58314 32962 81102 10041 20023 30141 40232 52013 8807/;EQDQ01  00002PRCP99
0124583140999992000022215004+31400+116330FM-12+006899999V0209999C000019999999N0120001N1+00361+00291102431ADDGF108991081001999999071999MD1210111+9999MW1601REMSYN066AAXX  22151 58314 41962 80000 10036 20029 40243 52011 76000 8807/;
0193583140999992000022218004+31400+116330FM-12+006899999V0209999C000019999999N0100001N1+00381+00311102341ADDAA106000791AY161061GF108991081001999999071999KA1999M+00501MA1999999101431MD1710091+9999MW1001REMSYN088AAXX  22181 58314 11960 80000 10038 20031 30143 40234 57009 69901 70060 8807/ 333 10050;
0133583140999992000022221004+31400+116330FM-12+006899999V0200201N001019999999N0100001N1+00401+00281102311ADDAA124000791GF108991081001999999071999MD1710031+9999REMSYN070AAXX  22211 58314 42960 80201 10040 20028 40231 57003 8807/ 333 79999;
0204583140999992000022300004+31400+116330FM-12+006899999V0200401N001010075019N0080001N1+00401+00331102541ADDAA106000191AY161061GF108991081051008001999999IA2999+00299MA1999999101631MD1210231+0201MW1601REMSYN100AAXX  23001 58314 11558 80401 10040 20033 30163 40254 52023 69921 76060 885// 333 00201 30029 70002;
0132583140999992000022303004+31400+116330FM-12+006899999V0200901N002010075019N0090001N1+00521+00331102561ADDAY161031GF108991081051008001999999MD1210021+9999MW1101REMSYN066AAXX  23031 58314 41559 80902 10052 20033 40256 52002 71060 885//;
0193583140999992000022306004+31400+116330FM-12+006899999V0200701N003019999999N0100001N1+00631+00211102521ADDAA106000791AY161061GF108991081001999999071999KA1999N+00341MA1999999101611MD1710041+9999MW1001REMSYN088AAXX  23061 58314 11960 80703 10063 20021 30161 40252 57004 69901 70060 8807/ 333 20034;
0112583140999992000022309004+31400+116330FM-12+006899999V0203401N002019999999N0100001N1+00661+00251102501ADDGF108991081001999999071999MD1710021+9999REMSYN060AAXX  23091 58314 42960 83402 10066 20025 40250 57002 8807/;
0144583140999992000022312004+31400+116330FM-12+006899999V0202501N001019999999N0120001N1+00491+00291102541ADDAA199000021GF108991081001999999071999MA1999999101631MD1210041+9999REMSYN066AAXX  23121 58314 32962 82501 10049 20029 30163 40254 52004 8807/;
0112583140999992000022315004+31400+116330FM-12+006899999V0209999C000012200019N0120001N1+00331+00231102811ADDGF102991021001999999041001MD1210261+9999REMSYN060AAXX  23151 58314 42962 20000 10033 20023 40281 52026 82040;
0186583140999992000022318004+31400+116330FM-12+006899999V0209999C000019999999N0120001N1+00221+00141102851ADDAA199000091GF107991071001999999071999KA1999M+00701MA1999999101931MD1210041+9999REMSYN076AAXX  23181 58314 32962 70000 10022 20014 30193 40285 52004 8707/ 333 10070;EQDQ01  00002PRCP99
0145583140999992000022321004+31400+116330FM-12+006899999V0209999C000019999999N0050001N1+00141+00091102851ADDAA124000391GF108991081001999999071999MD1410001+9999MW1101REMSYN076AAXX  23211 58314 41950 80000 10014 20009 40285 54000 71000 8807/ 333 70002;
0190583140999992000022400004+31400+116330FM-12+006899999V0203201N002019999999N0080001N1+00221+00141103061ADDAA124000791GF108991081001999999071999IA2999-00079MA1999999102141MD1210211+0501MW1101REMSYN094AAXX  24001 58314 31958 83202 10022 20014 30214 40306 52021 71000 8807/ 333 00552 31007 79999;
0112583140999992000022403004+31400+116330FM-12+006899999V0200701N005019999999N0100001N1+00751+00071103151ADDGF107991001001999999001021MD1210091+9999REMSYN060AAXX  24031 58314 42960 70705 10075 20007 40315 52009 80002;
0186583140999992000022406004+31400+116330FM-12+006899999V0201101N005019999999N0100001N1+00781+00161102841ADDAA199000091GF108991081001999999071999KA1999N+00111MA1999999101931MD1710301+9999REMSYN076AAXX  24061 58314 32960 81105 10078 20016 30193 40284 57030 8807/ 333 20011;EQDQ01  00002PRCP99
0112583140999992000022409004+31400+116330FM-12+006899999V0200901N003019999999N0100001N1+00761+00141102771ADDGF108991081001999999071999MD1710081+9999REMSYN060AAXX  24091 58314 42960 80903 10076 20014 40277 57008 8807/;
0163583140999992000022412004+31400+116330FM-12+006899999V0201101N002019999999N0100001N1+00651+00181102871ADDAA199000091GF108991081001999999071999MA1999999101951MD1210101+9999REMSYN066AAXX  24121 58314 32960 81102 10065 20018 30195 40287 52010 8807/;EQDQ01  00002PRCP99
0112583140999992000022415004+31400+116330FM-12+006899999V0209999C000019999999N0100001N1+00511+00291103011ADDGF108991081001999999071999MD1210151+9999REMSYN060AAXX  24151 58314 42960 80000 10051 20029 40301 52015 8807/;
0186583140999992000022418004+31400+116330FM-12+006899999V0209999C000019999999N0200001N1+00271+00141102991ADDAA199000091GF107991071001999999041001KA1999M+00831MA1999999102081MD1710021+9999REMSYN076AAXX  24181 58314 32970 70000 10027 20014 30208 40299 57002 87040 333 10083;EQDQ01  00002PRCP99
0122583140999992000022421004+31400+116330FM-12+006899999V0202901N001012200019N0200001N1+00061-00051102951ADDGA1001+999999999GF100991001001999999001001MD1710051+9999REMSYN054AAXX  24211 58314 42970 02901 10006 21005 40295 57005;
0191583140999992000022500004+31400+116330FM-12+006899999V0209999C000019999999N0012001N1+00091+00001103091ADDAA199000091GF107991001001999999001021IA2999-00209MA1999999102171MD1210141+0001REMSYN082AAXX  25001 58314 32912 70000 10009 2100/ 30217 40309 52014 80002 333 00051 31020;EQDQ01  00002PRCP99
0112583140999992000022503004+31400+116330FM-12+006899999V0203201N001012200019N0150001N1+00601+00061102921ADDGF103991031001999999041001MD1710161+9999REMSYN060AAXX  25031 58314 42965 33201 10060 20006 40292 57016 83040;
0186583140999992000022506004+31400+116330FM-12+006899999V0201401N002012200019N0250001N1+00981-00061102671ADDAA199000091GF101991011001999999041001KA1999N-00011MA1999999101761MD1710251+9999REMSYN076AAXX  25061 58314 32975 11402 10098 21006 30176 40267 57025 81040 333 21001;EQDQ01  00002PRCP99
0112583140999992000022509004+31400+116330FM-12+006899999V0203201N003019999999N0250001N1+00901-00041102541ADDGF107991071001999999071999MD1710131+9999REMSYN060AAXX  25091 58314 42975 73203 10090 21004 40254 57013 8707/;
0173583140999992000022512004+31400+116330FM-12+006899999V0203201N001012200019N0200001N1+00601+00091102771ADDAA199000091GA1001+999999999GF100991001001999999001001MA1999999101851MD1210221+9999REMSYN060AAXX  25121 58314 32970 03201 10060 20009 30185 40277 52022;EQDQ01  00002PRCP99
0122583140999992000022515004+31400+116330FM-12+006899999V0202901N002012200019N0200001N1+00321+00081102871ADDGA1001+999999999GF100991001001999999001001MD1210101+9999REMSYN054AAXX  25151 58314 42970 02902 10032 20008 40287 52010;
0196583140999992000022518004+31400+116330FM-12+006899999V0202701N002012200019N0150001N1+00121-00021102851ADDAA199000091GA1001+999999999GF100991001001999999001001KA1999M+01151MA1999999101941MD1710011+9999REMSYN070AAXX  25181 58314 32965 02702 10012 21002 30194 40285 57001 333 10115;EQDQ01  00002PRCP99
0122583140999992000022521004+31400+116330FM-12+006899999V0209999C000012200019N0150001N1+00021-00131102851ADDGA1001+999999999GF100991001001999999001001MD1710011+9999REMSYN054AAXX  25211 58314 42965 00000 10002 21013 40285 57001;
0191583140999992000022600004+31400+116330FM-12+006899999V0202701N002012200019N0200001N1+00071-00131102941ADDAA199000091GF101991001001999999001021IA2999-00309MA1999999102021MD1210091-0201REMSYN082AAXX  26001 58314 32970 12702 10007 21013 30202 40294 52009 80002 333 05200 31033;EQDQ01  00002PRCP99
0122583140999992000022603004+31400+116330FM-12+006899999V0203401N004012200019N0200001N1+01031-01051102951ADDGA1001+999999999GF100991001001999999001001MD1210021+9999REMSYN054AAXX  26031 58314 42970 03404 10103 21105 40295 52002;
0196583140999992000022606004+31400+116330FM-12+006899999V0202701N002012200019N0200001N1+01301-00731102621ADDAA199000091GA1001+999999999GF100991001001999999001001KA1999N-00051MA1999999101711MD1710331+9999REMSYN070AAXX  26061 58314 32970 02702 10130 21073 30171 40262 57033 333 21005;EQDQ01  00002PRCP99
0122583140999992000022609004+31400+116330FM-12+006899999V0200701N003012200019N0200001N1+01261-00611102531ADDGA1001+999999999GF100991001001999999001001MD1710091+9999REMSYN054AAXX  26091 58314 42970 00703 10126 21061 40253 57009;
0173583140999992000022612004+31400+116330FM-12+006899999V0209999C000012200019N0200001N1+00681-00091102611ADDAA199000091GA1001+999999999GF100991001001999999001001MA1999999101691MD1210071+9999REMSYN060AAXX  26121 58314 32970 00000 10068 21009 30169 40261 52007;EQDQ01  00002PRCP99
0122583140999992000022615004+31400+116330FM-12+006899999V0202901N001012200019N0200001N1+00311-00081102661ADDGA1001+999999999GF100991001001999999001001MD1210061+9999REMSYN054AAXX  26151 58314 42970 02901 10031 21008 40266 52006;
0196583140999992000022618004+31400+116330FM-12+006899999V0209999C000012200019N0150001N1+00151-00111102681ADDAA199000091GA1001+999999999GF100991001001999999001001KA1999M+01401MA1999999101771MD1210021+9999REMSYN070AAXX  26181 58314 32965 00000 10015 21011 30177 40268 52002 333 10140;EQDQ01  00002PRCP99
0122583140999992000022621004+31400+116330FM-12+006899999V0203201N002012200019N0150001N1+00161-00101102601ADDGA1001+999999999GF100991001001999999001001MD1710081+9999REMSYN054AAXX  26211 58314 42965 03202 10016 21010 40260 57008;
0191583140999992000022700004+31400+116330FM-12+006899999V0209999C000019999999N0150001N1+00111-00091102701ADDAA199000091GF107991001001999999001021IA2999-00209MA1999999101781MD1210091-0201REMSYN082AAXX  27001 58314 32965 70000 10011 21009 30178 40270 52009 80002 333 05200 31027;EQDQ01  00002PRCP99
0112583140999992000022703004+31400+116330FM-12+006899999V0202901N002019999999N0150001N1+00901-00041102661ADDGF107991071001999999071999MD1710031+9999REMSYN060AAXX  27031 58314 42965 72902 10090 21004 40266 57003 8707/;
0186583140999992000022706004+31400+116330FM-12+006899999V0200901N002019999999N0150001N1+01261-00611102351ADDAA199000091GF107991071001999999071999KA1999N+00031MA1999999101451MD1710301+9999REMSYN076AAXX  27061 58314 32965 70902 10126 21061 30145 40235 57030 8707/ 333 20003;EQDQ01  00002PRCP99
0112583140999992000022709004+31400+116330FM-12+006899999V0201401N002019999999N0150001N1+01181-00091102291ADDGF107991071001999999071999MD1710061+9999REMSYN060AAXX  27091 58314 42965 71402 10118 21009 40229 57006 8707/;
0163583140999992000022712004+31400+116330FM-12+006899999V0209999C000019999999N0150001N1+00821+00331102421ADDAA199000091GF107991071001999999071999MA1999999101511MD1210121+9999REMSYN066AAXX  27121 58314 32965 70000 10082 20033 30151 40242 52012 8707/;EQDQ01  00002PRCP99
0112583140999992000022715004+31400+116330FM-12+006899999V0202901N001019999999N0150001N1+00681+00371102411ADDGF107991071001999999071999MD1410001+9999REMSYN060AAXX  27151 58314 42965 72901 10068 20037 40241 54000 8707/;
0186583140999992000022718004+31400+116330FM-12+006899999V0209999C000019999999N0200001N1+00591+00271102541ADDAA199000091GF108991081001999999071999KA1999M+01341MA1999999101641MD1210131+9999REMSYN076AAXX  27181 58314 32970 80000 10059 20027 30164 40254 52013 8807/ 333 10134;EQDQ01  00002PRCP99
0112583140999992000022721004+31400+116330FM-12+006899999V0203201N001019999999N0200001N1+00531+00261102611ADDGF108991081001999999071999MD1210071+9999REMSYN060AAXX  27211 58314 42970 83201 10053 20026 40261 52007 8807/;
0201583140999992000022800004+31400+116330FM-12+006899999V0209999C000012200019N0200001N1+00501+00281102861ADDAA199000091GA1001+999999999GF100991001001999999001001IA2999+00009MA1999999101951MD1210241+0201REMSYN076AAXX  28001 58314 32970 00000 10050 20028 30195 40286 52024 333 00204 30005;EQDQ01  00002PRCP99
0122583140999992000022803004+31400+116330FM-12+006899999V0201601N001012200019N0200001N1+01141+00071102981ADDGA1001+999999999GF100991001001999999001001MD1210131+9999REMSYN054AAXX  28031 58314 42970 01601 10114 20007 40298 52013;
0196583140999992000022806004+31400+116330FM-12+006899999V0201101N002012200019N0200001N1+01361-00131102831ADDAA199000091GA1001+999999999GF100991001001999999001001KA1999N+00441MA1999999101931MD1710151+9999REMSYN070AAXX  28061 58314 32970 01102 10136 21013 30193 40283 57015 333 20044;EQDQ01  00002PRCP99
0122583140999992000022809004+31400+116330FM-12+006899999V0201401N003012200019N0200001N1+01321-00011102821ADDGA1001+999999999GF100991001001999999001001MD1710011+9999REMSYN054AAXX  28091 58314 42970 01403 10132 21001 40282 57001;
0163583140999992000022812004+31400+116330FM-12+006899999V0201101N005019999999N0150001N1+01021+00181103121ADDAA199000091GF106991061001999999041001MA1999999102211MD1210291+9999REMSYN066AAXX  28121 58314 32965 61105 10102 20018 30221 40312 52029 86040;EQDQ01  00002PRCP99
0112583140999992000022815004+31400+116330FM-12+006899999V0200901N003012200019N0150001N1+00721+00201103301ADDGF103991031001999999041001MD1210191+9999REMSYN060AAXX  28151 58314 42965 30903 10072 20020 40330 52019 83040;
0190583140999992000022818004+31400+116330FM-12+006899999V0201101N001012200019N0120001N1+00421+00161999999ADDAA199000091GA1001+999999999GF100991001001999999001001KA1999M+01421MA1999999102431MD1210031+9999REMSYN064AAXX  28181 58314 32962 01101 10042 20016 30243 52003 333 10142;EQDQ01  00002PRCP99
0122583140999992000022821004+31400+116330FM-12+006899999V0209999C000012200019N0120001N1+00171+00061103321ADDGA1001+999999999GF100991001001999999001001MD1710021+9999REMSYN054AAXX  28211 58314 42962 00000 10017 20006 40332 57002;
0201583140999992000022900004+31400+116330FM-12+006899999V0209999C000012200019N0150001N1+00081+00001103411ADDAA199000091GA1001+999999999GF100991001001999999001001IA2999-00309MA1999999102491MD1210081+0501REMSYN076AAXX  29001 58314 32965 00000 10008 20000 30249 40341 52008 333 00554 31035;EQDQ01  00002PRCP99
0122583140999992000022903004+31400+116330FM-12+006899999V0200701N003012200019N0200001N1+00841+00121103281ADDGA1001+999999999GF100991001001999999001001MD1710121+9999REMSYN054AAXX  29031 58314 42970 00703 10084 20012 40328 57012;
0196583140999992000022906004+31400+116330FM-12+006899999V0200901N004012200019N0250001N1+01301-00361102931ADDAA199000091GA1001+999999999GF100991001001999999001001KA1999N+00001MA1999999102031MD1710341+9999REMSYN070AAXX  29061 58314 32975 00904 10130 21036 30203 40293 57034 333 20000;EQDQ01  00002PRCP99
0122583140999992000022909004+31400+116330FM-12+006899999V0200901N004012200019N0250001N1+01221-00341102791ADDGA1001+999999999GF100991001001999999001001MD1710151+9999REMSYN054AAXX  29091 58314 42975 00904 10122 21034 40279 57015;
0173583140999992000022912004+31400+116330FM-12+006899999V0201101N002012200019N0200001N1+00781+00011102931ADDAA199000091GA1001+999999999GF100991001001999999001001MA1999999102011MD1210131+9999REMSYN060AAXX  29121 58314 32970 01102 10078 20001 30201 40293 52013;EQDQ01  00002PRCP99
0122583140999992000022915004+31400+116330FM-12+006899999V0209999C000012200019N0200001N1+00301+00061102911ADDGA1001+999999999GF100991001001999999001001MD1710011+9999REMSYN054AAXX  29151 58314 42970 00000 10030 20006 40291 57001;
0196583140999992000022918004+31400+116330FM-12+006899999V0209999C000012200019N0200001N1+00071-00071102881ADDAA199000091GA1001+999999999GF100991001001999999001001KA1999M+01351MA1999999101971MD1710031+9999REMSYN070AAXX  29181 58314 32970 00000 10007 21007 30197 40288 57003 333 10135;EQDQ01  00002PRCP99
0189583140999992000022921004+31400+116330FM-12+006899999V0209999C000012200019N0200001N1+00071-00071999999ADDAA199000091GA1001+999999999GF100991001001999999001001MA1999999101971MD1710031+9999REMSYN060AAXX  29211 58314 32970 00000 10007 21007 30197 40227 57003;EQDQ01+102273APOSLPQ02  00002PRCP99
0201583140999992000030100004+31400+116330FM-12+006899999V0200701N001012200019N0150001N1+00001-00271102921ADDAA199000091GA1001+999999999GF100991001001999999001001IA2999-00409MA1999999102001MD1210131-0501REMSYN076AAXX  01001 58314 32965 00701 10000 21027 30200 40292 52013 333 05551 31047;EQDQ01  00002PRCP99
0122583140999992000030103004+31400+116330FM-12+006899999V0200901N002012200019N0200001N1+00941-00431102791ADDGA1001+999999999GF100991001001999999001001MD1710121+9999REMSYN054AAXX  01031 58314 42970 00902 10094 21043 40279 57012;
0196583140999992000030106004+31400+116330FM-12+006899999V0200901N002012200019N0200001N1+01461-00291102461ADDAA199000091GA1001+999999999GF100991001001999999001001KA1999N-00181MA1999999101561MD1710321+9999REMSYN070AAXX  01061 58314 32970 00902 10146 21029 30156 40246 57032 333 21018;EQDQ01  00002PRCP99
0122583140999992000030109004+31400+116330FM-12+006899999V0200701N004012200019N0200001N1+01401+00051102361ADDGA1001+999999999GF100991001001999999001001MD1710101+9999REMSYN054AAXX  01091 58314 42970 00704 10140 20005 40236 57010;
0173583140999992000030112004+31400+116330FM-12+006899999V0209999C000012200019N0200001N1+00841+00381102451ADDAA199000091GA1001+999999999GF100991001001999999001001MA1999999101541MD1210081+9999REMSYN060AAXX  01121 58314 32970 00000 10084 20038 30154 40245 52008;EQDQ01  00002PRCP99
0122583140999992000030115004+31400+116330FM-12+006899999V0201601N001012200019N0200001N1+00501+00281102491ADDGA1001+999999999GF100991001001999999001001MD1210051+9999REMSYN054AAXX  01151 58314 42970 01601 10050 20028 40249 52005;
0196583140999992000030118004+31400+116330FM-12+006899999V0202901N001012200019N0120001N1+00321+00191102461ADDAA199000091GA1001+999999999GF100991001001999999001001KA1999M+01531MA1999999101561MD1710031+9999REMSYN070AAXX  01181 58314 32962 02901 10032 20019 30156 40246 57003 333 10153;EQDQ01  00002PRCP99
0122583140999992000030121004+31400+116330FM-12+006899999V0202901N001012200019N0120001N1+00261+00101102391ADDGA1001+999999999GF100991001001999999001001MD1710071+9999REMSYN054AAXX  01211 58314 42962 02901 10026 20010 40239 57007;
0201583140999992000030200004+31400+116330FM-12+006899999V0202901N001012200019N0150001N1+00261+00041102531ADDAA199000091GA1001+999999999GF100991001001999999001001IA2999-00209MA1999999101621MD1210131-0401REMSYN076AAXX  02001 58314 32965 02901 10026 20004 30162 40253 52013 333 05403 31023;EQDQ01  00002PRCP99
0122583140999992000030203004+31400+116330FM-12+006899999V0201401N002012200019N0200001N1+01231+00151102411ADDGA1001+999999999GF100991001001999999001001MD1710111+9999REMSYN054AAXX  02031 58314 42970 01402 10123 20015 40241 57011;
0186583140999992000030206004+31400+116330FM-12+006899999V0200901N003019999999N0250001N1+01661+00151102091ADDAA199000091GF107991001001999999001021KA1999N+00131MA1999999101201MD1710311+9999REMSYN076AAXX  02061 58314 32975 70903 10166 20015 30120 40209 57031 80002 333 20013;EQDQ01  00002PRCP99
0112583140999992000030209004+31400+116330FM-12+006899999V0201101N002019999999N0200001N1+01441+00451101981ADDGF108991081001999999071999MD1710121+9999REMSYN060AAXX  02091 58314 42970 81102 10144 20045 40198 57012 8807/;
0163583140999992000030212004+31400+116330FM-12+006899999V0209999C000019999999N0200001N1+01191+00641102051ADDAA199000091GF107991071001999999071999MA1999999101151MD1210071+9999REMSYN066AAXX  02121 58314 32970 70000 10119 20064 30115 40205 52007 8707/;EQDQ01  00002PRCP99
0124583140999992000030215004+31400+116330FM-12+006899999V0202901N002019999999N0150001N1+00961+00771102081ADDGF108991081001999999071999MD1210041+9999MW1601REMSYN066AAXX  02151 58314 41965 82902 10096 20077 40208 52004 76000 8807/;
0193583140999992000030218004+31400+116330FM-12+006899999V0202901N001019999999N0120001N1+00941+00771101991ADDAA106000191AY161061GF108991081001999999071999KA1999M+01681MA1999999101111MD1710081+9999MW1001REMSYN088AAXX  02181 58314 11962 82901 10094 20077 30111 40199 57008 69911 70060 8807/ 333 10168;
0133583140999992000030221004+31400+116330FM-12+006899999V0202701N001019999999N0120001N1+00921+00821101911ADDAA124000191GF108991081001999999071999MD1710081+9999REMSYN070AAXX  02211 58314 42962 82701 10092 20082 40191 57008 8807/ 333 70001;
0178583140999992000030300004+31400+116330FM-12+006899999V0202701N001019999999N0100001N1+00901+00801102011ADDAA124000191GF108991081001999999071999IA2999+00309MA1999999101121MD1210091-0501REMSYN088AAXX  03001 58314 32960 82701 10090 20080 30112 40201 52009 8807/ 333 05506 30030 70001;
0112583140999992000030303004+31400+116330FM-12+006899999V0200901N001019999999N0100001N1+01121+00811101991ADDGF108991081001999999071999MD1710021+9999REMSYN060AAXX  03031 58314 42960 80901 10112 20081 40199 57002 8807/;
0186583140999992000030306004+31400+116330FM-12+006899999V0200901N001019999999N0120001N1+01441+00631101741ADDAA199000091GF107991071001999999071999KA1999N+00901MA1999999100861MD1710241+9999REMSYN076AAXX  03061 58314 32962 70901 10144 20063 30086 40174 57024 8707/ 333 20090;EQDQ01  00002PRCP99
0112583140999992000030309004+31400+116330FM-12+006899999V0200701N002019999999N0120001N1+01421+00711101691ADDGF108991081001999999071999MD1710051+9999REMSYN060AAXX  03091 58314 42962 80702 10142 20071 40169 57005 8807/;
0162583140999992000030312004+31400+116330FM-12+006899999V0202701N001019999999N0120001N1+01221+00881101771ADDAA106000791GF108991081001999999071999MA1999999100881MD1210071+9999MW1601REMSYN078AAXX  03121 58314 11962 82701 10122 20088 30088 40177 52007 69901 76000 8807/;
0140583140999992000030315004+31400+116330FM-12+006899999V0209999C000019999999N0120001N1+01061+00921101761ADDAY161031AY261031GF108991081001999999071999MD1710011+9999MW1601REMSYN066AAXX  03151 58314 41962 80000 10106 20092 40176 57001 76066 8807/;
0201583140999992000030318004+31400+116330FM-12+006899999V0202901N001019999999N0100001N1+00981+00881101751ADDAA106002091AY161061AY261061GF108991081001999999071999KA1999M+01551MA1999999100871MD1410001+9999MW1601REMSYN088AAXX  03181 58314 11960 82901 10098 20088 30087 40175 54000 60021 76066 8807/ 333 10155;
0161583140999992000030321004+31400+116330FM-12+006899999V0209999C000019999999N0100001N1+00961+00881101721ADDAA124001891AY161031AY261031GF108991081001999999071999MD1710031+9999MW1601REMSYN076AAXX  03211 58314 41960 80000 10096 20088 40172 57003 76066 8807/ 333 70019;
0194583140999992000030400004+31400+116330FM-12+006899999V0202701N001019999999N0040001N1+00961+00901101961ADDAA106000891AY161061AY261061GF108991081001999999071999MA1999999101071MD1210231-0101MW1211REMSYN094AAXX  04001 58314 11940 82701 10096 20090 30107 40196 52023 69971 72166 8807/ 333 05101 70022;
0124583140999992000030403004+31400+116330FM-12+006899999V0209999C000019999999N0060001N1+01061+00981102091ADDGF108991081001999999071999MD1210131+9999MW1101REMSYN066AAXX  04031 58314 41956 80000 10106 20098 40209 52013 71000 8807/;
0179583140999992000030406004+31400+116330FM-12+006899999V0200701N001019999999N0080001N1+01361+00911101811ADDAA199000021GF108991081001999999071999KA1999N+00951MA1999999100931MD1710271+9999MW1101REMSYN082AAXX  04061 58314 31958 80701 10136 20091 30093 40181 57027 71000 8807/ 333 20095;
0112583140999992000030409004+31400+116330FM-12+006899999V0200201N001019999999N0120001N1+01321+00911101781ADDGF108991081001999999071999MD1710031+9999REMSYN060AAXX  04091 58314 42962 80201 10132 20091 40178 57003 8807/;
0144583140999992000030412004+31400+116330FM-12+006899999V0202201N001019999999N0120001N1+01201+00961101901ADDAA199000021GF108991081001999999071999MA1999999101011MD1210111+9999REMSYN066AAXX  04121 58314 32962 82201 10120 20096 30101 40190 52011 8807/;
0112583140999992000030415004+31400+116330FM-12+006899999V0203401N001019999999N0120001N1+01101+00961101951ADDGF108991081001999999071999MD1210051+9999REMSYN060AAXX  04151 58314 42962 83401 10110 20096 40195 52005 8807/;
0193583140999992000030418004+31400+116330FM-12+006899999V0202701N002019999999N0100001N1+01001+00921101951ADDAA106000591AY161061GF108991081001999999071999KA1999M+01411MA1999999101071MD1210011+9999MW1601REMSYN088AAXX  04181 58314 11960 82702 10100 20092 30107 40195 52001 69941 76060 8807/ 333 10141;
0153583140999992000030421004+31400+116330FM-12+006899999V0209999C000019999999N0100001N1+00961+00901101891ADDAA124001091AY161031GF108991081001999999071999MD1710071+9999MW1001REMSYN076AAXX  04211 58314 41960 80000 10096 20090 40189 57007 70060 8807/ 333 70011;
0186583140999992000030500004+31400+116330FM-12+006899999V0202901N002019999999N0050001N1+00951+00871101971ADDAA106000591AY161061GF108991081001999999071999MA1999999101081MD1210081+0001MW1101REMSYN094AAXX  05001 58314 11950 82902 10095 20087 30108 40197 52008 69941 71060 8807/ 333 00000 70008;
0122583140999992000030503004+31400+116330FM-12+006899999V0200901N003012200019N0120001N1+01401+00871101941ADDGA1001+999999999GF100991001001999999001001MD1710021+9999REMSYN054AAXX  05031 58314 42962 00903 10140 20087 40194 57002;
0177583140999992000030506004+31400+116330FM-12+006899999V0201101N002012200019N0150001N1+01751+00721101711ADDAA199000021GA1001+999999999GF100991001001999999001001KA1999N+00901MA1999999100831MD1710231+9999REMSYN070AAXX  05061 58314 32965 01102 10175 20072 30083 40171 57023 333 20090;
0122583140999992000030509004+31400+116330FM-12+006899999V0200901N003012200019N0150001N1+01621+00721101511ADDGA1001+999999999GF100991001001999999001001MD1710201+9999REMSYN054AAXX  05091 58314 42965 00903 10162 20072 40151 57020;
0163583140999992000030512004+31400+116330FM-12+006899999V0209999C000019999999N0150001N1+01271+00921101641ADDAA199000091GF106991061001999999041001MA1999999100761MD1210131+9999REMSYN066AAXX  05121 58314 32965 60000 10127 20092 30076 40164 52013 86040;EQDQ01  00002PRCP99
0112583140999992000030515004+31400+116330FM-12+006899999V0202901N001019999999N0150001N1+00931+00811101821ADDGF108991081001999999071999MD1210181+9999REMSYN060AAXX  05151 58314 42965 82901 10093 20081 40182 52018 8807/;
0196583140999992000030518004+31400+116330FM-12+006899999V0209999C000012200019N0200001N1+00791+00731101771ADDAA199000091GA1001+999999999GF100991001001999999001001KA1999M+01771MA1999999100891MD1710051+9999REMSYN070AAXX  05181 58314 32970 00000 10079 20073 30089 40177 57005 333 10177;EQDQ01  00002PRCP99
0112583140999992000030521004+31400+116330FM-12+006899999V0209999C000019999999N0200001N1+00791+00681101791ADDGF108991081001999999071999MD1210021+9999REMSYN060AAXX  05211 58314 42970 80000 10079 20068 40179 52002 8807/;
0203583140999992000030600004+31400+116330FM-12+006899999V0200701N001019999999N0080001N1+00861+00751102021ADDAA199000091GF107991071001999999071999IA2999+00309MA1999999101131MD1210221+0101MW1101REMSYN088AAXX  06001 58314 31958 70701 10086 20075 30113 40202 52022 71000 8707/ 333 00151 30035;EQDQ01  00002PRCP99
0122583140999992000030603004+31400+116330FM-12+006899999V0200201N004012200019N0150001N1+01661+00081102101ADDGA1001+999999999GF100991001001999999001001MD1210091+9999REMSYN054AAXX  06031 58314 42965 00204 10166 20008 40210 52009;
0196583140999992000030606004+31400+116330FM-12+006899999V0200701N003012200019N0150001N1+01821-00221101951ADDAA199000091GA1001+999999999GF100991001001999999001001KA1999N+00701MA1999999101071MD1710151+9999REMSYN070AAXX  06061 58314 32965 00703 10182 21022 30107 40195 57015 333 20070;EQDQ01  00002PRCP99
0112583140999992000030609004+31400+116330FM-12+006899999V0200201N002012200019N0200001N1+01781-00591101901ADDGF104991001001999999001021MD1710051+9999REMSYN060AAXX  06091 58314 42970 40202 10178 21059 40190 57005 80002;
0173583140999992000030612004+31400+116330FM-12+006899999V0201601N001012200019N0200001N1+01231+00331102111ADDAA199000091GA1001+999999999GF100991001001999999001001MA1999999101221MD1210201+9999REMSYN060AAXX  06121 58314 32970 01601 10123 20033 30122 40211 52020;EQDQ01  00002PRCP99
0122583140999992000030615004+31400+116330FM-12+006899999V0201401N001012200019N0150001N1+00881+00451102321ADDGA1001+999999999GF100991001001999999001001MD1210211+9999REMSYN054AAXX  06151 58314 42965 01401 10088 20045 40232 52021;
0196583140999992000030618004+31400+116330FM-12+006899999V0200901N004012200019N0150001N1+00841+00211102351ADDAA199000091GA1001+999999999GF100991001001999999001001KA1999M+01881MA1999999101471MD1210041+9999REMSYN070AAXX  06181 58314 32965 00904 10084 20021 30147 40235 52004 333 10188;EQDQ01  00002PRCP99
0122583140999992000030621004+31400+116330FM-12+006899999V0200701N003012200019N0120001N1+00711-00221102391ADDGA1001+999999999GF100991001001999999001001MD1210031+9999REMSYN054AAXX  06211 58314 42962 00703 10071 21022 40239 52003;
0191583140999992000030700004+31400+116330FM-12+006899999V0200901N002019999999N0200001N1+00641-00281102531ADDAA199000091GF107991071001999999041021IA2999+00309MA1999999101631MD1210131+0501REMSYN082AAXX  07001 58314 32970 70902 10064 21028 30163 40253 52013 87042 333 00552 30035;EQDQ01  00002PRCP99
0112583140999992000030703004+31400+116330FM-12+006899999V0200901N002019999999N0200001N1+00721-00201102561ADDGF108991081001999999071999MD1210031+9999REMSYN060AAXX  07031 58314 42970 80902 10072 21020 40256 52003 8807/;
0186583140999992000030706004+31400+116330FM-12+006899999V0201401N002019999999N0200001N1+01191-00111102191ADDAA199000091GF107991001001999999001021KA1999N+00591MA1999999101301MD1710361+9999REMSYN076AAXX  07061 58314 32970 71402 10119 21011 30130 40219 57036 80002 333 20059;EQDQ01  00002PRCP99
0112583140999992000030709004+31400+116330FM-12+006899999V0200901N004019999999N0200001N1+01201-00131102261ADDGF106991061001999999041001MD1210071+9999REMSYN060AAXX  07091 58314 42970 60904 10120 21013 40226 52007 86040;
0173583140999992000030712004+31400+116330FM-12+006899999V0200401N001012200019N0200001N1+00851+00081102371ADDAA199000091GA1001+999999999GF100991001001999999001001MA1999999101471MD1210101+9999REMSYN060AAXX  07121 58314 32970 00401 10085 20008 30147 40237 52010;EQDQ01  00002PRCP99
0122583140999992000030715004+31400+116330FM-12+006899999V0202901N001012200019N0200001N1+00461+00231102521ADDGA1001+999999999GF100991001001999999001001MD1210141+9999REMSYN054AAXX  07151 58314 42970 02901 10046 20023 40252 52014;
0196583140999992000030718004+31400+116330FM-12+006899999V0202701N001012200019N0200001N1+00241+00081102541ADDAA199000091GA1001+999999999GF100991001001999999001001KA1999M+01331MA1999999101621MD1210011+9999REMSYN070AAXX  07181 58314 32970 02701 10024 20008 30162 40254 52001 333 10133;EQDQ01  00002PRCP99
0122583140999992000030721004+31400+116330FM-12+006899999V0200401N001012200019N0200001N1+00121+00011102471ADDGA1001+999999999GF100991001001999999001001MD1710061+9999REMSYN054AAXX  07211 58314 42970 00401 10012 20001 40247 57006;
0201583140999992000030800004+31400+116330FM-12+006899999V0202701N001012200019N0100001N1+00141+00001102611ADDAA199000091GA1001+999999999GF100991001001999999001001IA2999-00309MA1999999101701MD1210141+0101REMSYN076AAXX  08001 58314 32960 02701 10014 20000 30170 40261 52014 333 00155 31035;EQDQ01  00002PRCP99
0122583140999992000030803004+31400+116330FM-12+006899999V0200701N002012200019N0200001N1+01181+00101102641ADDGA1001+999999999GF100991001001999999001001MD1210041+9999REMSYN054AAXX  08031 58314 42970 00702 10118 20010 40264 52004;
0196583140999992000030806004+31400+116330FM-12+006899999V0200701N003012200019N0200001N1+01561-00431102321ADDAA199000091GA1001+999999999GF100991001001999999001001KA1999N+00001MA1999999101421MD1710321+9999REMSYN070AAXX  08061 58314 32970 00703 10156 21043 30142 40232 57032 333 20000;EQDQ01  00002PRCP99
0112583140999992000030809004+31400+116330FM-12+006899999V0200901N004019999999N0200001N1+01421-00121102181ADDGF107991001001999999001021MD1710141+9999REMSYN060AAXX  08091 58314 42970 70904 10142 21012 40218 57014 80002;
0173583140999992000030812004+31400+116330FM-12+006899999V0209999C000012200019N0200001N1+01081+00181102301ADDAA199000091GA1001+999999999GF100991001001999999001001MA1999999101391MD1210111+9999REMSYN060AAXX  08121 58314 32970 00000 10108 20018 30139 40230 52011;EQDQ01  00002PRCP99
0122583140999992000030815004+31400+116330FM-12+006899999V0202701N001012200019N0200001N1+00821+00351102361ADDGA1001+999999999GF100991001001999999001001MD1210081+9999REMSYN054AAXX  08151 58314 42970 02701 10082 20035 40236 52008;
0196583140999992000030818004+31400+116330FM-12+006899999V0209999C000012200019N0150001N1+00711+00331102351ADDAA199000091GA1001+999999999GF100991001001999999001001KA1999M+01621MA1999999101461MD1710011+9999REMSYN070AAXX  08181 58314 32965 00000 10071 20033 30146 40235 57001 333 10162;EQDQ01  00002PRCP99
0112583140999992000030821004+31400+116330FM-12+006899999V0209999C000019999999N0150001N1+00561+00321102321ADDGF108991081001999999071999MD1710031+9999REMSYN060AAXX  08211 58314 42965 80000 10056 20032 40232 57003 8807/;
0191583140999992000030900004+31400+116330FM-12+006899999V0202701N002019999999N0150001N1+00611+00401102501ADDAA199000091GF108991081001999999071999IA2999+00209MA1999999101601MD1210171-0101REMSYN082AAXX  09001 58314 32965 82702 10061 20040 30160 40250 52017 8807/ 333 05105 30025;EQDQ01  00002PRCP99
0112583140999992000030903004+31400+116330FM-12+006899999V0201401N001019999999N0150001N1+01101+00351102591ADDGF108991081001999999071999MD1210091+9999REMSYN060AAXX  09031 58314 42965 81401 10110 20035 40259 52009 8807/;
0186583140999992000030906004+31400+116330FM-12+006899999V0201101N002019999999N0150001N1+01221+00501102381ADDAA199000091GF108991081001999999071999KA1999N+00551MA1999999101481MD1710211+9999REMSYN076AAXX  09061 58314 32965 81102 10122 20050 30148 40238 57021 8807/ 333 20055;EQDQ01  00002PRCP99
0173583140999992000030912004+31400+116330FM-12+006899999V0200901N002012200019N0200001N1+01031+00451102401ADDAA199000091GA1001+999999999GF100991001001999999001001MA1999999101501MD1410001+9999REMSYN060AAXX  09121 58314 32970 00902 10103 20045 30150 40240 54000;EQDQ01  00002PRCP99
0122583140999992000030915004+31400+116330FM-12+006899999V0209999C000012200019N0200001N1+00721+00521102411ADDGA1001+999999999GF100991001001999999001001MD1210011+9999REMSYN054AAXX  09151 58314 42970 00000 10072 20052 40241 52001;
0186583140999992000030918004+31400+116330FM-12+006899999V0202701N002019999999N0120001N1+00581+00411102421ADDAA199000091GF108991081001999999071999KA1999M+01351MA1999999101521MD1210011+9999REMSYN076AAXX  09181 58314 32962 82702 10058 20041 30152 40242 52001 8807/ 333 10135;EQDQ01  00002PRCP99
0112583140999992000030921004+31400+116330FM-12+006899999V0200201N001019999999N0120001N1+00671+00361102311ADDGF108991081001999999071999MD1710111+9999REMSYN060AAXX  09211 58314 42962 80201 10067 20036 40231 57011 8807/;
0196583140999992000031000004+31400+116330FM-12+006899999V0200901N002019999999N0120001N1+00641+00381102321ADDAA106000791GF108991081001999999071999IA2999+00259MA1999999101421MD1210011-0201MW1601REMSYN100AAXX  10001 58314 11962 80902 10064 20038 30142 40232 52001 69901 76000 8807/ 333 05200 30025 79999;
0140583140999992000031003004+31400+116330FM-12+006899999V0200701N003019999999N0120001N1+00671+00491102281ADDAY161031AY261031GF108991081001999999071999MD1710041+9999MW1601REMSYN066AAXX  10031 58314 41962 80703 10067 20049 40228 57004 76066 8807/;
0201583140999992000031006004+31400+116330FM-12+006899999V0200901N003010075019N0090001N1+00681+00521102041ADDAA106004191AY161061AY261061GF108991081051008001999999KA1999N+00551MA1999999101141MD1710241+9999MW1601REMSYN088AAXX  10061 58314 11559 80903 10068 20052 30114 40204 57024 60041 76066 885// 333 20055;
0140583140999992000031009004+31400+116330FM-12+006899999V0200701N002010075019N0090001N1+00681+00571101901ADDAY161031AY261031GF108991081051008001999999MD1710141+9999MW1601REMSYN066AAXX  10091 58314 41559 80702 10068 20057 40190 57014 76066 885//;
0178583140999992000031012004+31400+116330FM-12+006899999V0203601N002010075019N0090001N1+00691+00561101961ADDAA106002091AY161061AY261061GF108991081051008001999999MA1999999101061MD1210061+9999MW1601REMSYN078AAXX  10121 58314 11559 83602 10069 20056 30106 40196 52006 60021 76066 885//;
0140583140999992000031015004+31400+116330FM-12+006899999V0200701N002010075019N0090001N1+00631+00561102011ADDAY161031AY261031GF108991081051008001999999MD1210051+9999MW1601REMSYN066AAXX  10151 58314 41559 80702 10063 20056 40201 52005 76066 885//;
0201583140999992000031018004+31400+116330FM-12+006899999V0200201N002010075019N0080001N1+00601+00551101831ADDAA106000591AY161061AY261061GF108991081051008001999999KA1999M+00731MA1999999100931MD1710181+9999MW1211REMSYN088AAXX  10181 58314 11558 80202 10060 20055 30093 40183 57018 69961 72166 885// 333 10073;
0145583140999992000031021004+31400+116330FM-12+006899999V0200401N001010075019N0060001N1+00581+00531101811ADDAA124006691GF108991081051008001999999MD1710021+9999MW1101REMSYN076AAXX  10211 58314 41556 80401 10058 20053 40181 57002 71000 885// 333 70067;
0190583140999992000031100004+31400+116330FM-12+006899999V0203401N003010075019N0040001N1+00581+00511101941ADDAA124006691GF108991081051008001999999IA2999+00509MA1999999101041MD1210131-0401MW1101REMSYN094AAXX  11001 58314 31540 83403 10058 20051 30104 40194 52013 71000 885// 333 05451 30050 70067;
0124583140999992000031103004+31400+116330FM-12+006899999V0203401N003010075019N0060001N1+00581+00421101951ADDGF108991081051008001999999MD1210011+9999MW1101REMSYN066AAXX  11031 58314 41556 83403 10058 20042 40195 52001 71000 885//;
0179583140999992000031106004+31400+116330FM-12+006899999V0203401N003010075019N0060001N1+00641+00431101791ADDAA199000021GF108991081051008001999999KA1999N+00551MA1999999100891MD1710161+9999MW1101REMSYN082AAXX  11061 58314 31556 83403 10064 20043 30089 40179 57016 71000 885// 333 20055;
0124583140999992000031109004+31400+116330FM-12+006899999V0203601N002010075019N0080001N1+00701+00451101781ADDGF108991081051008001999999MD1710011+9999MW1101REMSYN066AAXX  11091 58314 41558 83602 10070 20045 40178 57001 71000 885//;
0163583140999992000031112004+31400+116330FM-12+006899999V0202501N001019999999N0120001N1+00661+00451101921ADDAA199000091GF108991081001999999071999MA1999999101021MD1210141+9999REMSYN066AAXX  11121 58314 32962 82501 10066 20045 30102 40192 52014 8807/;EQDQ01  00002PRCP99
0112583140999992000031115004+31400+116330FM-12+006899999V0209999C000019999999N0120001N1+00641+00451102001ADDGF108991081001999999071999MD1210081+9999REMSYN060AAXX  11151 58314 42962 80000 10064 20045 40200 52008 8807/;
0186583140999992000031118004+31400+116330FM-12+006899999V0201601N001019999999N0100001N1+00631+00471102011ADDAA199000091GF108991081001999999071999KA1999M+00701MA1999999101111MD1210011+9999REMSYN076AAXX  11181 58314 32960 81601 10063 20047 30111 40201 52001 8807/ 333 10070;EQDQ01  00002PRCP99
0122583140999992000031121004+31400+116330FM-12+006899999V0209999C000012200019N0150001N1+00521+00431101901ADDGA1001+999999999GF100991001001999999001001MD1710111+9999REMSYN054AAXX  11211 58314 42965 00000 10052 20043 40190 57011;
0213583140999992000031200004+31400+116330FM-12+006899999V0202901N001010006019N0008001N1+00371+00321101981ADDAA199000091GA1091+999999999GF109991091999999999999999IA2999+00309MA1999999101071MD1210071+0001MW1471REMSYN082AAXX  12001 58314 31/08 92901 10037 20032 30107 40198 52007 74700 333 00052 30030;EQDQ01  00002PRCP99
0132583140999992000031203004+31400+116330FM-12+006899999V0201601N003012200019N0120001N1+01051+00401101901ADDAY141031GF104991041001999999041001MD1710061+9999MW1001REMSYN066AAXX  12031 58314 41962 41603 10105 20040 40190 57006 70040 84040;
0206583140999992000031206004+31400+116330FM-12+006899999V0201101N004019999999N0200001N1+01201+00451101791ADDAA199000091AY141061GF107991071001999999071999KA1999N+00341MA1999999100901MD1710111+9999MW1001REMSYN082AAXX  12061 58314 31970 71104 10120 20045 30090 40179 57011 70040 8707/ 333 20034;EQDQ01  00002PRCP99
0122583140999992000031209004+31400+116330FM-12+006899999V0200901N005012200019N0200001N1+01201+00481101681ADDGA1001+999999999GF100991001001999999001001MD1710111+9999REMSYN054AAXX  12091 58314 42970 00905 10120 20048 40168 57011;
0173583140999992000031212004+31400+116330FM-12+006899999V0200901N003012200019N0200001N1+00861+00621101721ADDAA199000091GA1001+999999999GF100991001001999999001001MA1999999100821MD1210031+9999REMSYN060AAXX  12121 58314 32970 00903 10086 20062 30082 40172 52003;EQDQ01  00002PRCP99
0112583140999992000031215004+31400+116330FM-12+006899999V0209999C000019999999N0200001N1+00641+00531101961ADDGF107991001001999999001021MD1210241+9999REMSYN060AAXX  12151 58314 42970 70000 10064 20053 40196 52024 80002;
0196583140999992000031218004+31400+116330FM-12+006899999V0202701N001012200019N0200001N1+00451+00381101921ADDAA199000091GA1001+999999999GF100991001001999999001001KA1999M+01271MA1999999101021MD1710041+9999REMSYN070AAXX  12181 58314 32970 02701 10045 20038 30102 40192 57004 333 10127;EQDQ01  00002PRCP99
0112583140999992000031221004+31400+116330FM-12+006899999V0202901N001019999999N0200001N1+00531+00461101851ADDGF108991081001999999071999MD1710061+9999REMSYN060AAXX  12211 58314 42970 82901 10053 20046 40185 57006 8807/;
0221583140999992000031300004+31400+116330FM-12+006899999V0201401N001010006019N0007001N1+00501+00451102011ADDAA199000091AY141061GA1091+999999999GF109991091999999999999999IA2999+00009MA1999999101111MD1210151+0001MW1471REMSYN082AAXX  13001 58314 31/07 91401 10050 20045 30111 40201 52015 74740 333 00001 30009;EQDQ01  00002PRCP99
0132583140999992000031303004+31400+116330FM-12+006899999V0201401N002019999999N0080001N1+00881+00641102061ADDAY141031GF108991081001999999071999MD1210051+9999MW1101REMSYN066AAXX  13031 58314 41958 81402 10088 20064 40206 52005 71040 8807/;
0206583140999992000031306004+31400+116330FM-12+006899999V0200701N002019999999N0200001N1+01381+00501101811ADDAA199000091AY141061GF107991071001999999071999KA1999N+00351MA1999999100921MD1710241+9999MW1001REMSYN082AAXX  13061 58314 31970 70702 10138 20050 30092 40181 57024 70040 8707/ 333 20035;EQDQ01  00002PRCP99
0112583140999992000031309004+31400+116330FM-12+006899999V0200701N004019999999N0200001N1+01351+00541101771ADDGF107991071001999999071999MD1710041+9999REMSYN060AAXX  13091 58314 42970 70704 10135 20054 40177 57004 8707/;
0163583140999992000031312004+31400+116330FM-12+006899999V0200901N002019999999N0150001N1+01221+00681101881ADDAA199000091GF108991081001999999071999MA1999999100991MD1210111+9999REMSYN066AAXX  13121 58314 32965 80902 10122 20068 30099 40188 52011 8807/;EQDQ01  00002PRCP99
0112583140999992000031315004+31400+116330FM-12+006899999V0202701N002019999999N0150001N1+01101+00811102041ADDGF108991081001999999071999MD1210161+9999REMSYN060AAXX  13151 58314 42965 82702 10110 20081 40204 52016 8807/;
0186583140999992000031318004+31400+116330FM-12+006899999V0209999C000019999999N0150001N1+00941+00771102011ADDAA199000091GF108991081001999999071999KA1999M+01451MA1999999101121MD1710031+9999REMSYN076AAXX  13181 58314 32965 80000 10094 20077 30112 40201 57003 8807/ 333 10145;EQDQ01  00002PRCP99
0112583140999992000031321004+31400+116330FM-12+006899999V0202901N001019999999N0150001N1+00851+00721101971ADDGF108991081001999999071999MD1710041+9999REMSYN060AAXX  13211 58314 42965 82901 10085 20072 40197 57004 8807/;
0173583140999992000031400004+31400+116330FM-12+006899999V0202901N001019999999N0150001N1+00881+00711102201ADDAA199000091GF108991081001999999071999MA1999999101311MD1210231+0021REMSYN076AAXX  14001 58314 32965 82901 10088 20071 30131 40220 52023 8807/ 333 00204;EQDQ01  00002PRCP99
0112583140999992000031403004+31400+116330FM-12+006899999V0200901N001019999999N0150001N1+01381+00841102171ADDGF107991071001999999071999MD1710021+9999REMSYN060AAXX  14031 58314 42965 70901 10138 20084 40217 57002 8707/;
0186583140999992000031406004+31400+116330FM-12+006899999V0200901N004012200019N0200001N1+01651+00681101821ADDAA199000091GF103991031001999999041001KA1999N+00791MA1999999100931MD1710361+9999REMSYN076AAXX  14061 58314 32970 30904 10165 20068 30093 40182 57036 83040 333 20079;EQDQ01  00002PRCP99
0112583140999992000031409004+31400+116330FM-12+006899999V0200901N004019999999N0150001N1+01451+00881101691ADDGF108991081001999999071999MD1710121+9999REMSYN060AAXX  14091 58314 42965 80904 10145 20088 40169 57012 8807/;
0104583140999992000031412004+31400+116330FM-12+006899999V0200901N004019999999N0150001N1+01251+99999999999ADDAA199000091GF107991999999999999999999REMSYN036AAXX  14121 58314 32965 70904 10125;EQDQ01  00002PRCP99
0112583140999992000031415004+31400+116330FM-12+006899999V0200901N002019999999N0150001N1+01121+00861101671ADDGF107991071001999999071999MD1710021+9999REMSYN060AAXX  14151 58314 42965 70902 10112 20086 40167 57002 8707/;
0186583140999992000031418004+31400+116330FM-12+006899999V0209999C000019999999N9999999N1+01101+00881101511ADDAA199000091GF108991081001999999071999KA1999M+01701MA1999999100641MD1710151+9999REMSYN076AAXX  14181 58314 3296/ 80000 10110 20088 30064 40151 57015 8807/ 333 10170;EQDQ01  00002PRCP99
0153583140999992000031421004+31400+116330FM-12+006899999V0201801N001019999999N0120001N1+01051+00891101391ADDAA124000191AY161031GF108991081001999999071999MD1710131+9999MW1211REMSYN076AAXX  14211 58314 41962 81801 10105 20089 40139 57013 72160 8807/ 333 70001;
0186583140999992000031500004+31400+116330FM-12+006899999V0202501N001019999999N0040001N1+01051+00951101411ADDAA106000191AY161061GF108991081001999999071999MA1999999100531MD1210021-0801MW1101REMSYN094AAXX  15001 58314 11940 82501 10105 20095 30053 40141 52002 69911 71060 8807/ 333 05802 70001;
0132583140999992000031503004+31400+116330FM-12+006899999V0209999C000019999999N0040001N1+01231+01001101401ADDAY161031GF108991081001999999071999MD1710011+9999MW1601REMSYN066AAXX  15031 58314 41940 80000 10123 20100 40140 57001 76060 8807/;
0193583140999992000031506004+31400+116330FM-12+006899999V0203401N003019999999N0040001N1+01211+01001101261ADDAA106000891AY161061GF108991081001999999071999KA1999N+01031MA1999999100381MD1710141+9999MW1601REMSYN088AAXX  15061 58314 11940 83403 10121 20100 30038 40126 57014 69981 76060 8807/ 333 20103;
0140583140999992000031509004+31400+116330FM-12+006899999V0203201N003019999999N0040001N1+01071+00891101431ADDAY161031AY261031GF108991081001999999071999MD1210171+9999MW1601REMSYN066AAXX  15091 58314 41940 83203 10107 20089 40143 52017 76066 8807/;
0170583140999992000031512004+31400+116330FM-12+006899999V0202701N002019999999N0100001N1+01011+00851101631ADDAA106004191AY161061GF108991081001999999071999MA1999999100741MD1210191+9999MW1001REMSYN078AAXX  15121 58314 11960 82702 10101 20085 30074 40163 52019 60041 70060 8807/;
0112583140999992000031515004+31400+116330FM-12+006899999V0202001N002019999999N0100001N1+00911+00781101841ADDGF107991071001999999071999MD1210211+9999REMSYN060AAXX  15151 58314 42960 72002 10091 20078 40184 52021 8707/;
0177583140999992000031518004+31400+116330FM-12+006899999V0200901N001012200019N0150001N1+00681+00641101841ADDAA199000021GA1001+999999999GF100991001001999999001001KA1999M+01301MA1999999100951MD1410001+9999REMSYN070AAXX  15181 58314 32965 00901 10068 20064 30095 40184 54000 333 10130;
0155583140999992000031521004+31400+116330FM-12+006899999V0209999C000012200019N0040001N1+00531+00481101891ADDAA124004691GA1001+999999999GF100991001001999999001001MD1210041+9999MW1101REMSYN070AAXX  15211 58314 41940 00000 10053 20048 40189 52004 71000 333 70046;
0208583140999992000031600004+31400+116330FM-12+006899999V0203401N001010006019N0007001N1+00561+00511102091ADDAA124004691AY141061GA1091+999999999GF109991091999999999999999IA2999+00209MA1999999101191MD1210201+0701MW1471REMSYN088AAXX  16001 58314 31/07 93401 10056 20051 30119 40209 52020 74740 333 00755 30020 70046;
0216583140999992000031606004+31400+116330FM-12+006899999V0200901N003012200019N0120001N1+01661+00341101811ADDAA199000091AY141061GA1001+999999999GF100991001001999999001001KA1999N+00531MA1999999100931MD1710271+9999MW1001REMSYN076AAXX  16061 58314 31962 00903 10166 20034 30093 40181 57027 70040 333 20053;EQDQ01  00002PRCP99
0122583140999992000031609004+31400+116330FM-12+006899999V0201101N002012200019N0200001N1+01821+00091101671ADDGA1001+999999999GF100991001001999999001001MD1710141+9999REMSYN054AAXX  16091 58314 42970 01102 10182 20009 40167 57014;
0173583140999992000031612004+31400+116330FM-12+006899999V0209999C000012200019N0200001N1+01191+00541101721ADDAA199000091GA1001+999999999GF100991001001999999001001MA1999999100831MD1210041+9999REMSYN060AAXX  16121 58314 32970 00000 10119 20054 30083 40172 52004;EQDQ01  00002PRCP99
0122583140999992000031615004+31400+116330FM-12+006899999V0200701N002012200019N0200001N1+00921+00771101791ADDGA1001+999999999GF100991001001999999001001MD1210071+9999REMSYN054AAXX  16151 58314 42970 00702 10092 20077 40179 52007;
0196583140999992000031618004+31400+116330FM-12+006899999V0202701N001012200019N0150001N1+00771+00571101721ADDAA199000091GA1001+999999999GF100991001001999999001001KA1999M+01841MA1999999100841MD1710061+9999REMSYN070AAXX  16181 58314 32965 02701 10077 20057 30084 40172 57006 333 10184;EQDQ01  00002PRCP99
0122583140999992000031621004+31400+116330FM-12+006899999V0209999C000012200019N0150001N1+00621+00511101671ADDGA1001+999999999GF100991001001999999001001MD1710051+9999REMSYN054AAXX  16211 58314 42965 00000 10062 20051 40167 57005;
0201583140999992000031700004+31400+116330FM-12+006899999V0202901N001012200019N0120001N1+00621+00461101801ADDAA199000091GA1001+999999999GF100991001001999999001001IA2999+00009MA1999999100911MD1210121-0301REMSYN076AAXX  17001 58314 32962 02901 10062 20046 30091 40180 52012 333 05301 30007;EQDQ01  00002PRCP99
0131583140999992000031703004+31400+116330FM-12+006899999V0201101N002019999999N0200001N1+01952+00081101731ADDGF105991051001999999041001MD1710051+9999REMSYN060AAXX  17031 58314 42970 51102 10195 20008 40173 57005 85040;EQDQ01+001953ATOT  
0186583140999992000031706004+31400+116330FM-12+006899999V0200201N003019999999N0200001N1+02201+00021101361ADDAA199000091GF106991061001999999041001KA1999N+00471MA1999999100491MD1710371+9999REMSYN076AAXX  17061 58314 32970 60203 10220 20002 30049 40136 57037 86040 333 20047;EQDQ01  00002PRCP99
0112583140999992000031709004+31400+116330FM-12+006899999V0200901N005019999999N0200001N1+01961-00251101281ADDGF107991071001999999071999MD1710091+9999REMSYN060AAXX  17091 58314 42970 70905 10196 21025 40128 57009 8707/;
0163583140999992000031712004+31400+116330FM-12+006899999V0201101N002010120019N0200001N1+01581+00251101381ADDAA199000091GF107991071051012501999999MA1999999100501MD1210101+9999REMSYN066AAXX  17121 58314 32670 71102 10158 20025 30050 40138 52010 875//;EQDQ01  00002PRCP99
0112583140999992000031715004+31400+116330FM-12+006899999V0202701N001019999999N0200001N1+01271+00591101471ADDGF107991071001999999071999MD1210101+9999REMSYN060AAXX  17151 58314 42970 72701 10127 20059 40147 52010 8707/;
0186583140999992000031718004+31400+116330FM-12+006899999V0202701N002019999999N0200001N1+01021+00681101381ADDAA199000091GF105991051001999999041001KA1999M+02221MA1999999100511MD1710091+9999REMSYN076AAXX  17181 58314 32970 52702 10102 20068 30051 40138 57009 85040 333 10222;EQDQ01  00002PRCP99
0112583140999992000031721004+31400+116330FM-12+006899999V0202901N002019999999N0150001N1+00921+00641101341ADDGF108991081001999999071999MD1710041+9999REMSYN060AAXX  17211 58314 42965 82902 10092 20064 40134 57004 8807/;
0191583140999992000031800004+31400+116330FM-12+006899999V0202901N001019999999N0150001N1+01021+00561101491ADDAA199000091GF108991081001999999071999IA2999+00509MA1999999100611MD1210141-0301REMSYN082AAXX  18001 58314 32965 82901 10102 20056 30061 40149 52014 8807/ 333 05304 30050;EQDQ01  00002PRCP99
0112583140999992000031803004+31400+116330FM-12+006899999V0209999C000019999999N0150001N1+01611+00581101481ADDGF107991071001999999071999MD1410001+9999REMSYN060AAXX  18031 58314 42965 70000 10161 20058 40148 54000 8707/;
0186583140999992000031806004+31400+116330FM-12+006899999V0201101N002019999999N0150001N1+01981+00311101291ADDAA199000091GF106991061001999999041001KA1999N+00901MA1999999100421MD1710191+9999REMSYN076AAXX  18061 58314 32965 61102 10198 20031 30042 40129 57019 86040 333 20090;EQDQ01  00002PRCP99
0122583140999992000031809004+31400+116330FM-12+006899999V0200901N002012200019N0200001N1+02061+00321101211ADDGA1001+999999999GF100991001001999999001001MD1710081+9999REMSYN054AAXX  18091 58314 42970 00902 10206 20032 40121 57008;
0173583140999992000031812004+31400+116330FM-12+006899999V0202901N002012200019N0150001N1+01391+00791101351ADDAA199000091GA1001+999999999GF100991001001999999001001MA1999999100471MD1210131+9999REMSYN060AAXX  18121 58314 32965 02902 10139 20079 30047 40135 52013;EQDQ01  00002PRCP99
0122583140999992000031815004+31400+116330FM-12+006899999V0209999C000012200019N0150001N1+01041+00701101601ADDGA1001+999999999GF100991001001999999001001MD1210251+9999REMSYN054AAXX  18151 58314 42965 00000 10104 20070 40160 52025;
0196583140999992000031818004+31400+116330FM-12+006899999V0209999C000012200019N0200001N1+00821+00671101751ADDAA199000091GA1001+999999999GF100991001001999999001001KA1999M+02151MA1999999100871MD1210151+9999REMSYN070AAXX  18181 58314 32970 00000 10082 20067 30087 40175 52015 333 10215;EQDQ01  00002PRCP99
0122583140999992000031821004+31400+116330FM-12+006899999V0203601N001012200019N0200001N1+00741+00581101901ADDGA1001+999999999GF100991001001999999001001MD1210151+9999REMSYN054AAXX  18211 58314 42970 03601 10074 20058 40190 52015;
0191583140999992000031900004+31400+116330FM-12+006899999V0203601N001019999999N0120001N1+00801+00601102301ADDAA199000091GF107991071001999999071999IA2999+00209MA1999999101411MD1210391+0801REMSYN082AAXX  19001 58314 32962 73601 10080 20060 30141 40230 52039 8707/ 333 00852 30023;EQDQ01  00002PRCP99
0122583140999992000031903004+31400+116330FM-12+006899999V0200901N006012200019N0200001N1+01381+00091102371ADDGA1001+999999999GF100991001001999999001001MD1210071+9999REMSYN054AAXX  19031 58314 42970 00906 10138 20009 40237 52007;
0196583140999992000031906004+31400+116330FM-12+006899999V0200901N004012200019N0300001N1+01561-00021102171ADDAA199000091GA1001+999999999GF100991001001999999001001KA1999N+00651MA1999999101281MD1710201+9999REMSYN070AAXX  19061 58314 32980 00904 10156 21002 30128 40217 57020 333 20065;EQDQ01  00002PRCP99
0122583140999992000031909004+31400+116330FM-12+006899999V0201101N005012200019N0300001N1+01531+00031102071ADDGA1001+999999999GF100991001001999999001001MD1710101+9999REMSYN054AAXX  19091 58314 42980 01105 10153 20003 40207 57010;
0173583140999992000031912004+31400+116330FM-12+006899999V0201401N002012200019N0200001N1+01141+00351102081ADDAA199000091GA1001+999999999GF100991001001999999001001MA1999999101191MD1210011+9999REMSYN060AAXX  19121 58314 32970 01402 10114 20035 30119 40208 52001;EQDQ01  00002PRCP99
0112583140999992000031915004+31400+116330FM-12+006899999V0209999C000012200019N0200001N1+00781+00531102141ADDGF103991001001999999001021MD1210061+9999REMSYN060AAXX  19151 58314 42970 30000 10078 20053 40214 52006 80002;
0186583140999992000031918004+31400+116330FM-12+006899999V0203201N002019999999N0200001N1+00631+00391102021ADDAA199000091GF107991071001999999071999KA1999M+01651MA1999999101131MD1710121+9999REMSYN076AAXX  19181 58314 32970 73202 10063 20039 30113 40202 57012 8707/ 333 10165;EQDQ01  00002PRCP99
0112583140999992000031921004+31400+116330FM-12+006899999V0209999C000019999999N0200001N1+00591+00471101941ADDGF107991071001999999071999MD1710081+9999REMSYN060AAXX  19211 58314 42970 70000 10059 20047 40194 57008 8707/;
0191583140999992000032000004+31400+116330FM-12+006899999V0201101N002012200019N0150001N1+00661+00251101931ADDAA199000091GF101991001001999999001021IA2999+00209MA1999999101041MD1710011-0401REMSYN082AAXX  20001 58314 32965 11102 10066 20025 30104 40193 57001 80002 333 05451 30026;EQDQ01  00002PRCP99
0112583140999992000032003004+31400+116330FM-12+006899999V0201101N002019999999N0150001N1+01041+00361101771ADDGF107991071001999999071999MD1710161+9999REMSYN060AAXX  20031 58314 42965 71102 10104 20036 40177 57016 8707/;
0186583140999992000032006004+31400+116330FM-12+006899999V0200901N003012200019N0200001N1+01701+00461101401ADDAA199000091GF102991001001999999001021KA1999N+00561MA1999999100521MD1710361+9999REMSYN076AAXX  20061 58314 32970 20903 10170 20046 30052 40140 57036 80002 333 20056;EQDQ01  00002PRCP99
0112583140999992000032009004+31400+116330FM-12+006899999V0200701N003019999999N0200001N1+01671+00641101261ADDGF107991071001999999071999MD1710141+9999REMSYN060AAXX  20091 58314 42970 70703 10167 20064 40126 57014 8707/;
0163583140999992000032012004+31400+116330FM-12+006899999V0201401N002019999999N0150001N1+01391+00721101331ADDAA199000091GF108991081001999999071999MA1999999100451MD1210071+9999REMSYN066AAXX  20121 58314 32965 81402 10139 20072 30045 40133 52007 8807/;EQDQ01  00002PRCP99
0112583140999992000032015004+31400+116330FM-12+006899999V0209999C000019999999N0150001N1+01301+00771101491ADDGF108991081001999999071999MD1210161+9999REMSYN060AAXX  20151 58314 42965 80000 10130 20077 40149 52016 8807/;
0186583140999992000032018004+31400+116330FM-12+006899999V0201401N001019999999N0200001N1+01251+00761101441ADDAA199000091GF108991081001999999071999KA1999M+01851MA1999999100571MD1710041+9999REMSYN076AAXX  20181 58314 32970 81401 10125 20076 30057 40144 57004 8807/ 333 10185;EQDQ01  00002PRCP99
0112583140999992000032021004+31400+116330FM-12+006899999V0209999C000019999999N0200001N1+01231+00911101431ADDGF108991081001999999071999MD1710011+9999REMSYN060AAXX  20211 58314 42970 80000 10123 20091 40143 57001 8807/;
0173583140999992000032100004+31400+116330FM-12+006899999V0209999C000019999999N0150001N1+01261+00931101651ADDAA199000091GF108991081001999999071999MA1999999100771MD1210211+0031REMSYN076AAXX  21001 58314 32965 80000 10126 20093 30077 40165 52021 8807/ 333 05306;EQDQ01  00002PRCP99
0112583140999992000032103004+31400+116330FM-12+006899999V0200401N003019999999N0150001N1+01581+00831101701ADDGF107991071001999999071999MD1210061+9999REMSYN060AAXX  21031 58314 42965 70403 10158 20083 40170 52006 8707/;
0186583140999992000032106004+31400+116330FM-12+006899999V0200401N002019999999N0100001N1+01601+00841101571ADDAA199000091GF108991081001999999071999KA1999N+01201MA1999999100701MD1710131+9999REMSYN076AAXX  21061 58314 32960 80402 10160 20084 30070 40157 57013 8807/ 333 20120;EQDQ01  00002PRCP99
0124583140999992000032109004+31400+116330FM-12+006899999V0200701N001019999999N0100001N1+01561+00881101611ADDGF108991081001999999071999MD1210031+9999MW1601REMSYN066AAXX  21091 58314 41960 80701 10156 20088 40161 52003 76000 8807/;
0170583140999992000032112004+31400+116330FM-12+006899999V0202901N002019999999N0100001N1+01261+01131101811ADDAA106002091AY161061GF108991081001999999071999MA1999999100931MD1210201+9999MW1601REMSYN078AAXX  21121 58314 11960 82902 10126 20113 30093 40181 52020 60021 76060 8807/;
0132583140999992000032115004+31400+116330FM-12+006899999V0202901N002019999999N0100001N1+01211+01101102081ADDAY161031GF108991081001999999071999MD1210271+9999MW1211REMSYN066AAXX  21151 58314 41960 82902 10121 20110 40208 52027 72160 8807/;
0193583140999992000032118004+31400+116330FM-12+006899999V0202701N001019999999N0120001N1+01151+00911102091ADDAA106001091AY161061GF107991071001999999071999KA1999M+01701MA1999999101211MD1210011+9999MW1001REMSYN088AAXX  21181 58314 11962 72701 10115 20091 30121 40209 52001 60011 70060 8707/ 333 10170;
0133583140999992000032121004+31400+116330FM-12+006899999V0209999C000019999999N0120001N1+01001+00921101981ADDAA124003391GF105991051001999999041001MD1710111+9999REMSYN070AAXX  21211 58314 42962 50000 10100 20092 40198 57011 85040 333 70032;
0190583140999992000032200004+31400+116330FM-12+006899999V0209999C000010006019N0007001N1+00911+00851102161ADDAA124003391AY141061GA1091+999999999GF109991091999999999999999MA1999999101271MD1210171+0501MW1471REMSYN082AAXX  22001 58314 31/07 90000 10091 20085 30127 40216 52017 74740 333 00554 70032;
0132583140999992000032203004+31400+116330FM-12+006899999V0200701N003010120019N0200001N1+01361+00771102121ADDAY141031GF106991061051012501001001MD1710031+9999MW1001REMSYN066AAXX  22031 58314 41670 60703 10136 20077 40212 57003 70040 86500;
0206583140999992000032206004+31400+116330FM-12+006899999V0201101N002019999999N0200001N1+01611+00701101881ADDAA199000091AY141061GF105991031001999999041021KA1999N+00871MA1999999101001MD1710241+9999MW1001REMSYN082AAXX  22061 58314 31970 51102 10161 20070 30100 40188 57024 70040 83042 333 20087;EQDQ01  00002PRCP99
0112583140999992000032209004+31400+116330FM-12+006899999V0201101N002019999999N0200001N1+01531+00771101801ADDGF108991081001999999071999MD1710081+9999REMSYN060AAXX  22091 58314 42970 81102 10153 20077 40180 57008 8807/;
0170583140999992000032212004+31400+116330FM-12+006899999V0202701N003019999999N0120001N1+01301+00991102071ADDAA106000891AY161061GF108991081001999999071999MA1999999101181MD1210261+9999MW1601REMSYN078AAXX  22121 58314 11962 82703 10130 20099 30118 40207 52026 69981 76060 8807/;
0140583140999992000032215004+31400+116330FM-12+006899999V0203201N002019999999N0100001N1+01171+00991102271ADDAY161031AY261031GF108991081001999999071999MD1210211+9999MW1601REMSYN066AAXX  22151 58314 41960 83202 10117 20099 40227 52021 76066 8807/;
0193583140999992000032218004+31400+116330FM-12+006899999V0202701N003019999999N0120001N1+01001+00841102391ADDAA106004191AY161061GF108991081001999999071999KA1999M+01671MA1999999101511MD1210121+9999MW1601REMSYN088AAXX  22181 58314 11962 82703 10100 20084 30151 40239 52012 60041 76060 8807/ 333 10167;
0161583140999992000032221004+31400+116330FM-12+006899999V0202701N002019999999N0120001N1+00981+00791102361ADDAA124004891AY161031AY261031GF108991081001999999071999MD1710041+9999MW1601REMSYN076AAXX  22211 58314 41962 82702 10098 20079 40236 57004 76066 8807/ 333 70049;
0186583140999992000032300004+31400+116330FM-12+006899999V0202701N001019999999N0100001N1+00961+00731102571ADDAA106000191AY161061GF108991081001999999071999MA1999999101681MD1210211+0401MW1601REMSYN094AAXX  23001 58314 11960 82701 10096 20073 30168 40257 52021 69921 76060 8807/ 333 00401 70050;
0132583140999992000032303004+31400+116330FM-12+006899999V0202701N003019999999N0100001N1+01201+00651102671ADDAY161031GF108991081001999999071999MD1210101+9999MW1001REMSYN066AAXX  23031 58314 41960 82703 10120 20065 40267 52010 70060 8807/;
0193583140999992000032306004+31400+116330FM-12+006899999V0202901N003012200019N0100001N1+01521+00361102481ADDAA106000791AY161061GF102991001001999999001021KA1999N+00951MA1999999101591MD1710191+9999MW1001REMSYN088AAXX  23061 58314 11960 22903 10152 20036 30159 40248 57019 69901 70060 80002 333 20095;
0112583140999992000032309004+31400+116330FM-12+006899999V0202901N003019999999N0100001N1+01471+00351102391ADDGF108991081001999999071999MD1710091+9999REMSYN060AAXX  23091 58314 42960 82903 10147 20035 40239 57009 8807/;
0154583140999992000032312004+31400+116330FM-12+006899999V0209999C000012200019N0150001N1+01161+00631102481ADDAA199000021GA1001+999999999GF100991001001999999001001MA1999999101591MD1210091+9999REMSYN060AAXX  23121 58314 32965 00000 10116 20063 30159 40248 52009;
0122583140999992000032315004+31400+116330FM-12+006899999V0202901N002012200019N0200001N1+00791+00571102681ADDGA1001+999999999GF100991001001999999001001MD1210191+9999REMSYN054AAXX  23151 58314 42970 02902 10079 20057 40268 52019;
0196583140999992000032318004+31400+116330FM-12+006899999V0202901N001012200019N0120001N1+00631+00391102561ADDAA199000091GA1001+999999999GF100991001001999999001001KA1999M+01601MA1999999101671MD1710111+9999REMSYN070AAXX  23181 58314 32962 02901 10063 20039 30167 40256 57011 333 10160;EQDQ01  00002PRCP99
0143583140999992000032321004+31400+116330FM-12+006899999V0201101N001012200019N0120001N1+00521+00381102531ADDAA124000191GA1001+999999999GF100991001001999999001001MD1710041+9999REMSYN064AAXX  23211 58314 42962 01101 10052 20038 40253 57004 333 70001;
0188583140999992000032400004+31400+116330FM-12+006899999V0203401N001012200019N0120001N1+00641+00331102601ADDAA124000791GA1001+999999999GF100991001001999999001001IA2999+00109MA1999999101701MD1210071+0001REMSYN082AAXX  24001 58314 32962 03401 10064 20033 30170 40260 52007 333 00053 30010 79999;
0131583140999992000032403004+31400+116330FM-12+006899999V0209999C000019999999N0150001N1+01752-00171102571ADDGF105991051001999999041001MD1710021+9999REMSYN060AAXX  24031 58314 42965 50000 10175 21017 40257 57002 85040;EQDQ01+001753ATOT  
0196583140999992000032406004+31400+116330FM-12+006899999V0200401N002012200019N0200001N1+02041-00181102331ADDAA199000091GA1001+999999999GF100991001001999999001001KA1999N+00451MA1999999101451MD1710231+9999REMSYN070AAXX  24061 58314 32970 00402 10204 21018 30145 40233 57023 333 20045;EQDQ01  00002PRCP99
0112583140999992000032409004+31400+116330FM-12+006899999V0200701N003012200019N0200001N1+01921-00101102181ADDGF103991031001999999041001MD1710161+9999REMSYN060AAXX  24091 58314 42970 30703 10192 21010 40218 57016 83040;
0173583140999992000032412004+31400+116330FM-12+006899999V0201101N001012200019N0200001N1+01411+00431102261ADDAA199000091GA1001+999999999GF100991001001999999001001MA1999999101371MD1210081+9999REMSYN060AAXX  24121 58314 32970 01101 10141 20043 30137 40226 52008;EQDQ01  00002PRCP99
0112583140999992000032415004+31400+116330FM-12+006899999V0209999C000019999999N0200001N1+01141+00531102421ADDGF108991081001999999071999MD1210171+9999REMSYN060AAXX  24151 58314 42970 80000 10114 20053 40242 52017 8807/;
0186583140999992000032418004+31400+116330FM-12+006899999V0202901N001019999999N0150001N1+01051+00671102371ADDAA199000091GF107991071001999999071999KA1999M+02081MA1999999101491MD1710051+9999REMSYN076AAXX  24181 58314 32965 72901 10105 20067 30149 40237 57005 8707/ 333 10208;EQDQ01  00002PRCP99
0112583140999992000032421004+31400+116330FM-12+006899999V0209999C000019999999N0150001N1+00961+00541102311ADDGF107991071001999999071999MD1710061+9999REMSYN060AAXX  24211 58314 42965 70000 10096 20054 40231 57006 8707/;
0173583140999992000032500004+31400+116330FM-12+006899999V0202701N001019999999N0120001N1+01011+00711102511ADDAA199000091GF108991081001999999071999MA1999999101621MD1210191+0011REMSYN076AAXX  25001 58314 32962 82701 10101 20071 30162 40251 52019 8807/ 333 05104;EQDQ01  00002PRCP99
0112583140999992000032503004+31400+116330FM-12+006899999V0209999C000019999999N0150001N1+01581+00711102501ADDGF108991081001999999071999MD1410001+9999REMSYN060AAXX  25031 58314 42965 80000 10158 20071 40250 54000 8807/;
0186583140999992000032506004+31400+116330FM-12+006899999V0202701N001019999999N0150001N1+02101+00031102191ADDAA199000091GF107991071001999999071999KA1999N+00921MA1999999101321MD1710301+9999REMSYN076AAXX  25061 58314 32965 72701 10210 20003 30132 40219 57030 8707/ 333 20092;EQDQ01  00002PRCP99
0112583140999992000032509004+31400+116330FM-12+006899999V0203401N004012200019N0150001N1+02081+00071102101ADDGF102991001001999999001021MD1710101+9999REMSYN060AAXX  25091 58314 42965 23404 10208 20007 40210 57010 80002;
0173583140999992000032512004+31400+116330FM-12+006899999V0202901N001012200019N0200001N1+01461+00751102261ADDAA199000091GA1001+999999999GF100991001001999999001001MA1999999101371MD1210151+9999REMSYN060AAXX  25121 58314 32970 02901 10146 20075 30137 40226 52015;EQDQ01  00002PRCP99
0122583140999992000032515004+31400+116330FM-12+006899999V0209999C000012200019N0200001N1+00961+00641102401ADDGA1001+999999999GF100991001001999999001001MD1210141+9999REMSYN054AAXX  25151 58314 42970 00000 10096 20064 40240 52014;
0196583140999992000032518004+31400+116330FM-12+006899999V0209999C000012200019N0120001N1+00861+00571102381ADDAA199000091GA1001+999999999GF100991001001999999001001KA1999M+02151MA1999999101501MD1710011+9999REMSYN070AAXX  25181 58314 32962 00000 10086 20057 30150 40238 57001 333 10215;EQDQ01  00002PRCP99
0122583140999992000032521004+31400+116330FM-12+006899999V0200901N001012200019N0120001N1+00781+00531102241ADDGA1001+999999999GF100991001001999999001001MD1710141+9999REMSYN054AAXX  25211 58314 42962 00901 10078 20053 40224 57014;
0201583140999992000032600004+31400+116330FM-12+006899999V0200701N001012200019N0150001N1+01011+00621102361ADDAA199000091GA1001+999999999GF100991001001999999001001IA2999+00209MA1999999101471MD1210111-0201REMSYN076AAXX  26001 58314 32965 00701 10101 20062 30147 40236 52011 333 05200 30024;EQDQ01  00002PRCP99
0141583140999992000032603004+31400+116330FM-12+006899999V0202201N003012200019N0200001N1+02122+00211102241ADDGA1001+999999999GF100991001001999999001001MD1710111+9999REMSYN054AAXX  26031 58314 42970 02203 10212 20021 40224 57011;EQDQ01+002123ATOT  
0196583140999992000032606004+31400+116330FM-12+006899999V0202901N005012200019N0200001N1+02441-01332101811ADDAA199000091GA1001+999999999GF100991001001999999001001KA1999N+00741MA1999999100941MD1710421+9999REMSYN070AAXX  26061 58314 32970 02905 10244 21133 30094 40181 57042 333 20074;EQDQ01  00002PRCP99
0122583140999992000032609004+31400+116330FM-12+006899999V0202901N004012200019N0200001N1+02361-00611101591ADDGA1001+999999999GF100991001001999999001001MD1710221+9999REMSYN054AAXX  26091 58314 42970 02904 10236 21061 40159 57022;
0173583140999992000032612004+31400+116330FM-12+006899999V0202501N005012200019N0200001N1+01931+00081101631ADDAA199000091GA1001+999999999GF100991001001999999001001MA1999999100761MD1210041+9999REMSYN060AAXX  26121 58314 32970 02505 10193 20008 30076 40163 52004;EQDQ01  00002PRCP99
0122583140999992000032615004+31400+116330FM-12+006899999V0202501N005012200019N0200001N1+01841-00171101531ADDGA1001+999999999GF100991001001999999001001MD1710091+9999REMSYN054AAXX  26151 58314 42970 02505 10184 21017 40153 57009;
0196583140999992000032618004+31400+116330FM-12+006899999V0202201N006012200019N0200001N1+01791-00231101351ADDAA199000091GA1001+999999999GF100991001001999999001001KA1999M+02441MA1999999100501MD1710171+9999REMSYN070AAXX  26181 58314 32970 02206 10179 21023 30050 40135 57017 333 10244;EQDQ01  00002PRCP99
0122583140999992000032621004+31400+116330FM-12+006899999V0202201N005012200019N0200001N1+01831-00191101141ADDGA1001+999999999GF100991001001999999001001MD1719999+9999REMSYN054AAXX  26211 58314 42970 02205 10183 21019 40114 570/1;
0183583140999992000032700004+31400+116330FM-12+006899999V0202701N005012200019N0200001N1+01971-00061101111ADDAA199000091GA1001+999999999GF100991001001999999001001MA1999999100261MD1710031+0121REMSYN070AAXX  27001 58314 32970 02705 10197 21006 30026 40111 57003 333 06210;EQDQ01  00002PRCP99
0112583140999992000032703004+31400+116330FM-12+006899999V0202201N009012200019N0200001N1+02341+00011101021ADDGF102991001001999999001021MD1710091+9999REMSYN060AAXX  27031 58314 42970 22209 10234 20001 40102 57009 80002;
0182583140999992000032706004+31400+116330FM-12+006899999V0202201N009012200019N0200001N1+02661-00031100591ADDAA199000091GA1001+999999999GF100991001001999999001001KA1999N+01751MA1999999099711REMSYN070AAXX  27061 58314 32970 02209 10266 21003 39971 40059 5/04/ 333 20175;EQDQ01  00002PRCP99
0122583140999992000032709004+31400+116330FM-12+006899999V0202501N005012200019N0200001N1+02531+00431100501ADDGA1001+999999999GF100991001001999999001001MD1710051+9999REMSYN054AAXX  27091 58314 42970 02505 10253 20043 40050 57005;
0173583140999992000032712004+31400+116330FM-12+006899999V0202901N003012200019N0200001N1+02111+00771100771ADDAA199000091GA1001+999999999GF100991001001999999001001MA1999999099921MD1210261+9999REMSYN060AAXX  27121 58314 32970 02903 10211 20077 39992 40077 52026;EQDQ01  00002PRCP99
0112583140999992000032715004+31400+116330FM-12+006899999V0203401N004019999999N0150001N1+01981+00581101171ADDGF107991071001999999071999MD1210401+9999REMSYN060AAXX  27151 58314 42965 73404 10198 20058 40117 52040 8707/;
0196583140999992000032718004+31400+116330FM-12+006899999V0203201N004012200019N0200001N1+01741-00131101491ADDAA199000091GA1001+999999999GF100991001001999999001001KA1999M+02671MA1999999100641MD1210321+9999REMSYN070AAXX  27181 58314 32970 03204 10174 21013 30064 40149 52032 333 10267;EQDQ01  00002PRCP99
0080583140999992000032721004+31400+116330FM-12+006899999V0203201N004019999999N0200001N1+01561+00181101721ADDMD1210221+9999REMSYN054AAXX  27211 58314 42970 /3204 10156 20018 40172 52022;
0183583140999992000032800004+31400+116330FM-12+006899999V0203401N005012200019N0200001N1+01501-00771102041ADDAA199000091GA1001+999999999GF100991001001999999001001MA1999999101171MD1210311+0091REMSYN070AAXX  28001 58314 32970 03405 10150 21077 30117 40204 52031 333 00955;EQDQ01  00002PRCP99
0122583140999992000032803004+31400+116330FM-12+006899999V0200201N002012200019N0200001N1+01661-00691102191ADDGA1001+999999999GF100991001001999999001001MD1210151+9999REMSYN054AAXX  28031 58314 42970 00202 10166 21069 40219 52015;
0196583140999992000032806004+31400+116330FM-12+006899999V0203401N006012200019N0200001N1+01841-01021101951ADDAA199000091GA1001+999999999GF100991001001999999001001KA1999N+01451MA1999999101081MD1710241+9999REMSYN070AAXX  28061 58314 32970 03406 10184 21102 30108 40195 57024 333 20145;EQDQ01  00002PRCP99
0122583140999992000032809004+31400+116330FM-12+006899999V0203401N003012200019N0200001N1+01821-00821101921ADDGA1001+999999999GF100991001001999999001001MD1710031+9999REMSYN054AAXX  28091 58314 42970 03403 10182 21082 40192 57003;
0158583140999992000032812004+31400+116330FM-12+006899999V0209999C000012200019N0150001N1+01441-00091102191ADDAA199000091GA1001+999999999GF100991001001999999001001MA1999999101311REMSYN059AAXX  28121 58314 32965 00000 10144 21009 30131 40219 5226;EQDQ01  00002PRCP99
0122583140999992000032815004+31400+116330FM-12+006899999V0203401N001012200019N0150001N1+00921+00341102271ADDGA1001+999999999GF100991001001999999001001MD1210081+9999REMSYN054AAXX  28151 58314 42965 03401 10092 20034 40227 52008;
0196583140999992000032818004+31400+116330FM-12+006899999V0202201N001012200019N0200001N1+00631+00011102271ADDAA199000091GA1001+999999999GF100991001001999999001001KA1999M+01951MA1999999101381MD1710011+9999REMSYN070AAXX  28181 58314 32970 02201 10063 20001 30138 40227 57001 333 10195;EQDQ01  00002PRCP99
0122583140999992000032821004+31400+116330FM-12+006899999V02099999999992200019N0200001N1+00471+00221102291ADDGA1001+999999999GF100991001001999999001001MD1210021+9999REMSYN054AAXX  28211 58314 42970 02/02 10047 20022 40229 52002;
0201583140999992000032900004+31400+116330FM-12+006899999V0202901N002012200019N0200001N1+00601+00171102561ADDAA199000091GA1001+999999999GF100991001001999999001001IA2999+00009MA1999999101671MD1210271+0501REMSYN076AAXX  29001 58314 32970 02902 10060 20017 30167 40256 52027 333 00559 30003;EQDQ01  00002PRCP99
0141583140999992000032903004+31400+116330FM-12+006899999V0200901N001012200019N0200001N1+01732-00131102391ADDGA1001+999999999GF100991001001999999001001MD1710161+9999REMSYN054AAXX  29031 58314 42970 00901 10173 21013 40239 57016;EQDQ01+001733ATOT  
0196583140999992000032906004+31400+116330FM-12+006899999V0200901N003012200019N0200001N1+02181-00201101991ADDAA199000091GA1001+999999999GF100991001001999999001001KA1999N+00371MA1999999101111MD1710401+9999REMSYN070AAXX  29061 58314 32970 00903 10218 21020 30111 40199 57040 333 20037;EQDQ01  00002PRCP99
0122583140999992000032909004+31400+116330FM-12+006899999V0201101N004012200019N0200001N1+02201-00151101661ADDGA1001+999999999GF100991001001999999001001MD1710331+9999REMSYN054AAXX  29091 58314 42970 01104 10220 21015 40166 57033;
0173583140999992000032912004+31400+116330FM-12+006899999V0201401N002012200019N0200001N1+01601+00481101601ADDAA199000091GA1001+999999999GF100991001001999999001001MA1999999100721MD1710061+9999REMSYN060AAXX  29121 58314 32970 01402 10160 20048 30072 40160 57006;EQDQ01  00002PRCP99
0122583140999992000032915004+31400+116330FM-12+006899999V0209999C000012200019N0200001N1+01181+00511101541ADDGA1001+999999999GF100991001001999999001001MD1710051+9999REMSYN054AAXX  29151 58314 42970 00000 10118 20051 40154 57005;
0196583140999992000032918004+31400+116330FM-12+006899999V0202701N001012200019N0200001N1+00961+00591101321ADDAA199000091GA1001+999999999GF100991001001999999001001KA1999M+02281MA1999999100451MD1710221+9999REMSYN070AAXX  29181 58314 32970 02701 10096 20059 30045 40132 57022 333 10228;EQDQ01  00002PRCP99
0122583140999992000032921004+31400+116330FM-12+006899999V0209999C000012200019N0150001N1+00941+00571101121ADDGA1001+999999999GF100991001001999999001001MD1710201+9999REMSYN054AAXX  29211 58314 42965 00000 10094 20057 40112 57020;
0173583140999992000033000004+31400+116330FM-12+006899999V0202701N001019999999N0180001N1+01081+00591101161ADDAA199000091GF108991081001999999071999MA1999999100291MD1210041+0141REMSYN076AAXX  30001 58314 32968 82701 10108 20059 30029 40116 52004 8807/ 333 06405;EQDQ01  00002PRCP99
0112583140999992000033003004+31400+116330FM-12+006899999V0209999C000019999999N0200001N1+01781+00581101021ADDGF108991081001999999071999MD1710141+9999REMSYN060AAXX  30031 58314 42970 80000 10178 20058 40102 57014 8807/;
0186583140999992000033006004+31400+116330FM-12+006899999V02099999999999999999N0200001N1+02731+00921100651ADDAA199000091GF108991081001999999071999KA1999N+00901MA1999999099801MD1710351+9999REMSYN076AAXX  30061 58314 32970 8/703 10273 20092 39980 40065 57035 8807/ 333 20090;EQDQ01  00002PRCP99
0112583140999992000033009004+31400+116330FM-12+006899999V0202201N006019999999N0200001N1+02671+00741100501ADDGF107991071001999999071999MD1710151+9999REMSYN060AAXX  30091 58314 42970 72206 10267 20074 40050 57015 8707/;
0173583140999992000033012004+31400+116330FM-12+006899999V0202201N005012200019N0200001N1+02501+00741100501ADDAA199000091GA1001+999999999GF100991001001999999001001MA1999999099661MD1210011+9999REMSYN060AAXX  30121 58314 32970 02205 10250 20074 39966 4005/ 52001;EQDQ01  00002PRCP99
0122583140999992000033015004+31400+116330FM-12+006899999V0202201N007012200019N0200001N1+02481+00701100551ADDGA1001+999999999GF100991001001999999001001MD1210051+9999REMSYN054AAXX  30151 58314 42970 02207 10248 20070 40055 52005;
0148583140999992000033018004+31400+116330FM-12+006899999V02099999999999999999N0270001N1+99999+99999100521ADDAA199000091KA1999M+02751MA1999999099691MD1710021+9999REMSYN064AAXX  30181 58314 32977 /8/10 20143 39969 40052 57002 333 10275;EQDQ01  00002PRCP99
0122583140999992000033021004+31400+116330FM-12+006899999V0202201N001012200019N0200001N1+02081+00931100541ADDGA1001+999999999GF100991001001999999001001MD1210011+9999REMSYN054AAXX  30211 58314 42970 02201 10208 20093 40054 52001;
0173583140999992000033100004+31400+116330FM-12+006899999V0203401N002019999999N0200001N1+02101+01001100871ADDAA199000091GF106991001001999999001021MA1999999100031MD1210331+0031REMSYN076AAXX  31001 58314 32970 63402 10210 20100 30003 40087 52033 80002 333 05310;EQDQ01  00002PRCP99
0112583140999992000033103004+31400+116330FM-12+006899999V0200401N003019999999N0200001N1+02441+01051100941ADDGF107991001001999999001021MD1210071+9999REMSYN060AAXX  31031 58314 42970 70403 10244 20105 40094 52007 80002;
0186583140999992000033106004+31400+116330FM-12+006899999V0201401N002019999999N0200001N1+02601+01181100821ADDAA199000091GF105991001001999999001021KA1999N+01881MA1999999099981MD1710121+9999REMSYN076AAXX  31061 58314 32970 51402 10260 20118 39998 40082 57012 80002 333 20188;EQDQ01  00002PRCP99
0112583140999992000033109004+31400+116330FM-12+006899999V0201101N005019999999N0200001N1+02541+01141100821ADDGF107991001001999999001021MD1410001+9999REMSYN060AAXX  31091 58314 42970 71105 10254 20114 40082 54000 80002;
0163583140999992000033112004+31400+116330FM-12+006899999V0200701N001019999999N0200001N1+02151+01281101041ADDAA199000091GF108991081001999999071999MA1999999100191MD1210211+9999REMSYN066AAXX  31121 58314 32970 80701 10215 20128 30019 40104 52021 8807/;EQDQ01  00002PRCP99
0122583140999992000033115004+31400+116330FM-12+006899999V0200901N003012200019N0200001N1+01801+01151101291ADDGA1001+999999999GF100991001001999999001001MD1210251+9999REMSYN054AAXX  31151 58314 42970 00903 10180 20115 40129 52025;
0186583140999992000033118004+31400+116330FM-12+006899999V0200901N003019999999N0150001N1+01621+01081101261ADDAA199000091GF108991081001999999071999KA1999M+02631MA1999999100411MD1710031+9999REMSYN076AAXX  31181 58314 32965 80903 10162 20108 30041 40126 57003 8807/ 333 10263;EQDQ01  00002PRCP99
0112583140999992000033121004+31400+116330FM-12+006899999V0200701N003019999999N0150001N1+01541+00761101351ADDGF108991081001999999071999MD1210091+9999REMSYN060AAXX  31211 58314 /2965 80703 10154 20076 40135 52009 8807/;
0157583140999992000040100004+31400+116330FM-12+006899999V0201401N004019999999N0200001N1+01541+00811101461ADDAA199000091GF108991999999999999999999MA1999999100601MD1210101+9999REMSYN060AAXX  01001 58314 32970 81404 10154 20081 30060 40146 52010;EQDQ01  00002PRCP99
0112583140999992000040103004+31400+116330FM-12+006899999V0200901N004019999999N0250001N1+01641+00671101431ADDGF108991081001999999071999MD1710031+9999REMSYN060AAXX  01031 58314 42975 80904 10164 20067 40143 57003 8807/;
0196583140999992000040106004+31400+116330FM-12+006899999V0200901N004012200019N0250001N1+02041+00871100991ADDAA199000091GA1001+999999999GF100991001001999999001001KA1999N+01451MA1999999100131MD1710441+9999REMSYN070AAXX  01061 58314 32975 00904 10204 20087 30013 40099 57044 333 20145;EQDQ01  00002PRCP99
0112583140999992000040109004+31400+116330FM-12+006899999V0200901N006019999999N0250001N1+01881+00771100991ADDGF107991071001999999071999MD1410001+9999REMSYN060AAXX  01091 58314 42975 70906 10188 20077 40099 54000 8707/;
0163583140999992000040112004+31400+116330FM-12+006899999V0200701N002019999999N0200001N1+01661+00801101171ADDAA199000091GF108991081001004501071999MA1999999100301MD1210171+9999REMSYN066AAXX  01121 58314 32470 80702 10166 20080 30030 40117 52017 8807/;EQDQ01  00002PRCP99
0112583140999992000040115004+31400+116330FM-12+006899999V0202701N002019999999N0150001N1+01531+00931101351ADDGF108991081001999999071999MD1210181+9999REMSYN060AAXX  01151 58314 42965 82702 10153 20093 40135 52018 8807/;
0186583140999992000040118004+31400+116330FM-12+006899999V0202701N003019999999N0150001N1+01371+00961101431ADDAA199000091GF108991081001999999071999KA1999M+02101MA1999999100571MD1210091+9999REMSYN076AAXX  01181 58314 32965 82703 10137 20096 30057 40143 52009 8807/ 333 10210;EQDQ01  00002PRCP99
0112583140999992000040121004+31400+116330FM-12+006899999V0203201N002019999999N0120001N1+01371+00941101481ADDGF108991081001999999071999MD1210041+9999REMSYN060AAXX  01211 58314 42962 83202 10137 20094 40148 52004 8807/;
0173583140999992000040200004+31400+116330FM-12+006899999V0203401N002019999999N0200001N1+01301+00561101691ADDAA199000091GF108991081001999999071999MA1999999100821MD1210211+0021REMSYN076AAXX  02001 58314 32970 83402 10130 20056 30082 40169 52021 8807/ 333 00252;EQDQ01  00002PRCP99
0112583140999992000040203004+31400+116330FM-12+006899999V0200401N002019999999N0200001N1+01561+00311101811ADDGF108991081001999999071999MD1210121+9999REMSYN060AAXX  02031 58314 42970 80402 10156 20031 40181 52012 8807/;
0186583140999992000040206004+31400+116330FM-12+006899999V0200201N002019999999N0200001N1+01701+00431101701ADDAA199000091GF107991071001999999071999KA1999N+01201MA1999999100831MD1710111+9999REMSYN076AAXX  02061 58314 32970 70202 10170 20043 30083 40170 57011 8707/ 333 20120;EQDQ01  00002PRCP99
0112583140999992000040209004+31400+116330FM-12+006899999V0200201N004019999999N0200001N1+01561+00421101751ADDGF108991081001999999071999MD1210051+9999REMSYN060AAXX  02091 58314 42970 80204 10156 20042 40175 52005 8807/;
0163583140999992000040212004+31400+116330FM-12+006899999V0202701N001019999999N0200001N1+01361+00751101821ADDAA199000091GF107991071001999999071999MA1999999100941MD1210061+9999REMSYN066AAXX  02121 58314 32970 72701 10136 20075 30094 40182 52006 8707/;EQDQ01  00002PRCP99
0112583140999992000040215004+31400+116330FM-12+006899999V0200401N002019999999N0200001N1+01261+00921102041ADDGF108991081001999999071999MD1210221+9999REMSYN060AAXX  02151 58314 42970 80402 10126 20092 40204 52022 8807/;
0186583140999992000040218004+31400+116330FM-12+006899999V0200401N001019999999N0200001N1+01211+00951101861ADDAA199000091GF108991081001999999071999KA1999M+01741MA1999999100981MD1710181+9999REMSYN076AAXX  02181 58314 32970 80401 10121 20095 30098 40186 57018 8807/ 333 10174;EQDQ01  00002PRCP99
0188583140999992000040221004+31400+116330FM-12+006899999V0200201N002019999999N0200001N1+01151+00971101821ADDAA124000791AY161031GF108991081001999999071999MD1710041+9999MW1601REMSYN076AAXX  02211 58314 41970 80202 10115 20097 40182 5700/ 76060 8807/ 333 79999;EQDQ01+000072APCTENQ02+000002APC3  
0186583140999992000040300004+31400+116330FM-12+006899999V0203401N002019999999N0080001N1+01091+00931101981ADDAA106000791AY161061GF108991081001999999071999MA1999999101101MD1210161+0301MW1101REMSYN094AAXX  03001 58314 11958 83402 10109 20093 30110 40198 52016 69901 71060 8807/ 333 00352 79999;
0186583140999992000040303004+31400+116330FM-12+006899999V0203401N002019999999N0080001N1+01091+00931101981ADDAA106000791AY161031GF108991081001999999071999MA1999999101101MD1210161+0301MW1101REMSYN094AAXX  03031 58314 11958 83402 10109 20093 30110 40198 52016 69901 71060 8807/ 333 00352 79999;
0167583140999992000040306004+31400+116330FM-12+006899999V0200901N002010360019N0120001N1+01421+01021101721ADDAA199000021GF108991031051012501071999KA1999N+01051MA1999999100841MD1710231+9999REMSYN076AAXX  03061 58314 32662 80902 10142 20102 30084 40172 57023 8357/ 333 20105;
0112583140999992000040309004+31400+116330FM-12+006899999V0209999C000019999999N0120001N1+01411+01091101531ADDGF108991081001999999071999MD1710191+9999REMSYN060AAXX  03091 58314 42962 80000 10141 20109 40153 57019 8807/;
0150583140999992000040312004+31400+116330FM-12+006899999V0209999C000019999999N0090001N1+01301+01211101591ADDAA106001091GF108991081001999999071999MA1999999100711MD1210061+9999REMSYN072AAXX  03121 58314 11959 80000 1013/ 20121 30071 40159 52006 60011 8807/;
0140583140999992000040315004+31400+116330FM-12+006899999V0202901N001019999999N0070001N1+01281+01191101591ADDAY161031AY261031GF108991081001999999071999MD1410001+9999MW1601REMSYN066AAXX  03151 58314 41957 82901 10128 20119 40159 54000 76066 8807/;
0201583140999992000040318004+31400+116330FM-12+006899999V0209999C000019999999N0080001N1+01271+01201101501ADDAA106005191AY161061AY261061GF108991081001999999071999KA1999M+01471MA1999999100621MD1710091+9999MW1601REMSYN088AAXX  03181 58314 11958 80000 10127 20120 30062 40150 57009 60051 76066 8807/ 333 10147;
0161583140999992000040321004+31400+116330FM-12+006899999V0202701N002010075019N0060001N1+01261+01201101361ADDAA124008191AY161031AY261031GF108991081051008001999999MD1710131+9999MW1601REMSYN076AAXX  03211 58314 41556 82702 10126 20120 40136 57013 76066 885// 333 70081;
0194583140999992000040400004+31400+116330FM-12+006899999V0202201N003019999999N0080001N1+01261+01191101521ADDAA106004191AY161061AY261061GF108991081001999999071999MA1999999100641MD1210151-0501MW1601REMSYN094AAXX  04001 58314 11958 82203 10126 20119 30064 40152 52015 60041 76066 8807/ 333 05502 70100;
0132583140999992000040403004+31400+116330FM-12+006899999V0203401N002012200019N0150001N1+01771+01371101511ADDAY161031GF102991021001999999041001MD1410001+9999MW1001REMSYN066AAXX  04031 58314 41965 23402 10177 20137 40151 54000 70060 82040;
0193583140999992000040406004+31400+116330FM-12+006899999V0201801N002012200019N0300001N1+02041+01211101331ADDAA106000791AY161061GF104991041001999999041001KA1999N+01231MA1999999100471MD1710171+9999MW1001REMSYN088AAXX  04061 58314 11980 41802 10204 20121 30047 40133 57017 69901 70060 84040 333 20123;
0112583140999992000040409004+31400+116330FM-12+006899999V0201101N002012200019N0300001N1+02111+01171101291ADDGF102991021001999999041001MD1710041+9999REMSYN060AAXX  04091 58314 42980 21102 10211 20117 40129 57004 82040;
0144583140999992000040412004+31400+116330FM-12+006899999V0201401N003019999999N0200001N1+01751+01231101441ADDAA199000021GF105991051001999999041001MA1999999100571MD1210141+9999REMSYN066AAXX  04121 58314 32970 51403 10175 20123 30057 40144 52014 85040;
0112583140999992000040415004+31400+116330FM-12+006899999V0209999C000012200019N0200001N1+01481+01281101631ADDGF102991021001999999041001MD1210191+9999REMSYN060AAXX  04151 58314 42970 20000 10148 20128 40163 52019 82040;
0196583140999992000040418004+31400+116330FM-12+006899999V0209999C000012200019N0200001N1+01271+01181101681ADDAA199000091GA1001+999999999GF100991001001999999001001KA1999M+02161MA1999999100811MD1210051+9999REMSYN070AAXX  04181 58314 32970 00000 10127 20118 30081 40168 52005 333 10216;EQDQ01  00002PRCP99
0133583140999992000040421004+31400+116330FM-12+006899999V0202901N003019999999N0200001N1+01271+01211101841ADDAA124001891GF108991081001999999071999MD1210161+9999REMSYN070AAXX  04211 58314 42970 82903 10127 20121 40184 52016 8807/ 333 70019;
0186583140999992000040500004+31400+116330FM-12+006899999V0203601N004010042019N0080001N1+01301+01131102231ADDAA106005191AY161061GF108991061071004501021999MA1999999101351MD1210381+0701MW1601REMSYN094AAXX  05001 58314 11458 83604 10130 20113 30135 40223 52038 60051 76060 8672/ 333 00700 70047;
0132583140999992000040503004+31400+116330FM-12+006899999V0202201N002019999999N0150001N1+01171+00661102481ADDAY161031GF108991081001999999071999MD1210251+9999MW1211REMSYN066AAXX  05031 58314 41965 82202 10117 20066 40248 52025 72160 8807/;
0193583140999992000040506004+31400+116330FM-12+006899999V0200701N002012200019N0150001N1+01541+00501102231ADDAA106000191AY161061GF103991031001999999041001KA1999N+01051MA1999999101351MD1710251+9999MW1001REMSYN088AAXX  05061 58314 11965 30702 10154 20050 30135 40223 57025 69911 70060 83040 333 20105;
0112583140999992000040509004+31400+116330FM-12+006899999V0200701N004012200019N0200001N1+01621+00281102081ADDGF102991001001999999001021MD1710151+9999REMSYN060AAXX  05091 58314 42970 20704 10162 20028 40208 57015 80002;
0154583140999992000040512004+31400+116330FM-12+006899999V0201101N002012200019N0200001N1+01221+00551102121ADDAA199000021GA1001+999999999GF100991001001999999001001MA1999999101241MD1210041+9999REMSYN060AAXX  05121 58314 32970 01102 10122 20055 30124 40212 52004;
0122583140999992000040515004+31400+116330FM-12+006899999V0202901N001012200019N0150001N1+00841+00621102241ADDGA1001+999999999GF100991001001999999001001MD1210111+9999REMSYN054AAXX  05151 58314 42965 02901 10084 20062 40224 52011;
0196583140999992000040518004+31400+116330FM-12+006899999V0202701N001012200019N0150001N1+00661+00521102101ADDAA199000091GA1001+999999999GF100991001001999999001001KA1999M+01731MA1999999101211MD1710141+9999REMSYN070AAXX  05181 58314 32965 02701 10066 20052 30121 40210 57014 333 10173;EQDQ01  00002PRCP99
0143583140999992000040521004+31400+116330FM-12+006899999V0209999C000012200019N0150001N1+00581+00461102041ADDAA124004891GA1001+999999999GF100991001001999999001001MD1710061+9999REMSYN064AAXX  05211 58314 42965 00000 10058 20046 40204 57006 333 70048;
0188583140999992000040600004+31400+116330FM-12+006899999V0209999C000012200019N0200001N1+00781+00561102101ADDAA124000191GA1001+999999999GF100991001001999999001001IA2999+00209MA1999999101211MD1210061-0101REMSYN082AAXX  06001 58314 32970 00000 10078 20056 30121 40210 52006 333 05155 30020 70001;
0122583140999992000040603004+31400+116330FM-12+006899999V0200701N003012200019N0200001N1+01721+00621101941ADDGA1001+999999999GF100991001001999999001001MD1710151+9999REMSYN054AAXX  06031 58314 42970 00703 10172 20062 40194 57015;
0186583140999992000040606004+31400+116330FM-12+006899999V0200701N002019999999N0200001N1+02181+00301101591ADDAA199000091GF108991081001999999071999KA1999N+00491MA1999999100721MD1710341+9999REMSYN076AAXX  06061 58314 32970 80702 10218 20030 30072 40159 57034 8807/ 333 20049;EQDQ01  00002PRCP99
0112583140999992000040609004+31400+116330FM-12+006899999V0200901N003019999999N0200001N1+02001+00741101541ADDGF108991081001999999071999MD1710061+9999REMSYN060AAXX  06091 58314 42970 80903 10200 20074 40154 57006 8807/;
0163583140999992000040612004+31400+116330FM-12+006899999V0202001N002019999999N0150001N1+01711+01141101651ADDAA199000091GF108991081001999999071999MA1999999100771MD1210111+9999REMSYN066AAXX  06121 58314 32965 82002 10171 20114 30077 40165 52011 8807/;EQDQ01  00002PRCP99
0112583140999992000040615004+31400+116330FM-12+006899999V0202201N001019999999N0150001N1+01441+01001101701ADDGF108991081001999999071999MD1210061+9999REMSYN060AAXX  06151 58314 42965 82201 10144 20100 40170 52006 8807/;
0186583140999992000040618004+31400+116330FM-12+006899999V0202701N002019999999N0150001N1+01201+01011101731ADDAA199000091GF106991061001999999041001KA1999M+02231MA1999999100861MD1210031+9999REMSYN076AAXX  06181 58314 32965 62702 10120 20101 30086 40173 52003 86040 333 10223;EQDQ01  00002PRCP99
0112583140999992000040621004+31400+116330FM-12+006899999V0202901N001012200019N0150001N1+01121+00881101711ADDGF104991041001999999041001MD1710021+9999REMSYN060AAXX  06211 58314 42965 42901 10112 20088 40171 57002 84040;
0183583140999992000040700004+31400+116330FM-12+006899999V0200701N001012200019N0100001N1+01301+00971101911ADDAA199000091GA1001+999999999GF100991001001999999001001MA1999999101041MD1210201+0021REMSYN070AAXX  07001 58314 32960 00701 10130 20097 30104 40191 52020 333 05205;EQDQ01  00002PRCP99
0112583140999992000040703004+31400+116330FM-12+006899999V0200901N002012200019N0200001N1+02321+00821101951ADDGF104991001001999999001021MD1210051+9999REMSYN060AAXX  07031 58314 42970 40902 10232 20082 40195 52005 80002;
0186583140999992000040706004+31400+116330FM-12+006899999V0200701N002019999999N0200001N1+02461+00821101691ADDAA199000091GF106991001001999999001021KA1999N+01051MA1999999100831MD1710261+9999REMSYN076AAXX  07061 58314 32970 60702 10246 20082 30083 40169 57026 80002 333 20105;EQDQ01  00002PRCP99
0112583140999992000040709004+31400+116330FM-12+006899999V0200901N003019999999N0200001N1+02421+00941101591ADDGF107991001001999999001021MD1710101+9999REMSYN060AAXX  07091 58314 42970 70903 10242 20094 40159 57010 80002;
0173583140999992000040712004+31400+116330FM-12+006899999V0202901N001012200019N0200001N1+02011+01251101721ADDAA199000091GA1001+999999999GF100991001001999999001001MA1999999100851MD1210121+9999REMSYN060AAXX  07121 58314 32970 02901 10201 20125 30085 40172 52012;EQDQ01  00002PRCP99
0122583140999992000040715004+31400+116330FM-12+006899999V0202701N001012200019N0200001N1+01671+01351101901ADDGA1001+999999999GF100991001001999999001001MD1210191+9999REMSYN054AAXX  07151 58314 42970 02701 10167 20135 40190 52019;
0186583140999992000040718004+31400+116330FM-12+006899999V0209999C000019999999N0150001N1+01541+01341101851ADDAA199000091GF108991081001999999071999KA1999M+02531MA1999999100991MD1710051+9999REMSYN076AAXX  07181 58314 32965 80000 10154 20134 30099 40185 57005 8807/ 333 10253;EQDQ01  00002PRCP99
0112583140999992000040721004+31400+116330FM-12+006899999V0202701N002019999999N0120001N1+01381+01291101821ADDGF108991081001999999071999MD1710031+9999REMSYN060AAXX  07211 58314 42962 82702 10138 20129 40182 57003 8807/;
0183583140999992000040800004+31400+116330FM-12+006899999V0202501N001012200019N0120001N1+01411+01261101901ADDAA199000091GA1001+999999999GF100991001001999999001001MA1999999101031MD1210071+0001REMSYN070AAXX  08001 58314 32962 02501 10141 20126 30103 40190 52007 333 00001;EQDQ01  00002PRCP99
0112583140999992000040803004+31400+116330FM-12+006899999V0200901N002012200019N0150001N1+02241+01471101741ADDGF101991001001999999001021MD1710151+9999REMSYN060AAXX  08031 58314 42965 10902 10224 20147 40174 57015 80002;
0186583140999992000040806004+31400+116330FM-12+006899999V0200901N006012200019N0200001N1+02561+01261101371ADDAA199000091GF102991021011017501001001KA1999N+01281MA1999999100521MD1710361+9999REMSYN076AAXX  08061 58314 32770 20906 10256 20126 30052 40137 57036 82100 333 20128;EQDQ01  00002PRCP99
0112583140999992000040809004+31400+116330FM-12+006899999V0200901N005019999999N0200001N1+02481+00811101081ADDGF107991071001999999071999MD1710291+9999REMSYN060AAXX  08091 58314 42970 70905 10248 20081 40108 57029 8707/;
0163583140999992000040812004+31400+116330FM-12+006899999V0201401N002019999999N0200001N1+02241+01141101211ADDAA199000091GF108991081001999999071999MA1999999100351MD1210121+9999REMSYN066AAXX  08121 58314 32970 81402 10224 20114 30035 40121 52012 8807/;EQDQ01  00002PRCP99
0112583140999992000040815004+31400+116330FM-12+006899999V0200901N002019999999N0200001N1+01961+01291101241ADDGF108991081001999999071999MD1210041+9999REMSYN060AAXX  08151 58314 42970 80902 10196 20129 40124 52004 8807/;
0186583140999992000040818004+31400+116330FM-12+006899999V0200201N002019999999N0120001N1+02021+01241101171ADDAA199000091GF108991081001999999071999KA1999M+02561MA1999999100321MD1710071+9999REMSYN076AAXX  08181 58314 32962 80202 10202 20124 30032 40117 57007 8807/ 333 10256;EQDQ01  00002PRCP99
0112583140999992000040821004+31400+116330FM-12+006899999V0203401N001019999999N0120001N1+01831+01361101161ADDGF108991081001999999071999MD1710011+9999REMSYN060AAXX  08211 58314 42962 83401 10183 20136 40116 57001 8807/;
0173583140999992000040900004+31400+116330FM-12+006899999V0203201N002019999999N0150001N1+01861+01431101221ADDAA199000091GF107991001001999999001021MA1999999100371MD1210061+0071REMSYN076AAXX  09001 58314 32965 73202 10186 20143 30037 40122 52006 80002 333 05705;EQDQ01  00002PRCP99
0112583140999992000040903004+31400+116330FM-12+006899999V0202701N004019999999N0150001N1+02421+01181101191ADDGF107991071001999999071999MD1710031+9999REMSYN060AAXX  09031 58314 42965 72704 10242 20118 40119 57003 8707/;
0186583140999992000040906004+31400+116330FM-12+006899999V0200201N003019999999N0200001N1+02641+01191101071ADDAA199000091GF107991071001999999071999KA1999N+01641MA1999999100231MD1710111+9999REMSYN076AAXX  09061 58314 32970 70203 10264 20119 30023 40107 57011 8707/ 333 20164;EQDQ01  00002PRCP99
0112583140999992000040909004+31400+116330FM-12+006899999V0203401N002019999999N0200001N1+02601+01131101151ADDGF106991061001999999041001MD1210071+9999REMSYN060AAXX  09091 58314 42970 63402 10260 20113 40115 52007 86040;
0173583140999992000040912004+31400+116330FM-12+006899999V0202701N002012200019N0200001N1+02161+01231101451ADDAA199000091GA1001+999999999GF100991001001999999001001MA1999999100591MD1210291+9999REMSYN060AAXX  09121 58314 32970 02702 10216 20123 30059 40145 52029;EQDQ01  00002PRCP99
0121583140999992000040915004+31400+116330FM-12+006899999V0203401N001012200019N0200001N1+01831+01301101781ADDGA1001+999999999GF100991001001999999001001MD1210341+9999REMSYN053AAXX  09151 5831442970 03401 10183 20130 40178 52034;
0196583140999992000040918004+31400+116330FM-12+006899999V0203401N005012200019N0120001N1+01411-00192102531ADDAA199000091GA1001+999999999GF100991001001999999001001KA1999M+02681MA1999999101671MD1210741+9999REMSYN070AAXX  09181 58314 32962 03405 10141 21019 30167 40253 52074 333 10268;EQDQ01  00002PRCP99
0122583140999992000040921004+31400+116330FM-12+006899999V0203401N003012200019N0120001N1+01111-00181102631ADDGA1001+999999999GF100991001001999999001001MD1210091+9999REMSYN054AAXX  09211 58314 42962 03403 10111 21018 40263 52009;
0183583140999992000041000004+31400+116330FM-12+006899999V0200201N003012200019N0100001N1+01061-00381102871ADDAA199000091GA1001+999999999GF100991001001999999001001MA1999999101991MD1210231+0161REMSYN070AAXX  10001 58314 32960 00203 10106 21038 30199 40287 52023 333 01658;EQDQ01  00002PRCP99
0122583140999992000041003004+31400+116330FM-12+006899999V0200701N004012200019N0150001N1+01361-00501102881ADDGA1001+999999999GF100991001001999999001001MD1210011+9999REMSYN054AAXX  10031 58314 42965 00704 10136 21050 40288 52001;
0196583140999992000041006004+31400+116330FM-12+006899999V0200701N004012200019N0200001N1+01561-00681102531ADDAA199000091GA1001+999999999GF100991001001999999001001KA1999N+01021MA1999999101651MD1710351+9999REMSYN070AAXX  10061 58314 32970 00704 10156 21068 30165 40253 57035 333 20102;EQDQ01  00002PRCP99
0112583140999992000041009004+31400+116330FM-12+006899999V0201101N003019999999N0200001N1+01601-00531102321ADDGF105991001001999999001021MD1710211+9999REMSYN060AAXX  10091 58314 42970 51103 10160 21053 40232 57021 80002;
0163583140999992000041012004+31400+116330FM-12+006899999V0201401N002019999999N0150001N1+01281+00031102271ADDAA199000091GF107991071001999999071999MA1999999101381MD1710061+9999REMSYN066AAXX  10121 58314 32965 71402 10128 20003 30138 40227 57006 8707/;EQDQ01  00002PRCP99
0112583140999992000041015004+31400+116330FM-12+006899999V0202701N002012200019N0150001N1+00981+00361102331ADDGF102991021001999999041001MD1210061+9999REMSYN060AAXX  10151 58314 42965 22702 10098 20036 40233 52006 82040;
0196583140999992000041018004+31400+116330FM-12+006899999V0202901N001012200019N0200001N1+00741+00441102191ADDAA199000091GA1001+999999999GF100991001001999999001001KA1999M+01701MA1999999101301MD1710141+9999REMSYN070AAXX  10181 58314 32970 02901 10074 20044 30130 40219 57014 333 10170;EQDQ01  00002PRCP99
0112583140999992000041021004+31400+116330FM-12+006899999V0200701N001019999999N0200001N1+00751+00481102091ADDGF107991071001999999071999MD1710101+9999REMSYN060AAXX  10211 58314 42970 70701 10075 20048 40209 57010 8707/;
0191583140999992000041100004+31400+116330FM-12+006899999V0203401N001019999999N0120001N1+00901+00471102041ADDAA199000091GF107991071001999999071999IA2999+00309MA1999999101151MD1710051-0801REMSYN082AAXX  11001 58314 32962 73401 10090 20047 30115 40204 57005 8707/ 333 05852 30035;EQDQ01  00002PRCP99
0112583140999992000041103004+31400+116330FM-12+006899999V0200701N003019999999N0150001N1+01871+00141101801ADDGF107991071001999999071999MD1710231+9999REMSYN060AAXX  11031 58314 42965 70703 10187 20014 40180 57023 8707/;
0186583140999992000041106004+31400+116330FM-12+006899999V0201401N003019999999N0200001N1+02311+00311101431ADDAA199000091GF107991071001999999071999KA1999N+00681MA1999999100561MD1710361+9999REMSYN076AAXX  11061 58314 32970 71403 10231 20031 30056 40143 57036 8707/ 333 20068;EQDQ01  00002PRCP99
0112583140999992000041109004+31400+116330FM-12+006899999V0202701N002019999999N0200001N1+02041+00351101271ADDGF107991071001999999071999MD1710161+9999REMSYN060AAXX  11091 58314 42970 72702 10204 20035 40127 57016 8707/;
0163583140999992000041112004+31400+116330FM-12+006899999V0201101N001019999999N0200001N1+01761+00711101231ADDAA199000091GF108991081001999999071999MA1999999100361MD1710041+9999REMSYN066AAXX  11121 58314 32970 81101 10176 20071 30036 40123 57004 8807/;EQDQ01  00002PRCP99
0112583140999992000041115004+31400+116330FM-12+006899999V0202701N002019999999N0200001N1+01601+00791101231ADDGF108991081001999999071999MD1210011+9999REMSYN060AAXX  11151 58314 42970 82702 10160 20079 40123 52001 8807/;
0196583140999992000041118004+31400+116330FM-12+006899999V0202501N003012200019N0200001N1+01331+00761101111ADDAA199000091GA1001+999999999GF100991001001999999001001KA1999M+02351MA1999999100251MD1710121+9999REMSYN070AAXX  11181 58314 32970 02503 10133 20076 30025 40111 57012 333 10235;EQDQ01  00002PRCP99
0122583140999992000041121004+31400+116330FM-12+006899999V0202901N002012200019N0200001N1+01151+00741101081ADDGA1001+999999999GF100991001001999999001001MD1710031+9999REMSYN054AAXX  11211 58314 42970 02902 10115 20074 40108 57003;
0183583140999992000041200004+31400+116330FM-12+006899999V0202701N004012200019N0100001N1+01651+00741101131ADDAA199000091GA1001+999999999GF100991001001999999001001MA1999999100271MD1210051+0091REMSYN070AAXX  12001 58314 32960 02704 10165 20074 30027 40113 52005 333 05908;EQDQ01  00002PRCP99
0122583140999992000041203004+31400+116330FM-12+006899999V0202501N002012200019N0200001N1+02281+00921101001ADDGA1001+999999999GF100991001001999999001001MD1710121+9999REMSYN054AAXX  12031 58314 42970 02502 10228 20092 40100 57012;
0186583140999992000041206004+31400+116330FM-12+006899999V0200701N002012200019N0200001N1+02661+00881100761ADDAA199000091GF104991001001999999001021KA1999N+01131MA1999999099911MD1710241+9999REMSYN076AAXX  12061 58314 32970 40702 10266 20088 39991 40076 57024 80002 333 20113;EQDQ01  00002PRCP99
0112583140999992000041209004+31400+116330FM-12+006899999V0200901N002019999999N0150001N1+02741+00801100611ADDGF106991001001999999001021MD1710151+9999REMSYN060AAXX  12091 58314 42965 60902 10274 20080 40061 57015 80002;
0173583140999992000041212004+31400+116330FM-12+006899999V0202201N005012200019N0200001N1+02331+00961100761ADDAA199000091GA1001+999999999GF100991001001999999001001MA1999999099911MD1210151+9999REMSYN060AAXX  12121 58314 32970 02205 10233 20096 39991 40076 52015;EQDQ01  00002PRCP99
0122583140999992000041215004+31400+116330FM-12+006899999V0202201N005012200019N0200001N1+02121+00981100871ADDGA1001+999999999GF100991001001999999001001MD1210111+9999REMSYN054AAXX  12151 58314 42970 02205 10212 20098 40087 52011;
0196583140999992000041218004+31400+116330FM-12+006899999V0202001N001012200019N0150001N1+01621+01121100771ADDAA199000091GA1001+999999999GF100991001001999999001001KA1999M+02761MA1999999099921MD1710101+9999REMSYN070AAXX  12181 58314 32965 02001 10162 20112 39992 40077 57010 333 10276;EQDQ01  00002PRCP99
0122583140999992000041221004+31400+116330FM-12+006899999V0203201N001012200019N0150001N1+01231+01021100821ADDGA1001+999999999GF100991001001999999001001MD1210051+9999REMSYN054AAXX  12211 58314 42965 03201 10123 20102 40082 52005;
0173583140999992000041300004+31400+116330FM-12+006899999V0209999C000019999999N0200001N1+01491+01041100871ADDAA199000091GF106991061001999999041001MA1999999100021MD1210051+0031REMSYN076AAXX  13001 58314 32970 60000 10149 20104 30002 40087 52005 86040 333 05352;EQDQ01  00002PRCP99
0131583140999992000041303004+31400+116330FM-12+006899999V0200901N003019999999N0200001N1+02682+00641100761ADDGF107991001001999999001021MD1710101+9999REMSYN060AAXX  13031 58314 42970 70903 10268 20064 40076 57010 80002;EQDQ01+002683ATOT  
0196583140999992000041306004+31400+116330FM-12+006899999V0200701N004012200019N0300001N1+03021+00781100401ADDAA199000091GA1001+999999999GF100991001001999999001001KA1999N+01091MA1999999099561MD1710361+9999REMSYN070AAXX  13061 58314 32980 00704 10302 20078 39956 40040 57036 333 20109;EQDQ01  00002PRCP99
0112583140999992000041309004+31400+116330FM-12+006899999V0200901N003010075019N0200001N1+02961+01101100261ADDGF105991051041008001001001MD1710141+9999REMSYN060AAXX  13091 58314 42570 50903 10296 20110 40026 57014 85400;
0163583140999992000041312004+31400+116330FM-12+006899999V0202001N003019999999N0150001N1+02571+01021100471ADDAA199000091GF108991081001999999071999MA1999999099621MD1210201+9999REMSYN066AAXX  13121 58314 32965 82003 10257 20102 39962 40047 52020 8807/;EQDQ01  00002PRCP99
0132583140999992000041315004+31400+116330FM-12+006899999V0200701N001019999999N0120001N1+01971+01531100601ADDAY161031GF108991081001999999071999MD1210141+9999MW1601REMSYN066AAXX  13151 58314 41962 80701 10197 20153 40060 52014 76060 8807/;
0193583140999992000041318004+31400+116330FM-12+006899999V0203601N003010075019N0120001N1+01801+01621100671ADDAA106004191AY161061GF108991081051008001999999KA1999M+03121MA1999999099831MD1210071+9999MW1601REMSYN088AAXX  13181 58314 11562 83603 10180 20162 39983 40067 52007 60041 76060 885// 333 10312;
0161583140999992000041321004+31400+116330FM-12+006899999V0200201N003010075019N0120001N1+01721+01551100651ADDAA124005191AY161031AY261031GF108991081051008001999999MD1710021+9999MW1601REMSYN076AAXX  13211 58314 41562 80203 10172 20155 40065 57002 76066 885// 333 70052;
0186583140999992000041400004+31400+116330FM-12+006899999V0200701N003019999999N0200001N1+01291+00721101071ADDAA106002091AY161061GF108991081001999999071999MA1999999100221MD1210411+0201MW1001REMSYN094AAXX  14001 58314 11970 80703 10129 20072 30022 40107 52041 60021 70060 8807/ 333 00252 70054;
0132583140999992000041403004+31400+116330FM-12+006899999V0203601N002019999999N0120001N1+01071+00741101411ADDAY161031GF108991081001999999071999MD1210321+9999MW1601REMSYN066AAXX  14031 58314 41962 83602 10107 20074 40141 52032 76060 8807/;
0193583140999992000041406004+31400+116330FM-12+006899999V0202901N005010075019N0200001N1+00851+00561101641ADDAA106002091AY161061GF108991081051008001999999KA1999N+00841MA1999999100761MD1210221+9999MW1601REMSYN088AAXX  14061 58314 11570 82905 10085 20056 30076 40164 52022 60021 76060 885// 333 20084;
0140583140999992000041409004+31400+116330FM-12+006899999V0203201N004010075019N0200001N1+00871+00631101711ADDAY161031AY261031GF108991081051008001999999MD1210071+9999MW1601REMSYN066AAXX  14091 58314 41570 83204 10087 20063 40171 52007 76066 885//;
0112583140999992000041415004+31400+116330FM-12+006899999V0202701N003019999999N0150001N1+00941+00711102111ADDGF108991081001999999071999MD1210061+9999REMSYN060AAXX  14151 58314 42965 82703 10094 20071 40211 52006 8807/;
0167583140999992000041418004+31400+116330FM-12+006899999V0202701N001019999999N0150001N1+00941+00681102071ADDAA199000021GF108991081001999999071999KA1999M+01801MA1999999101181MD1710041+9999REMSYN076AAXX  14181 58314 32965 82701 10094 20068 30118 40207 57004 8807/ 333 10180;
0133583140999992000041421004+31400+116330FM-12+006899999V0209999C000012200019N0150001N1+00731+00571102101ADDAA124003691GF102991021001999999041001MD1210021+9999REMSYN070AAXX  14211 58314 42965 20000 10073 20057 40210 52002 82040 333 70035;
0188583140999992000041500004+31400+116330FM-12+006899999V0203201N002012200019N0100001N1+01801+01631102251ADDAA124003391GA1001+999999999GF100991001001999999001001IA2999+00359MA1999999101371MD1210171+1201REMSYN082AAXX  15001 58314 32960 03202 10180 20163 30137 40225 52017 333 01205 30035 70033;
0122583140999992000041503004+31400+116330FM-12+006899999V0202701N002012200019N0150001N1+01441+00581102171ADDGA1001+999999999GF100991001001999999001001MD1710091+9999REMSYN054AAXX  15031 58314 42965 02702 10144 20058 40217 57009;
0186583140999992000041506004+31400+116330FM-12+006899999V0201401N002010075019N0200001N1+01661+00511101901ADDAA199000091GF107991071051008001999999KA1999N+00641MA1999999101021MD1710261+9999REMSYN076AAXX  15061 58314 32570 71402 10166 20051 30102 40190 57026 875// 333 20064;EQDQ01  00002PRCP99
0112583140999992000041509004+31400+116330FM-12+006899999V0200201N004010075019N0200001N1+01641+00371101791ADDGF107991071051008001999999MD1710111+9999REMSYN060AAXX  15091 58314 42570 70204 10164 20037 40179 57011 875//;
0173583140999992000041512004+31400+116330FM-12+006899999V0203401N002012200019N0200001N1+01231+00741101921ADDAA199000091GA1001+999999999GF100991001001999999001001MA1999999101031MD1210121+9999REMSYN060AAXX  15121 58314 32970 03402 10123 20074 30103 40192 52012;EQDQ01  00002PRCP99
0122583140999992000041515004+31400+116330FM-12+006899999V0202901N001012200019N0200001N1+00921+00731101951ADDGA1001+999999999GF100991001001999999001001MD1210041+9999REMSYN054AAXX  15151 58314 42970 02901 10092 20073 40195 52004;
0196583140999992000041518004+31400+116330FM-12+006899999V0202701N001012200019N0150001N1+00731+00601101861ADDAA199000091GA1001+999999999GF100991001001999999001001KA1999M+01701MA1999999100981MD1710091+9999REMSYN070AAXX  15181 58314 32965 02701 10073 20060 30098 40186 57009 333 10170;EQDQ01  00002PRCP99
0122583140999992000041521004+31400+116330FM-12+006899999V0209999C000012200019N0120001N1+00601+00481101801ADDGA1001+999999999GF100991001001999999001001MD1710071+9999REMSYN054AAXX  15211 58314 42962 00000 10060 20048 40180 57007;
0201583140999992000041600004+31400+116330FM-12+006899999V0200401N001012200019N0200001N1+00961+00591101951ADDAA199000091GA1001+999999999GF100991001001999999001001IA2999+00009MA1999999101061MD1210151-0301REMSYN076AAXX  16001 58314 32970 00401 10096 20059 30106 40195 52015 333 05302 30001;EQDQ01  00002PRCP99
0122583140999992000041603004+31400+116330FM-12+006899999V0202501N001012200019N0200001N1+01941+00591101841ADDGA1001+999999999GF100991001001999999001001MD1710101+9999REMSYN054AAXX  16031 58314 42970 02501 10194 20059 40184 57010;
0196583140999992000041606004+31400+116330FM-12+006899999V0200401N003012200019N0200001N1+02301+00481101491ADDAA199000091GA1001+999999999GF100991001001999999001001KA1999N+00531MA1999999100621MD1710341+9999REMSYN070AAXX  16061 58314 32970 00403 10230 20048 30062 40149 57034 333 20053;EQDQ01  00002PRCP99
0122583140999992000041609004+31400+116330FM-12+006899999V0201101N004012200019N0200001N1+02261+00381101321ADDGA1001+999999999GF100991001001999999001001MD1710171+9999REMSYN054AAXX  16091 58314 42970 01104 10226 20038 40132 57017;
0173583140999992000041612004+31400+116330FM-12+006899999V0202201N004012200019N0200001N1+01951+00561101401ADDAA199000091GA1001+999999999GF100991001001999999001001MA1999999100531MD1210081+9999REMSYN060AAXX  16121 58314 32970 02204 10195 20056 30053 40140 52008;EQDQ01  00002PRCP99
0122583140999992000041615004+31400+116330FM-12+006899999V0202201N002012200019N0200001N1+01311+00901101471ADDGA1001+999999999GF100991001001999999001001MD1210071+9999REMSYN054AAXX  16151 58314 42970 02202 10131 20090 40147 52007;
0196583140999992000041618004+31400+116330FM-12+006899999V0209999C000012200019N0200001N1+00961+00751101461ADDAA199000091GA1001+999999999GF100991001001999999001001KA1999M+02381MA1999999100591MD1710011+9999REMSYN070AAXX  16181 58314 32970 00000 10096 20075 30059 40146 57001 333 10238;EQDQ01  00002PRCP99
0122583140999992000041621004+31400+116330FM-12+006899999V0202901N001012200019N0200001N1+00771+00641101401ADDGA1001+999999999GF100991001001999999001001MD1710061+9999REMSYN054AAXX  16211 58314 42970 02901 10077 20064 40140 57006;
0201583140999992000041700004+31400+116330FM-12+006899999V0209999C000012200019N0150001N1+01051+00601101431ADDAA199000091GA1001+999999999GF100991001001999999001001IA2999+00209MA1999999100561MD1210031-0501REMSYN076AAXX  17001 58314 32965 00000 10105 20060 30056 40143 52003 333 05501 30029;EQDQ01  00002PRCP99
0141583140999992000041703004+31400+116330FM-12+006899999V0202001N003012200019N0200001N1+02542+00341101291ADDGA1001+999999999GF100991001001999999001001MD1710131+9999REMSYN054AAXX  17031 58314 42970 02003 10254 20034 40129 57013;EQDQ01+002543ATOT  
0196583140999992000041706004+31400+116330FM-12+006899999V0200901N005012200019N0200001N1+02761+00341100991ADDAA199000091GA1001+999999999GF100991001001999999001001KA1999N+00751MA1999999100131MD1710301+9999REMSYN070AAXX  17061 58314 32970 00905 10276 20034 30013 40099 57030 333 20075;EQDQ01  00002PRCP99
0122583140999992000041709004+31400+116330FM-12+006899999V0201401N004012200019N0200001N1+02701+00921100761ADDGA1001+999999999GF100991001001999999001001MD1710231+9999REMSYN054AAXX  17091 58314 42970 01404 10270 20092 40076 57023;
0163583140999992000041712004+31400+116330FM-12+006899999V0201601N004019999999N0200001N1+02351+00661100911ADDAA199000091GF107991001001999999001021MA1999999100051MD1210151+9999REMSYN066AAXX  17121 58314 32970 71604 10235 20066 30005 40091 52015 80002;EQDQ01  00002PRCP99
0112583140999992000041715004+31400+116330FM-12+006899999V0202001N002019999999N0200001N1+02211+00631101041ADDGF107991071001999999071999MD1210151+9999REMSYN060AAXX  17151 58314 42970 72002 10221 20063 40104 52015 8707/;
0186583140999992000041718004+31400+116330FM-12+006899999V0202901N004019999999N0200001N1+01711+01081101011ADDAA199000091GF107991071001999999071999KA1999M+02761MA1999999100161MD1710041+9999REMSYN076AAXX  17181 58314 32970 72904 10171 20108 30016 40101 57004 8707/ 333 10276;EQDQ01  00002PRCP99
0112583140999992000041721004+31400+116330FM-12+006899999V0202901N001019999999N0200001N1+01651+01141100891ADDGF108991081001999999071999MD1710121+9999REMSYN060AAXX  17211 58314 42970 82901 10165 20114 40089 57012 8807/;
0173583140999992000041800004+31400+116330FM-12+006899999V0202901N002019999999N0150001N1+01681+01251100851ADDAA199000091GF107991071001999999071999MA1999999100001MD1710041+0061REMSYN076AAXX  18001 58314 32965 72902 10168 20125 30000 40085 57004 8707/ 333 05606;EQDQ01  00002PRCP99
0112583140999992000041803004+31400+116330FM-12+006899999V0202201N002019999999N0200001N1+02401+01451100891ADDGF107991071001999999071999MD1210051+9999REMSYN060AAXX  18031 58314 42970 72202 10240 20145 40089 52005 8707/;
0186583140999992000041806004+31400+116330FM-12+006899999V0202201N006019999999N0300001N1+02711+00991100691ADDAA199000091GF107991071001999999071999KA1999N+01621MA1999999099851MD1710201+9999REMSYN076AAXX  18061 58314 32980 72206 10271 20099 39985 40069 57020 8707/ 333 20162;EQDQ01  00002PRCP99
0112583140999992000041809004+31400+116330FM-12+006899999V0200201N002019999999N0300001N1+02371+01311100771ADDGF108991081001999999071999MD1210071+9999REMSYN060AAXX  18091 58314 42980 80202 10237 20131 40077 52007 8807/;
0163583140999992000041812004+31400+116330FM-12+006899999V0209999C000019999999N0200001N1+02051+01531100951ADDAA199000091GF108991081001999999071999MA1999999100091MD1210171+9999REMSYN066AAXX  18121 58314 32970 80000 10205 20153 30009 40095 52017 8807/;EQDQ01  00002PRCP99
0112583140999992000041815004+31400+116330FM-12+006899999V0202701N001012200019N0200001N1+01801+01491101151ADDGF103991031001999999041001MD1210211+9999REMSYN060AAXX  18151 58314 42970 32701 10180 20149 40115 52021 83040;
0196583140999992000041818004+31400+116330FM-12+006899999V0203201N001012200019N0200001N1+01611+01441101121ADDAA199000091GA1001+999999999GF100991001001999999001001KA1999M+02751MA1999999100271MD1710031+9999REMSYN070AAXX  18181 58314 32970 03201 10161 20144 30027 40112 57003 333 10275;EQDQ01  00002PRCP99
0122583140999992000041821004+31400+116330FM-12+006899999V0200401N001012200019N0200001N1+01411+01321101141ADDGA1001+999999999GF100991001001999999001001MD1210011+9999REMSYN054AAXX  18211 58314 42970 00401 10141 20132 40114 52001;
0185583140999992000041900004+31400+116330FM-12+006899999V0202701N001019999999N0070001N1+01541+01361101361ADDAA199000091GF108991081001999999071999MA1999999100501MD1210221+0051MW1101REMSYN082AAXX  19001 58314 31957 82701 10154 20136 30050 40136 52022 71000 8807/ 333 00551;EQDQ01  00002PRCP99
0186583140999992000041906004+31400+116330FM-12+006899999V0200901N004019999999N0150001N1+02531+01471101001ADDAA199000091GF107991071001999999071999KA1999N+01351MA1999999100151MD1710261+9999REMSYN076AAXX  19061 58314 32965 70904 10253 20147 30015 40100 57026 8707/ 333 20135;EQDQ01  00002PRCP99
0112583140999992000041909004+31400+116330FM-12+006899999V0200901N001019999999N0150001N1+02401+01781100891ADDGF108991081001999999071999MD1710111+9999REMSYN060AAXX  19091 58314 42965 80901 10240 20178 40089 57011 8807/;
0163583140999992000041912004+31400+116330FM-12+006899999V0200401N001019999999N0150001N1+02181+01731100881ADDAA199000091GF108991081001999999071999MA1999999100021MD1710021+9999REMSYN066AAXX  19121 58314 32965 80401 10218 20173 30002 40088 57002 8807/;EQDQ01  00002PRCP99
0112583140999992000041915004+31400+116330FM-12+006899999V0202001N001019999999N0150001N1+01981+01791101041ADDGF107991071001999999071999MD1210171+9999REMSYN060AAXX  19151 58314 42965 72001 10198 20179 40104 52017 8707/;
0196583140999992000041918004+31400+116330FM-12+006899999V0203201N001012200019N0200001N1+01761+01661101031ADDAA199000091GA1001+999999999GF100991001001999999001001KA1999M+02571MA1999999100181MD1710011+9999REMSYN070AAXX  19181 58314 32970 03201 10176 20166 30018 40103 57001 333 10257;EQDQ01  00002PRCP99
0122583140999992000041921004+31400+116330FM-12+006899999V0209999C000012200019N0100001N1+01621+01531101001ADDGA1001+999999999GF100991001001999999001001MD1710031+9999REMSYN054AAXX  19211 58314 42960 00000 10162 20153 40100 57003;
0185583140999992000042000004+31400+116330FM-12+006899999V0202901N001019999999N0060001N1+01731+01581101061ADDAA199000091GF108991081001999999071999MA1999999100211MD1210061+0031MW1101REMSYN082AAXX  20001 58314 31956 82901 10173 20158 30021 40106 52006 71000 8807/ 333 05302;EQDQ01  00002PRCP99
0112583140999992000042003004+31400+116330FM-12+006899999V0202901N002019999999N0100001N1+02041+01391101011ADDGF108991081001999999071999MD1710051+9999REMSYN060AAXX  20031 58314 42960 82902 10204 20139 40101 57005 8807/;
0186583140999992000042006004+31400+116330FM-12+006899999V0203401N004019999999N0100001N1+01981+01071101041ADDAA199000091GF108991081001999999071999KA1999N+01591MA1999999100181MD1210021+9999REMSYN076AAXX  20061 58314 32960 83404 10198 20107 30018 40104 52002 8807/ 333 20159;EQDQ01  00002PRCP99
0132583140999992000042009004+31400+116330FM-12+006899999V0202001N004019999999N0100001N1+01861+00801100861ADDAY161031GF108991081001999999071999MD1710181+9999MW1601REMSYN066AAXX  20091 58314 41960 82004 10186 20080 40086 57018 76060 8807/;
0170583140999992000042012004+31400+116330FM-12+006899999V0202701N003019999999N0150001N1+01641+01021101031ADDAA106000791AY161061GF107991071001999999071999MA1999999100171MD1210171+9999MW1001REMSYN078AAXX  20121 58314 11965 72703 10164 20102 30017 40103 52017 69901 70060 8707/;
0122583140999992000042015004+31400+116330FM-12+006899999V0200201N001012200019N0150001N1+01451+00991101271ADDGA1001+999999999GF100991001001999999001001MD1210241+9999REMSYN054AAXX  20151 58314 42965 00201 10145 20099 40127 52024;
0143583140999992000042021004+31400+116330FM-12+006899999V0200701N002012200019N0200001N1+01131+00851101191ADDAA124000791GA1001+999999999GF100991001001999999001001MD1710031+9999REMSYN064AAXX  20211 58314 42970 00702 10113 20085 40119 57003 333 79999;
0112583140999992000042103004+31400+116330FM-12+006899999V0202501N004019999999N0100001N1+02481+00671101261ADDGF107991001001999999001021MD1710051+9999REMSYN060AAXX  21031 58314 42960 72504 10248 20067 40126 57005 80002;
0186583140999992000042106004+31400+116330FM-12+006899999V0202501N004019999999N0120001N1+02901-00091101101ADDAA199000091GF107991001001999999001021KA1999N+01081MA1999999100251MD1710151+9999REMSYN076AAXX  21061 58314 32962 72504 10290 21009 30025 40110 57015 80002 333 20108;EQDQ01  00002PRCP99
0112583140999992000042109004+31400+116330FM-12+006899999V0202501N003019999999N0120001N1+02551+00401101101ADDGF108991081001999999071999MD1710011+9999REMSYN060AAXX  21091 58314 42962 82503 10255 20040 40110 57001 8807/;
0163583140999992000042112004+31400+116330FM-12+006899999V0202701N003019999999N0120001N1+02261+00731101091ADDAA199000091GF108991081001999999071999MA1999999100241MD1410001+9999REMSYN066AAXX  21121 58314 32962 82703 10226 20073 30024 40109 54000 8807/;EQDQ01  00002PRCP99
0112583140999992000042115004+31400+116330FM-12+006899999V0202701N001012200019N0150001N1+01781+01121101101ADDGF103991031001999999041001MD1210011+9999REMSYN060AAXX  21151 58314 42965 32701 10178 20112 40110 52001 83040;
0196583140999992000042118004+31400+116330FM-12+006899999V0202701N002012200019N0150001N1+01771+00961101091ADDAA199000091GA1001+999999999GF100991001001999999001001KA1999M+02901MA1999999100251MD1410001+9999REMSYN070AAXX  21181 58314 32965 02702 10177 20096 30025 40109 54000 333 10290;EQDQ01  00002PRCP99
0122583140999992000042121004+31400+116330FM-12+006899999V0209999C000012200019N0150001N1+01581+00971101031ADDGA1001+999999999GF100991001001999999001001MD1710071+9999REMSYN054AAXX  21211 58314 42965 00000 10158 20097 40103 57007;
0173583140999992000042200004+31400+116330FM-12+006899999V0203401N001019999999N0100001N1+01641+01151101101ADDAA199000091GF107991071001999999071999MA1999999100251MD1210071+0021REMSYN076AAXX  22001 58314 32960 73401 10164 20115 30025 40110 52007 8707/ 333 05251;EQDQ01  00002PRCP99
0124583140999992000042203004+31400+116330FM-12+006899999V0203401N007019999999N0080001N1+02381+00701101301ADDGF107991071001999999071999MD1210201+9999MW1061REMSYN066AAXX  22031 58314 41958 73407 10238 20070 40130 52020 70600 8707/;
0198583140999992000042206004+31400+116330FM-12+006899999V0200701N003019999999N0080001N1+02501+00331101201ADDAA199000091GF108991001001999999001071KA1999N+01461MA1999999100351MD1710101+9999MW1061REMSYN082AAXX  22061 58314 31958 80703 10250 20033 30035 40120 57010 70600 80007 333 20146;EQDQ01  00002PRCP99
0124583140999992000042209004+31400+116330FM-12+006899999V0200701N002019999999N0080001N1+02461-00051101111ADDGF108991001001999999001071MD1710091+9999MW1061REMSYN066AAXX  22091 58314 41958 80702 10246 21005 40111 57009 70600 80007;
0122583140999992000042215004+31400+116330FM-12+006899999V0202701N001012200019N0150001N1+01341+01091101411ADDGA1001+999999999GF100991001001999999001001MD1210111+9999REMSYN054AAXX  22151 58314 42965 02701 10134 20109 40141 52011;
0196583140999992000042218004+31400+116330FM-12+006899999V0202701N001012200019N0120001N1+01141+00901101451ADDAA199000091GA1001+999999999GF100991001001999999001001KA1999M+02511MA1999999100591MD1210041+9999REMSYN070AAXX  22181 58314 32962 02701 10114 20090 30059 40145 52004 333 10251;EQDQ01  00002PRCP99
0122583140999992000042221004+31400+116330FM-12+006899999V0209999C000012200019N0120001N1+01121+00751101391ADDGA1001+999999999GF100991001001999999001001MD1710061+9999REMSYN054AAXX  22211 58314 42962 00000 10112 20075 40139 57006;
0183583140999992000042300004+31400+116330FM-12+006899999V0209999C000012200019N0150001N1+01341+00931101361ADDAA199000091GA1001+999999999GF100991001001999999001001MA1999999100491MD1710041+0021REMSYN070AAXX  23001 58314 32965 00000 10134 20093 30049 40136 57004 333 00253;EQDQ01  00002PRCP99
0112583140999992000042303004+31400+116330FM-12+006899999V0203401N002019999999N0150001N1+02421+01201101251ADDGF106991061001999999041001MD1710101+9999REMSYN060AAXX  23031 58314 42965 63402 10242 20120 40125 57010 86040;
0186583140999992000042306004+31400+116330FM-12+006899999V0201401N003019999999N0150001N1+02681+00751101011ADDAA199000091GF107991021001999999041021KA1999N+01051MA1999999100161MD1710231+9999REMSYN076AAXX  23061 58314 32965 71403 10268 20075 30016 40101 57023 82042 333 20105;EQDQ01  00002PRCP99
0112583140999992000042309004+31400+116330FM-12+006899999V0200901N003019999999N0150001N1+02541+00691100821ADDGF108991081001999999071999MD1710201+9999REMSYN060AAXX  23091 58314 42965 80903 10254 20069 40082 57020 8807/;
0173583140999992000042312004+31400+116330FM-12+006899999V0200901N002012200019N0150001N1+01991+00751100881ADDAA199000091GA1001+999999999GF100991001001999999001001MA1999999100021MD1210061+9999REMSYN060AAXX  23121 58314 32965 00902 10199 20075 30002 40088 52006;EQDQ01  00002PRCP99
0122583140999992000042315004+31400+116330FM-12+006899999V0201601N002012200019N0150001N1+01611+01071101031ADDGA1001+999999999GF100991001001999999001001MD1210161+9999REMSYN054AAXX  23151 58314 42965 01602 10161 20107 40103 52016;
0196583140999992000042318004+31400+116330FM-12+006899999V0203201N001012200019N0150001N1+01341+01031100931ADDAA199000091GA1001+999999999GF100991001001999999001001KA1999M+02701MA1999999100081MD1710101+9999REMSYN070AAXX  23181 58314 32965 03201 10134 20103 30008 40093 57010 333 10270;EQDQ01  00002PRCP99
0122583140999992000042321004+31400+116330FM-12+006899999V0209999C000012200019N0150001N1+01161+00961100831ADDGA1001+999999999GF100991001001999999001001MD1710101+9999REMSYN054AAXX  23211 58314 42965 00000 10116 20096 40083 57010;
0183583140999992000042400004+31400+116330FM-12+006899999V0209999C000012200019N0120001N1+01491+01041100941ADDAA199000091GA1001+999999999GF100991001001999999001001MA1999999100081MD1210101+0041REMSYN070AAXX  24001 58314 32962 00000 10149 20104 30008 40094 52010 333 05402;EQDQ01  00002PRCP99
0112583140999992000042403004+31400+116330FM-12+006899999V0203401N001019999999N0200001N1+02531+01201100751ADDGF107991001001999999001021MD1710181+9999REMSYN060AAXX  24031 58314 42970 73401 10253 20120 40075 57018 80002;
0186583140999992000042406004+31400+116330FM-12+006899999V0201801N005019999999N0200001N1+02691+01311100471ADDAA199000091GF108991081001999999071999KA1999N+01141MA1999999099621MD1710281+9999REMSYN076AAXX  24061 58314 32970 81805 10269 20131 39962 40047 57028 8807/ 333 20114;EQDQ01  00002PRCP99
0112583140999992000042409004+31400+116330FM-12+006899999V0201801N001019999999N0200001N1+02541+01511100321ADDGF108991081001999999071999MD1710151+9999REMSYN060AAXX  24091 58314 42970 81801 10254 20151 40032 57015 8807/;
0124583140999992000042415004+31400+116330FM-12+006899999V0202501N003019999999N0200001N1+02101+01711100501ADDGF108991081001999999071999MD1210111+9999MW1601REMSYN066AAXX  24151 58314 41970 82503 10210 20171 40050 52011 76000 8807/;
0193583140999992000042418004+31400+116330FM-12+006899999V0200901N002019999999N0120001N1+01901+01701100331ADDAA106002091AY161061GF108991081001999999071999KA1999M+02851MA1999999099491MD1710171+9999MW1001REMSYN088AAXX  24181 58314 11962 80902 10190 20170 39949 40033 57017 60021 70060 8807/ 333 10285;
0133583140999992000042421004+31400+116330FM-12+006899999V0202501N002019999999N0120001N1+01831+01611100401ADDAA124001591GF107991071001999999071999MD1210071+9999REMSYN070AAXX  24211 58314 42962 72502 10183 20161 40040 52007 8707/ 333 70015;
0170583140999992000042500004+31400+116330FM-12+006899999V0203201N002012200019N0100001N1+02021+01731100491ADDAA124001591GA1001+999999999GF100991001001999999001001MA1999999099651MD1210091-0401REMSYN076AAXX  25001 58314 32960 03202 10202 20173 39965 40049 52009 333 05405 70015;
0112583140999992000042503004+31400+116330FM-12+006899999V0200401N002019999999N0150001N1+02481+01611100441ADDGF107991071001999999071999MD1710051+9999REMSYN060AAXX  25031 58314 42965 70402 10248 20161 40044 57005 8707/;
0186583140999992000042506004+31400+116330FM-12+006899999V0200201N002019999999N0150001N1+02751+01541100241ADDAA199000091GF107991071001999999071999KA1999N+01761MA1999999099401MD1710201+9999REMSYN076AAXX  25061 58314 32965 70202 10275 20154 39940 40024 57020 8707/ 333 20176;EQDQ01  00002PRCP99
0112583140999992000042509004+31400+116330FM-12+006899999V0203401N002019999999N0100001N1+02461+01621100311ADDGF108991081001999999071999MD1210071+9999REMSYN060AAXX  25091 58314 42960 83402 10246 20162 40031 52007 8807/;
0163583140999992000042512004+31400+116330FM-12+006899999V0202701N002019999999N0150001N1+02231+01721100511ADDAA199000091GF108991081001999999071999MA1999999099671MD1210201+9999REMSYN066AAXX  25121 58314 32965 82702 10223 20172 39967 40051 52020 8807/;EQDQ01  00002PRCP99
0132583140999992000042515004+31400+116330FM-12+006899999V0202901N003019999999N0120001N1+02081+01241100701ADDAY161031GF108991081001999999071999MD1210191+9999MW1211REMSYN066AAXX  25151 58314 41962 82903 10208 20124 40070 52019 72160 8807/;
0193583140999992000042518004+31400+116330FM-12+006899999V0202701N004019999999N0150001N1+02071+00691100781ADDAA106000791AY161061GF108991081001999999071999KA1999M+02771MA1999999099941MD1210081+9999MW1001REMSYN088AAXX  25181 58314 11965 82704 10207 20069 39994 40078 52008 69901 70060 8807/ 333 10277;
0143583140999992000042521004+31400+116330FM-12+006899999V0202901N003012200019N0150001N1+01581+01141100861ADDAA124000791GA1001+999999999GF100991001001999999001001MD1210071+9999REMSYN064AAXX  25211 58314 42965 02903 10158 20114 40086 52007 333 79999;
0160583140999992000042600004+31400+116330FM-12+006899999V0202901N003019999999N0110001N1+01881+00421101291ADDAA124000791GF107991001001999999001021MA1999999100441MD1210431+0801REMSYN082AAXX  26001 58314 32961 72903 10188 20042 30044 40129 52043 80002 333 00851 79999;
0112583140999992000042603004+31400+116330FM-12+006899999V0200201N002019999999N0100001N1+02071-00021101391ADDGF107991001001999999001021MD1210101+9999REMSYN060AAXX  26031 58314 42960 70202 10207 21002 40139 52010 80002;
0186583140999992000042606004+31400+116330FM-12+006899999V0200201N002019999999N0100001N1+02261+00221101241ADDAA199000091GF107991001001999999001021KA1999N+01521MA1999999100391MD1710151+9999REMSYN076AAXX  26061 58314 32960 70202 10226 20022 30039 40124 57015 80002 333 20152;EQDQ01  00002PRCP99
0112583140999992000042609004+31400+116330FM-12+006899999V0203401N004019999999N0100001N1+02281+00081101151ADDGF107991001001999999001021MD1710101+9999REMSYN060AAXX  26091 58314 42960 73404 10228 20008 40115 57010 80002;
0163583140999992000042612004+31400+116330FM-12+006899999V0200701N001012200019N0120001N1+01781+00711101331ADDAA199000091GF101991001001999999001021MA1999999100471MD1210181+9999REMSYN066AAXX  26121 58314 32962 10701 10178 20071 30047 40133 52018 80002;EQDQ01  00002PRCP99
0122583140999992000042615004+31400+116330FM-12+006899999V0202901N002012200019N0120001N1+01351+00881101491ADDGA1001+999999999GF100991001001999999001001MD1210161+9999REMSYN054AAXX  26151 58314 42962 02902 10135 20088 40149 52016;
0196583140999992000042618004+31400+116330FM-12+006899999V0202901N001012200019N0200001N1+01161+00791101491ADDAA199000091GA1001+999999999GF100991001001999999001001KA1999M+02321MA1999999100631MD1410001+9999REMSYN070AAXX  26181 58314 32970 02901 10116 20079 30063 40149 54000 333 10232;EQDQ01  00002PRCP99
0122583140999992000042621004+31400+116330FM-12+006899999V0202701N003012200019N0200001N1+01021+00661101501ADDGA1001+999999999GF100991001001999999001001MD1410001+9999REMSYN054AAXX  26211 58314 42970 02703 10102 20066 40150 54000;
0183583140999992000042700004+31400+116330FM-12+006899999V0209999C000012200019N0100001N1+01381+00701101601ADDAA199000091GA1001+999999999GF100991001001999999001001MA1999999100731MD1210101+0031REMSYN070AAXX  27001 58314 32960 00000 10138 20070 30073 40160 52010 333 00355;EQDQ01  00002PRCP99
0122583140999992000042703004+31400+116330FM-12+006899999V0200901N002012200019N0200001N1+02321+00261101591ADDGA1001+999999999GF100991001001999999001001MD1410001+9999REMSYN054AAXX  27031 58314 42970 00902 10232 20026 40159 54000;
0186583140999992000042706004+31400+116330FM-12+006899999V0200401N002019999999N0200001N1+02541-00071101311ADDAA199000091GF106991001001999999001021KA1999N+00951MA1999999100451MD1710281+9999REMSYN076AAXX  27061 58314 32970 60402 10254 21007 30045 40131 57028 80002 333 20095;EQDQ01  00002PRCP99
0112583140999992000042709004+31400+116330FM-12+006899999V0200901N004019999999N0150001N1+02401+00341101191ADDGF108991081001999999011999MD1710121+9999REMSYN060AAXX  27091 58314 42965 80904 10240 20034 40119 57012 8801/;
0163583140999992000042712004+31400+116330FM-12+006899999V0201401N002019999999N0150001N1+02021+00891101281ADDAA199000091GF108991081001999999071999MA1999999100421MD1210091+9999REMSYN066AAXX  27121 58314 32965 81402 10202 20089 30042 40128 52009 8807/;EQDQ01  00002PRCP99
0112583140999992000042715004+31400+116330FM-12+006899999V0200901N001019999999N0150001N1+01721+01071101281ADDGF108991081001999999071999MD1210011+9999REMSYN060AAXX  27151 58314 42965 80901 10172 20107 40128 52001 8807/;
0186583140999992000042718004+31400+116330FM-12+006899999V0209999C000019999999N0150001N1+01551+01101101191ADDAA199000091GF108991081001999999071999KA1999M+02591MA1999999100341MD1710091+9999REMSYN076AAXX  27181 58314 32965 80000 10155 20110 30034 40119 57009 8807/ 333 10259;EQDQ01  00002PRCP99
0122583140999992000042721004+31400+116330FM-12+006899999V0202901N001012200019N0150001N1+01301+01091101181ADDGA1001+999999999GF100991001001999999001001MD1710021+9999REMSYN054AAXX  27211 58314 42965 02901 10130 20109 40118 57002;
0183583140999992000042800004+31400+116330FM-12+006899999V0202701N001012200019N0200001N1+01551+01061101271ADDAA199000091GA1001+999999999GF100991001001999999001001MA1999999100411MD1210091+0031REMSYN070AAXX  28001 58314 32970 02701 10155 20106 30041 40127 52009 333 05302;EQDQ01  00002PRCP99
0141583140999992000042803004+31400+116330FM-12+006899999V0209999C000012200019N0200001N1+02682+00661101151ADDGA1001+999999999GF100991001001999999001001MD1710111+9999REMSYN054AAXX  28031 58314 42970 00000 10268 20066 40115 57011;EQDQ01+002683ATOT  
0186583140999992000042806004+31400+116330FM-12+006899999V0200901N003012200019N0200001N1+02871+00491100891ADDAA199000091GF102991001001999999001021KA1999N+01261MA1999999100041MD1710261+9999REMSYN076AAXX  28061 58314 32970 20903 10287 20049 30004 40089 57026 80002 333 20126;EQDQ01  00002PRCP99
0112583140999992000042809004+31400+116330FM-12+006899999V0201101N006012200019N0200001N1+02781+00611100761ADDGF102991021001999999041001MD1710131+9999REMSYN060AAXX  28091 58314 42970 21106 10278 20061 40076 57013 82040;
0173583140999992000042812004+31400+116330FM-12+006899999V0201601N003012200019N0200001N1+02361+00731100941ADDAA199000091GA1001+999999999GF100991001001999999001001MA1999999100091MD1210181+9999REMSYN060AAXX  28121 58314 32970 01603 10236 20073 30009 40094 52018;EQDQ01  00002PRCP99
0122583140999992000042815004+31400+116330FM-12+006899999V0209999C000012200019N0200001N1+01941+01131101071ADDGA1001+999999999GF100991001001999999001001MD1210141+9999REMSYN054AAXX  28151 58314 42970 00000 10194 20113 40107 52014;
0196583140999992000042818004+31400+116330FM-12+006899999V0209999C000012200019N0150001N1+01931+01031101011ADDAA199000091GA1001+999999999GF100991001001999999001001KA1999M+02901MA1999999100171MD1710061+9999REMSYN070AAXX  28181 58314 32965 00000 10193 20103 30017 40101 57006 333 10290;EQDQ01  00002PRCP99
0112583140999992000042821004+31400+116330FM-12+006899999V0209999C000012200019N0150001N1+01401+01081101061ADDGF102991021001999999041001MD1210041+9999REMSYN060AAXX  28211 58314 42965 20000 10140 20108 40106 52004 82040;
0173583140999992000042900004+31400+116330FM-12+006899999V0203401N002019999999N0200001N1+01791+01261101251ADDAA199000091GF107991001001999999001021MA1999999100401MD1210191+0001REMSYN076AAXX  29001 58314 32970 73402 10179 20126 30040 40125 52019 80002 333 00002;EQDQ01  00002PRCP99
0112583140999992000042903004+31400+116330FM-12+006899999V0200201N002019999999N0200001N1+02251+01361101271ADDGF108991081001999999071999MD1210021+9999REMSYN060AAXX  29031 58314 42970 80202 10225 20136 40127 52002 8807/;
0186583140999992000042906004+31400+116330FM-12+006899999V0209999C000019999999N0200001N1+02361+01361101161ADDAA199000091GF108991081001999999071999KA1999N+01341MA1999999100311MD1710111+9999REMSYN076AAXX  29061 58314 32970 80000 10236 20136 30031 40116 57011 8807/ 333 20134;EQDQ01  00002PRCP99
0112583140999992000042909004+31400+116330FM-12+006899999V0202201N002019999999N0200001N1+02281+01361101041ADDGF108991081001999999071999MD1710131+9999REMSYN060AAXX  29091 58314 42970 82202 10228 20136 40104 57013 8807/;
0132583140999992000042915004+31400+116330FM-12+006899999V0202501N003019999999N0120001N1+01961+01451101321ADDAY161031GF108991081001999999071999MD1210111+9999MW1001REMSYN066AAXX  29151 58314 41962 82503 10196 20145 40132 52011 70060 8807/;
0193583140999992000042918004+31400+116330FM-12+006899999V0202901N002019999999N0120001N1+01901+01421101291ADDAA106000191AY161061GF108991081001999999071999KA1999M+02381MA1999999100441MD1710031+9999MW1001REMSYN088AAXX  29181 58314 11962 82902 10190 20142 30044 40129 57003 69911 70060 8807/ 333 10238;
0133583140999992000042921004+31400+116330FM-12+006899999V0202901N001019999999N0120001N1+01741+01471101361ADDAA124000391GF108991081001999999071999MD1210071+9999REMSYN070AAXX  29211 58314 42962 82901 10174 20147 40136 52007 8807/ 333 70002;
0170583140999992000043000004+31400+116330FM-12+006899999V0203401N001012200019N0100001N1+01861+01491101521ADDAA124000391GA1001+999999999GF100991001001999999001001MA1999999100661MD1210151+0301REMSYN076AAXX  30001 58314 32960 03401 10186 20149 30066 40152 52015 333 00301 70002;
0141583140999992000043003004+31400+116330FM-12+006899999V0209999C000012200019N0150001N1+02561+00172101491ADDGA1001+999999999GF100991001001999999001001MD1710021+9999REMSYN054AAXX  30031 58314 42965 00000 10256 20017 40149 57002;EQDQ01+000173ATOD  
0186583140999992000043006004+31400+116330FM-12+006899999V0200701N003019999999N0150001N1+02801+00311101261ADDAA199000091GF106991061001999999041001KA1999N+01681MA1999999100421MD1710221+9999REMSYN076AAXX  30061 58314 32965 60703 10280 20031 30042 40126 57022 86040 333 20168;EQDQ01  00002PRCP99
0163583140999992000043012004+31400+116330FM-12+006899999V0201401N001012200019N0150001N1+02171+00911101131ADDAA199000091GF102991021001999999041001MA1999999100281MD1210051+9999REMSYN066AAXX  30121 58314 32965 21401 10217 20091 30028 40113 52005 82040;EQDQ01  00002PRCP99
0112583140999992000043015004+31400+116330FM-12+006899999V0209999C000012200019N0150001N1+01821+01091101211ADDGF104991041001999999041001MD1210081+9999REMSYN060AAXX  30151 58314 42965 40000 10182 20109 40121 52008 84040;
0196583140999992000043018004+31400+116330FM-12+006899999V0200701N001012200019N0150001N1+01681+01071101061ADDAA199000091GA1001+999999999GF100991001001999999001001KA1999M+02831MA1999999100211MD1710151+9999REMSYN070AAXX  30181 58314 32965 00701 10168 20107 30021 40106 57015 333 10283;EQDQ01  00002PRCP99
0112583140999992000043021004+31400+116330FM-12+006899999V0203401N002019999999N0150001N1+01641+01121101031ADDGF107991071001999999071999MD1710031+9999REMSYN060AAXX  30211 58314 42965 73402 10164 20112 40103 57003 8707/;
0173583140999992000050100004+31400+116330FM-12+006899999V0200401N002019999999N0120001N1+01781+01281101211ADDAA199000091GF108991081001999999071999MA1999999100361MD1210181+0031REMSYN076AAXX  01001 58314 32962 80402 10178 20128 30036 40121 52018 8807/ 333 05351;EQDQ01  00002PRCP99
0112583140999992000050103004+31400+116330FM-12+006899999V0209999C000019999999N0150001N1+02241+01371101241ADDGF108991081001999999071999MD1210031+9999REMSYN060AAXX  01031 58314 42965 80000 10224 20137 40124 52003 8807/;
0186583140999992000050106004+31400+116330FM-12+006899999V0201801N001019999999N0150001N1+02561+01261101041ADDAA199000091GF108991081001999999071999KA1999N+01571MA1999999100191MD1710201+9999REMSYN076AAXX  01061 58314 32965 81801 10256 20126 30019 40104 57020 8807/ 333 20157;EQDQ01  00002PRCP99
0112583140999992000050109004+31400+116330FM-12+006899999V0201401N001019999999N0150001N1+02521+01341101011ADDGF108991081001999999071999MD1710031+9999REMSYN060AAXX  01091 58314 42965 81401 10252 20134 40101 57003 8807/;
0163583140999992000050112004+31400+116330FM-12+006899999V0209999C000019999999N0200001N1+02151+01531101091ADDAA199000091GF108991081001999999071999MA1999999100241MD1210081+9999REMSYN066AAXX  01121 58314 32970 80000 10215 20153 30024 40109 52008 8807/;EQDQ01  00002PRCP99
0122583140999992000050115004+31400+116330FM-12+006899999V0209999C000012200019N0200001N1+01801+01421101201ADDGA1001+999999999GF100991001001999999001001MD1210111+9999REMSYN054AAXX  01151 58314 42970 00000 10180 20142 40120 52011;
0186583140999992000050118004+31400+116330FM-12+006899999V0202901N001019999999N0120001N1+01681+01311101291ADDAA199000091GF108991081001999999071999KA1999M+02601MA1999999100441MD1210091+9999REMSYN076AAXX  01181 58314 32962 82901 10168 20131 30044 40129 52009 8807/ 333 10260;EQDQ01  00002PRCP99
0112583140999992000050121004+31400+116330FM-12+006899999V0209999C000019999999N0120001N1+01581+01331101341ADDGF108991081001999999071999MD1210051+9999REMSYN060AAXX  01211 58314 42962 80000 10158 20133 40134 52005 8807/;
0173583140999992000050200004+31400+116330FM-12+006899999V0202701N001019999999N0100001N1+01721+01411101551ADDAA199000091GF106991061001999999041001MA1999999100691MD1210201+0031REMSYN076AAXX  02001 58314 32960 62701 10172 20141 30069 40155 52020 86040 333 00351;EQDQ01  00002PRCP99
0122583140999992000050203004+31400+116330FM-12+006899999V0202901N001012200019N0200001N1+02661+00821101501ADDGA1001+999999999GF100991001001999999001001MD1710041+9999REMSYN054AAXX  02031 58314 42970 02901 10266 20082 40150 57004;
0196583140999992000050206004+31400+116330FM-12+006899999V0201401N002012200019N0200001N1+03021+00451101371ADDAA199000091GA1001+999999999GF100991001001999999001001KA1999N+01561MA1999999100521MD1710131+9999REMSYN070AAXX  02061 58314 32970 01402 10302 20045 30052 40137 57013 333 20156;EQDQ01  00002PRCP99
0122583140999992000050209004+31400+116330FM-12+006899999V0200901N003012200019N0200001N1+03041+00621101291ADDGA1001+999999999GF100991001001999999001001MD1710081+9999REMSYN054AAXX  02091 58314 42970 00903 10304 20062 40129 57008;
0173583140999992000050212004+31400+116330FM-12+006899999V0201601N001012200019N0200001N1+02341+00951101341ADDAA199000091GA1001+999999999GF100991001001999999001001MA1999999100491MD1210051+9999REMSYN060AAXX  02121 58314 32970 01601 10234 20095 30049 40134 52005;EQDQ01  00002PRCP99
0122583140999992000050215004+31400+116330FM-12+006899999V0209999C000012200019N0200001N1+01961+01111101441ADDGA1001+999999999GF100991001001999999001001MD1210101+9999REMSYN054AAXX  02151 58314 42970 00000 10196 20111 40144 52010;
0196583140999992000050218004+31400+116330FM-12+006899999V0203401N002012200019N0200001N1+01691+01281101331ADDAA199000091GA1001+999999999GF100991001001999999001001KA1999M+03051MA1999999100491MD1710101+9999REMSYN070AAXX  02181 58314 32970 03402 10169 20128 30049 40133 57010 333 10305;EQDQ01  00002PRCP99
0122583140999992000050221004+31400+116330FM-12+006899999V0203201N001012200019N0200001N1+01451+01131101251ADDGA1001+999999999GF100991001001999999001001MD1710091+9999REMSYN054AAXX  02211 58314 42970 03201 10145 20113 40125 57009;
0183583140999992000050300004+31400+116330FM-12+006899999V0202501N004012200019N0300001N1+02311+00981101281ADDAA199000091GA1001+999999999GF100991001001999999001001MA1999999100431MD1210031+0031REMSYN070AAXX  03001 58314 32980 02504 10231 20098 30043 40128 52003 333 05306;EQDQ01  00002PRCP99
0122583140999992000050303004+31400+116330FM-12+006899999V0202201N005012200019N0300001N1+02981+00541101211ADDGA1001+999999999GF100991001001999999001001MD1710061+9999REMSYN054AAXX  03031 58314 42980 02205 10298 20054 40121 57006;
0186583140999992000050306004+31400+116330FM-12+006899999V0202501N004012200019N0300001N1+03261+00411100991ADDAA199000091GF102991001001999999001021KA1999N+01401MA1999999100151MD1710221+9999REMSYN076AAXX  03061 58314 32980 22504 10326 20041 30015 40099 57022 80002 333 20140;EQDQ01  00002PRCP99
0122583140999992000050309004+31400+116330FM-12+006899999V0202201N003012200019N0300001N1+03141+00631100891ADDGA1001+999999999GF100991001001999999001001MD1710101+9999REMSYN054AAXX  03091 58314 42980 02203 10314 20063 40089 57010;
0173583140999992000050312004+31400+116330FM-12+006899999V0202701N003012200019N0200001N1+02661+00881101081ADDAA199000091GA1001+999999999GF100991001001999999001001MA1999999100241MD1210191+9999REMSYN060AAXX  03121 58314 32970 02703 10266 20088 30024 40108 52019;EQDQ01  00002PRCP99
0122583140999992000050315004+31400+116330FM-12+006899999V0202901N002012200019N0200001N1+02481+00861101221ADDGA1001+999999999GF100991001001999999001001MD1210151+9999REMSYN054AAXX  03151 58314 42970 02902 10248 20086 40122 52015;
0196583140999992000050318004+31400+116330FM-12+006899999V0200701N001012200019N0200001N1+01841+01091101141ADDAA199000091GA1001+999999999GF100991001001999999001001KA1999M+03311MA1999999100301MD1710091+9999REMSYN070AAXX  03181 58314 32970 00701 10184 20109 30030 40114 57009 333 10331;EQDQ01  00002PRCP99
0122583140999992000050321004+31400+116330FM-12+006899999V0200901N002012200019N0200001N1+01571+01091101121ADDGA1001+999999999GF100991001001999999001001MD1710021+9999REMSYN054AAXX  03211 58314 42970 00902 10157 20109 40112 57002;
0183583140999992000050400004+31400+116330FM-12+006899999V0209999C000012200019N0200001N1+02101+01091101281ADDAA199000091GA1001+999999999GF100991001001999999001001MA1999999100441MD1210161+0001REMSYN070AAXX  04001 58314 32970 00000 10210 20109 30044 40128 52016 333 00052;EQDQ01  00002PRCP99
0122583140999992000050403004+31400+116330FM-12+006899999V0202701N003012200019N0200001N1+03041+00891101211ADDGA1001+999999999GF100991001001999999001001MD1710061+9999REMSYN054AAXX  04031 58314 42970 02703 10304 20089 40121 57006;
0186583140999992000050406004+31400+116330FM-12+006899999V0200701N003019999999N0200001N1+03401+00501101061ADDAA199000091GF107991001001999999001021KA1999N+01551MA1999999100231MD1710151+9999REMSYN076AAXX  04061 58314 32970 70703 10340 20050 30023 40106 57015 80002 333 20155;EQDQ01  00002PRCP99
0112583140999992000050409004+31400+116330FM-12+006899999V0200901N005019999999N0200001N1+03241+00931100891ADDGF107991001001999999001021MD1710181+9999REMSYN060AAXX  04091 58314 42970 70905 10324 20093 40089 57018 80002;
0163583140999992000050412004+31400+116330FM-12+006899999V0200901N001019999999N0200001N1+02611+01431100971ADDAA199000091GF108991081001999999071999MA1999999100131MD1210081+9999REMSYN066AAXX  04121 58314 32970 80901 10261 20143 30013 40097 52008 8807/;EQDQ01  00002PRCP99
0112583140999992000050415004+31400+116330FM-12+006899999V0201401N001019999999N0200001N1+02261+01421101051ADDGF107991071001999999071999MD1210091+9999REMSYN060AAXX  04151 58314 42970 71401 10226 20142 40105 52009 8707/;
0196583140999992000050418004+31400+116330FM-12+006899999V0209999C000012200019N0200001N1+01961+01351101041ADDAA199000091GA1001+999999999GF100991001001999999001001KA1999M+03421MA1999999100211MD1710011+9999REMSYN070AAXX  04181 58314 32970 00000 10196 20135 30021 40104 57001 333 10342;EQDQ01  00002PRCP99
0112583140999992000050421004+31400+116330FM-12+006899999V0202901N001019999999N0200001N1+01721+01221101001ADDGF106991061001999999041001MD1710051+9999REMSYN060AAXX  04211 58314 42970 62901 10172 20122 40100 57005 86040;
0173583140999992000050500004+31400+116330FM-12+006899999V0209999C000019999999N0200001N1+01901+01301101141ADDAA199000091GF105991001001999999001021MA1999999100291MD1210131+0021REMSYN076AAXX  05001 58314 32970 50000 10190 20130 30029 40114 52013 80002 333 05252;EQDQ01  00002PRCP99
0141583140999992000050503004+31400+116330FM-12+006899999V0202201N003012200019N0200001N1+03302+00421101131ADDGA1001+999999999GF100991001001999999001001MD1210011+9999REMSYN054AAXX  05031 58314 42970 02203 10330 20042 40113 52001;EQDQ01+003303ATOT  
0196583140999992000050506004+31400+116330FM-12+006899999V0201401N002012200019N0200001N1+03541+00231100931ADDAA199000091GA1001+999999999GF100991001001999999001001KA1999N+01621MA1999999100101MD1710201+9999REMSYN070AAXX  05061 58314 32970 01402 10354 20023 30010 40093 57020 333 20162;EQDQ01  00002PRCP99
0122583140999992000050509004+31400+116330FM-12+006899999V0200901N004012200019N0200001N1+03461+00701100891ADDGA1001+999999999GF100991001001999999001001MD1710041+9999REMSYN054AAXX  05091 58314 42970 00904 10346 20070 40089 57004;
0163583140999992000050512004+31400+116330FM-12+006899999V0203201N001012200019N0200001N1+02641+01471101131ADDAA199000091GF102991001001999999001021MA1999999100281MD1210221+9999REMSYN066AAXX  05121 58314 32970 23201 10264 20147 30028 40113 52022 80002;EQDQ01  00002PRCP99
0112583140999992000050515004+31400+116330FM-12+006899999V0203401N004019999999N0150001N1+02391+01511101601ADDGF106991001001999999001021MD1210491+9999REMSYN060AAXX  05151 58314 42965 63404 10239 20151 40160 52049 80002;
0196583140999992000050518004+31400+116330FM-12+006899999V0203401N002012200019N0150001N1+02081+01411101571ADDAA199000091GA1001+999999999GF100991001001999999001001KA1999M+03611MA1999999100741MD1710031+9999REMSYN070AAXX  05181 58314 32965 03402 10208 20141 30074 40157 57003 333 10361;EQDQ01  00002PRCP99
0112583140999992000050521004+31400+116330FM-12+006899999V0203401N003019999999N0150001N1+01831+01281101851ADDGF107991071001999999071999MD1210271+9999REMSYN060AAXX  05211 58314 42965 73403 10183 20128 40185 52027 8707/;
0173583140999992000050600004+31400+116330FM-12+006899999V0200201N002019999999N0200001N1+01541+01031102081ADDAA199000091GF108991081001999999071999MA1999999101221MD1210211+0091REMSYN076AAXX  06001 58314 32970 80202 10154 20103 30122 40208 52021 8807/ 333 00954;EQDQ01  00002PRCP99
0112583140999992000050603004+31400+116330FM-12+006899999V0203401N002019999999N0200001N1+01621+00881102221ADDGF108991081001999999071999MD1210141+9999REMSYN060AAXX  06031 58314 42970 83402 10162 20088 40222 52014 8807/;
0193583140999992000050606004+31400+116330FM-12+006899999V0201601N001019999999N0200001N1+01831+01181102051ADDAA106000391AY161061GF107991071001999999071999KA1999N+01501MA1999999101191MD1710171+9999MW1211REMSYN088AAXX  06061 58314 11970 71601 10183 20118 30119 40205 57017 69931 72160 8707/ 333 20150;
0112583140999992000050609004+31400+116330FM-12+006899999V0200401N002019999999N0200001N1+02081+01251101851ADDGF107991071001999999071999MD1710201+9999REMSYN060AAXX  06091 58314 42970 70402 10208 20125 40185 57020 8707/;
0144583140999992000050612004+31400+116330FM-12+006899999V0201401N001019999999N0200001N1+01881+01301101891ADDAA199000021GF108991081001999999071999MA1999999101021MD1210031+9999REMSYN066AAXX  06121 58314 32970 81401 10188 20130 30102 40189 52003 8807/;
0112583140999992000050615004+31400+116330FM-12+006899999V0201101N002019999999N0200001N1+01601+01311101941ADDGF108991081001999999071999MD1210051+9999REMSYN060AAXX  06151 58314 42970 81102 10160 20131 40194 52005 8807/;
0167583140999992000050618004+31400+116330FM-12+006899999V0201401N002019999999N0150001N1+01401+01251101871ADDAA199000021GF107991071001999999071999KA1999M+02101MA1999999101001MD1710071+9999REMSYN076AAXX  06181 58314 32965 71402 10140 20125 30100 40187 57007 8707/ 333 10210;
0133583140999992000050621004+31400+116330FM-12+006899999V0209999C000019999999N0150001N1+01341+01251101771ADDAA124000391GF106991061001999999041001MD1710101+9999REMSYN070AAXX  06211 58314 42965 60000 10134 20125 40177 57010 86040 333 70003;
0170583140999992000050700004+31400+116330FM-12+006899999V0200901N001012200019N0150001N1+01701+01331101861ADDAA124000391GA1001+999999999GF100991001001999999001001MA1999999100991MD1210091-0201REMSYN076AAXX  07001 58314 32965 00901 10170 20133 30099 40186 52009 333 05202 70003;
0112583140999992000050703004+31400+116330FM-12+006899999V0201101N002019999999N0200001N1+02261+01211101761ADDGF106991061001999999041001MD1710091+9999REMSYN060AAXX  07031 58314 42970 61102 10226 20121 40176 57009 86040;
0186583140999992000050706004+31400+116330FM-12+006899999V0200701N005012200019N0200001N1+02541+01231101531ADDAA199000091GF104991041001999999041001KA1999N+01321MA1999999100671MD1710231+9999REMSYN076AAXX  07061 58314 32970 40705 10254 20123 30067 40153 57023 84040 333 20132;EQDQ01  00002PRCP99
0122583140999992000050709004+31400+116330FM-12+006899999V0200901N003012200019N0200001N1+02601+01221101311ADDGA1001+999999999GF100991001001999999001001MD1710221+9999REMSYN054AAXX  07091 58314 42970 00903 10260 20122 40131 57022;
0163583140999992000050712004+31400+116330FM-12+006899999V0200701N002012200019N0200001N1+02211+01331101371ADDAA199000091GF104991001001999999001021MA1999999100511MD1210061+9999REMSYN066AAXX  07121 58314 32970 40702 10221 20133 30051 40137 52006 80002;EQDQ01  00002PRCP99
0122583140999992000050715004+31400+116330FM-12+006899999V0203201N001012200019N0200001N1+01861+01471101381ADDGA1001+999999999GF100991001001999999001001MD1210021+9999REMSYN054AAXX  07151 58314 42970 03201 10186 20147 40138 52002;
0196583140999992000050718004+31400+116330FM-12+006899999V0202701N002012200019N0150001N1+01621+01431101321ADDAA199000091GA1001+999999999GF100991001001999999001001KA1999M+02681MA1999999100471MD1710061+9999REMSYN070AAXX  07181 58314 32965 02702 10162 20143 30047 40132 57006 333 10268;EQDQ01  00002PRCP99
0122583140999992000050721004+31400+116330FM-12+006899999V0209999C000012200019N0150001N1+01551+01391101271ADDGA1001+999999999GF100991001001999999001001MD1710051+9999REMSYN054AAXX  07211 58314 42965 00000 10155 20139 40127 57005;
0183583140999992000050800004+31400+116330FM-12+006899999V0203401N001012200019N0150001N1+01731+01401101321ADDAA199000091GA1001+999999999GF100991001001999999001001MA1999999100461MD1210041+0051REMSYN070AAXX  08001 58314 32965 03401 10173 20140 30046 40132 52004 333 05500;EQDQ01  00002PRCP99
0122583140999992000050803004+31400+116330FM-12+006899999V0200901N003012200019N0200001N1+02781+01301101161ADDGA1001+999999999GF100991001001999999001001MD1710141+9999REMSYN054AAXX  08031 58314 42970 00903 10278 20130 40116 57014;
0186583140999992000050806004+31400+116330FM-12+006899999V0200701N001012200019N0250001N1+03161+01351100891ADDAA199000091GF101991001001999999001021KA1999N+01531MA1999999100051MD1710271+9999REMSYN076AAXX  08061 58314 32975 10701 10316 20135 30005 40089 57027 80002 333 20153;EQDQ01  00002PRCP99
0112583140999992000050809004+31400+116330FM-12+006899999V0200901N003019999999N0250001N1+03011+01511100721ADDGF107991071001999999071999MD1710171+9999REMSYN060AAXX  08091 58314 42975 70903 10301 20151 40072 57017 8707/;
0163583140999992000050812004+31400+116330FM-12+006899999V0209999C000019999999N0200001N1+02641+01831100861ADDAA199000091GF108991081001999999071999MA1999999100011MD1210131+9999REMSYN066AAXX  08121 58314 32970 80000 10264 20183 30001 40086 52013 8807/;EQDQ01  00002PRCP99
0112583140999992000050815004+31400+116330FM-12+006899999V0201601N002019999999N0200001N1+02481+01721100851ADDGF108991081001999999071999MD1210011+9999REMSYN060AAXX  08151 58314 42970 81602 10248 20172 40085 52001 8807/;
0186583140999992000050818004+31400+116330FM-12+006899999V0201401N001019999999N0120001N1+02281+01751100671ADDAA199000091GF108991081001999999071999KA1999M+03201MA1999999099841MD1710181+9999REMSYN076AAXX  08181 58314 32962 81401 10228 20175 39984 40067 57018 8807/ 333 10320;EQDQ01  00002PRCP99
0112583140999992000050821004+31400+116330FM-12+006899999V0200701N001019999999N0120001N1+02061+01751100591ADDGF108991081001999999071999MD1710081+9999REMSYN060AAXX  08211 58314 42962 80701 10206 20175 40059 57008 8807/;
0186583140999992000050900004+31400+116330FM-12+006899999V0203401N002010075019N0070001N1+01961+01831100731ADDAA106002091AY161061GF108991081051008001999999MA1999999099891MD1210131-0601MW1601REMSYN094AAXX  09001 58314 11557 83402 10196 20183 39989 40073 52013 60021 76060 885// 333 05602 70020;
0140583140999992000050903004+31400+116330FM-12+006899999V0203401N002010075019N0060001N1+01981+01891100801ADDAY161031AY261031GF108991081051008001999999MD1210071+9999MW1601REMSYN066AAXX  09031 58314 41556 83402 10198 20189 40080 52007 76066 885//;
0201583140999992000050906004+31400+116330FM-12+006899999V0202701N002019999999N0120001N1+01951+01771100701ADDAA106018091AY161061AY261061GF108991081001999999071999KA1999N+01861MA1999999099851MD1710111+9999MW1211REMSYN088AAXX  09061 58314 11962 82702 10195 20177 39985 40070 57011 60181 72166 8807/ 333 20186;
0112583140999992000050909004+31400+116330FM-12+006899999V0209999C000019999999N0120001N1+02131+01601100691ADDGF107991071001999999071999MD1710011+9999REMSYN060AAXX  09091 58314 42962 70000 10213 20160 40069 57001 8707/;
0154583140999992000050912004+31400+116330FM-12+006899999V0201401N001012200019N0120001N1+01911+01651100921ADDAA199000021GA1001+999999999GF100991001001999999001001MA1999999100071MD1210231+9999REMSYN060AAXX  09121 58314 32962 01401 10191 20165 30007 40092 52023;
0122583140999992000050915004+31400+116330FM-12+006899999V0209999C000012200019N0200001N1+01641+01491101141ADDGA1001+999999999GF100991001001999999001001MD1210211+9999REMSYN054AAXX  09151 58314 42970 00000 10164 20149 40114 52021;
0177583140999992000050918004+31400+116330FM-12+006899999V0201401N002012200019N0150001N1+01501+01381100971ADDAA199000021GA1001+999999999GF100991001001999999001001KA1999M+02281MA1999999100111MD1710171+9999REMSYN070AAXX  09181 58314 32965 01402 10150 20138 30011 40097 57017 333 10228;
0143583140999992000050921004+31400+116330FM-12+006899999V0202901N003012200019N0150001N1+01371+01281101011ADDAA124020191GA1001+999999999GF100991001001999999001001MD1210041+9999REMSYN064AAXX  09211 58314 42965 02903 10137 20128 40101 52004 333 70201;
0170583140999992000051000004+31400+116330FM-12+006899999V0203201N001012200019N0150001N1+01651+01331101151ADDAA124018091GA1001+999999999GF100991001001999999001001MA1999999100291MD1210141+0401REMSYN076AAXX  10001 58314 32965 03201 10165 20133 30029 40115 52014 333 00453 70181;
0122583140999992000051003004+31400+116330FM-12+006899999V0200201N002012200019N0200001N1+02461+01261101071ADDGA1001+999999999GF100991001001999999001001MD1710071+9999REMSYN054AAXX  10031 58314 42970 00202 10246 20126 40107 57007;
0196583140999992000051006004+31400+116330FM-12+006899999V0200401N002012200019N0200001N1+02761+01401100871ADDAA199000091GA1001+999999999GF100991001001999999001001KA1999N+01351MA1999999100021MD1710201+9999REMSYN070AAXX  10061 58314 32970 00402 10276 20140 30002 40087 57020 333 20135;EQDQ01  00002PRCP99
0173583140999992000051012004+31400+116330FM-12+006899999V0200901N002012200019N0200001N1+02341+01751101021ADDAA199000091GA1001+999999999GF100991001001999999001001MA1999999100171MD1210231+9999REMSYN060AAXX  10121 58314 32970 00902 10234 20175 30017 40102 52023;EQDQ01  00002PRCP99
0112583140999992000051015004+31400+116330FM-12+006899999V0201601N002019999999N0150001N1+02081+01651101121ADDGF107991071001999999071999MD1210101+9999REMSYN060AAXX  10151 58314 42965 71602 10208 20165 40112 52010 8707/;
0196583140999992000051018004+31400+116330FM-12+006899999V0203401N001012200019N0200001N1+01721+01591101011ADDAA199000091GA1001+999999999GF100991001001999999001001KA1999M+02801MA1999999100161MD1710111+9999REMSYN070AAXX  10181 58314 32970 03401 10172 20159 30016 40101 57011 333 10280;EQDQ01  00002PRCP99
0122583140999992000051021004+31400+116330FM-12+006899999V0203201N001012200019N0100001N1+01541+01471100991ADDGA1001+999999999GF100991001001999999001001MD1710021+9999REMSYN054AAXX  10211 58314 42960 03201 10154 20147 40099 57002;
0203583140999992000051100004+31400+116330FM-12+006899999V0209999C000012200019N0050001N1+01581+01511101051ADDAA199000091AY141061GA1001+999999999GF100991001001999999001001MA1999999100201MD1210061+0011MW1281REMSYN076AAXX  11001 58314 31950 00000 10158 20151 30020 40105 52006 72840 333 05151;EQDQ01  00002PRCP99
0112583140999992000051103004+31400+116330FM-12+006899999V0200901N003019999999N0120001N1+02351+01711100831ADDGF108991081001999999071999MD1710211+9999REMSYN060AAXX  11031 58314 42962 80903 10235 20171 40083 57021 8807/;
0186583140999992000051106004+31400+116330FM-12+006899999V0203601N004019999999N0200001N1+02621+01381100851ADDAA199000091GF107991071001999999071999KA1999N+01491MA1999999100001MD1210011+9999REMSYN076AAXX  11061 58314 32970 73604 10262 20138 30000 40085 52001 8707/ 333 20149;EQDQ01  00002PRCP99
0132583140999992000051109004+31400+116330FM-12+006899999V0201601N003019999999N0150001N1+01971+01661100851ADDAY161031GF108991081001999999071999MD1710011+9999MW1601REMSYN066AAXX  11091 58314 41965 81603 10197 20166 40085 57001 76060 8807/;
0170583140999992000051112004+31400+116330FM-12+006899999V0202701N001019999999N0150001N1+01951+01671100631ADDAA106001091AY161061GF107991071001999999071999MA1999999099771MD1710221+9999MW1001REMSYN078AAXX  11121 58314 11965 72701 10195 20167 39977 40063 57022 60011 70060 8707/;
0177583140999992000051118004+31400+116330FM-12+006899999V0209999C000012200019N0200001N1+01711+01581100721ADDAA199000021GA1001+999999999GF100991001001999999001001KA1999M+02621MA1999999099881MD1710041+9999REMSYN070AAXX  11181 58314 32970 00000 10171 20158 39988 40072 57004 333 10262;
0143583140999992000051121004+31400+116330FM-12+006899999V0200701N001012200019N0200001N1+01721+01571100551ADDAA124001091GA1001+999999999GF100991001001999999001001MD1710181+9999REMSYN064AAXX  11211 58314 42970 00701 10172 20157 40055 57018 333 70010;
0170583140999992000051200004+31400+116330FM-12+006899999V0209999C000012200019N0100001N1+01961+01701100561ADDAA124001091GA1001+999999999GF100991001001999999001001MA1999999099711MD1210011-0501REMSYN076AAXX  12001 58314 32960 00000 10196 20170 39971 40056 52001 333 05504 70010;
0134583140999992000051203004+31400+116330FM-12+006899999V0202701N005012200019N0080001N1+02781+01351100541ADDGA1001+999999999GF100991001001999999001001MD1710011+9999MW1061REMSYN060AAXX  12031 58314 41958 02705 10278 20135 40054 57001 70600;
0208583140999992000051206004+31400+116330FM-12+006899999V0203201N005012200019N0080001N1+03041+00142100391ADDAA199000091GA1001+999999999GF100991001001999999001001KA1999N+01681MA1999999099551MD1710151+9999MW1061REMSYN076AAXX  12061 58314 31958 03205 10304 20014 39955 40039 57015 70600 333 20168;EQDQ01  00002PRCP99
0134583140999992000051209004+31400+116330FM-12+006899999V0203401N003012200019N0080001N1+03001+00561100351ADDGA1001+999999999GF100991001001999999001001MD1710041+9999MW1061REMSYN060AAXX  12091 58314 41958 03403 10300 20056 40035 57004 70600;
0173583140999992000051212004+31400+116330FM-12+006899999V0201601N001012200019N0120001N1+02461+00881100651ADDAA199000091GA1001+999999999GF100991001001999999001001MA1999999099811MD1210301+9999REMSYN060AAXX  12121 58314 32962 01601 10246 20088 39981 40065 52030;EQDQ01  00002PRCP99
0122583140999992000051215004+31400+116330FM-12+006899999V0202701N001012200019N0150001N1+01981+01201100781ADDGA1001+999999999GF100991001001999999001001MD1210131+9999REMSYN054AAXX  12151 58314 42965 02701 10198 20120 40078 52013;
0196583140999992000051218004+31400+116330FM-12+006899999V0202901N002012200019N0150001N1+01601+01261100811ADDAA199000091GA1001+999999999GF100991001001999999001001KA1999M+03101MA1999999099971MD1210031+9999REMSYN070AAXX  12181 58314 32965 02902 10160 20126 39997 40081 52003 333 10310;EQDQ01  00002PRCP99
0122583140999992000051221004+31400+116330FM-12+006899999V0203401N001012200019N0150001N1+01501+01191100901ADDGA1001+999999999GF100991001001999999001001MD1210091+9999REMSYN054AAXX  12211 58314 42965 03401 10150 20119 40090 52009;
0183583140999992000051300004+31400+116330FM-12+006899999V0209999C000012200019N0200001N1+01751+01171101091ADDAA199000091GA1001+999999999GF100991001001999999001001MA1999999100241MD1210181+0051REMSYN070AAXX  13001 58314 32970 00000 10175 20117 30024 40109 52018 333 00552;EQDQ01  00002PRCP99
0122583140999992000051303004+31400+116330FM-12+006899999V0200401N001012200019N0200001N1+02381+01281101031ADDGA1001+999999999GF100991001001999999001001MD1710061+9999REMSYN054AAXX  13031 58314 42970 00401 10238 20128 40103 57006;
0186583140999992000051306004+31400+116330FM-12+006899999V0200901N002019999999N0200001N1+02701+01341100811ADDAA199000091GF107991001001999999001021KA1999N+01451MA1999999099961MD1710221+9999REMSYN076AAXX  13061 58314 32970 70902 10270 20134 39996 40081 57022 80002 333 20145;EQDQ01  00002PRCP99
0112583140999992000051309004+31400+116330FM-12+006899999V0200901N004019999999N0200001N1+02641+01451100721ADDGF107991001001999999001021MD1710091+9999REMSYN060AAXX  13091 58314 42970 70904 10264 20145 40072 57009 80002;
0163583140999992000051312004+31400+116330FM-12+006899999V0201101N003019999999N0150001N1+02321+01511100771ADDAA199000091GF107991071001999999071999MA1999999099921MD1210051+9999REMSYN066AAXX  13121 58314 32965 71103 10232 20151 39992 40077 52005 8707/;EQDQ01  00002PRCP99
0122583140999992000051315004+31400+116330FM-12+006899999V0202701N001012200019N0150001N1+01961+01581100841ADDGA1001+999999999GF100991001001999999001001MD1210071+9999REMSYN054AAXX  13151 58314 42965 02701 10196 20158 40084 52007;
0186583140999992000051318004+31400+116330FM-12+006899999V0209999C000012200019N0200001N1+01751+01601100681ADDAA199000091GF102991021001999999041001KA1999M+02751MA1999999099841MD1710151+9999REMSYN076AAXX  13181 58314 32970 20000 10175 20160 39984 40068 57015 82040 333 10275;EQDQ01  00002PRCP99
0112583140999992000051321004+31400+116330FM-12+006899999V0202701N002019999999N0150001N1+01631+01511100701ADDGF107991001001999999001021MD1210011+9999REMSYN060AAXX  13211 58314 42965 72702 10163 20151 40070 52001 80002;
0183583140999992000051400004+31400+116330FM-12+006899999V0202701N001012200019N0200001N1+01931+01631100731ADDAA199000091GA1001+999999999GF100991001001999999001001MA1999999099881MD1210031+0041REMSYN070AAXX  14001 58314 32970 02701 10193 20163 39988 40073 52003 333 05402;EQDQ01  00002PRCP99
0131583140999992000051403004+31400+116330FM-12+006899999V0202501N005019999999N0200001N1+03352+01481100491ADDGF107991001001999999001021MD1710221+9999REMSYN060AAXX  14031 58314 42970 72505 10335 20148 40049 57022 80002;EQDQ01+003353ATOT  
0186583140999992000051406004+31400+116330FM-12+006899999V0202701N005010900019N0200001N1+03591+01551100261ADDAA199000091GF107991011011012501001021KA1999N+01601MA1999999099431MD1710231+9999REMSYN076AAXX  14061 58314 32670 72705 10359 20155 39943 40026 57023 81102 333 20160;EQDQ01  00002PRCP99
0124583140999992000051409004+31400+116330FM-12+006899999V0202501N003010120019N0200001N1+03341+01401100241ADDGF108991061091012501071999MD1710021+9999MW1171REMSYN066AAXX  14091 58314 41670 82503 10334 20140 40024 57002 71700 8697/;
0178583140999992000051412004+31400+116330FM-12+006899999V0203401N001010360019N0150001N1+02641+02091100601ADDAA106000791AY191061AY281061GF108991031091012501071999MA1999999099761MD1210351+9999MW1801REMSYN078AAXX  14121 58314 11665 83401 10264 20209 39976 40060 52035 69901 78098 8397/;
0112583140999992000051415004+31400+116330FM-12+006899999V0202901N003019999999N0150001N1+02361+02061100851ADDGF108991081001999999071999MD1210261+9999REMSYN060AAXX  14151 58314 42965 82903 10236 20206 40085 52026 8807/;
0201583140999992000051418004+31400+116330FM-12+006899999V0201801N002010120019N0120001N1+02301+02071100621ADDAA106000191AY191061AY281061GF108991081091012501999999KA1999M+03631MA1999999099801MD1710221+9999MW1911REMSYN088AAXX  14181 58314 11662 81802 10230 20207 39980 40062 57022 69921 79198 889// 333 10363;
0153583140999992000051421004+31400+116330FM-12+006899999V0202701N003010075019N0150001N1+02181+02031100711ADDAA124000391AY181031GF108991081051008001999999MD1210081+9999MW1001REMSYN076AAXX  14211 58314 41565 82703 10218 20203 40071 52008 70080 885// 333 70002;
0186583140999992000051500004+31400+116330FM-12+006899999V0202701N002019999999N0080001N1+02351+01901100871ADDAA106000791AY181061GF107991071001999999041999MA1999999100031MD1210151+0201MW1101REMSYN094AAXX  15001 58314 11958 72702 10235 20190 30003 40087 52015 69901 71080 8704/ 333 00204 70002;
0112583140999992000051503004+31400+116330FM-12+006899999V0200401N001019999999N0100001N1+02611+02151100881ADDGF107991071001999999041999MD1210011+9999REMSYN060AAXX  15031 58314 42960 70401 10261 20215 40088 52001 8704/;
0167583140999992000051506004+31400+116330FM-12+006899999V0200901N003019999999N0150001N1+03181+02021100601ADDAA199000021GF107991071001999999041999KA1999N+02151MA1999999099771MD1710271+9999REMSYN076AAXX  15061 58314 32965 70903 10318 20202 39977 40060 57027 8704/ 333 20215;
0112583140999992000051509004+31400+116330FM-12+006899999V0200701N002019999999N0150001N1+03001+01981100651ADDGF108991081001999999071999MD1210051+9999REMSYN060AAXX  15091 58314 42965 80702 10300 20198 40065 52005 8807/;
0162583140999992000051512004+31400+116330FM-12+006899999V0201601N003019999999N0200001N1+02541+02091101011ADDAA106003091GF108991081001999999071999MA1999999100171MD1210351+9999MW1601REMSYN078AAXX  15121 58314 11970 81603 10254 20209 30017 40101 52035 60031 76000 8807/;
0140583140999992000051515004+31400+116330FM-12+006899999V0203401N002019999999N0150001N1+02161+01931101231ADDAY191031AY281031GF108991081001999999071999MD1210221+9999MW1001REMSYN066AAXX  15151 58314 41965 83402 10216 20193 40123 52022 70098 8807/;
0201583140999992000051518004+31400+116330FM-12+006899999V0202201N002019999999N0100001N1+02101+01781101211ADDAA106016091AY191061AY281061GF108991081001999999071999KA1999M+03251MA1999999100371MD1710021+9999MW1001REMSYN088AAXX  15181 58314 11960 82202 10210 20178 30037 40121 57002 60161 70098 8807/ 333 10325;
0133583140999992000051521004+31400+116330FM-12+006899999V0200701N002019999999N0120001N1+01971+01731101261ADDAA124019191GF108991081001999999071999MD1210051+9999REMSYN070AAXX  15211 58314 42962 80702 10197 20173 40126 52005 8807/ 333 70190;
0172583140999992000051600004+31400+116330FM-12+006899999V0203401N002019999999N0070001N1+01961+01661101521ADDAA124019191GF108991081001999999071999MA1999999100671MD1210251+0601MW1101REMSYN088AAXX  16001 58314 31957 83402 10196 20166 30067 40152 52025 71000 8807/ 333 00654 70190;
0124583140999992000051603004+31400+116330FM-12+006899999V0202201N003019999999N0060001N1+02021+01621101491ADDGF108991081001999999071999MD1710031+9999MW1601REMSYN066AAXX  16031 58314 41956 82203 10202 20162 40149 57003 76000 8807/;
0193583140999992000051606004+31400+116330FM-12+006899999V0209999C000019999999N0090001N1+02101+01621101321ADDAA106000391AY161061GF108991081001999999071999KA1999N+01931MA1999999100471MD1710171+9999MW1211REMSYN088AAXX  16061 58314 11959 80000 10210 20162 30047 40132 57017 69931 72160 8807/ 333 20193;
0112583140999992000051609004+31400+116330FM-12+006899999V0202701N002019999999N0120001N1+02161+01531101241ADDGF107991071001999999071999MD1710081+9999REMSYN060AAXX  16091 58314 42962 72702 10216 20153 40124 57008 8707/;
0144583140999992000051612004+31400+116330FM-12+006899999V0209999C000019999999N0200001N1+01941+01631101271ADDAA199000021GF107991001001999999001021MA1999999100411MD1210021+9999REMSYN066AAXX  16121 58314 32970 70000 10194 20163 30041 40127 52002 80002;
0112583140999992000051615004+31400+116330FM-12+006899999V0202701N001012200019N0200001N1+01691+01551101401ADDGF104991001001999999001021MD1210131+9999REMSYN060AAXX  16151 58314 42970 42701 10169 20155 40140 52013 80002;
0177583140999992000051618004+31400+116330FM-12+006899999V0209999C000012200019N0150001N1+01561+01461101301ADDAA199000021GA1001+999999999GF100991001001999999001001KA1999M+02181MA1999999100441MD1710101+9999REMSYN070AAXX  16181 58314 32965 00000 10156 20146 30044 40130 57010 333 10218;
0133583140999992000051621004+31400+116330FM-12+006899999V0201401N001012200019N0040001N1+01431+01361101341ADDGF103991999999999999999999MD1210041+9999MW1101REMSYN075AAXX  16211 58314 41940 31401 10143 20136 40134 52004 71000 8340 333 70003;
0190583140999992000051700004+31400+116330FM-12+006899999V0202701N001012200019N0080001N1+01621+01481101361ADDAA124000391AY141061GA1001+999999999GF100991001001999999001001MA1999999100501MD1210021-0201MW1101REMSYN082AAXX  17001 58314 31958 02701 10162 20148 30050 40136 52002 71040 333 05253 70003;
0122583140999992000051703004+31400+116330FM-12+006899999V0203401N002012200019N0100001N1+02381+01621101231ADDGA1001+999999999GF100991001001999999001001MD1710121+9999REMSYN054AAXX  17031 58314 42960 03402 10238 20162 40123 57012;
0186583140999992000051706004+31400+116330FM-12+006899999V0201401N002019999999N0150001N1+02661+01241100991ADDAA199000091GF108991001001999999001071KA1999N+01381MA1999999100141MD1710241+9999REMSYN076AAXX  17061 58314 32965 81402 10266 20124 30014 40099 57024 80007 333 20138;EQDQ01  00002PRCP99
0112583140999992000051709004+31400+116330FM-12+006899999V0200901N002019999999N0200001N1+02701+01451100871ADDGF108991001001999999001071MD1710121+9999REMSYN060AAXX  17091 58314 42970 80902 10270 20145 40087 57012 80007;
0163583140999992000051712004+31400+116330FM-12+006899999V0200901N001019999999N0150001N1+02331+01701100931ADDAA199000091GF107991001001999999001021MA1999999100081MD1210061+9999REMSYN066AAXX  17121 58314 32965 70901 10233 20170 30008 40093 52006 80002;EQDQ01  00002PRCP99
0112583140999992000051715004+31400+116330FM-12+006899999V0201801N001019999999N0150001N1+02121+01731100981ADDGF108991081001999999071999MD1210061+9999REMSYN060AAXX  17151 58314 42965 81801 10212 20173 40098 52006 8807/;
0186583140999992000051718004+31400+116330FM-12+006899999V0200701N002019999999N0150001N1+02021+01731100831ADDAA199000091GF108991081001999999071999KA1999M+02721MA1999999099991MD1710151+9999REMSYN076AAXX  17181 58314 32965 80702 10202 20173 39999 40083 57015 8807/ 333 10272;EQDQ01  00002PRCP99
0112583140999992000051721004+31400+116330FM-12+006899999V0203201N004019999999N0150001N1+02121+01521100751ADDGF108991081001999999071999MD1710081+9999REMSYN060AAXX  17211 58314 42965 83204 10212 20152 40075 57008 8807/;
0160583140999992000051800004+31400+116330FM-12+006899999V0209999C000019999999N0120001N1+02191+01641100851ADDAA124000791GF108991081001999999071999MA1999999100011MD1210101-0501REMSYN082AAXX  18001 58314 32962 80000 10219 20164 30001 40085 52010 8807/ 333 05506 79999;
0112583140999992000051803004+31400+116330FM-12+006899999V0202901N003019999999N0150001N1+02651+01581100901ADDGF108991081001999999071999MD1210051+9999REMSYN060AAXX  18031 58314 42965 82903 10265 20158 40090 52005 8807/;
0186583140999992000051806004+31400+116330FM-12+006899999V0203201N003019999999N0150001N1+03021+01611100671ADDAA199000091GF107991071001999999071999KA1999N+02011MA1999999099841MD1710221+9999REMSYN076AAXX  18061 58314 32965 73203 10302 20161 39984 40067 57022 8707/ 333 20201;EQDQ01  00002PRCP99
0112583140999992000051809004+31400+116330FM-12+006899999V0202501N003019999999N0150001N1+02821+01761100571ADDGF107991071001999999071999MD1710111+9999REMSYN060AAXX  18091 58314 42965 72503 10282 20176 40057 57011 8707/;
0163583140999992000051812004+31400+116330FM-12+006899999V0202201N006019999999N0150001N1+02501+01511100721ADDAA199000091GF108991081001999999071999MA1999999099881MD1210151+9999REMSYN066AAXX  18121 58314 32965 82206 10250 20151 39988 40072 52015 8807/;EQDQ01  00002PRCP99
0112583140999992000051815004+31400+116330FM-12+006899999V0202501N007019999999N0150001N1+02371+01471100851ADDGF107991001001999999001021MD1210131+9999REMSYN060AAXX  18151 58314 42965 72507 10237 20147 40085 52013 80002;
0196583140999992000051818004+31400+116330FM-12+006899999V0202501N006012200019N0200001N1+02281+01521100781ADDAA199000091GA1001+999999999GF100991001001999999001001KA1999M+03031MA1999999099951MD1710061+9999REMSYN070AAXX  18181 58314 32970 02506 10228 20152 39995 40078 57006 333 10303;EQDQ01  00002PRCP99
0112583140999992000051821004+31400+116330FM-12+006899999V0202501N005019999999N0200001N1+02211+01381100701ADDGF107991001001999999001021MD1710081+9999REMSYN060AAXX  18211 58314 42970 72505 10221 20138 40070 57008 80002;
0173583140999992000051900004+31400+116330FM-12+006899999V0202701N004012200019N0300001N1+02381+01361100811ADDAA199000091GF103991001001999999001021MA1999999099971MD1210101+0001REMSYN076AAXX  19001 58314 32980 32704 10238 20136 39997 40081 52010 80002 333 00002;EQDQ01  00002PRCP99
0112583140999992000051903004+31400+116330FM-12+006899999V0202701N003012200019N0300001N1+02881+01221100781ADDGF102991001001999999001021MD1710021+9999REMSYN060AAXX  19031 58314 42980 22703 10288 20122 40078 57002 80002;
0186583140999992000051906004+31400+116330FM-12+006899999V0202901N007012200019N0300001N1+03141+01091100601ADDAA199000091GF101991011011012501001001KA1999N+02151MA1999999099771MD1710181+9999REMSYN076AAXX  19061 58314 32680 12907 10314 20109 39977 40060 57018 81100 333 20215;EQDQ01  00002PRCP99
0112583140999992000051909004+31400+116330FM-12+006899999V0203201N003012200019N0300001N1+03151+01001100551ADDGF103991031011012501001001MD1710051+9999REMSYN060AAXX  19091 58314 42680 33203 10315 20100 40055 57005 83100;
0163583140999992000051912004+31400+116330FM-12+006899999V0202201N002012200019N0150001N1+02661+01311100791ADDAA199000091GF103991031001999999041001MA1999999099951MD1210231+9999REMSYN066AAXX  19121 58314 32965 32202 10266 20131 39995 40079 52023 83040;EQDQ01  00002PRCP99
0122583140999992000051915004+31400+116330FM-12+006899999V0203201N001012200019N0150001N1+02151+01641100981ADDGA1001+999999999GF100991001001999999001001MD1210191+9999REMSYN054AAXX  19151 58314 42965 03201 10215 20164 40098 52019;
0196583140999992000051918004+31400+116330FM-12+006899999V0200201N001012200019N0200001N1+01971+01441100911ADDAA199000091GA1001+999999999GF100991001001999999001001KA1999M+03231MA1999999100071MD1710071+9999REMSYN070AAXX  19181 58314 32970 00201 10197 20144 30007 40091 57007 333 10323;EQDQ01  00002PRCP99
0122583140999992000051921004+31400+116330FM-12+006899999V0202501N001012200019N0200001N1+01741+01471100991ADDGA1001+999999999GF100991001001999999001001MD1210081+9999REMSYN054AAXX  19211 58314 42970 02501 10174 20147 40099 52008;
0183583140999992000052000004+31400+116330FM-12+006899999V0209999C000012200019N0150001N1+02161+01601101061ADDAA199000091GA1001+999999999GF100991001001999999001001MA1999999100221MD1210071+0031REMSYN070AAXX  20001 58314 32965 00000 10216 20160 30022 40106 52007 333 00352;EQDQ01  00002PRCP99
0122583140999992000052003004+31400+116330FM-12+006899999V0209999C000012200019N0200001N1+03001+01521101011ADDGA1001+999999999GF100991001001999999001001MD1710051+9999REMSYN054AAXX  20031 58314 42970 00000 10300 20152 40101 57005;
0196583140999992000052006004+31400+116330FM-12+006899999V0209999C000012200019N0200001N1+03361+00811100821ADDAA199000091GA1001+999999999GF100991001001999999001001KA1999N+01701MA1999999099991MD1710181+9999REMSYN070AAXX  20061 58314 32970 00000 10336 20081 39999 40082 57018 333 20170;EQDQ01  00002PRCP99
0122583140999992000052009004+31400+116330FM-12+006899999V0200901N005012200019N0200001N1+03301+01141100661ADDGA1001+999999999GF100991001001999999001001MD1710161+9999REMSYN054AAXX  20091 58314 42970 00905 10330 20114 40066 57016;
0173583140999992000052012004+31400+116330FM-12+006899999V0209999C000012200019N0200001N1+02741+01811100741ADDAA199000091GA1001+999999999GF100991001001999999001001MA1999999099901MD1210071+9999REMSYN060AAXX  20121 58314 32970 00000 10274 20181 39990 40074 52007;EQDQ01  00002PRCP99
0122583140999992000052015004+31400+116330FM-12+006899999V0203401N001012200019N0200001N1+02341+01621100881ADDGA1001+999999999GF100991001001999999001001MD1210151+9999REMSYN054AAXX  20151 58314 42970 03401 10234 20162 40088 52015;
0196583140999992000052018004+31400+116330FM-12+006899999V0202701N002012200019N0200001N1+02501+01251100811ADDAA199000091GA1001+999999999GF100991001001999999001001KA1999M+03401MA1999999099991MD1710061+9999REMSYN070AAXX  20181 58314 32970 02702 10250 20125 39999 40081 57006 333 10340;EQDQ01  00002PRCP99
0122583140999992000052021004+31400+116330FM-12+006899999V0200701N001012200019N0200001N1+02061+01311100841ADDGA1001+999999999GF100991001001999999001001MD1210021+9999REMSYN054AAXX  20211 58314 42970 00701 10206 20131 40084 52002;
0183583140999992000052100004+31400+116330FM-12+006899999V0202501N001012200019N0200001N1+02211+01531101041ADDAA199000091GA1001+999999999GF100991001001999999001001MA1999999100201MD1210191+0001REMSYN070AAXX  21001 58314 32970 02501 10221 20153 30020 40104 52019 333 00001;EQDQ01  00002PRCP99
0141583140999992000052103004+31400+116330FM-12+006899999V0200701N002012200019N0200001N1+03332+00751100951ADDGA1001+999999999GF100991001001999999001001MD1710081+9999REMSYN054AAXX  21031 58314 42970 00702 10333 20075 40095 57008;EQDQ01+003333ATOT  
0196583140999992000052106004+31400+116330FM-12+006899999V0200201N003012200019N0200001N1+03571+00851100741ADDAA199000091GA1001+999999999GF100991001001999999001001KA1999N+01921MA1999999099921MD1710201+9999REMSYN070AAXX  21061 58314 32970 00203 10357 20085 39992 40074 57020 333 20192;EQDQ01  00002PRCP99
0122583140999992000052109004+31400+116330FM-12+006899999V0202001N003012200019N0200001N1+03561+00751100561ADDGA1001+999999999GF100991001001999999001001MD1710191+9999REMSYN054AAXX  21091 58314 42970 02003 10356 20075 40056 57019;
0173583140999992000052112004+31400+116330FM-12+006899999V0202001N001012200019N0200001N1+03061+00841100721ADDAA199000091GA1001+999999999GF100991001001999999001001MA1999999099891MD1210161+9999REMSYN060AAXX  21121 58314 32970 02001 10306 20084 39989 40072 52016;EQDQ01  00002PRCP99
0122583140999992000052115004+31400+116330FM-12+006899999V0200901N002012200019N0200001N1+02441+01231100861ADDGA1001+999999999GF100991001001999999001001MD1210141+9999REMSYN054AAXX  21151 58314 42970 00902 10244 20123 40086 52014;
0196583140999992000052118004+31400+116330FM-12+006899999V0203401N002012200019N0150001N1+01951+01361100961ADDAA199000091GA1001+999999999GF100991001001999999001001KA1999M+03651MA1999999100131MD1210101+9999REMSYN070AAXX  21181 58314 32965 03402 10195 20136 30013 40096 52010 333 10365;EQDQ01  00002PRCP99
0122583140999992000052121004+31400+116330FM-12+006899999V0203401N001012200019N0150001N1+01731+01191100971ADDGA1001+999999999GF100991001001999999001001MD1210011+9999REMSYN054AAXX  21211 58314 42965 03401 10173 20119 40097 52001;
0183583140999992000052200004+31400+116330FM-12+006899999V0202701N001012200019N0200001N1+02061+01311101081ADDAA199000091GA1001+999999999GF100991001001999999001001MA1999999100241MD1210101+0001REMSYN070AAXX  22001 58314 32970 02701 10206 20131 30024 40108 52010 333 00052;EQDQ01  00002PRCP99
0141583140999992000052203004+31400+116330FM-12+006899999V0200901N002012200019N0250001N1+03302+01241101021ADDGA1001+999999999GF100991001001999999001001MD1710051+9999REMSYN054AAXX  22031 58314 42975 00902 10330 20124 40102 57005;EQDQ01+003303ATOT  
0186583140999992000052206004+31400+116330FM-12+006899999V0200901N003012200019N0250001N1+03581+01301100801ADDAA199000091GF103991001001999999001021KA1999N+01651MA1999999099971MD1710221+9999REMSYN076AAXX  22061 58314 32975 30903 10358 20130 39997 40080 57022 80002 333 20165;EQDQ01  00002PRCP99
0112583140999992000052209004+31400+116330FM-12+006899999V0202201N004012200019N0250001N1+03521+01251100661ADDGF104991001001999999001021MD1710141+9999REMSYN060AAXX  22091 58314 42975 42204 10352 20125 40066 57014 80002;
0163583140999992000052212004+31400+116330FM-12+006899999V0201801N002012200019N0200001N1+03111+01111100781ADDAA199000091GF103991031001999999041001MA1999999099951MD1210121+9999REMSYN066AAXX  22121 58314 32970 31802 10311 20111 39995 40078 52012 83040;EQDQ01  00002PRCP99
0122583140999992000052215004+31400+116330FM-12+006899999V0209999C000012200019N0200001N1+02391+01591100911ADDGA1001+999999999GF100991001001999999001001MD1210131+9999REMSYN054AAXX  22151 58314 42970 00000 10239 20159 40091 52013;
0196583140999992000052218004+31400+116330FM-12+006899999V0200901N001012200019N0150001N1+02041+01651100871ADDAA199000091GA1001+999999999GF100991001001999999001001KA1999M+03641MA1999999100041MD1710041+9999REMSYN070AAXX  22181 58314 32965 00901 10204 20165 30004 40087 57004 333 10364;EQDQ01  00002PRCP99
0122583140999992000052221004+31400+116330FM-12+006899999V0209999C000012200019N0150001N1+01951+01491100861ADDGA1001+999999999GF100991001001999999001001MD1710011+9999REMSYN054AAXX  22211 58314 42965 00000 10195 20149 40086 57001;
0173583140999992000052300004+31400+116330FM-12+006899999V0200701N001019999999N0150001N1+02361+01501101001ADDAA199000091GF108991081001999999071999MA1999999100171MD1210141+0011REMSYN076AAXX  23001 58314 32965 80701 10236 20150 30017 40100 52014 8807/ 333 05103;EQDQ01  00002PRCP99
0112583140999992000052303004+31400+116330FM-12+006899999V0202201N003019999999N0150001N1+03001+01301100931ADDGF107991071001999999071999MD1710071+9999REMSYN060AAXX  23031 58314 42965 72203 10300 20130 40093 57007 8707/;
0186583140999992000052306004+31400+116330FM-12+006899999V0202701N002019999999N0150001N1+03321+01461100761ADDAA199000091GF107991071001999999071999KA1999N+01931MA1999999099931MD1710171+9999REMSYN076AAXX  23061 58314 32965 72702 10332 20146 39993 40076 57017 8707/ 333 20193;EQDQ01  00002PRCP99
0112583140999992000052309004+31400+116330FM-12+006899999V0202901N001019999999N0150001N1+03121+01721100681ADDGF108991081001999999071999MD1710081+9999REMSYN060AAXX  23091 58314 42965 82901 10312 20172 40068 57008 8807/;
0163583140999992000052312004+31400+116330FM-12+006899999V0202901N001019999999N0150001N1+02591+01881100781ADDAA199000091GF108991081001999999071999MA1999999099941MD1210091+9999REMSYN066AAXX  23121 58314 32965 82901 10259 20188 39994 40078 52009 8807/;EQDQ01  00002PRCP99
0112583140999992000052315004+31400+116330FM-12+006899999V0203401N001019999999N0150001N1+02471+01901100821ADDGF108991081001999999071999MD1210051+9999REMSYN060AAXX  23151 58314 42965 83401 10247 20190 40082 52005 8807/;
0186583140999992000052318004+31400+116330FM-12+006899999V0209999C000019999999N0150001N1+02321+01821100791ADDAA199000091GF107991071001999999071999KA1999M+03381MA1999999099961MD1710031+9999REMSYN076AAXX  23181 58314 32965 70000 10232 20182 39996 40079 57003 8707/ 333 10338;EQDQ01  00002PRCP99
0112583140999992000052321004+31400+116330FM-12+006899999V0209999C000019999999N0150001N1+02181+01821100841ADDGF107991071001999999071999MD1210051+9999REMSYN060AAXX  23211 58314 42965 70000 10218 20182 40084 52005 8707/;
0173583140999992000052400004+31400+116330FM-12+006899999V0209999C000019999999N0120001N1+02461+01821100931ADDAA199000091GF107991071001999999071999MA1999999100091MD1210081+0011REMSYN076AAXX  24001 58314 32962 70000 10246 20182 30009 40093 52008 8707/ 333 05101;EQDQ01  00002PRCP99
0112583140999992000052403004+31400+116330FM-12+006899999V0202701N002019999999N0150001N1+03011+01931100861ADDGF108991081001999999071999MD1710061+9999REMSYN060AAXX  24031 58314 42965 82702 10301 20193 40086 57006 8807/;
0193583140999992000052406004+31400+116330FM-12+006899999V0201801N003019999999N0150001N1+03101+01711100621ADDAA106000791AY161061GF108991081001999999071999KA1999N+02131MA1999999099791MD1710241+9999MW1211REMSYN088AAXX  24061 58314 11965 81803 10310 20171 39979 40062 57024 69901 72160 8807/ 333 20213;
0112583140999992000052409004+31400+116330FM-12+006899999V0202201N003019999999N0200001N1+02771+02131100551ADDGF108991081001999999071999MD1710071+9999REMSYN060AAXX  24091 58314 42970 82203 10277 20213 40055 57007 8807/;
0144583140999992000052412004+31400+116330FM-12+006899999V0201801N004019999999N0200001N1+02651+01361100601ADDAA199000021GF108991081001999999071999MA1999999099771MD1210051+9999REMSYN066AAXX  24121 58314 32970 81804 10265 20136 39977 40060 52005 8807/;
0132583140999992000052415004+31400+116330FM-12+006899999V0202201N002019999999N0150001N1+02261+01681100621ADDAY161031GF108991081001999999071999MD1210021+9999MW1601REMSYN066AAXX  24151 58314 41965 82202 10226 20168 40062 52002 76060 8807/;
0193583140999992000052418004+31400+116330FM-12+006899999V0200901N002019999999N0120001N1+02061+01771100421ADDAA106000591AY161061GF108991081001999999071999KA1999M+03251MA1999999099591MD1710201+9999MW1211REMSYN088AAXX  24181 58314 11962 80902 10206 20177 39959 40042 57020 69951 72160 8807/ 333 10325;
0161583140999992000052421004+31400+116330FM-12+006899999V0202201N002019999999N0100001N1+01981+01821100391ADDAA124001891AY161031AY261031GF108991081001999999071999MD1710041+9999MW1601REMSYN076AAXX  24211 58314 41960 82202 10198 20182 40039 57004 76066 8807/ 333 70018;
0194583140999992000052500004+31400+116330FM-12+006899999V0200901N004010075019N0080001N1+01961+01831100351ADDAA106016091AY161061AY261061GF108991081051008001999999MA1999999099511MD1710041-0601MW1621REMSYN094AAXX  25001 58314 11558 80904 10196 20183 39951 40035 57004 60161 76266 885// 333 05655 70160;
0140583140999992000052503004+31400+116330FM-12+006899999V0201101N003010075019N0080001N1+02011+01921100301ADDAY161031AY261031GF108991081051008001999999MD1710051+9999MW1621REMSYN066AAXX  25031 58314 41558 81103 10201 20192 40030 57005 76266 885//;
0201583140999992000052506004+31400+116330FM-12+006899999V0201101N002010075019N0100001N1+02121+02031100041ADDAA106041991AY161061AY261061GF108991081051008001999999KA1999N+01931MA1999999099201MD1710261+9999MW1621REMSYN088AAXX  25061 58314 11560 81102 10212 20203 39920 40004 57026 60421 76266 885// 333 20193;
0140583140999992000052509004+31400+116330FM-12+006899999V0201101N002010075019N0100001N1+02111+01991099891ADDAY161031AY261031GF108991081051008001999999MD1710151+9999MW1601REMSYN066AAXX  25091 58314 41560 81102 10211 20199 49989 57015 76066 885//;
0178583140999992000052512004+31400+116330FM-12+006899999V0201601N002010075019N0070001N1+02121+02031099901ADDAA106008991AY161061AY261061GF108991081051008001999999MA1999999099061MD1210011+9999MW1601REMSYN078AAXX  25121 58314 11557 81602 10212 20203 39906 49990 52001 60091 76066 885//;
0140583140999992000052515004+31400+116330FM-12+006899999V0202901N002010075019N0090001N1+02121+02011099981ADDAY161031AY261031GF108991081051008001999999MD1210081+9999MW1601REMSYN066AAXX  25151 58314 41559 82902 10212 20201 49998 52008 76066 885//;
0201583140999992000052518004+31400+116330FM-12+006899999V0209999C000019999999N0100001N1+02081+02001099971ADDAA106002091AY161061AY261061GF108991081001999999071999KA1999M+02131MA1999999099131MD1710011+9999MW1601REMSYN088AAXX  25181 58314 11960 80000 10208 20200 39913 49997 57001 60021 76066 8807/ 333 10213;
0161583140999992000052521004+31400+116330FM-12+006899999V0202201N001019999999N0100001N1+02091+02001100061ADDAA124067891AY161031AY261031GF108991081001999999071999MD1210091+9999MW1601REMSYN076AAXX  25211 58314 41960 82201 10209 20200 40006 52009 76066 8807/ 333 70678;
0186583140999992000052600004+31400+116330FM-12+006899999V0200201N001010075019N0150001N1+02161+02021100211ADDAA106000391AY161061GF108991081051008001999999MA1999999099371MD1210151-0101MW1001REMSYN094AAXX  26001 58314 11565 80201 10216 20202 39937 40021 52015 69931 70060 885// 333 05102 70536;
0112583140999992000052603004+31400+116330FM-12+006899999V0202201N002010075019N0150001N1+02211+01981100331ADDGF108991081051008001999999MD1210121+9999REMSYN060AAXX  26031 58314 42565 82202 10221 20198 40033 52012 885//;
0193583140999992000052606004+31400+116330FM-12+006899999V0202701N004010075019N0200001N1+02411+02001100271ADDAA106000191AY161061GF107991071051008001999999KA1999N+02071MA1999999099431MD1710061+9999MW1001REMSYN088AAXX  26061 58314 11570 72704 10241 20200 39943 40027 57006 69911 70060 875// 333 20207;
0112583140999992000052609004+31400+116330FM-12+006899999V0203401N002010075019N0200001N1+02571+01931100221ADDGF107991071051008001999999MD1710051+9999REMSYN060AAXX  26091 58314 42570 73402 10257 20193 40022 57005 875//;
0163583140999992000052612004+31400+116330FM-12+006899999V0201601N001012200019N0150001N1+02281+01971100491ADDAA199000091GF102991021001999999041001MA1999999099651MD1210271+9999REMSYN066AAXX  26121 58314 32965 21601 10228 20197 39965 40049 52027 82040;EQDQ01  00002PRCP99
0112583140999992000052615004+31400+116330FM-12+006899999V0209999C000019999999N0150001N1+02181+01911100651ADDGF107991071001999999071999MD1210161+9999REMSYN060AAXX  26151 58314 42965 70000 10218 20191 40065 52016 8707/;
0186583140999992000052618004+31400+116330FM-12+006899999V0202701N001019999999N0150001N1+02101+01981100651ADDAA199000091GF108991081001999999071999KA1999M+02631MA1999999099811MD1410001+9999REMSYN076AAXX  26181 58314 32965 82701 10210 20198 39981 40065 54000 8807/ 333 10263;EQDQ01  00002PRCP99
0155583140999992000052621004+31400+116330FM-12+006899999V0209999C000012200019N0080001N1+02041+01931100741ADDAA124000191GA1001+999999999GF100991001001999999001001MD1210091+9999MW1101REMSYN070AAXX  26211 58314 41958 00000 10204 20193 40074 52009 71000 333 70001;
0172583140999992000052700004+31400+116330FM-12+006899999V0209999C000010075019N0080001N1+02081+01861100881ADDAA124000191GF106991061051008001001001MA1999999100031MD1210131+0701MW1101REMSYN088AAXX  27001 58314 31558 60000 10208 20186 30003 40088 52013 71000 86500 333 00751 70001;
0112583140999992000052703004+31400+116330FM-12+006899999V0200901N002012200019N0100001N1+02441+01851100891ADDGF103991031051008001001001MD1210021+9999REMSYN060AAXX  27031 58314 42560 30902 10244 20185 40089 52002 83500;
0186583140999992000052706004+31400+116330FM-12+006899999V0203401N004010075019N0100001N1+02681+01771100821ADDAA199000091GF105991051051008001001001KA1999N+01961MA1999999099981MD1710071+9999REMSYN076AAXX  27061 58314 32560 53404 10268 20177 39998 40082 57007 85500 333 20196;EQDQ01  00002PRCP99
0122583140999992000052709004+31400+116330FM-12+006899999V0200701N002012200019N0200001N1+02761+01721100751ADDGA1001+999999999GF100991001001999999001001MD1710071+9999REMSYN054AAXX  27091 58314 42970 00702 10276 20172 40075 57007;
0173583140999992000052712004+31400+116330FM-12+006899999V0209999C000012200019N0150001N1+02451+01911100941ADDAA199000091GA1001+999999999GF100991001001999999001001MA1999999100101MD1210191+9999REMSYN060AAXX  27121 58314 32965 00000 10245 20191 30010 40094 52019;EQDQ01  00002PRCP99
0160583140999992000052715004+31400+116330FM-12+006899999V0202901N001019999999N0120001N1+02241+01881101081ADDGF108991081001999999071999MD1210141+9999REMSYN108AAXX  27151 58314 42962 82901 10224 20188 40108 52014 8807/ 58424 42662 40202 10234 20192 40102 52014 84500;
0186583140999992000052718004+31400+116330FM-12+006899999V0209999C000019999999N0120001N1+02131+01931101041ADDAA199000091GF108991081001999999071999KA1999M+02761MA1999999100201MD1710041+9999REMSYN076AAXX  27181 58314 32962 80000 10213 20193 30020 40104 57004 8807/ 333 10276;EQDQ01  00002PRCP99
0112583140999992000052721004+31400+116330FM-12+006899999V0202201N001019999999N0120001N1+02081+01871101151ADDGF108991081001999999071999MD1210111+9999REMSYN060AAXX  27211 58314 42962 82201 10208 20187 40115 52011 8807/;
0173583140999992000052800004+31400+116330FM-12+006899999V0200401N002019999999N0120001N1+02131+01741101341ADDAA199000091GF108991081001999999071999MA1999999100491MD1210181+0051REMSYN076AAXX  28001 58314 32962 80402 10213 20174 30049 40134 52018 8807/ 333 00501;EQDQ01  00002PRCP99
0112583140999992000052803004+31400+116330FM-12+006899999V0200901N002019999999N0200001N1+02281+01681101321ADDGF108991081001999999071999MD1710021+9999REMSYN060AAXX  28031 58314 42970 80902 10228 20168 40132 57002 8807/;
0186583140999992000052806004+31400+116330FM-12+006899999V0200201N003019999999N0120001N1+02291+01711101261ADDAA199000091GF108991081001999999071999KA1999N+02071MA1999999100411MD1710061+9999REMSYN076AAXX  28061 58314 32962 80203 10229 20171 30041 40126 57006 8807/ 333 20207;EQDQ01  00002PRCP99
0112583140999992000052809004+31400+116330FM-12+006899999V0200201N002019999999N0120001N1+02211+01761101261ADDGF108991081001999999071999MD1410001+9999REMSYN060AAXX  28091 58314 42962 80202 10221 20176 40126 54000 8807/;
0169583140999992000052812004+31400+116330FM-12+006899999V0203401N001019999999N0150001N1+02151+01781101371ADDAA106000791AY161061GF108991081001999999071999MA1999999100521MD1210111+9999MW1001REMSYN077AAXX  28121 58314 11965 83401 1021520178 30052 40137 52011 69901 70060 8807/;
0132583140999992000052815004+31400+116330FM-12+006899999V0202201N002019999999N0120001N1+02001+01361101431ADDAY161031GF108991081001999999071999MD1210061+9999MW1211REMSYN066AAXX  28151 58314 41962 82202 10200 20136 40143 52006 72160 8807/;
0193583140999992000052818004+31400+116330FM-12+006899999V0202701N002019999999N0150001N1+01841+01481101241ADDAA106000791AY161061GF108991081001999999071999KA1999M+02401MA1999999100391MD1710191+9999MW1001REMSYN088AAXX  28181 58314 11965 82702 10184 20148 30039 40124 57019 69901 70060 8807/ 333 10240;
0133583140999992000052821004+31400+116330FM-12+006899999V0209999C000019999999N0150001N1+01861+01451101251ADDAA124000791GF108991081001999999071999MD1210011+9999REMSYN070AAXX  28211 58314 42965 80000 10186 20145 40125 52001 8807/ 333 79999;
0160583140999992000052900004+31400+116330FM-12+006899999V0209999C000019999999N0150001N1+01871+01441101291ADDAA124000791GF108991081001999999071999MA1999999100441MD1210041-0101REMSYN082AAXX  29001 58314 32965 80000 10187 20144 30044 40129 52004 8807/ 333 05153 79999;
0112583140999992000052903004+31400+116330FM-12+006899999V0203401N002019999999N0150001N1+02061+01411101151ADDGF108991081001999999071999MD1710141+9999REMSYN060AAXX  29031 58314 42965 83402 10206 20141 40115 57014 8807/;
0186583140999992000052906004+31400+116330FM-12+006899999V0202701N003019999999N0150001N1+02081+01571100951ADDAA199000091GF108991081001999999071999KA1999N+01801MA1999999100101MD1710201+9999REMSYN076AAXX  29061 58314 32965 82703 10208 20157 30010 40095 57020 8807/ 333 20180;EQDQ01  00002PRCP99
0132583140999992000052909004+31400+116330FM-12+006899999V0202701N002019999999N0100001N1+01991+01731100771ADDAY161031GF108991081001004501071999MD1710181+9999MW1601REMSYN066AAXX  29091 58314 41460 82702 10199 20173 40077 57018 76060 8807/;
0170583140999992000052912004+31400+116330FM-12+006899999V0202901N002010075019N0100001N1+01931+01751100861ADDAA106001091AY161061GF108991081051008001999999MA1999999100011MD1210091+9999MW1601REMSYN078AAXX  29121 58314 11560 82902 10193 20175 30001 40086 52009 60011 76060 885//;
0132583140999992000052915004+31400+116330FM-12+006899999V0201401N002019999999N0120001N1+01851+01741100821ADDAY161031GF108991081001999999071999MD1710041+9999MW1001REMSYN066AAXX  29151 58314 41962 81402 10185 20174 40082 57004 70060 8807/;
0193583140999992000052918004+31400+116330FM-12+006899999V0200701N001019999999N0080001N1+01861+01751100591ADDAA106003091AY161061GF108991081001999999071999KA1999M+02101MA1999999099741MD1710231+9999MW1101REMSYN088AAXX  29181 58314 11958 80701 10186 20175 39974 40059 57023 60031 71060 8807/ 333 10210;
0153583140999992000052921004+31400+116330FM-12+006899999V0200701N002019999999N0080001N1+01821+01721100571ADDAA124003691AY161031GF108991081001999999071999MD1710021+9999MW1211REMSYN076AAXX  29211 58314 41958 80702 10182 20172 40057 57002 72160 8807/ 333 70035;
0186583140999992000053000004+31400+116330FM-12+006899999V0200201N002019999999N0060001N1+01841+01681100661ADDAA106000791AY161061GF108991081001999999071999MA1999999099811MD1210091-0601MW1101REMSYN094AAXX  30001 58314 11956 80202 10184 20168 39981 40066 52009 69901 71060 8807/ 333 05600 70035;
0124583140999992000053003004+31400+116330FM-12+006899999V0200401N001019999999N0060001N1+01941+01751100661ADDGF108991081001999999071999MD1410001+9999MW1601REMSYN066AAXX  30031 58314 41956 80401 10194 20175 40066 54000 76000 8807/;
0193583140999992000053006004+31400+116330FM-12+006899999V0200701N002019999999N0080001N1+02061+01921100421ADDAA106002091AY161061GF108991081001999999071999KA1999N+01801MA1999999099571MD1710241+9999MW1601REMSYN088AAXX  30061 58314 11958 80702 10206 20192 39957 40042 57024 60021 76060 8807/ 333 20180;
0132583140999992000053009004+31400+116330FM-12+006899999V0202201N002019999999N0080001N1+02281+02041100361ADDAY161031GF108991081001999999071999MD1710061+9999MW1601REMSYN066AAXX  30091 58314 41958 82202 10228 20204 40036 57006 76060 8807/;
0170583140999992000053012004+31400+116330FM-12+006899999V0200201N002019999999N0120001N1+02211+01901100441ADDAA106000191AY161061GF108991081001999999071999MA1999999099591MD1210081+9999MW1001REMSYN078AAXX  30121 58314 11962 80202 10221 20190 39959 40044 52008 69921 70060 8807/;
0124583140999992000053015004+31400+116330FM-12+006899999V0202501N001019999999N0100001N1+02081+01921100521ADDGF108991081001999999071999MD1210081+9999MW1601REMSYN066AAXX  30151 58314 41960 82501 10208 20192 40052 52008 76000 8807/;
0203583140999992000053018004+31400+116330FM-12+006899999V0209999C000012200019N0120001N1+01901+01821100391ADDAA106000791AY161061GA1001+999999999GF100991001001999999001001KA1999M+02331MA1999999099541MD1710131+9999MW1001REMSYN082AAXX  30181 58314 11962 00000 10190 20182 39954 40039 57013 69901 70060 333 10233;
0145583140999992000053021004+31400+116330FM-12+006899999V0209999C000019999999N0070001N1+01771+01701100431ADDAA124002391GF107991071001999999071999MD1210041+9999MW1101REMSYN076AAXX  30211 58314 41957 70000 10177 20170 40043 52004 71000 8707/ 333 70023;
0170583140999992000053100004+31400+116330FM-12+006899999V0202901N001012200019N0150001N1+01991+01801100611ADDAA124002391GA1001+999999999GF100991001001999999001001MA1999999099761MD1210181-0101REMSYN076AAXX  31001 58314 32965 02901 10199 20180 39976 40061 52018 333 05102 70023;
0107583140999992000053103004+31400+116330FM-12+006899999V0203401N001012200019N0250001N1+02721+01981999999ADDGA1001+999999999GF100991001001999999001001REMSYN053AAXX  31031 58314 42975 03401 10272 20198 4007 57003;
0196583140999992000053106004+31400+116330FM-12+006899999V0202201N001012200019N0250001N1+03011+01951100471ADDAA199000091GA1001+999999999GF100991001001999999001001KA1999N+01701MA1999999099641MD1710091+9999REMSYN070AAXX  31061 58314 32975 02201 10301 20195 39964 40047 57009 333 20170;EQDQ01  00002PRCP99
0122583140999992000053109004+31400+116330FM-12+006899999V0200701N003012200019N0250001N1+03051+02271100331ADDGA1001+999999999GF100991001001999999001001MD1710141+9999REMSYN054AAXX  31091 58314 42975 00703 10305 20227 40033 57014;
0173583140999992000053112004+31400+116330FM-12+006899999V0201401N002012200019N0200001N1+02661+02331100351ADDAA199000091GA1001+999999999GF100991001001999999001001MA1999999099511MD1210011+9999REMSYN060AAXX  31121 58314 32970 01402 10266 20233 39951 40035 52001;EQDQ01  00002PRCP99
0122583140999992000053115004+31400+116330FM-12+006899999V0202701N001012200019N0200001N1+02421+02241100491ADDGA1001+999999999GF100991001001999999001001MD1210151+9999REMSYN054AAXX  31151 58314 42970 02701 10242 20224 40049 52015;
0196583140999992000053118004+31400+116330FM-12+006899999V0202701N003012200019N0120001N1+02321+01951100511ADDAA199000091GA1001+999999999GF100991001001999999001001KA1999M+03151MA1999999099681MD1210021+9999REMSYN070AAXX  31181 58314 32962 02703 10232 20195 39968 40051 52002 333 10315;EQDQ01  00002PRCP99
0122583140999992000053121004+31400+116330FM-12+006899999V0209999C000012200019N0120001N1+02021+01931100561ADDGA1001+999999999GF100991001001999999001001MD1210051+9999REMSYN054AAXX  31211 58314 42962 00000 10202 20193 40056 52005;
0173583140999992000060100004+31400+116330FM-12+006899999V0209999C000019999999N0150001N1+02261+01951100761ADDAA199000091GF106991001001999999001021MA1999999099921MD1210191+0021REMSYN076AAXX  01001 58314 32965 60000 10226 20195 39992 40076 52019 80002 333 00203;EQDQ01  00002PRCP99
0112583140999992000060103004+31400+116330FM-12+006899999V0200901N003019999999N0200001N1+03151+01911100651ADDGF106991001001999999001021MD1710101+9999REMSYN060AAXX  01031 58314 42970 60903 10315 20191 40065 57010 80002;
0186583140999992000060106004+31400+116330FM-12+006899999V0202701N003019999999N0200001N1+03301+02221100551ADDAA199000091GF106991061001999999041001KA1999N+02001MA1999999099721MD1710101+9999REMSYN076AAXX  01061 58314 32970 62703 10330 20222 39972 40055 57010 86040 333 20200;EQDQ01  00002PRCP99
0132583140999992000060109004+31400+116330FM-12+006899999V0201401N004010075019N0200001N1+02861+02451100511ADDAY191031GF107991071091008001999999MD1710051+9999MW1171REMSYN066AAXX  01091 58314 41570 71404 10286 20245 40051 57005 71790 879//;
0178583140999992000060112004+31400+116330FM-12+006899999V0209999C000019999999N0150001N1+02651+02411100531ADDAA106001091AY191061AY281061GF108991081001999999071999MA1999999099691MD1210021+9999MW1001REMSYN078AAXX  01121 58314 11965 80000 10265 20241 39969 40053 52002 69991 70098 8807/;
0140583140999992000060115004+31400+116330FM-12+006899999V0203401N001010075019N0120001N1+02581+02421100651ADDAY191031AY281031GF108991081091008001999999MD1210141+9999MW1951REMSYN066AAXX  01151 58314 41562 83401 10258 20242 40065 52014 79598 889//;
0201583140999992000060118004+31400+116330FM-12+006899999V0203201N001010075019N0080001N1+02511+02421100651ADDAA106009991AY191061AY281061GF108991081091008001999999KA1999M+03401MA1999999099831MD1410001+9999MW1951REMSYN088AAXX  01181 58314 11558 83201 10251 20242 39983 40065 54000 60101 79598 889// 333 10340;
0161583140999992000060121004+31400+116330FM-12+006899999V0203401N002010075019N0080001N1+02431+02341100571ADDAA124017391AY191031AY281031GF108991081091008001999999MD1710091+9999MW1951REMSYN076AAXX  01211 58314 41558 83402 10243 20234 40057 57009 79598 889// 333 70172;
0194583140999992000060200004+31400+116330FM-12+006899999V0201401N002019999999N0100001N1+02431+02331100591ADDAA106010991AY191061AY281061GF108991081001999999071999MA1999999099761MD1210021-0201MW1601REMSYN094AAXX  02001 58314 11960 81402 10243 20233 39976 40059 52002 60111 76098 8807/ 333 05202 70219;
0140583140999992000060203004+31400+116330FM-12+006899999V0200701N002010075019N0120001N1+02401+02251100851ADDAY161031AY261031GF108991081091008001999999MD1210251+9999MW1951REMSYN066AAXX  02031 58314 41562 80702 10240 20225 40085 52025 79566 889//;
0201583140999992000060206004+31400+116330FM-12+006899999V0201101N003019999999N0300001N1+02621+02301100561ADDAA106005191AY191061AY281061GF107991071001999999071999KA1999N+02371MA1999999099731MD1710281+9999MW1001REMSYN088AAXX  02061 58314 11980 71103 10262 20230 39973 40056 57028 60051 70098 8707/ 333 20237;
0112583140999992000060209004+31400+116330FM-12+006899999V0200901N003010360019N0300001N1+02781+02241100401ADDGF107991011011008001041001MD1710161+9999REMSYN060AAXX  02091 58314 42580 70903 10278 20224 40040 57016 81140;
0144583140999992000060212004+31400+116330FM-12+006899999V0200901N001010075019N0150001N1+02561+02341100471ADDAA199000021GF108991081051008001999999MA1999999099641MD1210071+9999REMSYN066AAXX  02121 58314 32565 80901 10256 20234 39964 40047 52007 885//;
0112583140999992000060215004+31400+116330FM-12+006899999V0202201N002010075019N0150001N1+02481+02361100471ADDGF108991081051008001999999MD1710011+9999REMSYN060AAXX  02151 58314 42565 82202 10248 20236 40047 57001 885//;
0196583140999992000060218004+31400+116330FM-12+006899999V0209999C000012200019N0200001N1+02421+02331100211ADDAA199000091GA1001+999999999GF100991001001999999001001KA1999M+02781MA1999999099381MD1710251+9999REMSYN070AAXX  02181 58314 32970 00000 10242 20233 39938 40021 57025 333 10278;EQDQ01  00002PRCP99
0133583140999992000060221004+31400+116330FM-12+006899999V0202201N003019999999N0200001N1+02921+02091100181ADDAA124009191GF108991081001999999071999MD1710021+9999REMSYN070AAXX  02211 58314 42970 82203 10292 20209 40018 57002 8807/ 333 70092;
0160583140999992000060300004+31400+116330FM-12+006899999V0202701N004019999999N0200001N1+02901+02131100391ADDAA124004691GF108991081001999999071999MA1999999099561MD1210201-0201REMSYN082AAXX  03001 58314 32970 82704 10290 20213 39956 40039 52020 8807/ 333 05205 70045;
0112583140999992000060303004+31400+116330FM-12+006899999V0200401N003019999999N0200001N1+02881+02471100441ADDGF108991081001999999071999MD1210051+9999REMSYN060AAXX  03031 58314 42970 80403 10288 20247 40044 52005 8807/;
0186583140999992000060306004+31400+116330FM-12+006899999V0200401N003019999999N0200001N1+02901+02371100241ADDAA199000091GF108991081001999999071999KA1999N+02411MA1999999099411MD1710201+9999REMSYN076AAXX  03061 58314 32970 80403 10290 20237 39941 40024 57020 8807/ 333 20241;EQDQ01  00002PRCP99
0140583140999992000060309004+31400+116330FM-12+006899999V0203601N003010075019N0050001N1+02201+02081100441ADDAY191031AY281031GF108991081091008001999999MD1210201+9999MW1951REMSYN066AAXX  03091 58314 41550 83603 10220 20208 40044 52020 79598 889//;
0178583140999992000060312004+31400+116330FM-12+006899999V0202901N002010075019N0080001N1+02121+02001100621ADDAA106023991AY191061AY281061GF108991081051008001999999MA1999999099791MD1210181+9999MW1601REMSYN078AAXX  03121 58314 11558 82902 10212 20200 39979 40062 52018 60241 76098 885//;
0140583140999992000060315004+31400+116330FM-12+006899999V0203401N002010075019N0060001N1+02081+01991100841ADDAY161031AY261031GF108991081051008001999999MD1210211+9999MW1601REMSYN066AAXX  03151 58314 41556 83402 10208 20199 40084 52021 76066 885//;
0193583140999992000060318004+31400+116330FM-12+006899999V0200201N001010120019N0100001N1+02011+01921100721ADDAA106000191AY161061GF108991081051012501999999KA1999M+03051MA1999999099881MD1710121+9999MW1601REMSYN088AAXX  03181 58314 11660 80201 10201 20192 39988 40072 57012 69921 76060 885// 333 10305;
0161583140999992000060321004+31400+116330FM-12+006899999V0209999C000010075019N0100001N1+01981+01921100781ADDAA124025191AY161031AY261031GF108991081051008001999999MD1210051+9999MW1601REMSYN076AAXX  03211 58314 41560 80000 10198 20192 40078 52005 76066 885// 333 70252;
0194583140999992000060400004+31400+116330FM-12+006899999V0203601N002010075019N0100001N1+02011+01931100931ADDAA106002091AY161061AY261061GF108991081051008001999999MA1999999100081MD1210151+0501MW1601REMSYN094AAXX  04001 58314 11560 83602 10201 20193 30008 40093 52015 60021 76066 885// 333 00559 70266;
0140583140999992000060403004+31400+116330FM-12+006899999V0203601N003010075019N0100001N1+02181+02001100981ADDAY161031AY261031GF108991081051008001999999MD1210051+9999MW1211REMSYN066AAXX  04031 58314 41560 83603 10218 20200 40098 52005 72166 885//;
0193583140999992000060406004+31400+116330FM-12+006899999V0203601N002010075019N0150001N1+02221+01921100961ADDAA106000591AY161061GF108991081051008001999999KA1999N+01971MA1999999100111MD1710021+9999MW1001REMSYN088AAXX  04061 58314 11565 83602 10222 20192 30011 40096 57002 69951 70060 885// 333 20197;
0124583140999992000060409004+31400+116330FM-12+006899999V0200701N003010075019N0150001N1+02271+01941100911ADDGF108991081051008001999999MD1710051+9999MW1211REMSYN066AAXX  04091 58314 41565 80703 10227 20194 40091 57005 72100 885//;
0170583140999992000060412004+31400+116330FM-12+006899999V0201801N001010075019N0150001N1+02131+01961100951ADDAA106000191AY161061GF108991081051008001999999MA1999999100101MD1210041+9999MW1001REMSYN078AAXX  04121 58314 11565 81801 10213 20196 30010 40095 52004 69911 70060 885//;
0112583140999992000060415004+31400+116330FM-12+006899999V0209999C000019999999N0120001N1+02121+01981101001ADDGF108991081001999999071999MD1210051+9999REMSYN060AAXX  04151 58314 42962 80000 10212 20198 40100 52005 8807/;
0167583140999992000060418004+31400+116330FM-12+006899999V0201801N001019999999N0120001N1+02101+01941100841ADDAA199000021GF108991081001999999071999KA1999M+02321MA1999999099991MD1710161+9999REMSYN076AAXX  04181 58314 32962 81801 10210 20194 39999 40084 57016 8807/ 333 10232;
0133583140999992000060421004+31400+116330FM-12+006899999V0201401N001019999999N0120001N1+02001+01891100921ADDAA124002091GF108991081001999999071999MD1210081+9999REMSYN070AAXX  04211 58314 42962 81401 10200 20189 40092 52008 8807/ 333 70020;
0186583140999992000060500004+31400+116330FM-12+006899999V0201401N002019999999N0100001N1+02131+01941101071ADDAA106000191AY161061GF108991081001999999071999MA1999999100221MD1210151+0101MW1211REMSYN094AAXX  05001 58314 11960 81402 10213 20194 30022 40107 52015 69921 72160 8807/ 333 00101 70008;
0112583140999992000060503004+31400+116330FM-12+006899999V0200901N004010120019N0150001N1+02521+01871101001ADDGF107991071051012501999999MD1710061+9999REMSYN060AAXX  05031 58314 42665 70904 10252 20187 40100 57006 875//;
0167583140999992000060506004+31400+116330FM-12+006899999V0200901N005019999999N0200001N1+02691+01871100841ADDAA199000021GF105991001001999999001021KA1999N+01981MA1999999100001MD1710161+9999REMSYN076AAXX  05061 58314 32970 50905 10269 20187 30000 40084 57016 80002 333 20198;
0112583140999992000060509004+31400+116330FM-12+006899999V0201101N003019999999N0200001N1+02661+01961100751ADDGF106991001001999999001021MD1710091+9999REMSYN060AAXX  05091 58314 42970 61103 10266 20196 40075 57009 80002;
0144583140999992000060512004+31400+116330FM-12+006899999V0201101N003019999999N0120001N1+02451+01961100821ADDAA199000021GF108991081001999999071999MA1999999099981MD1210071+9999REMSYN066AAXX  05121 58314 32962 81103 10245 20196 39998 40082 52007 8807/;
0122583140999992000060515004+31400+116330FM-12+006899999V0209999C000012200019N0120001N1+02241+02031100931ADDGA1001+999999999GF100991001001999999001001MD1210111+9999REMSYN054AAXX  05151 58314 42962 00000 10224 20203 40093 52011;
0196583140999992000060518004+31400+116330FM-12+006899999V0200401N001012200019N0150001N1+02071+01931100801ADDAA199000091GA1001+999999999GF100991001001999999001001KA1999M+02751MA1999999099961MD1710131+9999REMSYN070AAXX  05181 58314 32965 00401 10207 20193 39996 40080 57013 333 10275;EQDQ01  00002PRCP99
0133583140999992000060521004+31400+116330FM-12+006899999V0209999C000019999999N0120001N1+02001+01871100811ADDAA124000391GF107991071001999999071999MD1210011+9999REMSYN070AAXX  05211 58314 42962 70000 10200 20187 40081 52001 8707/ 333 70002;
0195583140999992000060600004+31400+116330FM-12+006899999V0203401N002012200019N0080001N1+02101+01941100851ADDAA199000091GA1001+999999999GF100991001001999999001001MA1999999100011MD1210041+0021MW1101REMSYN076AAXX  06001 58314 31958 03402 10210 20194 30001 40085 52004 71000 333 05200;EQDQ01  00002PRCP99
0112583140999992000060603004+31400+116330FM-12+006899999V0200901N003012200019N0150001N1+02761+02061100821ADDGF103991031051008001001001MD1710031+9999REMSYN060AAXX  06031 58314 42565 30903 10276 20206 40082 57003 83500;
0196583140999992000060606004+31400+116330FM-12+006899999V0200901N003012200019N0150001N1+02901+02011100671ADDAA199000091GA1001+999999999GF100991001001999999001001KA1999N+01931MA1999999099831MD1710151+9999REMSYN070AAXX  06061 58314 32965 00903 10290 20201 39983 40067 57015 333 20193;EQDQ01  00002PRCP99
0122583140999992000060609004+31400+116330FM-12+006899999V0200901N003012200019N0150001N1+02901+02071100601ADDGA1001+999999999GF100991001001999999001001MD1710071+9999REMSYN054AAXX  06091 58314 42965 00903 10290 20207 40060 57007;
0173583140999992000060612004+31400+116330FM-12+006899999V0201601N002012200019N0150001N1+02651+02051100681ADDAA199000091GA1001+999999999GF100991001001999999001001MA1999999099841MD1210081+9999REMSYN060AAXX  06121 58314 32965 01602 10265 20205 39984 40068 52008;EQDQ01  00002PRCP99
0122583140999992000060615004+31400+116330FM-12+006899999V0202901N001012200019N0150001N1+02321+02091100731ADDGA1001+999999999GF100991001001999999001001MD1210061+9999REMSYN054AAXX  06151 58314 42965 02901 10232 20209 40073 52006;
0196583140999992000060618004+31400+116330FM-12+006899999V0209999C000012200019N0120001N1+02211+02071100541ADDAA199000091GA1001+999999999GF100991001001999999001001KA1999M+02951MA1999999099711MD1710191+9999REMSYN070AAXX  06181 58314 32962 00000 10221 20207 39971 40054 57019 333 10295;EQDQ01  00002PRCP99
0124583140999992000060621004+31400+116330FM-12+006899999V0209999C000012200019N0080001N1+02091+02001100531ADDGF102991021001999999041001MD1710011+9999MW1101REMSYN066AAXX  06211 58314 41958 20000 10209 20200 40053 57001 71000 82040;
0183583140999992000060700004+31400+116330FM-12+006899999V0209999C000012200019N0120001N1+02541+02141100501ADDAA199000091GA1001+999999999GF100991001001999999001001MA1999999099671MD1710031+0031REMSYN070AAXX  07001 58314 32962 00000 10254 20214 39967 40050 57003 333 05304;EQDQ01  00002PRCP99
0112583140999992000060703004+31400+116330FM-12+006899999V0200901N002019999999N0250001N1+03001+02131100461ADDGF107991071001999999071999MD1710041+9999REMSYN060AAXX  07031 58314 42975 70902 10300 20213 40046 57004 8707/;
0193583140999992000060706004+31400+116330FM-12+006899999V0202201N003010150019N0250001N1+02821+02141100301ADDAA106000791AY161061GF108991081041017501999999KA1999N+02071MA1999999099471MD1710161+9999MW1001REMSYN088AAXX  07061 58314 11775 82203 10282 20214 39947 40030 57016 69901 70060 884// 333 20207;
0112583140999992000060709004+31400+116330FM-12+006899999V0202701N003019999999N0200001N1+02861+02121100221ADDGF108991081001999999071999MD1710081+9999REMSYN060AAXX  07091 58314 42970 82703 10286 20212 40022 57008 8807/;
0163583140999992000060712004+31400+116330FM-12+006899999V0202201N004019999999N0200001N1+02691+02111100211ADDAA199000091GF106991061001999999041001MA1999999099381MD1710011+9999REMSYN066AAXX  07121 58314 32970 62204 10269 20211 39938 40021 57001 86040;EQDQ01  00002PRCP99
0122583140999992000060715004+31400+116330FM-12+006899999V0202501N003012200019N0200001N1+02571+02121100321ADDGA1001+999999999GF100991001001999999001001MD1210121+9999REMSYN054AAXX  07151 58314 42970 02503 10257 20212 40032 52012;
0196583140999992000060718004+31400+116330FM-12+006899999V0202901N003012200019N0120001N1+02401+02131100231ADDAA199000091GA1001+999999999GF100991001001999999001001KA1999M+03061MA1999999099401MD1710101+9999REMSYN070AAXX  07181 58314 32962 02903 10240 20213 39940 40023 57010 333 10306;EQDQ01  00002PRCP99
0107583140999992000060721004+31400+116330FM-12+006899999V0202901N003019999999N0120001N1+02461+02121999999ADDGF108991999999999999999999REMSYN069AAXX  07211 58314 42962 82903 10246 20212 4022 57001 8807/ 333 79999;
0186583140999992000060800004+31400+116330FM-12+006899999V0203401N005019999999N0120001N1+02561+02111100491ADDAA106000791AY161061GF108991081001999999071999MA1999999099661MD1210271+0001MW1211REMSYN094AAXX  08001 58314 11962 83405 10256 20211 39966 40049 52027 69901 72160 8807/ 333 00000 79999;
0132583140999992000060803004+31400+116330FM-12+006899999V0202701N003019999999N0120001N1+02461+01801100421ADDAY161031GF108991081001999999071999MD1710071+9999MW1001REMSYN066AAXX  08031 58314 41962 82703 10246 20180 40042 57007 70060 8807/;
0193583140999992000060806004+31400+116330FM-12+006899999V0202701N002019999999N0120001N1+02321+02051100541ADDAA106001091AY161061GF108991081001999999071999KA1999N+02311MA1999999099701MD1210111+9999MW1601REMSYN088AAXX  08061 58314 11962 82702 10232 20205 39970 40054 52011 60011 76060 8807/ 333 20231;
0132583140999992000060809004+31400+116330FM-12+006899999V0202701N003019999999N0120001N1+02381+01881100441ADDAY161031GF108991081001999999071999MD1710101+9999MW1211REMSYN066AAXX  08091 58314 41962 82703 10238 20188 40044 57010 72160 8807/;
0170583140999992000060812004+31400+116330FM-12+006899999V0202501N003019999999N0120001N1+02291+01821100531ADDAA106001091AY161061GF107991071001999999071999MA1999999099691MD1210091+9999MW1001REMSYN078AAXX  08121 58314 11962 72503 10229 20182 39969 40053 52009 60011 70060 8707/;
0112583140999992000060815004+31400+116330FM-12+006899999V0209999C000010075019N0120001N1+02141+01811100571ADDGF108991081051008001999999MD1210041+9999REMSYN060AAXX  08151 58314 42562 80000 10214 20181 40057 52004 885//;
0167583140999992000060818004+31400+116330FM-12+006899999V0209999C000019999999N0120001N1+01971+01811100431ADDAA199000021GF108991081001999999071999KA1999M+02631MA1999999099591MD1710141+9999REMSYN076AAXX  08181 58314 32962 80000 10197 20181 39959 40043 57014 8807/ 333 10263;
0133583140999992000060821004+31400+116330FM-12+006899999V0201401N001012200019N0150001N1+01811+01701100541ADDAA124002091GF101991011001999999041001MD1210101+9999REMSYN070AAXX  08211 58314 42965 11401 10181 20170 40054 52010 81040 333 70021;
0160583140999992000060900004+31400+116330FM-12+006899999V0202901N002019999999N0150001N1+02181+01781100631ADDAA124002091GF106991061001999999041001MA1999999099791MD1210101+0101REMSYN082AAXX  09001 58314 32965 62902 10218 20178 39979 40063 52010 86040 333 00154 70021;
0112583140999992000060903004+31400+116330FM-12+006899999V0200701N004012200019N0200001N1+02831+01601100621ADDGF103991031001999999041001MD1710011+9999REMSYN060AAXX  09031 58314 42970 30704 10283 20160 40062 57001 83040;
0186583140999992000060906004+31400+116330FM-12+006899999V0201101N003019999999N0250001N1+02911+01721100521ADDAA199000091GF107991071001999999041999KA1999N+01771MA1999999099681MD1710101+9999REMSYN076AAXX  09061 58314 32975 71103 10291 20172 39968 40052 57010 8704/ 333 20177;EQDQ01  00002PRCP99
0112583140999992000060909004+31400+116330FM-12+006899999V0200701N003019999999N0200001N1+02841+02101100501ADDGF107991071001999999041999MD1710021+9999REMSYN060AAXX  09091 58314 42970 70703 10284 20210 40050 57002 8704/;
0163583140999992000060912004+31400+116330FM-12+006899999V0201401N001019999999N0150001N1+02601+02171100691ADDAA199000091GF107991071001999999071999MA1999999099851MD1210191+9999REMSYN066AAXX  09121 58314 32965 71401 10260 20217 39985 40069 52019 8707/;EQDQ01  00002PRCP99
0112583140999992000060915004+31400+116330FM-12+006899999V0202701N002019999999N0150001N1+02371+02211100751ADDGF107991071001999999071999MD1210071+9999REMSYN060AAXX  09151 58314 42965 72702 10237 20221 40075 52007 8707/;
0196583140999992000060918004+31400+116330FM-12+006899999V0201801N002012200019N0200001N1+02231+02061100691ADDAA199000091GA1001+999999999GF100991001001999999001001KA1999M+02961MA1999999099861MD1710061+9999REMSYN070AAXX  09181 58314 32970 01802 10223 20206 39986 40069 57006 333 10296;EQDQ01  00002PRCP99
0112583140999992000060921004+31400+116330FM-12+006899999V0209999C000019999999N0100001N1+02181+02031100841ADDGF108991081001999999071999MD1210141+9999REMSYN060AAXX  09211 58314 42960 80000 10218 20203 40084 52014 8807/;
0178583140999992000061000004+31400+116330FM-12+006899999V0202901N003019999999N0120001N1+02201+01851101041ADDAA106000191GF108991081001999999071999MA1999999100201MD1210201+0401MW1601REMSYN094AAXX  10001 58314 11962 82903 10220 20185 30020 40104 52020 69911 76000 8807/ 333 00400 70001;
0140583140999992000061003004+31400+116330FM-12+006899999V0200401N002019999999N0150001N1+02241+01471100941ADDAY161031AY261031GF108991081001999999071999MD1710101+9999MW1601REMSYN066AAXX  10031 58314 41965 80402 10224 20147 40094 57010 76066 8807/;
0193583140999992000061006004+31400+116330FM-12+006899999V0202501N001019999999N0300001N1+02441+01651100991ADDAA106000891AY161061GF108991081001999999071999KA1999N+02151MA1999999100151MD1210051+9999MW1001REMSYN088AAXX  10061 58314 11980 82501 10244 20165 30015 40099 52005 69971 70060 8807/ 333 20215;
0112583140999992000061009004+31400+116330FM-12+006899999V0209999C000012200019N0300001N1+02581+01881100871ADDGF104991041001999999041001MD1710121+9999REMSYN060AAXX  10091 58314 42980 40000 10258 20188 40087 57012 84040;
0144583140999992000061012004+31400+116330FM-12+006899999V0209999C000019999999N0200001N1+02381+01781100911ADDAA199000021GF107991071001999999071999MA1999999100071MD1210041+9999REMSYN066AAXX  10121 58314 32970 70000 10238 20178 30007 40091 52004 8707/;
0112583140999992000061015004+31400+116330FM-12+006899999V0203401N001012200019N0200001N1+01961+01781100971ADDGF102991021001999999041001MD1210051+9999REMSYN060AAXX  10151 58314 42970 23401 10196 20178 40097 52005 82040;
0196583140999992000061018004+31400+116330FM-12+006899999V0209999C000012200019N0200001N1+01781+01631100931ADDAA199000091GA1001+999999999GF100991001001999999001001KA1999M+02601MA1999999100081MD1710041+9999REMSYN070AAXX  10181 58314 32970 00000 10178 20163 30008 40093 57004 333 10260;EQDQ01  00002PRCP99
0133583140999992000061021004+31400+116330FM-12+006899999V0202901N001010075019N0200001N1+01751+01621100971ADDAA124000891GF108991081051008001999999MD1210041+9999REMSYN070AAXX  10211 58314 42570 82901 10175 20162 40097 52004 885// 333 70008;
0160583140999992000061100004+31400+116330FM-12+006899999V0202701N002010075019N0100001N1+01961+01661101081ADDAA124000891GF107991071051008001999999MA1999999100231MD1210111+0001REMSYN082AAXX  11001 58314 32560 72702 10196 20166 30023 40108 52011 875// 333 00052 70007;
0112583140999992000061103004+31400+116330FM-12+006899999V0201401N002012200019N0200001N1+02501+01841101081ADDGF103991031001999999041001MD1410001+9999REMSYN060AAXX  11031 58314 42970 31402 10250 20184 40108 54000 83040;
0186583140999992000061106004+31400+116330FM-12+006899999V0200901N004019999999N0250001N1+02731+01491100941ADDAA199000091GF105991051001999999041001KA1999N+01641MA1999999100101MD1710131+9999REMSYN076AAXX  11061 58314 32975 50904 10273 20149 30010 40094 57013 85040 333 20164;EQDQ01  00002PRCP99
0112583140999992000061109004+31400+116330FM-12+006899999V0201101N004019999999N0250001N1+02661+01391100831ADDGF106991001001999999001021MD1710111+9999REMSYN060AAXX  11091 58314 42975 61104 10266 20139 40083 57011 80002;
0163583140999992000061112004+31400+116330FM-12+006899999V0201101N002019999999N0200001N1+02361+01681100951ADDAA199000091GF107991001001999999001021MA1999999100101MD1210111+9999REMSYN066AAXX  11121 58314 32970 71102 10236 20168 30010 40095 52011 80002;EQDQ01  00002PRCP99
0112583140999992000061115004+31400+116330FM-12+006899999V0202901N002019999999N0150001N1+02061+01671101081ADDGF107991001001999999001021MD1210141+9999REMSYN060AAXX  11151 58314 42965 72902 10206 20167 40108 52014 80002;
0186583140999992000061118004+31400+116330FM-12+006899999V0202901N001019999999N0150001N1+01901+01671100951ADDAA199000091GF107991001001999999001021KA1999M+02781MA1999999100111MD1710131+9999REMSYN076AAXX  11181 58314 32965 72901 10190 20167 30011 40095 57013 80002 333 10278;EQDQ01  00002PRCP99
0112583140999992000061121004+31400+116330FM-12+006899999V0203201N001019999999N0150001N1+01821+01651101101ADDGF107991001001999999001021MD1210141+9999REMSYN060AAXX  11211 58314 42965 73201 10182 20165 40110 52014 80002;
0183583140999992000061200004+31400+116330FM-12+006899999V0202901N002012200019N0150001N1+01961+01651101141ADDAA199000091GA1001+999999999GF100991001001999999001001MA1999999100301MD1210051+0011REMSYN070AAXX  12001 58314 32965 02902 10196 20165 30030 40114 52005 333 00100;EQDQ01  00002PRCP99
0112583140999992000061203004+31400+116330FM-12+006899999V0201101N002019999999N0150001N1+02541+01561101201ADDGF107991001001999999001021MD1210061+9999REMSYN060AAXX  12031 58314 42965 71102 10254 20156 40120 52006 80002;
0156583140999992000061206004+31400+116330FM-12+006899999V0201401N004019999999N0200001N1+02701+01561101071ADDGF107991001001999999001021KA1999N+01751MA1999999100241MD1710121+9999REMSYN076AAXX  12061 58314 42970 71404 10270 20156 30024 40107 57012 80002 333 20175;
0112583140999992000061209004+31400+116330FM-12+006899999V0201101N002019999999N0200001N1+02671+01471100921ADDGF107991001001999999001021MD1710141+9999REMSYN060AAXX  12091 58314 42970 71102 10267 20147 40092 57014 80002;
0173583140999992000061212004+31400+116330FM-12+006899999V0201401N002012200019N0200001N1+02351+01671101031ADDAA199000091GA1001+999999999GF100991001001999999001001MA1999999100181MD1210101+9999REMSYN060AAXX  12121 58314 32970 01402 10235 20167 30018 40103 52010;EQDQ01  00002PRCP99
0122583140999992000061215004+31400+116330FM-12+006899999V0209999C000012200019N0150001N1+01951+01671101151ADDGA1001+999999999GF100991001001999999001001MD1210121+9999REMSYN054AAXX  12151 58314 42965 00000 10195 20167 40115 52012;
0196583140999992000061218004+31400+116330FM-12+006899999V0209999C000012200019N0150001N1+01801+01561101071ADDAA199000091GA1001+999999999GF100991001001999999001001KA1999M+02751MA1999999100221MD1710081+9999REMSYN070AAXX  12181 58314 32965 00000 10180 20156 30022 40107 57008 333 10275;EQDQ01  00002PRCP99
0122583140999992000061221004+31400+116330FM-12+006899999V0209999C000012200019N0150001N1+01641+01501101081ADDGA1001+999999999GF100991001001999999001001MD1210011+9999REMSYN054AAXX  12211 58314 42965 00000 10164 20150 40108 52001;
0183583140999992000061300004+31400+116330FM-12+006899999V0203201N002012200019N0200001N1+02031+01471101191ADDAA199000091GA1001+999999999GF100991001001999999001001MA1999999100341MD1210111+0001REMSYN070AAXX  13001 58314 32970 03202 10203 20147 30034 40119 52011 333 00001;EQDQ01  00002PRCP99
0122583140999992000061303004+31400+116330FM-12+006899999V0200201N001012200019N0200001N1+02791+01361101131ADDGA1001+999999999GF100991001001999999001001MD1710051+9999REMSYN054AAXX  13031 58314 42970 00201 10279 20136 40113 57005;
0186583140999992000061306004+31400+116330FM-12+006899999V0201801N002019999999N0200001N1+02981+01151100941ADDAA199000091GF107991001001999999001021KA1999N+01631MA1999999100101MD1710191+9999REMSYN076AAXX  13061 58314 32970 71802 10298 20115 30010 40094 57019 80002 333 20163;EQDQ01  00002PRCP99
0112583140999992000061309004+31400+116330FM-12+006899999V0201101N003012200019N0200001N1+03001+01041100801ADDGF102991001001999999001021MD1710141+9999REMSYN060AAXX  13091 58314 42970 21103 10300 20104 40080 57014 80002;
0163583140999992000061312004+31400+116330FM-12+006899999V0203401N002012200019N0200001N1+02421+01611100851ADDAA199000091GF102991001001999999001021MA1999999100011MD1210051+9999REMSYN066AAXX  13121 58314 32970 23402 10242 20161 30001 40085 52005 80002;EQDQ01  00002PRCP99
0122583140999992000061315004+31400+116330FM-12+006899999V0200901N001012200019N0200001N1+02051+01671100961ADDGA1001+999999999GF100991001001999999001001MD1210111+9999REMSYN054AAXX  13151 58314 42970 00901 10205 20167 40096 52011;
0196583140999992000061318004+31400+116330FM-12+006899999V0200901N001012200019N0150001N1+01931+01541100911ADDAA199000091GA1001+999999999GF100991001001999999001001KA1999M+03001MA1999999100071MD1710051+9999REMSYN070AAXX  13181 58314 32965 00901 10193 20154 30007 40091 57005 333 10300;EQDQ01  00002PRCP99
0122583140999992000061321004+31400+116320FM-12+006899999V0200901N001012200019N0120001N1+01791+01541100911ADDGA1001+999999999GF100991001001999999001001MD1410001+9999REMSYN054AAXX  13211 58314 42962 00901 10179 20154 40091 54000;
0183583140999992000061400004+31400+116320FM-12+006899999V0201101N001012200019N0150001N1+02261+01661100931ADDAA199000091GA1001+999999999GF100991001001999999001001MA1999999100091MD1210021+0031REMSYN070AAXX  14001 58314 32965 01101 10226 20166 30009 40093 52002 333 05302;EQDQ01  00002PRCP99
0122583140999992000061403004+31400+116320FM-12+006899999V0200901N002012200019N0200001N1+02861+01581100831ADDGA1001+999999999GF100991001001999999001001MD1710101+9999REMSYN054AAXX  14031 58314 42970 00902 10286 20158 40083 57010;
0196583140999992000061406004+31400+116320FM-12+006899999V0203401N002012200019N0200001N1+03191+01491100581ADDAA199000091GA1001+999999999GF100991001001999999001001KA1999N+01761MA1999999099751MD1710241+9999REMSYN070AAXX  14061 58314 32970 03402 10319 20149 39975 40058 57024 333 20176;EQDQ01  00002PRCP99
0122583140999992000061409004+31400+116320FM-12+006899999V0200901N002012200019N0200001N1+03171+01351100461ADDGA1001+999999999GF100991001001999999001001MD1710121+9999REMSYN054AAXX  14091 58314 42970 00902 10317 20135 40046 57012;
0163583140999992000061412004+31400+116320FM-12+006899999V0201101N001019999999N0200001N1+02691+01801100611ADDAA199000091GF107991071001999999071999MA1999999099771MD1210141+9999REMSYN066AAXX  14121 58314 32970 71101 10269 20180 39977 40061 52014 8707/;EQDQ01  00002PRCP99
0112583140999992000061415004+31400+116320FM-12+006899999V0209999C000019999999N0200001N1+02391+01631100671ADDGF107991071001999999071999MD1210071+9999REMSYN060AAXX  14151 58314 42970 70000 10239 20163 40067 52007 8707/;
0196583140999992000061418004+31400+116320FM-12+006899999V0209999C000012200019N0150001N1+02131+01801100581ADDAA199000091GA1001+999999999GF100991001001999999001001KA1999M+03351MA1999999099751MD1710091+9999REMSYN070AAXX  14181 58314 32965 00000 10213 20180 39975 40058 57009 333 10335;EQDQ01  00002PRCP99
0112583140999992000061421004+31400+116320FM-12+006899999V0202901N002019999999N0150001N1+01901+01741100571ADDGF108991081001999999071999MD1710011+9999REMSYN060AAXX  14211 58314 42965 82902 10190 20174 40057 57001 8807/;
0173583140999992000061500004+31400+116320FM-12+006899999V0202701N001019999999N0200001N1+02101+01751100641ADDAA199000091GF106991061001999999041001MA1999999099801MD1210061+0031REMSYN076AAXX  15001 58314 32970 62701 10210 20175 39980 40064 52006 86040 333 05352;EQDQ01  00002PRCP99
0112583140999992000061503004+31400+116320FM-12+006899999V0202701N002019999999N0200001N1+02761+01901100571ADDGF107991071001999999071999MD1710061+9999REMSYN060AAXX  15031 58314 42970 72702 10276 20190 40057 57006 8707/;
0186583140999992000061506004+31400+116320FM-12+006899999V0200401N002019999999N0200001N1+03001+01601100451ADDAA199000091GF107991071001999999041001KA1999N+01821MA1999999099621MD1710121+9999REMSYN076AAXX  15061 58314 32970 70402 10300 20160 39962 40045 57012 87040 333 20182;EQDQ01  00002PRCP99
0112583140999992000061509004+31400+116320FM-12+006899999V0201601N001019999999N0200001N1+02901+01781100321ADDGF108991081001999999071999MD1710131+9999REMSYN060AAXX  15091 58314 42970 81601 10290 20178 40032 57013 8807/;
0163583140999992000061512004+31400+116320FM-12+006899999V0201101N002019999999N0200001N1+02591+02011100471ADDAA199000091GF107991071001999999071999MA1999999099631MD1210141+9999REMSYN066AAXX  15121 58314 32970 71102 10259 20201 39963 40047 52014 8707/;EQDQ01  00002PRCP99
0112583140999992000061515004+31400+116320FM-12+006899999V0202701N001019999999N0200001N1+02271+02031100671ADDGF107991071001999999071999MD1210211+9999REMSYN060AAXX  15151 58314 42970 72701 10227 20203 40067 52021 8707/;
0186583140999992000061518004+31400+116320FM-12+006899999V0203201N001019999999N0200001N1+02101+01881100611ADDAA199000091GF107991071001999999071999KA1999M+03031MA1999999099781MD1710061+9999REMSYN076AAXX  15181 58314 32970 73201 10210 20188 39978 40061 57006 8707/ 333 10303;EQDQ01  00002PRCP99
0112583140999992000061521004+31400+116320FM-12+006899999V0202901N001012200019N0200001N1+01871+01741100671ADDGF102991021001999999041001MD1210051+9999REMSYN060AAXX  15211 58314 42970 22901 10187 20174 40067 52005 82040;
0183583140999992000061600004+31400+116320FM-12+006899999V0202701N001012200019N0150001N1+02321+01821100811ADDAA199000091GA1001+999999999GF100991001001999999001001MA1999999099971MD1210141+0021REMSYN070AAXX  16001 58314 32965 02701 10232 20182 39997 40081 52014 333 00202;EQDQ01  00002PRCP99
0122583140999992000061603004+31400+116320FM-12+006899999V0202701N002012200019N0250001N1+02961+01671100751ADDGA1001+999999999GF100991001001999999001001MD1710051+9999REMSYN054AAXX  16031 58314 42975 02702 10296 20167 40075 57005;
0196583140999992000061606004+31400+116320FM-12+006899999V0200401N002012200019N0250001N1+03181+01431100661ADDAA199000091GA1001+999999999GF100991001001999999001001KA1999N+01861MA1999999099831MD1710091+9999REMSYN070AAXX  16061 58314 32975 00402 10318 20143 39983 40066 57009 333 20186;EQDQ01  00002PRCP99
0122583140999992000061609004+31400+116320FM-12+006899999V0200701N003012200019N0250001N1+03201+01671100551ADDGA1001+999999999GF100991001001999999001001MD1710111+9999REMSYN054AAXX  16091 58314 42975 00703 10320 20167 40055 57011;
0163583140999992000061612004+31400+116320FM-12+006899999V0201101N002019999999N0150001N1+02791+01951100671ADDAA199000091GF107991001001999999001021MA1999999099841MD1210121+9999REMSYN066AAXX  16121 58314 32965 71102 10279 20195 39984 40067 52012 80002;EQDQ01  00002PRCP99
0122583140999992000061615004+31400+116320FM-12+006899999V0202701N001012200019N0150001N1+02321+02031100911ADDGA1001+999999999GF100991001001999999001001MD1210241+9999REMSYN054AAXX  16151 58314 42965 02701 10232 20203 40091 52024;
0196583140999992000061618004+31400+116320FM-12+006899999V0209999C000012200019N0200001N1+02111+01971100971ADDAA199000091GA1001+999999999GF100991001001999999001001KA1999M+03241MA1999999100141MD1210061+9999REMSYN070AAXX  16181 58314 32970 00000 10211 20197 30014 40097 52006 333 10324;EQDQ01  00002PRCP99
0122583140999992000061621004+31400+116320FM-12+006899999V0209999C000012200019N0100001N1+02041+01881101011ADDGA1001+999999999GF100991001001999999001001MD1210041+9999REMSYN054AAXX  16211 58314 42960 00000 10204 20188 40101 52004;
0183583140999992000061700004+31400+116320FM-12+006899999V0200901N002012200019N0200001N1+02241+01961101161ADDAA199000091GA1001+999999999GF100991001001999999001001MA1999999100321MD1210141+0041REMSYN070AAXX  17001 58314 32970 00902 10224 20196 30032 40116 52014 333 00451;EQDQ01  00002PRCP99
0122583140999992000061703004+31400+116320FM-12+006899999V0200701N002012200019N0300001N1+02781+01921101211ADDGA1001+999999999GF100991001001999999001001MD1210051+9999REMSYN054AAXX  17031 58314 42980 00702 10278 20192 40121 52005;
0196583140999992000061706004+31400+116320FM-12+006899999V0200701N005012200019N0300001N1+03001+01791101161ADDAA199000091GA1001+999999999GF100991001001999999001001KA1999N+01951MA1999999100321MD1710051+9999REMSYN070AAXX  17061 58314 32980 00705 10300 20179 30032 40116 57005 333 20195;EQDQ01  00002PRCP99
0122583140999992000061709004+31400+116320FM-12+006899999V0200901N004012200019N0300001N1+02971+01751101031ADDGA1001+999999999GF100991001001999999001001MD1710121+9999REMSYN054AAXX  17091 58314 42980 00904 10297 20175 40103 57012;
0173583140999992000061712004+31400+116320FM-12+006899999V0209999C000012200019N0200001N1+02621+01771101111ADDAA199000091GA1001+999999999GF100991001001999999001001MA1999999100271MD1210071+9999REMSYN060AAXX  17121 58314 32970 00000 10262 20177 30027 40111 52007;EQDQ01  00002PRCP99
0122583140999992000061715004+31400+116320FM-12+006899999V0209999C000012200019N0200001N1+02301+01991101261ADDGA1001+999999999GF100991001001999999001001MD1210151+9999REMSYN054AAXX  17151 58314 42970 00000 10230 20199 40126 52015;
0186583140999992000061718004+31400+116320FM-12+006899999V0202701N001019999999N0200001N1+02031+01871101221ADDAA199000091GF105991001001999999001021KA1999M+03021MA1999999100381MD1710041+9999REMSYN076AAXX  17181 58314 32970 52701 10203 20187 30038 40122 57004 80002 333 10302;EQDQ01  00002PRCP99
0122583140999992000061721004+31400+116320FM-12+006899999V0203201N001012200019N0200001N1+01901+01801101191ADDGA1001+999999999GF100991001001999999001001MD1710031+9999REMSYN054AAXX  17211 58314 42970 03201 10190 20180 40119 57003;
0183583140999992000061800004+31400+116320FM-12+006899999V0202901N001012200019N0120001N1+02181+01881101291ADDAA199000091GA1001+999999999GF100991001001999999001001MA1999999100451MD1210101+0011REMSYN070AAXX  18001 58314 32962 02901 10218 20188 30045 40129 52010 333 00151;EQDQ01  00002PRCP99
0112583140999992000061803004+31400+116320FM-12+006899999V0201101N001012200019N0150001N1+02831+01891101291ADDGF101991011011012501001001MD1410001+9999REMSYN060AAXX  18031 58314 42665 11101 10283 20189 40129 54000 81100;
0196583140999992000061806004+31400+116320FM-12+006899999V0200901N003012200019N0200001N1+03021+01671101051ADDAA199000091GA1001+999999999GF100991001001999999001001KA1999N+01901MA1999999100211MD1710241+9999REMSYN070AAXX  18061 58314 32970 00903 10302 20167 30021 40105 57024 333 20190;EQDQ01  00002PRCP99
0122583140999992000061809004+31400+116320FM-12+006899999V0200901N005012200019N0200001N1+03041+01651100911ADDGA1001+999999999GF100991001001999999001001MD1710141+9999REMSYN054AAXX  18091 58314 42970 00905 10304 20165 40091 57014;
0173583140999992000061812004+31400+116320FM-12+006899999V0201101N001012200019N0200001N1+02671+01881100951ADDAA199000091GA1001+999999999GF100991001001999999001001MA1999999100111MD1210041+9999REMSYN060AAXX  18121 58314 32970 01101 10267 20188 30011 40095 52004;EQDQ01  00002PRCP99
0122583140999992000061815004+31400+116320FM-12+006899999V0202901N001012200019N0150001N1+02201+01901100991ADDGA1001+999999999GF100991001001999999001001MD1210041+9999REMSYN054AAXX  18151 58314 42965 02901 10220 20190 40099 52004;
0196583140999992000061818004+31400+116320FM-12+006899999V0202901N001012200019N0200001N1+01991+01811100901ADDAA199000091GA1001+999999999GF100991001001999999001001KA1999M+03071MA1999999100061MD1710091+9999REMSYN070AAXX  18181 58314 32970 02901 10199 20181 30006 40090 57009 333 10307;EQDQ01  00002PRCP99
0122583140999992000061821004+31400+116320FM-12+006899999V0202901N001012200019N0150001N1+01901+01771100861ADDGA1001+999999999GF100991001001999999001001MD1710051+9999REMSYN054AAXX  18211 58314 42965 02901 10190 20177 40086 57005;
0173583140999992000061900004+31400+116320FM-12+006899999V0209999C000019999999N0100001N1+02201+01891100971ADDAA199000091GF106991061001999999041001MA1999999100131MD1210121+0031REMSYN076AAXX  19001 58314 32960 60000 10220 20189 30013 40097 52012 86040 333 05300;EQDQ01  00002PRCP99
0112583140999992000061903004+31400+116320FM-12+006899999V0200701N003012200019N0150001N1+02851+01921100861ADDGF102991021001999999041001MD1710111+9999REMSYN060AAXX  19031 58314 42965 20703 10285 20192 40086 57011 82040;
0186583140999992000061906004+31400+116320FM-12+006899999V0201101N003019999999N0200001N1+03101+01851100661ADDAA199000091GF105991051001999999041001KA1999N+01861MA1999999099831MD1710191+9999REMSYN076AAXX  19061 58314 32970 51103 10310 20185 39983 40066 57019 85040 333 20186;EQDQ01  00002PRCP99
0112583140999992000061909004+31400+116320FM-12+006899999V0200901N003019999999N0200001N1+03141+02011100471ADDGF106991061001999999041001MD1710191+9999REMSYN060AAXX  19091 58314 42970 60903 10314 20201 40047 57019 86040;
0173583140999992000061912004+31400+116320FM-12+006899999V0209999C000012200019N0300001N1+02851+02121100531ADDAA199000091GA1001+999999999GF100991001001999999001001MA1999999099701MD1210061+9999REMSYN060AAXX  19121 58314 32980 00000 10285 20212 39970 40053 52006;EQDQ01  00002PRCP99
0122583140999992000061915004+31400+116320FM-12+006899999V0202901N001012200019N0200001N1+02531+02161100581ADDGA1001+999999999GF100991001001999999001001MD1210051+9999REMSYN054AAXX  19151 58314 42970 02901 10253 20216 40058 52005;
0186583140999992000061918004+31400+116320FM-12+006899999V0203401N001019999999N0200001N1+02361+02151100491ADDAA199000091GF107991071001999999071999KA1999M+03201MA1999999099661MD1710091+9999REMSYN076AAXX  19181 58314 32970 73401 10236 20215 39966 40049 57009 8707/ 333 10320;EQDQ01  00002PRCP99
0112583140999992000061921004+31400+116320FM-12+006899999V0209999C000019999999N0150001N1+02301+02121100491ADDGF108991081001999999071999MD1410001+9999REMSYN060AAXX  19211 58314 42965 80000 10230 20212 40049 54000 8807/;
0183583140999992000062000004+31400+116320FM-12+006899999V0203401N001012200019N0100001N1+02531+02171100581ADDAA199000091GA1001+999999999GF100991001001999999001001MA1999999099751MD1210091+0041REMSYN070AAXX  20001 58314 32960 03401 10253 20217 39975 40058 52009 333 05403;EQDQ01  00002PRCP99
0122583140999992000062003004+31400+116320FM-12+006899999V0200401N002012200019N0200001N1+03171+01971100511ADDGA1001+999999999GF100991001001999999001001MD1710061+9999REMSYN054AAXX  20031 58314 42970 00402 10317 20197 40051 57006;
0198583140999992000062006004+31400+116320FM-12+006899999V0203401N005010360019N0200001N1+03211+02041100421ADDAA199000091GF108991021091008001071999KA1999N+02281MA1999999099591MD1710101+9999MW1291REMSYN082AAXX  20061 58314 31570 83405 10321 20204 39959 40042 57010 72900 8297/ 333 20228;EQDQ01  00002PRCP99
0132583140999992000062009004+31400+116320FM-12+006899999V0200901N005012200019N0200001N1+02721+02141100421ADDAY161031GF104991041011012501001001MD1410001+9999MW1001REMSYN066AAXX  20091 58314 41670 40905 10272 20214 40042 54000 70060 84100;
0170583140999992000062012004+31400+116320FM-12+006899999V0202701N001019999999N0150001N1+02581+02231100471ADDAA106000791AY161061GF107991001001999999001021MA1999999099641MD1210051+9999MW1001REMSYN078AAXX  20121 58314 11965 72701 10258 20223 39964 40047 52005 69901 70060 80002;
0112583140999992000062015004+31400+116320FM-12+006899999V0202701N002019999999N0150001N1+02421+02201100541ADDGF106991001001999999001021MD1210071+9999REMSYN060AAXX  20151 58314 42965 62702 10242 20220 40054 52007 80002;
0186583140999992000062018004+31400+116320FM-12+006899999V0209999C000019999999N0150001N1+02331+02201100481ADDAA199000091GF108991081001999999071999KA1999M+03261MA1999999099651MD1710061+9999REMSYN076AAXX  20181 58314 32965 80000 10233 20220 39965 40048 57006 8807/ 333 10326;EQDQ01  00002PRCP99
0133583140999992000062021004+31400+116320FM-12+006899999V0202701N001019999999N0150001N1+02291+02251100421ADDAA124000791GF108991081001999999071999MD1710061+9999REMSYN070AAXX  20211 58314 42965 82701 10229 20225 40042 57006 8807/ 333 79999;
0186583140999992000062100004+31400+116320FM-12+006899999V0202701N003019999999N0100001N1+02441+02231100571ADDAA106000391AY161061GF108991081001999999071999MA1999999099741MD1210151+0001MW1601REMSYN094AAXX  21001 58314 11960 82703 10244 20223 39974 40057 52015 69931 76060 8807/ 333 00051 70003;
0140583140999992000062103004+31400+116320FM-12+006899999V0202701N002019999999N0100001N1+02381+02081100631ADDAY161031AY261031GF108991081001999999071999MD1210051+9999MW1601REMSYN066AAXX  21031 58314 41960 82702 10238 20208 40063 52005 76066 8807/;
0201583140999992000062106004+31400+116320FM-12+006899999V0202701N002019999999N0100001N1+02311+02131100561ADDAA106008991AY161061AY261061GF108991081001999999071999KA1999N+02261MA1999999099721MD1710071+9999MW1601REMSYN088AAXX  21061 58314 11960 82702 10231 20213 39972 40056 57007 60091 76066 8807/ 333 20226;
0132583140999992000062109004+31400+116320FM-12+006899999V0200401N001019999999N0150001N1+02591+02251100341ADDAY161031GF107991071001999999041999MD1710211+9999MW1001REMSYN066AAXX  21091 58314 41965 70401 10259 20225 40034 57021 70060 8704/;
0170583140999992000062112004+31400+116320FM-12+006899999V0201401N003019999999N0150001N1+02501+02271100341ADDAA106000591AY161061GF106991061001999999041001MA1999999099511MD1410001+9999MW1001REMSYN078AAXX  21121 58314 11965 61403 10250 20227 39951 40034 54000 69961 70060 86040;
0122583140999992000062115004+31400+116320FM-12+006899999V0202201N001012200019N0200001N1+02331+02231100401ADDGA1001+999999999GF100991001001999999001001MD1210051+9999REMSYN054AAXX  21151 58314 42970 02201 10233 20223 40040 52005;
0177583140999992000062118004+31400+116320FM-12+006899999V0209999C000012200019N0100001N1+02201+02151100341ADDAA199000021GA1001+999999999GF100991001001999999001001KA1999M+02641MA1999999099501MD1710061+9999REMSYN070AAXX  21181 58314 32960 00000 10220 20215 39950 40034 57006 333 10264;
0133583140999992000062121004+31400+116320FM-12+006899999V0200701N001019999999N0120001N1+02201+02141100421ADDAA124009491GF108991081001999999071999MD1210081+9999REMSYN070AAXX  21211 58314 42962 80701 10220 20214 40042 52008 8807/ 333 70095;
0160583140999992000062200004+31400+116320FM-12+006899999V0209999C000019999999N0150001N1+02521+02261100421ADDAA124009191GF105991051001999999041001MA1999999099591MD1210011-0201REMSYN082AAXX  22001 58314 32965 50000 10252 20226 39959 40042 52001 85040 333 05201 70092;
0112583140999992000062203004+31400+116320FM-12+006899999V0200901N004012200019N0200001N1+02961+02271100381ADDGF102991021011008001001001MD1710041+9999REMSYN060AAXX  22031 58314 42570 20904 10296 20227 40038 57004 82100;
0198583140999992000062206004+31400+116320FM-12+006899999V0201401N004010075019N0150001N1+02961+02271100181ADDAA199000091GF108991081091008001999999KA1999N+02171MA1999999099351MD1710201+9999MW1171REMSYN082AAXX  22061 58314 31565 81404 10296 20227 39935 40018 57020 71700 889// 333 20217;EQDQ01  00002PRCP99
0140583140999992000062209004+31400+116320FM-12+006899999V0200201N003010075019N0120001N1+02481+02281100141ADDAY191031AY281031GF108991081091008001999999MD1710051+9999MW1801REMSYN066AAXX  22091 58314 41562 80203 10248 20228 40014 57005 78098 889//;
0178583140999992000062212004+31400+116320FM-12+006899999V0203201N001019999999N0150001N1+02281+02161100211ADDAA106039991AY191061AY281061GF108991081001999999071999MA1999999099381MD1210081+9999MW1601REMSYN078AAXX  22121 58314 11965 83201 10228 20216 39938 40021 52008 60401 76098 8807/;
0142583140999992000062215004+31400+116320FM-12+006899999V0200201N001012200019N0200001N1+02251+02161100321ADDAY161031GA1001+999999999GF100991001001999999001001MD1210111+9999MW1001REMSYN060AAXX  22151 58314 41970 00201 10225 20216 40032 52011 70060;
0193583140999992000062218004+31400+116320FM-12+006899999V0209999C000012200019N0200001N1+02251+02111100291ADDAA106000191AY161061GF102991021001999999041001KA1999M+03101MA1999999099461MD1710031+9999MW1001REMSYN088AAXX  22181 58314 11970 20000 10225 20211 39946 40029 57003 69911 70060 82040 333 10310;
0145583140999992000062221004+31400+116320FM-12+006899999V0209999C000012200019N0070001N1+02151+02091100221ADDAA124039691GF102991021001999999041001MD1710081+9999MW1101REMSYN076AAXX  22211 58314 41957 20000 10215 20209 40022 57008 71000 82040 333 70396;
0160583140999992000062300004+31400+116320FM-12+006899999V0209999C000012200019N0150001N1+02451+02201100291ADDAA124039691GF103991031001999999041001MA1999999099451MD1210071-0101REMSYN082AAXX  23001 58314 32965 30000 10245 20220 39945 40029 52007 83040 333 05151 70396;
0112583140999992000062303004+31400+116320FM-12+006899999V0200901N002010150019N0200001N1+02901+02431100311ADDGF107991071041017501999999MD1210031+9999REMSYN060AAXX  23031 58314 42770 70902 10290 20243 40031 52003 874//;
0186583140999992000062306004+31400+116320FM-12+006899999V0202901N001012200019N0250001N1+03131+02381100171ADDAA199000091GF102991021021012501001001KA1999N+02121MA1999999099341MD1710141+9999REMSYN076AAXX  23061 58314 32675 22901 10313 20238 39934 40017 57014 82200 333 20212;EQDQ01  00002PRCP99
0112583140999992000062309004+31400+116320FM-12+006899999V0201801N002012200019N0200001N1+03131+02361100011ADDGF103991031011012501001001MD1710161+9999REMSYN060AAXX  23091 58314 42670 31802 10313 20236 40001 57016 83100;
0163583140999992000062312004+31400+116320FM-12+006899999V0202201N005010075019N0200001N1+02741+02051100151ADDAA199000091GF105991051041008001001001MA1999999099321MD1210141+9999REMSYN066AAXX  23121 58314 32570 52205 10274 20205 39932 40015 52014 85400;EQDQ01  00002PRCP99
0122583140999992000062315004+31400+116320FM-12+006899999V0202701N004012200019N0200001N1+02661+02191100201ADDGA1001+999999999GF100991001001999999001001MD1210061+9999REMSYN054AAXX  23151 58314 42970 02704 10266 20219 40020 52006;
0186583140999992000062318004+31400+116320FM-12+006899999V0203401N001019999999N0120001N1+02601+02281100211ADDAA199000091GF108991081001999999071999KA1999M+03151MA1999999099391MD1210011+9999REMSYN076AAXX  23181 58314 32962 83401 10260 20228 39939 40021 52001 8807/ 333 10315;EQDQ01  00002PRCP99
0112583140999992000062321004+31400+116320FM-12+006899999V0209999C000019999999N0120001N1+02431+02301100211ADDGF107991071001999999071999MD1410001+9999REMSYN060AAXX  23211 58314 42962 70000 10243 20230 40021 54000 8707/;
0173583140999992000062400004+31400+116320FM-12+006899999V0209999C000010075019N0100001N1+02581+02381100281ADDAA199000091GF107991071051008001999999MA1999999099451MD1210061+0001REMSYN076AAXX  24001 58314 32560 70000 10258 20238 39945 40028 52006 875// 333 00001;EQDQ01  00002PRCP99
0112583140999992000062403004+31400+116320FM-12+006899999V0209999C000019999999N0200001N1+02961+02481100241ADDGF108991081001999999071999MD1710031+9999REMSYN060AAXX  24031 58314 42970 80000 10296 20248 40024 57003 8807/;
0193583140999992000062406004+31400+116320FM-12+006899999V0203401N001019999999N0200001N1+02901+02611100211ADDAA106000791AY161061GF108991081001999999071999KA1999N+02431MA1999999099391MD1710031+9999MW1601REMSYN088AAXX  24061 58314 11970 83401 10290 20261 39939 40021 57003 69901 76060 8807/ 333 20243;
0132583140999992000062409004+31400+116320FM-12+006899999V0200901N001019999999N0200001N1+02801+02471100251ADDAY161031GF108991081001999999071999MD1210031+9999MW1001REMSYN066AAXX  24091 58314 41970 80901 10280 20247 40025 52003 70060 8807/;
0170583140999992000062412004+31400+116320FM-12+006899999V0209999C000019999999N0150001N1+02651+02551100341ADDAA106002091AY161061GF108991081001999999071999MA1999999099511MD1210091+9999MW1601REMSYN078AAXX  24121 58314 11965 80000 10265 20255 39951 40034 52009 60021 76060 8807/;
0140583140999992000062415004+31400+116320FM-12+006899999V0200701N001010075019N0150001N1+02501+02401100441ADDAY191031AY261031GF108991081091008001999999MD1210101+9999MW1951REMSYN066AAXX  24151 58314 41565 80701 10250 20240 40044 52010 79596 889//;
0201583140999992000062418004+31400+116320FM-12+006899999V0201401N002010075019N0080001N1+02461+02391100291ADDAA106022191AY191061AY281061GF108991081051008001999999KA1999M+02961MA1999999099461MD1710151+9999MW1601REMSYN088AAXX  24181 58314 11558 81402 10246 20239 39946 40029 57015 60221 76098 885// 333 10296;
0161583140999992000062421004+31400+116320FM-12+006899999V0202901N001010120019N0150001N1+02441+02381100271ADDAA124024691AY161031AY261031GF108991081051012501999999MD1710021+9999MW1601REMSYN076AAXX  24211 58314 41665 82901 10244 20238 40027 57002 76066 885// 333 70246;
0194583140999992000062500004+31400+116320FM-12+006899999V0200901N001019999999N0200001N1+02531+02431100321ADDAA106000891AY161061AY261061GF108991081001999999071999MA1999999099491MD1210051+0001MW1601REMSYN094AAXX  25001 58314 11970 80901 10253 20243 39949 40032 52005 69971 76066 8807/ 333 00051 70248;
0132583140999992000062503004+31400+116320FM-12+006899999V0202001N002019999999N0200001N1+03011+02411100391ADDAY161031GF108991081001999999071999MD1210071+9999MW1001REMSYN066AAXX  25031 58314 41970 82002 10301 20241 40039 52007 70060 8807/;
0193583140999992000062506004+31400+116320FM-12+006899999V0201401N002010360019N0200001N1+03171+02471100261ADDAA106000791AY161061GF107991011011012501071999KA1999N+02431MA1999999099441MD1710121+9999MW1001REMSYN088AAXX  25061 58314 11670 71402 10317 20247 39944 40026 57012 69901 70060 8117/ 333 20243;
0112583140999992000062509004+31400+116320FM-12+006899999V0209999C000010360019N0200001N1+02991+02451100231ADDGF108991011011012501071999MD1710041+9999REMSYN060AAXX  25091 58314 42670 80000 10299 20245 40023 57004 8117/;
0144583140999992000062512004+31400+116320FM-12+006899999V0202901N001019999999N0150001N1+02881+02571100311ADDAA199000021GF108991081001999999071999MA1999999099481MD1210081+9999REMSYN066AAXX  25121 58314 32965 82901 10288 20257 39948 40031 52008 8807/;
0112583140999992000062515004+31400+116320FM-12+006899999V0203601N001019999999N0150001N1+02801+02611100361ADDGF108991081001999999071999MD1210061+9999REMSYN060AAXX  25151 58314 42965 83601 10280 20261 40036 52006 8807/;
0186583140999992000062518004+31400+116320FM-12+006899999V0202901N001010150019N0200001N1+02651+02511100201ADDAA199000091GF108991081051017501999999KA1999M+03191MA1999999099381MD1710161+9999REMSYN076AAXX  25181 58314 32770 82901 10265 20251 39938 40020 57016 885// 333 10319;EQDQ01  00002PRCP99
0133583140999992000062521004+31400+116320FM-12+006899999V0202001N003019999999N0200001N1+02821+02221100201ADDAA124000391GF108991081001999999071999MD1410001+9999REMSYN070AAXX  25211 58314 42970 82003 10282 20222 40020 54000 8807/ 333 70002;
0160583140999992000062600004+31400+116320FM-12+006899999V0202201N003019999999N0200001N1+02851+02421100291ADDAA124000791GF108991081001999999071999MA1999999099471MD1210091+0001REMSYN082AAXX  26001 58314 32970 82203 10285 20242 39947 40029 52009 8807/ 333 00003 79999;
0112583140999992000062603004+31400+116320FM-12+006899999V0202501N003019999999N0200001N1+03151+02381100341ADDGF107991071001999999071999MD1210051+9999REMSYN060AAXX  26031 58314 42970 72503 10315 20238 40034 52005 8707/;
0186583140999992000062606004+31400+116320FM-12+006899999V0202201N003019999999N0200001N1+03241+02311100271ADDAA199000091GF107991071001999999071999KA1999N+02611MA1999999099451MD1710071+9999REMSYN076AAXX  26061 58314 32970 72203 10324 20231 39945 40027 57007 8707/ 333 20261;EQDQ01  00002PRCP99
0112583140999992000062609004+31400+116320FM-12+006899999V0202201N002019999999N0200001N1+03201+02421100201ADDGF107991071001999999041999MD1710071+9999REMSYN060AAXX  26091 58314 42970 72202 10320 20242 40020 57007 8704/;
0163583140999992000062612004+31400+116320FM-12+006899999V0202201N002019999999N0200001N1+03041+02371100281ADDAA199000091GF107991071001999999071999MA1999999099461MD1210081+9999REMSYN066AAXX  26121 58314 32970 72202 10304 20237 39946 40028 52008 8707/;EQDQ01  00002PRCP99
0112583140999992000062615004+31400+116320FM-12+006899999V0201801N002019999999N0200001N1+02951+02391100361ADDGF107991071001999999071999MD1210081+9999REMSYN060AAXX  26151 58314 42970 71802 10295 20239 40036 52008 8707/;
0186583140999992000062618004+31400+116320FM-12+006899999V0201101N002019999999N0150001N1+02721+02571100301ADDAA199000091GF108991081001999999071999KA1999M+03251MA1999999099481MD1710061+9999REMSYN076AAXX  26181 58314 32965 81102 10272 20257 39948 40030 57006 8807/ 333 10325;EQDQ01  00002PRCP99
0112583140999992000062621004+31400+116320FM-12+006899999V0209999C000019999999N0150001N1+02731+02561100291ADDGF108991081001999999071999MD1710011+9999REMSYN060AAXX  26211 58314 42965 80000 10273 20256 40029 57001 8807/;
0173583140999992000062700004+31400+116320FM-12+006899999V0202201N004010360019N0200001N1+03021+02221100391ADDAA199000091GF107991011011012501071999MA1999999099571MD1210101+0011REMSYN076AAXX  27001 58314 32670 72204 10302 20222 39957 40039 52010 8117/ 333 00102;EQDQ01  00002PRCP99
0112583140999992000062703004+31400+116320FM-12+006899999V0202501N006010120019N0200001N1+03371+02361100381ADDGF106991051011012501001021MD1410001+9999REMSYN060AAXX  27031 58314 42670 62506 10337 20236 40038 54000 85102;
0186583140999992000062706004+31400+116320FM-12+006899999V0200701N003010120019N0200001N1+03171+02621100391ADDAA199000091GF106991051011012501001021KA1999N+02671MA1999999099571MD1410001+9999REMSYN076AAXX  27061 58314 32670 60703 10317 20262 39957 40039 54000 85102 333 20267;EQDQ01  00002PRCP99
0112583140999992000062709004+31400+116320FM-12+006899999V0200701N004010360019N0200001N1+02941+02581100401ADDGF107991031011012501041001MD1210011+9999REMSYN060AAXX  27091 58314 42670 70704 10294 20258 40040 52001 83140;
0163583140999992000062712004+31400+116320FM-12+006899999V0200901N001019999999N0150001N1+02771+02501100541ADDAA199000091GF108991081001999999071999MA1999999099721MD1210141+9999REMSYN066AAXX  27121 58314 32965 80901 10277 20250 39972 40054 52014 8807/;EQDQ01  00002PRCP99
0112583140999992000062715004+31400+116320FM-12+006899999V0202501N002019999999N0150001N1+02711+02561100571ADDGF108991081001999999071999MD1210031+9999REMSYN060AAXX  27151 58314 42965 82502 10271 20256 40057 52003 8807/;
0186583140999992000062718004+31400+116320FM-12+006899999V0201801N001019999999N0150001N1+02661+02531100491ADDAA199000091GF108991081001999999071999KA1999M+03401MA1999999099671MD1710081+9999REMSYN076AAXX  27181 58314 32965 81801 10266 20253 39967 40049 57008 8807/ 333 10340;EQDQ01  00002PRCP99
0112583140999992000062721004+31400+116320FM-12+006899999V0201101N001012200019N0150001N1+02561+02531100421ADDGF103991031001999999041001MD1710081+9999REMSYN060AAXX  27211 58314 42965 31101 10256 20253 40042 57008 83040;
0183583140999992000062800004+31400+116320FM-12+006899999V0209999C000012200019N0200001N1+02881+02701100451ADDAA199000091GA1001+999999999GF100991001001999999001001MA1999999099631MD1210041+0011REMSYN070AAXX  28001 58314 32970 00000 10288 20270 39963 40045 52004 333 00151;EQDQ01  00002PRCP99
0122583140999992000062803004+31400+116320FM-12+006899999V0202701N004012200019N0200001N1+03411+02211100331ADDGA1001+999999999GF100991001001999999001001MD1710121+9999REMSYN054AAXX  28031 58314 42970 02704 10341 20221 40033 57012;
0186583140999992000062806004+31400+116320FM-12+006899999V0202701N007010075019N0250001N1+03581+02181100151ADDAA199000091GF106991061011008001001001KA1999N+02551MA1999999099341MD1710171+9999REMSYN076AAXX  28061 58314 32575 62707 10358 20218 39934 40015 57017 86100 333 20255;EQDQ01  00002PRCP99
0112583140999992000062809004+31400+116320FM-12+006899999V0202201N005012200019N0200001N1+03541+02271099991ADDGF103991031011008001001001MD1710161+9999REMSYN060AAXX  28091 58314 42570 32205 10354 20227 49999 57016 83100;
0173583140999992000062812004+31400+116320FM-12+006899999V0201401N002012200019N0300001N1+03281+02261100011ADDAA199000091GA1001+999999999GF100991001001999999001001MA1999999099201MD1210021+9999REMSYN060AAXX  28121 58314 32980 01402 10328 20226 39920 40001 52002;EQDQ01  00002PRCP99
0122583140999992000062815004+31400+116320FM-12+006899999V0202501N001012200019N0300001N1+02881+02471100131ADDGA1001+999999999GF100991001001999999001001MD1210121+9999REMSYN054AAXX  28151 58314 42980 02501 10288 20247 40013 52012;
0186583140999992000062818004+31400+116320FM-12+006899999V0203601N002019999999N0150001N1+02821+02551100021ADDAA199000091GF108991081001999999071999KA1999M+03611MA1999999099211MD1710111+9999REMSYN076AAXX  28181 58314 32965 83602 10282 20255 39921 40002 57011 8807/ 333 10361;EQDQ01  00002PRCP99
0112583140999992000062821004+31400+116320FM-12+006899999V0209999C000019999999N0150001N1+02731+02531100041ADDGF108991081001999999071999MD1210021+9999REMSYN060AAXX  28211 58314 42965 80000 10273 20253 40004 52002 8807/;
0173583140999992000062900004+31400+116320FM-12+006899999V0200901N003010075019N0200001N1+02671+02401100181ADDAA199000091GF107991071051008001999999MA1999999099361MD1210131+0031REMSYN076AAXX  29001 58314 32570 70903 10267 20240 39936 40018 52013 875// 333 05352;EQDQ01  00002PRCP99
0132583140999992000062903004+31400+116320FM-12+006899999V0200401N001010075019N0100001N1+02451+02301100401ADDAY161031GF108991081051008001999999MD1210211+9999MW1601REMSYN066AAXX  29031 58314 41560 80401 10245 20230 40040 52021 76060 885//;
0201583140999992000062906004+31400+116320FM-12+006899999V0201401N001010075019N0150001N1+02431+02311100271ADDAA106016091AY191061AY261061GF108991081091008001999999KA1999N+02351MA1999999099441MD1710131+9999MW1951REMSYN088AAXX  29061 58314 11565 81401 10243 20231 39944 40027 57013 60161 79596 889// 333 20235;
0140583140999992000062909004+31400+116320FM-12+006899999V0202501N002010075019N0200001N1+02801+02451100181ADDAY191031AY281031GF106991061051008001001001MD1710081+9999MW1001REMSYN066AAXX  29091 58314 41570 62502 10280 20245 40018 57008 70098 86500;
0178583140999992000062912004+31400+116320FM-12+006899999V0201801N001010075019N0200001N1+02741+02471100271ADDAA106000191AY191061AY281061GF107991071051008001999999MA1999999099441MD1210081+9999MW1001REMSYN078AAXX  29121 58314 11570 71801 10274 20247 39944 40027 52008 69911 70098 875//;
0122583140999992000062915004+31400+116320FM-12+006899999V0209999C000012200019N0200001N1+02501+02371100401ADDGA1001+999999999GF100991001001999999001001MD1210131+9999REMSYN054AAXX  29151 58314 42970 00000 10250 20237 40040 52013;
0177583140999992000062918004+31400+116320FM-12+006899999V0203401N002012200019N0200001N1+02351+02251100351ADDAA199000021GA1001+999999999GF100991001001999999001001KA1999M+02851MA1999999099511MD1710061+9999REMSYN070AAXX  29181 58314 32970 03402 10235 20225 39951 40035 57006 333 10285;
0133583140999992000062921004+31400+116320FM-12+006899999V0200901N001012200019N0150001N1+02251+02181100471ADDAA124016091GF101991011001999999041001MD1210131+9999REMSYN070AAXX  29211 58314 42965 10901 10225 20218 40047 52013 81040 333 70161;
0160583140999992000063000004+31400+116320FM-12+006899999V0203201N001012200019N0200001N1+02641+02261100561ADDAA124016091GF102991021001999999041001MA1999999099731MD1210091+0401REMSYN082AAXX  30001 58314 32970 23201 10264 20226 39973 40056 52009 82040 333 00400 70161;
0112583140999992000063003004+31400+116320FM-12+006899999V0200901N002012200019N0200001N1+03181+02141100581ADDGF102991021001999999041001MD1210031+9999REMSYN060AAXX  30031 58314 42970 20902 10318 20214 40058 52003 82040;
0186583140999992000063006004+31400+116320FM-12+006899999V0200901N002012200019N0300001N1+03361+02121100451ADDAA199000091GF101991011011008001001001KA1999N+02241MA1999999099631MD1710131+9999REMSYN076AAXX  30061 58314 32580 10902 10336 20212 39963 40045 57013 81100 333 20224;EQDQ01  00002PRCP99
0122583140999992000063009004+31400+116320FM-12+006899999V0201401N002012200019N0250001N1+03421+02211100341ADDGA1001+999999999GF100991001001999999001001MD1710111+9999REMSYN054AAXX  30091 58314 42975 01402 10342 20221 40034 57011;
0173583140999992000063012004+31400+116320FM-12+006899999V0200701N001012200019N0300001N1+03001+02421100501ADDAA199000091GA1001+999999999GF100991001001999999001001MA1999999099681MD1210161+9999REMSYN060AAXX  30121 58314 32980 00701 10300 20242 39968 40050 52016;EQDQ01  00002PRCP99
0122583140999992000063015004+31400+116320FM-12+006899999V0209999C000012200019N0300001N1+02621+02391100651ADDGA1001+999999999GF100991001001999999001001MD1210151+9999REMSYN054AAXX  30151 58314 42980 00000 10262 20239 40065 52015;
0186583140999992000063018004+31400+116320FM-12+006899999V0209999C000019999999N0150001N1+02521+02321100581ADDAA199000091GF107991071001999999071999KA1999M+03441MA1999999099761MD1710071+9999REMSYN076AAXX  30181 58314 32965 70000 10252 20232 39976 40058 57007 8707/ 333 10344;EQDQ01  00002PRCP99
0112583140999992000063021004+31400+116320FM-12+006899999V0202901N001019999999N0150001N1+02451+02301100641ADDGF107991071001999999071999MD1210061+9999REMSYN060AAXX  30211 58314 42965 72901 10245 20230 40064 52006 8707/;
0173583140999992000070100004+31400+116320FM-12+006899999V0203401N002019999999N0150001N1+02641+02341100731ADDAA199000091GF108991081001999999071999MA1999999099901MD1210081+0021REMSYN076AAXX  01001 58314 32965 83402 10264 20234 39990 40073 52008 8807/ 333 00200;EQDQ01  00002PRCP99
0112583140999992000070103004+31400+116320FM-12+006899999V0203201N002019999999N0200001N1+03161+02411100721ADDGF107991071001999999041999MD1410001+9999REMSYN060AAXX  01031 58314 42970 73202 10316 20241 40072 54000 8704/;
0186583140999992000070106004+31400+116320FM-12+006899999V0201601N002019999999N0200001N1+03151+02481100711ADDAA199000091GF108991081001999999071999KA1999N+02431MA1999999099881MD1710021+9999REMSYN076AAXX  01061 58314 32970 81602 10315 20248 39988 40071 57002 8807/ 333 20243;EQDQ01  00002PRCP99
0112583140999992000070109004+31400+116320FM-12+006899999V0200701N001019999999N0200001N1+03141+02541100571ADDGF108991081001999999071999MD1710141+9999REMSYN060AAXX  01091 58314 42970 80701 10314 20254 40057 57014 8807/;
0163583140999992000070112004+31400+116320FM-12+006899999V0209999C000019999999N0150001N1+02861+02571100621ADDAA199000091GF108991081001999999071999MA1999999099791MD1210051+9999REMSYN066AAXX  01121 58314 32965 80000 10286 20257 39979 40062 52005 8807/;EQDQ01  00002PRCP99
0112583140999992000070115004+31400+116320FM-12+006899999V0201101N001019999999N0150001N1+02651+02471100721ADDGF108991081001999999071999MD1210111+9999REMSYN060AAXX  01151 58314 42965 81101 10265 20247 40072 52011 8807/;
0186583140999992000070118004+31400+116320FM-12+006899999V0209999C000019999999N0200001N1+02521+02291100611ADDAA199000091GF107991071001999999071999KA1999M+03301MA1999999099781MD1710121+9999REMSYN076AAXX  01181 58314 32970 70000 10252 20229 39978 40061 57012 8707/ 333 10330;EQDQ01  00002PRCP99
0112583140999992000070121004+31400+116320FM-12+006899999V0202701N002019999999N0200001N1+02371+02131100561ADDGF108991081001999999071999MD1710031+9999REMSYN060AAXX  01211 58314 42970 82702 10237 20213 40056 57003 8807/;
0173583140999992000070200004+31400+116320FM-12+006899999V0201401N001019999999N0100001N1+02431+02131100721ADDAA199000091GF108991081001999999071999MA1999999099891MD1210141+0001REMSYN076AAXX  02001 58314 32960 81401 10243 20213 39989 40072 52014 8807/ 333 00052;EQDQ01  00002PRCP99
0112583140999992000070203004+31400+116320FM-12+006899999V0202201N001019999999N0150001N1+02781+02291100781ADDGF107991071001999999071999MD1210061+9999REMSYN060AAXX  02031 58314 42965 72201 10278 20229 40078 52006 8707/;
0186583140999992000070206004+31400+116320FM-12+006899999V0202701N001019999999N0150001N1+03141+02421100671ADDAA199000091GF107991071001999999041999KA1999N+02331MA1999999099841MD1710111+9999REMSYN076AAXX  02061 58314 32965 72701 10314 20242 39984 40067 57011 8704/ 333 20233;EQDQ01  00002PRCP99
0112583140999992000070209004+31400+116320FM-12+006899999V0203201N001019999999N0150001N1+03081+02411100631ADDGF108991081001999999071999MD1710041+9999REMSYN060AAXX  02091 58314 42965 83201 10308 20241 40063 57004 8807/;
0163583140999992000070212004+31400+116320FM-12+006899999V0201401N001019999999N0150001N1+02841+02551100651ADDAA199000091GF108991081001999999071999MA1999999099821MD1210021+9999REMSYN066AAXX  02121 58314 32965 81401 10284 20255 39982 40065 52002 8807/;EQDQ01  00002PRCP99
0132583140999992000070215004+31400+116320FM-12+006899999V0201101N002019999999N0150001N1+02721+02541100721ADDAY161031GF108991081001999999071999MD1210071+9999MW1211REMSYN066AAXX  02151 58314 41965 81102 10272 20254 40072 52007 72160 8807/;
0193583140999992000070218004+31400+116320FM-12+006899999V0201401N001019999999N0120001N1+02571+02411100591ADDAA106000791AY161061GF108991081001999999071999KA1999M+03151MA1999999099771MD1710121+9999MW1001REMSYN088AAXX  02181 58314 11962 81401 10257 20241 39977 40059 57012 69901 70060 8807/ 333 10315;
0133583140999992000070221004+31400+116320FM-12+006899999V0209999C000019999999N0120001N1+02501+02411100571ADDAA124000791GF108991081001999999071999MD1710031+9999REMSYN070AAXX  02211 58314 42962 80000 10250 20241 40057 57003 8807/ 333 79999;
0160583140999992000070300004+31400+116320FM-12+006899999V0200401N001019999999N0150001N1+02681+02301100701ADDAA124000791GF105991051001999999041001MA1999999099871MD1210131+0001REMSYN082AAXX  03001 58314 32965 50401 10268 20230 39987 40070 52013 85040 333 00003 79999;
0112583140999992000070303004+31400+116320FM-12+006899999V0200701N002019999999N0150001N1+03021+02471100701ADDGF108991081001999999071999MD1410001+9999REMSYN060AAXX  03031 58314 42965 80702 10302 20247 40070 54000 8807/;
0186583140999992000070306004+31400+116320FM-12+006899999V0200401N002019999999N0200001N1+03281+02261100551ADDAA199000091GF106991061001999999041001KA1999N+02471MA1999999099731MD1710141+9999REMSYN076AAXX  03061 58314 32970 60402 10328 20226 39973 40055 57014 86040 333 20247;EQDQ01  00002PRCP99
0132583140999992000070309004+31400+116320FM-12+006899999V0200901N003010075019N0100001N1+02241+02121100731ADDAY191031GF108991081091008001999999MD1210161+9999MW1951REMSYN066AAXX  03091 58314 41560 80903 10224 20212 40073 52016 79590 889//;
0178583140999992000070312004+31400+116320FM-12+006899999V0201401N002019999999N0200001N1+02401+02221100631ADDAA106043991AY191061AY281061GF107991071001999999071999MA1999999099801MD1710091+9999MW1211REMSYN078AAXX  03121 58314 11970 71402 10240 20222 39980 40063 57009 60441 72198 8707/;
0112583140999992000070315004+31400+116320FM-12+006899999V0200701N001019999999N0200001N1+02401+02281100601ADDGF108991081001999999071999MD1710031+9999REMSYN060AAXX  03151 58314 42970 80701 10240 20228 40060 57003 8807/;
0167583140999992000070318004+31400+116320FM-12+006899999V0202701N002019999999N0200001N1+02361+02271100511ADDAA199000021GF106991061001999999041001KA1999M+03321MA1999999099691MD1710081+9999REMSYN076AAXX  03181 58314 32970 62702 10236 20227 39969 40051 57008 86040 333 10332;
0133583140999992000070321004+31400+116320FM-12+006899999V0203201N002019999999N0200001N1+02341+02241100471ADDAA124044291GF107991071001999999071999MD1710061+9999REMSYN070AAXX  03211 58314 42970 73202 10234 20224 40047 57006 8707/ 333 70443;
0160583140999992000070400004+31400+116320FM-12+006899999V0209999C000019999999N0150001N1+02461+02301100561ADDAA124044291GF107991071001999999071999MA1999999099721MD1210091-0201REMSYN082AAXX  04001 58314 32965 70000 10246 20230 39972 40056 52009 8707/ 333 05252 70443;
0112583140999992000070403004+31400+116320FM-12+006899999V0200701N001019999999N0200001N1+03081+02481100511ADDGF107991071001999999071999MD1710041+9999REMSYN060AAXX  04031 58314 42970 70701 10308 20248 40051 57004 8707/;
0206583140999992000070406004+31400+116320FM-12+006899999V0201401N004010150019N0250001N1+02971+02201100381ADDAA199000091AY191061GF105991051091017501041001KA1999N+02241MA1999999099551MD1710131+9999MW1171REMSYN082AAXX  04061 58314 31775 51404 10297 20220 39955 40038 57013 71790 85940 333 20224;EQDQ01  00002PRCP99
0132583140999992000070409004+31400+116320FM-12+006899999V0200901N003012200019N0250001N1+03321+02621100221ADDAY191031GF102991011011012501041001MD1710151+9999MW1001REMSYN066AAXX  04091 58314 41675 20903 10332 20262 40022 57015 70090 81140;
0183583140999992000070412004+31400+116320FM-12+006899999V0201401N001019999999N0150001N1+02981+02581100421ADDAA199000091AY191061GF107991071001999999071999MA1999999099591MD1210191+9999MW1001REMSYN072AAXX  04121 58314 31965 71401 10298 20258 39959 40042 52019 70090 8707/;EQDQ01  00002PRCP99
0122583140999992000070415004+31400+116320FM-12+006899999V0202701N001012200019N0150001N1+02741+02531100471ADDGA1001+999999999GF100991001001999999001001MD1210061+9999REMSYN054AAXX  04151 58314 42965 02701 10274 20253 40047 52006;
0186583140999992000070418004+31400+116320FM-12+006899999V0209999C000012200019N0150001N1+02631+02491100401ADDAA199000091GF102991021001999999041001KA1999M+03321MA1999999099581MD1710071+9999REMSYN076AAXX  04181 58314 32965 20000 10263 20249 39958 40040 57007 82040 333 10332;EQDQ01  00002PRCP99
0173583140999992000070500004+31400+116320FM-12+006899999V0200401N002010120019N0120001N1+02721+02441100551ADDAA199000091GF107991071051012501999999MA1999999099731MD1210071+0001REMSYN076AAXX  05001 58314 32662 70402 10272 20244 39973 40055 52007 875// 333 00003;EQDQ01  00002PRCP99
0112583140999992000070503004+31400+116320FM-12+006899999V0200901N003012200019N0200001N1+03081+02491100551ADDGF102991021011008001001001MD1410001+9999REMSYN060AAXX  05031 58314 42570 20903 10308 20249 40055 54000 82100;
0186583140999992000070506004+31400+116320FM-12+006899999V0200901N004012200019N0200001N1+03251+02531100451ADDAA199000091GF102991021011008001001001KA1999N+02471MA1999999099631MD1710101+9999REMSYN076AAXX  05061 58314 32570 20904 10325 20253 39963 40045 57010 82100 333 20247;EQDQ01  00002PRCP99
0112583140999992000070509004+31400+116320FM-12+006899999V0200901N003010360019N0200001N1+03081+02551100351ADDGF108991031041012501071999MD1710101+9999REMSYN060AAXX  05091 58314 42670 80903 10308 20255 40035 57010 8347/;
0163583140999992000070512004+31400+116320FM-12+006899999V0203201N002019999999N0200001N1+02771+02531100541ADDAA199000091GF108991081001999999071999MA1999999099711MD1210181+9999REMSYN066AAXX  05121 58314 32970 83202 10277 20253 39971 40054 52018 8807/;EQDQ01  00002PRCP99
0122583140999992000070515004+31400+116320FM-12+006899999V0209999C000012200019N0200001N1+02691+02521100611ADDGA1001+999999999GF100991001001999999001001MD1210081+9999REMSYN054AAXX  05151 58314 42970 00000 10269 20252 40061 52008;
0196583140999992000070518004+31400+116320FM-12+006899999V0202701N002012200019N0150001N1+02561+02451100581ADDAA199000091GA1001+999999999GF100991001001999999001001KA1999M+03281MA1999999099761MD1710031+9999REMSYN070AAXX  05181 58314 32965 02702 10256 20245 39976 40058 57003 333 10328;EQDQ01  00002PRCP99
0112583140999992000070521004+31400+116320FM-12+006899999V0203201N001019999999N0150001N1+02521+02411100591ADDGF108991081001999999071999MD1410001+9999REMSYN060AAXX  05211 58314 42965 83201 10252 20241 40059 54000 8807/;
0173583140999992000070600004+31400+116320FM-12+006899999V0200701N001019999999N0150001N1+02621+02461100601ADDAA199000091GF108991081051999999999999MA1999999099771MD1210011+0001REMSYN076AAXX  06001 58314 31965 80701 10262 20246 39977 40060 52001 885// 333 00051;EQDQ01  00002PRCP99
0112583140999992000070603004+31400+116320FM-12+006899999V0200901N002010120019N0200001N1+03061+02531100651ADDGF106991061041012501001001MD1210061+9999REMSYN060AAXX  06031 58314 42670 60902 10306 20253 40065 52006 86400;
0140583140999992000070609004+31400+116320FM-12+006899999V0200901N001019999999N0200001N1+02911+02471100411ADDAY191031AY261031GF108991081001999999071999MD1710101+9999MW1001REMSYN066AAXX  06091 58314 41970 80901 10291 20247 40041 57010 70096 8807/;
0188583140999992000070612004+31400+116320FM-12+006899999V0209999C000012200019N0150001N1+02741+02531100431ADDAA106000791AY191061AY261061GA1001+999999999GF100991001001999999001001MA1999999099601MD1210021+9999MW1001REMSYN072AAXX  06121 58314 11965 00000 10274 20253 39960 40043 52002 69901 70096;
0122583140999992000070615004+31400+116320FM-12+006899999V0209999C000012200019N0120001N1+02561+02451100581ADDGA1001+999999999GF100991001001999999001001MD1210151+9999REMSYN054AAXX  06151 58314 42962 00000 10256 20245 40058 52015;
0186583140999992000070618004+31400+116320FM-12+006899999V0202901N002019999999N0120001N1+02401+02311100481ADDAA199000091GF106991061001999999041001KA1999M+03171MA1999999099651MD1710101+9999REMSYN076AAXX  06181 58314 32962 62902 10240 20231 39965 40048 57010 86040 333 10317;EQDQ01  00002PRCP99
0133583140999992000070621004+31400+116320FM-12+006899999V0201401N002019999999N0120001N1+02381+02291100501ADDAA124000791GF107991071001999999041001MD1210021+9999REMSYN070AAXX  06211 58314 42962 71402 10238 20229 40050 52002 87040 333 79999;
0172583140999992000070700004+31400+116320FM-12+006899999V0203601N002019999999N0080001N1+02441+02311100561ADDAA124000791GF107991071001999999041999MA1999999099731MD1210061+0001MW1101REMSYN088AAXX  07001 58314 31958 73602 10244 20231 39973 40056 52006 71000 8704/ 333 00052 79999;
0112583140999992000070703004+31400+116320FM-12+006899999V0209999C000019999999N0100001N1+02921+02331100481ADDGF107991071001999999041999MD1710081+9999REMSYN060AAXX  07031 58314 42960 70000 10292 20233 40048 57008 8704/;
0186583140999992000070706004+31400+116320FM-12+006899999V0200901N004012200019N0200001N1+03241+02441100291ADDAA199000091GF103991031001999999041001KA1999N+02341MA1999999099471MD1710181+9999REMSYN076AAXX  07061 58314 32970 30904 10324 20244 39947 40029 57018 83040 333 20234;EQDQ01  00002PRCP99
0112583140999992000070709004+31400+116320FM-12+006899999V0200901N003019999999N0200001N1+03081+02141100211ADDGF107991001001999999001021MD1710081+9999REMSYN060AAXX  07091 58314 42970 70903 10308 20214 40021 57008 80002;
0163583140999992000070712004+31400+116320FM-12+006899999V0209999C000012200019N0200001N1+02881+02401100341ADDAA199000091GF102991001001999999001021MA1999999099511MD1210121+9999REMSYN066AAXX  07121 58314 32970 20000 10288 20240 39951 40034 52012 80002;EQDQ01  00002PRCP99
0112583140999992000070715004+31400+116320FM-12+006899999V0202901N001012200019N0150001N1+02531+02311100461ADDGF103991001001999999001021MD1210121+9999REMSYN060AAXX  07151 58314 42965 32901 10253 20231 40046 52012 80002;
0196583140999992000070718004+31400+116320FM-12+006899999V0202701N001012200019N0200001N1+02411+02291100401ADDAA199000091GA1001+999999999GF100991001001999999001001KA1999M+03251MA1999999099581MD1710051+9999REMSYN070AAXX  07181 58314 32970 02701 10241 20229 39958 40040 57005 333 10325;EQDQ01  00002PRCP99
0112583140999992000070721004+31400+116320FM-12+006899999V0202701N001019999999N0120001N1+02291+02221100381ADDGF108991081001999999071999MD1710031+9999REMSYN060AAXX  07211 58314 42962 82701 10229 20222 40038 57003 8807/;
0173583140999992000070800004+31400+116320FM-12+006899999V0203401N002019999999N0120001N1+02521+02291100481ADDAA199000091GF107991001001999999001021MA1999999099651MD1210101+0011REMSYN076AAXX  08001 58314 32962 73402 10252 20229 39965 40048 52010 80002 333 05101;EQDQ01  00002PRCP99
0112583140999992000070803004+31400+116320FM-12+006899999V0202701N002010900019N0150001N1+02841+02431100441ADDGF107991011011008001001021MD1710041+9999REMSYN060AAXX  08031 58314 42565 72702 10284 20243 40044 57004 81102;
0186583140999992000070806004+31400+116320FM-12+006899999V0200901N003012200019N0200001N1+03221+02171100281ADDAA199000091GF102991021011008001001001KA1999N+02281MA1999999099461MD1710151+9999REMSYN076AAXX  08061 58314 32570 20903 10322 20217 39946 40028 57015 82100 333 20228;EQDQ01  00002PRCP99
0122583140999992000070809004+31400+116320FM-12+006899999V0200901N003012200019N0200001N1+03221+01961100211ADDGA1001+999999999GF100991001001999999001001MD1710071+9999REMSYN054AAXX  08091 58314 42970 00903 10322 20196 40021 57007;
0173583140999992000070812004+31400+116320FM-12+006899999V0209999C000012200019N0200001N1+02841+02261100261ADDAA199000091GA1001+999999999GF100991001001999999001001MA1999999099431MD1210041+9999REMSYN060AAXX  08121 58314 32970 00000 10284 20226 39943 40026 52004;EQDQ01  00002PRCP99
0122583140999992000070815004+31400+116320FM-12+006899999V0202901N002012200019N0200001N1+02391+02151100391ADDGA1001+999999999GF100991001001999999001001MD1210131+9999REMSYN054AAXX  08151 58314 42970 02902 10239 20215 40039 52013;
0196583140999992000070818004+31400+116320FM-12+006899999V0202901N001012200019N0120001N1+02201+02121100341ADDAA199000091GA1001+999999999GF100991001001999999001001KA1999M+03251MA1999999099511MD1710051+9999REMSYN070AAXX  08181 58314 32962 02901 10220 20212 39951 40034 57005 333 10325;EQDQ01  00002PRCP99
0122583140999992000070821004+31400+116320FM-12+006899999V0209999C000012200019N0120001N1+02151+02041100351ADDGA1001+999999999GF100991001001999999001001MD1210011+9999REMSYN054AAXX  08211 58314 42962 00000 10215 20204 40035 52001;
0183583140999992000070900004+31400+116320FM-12+006899999V0202701N002012200019N0100001N1+02351+02111100491ADDAA199000091GA1001+999999999GF100991001001999999001001MA1999999099661MD1210141+0001REMSYN070AAXX  09001 58314 32960 02702 10235 20211 39966 40049 52014 333 00052;EQDQ01  00002PRCP99
0112583140999992000070903004+31400+116320FM-12+006899999V0201401N002012200019N0150001N1+02961+02201100451ADDGF102991001001999999001021MD1710041+9999REMSYN060AAXX  09031 58314 42965 21402 10296 20220 40045 57004 80002;
0196583140999992000070906004+31400+116320FM-12+006899999V0200901N003012200019N0150001N1+03181+02021100351ADDAA199000091GA1001+999999999GF100991001001999999001001KA1999N+02121MA1999999099521MD1710101+9999REMSYN070AAXX  09061 58314 32965 00903 10318 20202 39952 40035 57010 333 20212;EQDQ01  00002PRCP99
0112583140999992000070909004+31400+116320FM-12+006899999V0200901N003012200019N0200001N1+03181+01701100241ADDGF101991001001999999001021MD1710111+9999REMSYN060AAXX  09091 58314 42970 10903 10318 20170 40024 57011 80002;
0163583140999992000070912004+31400+116320FM-12+006899999V0201101N001012200019N0150001N1+02901+02101100391ADDAA199000091GF104991001001999999001021MA1999999099561MD1210151+9999REMSYN066AAXX  09121 58314 32965 41101 10290 20210 39956 40039 52015 80002;EQDQ01  00002PRCP99
0122583140999992000070915004+31400+116320FM-12+006899999V0202901N001012200019N0200001N1+02481+02141100481ADDGA1001+999999999GF100991001001999999001001MD1210091+9999REMSYN054AAXX  09151 58314 42970 02901 10248 20214 40048 52009;
0196583140999992000070918004+31400+116320FM-12+006899999V0202901N002012200019N0120001N1+02281+02131100411ADDAA199000091GA1001+999999999GF100991001001999999001001KA1999M+03221MA1999999099581MD1710071+9999REMSYN070AAXX  09181 58314 32962 02902 10228 20213 39958 40041 57007 333 10322;EQDQ01  00002PRCP99
0124583140999992000070921004+31400+116320FM-12+006899999V0209999C000019999999N0080001N1+02311+02161100451ADDGF107991071001999999071999MD1210041+9999MW1101REMSYN066AAXX  09211 58314 41958 70000 10231 20216 40045 52004 71000 8707/;
0173583140999992000071000004+31400+116320FM-12+006899999V0202701N002019999999N0100001N1+02411+02171100571ADDAA199000091GF108991081001999999071999MA1999999099741MD1210121+0011REMSYN076AAXX  10001 58314 32960 82702 10241 20217 39974 40057 52012 8807/ 333 00101;EQDQ01  00002PRCP99
0112583140999992000071003004+31400+116320FM-12+006899999V0201101N002012200019N0200001N1+02901+02211100601ADDGF102991021011012501001001MD1210031+9999REMSYN060AAXX  10031 58314 42670 21102 10290 20221 40060 52003 82100;
0186583140999992000071006004+31400+116320FM-12+006899999V0203201N002012200019N0200001N1+03091+02001100471ADDAA199000091GF102991021011012501001001KA1999N+02241MA1999999099641MD1710131+9999REMSYN076AAXX  10061 58314 32670 23202 10309 20200 39964 40047 57013 82100 333 20224;EQDQ01  00002PRCP99
0112583140999992000071009004+31400+116320FM-12+006899999V0200901N003012200019N0200001N1+03031+02221100401ADDGF102991021011012501001001MD1710071+9999REMSYN060AAXX  10091 58314 42670 20903 10303 20222 40040 57007 82100;
0173583140999992000071012004+31400+116320FM-12+006899999V0209999C000012200019N0150001N1+02771+02211100581ADDAA199000091GA1001+999999999GF100991001001999999001001MA1999999099751MD1210181+9999REMSYN060AAXX  10121 58314 32965 00000 10277 20221 39975 40058 52018;EQDQ01  00002PRCP99
0122583140999992000071015004+31400+116320FM-12+006899999V0209999C000012200019N0150001N1+02441+02201100721ADDGA1001+999999999GF100991001001999999001001MD1210141+9999REMSYN054AAXX  10151 58314 42965 00000 10244 20220 40072 52014;
0196583140999992000071018004+31400+116320FM-12+006899999V0209999C000012200019N0200001N1+02321+02171100681ADDAA199000091GA1001+999999999GF100991001001999999001001KA1999M+03151MA1999999099851MD1710041+9999REMSYN070AAXX  10181 58314 32970 00000 10232 20217 39985 40068 57004 333 10315;EQDQ01  00002PRCP99
0122583140999992000071021004+31400+116320FM-12+006899999V0209999C000012200019N0200001N1+02241+02131100721ADDGA1001+999999999GF100991001001999999001001MD1210041+9999REMSYN054AAXX  10211 58314 42970 00000 10224 20213 40072 52004;
0183583140999992000071100004+31400+116320FM-12+006899999V0209999C000012200019N0150001N1+02471+02161100841ADDAA199000091GA1001+999999999GF100991001001999999001001MA1999999100011MD1210121+0031REMSYN070AAXX  11001 58314 32965 00000 10247 20216 30001 40084 52012 333 00301;EQDQ01  00002PRCP99
0122583140999992000071103004+31400+116320FM-12+006899999V0202201N003012200019N0200001N1+03201+02151100871ADDGA1001+999999999GF100991001001999999001001MD1210031+9999REMSYN054AAXX  11031 58314 42970 02203 10320 20215 40087 52003;
0186583140999992000071106004+31400+116320FM-12+006899999V0200401N003012200019N0300001N1+03441+02181100791ADDAA199000091GF102991021011008001001001KA1999N+02201MA1999999099961MD1710081+9999REMSYN076AAXX  11061 58314 32580 20403 10344 20218 39996 40079 57008 82100 333 20220;EQDQ01  00002PRCP99
0122583140999992000071109004+31400+116320FM-12+006899999V0201401N003012200019N0300001N1+03401+02151100601ADDGA1001+999999999GF100991001001999999001001MD1710191+9999REMSYN054AAXX  11091 58314 42980 01403 10340 20215 40060 57019;
0163583140999992000071112004+31400+116320FM-12+006899999V0209999C000012200019N0200001N1+03081+02411100661ADDAA199000091GF103991001001999999001021MA1999999099831MD1210061+9999REMSYN066AAXX  11121 58314 32970 30000 10308 20241 39983 40066 52006 80002;EQDQ01  00002PRCP99
0122583140999992000071115004+31400+116320FM-12+006899999V0203401N001012200019N0200001N1+02661+02341100781ADDGA1001+999999999GF100991001001999999001001MD1210131+9999REMSYN054AAXX  11151 58314 42970 03401 10266 20234 40078 52013;
0186583140999992000071118004+31400+116320FM-12+006899999V0200901N002012200019N0150001N1+02481+02241100711ADDAA199000091GF103991001001999999001021KA1999M+03471MA1999999099891MD1710071+9999REMSYN076AAXX  11181 58314 32965 30902 10248 20224 39989 40071 57007 80002 333 10347;EQDQ01  00002PRCP99
0112583140999992000071121004+31400+116320FM-12+006899999V0209999C000019999999N0120001N1+02481+02241100711ADDGF107991071001999999071999MD1410001+9999REMSYN060AAXX  11211 58314 42962 70000 10248 20224 40071 54000 8707/;
0173583140999992000071200004+31400+116320FM-12+006899999V0209999C000019999999N0100001N1+02581+02261100751ADDAA199000091GF107991071001999999071999MA1999999099921MD1210031+0011REMSYN076AAXX  12001 58314 32960 70000 10258 20226 39992 40075 52003 8707/ 333 05101;EQDQ01  00002PRCP99
0124583140999992000071203004+31400+116320FM-12+006899999V0202701N002019999999N0100001N1+02961+02531100761ADDGF108991081001999999071999MD1210011+9999MW1601REMSYN066AAXX  12031 58314 41960 82702 10296 20253 40076 52001 76000 8807/;
0193583140999992000071206004+31400+116320FM-12+006899999V0201801N003019999999N0150001N1+02951+02561100681ADDAA106000191AY161061GF108991081001999999071999KA1999N+02451MA1999999099851MD1710081+9999MW1001REMSYN088AAXX  12061 58314 11965 81803 10295 20256 39985 40068 57008 69911 70060 8807/ 333 20245;
0112583140999992000071209004+31400+116320FM-12+006899999V0200901N002019999999N0200001N1+03241+02561100451ADDGF106991061001999999041001MD1710221+9999REMSYN060AAXX  12091 58314 42970 60902 10324 20256 40045 57022 86040;
0144583140999992000071212004+31400+116320FM-12+006899999V0200901N003019999999N0150001N1+02971+02541100591ADDAA199000021GF106991061001999999071001MA1999999099761MD1210131+9999REMSYN066AAXX  12121 58314 32965 60903 10297 20254 39976 40059 52013 86070;
0140583140999992000071215004+31400+116320FM-12+006899999V0200701N001010900019N0200001N1+02731+02521100641ADDAY191031AY281031GF107991041091012501001021MD1210051+9999MW1291REMSYN066AAXX  12151 58314 41670 70701 10273 20252 40064 52005 72998 84902;
0201583140999992000071218004+31400+116320FM-12+006899999V0209999C000010120019N0150001N1+02651+02511100451ADDAA106000191AY191061AY281061GF108991081051012501999999KA1999M+03241MA1999999099631MD1710181+9999MW1001REMSYN088AAXX  12181 58314 11665 80000 10265 20251 39963 40045 57018 69911 70098 885// 333 10324;
0133583140999992000071221004+31400+116320FM-12+006899999V0209999C000019999999N0150001N1+02601+02471100261ADDAA124000391GF107991071001999999071999MD1710191+9999REMSYN070AAXX  12211 58314 42965 70000 10260 20247 40026 57019 8707/ 333 70002;
0160583140999992000071300004+31400+116320FM-12+006899999V0202701N003019999999N0200001N1+03101+02251100331ADDAA124000391GF107991071001999999041001MA1999999099511MD1210071-0401REMSYN082AAXX  13001 58314 32970 72703 10310 20225 39951 40033 52007 87040 333 05405 70002;
0112583140999992000071303004+31400+116320FM-12+006899999V0202701N006019999999N0200001N1+03321+02121100351ADDGF106991061001999999041001MD1210021+9999REMSYN060AAXX  13031 58314 42970 62706 10332 20212 40035 52002 86040;
0186583140999992000071306004+31400+116320FM-12+006899999V0202201N004019999999N0200001N1+03421+02231100261ADDAA199000091GF107991071001999999041021KA1999N+02591MA1999999099441MD1710091+9999REMSYN076AAXX  13061 58314 32970 72204 10342 20223 39944 40026 57009 87042 333 20259;EQDQ01  00002PRCP99
0112583140999992000071309004+31400+116320FM-12+006899999V0209999C000019999999N0200001N1+03441+02181100101ADDGF106991061001999999041021MD1710161+9999REMSYN060AAXX  13091 58314 42970 60000 10344 20218 40010 57016 86042;
0163583140999992000071312004+31400+116320FM-12+006899999V0202201N003012200019N0200001N1+03251+02271100161ADDAA199000091GF102991001001999999001021MA1999999099351MD1210071+9999REMSYN066AAXX  13121 58314 32970 22203 10325 20227 39935 40016 52007 80002;EQDQ01  00002PRCP99
0122583140999992000071315004+31400+116320FM-12+006899999V0209999C000012200019N0200001N1+02791+02491100231ADDGA1001+999999999GF100991001001999999001001MD1210061+9999REMSYN054AAXX  13151 58314 42970 00000 10279 20249 40023 52006;
0196583140999992000071318004+31400+116320FM-12+006899999V0203201N002012200019N0200001N1+02621+02361100161ADDAA199000091GA1001+999999999GF100991001001999999001001KA1999M+03531MA1999999099341MD1710071+9999REMSYN070AAXX  13181 58314 32970 03202 10262 20236 39934 40016 57007 333 10353;EQDQ01  00002PRCP99
0112583140999992000071321004+31400+116320FM-12+006899999V0203401N001012200019N0200001N1+02521+02351100161ADDGF102991021001999999041001MD1410001+9999REMSYN060AAXX  13211 58314 42970 23401 10252 20235 40016 54000 82040;
0183583140999992000071400004+31400+116320FM-12+006899999V0209999C000012200019N0200001N1+02831+02491100301ADDAA199000091GA1001+999999999GF100991001001999999001001MA1999999099481MD1210141+0001REMSYN070AAXX  14001 58314 32970 00000 10283 20249 39948 40030 52014 333 00053;EQDQ01  00002PRCP99
0112583140999992000071403004+31400+116320FM-12+006899999V0202201N005012200019N0200001N1+03481+02071100301ADDGF103991001001999999001021MD1210011+9999REMSYN060AAXX  14031 58314 42970 32205 10348 20207 40030 52001 80002;
0186583140999992000071406004+31400+116320FM-12+006899999V0202901N004019999999N0200001N1+03561+02261100181ADDAA199000091GF106991001001999999001021KA1999N+02471MA1999999099371MD1710121+9999REMSYN076AAXX  14061 58314 32970 62904 10356 20226 39937 40018 57012 80002 333 20247;EQDQ01  00002PRCP99
0112583140999992000071409004+31400+116320FM-12+006899999V0200901N004019999999N0200001N1+03641+02191100011ADDGF105991051001999999041001MD1710171+9999REMSYN060AAXX  14091 58314 42970 50904 10364 20219 40001 57017 85040;
0163583140999992000071412004+31400+116320FM-12+006899999V0201801N002019999999N0300001N1+03221+02511100221ADDAA199000091GF108991081001999999071999MA1999999099401MD1210201+9999REMSYN066AAXX  14121 58314 32980 81802 10322 20251 39940 40022 52020 8807/;EQDQ01  00002PRCP99
0122583140999992000071415004+31400+116320FM-12+006899999V0202901N002012200019N0200001N1+03121+02471100211ADDGA1001+999999999GF100991001001999999001001MD1410001+9999REMSYN054AAXX  14151 58314 42970 02902 10312 20247 40021 54000;
0186583140999992000071418004+31400+116320FM-12+006899999V0202701N001019999999N0200001N1+02671+02471100141ADDAA199000091GF107991001001999999001021KA1999M+03711MA1999999099331MD1710071+9999REMSYN076AAXX  14181 58314 32970 72701 10267 20247 39933 40014 57007 80002 333 10371;EQDQ01  00002PRCP99
0112583140999992000071421004+31400+116320FM-12+006899999V0200201N001019999999N0200001N1+02601+02411100171ADDGF107991021001999999041021MD1210031+9999REMSYN060AAXX  14211 58314 42970 70201 10260 20241 40017 52003 82042;
0173583140999992000071500004+31400+116320FM-12+006899999V0203401N001012200019N0200001N1+03041+02521100331ADDAA199000091GF102991001001999999001021MA1999999099511MD1210151+0001REMSYN076AAXX  15001 58314 32970 23401 10304 20252 39951 40033 52015 80002 333 00002;EQDQ01  00002PRCP99
0112583140999992000071503004+31400+116320FM-12+006899999V0201401N002012200019N0250001N1+03671+02281100291ADDGF102991021011008001001001MD1710031+9999REMSYN060AAXX  15031 58314 42575 21402 10367 20228 40029 57003 82100;
0186583140999992000071506004+31400+116320FM-12+006899999V0202701N005012200019N0250001N1+03711+02081100201ADDAA199000091GF102991021011008001001001KA1999N+02581MA1999999099391MD1710091+9999REMSYN076AAXX  15061 58314 32575 22705 10371 20208 39939 40020 57009 82100 333 20258;EQDQ01  00002PRCP99
0112583140999992000071509004+31400+116320FM-12+006899999V0201801N003012200019N0250001N1+03851+01971100081ADDGF102991001001999999001021MD1710121+9999REMSYN060AAXX  15091 58314 42975 21803 10385 20197 40008 57012 80002;
0173583140999992000071512004+31400+116320FM-12+006899999V0200401N001012200019N0200001N1+03131+02551100271ADDAA199000091GA1001+999999999GF100991001001999999001001MA1999999099451MD1210181+9999REMSYN060AAXX  15121 58314 32970 00401 10313 20255 39945 40027 52018;EQDQ01  00002PRCP99
0122583140999992000071515004+31400+116320FM-12+006899999V0202901N002012200019N0200001N1+02771+02491100451ADDGA1001+999999999GF100991001001999999001001MD1210191+9999REMSYN054AAXX  15151 58314 42970 02902 10277 20249 40045 52019;
0196583140999992000071518004+31400+116320FM-12+006899999V0202901N002012200019N0200001N1+02551+02381100331ADDAA199000091GA1001+999999999GF100991001001999999001001KA1999M+03881MA1999999099511MD1710131+9999REMSYN070AAXX  15181 58314 32970 02902 10255 20238 39951 40033 57013 333 10388;EQDQ01  00002PRCP99
0173583140999992000071600004+31400+116320FM-12+006899999V0203201N002012200019N0200001N1+02821+02411100391ADDAA199000091GF103991001001999999001021MA1999999099571MD1410001+0011REMSYN076AAXX  16001 58314 32970 33202 10282 20241 39957 40039 54000 80002 333 00152;EQDQ01  00002PRCP99
0112583140999992000071603004+31400+116320FM-12+006899999V0202901N001012200019N0200001N1+03561+02381100361ADDGF102991001001999999001021MD1710021+9999REMSYN060AAXX  16031 58314 42970 22901 10356 20238 40036 57002 80002;
0186583140999992000071606004+31400+116320FM-12+006899999V0200901N002012200019N0200001N1+03801+02071100231ADDAA199000091GF102991011011008001001021KA1999N+02451MA1999999099421MD1710131+9999REMSYN076AAXX  16061 58314 32570 20902 10380 20207 39942 40023 57013 81102 333 20245;EQDQ01  00002PRCP99
0112583140999992000071609004+31400+116320FM-12+006899999V0200901N005012200019N0200001N1+03681+02131100091ADDGF102991001001999999001021MD1710141+9999REMSYN060AAXX  16091 58314 42970 20905 10368 20213 40009 57014 80002;
0148583140999992000071612004+31400+116320FM-12+006899999V0209999C000012200019N0200001N1+03281+02421100201ADDAA199000091GF102991999999012501999999MA1999999099381REMSYN065AAXX  16121 58314 32670 20000 10328 20242 39938 40020 5010 81402;EQDQ01  00002PRCP99
0122583140999992000071615004+31400+116320FM-12+006899999V0202701N003012200019N0200001N1+02901+02341100331ADDGA1001+999999999GF100991001001999999001001MD1210141+9999REMSYN054AAXX  16151 58314 42970 02703 10290 20234 40033 52014;
0196583140999992000071618004+31400+116320FM-12+006899999V0203401N001012200019N0200001N1+02661+02391100201ADDAA199000091GA1001+999999999GF100991001001999999001001KA1999M+03841MA1999999099391MD1710131+9999REMSYN070AAXX  16181 58314 32970 03401 10266 20239 39939 40020 57013 333 10384;EQDQ01  00002PRCP99
0122583140999992000071621004+31400+116320FM-12+006899999V0209999C000012200019N0200001N1+02521+02331100231ADDGA1001+999999999GF100991001001999999001001MD1210021+9999REMSYN054AAXX  16211 58314 42970 00000 10252 20233 40023 52002;
0183583140999992000071700004+31400+116320FM-12+006899999V0209999C000012200019N0200001N1+02961+02381100231ADDAA199000091GA1001+999999999GF100991001001999999001001MA1999999099421MD1210011+0021REMSYN070AAXX  17001 58314 32970 00000 10296 20238 39942 40023 52001 333 05201;EQDQ01  00002PRCP99
0112583140999992000071703004+31400+116320FM-12+006899999V0202701N002012200019N0250001N1+03561+02231100191ADDGF101991011011008001001001MD1710041+9999REMSYN060AAXX  17031 58314 42575 12702 10356 20223 40019 57004 81100;
0186583140999992000071706004+31400+116320FM-12+006899999V0200901N003012200019N0250001N1+03741+02071099991ADDAA199000091GF102991021011008001001001KA1999N+02491MA1999999099181MD1710201+9999REMSYN076AAXX  17061 58314 32575 20903 10374 20207 39918 49999 57020 82100 333 20249;EQDQ01  00002PRCP99
0132583140999992000071709004+31400+116320FM-12+006899999V0200901N002010360019N0250001N1+03081+02361099901ADDAY191031GF106991021011008001061001MD1710101+9999MW1601REMSYN066AAXX  17091 58314 41575 60902 10308 20236 49990 57010 76090 82160;
0178583140999992000071712004+31400+116320FM-12+006899999V0209999C000012200019N0200001N1+02891+02531100021ADDAA106000791AY191061AY261061GF103991031001999999041001MA1999999099201MD1210121+9999MW1001REMSYN078AAXX  17121 58314 11970 30000 10289 20253 39920 40002 52012 69901 70096 83040;
0112583140999992000071715004+31400+116320FM-12+006899999V0200401N001012200019N0200001N1+02821+02541100121ADDGF101991011001999999041001MD1210111+9999REMSYN060AAXX  17151 58314 42970 10401 10282 20254 40012 52011 81040;
0167583140999992000071718004+31400+116320FM-12+006899999V0203201N002019999999N0200001N1+02681+02501099981ADDAA199000021GF106991061001999999041001KA1999M+03781MA1999999099171MD1710141+9999REMSYN076AAXX  17181 58314 32970 63202 10268 20250 39917 49998 57014 86040 333 10378;
0133583140999992000071721004+31400+116320FM-12+006899999V0209999C000019999999N0200001N1+02611+02471099981ADDAA124000791GF108991081001999999071999MD1710011+9999REMSYN070AAXX  17211 58314 42970 80000 10261 20247 49998 57001 8807/ 333 79999;
0160583140999992000071800004+31400+116320FM-12+006899999V0209999C000019999999N0200001N1+02781+02541100111ADDAA124000791GF107991071001999999071999MA1999999099291MD1210131-0101REMSYN082AAXX  18001 58314 32970 70000 10278 20254 39929 40011 52013 8707/ 333 05152 79999;
0112583140999992000071803004+31400+116320FM-12+006899999V0202201N002019999999N0200001N1+03101+02371100151ADDGF107991071001999999071999MD1210041+9999REMSYN060AAXX  18031 58314 42970 72202 10310 20237 40015 52004 8707/;
0186583140999992000071806004+31400+116320FM-12+006899999V0201801N003012200019N0300001N1+03551+02371099871ADDAA199000091GF102991021011008001001001KA1999N+02601MA1999999099061MD1710271+9999REMSYN076AAXX  18061 58314 32580 21803 10355 20237 39906 49987 57027 82100 333 20260;EQDQ01  00002PRCP99
0112583140999992000071809004+31400+116320FM-12+006899999V0201801N001019999999N0300001N1+03441+02221099761ADDGF107991071001999999071999MD1710111+9999REMSYN060AAXX  18091 58314 42980 71801 10344 20222 49976 57011 8707/;
0163583140999992000071812004+31400+116320FM-12+006899999V0201801N003019999999N0200001N1+03211+02141099891ADDAA199000091GF108991081001999999071999MA1999999099071MD1210121+9999REMSYN066AAXX  18121 58314 32970 81803 10321 20214 39907 49989 52012 8807/;EQDQ01  00002PRCP99
0132583140999992000071815004+31400+116320FM-12+006899999V0209999C000019999999N0200001N1+02921+02241100031ADDAY161031GF108991081001999999071999MD1210141+9999MW1001REMSYN066AAXX  18151 58314 41970 80000 10292 20224 40003 52014 70060 8807/;
0193583140999992000071818004+31400+116320FM-12+006899999V0203201N002019999999N0200001N1+02741+02431100001ADDAA106000791AY161061GF107991071001999999071999KA1999M+03631MA1999999099191MD1710021+9999MW1001REMSYN088AAXX  18181 58314 11970 73202 10274 20243 39919 40000 57002 69901 70060 8707/ 333 10363;
0133583140999992000071821004+31400+116320FM-12+006899999V0203401N002019999999N0200001N1+02651+02381099921ADDAA124000791GF106991061001999999041001MD1710081+9999REMSYN070AAXX  18211 58314 42970 63402 10265 20238 49992 57008 86040 333 79999;
0160583140999992000071900004+31400+116320FM-12+006899999V0203201N001019999999N0200001N1+02751+02451100051ADDAA124000791GF107991071001999999071999MA1999999099231MD1210121-0101REMSYN082AAXX  19001 58314 32970 73201 10275 20245 39923 40005 52012 8707/ 333 05100 79999;
0112583140999992000071903004+31400+116320FM-12+006899999V0201801N005019999999N0200001N1+03351+02121099991ADDGF107991071001999999071999MD1710051+9999REMSYN060AAXX  19031 58314 42970 71805 10335 20212 49999 57005 8707/;
0186583140999992000071906004+31400+116320FM-12+006899999V0201801N004019999999N0250001N1+03251+02181099931ADDAA199000091GF107991071001999999071999KA1999N+02601MA1999999099111MD1710071+9999REMSYN076AAXX  19061 58314 32975 71804 10325 20218 39911 49993 57007 8707/ 333 20260;EQDQ01  00002PRCP99
0132583140999992000071909004+31400+116320FM-12+006899999V0202701N003019999999N0250001N1+03121+02371099931ADDAY161031GF107991071001999999071999MD1410001+9999MW1001REMSYN066AAXX  19091 58314 41975 72703 10312 20237 49993 54000 70060 8707/;
0170583140999992000071912004+31400+116320FM-12+006899999V0201801N005019999999N0250001N1+02871+02461100121ADDAA106000191AY161061GF108991081001999999071999MA1999999099301MD1210191+9999MW1601REMSYN078AAXX  19121 58314 11975 81805 10287 20246 39930 40012 52019 69911 76060 8807/;
0132583140999992000071915004+31400+116320FM-12+006899999V0203201N002019999999N0200001N1+02591+02391100191ADDAY161031GF108991081001999999071999MD1210071+9999MW1001REMSYN066AAXX  19151 58314 41970 83202 10259 20239 40019 52007 70060 8807/;
0193583140999992000071918004+31400+116320FM-12+006899999V0209999C000019999999N0150001N1+02561+02421100171ADDAA106003091AY161061GF108991081001999999071999KA1999M+03381MA1999999099351MD1710021+9999MW1001REMSYN088AAXX  19181 58314 11965 80000 10256 20242 39935 40017 57002 60031 70060 8807/ 333 10338;
0133583140999992000071921004+31400+116320FM-12+006899999V0209999C000019999999N0150001N1+02571+02411100211ADDAA124002891GF108991081001999999071999MD1210041+9999REMSYN070AAXX  19211 58314 42965 80000 10257 20241 40021 52004 8807/ 333 70028;
0186583140999992000072000004+31400+116320FM-12+006899999V0200901N002019999999N0200001N1+02561+02421100441ADDAA106000591AY161061GF108991081001999999071999MA1999999099611MD1210221+0401MW1211REMSYN094AAXX  20001 58314 11970 80902 10256 20242 39961 40044 52022 69951 72160 8807/ 333 00452 70033;
0112583140999992000072003004+31400+116320FM-12+006899999V0202701N002019999999N0200001N1+03101+02311100471ADDGF107991071001999999071999MD1210041+9999REMSYN060AAXX  20031 58314 42970 72702 10310 20231 40047 52004 8707/;
0167583140999992000072006004+31400+116320FM-12+006899999V0200901N002010075019N0250001N1+03341+02381100441ADDAA199000021GF106991061041008001001001KA1999N+02551MA1999999099621MD1710031+9999REMSYN076AAXX  20061 58314 32575 60902 10334 20238 39962 40044 57003 86400 333 20255;
0112583140999992000072009004+31400+116320FM-12+006899999V0200701N001010900019N0200001N1+03341+01621100421ADDGF106991021011008001001021MD1710021+9999REMSYN060AAXX  20091 58314 42570 60701 10334 20162 40042 57002 82102;
0144583140999992000072012004+31400+116320FM-12+006899999V0201801N003012200019N0300001N1+03141+02241100511ADDAA199000021GF104991041001999999041001MA1999999099691MD1210091+9999REMSYN066AAXX  20121 58314 32980 41803 10314 20224 39969 40051 52009 84040;
0122583140999992000072015004+31400+116320FM-12+006899999V0202201N001012200019N0200001N1+02981+02301100621ADDGA1001+999999999GF100991001001999999001001MD1210111+9999REMSYN054AAXX  20151 58314 42970 02201 10298 20230 40062 52011;
0186583140999992000072018004+31400+116320FM-12+006899999V0209999C000019999999N0200001N1+02681+02301100521ADDAA199000091GF107991071001999999071999KA1999M+03501MA1999999099701MD1710101+9999REMSYN076AAXX  20181 58314 32970 70000 10268 20230 39970 40052 57010 8707/ 333 10350;EQDQ01  00002PRCP99
0133583140999992000072021004+31400+116320FM-12+006899999V0201401N002019999999N0200001N1+02651+02261100461ADDAA124000591GF106991061001999999041001MD1710061+9999REMSYN070AAXX  20211 58314 42970 61402 10265 20226 40046 57006 86040 333 70005;
0173583140999992000072100004+31400+116320FM-12+006899999V0202201N002012200019N0300001N1+03041+02091100661ADDAA199000091GF102991021001999999041001MA1999999099841MD1210201+0021REMSYN076AAXX  21001 58314 32980 22202 10304 20209 39984 40066 52020 82040 333 00205;EQDQ01  00002PRCP99
0112583140999992000072103004+31400+116320FM-12+006899999V0202701N004010360019N0300001N1+03441+02251100671ADDGF106991021011012501041001MD1210011+9999REMSYN060AAXX  21031 58314 42680 62704 10344 20225 40067 52001 82140;
0186583140999992000072106004+31400+116320FM-12+006899999V0202701N004012200019N0300001N1+03661+02301100471ADDAA199000091GF102991021011008001001001KA1999N+02581MA1999999099651MD1710201+9999REMSYN076AAXX  21061 58314 32580 22704 10366 20230 39965 40047 57020 82100 333 20258;EQDQ01  00002PRCP99
0112583140999992000072109004+31400+116320FM-12+006899999V0202701N005012200019N0300001N1+03611+02251100311ADDGF102991021011008001001001MD1710151+9999REMSYN060AAXX  21091 58314 42580 22705 10361 20225 40031 57015 82100;
0173583140999992000072112004+31400+116320FM-12+006899999V0201401N002012200019N0300001N1+03371+02251100381ADDAA199000091GA1001+999999999GF100991001001999999001001MA1999999099571MD1210071+9999REMSYN060AAXX  21121 58314 32980 01402 10337 20225 39957 40038 52007;EQDQ01  00002PRCP99
0122583140999992000072115004+31400+116320FM-12+006899999V0202701N002012200019N0300001N1+02971+02511100491ADDGA1001+999999999GF100991001001999999001001MD1210111+9999REMSYN054AAXX  21151 58314 42980 02702 10297 20251 40049 52011;
0196583140999992000072118004+31400+116320FM-12+006899999V0200701N002012200019N0200001N1+02961+02341100391ADDAA199000091GA1001+999999999GF100991001001999999001001KA1999M+03681MA1999999099581MD1710101+9999REMSYN070AAXX  21181 58314 32970 00702 10296 20234 39958 40039 57010 333 10368;EQDQ01  00002PRCP99
0122583140999992000072121004+31400+116320FM-12+006899999V0202201N003012200019N0200001N1+03001+02331100401ADDGA1001+999999999GF100991001001999999001001MD1210011+9999REMSYN054AAXX  21211 58314 42970 02203 10300 20233 40040 52001;
0183583140999992000072200004+31400+116320FM-12+006899999V0202701N003012200019N0250001N1+03131+02221100341ADDAA199000091GA1001+999999999GF100991001001999999001001MA1999999099531MD1710061+0031REMSYN070AAXX  22001 58314 32975 02703 10313 20222 39953 40034 57006 333 05301;EQDQ01  00002PRCP99
0112583140999992000072203004+31400+116320FM-12+006899999V0202201N006012200019N0250001N1+03491+02231100181ADDGF101991001001999999001021MD1710161+9999REMSYN060AAXX  22031 58314 42975 12206 10349 20223 40018 57016 80002;
0186583140999992000072206004+31400+116320FM-12+006899999V0202701N009012200019N0250001N1+03651+02241100101ADDAA199000091GF102991021011008001001001KA1999N+02821MA1999999099291MD1710081+9999REMSYN076AAXX  22061 58314 32575 22709 10365 20224 39929 40010 57008 82100 333 20282;EQDQ01  00002PRCP99
0112583140999992000072209004+31400+116320FM-12+006899999V0202701N005012200019N0250001N1+03661+02181099971ADDGF101991011011008001001001MD1710131+9999REMSYN060AAXX  22091 58314 42575 12705 10366 20218 49997 57013 81100;
0163583140999992000072212004+31400+116320FM-12+006899999V0201601N002019999999N0200001N1+03301+02351100021ADDAA199000091GF106991001001999999001021MA1999999099211MD1210051+9999REMSYN066AAXX  22121 58314 32970 61602 10330 20235 39921 40002 52005 80002;EQDQ01  00002PRCP99
0122583140999992000072215004+31400+116320FM-12+006899999V0201101N002012200019N0200001N1+03121+02401100161ADDGA1001+999999999GF100991001001999999001001MD1210141+9999REMSYN054AAXX  22151 58314 42970 01102 10312 20240 40016 52014;
0196583140999992000072218004+31400+116320FM-12+006899999V0201801N003012200019N0150001N1+03101+02281099971ADDAA199000091GA1001+999999999GF100991001001999999001001KA1999M+03721MA1999999099161MD1710191+9999REMSYN070AAXX  22181 58314 32965 01803 10310 20228 39916 49997 57019 333 10372;EQDQ01  00002PRCP99
0122583140999992000072221004+31400+116320FM-12+006899999V0203401N002012200019N0120001N1+02721+02421099951ADDGA1001+999999999GF100991001001999999001001MD1710021+9999REMSYN054AAXX  22211 58314 42962 03402 10272 20242 49995 57002;
0173583140999992000072300004+31400+116320FM-12+006899999V0202201N001019999999N0200001N1+03041+02231099961ADDAA199000091GF107991071001999999071999MA1999999099151MD1210011+0041REMSYN076AAXX  23001 58314 32970 72201 10304 20223 39915 49996 52001 8707/ 333 05451;EQDQ01  00002PRCP99
0112583140999992000072303004+31400+116320FM-12+006899999V0202201N005019999999N0200001N1+03301+02281099941ADDGF107991071001999999071999MD1710021+9999REMSYN060AAXX  23031 58314 42970 72205 10330 20228 49994 57002 8707/;
0186583140999992000072306004+31400+116320FM-12+006899999V0202201N006019999999N0200001N1+03521+02301099851ADDAA199000091GF107991071001999999071999KA1999N+02631MA1999999099041MD1710091+9999REMSYN076AAXX  23061 58314 32970 72206 10352 20230 39904 49985 57009 8707/ 333 20263;EQDQ01  00002PRCP99
0112583140999992000072309004+31400+116320FM-12+006899999V0202201N004019999999N0200001N1+03481+02251099791ADDGF107991071001999999071999MD1710061+9999REMSYN060AAXX  23091 58314 42970 72204 10348 20225 49979 57006 8707/;
0163583140999992000072312004+31400+116320FM-12+006899999V0202901N001019999999N0200001N1+03181+02401099861ADDAA199000091GF106991061001999999041001MA1999999099051MD1210071+9999REMSYN066AAXX  23121 58314 32970 62901 10318 20240 39905 49986 52007 86040;EQDQ01  00002PRCP99
0122583140999992000072315004+31400+116320FM-12+006899999V0200701N002012200019N0200001N1+02901+02551099991ADDGA1001+999999999GF100991001001999999001001MD1210131+9999REMSYN054AAXX  23151 58314 42970 00702 10290 20255 49999 52013;
0186583140999992000072318004+31400+116320FM-12+006899999V0203401N001019999999N0200001N1+02781+02471099921ADDAA199000091GF107991071001999999071999KA1999M+03571MA1999999099111MD1710071+9999REMSYN076AAXX  23181 58314 32970 73401 10278 20247 39911 49992 57007 8707/ 333 10357;EQDQ01  00002PRCP99
0112583140999992000072321004+31400+116320FM-12+006899999V0202701N002019999999N0200001N1+02651+02471099951ADDGF107991071001999999071999MD1210031+9999REMSYN060AAXX  23211 58314 42970 72702 10265 20247 49995 52003 8707/;
0183583140999992000072400004+31400+116320FM-12+006899999V0209999C000012200019N0200001N1+03031+02471100041ADDAA199000091GA1001+999999999GF100991001001999999001001MA1999999099231MD1210091+0011REMSYN070AAXX  24001 58314 32970 00000 10303 20247 39923 40004 52009 333 00100;EQDQ01  00002PRCP99
0112583140999992000072403004+31400+116320FM-12+006899999V0202201N006012200019N0250001N1+03581+02181100001ADDGF102991021011008001001001MD1710041+9999REMSYN060AAXX  24031 58314 42575 22206 10358 20218 40000 57004 82100;
0185583140999992000072406004+31400+116320FM-12+006899999V0201401N002010075019N0250001N1+03641+02291099941ADDAA106000791GF107991071091008001999999KA1999N+02631MA1999999099131MD1710061+9999MW1801REMSYN088AAXX  24061 58314 11575 71402 10364 20229 39913 49994 57006 69901 78000 879// 333 20263;
0140583140999992000072409004+31400+116320FM-12+006899999V0203201N002019999999N0200001N1+03161+02681099901ADDAY181031AY261031GF108991081001999999071999MD1710051+9999MW1601REMSYN066AAXX  24091 58314 41970 83202 10316 20268 49990 57005 76086 8807/;
0178583140999992000072412004+31400+116320FM-12+006899999V0201101N002019999999N0200001N1+02911+02551100071ADDAA106000791AY181061AY261061GF108991081001999999071999MA1999999099251MD1210171+9999MW1001REMSYN078AAXX  24121 58314 11970 81102 10291 20255 39925 40007 52017 69901 70086 8807/;
0112583140999992000072415004+31400+116320FM-12+006899999V0200901N001019999999N0200001N1+02761+02541100051ADDGF108991081001999999071999MD1710011+9999REMSYN060AAXX  24151 58314 42970 80901 10276 20254 40005 57001 8807/;
0167583140999992000072418004+31400+116320FM-12+006899999V0202501N002019999999N0200001N1+02681+02541100021ADDAA199000021GF106991061001999999041001KA1999M+03711MA1999999099211MD1710031+9999REMSYN076AAXX  24181 58314 32970 62502 10268 20254 39921 40002 57003 86040 333 10371;
0133583140999992000072421004+31400+116320FM-12+006899999V0202701N002019999999N0200001N1+02621+02521100061ADDAA124000791GF107991051001999999041021MD1210031+9999REMSYN070AAXX  24211 58314 42970 72702 10262 20252 40006 52003 85042 333 79999;
0170583140999992000072500004+31400+116320FM-12+006899999V0200401N002012200019N0200001N1+02931+02571100161ADDAA124000791GA1001+999999999GF100991001001999999001001MA1999999099341MD1210101+0101REMSYN076AAXX  25001 58314 32970 00402 10293 20257 39934 40016 52010 333 00151 79999;
0122583140999992000072503004+31400+116320FM-12+006899999V0203401N004012200019N0300001N1+03541+02561100061ADDGA1001+999999999GF100991001001999999001001MD1710091+9999REMSYN054AAXX  25031 58314 42980 03404 10354 20256 40006 57009;
0193583140999992000072506004+31400+116320FM-12+006899999V0201401N004010075019N0200001N1+02921+02531099981ADDAA106020191AY181061GF108991081091008001999999KA1999N+02621MA1999999099161MD1710091+9999MW1251REMSYN088AAXX  25061 58314 11570 81404 10292 20253 39916 49998 57009 60201 72580 889// 333 20262;
0140583140999992000072509004+31400+116320FM-12+006899999V0202501N002010075019N0150001N1+02591+02491100121ADDAY191031AY281031GF108991081051008001999999MD1210131+9999MW1601REMSYN066AAXX  25091 58314 41565 82502 10259 20249 40012 52013 76098 885//;
0178583140999992000072512004+31400+116320FM-12+006899999V0200901N001019999999N0150001N1+02641+02561100051ADDAA106020191AY191061AY281061GF108991081001999999071999MA1999999099231MD1710061+9999MW1211REMSYN078AAXX  25121 58314 11965 80901 10264 20256 39923 40005 57006 60201 72198 8807/;
0140583140999992000072515004+31400+116320FM-12+006899999V0203201N002019999999N0150001N1+02631+02531100101ADDAY161031AY261031GF108991081001999999071999MD1210061+9999MW1211REMSYN066AAXX  25151 58314 41965 83202 10263 20253 40010 52006 72166 8807/;
0193583140999992000072518004+31400+116320FM-12+006899999V0201401N002012200019N0120001N1+02601+02541100001ADDAA106005191AY161061GF103991031001999999041001KA1999M+03661MA1999999099181MD1710111+9999MW1001REMSYN088AAXX  25181 58314 11962 31402 10260 20254 39918 40000 57011 60051 70060 83040 333 10366;
0145583140999992000072521004+31400+116320FM-12+006899999V0202501N001019999999N0080001N1+02581+02521100091ADDAA124045791GF108991081001999999071999MD1210081+9999MW1101REMSYN076AAXX  25211 58314 41958 82501 10258 20252 40009 52008 71000 8807/ 333 70456;
0160583140999992000072600004+31400+116320FM-12+006899999V0202701N001019999999N0200001N1+02761+02541100171ADDAA124045791GF105991001001999999001021MA1999999099341MD1210081+0001REMSYN082AAXX  26001 58314 32970 52701 10276 20254 39934 40017 52008 80002 333 00052 70456;
0112583140999992000072603004+31400+116320FM-12+006899999V0201101N003012200019N0200001N1+03201+02641100111ADDGF102991021011012501001001MD1710051+9999REMSYN060AAXX  26031 58314 42670 21103 10320 20264 40011 57005 82100;
0186583140999992000072606004+31400+116320FM-12+006899999V0200901N003010120019N0200001N1+03401+02681099901ADDAA199000091GF105991051011012501001001KA1999N+02561MA1999999099081MD1710211+9999REMSYN076AAXX  26061 58314 32670 50903 10340 20268 39908 49990 57021 85100 333 20256;EQDQ01  00002PRCP99
0112583140999992000072609004+31400+116320FM-12+006899999V0201401N003012200019N0200001N1+03381+02641099841ADDGF101991011011012501001001MD1710061+9999REMSYN060AAXX  26091 58314 42670 11403 10338 20264 49984 57006 81100;
0163583140999992000072612004+31400+116320FM-12+006899999V0200901N001019999999N0200001N1+03121+02681099991ADDAA199000091GF107991001001999999001021MA1999999099171MD1210151+9999REMSYN066AAXX  26121 58314 32970 70901 10312 20268 39917 49999 52015 80002;EQDQ01  00002PRCP99
0122583140999992000072615004+31400+116320FM-12+006899999V0203401N001012200019N0150001N1+02891+02671100061ADDGA1001+999999999GF100991001001999999001001MD1210071+9999REMSYN054AAXX  26151 58314 42965 03401 10289 20267 40006 52007;
0186583140999992000072618004+31400+116320FM-12+006899999V0209999C000019999999N0200001N1+02741+02601099891ADDAA199000091GF105991051001999999041001KA1999M+03451MA1999999099081MD1710161+9999REMSYN076AAXX  26181 58314 32970 50000 10274 20260 39908 49989 57016 85040 333 10345;EQDQ01  00002PRCP99
0112583140999992000072621004+31400+116320FM-12+006899999V0209999C000019999999N0150001N1+02691+02611099831ADDGF108991081001999999071999MD1710061+9999REMSYN060AAXX  26211 58314 42965 80000 10269 20261 49983 57006 8807/;
0183583140999992000072700004+31400+116320FM-12+006899999V0209999C000012200019N0100001N1+02721+02581099911ADDAA199000091GA1001+999999999GF100991001001999999001001MA1999999099091MD1210071+0031REMSYN070AAXX  27001 58314 32960 00000 10272 20258 39909 49991 52007 333 05300;EQDQ01  00002PRCP99
0122583140999992000072703004+31400+116320FM-12+006899999V0200901N002012200019N0200001N1+03361+02661099911ADDGA1001+999999999GF100991001001999999001001MD1210011+9999REMSYN054AAXX  27031 58314 42970 00902 10336 20266 49991 52001;
0186583140999992000072706004+31400+116320FM-12+006899999V0200901N003012200019N0200001N1+03561+02551099731ADDAA199000091GF101991011011008001001001KA1999N+02641MA1999999098921MD1710181+9999REMSYN076AAXX  27061 58314 32570 10903 10356 20255 39892 49973 57018 81100 333 20264;EQDQ01  00002PRCP99
0112583140999992000072709004+31400+116320FM-12+006899999V0200901N002012200019N0200001N1+03461+02741099641ADDGF102991021011008001001001MD1710091+9999REMSYN060AAXX  27091 58314 42570 20902 10346 20274 49964 57009 82100;
0173583140999992000072712004+31400+116320FM-12+006899999V0202901N003012200019N0200001N1+03141+02561099771ADDAA199000091GA1001+999999999GF100991001001999999001001MA1999999098951MD1210121+9999REMSYN060AAXX  27121 58314 32970 02903 10314 20256 39895 49977 52012;EQDQ01  00002PRCP99
0122583140999992000072715004+31400+116320FM-12+006899999V0209999C000012200019N0200001N1+02941+02621099891ADDGA1001+999999999GF100991001001999999001001MD1210131+9999REMSYN054AAXX  27151 58314 42970 00000 10294 20262 49989 52013;
0112583140999992000072721004+31400+116320FM-12+006899999V0202701N001019999999N0150001N1+02741+02591099791ADDGF108991081001999999071999MD1210041+9999REMSYN060AAXX  27211 58314 42965 82701 10274 20259 49979 52004 8807/;
0173583140999992000072800004+31400+116320FM-12+006899999V0209999C000019999999N0120001N1+02861+02671099941ADDAA199000091GF107991071001999999011999MA1999999099121MD1210141+0001REMSYN076AAXX  28001 58314 32962 70000 10286 20267 39912 49994 52014 8701/ 333 00001;EQDQ01  00002PRCP99
0112583140999992000072803004+31400+116320FM-12+006899999V0209999C000019999999N0150001N1+03321+02751099951ADDGF107991071001999999011999MD1210021+9999REMSYN060AAXX  28031 58314 42965 70000 10332 20275 49995 52002 8701/;
0186583140999992000072806004+31400+116320FM-12+006899999V0200401N001010075019N0200001N1+03661+02561099791ADDAA199000091GF107991071021008001999999KA1999N+02731MA1999999098981MD1710161+9999REMSYN076AAXX  28061 58314 32570 70401 10366 20256 39898 49979 57016 872// 333 20273;EQDQ01  00002PRCP99
0140583140999992000072809004+31400+116320FM-12+006899999V0202701N002010075019N0200001N1+02861+02541099981ADDAY191031AY281031GF108991051091008001071999MD1210181+9999MW1291REMSYN066AAXX  28091 58314 41570 82702 10286 20254 49998 52018 72998 8597/;
0178583140999992000072812004+31400+116320FM-12+006899999V0200701N001010075019N0200001N1+02791+02541099991ADDAA106000591AY191061AY281061GF108991081051008001999999MA1999999099171MD1210011+9999MW1001REMSYN078AAXX  28121 58314 11570 80701 10279 20254 39917 49999 52001 69951 70098 885//;
0112583140999992000072815004+31400+116320FM-12+006899999V0203401N002010075019N0200001N1+02681+02531100091ADDGF107991071051008001999999MD1210101+9999REMSYN060AAXX  28151 58314 42570 73402 10268 20253 40009 52010 875//;
0196583140999992000072818004+31400+116320FM-12+006899999V0209999C000012200019N0150001N1+02621+02491099971ADDAA199000091GA1001+999999999GF100991001001999999001001KA1999M+03681MA1999999099161MD1710111+9999REMSYN070AAXX  28181 58314 32965 00000 10262 20249 39916 49997 57011 333 10368;EQDQ01  00002PRCP99
0133583140999992000072821004+31400+116320FM-12+006899999V0202901N002019999999N0150001N1+02621+02521099951ADDAA124000591GF108991081001999999071999MD1710031+9999REMSYN070AAXX  28211 58314 42965 82902 10262 20252 49995 57003 8807/ 333 70005;
0160583140999992000072900004+31400+116320FM-12+006899999V0202701N002019999999N0150001N1+02731+02521100021ADDAA124000591GF108991081001999999071999MA1999999099201MD1210071+0101REMSYN082AAXX  29001 58314 32965 82702 10273 20252 39920 40002 52007 8807/ 333 00151 70005;
0132583140999992000072903004+31400+116320FM-12+006899999V0202701N002010075019N0150001N1+02951+02661100081ADDAY161031GF107991071051008001999999MD1210061+9999MW1211REMSYN066AAXX  29031 58314 41565 72702 10295 20266 40008 52006 72160 875//;
0203583140999992000072906004+31400+116320FM-12+006899999V0203401N005012200019N0200001N1+03281+01931099921ADDAA106002091AY161061GA1001+999999999GF100991001001999999001001KA1999N+02611MA1999999099101MD1710161+9999MW1001REMSYN082AAXX  29061 58314 11970 03405 10328 20193 39910 49992 57016 60021 70060 333 20261;
0132583140999992000072909004+31400+116320FM-12+006899999V0203401N004019999999N0150001N1+03061+02351099921ADDAY161031GF107991071001999999071999MD1410001+9999MW1001REMSYN066AAXX  29091 58314 41965 73404 10306 20235 49992 54000 70060 8707/;
0170583140999992000072912004+31400+116320FM-12+006899999V0202901N002019999999N0200001N1+02751+02241100141ADDAA106000791AY161061GF105991051001999999041001MA1999999099321MD1210221+9999MW1001REMSYN078AAXX  29121 58314 11970 52902 10275 20224 39932 40014 52022 69901 70060 85040;
0122583140999992000072915004+31400+116320FM-12+006899999V0202701N003012200019N0200001N1+02531+02101100201ADDGA1001+999999999GF100991001001999999001001MD1210061+9999REMSYN054AAXX  29151 58314 42970 02703 10253 20210 40020 52006;
0196583140999992000072918004+31400+116320FM-12+006899999V0203201N002012200019N0150001N1+02421+02031100131ADDAA199000091GA1001+999999999GF100991001001999999001001KA1999M+03311MA1999999099311MD1710071+9999REMSYN070AAXX  29181 58314 32965 03202 10242 20203 39931 40013 57007 333 10331;EQDQ01  00002PRCP99
0143583140999992000072921004+31400+116320FM-12+006899999V0202701N002012200019N0150001N1+02261+01951100131ADDAA124001891GA1001+999999999GF100991001001999999001001MD1710011+9999REMSYN064AAXX  29211 58314 42965 02702 10226 20195 40013 57001 333 70018;
0160583140999992000073000004+31400+116320FM-12+006899999V0202701N004019999999N0200001N1+02481+01861100161ADDAA124001891GF105991001001999999001021MA1999999099331MD1210031+0101REMSYN082AAXX  30001 58314 32970 52704 10248 20186 39933 40016 52003 80002 333 00153 70018;
0112583140999992000073003004+31400+116320FM-12+006899999V0202901N004019999999N0200001N1+03121+01981100171ADDGF105991001001999999001021MD1210021+9999REMSYN060AAXX  30031 58314 42970 52904 10312 20198 40017 52002 80002;
0186583140999992000073006004+31400+116320FM-12+006899999V0202901N004019999999N0200001N1+03401+01821100001ADDAA199000091GF106991061001999999041001KA1999N+02151MA1999999099181MD1710171+9999REMSYN076AAXX  30061 58314 32970 62904 10340 20182 39918 40000 57017 86040 333 20215;EQDQ01  00002PRCP99
0112583140999992000073009004+31400+116320FM-12+006899999V0203601N003012200019N0200001N1+03371+01471099961ADDGF102991001001999999001021MD1710041+9999REMSYN060AAXX  30091 58314 42970 23603 10337 20147 49996 57004 80002;
0173583140999992000073012004+31400+116320FM-12+006899999V0202501N002012200019N0200001N1+02771+01541100171ADDAA199000091GA1001+999999999GF100991001001999999001001MA1999999099341MD1210201+9999REMSYN060AAXX  30121 58314 32970 02502 10277 20154 39934 40017 52020;EQDQ01  00002PRCP99
0122583140999992000073015004+31400+116320FM-12+006899999V0202901N002012200019N0200001N1+02221+01841100301ADDGA1001+999999999GF100991001001999999001001MD1210131+9999REMSYN054AAXX  30151 58314 42970 02902 10222 20184 40030 52013;
0196583140999992000073018004+31400+116320FM-12+006899999V0209999C000012200019N0200001N1+02191+01841100291ADDAA199000091GA1001+999999999GF100991001001999999001001KA1999M+03541MA1999999099471MD1410001+9999REMSYN070AAXX  30181 58314 32970 00000 10219 20184 39947 40029 54000 333 10354;EQDQ01  00002PRCP99
0122583140999992000073021004+31400+116320FM-12+006899999V0202901N001012200019N0200001N1+01991+01801100311ADDGA1001+999999999GF100991001001999999001001MD1210011+9999REMSYN054AAXX  30211 58314 42970 02901 10199 20180 40031 52001;
0183583140999992000073100004+31400+116320FM-12+006899999V0202701N001012200019N0200001N1+02391+01941100421ADDAA199000091GA1001+999999999GF100991001001999999001001MA1999999099591MD1210111+0031REMSYN070AAXX  31001 58314 32970 02701 10239 20194 39959 40042 52011 333 00351;EQDQ01  00002PRCP99
0122583140999992000073103004+31400+116320FM-12+006899999V0202201N002012200019N0200001N1+03211+01501100381ADDGA1001+999999999GF100991001001999999001001MD1710041+9999REMSYN054AAXX  31031 58314 42970 02202 10321 20150 40038 57004;
0186583140999992000073106004+31400+116320FM-12+006899999V0201401N004012200019N0300001N1+03411+01611100251ADDAA199000091GF101991011011008001001001KA1999N+01951MA1999999099431MD1710121+9999REMSYN076AAXX  31061 58314 32580 11404 10341 20161 39943 40025 57012 81100 333 20195;EQDQ01  00002PRCP99
0122583140999992000073109004+31400+116320FM-12+006899999V0209999C000012200019N0250001N1+03471+01741100121ADDGA1001+999999999GF100991001001999999001001MD1710131+9999REMSYN054AAXX  31091 58314 42975 00000 10347 20174 40012 57013;
0173583140999992000073112004+31400+116320FM-12+006899999V0209999C000012200019N0300001N1+02881+02061100321ADDAA199000091GA1001+999999999GF100991001001999999001001MA1999999099491MD1210191+9999REMSYN060AAXX  31121 58314 32980 00000 10288 20206 39949 40032 52019;EQDQ01  00002PRCP99
0122583140999992000073115004+31400+116320FM-12+006899999V0209999C000012200019N0200001N1+02441+02081100481ADDGA1001+999999999GF100991001001999999001001MD1210171+9999REMSYN054AAXX  31151 58314 42970 00000 10244 20208 40048 52017;
0196583140999992000073118004+31400+116320FM-12+006899999V0209999C000012200019N0120001N1+02261+02051100501ADDAA199000091GA1001+999999999GF100991001001999999001001KA1999M+03521MA1999999099681MD1210021+9999REMSYN070AAXX  31181 58314 32962 00000 10226 20205 39968 40050 52002 333 10352;EQDQ01  00002PRCP99
0122583140999992000073121004+31400+116320FM-12+006899999V0209999C000012200019N0120001N1+02181+02001100531ADDGA1001+999999999GF100991001001999999001001MD1210031+9999REMSYN054AAXX  31211 58314 42962 00000 10218 20200 40053 52003;
0183583140999992000080100004+31400+116320FM-12+006899999V0209999C000012200019N0200001N1+02551+02021100601ADDAA199000091GA1001+999999999GF100991001001999999001001MA1999999099771MD1210061+0021REMSYN070AAXX  01001 58314 32970 00000 10255 20202 39977 40060 52006 333 00202;EQDQ01  00002PRCP99
0122583140999992000080103004+31400+116320FM-12+006899999V0209999C000012200019N0250001N1+03281+02001100581ADDGA1001+999999999GF100991001001999999001001MD1710011+9999REMSYN054AAXX  01031 58314 42975 00000 10328 20200 40058 57001;
0186583140999992000080106004+31400+116320FM-12+006899999V0200401N002012200019N0300001N1+03541+01931100461ADDAA199000091GF101991011011008001001001KA1999N+02151MA1999999099641MD1710121+9999REMSYN076AAXX  01061 58314 32580 10402 10354 20193 39964 40046 57012 81100 333 20215;EQDQ01  00002PRCP99
0122583140999992000080109004+31400+116320FM-12+006899999V0200901N003012200019N0300001N1+03441+01631100371ADDGA1001+999999999GF100991001001999999001001MD1710091+9999REMSYN054AAXX  01091 58314 42980 00903 10344 20163 40037 57009;
0163583140999992000080112004+31400+116320FM-12+006899999V0201101N001012200019N0200001N1+02791+01991100451ADDAA199000091GF102991001001999999001021MA1999999099621MD1210071+9999REMSYN066AAXX  01121 58314 32970 21101 10279 20199 39962 40045 52007 80002;EQDQ01  00002PRCP99
0112583140999992000080115004+31400+116320FM-12+006899999V0202901N001019999999N0200001N1+02461+01951100561ADDGF108991081001999999071999MD1210121+9999REMSYN060AAXX  01151 58314 42970 82901 10246 20195 40056 52012 8807/;
0196583140999992000080118004+31400+116320FM-12+006899999V0202901N001012200019N0200001N1+02301+02091100591ADDAA199000091GA1001+999999999GF100991001001999999001001KA1999M+03571MA1999999099771MD1210031+9999REMSYN070AAXX  01181 58314 32970 02901 10230 20209 39977 40059 52003 333 10357;EQDQ01  00002PRCP99
0122583140999992000080121004+31400+116320FM-12+006899999V0200901N001012200019N0150001N1+02181+02031100591ADDGA1001+999999999GF100991001001999999001001MD1710011+9999REMSYN054AAXX  01211 58314 42965 00901 10218 20203 40059 57001;
0173583140999992000080200004+31400+116320FM-12+006899999V0209999C000019999999N0150001N1+02461+02001100691ADDAA199000091GF107991001001999999001021MA1999999099861MD1210101+0011REMSYN076AAXX  02001 58314 32965 70000 10246 20200 39986 40069 52010 80002 333 00151;EQDQ01  00002PRCP99
0112583140999992000080203004+31400+116320FM-12+006899999V0200401N002019999999N0150001N1+03041+02091100611ADDGF107991001001999999001021MD1710081+9999REMSYN060AAXX  02031 58314 42965 70402 10304 20209 40061 57008 80002;
0186583140999992000080206004+31400+116320FM-12+006899999V0201401N003019999999N0200001N1+03401+01821100401ADDAA199000091GF107991001001999999001021KA1999N+02111MA1999999099581MD1710201+9999REMSYN076AAXX  02061 58314 32970 71403 10340 20182 39958 40040 57020 80002 333 20211;EQDQ01  00002PRCP99
0112583140999992000080209004+31400+116320FM-12+006899999V0209999C000019999999N0200001N1+03321+02271100351ADDGF107991001001999999001021MD1710061+9999REMSYN060AAXX  02091 58314 42970 70000 10332 20227 40035 57006 80002;
0163583140999992000080212004+31400+116320FM-12+006899999V0209999C000019999999N0200001N1+03001+02251100361ADDAA199000091GF108991081001999999071999MA1999999099531MD1210011+9999REMSYN066AAXX  02121 58314 32970 80000 10300 20225 39953 40036 52001 8807/;EQDQ01  00002PRCP99
0112583140999992000080215004+31400+116320FM-12+006899999V0209999C000019999999N0200001N1+02661+02311100551ADDGF105991051001999999041001MD1210201+9999REMSYN060AAXX  02151 58314 42970 50000 10266 20231 40055 52020 85040;
0186583140999992000080218004+31400+116320FM-12+006899999V0209999C000019999999N0120001N1+02541+02311100481ADDAA199000091GF108991081001999999071999KA1999M+03441MA1999999099661MD1710071+9999REMSYN076AAXX  02181 58314 32962 80000 10254 20231 39966 40048 57007 8807/ 333 10344;EQDQ01  00002PRCP99
0112583140999992000080221004+31400+116320FM-12+006899999V0202901N001019999999N0120001N1+02511+02291100511ADDGF108991081001999999071999MD1210031+9999REMSYN060AAXX  02211 58314 42962 82901 10251 20229 40051 52003 8807/;
0178583140999992000080300004+31400+116320FM-12+006899999V0202501N001019999999N0100001N1+02551+02331100621ADDAA106000791GF108991081001999999071999MA1999999099791MD1210101-0101MW1601REMSYN094AAXX  03001 58314 11960 82501 10255 20233 39979 40062 52010 69901 76000 8807/ 333 05101 79999;
0132583140999992000080303004+31400+116320FM-12+006899999V0209999C000019999999N0100001N1+02761+02401100651ADDAY161031GF108991081001999999071999MD1210031+9999MW1001REMSYN066AAXX  03031 58314 41960 80000 10276 20240 40065 52003 70060 8807/;
0193583140999992000080306004+31400+116320FM-12+006899999V0209999C000019999999N0100001N1+02771+02461100641ADDAA106000891AY161061GF108991081001999999071999KA1999N+02451MA1999999099811MD1710011+9999MW1601REMSYN088AAXX  03061 58314 11960 80000 10277 20246 39981 40064 57001 69971 76060 8807/ 333 20245;
0140583140999992000080309004+31400+116320FM-12+006899999V0200401N001019999999N0080001N1+02661+02531100601ADDAY161031AY261031GF108991081001999999071999MD1710041+9999MW1601REMSYN066AAXX  03091 58314 41958 80401 10266 20253 40060 57004 76066 8807/;
0178583140999992000080312004+31400+116320FM-12+006899999V0200701N001019999999N0070001N1+02651+02381100631ADDAA106002091AY161061AY261061GF108991081001999999071999MA1999999099801MD1210031+9999MW1601REMSYN078AAXX  03121 58314 11957 80701 10265 20238 39980 40063 52003 60021 76066 8807/;
0140583140999992000080315004+31400+116320FM-12+006899999V0209999C000010075019N0070001N1+02581+02511100681ADDAY161031AY261031GF108991081051008001999999MD1210051+9999MW1601REMSYN066AAXX  03151 58314 41557 80000 10258 20251 40068 52005 76066 885//;
0193583140999992000080318004+31400+116320FM-12+006899999V0202701N002019999999N0060001N1+02561+02491100681ADDAA106000591AY161061GF108991081001999999071999KA1999M+02771MA1999999099851MD1410001+9999MW1101REMSYN088AAXX  03181 58314 11956 82702 10256 20249 39985 40068 54000 69941 71060 8807/ 333 10277;
0145583140999992000080321004+31400+116320FM-12+006899999V0209999C000019999999N0080001N1+02501+02431100681ADDAA124003091GF108991081001999999071999MD1410001+9999MW1101REMSYN076AAXX  03211 58314 41958 80000 10250 20243 40068 54000 71000 8807/ 333 70031;
0172583140999992000080400004+31400+116320FM-12+006899999V0209999C000019999999N0060001N1+02541+02431100821ADDAA124003091GF108991081001999999071999MA1999999099991MD1210141+0201MW1101REMSYN088AAXX  04001 58314 31956 80000 10254 20243 39999 40082 52014 71000 8807/ 333 00200 70031;
0124583140999992000080403004+31400+116320FM-12+006899999V0209999C000019999999N0090001N1+02761+02481100881ADDGF108991081001999999071999MD1210061+9999MW1101REMSYN066AAXX  04031 58314 41959 80000 10276 20248 40088 52006 71000 8807/;
0186583140999992000080406004+31400+116320FM-12+006899999V0200701N003019999999N0120001N1+02981+02331100701ADDAA199000091GF108991081001999999071999KA1999N+02491MA1999999099871MD1710181+9999REMSYN076AAXX  04061 58314 32962 80703 10298 20233 39987 40070 57018 8807/ 333 20249;EQDQ01  00002PRCP99
0112583140999992000080409004+31400+116320FM-12+006899999V0200901N002019999999N0150001N1+03011+02411100671ADDGF108991081001999999071999MD1710031+9999REMSYN060AAXX  04091 58314 42965 80902 10301 20241 40067 57003 8807/;
0163583140999992000080412004+31400+116320FM-12+006899999V0209999C000019999999N0120001N1+02811+02531100741ADDAA199000091GF108991081001999999071999MA1999999099911MD1210071+9999REMSYN066AAXX  04121 58314 32962 80000 10281 20253 39991 40074 52007 8807/;EQDQ01  00002PRCP99
0112583140999992000080415004+31400+116320FM-12+006899999V0202901N001019999999N0120001N1+02601+02471100831ADDGF108991081001999999071999MD1210091+9999REMSYN060AAXX  04151 58314 42962 82901 10260 20247 40083 52009 8807/;
0186583140999992000080418004+31400+116320FM-12+006899999V0202901N001019999999N0200001N1+02491+02391100811ADDAA199000091GF105991051001999999041001KA1999M+03021MA1999999099981MD1710021+9999REMSYN076AAXX  04181 58314 32970 52901 10249 20239 39998 40081 57002 85040 333 10302;EQDQ01  00002PRCP99
0112583140999992000080421004+31400+116320FM-12+006899999V0202701N001019999999N0150001N1+02421+02351100831ADDGF108991081001999999071999MD1210021+9999REMSYN060AAXX  04211 58314 42965 82701 10242 20235 40083 52002 8807/;
0185583140999992000080500004+31400+116320FM-12+006899999V0209999C000019999999N0080001N1+02561+02401100881ADDAA199000091GF107991071001999999071999MA1999999100051MD1210051+0011MW1101REMSYN082AAXX  05001 58314 31958 70000 10256 20240 30005 40088 52005 71000 8707/ 333 00100;EQDQ01  00002PRCP99
0112583140999992000080503004+31400+116320FM-12+006899999V0200901N002019999999N0120001N1+03041+02401100831ADDGF107991071001999999071999MD1710051+9999REMSYN060AAXX  05031 58314 42962 70902 10304 20240 40083 57005 8707/;
0186583140999992000080506004+31400+116320FM-12+006899999V0202901N001019999999N0120001N1+03241+02411100691ADDAA199000091GF106991061001999999041001KA1999N+02401MA1999999099861MD1710141+9999REMSYN076AAXX  05061 58314 32962 62901 10324 20241 39986 40069 57014 86040 333 20240;EQDQ01  00002PRCP99
0112583140999992000080509004+31400+116320FM-12+006899999V0200901N003019999999N0120001N1+03221+02351100611ADDGF106991061001999999041001MD1710081+9999REMSYN060AAXX  05091 58314 42962 60903 10322 20235 40061 57008 86040;
0163583140999992000080512004+31400+116320FM-12+006899999V0201401N001019999999N0120001N1+02941+02351100771ADDAA199000091GF105991001001999999001021MA1999999099941MD1210161+9999REMSYN066AAXX  05121 58314 32962 51401 10294 20235 39994 40077 52016 80002;EQDQ01  00002PRCP99
0122583140999992000080515004+31400+116320FM-12+006899999V0202701N001012200019N0120001N1+02601+02381100891ADDGA1001+999999999GF100991001001999999001001MD1210121+9999REMSYN054AAXX  05151 58314 42962 02701 10260 20238 40089 52012;
0186583140999992000080518004+31400+116320FM-12+006899999V0209999C000019999999N0120001N1+02441+02321100861ADDAA199000091GF105991051001999999041001KA1999M+03331MA1999999100031MD1710031+9999REMSYN076AAXX  05181 58314 32962 50000 10244 20232 30003 40086 57003 85040 333 10333;EQDQ01  00002PRCP99
0124583140999992000080521004+31400+116320FM-12+006899999V0209999C000019999999N0060001N1+02371+02271100851ADDGF105991051001999999041001MD1710011+9999MW1101REMSYN066AAXX  05211 58314 41956 50000 10237 20227 40085 57001 71000 85040;
0185583140999992000080600004+31400+116320FM-12+006899999V0203401N002012200019N0080001N1+02491+02301100911ADDAA199000091GF102991021001999999041001MA1999999100081MD1210061+0001MW1101REMSYN082AAXX  06001 58314 31958 23402 10249 20230 30008 40091 52006 71000 82040 333 00051;EQDQ01  00002PRCP99
0112583140999992000080603004+31400+116320FM-12+006899999V0201401N002019999999N0100001N1+03021+02421100881ADDGF107991071001999999041999MD1710031+9999REMSYN060AAXX  06031 58314 42960 71402 10302 20242 40088 57003 8704/;
0186583140999992000080606004+31400+116320FM-12+006899999V0200901N003010075019N0150001N1+03311+02311100741ADDAA199000091GF105991051011008001001001KA1999N+02351MA1999999099911MD1710141+9999REMSYN076AAXX  06061 58314 32565 50903 10331 20231 39991 40074 57014 85100 333 20235;EQDQ01  00002PRCP99
0140583140999992000080609004+31400+116320FM-12+006899999V0202701N003010075019N0150001N1+02711+02421100731ADDAY191031AY281031GF107991051091008001061999MD1710011+9999MW1951REMSYN066AAXX  06091 58314 41565 72703 10271 20242 40073 57001 79598 8596/;
0178583140999992000080612004+31400+116320FM-12+006899999V0203201N001019999999N0150001N1+02691+02451100871ADDAA106007191AY191061AY281061GF107991071001999999071999MA1999999100041MD1210141+9999MW1001REMSYN078AAXX  06121 58314 11965 73201 10269 20245 30004 40087 52014 60071 70098 8707/;
0112583140999992000080615004+31400+116320FM-12+006899999V0201401N001019999999N0150001N1+02561+02371100941ADDGF108991081001999999071999MD1210071+9999REMSYN060AAXX  06151 58314 42965 81401 10256 20237 40094 52007 8807/;
0177583140999992000080618004+31400+116320FM-12+006899999V0202701N002012200019N0120001N1+02451+02351100881ADDAA199000021GA1001+999999999GF100991001001999999001001KA1999M+03381MA1999999100051MD1710061+9999REMSYN070AAXX  06181 58314 32962 02702 10245 20235 30005 40088 57006 333 10338;
0133583140999992000080621004+31400+116320FM-12+006899999V0203401N001019999999N0120001N1+02471+02341100901ADDAA124006691GF108991081001999999071999MD1210021+9999REMSYN070AAXX  06211 58314 42962 83401 10247 20234 40090 52002 8807/ 333 70066;
0160583140999992000080700004+31400+116320FM-12+006899999V0203201N001019999999N0120001N1+02611+02421100971ADDAA124006691GF108991081001999999071999MA1999999100141MD1210071+0101REMSYN082AAXX  07001 58314 32962 83201 10261 20242 30014 40097 52007 8807/ 333 00101 70066;
0112583140999992000080703004+31400+116320FM-12+006899999V0203401N002019999999N0150001N1+02981+02431100961ADDGF108991081001999999071999MD1710011+9999REMSYN060AAXX  07031 58314 42965 83402 10298 20243 40096 57001 8807/;
0186583140999992000080706004+31400+116320FM-12+006899999V0200201N002010360019N0200001N1+03341+02521100711ADDAA199000091GF106991021011008001041021KA1999N+02441MA1999999099891MD1710241+9999REMSYN076AAXX  07061 58314 32570 60202 10334 20252 39989 40071 57024 82142 333 20244;EQDQ01  00002PRCP99
0140583140999992000080709004+31400+116320FM-12+006899999V0202201N004010075019N0150001N1+02501+02361100841ADDAY191031AY281031GF108991051091008001071999MD1210111+9999MW1951REMSYN066AAXX  07091 58314 41565 82204 10250 20236 40084 52011 79598 8597/;
0178583140999992000080712004+31400+116320FM-12+006899999V0203201N002019999999N0120001N1+02531+02431100801ADDAA106023191AY191061AY281061GF108991081001999999071999MA1999999099971MD1710031+9999MW1601REMSYN078AAXX  07121 58314 11962 83202 10253 20243 39997 40080 57003 60231 76098 8807/;
0132583140999992000080715004+31400+116320FM-12+006899999V0200901N001019999999N0120001N1+02531+02421100861ADDAY161031GF106991061001999999041001MD1210061+9999MW1001REMSYN066AAXX  07151 58314 41962 60901 10253 20242 40086 52006 70060 86040;
0203583140999992000080718004+31400+116320FM-12+006899999V0209999C000012200019N0200001N1+02471+02381100811ADDAA106000791AY161061GA1001+999999999GF100991001001999999001001KA1999M+03451MA1999999099981MD1710051+9999MW1001REMSYN082AAXX  07181 58314 11970 00000 10247 20238 39998 40081 57005 69901 70060 333 10345;
0133583140999992000080721004+31400+116320FM-12+006899999V0209999C000012200019N0120001N1+02411+02371100791ADDAA124022691GF103991031001999999041001MD1710031+9999REMSYN070AAXX  07211 58314 42962 30000 10241 20237 40079 57003 83040 333 70227;
0170583140999992000080800004+31400+116320FM-12+006899999V0209999C000012200019N0100001N1+02601+02391100831ADDAA124002891GA1001+999999999GF100991001001999999001001MA1999999100001MD1210051-0101REMSYN076AAXX  08001 58314 32960 00000 10260 20239 30000 40083 52005 333 05100 70027;
0122583140999992000080803004+31400+116320FM-12+006899999V0209999C000012200019N0150001N1+03221+02571100801ADDGA1001+999999999GF100991001001999999001001MD1710031+9999REMSYN054AAXX  08031 58314 42965 00000 10322 20257 40080 57003;
0198583140999992000080806004+31400+116320FM-12+006899999V0202501N008010075019N0200001N1+02841+02371100691ADDAA199000091GF107991071091008001999999KA1999N+02411MA1999999099861MD1710111+9999MW1171REMSYN082AAXX  08061 58314 31570 72508 10284 20237 39986 40069 57011 71700 879// 333 20241;EQDQ01  00002PRCP99
0140583140999992000080809004+31400+116320FM-12+006899999V0203201N002019999999N0200001N1+02881+02561100611ADDAY191031AY281031GF107991071001999999071999MD1710081+9999MW1001REMSYN066AAXX  08091 58314 41970 73202 10288 20256 40061 57008 70098 8707/;
0178583140999992000080812004+31400+116320FM-12+006899999V0202701N002019999999N0150001N1+02771+02631100681ADDAA106005191AY191061AY281061GF106991021001999999041021MA1999999099851MD1210071+9999MW1001REMSYN078AAXX  08121 58314 11965 62702 10277 20263 39985 40068 52007 60051 70098 82042;
0112583140999992000080815004+31400+116320FM-12+006899999V0201101N001012200019N0150001N1+02681+02581100681ADDGF103991001001999999001021MD1210011+9999REMSYN060AAXX  08151 58314 42965 31101 10268 20258 40068 52001 80002;
0186583140999992000080818004+31400+116320FM-12+006899999V0209999C000019999999N0150001N1+02591+02501100721ADDAA199000091GF108991081001999999071999KA1999M+03501MA1999999099891MD1210031+9999REMSYN076AAXX  08181 58314 32965 80000 10259 20250 39989 40072 52003 8807/ 333 10350;EQDQ01  00002PRCP99
0143583140999992000080821004+31400+116320FM-12+006899999V0202501N001012200019N0150001N1+02501+02411100661ADDAA124004691GA1001+999999999GF100991001001999999001001MD1710061+9999REMSYN064AAXX  08211 58314 42965 02501 10250 20241 40066 57006 333 70045;
0160583140999992000080900004+31400+116320FM-12+006899999V0203201N001019999999N0120001N1+02741+02491100761ADDAA124004691GF107991071001999999071999MA1999999099931MD1210101-0101REMSYN082AAXX  09001 58314 32962 73201 10274 20249 39993 40076 52010 8707/ 333 05101 70045;
0112583140999992000080903004+31400+116320FM-12+006899999V0209999C000010900019N0200001N1+03221+02541100661ADDGF106991011011008001001021MD1710091+9999REMSYN060AAXX  09031 58314 42570 60000 10322 20254 40066 57009 81102;
0186583140999992000080906004+31400+116320FM-12+006899999V0202701N005012200019N0200001N1+03211+02421100521ADDAA199000091GF104991041011008001001001KA1999N+02501MA1999999099701MD1710141+9999REMSYN076AAXX  09061 58314 32570 42705 10321 20242 39970 40052 57014 84100 333 20250;EQDQ01  00002PRCP99
0132583140999992000080909004+31400+116320FM-12+006899999V0201801N002012200019N0200001N1+02981+02401100401ADDAY191031GF104991041001999999041001MD1710131+9999MW1001REMSYN066AAXX  09091 58314 41970 41802 10298 20240 40040 57013 70090 84040;
0163583140999992000080912004+31400+116320FM-12+006899999V0200901N001019999999N0200001N1+02841+02571100551ADDAA199000091GF105991051001999999041001MA1999999099721MD1210151+9999REMSYN066AAXX  09121 58314 32970 50901 10284 20257 39972 40055 52015 85040;EQDQ01  00002PRCP99
0122583140999992000080915004+31400+116320FM-12+006899999V0200901N002012200019N0200001N1+02681+02511100551ADDGA1001+999999999GF100991001001999999001001MD1210011+9999REMSYN054AAXX  09151 58314 42970 00902 10268 20251 40055 52001;
0196583140999992000080918004+31400+116320FM-12+006899999V0209999C000012200019N0200001N1+02601+02501100401ADDAA199000091GA1001+999999999GF100991001001999999001001KA1999M+03501MA1999999099581MD1710151+9999REMSYN070AAXX  09181 58314 32970 00000 10260 20250 39958 40040 57015 333 10350;EQDQ01  00002PRCP99
0122583140999992000080921004+31400+116320FM-12+006899999V0209999C000012200019N0200001N1+02501+02411100421ADDGA1001+999999999GF100991001001999999001001MD1210011+9999REMSYN054AAXX  09211 58314 42970 00000 10250 20241 40042 52001;
0173583140999992000081000004+31400+116320FM-12+006899999V0200901N002012200019N0200001N1+02791+02451100491ADDAA199000091GF102991001001999999001021MA1999999099671MD1210081+0031REMSYN076AAXX  10001 58314 32970 20902 10279 20245 39967 40049 52008 80002 333 05301;EQDQ01  00002PRCP99
0112583140999992000081003004+31400+116320FM-12+006899999V0209999C000012200019N0200001N1+03371+02401100431ADDGF102991021011012501001001MD1710061+9999REMSYN060AAXX  10031 58314 42670 20000 10337 20240 40043 57006 82100;
0186583140999992000081006004+31400+116320FM-12+006899999V0200901N003010900019N0200001N1+03511+02271100241ADDAA199000091GF107991021011012501001021KA1999N+02501MA1999999099421MD1710191+9999REMSYN076AAXX  10061 58314 32670 70903 10351 20227 39942 40024 57019 82102 333 20250;EQDQ01  00002PRCP99
0112583140999992000081009004+31400+116320FM-12+006899999V0201401N002010360019N0200001N1+03291+02601100181ADDGF108991031011012501071999MD1710061+9999REMSYN060AAXX  10091 58314 42670 81402 10329 20260 40018 57006 8317/;
0162583140999992000081012004+31400+116320FM-12+006899999V0202501N003010075019N0080001N1+02691+02451100321ADDAA106016091GF108991081091008001999999MA1999999099491MD1210131+9999MW1951REMSYN078AAXX  10121 58314 11558 82503 10269 20245 39949 40032 52013 60161 79500 889//;
0133583140999992000081021004+31400+116320FM-12+006899999V0209999C000019999999N0120001N1+02521+02431100211ADDAA124016091GF107991001001999999001021MD1210041+9999REMSYN070AAXX  10211 58314 42962 70000 10252 20243 40021 52004 80002 333 70160;
0172583140999992000081100004+31400+116320FM-12+006899999V0202701N002019999999N0080001N1+02581+02481100251ADDAA124016091GF107991001001999999001021MA1999999099421MD1210031-0301MW1101REMSYN088AAXX  11001 58314 31958 72702 10258 20248 39942 40025 52003 71000 80002 333 05352 70160;
0112583140999992000081103004+31400+116320FM-12+006899999V0203401N003010075019N0150001N1+03061+02331100281ADDGF106991061011008001001001MD1210041+9999REMSYN060AAXX  11031 58314 42565 63403 10306 20233 40028 52004 86100;
0186583140999992000081106004+31400+116320FM-12+006899999V0203401N003010360019N0250001N1+03201+02331100171ADDAA199000091GF106991041011008001041001KA1999N+02521MA1999999099351MD1710111+9999REMSYN076AAXX  11061 58314 32575 63403 10320 20233 39935 40017 57011 84140 333 20252;EQDQ01  00002PRCP99
0132583140999992000081109004+31400+116320FM-12+006899999V0203401N003019999999N0250001N1+03081+02511100051ADDAY161031GF107991071001999999071999MD1710121+9999MW1001REMSYN066AAXX  11091 58314 41975 73403 10308 20251 40005 57012 70060 8707/;
0170583140999992000081112004+31400+116320FM-12+006899999V0202701N002010075019N0120001N1+02801+02621100171ADDAA106005191AY181061GF108991081051008001999999MA1999999099341MD1210111+9999MW1001REMSYN078AAXX  11121 58314 11562 82702 10280 20262 39934 40017 52011 60051 70080 885//;
0112583140999992000081115004+31400+116320FM-12+006899999V0202901N002010075019N0120001N1+02701+02571100271ADDGF108991081051008001999999MD1210111+9999REMSYN060AAXX  11151 58314 42562 82902 10270 20257 40027 52011 885//;
0186583140999992000081118004+31400+116320FM-12+006899999V0202901N001010120019N0150001N1+02661+02581100151ADDAA199000091GF108991081051012501999999KA1999M+03221MA1999999099331MD1710121+9999REMSYN076AAXX  11181 58314 32665 82901 10266 20258 39933 40015 57012 885// 333 10322;EQDQ01  00002PRCP99
0153583140999992000081121004+31400+116320FM-12+006899999V0203201N001010075019N0120001N1+02651+02581100161ADDAA124005191AY161031GF108991081051008001999999MD1210011+9999MW1211REMSYN076AAXX  11211 58314 41562 83201 10265 20258 40016 52001 72160 885// 333 70051;
0186583140999992000081200004+31400+116320FM-12+006899999V0202701N002010075019N0070001N1+02681+02581100211ADDAA106000191AY161061GF108991081051008001999999MA1999999099391MD1210051+0001MW1601REMSYN094AAXX  12001 58314 11557 82702 10268 20258 39939 40021 52005 69921 76060 885// 333 00001 70052;
0132583140999992000081203004+31400+116320FM-12+006899999V0202501N003010075019N0070001N1+02641+02571100261ADDAY161031GF108991081051008001999999MD1210041+9999MW1601REMSYN066AAXX  12031 58314 41557 82503 10264 20257 40026 52004 76060 885//;
0193583140999992000081206004+31400+116320FM-12+006899999V0202201N002010075019N0120001N1+02891+02641100211ADDAA106005191AY161061GF108991081051008001999999KA1999N+02641MA1999999099391MD1710041+9999MW1001REMSYN088AAXX  12061 58314 11562 82202 10289 20264 39939 40021 57004 60051 70060 885// 333 20264;
0112583140999992000081209004+31400+116320FM-12+006899999V0200401N001012200019N0150001N1+02961+02671100131ADDGF103991031001999999041001MD1710081+9999REMSYN060AAXX  12091 58314 42965 30401 10296 20267 40013 57008 83040;
0162583140999992000081212004+31400+116320FM-12+006899999V0201401N002010075019N0120001N1+02811+02661100261ADDAA106000791GF108991081051008001999999MA1999999099441MD1210131+9999MW1601REMSYN078AAXX  12121 58314 11562 81402 10281 20266 39944 40026 52013 69901 76000 885//;
0122583140999992000081215004+31400+116320FM-12+006899999V0201401N002012200019N0120001N1+02671+02601100311ADDGA1001+999999999GF100991001001999999001001MD1210041+9999REMSYN054AAXX  12151 58314 42962 01402 10267 20260 40031 52004;
0179583140999992000081218004+31400+116320FM-12+006899999V0209999C000019999999N0080001N1+02641+02581100251ADDAA199000021GF108991081001999999071999KA1999M+02981MA1999999099431MD1710051+9999MW1101REMSYN082AAXX  12181 58314 31958 80000 10264 20258 39943 40025 57005 71000 8807/ 333 10298;
0145583140999992000081221004+31400+116320FM-12+006899999V0209999C000019999999N0080001N1+02641+02571100271ADDAA124004691GF108991081001999999071999MD1210021+9999MW1101REMSYN076AAXX  12211 58314 41958 80000 10264 20257 40027 52002 71000 8807/ 333 70046;
0172583140999992000081300004+31400+116320FM-12+006899999V0209999C000019999999N0080001N1+02721+02591100391ADDAA124004691GF108991081001999999071999MA1999999099561MD1210111+0201MW1101REMSYN088AAXX  13001 58314 31958 80000 10272 20259 39956 40039 52011 71000 8807/ 333 00200 70045;
0193583140999992000081306004+31400+116320FM-12+006899999V0200901N002012200019N0100001N1+03301+02601100161ADDAA106000791AY161061GF103991031011008001001001KA1999N+02611MA1999999099341MD1710221+9999MW1001REMSYN088AAXX  13061 58314 11560 30902 10330 20260 39934 40016 57022 69901 70060 83100 333 20261;
0112583140999992000081309004+31400+116320FM-12+006899999V0200401N002019999999N0150001N1+03281+02581100131ADDGF105991051001999999041001MD1710031+9999REMSYN060AAXX  13091 58314 42965 50402 10328 20258 40013 57003 85040;
0178583140999992000081312004+31400+116320FM-12+006899999V0201101N001010150019N0150001N1+02821+02651100291ADDAA106002091AY191061AY281061GF108991081091017501999999MA1999999099471MD1210161+9999MW1291REMSYN078AAXX  13121 58314 11765 81101 10282 20265 39947 40029 52016 60021 72998 889//;
0112583140999992000081315004+31400+116320FM-12+006899999V0203201N002010150019N0150001N1+02801+02591100411ADDGF107991071051017501999999MD1210121+9999REMSYN060AAXX  13151 58314 42765 73202 10280 20259 40041 52012 875//;
0186583140999992000081318004+31400+116320FM-12+006899999V0203201N001019999999N0120001N1+02681+02551100331ADDAA199000091GF108991081001999999071999KA1999M+03361MA1999999099511MD1710081+9999REMSYN076AAXX  13181 58314 32962 83201 10268 20255 39951 40033 57008 8807/ 333 10336;EQDQ01  00002PRCP99
0133583140999992000081321004+31400+116320FM-12+006899999V0209999C000019999999N0120001N1+02601+02531100291ADDAA124001891GF108991081001999999071999MD1710041+9999REMSYN070AAXX  13211 58314 42962 80000 10260 20253 40029 57004 8807/ 333 70018;
0172583140999992000081400004+31400+116320FM-12+006899999V0209999C000010150019N0090001N1+02691+02611100391ADDAA124001891GF108991081051017501999999MA1999999099561MD1210091+0001MW1101REMSYN088AAXX  14001 58314 31759 80000 10269 20261 39956 40039 52009 71000 885// 333 00000 70018;
0112583140999992000081403004+31400+116320FM-12+006899999V0203201N001010120019N0150001N1+03081+02601100341ADDGF108991081051012501999999MD1710041+9999REMSYN060AAXX  14031 58314 42665 83201 10308 20260 40034 57004 885//;
0193583140999992000081406004+31400+116320FM-12+006899999V0203401N002010075019N0250001N1+03321+02531100201ADDAA106002091AY161061GF105991051041008001001001KA1999N+02601MA1999999099381MD1710141+9999MW1001REMSYN088AAXX  14061 58314 11575 53402 10332 20253 39938 40020 57014 60021 70060 85400 333 20260;
0112583140999992000081409004+31400+116320FM-12+006899999V0200701N002010075019N0250001N1+03301+02571100091ADDGF105991051041008001001001MD1710111+9999REMSYN060AAXX  14091 58314 42575 50702 10330 20257 40009 57011 85400;
0175583140999992000081412004+31400+116320FM-12+006899999V0200901N001010075019N0150001N1+02981+02621100291ADDAA199000091GF108991081091008001999999MA1999999099471MD1210201+9999MW1171REMSYN072AAXX  14121 58314 31565 80901 10298 20262 39947 40029 52020 71700 889//;EQDQ01  00002PRCP99
0132583140999992000081415004+31400+116320FM-12+006899999V0201401N002012200019N0200001N1+02661+02251100271ADDAY191031GF103991001001999999001021MD1710021+9999MW1001REMSYN066AAXX  14151 58314 41970 31402 10266 20225 40027 57002 70090 80002;
0206583140999992000081418004+31400+116320FM-12+006899999V0209999C000019999999N0200001N1+02571+02341100291ADDAA199000091AY191061GF107991071001999999041001KA1999M+03351MA1999999099471MD1210021+9999MW1001REMSYN082AAXX  14181 58314 31970 70000 10257 20234 39947 40029 52002 70090 87040 333 10335;EQDQ01  00002PRCP99
0143583140999992000081421004+31400+116320FM-12+006899999V0209999C000012200019N0200001N1+02531+02371100251ADDAA124001591GA1001+999999999GF100991001001999999001001MD1710041+9999REMSYN064AAXX  14211 58314 42970 00000 10253 20237 40025 57004 333 70015;
0170583140999992000081500004+31400+116320FM-12+006899999V0203201N002012200019N0150001N1+02801+02491100341ADDAA124001591GA1001+999999999GF100991001001999999001001MA1999999099521MD1210091+0001REMSYN076AAXX  15001 58314 32965 03202 10280 20249 39952 40034 52009 333 00001 70015;
0186583140999992000081506004+31400+116320FM-12+006899999V0200401N002010900019N0200001N1+03381+02521100141ADDAA199000091GF107991031011008001001021KA1999N+02531MA1999999099321MD1710191+9999REMSYN076AAXX  15061 58314 32570 70402 10338 20252 39932 40014 57019 83102 333 20253;EQDQ01  00002PRCP99
0112583140999992000081509004+31400+116320FM-12+006899999V0203201N003010075019N0200001N1+03391+02421099991ADDGF105991051021008001001001MD1710151+9999REMSYN060AAXX  15091 58314 42570 53203 10339 20242 49999 57015 85200;
0163583140999992000081512004+31400+116320FM-12+006899999V0201401N002010150019N0150001N1+03011+02451100131ADDAA199000091GF108991081051017501999999MA1999999099311MD1210141+9999REMSYN066AAXX  15121 58314 32765 81402 10301 20245 39931 40013 52014 885//;EQDQ01  00002PRCP99
0112583140999992000081515004+31400+116320FM-12+006899999V0202501N001019999999N0150001N1+02701+02471100301ADDGF107991071001999999071999MD1210171+9999REMSYN060AAXX  15151 58314 42965 72501 10270 20247 40030 52017 8707/;
0193583140999992000081518004+31400+116320FM-12+006899999V0203201N001019999999N0120001N1+02641+02441100251ADDAA106000191AY161061GF108991081001999999071999KA1999M+03451MA1999999099431MD1710051+9999MW1001REMSYN088AAXX  15181 58314 11962 83201 10264 20244 39943 40025 57005 69921 70060 8807/ 333 10345;
0133583140999992000081521004+31400+116320FM-12+006899999V0209999C000019999999N0120001N1+02601+02471100201ADDAA124000391GF108991081001999999071999MD1710051+9999REMSYN070AAXX  15211 58314 42962 80000 10260 20247 40020 57005 8807/ 333 70002;
0160583140999992000081600004+31400+116320FM-12+006899999V0209999C000019999999N0100001N1+02681+02501100261ADDAA124000391GF108991081001999999071999MA1999999099441MD1210061-0101REMSYN082AAXX  16001 58314 32960 80000 10268 20250 39944 40026 52006 8807/ 333 05151 70002;
0186583140999992000081606004+31400+116320FM-12+006899999V0209999C000010900019N0150001N1+03361+02421100101ADDAA199000091GF107991041011008001001021KA1999N+02601MA1999999099281MD1710221+9999REMSYN076AAXX  16061 58314 32565 70000 10336 20242 39928 40010 57022 84102 333 20260;EQDQ01  00002PRCP99
0112583140999992000081609004+31400+116320FM-12+006899999V0209999C000019999999N0150001N1+03181+02531100151ADDGF108991081001999999071999MD1210051+9999REMSYN060AAXX  16091 58314 42965 80000 10318 20253 40015 52005 8807/;
0178583140999992000081612004+31400+116320FM-12+006899999V0203201N002010075019N0150001N1+02561+02431100371ADDAA106045091AY191061AY281061GF108991081051008001999999MA1999999099541MD1210211+9999MW1251REMSYN078AAXX  16121 58314 11565 83202 10256 20243 39954 40037 52021 60451 72598 885//;
0112583140999992000081615004+31400+116320FM-12+006899999V0203201N001019999999N0200001N1+02521+02381100431ADDGF107991001001999999001021MD1210071+9999REMSYN060AAXX  16151 58314 42970 73201 10252 20238 40043 52007 80002;
0167583140999992000081618004+31400+116320FM-12+006899999V0209999C000019999999N0150001N1+02441+02351100411ADDAA199000021GF106991001001999999001021KA1999M+03361MA1999999099591MD1710021+9999REMSYN076AAXX  16181 58314 32965 60000 10244 20235 39959 40041 57002 80002 333 10336;
0160583140999992000081700004+31400+116320FM-12+006899999V0203401N002012200019N0150001N1+02541+02341100631ADDAA124045291GF104991001001999999001021MA1999999099801MD1210161+0401REMSYN082AAXX  17001 58314 32965 43402 10254 20234 39980 40063 52016 80002 333 00451 70452;
0112583140999992000081703004+31400+116320FM-12+006899999V0200701N001019999999N0150001N1+03091+02501100661ADDGF105991001001999999001021MD1210031+9999REMSYN060AAXX  17031 58314 42965 50701 10309 20250 40066 52003 80002;
0186583140999992000081706004+31400+116320FM-12+006899999V0209999C000010120019N0200001N1+03331+02541100471ADDAA199000091GF105991051011012501001001KA1999N+02381MA1999999099651MD1710181+9999REMSYN076AAXX  17061 58314 32670 50000 10333 20254 39965 40047 57018 85100 333 20238;EQDQ01  00002PRCP99
0112583140999992000081709004+31400+116320FM-12+006899999V0201401N003010120019N0200001N1+03171+02591100391ADDGF105991051011012501001001MD1710081+9999REMSYN060AAXX  17091 58314 42670 51403 10317 20259 40039 57008 85100;
0170583140999992000081712004+31400+116320FM-12+006899999V0202701N004010075019N0080001N1+02511+02441100641ADDAA106007991AY161061GF108991081051008001999999MA1999999099811MD1210241+9999MW1601REMSYN078AAXX  17121 58314 11558 82704 10251 20244 39981 40064 52024 60081 76060 885//;
0132583140999992000081715004+31400+116320FM-12+006899999V0202901N003010075019N0120001N1+02521+02431100701ADDAY161031GF108991081051008001999999MD1210061+9999MW1211REMSYN066AAXX  17151 58314 41562 82903 10252 20243 40070 52006 72160 885//;
0193583140999992000081718004+31400+116320FM-12+006899999V0209999C000019999999N0120001N1+02541+02451100641ADDAA106001091AY161061GF108991081001999999071999KA1999M+03331MA1999999099821MD1710051+9999MW1001REMSYN088AAXX  17181 58314 11962 80000 10254 20245 39982 40064 57005 60011 70060 8807/ 333 10333;
0133583140999992000081721004+31400+116320FM-12+006899999V0202701N001019999999N0150001N1+02481+02391100681ADDAA124008991GF107991001001999999001021MD1210031+9999REMSYN070AAXX  17211 58314 42965 72701 10248 20239 40068 52003 80002 333 70089;
0160583140999992000081800004+31400+116320FM-12+006899999V0200701N001012200019N0100001N1+02601+02521100771ADDAA124008991GF103991031001999999041001MA1999999099941MD1210091+0101REMSYN082AAXX  18001 58314 32960 30701 10260 20252 39994 40077 52009 83040 333 00101 70089;
0112583140999992000081803004+31400+116320FM-12+006899999V0200401N002010900019N0150001N1+03161+02591100701ADDGF106991021011008001001021MD1710071+9999REMSYN060AAXX  18031 58314 42565 60402 10316 20259 40070 57007 82102;
0186583140999992000081806004+31400+116320FM-12+006899999V0203201N002010900019N0250001N1+03311+02471100461ADDAA199000091GF106991021011008001001021KA1999N+02461MA1999999099641MD1710231+9999REMSYN076AAXX  18061 58314 32575 63202 10331 20247 39964 40046 57023 82102 333 20246;EQDQ01  00002PRCP99
0203583140999992000081818004+31400+116320FM-12+006899999V0203201N001012200019N0200001N1+02491+02421100511ADDAA106002091AY161061GA1001+999999999GF100991001001999999001001KA1999M+03401MA1999999099691MD1710181+9999MW1001REMSYN082AAXX  18181 58314 11970 03201 10249 20242 39969 40051 57018 60021 70060 333 10340;
0133583140999992000081821004+31400+116320FM-12+006899999V0209999C000019999999N0200001N1+02461+02391100501ADDAA124005691GF107991071001999999071999MD1710021+9999REMSYN070AAXX  18211 58314 42970 70000 10246 20239 40050 57002 8707/ 333 70057;
0172583140999992000081900004+31400+116320FM-12+006899999V0202701N002019999999N0080001N1+02551+02411100491ADDAA124005691GF108991081001999999071999MA1999999099661MD1710011-0301MW1101REMSYN088AAXX  19001 58314 31958 82702 10255 20241 39966 40049 57001 71000 8807/ 333 05351 70057;
0124583140999992000081903004+31400+116320FM-12+006899999V0202901N002019999999N0090001N1+02641+02451100541ADDGF108991081001999999071999MD1210051+9999MW1601REMSYN066AAXX  19031 58314 41959 82902 10264 20245 40054 52005 76000 8807/;
0193583140999992000081906004+31400+116320FM-12+006899999V0200201N003019999999N0100001N1+02541+02411100401ADDAA106007191AY161061GF108991081001999999071999KA1999N+02451MA1999999099571MD1710141+9999MW1601REMSYN088AAXX  19061 58314 11960 80203 10254 20241 39957 40040 57014 60071 76060 8807/ 333 20245;
0140583140999992000081909004+31400+116320FM-12+006899999V0202901N002010075019N0060001N1+02461+02341100391ADDAY161031AY261031GF108991081051008001999999MD1710011+9999MW1601REMSYN066AAXX  19091 58314 41556 82902 10246 20234 40039 57001 76066 885//;
0178583140999992000081912004+31400+116320FM-12+006899999V0200401N001010075019N0100001N1+02421+02351100541ADDAA106032091AY161061AY261061GF108991081051008001999999MA1999999099711MD1210151+9999MW1601REMSYN078AAXX  19121 58314 11560 80401 10242 20235 39971 40054 52015 60321 76066 885//;
0132583140999992000081915004+31400+116320FM-12+006899999V0202701N001010075019N0100001N1+02411+02351100611ADDAY161031GF108991081051008001999999MD1210071+9999MW1001REMSYN066AAXX  19151 58314 41560 82701 10241 20235 40061 52007 70060 885//;
0193583140999992000081918004+31400+116320FM-12+006899999V0202901N001010075019N0120001N1+02391+02321100561ADDAA106000191AY161061GF107991071051008001999999KA1999M+02671MA1999999099721MD1710061+9999MW1001REMSYN088AAXX  19181 58314 11562 72901 10239 20232 39972 40056 57006 69921 70060 875// 333 10267;
0145583140999992000081921004+31400+116320FM-12+006899999V0202901N002019999999N0080001N1+02311+02271100631ADDAA124039191GF107991071001999999071999MD1210071+9999MW1101REMSYN076AAXX  19211 58314 41958 72902 10231 20227 40063 52007 71000 8707/ 333 70392;
0160583140999992000082000004+31400+116320FM-12+006899999V0203201N002019999999N0150001N1+02401+02331100751ADDAA124039191GF108991081001999999071999MA1999999099911MD1210121+0301REMSYN082AAXX  20001 58314 32965 83202 10240 20233 39991 40075 52012 8807/ 333 00352 70392;
0112583140999992000082003004+31400+116320FM-12+006899999V0200201N003019999999N0150001N1+02831+02361100801ADDGF107991071001999999071999MD1210061+9999REMSYN060AAXX  20031 58314 42965 70203 10283 20236 40080 52006 8707/;
0186583140999992000082006004+31400+116320FM-12+006899999V0203601N004012200019N0250001N1+03041+02191100681ADDAA199000091GF102991021011017501001001KA1999N+02251MA1999999099851MD1710121+9999REMSYN076AAXX  20061 58314 32775 23604 10304 20219 39985 40068 57012 82100 333 20225;EQDQ01  00002PRCP99
0112583140999992000082009004+31400+116320FM-12+006899999V0200401N002012200019N0200001N1+03001+02161100631ADDGF101991011011008001001001MD1710051+9999REMSYN060AAXX  20091 58314 42570 10402 10300 20216 40063 57005 81100;
0163583140999992000082012004+31400+116320FM-12+006899999V0209999C000019999999N0150001N1+02551+02331100791ADDAA199000091GF108991081001999999071999MA1999999099951MD1210151+9999REMSYN066AAXX  20121 58314 32965 80000 10255 20233 39995 40079 52015 8807/;EQDQ01  00002PRCP99
0112583140999992000082015004+31400+116320FM-12+006899999V0202701N001019999999N0120001N1+02341+02221100941ADDGF108991081001999999071999MD1210161+9999REMSYN060AAXX  20151 58314 42962 82701 10234 20222 40094 52016 8807/;
0196583140999992000082018004+31400+116320FM-12+006899999V0209999C000012200019N0200001N1+02241+02151100901ADDAA199000091GA1001+999999999GF100991001001999999001001KA1999M+03051MA1999999100071MD1710041+9999REMSYN070AAXX  20181 58314 32970 00000 10224 20215 30007 40090 57004 333 10305;EQDQ01  00002PRCP99
0122583140999992000082021004+31400+116320FM-12+006899999V0209999C000012200019N0150001N1+02081+02021100961ADDGA1001+999999999GF100991001001999999001001MD1210051+9999REMSYN054AAXX  20211 58314 42965 00000 10208 20202 40096 52005;
0183583140999992000082100004+31400+116320FM-12+006899999V0202701N001012200019N0100001N1+02261+02111101051ADDAA199000091GA1001+999999999GF100991001001999999001001MA1999999100211MD1210091+0031REMSYN070AAXX  21001 58314 32960 02701 10226 20211 30021 40105 52009 333 00351;EQDQ01  00002PRCP99
0112583140999992000082103004+31400+116320FM-12+006899999V0201401N002012200019N0150001N1+02861+02131101081ADDGF103991011011008001001021MD1210031+9999REMSYN060AAXX  21031 58314 42565 31402 10286 20213 40108 52003 81102;
0186583140999992000082106004+31400+116320FM-12+006899999V0201601N001012200019N0250001N1+03101+02031100911ADDAA199000091GF102991021011008001001001KA1999N+02061MA1999999100081MD1710161+9999REMSYN076AAXX  21061 58314 32575 21601 10310 20203 30008 40091 57016 82100 333 20206;EQDQ01  00002PRCP99
0112583140999992000082109004+31400+116320FM-12+006899999V0200901N002019999999N0250001N1+03101+01961100851ADDGF106991001001999999001021MD1710061+9999REMSYN060AAXX  21091 58314 42975 60902 10310 20196 40085 57006 80002;
0163583140999992000082112004+31400+116320FM-12+006899999V0201401N001019999999N0200001N1+02691+02241100931ADDAA199000091GF105991001001999999001021MA1999999100091MD1210071+9999REMSYN066AAXX  21121 58314 32970 51401 10269 20224 30009 40093 52007 80002;EQDQ01  00002PRCP99
0122583140999992000082115004+31400+116320FM-12+006899999V0202901N001012200019N0200001N1+02341+02191101061ADDGA1001+999999999GF100991001001999999001001MD1210131+9999REMSYN054AAXX  21151 58314 42970 02901 10234 20219 40106 52013;
0186583140999992000082118004+31400+116320FM-12+006899999V0202901N001012200019N0200001N1+02201+02121101071ADDAA199000091GF103991001001999999001021KA1999M+03131MA1999999100241MD1210021+9999REMSYN076AAXX  21181 58314 32970 32901 10220 20212 30024 40107 52002 80002 333 10313;EQDQ01  00002PRCP99
0122583140999992000082121004+31400+116320FM-12+006899999V0202701N001012200019N0200001N1+02111+02051101051ADDGA1001+999999999GF100991001001999999001001MD1710031+9999REMSYN054AAXX  21211 58314 42970 02701 10211 20205 40105 57003;
0173583140999992000082200004+31400+116320FM-12+006899999V0202701N001012200019N0120001N1+02201+01951101121ADDAA199000091GF103991001001999999001021MA1999999100281MD1210071+0011REMSYN076AAXX  22001 58314 32962 32701 10220 20195 30028 40112 52007 80002 333 00151;EQDQ01  00002PRCP99
0112583140999992000082203004+31400+116320FM-12+006899999V0201401N002019999999N0200001N1+02671+01991101111ADDGF105991001001999999001021MD1710011+9999REMSYN060AAXX  22031 58314 42970 51402 10267 20199 40111 57001 80002;
0186583140999992000082206004+31400+116320FM-12+006899999V0209999C000012200019N0250001N1+03181+02041100911ADDAA199000091GF103991021011008001001021KA1999N+02051MA1999999100081MD1710191+9999REMSYN076AAXX  22061 58314 32575 30000 10318 20204 30008 40091 57019 82102 333 20205;EQDQ01  00002PRCP99
0112583140999992000082209004+31400+116320FM-12+006899999V0200401N002019999999N0200001N1+03201+02181100811ADDGF106991001001999999001021MD1710101+9999REMSYN060AAXX  22091 58314 42970 60402 10320 20218 40081 57010 80002;
0163583140999992000082212004+31400+116320FM-12+006899999V0209999C000019999999N0150001N1+02861+02171100971ADDAA199000091GF108991081001999999071999MA1999999100131MD1210151+9999REMSYN066AAXX  22121 58314 32965 80000 10286 20217 30013 40097 52015 8807/;EQDQ01  00002PRCP99
0122583140999992000082215004+31400+116320FM-12+006899999V0202901N002012200019N0150001N1+02501+02301101011ADDGA1001+999999999GF100991001001999999001001MD1210041+9999REMSYN054AAXX  22151 58314 42965 02902 10250 20230 40101 52004;
0196583140999992000082218004+31400+116320FM-12+006899999V0202701N002012200019N0120001N1+02341+02221100881ADDAA199000091GA1001+999999999GF100991001001999999001001KA1999M+03261MA1999999100051MD1710121+9999REMSYN070AAXX  22181 58314 32962 02702 10234 20222 30005 40088 57012 333 10326;EQDQ01  00002PRCP99
0122583140999992000082221004+31400+116320FM-12+006899999V0203401N001012200019N0120001N1+02341+02221100861ADDGA1001+999999999GF100991001001999999001001MD1710021+9999REMSYN054AAXX  22211 58314 42962 03401 10234 20222 40086 57002;
0185583140999992000082300004+31400+116320FM-12+006899999V0202701N001019999999N0080001N1+02391+02211100971ADDAA199000091GF108991081001999999071999MA1999999100141MD1210111+0011MW1101REMSYN082AAXX  23001 58314 31958 82701 10239 20221 30014 40097 52011 71000 8807/ 333 05102;EQDQ01  00002PRCP99
0124583140999992000082303004+31400+116320FM-12+006899999V0200901N002019999999N0080001N1+02761+02491100921ADDGF108991081001999999071999MD1710051+9999MW1101REMSYN066AAXX  23031 58314 41958 80902 10276 20249 40092 57005 71000 8807/;
0186583140999992000082306004+31400+116320FM-12+006899999V0200701N002012200019N0100001N1+03101+02561100681ADDAA199000091GF104991041011008001001001KA1999N+02261MA1999999099851MD1710241+9999REMSYN076AAXX  23061 58314 32560 40702 10310 20256 39985 40068 57024 84100 333 20226;EQDQ01  00002PRCP99
0112583140999992000082309004+31400+116320FM-12+006899999V0200901N003010075019N0200001N1+03251+02571100551ADDGF107991071051008001999999MD1710131+9999REMSYN060AAXX  23091 58314 42570 70903 10325 20257 40055 57013 875//;
0163583140999992000082312004+31400+116320FM-12+006899999V0209999C000012200019N0150001N1+02921+02541100651ADDAA199000091GF102991021001999999041001MA1999999099821MD1210101+9999REMSYN066AAXX  23121 58314 32965 20000 10292 20254 39982 40065 52010 82040;EQDQ01  00002PRCP99
0122583140999992000082315004+31400+116320FM-12+006899999V0200901N003012200019N0150001N1+02781+02511100591ADDGA1001+999999999GF100991001001999999001001MD1710061+9999REMSYN054AAXX  23151 58314 42965 00903 10278 20251 40059 57006;
0186583140999992000082318004+31400+116320FM-12+006899999V0200201N001019999999N0150001N1+02641+02411100491ADDAA199000091GF108991081001999999071999KA1999M+03251MA1999999099671MD1710091+9999REMSYN076AAXX  23181 58314 32965 80201 10264 20241 39967 40049 57009 8807/ 333 10325;EQDQ01  00002PRCP99
0112583140999992000082321004+31400+116320FM-12+006899999V0201601N001019999999N0120001N1+02641+02481100411ADDGF108991081001999999071999MD1710081+9999REMSYN060AAXX  23211 58314 42962 81601 10264 20248 40041 57008 8807/;
0186583140999992000082400004+31400+116320FM-12+006899999V0200901N002010120019N0200001N1+02691+02491100451ADDAA106000191AY161061GF107991061051012501001021MA1999999099631MD1210041-0501MW1001REMSYN094AAXX  24001 58314 11670 70902 10269 20249 39963 40045 52004 69911 70060 86502 333 05503 70001;
0112583140999992000082403004+31400+116320FM-12+006899999V0200901N004010120019N0200001N1+02921+02451100391ADDGF107991071011012501001001MD1710061+9999REMSYN060AAXX  24031 58314 42670 70904 10292 20245 40039 57006 87100;
0186583140999992000082406004+31400+116320FM-12+006899999V0200401N003010120019N0200001N1+03061+02441100101ADDAA199000091GF106991051011012501001021KA1999N+02631MA1999999099281MD1710291+9999REMSYN076AAXX  24061 58314 32670 60403 10306 20244 39928 40010 57029 85102 333 20263;EQDQ01  00002PRCP99
0112583140999992000082409004+31400+116320FM-12+006899999V0200901N005010360019N0200001N1+03091+02491099991ADDGF105991031011012501041021MD1710111+9999REMSYN060AAXX  24091 58314 42670 50905 10309 20249 49999 57011 83142;
0163583140999992000082412004+31400+116320FM-12+006899999V0200901N002012200019N0200001N1+02761+02491100101ADDAA199000091GF102991021041012501001001MA1999999099281MD1210111+9999REMSYN066AAXX  24121 58314 32670 20902 10276 20249 39928 40010 52011 82400;EQDQ01  00002PRCP99
0124583140999992000082415004+31400+116320FM-12+006899999V0200901N002010075019N0100001N1+02681+02531100151ADDGF108991081051008001999999MD1210051+9999MW1601REMSYN066AAXX  24151 58314 41560 80902 10268 20253 40015 52005 76000 885//;
0193583140999992000082418004+31400+116320FM-12+006899999V0209999C000019999999N0150001N1+02601+02471100091ADDAA106000191AY161061GF108991081001999999071999KA1999M+03221MA1999999099271MD1710061+9999MW1001REMSYN088AAXX  24181 58314 11965 80000 10260 20247 39927 40009 57006 69911 70060 8807/ 333 10322;
0133583140999992000082421004+31400+116320FM-12+006899999V0200401N001019999999N0150001N1+02581+02481100111ADDAA124000391GF108991081001999999071999MD1210021+9999REMSYN070AAXX  24211 58314 42965 80401 10258 20248 40011 52002 8807/ 333 70002;
0186583140999992000082500004+31400+116320FM-12+006899999V0200401N003010075019N0080001N1+02581+02481100301ADDAA106000891AY161061GF108991081051008001999999MA1999999099471MD1210181-0201MW1601REMSYN094AAXX  25001 58314 11558 80403 10258 20248 39947 40030 52018 69981 76060 885// 333 05251 70009;
0140583140999992000082503004+31400+116320FM-12+006899999V0203201N004010075019N0080001N1+02431+02361100431ADDAY161031AY261031GF108991081051008001999999MD1210131+9999MW1601REMSYN066AAXX  25031 58314 41558 83204 10243 20236 40043 52013 76066 885//;
0201583140999992000082506004+31400+116320FM-12+006899999V0203201N003010075019N0080001N1+02421+02291100421ADDAA106002091AY161061AY261061GF108991081051008001999999KA1999N+02411MA1999999099591MD1710011+9999MW1601REMSYN088AAXX  25061 58314 11558 83203 10242 20229 39959 40042 57001 60021 76066 885// 333 20241;
0140583140999992000082509004+31400+116320FM-12+006899999V0202901N002010075019N0080001N1+02431+02311100361ADDAY161031AY261031GF108991081051008001999999MD1710061+9999MW1601REMSYN066AAXX  25091 58314 41558 82902 10243 20231 40036 57006 76066 885//;
0178583140999992000082512004+31400+116320FM-12+006899999V0202701N003010075019N0080001N1+02381+02321100481ADDAA106004191AY161061AY261061GF108991081051008001999999MA1999999099651MD1210121+9999MW1601REMSYN078AAXX  25121 58314 11558 82703 10238 20232 39965 40048 52012 60041 76066 885//;
0132583140999992000082515004+31400+116320FM-12+006899999V0203201N002010075019N0080001N1+02441+02321100571ADDAY161031GF108991081051008001999999MD1210081+9999MW1601REMSYN066AAXX  25151 58314 41558 83202 10244 20232 40057 52008 76060 885//;
0193583140999992000082518004+31400+116320FM-12+006899999V0202901N002010075019N0090001N1+02401+02331100501ADDAA106000191AY161061GF108991081051008001999999KA1999M+02641MA1999999099661MD1710071+9999MW1101REMSYN088AAXX  25181 58314 11559 82902 10240 20233 39966 40050 57007 69911 71060 885// 333 10264;
0133583140999992000082521004+31400+116320FM-12+006899999V0202701N002010075019N0120001N1+02381+02261100531ADDAA124006691GF107991071051008001999999MD1210031+9999REMSYN070AAXX  25211 58314 42562 72702 10238 20226 40053 52003 875// 333 70066;
0160583140999992000082600004+31400+116320FM-12+006899999V0202701N002010075019N0100001N1+02441+02191100691ADDAA124005891GF107991071051008001999999MA1999999099851MD1210161+0401REMSYN082AAXX  26001 58314 32560 72702 10244 20219 39985 40069 52016 875// 333 00451 70058;
0112583140999992000082603004+31400+116320FM-12+006899999V0202901N001010075019N0250001N1+02781+02141100681ADDGF105991051051008001001001MD1410001+9999REMSYN060AAXX  26031 58314 42575 52901 10278 20214 40068 54000 85500;
0186583140999992000082606004+31400+116320FM-12+006899999V0200901N002010075019N0200001N1+03051+02121100571ADDAA199000091GF106991061051008001001001KA1999N+02311MA1999999099741MD1710111+9999REMSYN076AAXX  26061 58314 32570 60902 10305 20212 39974 40057 57011 86500 333 20231;EQDQ01  00002PRCP99
0112583140999992000082609004+31400+116320FM-12+006899999V0200901N002012200019N0200001N1+02981+02171100501ADDGF103991031051008001001001MD1710071+9999REMSYN060AAXX  26091 58314 42570 30902 10298 20217 40050 57007 83500;
0173583140999992000082612004+31400+116320FM-12+006899999V0209999C000012200019N0200001N1+02601+02221100661ADDAA199000091GA1001+999999999GF100991001001999999001001MA1999999099831MD1210161+9999REMSYN060AAXX  26121 58314 32970 00000 10260 20222 39983 40066 52016;EQDQ01  00002PRCP99
0122583140999992000082615004+31400+116320FM-12+006899999V0202901N002012200019N0200001N1+02271+02151100791ADDGA1001+999999999GF100991001001999999001001MD1210121+9999REMSYN054AAXX  26151 58314 42970 02902 10227 20215 40079 52012;
0196583140999992000082618004+31400+116320FM-12+006899999V0209999C000012200019N0150001N1+02171+02081100741ADDAA199000091GA1001+999999999GF100991001001999999001001KA1999M+03081MA1999999099911MD1710041+9999REMSYN070AAXX  26181 58314 32965 00000 10217 20208 39991 40074 57004 333 10308;EQDQ01  00002PRCP99
0122583140999992000082621004+31400+116320FM-12+006899999V0209999C000012200019N0150001N1+02081+02001100731ADDGA1001+999999999GF100991001001999999001001MD1710011+9999REMSYN054AAXX  26211 58314 42965 00000 10208 20200 40073 57001;
0167583140999992000082700004+31400+116320FM-12+006899999V0209999C000012200019N0120001N1+99999+99999100821ADDAA199000091GF101991011001999999041001MA1999999099981MD1210081+0011REMSYN070AAXX  27001 58314 32962 10000 20216 39998 40082 52008 81040 333 00151;EQDQ01  00002PRCP99
0112583140999992000082703004+31400+116320FM-12+006899999V0209999C000010075019N0200001N1+02851+02211100881ADDGF105991051011008001001001MD1210061+9999REMSYN060AAXX  27031 58314 42570 50000 10285 20221 40088 52006 85100;
0186583140999992000082706004+31400+116320FM-12+006899999V0200901N003010360019N0200001N1+02901+02231100741ADDAA199000091GF107991021021008001041999KA1999N+02061MA1999999099911MD1710131+9999REMSYN076AAXX  27061 58314 32570 70903 10290 20223 39991 40074 57013 8224/ 333 20206;EQDQ01  00002PRCP99
0112583140999992000082709004+31400+116320FM-12+006899999V0201401N003012200019N0200001N1+02861+02281100721ADDGF103991031011008001001001MD1710031+9999REMSYN060AAXX  27091 58314 42570 31403 10286 20228 40072 57003 83100;
0163583140999992000082712004+31400+116320FM-12+006899999V0200701N001019999999N0120001N1+02671+02371100801ADDAA199000091GF108991081001999999071999MA1999999099961MD1210081+9999REMSYN066AAXX  27121 58314 32962 80701 10267 20237 39996 40080 52008 8807/;EQDQ01  00002PRCP99
0140583140999992000082715004+31400+116320FM-12+006899999V0209999C000019999999N0080001N1+02471+02341100901ADDAY161031AY261031GF108991081001999999071999MD1210111+9999MW1601REMSYN066AAXX  27151 58314 41958 80000 10247 20234 40090 52011 76066 8807/;
0201583140999992000082718004+31400+116320FM-12+006899999V0209999C000010075019N0060001N1+02281+02191100871ADDAA106023991AY161061AY261061GF108991081051008001999999KA1999M+03001MA1999999100041MD1710031+9999MW1601REMSYN088AAXX  27181 58314 11556 80000 10228 20219 30004 40087 57003 60241 76066 885// 333 10300;
0153583140999992000082721004+31400+116320FM-12+006899999V0201801N002010075019N0100001N1+02261+02121100851ADDAA124031091AY161031GF108991081051008001999999MD1710021+9999MW1001REMSYN076AAXX  27211 58314 41560 81802 10226 20212 40085 57002 70060 885// 333 70310;
0186583140999992000082800004+31400+116320FM-12+006899999V0201401N003019999999N0100001N1+02241+02101100971ADDAA106007191AY161061GF108991081001999999071999MA1999999100131MD1210111+0201MW1001REMSYN094AAXX  28001 58314 11960 81403 10224 20210 30013 40097 52011 60071 70060 8807/ 333 00251 70310;
0112583140999992000082803004+31400+116320FM-12+006899999V0201401N001010075019N0200001N1+02401+01971101011ADDGF107991071051008001999999MD1210041+9999REMSYN060AAXX  28031 58314 42570 71401 10240 20197 40101 52004 875//;
0167583140999992000082806004+31400+116320FM-12+006899999V0200201N002019999999N0250001N1+02621+02011100921ADDAA199000021GF108991081001999999071999KA1999N+02221MA1999999100081MD1710091+9999REMSYN076AAXX  28061 58314 32975 80202 10262 20201 30008 40092 57009 8807/ 333 20222;
0124583140999992000082809004+31400+116320FM-12+006899999V0201601N001019999999N0200001N1+02451+02101100831ADDGF108991081001999999071999MD1710091+9999MW1601REMSYN066AAXX  28091 58314 41970 81601 10245 20210 40083 57009 76000 8807/;
0170583140999992000082812004+31400+116320FM-12+006899999V0201801N002019999999N0120001N1+02331+02151100881ADDAA106000791AY161061GF108991081001999999071999MA1999999100041MD1210051+9999MW1001REMSYN078AAXX  28121 58314 11962 81802 10233 20215 30004 40088 52005 69901 70060 8807/;
0132583140999992000082815004+31400+116320FM-12+006899999V0202701N001019999999N0120001N1+02301+02201100931ADDAY161031GF108991081001999999071999MD1210051+9999MW1001REMSYN066AAXX  28151 58314 41962 82701 10230 20220 40093 52005 70060 8807/;
0153583140999992000082821004+31400+116320FM-12+006899999V0209999C000010075019N0200001N1+02281+02161100801ADDAA124000391AY161031GF108991081051008001999999MD1710091+9999MW1211REMSYN076AAXX  28211 58314 41570 80000 10228 20216 40080 57009 72160 885// 333 70003;
0186583140999992000082900004+31400+116320FM-12+006899999V0209999C000010120019N0080001N1+02281+02211100861ADDAA106000191AY161061GF108991081051012501999999MA1999999100021MD1210061-0101MW1601REMSYN094AAXX  29001 58314 11658 80000 10228 20221 30002 40086 52006 69911 76060 885// 333 05100 70004;
0140583140999992000082903004+31400+116320FM-12+006899999V0200901N001010075019N0060001N1+02331+02231100871ADDAY161031AY261031GF108991081051008001999999MD1210011+9999MW1601REMSYN066AAXX  29031 58314 41556 80901 10233 20223 40087 52001 76066 885//;
0193583140999992000082906004+31400+116320FM-12+006899999V0203401N002010075019N0100001N1+02481+02271100681ADDAA106000591AY161061GF108991081051008001999999KA1999N+02251MA1999999099841MD1710191+9999MW1001REMSYN088AAXX  29061 58314 11560 83402 10248 20227 39984 40068 57019 69951 70060 885// 333 20225;
0112583140999992000082909004+31400+116320FM-12+006899999V0203201N003010075019N0100001N1+02481+02271100591ADDGF108991081051008001999999MD1710091+9999REMSYN060AAXX  29091 58314 42560 83203 10248 20227 40059 57009 885//;
0144583140999992000082912004+31400+116320FM-12+006899999V0202901N001010075019N0300001N1+02391+02271100651ADDAA199000021GF108991081051008001999999MA1999999099811MD1210061+9999REMSYN066AAXX  29121 58314 32580 82901 10239 20227 39981 40065 52006 885//;
0132583140999992000082915004+31400+116320FM-12+006899999V0202901N002010075019N0120001N1+02391+02271100621ADDAY161031GF108991081051008001999999MD1710031+9999MW1601REMSYN066AAXX  29151 58314 41562 82902 10239 20227 40062 57003 76060 885//;
0193583140999992000082918004+31400+116320FM-12+006899999V0209999C000019999999N0120001N1+02361+02291100511ADDAA106002091AY161061GF108991081001999999071999KA1999M+02501MA1999999099671MD1710111+9999MW1211REMSYN088AAXX  29181 58314 11962 80000 10236 20229 39967 40051 57011 60021 72160 8807/ 333 10250;
0153583140999992000082921004+31400+116320FM-12+006899999V0202701N001019999999N0100001N1+02361+02301100351ADDAA124002591AY161031GF108991081001999999071999MD1710151+9999MW1601REMSYN076AAXX  29211 58314 41960 82701 10236 20230 40035 57015 76060 8807/ 333 70026;
0186583140999992000083000004+31400+116320FM-12+006899999V0209999C000010075019N0040001N1+02401+02361100411ADDAA106000191AY161061GF108991081051008001999999MA1999999099571MD1210051-0501MW1601REMSYN094AAXX  30001 58314 11540 80000 10240 20236 39957 40041 52005 69921 76060 885// 333 05501 70026;
0140583140999992000083003004+31400+116320FM-12+006899999V0209999C000010075019N0090001N1+02661+02481100321ADDAY161031AY261031GF108991081051008001999999MD1710081+9999MW1211REMSYN066AAXX  30031 58314 41559 80000 10266 20248 40032 57008 72166 885//;
0193583140999992000083006004+31400+116320FM-12+006899999V0202701N003010075019N0150001N1+02861+02541100121ADDAA106002091AY161061GF108991081051008001999999KA1999N+02351MA1999999099291MD1710201+9999MW1001REMSYN088AAXX  30061 58314 11565 82703 10286 20254 39929 40012 57020 60021 70060 885// 333 20235;
0132583140999992000083009004+31400+116320FM-12+006899999V0203201N002010075019N0150001N1+02581+02361100131ADDAY161031GF108991081051008001999999MD1210011+9999MW1211REMSYN066AAXX  30091 58314 41565 83202 10258 20236 40013 52001 72160 885//;
0170583140999992000083012004+31400+116320FM-12+006899999V0201401N002010075019N0120001N1+02461+02341100131ADDAA106006191AY161061GF108991081051008001999999MA1999999099301MD1410001+9999MW1601REMSYN078AAXX  30121 58314 11562 81402 10246 20234 39930 40013 54000 60061 76060 885//;
0140583140999992000083015004+31400+116320FM-12+006899999V0202701N002010075019N0120001N1+02431+02361100151ADDAY161031AY261031GF108991081051008001999999MD1210021+9999MW1601REMSYN066AAXX  30151 58314 41562 82702 10243 20236 40015 52002 76066 885//;
0201583140999992000083018004+31400+116320FM-12+006899999V0202701N002010075019N0100001N1+02391+02301100051ADDAA106002091AY161061AY261061GF108991081051008001999999KA1999M+02971MA1999999099221MD1710101+9999MW1211REMSYN088AAXX  30181 58314 11560 82702 10239 20230 39922 40005 57010 60021 72166 885// 333 10297;
0133583140999992000083021004+31400+116320FM-12+006899999V0202701N002010075019N0100001N1+02371+02281100041ADDAA124009491GF108991081051008001999999MD1710011+9999REMSYN070AAXX  30211 58314 42560 82702 10237 20228 40004 57001 885// 333 70094;
0178583140999992000083100004+31400+116320FM-12+006899999V0202901N002010075019N0150001N1+02401+02281100181ADDAA106000791GF108991081051008001999999MA1999999099351MD1210141-0201MW1601REMSYN094AAXX  31001 58314 11565 82902 10240 20228 39935 40018 52014 69901 76000 885// 333 05200 70093;
0132583140999992000083103004+31400+116320FM-12+006899999V0202701N005010075019N0150001N1+02541+02281100291ADDAY161031GF108991081051008001999999MD1210111+9999MW1001REMSYN066AAXX  31031 58314 41565 82705 10254 20228 40029 52011 70060 885//;
0193583140999992000083106004+31400+116320FM-12+006899999V0203201N002010075019N0150001N1+02701+02231100271ADDAA106000191AY161061GF107991071051008001999999KA1999N+02361MA1999999099441MD1710021+9999MW1001REMSYN088AAXX  31061 58314 11565 73202 10270 20223 39944 40027 57002 69911 70060 875// 333 20236;
0112583140999992000083109004+31400+116320FM-12+006899999V0202701N003019999999N0200001N1+02801+02341100211ADDGF107991071001999999071999MD1710061+9999REMSYN060AAXX  31091 58314 42970 72703 10280 20234 40021 57006 8707/;
0144583140999992000083112004+31400+116320FM-12+006899999V0209999C000012200019N0200001N1+02511+02311100391ADDAA199000021GF101991011001999999041001MA1999999099561MD1210181+9999REMSYN066AAXX  31121 58314 32970 10000 10251 20231 39956 40039 52018 81040;
0112583140999992000083115004+31400+116320FM-12+006899999V0201401N001012200019N0200001N1+02331+02241100511ADDGF101991011001999999041001MD1210111+9999REMSYN060AAXX  31151 58314 42970 11401 10233 20224 40051 52011 81040;
0196583140999992000083118004+31400+116320FM-12+006899999V0203201N001012200019N0150001N1+02261+02191100501ADDAA199000091GA1001+999999999GF100991001001999999001001KA1999M+02801MA1999999099671MD1410001+9999REMSYN070AAXX  31181 58314 32965 03201 10226 20219 39967 40050 54000 333 10280;EQDQ01  00002PRCP99
0143583140999992000083121004+31400+116320FM-12+006899999V0209999C000012200019N0120001N1+02171+02121100581ADDAA124000191GA1001+999999999GF100991001001999999001001MD1210081+9999REMSYN064AAXX  31211 58314 42962 00000 10217 20212 40058 52008 333 70001;
0160583140999992000090100004+31400+116320FM-12+006899999V0209999C000012200019N0120001N1+02281+02191100721ADDAA124000191GF104991041001999999041001MA1999999099881MD1210131+0501REMSYN082AAXX  01001 58314 32962 40000 10228 20219 39988 40072 52013 84040 333 00551 70001;
0122583140999992000090103004+31400+116320FM-12+006899999V0200901N003012200019N0150001N1+02881+02301100731ADDGA1001+999999999GF100991001001999999001001MD1210021+9999REMSYN054AAXX  01031 58314 42965 00903 10288 20230 40073 52002;
0186583140999992000090106004+31400+116320FM-12+006899999V0200901N003012200019N0200001N1+03051+02321100591ADDAA199000091GF104991041011008001001001KA1999N+02141MA1999999099761MD1710141+9999REMSYN076AAXX  01061 58314 32570 40903 10305 20232 39976 40059 57014 84100 333 20214;EQDQ01  00002PRCP99
0122583140999992000090109004+31400+116320FM-12+006899999V0200901N004012200019N0150001N1+03021+02351100431ADDGA1001+999999999GF100991001001999999001001MD1710161+9999REMSYN054AAXX  01091 58314 42965 00904 10302 20235 40043 57016;
0163583140999992000090112004+31400+116320FM-12+006899999V0201601N002019999999N0150001N1+02691+02221100551ADDAA199000091GF108991081001999999071999MA1999999099721MD1210121+9999REMSYN066AAXX  01121 58314 32965 81602 10269 20222 39972 40055 52012 8807/;EQDQ01  00002PRCP99
0112583140999992000090115004+31400+116320FM-12+006899999V0209999C000019999999N0150001N1+02521+02381100501ADDGF108991081001999999071999MD1710051+9999REMSYN060AAXX  01151 58314 42965 80000 10252 20238 40050 57005 8807/;
0186583140999992000090118004+31400+116320FM-12+006899999V0209999C000019999999N0120001N1+02531+02371100481ADDAA199000091GF108991081001999999071999KA1999M+03081MA1999999099651MD1710021+9999REMSYN076AAXX  01181 58314 32962 80000 10253 20237 39965 40048 57002 8807/ 333 10308;EQDQ01  00002PRCP99
0112583140999992000090121004+31400+116320FM-12+006899999V0209999C000019999999N0120001N1+02421+02331100491ADDGF108991081001999999071999MD1210011+9999REMSYN060AAXX  01211 58314 42962 80000 10242 20233 40049 52001 8807/;
0185583140999992000090200004+31400+116320FM-12+006899999V0209999C000019999999N0080001N1+02521+02381100621ADDAA199000091GF108991081001999999071999MA1999999099791MD1210131+0011MW1101REMSYN082AAXX  02001 58314 31958 80000 10252 20238 39979 40062 52013 71000 8807/ 333 05102;EQDQ01  00002PRCP99
0112583140999992000090203004+31400+116320FM-12+006899999V0200701N003019999999N0100001N1+02911+02531100541ADDGF108991081001999999071999MD1710081+9999REMSYN060AAXX  02031 58314 42960 80703 10291 20253 40054 57008 8807/;
0186583140999992000090206004+31400+116320FM-12+006899999V0200401N004019999999N0100001N1+03131+02571100461ADDAA199000091GF108991081001999999071999KA1999N+02401MA1999999099641MD1710071+9999REMSYN076AAXX  02061 58314 32960 80404 10313 20257 39964 40046 57007 8807/ 333 20240;EQDQ01  00002PRCP99
0132583140999992000090209004+31400+116320FM-12+006899999V0201401N003019999999N0120001N1+03021+02791100461ADDAY161031GF107991071001999999041999MD1710011+9999MW1001REMSYN066AAXX  02091 58314 41962 71403 10302 20279 40046 57001 70060 8704/;
0170583140999992000090212004+31400+116320FM-12+006899999V0202901N002010075019N0100001N1+02751+02601100621ADDAA106007191AY161061GF108991081051008001999999MA1999999099791MD1210161+9999MW1001REMSYN078AAXX  02121 58314 11560 82902 10275 20260 39979 40062 52016 60071 70060 885//;
0140583140999992000090215004+31400+116320FM-12+006899999V0202201N001010075019N0100001N1+02701+02621100711ADDAY191031AY281031GF108991081091008001999999MD1210091+9999MW1171REMSYN066AAXX  02151 58314 41560 82201 10270 20262 40071 52009 71798 889//;
0201583140999992000090218004+31400+116320FM-12+006899999V0209999C000019999999N0120001N1+02711+02651100711ADDAA106000191AY191061AY281061GF108991081001999999071999KA1999M+03141MA1999999099891MD1210011+9999MW1001REMSYN088AAXX  02181 58314 11962 80000 10271 20265 39989 40071 52001 69921 70098 8807/ 333 10314;
0133583140999992000090221004+31400+116320FM-12+006899999V0209999C000019999999N0120001N1+02661+02591100811ADDAA124007191GF107991071001999999041001MD1210091+9999REMSYN070AAXX  02211 58314 42962 70000 10266 20259 40081 52009 87040 333 70072;
0172583140999992000090300004+31400+116320FM-12+006899999V0202701N001012200019N0090001N1+02771+02651100941ADDAA124007191GF101991011001999999041001MA1999999100111MD1210131+0301MW1101REMSYN088AAXX  03001 58314 31959 12701 10277 20265 30011 40094 52013 71000 81040 333 00303 70072;
0112583140999992000090303004+31400+116320FM-12+006899999V0201401N002012200019N0150001N1+03241+02651100921ADDGF101991011011008001001001MD1710011+9999REMSYN060AAXX  03031 58314 42565 11402 10324 20265 40092 57001 81100;
0186583140999992000090306004+31400+116320FM-12+006899999V0200901N003012200019N0200001N1+03431+02721100781ADDAA199000091GF102991021021008001001001KA1999N+02621MA1999999099961MD1710141+9999REMSYN076AAXX  03061 58314 32570 20903 10343 20272 39996 40078 57014 82200 333 20262;EQDQ01  00002PRCP99
0132583140999992000090309004+31400+116320FM-12+006899999V0202701N006010120019N0150001N1+02861+02641100831ADDAY191031GF108991081091012501999999MD1210041+9999MW1951REMSYN066AAXX  03091 58314 41665 82706 10286 20264 40083 52004 79590 889//;
0178583140999992000090312004+31400+116320FM-12+006899999V0202501N001019999999N0120001N1+02621+02451100891ADDAA106000191AY191061AY281061GF108991081001999999071999MA1999999100061MD1210061+9999MW1001REMSYN078AAXX  03121 58314 11962 82501 10262 20245 30006 40089 52006 69921 70098 8807/;
0112583140999992000090315004+31400+116320FM-12+006899999V0202701N002019999999N0120001N1+02561+02421100921ADDGF108991081001999999071999MD1210031+9999REMSYN060AAXX  03151 58314 42962 82702 10256 20242 40092 52003 8807/;
0177583140999992000090318004+31400+116320FM-12+006899999V0201401N002012200019N0200001N1+02541+02431100891ADDAA199000021GA1001+999999999GF100991001001999999001001KA1999M+03441MA1999999100071MD1710021+9999REMSYN070AAXX  03181 58314 32970 01402 10254 20243 30007 40089 57002 333 10344;
0143583140999992000090321004+31400+116320FM-12+006899999V0209999C000012200019N0200001N1+02481+02441100861ADDAA124000391GA1001+999999999GF100991001001999999001001MD1710041+9999REMSYN064AAXX  03211 58314 42970 00000 10248 20244 40086 57004 333 70002;
0160583140999992000090400004+31400+116320FM-12+006899999V0202901N001019999999N0120001N1+02561+02471100901ADDAA124000391GF108991081001999999071999MA1999999100071MD1210041+0001REMSYN082AAXX  04001 58314 32962 82901 10256 20247 30007 40090 52004 8807/ 333 00052 70002;
0112583140999992000090403004+31400+116320FM-12+006899999V0200401N002019999999N0150001N1+03041+02671100861ADDGF107991071001999999071999MD1710041+9999REMSYN060AAXX  04031 58314 42965 70402 10304 20267 40086 57004 8707/;
0186583140999992000090406004+31400+116320FM-12+006899999V0200901N003012200019N0150001N1+03341+02581100611ADDAA199000091GF102991021011008001001001KA1999N+02451MA1999999099791MD1710241+9999REMSYN076AAXX  04061 58314 32565 20903 10334 20258 39979 40061 57024 82100 333 20245;EQDQ01  00002PRCP99
0112583140999992000090409004+31400+116320FM-12+006899999V0200901N002012200019N0150001N1+03311+02551100521ADDGF103991031021008001001001MD1710091+9999REMSYN060AAXX  04091 58314 42565 30902 10331 20255 40052 57009 83200;
0170583140999992000090412004+31400+116320FM-12+006899999V0202701N004010075019N0150001N1+02551+02261100781ADDAA106000791AY191061GF106991061091008001001001MA1999999099951MD1210251+9999MW1951REMSYN078AAXX  04121 58314 11565 62704 10255 20226 39995 40078 52025 69901 79590 86900;
0142583140999992000090415004+31400+116320FM-12+006899999V0202901N002012200019N0200001N1+02461+02301100731ADDAY191031GA1001+999999999GF100991001001999999001001MD1710051+9999MW1001REMSYN060AAXX  04151 58314 41970 02902 10246 20230 40073 57005 70090;
0187583140999992000090418004+31400+116320FM-12+006899999V0202901N002012200019N0150001N1+02431+02341100621ADDAA199000021AY191061GF104991041001999999041001KA1999M+03351MA1999999099801MD1710101+9999MW1001REMSYN082AAXX  04181 58314 31965 42902 10243 20234 39980 40062 57010 70090 84040 333 10335;
0133583140999992000090421004+31400+116320FM-12+006899999V0209999C000019999999N0150001N1+02411+02311100611ADDAA124000791GF108991081001999999071999MD1710011+9999REMSYN070AAXX  04211 58314 42965 80000 10241 20231 40061 57001 8807/ 333 79999;
0172583140999992000090500004+31400+116320FM-12+006899999V0203601N001019999999N0080001N1+02531+02421100701ADDAA124000791GF108991081001999999071999MA1999999099871MD1210081-0201MW1101REMSYN088AAXX  05001 58314 31958 83601 10253 20242 39987 40070 52008 71000 8807/ 333 05200 79999;
0112583140999992000090503004+31400+116320FM-12+006899999V0209999C000010075019N0100001N1+03021+02501100661ADDGF105991051051008001001001MD1710041+9999REMSYN060AAXX  05031 58314 42560 50000 10302 20250 40066 57004 85500;
0185583140999992000090506004+31400+116320FM-12+006899999V0203401N006010075019N0080001N1+02401+02371100571ADDAA106015091GF108991081091008001999999KA1999N+02401MA1999999099731MD1710101+9999MW1951REMSYN088AAXX  05061 58314 11558 83406 10240 20237 39973 40057 57010 60151 79500 889// 333 20240;
0140583140999992000090509004+31400+116320FM-12+006899999V0200201N002010075019N0080001N1+02201+02171100661ADDAY191031AY281031GF108991081091008001999999MD1210091+9999MW1951REMSYN066AAXX  05091 58314 41558 80202 10220 20217 40066 52009 79598 889//;
0178583140999992000090512004+31400+116320FM-12+006899999V0203401N002010075019N0090001N1+02171+02121100891ADDAA106049091AY191061AY281061GF108991081091008001999999MA1999999100051MD1210231+9999MW1801REMSYN078AAXX  05121 58314 11559 83402 10217 20212 30005 40089 52023 60491 78098 889//;
0140583140999992000090515004+31400+116320FM-12+006899999V0200401N004010075019N0120001N1+02091+02041101101ADDAY181031AY261031GF108991081051008001999999MD1210211+9999MW1601REMSYN066AAXX  05151 58314 41562 80404 10209 20204 40110 52021 76086 885//;
0201583140999992000090518004+31400+116320FM-12+006899999V0203601N002010075019N0080001N1+02041+01981101141ADDAA106014091AY181061AY261061GF108991081051008001999999KA1999M+03131MA1999999100291MD1210031+9999MW1601REMSYN088AAXX  05181 58314 11558 83602 10204 20198 30029 40114 52003 60141 76086 885// 333 10313;
0161583140999992000090521004+31400+116320FM-12+006899999V0203401N003010075019N0080001N1+01961+01901101221ADDAA124087991AY161031AY261031GF108991081051008001999999MD1210081+9999MW1601REMSYN076AAXX  05211 58314 41558 83403 10196 20190 40122 52008 76066 885// 333 70880;
0194583140999992000090600004+31400+116320FM-12+006899999V0200401N002010075019N0060001N1+01841+01741101411ADDAA106014091AY161061AY261061GF108991081051008001999999MA1999999100551MD1210181+0701MW1601REMSYN094AAXX  06001 58314 11556 80402 10184 20174 30055 40141 52018 60141 76066 885// 333 00757 70923;
0140583140999992000090603004+31400+116320FM-12+006899999V0200401N001010075019N0060001N1+01801+01701101501ADDAY161031AY261031GF108991081051008001999999MD1210091+9999MW1601REMSYN066AAXX  06031 58314 41556 80401 10180 20170 40150 52009 76066 885//;
0201583140999992000090606004+31400+116320FM-12+006899999V0203401N001010075019N0060001N1+01781+01711101421ADDAA106005191AY161061AY261061GF108991081051008001999999KA1999N+01741MA1999999100561MD1710081+9999MW1601REMSYN088AAXX  06061 58314 11556 83401 10178 20171 30056 40142 57008 60051 76066 885// 333 20174;
0140583140999992000090609004+31400+116320FM-12+006899999V0202901N001010075019N0060001N1+01801+01731101471ADDAY161031AY261031GF108991081051008001999999MD1210051+9999MW1601REMSYN066AAXX  06091 58314 41556 82901 10180 20173 40147 52005 76066 885//;
0178583140999992000090612004+31400+116320FM-12+006899999V0209999C000010075019N0060001N1+01841+01711101601ADDAA106004191AY161061AY261061GF108991081051008001999999MA1999999100741MD1210131+9999MW1601REMSYN078AAXX  06121 58314 11556 80000 10184 20171 30074 40160 52013 60041 76066 885//;
0132583140999992000090615004+31400+116320FM-12+006899999V0209999C000010075019N0080001N1+01861+01781101651ADDAY161031GF108991081051008001999999MD1210051+9999MW1101REMSYN066AAXX  06151 58314 41558 80000 10186 20178 40165 52005 71060 885//;
0193583140999992000090618004+31400+116320FM-12+006899999V0209999C000010075019N0100001N1+01861+01781101621ADDAA106000791AY161061GF108991081051008001999999KA1999M+02051MA1999999100761MD1710031+9999MW1001REMSYN088AAXX  06181 58314 11560 80000 10186 20178 30076 40162 57003 69901 70060 885// 333 10205;
0153583140999992000090621004+31400+116320FM-12+006899999V0202901N002010075019N0100001N1+01851+01791101661ADDAA124013791AY161031GF108991081051008001999999MD1210041+9999MW1211REMSYN076AAXX  06211 58314 41560 82902 10185 20179 40166 52004 72160 885// 333 70136;
0186583140999992000090700004+31400+116320FM-12+006899999V0202701N002019999999N0100001N1+01881+01821101741ADDAA106000791AY161061GF108991081001999999071999MA1999999100881MD1210081+0301MW1001REMSYN094AAXX  07001 58314 11960 82702 10188 20182 30088 40174 52008 69901 70060 8807/ 333 00300 70093;
0132583140999992000090703004+31400+116320FM-12+006899999V0203401N002010075019N0080001N1+01851+01651101871ADDAY161031GF108991081051008001999999MD1210131+9999MW1601REMSYN066AAXX  07031 58314 41558 83402 10185 20165 40187 52013 76060 885//;
0193583140999992000090706004+31400+116320FM-12+006899999V0200901N001010075019N0100001N1+01771+01591101731ADDAA106000591AY161061GF108991081051008001999999KA1999N+01741MA1999999100871MD1710141+9999MW1601REMSYN088AAXX  07061 58314 11560 80901 10177 20159 30087 40173 57014 69941 76060 885// 333 20174;
0140583140999992000090709004+31400+116320FM-12+006899999V0209999C000010075019N0100001N1+01771+01571101701ADDAY161031AY261031GF108991081051008001999999MD1710031+9999MW1601REMSYN066AAXX  07091 58314 41560 80000 10177 20157 40170 57003 76066 885//;
0178583140999992000090712004+31400+116320FM-12+006899999V0201401N001010075019N0100001N1+01781+01651101831ADDAA106000391AY161061AY261061GF108991081051008001999999MA1999999100971MD1210131+9999MW1601REMSYN078AAXX  07121 58314 11560 81401 10178 20165 30097 40183 52013 69931 76066 885//;
0132583140999992000090715004+31400+116320FM-12+006899999V0202501N002010075019N0120001N1+01771+01691101841ADDAY161031GF108991081051008001999999MD1210011+9999MW1001REMSYN066AAXX  07151 58314 41562 82502 10177 20169 40184 52001 70060 885//;
0193583140999992000090718004+31400+116320FM-12+006899999V0202701N002010075019N0150001N1+01741+01611101811ADDAA106000191AY161061GF108991081051008001999999KA1999M+01931MA1999999100941MD1710041+9999MW1601REMSYN088AAXX  07181 58314 11565 82702 10174 20161 30094 40181 57004 69911 76060 885// 333 10193;
0161583140999992000090721004+31400+116320FM-12+006899999V0202901N001010075019N0150001N1+01711+01631101811ADDAA124001091AY161031AY261031GF108991081051008001999999MD1410001+9999MW1601REMSYN076AAXX  07211 58314 41565 82901 10171 20163 40181 54000 76066 885// 333 70011;
0186583140999992000090800004+31400+116320FM-12+006899999V0203401N001019999999N0100001N1+01711+01611101841ADDAA106000591AY161061GF108991081001999999071999MA1999999100971MD1210031+0101MW1001REMSYN094AAXX  08001 58314 11960 83401 10171 20161 30097 40184 52003 69941 70060 8807/ 333 00152 70012;
0167583140999992000090806004+31400+116320FM-12+006899999V0201401N001019999999N0200001N1+02271+01461101751ADDAA199000021GF107991071001999999071999KA1999N+01661MA1999999100891MD1710141+9999REMSYN076AAXX  08061 58314 32970 71401 10227 20146 30089 40175 57014 8707/ 333 20166;
0173583140999992000090812004+31400+116320FM-12+006899999V0209999C000012200019N0200001N1+01841+01671101721ADDAA199000091GA1001+999999999GF100991001001999999001001MA1999999100861MD1210121+9999REMSYN060AAXX  08121 58314 32970 00000 10184 20167 30086 40172 52012;EQDQ01  00002PRCP99
0196583140999992000090818004+31400+116320FM-12+006899999V0203201N001012200019N0150001N1+01601+01511101691ADDAA199000091GA1001+999999999GF100991001001999999001001KA1999M+02371MA1999999100831MD1710081+9999REMSYN070AAXX  08181 58314 32965 03201 10160 20151 30083 40169 57008 333 10237;EQDQ01  00002PRCP99
0143583140999992000090821004+31400+116320FM-12+006899999V0202901N002012200019N0150001N1+01541+01421101661ADDAA124000191GA1001+999999999GF100991001001999999001001MD1710031+9999REMSYN064AAXX  08211 58314 42965 02902 10154 20142 40166 57003 333 70001;
0173583140999992000090900004+31400+116320FM-12+006899999V0203201N001019999999N0150001N1+01641+01521101791ADDAA199000091GF107991071001999999041999MA1999999100921MD1210121+0011REMSYN076AAXX  09001 58314 32965 73201 10164 20152 30092 40179 52012 8704/ 333 05151;EQDQ01  00002PRCP99
0112583140999992000090903004+31400+116320FM-12+006899999V0200901N002010360019N0200001N1+02351+01521101711ADDGF105991021011012501041001MD1710071+9999REMSYN060AAXX  09031 58314 42670 50902 10235 20152 40171 57007 82140;
0186583140999992000090906004+31400+116320FM-12+006899999V0200401N003010360019N0200001N1+02511+01481101511ADDAA199000091GF106991031011012501041001KA1999N+01491MA1999999100661MD1710191+9999REMSYN076AAXX  09061 58314 32670 60403 10251 20148 30066 40151 57019 83140 333 20149;EQDQ01  00002PRCP99
0112583140999992000090909004+31400+116320FM-12+006899999V0209999C000019999999N0200001N1+02451+01431101561ADDGF107991071001999999071999MD1210041+9999REMSYN060AAXX  09091 58314 42970 70000 10245 20143 40156 52004 8707/;
0163583140999992000090912004+31400+116320FM-12+006899999V0209999C000019999999N0200001N1+02101+01781101631ADDAA199000091GF108991081001999999071999MA1999999100771MD1210071+9999REMSYN066AAXX  09121 58314 32970 80000 10210 20178 30077 40163 52007 8807/;EQDQ01  00002PRCP99
0112583140999992000090915004+31400+116320FM-12+006899999V0209999C000019999999N0150001N1+01961+01751101671ADDGF108991081001999999071999MD1210051+9999REMSYN060AAXX  09151 58314 42965 80000 10196 20175 40167 52005 8807/;
0186583140999992000090918004+31400+116320FM-12+006899999V0203601N001019999999N0150001N1+01931+01771101531ADDAA199000091GF108991081001999999071999KA1999M+02561MA1999999100681MD1710141+9999REMSYN076AAXX  09181 58314 32965 83601 10193 20177 30068 40153 57014 8807/ 333 10256;EQDQ01  00002PRCP99
0145583140999992000090921004+31400+116320FM-12+006899999V0203201N001019999999N0150001N1+01881+01781101501ADDAA124000791GF108991081001999999071999MD1710031+9999MW1601REMSYN076AAXX  09211 58314 41965 83201 10188 20178 40150 57003 76000 8807/ 333 79999;
0186583140999992000091000004+31400+116320FM-12+006899999V0209999C000019999999N0100001N1+01941+01801101631ADDAA106000191AY161061GF108991081001999999071999MA1999999100771MD1210121-0201MW1211REMSYN094AAXX  10001 58314 11960 80000 10194 20180 30077 40163 52012 69921 72160 8807/ 333 05203 70002;
0112583140999992000091003004+31400+116320FM-12+006899999V0209999C000019999999N0150001N1+02181+01731101611ADDGF108991081001999999071999MD1710021+9999REMSYN060AAXX  10031 58314 42965 80000 10218 20173 40161 57002 8807/;
0185583140999992000091006004+31400+116320FM-12+006899999V0203201N002019999999N0200001N1+02311+01701101381ADDAA106000791GF108991081001999999071999KA1999N+01861MA1999999100531MD1710221+9999MW1601REMSYN088AAXX  10061 58314 11970 83202 10231 20170 30053 40138 57022 69901 76000 8807/ 333 20186;
0132583140999992000091009004+31400+116320FM-12+006899999V0202901N002010075019N0080001N1+02071+01901101371ADDAY161031GF108991081051008001999999MD1710021+9999MW1601REMSYN066AAXX  10091 58314 41558 82902 10207 20190 40137 57002 76060 885//;
0170583140999992000091012004+31400+116320FM-12+006899999V0202901N002019999999N0120001N1+02001+01821101481ADDAA106000591AY161061GF108991081001999999071999MA1999999100621MD1210111+9999MW1211REMSYN078AAXX  10121 58314 11962 82902 10200 20182 30062 40148 52011 69961 72160 8807/;
0112583140999992000091015004+31400+116320FM-12+006899999V0202701N002019999999N0120001N1+01951+01791101481ADDGF108991081001999999071999MD1210011+9999REMSYN060AAXX  10151 58314 42962 82702 10195 20179 40148 52001 8807/;
0167583140999992000091018004+31400+116320FM-12+006899999V0202701N002019999999N0200001N1+01901+01771101391ADDAA199000021GF108991081001999999071999KA1999M+02351MA1999999100541MD1710091+9999REMSYN076AAXX  10181 58314 32970 82702 10190 20177 30054 40139 57009 8807/ 333 10235;
0153583140999992000091021004+31400+116320FM-12+006899999V0202501N001019999999N0150001N1+01871+01761101351ADDAA124001091AY161031GF108991081001999999071999MD1710051+9999MW1601REMSYN076AAXX  10211 58314 41965 82501 10187 20176 40135 57005 76060 8807/ 333 70010;
0186583140999992000091100004+31400+116320FM-12+006899999V0209999C000019999999N0090001N1+01921+01821101381ADDAA106000191AY161061GF108991081001999999071999MA1999999100521MD1210031-0301MW1211REMSYN094AAXX  11001 58314 11959 80000 10192 20182 30052 40138 52003 69921 72160 8807/ 333 05300 70008;
0112583140999992000091103004+31400+116320FM-12+006899999V0209999C000019999999N0120001N1+02141+01651101411ADDGF108991081001999999071999MD1210041+9999REMSYN060AAXX  11031 58314 42962 80000 10214 20165 40141 52004 8807/;
0167583140999992000091106004+31400+116320FM-12+006899999V0209999C000019999999N0150001N1+02361+01761101231ADDAA199000021GF108991081001999999071999KA1999N+01851MA1999999100381MD1710181+9999REMSYN076AAXX  11061 58314 32965 80000 10236 20176 30038 40123 57018 8807/ 333 20185;
0112583140999992000091109004+31400+116320FM-12+006899999V0203401N002019999999N0150001N1+02441+01741101161ADDGF107991071001999999071999MD1710071+9999REMSYN060AAXX  11091 58314 42965 73402 10244 20174 40116 57007 8707/;
0154583140999992000091112004+31400+116320FM-12+006899999V0209999C000012200019N0150001N1+02011+01821101301ADDAA199000021GA1001+999999999GF100991001001999999001001MA1999999100441MD1210131+9999REMSYN060AAXX  11121 58314 32965 00000 10201 20182 30044 40130 52013;
0112583140999992000091115004+31400+116320FM-12+006899999V0202901N001019999999N0150001N1+01931+01801101451ADDGF107991071001999999071999MD1210161+9999REMSYN060AAXX  11151 58314 42965 72901 10193 20180 40145 52016 8707/;
0186583140999992000091118004+31400+116320FM-12+006899999V0202701N002019999999N0150001N1+01911+01831101301ADDAA199000091GF108991081001999999071999KA1999M+02481MA1999999100451MD1710151+9999REMSYN076AAXX  11181 58314 32965 82702 10191 20183 30045 40130 57015 8807/ 333 10248;EQDQ01  00002PRCP99
0133583140999992000091121004+31400+116320FM-12+006899999V0202701N002019999999N0150001N1+01921+01811101341ADDAA124000791GF108991081001999999071999MD1210041+9999REMSYN070AAXX  11211 58314 42965 82702 10192 20181 40134 52004 8807/ 333 79999;
0173583140999992000091200004+31400+116320FM-12+006899999V0202501N001019999999N0100001N1+01981+01791101491ADDAA199000091GF107991071001999999071999MA1999999100631MD1210141+0011REMSYN076AAXX  12001 58314 32960 72501 10198 20179 30063 40149 52014 8707/ 333 00101;EQDQ01  00002PRCP99
0112583140999992000091203004+31400+116320FM-12+006899999V0203201N001019999999N0150001N1+02451+01731101511ADDGF107991071001999999041999MD1210031+9999REMSYN060AAXX  12031 58314 42965 73201 10245 20173 40151 52003 8704/;
0186583140999992000091206004+31400+116320FM-12+006899999V0200401N003019999999N0200001N1+02721+01281101341ADDAA199000091GF106991061001999999041001KA1999N+01881MA1999999100491MD1710171+9999REMSYN076AAXX  12061 58314 32970 60403 10272 20128 30049 40134 57017 86040 333 20188;EQDQ01  00002PRCP99
0112583140999992000091209004+31400+116320FM-12+006899999V0203201N003012200019N0250001N1+02711+01441101261ADDGF102991021001999999041001MD1710081+9999REMSYN060AAXX  12091 58314 42975 23203 10271 20144 40126 57008 82040;
0173583140999992000091212004+31400+116320FM-12+006899999V0202901N001012200019N0150001N1+02071+01731101361ADDAA199000091GA1001+999999999GF100991001001999999001001MA1999999100511MD1210101+9999REMSYN060AAXX  12121 58314 32965 02901 10207 20173 30051 40136 52010;EQDQ01  00002PRCP99
0112583140999992000091215004+31400+116320FM-12+006899999V0209999C000012200019N0150001N1+01881+01701101451ADDGF103991031001999999041001MD1210091+9999REMSYN060AAXX  12151 58314 42965 30000 10188 20170 40145 52009 83040;
0186583140999992000091218004+31400+116320FM-12+006899999V0209999C000019999999N0120001N1+01861+01731101421ADDAA199000091GF107991071001999999071999KA1999M+02771MA1999999100571MD1710031+9999REMSYN076AAXX  12181 58314 32962 70000 10186 20173 30057 40142 57003 8707/ 333 10277;EQDQ01  00002PRCP99
0122583140999992000091221004+31400+116320FM-12+006899999V0209999C000012200019N0120001N1+01741+01611101481ADDGA1001+999999999GF100991001001999999001001MD1210061+9999REMSYN054AAXX  12211 58314 42962 00000 10174 20161 40148 52006;
0173583140999992000091300004+31400+116320FM-12+006899999V0209999C000019999999N0200001N1+01941+01781101611ADDAA199000091GF106991061001999999041001MA1999999100751MD1210121+0011REMSYN076AAXX  13001 58314 32970 60000 10194 20178 30075 40161 52012 86040 333 00100;EQDQ01  00002PRCP99
0112583140999992000091303004+31400+116320FM-12+006899999V0203601N003010075019N0200001N1+02391+01591101591ADDGF106991061041008001001001MD1710011+9999REMSYN060AAXX  13031 58314 42570 63603 10239 20159 40159 57001 86400;
0186583140999992000091306004+31400+116320FM-12+006899999V0200401N003010075019N0200001N1+02651+01341101391ADDAA199000091GF105991051041008001001001KA1999N+01601MA1999999100541MD1710201+9999REMSYN076AAXX  13061 58314 32570 50403 10265 20134 30054 40139 57020 85400 333 20160;EQDQ01  00002PRCP99
0112583140999992000091309004+31400+116320FM-12+006899999V0200201N004012200019N0250001N1+02661+01171101281ADDGF102991021041008001001001MD1710111+9999REMSYN060AAXX  13091 58314 42575 20204 10266 20117 40128 57011 82400;
0173583140999992000091312004+31400+116320FM-12+006899999V0209999C000012200019N0200001N1+02101+01611101371ADDAA199000091GA1001+999999999GF100991001001999999001001MA1999999100521MD1210091+9999REMSYN060AAXX  13121 58314 32970 00000 10210 20161 30052 40137 52009;EQDQ01  00002PRCP99
0122583140999992000091315004+31400+116320FM-12+006899999V0202901N002012200019N0200001N1+01701+01491101381ADDGA1001+999999999GF100991001001999999001001MD1210011+9999REMSYN054AAXX  13151 58314 42970 02902 10170 20149 40138 52001;
0196583140999992000091318004+31400+116320FM-12+006899999V0209999C000012200019N0200001N1+01581+01461101371ADDAA199000091GA1001+999999999GF100991001001999999001001KA1999M+02721MA1999999100521MD1710011+9999REMSYN070AAXX  13181 58314 32970 00000 10158 20146 30052 40137 57001 333 10272;EQDQ01  00002PRCP99
0122583140999992000091321004+31400+116320FM-12+006899999V0209999C000012200019N0200001N1+01531+01461101321ADDGA1001+999999999GF100991001001999999001001MD1710051+9999REMSYN054AAXX  13211 58314 42970 00000 10153 20146 40132 57005;
0183583140999992000091400004+31400+116320FM-12+006899999V0209999C000012200019N0200001N1+01891+01591101431ADDAA199000091GA1001+999999999GF100991001001999999001001MA1999999100571MD1210101+0021REMSYN070AAXX  14001 58314 32970 00000 10189 20159 30057 40143 52010 333 05251;EQDQ01  00002PRCP99
0112583140999992000091403004+31400+116320FM-12+006899999V0203401N005012200019N0200001N1+02541+01521101381ADDGF101991011011008001001001MD1710041+9999REMSYN060AAXX  14031 58314 42570 13405 10254 20152 40138 57004 81100;
0186583140999992000091406004+31400+116320FM-12+006899999V0200401N003012200019N0200001N1+02851+01261101071ADDAA199000091GF101991011011008001001001KA1999N+01461MA1999999100221MD1710311+9999REMSYN076AAXX  14061 58314 32570 10403 10285 20126 30022 40107 57031 81100 333 20146;EQDQ01  00002PRCP99
0122583140999992000091409004+31400+116320FM-12+006899999V0203601N002012200019N0200001N1+02811+01251100981ADDGA1001+999999999GF100991001001999999001001MD1710091+9999REMSYN054AAXX  14091 58314 42970 03602 10281 20125 40098 57009;
0173583140999992000091412004+31400+116320FM-12+006899999V0209999C000012200019N0200001N1+02051+01601101061ADDAA199000091GA1001+999999999GF100991001001999999001001MA1999999100211MD1210081+9999REMSYN060AAXX  14121 58314 32970 00000 10205 20160 30021 40106 52008;EQDQ01  00002PRCP99
0122583140999992000091415004+31400+116320FM-12+006899999V0202701N002012200019N0150001N1+01711+01541101041ADDGA1001+999999999GF100991001001999999001001MD1710021+9999REMSYN054AAXX  14151 58314 42965 02702 10171 20154 40104 57002;
0196583140999992000091418004+31400+116320FM-12+006899999V0202901N002012200019N0120001N1+01661+01511101031ADDAA199000091GA1001+999999999GF100991001001999999001001KA1999M+02871MA1999999100191MD1410001+9999REMSYN070AAXX  14181 58314 32962 02902 10166 20151 30019 40103 54000 333 10287;EQDQ01  00002PRCP99
0122583140999992000091421004+31400+116320FM-12+006899999V0202901N001012200019N0120001N1+01521+01471101021ADDGA1001+999999999GF100991001001999999001001MD1710021+9999REMSYN054AAXX  14211 58314 42962 02901 10152 20147 40102 57002;
0183583140999992000091500004+31400+116320FM-12+006899999V0202701N002012200019N0200001N1+01881+01581101111ADDAA199000091GA1001+999999999GF100991001001999999001001MA1999999100261MD1210091+0031REMSYN070AAXX  15001 58314 32970 02702 10188 20158 30026 40111 52009 333 05300;EQDQ01  00002PRCP99
0122583140999992000091503004+31400+116320FM-12+006899999V0200401N004012200019N0250001N1+02541+01231101111ADDGA1001+999999999GF100991001001999999001001MD1410001+9999REMSYN054AAXX  15031 58314 42975 00404 10254 20123 40111 54000;
0196583140999992000091506004+31400+116320FM-12+006899999V0200201N004012200019N0250001N1+02781+00691100981ADDAA199000091GA1001+999999999GF100991001001999999001001KA1999N+01501MA1999999100131MD1710131+9999REMSYN070AAXX  15061 58314 32975 00204 10278 20069 30013 40098 57013 333 20150;EQDQ01  00002PRCP99
0122583140999992000091509004+31400+116320FM-12+006899999V0203401N004012200019N0250001N1+02751+00921100911ADDGA1001+999999999GF100991001001999999001001MD1710071+9999REMSYN054AAXX  15091 58314 42975 03404 10275 20092 40091 57007;
0173583140999992000091512004+31400+116320FM-12+006899999V0202901N002012200019N0200001N1+01901+01511101041ADDAA199000091GA1001+999999999GF100991001001999999001001MA1999999100181MD1210121+9999REMSYN060AAXX  15121 58314 32970 02902 10190 20151 30018 40104 52012;EQDQ01  00002PRCP99
0122583140999992000091515004+31400+116320FM-12+006899999V0209999C000012200019N0200001N1+01721+01441101091ADDGA1001+999999999GF100991001001999999001001MD1210061+9999REMSYN054AAXX  15151 58314 42970 00000 10172 20144 40109 52006;
0196583140999992000091518004+31400+116320FM-12+006899999V0201101N001012200019N0200001N1+01551+01371101021ADDAA199000091GA1001+999999999GF100991001001999999001001KA1999M+02841MA1999999100171MD1710071+9999REMSYN070AAXX  15181 58314 32970 01101 10155 20137 30017 40102 57007 333 10284;EQDQ01  00002PRCP99
0122583140999992000091521004+31400+116320FM-12+006899999V0209999C000012200019N0200001N1+01481+01321101031ADDGA1001+999999999GF100991001001999999001001MD1210011+9999REMSYN054AAXX  15211 58314 42970 00000 10148 20132 40103 52001;
0183583140999992000091600004+31400+116320FM-12+006899999V0200901N001012200019N0200001N1+01811+01411101241ADDAA199000091GA1001+999999999GF100991001001999999001001MA1999999100381MD1210201+0011REMSYN070AAXX  16001 58314 32970 00901 10181 20141 30038 40124 52020 333 00151;EQDQ01  00002PRCP99
0112583140999992000091603004+31400+116320FM-12+006899999V0202701N003019999999N0200001N1+02691+01281101201ADDGF107991001001999999001021MD1710031+9999REMSYN060AAXX  16031 58314 42970 72703 10269 20128 40120 57003 80002;
0186583140999992000091606004+31400+116320FM-12+006899999V0202201N002019999999N0200001N1+02931+01271100981ADDAA199000091GF107991001001999999001021KA1999N+01441MA1999999100141MD1710211+9999REMSYN076AAXX  16061 58314 32970 72202 10293 20127 30014 40098 57021 80002 333 20144;EQDQ01  00002PRCP99
0112583140999992000091609004+31400+116320FM-12+006899999V0200901N002019999999N0200001N1+02921+01321100921ADDGF107991001001999999001021MD1710071+9999REMSYN060AAXX  16091 58314 42970 70902 10292 20132 40092 57007 80002;
0173583140999992000091612004+31400+116320FM-12+006899999V0209999C000012200019N0200001N1+02161+01761101031ADDAA199000091GA1001+999999999GF100991001001999999001001MA1999999100181MD1210111+9999REMSYN060AAXX  16121 58314 32970 00000 10216 20176 30018 40103 52011;EQDQ01  00002PRCP99
0122583140999992000091615004+31400+116320FM-12+006899999V0200901N001012200019N0200001N1+01921+01711101121ADDGA1001+999999999GF100991001001999999001001MD1210101+9999REMSYN054AAXX  16151 58314 42970 00901 10192 20171 40112 52010;
0196583140999992000091618004+31400+116320FM-12+006899999V0200701N002012200019N0150001N1+01791+01641101121ADDAA199000091GA1001+999999999GF100991001001999999001001KA1999M+03081MA1999999100281MD1410001+9999REMSYN070AAXX  16181 58314 32965 00702 10179 20164 30028 40112 54000 333 10308;EQDQ01  00002PRCP99
0122583140999992000091621004+31400+116320FM-12+006899999V0200701N002012200019N0150001N1+01741+01591101141ADDGA1001+999999999GF100991001001999999001001MD1210021+9999REMSYN054AAXX  16211 58314 42965 00702 10174 20159 40114 52002;
0183583140999992000091700004+31400+116320FM-12+006899999V0209999C000012200019N0150001N1+01961+01631101181ADDAA199000091GA1001+999999999GF100991001001999999001001MA1999999100331MD1210031+0011REMSYN070AAXX  17001 58314 32965 00000 10196 20163 30033 40118 52003 333 05102;EQDQ01  00002PRCP99
0122583140999992000091703004+31400+116320FM-12+006899999V0202501N003012200019N0250001N1+02941+01481101131ADDGA1001+999999999GF100991001001999999001001MD1710041+9999REMSYN054AAXX  17031 58314 42975 02503 10294 20148 40113 57004;
0196583140999992000091706004+31400+116320FM-12+006899999V0202201N002012200019N0250001N1+03281+01491100921ADDAA199000091GA1001+999999999GF100991001001999999001001KA1999N+01711MA1999999100081MD1710211+9999REMSYN070AAXX  17061 58314 32975 02202 10328 20149 30008 40092 57021 333 20171;EQDQ01  00002PRCP99
0122583140999992000091709004+31400+116320FM-12+006899999V0200401N002012200019N0250001N1+03201+01631100851ADDGA1001+999999999GF100991001001999999001001MD1710071+9999REMSYN054AAXX  17091 58314 42975 00402 10320 20163 40085 57007;
0173583140999992000091712004+31400+116320FM-12+006899999V0209999C000012200019N0150001N1+02451+01971100991ADDAA199000091GA1001+999999999GF100991001001999999001001MA1999999100141MD1210131+9999REMSYN060AAXX  17121 58314 32965 00000 10245 20197 30014 40099 52013;EQDQ01  00002PRCP99
0122583140999992000091715004+31400+116320FM-12+006899999V0209999C000012200019N0150001N1+02141+01941101111ADDGA1001+999999999GF100991001001999999001001MD1210131+9999REMSYN054AAXX  17151 58314 42965 00000 10214 20194 40111 52013;
0196583140999992000091718004+31400+116320FM-12+006899999V0200701N001012200019N0200001N1+01921+01811101151ADDAA199000091GA1001+999999999GF100991001001999999001001KA1999M+03331MA1999999100311MD1210041+9999REMSYN070AAXX  17181 58314 32970 00701 10192 20181 30031 40115 52004 333 10333;EQDQ01  00002PRCP99
0122583140999992000091721004+31400+116320FM-12+006899999V0209999C000012200019N0200001N1+01771+01641101181ADDGA1001+999999999GF100991001001999999001001MD1210031+9999REMSYN054AAXX  17211 58314 42970 00000 10177 20164 40118 52003;
0183583140999992000091800004+31400+116320FM-12+006899999V0209999C000012200019N0150001N1+01951+01651101281ADDAA199000091GA1001+999999999GF100991001001999999001001MA1999999100431MD1210091+0011REMSYN070AAXX  18001 58314 32965 00000 10195 20165 30043 40128 52009 333 00100;EQDQ01  00002PRCP99
0122583140999992000091803004+31400+116320FM-12+006899999V0203201N001012200019N0200001N1+02941+01721101251ADDGA1001+999999999GF100991001001999999001001MD1710021+9999REMSYN054AAXX  18031 58314 42970 03201 10294 20172 40125 57002;
0186583140999992000091806004+31400+116320FM-12+006899999V0203401N001012200019N0200001N1+03381+01171101131ADDAA199000091GF103991001001999999001021KA1999N+01701MA1999999100301MD1710111+9999REMSYN076AAXX  18061 58314 32970 33401 10338 20117 30030 40113 57011 80002 333 20170;EQDQ01  00002PRCP99
0112583140999992000091809004+31400+116320FM-12+006899999V0201101N002012200019N0200001N1+03221+01311101031ADDGF103991001001999999001021MD1710111+9999REMSYN060AAXX  18091 58314 42970 31102 10322 20131 40103 57011 80002;
0173583140999992000091812004+31400+116320FM-12+006899999V0202701N002012200019N0200001N1+02331+01841101261ADDAA199000091GA1001+999999999GF100991001001999999001001MA1999999100411MD1210221+9999REMSYN060AAXX  18121 58314 32970 02702 10233 20184 30041 40126 52022;EQDQ01  00002PRCP99
0122583140999992000091815004+31400+116320FM-12+006899999V0202501N002012200019N0200001N1+02031+01791101341ADDGA1001+999999999GF100991001001999999001001MD1210091+9999REMSYN054AAXX  18151 58314 42970 02502 10203 20179 40134 52009;
0196583140999992000091818004+31400+116320FM-12+006899999V0209999C000012200019N0200001N1+01881+01721101371ADDAA199000091GA1001+999999999GF100991001001999999001001KA1999M+03431MA1999999100531MD1210031+9999REMSYN070AAXX  18181 58314 32970 00000 10188 20172 30053 40137 52003 333 10343;EQDQ01  00002PRCP99
0122583140999992000091821004+31400+116320FM-12+006899999V0202701N001012200019N0200001N1+01681+01561101421ADDGA1001+999999999GF100991001001999999001001MD1210051+9999REMSYN054AAXX  18211 58314 42970 02701 10168 20156 40142 52005;
0173583140999992000091900004+31400+116320FM-12+006899999V0209999C000012200019N0120001N1+01921+01661101581ADDAA199000091GF101991001001999999001021MA1999999100731MD1210151+0031REMSYN076AAXX  19001 58314 32962 10000 10192 20166 30073 40158 52015 80002 333 00300;EQDQ01  00002PRCP99
0112583140999992000091903004+31400+116320FM-12+006899999V0203401N002019999999N0200001N1+02561+01811101611ADDGF108991081001999999071999MD1210031+9999REMSYN060AAXX  19031 58314 42970 83402 10256 20181 40161 52003 8807/;
0143583140999992000091906004+31400+116320FM-12+006899999V0202501N002019999999N0250001N1+02771+01931999999ADDAA199000091GF107991999999999999999999REMSYN075AAXX  19061 58314 32975 72502 10277 20193 3005 40137 57024 8707/ 333 20160;EQDQ01  00002PRCP99
0112583140999992000091909004+31400+116320FM-12+006899999V0200901N002019999999N0200001N1+02931+01401101311ADDGF107991071001999999071999MD1710061+9999REMSYN060AAXX  19091 58314 42970 70902 10293 20140 40131 57006 8707/;
0163583140999992000091912004+31400+116320FM-12+006899999V0202501N002019999999N0150001N1+02441+01591101431ADDAA199000091GF108991081001999999071999MA1999999100581MD1210121+9999REMSYN066AAXX  19121 58314 32965 82502 10244 20159 30058 40143 52012 8807/;EQDQ01  00002PRCP99
0112583140999992000091915004+31400+116320FM-12+006899999V0209999C000019999999N0150001N1+02061+01871101561ADDGF108991081001999999071999MD1210131+9999REMSYN060AAXX  19151 58314 42965 80000 10206 20187 40156 52013 8807/;
0186583140999992000091918004+31400+116320FM-12+006899999V0209999C000019999999N0200001N1+02041+01851101531ADDAA199000091GF108991081001999999071999KA1999M+03031MA1999999100691MD1710021+9999REMSYN076AAXX  19181 58314 32970 80000 10204 20185 30069 40153 57002 8807/ 333 10303;EQDQ01  00002PRCP99
0112583140999992000091921004+31400+116320FM-12+006899999V0202901N002019999999N0200001N1+01931+01751101541ADDGF108991081001999999071999MD1210011+9999REMSYN060AAXX  19211 58314 42970 82902 10193 20175 40154 52001 8807/;
0173583140999992000092000004+31400+116320FM-12+006899999V0209999C000019999999N0150001N1+01991+01751101631ADDAA199000091GF107991071001999999071999MA1999999100781MD1210081+0011REMSYN076AAXX  20001 58314 32965 70000 10199 20175 30078 40163 52008 8707/ 333 00101;EQDQ01  00002PRCP99
0112583140999992000092003004+31400+116320FM-12+006899999V0203201N002019999999N0150001N1+02741+01731101621ADDGF107991071001999999041999MD1710011+9999REMSYN060AAXX  20031 58314 42965 73202 10274 20173 40162 57001 8704/;
0186583140999992000092006004+31400+116320FM-12+006899999V0202701N003019999999N0200001N1+02901+01781101501ADDAA199000091GF107991071001999999041999KA1999N+01891MA1999999100661MD1710111+9999REMSYN076AAXX  20061 58314 32970 72703 10290 20178 30066 40150 57011 8704/ 333 20189;EQDQ01  00002PRCP99
0112583140999992000092009004+31400+116320FM-12+006899999V0200701N001019999999N0200001N1+02851+01791101401ADDGF107991071001999999071999MD1710101+9999REMSYN060AAXX  20091 58314 42970 70701 10285 20179 40140 57010 8707/;
0163583140999992000092012004+31400+116320FM-12+006899999V0201101N001019999999N0150001N1+02421+01991101541ADDAA199000091GF108991081001999999071999MA1999999100691MD1210131+9999REMSYN066AAXX  20121 58314 32965 81101 10242 20199 30069 40154 52013 8807/;EQDQ01  00002PRCP99
0112583140999992000092015004+31400+116320FM-12+006899999V0202201N001019999999N0150001N1+02181+02031101611ADDGF106991061001999999041001MD1210081+9999REMSYN060AAXX  20151 58314 42965 62201 10218 20203 40161 52008 86040;
0186583140999992000092018004+31400+116320FM-12+006899999V0203201N001019999999N0200001N1+01951+01821101641ADDAA199000091GF107991071001999999071001KA1999M+02971MA1999999100791MD1210021+9999REMSYN076AAXX  20181 58314 32970 73201 10195 20182 30079 40164 52002 87070 333 10297;EQDQ01  00002PRCP99
0112583140999992000092021004+31400+116320FM-12+006899999V0209999C000019999999N0200001N1+01981+01801101671ADDGF108991081001999999071999MD1210031+9999REMSYN060AAXX  20211 58314 42970 80000 10198 20180 40167 52003 8807/;
0186583140999992000092100004+31400+116320FM-12+006899999V0209999C000019999999N0200001N1+02011+01851101801ADDAA106000791AY161061GF108991081001999999071999MA1999999100951MD1210131+0201MW1001REMSYN094AAXX  21001 58314 11970 80000 10201 20185 30095 40180 52013 69901 70060 8807/ 333 00200 79999;
0132583140999992000092103004+31400+116320FM-12+006899999V0201801N001019999999N0200001N1+02551+01631101791ADDAY161031GF107991071001999999041001MD1710011+9999MW1211REMSYN066AAXX  21031 58314 41970 71801 10255 20163 40179 57001 72160 87040;
0193583140999992000092106004+31400+116320FM-12+006899999V0202501N003019999999N0200001N1+02671+01551101651ADDAA106000791AY161061GF107991071001999999071999KA1999N+01941MA1999999100801MD1710141+9999MW1001REMSYN088AAXX  21061 58314 11970 72503 10267 20155 30080 40165 57014 69901 70060 8707/ 333 20194;
0112583140999992000092109004+31400+116320FM-12+006899999V0203201N001019999999N0200001N1+02741+01651101631ADDGF107991071001999999071999MD1710021+9999REMSYN060AAXX  21091 58314 42970 73201 10274 20165 40163 57002 8707/;
0144583140999992000092112004+31400+116320FM-12+006899999V0200201N002019999999N0150001N1+02171+01891101721ADDAA199000021GF107991071001999999071999MA1999999100861MD1210081+9999REMSYN066AAXX  21121 58314 32965 70202 10217 20189 30086 40172 52008 8707/;
0122583140999992000092115004+31400+116320FM-12+006899999V0202701N001012200019N0150001N1+01981+01801101801ADDGA1001+999999999GF100991001001999999001001MD1210091+9999REMSYN054AAXX  21151 58314 42965 02701 10198 20180 40180 52009;
0196583140999992000092118004+31400+116320FM-12+006899999V0202501N001012200019N0120001N1+01831+01721101741ADDAA199000091GA1001+999999999GF100991001001999999001001KA1999M+02801MA1999999100891MD1710061+9999REMSYN070AAXX  21181 58314 32962 02501 10183 20172 30089 40174 57006 333 10280;EQDQ01  00002PRCP99
0143583140999992000092121004+31400+116320FM-12+006899999V0202701N002012200019N0120001N1+01761+01681101721ADDAA124000791GA1001+999999999GF100991001001999999001001MD1710021+9999REMSYN064AAXX  21211 58314 42962 02702 10176 20168 40172 57002 333 79999;
0160583140999992000092200004+31400+116320FM-12+006899999V0202701N002012200019N0100001N1+01961+01751101801ADDAA124000791GF101991011001999999041001MA1999999100941MD1210071+0001REMSYN082AAXX  22001 58314 32960 12702 10196 20175 30094 40180 52007 81040 333 00051 79999;
0122583140999992000092203004+31400+116320FM-12+006899999V0201401N002012200019N0150001N1+02761+01831101761ADDGA1001+999999999GF100991001001999999001001MD1710031+9999REMSYN054AAXX  22031 58314 42965 01402 10276 20183 40176 57003;
0196583140999992000092206004+31400+116320FM-12+006899999V0201801N001012200019N0200001N1+03031+01701101481ADDAA199000091GA1001+999999999GF100991001001999999001001KA1999N+01701MA1999999100641MD1710271+9999REMSYN070AAXX  22061 58314 32970 01801 10303 20170 30064 40148 57027 333 20170;EQDQ01  00002PRCP99
0122583140999992000092209004+31400+116320FM-12+006899999V0200901N001012200019N0200001N1+02961+01821101401ADDGA1001+999999999GF100991001001999999001001MD1710091+9999REMSYN054AAXX  22091 58314 42970 00901 10296 20182 40140 57009;
0173583140999992000092212004+31400+116320FM-12+006899999V0209999C000012200019N0200001N1+02401+02101101501ADDAA199000091GA1001+999999999GF100991001001999999001001MA1999999100651MD1210101+9999REMSYN060AAXX  22121 58314 32970 00000 10240 20210 30065 40150 52010;EQDQ01  00002PRCP99
0122583140999992000092215004+31400+116320FM-12+006899999V0209999C000012200019N0200001N1+02181+01991101521ADDGA1001+999999999GF100991001001999999001001MD1210031+9999REMSYN054AAXX  22151 58314 42970 00000 10218 20199 40152 52003;
0186583140999992000092218004+31400+116320FM-12+006899999V0209999C000019999999N0150001N1+02051+01911101401ADDAA199000091GF108991081001999999071999KA1999M+03031MA1999999100561MD1710121+9999REMSYN076AAXX  22181 58314 32965 80000 10205 20191 30056 40140 57012 8807/ 333 10303;EQDQ01  00002PRCP99
0112583140999992000092221004+31400+116320FM-12+006899999V0209999C000019999999N0150001N1+01951+01851101371ADDGF106991061001999999041001MD1710031+9999REMSYN060AAXX  22211 58314 42965 60000 10195 20185 40137 57003 86040;
0183583140999992000092300004+31400+116320FM-12+006899999V0200401N001012200019N0100001N1+02181+01961101441ADDAA199000091GA1001+999999999GF100991001001999999001001MA1999999100591MD1210061+0041REMSYN070AAXX  23001 58314 32960 00401 10218 20196 30059 40144 52006 333 05402;EQDQ01  00002PRCP99
0112583140999992000092303004+31400+116320FM-12+006899999V0209999C000019999999N0150001N1+02861+02121101401ADDGF107991071001999999041999MD1710031+9999REMSYN060AAXX  23031 58314 42965 70000 10286 20212 40140 57003 8704/;
0196583140999992000092306004+31400+116320FM-12+006899999V0200901N001012200019N0200001N1+03221+01961101181ADDAA199000091GA1001+999999999GF100991001001999999001001KA1999N+01941MA1999999100341MD1710221+9999REMSYN070AAXX  23061 58314 32970 00901 10322 20196 30034 40118 57022 333 20194;EQDQ01  00002PRCP99
0122583140999992000092309004+31400+116320FM-12+006899999V0201401N002012200019N0200001N1+03151+02031101031ADDGA1001+999999999GF100991001001999999001001MD1710151+9999REMSYN054AAXX  23091 58314 42970 01402 10315 20203 40103 57015;
0173583140999992000092312004+31400+116320FM-12+006899999V0209999C000012200019N0200001N1+02501+02221101141ADDAA199000091GA1001+999999999GF100991001001999999001001MA1999999100301MD1210111+9999REMSYN060AAXX  23121 58314 32970 00000 10250 20222 30030 40114 52011;EQDQ01  00002PRCP99
0122583140999992000092315004+31400+116320FM-12+006899999V0209999C000012200019N0150001N1+02341+02161101131ADDGA1001+999999999GF100991001001999999001001MD1710011+9999REMSYN054AAXX  23151 58314 42965 00000 10234 20216 40113 57001;
0186583140999992000092318004+31400+116320FM-12+006899999V0209999C000019999999N0150001N1+02311+02181101121ADDAA199000091GF107991001001999999001021KA1999M+03231MA1999999100291MD1410001+9999REMSYN076AAXX  23181 58314 32965 70000 10231 20218 30029 40112 54000 80002 333 10323;EQDQ01  00002PRCP99
0112583140999992000092321004+31400+116320FM-12+006899999V0209999C000019999999N0150001N1+02241+02121101021ADDGF107991001001999999001021MD1710101+9999REMSYN060AAXX  23211 58314 42965 70000 10224 20212 40102 57010 80002;
0140583140999992000092403004+31400+116320FM-12+006899999V0200701N002019999999N0150001N1+02601+02281101171ADDAY161031AY261031GF107991071001999999071999MD1210011+9999MW1211REMSYN066AAXX  24031 58314 41965 70702 10260 20228 40117 52001 72166 8707/;
0193583140999992000092406004+31400+116320FM-12+006899999V0209999C000019999999N0100001N1+02681+02211100981ADDAA106001091AY161061GF108991081001999999071999KA1999N+02211MA1999999100141MD1710191+9999MW1001REMSYN088AAXX  24061 58314 11960 80000 10268 20221 30014 40098 57019 60011 70060 8807/ 333 20221;
0140583140999992000092409004+31400+116320FM-12+006899999V0203201N002019999999N0100001N1+02521+02321100941ADDAY161031AY261031GF108991081001999999071999MD1710041+9999MW1601REMSYN066AAXX  24091 58314 41960 83202 10252 20232 40094 57004 76066 8807/;
0170583140999992000092412004+31400+116320FM-12+006899999V0201401N002019999999N0100001N1+02391+02171100961ADDAA106003091AY161061GF108991081001999999071999MA1999999100121MD1210021+9999MW1001REMSYN078AAXX  24121 58314 11960 81402 10239 20217 30012 40096 52002 60031 70060 8807/;
0122583140999992000092415004+31400+116320FM-12+006899999V0202901N001012200019N0150001N1+02281+02211100961ADDGA1001+999999999GF100991001001999999001001MD1410001+9999REMSYN054AAXX  24151 58314 42965 02901 10228 20221 40096 54000;
0167583140999992000092418004+31400+116320FM-12+006899999V0202901N002019999999N0120001N1+02261+02201100961ADDAA199000021GF108991081001999999071999KA1999M+02681MA1999999100121MD1410001+9999REMSYN076AAXX  24181 58314 32962 82902 10226 20220 30012 40096 54000 8807/ 333 10268;
0133583140999992000092421004+31400+116320FM-12+006899999V0200401N001019999999N0120001N1+02281+02221100931ADDAA124004191GF108991081001999999071999MD1710031+9999REMSYN070AAXX  24211 58314 42962 80401 10228 20222 40093 57003 8807/ 333 70041;
0178583140999992000092500004+31400+116320FM-12+006899999V0200401N002019999999N0060001N1+02241+02181101171ADDAA106000191GF108991081001999999071999MA1999999100331MD1210241+0001MW1601REMSYN094AAXX  25001 58314 11956 80402 10224 20218 30033 40117 52024 69911 76000 8807/ 333 00000 70042;
0132583140999992000092503004+31400+116320FM-12+006899999V0200701N002019999999N0080001N1+02251+02141101331ADDAY161031GF108991081001999999071999MD1210151+9999MW1101REMSYN066AAXX  25031 58314 41958 80702 10225 20214 40133 52015 71060 8807/;
0193583140999992000092506004+31400+116320FM-12+006899999V0200201N001019999999N0080001N1+02261+02141101201ADDAA106000791AY161061GF108991081001999999071999KA1999N+02211MA1999999100351MD1710131+9999MW1101REMSYN088AAXX  25061 58314 11958 80201 10226 20214 30035 40120 57013 69901 71060 8807/ 333 20221;
0132583140999992000092509004+31400+116320FM-12+006899999V0200901N003010075019N0080001N1+02061+02031101271ADDAY161031GF108991081051008001999999MD1210071+9999MW1601REMSYN066AAXX  25091 58314 41558 80903 10206 20203 40127 52007 76060 885//;
0170583140999992000092512004+31400+116320FM-12+006899999V0200901N002010075019N0080001N1+02031+02001101421ADDAA106016091AY161061GF108991081051008001999999MA1999999100571MD1210151+9999MW1601REMSYN078AAXX  25121 58314 11558 80902 10203 20200 30057 40142 52015 60161 76060 885//;
0140583140999992000092515004+31400+116320FM-12+006899999V0200901N002010075019N0100001N1+01931+01901101481ADDAY161031AY261031GF108991081051008001999999MD1210061+9999MW1601REMSYN066AAXX  25151 58314 41560 80902 10193 20190 40148 52006 76066 885//;
0201583140999992000092518004+31400+116320FM-12+006899999V0200701N003010075019N0080001N1+01911+01881101451ADDAA106002091AY161061AY261061GF108991081051008001999999KA1999M+02331MA1999999100601MD1710031+9999MW1601REMSYN088AAXX  25181 58314 11558 80703 10191 20188 30060 40145 57003 60021 76066 885// 333 10233;
0161583140999992000092521004+31400+116320FM-12+006899999V0200901N002010075019N0080001N1+01901+01871101401ADDAA124022691AY161031AY261031GF108991081051008001999999MD1710061+9999MW1601REMSYN076AAXX  25211 58314 41558 80902 10190 20187 40140 57006 76066 885// 333 70227;
0194583140999992000092600004+31400+116320FM-12+006899999V0200901N001010075019N0070001N1+01961+01901101541ADDAA106019191AY161061AY261061GF108991081051008001999999MA1999999100681MD1210141+0401MW1601REMSYN094AAXX  26001 58314 11557 80901 10196 20190 30068 40154 52014 60191 76066 885// 333 00453 70370;
0140583140999992000092603004+31400+116320FM-12+006899999V0201101N004010075019N0070001N1+02111+02021101531ADDAY161031AY261031GF108991081051008001999999MD1710011+9999MW1601REMSYN066AAXX  26031 58314 41557 81104 10211 20202 40153 57001 76066 885//;
0201583140999992000092606004+31400+116320FM-12+006899999V0200901N003010075019N0090001N1+02121+02071101381ADDAA106002091AY161061AY261061GF108991081051008001999999KA1999N+01881MA1999999100531MD1710141+9999MW1601REMSYN088AAXX  26061 58314 11559 80903 10212 20207 30053 40138 57014 60021 76066 885// 333 20188;
0140583140999992000092609004+31400+116320FM-12+006899999V0200901N002010075019N0070001N1+02151+02091101301ADDAY161031AY261031GF108991081051008001999999MD1710081+9999MW1601REMSYN066AAXX  26091 58314 41557 80902 10215 20209 40130 57008 76066 885//;
0178583140999992000092612004+31400+116320FM-12+006899999V0201401N002010075019N0080001N1+02121+02071101371ADDAA106002091AY161061AY261061GF108991081051008001999999MA1999999100521MD1210071+9999MW1601REMSYN078AAXX  26121 58314 11558 81402 10212 20207 30052 40137 52007 60021 76066 885//;
0140583140999992000092615004+31400+116320FM-12+006899999V0200901N001010075019N0080001N1+02131+02081101331ADDAY161031AY261031GF108991081051008001999999MD1710041+9999MW1601REMSYN066AAXX  26151 58314 41558 80901 10213 20208 40133 57004 76066 885//;
0201583140999992000092618004+31400+116320FM-12+006899999V0203201N001010075019N0080001N1+02121+02091101241ADDAA106008991AY161061AY261061GF108991081051008001999999KA1999M+02151MA1999999100391MD1710091+9999MW1601REMSYN088AAXX  26181 58314 11558 83201 10212 20209 30039 40124 57009 60091 76066 885// 333 10215;
0161583140999992000092621004+31400+116320FM-12+006899999V0201401N001010075019N0080001N1+02101+02071101201ADDAA124035691AY161031AY261031GF108991081051008001999999MD1710041+9999MW1601REMSYN076AAXX  26211 58314 41558 81401 10210 20207 40120 57004 76066 885// 333 70356;
0194583140999992000092700004+31400+116320FM-12+006899999V0201401N002019999999N0120001N1+02151+02091101261ADDAA106010991AY161061AY261061GF108991081001999999071999MA1999999100411MD1210061-0301MW1601REMSYN094AAXX  27001 58314 11962 81402 10215 20209 30041 40126 52006 60111 76066 8807/ 333 05302 70240;
0132583140999992000092703004+31400+116320FM-12+006899999V0203201N002019999999N0120001N1+02441+02201101251ADDAY161031GF108991081001999999071999MD1710011+9999MW1001REMSYN066AAXX  27031 58314 41962 83202 10244 20220 40125 57001 70060 8807/;
0193583140999992000092706004+31400+116320FM-12+006899999V0203401N002019999999N0120001N1+02201+02051101191ADDAA106000791AY161061GF108991081001999999071999KA1999N+02071MA1999999100341MD1710061+9999MW1001REMSYN088AAXX  27061 58314 11962 83402 10220 20205 30034 40119 57006 69901 70060 8807/ 333 20207;
0112583140999992000092709004+31400+116320FM-12+006899999V0200701N002019999999N0120001N1+02061+01931101201ADDGF108991081001999999071999MD1210011+9999REMSYN060AAXX  27091 58314 42962 80702 10206 20193 40120 52001 8807/;
0170583140999992000092712004+31400+116320FM-12+006899999V0200901N001019999999N0120001N1+01891+01831101401ADDAA106000191AY161061GF108991081001999999071999MA1999999100551MD1210201+9999MW1601REMSYN078AAXX  27121 58314 11962 80901 10189 20183 30055 40140 52020 69911 76060 8807/;
0140583140999992000092715004+31400+116320FM-12+006899999V0200201N001019999999N0120001N1+01831+01771101471ADDAY161031AY261031GF108991081001999999071999MD1210071+9999MW1601REMSYN066AAXX  27151 58314 41962 80201 10183 20177 40147 52007 76066 8807/;
0201583140999992000092718004+31400+116320FM-12+006899999V0200901N002010075019N0050001N1+01781+01751101431ADDAA106000391AY161061AY261061GF108991081051008001999999KA1999M+02441MA1999999100571MD1710051+9999MW1601REMSYN088AAXX  27181 58314 11550 80902 10178 20175 30057 40143 57005 69931 76066 885// 333 10244;
0161583140999992000092721004+31400+116320FM-12+006899999V0209999C000010075019N0040001N1+01731+01701101451ADDAA124003691AY161031AY261031GF108991081051008001999999MD1210021+9999MW1601REMSYN076AAXX  27211 58314 41540 80000 10173 20170 40145 52002 76066 885// 333 70036;
0194583140999992000092800004+31400+116320FM-12+006899999V0203601N001010075019N0080001N1+01651+01581101621ADDAA106000891AY161061AY261061GF108991081051008001999999MA1999999100761MD1210171+0401MW1601REMSYN094AAXX  28001 58314 11558 83601 10165 20158 30076 40162 52017 69971 76066 885// 333 00455 70011;
0140583140999992000092803004+31400+116320FM-12+006899999V0202201N002010075019N0100001N1+01841+01741101641ADDAY161031AY261031GF108991081051008001999999MD1210021+9999MW1601REMSYN066AAXX  28031 58314 41560 82202 10184 20174 40164 52002 76066 885//;
0201583140999992000092806004+31400+116320FM-12+006899999V0200201N001010075019N0080001N1+01971+01761101511ADDAA106000191AY161061AY261061GF108991081051008001999999KA1999N+01651MA1999999100651MD1710131+9999MW1601REMSYN088AAXX  28061 58314 11558 80201 10197 20176 30065 40151 57013 69911 76066 885// 333 20165;
0132583140999992000092809004+31400+116320FM-12+006899999V0200401N002010075019N0080001N1+02001+01771101481ADDAY161031GF108991081051008001999999MD1710031+9999MW1601REMSYN066AAXX  28091 58314 41558 80402 10200 20177 40148 57003 76060 885//;
0170583140999992000092812004+31400+116320FM-12+006899999V0200901N001010075019N0070001N1+01801+01721101651ADDAA106000191AY161061GF108991081051008001999999MA1999999100791MD1210171+9999MW1601REMSYN078AAXX  28121 58314 11557 80901 10180 20172 30079 40165 52017 69911 76060 885//;
0140583140999992000092815004+31400+116320FM-12+006899999V0200401N001010075019N0060001N1+01731+01681101721ADDAY161031AY261031GF108991081051008001999999MD1210071+9999MW1601REMSYN066AAXX  28151 58314 41556 80401 10173 20168 40172 52007 76066 885//;
0201583140999992000092818004+31400+116320FM-12+006899999V0209999C000010075019N0050001N1+01711+01661101661ADDAA106008991AY161061AY261061GF108991081051008001999999KA1999M+02051MA1999999100801MD1710061+9999MW1601REMSYN088AAXX  28181 58314 11550 80000 10171 20166 30080 40166 57006 60091 76066 885// 333 10205;
0161583140999992000092821004+31400+116320FM-12+006899999V0209999C000010075019N0050001N1+01701+01651101601ADDAA124011291AY161031AY261031GF108991081051008001999999MD1710061+9999MW1601REMSYN076AAXX  28211 58314 41550 80000 10170 20165 40160 57006 76066 885// 333 70112;
0194583140999992000092900004+31400+116320FM-12+006899999V0202701N002010075019N0070001N1+01801+01701101681ADDAA106004191AY161061AY261061GF108991081051008001999999MA1999999100821MD1210081+0101MW1601REMSYN094AAXX  29001 58314 11557 82702 10180 20170 30082 40168 52008 60041 76066 885// 333 00101 70131;
0132583140999992000092903004+31400+116320FM-12+006899999V0202901N002010075019N0120001N1+02001+01711101711ADDAY161031GF108991081051008001999999MD1210031+9999MW1001REMSYN066AAXX  29031 58314 41562 82902 10200 20171 40171 52003 70060 885//;
0193583140999992000092906004+31400+116320FM-12+006899999V0209999C000019999999N0120001N1+02121+01731101541ADDAA106000791AY161061GF108991081001999999071999KA1999N+01671MA1999999100681MD1710171+9999MW1001REMSYN088AAXX  29061 58314 11962 80000 10212 20173 30068 40154 57017 69901 70060 8807/ 333 20167;
0112583140999992000092909004+31400+116320FM-12+006899999V0202701N002019999999N0120001N1+02151+01881101511ADDGF108991081001999999071999MD1710031+9999REMSYN060AAXX  29091 58314 42962 82702 10215 20188 40151 57003 8807/;
0144583140999992000092912004+31400+116320FM-12+006899999V0209999C000019999999N0150001N1+02051+01881101621ADDAA199000021GF106991061001999999041001MA1999999100761MD1210111+9999REMSYN066AAXX  29121 58314 32965 60000 10205 20188 30076 40162 52011 86040;
0112583140999992000092915004+31400+116320FM-12+006899999V0209999C000019999999N0150001N1+01981+01881101661ADDGF108991081001999999071999MD1210041+9999REMSYN060AAXX  29151 58314 42965 80000 10198 20188 40166 52004 8807/;
0185583140999992000092918004+31400+116320FM-12+006899999V0209999C000019999999N0100001N1+01921+01841101611ADDAA106000191GF108991081001999999071999KA1999M+02201MA1999999100751MD1710051+9999MW1601REMSYN088AAXX  29181 58314 11960 80000 10192 20184 30075 40161 57005 69911 76000 8807/ 333 10220;
0153583140999992000092921004+31400+116320FM-12+006899999V0209999C000019999999N0100001N1+01891+01831101601ADDAA124002391AY161031GF108991081001999999071999MD1710011+9999MW1001REMSYN076AAXX  29211 58314 41960 80000 10189 20183 40160 57001 70060 8807/ 333 70023;
0186583140999992000093000004+31400+116320FM-12+006899999V0209999C000019999999N0100001N1+01931+01871101741ADDAA106000791AY161061GF108991081001999999071999MA1999999100881MD1210141+0101MW1001REMSYN094AAXX  30001 58314 11960 80000 10193 20187 30088 40174 52014 69901 70060 8807/ 333 00101 70001;
0112583140999992000093003004+31400+116320FM-12+006899999V0202701N001019999999N0150001N1+02241+01791101781ADDGF108991081001999999071999MD1210041+9999REMSYN060AAXX  30031 58314 42965 82701 10224 20179 40178 52004 8807/;
0167583140999992000093006004+31400+116320FM-12+006899999V0201101N001019999999N0150001N1+02351+01741101581ADDAA199000021GF108991081001999999071999KA1999N+01881MA1999999100731MD1710191+9999REMSYN076AAXX  30061 58314 32965 81101 10235 20174 30073 40158 57019 8807/ 333 20188;
0112583140999992000093009004+31400+116320FM-12+006899999V0202701N001019999999N0150001N1+02261+01921101591ADDGF108991081001999999071999MD1210011+9999REMSYN060AAXX  30091 58314 42965 82701 10226 20192 40159 52001 8807/;
0170583140999992000093012004+31400+116320FM-12+006899999V0202001N001019999999N0120001N1+02051+01891101691ADDAA106000191AY161061GF108991081001999999071999MA1999999100831MD1210091+9999MW1001REMSYN078AAXX  30121 58314 11962 82001 10205 20189 30083 40169 52009 69921 70060 8807/;
0112583140999992000093015004+31400+116320FM-12+006899999V0209999C000019999999N0120001N1+02031+01941101681ADDGF108991081001999999071999MD1410001+9999REMSYN060AAXX  30151 58314 42962 80000 10203 20194 40168 54000 8807/;
0193583140999992000093018004+31400+116320FM-12+006899999V0209999C000019999999N0120001N1+02001+01921101621ADDAA106000191AY161061GF108991081001999999071999KA1999M+02391MA1999999100771MD1710061+9999MW1211REMSYN088AAXX  30181 58314 11962 80000 10200 20192 30077 40162 57006 69911 72160 8807/ 333 10239;
0133583140999992000093021004+31400+116320FM-12+006899999V0201101N001019999999N0120001N1+01981+01921101581ADDAA124000391GF108991081001999999071999MD1710041+9999REMSYN070AAXX  30211 58314 42962 81101 10198 20192 40158 57004 8807/ 333 70003;
0160583140999992000100100004+31400+116320FM-12+006899999V0209999C000019999999N0120001N1+02021+01961101661ADDAA124000391GF108991081001999999071999MA1999999100801MD1210071-0101REMSYN082AAXX  01001 58314 32962 80000 10202 20196 30080 40166 52007 8807/ 333 05101 70003;
0112583140999992000100103004+31400+116320FM-12+006899999V0200201N002019999999N0150001N1+02421+01941101551ADDGF108991081001999999071999MD1710101+9999REMSYN060AAXX  01031 58314 42965 80202 10242 20194 40155 57010 8807/;
0167583140999992000100106004+31400+116320FM-12+006899999V0200701N002019999999N0150001N1+02411+02031101371ADDAA199000021GF108991081001999999071999KA1999N+01971MA1999999100521MD1710181+9999REMSYN076AAXX  01061 58314 32965 80702 10241 20203 30052 40137 57018 8807/ 333 20197;
0132583140999992000100109004+31400+116320FM-12+006899999V0200901N001019999999N0150001N1+02221+02051101301ADDAY161031GF108991081001999999071999MD1710071+9999MW1601REMSYN066AAXX  01091 58314 41965 80901 10222 20205 40130 57007 76060 8807/;
0170583140999992000100112004+31400+116320FM-12+006899999V0203201N001010075019N0120001N1+02081+01991101371ADDAA106001091AY161061GF108991081051008001999999MA1999999100521MD1210071+9999MW1601REMSYN078AAXX  01121 58314 11562 83201 10208 20199 30052 40137 52007 60011 76060 885//;
0140583140999992000100115004+31400+116320FM-12+006899999V0203201N001010075019N0080001N1+02041+02011101331ADDAY161031AY261031GF108991081051008001999999MD1710041+9999MW1601REMSYN066AAXX  01151 58314 41558 83201 10204 20201 40133 57004 76066 885//;
0201583140999992000100118004+31400+116320FM-12+006899999V0201401N001010075019N0070001N1+02001+01941101251ADDAA106003091AY161061AY261061GF108991081051008001999999KA1999M+02451MA1999999100401MD1710081+9999MW1601REMSYN088AAXX  01181 58314 11557 81401 10200 20194 30040 40125 57008 60031 76066 885// 333 10245;
0161583140999992000100121004+31400+116320FM-12+006899999V0203201N002010075019N0060001N1+01911+01861101271ADDAA124008991AY161031AY261031GF108991081051008001999999MD1210021+9999MW1601REMSYN076AAXX  01211 58314 41556 83202 10191 20186 40127 52002 76066 885// 333 70088;
0194583140999992000100200004+31400+116320FM-12+006899999V0202701N002010075019N0070001N1+01921+01871101441ADDAA106013091AY161061AY261061GF108991081051008001999999MA1999999100581MD1210161-0201MW1601REMSYN094AAXX  02001 58314 11557 82702 10192 20187 30058 40144 52016 60131 76066 885// 333 05251 70168;
0140583140999992000100203004+31400+116320FM-12+006899999V0203201N001010075019N0060001N1+01911+01861101501ADDAY161031AY261031GF108991081051008001999999MD1210061+9999MW1601REMSYN066AAXX  02031 58314 41556 83201 10191 20186 40150 52006 76066 885//;
0201583140999992000100206004+31400+116320FM-12+006899999V0203401N003010075019N0070001N1+01931+01851101411ADDAA106007991AY161061AY261061GF108991081051008001999999KA1999N+01881MA1999999100551MD1710091+9999MW1601REMSYN088AAXX  02061 58314 11557 83403 10193 20185 30055 40141 57009 60081 76066 885// 333 20188;
0140583140999992000100209004+31400+116320FM-12+006899999V0200401N001010075019N0060001N1+01931+01831101441ADDAY161031AY261031GF108991081051008001999999MD1210031+9999MW1601REMSYN066AAXX  02091 58314 41556 80401 10193 20183 40144 52003 76066 885//;
0170583140999992000100212004+31400+116320FM-12+006899999V0203401N002010075019N0080001N1+01901+01841101621ADDAA106002091AY161061GF108991081051008001999999MA1999999100761MD1210181+9999MW1601REMSYN078AAXX  02121 58314 11558 83402 10190 20184 30076 40162 52018 60021 76060 885//;
0140583140999992000100215004+31400+116320FM-12+006899999V0202901N001010075019N0070001N1+01881+01851101641ADDAY161031AY261031GF108991081051008001999999MD1210021+9999MW1601REMSYN066AAXX  02151 58314 41557 82901 10188 20185 40164 52002 76066 885//;
0193583140999992000100218004+31400+116320FM-12+006899999V0209999C000010075019N0150001N1+01901+01841101651ADDAA106000191AY161061GF108991081051008001999999KA1999M+02021MA1999999100791MD1210011+9999MW1001REMSYN088AAXX  02181 58314 11565 80000 10190 20184 30079 40165 52001 69921 70060 885// 333 10202;
0133583140999992000100221004+31400+116320FM-12+006899999V0209999C000010075019N0150001N1+01901+01841101661ADDAA124018091GF108991081051008001999999MD1210011+9999REMSYN070AAXX  02211 58314 42565 80000 10190 20184 40166 52001 885// 333 70181;
0160583140999992000100300004+31400+116320FM-12+006899999V0200901N001010075019N0100001N1+01951+01871101711ADDAA124010291GF108991081051008001999999MA1999999100851MD1210051+0301REMSYN082AAXX  03001 58314 32560 80901 10195 20187 30085 40171 52005 885// 333 00300 70101;
0112583140999992000100303004+31400+116320FM-12+006899999V0200401N001010075019N0150001N1+02221+01871101731ADDGF106991061051008001001001MD1210021+9999REMSYN060AAXX  03031 58314 42565 60401 10222 20187 40173 52002 86500;
0186583140999992000100306004+31400+116320FM-12+006899999V0201401N003012200019N0250001N1+02501+01661101551ADDAA199000091GF103991031051008001001001KA1999N+01861MA1999999100701MD1710171+9999REMSYN076AAXX  03061 58314 32575 31403 10250 20166 30070 40155 57017 83500 333 20186;EQDQ01  00002PRCP99
0122583140999992000100309004+31400+116320FM-12+006899999V0200901N003012200019N0250001N1+02421+01611101521ADDGA1001+999999999GF100991001001999999001001MD1710031+9999REMSYN054AAXX  03091 58314 42975 00903 10242 20161 40152 57003;
0173583140999992000100312004+31400+116320FM-12+006899999V0203401N001012200019N0120001N1+01921+01761101681ADDAA199000091GA1001+999999999GF100991001001999999001001MA1999999100821MD1210151+9999REMSYN060AAXX  03121 58314 32962 03401 10192 20176 30082 40168 52015;EQDQ01  00002PRCP99
0122583140999992000100315004+31400+116320FM-12+006899999V0202901N002012200019N0120001N1+01741+01641101651ADDGA1001+999999999GF100991001001999999001001MD1710031+9999REMSYN054AAXX  03151 58314 42962 02902 10174 20164 40165 57003;
0196583140999992000100318004+31400+116320FM-12+006899999V0202901N002012200019N0200001N1+01581+01531101661ADDAA199000091GA1001+999999999GF100991001001999999001001KA1999M+02541MA1999999100801MD1210011+9999REMSYN070AAXX  03181 58314 32970 02902 10158 20153 30080 40166 52001 333 10254;EQDQ01  00002PRCP99
0122583140999992000100321004+31400+116320FM-12+006899999V0200701N001012200019N0200001N1+01501+01481101631ADDGA1001+999999999GF100991001001999999001001MD1710031+9999REMSYN054AAXX  03211 58314 42970 00701 10150 20148 40163 57003;
0173583140999992000100400004+31400+116320FM-12+006899999V0209999C000019999999N0150001N1+01561+01511101701ADDAA199000091GF105991051001999999041001MA1999999100831MD1210061+0001REMSYN076AAXX  04001 58314 32965 50000 10156 20151 30083 40170 52006 85040 333 00054;EQDQ01  00002PRCP99
0112583140999992000100403004+31400+116320FM-12+006899999V0201101N001019999999N0200001N1+02121+01631101691ADDGF106991061001999999041001MD1410001+9999REMSYN060AAXX  04031 58314 42970 61101 10212 20163 40169 54000 86040;
0186583140999992000100406004+31400+116320FM-12+006899999V0201401N002012200019N0200001N1+02601+01711101431ADDAA199000091GF102991021001999999041001KA1999N+01451MA1999999100581MD1710251+9999REMSYN076AAXX  04061 58314 32970 21402 10260 20171 30058 40143 57025 82040 333 20145;EQDQ01  00002PRCP99
0112583140999992000100409004+31400+116320FM-12+006899999V0201101N002012200019N0200001N1+02601+01731101421ADDGF102991001001999999001021MD1710011+9999REMSYN060AAXX  04091 58314 42970 21102 10260 20173 40142 57001 80002;
0163583140999992000100412004+31400+116320FM-12+006899999V0203201N001010075019N0200001N1+02131+01831101591ADDAA199000091GF107991071051008001999999MA1999999100731MD1210161+9999REMSYN066AAXX  04121 58314 32570 73201 10213 20183 30073 40159 52016 875//;EQDQ01  00002PRCP99
0112583140999992000100415004+31400+116320FM-12+006899999V0202701N002010075019N0200001N1+01951+01851101791ADDGF107991071051008001999999MD1210201+9999REMSYN060AAXX  04151 58314 42570 72702 10195 20185 40179 52020 875//;
0186583140999992000100418004+31400+116320FM-12+006899999V0209999C000019999999N0150001N1+01821+01741101631ADDAA199000091GF105991051001999999041001KA1999M+02661MA1999999100781MD1710151+9999REMSYN076AAXX  04181 58314 32965 50000 10182 20174 30078 40163 57015 85040 333 10266;EQDQ01  00002PRCP99
0142583140999992000100421004+31400+116320FM-12+006899999V0209999C000010006019N0008001N1+01751+01731101681ADDAY141031GA1091+999999999GF109991091999999999999999MD1210051+9999MW1471REMSYN060AAXX  04211 58314 41/08 90000 10175 20173 40168 52005 74740;
0203583140999992000100500004+31400+116320FM-12+006899999V0209999C000010006019N0008001N1+01701+01671101781ADDAA199000091AY141061GA1091+999999999GF109991091999999999999999MA1999999100921MD1210091+0011MW1431REMSYN076AAXX  05001 58314 31/08 90000 10170 20167 30092 40178 52009 74340 333 00101;EQDQ01  00002PRCP99
0132583140999992000100503004+31400+116320FM-12+006899999V0200401N002019999999N0100001N1+02341+01801101731ADDAY141031GF106991061001999999041001MD1710041+9999MW1001REMSYN066AAXX  05031 58314 41960 60402 10234 20180 40173 57004 70040 86040;
0206583140999992000100506004+31400+116320FM-12+006899999V0201401N002012200019N0150001N1+02651+01771101531ADDAA199000091AY141061GF101991011051008001001001KA1999N+01641MA1999999100681MD1710201+9999MW1001REMSYN082AAXX  05061 58314 31565 11402 10265 20177 30068 40153 57020 70040 81500 333 20164;EQDQ01  00002PRCP99
0112583140999992000100509004+31400+116320FM-12+006899999V0201101N002019999999N0150001N1+02541+01821101551ADDGF107991071001999999041999MD1210021+9999REMSYN060AAXX  05091 58314 42965 71102 10254 20182 40155 52002 8704/;
0163583140999992000100512004+31400+116320FM-12+006899999V0202701N002019999999N0150001N1+02251+02001101731ADDAA199000091GF107991071001999999071999MA1999999100871MD1210171+9999REMSYN066AAXX  05121 58314 32965 72702 10225 20200 30087 40173 52017 8707/;EQDQ01  00002PRCP99
0112583140999992000100515004+31400+116320FM-12+006899999V0200701N001012200019N0150001N1+02071+01941101741ADDGF103991031001999999041001MD1210021+9999REMSYN060AAXX  05151 58314 42965 30701 10207 20194 40174 52002 83040;
0186583140999992000100518004+31400+116320FM-12+006899999V0203201N002019999999N0120001N1+01911+01861101681ADDAA199000091GF108991081001999999071999KA1999M+02691MA1999999100831MD1710061+9999REMSYN076AAXX  05181 58314 32962 83202 10191 20186 30083 40168 57006 8807/ 333 10269;EQDQ01  00002PRCP99
0124583140999992000100521004+31400+116320FM-12+006899999V0202201N001019999999N0080001N1+01801+01731101661ADDGF108991081001999999071999MD1710021+9999MW1101REMSYN066AAXX  05211 58314 41958 82201 10180 20173 40166 57002 71000 8807/;
0185583140999992000100600004+31400+116320FM-12+006899999V0202901N002019999999N0040001N1+01761+01741101801ADDAA199000091GF108991081001999999071999MA1999999100941MD1210131+0001MW1101REMSYN082AAXX  06001 58314 31940 82902 10176 20174 30094 40180 52013 71000 8807/ 333 00001;EQDQ01  00002PRCP99
0122583140999992000100603004+31400+116320FM-12+006899999V0201401N002012200019N0200001N1+02441+01841101731ADDGA1001+999999999GF100991001001999999001001MD1710061+9999REMSYN054AAXX  06031 58314 42970 01402 10244 20184 40173 57006;
0196583140999992000100606004+31400+116320FM-12+006899999V0201401N003012200019N0250001N1+02701+01641101521ADDAA199000091GA1001+999999999GF100991001001999999001001KA1999N+01691MA1999999100671MD1710211+9999REMSYN070AAXX  06061 58314 32975 01403 10270 20164 30067 40152 57021 333 20169;EQDQ01  00002PRCP99
0112583140999992000100609004+31400+116320FM-12+006899999V0200901N003012200019N0200001N1+02541+01821101511ADDGF102991001001999999001021MD1710011+9999REMSYN060AAXX  06091 58314 42970 20903 10254 20182 40151 57001 80002;
0173583140999992000100612004+31400+116320FM-12+006899999V0201101N001012200019N0200001N1+02151+01921101571ADDAA199000091GA1001+999999999GF100991001001999999001001MA1999999100711MD1210051+9999REMSYN060AAXX  06121 58314 32970 01101 10215 20192 30071 40157 52005;EQDQ01  00002PRCP99
0122583140999992000100615004+31400+116320FM-12+006899999V0209999C000012200019N0200001N1+01961+01881101581ADDGA1001+999999999GF100991001001999999001001MD1210021+9999REMSYN054AAXX  06151 58314 42970 00000 10196 20188 40158 52002;
0196583140999992000100618004+31400+116320FM-12+006899999V0209999C000012200019N0200001N1+01851+01791101571ADDAA199000091GA1001+999999999GF100991001001999999001001KA1999M+02711MA1999999100721MD1710011+9999REMSYN070AAXX  06181 58314 32970 00000 10185 20179 30072 40157 57001 333 10271;EQDQ01  00002PRCP99
0134583140999992000100621004+31400+116320FM-12+006899999V0209999C000012200019N0030001N1+01761+01741101561ADDGA1001+999999999GF100991001001999999001001MD1710011+9999MW1101REMSYN060AAXX  06211 58314 41930 00000 10176 20174 40156 57001 71000;
0193583140999992000100700004+31400+116320FM-12+006899999V0209999C000019999999N0040001N1+01751+01721101701ADDAA199000091AY141061GF107991071001999999071999MA1999999100841MD1210131+0011MW1281REMSYN082AAXX  07001 58314 31940 70000 10175 20172 30084 40170 52013 72840 8707/ 333 05100;EQDQ01  00002PRCP99
0122583140999992000100703004+31400+116320FM-12+006899999V0201801N002012200019N0180001N1+02531+01981101561ADDGA1001+999999999GF100991001001999999001001MD1710131+9999REMSYN054AAXX  07031 58314 42968 01802 10253 20198 40156 57013;
0186583140999992000100706004+31400+116320FM-12+006899999V0203401N002012200019N0250001N1+02831+01841101271ADDAA199000091GF102991021011008001001001KA1999N+01681MA1999999100431MD1710281+9999REMSYN076AAXX  07061 58314 32575 23402 10283 20184 30043 40127 57028 82100 333 20168;EQDQ01  00002PRCP99
0112583140999992000100709004+31400+116320FM-12+006899999V0200701N003012200019N0250001N1+02721+01891101251ADDGF102991001001999999001021MD1710031+9999REMSYN060AAXX  07091 58314 42975 20703 10272 20189 40125 57003 80002;
0163583140999992000100712004+31400+116320FM-12+006899999V0202701N002019999999N0150001N1+02271+02101101371ADDAA199000091GF107991071001999999071999MA1999999100521MD1210121+9999REMSYN066AAXX  07121 58314 32965 72702 10227 20210 30052 40137 52012 8707/;EQDQ01  00002PRCP99
0112583140999992000100715004+31400+116320FM-12+006899999V0209999C000012200019N0150001N1+02061+01931101351ADDGF101991011001999999041001MD1710021+9999REMSYN060AAXX  07151 58314 42965 10000 10206 20193 40135 57002 81040;
0122583140999992000100721004+31400+116320FM-12+006899999V0209999C000012200019N0120001N1+01851+01791101281ADDGA1001+999999999GF100991001001999999001001MD1710021+9999REMSYN054AAXX  07211 58314 42962 00000 10185 20179 40128 57002;
0183583140999992000100800004+31400+116320FM-12+006899999V0201401N001012200019N0100001N1+02001+01771101421ADDAA199000091GA1001+999999999GF100991001001999999001001MA1999999100571MD1210141+0031REMSYN070AAXX  08001 58314 32960 01401 10200 20177 30057 40142 52014 333 05303;EQDQ01  00002PRCP99
0122583140999992000100803004+31400+116320FM-12+006899999V0202701N001012200019N0150001N1+02741+01881101311ADDGA1001+999999999GF100991001001999999001001MD1710101+9999REMSYN054AAXX  08031 58314 42965 02701 10274 20188 40131 57010;
0196583140999992000100806004+31400+116320FM-12+006899999V0203401N002012200019N0250001N1+02871+01761101101ADDAA199000091GA1001+999999999GF100991001001999999001001KA1999N+01771MA1999999100261MD1710211+9999REMSYN070AAXX  08061 58314 32975 03402 10287 20176 30026 40110 57021 333 20177;EQDQ01  00002PRCP99
0173583140999992000100812004+31400+116320FM-12+006899999V0202901N002012200019N0200001N1+02221+02041101191ADDAA199000091GA1001+999999999GF100991001001999999001001MA1999999100341MD1210141+9999REMSYN060AAXX  08121 58314 32970 02902 10222 20204 30034 40119 52014;EQDQ01  00002PRCP99
0112583140999992000100815004+31400+116320FM-12+006899999V0202501N002019999999N0200001N1+02111+01971101361ADDGF107991071001999999071999MD1210171+9999REMSYN060AAXX  08151 58314 42970 72502 10211 20197 40136 52017 8707/;
0186583140999992000100818004+31400+116320FM-12+006899999V0209999C000019999999N0150001N1+02141+01991101331ADDAA199000091GF108991081001999999071999KA1999M+02871MA1999999100491MD1710011+9999REMSYN076AAXX  08181 58314 32965 80000 10214 20199 30049 40133 57001 8807/ 333 10287;EQDQ01  00002PRCP99
0112583140999992000100821004+31400+116320FM-12+006899999V0200901N001019999999N0120001N1+02061+01971101381ADDGF108991081001999999071999MD1210051+9999REMSYN060AAXX  08211 58314 42962 80901 10206 20197 40138 52005 8807/;
0185583140999992000100900004+31400+116320FM-12+006899999V0209999C000019999999N0050001N1+02071+01981101561ADDAA199000091GF108991081001999999071999MA1999999100711MD1210171+0011MW1101REMSYN082AAXX  09001 58314 31950 80000 10207 20198 30071 40156 52017 71000 8807/ 333 00101;EQDQ01  00002PRCP99
0112583140999992000100903004+31400+116320FM-12+006899999V0201401N002012200019N0200001N1+02531+01981101431ADDGF102991021051012501001001MD1710131+9999REMSYN060AAXX  09031 58314 42670 21402 10253 20198 40143 57013 82500;
0186583140999992000100906004+31400+116320FM-12+006899999V0200901N002012200019N0200001N1+02891+02021101131ADDAA199000091GF102991021011012501001001KA1999N+02031MA1999999100291MD1710291+9999REMSYN076AAXX  09061 58314 32670 20902 10289 20202 30029 40113 57029 82100 333 20203;EQDQ01  00002PRCP99
0122583140999992000100909004+31400+116320FM-12+006899999V0200901N002012200019N0200001N1+02701+02121101081ADDGA1001+999999999GF100991001001999999001001MD1710051+9999REMSYN054AAXX  09091 58314 42970 00902 10270 20212 40108 57005;
0173583140999992000100912004+31400+116320FM-12+006899999V0203201N002012200019N0200001N1+02321+02111101241ADDAA199000091GA1001+999999999GF100991001001999999001001MA1999999100391MD1210151+9999REMSYN060AAXX  09121 58314 32970 03202 10232 20211 30039 40124 52015;EQDQ01  00002PRCP99
0122583140999992000100915004+31400+116320FM-12+006899999V0203201N001012200019N0200001N1+02131+02021101301ADDGA1001+999999999GF100991001001999999001001MD1210061+9999REMSYN054AAXX  09151 58314 42970 03201 10213 20202 40130 52006;
0196583140999992000100918004+31400+116320FM-12+006899999V0209999C000012200019N0120001N1+02021+01961101251ADDAA199000091GA1001+999999999GF100991001001999999001001KA1999M+02901MA1999999100411MD1710041+9999REMSYN070AAXX  09181 58314 32962 00000 10202 20196 30041 40125 57004 333 10290;EQDQ01  00002PRCP99
0134583140999992000100921004+31400+116320FM-12+006899999V0203401N001012200019N0070001N1+01901+01871101231ADDGA1001+999999999GF100991001001999999001001MD1710031+9999MW1101REMSYN060AAXX  09211 58314 41957 03401 10190 20187 40123 57003 71000;
0203583140999992000101000004+31400+116320FM-12+006899999V0201101N001010006019N0008001N1+01881+01851101281ADDAA199000091AY141061GA1091+999999999GF109991091999999999999999MA1999999100431MD1210051+0031MW1431REMSYN076AAXX  10001 58314 31/08 91101 10188 20185 30043 40128 52005 74340 333 05352;EQDQ01  00002PRCP99
0142583140999992000101003004+31400+116320FM-12+006899999V0203201N002012200019N0150001N1+02701+01971101211ADDAY141031GA1001+999999999GF100991001001999999001001MD1710061+9999MW1001REMSYN060AAXX  10031 58314 41965 03202 10270 20197 40121 57006 70040;
0216583140999992000101006004+31400+116320FM-12+006899999V0200901N001012200019N0200001N1+03061+01941100971ADDAA199000091AY141061GA1001+999999999GF100991001001999999001001KA1999N+01831MA1999999100131MD1710241+9999MW1001REMSYN076AAXX  10061 58314 31970 00901 10306 20194 30013 40097 57024 70040 333 20183;EQDQ01  00002PRCP99
0122583140999992000101009004+31400+116320FM-12+006899999V0200201N001012200019N0200001N1+02981+01951101001ADDGA1001+999999999GF100991001001999999001001MD1210031+9999REMSYN054AAXX  10091 58314 42970 00201 10298 20195 40100 52003;
0173583140999992000101012004+31400+116320FM-12+006899999V0202701N002012200019N0150001N1+02381+02161101191ADDAA199000091GA1001+999999999GF100991001001999999001001MA1999999100341MD1410001+9999REMSYN060AAXX  10121 58314 32965 02702 10238 20216 30034 40119 54000;EQDQ01  00002PRCP99
0122583140999992000101015004+31400+116320FM-12+006899999V0209999C000012200019N0150001N1+02201+02051101321ADDGA1001+999999999GF100991001001999999001001MD1210141+9999REMSYN054AAXX  10151 58314 42965 00000 10220 20205 40132 52014;
0198583140999992000101018004+31400+116320FM-12+006899999V0200401N002019999999N0080001N1+02061+02001101451ADDAA199000091GF108991081001999999071999KA1999M+03111MA1999999100611MD1210131+9999MW1101REMSYN082AAXX  10181 58314 31958 80402 10206 20200 30061 40145 52013 71000 8807/ 333 10311;EQDQ01  00002PRCP99
0112583140999992000101021004+31400+116320FM-12+006899999V0200401N001019999999N0100001N1+01901+01841101401ADDGF108991081001999999071999MD1710051+9999REMSYN060AAXX  10211 58314 42960 80401 10190 20184 40140 57005 8807/;
0186583140999992000101100004+31400+116320FM-12+006899999V0200201N002019999999N0060001N1+01681+01611101701ADDAA106000191AY161061GF108991081001999999071999MA1999999100841MD1210281+0401MW1601REMSYN094AAXX  11001 58314 11956 80202 10168 20161 30084 40170 52028 69921 76060 8807/ 333 00452 70002;
0140583140999992000101103004+31400+116320FM-12+006899999V0203601N002019999999N0080001N1+01701+01561101801ADDAY161031AY261031GF108991081001999999071999MD1210101+9999MW1601REMSYN066AAXX  11031 58314 41958 83602 10170 20156 40180 52010 76066 8807/;
0201583140999992000101106004+31400+116320FM-12+006899999V0200201N001019999999N0120001N1+01871+01551101761ADDAA106000791AY161061AY261061GF108991081001999999071999KA1999N+01601MA1999999100901MD1710041+9999MW1211REMSYN088AAXX  11061 58314 11962 80201 10187 20155 30090 40176 57004 69901 72166 8807/ 333 20160;
0112583140999992000101109004+31400+116320FM-12+006899999V0203401N002019999999N0120001N1+01721+01481101931ADDGF108991081001999999071999MD1210161+9999REMSYN060AAXX  11091 58314 42962 83402 10172 20148 40193 52016 8807/;
0162583140999992000101112004+31400+116320FM-12+006899999V0202901N002019999999N0120001N1+01651+01561102231ADDAA106000191GF108991081001999999071999MA1999999101361MD1210301+9999MW1601REMSYN078AAXX  11121 58314 11962 82902 10165 20156 30136 40223 52030 69911 76000 8807/;
0140583140999992000101115004+31400+116320FM-12+006899999V0200201N004019999999N0120001N1+01501+01431102521ADDAY161031AY261031GF108991081001999999071999MD1210281+9999MW1601REMSYN066AAXX  11151 58314 41962 80204 10150 20143 40252 52028 76066 8807/;
0140583140999992000101118004+31400+116320FM-12+006899999V0200401N002019999999N0100001N1+01261+01221999999ADDGF108991999999999999999999MA1999999101791REMSYN087AAXX  11181 58314 11960 80402 10126 20122 30179 4027 52015 60071 76066 8802/ 333 10208;
0161583140999992000101121004+31400+116320FM-12+006899999V0200201N001019999999N0070001N1+01161+01121102771ADDAA124011291AY161031AY261031GF108991081001999999021999MD1210101+9999MW1601REMSYN076AAXX  11211 58314 41957 80201 10116 20112 40277 52010 76066 8802/ 333 70113;
0194583140999992000101200004+31400+116320FM-12+006899999V0203401N002010075019N0080001N1+01041+00981103001ADDAA106007991AY161061AY261061GF108991081051008001999999MA1999999102111MD1210221+1301MW1601REMSYN094AAXX  12001 58314 11558 83402 10104 20098 30211 40300 52022 60081 76066 885// 333 01356 70148;
0140583140999992000101203004+31400+116320FM-12+006899999V0200401N001010075019N0090001N1+01061+01001103181ADDAY161031AY261031GF108991081051008001999999MD1210181+9999MW1601REMSYN066AAXX  12031 58314 41559 80401 10106 20100 40318 52018 76066 885//;
0187583140999992000101206004+31400+116320FM-12+006899999V0201101N002010075019N0070001N1+01061+01001102821ADDAA106006191AY161061AY261061GF108991081051008001999999MA1999999101931MD1710361+9999MW1601REMSYN087AAXX  12061 58314 11557 81102 10106 20100 30193 40282 57036 60061 76066 885// 33 20103;
0140583140999992000101209004+31400+116320FM-12+006899999V0200701N002010075019N0080001N1+01081+01021102831ADDAY161031AY261031GF108991081051008001999999MD1210011+9999MW1601REMSYN066AAXX  12091 58314 41558 80702 10108 20102 40283 52001 76066 885//;
0178583140999992000101212004+31400+116320FM-12+006899999V0200901N001010075019N0070001N1+01081+01021102931ADDAA106007191AY161061AY261061GF108991081051008001999999MA1999999102031MD1210091+9999MW1601REMSYN078AAXX  12121 58314 11557 80901 10108 20102 30203 40293 52009 60071 76066 885//;
0140583140999992000101215004+31400+116320FM-12+006899999V0202901N001010075019N0060001N1+01061+01001102871ADDAY161031AY261031GF108991081051008001999999MD1710061+9999MW1601REMSYN066AAXX  12151 58314 41556 82901 10106 20100 40287 57006 76066 885//;
0201583140999992000101218004+31400+116320FM-12+006899999V0200701N002010075019N0060001N1+01001+00921102831ADDAA106006191AY161061AY261061GF108991081051008001999999KA1999M+01641MA1999999101931MD1710041+9999MW1601REMSYN088AAXX  12181 58314 11556 80702 10100 20092 30193 40283 57004 60061 76066 885// 333 10164;
0161583140999992000101221004+31400+116320FM-12+006899999V0200201N001010075019N0060001N1+00121+00041102821ADDAA124024991AY161031AY261031GF108991081051008001999999MD1710021+9999MW1601REMSYN076AAXX  12211 58314 41556 80201 10012 20004 40282 57002 76066 885// 333 70249;
0194583140999992000101300004+31400+116320FM-12+006899999V0209999C000010075019N0080001N1+01011+00951102871ADDAA106007991AY161061AY261061GF108991081051008001999999MA1999999101971MD1210061-0101MW1601REMSYN094AAXX  13001 58314 11558 80000 10101 20095 30197 40287 52006 60081 76066 885// 333 05100 70263;
0140583140999992000101303004+31400+116320FM-12+006899999V0202701N002010075019N0100001N1+01121+00941102841ADDAY161031AY261031GF108991081051008001999999MD1710031+9999MW1211REMSYN066AAXX  13031 58314 41560 82702 10112 20094 40284 57003 72166 885//;
0193583140999992000101306004+31400+116320FM-12+006899999V0203401N002010075019N0100001N1+01181+00841102591ADDAA106000891AY161061GF108991081051008001999999KA1999N+00981MA1999999101701MD1710241+9999MW1001REMSYN088AAXX  13061 58314 11560 83402 10118 20084 30170 40259 57024 69971 70060 885// 333 20098;
0112583140999992000101309004+31400+116320FM-12+006899999V0200901N002010075019N0100001N1+01181+00881102571ADDGF108991081051008001999999MD1710021+9999REMSYN060AAXX  13091 58314 42560 80902 10118 20088 40257 57002 885//;
0144583140999992000101312004+31400+116320FM-12+006899999V0209999C000010075019N0120001N1+01121+00861102691ADDAA199000021GF108991081051008001999999MA1999999101801MD1210121+9999REMSYN066AAXX  13121 58314 32562 80000 10112 20086 30180 40269 52012 885//;
0132583140999992000101315004+31400+116320FM-12+006899999V0209999C000010075019N0120001N1+01101+00921102651ADDAY161031GF108991081051008001999999MD1710041+9999MW1601REMSYN066AAXX  13151 58314 41562 80000 10110 20092 40265 57004 76060 885//;
0193583140999992000101318004+31400+116320FM-12+006899999V0209999C000019999999N0120001N1+01051+00781102661ADDAA106000391AY161061GF108991081001999999071999KA1999M+01201MA1999999101771MD1210011+9999MW1601REMSYN088AAXX  13181 58314 11962 80000 10105 20078 30177 40266 52001 69931 76060 8807/ 333 10120;
0153583140999992000101321004+31400+116320FM-12+006899999V0201601N001019999999N0120001N1+00971+00721102621ADDAA124006191AY161031GF108991081001999999071999MD1710041+9999MW1001REMSYN076AAXX  13211 58314 41962 81601 10097 20072 40262 57004 70060 8807/ 333 70061;
0186583140999992000101400004+31400+116320FM-12+006899999V0201401N001019999999N0200001N1+01021+00611102661ADDAA106000791AY161061GF108991081001999999071999MA1999999101771MD1210041-0201MW1001REMSYN094AAXX  14001 58314 11970 81401 10102 20061 30177 40266 52004 69901 70060 8807/ 333 05200 70010;
0112583140999992000101403004+31400+116320FM-12+006899999V0200701N001019999999N0200001N1+01171+00661102671ADDGF108991081001999999071999MD1210011+9999REMSYN060AAXX  14031 58314 42970 80701 10117 20066 40267 52001 8807/;
0167583140999992000101406004+31400+116320FM-12+006899999V0200701N001019999999N0200001N1+01221+00791102541ADDAA199000021GF108991081001999999071999KA1999N+00961MA1999999101651MD1710131+9999REMSYN076AAXX  14061 58314 32970 80701 10122 20079 30165 40254 57013 8807/ 333 20096;
0112583140999992000101409004+31400+116320FM-12+006899999V0200901N001019999999N0200001N1+01251+00871102501ADDGF108991081001999999071999MD1710041+9999REMSYN060AAXX  14091 58314 42970 80901 10125 20087 40250 57004 8807/;
0163583140999992000101412004+31400+116320FM-12+006899999V0201401N001019999999N0150001N1+01211+00991102611ADDAA199000091GF107991071001999999071999MA1999999101721MD1210111+9999REMSYN066AAXX  14121 58314 32965 71401 10121 20099 30172 40261 52011 8707/;EQDQ01  00002PRCP99
0112583140999992000101415004+31400+116320FM-12+006899999V0202701N002019999999N0150001N1+01181+01081102641ADDGF107991071001999999071999MD1210031+9999REMSYN060AAXX  14151 58314 42965 72702 10118 20108 40264 52003 8707/;
0186583140999992000101418004+31400+116320FM-12+006899999V0209999C000019999999N0120001N1+01141+01081102691ADDAA199000091GF108991081001999999071999KA1999M+01271MA1999999101801MD1210051+9999REMSYN076AAXX  14181 58314 32962 80000 10114 20108 30180 40269 52005 8807/ 333 10127;EQDQ01  00002PRCP99
0112583140999992000101421004+31400+116320FM-12+006899999V0209999C000019999999N0120001N1+01121+01061102701ADDGF108991081001999999071999MD1210011+9999REMSYN060AAXX  14211 58314 42962 80000 10112 20106 40270 52001 8807/;
0185583140999992000101500004+31400+116320FM-12+006899999V0202701N002019999999N0080001N1+01181+01081102891ADDAA199000091GF108991081001999999071999MA1999999102001MD1210191+0021MW1101REMSYN082AAXX  15001 58314 31958 82702 10118 20108 30200 40289 52019 71000 8807/ 333 00202;EQDQ01  00002PRCP99
0112583140999992000101503004+31400+116320FM-12+006899999V0203401N001019999999N0100001N1+01381+00951102981ADDGF108991081001999999071999MD1210091+9999REMSYN060AAXX  15031 58314 42960 83401 10138 20095 40298 52009 8807/;
0186583140999992000101506004+31400+116320FM-12+006899999V0209999C000019999999N0150001N1+01641+00791102831ADDAA199000091GF107991071001999999071999KA1999N+01111MA1999999101941MD1710151+9999REMSYN076AAXX  15061 58314 32965 70000 10164 20079 30194 40283 57015 8707/ 333 20111;EQDQ01  00002PRCP99
0112583140999992000101509004+31400+116320FM-12+006899999V0209999C000019999999N0200001N1+01671+00851102771ADDGF107991071001999999041999MD1710061+9999REMSYN060AAXX  15091 58314 42970 70000 10167 20085 40277 57006 8704/;
0163583140999992000101512004+31400+116320FM-12+006899999V0209999C000019999999N0150001N1+01401+01201102821ADDAA199000091GF106991061001999999041001MA1999999101931MD1210051+9999REMSYN066AAXX  15121 58314 32965 60000 10140 20120 30193 40282 52005 86040;EQDQ01  00002PRCP99
0112583140999992000101515004+31400+116320FM-12+006899999V0209999C000019999999N0150001N1+01221+01121102881ADDGF106991061001999999041001MD1210061+9999REMSYN060AAXX  15151 58314 42965 60000 10122 20112 40288 52006 86040;
0186583140999992000101518004+31400+116320FM-12+006899999V0209999C000019999999N0150001N1+01121+01061102841ADDAA199000091GF107991071001999999071999KA1999M+01701MA1999999101951MD1710041+9999REMSYN076AAXX  15181 58314 32965 70000 10112 20106 30195 40284 57004 8707/ 333 10170;EQDQ01  00002PRCP99
0112583140999992000101521004+31400+116320FM-12+006899999V0209999C000019999999N0120001N1+01141+01041102831ADDGF107991071001999999071999MD1710011+9999REMSYN060AAXX  15211 58314 42962 70000 10114 20104 40283 57001 8707/;
0186583140999992000101600004+31400+116320FM-12+006899999V0209999C000019999999N0090001N1+01201+01141102921ADDAA106000891AY161061GF108991081001999999071999MA1999999102031MD1210091+0001MW1601REMSYN094AAXX  16001 58314 11959 80000 10120 20114 30203 40292 52009 69981 76060 8807/ 333 00000 70008;
0140583140999992000101603004+31400+116320FM-12+006899999V0209999C000019999999N0120001N1+01341+01171102741ADDAY161031AY261031GF108991081001999999071999MD1710181+9999MW1601REMSYN066AAXX  16031 58314 41962 80000 10134 20117 40274 57018 76066 8807/;
0201583140999992000101606004+31400+116320FM-12+006899999V0200701N003019999999N0150001N1+01621+01341102461ADDAA106002091AY161061AY261061GF108991081001999999071999KA1999N+01081MA1999999101581MD1710271+9999MW1601REMSYN088AAXX  16061 58314 11965 80703 10162 20134 30158 40246 57027 60021 76066 8807/ 333 20108;
0140583140999992000101609004+31400+116320FM-12+006899999V0200701N002019999999N0120001N1+01561+01401102411ADDAY161031AY261031GF108991081001999999071999MD1710051+9999MW1601REMSYN066AAXX  16091 58314 41962 80702 10156 20140 40241 57005 76066 8807/;
0178583140999992000101612004+31400+116320FM-12+006899999V0200201N001019999999N0150001N1+01491+01421102381ADDAA106002091AY161061AY261061GF108991081001999999071999MA1999999101501MD1710031+9999MW1601REMSYN078AAXX  16121 58314 11965 80201 10149 20142 30150 40238 57003 60021 76066 8807/;
0140583140999992000101615004+31400+116320FM-12+006899999V0203401N001019999999N0120001N1+01451+01401102301ADDAY161031AY261031GF108991081001999999071999MD1710081+9999MW1601REMSYN066AAXX  16151 58314 41962 83401 10145 20140 40230 57008 76066 8807/;
0201583140999992000101618004+31400+116320FM-12+006899999V0202701N002019999999N0080001N1+01411+01321102131ADDAA106004191AY161061AY261061GF108991081001999999071999KA1999M+01671MA1999999101251MD1710171+9999MW1601REMSYN088AAXX  16181 58314 11958 82702 10141 20132 30125 40213 57017 60041 76066 8807/ 333 10167;
0161583140999992000101621004+31400+116320FM-12+006899999V0202901N002010075019N0070001N1+01391+01321102061ADDAA124009191AY161031AY261031GF108991081051008001999999MD1710071+9999MW1601REMSYN076AAXX  16211 58314 41557 82902 10139 20132 40206 57007 76066 885// 333 70092;
0186583140999992000101700004+31400+116320FM-12+006899999V0209999C000010075019N0080001N1+01421+01331102121ADDAA106000891AY161061GF108991081051008001999999MA1999999101241MD1210061-0801MW1101REMSYN094AAXX  17001 58314 11558 80000 10142 20133 30124 40212 52006 69981 71060 885// 333 05802 70089;
0117583140999992000101703004+31400+116320FM-12+006899999V0209999C000019999999N0080001N1+01481+01321102151ADDGF108991999999008001999999MD1210031+9999REMSYN065AAXX  17031 58314 41558 80000 10148 20132 40215 52003 7100 885//;
0193583140999992000101706004+31400+116320FM-12+006899999V0201601N001010075019N0080001N1+01521+01361101991ADDAA106000791AY161061GF108991081051008001999999KA1999N+01361MA1999999101111MD1710161+9999MW1101REMSYN088AAXX  17061 58314 11558 81601 10152 20136 30111 40199 57016 69901 71060 885// 333 20136;
0112583140999992000101709004+31400+116320FM-12+006899999V0209999C000019999999N0150001N1+01601+01331102041ADDGF107991071001999999041999MD1210051+9999REMSYN060AAXX  17091 58314 42965 70000 10160 20133 40204 52005 8704/;
0163583140999992000101712004+31400+116320FM-12+006899999V0209999C000019999999N0100001N1+01471+01381102171ADDAA199000091GF108991081001999999071999MA1999999101291MD1210131+9999REMSYN066AAXX  17121 58314 32960 80000 10147 20138 30129 40217 52013 8807/;EQDQ01  00002PRCP99
0112583140999992000101715004+31400+116320FM-12+006899999V0209999C000019999999N0100001N1+01431+01361102271ADDGF108991081001999999071999MD1210101+9999REMSYN060AAXX  17151 58314 42960 80000 10143 20136 40227 52010 8807/;
0186583140999992000101718004+31400+116320FM-12+006899999V0202901N002019999999N0120001N1+01441+01391102271ADDAA199000091GF108991081001999999071999KA1999M+01621MA1999999101391MD1410001+9999REMSYN076AAXX  17181 58314 32962 82902 10144 20139 30139 40227 54000 8807/ 333 10162;EQDQ01  00002PRCP99
0153583140999992000101721004+31400+116320FM-12+006899999V0200901N002019999999N0090001N1+01451+01401102291ADDAA124001891AY161031GF108991081001999999071999MD1210021+9999MW1601REMSYN076AAXX  17211 58314 41959 80902 10145 20140 40229 52002 76060 8807/ 333 70018;
0194583140999992000101800004+31400+116320FM-12+006899999V0200901N002019999999N0100001N1+01431+01271102391ADDAA106001091AY161061AY261061GF108991081001999999071999MA1999999101511MD1210101+0301MW1211REMSYN094AAXX  18001 58314 11960 80902 10143 20127 30151 40239 52010 60011 72166 8807/ 333 00300 70014;
0112583140999992000101803004+31400+116320FM-12+006899999V0200901N003019999999N0100001N1+01541+01331102371ADDGF108991081001999999071999MD1710021+9999REMSYN060AAXX  18031 58314 42960 80903 10154 20133 40237 57002 8807/;
0167583140999992000101806004+31400+116320FM-12+006899999V0201101N003019999999N0120001N1+01751+01331102041ADDAA199000021GF108991081001999999071999KA1999N+01421MA1999999101171MD1710321+9999REMSYN076AAXX  18061 58314 32962 81103 10175 20133 30117 40204 57032 8807/ 333 20142;
0112583140999992000101809004+31400+116320FM-12+006899999V0200901N002019999999N0120001N1+01711+01401101941ADDGF108991081001999999071999MD1710101+9999REMSYN060AAXX  18091 58314 42962 80902 10171 20140 40194 57010 8807/;
0144583140999992000101812004+31400+116320FM-12+006899999V0209999C000019999999N0120001N1+01611+01451101961ADDAA199000021GF108991081001999999071999MA1999999101091MD1210021+9999REMSYN066AAXX  18121 58314 32962 80000 10161 20145 30109 40196 52002 8807/;
0112583140999992000101815004+31400+116320FM-12+006899999V0202701N002019999999N0120001N1+01511+01401101951ADDGF108991081001999999071999MD1710011+9999REMSYN060AAXX  18151 58314 42962 82702 10151 20140 40195 57001 8807/;
0186583140999992000101818004+31400+116320FM-12+006899999V0202701N001019999999N0120001N1+01451+01401101901ADDAA199000091GF107991071001999999071999KA1999M+01771MA1999999101031MD1710051+9999REMSYN076AAXX  18181 58314 32962 72701 10145 20140 30103 40190 57005 8707/ 333 10177;EQDQ01  00002PRCP99
0133583140999992000101821004+31400+116320FM-12+006899999V0200701N001019999999N0120001N1+01421+01351101831ADDAA124000191GF107991071001999999071999MD1710071+9999REMSYN070AAXX  18211 58314 42962 70701 10142 20135 40183 57007 8707/ 333 70001;
0203583140999992000101900004+31400+116320FM-12+006899999V0209999C000010006019N0008001N1+01391+01371101761ADDAA199000091AY141061GA1091+999999999GF109991091999999999999999MA1999999100891MD1710071+0061MW1431REMSYN076AAXX  19001 58314 31/08 90000 10139 20137 30089 40176 57007 74340 333 05600;EQDQ01  00002PRCP99
0132583140999992000101903004+31400+116320FM-12+006899999V0209999C000019999999N0080001N1+01741+01461101721ADDAY141031GF107991071001999999071999MD1710041+9999MW1101REMSYN066AAXX  19031 58314 41958 70000 10174 20146 40172 57004 71040 8707/;
0201583140999992000101906004+31400+116320FM-12+006899999V0200901N002019999999N0100001N1+01811+01591101601ADDAA106000891AY161061AY241061GF108991081001999999071999KA1999N+01371MA1999999100731MD1710121+9999MW1601REMSYN088AAXX  19061 58314 11960 80902 10181 20159 30073 40160 57012 69971 76064 8807/ 333 20137;
0140583140999992000101909004+31400+116320FM-12+006899999V0203201N001019999999N0150001N1+01651+01441101571ADDAY161031AY261031GF108991081001999999071999MD1710031+9999MW1601REMSYN066AAXX  19091 58314 41965 83201 10165 20144 40157 57003 76066 8807/;
0178583140999992000101912004+31400+116320FM-12+006899999V0202901N001010075019N0120001N1+01541+01451101781ADDAA106007191AY161061AY261061GF108991081051008001999999MA1999999100911MD1210211+9999MW1601REMSYN078AAXX  19121 58314 11562 82901 10154 20145 30091 40178 52021 60071 76066 885//;
0140583140999992000101915004+31400+116320FM-12+006899999V0202901N001010075019N0120001N1+01541+01451101841ADDAY161031AY261031GF108991081051008001999999MD1210061+9999MW1601REMSYN066AAXX  19151 58314 41562 82901 10154 20145 40184 52006 76066 885//;
0201583140999992000101918004+31400+116320FM-12+006899999V0209999C000010120019N0120001N1+01521+01451101811ADDAA106001091AY161061AY261061GF108991081051012501999999KA1999M+01851MA1999999100941MD1710031+9999MW1211REMSYN088AAXX  19181 58314 11662 80000 10152 20145 30094 40181 57003 60011 72166 885// 333 10185;
0145583140999992000101921004+31400+116320FM-12+006899999V0201401N001010120019N0100001N1+01521+01471101781ADDAA124008491GF108991081051012501999999MD1710031+9999MW1601REMSYN076AAXX  19211 58314 41660 81401 10152 20147 40178 57003 76000 885// 333 70084;
0186583140999992000102000004+31400+116320FM-12+006899999V0209999C000010075019N0080001N1+01551+01461101961ADDAA106000791AY161061GF108991081051008001999999MA1999999101091MD1210181+0201MW1101REMSYN094AAXX  20001 58314 11558 80000 10155 20146 30109 40196 52018 69901 71060 885// 333 00202 70084;
0124583140999992000102003004+31400+116320FM-12+006899999V0200901N001010120019N0080001N1+01671+01501101971ADDGF108991081051012501999999MD1210011+9999MW1101REMSYN066AAXX  20031 58314 41658 80901 10167 20150 40197 52001 71000 885//;
0167583140999992000102006004+31400+116320FM-12+006899999V0200701N003010120019N0120001N1+01871+01551101881ADDAA199000021GF107991071051012501999999KA1999N+01501MA1999999101011MD1710091+9999REMSYN076AAXX  20061 58314 32662 70703 10187 20155 30101 40188 57009 875// 333 20150;
0112583140999992000102009004+31400+116320FM-12+006899999V0200401N003010120019N0100001N1+01861+01591101911ADDGF108991081051012501999999MD1210031+9999REMSYN060AAXX  20091 58314 42660 80403 10186 20159 40191 52003 885//;
0163583140999992000102012004+31400+116320FM-12+006899999V0209999C000019999999N0150001N1+01781+01631102041ADDAA199000091GF108991081001999999071999MA1999999101171MD1210131+9999REMSYN066AAXX  20121 58314 32965 80000 10178 20163 30117 40204 52013 8807/;EQDQ01  00002PRCP99
0112583140999992000102015004+31400+116320FM-12+006899999V0209999C000019999999N0150001N1+01751+01651102051ADDGF108991081001999999071999MD1210011+9999REMSYN060AAXX  20151 58314 42965 80000 10175 20165 40205 52001 8807/;
0198583140999992000102018004+31400+116320FM-12+006899999V0209999C000019999999N0080001N1+01711+01631101971ADDAA199000091GF108991081001999999071999KA1999M+02001MA1999999101101MD1710081+9999MW1101REMSYN082AAXX  20181 58314 31958 80000 10171 20163 30110 40197 57008 71000 8807/ 333 10200;EQDQ01  00002PRCP99
0145583140999992000102021004+31400+116320FM-12+006899999V0209999C000019999999N0060001N1+01701+01621101891ADDAA124000791GF108991081001999999071999MD1710081+9999MW1101REMSYN076AAXX  20211 58314 41956 80000 10170 20162 40189 57008 71000 8807/ 333 79999;
0186583140999992000102100004+31400+116320FM-12+006899999V0202701N002019999999N0080001N1+01721+01651101971ADDAA106000791AY161061GF108991081001999999071999MA1999999101101MD1210081+0001MW1101REMSYN094AAXX  21001 58314 11958 82702 10172 20165 30110 40197 52008 69901 71060 8807/ 333 00002 79999;
0193583140999992000102106004+31400+116320FM-12+006899999V0200701N001010075019N0080001N1+01841+01691101661ADDAA106002091AY161061GF108991081051008001999999KA1999N+01661MA1999999100801MD1710261+9999MW1601REMSYN088AAXX  21061 58314 11558 80701 10184 20169 30080 40166 57026 60021 76060 885// 333 20166;
0132583140999992000102109004+31400+116320FM-12+006899999V0209999C000010075019N0080001N1+01851+01721101661ADDAY161031GF108991081051008001999999MD1410001+9999MW1101REMSYN066AAXX  21091 58314 41558 80000 10185 20172 40166 54000 71060 885//;
0170583140999992000102112004+31400+116320FM-12+006899999V0209999C000019999999N0100001N1+01811+01731101701ADDAA106000791AY161061GF108991081001999999071999MA1999999100841MD1210041+9999MW1001REMSYN078AAXX  21121 58314 11960 80000 10181 20173 30084 40170 52004 69901 70060 8807/;
0132583140999992000102115004+31400+116320FM-12+006899999V0209999C000019999999N0100001N1+01791+01721101711ADDAY161031GF108991081001999999071999MD1210011+9999MW1601REMSYN066AAXX  21151 58314 41960 80000 10179 20172 40171 52001 76060 8807/;
0193583140999992000102118004+31400+116320FM-12+006899999V0209999C000019999999N0120001N1+01781+01711101541ADDAA106007191AY161061GF108991081001999999071999KA1999M+01881MA1999999100681MD1710171+9999MW1601REMSYN088AAXX  21181 58314 11962 80000 10178 20171 30068 40154 57017 60071 76060 8807/ 333 10188;
0161583140999992000102121004+31400+116320FM-12+006899999V0202901N001019999999N0150001N1+01761+01711101451ADDAA124009191AY161031AY261031GF108991081001999999071999MD1710091+9999MW1601REMSYN076AAXX  21211 58314 41965 82901 10176 20171 40145 57009 76066 8807/ 333 70092;
0194583140999992000102200004+31400+116320FM-12+006899999V0201401N002010075019N0070001N1+01801+01731101421ADDAA106002091AY161061AY261061GF108991081051008001999999MA1999999100561MD1710031-0501MW1601REMSYN094AAXX  22001 58314 11557 81402 10180 20173 30056 40142 57003 60021 76066 885// 333 05501 70102;
0140583140999992000102203004+31400+116320FM-12+006899999V0202201N001010075019N0090001N1+01921+01791101391ADDAY161031AY261031GF108991081051008001999999MD1710031+9999MW1601REMSYN066AAXX  22031 58314 41559 82201 10192 20179 40139 57003 76066 885//;
0193583140999992000102206004+31400+116320FM-12+006899999V0203401N001010075019N0120001N1+02041+01851101161ADDAA106004191AY161061GF108991081051008001999999KA1999N+01741MA1999999100301MD1710231+9999MW1001REMSYN088AAXX  22061 58314 11562 83401 10204 20185 30030 40116 57023 60041 70060 885// 333 20174;
0132583140999992000102209004+31400+116320FM-12+006899999V0201401N001010075019N0090001N1+02001+01911101161ADDAY161031GF108991081051008001999999MD1410001+9999MW1601REMSYN066AAXX  22091 58314 41559 81401 10200 20191 40116 54000 76060 885//;
0170583140999992000102212004+31400+116320FM-12+006899999V0200701N001010075019N0080001N1+01921+01861101371ADDAA106000391AY161061GF108991081051008001999999MA1999999100511MD1210211+9999MW1601REMSYN078AAXX  22121 58314 11558 80701 10192 20186 30051 40137 52021 69931 76060 885//;
0140583140999992000102215004+31400+116320FM-12+006899999V0201401N001010075019N0080001N1+01901+01841101481ADDAY161031AY261031GF108991081051008001999999MD1210111+9999MW1601REMSYN066AAXX  22151 58314 41558 81401 10190 20184 40148 52011 76066 885//;
0201583140999992000102218004+31400+116320FM-12+006899999V0209999C000019999999N0100001N1+01871+01811101421ADDAA106001091AY161061AY261061GF108991081001999999071999KA1999M+02101MA1999999100561MD1710061+9999MW1601REMSYN088AAXX  22181 58314 11960 80000 10187 20181 30056 40142 57006 60011 76066 8807/ 333 10210;
0153583140999992000102221004+31400+116320FM-12+006899999V0209999C000019999999N0100001N1+01861+01801101371ADDAA124006691AY161031GF108991081001999999071999MD1710051+9999MW1001REMSYN076AAXX  22211 58314 41960 80000 10186 20180 40137 57005 70060 8807/ 333 70066;
0186583140999992000102300004+31400+116320FM-12+006899999V0209999C000019999999N0080001N1+01821+01771101511ADDAA106000191AY161061GF108991081001999999071999MA1999999100651MD1210141+0101MW1601REMSYN094AAXX  23001 58314 11958 80000 10182 20177 30065 40151 52014 69911 76060 8807/ 333 00100 70057;
0132583140999992000102303004+31400+116320FM-12+006899999V0200401N002019999999N0080001N1+01861+01781101521ADDAY161031GF108991081001999999071999MD1210011+9999MW1601REMSYN066AAXX  23031 58314 41958 80402 10186 20178 40152 52001 76060 8807/;
0193583140999992000102306004+31400+116320FM-12+006899999V0203401N002019999999N0080001N1+01881+01821101331ADDAA106000591AY161061GF108991081001999999071999KA1999N+01801MA1999999100471MD1710191+9999MW1601REMSYN088AAXX  23061 58314 11958 83402 10188 20182 30047 40133 57019 69961 76060 8807/ 333 20180;
0140583140999992000102309004+31400+116320FM-12+006899999V0209999C000019999999N0080001N1+01861+01781101341ADDAY161031AY261031GF108991081001999999071999MD1210011+9999MW1601REMSYN066AAXX  23091 58314 41958 80000 10186 20178 40134 52001 76066 8807/;
0178583140999992000102312004+31400+116320FM-12+006899999V0209999C000010075019N0060001N1+01861+01811101481ADDAA106000591AY161061AY261061GF108991081051008001999999MA1999999100621MD1210141+9999MW1601REMSYN078AAXX  23121 58314 11556 80000 10186 20181 30062 40148 52014 69961 76066 885//;
0140583140999992000102315004+31400+116320FM-12+006899999V0202201N002010075019N0040001N1+01861+01831101491ADDAY161031AY261031GF108991081051008001999999MD1210011+9999MW1601REMSYN066AAXX  23151 58314 41540 82202 10186 20183 40149 52001 76066 885//;
0201583140999992000102318004+31400+116320FM-12+006899999V0209999C000010075019N0050001N1+01861+01811101471ADDAA106000191AY161061AY261061GF108991081051008001999999KA1999M+01911MA1999999100611MD1710021+9999MW1601REMSYN088AAXX  23181 58314 11550 80000 10186 20181 30061 40147 57002 69921 76066 885// 333 10191;
0161583140999992000102321004+31400+116320FM-12+006899999V0209999C000010075019N0050001N1+01841+01791101461ADDAA124001591AY161031AY261031GF108991081051008001999999MD1710011+9999MW1601REMSYN076AAXX  23211 58314 41550 80000 10184 20179 40146 57001 76066 885// 333 70015;
0194583140999992000102400004+31400+116320FM-12+006899999V0201401N001010075019N0070001N1+01881+01851101721ADDAA106000191AY161061AY261061GF108991081051008001999999MA1999999100861MD1210261+0201MW1601REMSYN094AAXX  24001 58314 11557 81401 10188 20185 30086 40172 52026 69921 76066 885// 333 00201 70016;
0132583140999992000102403004+31400+116320FM-12+006899999V0203401N003010120019N0120001N1+02001+01771101801ADDAY161031GF108991081051012501999999MD1210081+9999MW1601REMSYN066AAXX  24031 58314 41662 83403 10200 20177 40180 52008 76060 885//;
0193583140999992000102406004+31400+116320FM-12+006899999V0200901N001010120019N0150001N1+02011+01781101711ADDAA106000191AY161061GF108991081051012501999999KA1999N+01831MA1999999100851MD1710091+9999MW1001REMSYN088AAXX  24061 58314 11665 80901 10201 20178 30085 40171 57009 69911 70060 885// 333 20183;
0112583140999992000102409004+31400+116320FM-12+006899999V0203401N001010075019N0120001N1+01861+01731101771ADDGF108991081051008001999999MD1210061+9999REMSYN060AAXX  24091 58314 42562 83401 10186 20173 40177 52006 885//;
0170583140999992000102412004+31400+116320FM-12+006899999V0203401N002010075019N0120001N1+01801+01721102011ADDAA106000791AY161061GF108991081051008001999999MA1999999101141MD1210231+9999MW1601REMSYN078AAXX  24121 58314 11562 83402 10180 20172 30114 40201 52023 69901 76060 885//;
0140583140999992000102415004+31400+116320FM-12+006899999V0203201N002010075019N0090001N1+01601+01501102241ADDAY161031AY261031GF108991081051008001999999MD1210231+9999MW1601REMSYN066AAXX  24151 58314 41559 83202 10160 20150 40224 52023 76066 885//;
0201583140999992000102418004+31400+116320FM-12+006899999V0203201N002010075019N0040001N1+01551+01461102301ADDAA106003091AY161061AY261061GF108991081051008001999999KA1999M+02051MA1999999101431MD1210061+9999MW1601REMSYN088AAXX  24181 58314 11540 83202 10155 20146 30143 40230 52006 60031 76066 885// 333 10205;
0161583140999992000102421004+31400+116320FM-12+006899999V0202901N002010075019N0040001N1+01501+01471102321ADDAA124004691AY161031AY261031GF108991081051008001999999MD1210021+9999MW1601REMSYN076AAXX  24211 58314 41540 82902 10150 20147 40232 52002 76066 885// 333 70046;
0194583140999992000102500004+31400+116320FM-12+006899999V0202001N002010075019N0080001N1+01401+01311102511ADDAA106003091AY161061AY261061GF108991081051008001999999MA1999999101631MD1210181+0801MW1601REMSYN094AAXX  25001 58314 11558 82002 10140 20131 30163 40251 52018 60031 76066 885// 333 00855 70061;
0140583140999992000102503004+31400+116320FM-12+006899999V0200901N002010075019N0080001N1+01401+01201102521ADDAY161031AY261031GF108991081051008001999999MD1210011+9999MW1211REMSYN066AAXX  25031 58314 41558 80902 10140 20120 40252 52001 72166 885//;
0193583140999992000102506004+31400+116320FM-12+006899999V0209999C000010075019N0060001N1+01381+01311102371ADDAA106000591AY161061GF108991081051008001999999KA1999N+01351MA1999999101491MD1710151+9999MW1601REMSYN088AAXX  25061 58314 11556 80000 10138 20131 30149 40237 57015 69951 76060 885// 333 20135;
0132583140999992000102509004+31400+116320FM-12+006899999V0203201N002010075019N0080001N1+01351+01161102521ADDAY161031GF108991081051008001999999MD1210151+9999MW1601REMSYN066AAXX  25091 58314 41558 83202 10135 20116 40252 52015 76060 885//;
0170583140999992000102512004+31400+116320FM-12+006899999V0203201N001010075019N0070001N1+01261+01201102741ADDAA106000891AY161061GF108991081051008001999999MA1999999101851MD1210211+9999MW1601REMSYN078AAXX  25121 58314 11557 83201 10126 20120 30185 40274 52021 69971 76060 885//;
0140583140999992000102515004+31400+116320FM-12+006899999V0203401N001010075019N0060001N1+01121+01061102771ADDAY161031AY261031GF108991081051008001999999MD1210031+9999MW1601REMSYN066AAXX  25151 58314 41556 83401 10112 20106 40277 52003 76066 885//;
0201583140999992000102518004+31400+116320FM-12+006899999V0202901N003010075019N0060001N1+01121+01061102631ADDAA106004191AY161061AY261061GF108991081051008001999999KA1999M+01581MA1999999101741MD1710141+9999MW1601REMSYN088AAXX  25181 58314 11556 82903 10112 20106 30174 40263 57014 60041 76066 885// 333 10158;
0161583140999992000102521004+31400+116320FM-12+006899999V0203201N001010075019N0060001N1+01121+01061102601ADDAA124009991AY161031AY261031GF108991081051008001999999MD1710031+9999MW1601REMSYN076AAXX  25211 58314 41556 83201 10112 20106 40260 57003 76066 885// 333 70098;
0194583140999992000102600004+31400+116320FM-12+006899999V0209999C000010075019N0050001N1+01151+01091102781ADDAA106004191AY161061AY261061GF108991081051008001999999MA1999999101891MD1210181+0301MW1601REMSYN094AAXX  26001 58314 11550 80000 10115 20109 30189 40278 52018 60041 76066 885// 333 00353 70096;
0140583140999992000102603004+31400+116320FM-12+006899999V0201101N003010075019N0050001N1+01241+01151102851ADDAY161031AY261031GF108991081051008001999999MD1210071+9999MW1601REMSYN066AAXX  26031 58314 41550 81103 10124 20115 40285 52007 76066 885//;
0201583140999992000102606004+31400+116320FM-12+006899999V0200901N003010075019N0050001N1+01271+01181102681ADDAA106007991AY161061AY261061GF108991081051008001999999KA1999N+01111MA1999999101791MD1710171+9999MW1601REMSYN088AAXX  26061 58314 11550 80903 10127 20118 30179 40268 57017 60081 76066 885// 333 20111;
0140583140999992000102609004+31400+116320FM-12+006899999V0200901N003010075019N0050001N1+01211+01131102661ADDAY161031AY261031GF108991081051008001999999MD1710021+9999MW1601REMSYN066AAXX  26091 58314 41550 80903 10121 20113 40266 57002 76066 885//;
0170583140999992000102612004+31400+116320FM-12+006899999V0200901N002010075019N0050001N1+01151+01011102761ADDAA106003091AY161061GF108991081051008001999999MA1999999101871MD1210101+9999MW1101REMSYN078AAXX  26121 58314 11550 80902 10115 20101 30187 40276 52010 60031 71060 885//;
0132583140999992000102615004+31400+116320FM-12+006899999V0200901N001010075019N0050001N1+01151+01051102791ADDAY161031GF108991081051008001999999MD1210031+9999MW1601REMSYN066AAXX  26151 58314 41550 80901 10115 20105 40279 52003 76060 885//;
0193583140999992000102618004+31400+116320FM-12+006899999V0203201N001010075019N0060001N1+01151+01091102801ADDAA106002091AY161061GF108991081051008001999999KA1999M+01301MA1999999101911MD1210011+9999MW1601REMSYN088AAXX  26181 58314 11556 83201 10115 20109 30191 40280 52001 60021 76060 885// 333 10130;
0161583140999992000102621004+31400+116320FM-12+006899999V0201101N001010075019N0070001N1+01181+01141102731ADDAA124016391AY161031AY261031GF108991081051008001999999MD1710071+9999MW1601REMSYN076AAXX  26211 58314 41557 81101 10118 20114 40273 57007 76066 885// 333 70162;
0194583140999992000102700004+31400+116320FM-12+006899999V0200401N002010075019N0080001N1+01221+01161102791ADDAA106003091AY161061AY261061GF108991081051008001999999MA1999999101901MD1210061+0001MW1601REMSYN094AAXX  27001 58314 11558 80402 10122 20116 30190 40279 52006 60031 76066 885// 333 00001 70154;
0132583140999992000102703004+31400+116320FM-12+006899999V0200901N003010075019N0080001N1+01331+01221102781ADDAY161031GF108991081051008001999999MD1710011+9999MW1601REMSYN066AAXX  27031 58314 41558 80903 10133 20122 40278 57001 76060 885//;
0193583140999992000102706004+31400+116320FM-12+006899999V0200901N002010075019N0100001N1+01491+01251102421ADDAA106000591AY161061GF108991081051008001999999KA1999N+01121MA1999999101541MD1710351+9999MW1211REMSYN088AAXX  27061 58314 11560 80902 10149 20125 30154 40242 57035 69961 72160 885// 333 20112;
0112583140999992000102709004+31400+116320FM-12+006899999V0200901N001019999999N0120001N1+01501+01231102391ADDGF108991081001999999071999MD1710031+9999REMSYN060AAXX  27091 58314 42962 80901 10150 20123 40239 57003 8807/;
0144583140999992000102712004+31400+116320FM-12+006899999V0202701N001019999999N0100001N1+01441+01301102481ADDAA199000021GF108991081001999999071999MA1999999101601MD1210091+9999REMSYN066AAXX  27121 58314 32960 82701 10144 20130 30160 40248 52009 8807/;
0112583140999992000102715004+31400+116320FM-12+006899999V0202501N001019999999N0100001N1+01411+01341102471ADDGF108991081001999999071999MD1710011+9999REMSYN060AAXX  27151 58314 42960 82501 10141 20134 40247 57001 8807/;
0167583140999992000102718004+31400+116320FM-12+006899999V0203401N001019999999N0100001N1+01401+01291102421ADDAA199000021GF108991081001999999071999KA1999M+01541MA1999999101541MD1710051+9999REMSYN076AAXX  27181 58314 32960 83401 10140 20129 30154 40242 57005 8807/ 333 10154;
0153583140999992000102721004+31400+116320FM-12+006899999V0200201N002019999999N0100001N1+01321+01261102421ADDAA124001591AY161031GF108991081001999999071999MD1410001+9999MW1601REMSYN076AAXX  27211 58314 41960 80202 10132 20126 40242 54000 76060 8807/ 333 70015;
0186583140999992000102800004+31400+116320FM-12+006899999V0200401N001010075019N0070001N1+01321+01261102491ADDAA106000391AY161061GF108991081051008001999999MA1999999101611MD1210071-0301MW1601REMSYN094AAXX  28001 58314 11557 80401 10132 20126 30161 40249 52007 69931 76060 885// 333 05301 70009;
0140583140999992000102803004+31400+116320FM-12+006899999V0203601N001010075019N0060001N1+01371+01321102441ADDAY161031AY261031GF108991081051008001999999MD1710051+9999MW1601REMSYN066AAXX  28031 58314 41556 83601 10137 20132 40244 57005 76066 885//;
0140583140999992000102809004+31400+116320FM-12+006899999V0203601N001010075019N0060001N1+01321+01261102301ADDAY161031AY261031GF108991081051008001999999MD1210051+9999MW1601REMSYN066AAXX  28091 58314 41556 83601 10132 20126 40230 52005 76066 885//;
0178583140999992000102812004+31400+116320FM-12+006899999V0203201N002010075019N0060001N1+01251+01171102571ADDAA106011991AY161061AY261061GF108991081051008001999999MA1999999101681MD1210261+9999MW1601REMSYN078AAXX  28121 58314 11556 83202 10125 20117 30168 40257 52026 60121 76066 885//;
0140583140999992000102815004+31400+116320FM-12+006899999V0203201N003010075019N0060001N1+01201+01101102631ADDAY161031AY261031GF108991081051008001999999MD1210061+9999MW1601REMSYN066AAXX  28151 58314 41556 83203 10120 20110 40263 52006 76066 885//;
0193583140999992000102818004+31400+116320FM-12+006899999V0203401N002010075019N0080001N1+01181+01101102611ADDAA106003091AY161061GF108991081051008001999999KA1999M+01431MA1999999101721MD1710021+9999MW1101REMSYN088AAXX  28181 58314 11558 83402 10118 20110 30172 40261 57002 60031 71060 885// 333 10143;
0145583140999992000102821004+31400+116320FM-12+006899999V0202501N001010075019N0080001N1+01141+01041102441ADDAA124016091GF108991081051008001999999MD1710171+9999MW1101REMSYN076AAXX  28211 58314 41558 82501 10114 20104 40244 57017 71000 885// 333 70160;
0160583140999992000102900004+31400+116320FM-12+006899999V0202501N003019999999N0100001N1+01181+01021102571ADDAA124016091GF108991081001999999071999MA1999999101681MD1210131+0101REMSYN082AAXX  29001 58314 32960 82503 10118 20102 30168 40257 52013 8807/ 333 00151 70159;
0112583140999992000102903004+31400+116320FM-12+006899999V0202901N006019999999N0200001N1+01431+00791102541ADDGF107991071001999999071999MD1710031+9999REMSYN060AAXX  29031 58314 42970 72906 10143 20079 40254 57003 8707/;
0186583140999992000102906004+31400+116320FM-12+006899999V0203401N006019999999N0250001N1+01451+00101102401ADDAA199000091GF107991071001999999071999KA1999N+01111MA1999999101521MD1710131+9999REMSYN076AAXX  29061 58314 32975 73406 10145 20010 30152 40240 57013 8707/ 333 20111;EQDQ01  00002PRCP99
0112583140999992000102909004+31400+116320FM-12+006899999V0203401N004012200019N0250001N1+01381+00251102421ADDGF101991011001999999041001MD1210011+9999REMSYN060AAXX  29091 58314 42975 13404 10138 20025 40242 52001 81040;
0173583140999992000102912004+31400+116320FM-12+006899999V0202701N002012200019N0200001N1+00901+00591102461ADDAA199000091GA1001+999999999GF100991001001999999001001MA1999999101571MD1210041+9999REMSYN060AAXX  29121 58314 32970 02702 10090 20059 30157 40246 52004;EQDQ01  00002PRCP99
0112583140999992000102915004+31400+116320FM-12+006899999V0203201N001012200019N0200001N1+00751+00571102511ADDGF103991031001999999041001MD1210051+9999REMSYN060AAXX  29151 58314 42970 33201 10075 20057 40251 52005 83040;
0196583140999992000102918004+31400+116320FM-12+006899999V0202901N002012200019N0200001N1+00671+00581102401ADDAA199000091GA1001+999999999GF100991001001999999001001KA1999M+01561MA1999999101511MD1710111+9999REMSYN070AAXX  29181 58314 32970 02902 10067 20058 30151 40240 57011 333 10156;EQDQ01  00002PRCP99
0122583140999992000102921004+31400+116320FM-12+006899999V0202501N001012200019N0200001N1+00561+00491102291ADDGA1001+999999999GF100991001001999999001001MD1710111+9999REMSYN054AAXX  29211 58314 42970 02501 10056 20049 40229 57011;
0201583140999992000103000004+31400+116320FM-12+006899999V0201401N002012200019N0200001N1+00631+00491102331ADDAA199000091GA1001+999999999GF100991001001999999001001IA2999+00309MA1999999101431MD1210031-0301REMSYN076AAXX  30001 58314 32970 01402 10063 20049 30143 40233 52003 333 05356 30030;EQDQ01  00002PRCP99
0112583140999992000103003004+31400+116320FM-12+006899999V0200701N002012200019N0200001N1+01391+00411102271ADDGF101991011001999999041001MD1710051+9999REMSYN060AAXX  30031 58314 42970 10702 10139 20041 40227 57005 81040;
0186583140999992000103006004+31400+116320FM-12+006899999V0200901N001012200019N0200001N1+01671+00531101921ADDAA199000091GF102991011001999999041021KA1999N+00481MA1999999101041MD1710341+9999REMSYN076AAXX  30061 58314 32970 20901 10167 20053 30104 40192 57034 81042 333 20048;EQDQ01  00002PRCP99
0122583140999992000103009004+31400+116320FM-12+006899999V0200901N002012200019N0200001N1+01581+00791101931ADDGA1001+999999999GF100991001001999999001001MD1410001+9999REMSYN054AAXX  30091 58314 42970 00902 10158 20079 40193 54000;
0173583140999992000103012004+31400+116320FM-12+006899999V0209999C000012200019N0200001N1+01021+00881102121ADDAA199000091GA1001+999999999GF100991001001999999001001MA1999999101221MD1210181+9999REMSYN060AAXX  30121 58314 32970 00000 10102 20088 30122 40212 52018;EQDQ01  00002PRCP99
0122583140999992000103015004+31400+116320FM-12+006899999V0202701N002012200019N0200001N1+00781+00721102241ADDGA1001+999999999GF100991001001999999001001MD1210131+9999REMSYN054AAXX  30151 58314 42970 02702 10078 20072 40224 52013;
0186583140999992000103018004+31400+116320FM-12+006899999V0209999C000012200019N0200001N1+00741+00671102211ADDAA199000091GF103991001001999999001021KA1999M+01751MA1999999101321MD1710031+9999REMSYN076AAXX  30181 58314 32970 30000 10074 20067 30132 40221 57003 80002 333 10175;EQDQ01  00002PRCP99
0122583140999992000103021004+31400+116320FM-12+006899999V0203201N002012200019N0200001N1+00721+00651102241ADDGA1001+999999999GF100991001001999999001001MD1210031+9999REMSYN054AAXX  30211 58314 42970 03202 10072 20065 40224 52003;
0173583140999992000103100004+31400+116320FM-12+006899999V0201101N001019999999N0100001N1+00911+00811102421ADDAA199000091GF108991081001999999071999MA1999999101521MD1210171+0011REMSYN076AAXX  31001 58314 32960 81101 10091 20081 30152 40242 52017 8807/ 333 00103;EQDQ01  00002PRCP99
0112583140999992000103103004+31400+116320FM-12+006899999V0209999C000019999999N0200001N1+01451+00791102401ADDGF105991051001999999041001MD1710011+9999REMSYN060AAXX  31031 58314 42970 50000 10145 20079 40240 57001 85040;
0186583140999992000103106004+31400+116320FM-12+006899999V0203601N003012200019N0250001N1+01871+00681102181ADDAA199000091GF101991011001999999041001KA1999N+00701MA1999999101301MD1710211+9999REMSYN076AAXX  31061 58314 32975 13603 10187 20068 30130 40218 57021 81040 333 20070;EQDQ01  00002PRCP99
0122583140999992000103109004+31400+116320FM-12+006899999V0200401N002012200019N0200001N1+01701+00911102211ADDGA1001+999999999GF100991001001999999001001MD1210021+9999REMSYN054AAXX  31091 58314 42970 00402 10170 20091 40221 52002;
0173583140999992000103112004+31400+116320FM-12+006899999V0200201N002012200019N0250001N1+01391+00761102451ADDAA199000091GA1001+999999999GF100991001001999999001001MA1999999101561MD1210241+9999REMSYN060AAXX  31121 58314 32975 00202 10139 20076 30156 40245 52024;EQDQ01  00002PRCP99
0112583140999992000103115004+31400+116320FM-12+006899999V0202701N002010120019N0200001N1+01121+00881102551ADDGF105991051051012501001001MD1210101+9999REMSYN060AAXX  31151 58314 42670 52702 10112 20088 40255 52010 85500;
0196583140999992000103118004+31400+116320FM-12+006899999V0202701N002012200019N0200001N1+00961+00751102501ADDAA199000091GA1001+999999999GF100991001001999999001001KA1999M+01901MA1999999101621MD1710041+9999REMSYN070AAXX  31181 58314 32970 02702 10096 20075 30162 40250 57004 333 10190;EQDQ01  00002PRCP99
0122583140999992000103121004+31400+116320FM-12+006899999V0202901N002012200019N0200001N1+00751+00661102551ADDGA1001+999999999GF100991001001999999001001MD1210041+9999REMSYN054AAXX  31211 58314 42970 02902 10075 20066 40255 52004;
0201583140999992000110100004+31400+116320FM-12+006899999V0202901N002012200019N0150001N1+00751+00591102671ADDAA199000091GA1001+999999999GF100991001001999999001001IA2999+00309MA1999999101781MD1210121+0301REMSYN076AAXX  01001 58314 32965 02902 10075 20059 30178 40267 52012 333 00352 30039;EQDQ01  00002PRCP99
0122583140999992000110103004+31400+116320FM-12+006899999V0203401N005012200019N0200001N1+01441+00051102581ADDGA1001+999999999GF100991001001999999001001MD1710091+9999REMSYN054AAXX  01031 58314 42970 03405 10144 20005 40258 57009;
0196583140999992000110106004+31400+116320FM-12+006899999V0203401N004012200019N0300001N1+01661+00041102331ADDAA199000091GA1001+999999999GF100991001001999999001001KA1999N+00601MA1999999101451MD1710241+9999REMSYN070AAXX  01061 58314 32980 03404 10166 20004 30145 40233 57024 333 20060;EQDQ01  00002PRCP99
0122583140999992000110109004+31400+116320FM-12+006899999V0203401N002012200019N0300001N1+01491+00001102371ADDGA1001+999999999GF100991001001999999001001MD1210031+9999REMSYN054AAXX  01091 58314 42980 03402 10149 20000 40237 52003;
0122583140999992000110115004+31400+116320FM-12+006899999V0209999C000012200019N0200001N1+00601+00461102471ADDGA1001+999999999GF100991001001999999001001MD1710011+9999REMSYN054AAXX  01151 58314 42970 00000 10060 20046 40247 57001;
0196583140999992000110118004+31400+116320FM-12+006899999V0202901N001012200019N0200001N1+00451+00331102441ADDAA199000091GA1001+999999999GF100991001001999999001001KA1999M+01681MA1999999101551MD1710031+9999REMSYN070AAXX  01181 58314 32970 02901 10045 20033 30155 40244 57003 333 10168;EQDQ01  00002PRCP99
0122583140999992000110121004+31400+116320FM-12+006899999V0201401N001012200019N0200001N1+00371+00241102431ADDGA1001+999999999GF100991001001999999001001MD1710021+9999REMSYN054AAXX  01211 58314 42970 01401 10037 20024 40243 57002;
0201583140999992000110200004+31400+116320FM-12+006899999V0203401N001012200019N0250001N1+00441+00271102551ADDAA199000091GA1001+999999999GF100991001001999999001001IA2999+00009MA1999999101641MD1210111-0101REMSYN076AAXX  02001 58314 32975 03401 10044 20027 30164 40255 52011 333 05153 30005;EQDQ01  00002PRCP99
0122583140999992000110203004+31400+116320FM-12+006899999V0202701N001012200019N0250001N1+01481+00531102471ADDGA1001+999999999GF100991001001999999001001MD1710061+9999REMSYN054AAXX  02031 58314 42975 02701 10148 20053 40247 57006;
0196583140999992000110206004+31400+116320FM-12+006899999V0201101N002012200019N0250001N1+01941+00231102181ADDAA199000091GA1001+999999999GF100991001001999999001001KA1999N+00231MA1999999101291MD1710291+9999REMSYN070AAXX  02061 58314 32975 01102 10194 20023 30129 40218 57029 333 20023;EQDQ01  00002PRCP99
0122583140999992000110209004+31400+116320FM-12+006899999V0200701N002012200019N0250001N1+01801+00461102171ADDGA1001+999999999GF100991001001999999001001MD1710011+9999REMSYN054AAXX  02091 58314 42975 00702 10180 20046 40217 57001;
0173583140999992000110212004+31400+116320FM-12+006899999V0202901N002012200019N0200001N1+00991+00741102311ADDAA199000091GA1001+999999999GF100991001001999999001001MA1999999101411MD1210131+9999REMSYN060AAXX  02121 58314 32970 02902 10099 20074 30141 40231 52013;EQDQ01  00002PRCP99
0122583140999992000110215004+31400+116320FM-12+006899999V0201101N001012200019N0200001N1+00741+00581102341ADDGA1001+999999999GF100991001001999999001001MD1210041+9999REMSYN054AAXX  02151 58314 42970 01101 10074 20058 40234 52004;
0196583140999992000110218004+31400+116320FM-12+006899999V0209999C000012200019N0150001N1+00601+00481102341ADDAA199000091GA1001+999999999GF100991001001999999001001KA1999M+01961MA1999999101451MD1410001+9999REMSYN070AAXX  02181 58314 32965 00000 10060 20048 30145 40234 54000 333 10196;EQDQ01  00002PRCP99
0122583140999992000110221004+31400+116320FM-12+006899999V0209999C000012200019N0150001N1+00501+00431102371ADDGA1001+999999999GF100991001001999999001001MD1210031+9999REMSYN054AAXX  02211 58314 42965 00000 10050 20043 40237 52003;
0201583140999992000110300004+31400+116320FM-12+006899999V0209999C000012200019N0120001N1+00551+00481102451ADDAA199000091GA1001+999999999GF100991001001999999001001IA2999+00209MA1999999101551MD1210071-0101REMSYN076AAXX  03001 58314 32962 00000 10055 20048 30155 40245 52007 333 05101 30020;EQDQ01  00002PRCP99
0122583140999992000110303004+31400+116320FM-12+006899999V0201101N001012200019N0200001N1+01621+00611102331ADDGA1001+999999999GF100991001001999999001001MD1710111+9999REMSYN054AAXX  03031 58314 42970 01101 10162 20061 40233 57011;
0196583140999992000110306004+31400+116320FM-12+006899999V0200901N002012200019N0250001N1+02111+00741102131ADDAA199000091GA1001+999999999GF100991001001999999001001KA1999N+00411MA1999999101251MD1710191+9999REMSYN070AAXX  03061 58314 32975 00902 10211 20074 30125 40213 57019 333 20041;EQDQ01  00002PRCP99
0122583140999992000110309004+31400+116320FM-12+006899999V0200901N001012200019N0200001N1+01961+01061102111ADDGA1001+999999999GF100991001001999999001001MD1710021+9999REMSYN054AAXX  03091 58314 42970 00901 10196 20106 40211 57002;
0173583140999992000110312004+31400+116320FM-12+006899999V0200901N001012200019N0200001N1+01231+01041102241ADDAA199000091GA1001+999999999GF100991001001999999001001MA1999999101341MD1210111+9999REMSYN060AAXX  03121 58314 32970 00901 10123 20104 30134 40224 52011;EQDQ01  00002PRCP99
0122583140999992000110315004+31400+116320FM-12+006899999V0201401N001012200019N0200001N1+00971+00891102271ADDGA1001+999999999GF100991001001999999001001MD1210051+9999REMSYN054AAXX  03151 58314 42970 01401 10097 20089 40227 52005;
0196583140999992000110318004+31400+116320FM-12+006899999V0201401N001012200019N0200001N1+00781+00691102321ADDAA199000091GA1001+999999999GF100991001001999999001001KA1999M+02131MA1999999101441MD1210051+9999REMSYN070AAXX  03181 58314 32970 01401 10078 20069 30144 40232 52005 333 10213;EQDQ01  00002PRCP99
0122583140999992000110321004+31400+116320FM-12+006899999V0209999C000012200019N0200001N1+00721+00651102381ADDGA1001+999999999GF100991001001999999001001MD1210061+9999REMSYN054AAXX  03211 58314 42970 00000 10072 20065 40238 52006;
0201583140999992000110400004+31400+116320FM-12+006899999V0209999C000012200019N0200001N1+00781+00671102461ADDAA199000091GA1001+999999999GF100991001001999999001001IA2999+00309MA1999999101571MD1210071+0001REMSYN076AAXX  04001 58314 32970 00000 10078 20067 30157 40246 52007 333 00002 30035;EQDQ01  00002PRCP99
0141583140999992000110403004+31400+116320FM-12+006899999V0202901N002012200019N0250001N1+01922+00751102341ADDGA1001+999999999GF100991001001999999001001MD1710111+9999REMSYN054AAXX  04031 58314 42975 02902 10192 20075 40234 57011;EQDQ01+001923ATOT  
0196583140999992000110406004+31400+116320FM-12+006899999V0200201N003012200019N0250001N1+02281+00911102051ADDAA199000091GA1001+999999999GF100991001001999999001001KA1999N+00651MA1999999101181MD1710281+9999REMSYN070AAXX  04061 58314 32975 00203 10228 20091 30118 40205 57028 333 20065;EQDQ01  00002PRCP99
0122583140999992000110409004+31400+116320FM-12+006899999V0203601N002012200019N0150001N1+02041+00941102061ADDGA1001+999999999GF100991001001999999001001MD1410001+9999REMSYN054AAXX  04091 58314 42965 03602 10204 20094 40206 54000;
0173583140999992000110412004+31400+116320FM-12+006899999V0203201N001012200019N0200001N1+01251+01001102181ADDAA199000091GA1001+999999999GF100991001001999999001001MA1999999101291MD1210111+9999REMSYN060AAXX  04121 58314 32970 03201 10125 20100 30129 40218 52011;EQDQ01  00002PRCP99
0122583140999992000110415004+31400+116320FM-12+006899999V0209999C000012200019N0200001N1+00961+00861102151ADDGA1001+999999999GF100991001001999999001001MD1710021+9999REMSYN054AAXX  04151 58314 42970 00000 10096 20086 40215 57002;
0196583140999992000110418004+31400+116320FM-12+006899999V0209999C000012200019N0200001N1+00801+00711101951ADDAA199000091GA1001+999999999GF100991001001999999001001KA1999M+02291MA1999999101081MD1710191+9999REMSYN070AAXX  04181 58314 32970 00000 10080 20071 30108 40195 57019 333 10229;EQDQ01  00002PRCP99
0122583140999992000110421004+31400+116320FM-12+006899999V0201101N001012200019N0200001N1+00621+00551101851ADDGA1001+999999999GF100991001001999999001001MD1710111+9999REMSYN054AAXX  04211 58314 42970 01101 10062 20055 40185 57011;
0201583140999992000110500004+31400+116320FM-12+006899999V0209999C000012200019N0200001N1+00611+00541101941ADDAA199000091GA1001+999999999GF100991001001999999001001IA2999+00209MA1999999101051MD1210081-0501REMSYN076AAXX  05001 58314 32970 00000 10061 20054 30105 40194 52008 333 05552 30027;EQDQ01  00002PRCP99
0196583140999992000110506004+31400+116320FM-12+006899999V0200901N003012200019N0300001N1+02332+01151101341ADDAA199000091GA1001+999999999GF100991001001999999001001KA1999N+00521MA1999999100471MD1710381+9999REMSYN070AAXX  05061 58314 32980 00903 10233 20115 30047 40134 57038 333 20052;EQDQ01  00002PRCP99
0122583140999992000110509004+31400+116320FM-12+006899999V0200701N001012200019N0300001N1+02161+01081101291ADDGA1001+999999999GF100991001001999999001001MD1710051+9999REMSYN054AAXX  05091 58314 42980 00701 10216 20108 40129 57005;
0122583140999992000110515004+31400+116320FM-12+006899999V0209999C000012200019N0300001N1+01091+00951101441ADDGA1001+999999999GF100991001001999999001001MD1210051+9999REMSYN054AAXX  05151 58314 42980 00000 10109 20095 40144 52005;
0196583140999992000110518004+31400+116320FM-12+006899999V0203201N001012200019N0200001N1+00891+00831101421ADDAA199000091GA1001+999999999GF100991001001999999001001KA1999M+02351MA1999999100551MD1710021+9999REMSYN070AAXX  05181 58314 32970 03201 10089 20083 30055 40142 57002 333 10235;EQDQ01  00002PRCP99
0122583140999992000110521004+31400+116320FM-12+006899999V0202001N001012200019N0200001N1+00821+00711101411ADDGA1001+999999999GF100991001001999999001001MD1710011+9999REMSYN054AAXX  05211 58314 42970 02001 10082 20071 40141 57001;
0201583140999992000110600004+31400+116320FM-12+006899999V0209999C000012200019N0200001N1+00941+00731101481ADDAA199000091GA1001+999999999GF100991001001999999001001IA2999+00409MA1999999100601MD1210061-0501REMSYN076AAXX  06001 58314 32970 00000 10094 20073 30060 40148 52006 333 05503 30042;EQDQ01  00002PRCP99
0122583140999992000110603004+31400+116320FM-12+006899999V0209999C000012200019N0250001N1+02021+01071101381ADDGA1001+999999999GF100991001001999999001001MD1710091+9999REMSYN054AAXX  06031 58314 42975 00000 10202 20107 40138 57009;
0196583140999992000110606004+31400+116320FM-12+006899999V0200401N003012200019N0200001N1+02501+01041101201ADDAA199000091GA1001+999999999GF100991001001999999001001KA1999N+00751MA1999999100341MD1710171+9999REMSYN070AAXX  06061 58314 32970 00403 10250 20104 30034 40120 57017 333 20075;EQDQ01  00002PRCP99
0122583140999992000110609004+31400+116320FM-12+006899999V0200901N002012200019N0200001N1+02161+01211101401ADDGA1001+999999999GF100991001001999999001001MD1210191+9999REMSYN054AAXX  06091 58314 42970 00902 10216 20121 40140 52019;
0173583140999992000110612004+31400+116320FM-12+006899999V0209999C000012200019N0200001N1+01511+01281101641ADDAA199000091GA1001+999999999GF100991001001999999001001MA1999999100761MD1210231+9999REMSYN060AAXX  06121 58314 32970 00000 10151 20128 30076 40164 52023;EQDQ01  00002PRCP99
0122583140999992000110615004+31400+116320FM-12+006899999V0201101N001012200019N0200001N1+01261+01131101731ADDGA1001+999999999GF100991001001999999001001MD1210101+9999REMSYN054AAXX  06151 58314 42970 01101 10126 20113 40173 52010;
0196583140999992000110618004+31400+116320FM-12+006899999V0202001N001012200019N0200001N1+01131+01031101881ADDAA199000091GA1001+999999999GF100991001001999999001001KA1999M+02541MA1999999101021MD1210161+9999REMSYN070AAXX  06181 58314 32970 02001 10113 20103 30102 40188 52016 333 10254;EQDQ01  00002PRCP99
0122583140999992000110621004+31400+116320FM-12+006899999V0209999C000012200019N0200001N1+01051+00971102031ADDGA1001+999999999GF100991001001999999001001MD1210141+9999REMSYN054AAXX  06211 58314 42970 00000 10105 20097 40203 52014;
0173583140999992000110700004+31400+116320FM-12+006899999V0209999C000019999999N0120001N1+01061+01021102291ADDAA199000091GF108991081001999999071999MA1999999101411MD1210251+0081REMSYN076AAXX  07001 58314 32962 80000 10106 20102 30141 40229 52025 8807/ 333 00801;EQDQ01  00002PRCP99
0132583140999992000110703004+31400+116320FM-12+006899999V0203201N001019999999N0070001N1+01201+01141102411ADDAY161031GF108991081001999999071999MD1210111+9999MW1601REMSYN066AAXX  07031 58314 41957 83201 10120 20114 40241 52011 76060 8807/;
0193583140999992000110706004+31400+116320FM-12+006899999V0209999C000010075019N0060001N1+01301+01261102291ADDAA106000591AY161061GF108991081051008001999999KA1999N+00981MA1999999101401MD1710121+9999MW1601REMSYN088AAXX  07061 58314 11556 80000 10130 20126 30140 40229 57012 69951 76060 885// 333 20098;
0140583140999992000110709004+31400+116320FM-12+006899999V0202901N001010075019N0040001N1+01341+01301102301ADDAY161031AY261031GF108991081051008001999999MD1210011+9999MW1601REMSYN066AAXX  07091 58314 41540 82901 10134 20130 40230 52001 76066 885//;
0178583140999992000110712004+31400+116320FM-12+006899999V0200401N001010075019N0040001N1+01381+01211102531ADDAA106002091AY161061AY261061GF108991081051008001999999MA1999999101641MD1210231+9999MW1601REMSYN078AAXX  07121 58314 11540 80401 10138 20121 30164 40253 52023 60021 76066 885//;
0140583140999992000110715004+31400+116320FM-12+006899999V0203601N003010075019N0040001N1+01221+01111102661ADDAY161031AY261031GF108991081051008001999999MD1210131+9999MW1601REMSYN066AAXX  07151 58314 41540 83603 10122 20111 40266 52013 76066 885//;
0201583140999992000110718004+31400+116320FM-12+006899999V0200401N002010075019N0040001N1+01101+01021102601ADDAA106003091AY161061AY261061GF108991081051008001999999KA1999M+01431MA1999999101711MD1710061+9999MW1601REMSYN088AAXX  07181 58314 11540 80402 10110 20102 30171 40260 57006 60031 76066 885// 333 10143;
0161583140999992000110721004+31400+116320FM-12+006899999V0203601N001010075019N0040001N1+01001+00941102631ADDAA124009491AY161031AY261031GF108991081051008001999999MD1210031+9999MW1601REMSYN076AAXX  07211 58314 41540 83601 10100 20094 40263 52003 76066 885// 333 70095;
0194583140999992000110800004+31400+116320FM-12+006899999V0200201N004010075019N0060001N1+00841+00781102821ADDAA106007191AY161061AY261061GF108991081051008001999999MA1999999101931MD1210191+0501MW1601REMSYN094AAXX  08001 58314 11556 80204 10084 20078 30193 40282 52019 60071 76066 885// 333 00552 70126;
0201583140999992000110806004+31400+116320FM-12+006899999V0203401N002010075019N0060001N1+00851+00771102481ADDAA106002091AY161061AY261061GF108991081051008001999999KA1999N+00751MA1999999101581MD1710241+9999MW1601REMSYN088AAXX  08061 58314 11556 83402 10085 20077 30158 40248 57024 60021 76066 885// 333 20075;
0140583140999992000110809004+31400+116320FM-12+006899999V0200201N003010075019N0060001N1+00861+00801102461ADDAY161031AY261031GF108991081051008001999999MD1710021+9999MW1601REMSYN066AAXX  08091 58314 41556 80203 10086 20080 40246 57002 76066 885//;
0178583140999992000110812004+31400+116320FM-12+006899999V0202701N001010075019N0060001N1+00821+00761102571ADDAA106001091AY161061AY261061GF108991081051008001999999MA1999999101671MD1210111+9999MW1601REMSYN078AAXX  08121 58314 11556 82701 10082 20076 30167 40257 52011 69991 76066 885//;
0140583140999992000110815004+31400+116320FM-12+006899999V0209999C000010075019N0060001N1+00811+00771102491ADDAY161031AY261031GF108991081051008001999999MD1710081+9999MW1601REMSYN066AAXX  08151 58314 41556 80000 10081 20077 40249 57008 76066 885//;
0201583140999992000110818004+31400+116320FM-12+006899999V0200701N001010075019N0050001N1+00821+00761102331ADDAA106000391AY161061AY261061GF108991081051008001999999KA1999M+01101MA1999999101431MD1710161+9999MW1601REMSYN088AAXX  08181 58314 11550 80701 10082 20076 30143 40233 57016 69931 76066 885// 333 10110;
0153583140999992000110821004+31400+116320FM-12+006899999V0209999C000010075019N0080001N1+00801+00761102211ADDAA124006491AY161031GF108991081051008001999999MD1710121+9999MW1101REMSYN076AAXX  08211 58314 41558 80000 10080 20076 40221 57012 71060 885// 333 70063;
0186583140999992000110900004+31400+116320FM-12+006899999V0200401N001010075019N0050001N1+00821+00781102281ADDAA106000191AY161061GF108991081051008001999999MA1999999101381MD1210071-0601MW1601REMSYN094AAXX  09001 58314 11550 80401 10082 20078 30138 40228 52007 69921 76060 885// 333 05600 70033;
0140583140999992000110903004+31400+116320FM-12+006899999V0201101N001010075019N0050001N1+00911+00811102281ADDAY161031AY261031GF108991081051008001999999MD1410001+9999MW1211REMSYN066AAXX  09031 58314 41550 81101 10091 20081 40228 54000 72166 885//;
0124583140999992000110909004+31400+116320FM-12+006899999V0203401N003010075019N0050001N1+01091+00931102171ADDGF108991081051008001999999MD1210061+9999MW1101REMSYN066AAXX  09091 58314 41550 83403 10109 20093 40217 52006 71000 885//;
0162583140999992000110912004+31400+116320FM-12+006899999V0200901N001010075019N0080001N1+01011+00911102471ADDAA106000791GF108991081051008001999999MA1999999101571MD1210291+9999MW1601REMSYN078AAXX  09121 58314 11558 80901 10101 20091 30157 40247 52029 69901 76000 885//;
0140583140999992000110915004+31400+116320FM-12+006899999V0203401N002010075019N0070001N1+00811+00681102701ADDAY161031AY261031GF108991081051008001999999MD1210231+9999MW1601REMSYN066AAXX  09151 58314 41557 83402 10081 20068 40270 52023 76066 885//;
0201583140999992000110918004+31400+116320FM-12+006899999V0203401N006010075019N0070001N1+00621+00461102871ADDAA106000591AY161061AY261061GF108991081051008001999999KA1999M+01131MA1999999101971MD1210171+9999MW1601REMSYN088AAXX  09181 58314 11557 83406 10062 20046 30197 40287 52017 69951 76066 885// 333 10113;
0153583140999992000110921004+31400+116320FM-12+006899999V0203601N004010075019N0120001N1+00461+00291103071ADDAA124000591AY161031GF108991081051008001999999MD1210191+9999MW1001REMSYN076AAXX  09211 58314 41562 83604 10046 20029 40307 52019 70060 885// 333 70006;
0204583140999992000111000004+31400+116320FM-12+006899999V0203401N005010075019N0120001N1+00381+00201103421ADDAA106000791AY161061GF108991081051008001999999IA2999+00499MA1999999102511MD1210351+1101MW1001REMSYN100AAXX  10001 58314 11562 83405 10038 20020 30251 40342 52035 69901 70060 885// 333 01154 30049 70005;
0112583140999992000111003004+31400+116320FM-12+006899999V0203401N003010075019N0100001N1+00371+00111103591ADDGF108991081051008001999999MD1210161+9999REMSYN060AAXX  10031 58314 42560 83403 10037 20011 40359 52016 885//;
0193583140999992000111006004+31400+116320FM-12+006899999V0203201N003010075019N0080001N1+00361+00121103451ADDAA106000791AY161061GF108991081051008001999999KA1999N+00321MA1999999102531MD1710141+9999MW1601REMSYN088AAXX  10061 58314 11558 83203 10036 20012 30253 40345 57014 69901 76060 885// 333 20032;
0140583140999992000111009004+31400+116320FM-12+006899999V0202701N002010075019N0080001N1+00361+00231103541ADDAY161031AY261031GF108991081051008001999999MD1210091+9999MW1601REMSYN066AAXX  10091 58314 41558 82702 10036 20023 40354 52009 76066 885//;
0178583140999992000111012004+31400+116320FM-12+006899999V0202201N002010075019N0080001N1+00391+00261103591ADDAA106000391AY161061AY261061GF108991081051008001999999MA1999999102671MD1210051+9999MW1601REMSYN078AAXX  10121 58314 11558 82202 10039 20026 30267 40359 52005 69931 76066 885//;
0132583140999992000111015004+31400+116320FM-12+006899999V0202701N002010075019N0080001N1+00431+00331103611ADDAY161031GF108991081051008001999999MD1210021+9999MW1601REMSYN066AAXX  10151 58314 41558 82702 10043 20033 40361 52002 76060 885//;
0193583140999992000111018004+31400+116320FM-12+006899999V0203401N002010075019N0090001N1+00391+00101103551ADDAA106000391AY161061GF108991081051008001999999KA1999M+00651MA1999999102631MD1710061+9999MW1601REMSYN088AAXX  10181 58314 11559 83402 10039 20010 30263 40355 57006 69931 76060 885// 333 10065;
0161583140999992000111021004+31400+116320FM-12+006899999V0203201N003010075019N0060001N1+00241+00081103531ADDAA124002091AY161031AY261031GF108991081051008001999999MD1710031+9999MW1601REMSYN076AAXX  10211 58314 41556 83203 10024 20008 40353 57003 76066 885// 333 70021;
0212583140999992000111100004+31400+116320FM-12+006899999V0203401N002010075019N0080001N1+00181+00041103531ADDAA106003091AY161061AY261061GF108991081051008001999999IA2999+00329MA1999999102601MD1410001+0101MW1601REMSYN100AAXX  11001 58314 11558 83402 10018 20004 30260 40353 54000 60031 76066 885// 333 00152 30032 70031;
0140583140999992000111103004+31400+116320FM-12+006899999V0209999C000010075019N0080001N1+00211+00071103431ADDAY161031AY261031GF108991081051008001999999MD1710101+9999MW1681REMSYN066AAXX  11031 58314 41558 80000 10021 20007 40343 57010 76866 885//;
0201583140999992000111106004+31400+116320FM-12+006899999V0200201N003010075019N0060001N1+00201+00061103201ADDAA106001091AY171061AY261061GF108991081051008001999999KA1999N+00161MA1999999102281MD1710221+9999MW1601REMSYN088AAXX  11061 58314 11556 80203 10020 20006 30228 40320 57022 60011 76076 885// 333 20016;
0140583140999992000111109004+31400+116320FM-12+006899999V0200201N002010075019N0060001N1+00171+00061103121ADDAY161031AY261031GF108991081051008001999999MD1710091+9999MW1601REMSYN066AAXX  11091 58314 41556 80202 10017 20006 40312 57009 76066 885//;
0178583140999992000111112004+31400+116320FM-12+006899999V0201401N003010075019N0050001N1+00111+00061103131ADDAA106001091AY171061AY261061GF108991081051008001999999MA1999999102201MD1210011+9999MW1701REMSYN078AAXX  11121 58314 11550 81403 10011 20006 30220 40313 52001 60011 77076 885//;
0132583140999992000111115004+31400+116320FM-12+006899999V0203401N001010075019N0050001N1+00171+00031103311ADDAY171031GF108991081051008001999999MD1210181+9999MW1101REMSYN066AAXX  11151 58314 41550 83401 10017 20003 40331 52018 71070 885//;
0193583140999992000111118004+31400+116320FM-12+006899999V0203401N001010075019N0050001N1+00211+00101103311ADDAA106000391AY171061GF108991081051008001999999KA1999M+00401MA1999999102381MD1410001+9999MW1101REMSYN088AAXX  11181 58314 11550 83401 10021 20010 30238 40331 54000 69931 71070 885// 333 10040;
0145583140999992000111121004+31400+116320FM-12+006899999V0200401N001010075019N0050001N1+00211+00081103191ADDAA124003891GF108991081051008001999999MD1710121+9999MW1101REMSYN076AAXX  11211 58314 41550 80401 10021 20008 40319 57012 71000 885// 333 70037;
0190583140999992000111200004+31400+116320FM-12+006899999V0200701N002012200019N0080001N1+00241+00111103301ADDAA124002891GF102991021051008001001001IA2999+00139MA1999999102371MD1210111-0201MW1101REMSYN094AAXX  12001 58314 31558 20702 10024 20011 30237 40330 52011 71000 82500 333 05201 30013 70027;
0112583140999992000111203004+31400+116320FM-12+006899999V0200701N002012200019N0200001N1+00661+00191103261ADDGF102991001001999999001021MD1710031+9999REMSYN060AAXX  12031 58314 42970 20702 10066 20019 40326 57003 80002;
0186583140999992000111206004+31400+116320FM-12+006899999V0200901N001019999999N0200001N1+01001-00141102961ADDAA199000091GF105991001001999999001021KA1999N+00071MA1999999102051MD1710291+9999REMSYN076AAXX  12061 58314 32970 50901 10100 21014 30205 40296 57029 80002 333 20007;EQDQ01  00002PRCP99
0112583140999992000111209004+31400+116320FM-12+006899999V0200701N002019999999N0250001N1+00921-00021102881ADDGF106991001001999999001021MD1710081+9999REMSYN060AAXX  12091 58314 42975 60702 10092 21002 40288 57008 80002;
0163583140999992000111212004+31400+116320FM-12+006899999V0202701N002012200019N0200001N1+00441+00271102971ADDAA199000091GF102991001001999999001021MA1999999102051MD1210081+9999REMSYN066AAXX  12121 58314 32970 22702 10044 20027 30205 40297 52008 80002;EQDQ01  00002PRCP99
0112583140999992000111215004+31400+116320FM-12+006899999V0209999C000019999999N0150001N1+00331+00231103001ADDGF107991071001999999071999MD1210031+9999REMSYN060AAXX  12151 58314 42965 70000 10033 20023 40300 52003 8707/;
0186583140999992000111218004+31400+116320FM-12+006899999V0209999C000019999999N0120001N1+00351+00271102871ADDAA199000091GF107991071001999999071999KA1999M+01071MA1999999101961MD1710121+9999REMSYN076AAXX  12181 58314 32962 70000 10035 20027 30196 40287 57012 8707/ 333 10107;EQDQ01  00002PRCP99
0134583140999992000111221004+31400+116320FM-12+006899999V0209999C000012200019N0050001N1+00151+00101102701ADDGA1001+999999999GF100991001001999999001001MD1710171+9999MW1101REMSYN060AAXX  12211 58314 41950 00000 10015 20010 40270 57017 71000;
0221583140999992000111300004+31400+116320FM-12+006899999V0203201N002010006019N0008001N1+00131+00081102781ADDAA199000091AY141061GA1091+999999999GF109991091999999999999999IA2999+00009MA1999999101861MD1210071-0501MW1431REMSYN082AAXX  13001 58314 31/08 93202 10013 20008 30186 40278 52007 74340 333 05551 31003;EQDQ01  00002PRCP99
0132583140999992000111303004+31400+116320FM-12+006899999V0201401N002012200019N0120001N1+00791+00261102711ADDAY141031GF102991021001999999041001MD1710061+9999MW1001REMSYN066AAXX  13031 58314 41962 21402 10079 20026 40271 57006 70040 82040;
0206583140999992000111306004+31400+116320FM-12+006899999V0200901N001019999999N0150001N1+01181+00041102421ADDAA199000091AY141061GF107991071001999999071999KA1999N+00051MA1999999101521MD1710281+9999MW1001REMSYN082AAXX  13061 58314 31965 70901 10118 20004 30152 40242 57028 70040 8707/ 333 20005;EQDQ01  00002PRCP99
0132583140999992000111309004+31400+116320FM-12+006899999V0200701N003019999999N0120001N1+01001+00561102441ADDAY161031GF108991081001999999071999MD1210011+9999MW1601REMSYN066AAXX  13091 58314 41962 80703 10100 20056 40244 52001 76060 8807/;
0170583140999992000111312004+31400+116320FM-12+006899999V0201101N001019999999N0120001N1+00851+00611102561ADDAA106000191AY161061GF108991081001999999071999MA1999999101651MD1210121+9999MW1001REMSYN078AAXX  13121 58314 11962 81101 10085 20061 30165 40256 52012 69911 70060 8807/;
0193583140999992000111318004+31400+116320FM-12+006899999V0200901N001019999999N0120001N1+00761+00671102531ADDAA106000791AY161061GF107991071001999999071999KA1999M+01231MA1999999101631MD1210031+9999MW1001REMSYN088AAXX  13181 58314 11962 70901 10076 20067 30163 40253 52003 69901 70060 8707/ 333 10123;
0133583140999992000111321004+31400+116320FM-12+006899999V0209999C000019999999N0120001N1+00751+00661102471ADDAA124000191GF108991081001999999071999MD1710061+9999REMSYN070AAXX  13211 58314 42962 80000 10075 20066 40247 57006 8807/ 333 70001;
0160583140999992000111400004+31400+116320FM-12+006899999V0202901N001019999999N0100001N1+00801+00651102551ADDAA124000191GF108991081001999999071999MA1999999101651MD1210081-0201REMSYN082AAXX  14001 58314 32960 82901 10080 20065 30165 40255 52008 8807/ 333 05207 70001;
0112583140999992000111403004+31400+116320FM-12+006899999V0209999C000019999999N0100001N1+00961+00661102571ADDGF108991081001999999071999MD1210021+9999REMSYN060AAXX  14031 58314 42960 80000 10096 20066 40257 52002 8807/;
0186583140999992000111406004+31400+116320FM-12+006899999V0200401N001019999999N0100001N1+01061+00661102361ADDAA199000091GF108991081001999999071999KA1999N+00721MA1999999101461MD1710211+9999REMSYN076AAXX  14061 58314 32960 80401 10106 20066 30146 40236 57021 8807/ 333 20072;EQDQ01  00002PRCP99
0112583140999992000111409004+31400+116320FM-12+006899999V0200401N001019999999N0100001N1+01061+00701102501ADDGF108991081001999999071999MD1210141+9999REMSYN060AAXX  14091 58314 42960 80401 10106 20070 40250 52014 8807/;
0124583140999992000111415004+31400+116320FM-12+006899999V0202701N003019999999N0100001N1+00841+00731102741ADDGF108991081001999999071999MD1210031+9999MW1601REMSYN066AAXX  14151 58314 41960 82703 10084 20073 40274 52003 76000 8807/;
0193583140999992000111418004+31400+116320FM-12+006899999V0202701N001019999999N0120001N1+00861+00801102711ADDAA106000391AY161061GF108991081001999999071999KA1999M+01101MA1999999101811MD1710031+9999MW1601REMSYN088AAXX  14181 58314 11962 82701 10086 20080 30181 40271 57003 69931 76060 8807/ 333 10110;
0161583140999992000111421004+31400+116320FM-12+006899999V0203201N001019999999N0090001N1+00801+00761102721ADDAA124000891AY161031AY261031GF108991081001999999071999MD1210011+9999MW1601REMSYN076AAXX  14211 58314 41959 83201 10080 20076 40272 52001 76066 8807/ 333 70008;
0194583140999992000111500004+31400+116320FM-12+006899999V0203401N002010075019N0060001N1+00801+00691102881ADDAA106001091AY161061AY261061GF108991081051008001999999MA1999999101981MD1210161+0301MW1601REMSYN094AAXX  15001 58314 11556 83402 10080 20069 30198 40288 52016 60011 76066 885// 333 00300 70016;
0140583140999992000111503004+31400+116320FM-12+006899999V0209999C000010075019N0060001N1+00821+00711102901ADDAY161031AY261031GF108991081051008001999999MD1210021+9999MW1601REMSYN066AAXX  15031 58314 41556 80000 10082 20071 40290 52002 76066 885//;
0201583140999992000111506004+31400+116320FM-12+006899999V0202701N002010075019N0060001N1+00851+00771102761ADDAA106003091AY161061AY261061GF108991081051008001999999KA1999N+00751MA1999999101861MD1710141+9999MW1601REMSYN088AAXX  15061 58314 11556 82702 10085 20077 30186 40276 57014 60031 76066 885// 333 20075;
0140583140999992000111509004+31400+116320FM-12+006899999V0202901N002010075019N0060001N1+00851+00771102751ADDAY161031AY261031GF108991081051008001999999MD1710011+9999MW1601REMSYN066AAXX  15091 58314 41556 82902 10085 20077 40275 57001 76066 885//;
0178583140999992000111512004+31400+116320FM-12+006899999V0202701N002010075019N0050001N1+00841+00781102811ADDAA106001091AY161061AY261061GF108991081051008001999999MA1999999101911MD1210061+9999MW1601REMSYN078AAXX  15121 58314 11550 82702 10084 20078 30191 40281 52006 69991 76066 885//;
0140583140999992000111515004+31400+116320FM-12+006899999V0202701N002010075019N0050001N1+00841+00781102881ADDAY161031AY261031GF108991081051008001999999MD1210071+9999MW1601REMSYN066AAXX  15151 58314 41550 82702 10084 20078 40288 52007 76066 885//;
0201583140999992000111518004+31400+116320FM-12+006899999V0203401N001010075019N0050001N1+00811+00771102841ADDAA106006191AY161061AY261061GF108991081051008001999999KA1999M+00881MA1999999101941MD1710041+9999MW1601REMSYN088AAXX  15181 58314 11550 83401 10081 20077 30194 40284 57004 60061 76066 885// 333 10088;
0161583140999992000111521004+31400+116320FM-12+006899999V0203601N004010075019N0050001N1+00671+00561102961ADDAA124011291AY161031AY261031GF108991081051008001999999MD1210111+9999MW1601REMSYN076AAXX  15211 58314 41550 83604 10067 20056 40296 52011 76066 885// 333 70111;
0194583140999992000111600004+31400+116320FM-12+006899999V0203201N002010075019N0080001N1+00471+00321103231ADDAA106001091AY161061AY261061GF108991081051008001999999MA1999999102321MD1210271+0301MW1601REMSYN094AAXX  16001 58314 11558 83202 10047 20032 30232 40323 52027 60011 76066 885// 333 00353 70105;
0132583140999992000111603004+31400+116320FM-12+006899999V0203601N003010075019N0100001N1+00471+00271103311ADDAY161031GF108991081051008001999999MD1210081+9999MW1001REMSYN066AAXX  16031 58314 41560 83603 10047 20027 40331 52008 70060 885//;
0193583140999992000111606004+31400+116320FM-12+006899999V0203401N003010075019N0100001N1+00441+00291103181ADDAA106000791AY161061GF108991081051008001999999KA1999N+00411MA1999999102271MD1710131+9999MW1601REMSYN088AAXX  16061 58314 11560 83403 10044 20029 30227 40318 57013 69901 76060 885// 333 20041;
0140583140999992000111609004+31400+116320FM-12+006899999V0203401N003010075019N0080001N1+00441+00271103261ADDAY161031AY261031GF108991081051008001999999MD1210071+9999MW1601REMSYN066AAXX  16091 58314 41558 83403 10044 20027 40326 52007 76066 885//;
0170583140999992000111612004+31400+116320FM-12+006899999V0200901N001010075019N0100001N1+00431+00281103271ADDAA106000791AY161061GF108991081051008001999999MA1999999102351MD1210011+9999MW1001REMSYN078AAXX  16121 58314 11560 80901 10043 20028 30235 40327 52001 69901 70060 885//;
0112583140999992000111615004+31400+116320FM-12+006899999V0203401N001010075019N0100001N1+00451+00331103301ADDGF108991081051008001999999MD1210031+9999REMSYN060AAXX  16151 58314 42560 83401 10045 20033 40330 52003 885//;
0167583140999992000111618004+31400+116320FM-12+006899999V0209999C000019999999N0150001N1+00461+00341103301ADDAA199000021GF108991081001999999071999KA1999M+00831MA1999999102381MD1410001+9999REMSYN076AAXX  16181 58314 32965 80000 10046 20034 30238 40330 54000 8807/ 333 10083;
0133583140999992000111621004+31400+116320FM-12+006899999V0209999C000019999999N0150001N1+00471+00371103231ADDAA124000391GF108991081001999999071999MD1710071+9999REMSYN070AAXX  16211 58314 42965 80000 10047 20037 40323 57007 8807/ 333 70002;
0178583140999992000111700004+31400+116320FM-12+006899999V0209999C000019999999N0120001N1+00521+00421103271ADDAA124000791GF108991081001999999071999IA2999+00489MA1999999102351MD1210041+0001REMSYN088AAXX  17001 58314 32962 80000 10052 20042 30235 40327 52004 8807/ 333 00001 30048 79999;
0112583140999992000111703004+31400+116320FM-12+006899999V0209999C000019999999N0150001N1+00681+00521103261ADDGF108991081001999999071999MD1710011+9999REMSYN060AAXX  17031 58314 42965 80000 10068 20052 40326 57001 8807/;
0186583140999992000111706004+31400+116320FM-12+006899999V0201401N002012200019N0200001N1+00921+00311103091ADDAA199000091GF101991011011012501001001KA1999N+00411MA1999999102181MD1710161+9999REMSYN076AAXX  17061 58314 32670 11402 10092 20031 30218 40309 57016 81100 333 20041;EQDQ01  00002PRCP99
0112583140999992000111709004+31400+116320FM-12+006899999V0200701N001012200019N0200001N1+00941+00361103021ADDGF101991011001999999041001MD1710071+9999REMSYN060AAXX  17091 58314 42970 10701 10094 20036 40302 57007 81040;
0163583140999992000111712004+31400+116320FM-12+006899999V0201401N001012200019N0150001N1+00521+00401103101ADDAA199000091GF103991031001999999041001MA1999999102181MD1210071+9999REMSYN066AAXX  17121 58314 32965 31401 10052 20040 30218 40310 52007 83040;EQDQ01  00002PRCP99
0112583140999992000111715004+31400+116320FM-12+006899999V0202901N001012200019N0150001N1+00341+00261103031ADDGF102991021001999999041001MD1710071+9999REMSYN060AAXX  17151 58314 42965 22901 10034 20026 40303 57007 82040;
0208583140999992000111718004+31400+116320FM-12+006899999V0203401N001010006019N0008001N1+00241+00191103061ADDAA199000091GA1091+999999999GF109991091999999999999999KA1999M+01021MA1999999102151MD1210041+9999MW1471REMSYN076AAXX  17181 58314 31/08 93401 10024 20019 30215 40306 52004 74700 333 10102;EQDQ01  00002PRCP99
0150583140999992000111721004+31400+116320FM-12+006899999V0201801N001010006019N0008001N1+00241+00191103031ADDAY141031AY241031GA1091+999999999GF109991091999999999999999MD1710031+9999MW1451REMSYN060AAXX  17211 58314 41/08 91801 10024 20019 40303 57003 74544;
0219583140999992000111800004+31400+116320FM-12+006899999V0202501N001010075019N0030001N1+00321+00271103081ADDAA199000091AY141061AY241061GF108991081051008001999999IA2999+00009MA1999999102161MD1210041-0201MW1281REMSYN088AAXX  18001 58314 31530 82501 10032 20027 30216 40308 52004 72844 885// 333 05252 30008;EQDQ01  00002PRCP99
0112583140999992000111803004+31400+116320FM-12+006899999V0200901N005010120019N0200001N1+00751+00271102901ADDGF105991051051012501001001MD1710171+9999REMSYN060AAXX  18031 58314 42670 50905 10075 20027 40290 57017 85500;
0186583140999992000111806004+31400+116320FM-12+006899999V0200701N004010075019N0120001N1+00871+00321102651ADDAA199000091GF108991081051008001999999KA1999N+00171MA1999999101741MD1710251+9999REMSYN076AAXX  18061 58314 32562 80704 10087 20032 30174 40265 57025 885// 333 20017;EQDQ01  00002PRCP99
0112583140999992000111809004+31400+116320FM-12+006899999V0209999C000010075019N0100001N1+00871+00491102621ADDGF108991081051008001999999MD1710031+9999REMSYN060AAXX  18091 58314 42560 80000 10087 20049 40262 57003 885//;
0163583140999992000111812004+31400+116320FM-12+006899999V0202701N002010075019N0120001N1+00781+00511102631ADDAA199000091GF108991081051008001999999MA1999999101721MD1210011+9999REMSYN066AAXX  18121 58314 32562 82702 10078 20051 30172 40263 52001 885//;EQDQ01  00002PRCP99
0112583140999992000111815004+31400+116320FM-12+006899999V0202901N001010075019N0120001N1+00771+00521102571ADDGF108991081051008001999999MD1710051+9999REMSYN060AAXX  18151 58314 42562 82901 10077 20052 40257 57005 885//;
0186583140999992000111818004+31400+116320FM-12+006899999V0201101N001019999999N0120001N1+00781+00631102541ADDAA199000091GF108991081001999999071999KA1999M+00911MA1999999101641MD1710031+9999REMSYN076AAXX  18181 58314 32962 81101 10078 20063 30164 40254 57003 8807/ 333 10091;EQDQ01  00002PRCP99
0153583140999992000111821004+31400+116320FM-12+006899999V0202701N002010120019N0100001N1+00781+00671102441ADDAA124000191AY161031GF108991081051012501999999MD1710101+9999MW1601REMSYN076AAXX  18211 58314 41660 82702 10078 20067 40244 57010 76060 885// 333 70001;
0186583140999992000111900004+31400+116320FM-12+006899999V0202901N002010075019N0080001N1+00751+00661102451ADDAA106002091AY161061GF108991081051008001999999MA1999999101551MD1210011-0601MW1601REMSYN094AAXX  19001 58314 11558 82902 10075 20066 30155 40245 52001 60021 76060 885// 333 05604 70021;
0140583140999992000111903004+31400+116320FM-12+006899999V0203201N002010075019N0080001N1+00801+00691102481ADDAY161031AY261031GF108991081051008001999999MD1210031+9999MW1601REMSYN066AAXX  19031 58314 41558 83202 10080 20069 40248 52003 76066 885//;
0201583140999992000111906004+31400+116320FM-12+006899999V0203401N005010075019N0100001N1+00761+00531102501ADDAA106009991AY161061AY261061GF108991081051008001999999KA1999N+00711MA1999999101601MD1210021+9999MW1601REMSYN088AAXX  19061 58314 11560 83405 10076 20053 30160 40250 52002 60101 76066 885// 333 20071;
0140583140999992000111909004+31400+116320FM-12+006899999V0202901N002010075019N0100001N1+00581+00361102791ADDAY161031AY261031GF108991081051008001999999MD1210281+9999MW1601REMSYN066AAXX  19091 58314 41560 82902 10058 20036 40279 52028 76066 885//;
0178583140999992000111912004+31400+116320FM-12+006899999V0202701N003010075019N0120001N1+00631+00471102911ADDAA106005191AY161061AY261061GF108991081051008001999999MA1999999102001MD1210121+9999MW1601REMSYN078AAXX  19121 58314 11562 82703 10063 20047 30200 40291 52012 60051 76066 885//;
0140583140999992000111915004+31400+116320FM-12+006899999V0202701N002010075019N0120001N1+00651+00461103031ADDAY161031AY261031GF108991081051008001999999MD1210121+9999MW1601REMSYN066AAXX  19151 58314 41562 82702 10065 20046 40303 52012 76066 885//;
0193583140999992000111918004+31400+116320FM-12+006899999V0202701N004012200019N0120001N1+00561+00241102951ADDAA106000791AY161061GF103991031001999999041001KA1999M+00831MA1999999102041MD1710081+9999MW1001REMSYN088AAXX  19181 58314 11962 32704 10056 20024 30204 40295 57008 69901 70060 83040 333 10083;
0133583140999992000111921004+31400+116320FM-12+006899999V0202501N002019999999N0120001N1+00501+00111103001ADDAA124017091GF107991071001999999071999MD1210051+9999REMSYN070AAXX  19211 58314 42962 72502 10050 20011 40300 52005 8707/ 333 70171;
0178583140999992000112000004+31400+116320FM-12+006899999V0202001N002012200019N0200001N1+00601+00001103191ADDAA124015091GF103991031001999999041001IA2999+00109MA1999999102281MD1210191+0701REMSYN088AAXX  20001 58314 32970 32002 10060 20000 30228 40319 52019 83040 333 00752 30010 70151;
0112583140999992000112003004+31400+116320FM-12+006899999V0203401N003012200019N0200001N1+00961-00481103241ADDGF101991011001999999041001MD1210051+9999REMSYN060AAXX  20031 58314 42970 13403 10096 21048 40324 52005 81040;
0196583140999992000112006004+31400+116320FM-12+006899999V0203401N004012200019N0200001N1+01121-00441103011ADDAA199000091GA1001+999999999GF100991001001999999001001KA1999N+00421MA1999999102111MD1710221+9999REMSYN070AAXX  20061 58314 32970 03404 10112 21044 30211 40301 57022 333 20042;EQDQ01  00002PRCP99
0122583140999992000112009004+31400+116320FM-12+006899999V0200701N002012200019N0200001N1+00931-00071102971ADDGA1001+999999999GF100991001001999999001001MD1710051+9999REMSYN054AAXX  20091 58314 42970 00702 10093 21007 40297 57005;
0173583140999992000112012004+31400+116320FM-12+006899999V0203201N001012200019N0200001N1+00391+00131103021ADDAA199000091GA1001+999999999GF100991001001999999001001MA1999999102101MD1210041+9999REMSYN060AAXX  20121 58314 32970 03201 10039 20013 30210 40302 52004;EQDQ01  00002PRCP99
0122583140999992000112015004+31400+116320FM-12+006899999V0209999C000012200019N0200001N1+00191+00081103021ADDGA1001+999999999GF100991001001999999001001MD1210011+9999REMSYN054AAXX  20151 58314 42970 00000 10019 20008 40302 52001;
0196583140999992000112018004+31400+116320FM-12+006899999V0200901N001012200019N0200001N1+00121+00041102991ADDAA199000091GA1001+999999999GF100991001001999999001001KA1999M+01151MA1999999102081MD1710031+9999REMSYN070AAXX  20181 58314 32970 00901 10012 20004 30208 40299 57003 333 10115;EQDQ01  00002PRCP99
0122583140999992000112021004+31400+116320FM-12+006899999V0202901N001012200019N0200001N1+00001-00091103011ADDGA1001+999999999GF100991001001999999001001MD1210011+9999REMSYN054AAXX  20211 58314 42970 02901 10000 21009 40301 52001;
0201583140999992000112100004+31400+116320FM-12+006899999V0209999C000012200019N0200001N1+00011-00051103081ADDAA199000091GA1001+999999999GF100991001001999999001001IA2999-00209MA1999999102151MD1210061-0101REMSYN076AAXX  21001 58314 32970 00000 10001 21005 30215 40308 52006 333 05156 31020;EQDQ01  00002PRCP99
0112583140999992000112103004+31400+116320FM-12+006899999V0201101N002019999999N0200001N1+00831-00051103061ADDGF105991001001999999001021MD1710011+9999REMSYN060AAXX  21031 58314 42970 51102 10083 21005 40306 57001 80002;
0186583140999992000112106004+31400+116320FM-12+006899999V0200901N004019999999N0200001N1+01181-00411102731ADDAA199000091GF106991001001999999001021KA1999N-00051MA1999999101821MD1710321+9999REMSYN076AAXX  21061 58314 32970 60904 10118 21041 30182 40273 57032 80002 333 21005;EQDQ01  00002PRCP99
0122583140999992000112109004+31400+116320FM-12+006899999V0200901N004012200019N0200001N1+00951-00291102741ADDGA1001+999999999GF100991001001999999001001MD1210011+9999REMSYN054AAXX  21091 58314 42970 00904 10095 21029 40274 52001;
0173583140999992000112112004+31400+116320FM-12+006899999V0201601N002012200019N0200001N1+00451+00081102901ADDAA199000091GA1001+999999999GF100991001001999999001001MA1999999101981MD1210151+9999REMSYN060AAXX  21121 58314 32970 01602 10045 20008 30198 40290 52015;EQDQ01  00002PRCP99
0122583140999992000112115004+31400+116320FM-12+006899999V0209999C000012200019N0200001N1+00161+00021102911ADDGA1001+999999999GF100991001001999999001001MD1210021+9999REMSYN054AAXX  21151 58314 42970 00000 10016 20002 40291 52002;
0196583140999992000112118004+31400+116320FM-12+006899999V0209999C000012200019N0150001N1+00031-00031102791ADDAA199000091GA1001+999999999GF100991001001999999001001KA1999M+01231MA1999999101881MD1710121+9999REMSYN070AAXX  21181 58314 32965 00000 10003 21003 30188 40279 57012 333 10123;EQDQ01  00002PRCP99
0122583140999992000112121004+31400+116320FM-12+006899999V0209999C000012200019N0150001N1-00061-00151102691ADDGA1001+999999999GF100991001001999999001001MD1710101+9999REMSYN054AAXX  21211 58314 42965 00000 11006 21015 40269 57010;
0201583140999992000112200004+31400+116320FM-12+006899999V0200401N001012200019N0150001N1-00021-00111102741ADDAA199000091GA1001+999999999GF100991001001999999001001IA2999-00209MA1999999101821MD1210041-0301REMSYN076AAXX  22001 58314 32965 00401 11002 21011 30182 40274 52004 333 05300 31026;EQDQ01  00002PRCP99
0122583140999992000112203004+31400+116320FM-12+006899999V0209999C000012200019N0200001N1+00951+00241102721ADDGA1001+999999999GF100991001001999999001001MD1710011+9999REMSYN054AAXX  22031 58314 42970 00000 10095 20024 40272 57001;
0196583140999992000112206004+31400+116320FM-12+006899999V0201101N002012200019N0200001N1+01561-00431102381ADDAA199000091GA1001+999999999GF100991001001999999001001KA1999N-00131MA1999999101481MD1710331+9999REMSYN070AAXX  22061 58314 32970 01102 10156 21043 30148 40238 57033 333 21013;EQDQ01  00002PRCP99
0122583140999992000112209004+31400+116320FM-12+006899999V0200901N002012200019N0200001N1+01371+00291102391ADDGA1001+999999999GF100991001001999999001001MD1410001+9999REMSYN054AAXX  22091 58314 42970 00902 10137 20029 40239 54000;
0173583140999992000112212004+31400+116320FM-12+006899999V0203201N001012200019N0200001N1+00611+00351102531ADDAA199000091GA1001+999999999GF100991001001999999001001MA1999999101611MD1210131+9999REMSYN060AAXX  22121 58314 32970 03201 10061 20035 30161 40253 52013;EQDQ01  00002PRCP99
0122583140999992000112215004+31400+116320FM-12+006899999V0201101N002012200019N0200001N1+00361+00231102571ADDGA1001+999999999GF100991001001999999001001MD1210051+9999REMSYN054AAXX  22151 58314 42970 01102 10036 20023 40257 52005;
0196583140999992000112218004+31400+116320FM-12+006899999V0209999C000012200019N0200001N1+00201+00091102531ADDAA199000091GA1001+999999999GF100991001001999999001001KA1999M+01641MA1999999101631MD1710031+9999REMSYN070AAXX  22181 58314 32970 00000 10020 20009 30163 40253 57003 333 10164;EQDQ01  00002PRCP99
0122583140999992000112221004+31400+116320FM-12+006899999V0201101N001012200019N0200001N1+00101+00021102561ADDGA1001+999999999GF100991001001999999001001MD1210031+9999REMSYN054AAXX  22211 58314 42970 01101 10010 20002 40256 52003;
0191583140999992000112300004+31400+116320FM-12+006899999V0209999C000012200019N0200001N1+00181+00041102631ADDAA199000091GF101991001001999999001021IA2999-00209MA1999999101711MD1210051-0101REMSYN082AAXX  23001 58314 32970 10000 10018 20004 30171 40263 52005 80002 333 05102 31025;EQDQ01  00002PRCP99
0112583140999992000112303004+31400+116320FM-12+006899999V0209999C000012200019N0300001N1+01171+00211102541ADDGF101991001001999999001021MD1710071+9999REMSYN060AAXX  23031 58314 42980 10000 10117 20021 40254 57007 80002;
0196583140999992000112306004+31400+116320FM-12+006899999V0200701N001012200019N0300001N1+01721+00181102241ADDAA199000091GA1001+999999999GF100991001001999999001001KA1999N+00041MA1999999101351MD1710291+9999REMSYN070AAXX  23061 58314 32980 00701 10172 20018 30135 40224 57029 333 20004;EQDQ01  00002PRCP99
0122583140999992000112309004+31400+116320FM-12+006899999V0200201N001012200019N0300001N1+01511+00431102201ADDGA1001+999999999GF100991001001999999001001MD1710051+9999REMSYN054AAXX  23091 58314 42980 00201 10151 20043 40220 57005;
0173583140999992000112312004+31400+116320FM-12+006899999V0209999C000012200019N0200001N1+00811+00541102251ADDAA199000091GA1001+999999999GF100991001001999999001001MA1999999101341MD1210041+9999REMSYN060AAXX  23121 58314 32970 00000 10081 20054 30134 40225 52004;EQDQ01  00002PRCP99
0122583140999992000112315004+31400+116320FM-12+006899999V0200901N001012200019N0200001N1+00601+00441102251ADDGA1001+999999999GF100991001001999999001001MD1210011+9999REMSYN054AAXX  23151 58314 42970 00901 10060 20044 40225 52001;
0196583140999992000112318004+31400+116320FM-12+006899999V0200701N001012200019N0200001N1+00701+00491102131ADDAA199000091GA1001+999999999GF100991001001999999001001KA1999M+01731MA1999999101241MD1710111+9999REMSYN070AAXX  23181 58314 32970 00701 10070 20049 30124 40213 57011 333 10173;EQDQ01  00002PRCP99
0122583140999992000112321004+31400+116320FM-12+006899999V0200201N001012200019N0150001N1+00501+00431102081ADDGA1001+999999999GF100991001001999999001001MD1710051+9999REMSYN054AAXX  23211 58314 42965 00201 10050 20043 40208 57005;
0191583140999992000112400004+31400+116320FM-12+006899999V0209999C000019999999N0150001N1+00591+00501102171ADDAA199000091GF106991061001999999041001IA2999+00109MA1999999101271MD1210081-0401REMSYN082AAXX  24001 58314 32965 60000 10059 20050 30127 40217 52008 86040 333 05404 30016;EQDQ01  00002PRCP99
0112583140999992000112403004+31400+116320FM-12+006899999V0209999C000019999999N0150001N1+01211+00691102171ADDGF107991071001999999041999MD1410001+9999REMSYN060AAXX  24031 58314 42965 70000 10121 20069 40217 54000 8704/;
0196583140999992000112406004+31400+116320FM-12+006899999V0201101N002012200019N0200001N1+01791+00451101861ADDAA199000091GA1001+999999999GF100991001001999999001001KA1999N+00431MA1999999100981MD1710291+9999REMSYN070AAXX  24061 58314 32970 01102 10179 20045 30098 40186 57029 333 20043;EQDQ01  00002PRCP99
0112583140999992000112409004+31400+116320FM-12+006899999V0200701N001019999999N0150001N1+01601+00741101851ADDGF107991071001999999041999MD1710021+9999REMSYN060AAXX  24091 58314 42965 70701 10160 20074 40185 57002 8704/;
0163583140999992000112412004+31400+116320FM-12+006899999V0203201N001019999999N0200001N1+01241+00901101941ADDAA199000091GF108991081001999999071999MA1999999101051MD1210091+9999REMSYN066AAXX  24121 58314 32970 83201 10124 20090 30105 40194 52009 8807/;EQDQ01  00002PRCP99
0112583140999992000112415004+31400+116320FM-12+006899999V0201401N002019999999N0200001N1+00871+00701102021ADDGF107991071001999999071999MD1210081+9999REMSYN060AAXX  24151 58314 42970 71402 10087 20070 40202 52008 8707/;
0186583140999992000112418004+31400+116320FM-12+006899999V0209999C000019999999N0120001N1+00821+00691101971ADDAA199000091GF108991081001999999071999KA1999M+01831MA1999999101091MD1710041+9999REMSYN076AAXX  24181 58314 32962 80000 10082 20069 30109 40197 57004 8807/ 333 10183;EQDQ01  00002PRCP99
0112583140999992000112421004+31400+116320FM-12+006899999V0209999C000019999999N0120001N1+00861+00711101921ADDGF108991081001999999071999MD1710051+9999REMSYN060AAXX  24211 58314 42962 80000 10086 20071 40192 57005 8807/;
0191583140999992000112500004+31400+116320FM-12+006899999V0209999C000012200019N0200001N1+00801+00691102041ADDAA199000091GF101991011001999999041001IA2999+00509MA1999999101151MD1210111-0101REMSYN082AAXX  25001 58314 32970 10000 10080 20069 30115 40204 52011 81040 333 05102 30050;EQDQ01  00002PRCP99
0111583140999992000112503004+31400+116320FM-12+006899999V0209999C000019999999N0200001N1+01511+00841102031ADDGF107991999999999999999999MD1710011+9999REMSYN059AAXX  25031 58314 42970 70000 10151 20084 40203 57001 8040;
0186583140999992000112506004+31400+116320FM-12+006899999V0201101N002019999999N0200001N1+01911+00861101691ADDAA199000091GF107991071001999999041001KA1999N+00771MA1999999100811MD1710331+9999REMSYN076AAXX  25061 58314 32970 71102 10191 20086 30081 40169 57033 87040 333 20077;EQDQ01  00002PRCP99
0112583140999992000112509004+31400+116320FM-12+006899999V0200701N002019999999N0100001N1+01531+01101101821ADDGF108991081001999999071999MD1210131+9999REMSYN060AAXX  25091 58314 42960 80702 10153 20110 40182 52013 8807/;
0175583140999992000112512004+31400+116320FM-12+006899999V0200701N001019999999N0050001N1+01071+00991102041ADDAA199000091GF108991081001999999071999MA1999999101151MD1210211+9999MW1101REMSYN072AAXX  25121 58314 31950 80701 10107 20099 30115 40204 52021 71000 8807/;EQDQ01  00002PRCP99
0124583140999992000112515004+31400+116320FM-12+006899999V0209999C000019999999N0060001N1+01011+00951102191ADDGF108991081001999999071999MD1210161+9999MW1101REMSYN066AAXX  25151 58314 41956 80000 10101 20095 40219 52016 71000 8807/;
0193583140999992000112518004+31400+116320FM-12+006899999V0200201N002010150019N0060001N1+01021+00961102321ADDAA106002091AY161061GF108991081051017501999999KA1999M+01961MA1999999101441MD1210131+9999MW1601REMSYN088AAXX  25181 58314 11756 80202 10102 20096 30144 40232 52013 60021 76060 885// 333 10196;
0161583140999992000112521004+31400+116320FM-12+006899999V0203401N002010120019N0080001N1+01011+00871102441ADDAA124004191AY161031AY261031GF108991081051012501999999MD1210111+9999MW1601REMSYN076AAXX  25211 58314 41658 83402 10101 20087 40244 52011 76066 885// 333 70040;
0186583140999992000112600004+31400+116320FM-12+006899999V0200701N001010075019N0060001N1+00911+00781102671ADDAA106003091AY161061GF108991081051008001999999MA1999999101771MD1210221+0601MW1101REMSYN094AAXX  26001 58314 11556 80701 10091 20078 30177 40267 52022 60031 71060 885// 333 00601 70041;
0124583140999992000112603004+31400+116320FM-12+006899999V0203401N003010075019N0060001N1+00821+00711102801ADDGF108991081051008001999999MD1210131+9999MW1211REMSYN066AAXX  26031 58314 41556 83403 10082 20071 40280 52013 72100 885//;
0193583140999992000112606004+31400+116320FM-12+006899999V0209999C000010075019N0060001N1+00851+00681102641ADDAA106000791AY161061GF108991081051008001999999KA1999N+00761MA1999999101741MD1710161+9999MW1101REMSYN088AAXX  26061 58314 11556 80000 10085 20068 30174 40264 57016 69901 71060 885// 333 20076;
0124583140999992000112609004+31400+116320FM-12+006899999V0200401N001010075019N0080001N1+00871+00651102751ADDGF108991081051008001999999MD1210111+9999MW1101REMSYN066AAXX  26091 58314 41558 80401 10087 20065 40275 52011 71000 885//;
0170583140999992000112612004+31400+116320FM-12+006899999V0200901N001010075019N0090001N1+00791+00731102851ADDAA106000391AY161061GF108991081051008001999999MA1999999101951MD1210101+9999MW1601REMSYN078AAXX  26121 58314 11559 80901 10079 20073 30195 40285 52010 69931 76060 885//;
0140583140999992000112615004+31400+116320FM-12+006899999V0202901N001010075019N0080001N1+00801+00761102871ADDAY161031AY261031GF108991081051008001999999MD1210021+9999MW1601REMSYN066AAXX  26151 58314 41558 82901 10080 20076 40287 52002 76066 885//;
0201583140999992000112618004+31400+116320FM-12+006899999V0209999C000010075019N0070001N1+00821+00761102831ADDAA106000591AY161061AY261061GF108991081051008001999999KA1999M+01041MA1999999101931MD1710041+9999MW1601REMSYN088AAXX  26181 58314 11557 80000 10082 20076 30193 40283 57004 69941 76066 885// 333 10104;
0161583140999992000112621004+31400+116320FM-12+006899999V0200901N002010075019N0070001N1+00821+00781102801ADDAA124001891AY161031AY261031GF108991081051008001999999MD1710031+9999MW1601REMSYN076AAXX  26211 58314 41557 80902 10082 20078 40280 57003 76066 885// 333 70019;
0194583140999992000112700004+31400+116320FM-12+006899999V0209999C000010075019N0050001N1+00841+00781102851ADDAA106001091AY161061AY261061GF108991081051008001999999MA1999999101951MD1210051+0201MW1601REMSYN094AAXX  27001 58314 11550 80000 10084 20078 30195 40285 52005 60011 76066 885// 333 00251 70021;
0132583140999992000112703004+31400+116320FM-12+006899999V0200401N001010075019N0070001N1+00901+00821102911ADDAY161031GF108991081051008001999999MD1210061+9999MW1101REMSYN066AAXX  27031 58314 41557 80401 10090 20082 40291 52006 71060 885//;
0193583140999992000112706004+31400+116320FM-12+006899999V0200701N001010075019N0080001N1+00931+00831102731ADDAA106000191AY161061GF108991081051008001999999KA1999N+00761MA1999999101831MD1710181+9999MW1211REMSYN088AAXX  27061 58314 11558 80701 10093 20083 30183 40273 57018 69911 72160 885// 333 20076;
0124583140999992000112709004+31400+116320FM-12+006899999V0200701N002010075019N0050001N1+00931+00781102691ADDGF108991081051008001999999MD1710041+9999MW1601REMSYN066AAXX  27091 58314 41550 80702 10093 20078 40269 57004 76000 885//;
0170583140999992000112712004+31400+116320FM-12+006899999V0209999C000010075019N0080001N1+00871+00761102731ADDAA106000191AY161061GF108991081051008001999999MA1999999101831MD1210041+9999MW1601REMSYN078AAXX  27121 58314 11558 80000 10087 20076 30183 40273 52004 69911 76060 885//;
0140583140999992000112715004+31400+116320FM-12+006899999V0209999C000010075019N0050001N1+00851+00791102751ADDAY161031AY261031GF108991081051008001999999MD1210021+9999MW1601REMSYN066AAXX  27151 58314 41550 80000 10085 20079 40275 52002 76066 885//;
0193583140999992000112718004+31400+116320FM-12+006899999V0209999C000010075019N0080001N1+00821+00781102841ADDAA106000191AY161061GF108991081051008001999999KA1999M+00971MA1999999101941MD1210091+9999MW1101REMSYN088AAXX  27181 58314 11558 80000 10082 20078 30194 40284 52009 69911 71060 885// 333 10097;
0145583140999992000112721004+31400+116320FM-12+006899999V0201101N001010120019N0080001N1+00751+00731102721ADDAA124000591GF108991081051012501999999MD1710121+9999MW1101REMSYN076AAXX  27211 58314 41658 81101 10075 20073 40272 57012 71000 885// 333 70006;
0172583140999992000112800004+31400+116320FM-12+006899999V0209999C000010075019N0060001N1+00781+00691102861ADDAA124000391GF108991081051008001999999MA1999999101961MD1210141+0001MW1101REMSYN088AAXX  28001 58314 31556 80000 10078 20069 30196 40286 52014 71000 885// 333 00051 70003;
0122583140999992000112803004+31400+116320FM-12+006899999V0201401N003012200019N0120001N1+01111+00761102831ADDGA1001+999999999GF100991001001999999001001MD1710031+9999REMSYN054AAXX  28031 58314 42962 01403 10111 20076 40283 57003;
0186583140999992000112806004+31400+116320FM-12+006899999V0200901N004019999999N0120001N1+01251+00571102521ADDAA199000091GF108991081001999999071999KA1999N+00721MA1999999101631MD1710301+9999REMSYN076AAXX  28061 58314 32962 80904 10125 20057 30163 40252 57030 8807/ 333 20072;EQDQ01  00002PRCP99
0112583140999992000112809004+31400+116320FM-12+006899999V0201101N002019999999N0100001N1+01171+00621102491ADDGF108991081001999999071999MD1710041+9999REMSYN060AAXX  28091 58314 42960 81102 10117 20062 40249 57004 8807/;
0170583140999992000112812004+31400+116320FM-12+006899999V0209999C000019999999N0150001N1+01021+00841102511ADDAA106000791AY161061GF108991081001999999071999MA1999999101611MD1210021+9999MW1001REMSYN078AAXX  28121 58314 11965 80000 10102 20084 30161 40251 52002 69901 70060 8807/;
0132583140999992000112815004+31400+116320FM-12+006899999V0202701N002019999999N0120001N1+00961+00811102481ADDAY161031GF108991081001999999071999MD1710021+9999MW1601REMSYN066AAXX  28151 58314 41962 82702 10096 20081 40248 57002 76060 8807/;
0193583140999992000112818004+31400+116320FM-12+006899999V0209999C000019999999N0120001N1+00941+00821102401ADDAA106000191AY161061GF108991081001999999071999KA1999M+01331MA1999999101511MD1710081+9999MW1001REMSYN088AAXX  28181 58314 11962 80000 10094 20082 30151 40240 57008 69911 70060 8807/ 333 10133;
0133583140999992000112821004+31400+116320FM-12+006899999V0209999C000019999999N0120001N1+00931+00811102301ADDAA124000191GF108991081001999999071999MD1710101+9999REMSYN070AAXX  28211 58314 42962 80000 10093 20081 40230 57010 8807/ 333 70001;
0172583140999992000112900004+31400+116320FM-12+006899999V0200901N001019999999N0080001N1+00921+00771102371ADDAA124000191GF108991081001999999071999MA1999999101481MD1210071-0501MW1101REMSYN088AAXX  29001 58314 31958 80901 10092 20077 30148 40237 52007 71000 8807/ 333 05501 70001;
0132583140999992000112903004+31400+116320FM-12+006899999V0203401N001019999999N0080001N1+00961+00731102331ADDAY161031GF108991081001999999071999MD1710041+9999MW1601REMSYN066AAXX  29031 58314 41958 83401 10096 20073 40233 57004 76060 8807/;
0193583140999992000112906004+31400+116320FM-12+006899999V0200701N002019999999N0080001N1+00911+00811102101ADDAA106001091AY161061GF108991081001999999071999KA1999N+00901MA1999999101211MD1710231+9999MW1601REMSYN088AAXX  29061 58314 11958 80702 10091 20081 30121 40210 57023 60011 76060 8807/ 333 20090;
0132583140999992000112909004+31400+116320FM-12+006899999V0200901N001019999999N0080001N1+00911+00741102191ADDAY161031GF108991081001999999071999MD1210091+9999MW1101REMSYN066AAXX  29091 58314 41958 80901 10091 20074 40219 52009 71060 8807/;
0170583140999992000112912004+31400+116320FM-12+006899999V0209999C000010075019N0080001N1+00871+00741102201ADDAA106000591AY161061GF108991081051008001999999MA1999999101301MD1410001+9999MW1601REMSYN078AAXX  29121 58314 11558 80000 10087 20074 30130 40220 54000 69961 76060 885//;
0140583140999992000112915004+31400+116320FM-12+006899999V0202501N002010075019N0050001N1+00851+00791102231ADDAY161031AY261031GF108991081051008001999999MD1210031+9999MW1601REMSYN066AAXX  29151 58314 41550 82502 10085 20079 40223 52003 76066 885//;
0201583140999992000112918004+31400+116320FM-12+006899999V0202501N001010075019N0050001N1+00821+00761102191ADDAA106008991AY161061AY261061GF108991081051008001999999KA1999M+00981MA1999999101291MD1710041+9999MW1601REMSYN088AAXX  29181 58314 11550 82501 10082 20076 30129 40219 57004 60091 76066 885// 333 10098;
0161583140999992000112921004+31400+116320FM-12+006899999V0202701N002010075019N0050001N1+00831+00771102141ADDAA124016391AY161031AY261031GF108991081051008001999999MD1710051+9999MW1601REMSYN076AAXX  29211 58314 41550 82702 10083 20077 40214 57005 76066 885// 333 70163;
0194583140999992000113000004+31400+116320FM-12+006899999V0200201N002010075019N0060001N1+00771+00711102311ADDAA106010991AY161061AY261061GF108991081051008001999999MA1999999101411MD1210171-0101MW1601REMSYN094AAXX  30001 58314 11556 80202 10077 20071 30141 40231 52017 60111 76066 885// 333 05152 70221;
0140583140999992000113003004+31400+116320FM-12+006899999V0203401N002010075019N0060001N1+00781+00721102331ADDAY161031AY261031GF108991081051008001999999MD1210021+9999MW1601REMSYN066AAXX  30031 58314 41556 83402 10078 20072 40233 52002 76066 885//;
0201583140999992000113006004+31400+116320FM-12+006899999V0200201N002010075019N0060001N1+00781+00691102331ADDAA106001091AY161061AY261061GF108991081051008001999999KA1999N+00751MA1999999101431MD1410001+9999MW1601REMSYN088AAXX  30061 58314 11556 80202 10078 20069 30143 40233 54000 60011 76066 885// 333 20075;
0140583140999992000113009004+31400+116320FM-12+006899999V0200701N001010075019N0050001N1+00761+00671102451ADDAY161031AY261031GF108991081051008001999999MD1210121+9999MW1601REMSYN066AAXX  30091 58314 41550 80701 10076 20067 40245 52012 76066 885//;
0178583140999992000113012004+31400+116320FM-12+006899999V0200701N001010075019N0060001N1+00741+00671102591ADDAA106001091AY161061AY261061GF108991081051008001999999MA1999999101691MD1210141+9999MW1601REMSYN078AAXX  30121 58314 11556 80701 10074 20067 30169 40259 52014 69991 76066 885//;
0140583140999992000113015004+31400+116320FM-12+006899999V0200401N001010075019N0060001N1+00741+00671102641ADDAY161031AY261031GF108991081051008001999999MD1210051+9999MW1601REMSYN066AAXX  30151 58314 41556 80401 10074 20067 40264 52005 76066 885//;
0193583140999992000113018004+31400+116320FM-12+006899999V0209999C000019999999N0120001N1+00751+00681102641ADDAA106000391AY161061GF108991081001999999071999KA1999M+00851MA1999999101741MD1410001+9999MW1001REMSYN088AAXX  30181 58314 11962 80000 10075 20068 30174 40264 54000 69931 70060 8807/ 333 10085;
0133583140999992000113021004+31400+116320FM-12+006899999V0200701N002019999999N0120001N1+00751+00681102631ADDAA124008191GF108991081001999999071999MD1710011+9999REMSYN070AAXX  30211 58314 42962 80702 10075 20068 40263 57001 8807/ 333 70082;
0172583140999992000120100004+31400+116320FM-12+006899999V0200701N002019999999N0080001N1+00741+00671102711ADDAA124002391GF108991081001999999071999MA1999999101801MD1210071+0401MW1101REMSYN088AAXX  01001 58314 31958 80702 10074 20067 30180 40271 52007 71000 8807/ 333 00400 70024;
0124583140999992000120103004+31400+116320FM-12+006899999V0200901N002010075019N0080001N1+00841+00691102701ADDGF108991081051008001999999MD1410001+9999MW1101REMSYN066AAXX  01031 58314 41558 80902 10084 20069 40270 54000 71000 885//;
0193583140999992000120106004+31400+116320FM-12+006899999V0200901N002010075019N0100001N1+00901+00751102491ADDAA106000791AY161061GF108991081051008001999999KA1999N+00721MA1999999101591MD1710211+9999MW1601REMSYN088AAXX  01061 58314 11560 80902 10090 20075 30159 40249 57021 69901 76060 885// 333 20072;
0140583140999992000120109004+31400+116320FM-12+006899999V0200901N002010075019N0080001N1+00891+00811102491ADDAY161031AY261031GF108991081051008001999999MD1410001+9999MW1601REMSYN066AAXX  01091 58314 41558 80902 10089 20081 40249 54000 76066 885//;
0178583140999992000120112004+31400+116320FM-12+006899999V0200701N001010075019N0080001N1+00871+00791102421ADDAA106000191AY161061AY261061GF108991081051008001999999MA1999999101521MD1710071+9999MW1601REMSYN078AAXX  01121 58314 11558 80701 10087 20079 30152 40242 57007 69911 76066 885//;
0140583140999992000120115004+31400+116320FM-12+006899999V0203401N001010075019N0080001N1+00891+00791102531ADDAY161031AY261031GF108991081051008001999999MD1210111+9999MW1601REMSYN066AAXX  01151 58314 41558 83401 10089 20079 40253 52011 76066 885//;
0201583140999992000120118004+31400+116320FM-12+006899999V0202501N001010075019N0080001N1+00891+00831102501ADDAA106002091AY161061AY261061GF108991081051008001999999KA1999M+00931MA1999999101601MD1710031+9999MW1601REMSYN088AAXX  01181 58314 11558 82501 10089 20083 30160 40250 57003 60021 76066 885// 333 10093;
0161583140999992000120121004+31400+116320FM-12+006899999V0202701N002010075019N0080001N1+00901+00841102491ADDAA124002091AY161031AY261031GF108991081051008001999999MD1710011+9999MW1601REMSYN076AAXX  01211 58314 41558 82702 10090 20084 40249 57001 76066 885// 333 70021;
0194583140999992000120200004+31400+116320FM-12+006899999V0202701N002010075019N0050001N1+00921+00881102661ADDAA106000891AY161061AY261061GF108991081051008001999999MA1999999101761MD1210171+0001MW1601REMSYN094AAXX  02001 58314 11550 82702 10092 20088 30176 40266 52017 69981 76066 885// 333 00002 70028;
0140583140999992000120203004+31400+116320FM-12+006899999V0203401N003010075019N0050001N1+00991+00891102711ADDAY161031AY261031GF108991081051008001999999MD1210051+9999MW1211REMSYN066AAXX  02031 58314 41550 83403 10099 20089 40271 52005 72166 885//;
0193583140999992000120206004+31400+116320FM-12+006899999V0203601N001010075019N0050001N1+00921+00751102611ADDAA106000191AY161061GF108991081051008001999999KA1999N+00861MA1999999101711MD1710101+9999MW1101REMSYN088AAXX  02061 58314 11550 83601 10092 20075 30171 40261 57010 69921 71060 885// 333 20086;
0124583140999992000120209004+31400+116320FM-12+006899999V0201401N001010075019N0050001N1+00911+00761102711ADDGF108991081051008001999999MD1210101+9999MW1101REMSYN066AAXX  02091 58314 41550 81401 10091 20076 40271 52010 71000 885//;
0144583140999992000120212004+31400+116320FM-12+006899999V0209999C000019999999N0120001N1+00871+00721102821ADDAA199000021GF108991081001999999071999MA1999999101921MD1210111+9999REMSYN066AAXX  02121 58314 32962 80000 10087 20072 30192 40282 52011 8807/;
0112583140999992000120215004+31400+116320FM-12+006899999V0202701N001019999999N0120001N1+00851+00771102931ADDGF108991081001999999071999MD1210111+9999REMSYN060AAXX  02151 58314 42962 82701 10085 20077 40293 52011 8807/;
0186583140999992000120218004+31400+116320FM-12+006899999V0203401N002019999999N0120001N1+00821+00581102911ADDAA199000091GF108991081001999999071999KA1999M+01021MA1999999102011MD1710021+9999REMSYN076AAXX  02181 58314 32962 83402 10082 20058 30201 40291 57002 8807/ 333 10102;EQDQ01  00002PRCP99
0133583140999992000120221004+31400+116320FM-12+006899999V0203401N002019999999N0150001N1+00761+00511102881ADDAA124001091GF108991081001999999071999MD1710031+9999REMSYN070AAXX  02211 58314 42965 83402 10076 20051 40288 57003 8807/ 333 70009;
0160583140999992000120300004+31400+116320FM-12+006899999V0209999C000019999999N0120001N1+00761+00531102941ADDAA124000391GF108991081001999999071999MA1999999102041MD1210061+0301REMSYN082AAXX  03001 58314 32962 80000 10076 20053 30204 40294 52006 8807/ 333 00352 70002;
0132583140999992000120303004+31400+116320FM-12+006899999V0203401N001019999999N0120001N1+00771+00591102991ADDAY161031GF108991081001999999071999MD1210041+9999MW1001REMSYN066AAXX  03031 58314 41962 83401 10077 20059 40299 52004 70060 8807/;
0193583140999992000120306004+31400+116320FM-12+006899999V0200401N002019999999N0120001N1+00781+00531102811ADDAA106000791AY161061GF108991081001999999071999KA1999N+00701MA1999999101911MD1710171+9999MW1601REMSYN088AAXX  03061 58314 11962 80402 10078 20053 30191 40281 57017 69901 76060 8807/ 333 20070;
0113583140999992000120309004+31400+116320FM-12+006899999V0201401N001012200019N0150001N1+00771+00551999999ADDGA1001+999999999GF100991001001999999001001REMSYN059AAXX  03091 58314 41965 01401 10077 20055 4027 57009 70060;
0170583140999992000120312004+31400+116320FM-12+006899999V0203401N001019999999N0060001N1+00481+00411102711ADDAA106000791AY161061GF106991061001999999041001MA1999999101801MD1710021+9999MW1101REMSYN078AAXX  03121 58314 11956 63401 10048 20041 30180 40271 57002 69901 71060 86040;
0142583140999992000120315004+31400+116320FM-12+006899999V0209999C000010006019N0008001N1+00331+00311102661ADDAY141031GA1091+999999999GF109991091999999999999999MD1710051+9999MW1451REMSYN060AAXX  03151 58314 41/08 90000 10033 20031 40266 57005 74540;
0197583140999992000120318004+31400+116320FM-12+006899999V0202901N002010003019N0005001N1+00331+00311102531ADDAA199000021AY141061GA1091+999999999GF109991091999999999999999KA1999M+00831MA1999999101621MD1710131+9999MW1471REMSYN076AAXX  03181 58314 31/05 92902 10033 20031 30162 40253 57013 74740 333 10083;
0171583140999992000120321004+31400+116320FM-12+006899999V0201101N001010003019N0005001N1+00201+00171102371ADDAA124000791AY141031AY241031GA1091+999999999GF109991091999999999999999MD1710161+9999MW1451REMSYN070AAXX  03211 58314 41/05 91101 10020 20017 40237 57016 74544 333 79999;
0216583140999992000120400004+31400+116320FM-12+006899999V0202901N001010006019N0007001N1+00221+00191102441ADDAA124000791AY141061AY241061GA1091+999999999GF109991091999999999999999IA2999+00209MA1999999101521MD1210061-0501MW1431REMSYN088AAXX  04001 58314 31/07 92901 10022 20019 30152 40244 52006 74344 333 05555 30020 79999;
0150583140999992000120403004+31400+116320FM-12+006899999V0209999C000012200019N0080001N1+00671+00651102321ADDAY141031AY241031GA1001+999999999GF100991001001999999001001MD1710111+9999MW1281REMSYN060AAXX  04031 58314 41958 00000 10067 20065 40232 57011 72844;
0216583140999992000120406004+31400+116320FM-12+006899999V0201101N002012200019N0150001N1+01551+00201102021ADDAA199000091AY141061GA1001+999999999GF100991001001999999001001KA1999N+00071MA1999999101131MD1710281+9999MW1001REMSYN076AAXX  04061 58314 31965 01102 10155 20020 30113 40202 57028 70040 333 20007;EQDQ01  00002PRCP99
0122583140999992000120409004+31400+116320FM-12+006899999V0201601N001012200019N0200001N1+01371+00571102031ADDGA1001+999999999GF100991001001999999001001MD1410001+9999REMSYN054AAXX  04091 58314 42970 01601 10137 20057 40203 54000;
0122583140999992000120415004+31400+116320FM-12+006899999V0209999C000012200019N0100001N1+00491+00391102281ADDGA1001+999999999GF100991001001999999001001MD1210141+9999REMSYN054AAXX  04151 58314 42960 00000 10049 20039 40228 52014;
0196583140999992000120418004+31400+116320FM-12+006899999V0209999C000012200019N0120001N1+00341+00261102351ADDAA199000091GA1001+999999999GF100991001001999999001001KA1999M+01631MA1999999101451MD1210081+9999REMSYN070AAXX  04181 58314 32962 00000 10034 20026 30145 40235 52008 333 10163;EQDQ01  00002PRCP99
0122583140999992000120421004+31400+116320FM-12+006899999V0209999C000012200019N0120001N1+00251+00151102431ADDGA1001+999999999GF100991001001999999001001MD1210081+9999REMSYN054AAXX  04211 58314 42962 00000 10025 20015 40243 52008;
0201583140999992000120500004+31400+116320FM-12+006899999V0209999C000012200019N0150001N1+00221+00141102551ADDAA199000091GA1001+999999999GF100991001001999999001001IA2999-00109MA1999999101641MD1210111+0101REMSYN076AAXX  05001 58314 32965 00000 10022 20014 30164 40255 52011 333 00100 31010;EQDQ01  00002PRCP99
0122583140999992000120503004+31400+116320FM-12+006899999V0203401N001012200019N0200001N1+01001+00191102611ADDGA1001+999999999GF100991001001999999001001MD1210071+9999REMSYN054AAXX  05031 58314 42970 03401 10100 20019 40261 52007;
0196583140999992000120506004+31400+116320FM-12+006899999V0201101N003012200019N0300001N1+01461+00421102341ADDAA199000091GA1001+999999999GF100991001001999999001001KA1999N+00151MA1999999101441MD1710271+9999REMSYN070AAXX  05061 58314 32980 01103 10146 20042 30144 40234 57027 333 20015;EQDQ01  00002PRCP99
0122583140999992000120509004+31400+116320FM-12+006899999V0200901N002012200019N0200001N1+01221+00601102361ADDGA1001+999999999GF100991001001999999001001MD1210021+9999REMSYN054AAXX  05091 58314 42970 00902 10122 20060 40236 52002;
0173583140999992000120512004+31400+116320FM-12+006899999V0209999C000012200019N0200001N1+00731+00571102511ADDAA199000091GA1001+999999999GF100991001001999999001001MA1999999101601MD1210141+9999REMSYN060AAXX  05121 58314 32970 00000 10073 20057 30160 40251 52014;EQDQ01  00002PRCP99
0122583140999992000120515004+31400+116320FM-12+006899999V0202701N001012200019N0150001N1+00471+00421102491ADDGA1001+999999999GF100991001001999999001001MD1710011+9999REMSYN054AAXX  05151 58314 42965 02701 10047 20042 40249 57001;
0208583140999992000120518004+31400+116320FM-12+006899999V0202701N002012200019N0040001N1+00321+00271102421ADDAA199000091GA1001+999999999GF100991001001999999001001KA1999M+01501MA1999999101521MD1710071+9999MW1101REMSYN076AAXX  05181 58314 31940 02702 10032 20027 30152 40242 57007 71000 333 10150;EQDQ01  00002PRCP99
0142583140999992000120521004+31400+116320FM-12+006899999V0201401N002010006019N0008001N1+00221+00191102391ADDAY141031GA1091+999999999GF109991091999999999999999MD1710031+9999MW1471REMSYN060AAXX  05211 58314 41/08 91402 10022 20019 40239 57003 74740;
0221583140999992000120600004+31400+116320FM-12+006899999V0202001N001010003019N0005001N1+00211+00181102401ADDAA199000091AY141061GA1091+999999999GF109991091999999999999999IA2999+00109MA1999999101491MD1410001-0201MW1471REMSYN082AAXX  06001 58314 31/05 92001 10021 20018 30149 40240 54000 74740 333 05200 30010;EQDQ01  00002PRCP99
0132583140999992000120603004+31400+116320FM-12+006899999V0201401N001019999999N0080001N1+00601+00531102471ADDAY141031GF107991071001999999071999MD1210071+9999MW1101REMSYN066AAXX  06031 58314 41958 71401 10060 20053 40247 52007 71040 8707/;
0206583140999992000120606004+31400+116320FM-12+006899999V0201401N002019999999N0150001N1+01311+00381102211ADDAA199000091AY141061GF105991051001999999041001KA1999N+00131MA1999999101311MD1710251+9999MW1001REMSYN082AAXX  06061 58314 31965 51402 10131 20038 30131 40221 57025 70040 85040 333 20013;EQDQ01  00002PRCP99
0112583140999992000120609004+31400+116320FM-12+006899999V0209999C000019999999N0150001N1+01241+00601102201ADDGF107991071001999999041999MD1710011+9999REMSYN060AAXX  06091 58314 42965 70000 10124 20060 40220 57001 8704/;
0163583140999992000120612004+31400+116320FM-12+006899999V0209999C000019999999N0120001N1+00931+00701102321ADDAA199000091GF107991071001999999071999MA1999999101411MD1210111+9999REMSYN066AAXX  06121 58314 32962 70000 10093 20070 30141 40232 52011 8707/;EQDQ01  00002PRCP99
0112583140999992000120615004+31400+116320FM-12+006899999V0202901N001019999999N0120001N1+00801+00671102431ADDGF107991071001999999071999MD1210121+9999REMSYN060AAXX  06151 58314 42962 72901 10080 20067 40243 52012 8707/;
0186583140999992000120618004+31400+116320FM-12+006899999V0201101N002019999999N0120001N1+00811+00661102411ADDAA199000091GF108991081001999999071999KA1999M+01401MA1999999101521MD1710011+9999REMSYN076AAXX  06181 58314 32962 81102 10081 20066 30152 40241 57001 8807/ 333 10140;EQDQ01  00002PRCP99
0112583140999992000120621004+31400+116320FM-12+006899999V0201401N001019999999N0120001N1+00791+00661102411ADDGF107991071001999999071999MD1410001+9999REMSYN060AAXX  06211 58314 42962 71401 10079 20066 40241 54000 8707/;
0191583140999992000120700004+31400+116320FM-12+006899999V0209999C000019999999N0120001N1+00721+00631102501ADDAA199000091GF107991071001999999041001IA2999+00309MA1999999101601MD1210081+0101REMSYN082AAXX  07001 58314 32962 70000 10072 20063 30160 40250 52008 87040 333 00105 30034;EQDQ01  00002PRCP99
0122583140999992000120703004+31400+116320FM-12+006899999V0200901N001012200019N0150001N1+01301+00751102601ADDGA1001+999999999GF100991001001999999001001MD1210111+9999REMSYN054AAXX  07031 58314 42965 00901 10130 20075 40260 52011;
0196583140999992000120706004+31400+116320FM-12+006899999V0200701N003012200019N0200001N1+01561+00391102321ADDAA199000091GA1001+999999999GF100991001001999999001001KA1999N+00641MA1999999101431MD1710281+9999REMSYN070AAXX  07061 58314 32970 00703 10156 20039 30143 40232 57028 333 20064;EQDQ01  00002PRCP99
0122583140999992000120709004+31400+116320FM-12+006899999V0200401N001012200019N0150001N1+01411+00671102371ADDGA1001+999999999GF100991001001999999001001MD1210051+9999REMSYN054AAXX  07091 58314 42965 00401 10141 20067 40237 52005;
0173583140999992000120712004+31400+116320FM-12+006899999V0209999C000012200019N0150001N1+00861+00691102551ADDAA199000091GA1001+999999999GF100991001001999999001001MA1999999101651MD1210171+9999REMSYN060AAXX  07121 58314 32965 00000 10086 20069 30165 40255 52017;EQDQ01  00002PRCP99
0122583140999992000120715004+31400+116320FM-12+006899999V0209999C000012200019N0150001N1+00621+00531102531ADDGA1001+999999999GF100991001001999999001001MD1710021+9999REMSYN054AAXX  07151 58314 42965 00000 10062 20053 40253 57002;
0196583140999992000120718004+31400+116320FM-12+006899999V0209999C000012200019N0150001N1+00471+00401102461ADDAA199000091GA1001+999999999GF100991001001999999001001KA1999M+01641MA1999999101571MD1710061+9999REMSYN070AAXX  07181 58314 32965 00000 10047 20040 30157 40246 57006 333 10164;EQDQ01  00002PRCP99
0134583140999992000120721004+31400+116320FM-12+006899999V0209999C000012200019N0080001N1+00301+00251102391ADDGA1001+999999999GF100991001001999999001001MD1710081+9999MW1101REMSYN060AAXX  07211 58314 41958 00000 10030 20025 40239 57008 71000;
0221583140999992000120800004+31400+116320FM-12+006899999V0209999C000010006019N0006001N1+00271+00241102331ADDAA199000091AY141061GA1091+999999999GF109991091999999999999999IA2999+00109MA1999999101421MD1710071-0201MW1451REMSYN082AAXX  08001 58314 31/06 90000 10027 20024 30142 40233 57007 74540 333 05255 30010;EQDQ01  00002PRCP99
0142583140999992000120803004+31400+116320FM-12+006899999V0209999C000012200019N0150001N1+00961+00341102191ADDAY141031GA1001+999999999GF100991001001999999001001MD1710131+9999MW1001REMSYN060AAXX  08031 58314 41965 00000 10096 20034 40219 57013 70040;
0216583140999992000120806004+31400+116320FM-12+006899999V0200901N002012200019N0200001N1+01571+00821101851ADDAA199000091AY141061GA1001+999999999GF100991001001999999001001KA1999N+00231MA1999999100961MD1710331+9999MW1001REMSYN076AAXX  08061 58314 31970 00902 10157 20082 30096 40185 57033 70040 333 20023;EQDQ01  00002PRCP99
0122583140999992000120809004+31400+116320FM-12+006899999V0200701N002012200019N0200001N1+01381+01021101751ADDGA1001+999999999GF100991001001999999001001MD1710101+9999REMSYN054AAXX  08091 58314 42970 00702 10138 20102 40175 57010;
0173583140999992000120812004+31400+116320FM-12+006899999V0209999C000012200019N0150001N1+00981+00861101761ADDAA199000091GA1001+999999999GF100991001001999999001001MA1999999100861MD1410001+9999REMSYN060AAXX  08121 58314 32965 00000 10098 20086 30086 40176 54000;EQDQ01  00002PRCP99
0122583140999992000120815004+31400+116320FM-12+006899999V0209999C000012200019N0120001N1+00851+00771101701ADDGA1001+999999999GF100991001001999999001001MD1710051+9999REMSYN054AAXX  08151 58314 42962 00000 10085 20077 40170 57005;
0186583140999992000120818004+31400+116320FM-12+006899999V0202001N001019999999N0150001N1+00921+00821101671ADDAA199000091GF108991081001999999071999KA1999M+01641MA1999999100791MD1710021+9999REMSYN076AAXX  08181 58314 32965 82001 10092 20082 30079 40167 57002 8807/ 333 10164;EQDQ01  00002PRCP99
0112583140999992000120821004+31400+116320FM-12+006899999V0209999C000019999999N0120001N1+00981+00861101641ADDGF108991081001999999071999MD1710031+9999REMSYN060AAXX  08211 58314 42962 80000 10098 20086 40164 57003 8807/;
0185583140999992000120900004+31400+116320FM-12+006899999V0209999C000019999999N0080001N1+01031+00911101711ADDAA199000091GF108991081001999999071999MA1999999100821MD1210061+0061MW1101REMSYN082AAXX  09001 58314 31958 80000 10103 20091 30082 40171 52006 71000 8807/ 333 05608;EQDQ01  00002PRCP99
0132583140999992000120903004+31400+116320FM-12+006899999V0203201N001019999999N0080001N1+01261+01011101761ADDAY161031GF107991071001999999071999MD1210051+9999MW1211REMSYN066AAXX  09031 58314 41958 73201 10126 20101 40176 52005 72160 8707/;
0193583140999992000120906004+31400+116320FM-12+006899999V0209999C000019999999N0100001N1+01601+00931101541ADDAA106000791AY161061GF108991081001999999071999KA1999N+00801MA1999999100661MD1710211+9999MW1001REMSYN088AAXX  09061 58314 11960 80000 10160 20093 30066 40154 57021 69901 70060 8807/ 333 20080;
0132583140999992000120909004+31400+116320FM-12+006899999V0200401N003019999999N0080001N1+01151+00951101711ADDAY161031GF108991081001999999071999MD1210161+9999MW1601REMSYN066AAXX  09091 58314 41958 80403 10115 20095 40171 52016 76060 8807/;
0170583140999992000120912004+31400+116320FM-12+006899999V0200701N001010075019N0080001N1+01021+00941101881ADDAA106001091AY161061GF108991081051008001999999MA1999999100991MD1210171+9999MW1601REMSYN078AAXX  09121 58314 11558 80701 10102 20094 30099 40188 52017 60011 76060 885//;
0140583140999992000120915004+31400+116320FM-12+006899999V0209999C000010075019N0080001N1+01001+00941102031ADDAY161031AY261031GF108991081051008001999999MD1210151+9999MW1601REMSYN066AAXX  09151 58314 41558 80000 10100 20094 40203 52015 76066 885//;
0201583140999992000120918004+31400+116320FM-12+006899999V0203201N004010075019N0080001N1+00921+00751102361ADDAA106008991AY161061AY261061GF108991081051008001999999KA1999M+01631MA1999999101471MD1210331+9999MW1601REMSYN088AAXX  09181 58314 11558 83204 10092 20075 30147 40236 52033 60091 76066 885// 333 10163;
0161583140999992000120921004+31400+116320FM-12+006899999V0203401N003010075019N0080001N1+00821+00671102611ADDAA124013091AY161031AY261031GF108991081051008001999999MD1210241+9999MW1601REMSYN076AAXX  09211 58314 41558 83403 10082 20067 40261 52024 76066 885// 333 70130;
0194583140999992000121000004+31400+116320FM-12+006899999V0203201N003010075019N0070001N1+00701+00561102941ADDAA106003091AY161061AY261061GF108991081051008001999999MA1999999102041MD1210331+1201MW1601REMSYN094AAXX  10001 58314 11557 83203 10070 20056 30204 40294 52033 60031 76066 885// 333 01253 70134;
0140583140999992000121003004+31400+116320FM-12+006899999V0203401N004010075019N0060001N1+00621+00531103101ADDAY161031AY261031GF108991081051008001999999MD1210151+9999MW1601REMSYN066AAXX  10031 58314 41556 83404 10062 20053 40310 52015 76066 885//;
0201583140999992000121006004+31400+116320FM-12+006899999V0203201N002010075019N0060001N1+00581+00511103001ADDAA106001091AY161061AY261061GF108991081051008001999999KA1999N+00541MA1999999102091MD1710101+9999MW1601REMSYN088AAXX  10061 58314 11556 83202 10058 20051 30209 40300 57010 60011 76066 885// 333 20054;
0140583140999992000121009004+31400+116320FM-12+006899999V0201101N001010075019N0080001N1+00621+00411103141ADDAY161031AY261031GF108991081051008001999999MD1210141+9999MW1601REMSYN066AAXX  10091 58314 41558 81101 10062 20041 40314 52014 76066 885//;
0170583140999992000121012004+31400+116320FM-12+006899999V0200701N001010075019N0120001N1+00621+00411103281ADDAA106000191AY161061GF108991081051008001999999MA1999999102371MD1210141+9999MW1001REMSYN078AAXX  10121 58314 11562 80701 10062 20041 30237 40328 52014 69921 70060 885//;
0112583140999992000121015004+31400+116320FM-12+006899999V0200901N001010075019N0120001N1+00581+00311103371ADDGF108991081051008001999999MD1210081+9999REMSYN060AAXX  10151 58314 42562 80901 10058 20031 40337 52008 885//;
0167583140999992000121018004+31400+116320FM-12+006899999V0200901N003019999999N0120001N1+00511+00211103431ADDAA199000021GF108991081001999999071999KA1999M+00931MA1999999102511MD1210061+9999REMSYN076AAXX  10181 58314 32962 80903 10051 20021 30251 40343 52006 8807/ 333 10093;
0133583140999992000121021004+31400+116320FM-12+006899999V0200701N002019999999N0120001N1+00451+00111103411ADDAA124001891GF108991081001999999071999MD1710021+9999REMSYN070AAXX  10211 58314 42962 80702 10045 20011 40341 57002 8807/ 333 70018;
0178583140999992000121100004+31400+116320FM-12+006899999V0201101N004019999999N0120001N1+00441+00071103541ADDAA124001591GF108991081001999999071999IA2999+00369MA1999999102621MD1210131+0601REMSYN088AAXX  11001 58314 32962 81104 10044 20007 30262 40354 52013 8807/ 333 00653 30036 70014;
0112583140999992000121103004+31400+116320FM-12+006899999V0200901N005019999999N0150001N1+00511-00371103601ADDGF107991071001999999071999MD1210061+9999REMSYN060AAXX  11031 58314 42965 70905 10051 21037 40360 52006 8707/;
0186583140999992000121106004+31400+116320FM-12+006899999V0200901N003019999999N0200001N1+00481-00451103371ADDAA199000091GF108991081001999999071999KA1999N+00411MA1999999102451MD1710231+9999REMSYN076AAXX  11061 58314 32970 80903 10048 21045 30245 40337 57023 8807/ 333 20041;EQDQ01  00002PRCP99
0112583140999992000121109004+31400+116320FM-12+006899999V0200201N001019999999N0200001N1+00421-00541103661ADDGF108991081001999999071999MD1210291+9999REMSYN060AAXX  11091 58314 42970 80201 10042 21054 40366 52029 8807/;
0163583140999992000121112004+31400+116320FM-12+006899999V0203401N001019999999N0200001N1+00371-00101103751ADDAA199000091GF108991081001999999071999MA1999999102821MD1210081+9999REMSYN066AAXX  11121 58314 32970 83401 10037 21010 30282 40375 52008 8807/;EQDQ01  00002PRCP99
0124583140999992000121115004+31400+116320FM-12+006899999V0200701N002019999999N0100001N1+00351+00001103711ADDGF108991081001999999071999MD1710031+9999MW1601REMSYN066AAXX  11151 58314 41960 80702 10035 20000 40371 57003 76000 8807/;
0193583140999992000121118004+31400+116320FM-12+006899999V0203201N001010075019N0100001N1+00311+00101103601ADDAA106000191AY161061GF108991081051008001999999KA1999M+00561MA1999999102681MD1710111+9999MW1601REMSYN088AAXX  11181 58314 11560 83201 10031 20010 30268 40360 57011 69911 76060 885// 333 10056;
0161583140999992000121121004+31400+116320FM-12+006899999V0200401N001010075019N0080001N1+00121+00041103511ADDAA124001391AY161031AY261031GF108991081051008001999999MD1710101+9999MW1681REMSYN076AAXX  11211 58314 41558 80401 10012 20004 40351 57010 76866 885// 333 70013;
0212583140999992000121200004+31400+116320FM-12+006899999V0200201N001010075019N0060001N1+00201+00091103531ADDAA106002091AY171061AY261061GF108991081051008001999999IA2999+00109MA1999999102601MD1210021+0001MW1601REMSYN100AAXX  12001 58314 11556 80201 10020 20009 30260 40353 52002 60021 76076 885// 333 00052 30010 70018;
0140583140999992000121203004+31400+116320FM-12+006899999V0203201N001010075019N0060001N1+00091+00031103501ADDAY171031AY261031GF108991081051008001999999MD1710031+9999MW1701REMSYN066AAXX  12031 58314 41556 83201 10009 20003 40350 57003 77076 885//;
0201583140999992000121206004+31400+116320FM-12+006899999V0201101N001010075019N0090001N1+00201+00041103241ADDAA106005191AY171061AY261061GF108991081051008001999999KA1999N+00051MA1999999102311MD1710261+9999MW1601REMSYN088AAXX  12061 58314 11559 81101 10020 20004 30231 40324 57026 60051 76076 885// 333 20005;
0132583140999992000121209004+31400+116320FM-12+006899999V0209999C000010075019N0100001N1+00251+00031103211ADDAY161031GF108991081051008001999999MD1710031+9999MW1001REMSYN066AAXX  12091 58314 41560 80000 10025 20003 40321 57003 70060 885//;
0170583140999992000121212004+31400+116320FM-12+006899999V0201401N002010075019N0120001N1+00221+00061103151ADDAA106000191AY161061GF108991081051008001999999MA1999999102221MD1710061+9999MW1001REMSYN078AAXX  12121 58314 11562 81402 10022 20006 30222 40315 57006 69911 70060 885//;
0112583140999992000121215004+31400+116320FM-12+006899999V0202901N002019999999N0150001N1+00151-00021103111ADDGF107991071001999999071999MD1710041+9999REMSYN060AAXX  12151 58314 42965 72902 10015 21002 40311 57004 8707/;
0167583140999992000121218004+31400+116320FM-12+006899999V0202901N002019999999N0150001N1+00101-00041102921ADDAA199000021GF106991061001999999041001KA1999M+00321MA1999999101991MD1710191+9999REMSYN076AAXX  12181 58314 32965 62902 10010 21004 30199 40292 57019 86040 333 10032;
0133583140999992000121221004+31400+116320FM-12+006899999V0201601N001019999999N0200001N1-00041-00071102841ADDAA124006191GF105991051001999999041001MD1710081+9999REMSYN070AAXX  12211 58314 42970 51601 11004 21007 40284 57008 85040 333 70060;
0178583140999992000121300004+31400+116320FM-12+006899999V0209999C000019999999N0150001N1-00031-00151102851ADDAA124005691GF106991061001999999041001IA2999-00259MA1999999101921MD1210011-0701REMSYN088AAXX  13001 58314 32965 60000 11003 21015 30192 40285 52001 86040 333 05752 31025 70055;
0112583140999992000121303004+31400+116320FM-12+006899999V0200701N002012200019N0200001N1+00651+00181102711ADDGF104991001001999999001021MD1710131+9999REMSYN060AAXX  13031 58314 42970 40702 10065 20018 40271 57013 80002;
0196583140999992000121306004+31400+116320FM-12+006899999V0200901N002012200019N0200001N1+00961-00311102411ADDAA199000091GA1001+999999999GF100991001001999999001001KA1999N-00061MA1999999101501MD1710291+9999REMSYN070AAXX  13061 58314 32970 00902 10096 21031 30150 40241 57029 333 21006;EQDQ01  00002PRCP99
0173583140999992000121312004+31400+116320FM-12+006899999V0209999C000012200019N0200001N1+00311+00101102551ADDAA199000091GA1001+999999999GF100991001001999999001001MA1999999101631MD1210111+9999REMSYN060AAXX  13121 58314 32970 00000 10031 20010 30163 40255 52011;EQDQ01  00002PRCP99
0122583140999992000121315004+31400+116320FM-12+006899999V0209999C000012200019N0200001N1+00121+00011102601ADDGA1001+999999999GF100991001001999999001001MD1210051+9999REMSYN054AAXX  13151 58314 42970 00000 10012 20001 40260 52005;
0196583140999992000121318004+31400+116320FM-12+006899999V0200901N001012200019N0200001N1-00021-00141102581ADDAA199000091GA1001+999999999GF100991001001999999001001KA1999M+01071MA1999999101671MD1710011+9999REMSYN070AAXX  13181 58314 32970 00901 11002 21014 30167 40258 57001 333 10107;EQDQ01  00002PRCP99
0122583140999992000121321004+31400+116320FM-12+006899999V0209999C000012200019N0200001N1-00091-00151102621ADDGA1001+999999999GF100991001001999999001001MD1210041+9999REMSYN054AAXX  13211 58314 42970 00000 11009 21015 40262 52004;
0201583140999992000121400004+31400+116320FM-12+006899999V0209999C000012200019N0200001N1-00071-00191102731ADDAA199000091GA1001+999999999GF100991001001999999001001IA2999-00209MA1999999101801MD1210091-0101REMSYN076AAXX  14001 58314 32970 00000 11007 21019 30180 40273 52009 333 05100 31027;EQDQ01  00002PRCP99
0122583140999992000121403004+31400+116320FM-12+006899999V0200901N002012200019N0200001N1+00721+00261102571ADDGA1001+999999999GF100991001001999999001001MD1710151+9999REMSYN054AAXX  14031 58314 42970 00902 10072 20026 40257 57015;
0196583140999992000121406004+31400+116320FM-12+006899999V0201601N002012200019N0200001N1+01301-00351102351ADDAA199000091GA1001+999999999GF100991001001999999001001KA1999N-00151MA1999999101451MD1710201+9999REMSYN070AAXX  14061 58314 32970 01602 10130 21035 30145 40235 57020 333 21015;EQDQ01  00002PRCP99
0122583140999992000121409004+31400+116320FM-12+006899999V0201101N002012200019N0200001N1+01181+00171102361ADDGA1001+999999999GF100991001001999999001001MD1410001+9999REMSYN054AAXX  14091 58314 42970 01102 10118 20017 40236 54000;
0173583140999992000121412004+31400+116320FM-12+006899999V0209999C000012200019N0200001N1+00461+00291102491ADDAA199000091GA1001+999999999GF100991001001999999001001MA1999999101571MD1210121+9999REMSYN060AAXX  14121 58314 32970 00000 10046 20029 30157 40249 52012;EQDQ01  00002PRCP99
0122583140999992000121415004+31400+116320FM-12+006899999V0209999C000012200019N0200001N1+00221+00111102501ADDGA1001+999999999GF100991001001999999001001MD1210021+9999REMSYN054AAXX  14151 58314 42970 00000 10022 20011 40250 52002;
0196583140999992000121418004+31400+116320FM-12+006899999V0202701N001012200019N0150001N1+00061-00021102371ADDAA199000091GA1001+999999999GF100991001001999999001001KA1999M+01351MA1999999101471MD1710121+9999REMSYN070AAXX  14181 58314 32965 02701 10006 21002 30147 40237 57012 333 10135;EQDQ01  00002PRCP99
0122583140999992000121421004+31400+116320FM-12+006899999V0209999C000012200019N0150001N1-00011-00101102361ADDGA1001+999999999GF100991001001999999001001MD1710021+9999REMSYN054AAXX  14211 58314 42965 00000 11001 21010 40236 57002;
0201583140999992000121500004+31400+116320FM-12+006899999V0209999C000012200019N0200001N1+00001-00061102341ADDAA199000091GA1001+999999999GF100991001001999999001001IA2999-00309MA1999999101421MD1710031-0401REMSYN076AAXX  15001 58314 32970 00000 10000 21006 30142 40234 57003 333 05401 31030;EQDQ01  00002PRCP99
0122583140999992000121503004+31400+116320FM-12+006899999V0200201N001012200019N0200001N1+00961+00171102301ADDGA1001+999999999GF100991001001999999001001MD1710021+9999REMSYN054AAXX  15031 58314 42970 00201 10096 20017 40230 57002;
0186583140999992000121506004+31400+116320FM-12+006899999V0200701N001019999999N0200001N1+01131+00281102241ADDAA199000091GF106991061001999999041001KA1999N-00101MA1999999101331MD1710071+9999REMSYN076AAXX  15061 58314 32970 60701 10113 20028 30133 40224 57007 86040 333 21010;EQDQ01  00002PRCP99
0112583140999992000121509004+31400+116320FM-12+006899999V0200401N001019999999N0200001N1+00981+00311102351ADDGF107991071001999999041001MD1210111+9999REMSYN060AAXX  15091 58314 42970 70401 10098 20031 40235 52011 87040;
0163583140999992000121512004+31400+116320FM-12+006899999V0209999C000019999999N0200001N1+00831+00441102611ADDAA199000091GF108991081001999999071999MA1999999101701MD1210261+9999REMSYN066AAXX  15121 58314 32970 80000 10083 20044 30170 40261 52026 8807/;EQDQ01  00002PRCP99
0112583140999992000121515004+31400+116320FM-12+006899999V0209999C000019999999N0150001N1+00761+00511102661ADDGF108991081001999999071999MD1210061+9999REMSYN060AAXX  15151 58314 42965 80000 10076 20051 40266 52006 8807/;
0186583140999992000121518004+31400+116320FM-12+006899999V0209999C000019999999N0120001N1+00711+00461102761ADDAA199000091GF108991081001999999071999KA1999M+01201MA1999999101861MD1210101+9999REMSYN076AAXX  15181 58314 32962 80000 10071 20046 30186 40276 52010 8807/ 333 10120;EQDQ01  00002PRCP99
0112583140999992000121521004+31400+116320FM-12+006899999V0202701N001019999999N0120001N1+00651+00541102801ADDGF108991081001999999071999MD1210041+9999REMSYN060AAXX  15211 58314 42962 82701 10065 20054 40280 52004 8807/;
0203583140999992000121600004+31400+116320FM-12+006899999V0200901N001019999999N0080001N1+00661+00501102991ADDAA199000091GF108991081001999999071999IA2999+00509MA1999999102081MD1210181+0701MW1101REMSYN088AAXX  16001 58314 31958 80901 10066 20050 30208 40299 52018 71000 8807/ 333 00707 30050;EQDQ01  00002PRCP99
0124583140999992000121603004+31400+116320FM-12+006899999V0209999C000019999999N0080001N1+00721+00471102961ADDGF108991081001999999071999MD1710031+9999MW1101REMSYN066AAXX  16031 58314 41958 80000 10072 20047 40296 57003 71000 8807/;
0198583140999992000121606004+31400+116320FM-12+006899999V0200901N002019999999N0080001N1+00801+00511102651ADDAA199000091GF108991081001999999071999KA1999N+00631MA1999999101751MD1710301+9999MW1101REMSYN082AAXX  16061 58314 31958 80902 10080 20051 30175 40265 57030 71000 8807/ 333 20063;EQDQ01  00002PRCP99
0124583140999992000121609004+31400+116320FM-12+006899999V0200901N002019999999N0080001N1+00801+00531102731ADDGF108991081001999999071999MD1210071+9999MW1101REMSYN066AAXX  16091 58314 41958 80902 10080 20053 40273 52007 71000 8807/;
0162583140999992000121612004+31400+116320FM-12+006899999V0209999C000019999999N0080001N1+00731+00551102851ADDAA106000191GF108991081001999999071999MA1999999101941MD1210121+9999MW1601REMSYN078AAXX  16121 58314 11958 80000 10073 20055 30194 40285 52012 69921 76000 8807/;
0140583140999992000121615004+31400+116320FM-12+006899999V0209999C000019999999N0060001N1+00681+00591102811ADDAY161031AY261031GF108991081001999999071999MD1710041+9999MW1211REMSYN066AAXX  16151 58314 41956 80000 10068 20059 40281 57004 72166 8807/;
0193583140999992000121618004+31400+116320FM-12+006899999V0209999C000019999999N0080001N1+00691+00601102801ADDAA106001091AY161061GF108991081001999999071999KA1999M+00861MA1999999101891MD1710011+9999MW1101REMSYN088AAXX  16181 58314 11958 80000 10069 20060 30189 40280 57001 60011 71060 8807/ 333 10086;
0145583140999992000121621004+31400+116320FM-12+006899999V0209999C000019999999N0060001N1+00661+00591102641ADDAA124001591GF108991081001999999071999MD1710151+9999MW1101REMSYN076AAXX  16211 58314 41956 80000 10066 20059 40264 57015 71000 8807/ 333 70015;
0172583140999992000121700004+31400+116320FM-12+006899999V0209999C000019999999N0070001N1+00691+00621102711ADDAA124001591GF108991081001999999071999MA1999999101801MD1210061-0301MW1101REMSYN088AAXX  17001 58314 31957 80000 10069 20062 30180 40271 52006 71000 8807/ 333 05300 70015;
0112583140999992000121703004+31400+116320FM-12+006899999V0202901N001019999999N0120001N1+00881+00641102641ADDGF108991081001999999071999MD1710061+9999REMSYN060AAXX  17031 58314 42962 82901 10088 20064 40264 57006 8807/;
0186583140999992000121706004+31400+116320FM-12+006899999V0201401N002019999999N0150001N1+01211+00691102191ADDAA199000091GF107991071001999999071999KA1999N+00631MA1999999101301MD1710441+9999REMSYN076AAXX  17061 58314 32965 71402 10121 20069 30130 40219 57044 8707/ 333 20063;EQDQ01  00002PRCP99
0112583140999992000121709004+31400+116320FM-12+006899999V0201101N002019999999N0120001N1+01071+00741102211ADDGF108991081001999999071999MD1210011+9999REMSYN060AAXX  17091 58314 42962 81102 10107 20074 40221 52001 8807/;
0163583140999992000121712004+31400+116320FM-12+006899999V0200401N001019999999N0150001N1+00961+00791102181ADDAA199000091GF108991081001999999071999MA1999999101281MD1710031+9999REMSYN066AAXX  17121 58314 32965 80401 10096 20079 30128 40218 57003 8807/;EQDQ01  00002PRCP99
0112583140999992000121715004+31400+116320FM-12+006899999V0201801N001019999999N0150001N1+00841+00761102061ADDGF106991061001999999041001MD1710121+9999REMSYN060AAXX  17151 58314 42965 61801 10084 20076 40206 57012 86040;
0186583140999992000121718004+31400+116320FM-12+006899999V0209999C000019999999N0120001N1+00731+00661102031ADDAA199000091GF108991081001999999071999KA1999M+01251MA1999999101141MD1710021+9999REMSYN076AAXX  17181 58314 32962 80000 10073 20066 30114 40203 57002 8807/ 333 10125;EQDQ01  00002PRCP99
0112583140999992000121721004+31400+116320FM-12+006899999V0201401N002019999999N0120001N1+00771+00681102021ADDGF108991081001999999071999MD1710011+9999REMSYN060AAXX  17211 58314 42962 81402 10077 20068 40202 57001 8807/;
0201583140999992000121800004+31400+116320FM-12+006899999V0201101N001012200019N0120001N1+00691+00601102101ADDAA199000091GA1001+999999999GF100991001001999999001001IA2999+00409MA1999999101201MD1210071-0601REMSYN076AAXX  18001 58314 32962 01101 10069 20060 30120 40210 52007 333 05600 30044;EQDQ01  00002PRCP99
0112583140999992000121803004+31400+116320FM-12+006899999V0200901N002019999999N0120001N1+01171+00731102221ADDGF107991001001999999001021MD1210131+9999REMSYN060AAXX  18031 58314 42962 70902 10117 20073 40222 52013 80002;
0186583140999992000121806004+31400+116320FM-12+006899999V0200401N002019999999N0200001N1+01291+00691101981ADDAA199000091GF107991071001999999071999KA1999N+00671MA1999999101091MD1710241+9999REMSYN076AAXX  18061 58314 32970 70402 10129 20069 30109 40198 57024 8707/ 333 20067;EQDQ01  00002PRCP99
0112583140999992000121809004+31400+116320FM-12+006899999V0209999C000019999999N0200001N1+01191+00801102101ADDGF108991081001999999071999MD1210121+9999REMSYN060AAXX  18091 58314 42970 80000 10119 20080 40210 52012 8807/;
0163583140999992000121812004+31400+116320FM-12+006899999V0209999C000019999999N0120001N1+00901+00751102201ADDAA199000091GF106991061001999999041001MA1999999101301MD1210091+9999REMSYN066AAXX  18121 58314 32962 60000 10090 20075 30130 40220 52009 86040;EQDQ01  00002PRCP99
0112583140999992000121815004+31400+116320FM-12+006899999V0209999C000019999999N0120001N1+00771+00711102451ADDGF108991081001999999071999MD1210251+9999REMSYN060AAXX  18151 58314 42962 80000 10077 20071 40245 52025 8807/;
0198583140999992000121818004+31400+116320FM-12+006899999V0209999C000019999999N0090001N1+00841+00731102631ADDAA199000091GF108991081001999999071999KA1999M+01351MA1999999101741MD1210191+9999MW1101REMSYN082AAXX  18181 58314 31959 80000 10084 20073 30174 40263 52019 71000 8807/ 333 10135;EQDQ01  00002PRCP99
0124583140999992000121821004+31400+116320FM-12+006899999V0209999C000019999999N0090001N1+00821+00761102671ADDGF108991081001999999071999MD1210031+9999MW1101REMSYN066AAXX  18211 58314 41959 80000 10082 20076 40267 52003 71000 8807/;
0203583140999992000121900004+31400+116320FM-12+006899999V0200701N003019999999N0080001N1+00821+00651102711ADDAA199000091GF108991081001999999071999IA2999+00509MA1999999101811MD1210041+0601MW1101REMSYN088AAXX  19001 58314 31958 80703 10082 20065 30181 40271 52004 71000 8807/ 333 00601 30050;EQDQ01  00002PRCP99
0124583140999992000121903004+31400+116320FM-12+006899999V0200901N005019999999N0080001N1+00841+00601102731ADDGF108991081001999999071999MD1210021+9999MW1101REMSYN066AAXX  19031 58314 41958 80905 10084 20060 40273 52002 71000 8807/;
0198583140999992000121906004+31400+116320FM-12+006899999V0200901N003019999999N0080001N1+00761+00511102541ADDAA199000091GF108991081001999999071999KA1999N+00711MA1999999101641MD1710191+9999MW1101REMSYN082AAXX  19061 58314 31958 80903 10076 20051 30164 40254 57019 71000 8807/ 333 20071;EQDQ01  00002PRCP99
0132583140999992000121909004+31400+116320FM-12+006899999V0209999C000019999999N0080001N1+00741+00441102721ADDAY161031GF108991081001999999071999MD1210181+9999MW1601REMSYN066AAXX  19091 58314 41958 80000 10074 20044 40272 52018 76060 8807/;
0170583140999992000121912004+31400+116320FM-12+006899999V0202701N001019999999N0080001N1+00681+00521102771ADDAA106000591AY161061GF108991081001999999071999MA1999999101861MD1210041+9999MW1601REMSYN078AAXX  19121 58314 11958 82701 10068 20052 30186 40277 52004 69941 76060 8807/;
0140583140999992000121915004+31400+116320FM-12+006899999V0203201N003019999999N0080001N1+00611+00521102861ADDAY161031AY261031GF108991081001999999071999MD1210091+9999MW1601REMSYN066AAXX  19151 58314 41958 83203 10061 20052 40286 52009 76066 8807/;
0201583140999992000121918004+31400+116320FM-12+006899999V0203401N004010075019N0070001N1+00381+00231103021ADDAA106007191AY161061AY261061GF108991081051008001999999KA1999M+00851MA1999999102111MD1210161+9999MW1601REMSYN088AAXX  19181 58314 11557 83404 10038 20023 30211 40302 52016 60071 76066 885// 333 10085;
0161583140999992000121921004+31400+116320FM-12+006899999V0202501N001010075019N0060001N1+00081+00021103031ADDAA124011991AY161031AY261031GF108991081051008001999999MD1410001+9999MW1701REMSYN076AAXX  19211 58314 41556 82501 10008 20002 40303 54000 77066 885// 333 70119;
0212583140999992000122000004+31400+116320FM-12+006899999V0202701N001010075019N0080001N1+00161+00081103121ADDAA106005191AY171061AY261061GF108991081051008001999999IA2999-00049MA1999999102201MD1210091+0401MW1601REMSYN100AAXX  20001 58314 11558 82701 10016 20008 30220 40312 52009 60051 76076 885// 333 00457 31004 70124;
0132583140999992000122003004+31400+116320FM-12+006899999V0202001N002019999999N0100001N1+00321+00161103171ADDAY161031GF108991081001999999071999MD1210051+9999MW1001REMSYN066AAXX  20031 58314 41960 82002 10032 20016 40317 52005 70060 8807/;
0193583140999992000122006004+31400+116320FM-12+006899999V0202901N003019999999N0150001N1+00611+00191102901ADDAA106000791AY161061GF108991081001999999071999KA1999N+00051MA1999999101991MD1710261+9999MW1001REMSYN088AAXX  20061 58314 11965 82903 10061 20019 30199 40290 57026 69901 70060 8807/ 333 20005;
0112583140999992000122009004+31400+116320FM-12+006899999V0202901N002019999999N0200001N1+00651+00261102911ADDGF108991081001999999071999MD1410001+9999REMSYN060AAXX  20091 58314 42970 82902 10065 20026 40291 54000 8807/;
0144583140999992000122012004+31400+116320FM-12+006899999V0209999C000019999999N0150001N1+00501+00331103021ADDAA199000021GF108991081001999999071999MA1999999102101MD1210111+9999REMSYN066AAXX  20121 58314 32965 80000 10050 20033 30210 40302 52011 8807/;
0122583140999992000122015004+31400+116320FM-12+006899999V0202701N002012200019N0100001N1+00171+00121103021ADDGA1001+999999999GF100991001001999999001001MD1410001+9999REMSYN054AAXX  20151 58314 42960 02702 10017 20012 40302 54000;
0216583140999992000122018004+31400+116320FM-12+006899999V0209999C000010003019N0004001N1+00071+00041103031ADDAA199000091AY141061GA1091+999999999GF109991091999999999999999KA1999M+00721MA1999999102111MD1210011+9999MW1471REMSYN076AAXX  20181 58314 31/04 90000 10007 20004 30211 40303 52001 74740 333 10072;EQDQ01  00002PRCP99
0171583140999992000122021004+31400+116320FM-12+006899999V0209999C000010003019N0005001N1+00061+00061102851ADDAA124000591AY141031AY241031GA1091+999999999GF109991091999999999999999MD1710181+9999MW1451REMSYN070AAXX  20211 58314 41/05 90000 10006 20006 40285 57018 74544 333 70005;
0216583140999992000122100004+31400+116320FM-12+006899999V0203401N001010006019N0008001N1-00071-00101102851ADDAA124000791AY141061AY241061GA1091+999999999GF109991091999999999999999IA2999-00069MA1999999101931MD1410001-0301MW1431REMSYN088AAXX  21001 58314 31/08 93401 11007 21010 30193 40285 54000 74344 333 05351 31006 79999;
0142583140999992000122103004+31400+116320FM-12+006899999V0203401N002012200019N0150001N1+00891+00131102791ADDAY141031GA1001+999999999GF100991001001999999001001MD1710061+9999MW1001REMSYN060AAXX  21031 58314 41965 03402 10089 20013 40279 57006 70040;
0216583140999992000122106004+31400+116320FM-12+006899999V0209999C000012200019N0200001N1+01301-00351102331ADDAA199000091AY141061GA1001+999999999GF100991001001999999001001KA1999N-00131MA1999999101421MD1710451+9999MW1001REMSYN076AAXX  21061 58314 31970 00000 10130 21035 30142 40233 57045 70040 333 21013;EQDQ01  00002PRCP99
0122583140999992000122109004+31400+116320FM-12+006899999V0202201N002012200019N0250001N1+01171-00301102191ADDGA1001+999999999GF100991001001999999001001MD1710131+9999REMSYN054AAXX  21091 58314 42975 02202 10117 21030 40219 57013;
0173583140999992000122112004+31400+116320FM-12+006899999V0202701N003012200019N0200001N1+00721-00101102261ADDAA199000091GA1001+999999999GF100991001001999999001001MA1999999101351MD1210061+9999REMSYN060AAXX  21121 58314 32970 02703 10072 21010 30135 40226 52006;EQDQ01  00002PRCP99
0122583140999992000122115004+31400+116320FM-12+006899999V0202901N002012200019N0200001N1+00441-00081102191ADDGA1001+999999999GF100991001001999999001001MD1710061+9999REMSYN054AAXX  21151 58314 42970 02902 10044 21008 40219 57006;
0196583140999992000122118004+31400+116320FM-12+006899999V0200701N002012200019N0200001N1+00101-00071102041ADDAA199000091GA1001+999999999GF100991001001999999001001KA1999M+01471MA1999999101141MD1710151+9999REMSYN070AAXX  21181 58314 32970 00702 10010 21007 30114 40204 57015 333 10147;EQDQ01  00002PRCP99
0122583140999992000122121004+31400+116320FM-12+006899999V0202901N002012200019N0200001N1+00051-00151101961ADDGA1001+999999999GF100991001001999999001001MD1710081+9999REMSYN054AAXX  21211 58314 42970 02902 10005 21015 40196 57008;
0201583140999992000122200004+31400+116320FM-12+006899999V0201101N001012200019N0200001N1+00061-00211102061ADDAA199000091GA1001+999999999GF100991001001999999001001IA2999-00209MA1999999101151MD1210091-0801REMSYN076AAXX  22001 58314 32970 01101 10006 21021 30115 40206 52009 333 05801 31022;EQDQ01  00002PRCP99
0141583140999992000122203004+31400+116320FM-12+006899999V0201101N002012200019N0200001N1+01302+00101102061ADDGA1001+999999999GF100991001001999999001001MD1210011+9999REMSYN054AAXX  22031 58314 42970 01102 10130 20010 40206 52001;EQDQ01+001303ATOT  
0196583140999992000122206004+31400+116320FM-12+006899999V0203201N002012200019N0300001N1+01841-00441101831ADDAA199000091GA1001+999999999GF100991001001999999001001KA1999N-00051MA1999999100941MD1710221+9999REMSYN070AAXX  22061 58314 32980 03202 10184 21044 30094 40183 57022 333 21005;EQDQ01  00002PRCP99
0122583140999992000122209004+31400+116320FM-12+006899999V0202201N002012200019N0300001N1+01541+00021101861ADDGA1001+999999999GF100991001001999999001001MD1210021+9999REMSYN054AAXX  22091 58314 42980 02202 10154 20002 40186 52002;
0173583140999992000122212004+31400+116320FM-12+006899999V0202701N004012200019N0200001N1+01101+00121102031ADDAA199000091GA1001+999999999GF100991001001999999001001MA1999999101131MD1210171+9999REMSYN060AAXX  22121 58314 32970 02704 10110 20012 30113 40203 52017;EQDQ01  00002PRCP99
0122583140999992000122215004+31400+116320FM-12+006899999V0202701N003012200019N0200001N1+00501+00231102191ADDGA1001+999999999GF100991001001999999001001MD1210161+9999REMSYN054AAXX  22151 58314 42970 02703 10050 20023 40219 52016;
0122583140999992000122221004+31400+116320FM-12+006899999V0202701N003012200019N0200001N1+00251+00061102221ADDGA1001+999999999GF100991001001999999001001MD1710041+9999REMSYN054AAXX  22211 58314 42970 02703 10025 20006 40222 57004;
0201583140999992000122300004+31400+116320FM-12+006899999V0202701N003012200019N0250001N1+00171+00031102501ADDAA199000091GA1001+999999999GF100991001001999999001001IA2999-00209MA1999999101591MD1210271+0401REMSYN076AAXX  23001 58314 32975 02703 10017 20003 30159 40250 52027 333 00401 31020;EQDQ01  00002PRCP99
0122583140999992000122303004+31400+116320FM-12+006899999V0209999C000012200019N0250001N1+01031+00231102551ADDGA1001+999999999GF100991001001999999001001MD1210061+9999REMSYN054AAXX  23031 58314 42975 00000 10103 20023 40255 52006;
0196583140999992000122306004+31400+116320FM-12+006899999V0200701N003012200019N0300001N1+01371+00111102271ADDAA199000091GA1001+999999999GF100991001001999999001001KA1999N+00151MA1999999101371MD1710281+9999REMSYN070AAXX  23061 58314 32980 00703 10137 20011 30137 40227 57028 333 20015;EQDQ01  00002PRCP99
0122583140999992000122309004+31400+116320FM-12+006899999V0200901N002012200019N0250001N1+01241+00221102241ADDGA1001+999999999GF100991001001999999001001MD1710031+9999REMSYN054AAXX  23091 58314 42975 00902 10124 20022 40224 57003;
0173583140999992000122312004+31400+116320FM-12+006899999V0202901N001012200019N0200001N1+00591+00401102331ADDAA199000091GA1001+999999999GF100991001001999999001001MA1999999101421MD1210081+9999REMSYN060AAXX  23121 58314 32970 02901 10059 20040 30142 40233 52008;EQDQ01  00002PRCP99
0122583140999992000122315004+31400+116320FM-12+006899999V0209999C000012200019N0200001N1+00401+00281102291ADDGA1001+999999999GF100991001001999999001001MD1710031+9999REMSYN054AAXX  23151 58314 42970 00000 10040 20028 40229 57003;
0196583140999992000122318004+31400+116320FM-12+006899999V0203201N001012200019N0150001N1+00181+00101102161ADDAA199000091GA1001+999999999GF100991001001999999001001KA1999M+01421MA1999999101261MD1710131+9999REMSYN070AAXX  23181 58314 32965 03201 10018 20010 30126 40216 57013 333 10142;EQDQ01  00002PRCP99
0122583140999992000122321004+31400+116320FM-12+006899999V0203201N001012200019N0150001N1+00101+00021102061ADDGA1001+999999999GF100991001001999999001001MD1710101+9999REMSYN054AAXX  23211 58314 42965 03201 10010 20002 40206 57010;
0201583140999992000122400004+31400+116320FM-12+006899999V0209999C000012200019N0150001N1+00121+00011102171ADDAA199000091GA1001+999999999GF100991001001999999001001IA2999-00209MA1999999101261MD1210101-0301REMSYN076AAXX  24001 58314 32965 00000 10012 20001 30126 40217 52010 333 05351 31020;EQDQ01  00002PRCP99
0157583140999992000122403004+31400+116320FM-12+006899999V0200201N003012200019N0200001N1+01282+00371101442ADDGA1001+999999999GF100991001001999999001001MD1210181+9999REMSYN054AAXX  24031 58314 42970 00203 10128 20037 40144 52018;EQDQ01+001283ATOT  Q02+101443APOSLP
0196583140999992000122406004+31400+116320FM-12+006899999V0200401N004012200019N0250001N1+01641+00111102211ADDAA199000091GA1001+999999999GF100991001001999999001001KA1999N+00011MA1999999101311MD1710131+9999REMSYN070AAXX  24061 58314 32975 00404 10164 20011 30131 40221 57013 333 20001;EQDQ01  00002PRCP99
0122583140999992000122409004+31400+116320FM-12+006899999V0209999C000012200019N0250001N1+01441-00171102341ADDGA1001+999999999GF100991001001999999001001MD1210131+9999REMSYN054AAXX  24091 58314 42975 00000 10144 21017 40234 52013;
0173583140999992000122412004+31400+116320FM-12+006899999V0202901N002012200019N0200001N1+00641+00251102491ADDAA199000091GA1001+999999999GF100991001001999999001001MA1999999101581MD1210141+9999REMSYN060AAXX  24121 58314 32970 02902 10064 20025 30158 40249 52014;EQDQ01  00002PRCP99
0122583140999992000122415004+31400+116320FM-12+006899999V0209999C000012200019N0200001N1+00401+00141102571ADDGA1001+999999999GF100991001001999999001001MD1210091+9999REMSYN054AAXX  24151 58314 42970 00000 10040 20014 40257 52009;
0196583140999992000122418004+31400+116320FM-12+006899999V0209999C000012200019N0200001N1+00241-00011102681ADDAA199000091GA1001+999999999GF100991001001999999001001KA1999M+01681MA1999999101781MD1210111+9999REMSYN070AAXX  24181 58314 32970 00000 10024 21001 30178 40268 52011 333 10168;EQDQ01  00002PRCP99
0122583140999992000122421004+31400+116320FM-12+006899999V0200901N001012200019N0150001N1+00071-00041102611ADDGA1001+999999999GF100991001001999999001001MD1710071+9999REMSYN054AAXX  24211 58314 42965 00901 10007 21004 40261 57007;
0191583140999992000122500004+31400+116320FM-12+006899999V0209999C000019999999N0200001N1+00031-00121102781ADDAA199000091GF107991001001999999001021IA2999-00209MA1999999101861MD1210151+0601REMSYN082AAXX  25001 58314 32970 70000 10003 21012 30186 40278 52015 80002 333 00651 31022;EQDQ01  00002PRCP99
0112583140999992000122503004+31400+116320FM-12+006899999V0201101N001019999999N0200001N1+01001+00191102891ADDGF107991001001999999001021MD1210121+9999REMSYN060AAXX  25031 58314 42970 71101 10100 20019 40289 52012 80002;
0186583140999992000122506004+31400+116320FM-12+006899999V0200901N003019999999N0200001N1+01671-00471102641ADDAA199000091GF107991001001999999001021KA1999N-00061MA1999999101741MD1710241+9999REMSYN076AAXX  25061 58314 32970 70903 10167 21047 30174 40264 57024 80002 333 21006;EQDQ01  00002PRCP99
0112583140999992000122509004+31400+116320FM-12+006899999V0201101N003019999999N0200001N1+01331-00141102721ADDGF107991001001999999001021MD1210071+9999REMSYN060AAXX  25091 58314 42970 71103 10133 21014 40272 52007 80002;
0163583140999992000122512004+31400+116320FM-12+006899999V0209999C000012200019N0200001N1+00771+00181102821ADDAA199000091GF102991001001999999001021MA1999999101901MD1210091+9999REMSYN066AAXX  25121 58314 32970 20000 10077 20018 30190 40282 52009 80002;EQDQ01  00002PRCP99
0122583140999992000122515004+31400+116320FM-12+006899999V0202501N001012200019N0200001N1+00391+00161102871ADDGA1001+999999999GF100991001001999999001001MD1210061+9999REMSYN054AAXX  25151 58314 42970 02501 10039 20016 40287 52006;
0196583140999992000122518004+31400+116320FM-12+006899999V0202701N002012200019N0200001N1+00181+00041102891ADDAA199000091GA1001+999999999GF100991001001999999001001KA1999M+01671MA1999999101991MD1210031+9999REMSYN070AAXX  25181 58314 32970 02702 10018 20004 30199 40289 52003 333 10167;EQDQ01  00002PRCP99
0122583140999992000122521004+31400+116320FM-12+006899999V0202901N001012200019N0200001N1+00091-00021102881ADDGA1001+999999999GF100991001001999999001001MD1710021+9999REMSYN054AAXX  25211 58314 42970 02901 10009 21002 40288 57002;
0201583140999992000122600004+31400+116320FM-12+006899999V0202701N002012200019N0200001N1+00001-00061102941ADDAA199000091GA1001+999999999GF100991001001999999001001IA2999-00209MA1999999102021MD1210051+0201REMSYN076AAXX  26001 58314 32970 02702 10000 21006 30202 40294 52005 333 00200 31021;EQDQ01  00002PRCP99
0122583140999992000122603004+31400+116320FM-12+006899999V0200901N002012200019N0200001N1+00621+00251102881ADDGA1001+999999999GF100991001001999999001001MD1710051+9999REMSYN054AAXX  26031 58314 42970 00902 10062 20025 40288 57005;
0186583140999992000122606004+31400+116320FM-12+006899999V0200701N002012200019N0200001N1+01081+00381102551ADDAA199000091GF102991021001999999041001KA1999N-00041MA1999999101641MD1710331+9999REMSYN076AAXX  26061 58314 32970 20702 10108 20038 30164 40255 57033 82040 333 21004;EQDQ01  00002PRCP99
0122583140999992000122609004+31400+116320FM-12+006899999V0201101N002012200019N0200001N1+01061+00481102541ADDGA1001+999999999GF100991001001999999001001MD1710011+9999REMSYN054AAXX  26091 58314 42970 01102 10106 20048 40254 57001;
0173583140999992000122612004+31400+116320FM-12+006899999V0209999C000012200019N0150001N1+00521+00351102671ADDAA199000091GA1001+999999999GF100991001001999999001001MA1999999101751MD1210121+9999REMSYN060AAXX  26121 58314 32965 00000 10052 20035 30175 40267 52012;EQDQ01  00002PRCP99
0122583140999992000122615004+31400+116320FM-12+006899999V0203201N001012200019N0150001N1+00361+00291102631ADDGA1001+999999999GF100991001001999999001001MD1710031+9999REMSYN054AAXX  26151 58314 42965 03201 10036 20029 40263 57003;
0208583140999992000122618004+31400+116320FM-12+006899999V0209999C000012200019N0090001N1+00281+00201102651ADDAA199000091GA1001+999999999GF100991001001999999001001KA1999M+01141MA1999999101741MD1210021+9999MW1101REMSYN076AAXX  26181 58314 31959 00000 10028 20020 30174 40265 52002 71000 333 10114;EQDQ01  00002PRCP99
0124583140999992000122621004+31400+116320FM-12+006899999V0209999C000019999999N0090001N1+00311+00261102641ADDGF108991081001999999071999MD1710011+9999MW1101REMSYN066AAXX  26211 58314 41959 80000 10031 20026 40264 57001 71000 8807/;
0203583140999992000122700004+31400+116320FM-12+006899999V0202001N001019999999N0080001N1+00441+00341102851ADDAA199000091GF108991081001999999071999IA2999+00009MA1999999101941MD1210211-0101MW1101REMSYN088AAXX  27001 58314 31958 82001 10044 20034 30194 40285 52021 71000 8807/ 333 05104 31006;EQDQ01  00002PRCP99
0112583140999992000122703004+31400+116320FM-12+006899999V0209999C000019999999N0100001N1+00581+00461102941ADDGF108991081001999999071999MD1210081+9999REMSYN060AAXX  27031 58314 42960 80000 10058 20046 40294 52008 8807/;
0186583140999992000122706004+31400+116320FM-12+006899999V0200401N001019999999N0100001N1+00801+00531102721ADDAA199000091GF108991081001999999071999KA1999N+00221MA1999999101811MD1710211+9999REMSYN076AAXX  27061 58314 32960 80401 10080 20053 30181 40272 57021 8807/ 333 20022;EQDQ01  00002PRCP99
0124583140999992000122709004+31400+116320FM-12+006899999V0203601N003019999999N0080001N1+00821+00481102801ADDGF108991081001999999071999MD1210081+9999MW1101REMSYN066AAXX  27091 58314 41958 83603 10082 20048 40280 52008 71000 8807/;
0162583140999992000122712004+31400+116320FM-12+006899999V0203401N002019999999N0100001N1+00761+00491103031ADDAA106000791GF108991081001999999071999MA1999999102121MD1210231+9999MW1601REMSYN078AAXX  27121 58314 11960 83402 10076 20049 30212 40303 52023 69901 76000 8807/;
0132583140999992000122715004+31400+116320FM-12+006899999V0203401N003019999999N0080001N1+00711+00411103111ADDAY161031GF108991081001999999071999MD1210081+9999MW1601REMSYN066AAXX  27151 58314 41958 83403 10071 20041 40311 52008 76060 8807/;
0193583140999992000122718004+31400+116320FM-12+006899999V0203401N002019999999N0120001N1+00651+00391103101ADDAA106000791AY161061GF108991081001999999071999KA1999M+00901MA1999999102191MD1710011+9999MW1001REMSYN088AAXX  27181 58314 11962 83402 10065 20039 30219 40310 57001 69901 70060 8807/ 333 10090;
0133583140999992000122721004+31400+116320FM-12+006899999V0200201N002019999999N0100001N1+00571+00381103031ADDAA124000791GF108991081001999999071999MD1710071+9999REMSYN070AAXX  27211 58314 42960 80202 10057 20038 40303 57007 8807/ 333 79999;
0204583140999992000122800004+31400+116320FM-12+006899999V0200401N002010075019N0030001N1+00501+00451103191ADDAA106000391AY161061GF108991081051008001999999IA2999+00479MA1999999102281MD1210161+0301MW1601REMSYN100AAXX  28001 58314 11530 80402 10050 20045 30228 40319 52016 69931 76060 885// 333 00301 30047 70003;
0140583140999992000122803004+31400+116320FM-12+006899999V0200701N003010075019N0030001N1+00501+00431103231ADDAY161031AY261031GF108991081051008001999999MD1210041+9999MW1601REMSYN066AAXX  28031 58314 41530 80703 10050 20043 40323 52004 76066 885//;
0201583140999992000122806004+31400+116320FM-12+006899999V0200701N002010075019N0030001N1+00481+00411103031ADDAA106001091AY161061AY261061GF108991081051008001999999KA1999N+00451MA1999999102121MD1710201+9999MW1601REMSYN088AAXX  28061 58314 11530 80702 10048 20041 30212 40303 57020 60011 76066 885// 333 20045;
0132583140999992000122809004+31400+116320FM-12+006899999V0200901N003010075019N0040001N1+00501+00381102991ADDAY161031GF108991081051008001999999MD1710041+9999MW1101REMSYN066AAXX  28091 58314 41540 80903 10050 20038 40299 57004 71060 885//;
0170583140999992000122812004+31400+116320FM-12+006899999V0201101N002010075019N0100001N1+00481+00361103031ADDAA106000191AY161061GF108991081051008001999999MA1999999102111MD1210031+9999MW1001REMSYN078AAXX  28121 58314 11560 81102 10048 20036 30211 40303 52003 69921 70060 885//;
0112583140999992000122815004+31400+116320FM-12+006899999V0201101N002010120019N0100001N1+00471+00351102951ADDGF108991081051012501999999MD1710081+9999REMSYN060AAXX  28151 58314 42660 81102 10047 20035 40295 57008 885//;
0167583140999992000122818004+31400+116320FM-12+006899999V0200901N001019999999N0120001N1+00471+00371102771ADDAA199000021GF108991081001999999071999KA1999M+00651MA1999999101861MD1710171+9999REMSYN076AAXX  28181 58314 32962 80901 10047 20037 30186 40277 57017 8807/ 333 10065;
0133583140999992000122821004+31400+116320FM-12+006899999V0209999C000019999999N0120001N1+00481+00361102691ADDAA124001891GF108991081001999999071999MD1710081+9999REMSYN070AAXX  28211 58314 42962 80000 10048 20036 40269 57008 8807/ 333 70019;
0190583140999992000122900004+31400+116320FM-12+006899999V0201801N002019999999N0080001N1+00491+00391102711ADDAA124001591GF108991081001999999071999IA2999+00409MA1999999101801MD1210021-0501MW1101REMSYN094AAXX  29001 58314 31958 81802 10049 20039 30180 40271 52002 71000 8807/ 333 05500 30040 70016;
0112583140999992000122903004+31400+116320FM-12+006899999V0201401N002019999999N0120001N1+00701+00421102691ADDGF108991081001999999071999MD1710021+9999REMSYN060AAXX  29031 58314 42962 81402 10070 20042 40269 57002 8807/;
0186583140999992000122906004+31400+116320FM-12+006899999V0200701N001019999999N0150001N1+00901+00371102351ADDAA199000091GF108991081001999999071999KA1999N+00451MA1999999101451MD1710331+9999REMSYN076AAXX  29061 58314 32965 80701 10090 20037 30145 40235 57033 8807/ 333 20045;EQDQ01  00002PRCP99
0112583140999992000122909004+31400+116320FM-12+006899999V0201101N002019999999N0150001N1+00841+00401102411ADDGF108991081001999999071999MD1210051+9999REMSYN060AAXX  29091 58314 42965 81102 10084 20040 40241 52005 8807/;
0163583140999992000122912004+31400+116320FM-12+006899999V0209999C000019999999N0120001N1+00761+00511102431ADDAA199000091GF108991081001999999071999MA1999999101521MD1210021+9999REMSYN066AAXX  29121 58314 32962 80000 10076 20051 30152 40243 52002 8807/;EQDQ01  00002PRCP99
0112583140999992000122915004+31400+116320FM-12+006899999V0202901N002019999999N0120001N1+00701+00521102401ADDGF108991081001999999071999MD1710021+9999REMSYN060AAXX  29151 58314 42962 82902 10070 20052 40240 57002 8807/;
0186583140999992000122918004+31400+116320FM-12+006899999V0202701N001019999999N0120001N1+00601+00481102331ADDAA199000091GF108991081001999999071999KA1999M+00921MA1999999101431MD1710071+9999REMSYN076AAXX  29181 58314 32962 82701 10060 20048 30143 40233 57007 8807/ 333 10092;EQDQ01  00002PRCP99
0112583140999992000122921004+31400+116320FM-12+006899999V0202701N002019999999N0120001N1+00511+00441102281ADDGF108991081001999999071999MD1710051+9999REMSYN060AAXX  29211 58314 42962 82702 10051 20044 40228 57005 8807/;
0203583140999992000123000004+31400+116320FM-12+006899999V0200701N001019999999N0080001N1+00581+00461102361ADDAA199000091GF108991081001999999071999IA2999+00309MA1999999101461MD1210081-0301MW1101REMSYN088AAXX  30001 58314 31958 80701 10058 20046 30146 40236 52008 71000 8807/ 333 05301 30030;EQDQ01  00002PRCP99
0124583140999992000123003004+31400+116320FM-12+006899999V0201601N002019999999N0080001N1+00731+00501102431ADDGF108991081001999999071999MD1210071+9999MW1101REMSYN066AAXX  30031 58314 41958 81602 10073 20050 40243 52007 71000 8807/;
0186583140999992000123006004+31400+116320FM-12+006899999V0201401N001019999999N0110001N1+00891+00561102231ADDAA199000091GF107991071001999999071999KA1999N+00501MA1999999101331MD1710201+9999REMSYN076AAXX  30061 58314 32961 71401 10089 20056 30133 40223 57020 8707/ 333 20050;EQDQ01  00002PRCP99
0112583140999992000123009004+31400+116320FM-12+006899999V0201101N001019999999N0120001N1+00941+00591102211ADDGF108991081001999999071999MD1710021+9999REMSYN060AAXX  30091 58314 42962 81101 10094 20059 40221 57002 8807/;
0163583140999992000123012004+31400+116320FM-12+006899999V0203201N002012200019N0150001N1+00671+00581102421ADDAA199000091GF102991001001999999001021MA1999999101511MD1210201+9999REMSYN066AAXX  30121 58314 32965 23202 10067 20058 30151 40242 52020 80002;EQDQ01  00002PRCP99
0122583140999992000123015004+31400+116320FM-12+006899999V0209999C000012200019N0150001N1+00521+00431102591ADDGA1001+999999999GF100991001001999999001001MD1210171+9999REMSYN054AAXX  30151 58314 42965 00000 10052 20043 40259 52017;
0208583140999992000123018004+31400+116320FM-12+006899999V0209999C000010006019N0008001N1+00341+00321102671ADDAA199000091GA1091+999999999GF109991091999999999999999KA1999M+00981MA1999999101761MD1210081+9999MW1471REMSYN076AAXX  30181 58314 31/08 90000 10034 20032 30176 40267 52008 74700 333 10098;EQDQ01  00002PRCP99
0150583140999992000123021004+31400+116320FM-12+006899999V0200701N002010006019N0008001N1+00461+00391102611ADDAY141031AY241031GA1091+999999999GF109991091999999999999999MD1710061+9999MW1451REMSYN060AAXX  30211 58314 41/08 90702 10046 20039 40261 57006 74544;
0219583140999992000123100004+31400+116320FM-12+006899999V0201601N001019999999N0060001N1+00461+00341102811ADDAA199000091AY141061AY241061GF108991081001999999071999IA2999+00109MA1999999101901MD1210201+0401MW1281REMSYN088AAXX  31001 58314 31956 81601 10046 20034 30190 40281 52020 72844 8807/ 333 00451 30015;EQDQ01  00002PRCP99
0112583140999992000123103004+31400+116320FM-12+006899999V0203201N002012200019N0100001N1+00611+00211102781ADDGF102991021001999999041001MD1710031+9999REMSYN060AAXX  31031 58314 42960 23202 10061 20021 40278 57003 82040;
0196583140999992000123106004+31400+116320FM-12+006899999V0201101N002012200019N0120001N1+00991+00321102411ADDAA199000091GA1001+999999999GF100991001001999999001001KA1999N+00281MA1999999101511MD1710361+9999REMSYN070AAXX  31061 58314 32962 01102 10099 20032 30151 40241 57036 333 20028;EQDQ01  00002PRCP99
0122583140999992000123109004+31400+116320FM-12+006899999V0200901N003012200019N0120001N1+00831+00341102251ADDGA1001+999999999GF100991001001999999001001MD1710161+9999REMSYN054AAXX  31091 58314 42962 00903 10083 20034 40225 57016;
0163583140999992000123112004+31400+116320FM-12+006899999V0201401N001019999999N0120001N1+00461+00391102381ADDAA199000091GF106991001001999999001021MA1999999101471MD1210121+9999REMSYN066AAXX  31121 58314 32962 61401 10046 20039 30147 40238 52012 80002;EQDQ01  00002PRCP99
0134583140999992000123115004+31400+116320FM-12+006899999V0202701N002010006019N0006001N1+00261+00231102341ADDGA1091+999999999GF109991091999999999999999MD1710041+9999MW1471REMSYN060AAXX  31151 58314 41/06 92702 10026 20023 40234 57004 74700;
0216583140999992000123118004+31400+116320FM-12+006899999V0202901N001010006019N0008001N1+00201+00201102141ADDAA199000091AY141061GA1091+999999999GF109991091999999999999999KA1999M+01001MA1999999101241MD1710181+9999MW1451REMSYN076AAXX  31181 58314 31/08 92901 10020 20020 30124 40214 57018 74540 333 10100;EQDQ01  00002PRCP99
0150583140999992000123121004+31400+116320FM-12+006899999V0209999C000010006019N0008001N1+00121+00121101971ADDAY141031AY241031GA1091+999999999GF109991091999999999999999MD1710181+9999MW1451REMSYN060AAXX  31211 58314 41/08 90000 10012 20012 40197 57018 74544;
