0192584070999992000010100004+30070+115330FM-12+002999999V0202901N003012200019N0015001N1+00521+00251102131ADDAA106000091GA1001+999999999GF100991001001999999001001IA2999+00309MD1210141+0101MW1101REMSYN076AAXX  01001 58407 31915 02903 10052 20025 40213 52014 71000 333 00100 30033;EQDQ01  00002PRCP06
0177584070999992000010106004+30070+115330FM-12+002999999V0202901N004019999999N0020001N1+01051+00341101981ADDAA106000091GF106991061001999999041001KA1999N+00491MD1710161+9999MW1101REMSYN076AAXX  01061 58407 31920 62904 10105 20034 40198 57016 71000 86040 333 20049;EQDQ01  00002PRCP06
0192584070999992000010200004+30070+115330FM-12+002999999V0202701N002012200019N0011001N1+00331+00281102541ADDAA106000091GA1001+999999999GF100991001001999999001001IA2999-00109MD1210121+0401MW1101REMSYN076AAXX  02001 58407 31911 02702 10033 20028 40254 52012 71000 333 00452 31019;EQDQ01  00002PRCP06
0195584070999992000010206004+30070+115330FM-12+002999999V0203401N001012200019N0019001N1+01061+00381102221ADDAA106000091AY141061GA1001+999999999GF100991001001999999001001KA1999N+00001MD1710371+9999MW1101REMSYN070AAXX  02061 58407 31919 03401 10106 20038 40222 57037 71040 333 20000;EQDQ01  00002PRCP06
0192584070999992000010300004+30070+115330FM-12+002999999V0201101N003012200019N0015001N1+00591+00381101831ADDAA106000091GA1001+999999999GF100991001001999999001001IA2999+00009MD1210021-0701MW1101REMSYN076AAXX  03001 58407 31915 01103 10059 20038 40183 52002 71000 333 05703 30001;EQDQ01  00002PRCP06
0177584070999992000010306004+30070+115330FM-12+002999999V0201101N002019999999N0025001N1+01291+00511101561ADDAA106000091GF107991071001999999031999KA1999N+00391MD1710311+9999MW1051REMSYN076AAXX  03061 58407 31925 71102 10129 20051 40156 57031 70500 8703/ 333 20039;EQDQ01  00002PRCP06
0124584070999992000010321004+30070+115330FM-12+002999999V0201101N002019999999N0030001N1+01071+00621101441ADDGF106991061001999999041001MD1710061+9999MW1101REMSYN066AAXX  03211 58407 41930 61102 10107 20062 40144 57006 71000 86040;
0164584070999992000010400004+30070+115330FM-12+002999999V0201101N003019999999N0015001N1+01231+99999101451ADDAA106000091GF107991071001999999031999MD1210011+0041MW1101REMSYN076AAXX  04001 58407 31915 71103 10123 2//68 40145 52001 71000 8703/ 333 05406;EQDQ01  00002PRCP06
0172584070999992000010406004+30070+115330FM-12+002999999V0201101N003019999999N0025001N1+01401+00931101221ADDAA106000591AY161061GF107991071001999999031999KA1999N+00891MD1710281+9999MW1101REMSYN082AAXX  04061 58407 11925 71103 10140 20093 40122 57028 69951 71060 8703/ 333 20089;
0170584070999992000010500004+30070+115330FM-12+002999999V0202901N003019999999N0030001N1+00551+00311101611ADDAA106000091GF108991081001999999071999MD1210191+0201MW1101REMSYN082AAXX  05001 58407 31930 82903 10055 20031 40161 52019 71000 8807/ 333 00257 70006;EQDQ01  00002PRCP06
0177584070999992000010506004+30070+115330FM-12+002999999V0202901N002019999999N0015001N1+00651+00371101491ADDAA106000091GF108991081001999999071999KA1999N+00511MD1710231+9999MW1101REMSYN076AAXX  05061 58407 31915 82902 10065 20037 40149 57023 71000 8807/ 333 20051;EQDQ01  00002PRCP06
0172584070999992000010606004+30070+115330FM-12+002999999V0202701N003019999999N0100001N1+00661+00271102361ADDAA106000791AY161061GF108991081001999999071999KA1999N+00281MD1710111+9999MW1001REMSYN082AAXX  06061 58407 11960 82703 10066 20027 40236 57011 69901 70060 8807/ 333 20028;
0145584070999992000010621004+30070+115330FM-12+002999999V0203401N001019999999N0015001N1+00471+00401102441ADDAA124000391GF107991071001999999031999MD1710081+9999MW1101REMSYN076AAXX  06211 58407 41915 73401 10047 20040 40244 57008 71000 8703/ 333 70002;
0188584070999992000010700004+30070+115330FM-12+002999999V0201101N003019999999N0048001N1+00411+00231102481ADDAA106000091GF108991081001999999071999IA2999+00009MD1210041+0201MW1101REMSYN088AAXX  07001 58407 31948 81103 10041 20023 40248 52004 71000 8807/ 333 00251 30000 70002;EQDQ01  00002PRCP06
0172584070999992000010706004+30070+115330FM-12+002999999V0201401N003019999999N0060001N1+00551+00061102181ADDAA106000191AY161061GF108991081001999999071999KA1999N+00311MD1710331+9999MW1211REMSYN082AAXX  07061 58407 11956 81403 10055 20006 40218 57033 69911 72160 8807/ 333 20031;
0161584070999992000010721004+30070+115330FM-12+002999999V0200901N002010042019N0020001N1+00451+00331101981ADDAA124005691AY161031AY261031GF108991071071004501021999MD1710161+9999MW1611REMSYN076AAXX  07211 58407 41420 80902 10045 20033 40198 57016 76166 8772/ 333 70056;
0191584070999992000010800004+30070+115330FM-12+002999999V0201101N002010042019N0020001N1+00461+99999101971ADDAA106004191AY161061AY231061GF108991071071004501021999IA2999+00439MD1710011-0501MW1601REMSYN094AAXX  08001 58407 11420 81102 10046 200// 40197 57001 60041 76063 8772/ 333 05501 30043 70072;
0180584070999992000010806004+30070+115330FM-12+002999999V0203201N001010042019N0025001N1+00511+00371101641ADDAA106005191AY161061AY261061GF108991071071004501021999KA1999N+00391MD1710421+9999MW1601REMSYN082AAXX  08061 58407 11425 83201 10051 20037 40164 57042 60051 76066 8772/ 333 20039;
0153584070999992000010821004+30070+115330FM-12+002999999V0202701N003019999999N0015001N1+00391+00321102041ADDAA124008691AY161031GF108991081001999999071999MD1710011+9999MW1101REMSYN076AAXX  08211 58407 41915 82703 10039 20032 40204 57001 71060 8807/ 333 70087;
0183584070999992000010900004+30070+115330FM-12+002999999V0202901N003019999999N0015001N1+00421+00321102211ADDAA106000791AY161061GF108991081001999999071999IA2999+00409MD1210171+0201MW1601REMSYN094AAXX  09001 58407 11915 82903 10042 20032 40221 52017 69901 76060 8807/ 333 00200 30040 70071;
0173584070999992000011000004+30070+115330FM-12+002999999V0201401N002010042019N0015001N1+00651+00541102091ADDAA106005191AY161061AY261061GF108991071071004501021999MD1710011-0101MW1601REMSYN088AAXX  10001 58407 11415 81402 10065 20054 40209 57001 60051 76066 8772/ 333 05102 70064;
0172584070999992000011006004+30070+115330FM-12+002999999V0200701N004010042019N0030001N1+00691+00531101791ADDAA106003091AY161061GF108991071071004501021999KA1999N+00541MD1710311+9999MW1611REMSYN082AAXX  10061 58407 11430 80704 10069 20053 40179 57031 60031 76160 8772/ 333 20054;
0161584070999992000011021004+30070+115330FM-12+002999999V0209999C000010042019N0020001N1+00651+00541101501ADDAA124044291AY161031AY261031GF108991071071004501021999MD1710121+9999MW1601REMSYN076AAXX  10211 58407 41420 80000 10065 20054 40150 57012 76066 8772/ 333 70443;
0173584070999992000011100004+30070+115330FM-12+002999999V0202701N002010042019N0040001N1+00621+00531101721ADDAA106032091AY161061AY261061GF108991071071004501021999MD1210221-0401MW1621REMSYN088AAXX  11001 58407 11440 82702 10062 20053 40172 52022 60321 76266 8772/ 333 05400 70566;
0180584070999992000011106004+30070+115330FM-12+002999999V0202701N005010042019N0080001N1+00681+00541101671ADDAA106007991AY161061AY261061GF108991071071004501021999KA1999N+00561MD1710151+9999MW1601REMSYN082AAXX  11061 58407 11458 82705 10068 20054 40167 57015 60081 76066 8772/ 333 20056;
0183584070999992000011200004+30070+115330FM-12+002999999V0202701N004010150019N0030001N1+00221+00061102441ADDAA106000791AY161061GF108991051051017501071999IA2999+00279MD1210171+0701MW1101REMSYN094AAXX  12001 58407 11730 82704 10022 20006 40244 52017 69901 71060 8557/ 333 00754 30027 70089;
0177584070999992000011206004+30070+115330FM-12+002999999V0202701N003019999999N0080001N1+00341+00051102311ADDAA106000091GF108991081001999999071999KA1999N+00171MD1710201+9999MW1101REMSYN076AAXX  12061 58407 31958 82703 10034 20005 40231 57020 71000 8807/ 333 20017;EQDQ01  00002PRCP06
0112584070999992000011221004+30070+115330FM-12+002999999V0202701N002019999999N0050001N1+99999+99999102211ADDGF108991999999999999999999MD1710071+9999MW1151REMSYN054AAXX  12211 58407 41950 82702 20004 40221 57007 71500;
0182584070999992000011300004+30070+115330FM-12+002999999V0209999C000019999999N0020001N1+00111-00031102251ADDAA106000091GF108991081001999999071999IA2999-00109MD1210041-0201MW1101REMSYN082AAXX  13001 58407 31920 80000 10011 21003 40225 52004 71000 8807/ 333 05251 31010;EQDQ01  00002PRCP06
0177584070999992000011306004+30070+115330FM-12+002999999V0200401N001010150019N0030001N1+00541+00221102041ADDAA106000091GF107991071051017501999999KA1999N+00061MD1710311+9999MW1101REMSYN076AAXX  13061 58407 31730 70401 10054 20022 40204 57031 71000 875// 333 20006;EQDQ01  00002PRCP06
0128584070999992000011321004+30070+115330FM-12+002999999V0203201N001019999999N0020001N1+00251+99999102301ADDGF108991081001999999071999MD1710021+9999MW1101REMSYN070    AAXX  13211 58407 41920 83201 10025 20084 40230 57002 7100/ 8807/;
0186584070999992000011400004+30070+115330FM-12+002999999V0200701N002019999999N0020001N1+00301+00091102301ADDAA199000091GF108991081001999999071999IA2999+00209MD1410001+0101MW1101REMSYN086    AAXX  14001 58407 31920 80702 10030 20009 40230 54000 71000 8807/ 333 00102 30028;EQDQ01  00002PRCP99
0181584070999992000011406004+30070+115330FM-12+002999999V0200701N003019999999N0070001N1+00511+00041102001ADDAA199000091GF107991071001999999031999KA1999N+00201MD1710401+9999MW1101REMSYN080    AAXX  14061 58407 31957 70703 10051 20004 40200 57040 71000 8703/ 333 20020;EQDQ01  00002PRCP99
0195584070999992000011500004+30070+115330FM-12+002999999V0203201N002010042019N0018001N1+00371+00241102191ADDAA106000191AY161061AY261061GF108991071071004501021999IA2999+00359MD1210121-0101MW1601REMSYN098    AAXX  15001 58407 11418 83202 10037 20024 40219 52012 69921 76066 8772/ 333 05101 30035 70040;
0184584070999992000011506004+30070+115330FM-12+002999999V0203201N003019999999N0020001N1+00321+00221102151ADDAA106002091AY171061AY261061GF108991081001999999071999KA1999N+00281MD1710141+9999MW1101REMSYN086    AAXX  15061 58407 11920 83203 10032 20022 40215 57014 60021 71076 8807/ 333 20028;
0149584070999992000011521004+30070+115330FM-12+002999999V0202901N003019999999N0070001N1+00191+00031102581ADDAA124002391GF108991081001999999071999MD1710021+9999MW1101REMSYN080    AAXX  15211 58407 41957 82903 10019 20003 40258 57002 71000 8807/ 333 70024;
0173584070999992000011600004+30070+115330FM-12+002999999V0202701N002019999999N0030001N1+00221+00061102721ADDAA124002391GF108991081001999999071999IA2999+00199MD1210141+0501MW1101REMSYN092    AAXX  16001 58407 31930 82702 10022 20006 40272 52014 71000 8807/ 333 00552 30019 70023;
0181584070999992000011606004+30070+115330FM-12+002999999V0202901N003019999999N0050001N1+00361+00071102661ADDAA199000091GF108991081001999999071999KA1999N+00131MD1710151+9999MW1101REMSYN080    AAXX  16061 58407 31950 82903 10036 20007 40266 57015 71000 8807/ 333 20013;EQDQ01  00002PRCP99
0175584070999992000011700004+30070+115330FM-12+002999999V0203201N003019999999N0020001N1+00201+00061102921ADDAA106000791AY161061GF108991081001999999071999MD1210101+0201MW1101REMSYN098    AAXX  17001 58407 11920 83203 10020 20006 40292 52010 69901 71060 8807/ 333 00200 38021 70021;
0181584070999992000011706004+30070+115330FM-12+002999999V0202901N004019999999N0020001N1+00341+00131102791ADDAA199000091GF108991081001999999071999KA1999N+00161MD1710201+9999MW1101REMSYN080    AAXX  17061 58407 31920 82904 10034 20013 40279 57020 71000 8807/ 333 20016;EQDQ01  00002PRCP99
0149584070999992000011721004+30070+115330FM-12+002999999V0202701N002019999999N0015001N1+00181-00041102871ADDAA124000791GF108991081001999999071999MD1710071+9999MW1101REMSYN080    AAXX  17211 58407 41915 82702 10018 21004 40287 57007 71000 8807/ 333 79999;
0173584070999992000011800004+30070+115330FM-12+002999999V0203201N002019999999N0015001N1+00071-00041102991ADDAA124000791GF108991081001999999071999IA2999-00129MD1210121+0101MW1101REMSYN092    AAXX  18001 58407 31915 83202 10007 21004 40299 52012 71000 8807/ 333 00151 31012 79999;
0191584070999992000011806004+30070+115330FM-12+002999999V0203201N005012200019N0025001N1+00601+00171102811ADDAA199000091GA1001+999999999GF100991001001999999001001KA1999N+00011MD1710241+9999MW1101REMSYN074    AAXX  18061 58407 31925 03205 10060 20017 40281 57024 71000 333 20001;EQDQ01  00002PRCP99
0132584070999992000011821004+30070+115330FM-12+002999999V0202701N001012200019N9999999N1+00021+99999103041ADDGA1001+999999999GF100991001001999999001001MD1210021+9999MW1101REMSYN058    AAXX  18211 58407 4120/ 02701 10002 40304 52002 71000;
0186584070999992000011900004+30070+115330FM-12+002999999V0202901N003019999999N0070001N1+00121-00451103281ADDAA199000091GF106991061001999999041001IA2999-00209MD1210241+0301MW1101REMSYN086    AAXX  19001 58407 31957 62903 10012 21045 40328 52024 71000 86040 333 00301 31027;EQDQ01  00002PRCP99
0169584070999992000011906004+30070+115330FM-12+002999999V0202701N002012200019N0130001N1+00691-00331103091ADDAA199000091GF102991021001999999041001KA1999N-00021MD1710331+9999REMSYN074    AAXX  19061 58407 32963 22702 10069 21033 40309 57033 82040 333 21002;EQDQ01  00002PRCP99
0134584070999992000011921004+30070+115330FM-12+002999999V0201801N002012200019N0060001N1+00051-00361103171ADDGA1001+999999999GF100991001001999999001001MD1710051+9999MW1101REMSYN060AAXX  19211 58407 41956 01802 10005 21036 40317 57005 71000;
0182584070999992000012000004+30070+115330FM-12+002999999V0209999C000012200019N0050001N1-00011-00191103301ADDAA199000091GF102991021001999999041011IA2999-00309MD1210131+0001MW1101REMSYN082AAXX  20001 58407 31950 20000 11001 21019 40330 52013 71000 82041 333 00051 31030;EQDQ01  00002PRCP99
0165584070999992000012006004+30070+115330FM-12+002999999V0201101N004019999999N0100001N1+00751-00391103141ADDAA199000091GF105991031001999999041011KA1999N-00041MD1710271+9999REMSYN070AAXX  20061 58407 32960 51104 10075 21039 40314 57027 83041 333 21004;EQDQ01  00002PRCP99
0112584070999992000012021004+30070+115330FM-12+002999999V0202001N002019999999N0120001N1+00401-00411103121ADDGF108991081001999999071999MD1710101+9999REMSYN060AAXX  20211 58407 42962 82002 10040 21041 40312 57010 8807/;
0170584070999992000012100004+30070+115330FM-12+002999999V0201401N002019999999N0100001N1+00411-00601103151ADDAA199000091GF108991081001999999071999IA2999+00109MD1210031-0201REMSYN076AAXX  21001 58407 32960 81402 10041 21060 40315 52003 8807/ 333 05204 30012;EQDQ01  00002PRCP99
0161584070999992000012121004+30070+115330FM-12+002999999V0209999C000010042019N0030001N1+00251+00121102701ADDAA124005191AY161031AY261031GF108991071071004501021999MD1710071+9999MW1601REMSYN076AAXX  21211 58407 41430 80000 10025 20012 40270 57007 76066 8772/ 333 70052;
0172584070999992000012206004+30070+115330FM-12+002999999V0202901N003010042019N0020001N1+00291+00191102581ADDAA106001091AY161061GF108991071071004501021999KA1999N+00131MD1710191+9999MW1601REMSYN082AAXX  22061 58407 11420 82903 10029 20019 40258 57019 60011 76060 8772/ 333 20013;
0191584070999992000012300004+30070+115330FM-12+002999999V0202701N003010042019N0012001N1+00291+00211102611ADDAA106014091AY161061AY261061GF108991071071004501021999IA2999+00259MD1210191-0101MW1611REMSYN094AAXX  23001 58407 11412 82703 10029 20021 40261 52019 60141 76166 8772/ 333 05100 30025 70221;
0180584070999992000012306004+30070+115330FM-12+002999999V0203201N002010042019N0020001N1+00371+00301102451ADDAA106006191AY161061AY261061GF108991061071004501021999KA1999N+00211MD1710261+9999MW1601REMSYN082AAXX  23061 58407 11420 83202 10037 20030 40245 57026 60061 76066 8672/ 333 20021;
0153584070999992000012321004+30070+115330FM-12+002999999V0203201N002010042019N0020001N1+00271+00171102841ADDAA124022991AY161031GF108991071071004501021999MD1710011+9999MW1601REMSYN076AAXX  23211 58407 41420 83202 10027 20017 40284 57001 76060 8772/ 333 70229;
0183584070999992000012400004+30070+115330FM-12+002999999V0202901N003010042019N0020001N1+00261+00181103071ADDAA106002091AY161061GF108991071071004501021999IA2999+00239MD1210231+0501MW1601REMSYN094AAXX  24001 58407 11420 82903 10026 20018 40307 52023 60021 76060 8772/ 333 00500 30023 70152;
0180584070999992000012406004+30070+115330FM-12+002999999V0200201N001010042019N0009001N1+00061+00001103231ADDAA106011991AY171061AY261061GF108991071071004501021999KA1999N+00021MD1710071+9999MW1721REMSYN082AAXX  24061 58407 11409 80201 10006 20000 40323 57007 60121 77276 8772/ 333 20002;
0157584070999992000012500004+30070+115330FM-12+002999999V0203201N002012200019N0080001N1-00281-00531104041ADDAA124014591GF103991031001999999041001MD1210131+1001MW1101REMSYN088AAXX  25001 58407 31958 33202 11028 21053 40404 52013 71000 83040 333 01055 70146 92503;
0165584070999992000012506004+30070+115330FM-12+002999999V0203201N002019999999N0130001N1-00051-00441103971ADDAA199000091GF108991081001999999071999KA1999N-00331MD1710221+9999REMSYN070AAXX  25061 58407 32963 83202 11005 21044 40397 57022 8807/ 333 21033;EQDQ01  00002PRCP99
0170584070999992000012600004+30070+115330FM-12+002999999V0202701N002019999999N0030001N1-00291-00551104161ADDAA199000091GF105991001001999999001011MD1210071+0101MW1101REMSYN082AAXX  26001 58407 31930 52702 11029 21055 40416 52007 71000 80001 333 00100 92502;EQDQ01  00002PRCP99
0187584070999992000012606004+30070+115330FM-12+002999999V0202901N003012200019N0050001N1+00131-00401104011ADDAA199000091GA1001+999999999GF100991001001999999001001KA1999N-00321MD1710211+9999MW1101REMSYN070AAXX  26061 58407 31950 02903 10013 21040 40401 57021 71000 333 21032;EQDQ01  00002PRCP99
0134584070999992000012621004+30070+115330FM-12+002999999V0202501N002012200019N0080001N1-00321-00551104031ADDGA1001+999999999GF100991001001999999001001MD1410001+9999MW1101REMSYN060AAXX  26211 58407 41958 02502 11032 21055 40403 54000 71000;
0167584070999992000012700004+30070+115330FM-12+002999999V0209999C000012200019N0080001N1-00361+99999104061ADDAA199000091GA1001+999999999GF100991001001999999001001MD1210031+9999MW1101REMSYN063AAXX  27001 58407 31958 00000 11036 40406 52003 71000 333 1050;EQDQ01  00002PRCP99
0177584070999992000012706004+30070+115330FM-12+002999999V0202901N002012200019N0050001N1+00191-00401103801ADDAA199000091GF102991021011012501001001KA1999N-00401MD1710291+9999MW1101REMSYN076AAXX  27061 58407 31650 22902 10019 21040 40380 57029 71000 82100 333 21040;EQDQ01  00002PRCP99
0124584070999992000012721004+30070+115330FM-12+002999999V0201101N002019999999N0040001N1-00091-00531103411ADDGF107991071001999999031999MD1710201+9999MW1101REMSYN066AAXX  27211 58407 41940 71102 11009 21053 40341 57020 71000 8703/;
0182584070999992000012800004+30070+115330FM-12+002999999V0201401N002019999999N0080001N1-00081-00481103461ADDAA199000091GF107991071001999999031999IA2999-00309MD1210051-0601MW1101REMSYN082AAXX  28001 58407 31958 71402 11008 21048 40346 52005 71000 8703/ 333 05603 31033;EQDQ01  00002PRCP99
0165584070999992000012806004+30070+115330FM-12+002999999V0201101N002019999999N0100001N1+00071-00521103331ADDAA199000091GF108991081001999999071999KA1999N-00271MD1710221+9999REMSYN070AAXX  28061 58407 32960 81102 10007 21052 40333 57022 8807/ 333 21027;EQDQ01  00002PRCP99
0124584070999992000012821004+30070+115330FM-12+002999999V0202701N003019999999N0060001N1+00041-00201103381ADDGF108991081001999999071999MD1210031+9999MW1101REMSYN066AAXX  28211 58407 41956 82703 10004 21020 40338 52003 71000 8807/;
0182584070999992000012900004+30070+115330FM-12+002999999V0202701N001019999999N0035001N1+00031-00151103501ADDAA199000091GF107991071001999999031999IA2999+00009MD1210121+0101MW1101REMSYN082AAXX  29001 58407 31935 72701 10003 21015 40350 52012 71000 8703/ 333 00101 31004;EQDQ01  00002PRCP99
0177584070999992000012906004+30070+115330FM-12+002999999V0202901N004019999999N0030001N1+00351-00071103581ADDAA199000091GF107991071001999999031999KA1999N-00011MD1710071+9999MW1101REMSYN076AAXX  29061 58407 31930 72904 10035 21007 40358 57007 71000 8703/ 333 21001;EQDQ01  00002PRCP99
0192584070999992000013000004+30070+115330FM-12+002999999V0202901N002012200019N0020001N1-00051-00231104261ADDAA199000091GA1001+999999999GF100991001001999999001001IA2999-00309MD1210161+0801MW1101REMSYN076AAXX  30001 58407 31920 02902 11005 21023 40426 52016 71000 333 00851 31031;EQDQ01  00002PRCP99
0165584070999992000013006004+30070+115330FM-12+002999999V0200401N002012200019N0110001N1+00651-00661104111ADDAA199000091GF102991011001999999041011KA1999N-00101MD1710181+9999REMSYN070AAXX  30061 58407 32961 20402 10065 21066 40411 57018 81041 333 21010;EQDQ01  00002PRCP99
0112584070999992000013021004+30070+115330FM-12+002999999V0200401N002019999999N0100001N1+00111-00761104161ADDGF108991081001999999071999MD1710071+9999REMSYN060AAXX  30211 58407 42960 80402 10011 21076 40416 57007 8807/;
0170584070999992000013100004+30070+115330FM-12+002999999V0200201N003019999999N0130001N1+00061-00791104241ADDAA199000091GF108991081001999999071999IA2999+00009MD1210071+0001REMSYN076AAXX  31001 58407 32963 80203 10006 21079 40424 52007 8807/ 333 00001 31007;EQDQ01  00002PRCP99
0165584070999992000013106004+30070+115330FM-12+002999999V0202201N001019999999N0180001N1+00201-00811104071ADDAA199000091GF107991071001999999031999KA1999N+00031MD1710191+9999REMSYN070AAXX  31061 58407 32968 72201 10020 21081 40407 57019 8703/ 333 20003;EQDQ01  00002PRCP99
0133584070999992000013121004+30070+115330FM-12+002999999V0202201N001010360019N0100001N1-00121-00601103891ADDAA124000191GF108991041051017501071999MD1710091+9999REMSYN070AAXX  31211 58407 42760 82201 11012 21060 40389 57009 8457/ 333 70001;
0157584070999992000020100004+30070+115330FM-12+002999999V0201401N003012200019N0130001N1-00131-00661103811ADDAA124000191GF102991021001999999041001IA2999-00119MD1710081-0401REMSYN082AAXX  01001 58407 32963 21403 11013 21066 40381 57008 82040 333 05452 31011 70001;
0165584070999992000020106004+30070+115330FM-12+002999999V0201401N001019999999N0180001N1+00161-00641103561ADDAA199000091GF107991071001999999031999KA1999N-00161MD1710351+9999REMSYN070AAXX  01061 58407 32968 71401 10016 21064 40356 57035 8703/ 333 21016;EQDQ01  00002PRCP99
0122584070999992000020121004+30070+115330FM-12+002999999V0201101N001012200019N0100001N1-00111-00431103211ADDGA1001+999999999GF100991001001999999001001MD1710061+9999REMSYN054AAXX  01211 58407 42960 01101 11011 21043 40321 57006;
0175584070999992000020200004+30070+115330FM-12+002999999V0200701N002019999999N0100001N1-00061-00441103211ADDAA106000791GF108991081001999999071999IA2999-00349MD1410001-0601MW1701REMSYN094AAXX  02001 58407 11960 80702 11006 21044 40321 54000 69901 77000 8807/ 333 05601 31034 79999;
0180584070999992000020206004+30070+115330FM-12+002999999V0200401N001019999999N0100001N1+00151-00301103101ADDAA106000791AY171061AY271061GF108991081001999999071999KA1999N-00181MD1710181+9999MW1221REMSYN082AAXX  02061 58407 11960 80401 10015 21030 40310 57018 69901 72277 8807/ 333 21018;
0145584070999992000020221004+30070+115330FM-12+002999999V0201101N001019999999N0080001N1+00081-00221103001ADDAA124000791GF108991081001999999071999MD1710081+9999MW1101REMSYN076AAXX  02211 58407 41958 81101 10008 21022 40300 57008 71000 8807/ 333 79999;
0169584070999992000020300004+30070+115330FM-12+002999999V0201801N001019999999N0040001N1-00011-00191103091ADDAA124000791GF106991061001999999031001IA2999-00139MD1210091-0101MW1101REMSYN088AAXX  03001 58407 31940 61801 11001 21019 40309 52009 71000 86030 333 05101 31013 79999;
0177584070999992000020306004+30070+115330FM-12+002999999V0200401N002019999999N0080001N1+00351-00161102921ADDAA199000091GF108991081001999999071999KA1999N-00071MD1710231+9999MW1101REMSYN076AAXX  03061 58407 31958 80402 10035 21016 40292 57023 71000 8807/ 333 21007;EQDQ01  00002PRCP99
0161584070999992000020321004+30070+115330FM-12+002999999V0202501N002010042019N0050001N1+00191+00051102811ADDAA124000391AY161031AY261031GF108991071071004501021999MD1710121+9999MW1601REMSYN076AAXX  03211 58407 41450 82502 10019 20005 40281 57012 76066 8772/ 333 70003;
0191584070999992000020400004+30070+115330FM-12+002999999V0209999C000010042019N0020001N1+00191+00081102811ADDAA106000891AY171061AY261061GF108991071071004501021999IA2999+00159MD1410001-0301MW1601REMSYN094AAXX  04001 58407 11420 80000 10019 20008 40281 54000 69971 76076 8772/ 333 05302 30015 70008;
0180584070999992000020406004+30070+115330FM-12+002999999V0202701N002010042019N0020001N1+00241+00051102641ADDAA106002091AY171061AY261061GF108991071071004501021999KA1999N+00141MD1710211+9999MW1601REMSYN082AAXX  04061 58407 11420 82702 10024 20005 40264 57021 60021 76076 8772/ 333 20014;
0145584070999992000020421004+30070+115330FM-12+002999999V0202901N004019999999N0015001N1+00171+00001102701ADDAA124006691GF108991081001999999071999MD1710021+9999MW1101REMSYN076AAXX  04211 58407 41915 82904 10017 20000 40270 57002 71000 8807/ 333 70065;
0169584070999992000020500004+30070+115330FM-12+002999999V0202701N002019999999N0015001N1+00161-00041102831ADDAA124006191GF108991081001999999071999IA2999+00109MD1210131+0001MW1101REMSYN088AAXX  05001 58407 31915 82702 10016 21004 40283 52013 71000 8807/ 333 00000 30010 70060;
0177584070999992000020506004+30070+115330FM-12+002999999V0202701N003019999999N9999999N1+00421-00011102691ADDAA199000091GF107991071001999999041999KA1999N+00071MD1710251+9999MW1101REMSYN076AAXX  05061 58407 319/0 72703 10042 21001 40269 57025 71000 8704/ 333 20007;EQDQ01  00002PRCP99
0124584070999992000020521004+30070+115330FM-12+002999999V0200701N001019999999N0020001N1+00041-00051102641ADDGF108991081001999999071999MD1710091+9999MW1101REMSYN066AAXX  05211 58407 41920 80701 10004 21005 40264 57009 71000 8807/;
0192584070999992000020600004+30070+115330FM-12+002999999V0209999C000012200019N0006001N1-00011-00071102631ADDAA199000091GA1001+999999999GF100991001001999999001001IA2999-00209MD1710011-0201MW1461REMSYN076AAXX  06001 58407 31906 00000 11001 21007 40263 57001 74600 333 05252 31027;EQDQ01  00002PRCP99
0195584070999992000020606004+30070+115330FM-12+002999999V0200201N002012200019N0020001N1+00761+00201102281ADDAA199000091AY141061GA1001+999999999GF100991001001999999001001KA1999N-00051MD1710381+9999MW1101REMSYN070AAXX  06061 58407 31920 00202 10076 20020 40228 57038 71040 333 21005;EQDQ01  00002PRCP99
0124584070999992000020621004+30070+115330FM-12+002999999V0209999C000019999999N0020001N1+00271+00171102431ADDGF107991071001999999031999MD1210081+9999MW1101REMSYN066AAXX  06211 58407 41920 70000 10027 20017 40243 52008 71000 8703/;
0182584070999992000020700004+30070+115330FM-12+002999999V0202701N002012200019N0015001N1+00291+00161102651ADDAA199000091GF101991001001999999001011IA2999-00109MD1210221+0001MW1101REMSYN082AAXX  07001 58407 31915 12702 10029 20016 40265 52022 71000 80001 333 00003 31012;EQDQ01  00002PRCP99
0165584070999992000020706004+30070+115330FM-12+002999999V0203201N006019999999N0120001N1+00911-00931102681ADDAA199000091GF107991031001999999041021KA1999N+00141MD1710141+9999REMSYN070AAXX  07061 58407 32962 73206 10091 21093 40268 57014 83042 333 20014;EQDQ01  00002PRCP99
0122584070999992000020721004+30070+115330FM-12+002999999V0202701N001012200019N0130001N1-00041-00191102561ADDGA1001+999999999GF100991001001999999001001MD1710031+9999REMSYN054AAXX  07211 58407 42963 02701 11004 21019 40256 57003;
0180584070999992000020800004+30070+115330FM-12+002999999V0209999C000012200019N0120001N1-00061-00181102681ADDAA199000091GA1001+999999999GF100991001001999999001001IA2999-00309MD1210121+0001REMSYN070AAXX  08001 58407 32962 00000 11006 21018 40268 52012 333 00054 31038;EQDQ01  00002PRCP99
0165584070999992000020806004+30070+115330FM-12+002999999V0200201N002019999999N0150001N1+00951-00901102551ADDAA199000091GF105991051001999999041001KA1999N-00131MD1710181+9999REMSYN070AAXX  08061 58407 32965 50202 10095 21090 40255 57018 85040 333 21013;EQDQ01  00002PRCP99
0112584070999992000020821004+30070+115330FM-12+002999999V0209999C000019999999N0110001N1+00461-00051102371ADDGF108991081001999999071999MD1710091+9999REMSYN060AAXX  08211 58407 42961 80000 10046 21005 40237 57009 8807/;
0170584070999992000020900004+30070+115330FM-12+002999999V0201101N002019999999N0120001N1+00421-00201102411ADDAA199000091GF107991071001999999031999IA2999+00209MD1210041-0301REMSYN076AAXX  09001 58407 32962 71102 10042 21020 40241 52004 8703/ 333 05305 30024;EQDQ01  00002PRCP99
0182584070999992000021000004+30070+115330FM-12+002999999V0201401N001019999999N0070001N1+00461+00151999999ADDAA199000091GF108991081001999999071999IA2999+00209MD1210101-0301MW1101REMSYN082AAXX  10001 58407 31957 81401 10046 20015 4/207 52010 71000 8807/ 333 05300 30023;EQDQ01  00002PRCP99
0175584070999992000021006004+30070+115330FM-12+002999999V0200901N002012200019N0130001N1+01181+00071101781ADDAA199000091GA1001+999999999GF100991001001999999001001KA1999N+00421MD1710331+9999REMSYN064AAXX  10061 58407 32963 00902 10118 20007 40178 57033 333 20042;EQDQ01  00002PRCP99
0122584070999992000021021004+30070+115330FM-12+002999999V0201401N002012200019N0100001N1+00511+00261101951ADDGA1001+999999999GF100991001001999999001001MD1410001+9999REMSYN054AAXX  10211 58407 42960 01402 10051 20026 40195 54000;
0182584070999992000021100004+30070+115330FM-12+002999999V0201101N002019999999N0030001N1+00531+00341102081ADDAA199000091GF107991071001999999031999IA2999+00009MD1210121+0001MW1101REMSYN082AAXX  11001 58407 31930 71102 10053 20034 40208 52012 71000 8703/ 333 00001 30006;EQDQ01  00002PRCP99
0177584070999992000021106004+30070+115330FM-12+002999999V0200701N002012200019N0080001N1+01351+00321101901ADDAA199000091GF103991031001999999041001KA1999N+00351MD1710251+9999MW1051REMSYN076AAXX  11061 58407 31958 30702 10135 20032 40190 57025 70500 83040 333 20035;EQDQ01  00002PRCP99
0112584070999992000021121004+30070+115330FM-12+002999999V0209999C000019999999N0120001N1+00841+00321101731ADDGF107991071001999999041999MD1710131+9999REMSYN060AAXX  11211 58407 42962 70000 10084 20032 40173 57013 8704/;
0170584070999992000021200004+30070+115330FM-12+002999999V0209999C000019999999N0100001N1+00841+00381101821ADDAA199000091GF107991071001999999031999IA2999+00309MD1210091-0301REMSYN076AAXX  12001 58407 32960 70000 10084 20038 40182 52009 8703/ 333 05303 30035;EQDQ01  00002PRCP99
0165584070999992000021206004+30070+115330FM-12+002999999V0201101N003019999999N0120001N1+01671+00631101551ADDAA199000091GF107991071001999999031001KA1999N+00741MD1710261+9999REMSYN070AAXX  12061 58407 32962 71103 10167 20063 40155 57026 87030 333 20074;EQDQ01  00002PRCP99
0124584070999992000021221004+30070+115330FM-12+002999999V0201101N003019999999N0090001N1+01131+00621101421ADDGF108991081001999999071999MD1710161+9999MW1101REMSYN066AAXX  12211 58407 41959 81103 10113 20062 40142 57016 71000 8807/;
0158584070999992000021300004+30070+115330FM-12+002999999V0201401N002019999999N0050001N1+01051+00691101461ADDAA199000091GF108991081001999999071999MD1210041+9999MW1101REMSYN070AAXX  13001 58407 31950 81402 10105 20069 40146 52004 71000 8807/ 333;EQDQ01  00002PRCP99
0180584070999992000021306004+30070+115330FM-12+002999999V0202501N002010042019N0007001N1+00991+00871101401ADDAA106004191AY161061AY241061GF108991071071004501021999KA1999N+00931MD1710201+9999MW1611REMSYN082AAXX  13061 58407 11407 82502 10099 20087 40140 57020 60041 76164 8772/ 333 20093;
0145584070999992000021321004+30070+115330FM-12+002999999V0202701N003019999999N0020001N1+00811+00491102161ADDAA124005691GF108991081001999999071999MD1210061+9999MW1101REMSYN076AAXX  13211 58407 41920 82703 10081 20049 40216 52006 71000 8807/ 333 70057;
0151584070999992000021400004+30070+115330FM-12+002999999V0203201N002019999999N0020001N1+00771+00291102341ADDAA124005691GF108991081001999999071999MD1210171+0901MW1101REMSYN082AAXX  14001 58407 31920 83202 10077 20029 40234 52017 71000 8807/ 333 00953 70057;
0177584070999992000021406004+30070+115330FM-12+002999999V0202701N003019999999N0030001N1+01051+00391102351ADDAA199000091GF107991071001999999031001KA1999N+00711MD1710121+9999MW1101REMSYN076AAXX  14061 58407 31930 72703 10105 20039 40235 57012 71000 87030 333 20071;EQDQ01  00002PRCP99
0134584070999992000021421004+30070+115330FM-12+002999999V0201401N002012200019N0015001N1+00601+99999102581ADDGA1001+999999999GF100991001001999999001001MD1710091+9999MW1101REMSYN060AAXX  14211 58407 41915 01402 10060 20/46 40258 57009 71000;
0182584070999992000021500004+30070+115330FM-12+002999999V0201101N002012200019N0011001N1+00551+00431102691ADDAA199000091GF102991001001999999001011IA2999+00109MD1210111+0401MW1101REMSYN082AAXX  15001 58407 31911 21102 10055 20043 40269 52011 71000 80001 333 00452 30016;EQDQ01  00002PRCP99
0177584070999992000021506004+30070+115330FM-12+002999999V0209999C000019999999N0070001N1+01201-00141102531ADDAA199000091GF107991071001999999031999KA1999N+00461MD1710251+9999MW1051REMSYN076AAXX  15061 58407 31957 70000 10120 21014 40253 57025 70500 8703/ 333 20046;EQDQ01  00002PRCP99
0112584070999992000021521004+30070+115330FM-12+002999999V0202001N001019999999N0120001N1+00811+00021102291ADDGF108991081001999999071999MD1710081+9999REMSYN060AAXX  15211 58407 42962 82001 10081 20002 40229 57008 8807/;
0152584070999992000021600004+30070+115330FM-12+002999999V0200901N002019999999N0120001N1+00831+99999999999ADDAA199000091GF108991011001999999011051IA2999+00409MD1999999-0301REMSYN058AAXX  16001 58407 31962 80902 10083 81015 333 05303 30042;EQDQ01  00002PRCP99
0172584070999992000021606004+30070+115330FM-12+002999999V0201401N002010360019N0100001N1+00701+00341102351ADDAA106000391AY161061GF108991021071004501021999KA1999N+00651MD1710101+9999MW1601REMSYN082AAXX  16061 58407 11460 81402 10070 20034 40235 57010 69931 76060 8272/ 333 20065;
0143584070999992000021621004+30070+115330FM-12+002999999V0209999C000012200019N0100001N1+00471+00321102351ADDAA124000591GA1001+999999999GF100991001001999999001001MD1710101+9999REMSYN064AAXX  16211 58407 42960 00000 10047 20032 40235 57010 333 70006;
0169584070999992000021700004+30070+115330FM-12+002999999V0209999C000012200019N0050001N1+00481+00361102401ADDAA124000591GF104991021001999999031011IA2999-00029MD1210051+0101MW1101REMSYN088AAXX  17001 58407 31950 40000 10048 20036 40240 52005 71000 82031 333 00154 31002 70006;
0165584070999992000021706004+30070+115330FM-12+002999999V0201101N006010150019N0130001N1+00881+00371102141ADDAA199000091GF108991061051017501071999KA1999N+00301MD1710331+9999REMSYN070AAXX  17061 58407 32763 81106 10088 20037 40214 57033 8657/ 333 20030;EQDQ01  00002PRCP99
0153584070999992000021721004+30070+115330FM-12+002999999V0201401N006010042019N0050001N1+00901+00711101541ADDAA124016891AY161031GF108991071071004501021999MD1710281+9999MW1611REMSYN076AAXX  17211 58407 41450 81406 10090 20071 40154 57028 76160 8772/ 333 70167;
0165584070999992000021800004+30070+115330FM-12+002999999V0201101N002010042019N0060001N1+00921+00791101531ADDAA106007191AY161061GF108991071071004501021999MD1710011-0901MW1611REMSYN088AAXX  18001 58407 11456 81102 10092 20079 40153 57001 60071 76160 8772/ 333 05904 70203;
0180584070999992000021806004+30070+115330FM-12+002999999V0203201N001010042019N0030001N1+00931+00851101271ADDAA106016091AY161061AY261061GF108991071071004501021999KA1999N+00731MD1710191+9999MW1611REMSYN082AAXX  18061 58407 11430 83201 10093 20085 40127 57019 60161 76166 8772/ 333 20073;
0153584070999992000021821004+30070+115330FM-12+002999999V0203201N005010042019N0090001N1+00541+00421101471ADDAA124025191AY161031GF108991071071004501021999MD1710091+9999MW1601REMSYN076AAXX  18211 58407 41459 83205 10054 20042 40147 57009 76060 8772/ 333 70252;
0183584070999992000021900004+30070+115330FM-12+002999999V0203201N004010360019N0120001N1+00431+00391101561ADDAA106002091AY161061GF108991031071004501021999IA2999+00479MD1210091+0001MW1601REMSYN094AAXX  19001 58407 11462 83204 10043 20039 40156 52009 60021 76060 8372/ 333 00054 30047 70232;
0172584070999992000021906004+30070+115330FM-12+002999999V0202901N005010120019N0120001N1+00491+00321101631ADDAA106000891AY161061GF108991071051012501071999KA1999N+00431MD1710141+9999MW1001REMSYN082AAXX  19061 58407 11662 82905 10049 20032 40163 57014 69981 70060 8757/ 333 20043;
0133584070999992000021921004+30070+115330FM-12+002999999V0209999C000019999999N0110001N1+00511+00341101961ADDAA124002391GF108991081001999999071999MD1710031+9999REMSYN070AAXX  19211 58407 42961 80000 10051 20034 40196 57003 8807/ 333 70024;
0183584070999992000022000004+30070+115330FM-12+002999999V0202901N001010042019N0110001N1+00521+00351102211ADDAA106000191AY161061GF108991061071004501021999IA2999+00439MD1210251+0601MW1601REMSYN094AAXX  20001 58407 11461 82901 10052 20035 40221 52025 69921 76060 8672/ 333 00600 30043 70010;
0127584070999992000022021004+30070+115330FM-12+002999999V0201101N003010150019N0100001N1+00621+99999102291ADDAA124001891GF107991071051017501999999MD1710041+9999REMSYN064AAXX  20211 58407 42760 71103 10062 40229 57004 875// 333 70017;
0169584070999992000022100004+30070+115330FM-12+002999999V0200901N002019999999N0090001N1+00551+00331102301ADDAA124001591GF107991071001999999071999IA2999+00429MD1210011+0101MW1101REMSYN088AAXX  21001 58407 31959 70902 10055 20033 40230 52001 71000 8707/ 333 00100 30042 70015;
0172584070999992000022106004+30070+115330FM-12+002999999V0201101N003019999999N0080001N1+00701+00291102021ADDAA106000791AY161061GF108991081001999999071999KA1999N+00501MD1710291+9999MW1211REMSYN082AAXX  21061 58407 11958 81103 10070 20029 40202 57029 69901 72160 8807/ 333 20050;
0145584070999992000022121004+30070+115330FM-12+002999999V0209999C000019999999N0050001N1+00431+00281102171ADDAA124002591GF108991081001999999071999MD1710061+9999MW1101REMSYN076AAXX  21211 58407 41950 80000 10043 20028 40217 57006 71000 8807/ 333 70026;
0169584070999992000022200004+30070+115330FM-12+002999999V0201401N001019999999N0030001N1+00451+00281102211ADDAA124002591GF108991081001999999071999IA2999+00379MD1210041-0101MW1101REMSYN088AAXX  22001 58407 31930 81401 10045 20028 40221 52004 71000 8807/ 333 05151 30037 70026;
0177584070999992000022206004+30070+115330FM-12+002999999V0201101N003010360019N0080001N1+00831+00281102031ADDAA199000091GF107991031051017501041999KA1999N+00371MD1710221+9999MW1101REMSYN076AAXX  22061 58407 31758 71103 10083 20028 40203 57022 71000 8354/ 333 20037;EQDQ01  00002PRCP99
0145584070999992000022221004+30070+115330FM-12+002999999V0202501N001019999999N0050001N1+00541+00321102191ADDAA124000191GF108991081001999999071999MD1710021+9999MW1101REMSYN076AAXX  22211 58407 41950 82501 10054 20032 40219 57002 71000 8807/ 333 70001;
0169584070999992000022300004+30070+115330FM-12+002999999V0203201N002019999999N0020001N1+00581+00441102291ADDAA124000191GF108991081001999999071999IA2999+00499MD1210101+0101MW1101REMSYN088AAXX  23001 58407 31920 83202 10058 20044 40229 52010 71000 8807/ 333 00101 30049 70001;
0172584070999992000022306004+30070+115330FM-12+002999999V0202901N001010360019N0100001N1+00871+00301102261ADDAA106000791AY161061GF108991041051017501071999KA1999N+00501MD1710091+9999MW1001REMSYN082AAXX  23061 58407 11760 82901 10087 20030 40226 57009 69901 70060 8457/ 333 20050;
0153584070999992000022321004+30070+115330FM-12+002999999V0209999C000019999999N0020001N1+00651+00561102581ADDAA124000391AY161031GF108991081001999999071999MD1710051+9999MW1101REMSYN076AAXX  23211 58407 41920 80000 10065 20056 40258 57005 71060 8807/ 333 70003;
0165584070999992000022400004+30070+115330FM-12+002999999V0209999C000019999999N0020001N1+00641+00551102701ADDAA106000791AY161061GF108991081001999999071999MD1210121+0401MW1101REMSYN088AAXX  24001 58407 11920 80000 10064 20055 40270 52012 69901 71060 8807/ 333 00401 70003;
0165584070999992000022406004+30070+115330FM-12+002999999V0203401N002019999999N0100001N1+00921+00311102571ADDAA199000091GF108991081001999999071999KA1999N+00591MD1710211+9999REMSYN070AAXX  24061 58407 32960 83402 10092 20031 40257 57021 8807/ 333 20059;EQDQ01  00002PRCP99
0145584070999992000022421004+30070+115330FM-12+002999999V0202701N001019999999N0040001N1+00571+00331102731ADDAA124000391GF108991081001999999071999MD1710091+9999MW1101REMSYN076AAXX  24211 58407 41940 82701 10057 20033 40273 57009 71000 8807/ 333 70003;
0157584070999992000022500004+30070+115330FM-12+002999999V0202901N002019999999N0030001N1+00591+00401102841ADDAA124000391GF108991081001999999071999MD1210111+0101MW1101REMSYN088AAXX  25001 58407 31930 82902 10059 20040 40284 52011 71000 8807/ 333 00157 300/7 70003;
0165584070999992000022506004+30070+115330FM-12+002999999V0202701N006010360019N0100001N1+01031+00311102641ADDAA199000091GF106991021011012501041001KA1999N+00521MD1710251+9999REMSYN070AAXX  25061 58407 32660 62706 10103 20031 40264 57025 82140 333 20052;EQDQ01  00002PRCP99
0134584070999992000022521004+30070+115330FM-12+002999999V0202901N002012200019N0020001N1+00331+00251102831ADDGA1001+999999999GF100991001001999999001001MD1410001+9999MW1101REMSYN060AAXX  25211 58407 41920 02902 10033 20025 40283 54000 71000;
0154584070999992000022600004+30070+115330FM-12+002999999V0202201N004012200019N0020001N1+99999+99999102931ADDAA199000091GF102991001001999999001011MD1210101+9999MW1101REMSYN066AAXX  26001 58407 31920 22204 10/43 20020 40293 52010 71000 80001;EQDQ01  00002PRCP99
0175584070999992000022606004+30070+115330FM-12+002999999V0202701N002012200019N0150001N1+01311-00431102751ADDAA199000091GA1001+999999999GF100991001001999999001001KA1999N+00241MD1710281+9999REMSYN064AAXX  26061 58407 32965 02702 10131 21043 40275 57028 333 20024;EQDQ01  00002PRCP99
0170584070999992000022700004+30070+115330FM-12+002999999V0200901N001019999999N0100001N1+00601+00261102601ADDAA199000091GF107991071001999999031999IA2999+00209MD1210131-0301REMSYN076AAXX  27001 58407 32960 70901 10060 20026 40260 52013 8703/ 333 05302 30023;EQDQ01  00002PRCP99
0165584070999992000022706004+30070+115330FM-12+002999999V0200701N002019999999N0130001N1+01091+00161102431ADDAA199000091GF108991081001999999071999KA1999N+00521MD1710211+9999REMSYN070AAXX  27061 58407 32963 80702 10109 20016 40243 57021 8807/ 333 20052;EQDQ01  00002PRCP99
0153584070999992000022721004+30070+115330FM-12+002999999V0200201N002019999999N0080001N1+00801+00531102551ADDAA124000791AY161031GF108991081001999999071999MD1710021+9999MW1211REMSYN076AAXX  27211 58407 41958 80202 10080 20053 40255 57002 72160 8807/ 333 79999;
0165584070999992000022800004+30070+115330FM-12+002999999V0209999C000019999999N0060001N1+00781+00531102731ADDAA106000791AY161061GF107991071001999999031999MD1210181+0101MW1101REMSYN088AAXX  28001 58407 11956 70000 10078 20053 40273 52018 69901 71060 8703/ 333 00102 79999;
0145584070999992000022806004+30070+115330FM-12+002999999V0209999C000019999999N0150001N1+01361+00361102651ADDAA199000021GF107991071001999999031999KA1999N+00721MD1710171+9999REMSYN069AAXX  28061 58407 32965 70000 1013620036 40265 57017 8703/ 333 20072;
0134584070999992000022821004+30070+115330FM-12+002999999V0209999C000012200019N0080001N1+00511+00411103041ADDGA1001+999999999GF100991001001999999001001MD1210011+9999MW1101REMSYN060AAXX  28211 58407 41958 00000 10051 20041 40304 52001 71000;
0192584070999992000022900004+30070+115330FM-12+002999999V0202901N001012200019N0015001N1+00501+00431103131ADDAA199000091GA1001+999999999GF100991001001999999001001IA2999+00009MD1210091+0401MW1101REMSYN076AAXX  29001 58407 31915 02901 10050 20043 40313 52009 71000 333 00453 30004;EQDQ01  00002PRCP99
0165584070999992000022906004+30070+115330FM-12+002999999V0200901N003012200019N0110001N1+01401+00011102721ADDAA199000091GF101991011011008001011001KA1999N+00401MD1710361+9999REMSYN070AAXX  29061 58407 32561 10903 10140 20001 40272 57036 81110 333 20040;EQDQ01  00002PRCP99
0122584070999992000022921004+30070+115330FM-12+002999999V0201101N002012200019N0130001N1+00461+00151102611ADDGA1001+999999999GF100991001001999999001001MD1710101+9999REMSYN054AAXX  29211 58407 42963 01102 10046 20015 40261 57010;
0180584070999992000030100004+30070+115330FM-12+002999999V0201401N002012200019N0120001N1+00551+00031102701ADDAA199000091GA1001+999999999GF100991001001999999001001IA2999-00109MD1210091-0401REMSYN070AAXX  01001 58407 32962 01402 10055 20003 40270 52009 333 05401 31012;EQDQ01  00002PRCP99
0165584070999992000030106004+30070+115330FM-12+002999999V0200401N003012200019N0150001N1+01501-00071102411ADDAA199000091GF102991001001999999001011KA1999N+00311MD1710291+9999REMSYN070AAXX  01061 58407 32965 20403 10150 21007 40241 57029 80001 333 20031;EQDQ01  00002PRCP99
0122584070999992000030121004+30070+115330FM-12+002999999V0201101N002012200019N0100001N1+00791+00421102281ADDGA1001+999999999GF100991001001999999001001MD1710091+9999REMSYN054AAXX  01211 58407 42960 01102 10079 20042 40228 57009;
0180584070999992000030200004+30070+115330FM-12+002999999V0201101N001012200019N0130001N1+00741+00391102351ADDAA199000091GA1001+999999999GF100991001001999999001001IA2999+00109MD1210061-0401REMSYN070AAXX  02001 58407 32963 01101 10074 20039 40235 52006 333 05402 30019;EQDQ01  00002PRCP99
0165584070999992000031406004+30070+115330FM-12+002999999V0201401N004010360019N0150001N1+01781+00631101711ADDAA199000091GF106991021011012501031001KA1999N+00801MD1710271+9999REMSYN070AAXX  14061 58407 32665 61404 10178 20063 40171 57027 82130 333 20080;EQDQ01  00002PRCP99
0116584070999992000031421004+30070+115330FM-12+002999999V0200401N002019999999N0050001N1+01301+01071101351ADDGF108991081001999999071999MD1710141+9999REMSYN064AAXX  14211 58407 41950 80402 10130 20107 40135 57014 8807/ 333;
0165584070999992000031500004+30070+115330FM-12+002999999V0202001N001010042019N0050001N1+01271+01101101351ADDAA106001091AY161061GF108991061071004501021999MD1410001-0701MW1601REMSYN088AAXX  15001 58407 11450 82001 10127 20110 40135 54000 60011 76060 8672/ 333 05703 70010;
0112584070999992000032421004+30070+115330FM-12+002999999V0200701N001019999999N0110001N1+01371+00781102221ADDGF108991081001999999071999MD1710091+9999REMSYN060AAXX  24211 58407 42961 80701 10137 20078 40222 57009 8807/;
0152584070999992000032500004+30070+115330FM-12+002999999V0209999C000019999999N0100001N1+01401+00721102431ADDAA199000091GF108991081001999999071999MD1210211+0021REMSYN070AAXX  25001 58407 32960 80000 10140 20072 40243 52021 8807/ 333 05203;EQDQ01  00002PRCP99
0177584070999992000032506004+30070+115330FM-12+002999999V0202001N003019999999N0080001N1+01761+00331102341ADDAA199000091GF108991081001999999071999KA1999N+01261MD1710161+9999MW1051REMSYN076AAXX  25061 58407 31958 82003 10176 20033 40234 57016 70500 8807/ 333 20126;EQDQ01  00002PRCP99
0134584070999992000032521004+30070+115330FM-12+002999999V0209999C000012200019N0040001N1+00941+00751102431ADDGA1001+999999999GF100991001001999999001001MD1710011+9999MW1101REMSYN060AAXX  25211 58407 41940 00000 10094 20075 40243 57001 71000;
0182584070999992000032600004+30070+115330FM-12+002999999V0209999C000019999999N0050001N1+01091+00911102481ADDAA199000091GF105991051001999999041001IA2999+00409MD1210051+0101MW1101REMSYN082AAXX  26001 58407 31950 50000 10109 20091 40248 52005 71000 85040 333 00153 30042;EQDQ01  00002PRCP99
0122584070999992000032621004+30070+115330FM-12+002999999V0201101N002012200019N0100001N1+01241+00841999999ADDGA1001+999999999GF100991001001999999001001MD1710221+9999REMSYN054AAXX  26211 58407 42960 01102 10124 20084 4///4 57022;
0162584070999992000032700004+30070+115330FM-12+002999999V0201401N002012200019N0120001N1+01431+00791101421ADDAA199000091GA1001+999999999GF100991001001999999001001MD1210081+0111REMSYN064AAXX  27001 58407 32962 01402 10143 20079 40142 52008 333 06103;EQDQ01  00002PRCP99
0132584070999992000032706004+30070+115330FM-12+002999999V0202501N006019999999N9999999N1+02631+00411100931ADDAA199000091MD1710512+9999REMSYN060AAXX  27061 58407 3297/ /2506 10263 20041 40093 57051 80115;EQDQ01+000512APC3  Q02  00002PRCP99
0122584070999992000032721004+30070+115330FM-12+002999999V0202901N002012200019N0120001N1+01561+00451101551ADDGA1001+999999999GF100991001001999999001001MD1210291+9999REMSYN054AAXX  27211 58407 42962 02902 10156 20045 40155 52029;
0152584070999992000032800004+30070+115330FM-12+002999999V0203201N003012200019N0110001N1+01651+00091101961ADDAA199000091GF102991021001999999041001MD1210401+0051REMSYN070AAXX  28001 58407 32961 23203 10165 20009 40196 52040 82040 333 00502;EQDQ01  00002PRCP99
0175584070999992000032806004+30070+115330FM-12+002999999V0203201N004012200019N0140001N1+02091-00191101931ADDAA199000091GA1001+999999999GF100991001001999999001001KA1999N+01491MD1710171+9999REMSYN064AAXX  28061 58407 32964 03204 10209 21019 40193 57017 333 20149;EQDQ01  00002PRCP99
0122584070999992000032821004+30070+115330FM-12+002999999V0201401N003012200019N0120001N1+01291+00011102161ADDGA1001+999999999GF100991001001999999001001MD1710031+9999REMSYN054AAXX  28211 58407 42962 01403 10129 20001 40216 57003;
0162584070999992000032900004+30070+115330FM-12+002999999V0201401N005012200019N0160001N1+01311+00041102291ADDAA199000091GA1001+999999999GF100991001001999999001001MD1210131+0031REMSYN064AAXX  29001 58407 32966 01405 10131 20004 40229 52013 333 00353;EQDQ01  00002PRCP99
0175584070999992000032906004+30070+115330FM-12+002999999V0201101N005012200019N0170001N1+02111-00581101941ADDAA199000091GA1001+999999999GF100991001001999999001001KA1999N+01191MD1710361+9999REMSYN064AAXX  29061 58407 32967 01105 10211 21058 40194 57036 333 20119;EQDQ01  00002PRCP99
0152584070999992000032921004+30070+115330FM-12+002999999V0201101N003012200019N0120001N1+01681+00281101101ADDAA199000091GA1001+999999999GF100991001001999999001001MD1710191+9999REMSYN054AAXX  29211 58407 32962 01103 10168 20028 40110 57019;EQDQ01  00002PRCP99
0152584070999992000033000004+30070+115330FM-12+002999999V0201101N006019999999N0130001N1+01781+00321101101ADDAA199000091GF107991071001999999031999MD1410001+0121REMSYN070AAXX  30001 58407 32963 71106 10178 20032 40110 54000 8703/ 333 06205;EQDQ01  00002PRCP99
0172584070999992000033006004+30070+115330FM-12+002999999V0201101N003019999999N0130001N1+02001+00931100841ADDAA106000791AY161061GF108991081001999999071999KA1999N+01581MD1710291+9999MW1001REMSYN082AAXX  30061 58407 11963 81103 10200 20093 40084 57029 69901 70060 8807/ 333 20158;
0145584070999992000033021004+30070+115330FM-12+002999999V0209999C000012200019N0060001N1+01461+01221100701ADDAA124000791GF102991021001999999041001MD1710041+9999MW1101REMSYN076AAXX  30211 58407 41956 20000 10146 20122 40070 57004 71000 82040 333 79999;
0151584070999992000033100004+30070+115330FM-12+002999999V0201101N001019999999N0040001N1+01571+01241100881ADDAA124000791GF107991071001999999031999MD1210181-0201MW1101REMSYN082AAXX  31001 58407 31940 71101 10157 20124 40088 52018 71000 8703/ 333 05252 79999;
0165584070999992000033106004+30070+115330FM-12+002999999V0200701N002019999999N0110001N1+02321+01391100831ADDAA199000091GF107991071001999999031999KA1999N+01371MD1710161+9999REMSYN070AAXX  31061 58407 32961 70702 10232 20139 40083 57016 8703/ 333 20137;EQDQ01  00002PRCP99
0152584070999992000040100004+30070+115330FM-12+002999999V0201401N002012200019N0100001N1+01871+01481101101ADDAA199000091GF103991031001999999041001MD1210101+0021REMSYN070AAXX  01001 58407 32960 31402 10187 20148 40110 52010 83040 333 00203;EQDQ01  00002PRCP99
0165584070999992000040106004+30070+115330FM-12+002999999V0201401N005019999999N0130001N1+02211+01231100861ADDAA199000091GF107991071001999999031999KA1999N+01621MD1710271+9999REMSYN070AAXX  01061 58407 32963 71405 10221 20123 40086 57027 8703/ 333 20162;EQDQ01  00002PRCP99
0153584070999992000040121004+30070+115330FM-12+002999999V0202901N003019999999N0120001N1+01401+00781101341ADDAA124000591AY161031GF108991081001999999071999MD1210031+9999MW1001REMSYN076AAXX  01211 58407 41962 82903 10140 20078 40134 52003 70060 8807/ 333 70004;
0165584070999992000040200004+30070+115330FM-12+002999999V0202901N003019999999N0100001N1+01391+99999101481ADDAA106000791AY161061GF107991071001999999031999MD1210141+0401MW1001REMSYN088AAXX  02001 58407 11960 72903 10139 20/70 40148 52014 69901 70060 8703/ 333 00455 70004;
0165584070999992000040206004+30070+115330FM-12+002999999V0203601N002019999999N0120001N1+01711+00781101531ADDAA199000091GF107991071001999999031999KA1999N+01331MD1710111+9999REMSYN070AAXX  02061 58407 32962 73602 10171 20078 40153 57011 8703/ 333 20133;EQDQ01  00002PRCP99
0112584070999992000040221004+30070+115330FM-12+002999999V0202901N002019999999N0110001N1+01411+00791101571ADDGF108991081001999999071999MD1710041+9999REMSYN060AAXX  02211 58407 42961 82902 10141 20079 40157 57004 8807/;
0152584070999992000040300004+30070+115330FM-12+002999999V0203201N001019999999N0140001N1+01421+00981101701ADDAA199000091GF108991081001999999071999MD1210131+0021REMSYN070AAXX  03001 58407 32964 83201 10142 20098 40170 52013 8807/ 333 00200;EQDQ01  00002PRCP99
0165584070999992000040306004+30070+115330FM-12+002999999V0203401N001019999999N0130001N1+01931+00981101441ADDAA199000091GF107991071001999999031999KA1999N+01301MD1710281+9999REMSYN070AAXX  03061 58407 32963 73401 10193 20098 40144 57028 8703/ 333 20130;EQDQ01  00002PRCP99
0153584070999992000040321004+30070+115330FM-12+002999999V0202501N002019999999N0020001N1+01491+01251101291ADDAA124000391AY161031GF108991081001999999071999MD1710101+9999MW1101REMSYN076AAXX  03211 58407 41920 82502 10149 20125 40129 57010 71060 8807/ 333 70002;
0165584070999992000040406004+30070+115330FM-12+002999999V0203201N004012200019N0130001N1+02241+01451101291ADDAA199000091GF101991011011008001001001KA1999N+01431MD1710191+9999REMSYN070AAXX  04061 58407 32563 13204 10224 20145 40129 57019 81100 333 20143;EQDQ01  00002PRCP99
