0150595670999992000010100004+22030+121570FM-12+032599999V0200201N010010042019N0150001N1+02071+01871101611ADDAA112000591GF107991071051004501999999MA1999999097841MD1110131+9999REMSYN072AAXX  01001 59567 12465 70210 10207 20187 39784 40161 51013 69952 875//;
0163595670999992000010103004+22030+121570FM-12+032599999V0200101N006010021019N0150001N1+02151+01961101591ADDAA106000091GF107991071051002501999999MA1999999097831MD1810011+9999REMSYN066AAXX  01031 59567 32365 70106 10215 20196 39783 40159 58001 875//;EQDQ01  00002PRCP06
0163595670999992000010106004+22030+121570FM-12+032599999V0203601N004010021019N0150001N1+02161+01961101361ADDAA106000091GF107991071051002501999999MA1999999097611MD1610221+9999REMSYN066AAXX  01061 59567 32365 73604 10216 20196 39761 40136 56022 875//;EQDQ01  00002PRCP06
0163595670999992000010109004+22030+121570FM-12+032599999V0200201N006012200019N0150001N1+02131+01931101391ADDAA106000091GF102991021011002501001001MA1999999097641MD1310031+9999REMSYN066AAXX  01091 59567 32365 20206 10213 20193 39764 40139 53003 82100;EQDQ01  00002PRCP06
0163595670999992000010112004+22030+121570FM-12+032599999V0200201N005010021019N0100001N1+02121+01931101511ADDAA106000091GF106991061051002501001001MA1999999097751MD1010111+9999REMSYN066AAXX  01121 59567 32360 60205 10212 20193 39775 40151 50011 86500;EQDQ01  00002PRCP06
0163595670999992000010121004+22030+121570FM-12+032599999V0200101N007010012019N0100001N1+01941+01821101451ADDAA106000091GF108991081051001501999999MA1999999097671MD1510001+9999REMSYN066AAXX  01211 59567 32260 80107 10194 20182 39767 40145 55000 885//;EQDQ01  00002PRCP06
0163595670999992000010200004+22030+121570FM-12+032599999V0203601N008010042019N0150001N1+02001+01621101581ADDAA106000091GF106991061051004501001001MA1999999097811MD1310141+9999REMSYN066AAXX  02001 59567 32465 63608 10200 20162 39781 40158 53014 86500;EQDQ01  00002PRCP06
0163595670999992000010203004+22030+121570FM-12+032599999V0203601N006010042019N0150001N1+02071+01631101601ADDAA106000091GF107991071051004501999999MA1999999097831MD1010021+9999REMSYN066AAXX  02031 59567 32465 73606 10207 20163 39783 40160 50002 875//;EQDQ01  00002PRCP06
0163595670999992000010206004+22030+121570FM-12+032599999V0203601N007012200019N0150001N1+02161+01581101371ADDAA106000091GF102991021011004501001001MA1999999097621MD1710211+9999REMSYN066AAXX  02061 59567 32465 23607 10216 20158 39762 40137 57021 82100;EQDQ01  00002PRCP06
0163595670999992000010209004+22030+121570FM-12+032599999V0203601N008012200019N0100001N1+02001+01401101471ADDAA106000091GF104991041051004501001001MA1999999097701MD1310081+9999REMSYN066AAXX  02091 59567 32460 43608 10200 20140 39770 40147 53008 84500;EQDQ01  00002PRCP06
0163595670999992000010212004+22030+121570FM-12+032599999V0200101N009012200019N0100001N1+01971+01371101661ADDAA106000091GF104991041051004501001001MA1999999097881MD1210181+9999REMSYN066AAXX  02121 59567 32460 40109 10197 20137 39788 40166 52018 84500;EQDQ01  00002PRCP06
0163595670999992000010221004+22030+121570FM-12+032599999V0200101N006012200019N0100001N1+01861+01361101551ADDAA106000091GF101991011011004501001001MA1999999097761MD1510031+9999REMSYN066AAXX  02211 59567 32460 10106 10186 20136 39776 40155 55003 81100;EQDQ01  00002PRCP06
0163595670999992000010300004+22030+121570FM-12+032599999V0200201N009012200019N0100001N1+01901+01321101741ADDAA106000091GF102991021011004501001001MA1999999097951MD1310191+9999REMSYN066AAXX  03001 59567 32460 20209 10190 20132 39795 40174 53019 82100;EQDQ01  00002PRCP06
0163595670999992000010303004+22030+121570FM-12+032599999V0200101N006012200019N0100001N1+02101+01431101751ADDAA106000091GF101991011011004501001001MA1999999097981MD1010031+9999REMSYN066AAXX  03031 59567 32460 10106 10210 20143 39798 40175 50003 81100;EQDQ01  00002PRCP06
0163595670999992000010306004+22030+121570FM-12+032599999V0200201N005012200019N0100001N1+02151+01401101551ADDAA106000091GF101991011011004501001001MA1999999097801MD1710181+9999REMSYN066AAXX  03061 59567 32460 10205 10215 20140 39780 40155 57018 81100;EQDQ01  00002PRCP06
0163595670999992000010309004+22030+121570FM-12+032599999V0200201N004010042019N0100001N1+01961+01391101621ADDAA106000091GF105991051051004501001001MA1999999097841MD1310041+9999REMSYN066AAXX  03091 59567 32460 50204 10196 20139 39784 40162 53004 85500;EQDQ01  00002PRCP06
0163595670999992000010312004+22030+121570FM-12+032599999V0200201N005010042019N0100001N1+01941+01391101751ADDAA106000091GF105991051051004501001001MA1999999097961MD1210121+9999REMSYN066AAXX  03121 59567 32460 50205 10194 20139 39796 40175 52012 85500;EQDQ01  00002PRCP06
0163595670999992000010321004+22030+121570FM-12+032599999V0200601N007012200019N0100001N1+01991+01471101581ADDAA106000091GF103991031051004501001001MA1999999097801MD1510041+9999REMSYN066AAXX  03211 59567 32460 30607 10199 20147 39780 40158 55004 83500;EQDQ01  00002PRCP06
0163595670999992000010400004+22030+121570FM-12+032599999V0200501N006012200019N0100001N1+02061+01501101701ADDAA106000091GF102991011011008001031001MA1999999097931MD1110131+9999REMSYN066AAXX  04001 59567 32560 20506 10206 20150 39793 40170 51013 81130;EQDQ01  00002PRCP06
0163595670999992000010403004+22030+121570FM-12+032599999V0200501N006012200019N0100001N1+02181+01671101711ADDAA106000091GF103991031011008001001001MA1999999097951MD1010021+9999REMSYN066AAXX  04031 59567 32560 30506 10218 20167 39795 40171 50002 83100;EQDQ01  00002PRCP06
0163595670999992000010406004+22030+121570FM-12+032599999V0200801N008012200019N0100001N1+02231+01721101471ADDAA106000091GF104991041011008001001001MA1999999097731MD1710221+9999REMSYN066AAXX  04061 59567 32560 40808 10223 20172 39773 40147 57022 84100;EQDQ01  00002PRCP06
0163595670999992000010409004+22030+121570FM-12+032599999V0200501N005012200019N0100001N1+02091+01551101531ADDAA106000091GF102991011011008001031001MA1999999097771MD1310041+9999REMSYN066AAXX  04091 59567 32560 20505 10209 20155 39777 40153 53004 81130;EQDQ01  00002PRCP06
0163595670999992000010412004+22030+121570FM-12+032599999V0200401N004012200019N0100001N1+02061+01661101651ADDAA106000091GF102991021011008001001001MA1999999097881MD1110111+9999REMSYN066AAXX  04121 59567 32560 20404 10206 20166 39788 40165 51011 82100;EQDQ01  00002PRCP06
0163595670999992000010421004+22030+121570FM-12+032599999V0201801N003012200019N0120001N1+02011+01761101491ADDAA106000091GF101991011011004501001001MA1999999097721MD1610101+9999REMSYN066AAXX  04211 59567 32462 11803 10201 20176 39772 40149 56010 81100;EQDQ01  00002PRCP06
0163595670999992000010500004+22030+121570FM-12+032599999V0201601N004012200019N0120001N1+02261+01881101571ADDAA106000091GF101991011001999999031001MA1999999097831MD1110111+9999REMSYN066AAXX  05001 59567 32962 11604 10226 20188 39783 40157 51011 81030;EQDQ01  00002PRCP06
0163595670999992000010503004+22030+121570FM-12+032599999V0201901N004012200019N0150001N1+02501+02071101501ADDAA106000091GF102991011011008001031001MA1999999097791MD1810041+9999REMSYN066AAXX  05031 59567 32565 21904 10250 20207 39779 40150 58004 81130;EQDQ01  00002PRCP06
0163595670999992000010506004+22030+121570FM-12+032599999V0202001N004012200019N0150001N1+02441+02041101241ADDAA106000091GF102991021011008001001001MA1999999097531MD1710261+9999REMSYN066AAXX  05061 59567 32565 22004 10244 20204 39753 40124 57026 82100;EQDQ01  00002PRCP06
0163595670999992000010509004+22030+121570FM-12+032599999V0201901N005012200019N0150001N1+02191+01911101281ADDAA106000091GF102991021011004501001001MA1999999097541MD1310011+9999REMSYN066AAXX  05091 59567 32465 21905 10219 20191 39754 40128 53001 82100;EQDQ01  00002PRCP06
0163595670999992000010512004+22030+121570FM-12+032599999V0201801N004010042019N0120001N1+02141+01891101421ADDAA106000091GF105991051041004501001001MA1999999097671MD1210131+9999REMSYN066AAXX  05121 59567 32462 51804 10214 20189 39767 40142 52013 85400;EQDQ01  00002PRCP06
0163595670999992000010521004+22030+121570FM-12+032599999V0201401N002012200019N0120001N1+02111+01891101281ADDAA106000091GF101991011011004501001001MA1999999097531MD1510071+9999REMSYN066AAXX  05211 59567 32462 11402 10211 20189 39753 40128 55007 81100;EQDQ01  00002PRCP06
0172595670999992000010601004+22030+121570FM-12+032599999V0201801N003010021019N0150001N1+02151+99999101411ADDAA112000791AY161999AY221999GF108991081051002501999999MA1999999097661MD1210131+9999MW1601REMSYN072AAXX  06011 59567 11365 81803 10215 39766 40141 52013 69902 76062 885//;
0178595670999992000010603004+22030+121570FM-12+032599999V0200201N004010360019N0100001N1+02001+01791101451ADDAA100023991AY161031AY221031GF107991011071001501011999MA1999999097681MD1010021+9999MW1211REMSYN078AAXX  06031 59567 11260 70204 10200 20179 39768 40145 50002 6024/ 72162 8171/;
0150595670999992000010609004+22030+121570FM-12+032599999V0200101N004012200019N0150001N1+02081+01861101241ADDAA100024991GF102991011011004501031001MA1999999097491MD1410001+9999REMSYN072AAXX  06091 59567 12465 20104 10208 20186 39749 40124 54000 6025/ 81130;
0150595670999992000010612004+22030+121570FM-12+032599999V0200101N006012200019N0120001N1+02051+01851101381ADDAA112024991GF102991021011004501001001MA1999999097621MD1110131+9999REMSYN072AAXX  06121 59567 12462 20106 10205 20185 39762 40138 51013 60252 82100;
0150595670999992000010621004+22030+121570FM-12+032599999V0200201N017012200019N0120001N1+02041+01791101311ADDAA100000591GF101991011011004501001001MA1999999097551MD1510041+9999REMSYN072AAXX  06211 59567 12462 10217 10204 20179 39755 40131 55004 6995/ 81100;
0150595670999992000010700004+22030+121570FM-12+032599999V0200201N013010042019N0100001N1+02011+01801101561ADDAA112000591GF106991061051004501001001MA1999999097781MD1110231+9999REMSYN072AAXX  07001 59567 12460 60213 10201 20180 39778 40156 51023 69952 86500;
0163595670999992000010703004+22030+121570FM-12+032599999V0200101N010010042019N0100001N1+02161+01911101601ADDAA106000091GF106991061051004501001001MA1999999097841MD1010061+9999REMSYN066AAXX  07031 59567 32460 60110 10216 20191 39784 40160 50006 86500;EQDQ01  00002PRCP06
0163595670999992000010706004+22030+121570FM-12+032599999V0200101N008010042019N0100001N1+02121+01811101431ADDAA106000091GF107991071051004501999999MA1999999097671MD1710171+9999REMSYN066AAXX  07061 59567 32460 70108 10212 20181 39767 40143 57017 875//;EQDQ01  00002PRCP06
0163595670999992000010709004+22030+121570FM-12+032599999V0200101N009010042019N0100001N1+02041+01771101451ADDAA106000091GF107991071051004501999999MA1999999097681MD1310011+9999REMSYN066AAXX  07091 59567 32460 70109 10204 20177 39768 40145 53001 875//;EQDQ01  00002PRCP06
0163595670999992000010712004+22030+121570FM-12+032599999V0200101N009010042019N0100001N1+02061+01801101611ADDAA106000091GF108991081051004501999999MA1999999097841MD1310161+9999REMSYN066AAXX  07121 59567 32460 80109 10206 20180 39784 40161 53016 885//;EQDQ01  00002PRCP06
0150595670999992000010721004+22030+121570FM-12+032599999V0200201N008010012019N0100001N1+01991+01861101461ADDAA100000791GF108991081051001501999999MA1999999097681MD1810041+9999REMSYN072AAXX  07211 59567 12260 80208 10199 20186 39768 40146 58004 6990/ 885//;
0150595670999992000010800004+22030+121570FM-12+032599999V0200101N007012200019N0120001N1+02111+01971101601ADDAA112000791GF102991011011004501031001MA1999999097841MD1210161+9999REMSYN072AAXX  08001 59567 12462 20107 10211 20197 39784 40160 52016 69902 81130;
0163595670999992000010803004+22030+121570FM-12+032599999V0200101N007010021019N0120001N1+02241+02031101541ADDAA106000091GF106991061041002501001001MA1999999097801MD1810041+9999REMSYN066AAXX  08031 59567 32362 60107 10224 20203 39780 40154 58004 86400;EQDQ01  00002PRCP06
0163595670999992000010806004+22030+121570FM-12+032599999V0200101N006010042019N0120001N1+02351+02091101311ADDAA106000091GF106991061041004501001001MA1999999097591MD1710211+9999REMSYN066AAXX  08061 59567 32462 60106 10235 20209 39759 40131 57021 86400;EQDQ01  00002PRCP06
0163595670999992000010809004+22030+121570FM-12+032599999V0200201N006012200019N0120001N1+02131+01891101401ADDAA106000091GF102991021011004501001011MA1999999097651MD1310061+9999REMSYN066AAXX  08091 59567 32462 20206 10213 20189 39765 40140 53006 82101;EQDQ01  00002PRCP06
0163595670999992000010812004+22030+121570FM-12+032599999V0200201N005010042019N0120001N1+02131+01921101521ADDAA106000091GF108991081041004501999999MA1999999097761MD1310111+9999REMSYN066AAXX  08121 59567 32462 80205 10213 20192 39776 40152 53011 884//;EQDQ01  00002PRCP06
0163595670999992000010821004+22030+121570FM-12+032599999V0201601N002010900019N0120001N1+02131+01951101251ADDAA106000091GF106991021011004501001081MA1999999097501MD1510071+9999REMSYN066AAXX  08211 59567 32462 61602 10213 20195 39750 40125 55007 82108;EQDQ01  00002PRCP06
0163595670999992000010900004+22030+121570FM-12+032599999V0209999C000010360019N0120001N1+02211+02061101461ADDAA106000091GF107991011011002501021999MA1999999097721MD1110221+9999REMSYN066AAXX  09001 59567 32362 70000 10221 20206 39772 40146 51022 8112/;EQDQ01  00002PRCP06
0163595670999992000010903004+22030+121570FM-12+032599999V0200101N002010012019N0120001N1+02281+02161101541ADDAA106000091GF107991071051001501999999MA1999999097801MD1010081+9999REMSYN066AAXX  09031 59567 32262 70102 10228 20216 39780 40154 50008 875//;EQDQ01  00002PRCP06
0150595670999992000010909004+22030+121570FM-12+032599999V0200101N006010006019N0100001N1+02221+02131101391ADDAA100000591GF108991081061000751999999MA1999999097651MD1310071+9999REMSYN072AAXX  09091 59567 12160 80106 10222 20213 39765 40139 53007 6995/ 886//;
0150595670999992000010912004+22030+121570FM-12+032599999V0200101N005010006019N0100001N1+02131+02101101571ADDAA112000591GF108991081061000751999999MA1999999097811MD1110161+9999REMSYN072AAXX  09121 59567 12160 80105 10213 20210 39781 40157 51016 69952 886//;
0163595670999992000010921004+22030+121570FM-12+032599999V0200101N009012200019N0100001N1+02111+02001101471ADDAA106000091GF103991031041001501001001MA1999999097711MD1510031+9999REMSYN066AAXX  09211 59567 32260 30109 10211 20200 39771 40147 55003 83400;EQDQ01  00002PRCP06
0163595670999992000011000004+22030+121570FM-12+032599999V0203601N005010012019N0120001N1+02161+02071101621ADDAA106000091GF107991061051001501031999MA1999999097861MD1210151+9999REMSYN066AAXX  10001 59567 32262 73605 10216 20207 39786 40162 52015 8653/;EQDQ01  00002PRCP06
0163595670999992000011003004+22030+121570FM-12+032599999V0200101N008010012019N0120001N1+02291+02141101631ADDAA106000091GF107991071051001501999999MA1999999097891MD1010031+9999REMSYN066AAXX  10031 59567 32262 70108 10229 20214 39789 40163 50003 875//;EQDQ01  00002PRCP06
0163595670999992000011006004+22030+121570FM-12+032599999V0203601N006012200019N0120001N1+02441+02211101431ADDAA106000091GF104991031011004501031001MA1999999097721MD1810171+9999REMSYN066AAXX  10061 59567 32462 43606 10244 20221 39772 40143 58017 83130;EQDQ01  00002PRCP06
0163595670999992000011009004+22030+121570FM-12+032599999V0200101N007010012019N0100001N1+02171+02001101521ADDAA106000091GF107991061051001501031999MA1999999097771MD1310051+9999REMSYN066AAXX  10091 59567 32260 70107 10217 20200 39777 40152 53005 8653/;EQDQ01  00002PRCP06
0163595670999992000011012004+22030+121570FM-12+032599999V0200101N009010012019N0100001N1+02141+02021101651ADDAA106000091GF108991081051001501999999MA1999999097891MD1110121+9999REMSYN066AAXX  10121 59567 32260 80109 10214 20202 39789 40165 51012 885//;EQDQ01  00002PRCP06
0163595670999992000011021004+22030+121570FM-12+032599999V0200201N007010012019N0100001N1+02141+01991101501ADDAA106000091GF108991081051001501999999MA1999999097751MD1510051+9999REMSYN066AAXX  10211 59567 32260 80207 10214 20199 39775 40150 55005 885//;EQDQ01  00002PRCP06
0163595670999992000011100004+22030+121570FM-12+032599999V0200101N007010021019N0100001N1+02171+01981101701ADDAA106000091GF107991061051002501011999MA1999999097941MD1210191+9999REMSYN066AAXX  11001 59567 32360 70107 10217 20198 39794 40170 52019 8651/;EQDQ01  00002PRCP06
0163595670999992000011103004+22030+121570FM-12+032599999V0200101N007010012019N0100001N1+02271+02151101621ADDAA106000091GF107991071051001501999999MA1999999097881MD1810061+9999REMSYN066AAXX  11031 59567 32260 70107 10227 20215 39788 40162 58006 875//;EQDQ01  00002PRCP06
0163595670999992000011106004+22030+121570FM-12+032599999V0200301N007010012019N0100001N1+02131+02011101371ADDAA106000091GF108991081051001501999999MA1999999097621MD1710261+9999REMSYN066AAXX  11061 59567 32260 80307 10213 20201 39762 40137 57026 885//;EQDQ01  00002PRCP06
0178595670999992000011109004+22030+121570FM-12+032599999V0200501N008010006019N0100001N1+02081+01981101371ADDAA100000791AY161031AY221031GF108991081071000751999999MA1999999097611MD1510011+9999MW1211REMSYN078AAXX  11091 59567 11160 80508 10208 20198 39761 40137 55001 6990/ 72162 887//;
0178595670999992000011112004+22030+121570FM-12+032599999V0203501N003010006019N0100001N1+02091+02051101431ADDAA112001091AY161061AY221061GF108991081071000751999999MA1999999097671MD1210061+9999MW1611REMSYN078AAXX  11121 59567 11160 83503 10209 20205 39767 40143 52006 60012 76162 887//;
0178595670999992000011121004+22030+121570FM-12+032599999V0202501N004010006019N0100001N1+02091+02041101251ADDAA100006191AY161031AY221031GF108991081071000751999999MA1999999097501MD1510051+9999MW1611REMSYN078AAXX  11211 59567 11160 82504 10209 20204 39750 40125 55005 6006/ 76162 887//;
0178595670999992000011200004+22030+121570FM-12+032599999V0202401N002010006019N0100001N1+02161+02111101381ADDAA112007191AY161061AY221061GF108991081071000751999999MA1999999097631MD1110131+9999MW1601REMSYN078AAXX  12001 59567 11160 82402 10216 20211 39763 40138 51013 60072 76062 887//;
0178595670999992000011203004+22030+121570FM-12+032599999V0202301N006010042019N0120001N1+02321+02181101341ADDAA100000591AY161031AY221031GF106991061051004501001001MA1999999097611MD1810021+9999MW1011REMSYN078AAXX  12031 59567 11462 62306 10232 20218 39761 40134 58002 6995/ 70162 86500;
0178595670999992000011206004+22030+121570FM-12+032599999V0202301N011010021019N0120001N1+02371+02231101081ADDAA106000591AY161061AY221061GF106991061051002501001001MA1999999097371MD1710241+9999MW1021REMSYN078AAXX  12061 59567 11362 62311 10237 20223 39737 40108 57024 69951 70262 86500;
0150595670999992000011212004+22030+121570FM-12+032599999V0201601N002012200019N0150001N1+02201+02051101301ADDAA112000591GF102991021011004501031001MA1999999097561MD1110141+9999REMSYN072AAXX  12121 59567 12465 21602 10220 20205 39756 40130 51014 69952 82130;
0163595670999992000011221004+22030+121570FM-12+032599999V0200101N006012200019N0150001N1+02131+01961101151ADDAA106000091GF101991011011004501001001MA1999999097411MD1510061+9999REMSYN066AAXX  12211 59567 32465 10106 10213 20196 39741 40115 55006 81100;EQDQ01  00002PRCP06
0163595670999992000011300004+22030+121570FM-12+032599999V0200201N008010012019N0100001N1+02161+02031101301ADDAA106000091GF106991061051001501001001MA1999999097561MD1310151+9999REMSYN066AAXX  13001 59567 32260 60208 10216 20203 39756 40130 53015 86500;EQDQ01  00002PRCP06
0163595670999992000011303004+22030+121570FM-12+032599999V0200101N012010012019N0100001N1+02141+02031101281ADDAA106000091GF108991081051001501999999MA1999999097531MD1810031+9999REMSYN066AAXX  13031 59567 32260 80112 10214 20203 39753 40128 58003 885//;EQDQ01  00002PRCP06
0163595670999992000011306004+22030+121570FM-12+032599999V0203601N006010012019N0100001N1+02151+02031101091ADDAA106000091GF108991081051001501999999MA1999999097351MD1710181+9999REMSYN066AAXX  13061 59567 32260 83606 10215 20203 39735 40109 57018 885//;EQDQ01  00002PRCP06
0163595670999992000011309004+22030+121570FM-12+032599999V0203601N005010012019N0100001N1+02091+01941101171ADDAA106000091GF107991071051001501999999MA1999999097421MD1310071+9999REMSYN066AAXX  13091 59567 32260 73605 10209 20194 39742 40117 53007 875//;EQDQ01  00002PRCP06
0163595670999992000011312004+22030+121570FM-12+032599999V0200101N008010012019N0100001N1+02061+01931101331ADDAA106000091GF108991081051001501999999MA1999999097571MD1110151+9999REMSYN066AAXX  13121 59567 32260 80108 10206 20193 39757 40133 51015 885//;EQDQ01  00002PRCP06
0167595670999992000011321004+22030+121570FM-12+032599999V0203601N005010021019N0100001N1+02011+01871101231ADDAA199000091GF107991071051002501999999MA1999999097471MD1510031+9999REMSYN070    AAXX  13211 59567 32360 73605 10201 20187 39747 40123 55003 875//;EQDQ01  00002PRCP99
0167595670999992000011400004+22030+121570FM-12+032599999V0203601N007010012019N0120001N1+02031+01951101391ADDAA199000091GF107991071051001501999999MA1999999097621MD1210151+9999REMSYN070    AAXX  14001 59567 32262 73607 10203 20195 39762 40139 52015 875//;EQDQ01  00002PRCP99
0167595670999992000011403004+22030+121570FM-12+032599999V0203601N006010012019N0120001N1+02101+02001101441ADDAA199000091GF108991081051001501999999MA1999999097681MD1010061+9999REMSYN070    AAXX  14031 59567 32262 83606 10210 20200 39768 40144 50006 885//;EQDQ01  00002PRCP99
0167595670999992000011406004+22030+121570FM-12+032599999V0203601N008010012019N0120001N1+02081+01951101141ADDAA199000091GF108991081051001501999999MA1999999097391MD1710291+9999REMSYN070    AAXX  14061 59567 32262 83608 10208 20195 39739 40114 57029 885//;EQDQ01  00002PRCP99
0167595670999992000011409004+22030+121570FM-12+032599999V0200101N011010012019N0120001N1+02021+01911101201ADDAA199000091GF107991071051001501999999MA1999999097441MD1310051+9999REMSYN070    AAXX  14091 59567 32262 70111 10202 20191 39744 40120 53005 875//;EQDQ01  00002PRCP99
0167595670999992000011412004+22030+121570FM-12+032599999V0203601N006010012019N0100001N1+02011+01931101351ADDAA199000091GF107991071051001501999999MA1999999097591MD1310151+9999REMSYN070    AAXX  14121 59567 32260 73606 10201 20193 39759 40135 53015 875//;EQDQ01  00002PRCP99
0182595670999992000011421004+22030+121570FM-12+032599999V0200101N008010006019N0100001N1+01961+01911101261ADDAA100002091AY161031AY221031GF108991081071000751999999MA1999999097491MD1310041+9999MW1601REMSYN082    AAXX  14211 59567 11160 80108 10196 20191 39749 40126 53004 6002/ 76062 887//;
0182595670999992000011500004+22030+121570FM-12+032599999V0200201N011010012019N0100001N1+02081+01971101361ADDAA112003091AY161061AY221061GF107991071071001501999999MA1999999097601MD1110111+9999MW1611REMSYN082    AAXX  15001 59567 11260 70211 10208 20197 39760 40136 51011 60032 76162 877//;
0182595670999992000011503004+22030+121570FM-12+032599999V0200201N009012200019N0150001N1+02271+02101101331ADDAA100000791AY161031AY221031GF102991021011001501031001MA1999999097591MD1810011+9999MW1011REMSYN082    AAXX  15031 59567 11265 20209 10227 20210 39759 40133 58001 6990/ 70162 82130;
0182595670999992000011506004+22030+121570FM-12+032599999V0200501N002012200019N0200001N1+02241+02051101081ADDAA106000791AY161061AY221061GF104991041041004501001001MA1999999097351MD1710241+9999MW1031REMSYN082    AAXX  15061 59567 11470 40502 10224 20205 39735 40108 57024 69901 70362 84400;
0154595670999992000011509004+22030+121570FM-12+032599999V0201201N001012200019N0200001N1+02181+01971101141ADDAA100000791GF101991011011004501001001MA1999999097401MD1310051+9999REMSYN076    AAXX  15091 59567 12470 11201 10218 20197 39740 40114 53005 6990/ 81100;
0154595670999992000011512004+22030+121570FM-12+032599999V0200201N003012200019N0200001N1+02081+01911101341ADDAA112000791GF101991011011004501001001MA1999999097581MD1310181+9999REMSYN076    AAXX  15121 59567 12470 10203 10208 20191 39758 40134 53018 69902 81100;
0167595670999992000011521004+22030+121570FM-12+032599999V0200101N005012200019N0200001N1+02081+01941101291ADDAA199000091GF101991011011004501001001MA1999999097541MD1510021+9999REMSYN070    AAXX  15211 59567 32470 10105 10208 20194 39754 40129 55002 81100;EQDQ01  00002PRCP99
0167595670999992000011600004+22030+121570FM-12+032599999V0200101N005012200019N0150001N1+02151+01941101531ADDAA199000091GF102991021021004501001001MA1999999097781MD1210241+9999REMSYN070    AAXX  16001 59567 32465 20105 10215 20194 39778 40153 52024 82200;EQDQ01  00002PRCP99
0182595670999992000011603004+22030+121570FM-12+032599999V0200101N005010042019N0120001N1+02261+02011101541ADDAA100000591AY181031AY221031GF106991061041004501001001MA1999999097801MD1010021+9999MW1011REMSYN082    AAXX  16031 59567 11462 60105 10226 20201 39780 40154 50002 6995/ 70182 86400;
0182595670999992000011606004+22030+121570FM-12+032599999V0203501N003010042019N0150001N1+02211+01941101271ADDAA106000591AY181061AY221061GF106991061041004501001001MA1999999097531MD1710271+9999MW1021REMSYN082    AAXX  16061 59567 11465 63503 10221 20194 39753 40127 57027 69951 70282 86400;
0154595670999992000011609004+22030+121570FM-12+032599999V0200101N005012200019N0120001N1+02141+01801101291ADDAA100000591GF102991021011004501001001MA1999999097541MD1310011+9999REMSYN076    AAXX  16091 59567 12462 20105 10214 20180 39754 40129 53001 6995/ 82100;
0154595670999992000011611004+22030+121570FM-12+032599999V0200101N006010042019N0120001N1+02101+01841101451ADDAA112000591GF106991061041004501001001MA1999999097691MD1110151+9999REMSYN076    AAXX  16111 59567 12462 60106 10210 20184 39769 40145 51015 69952 86400;
0154595670999992000011612004+22030+121570FM-12+032599999V0200101N006010042019N0120001N1+02101+01841101451ADDAA112000591GF106991061041004501001001MA1999999097691MD1110151+9999REMSYN076    AAXX  16121 59567 12462 60106 10210 20184 39769 40145 51015 69952 86400;
0182595670999992000011621004+22030+121570FM-12+032599999V0200101N012010012019N0100001N1+01951+01841101381ADDAA100005191AY161031AY221031GF108991081071001501999999MA1999999097611MD1510011+9999MW1611REMSYN082    AAXX  16211 59567 11260 80112 10195 20184 39761 40138 55001 6005/ 76162 887//;
0182595670999992000011700004+22030+121570FM-12+032599999V0203601N009010012019N0120001N1+01961+01851101611ADDAA112006191AY161061AY221061GF106991061051001501001001MA1999999097831MD1210221+9999MW1011REMSYN082    AAXX  17001 59567 11262 63609 10196 20185 39783 40161 52022 60062 70162 86500;
0148595670999992000011703004+22030+121570FM-12+032599999V0203601N006010042019N0120001N1+02101+01851101621ADDAA199000021GF106991061051004501001001MA1999999097851MD1010021+9999REMSYN070    AAXX  17031 59567 32462 63606 10210 20185 39785 40162 50002 86500;
0148595670999992000011706004+22030+121570FM-12+032599999V0203501N005010021019N0120001N1+02041+01851101421ADDAA199000021GF107991071051002501999999MA1999999097651MD1710201+9999REMSYN070    AAXX  17061 59567 32362 73505 10204 20185 39765 40142 57020 875//;
0148595670999992000011709004+22030+121570FM-12+032599999V0203601N007010012019N0120001N1+01871+01721101491ADDAA199000021GF107991071051001501999999MA1999999097701MD1310051+9999REMSYN070    AAXX  17091 59567 32262 73607 10187 20172 39770 40149 53005 875//;
0167595670999992000011712004+22030+121570FM-12+032599999V0200101N008010042019N0120001N1+01891+01701101611ADDAA199000091GF107991071051004501999999MA1999999097821MD1310121+9999REMSYN070    AAXX  17121 59567 32462 70108 10189 20170 39782 40161 53012 875//;EQDQ01  00002PRCP99
0182595670999992000011721004+22030+121570FM-12+032599999V0200101N017010042019N0100001N1+01771+01601101511ADDAA100005191AY161031AY221031GF106991061051004501001001MA1999999097711MD1510071+9999MW1211REMSYN082    AAXX  17211 59567 11460 60117 10177 20160 39771 40151 55007 6005/ 72162 86500;
0182595670999992000011800004+22030+121570FM-12+032599999V0200101N016010021019N0120001N1+01791+01641101711ADDAA112005191AY161061AY221061GF106991061051002501001001MA1999999097901MD1210191+9999MW1021REMSYN082    AAXX  18001 59567 11362 60116 10179 20164 39790 40171 52019 60052 70262 86500;
0148595670999992000011803004+22030+121570FM-12+032599999V0200201N016010021019N0120001N1+01831+01601101691ADDAA199000021GF106991061051002501001001MA1999999097891MD1810011+9999REMSYN070    AAXX  18031 59567 32362 60216 10183 20160 39789 40169 58001 86500;
0148595670999992000011806004+22030+121570FM-12+032599999V0200101N015010042019N0120001N1+01791+01591101481ADDAA199000021GF106991061051004501001001MA1999999097681MD1610211+9999REMSYN070    AAXX  18061 59567 32462 60115 10179 20159 39768 40148 56021 86500;
0182595670999992000011809004+22030+121570FM-12+032599999V0200101N014010021019N0100001N1+01701+01551101541ADDAA100000791AY161031AY221031GF108991081071002501999999MA1999999097731MD1310051+9999MW1211REMSYN082    AAXX  18091 59567 11360 80114 10170 20155 39773 40154 53005 6990/ 72162 887//;
0182595670999992000011812004+22030+121570FM-12+032599999V0200201N015010012019N0100001N1+01721+01521101701ADDAA112000791AY161061AY221061GF108991081051001501999999MA1999999097891MD1110161+9999MW1021REMSYN082    AAXX  18121 59567 11260 80215 10172 20152 39789 40170 51016 69902 70262 885//;
0154595670999992000011821004+22030+121570FM-12+032599999V0203601N007010042019N0120001N1+01691+01401101731ADDAA100000591GF107991071051004501999999MA1999999097911MD1510011+9999REMSYN076    AAXX  18211 59567 12462 73607 10169 20140 39791 40173 55001 6995/ 875//;
0154595670999992000011900004+22030+121570FM-12+032599999V0203601N008010042019N0100001N1+01691+01401101901ADDAA112000591GF107991071051004501999999MA1999999098071MD1310161+9999REMSYN076    AAXX  19001 59567 12460 73608 10169 20140 39807 40190 53016 69952 875//;
0167595670999992000011903004+22030+121570FM-12+032599999V0203601N008010042019N0100001N1+01661+01421101951ADDAA199000091GF108991081051004501999999MA1999999098111MD1010041+9999REMSYN070    AAXX  19031 59567 32460 83608 10166 20142 39811 40195 50004 885//;EQDQ01  00002PRCP99
0167595670999992000011906004+22030+121570FM-12+032599999V0203601N006010042019N0100001N1+01711+01411101761ADDAA199000091GF107991071051004501999999MA1999999097941MD1710171+9999REMSYN070    AAXX  19061 59567 32460 73606 10171 20141 39794 40176 57017 875//;EQDQ01  00002PRCP99
0167595670999992000011909004+22030+121570FM-12+032599999V0200101N017010042019N0100001N1+01651+01381101821ADDAA199000091GF108991081051004501999999MA1999999097991MD1310051+9999REMSYN070    AAXX  19091 59567 32460 80117 10165 20138 39799 40182 53005 885//;EQDQ01  00002PRCP99
0167595670999992000011912004+22030+121570FM-12+032599999V0203601N010010042019N0100001N1+01611+01371102021ADDAA199000091GF108991081051004501999999MA1999999098181MD1110191+9999REMSYN070    AAXX  19121 59567 32460 83610 10161 20137 39818 40202 51019 885//;EQDQ01  00002PRCP99
0178595670999992000011921004+22030+121570FM-12+032599999V0200201N015010042019N0100001N1+01521+01301102031ADDAA100002091AY161031AY221031GF108991081051004501999999MA1999999098181MD1810061+9999MW1021REMSYN078AAXX  19211 59567 11460 80215 10152 20130 39818 40203 58006 6002/ 70262 885//;
0178595670999992000012000004+22030+121570FM-12+032599999V0203601N008010042019N0100001N1+01601+01271102321ADDAA112002091AY161061AY221061GF108991081051004501999999MA1999999098471MD1110291+9999MW1021REMSYN078AAXX  20001 59567 11460 83608 10160 20127 39847 40232 51029 60022 70262 885//;
0163595670999992000012003004+22030+121570FM-12+032599999V0203601N008010042019N0120001N1+01611+01331102331ADDAA199000091GF108991081051004501999999MA1999999098481MD1010011+9999REMSYN066AAXX  20031 59567 32462 83608 10161 20133 39848 40233 50001 885//;EQDQ01  00002PRCP99
0163595670999992000012006004+22030+121570FM-12+032599999V0203601N007010042019N0100001N1+01561+01351102121ADDAA199000091GF108991081051004501999999MA1999999098271MD1710211+9999REMSYN066AAXX  20061 59567 32460 83607 10156 20135 39827 40212 57021 885//;EQDQ01  00002PRCP99
0163595670999992000012009004+22030+121570FM-12+032599999V0203501N013010042019N0100001N1+01601+01371102251ADDAA199000091GF108991081051004501999999MA1999999098401MD1310131+9999REMSYN066AAXX  20091 59567 32460 83513 10160 20137 39840 40225 53013 885//;EQDQ01  00002PRCP99
0163595670999992000012012004+22030+121570FM-12+032599999V0203601N016010042019N0100001N1+01611+01341102461ADDAA199000091GF108991081051004501999999MA1999999098601MD1110201+9999REMSYN066AAXX  20121 59567 32460 83616 10161 20134 39860 40246 51020 885//;EQDQ01  00002PRCP99
0178595670999992000012021004+22030+121570FM-12+032599999V0200201N020010021019N0120001N1+01551+01401102491ADDAA100003091AY161031AY221031GF108991081071002501999999MA1999999098621MD1310031+9999MW1611REMSYN078AAXX  20211 59567 11362 80220 10155 20140 39862 40249 53003 6003/ 76162 887//;
0178595670999992000012100004+22030+121570FM-12+032599999V0200101N017010042019N0120001N1+01751+01281102621ADDAA112003091AY161061AY221061GF107991071051004501999999MA1999999098771MD1210151+9999MW1021REMSYN078AAXX  21001 59567 11462 70117 10175 20128 39877 40262 52015 60032 70262 875//;
0144595670999992000012103004+22030+121570FM-12+032599999V0203501N006010042019N0120001N1+01701+01381102661ADDAA199000021GF108991081051004501999999MA1999999098811MD1010041+9999REMSYN066AAXX  21031 59567 32462 83506 10170 20138 39881 40266 50004 885//;
0150595670999992000012109004+22030+121570FM-12+032599999V0200201N009010042019N0120001N1+01791+01461102471ADDAA100000791GF107991051051004501011999MA1999999098641MD1310031+9999REMSYN072AAXX  21091 59567 12462 70209 10179 20146 39864 40247 53003 6990/ 8551/;
0178595670999992000012112004+22030+121570FM-12+032599999V0200101N014010021019N0100001N1+01671+01541102581ADDAA112001091AY161061AY221061GF108991081071002501999999MA1999999098731MD1210091+9999MW1601REMSYN078AAXX  21121 59567 11360 80114 10167 20154 39873 40258 52009 60012 76062 887//;
0178595670999992000012121004+22030+121570FM-12+032599999V0200401N018010042019N0120001N1+01751+01551102371ADDAA100003091AY161031AY221031GF108991081051004501999999MA1999999098531MD1610101+9999MW1211REMSYN078AAXX  21211 59567 11462 80418 10175 20155 39853 40237 56010 6003/ 72162 885//;
0178595670999992000012200004+22030+121570FM-12+032599999V0200401N022010042019N0100001N1+01811+01551102411ADDAA112004191AY161061AY221061GF108991081051004501999999MA1999999098581MD1310051+9999MW1021REMSYN078AAXX  22001 59567 11460 80422 10181 20155 39858 40241 53005 60042 70262 885//;
0144595670999992000012203004+22030+121570FM-12+032599999V0200501N025010042019N0100001N1+01971+01591102331ADDAA199000021GF108991081051004501999999MA1999999098521MD1810061+9999REMSYN066AAXX  22031 59567 32460 80525 10197 20159 39852 40233 58006 885//;
0144595670999992000012206004+22030+121570FM-12+032599999V0200501N019010360019N0100001N1+02041+01581102121ADDAA199000021GF107991021011008001071999MA1999999098331MD1710191+9999REMSYN066AAXX  22061 59567 32560 70519 10204 20158 39833 40212 57019 8217/;
0144595670999992000012209004+22030+121570FM-12+032599999V0200501N015010360019N0100001N1+01991+01541102121ADDAA199000021GF107991021011008001011999MA1999999098321MD1510011+9999REMSYN066AAXX  22091 59567 32560 70515 10199 20154 39832 40212 55001 8211/;
0163595670999992000012212004+22030+121570FM-12+032599999V0200401N020010360019N0100001N1+02011+01631102211ADDAA199000091GF107991021011004501071999MA1999999098411MD1210091+9999REMSYN066AAXX  22121 59567 32460 70420 10201 20163 39841 40221 52009 8217/;EQDQ01  00002PRCP99
0163595670999992000012221004+22030+121570FM-12+032599999V0200401N018010360019N0100001N1+02011+01671102061ADDAA199000091GF107991021011004501071999MA1999999098271MD1510051+9999REMSYN066AAXX  22211 59567 32460 70418 10201 20167 39827 40206 55005 8217/;EQDQ01  00002PRCP99
0163595670999992000012300004+22030+121570FM-12+032599999V0200401N019010360019N0120001N1+02051+01651102141ADDAA199000091GF106991011011004501071001MA1999999098351MD1110081+9999REMSYN066AAXX  23001 59567 32462 60419 10205 20165 39835 40214 51008 81170;EQDQ01  00002PRCP99
0163595670999992000012303004+22030+121570FM-12+032599999V0200501N020010360019N0120001N1+02231+01811102131ADDAA199000091GF106991021011008001071001MA1999999098361MD1010011+9999REMSYN066AAXX  23031 59567 32562 60520 10223 20181 39836 40213 50001 82170;EQDQ01  00002PRCP99
0163595670999992000012306004+22030+121570FM-12+032599999V0200601N015012200019N0120001N1+02171+01761101941ADDAA199000091GF103991011011008001031001MA1999999098171MD1710191+9999REMSYN066AAXX  23061 59567 32562 30615 10217 20176 39817 40194 57019 81130;EQDQ01  00002PRCP99
0163595670999992000012312004+22030+121570FM-12+032599999V0200301N010010042019N0120001N1+02091+01781102001ADDAA199000091GF108991081051004501999999MA1999999098221MD1310081+9999REMSYN066AAXX  23121 59567 32462 80310 10209 20178 39822 40200 53008 885//;EQDQ01  00002PRCP99
0163595670999992000012321004+22030+121570FM-12+032599999V0200401N012012200019N0120001N1+02061+01851101881ADDAA199000091GF102991021011004501001001MA1999999098101MD1510031+9999REMSYN066AAXX  23211 59567 32462 20412 10206 20185 39810 40188 55003 82100;EQDQ01  00002PRCP99
0163595670999992000012400004+22030+121570FM-12+032599999V0200301N006010042019N0120001N1+02101+01851102041ADDAA199000091GF108991061051004501011999MA1999999098261MD1210161+9999REMSYN066AAXX  24001 59567 32462 80306 10210 20185 39826 40204 52016 8651/;EQDQ01  00002PRCP99
0163595670999992000012403004+22030+121570FM-12+032599999V0200601N007010042019N0120001N1+02171+01901102051ADDAA199000091GF106991051051004501071001MA1999999098281MD1010021+9999REMSYN066AAXX  24031 59567 32462 60607 10217 20190 39828 40205 50002 85570;EQDQ01  00002PRCP99
0163595670999992000012406004+22030+121570FM-12+032599999V0200501N008010360019N0150001N1+02141+01911101841ADDAA199000091GF108991021051008001011999MA1999999098071MD1710211+9999REMSYN066AAXX  24061 59567 32565 80508 10214 20191 39807 40184 57021 8251/;EQDQ01  00002PRCP99
0163595670999992000012409004+22030+121570FM-12+032599999V0200301N006010360019N0150001N1+02091+01791101831ADDAA199000091GF105991011011008001071001MA1999999098061MD1510011+9999REMSYN066AAXX  24091 59567 32565 50306 10209 20179 39806 40183 55001 81170;EQDQ01  00002PRCP99
0163595670999992000012412004+22030+121570FM-12+032599999V0200501N016010012019N0100001N1+01871+01781102021ADDAA199000091GF108991081051001501999999MA1999999098211MD1110151+9999REMSYN066AAXX  24121 59567 32260 80516 10187 20178 39821 40202 51015 885//;EQDQ01  00002PRCP99
0178595670999992000012421004+22030+121570FM-12+032599999V0203501N010010012019N0100001N1+01941+01891101771ADDAA100002091AY161031AY221031GF108991081051001501999999MA1999999097981MD1610141+9999MW1211REMSYN078AAXX  24211 59567 11260 83510 10194 20189 39798 40177 56014 6002/ 72162 885//;
0178595670999992000012500004+22030+121570FM-12+032599999V0203601N015010012019N0100001N1+01751+01751101941ADDAA112003091AY161061AY221061GF108991081051001501999999MA1999999098121MD1210141+9999MW1211REMSYN078AAXX  25001 59567 11260 83615 10175 20175 39812 40194 52014 60032 72162 885//;
0172595670999992000012503004+22030+121570FM-12+032599999V0203601N016010012019N0120001N1+01681+01561102071ADDAA199000021AY161031AY221031GF108991081051001501999999MA1999999098231MD1010111+9999MW1021REMSYN072AAXX  25031 59567 31262 83616 10168 20156 39823 40207 50011 70262 885//;
0172595670999992000012506004+22030+121570FM-12+032599999V0203501N014010021019N0120001N1+01721+01491101911ADDAA199000021AY161061AY221061GF108991081051002501999999MA1999999098081MD1610151+9999MW1021REMSYN072AAXX  25061 59567 31362 83514 10172 20149 39808 40191 56015 70262 885//;
0144595670999992000012509004+22030+121570FM-12+032599999V0203601N012010021019N0120001N1+01611+01421102031ADDAA199000021GF107991071051002501999999MA1999999098181MD1310101+9999REMSYN066AAXX  25091 59567 32362 73612 10161 20142 39818 40203 53010 875//;
0144595670999992000012512004+22030+121570FM-12+032599999V0203601N022010012019N0100001N1+01551+01401102241ADDAA199000021GF108991081051001501999999MA1999999098381MD1210201+9999REMSYN066AAXX  25121 59567 32260 83622 10155 20140 39838 40224 52020 885//;
0163595670999992000012521004+22030+121570FM-12+032599999V0200101N017010042019N0100001N1+01501+99999102141ADDAA199000091GF108991081051004501999999MA1999999098281MD1510021+9999REMSYN066AAXX  25211 59567 32460 80117 10150 201// 39828 40214 55002 885//;EQDQ01  00002PRCP99
0163595670999992000012600004+22030+121570FM-12+032599999V0200101N008010021019N0100001N1+01441+01341102381ADDAA199000091GF108991081051002501999999MA1999999098501MD1110221+9999REMSYN066AAXX  26001 59567 32360 80108 10144 20134 39850 40238 51022 885//;EQDQ01  00002PRCP99
0178595670999992000012603004+22030+121570FM-12+032599999V0200101N021010012019N0100001N1+01431+01361102391ADDAA100000591AY161031AY221031GF108991081071001501999999MA1999999098511MD1010011+9999MW1211REMSYN078AAXX  26031 59567 11260 80121 10143 20136 39851 40239 50001 6995/ 72162 887//;
0150595670999992000012609004+22030+121570FM-12+032599999V0203601N008010042019N0120001N1+01461+01201102241ADDAA100000591GF108991081051004501999999MA1999999098371MD1310101+9999REMSYN072AAXX  26091 59567 12462 83608 10146 20120 39837 40224 53010 6995/ 885//;
0150595670999992000012612004+22030+121570FM-12+032599999V0203601N018010042019N0100001N1+01471+01231102381ADDAA112000591GF108991081051004501999999MA1999999098511MD1310141+9999REMSYN072AAXX  26121 59567 12460 83618 10147 20123 39851 40238 53014 69952 885//;
0163595670999992000012621004+22030+121570FM-12+032599999V0203601N025010042019N0100001N1+01361+01131102331ADDAA199000091GF108991081051004501999999MA1999999098441MD1510031+9999REMSYN066AAXX  26211 59567 32460 83625 10136 20113 39844 40233 55003 885//;EQDQ01  00002PRCP99
0163595670999992000012700004+22030+121570FM-12+032599999V0203601N015010042019N0120001N1+01371+01101102501ADDAA199000091GF108991081051004501999999MA1999999098611MD1210171+9999REMSYN066AAXX  27001 59567 32462 83615 10137 20110 39861 40250 52017 885//;EQDQ01  00002PRCP99
0178595670999992000012703004+22030+121570FM-12+032599999V0200201N028010042019N0100001N1+01381+01151102451ADDAA100000591AY161031AY221031GF108991081051004501999999MA1999999098561MD1810051+9999MW1211REMSYN078AAXX  27031 59567 11460 80228 10138 20115 39856 40245 58005 6995/ 72162 885//;
0178595670999992000012706004+22030+121570FM-12+032599999V0203601N016010042019N0100001N1+01381+01211102251ADDAA106000591AY161061AY221061GF108991081051004501999999MA1999999098371MD1610191+9999MW1021REMSYN078AAXX  27061 59567 11460 83616 10138 20121 39837 40225 56019 69951 70262 885//;
0178595670999992000012709004+22030+121570FM-12+032599999V0203601N008010042019N0120001N1+01321+01191102331ADDAA100002091AY161031AY221031GF108991081051004501999999MA1999999098441MD1310071+9999MW1211REMSYN078AAXX  27091 59567 11462 83608 10132 20119 39844 40233 53007 6002/ 72162 885//;
0178595670999992000012712004+22030+121570FM-12+032599999V0203501N014010012019N0100001N1+01431+01111102441ADDAA112002091AY161061AY221061GF108991081051001501999999MA1999999098561MD1110121+9999MW1211REMSYN078AAXX  27121 59567 11260 83514 10143 20111 39856 40244 51012 60022 72162 885//;
0144595670999992000012721004+22030+121570FM-12+032599999V0203601N008010042019N0100001N1+01401+01101102421ADDAA199000021GF107991071051004501999999MA1999999098541MD1310051+9999REMSYN066AAXX  27211 59567 32460 73608 10140 20110 39854 40242 53005 875//;
0144595670999992000012800004+22030+121570FM-12+032599999V0203501N013012200019N0100001N1+01501+01041102561ADDAA199000021GF103991031051008001001001MA1999999098681MD1110141+9999REMSYN066AAXX  28001 59567 32560 33513 10150 20104 39868 40256 51014 83500;
0163595670999992000012803004+22030+121570FM-12+032599999V0203601N008012200019N0120001N1+01671+01061102551ADDAA199000091GF101991011011008001001001MA1999999098701MD1010021+9999REMSYN066AAXX  28031 59567 32562 13608 10167 20106 39870 40255 50002 81100;EQDQ01  00002PRCP99
0163595670999992000012806004+22030+121570FM-12+032599999V0203601N017012200019N0120001N1+01731+01101102321ADDAA199000091GF102991021011008001001001MA1999999098481MD1710221+9999REMSYN066AAXX  28061 59567 32562 23617 10173 20110 39848 40232 57022 82100;EQDQ01  00002PRCP99
0163595670999992000012809004+22030+121570FM-12+032599999V0203501N005010075019N0150001N1+01521+01021102371ADDAA199000091GF106991061041008001001001MA1999999098501MD1310021+9999REMSYN066AAXX  28091 59567 32565 63505 10152 20102 39850 40237 53002 86400;EQDQ01  00002PRCP99
0163595670999992000012812004+22030+121570FM-12+032599999V0203601N015010075019N0120001N1+01561+01091102511ADDAA199000091GF107991071041008001999999MA1999999098641MD1110141+9999REMSYN066AAXX  28121 59567 32562 73615 10156 20109 39864 40251 51014 874//;EQDQ01  00002PRCP99
0163595670999992000012821004+22030+121570FM-12+032599999V0203401N009010075019N0120001N1+01621+01011102411ADDAA199000091GF108991081051008001999999MA1999999098561MD1310031+9999REMSYN066AAXX  28211 59567 32562 83409 10162 20101 39856 40241 53003 885//;EQDQ01  00002PRCP99
0163595670999992000012900004+22030+121570FM-12+032599999V0203501N010010042019N0180001N1+01671+01111102571ADDAA199000091GF108991081051004501999999MA1999999098721MD1210161+9999REMSYN066AAXX  29001 59567 32468 83510 10167 20111 39872 40257 52016 885//;EQDQ01  00002PRCP99
0163595670999992000012903004+22030+121570FM-12+032599999V0203601N006012200019N0180001N1+01821+01191102541ADDAA199000091GF103991031021008001001001MA1999999098711MD1810011+9999REMSYN066AAXX  29031 59567 32568 33606 10182 20119 39871 40254 58001 83200;EQDQ01  00002PRCP99
0163595670999992000012906004+22030+121570FM-12+032599999V0203501N007010042019N0180001N1+01961+01301102321ADDAA199000091GF106991061051004501001001MA1999999098511MD1710201+9999REMSYN066AAXX  29061 59567 32468 63507 10196 20130 39851 40232 57020 86500;EQDQ01  00002PRCP99
0163595670999992000012909004+22030+121570FM-12+032599999V0203501N005010042019N0200001N1+01791+01091102341ADDAA199000091GF108991081051004501999999MA1999999098511MD1410001+9999REMSYN066AAXX  29091 59567 32470 83505 10179 20109 39851 40234 54000 885//;EQDQ01  00002PRCP99
0163595670999992000012912004+22030+121570FM-12+032599999V0203601N005010042019N0150001N1+01771+01221102551ADDAA199000091GF108991081051004501999999MA1999999098711MD1110201+9999REMSYN066AAXX  29121 59567 32465 83605 10177 20122 39871 40255 51020 885//;EQDQ01  00002PRCP99
0163595670999992000012921004+22030+121570FM-12+032599999V0200101N012010012019N0120001N1+01791+01311102361ADDAA199000091GF108991081051001501999999MA1999999098531MD1510071+9999REMSYN066AAXX  29211 59567 32262 80112 10179 20131 39853 40236 55007 885//;EQDQ01  00002PRCP99
0163595670999992000013000004+22030+121570FM-12+032599999V0203501N007012200019N0120001N1+01821+01371102511ADDAA199000091GF104991041051008001001001MA1999999098681MD1110151+9999REMSYN066AAXX  30001 59567 32562 43507 10182 20137 39868 40251 51015 84500;EQDQ01  00002PRCP99
0163595670999992000013003004+22030+121570FM-12+032599999V0200101N006010042019N0100001N1+01801+01531102551ADDAA199000091GF105991051051004501001001MA1999999098711MD1010031+9999REMSYN066AAXX  30031 59567 32460 50106 10180 20153 39871 40255 50003 85500;EQDQ01  00002PRCP99
0179595670999992000013006004+22030+121570FM-12+032599999V0209999C999990012019N0100001N1+01631+01471102081ADDAA199000091GF108991081051001501999999MA1999999098241MD1710471+9999REMSYN066AAXX  30061 59567 32260 80077 10163 20147 39824 40208 57047 885//;EQDQ01+007703WOSPD Q02  00002PRCP99
0178595670999992000013009004+22030+121570FM-12+032599999V0203501N011010006019N0100001N1+01551+01471102351ADDAA100000591AY161031AY221031GF108991081071000751999999MA1999999098491MD1210251+9999MW1611REMSYN078AAXX  30091 59567 11160 83511 10155 20147 39849 40235 52025 6995/ 76162 887//;
0178595670999992000013012004+22030+121570FM-12+032599999V0203601N013010006019N0100001N1+01501+01421102431ADDAA112003091AY161061AY221061GF108991081071000751999999MA1999999098561MD1310071+9999MW1601REMSYN078AAXX  30121 59567 11160 83613 10150 20142 39856 40243 53007 60032 76062 887//;
0150595670999992000013021004+22030+121570FM-12+032599999V0203601N011010021019N0100001N1+01491+01321102341ADDAA100001091GF108991081051002501999999MA1999999098471MD1510021+9999REMSYN072AAXX  30211 59567 12360 83611 10149 20132 39847 40234 55002 6001/ 885//;
0150595670999992000013100004+22030+121570FM-12+032599999V0203601N011010021019N0120001N1+01491+01251102531ADDAA112001091GF108991081051002501999999MA1999999098651MD1210181+9999REMSYN072AAXX  31001 59567 12362 83611 10149 20125 39865 40253 52018 60012 885//;
0163595670999992000013103004+22030+121570FM-12+032599999V0203501N008010021019N0100001N1+01531+01321102481ADDAA199000091GF108991081051002501999999MA1999999098611MD1810041+9999REMSYN066AAXX  31031 59567 32360 83508 10153 20132 39861 40248 58004 885//;EQDQ01  00002PRCP99
0163595670999992000013106004+22030+121570FM-12+032599999V0203601N021010042019N0120001N1+01651+01371102211ADDAA199000091GF108991081051004501999999MA1999999098371MD1710241+9999REMSYN066AAXX  31061 59567 32462 83621 10165 20137 39837 40221 57024 885//;EQDQ01  00002PRCP99
0178595670999992000013109004+22030+121570FM-12+032599999V0203601N012010021019N0100001N1+01511+01401102271ADDAA100000591AY161031AY221031GF108991081051002501999999MA1999999098401MD1310031+9999MW1021REMSYN078AAXX  31091 59567 11360 83612 10151 20140 39840 40227 53003 6995/ 70262 885//;
0197595670999992000013112004+22030+121570FM-12+032599999V0200201N040020021019N0100001N1+01571+01431102301ADDAA112001091AY161061AY221061GF108991081051002501999999MA1999999098441MD1010041+9999MW1211REMSYN078AAXX  31121 59567 11360 80240 10157 20143 39844 40230 50004 60012 72162 885//;EQDQ01+004003WOSPD 
0178595670999992000013121004+22030+121570FM-12+032599999V0203501N015010012019N0100001N1+01611+01491102191ADDAA100002091AY161031AY221031GF108991081051001501999999MA1999999098341MD1510061+9999MW1021REMSYN078AAXX  31211 59567 11260 83515 10161 20149 39834 40219 55006 6002/ 70262 885//;
0178595670999992000020100004+22030+121570FM-12+032599999V0200101N009010012019N0120001N1+01601+01601102441ADDAA100005191AY161061AY221061GF108991081051001501999999MA1999999098581MD1010061+9999MW1211REMSYN078AAXX  01001 59567 11262 80109 10160 20160 39858 40244 50006 6005/ 72162 885//;
0178595670999992000020106004+22030+121570FM-12+032599999V0203601N008010012019N0120001N1+01671+01601102171ADDAA106005191AY161061AY221061GF108991081051001501999999MA1999999098331MD1510251+9999MW1021REMSYN078AAXX  01061 59567 11262 83608 10167 20160 39833 40217 55025 60051 70262 885//;
0178595670999992000020109004+22030+121570FM-12+032599999V0203601N012010012019N0100001N1+01611+01561102151ADDAA100007191AY161031AY221031GF108991081051001501999999MA1999999098301MD1510031+9999MW1211REMSYN078AAXX  01091 59567 11260 83612 10161 20156 39830 40215 55003 6007/ 72162 885//;
0178595670999992000020112004+22030+121570FM-12+032599999V0200101N018010012019N0100001N1+01611+01611102161ADDAA112013091AY161061AY221061GF108991081071001501999999MA1999999098311MD1010011+9999MW1211REMSYN078AAXX  01121 59567 11260 80118 10161 20161 39831 40216 50001 60132 72162 887//;
0178595670999992000020121004+22030+121570FM-12+032599999V0200101N010010012019N0100001N1+01671+01651102171ADDAA100009991AY161031AY221031GF108991081071001501999999MA1999999098331MD1310031+9999MW1211REMSYN078AAXX  01211 59567 11260 80110 10167 20165 39833 40217 53003 6010/ 72162 887//;
0178595670999992000020200004+22030+121570FM-12+032599999V0200501N007010012019N0120001N1+01721+01571102341ADDAA112010991AY161061AY221061GF108991081051001501999999MA1999999098501MD1310171+9999MW1211REMSYN078AAXX  02001 59567 11262 80507 10172 20157 39850 40234 53017 60112 72162 885//;
0178595670999992000020206004+22030+121570FM-12+032599999V0203401N003010075019N0150001N1+01881+01741102111ADDAA106000591AY161061AY221061GF107991071051008001999999MA1999999098301MD1710221+9999MW1021REMSYN078AAXX  02061 59567 11565 73403 10188 20174 39830 40211 57022 69951 70262 875//;
0150595670999992000020209004+22030+121570FM-12+032599999V0200501N006010042019N0120001N1+01941+01491102091ADDAA100000591GF106991061051004501001001MA1999999098291MD1510011+9999REMSYN072AAXX  02091 59567 12462 60506 10194 20149 39829 40209 55001 6995/ 86500;
0150595670999992000020212004+22030+121570FM-12+032599999V0200501N006010042019N0120001N1+01921+01541102181ADDAA112000591GF106991061051004501001001MA1999999098371MD1110081+9999REMSYN072AAXX  02121 59567 12462 60506 10192 20154 39837 40218 51008 69952 86500;
0163595670999992000020221004+22030+121570FM-12+032599999V0200401N018010075019N0120001N1+01931+01661101961ADDAA199000091GF107991071051008001999999MA1999999098161MD1510061+9999REMSYN066AAXX  02211 59567 32562 70418 10193 20166 39816 40196 55006 875//;EQDQ01  00002PRCP99
0163595670999992000020300004+22030+121570FM-12+032599999V0200401N009010360019N0120001N1+02001+01741102091ADDAA199000091GF106991031021004501031001MA1999999098301MD1210141+9999REMSYN066AAXX  03001 59567 32462 60409 10200 20174 39830 40209 52014 83230;EQDQ01  00002PRCP99
0163595670999992000020303004+22030+121570FM-12+032599999V0200601N007010360019N0120001N1+02171+01861102061ADDAA199000091GF105991021021008001031001MA1999999098291MD1810011+9999REMSYN066AAXX  03031 59567 32562 50607 10217 20186 39829 40206 58001 82230;EQDQ01  00002PRCP99
0163595670999992000020306004+22030+121570FM-12+032599999V0200201N005010042019N0120001N1+02181+01911101801ADDAA199000091GF106991061051004501001001MA1999999098041MD1710251+9999REMSYN066AAXX  03061 59567 32462 60205 10218 20191 39804 40180 57025 86500;EQDQ01  00002PRCP99
0178595670999992000020309004+22030+121570FM-12+032599999V0200201N013010042019N0120001N1+01911+01801101801ADDAA100003091AY161031AY221031GF107991071051004501999999MA1999999098011MD1510031+9999MW1211REMSYN078AAXX  03091 59567 11462 70213 10191 20180 39801 40180 55003 6003/ 72162 875//;
0178595670999992000020312004+22030+121570FM-12+032599999V0200201N011010042019N0120001N1+01961+01801101931ADDAA112003091AY161061AY221061GF106991061051004501001001MA1999999098141MD1110131+9999MW1021REMSYN078AAXX  03121 59567 11462 60211 10196 20180 39814 40193 51013 60032 70262 86500;
0178595670999992000020321004+22030+121570FM-12+032599999V0200101N010010012019N0100001N1+01831+01811101781ADDAA100002091AY161031AY221031GF108991081051001501999999MA1999999097981MD1510081+9999MW1211REMSYN078AAXX  03211 59567 11260 80110 10183 20181 39798 40178 55008 6002/ 72162 885//;
0178595670999992000020400004+22030+121570FM-12+032599999V0200101N016010012019N0100001N1+01871+01811101781ADDAA112002091AY161061AY221061GF108991081051001501999999MA1999999097981MD1410001+9999MW1021REMSYN078AAXX  04001 59567 11260 80116 10187 20181 39798 40178 54000 60022 70262 885//;
0178595670999992000020403004+22030+121570FM-12+032599999V0203601N008010021019N0120001N1+01921+01831101831ADDAA100000591AY161031AY221031GF108991081051002501999999MA1999999098041MD1010061+9999MW1021REMSYN078AAXX  04031 59567 11362 83608 10192 20183 39804 40183 50006 6995/ 70262 885//;
0178595670999992000020406004+22030+121570FM-12+032599999V0200101N020010006019N0100001N1+01871+01811101571ADDAA106002091AY161061AY221061GF108991081071000751999999MA1999999097781MD1710261+9999MW1211REMSYN078AAXX  04061 59567 11160 80120 10187 20181 39778 40157 57026 60021 72162 887//;
0150595670999992000020412004+22030+121570FM-12+032599999V0203601N008010012019N0120001N1+01881+01841101721ADDAA112002091GF108991081051001501999999MA1999999097931MD1210121+9999REMSYN072AAXX  04121 59567 12262 83608 10188 20184 39793 40172 52012 60022 885//;
0178595670999992000020421004+22030+121570FM-12+032599999V0200101N009010012019N0100001N1+01901+01901101591ADDAA100010991AY161031AY221031GF108991081071001501999999MA1999999097801MD1510031+9999MW1611REMSYN078AAXX  04211 59567 11260 80109 10190 20190 39780 40159 55003 6011/ 76162 887//;
0178595670999992000020500004+22030+121570FM-12+032599999V0200101N012010006019N0100001N1+01921+01921101731ADDAA112017091AY161061AY261061GF108991081071000751999999MA1999999097941MD1310141+9999MW1611REMSYN078AAXX  05001 59567 11160 80112 10192 20192 39794 40173 53014 60172 76166 887//;
0178595670999992000020503004+22030+121570FM-12+032599999V0200101N012010006019N0100001N1+01921+01921101651ADDAA100008991AY161031AY261031GF108991081071000751999999MA1999999097861MD1810081+9999MW1611REMSYN078AAXX  05031 59567 11160 80112 10192 20192 39786 40165 58008 6009/ 76166 887//;
0178595670999992000020506004+22030+121570FM-12+032599999V0203601N013010006019N0100001N1+01971+01971101411ADDAA106017091AY161061AY261061GF108991081071000751999999MA1999999097641MD1810221+9999MW1611REMSYN078AAXX  05061 59567 11160 83613 10197 20197 39764 40141 58022 60171 76166 887//;
0178595670999992000020509004+22030+121570FM-12+032599999V0203601N005010006019N0100001N1+01911+01911101441ADDAA100038191AY161031AY261031GF108991081071000751999999MA1999999097661MD1310021+9999MW1631REMSYN078AAXX  05091 59567 11160 83605 10191 20191 39766 40144 53002 6038/ 76366 887//;
0178595670999992000020512004+22030+121570FM-12+032599999V0200101N007010006019N0100001N1+01931+01931101521ADDAA112053191AY161061AY261061GF108991081071000751999999MA1999999097741MD1210081+9999MW1611REMSYN078AAXX  05121 59567 11160 80107 10193 20193 39774 40152 52008 60532 76166 887//;
0178595670999992000020521004+22030+121570FM-12+032599999V0200201N009010006019N0100001N1+01941+01941101351ADDAA100043991AY161031AY261031GF108991081071000751999999MA1999999097581MD1710051+9999MW1631REMSYN078AAXX  05211 59567 11160 80209 10194 20194 39758 40135 57005 6044/ 76366 887//;
0178595670999992000020600004+22030+121570FM-12+032599999V0200101N007010006019N0100001N1+01971+01971101481ADDAA112053191AY161061AY221061GF108991081071000751999999MA1999999097711MD1110131+9999MW1211REMSYN078AAXX  06001 59567 11160 80107 10197 20197 39771 40148 51013 60532 72162 887//;
0178595670999992000020603004+22030+121570FM-12+032599999V0200101N006010006019N0100001N1+02021+02021101471ADDAA100002091AY161031AY221031GF108991081071000751999999MA1999999097701MD1810011+9999MW1211REMSYN078AAXX  06031 59567 11160 80106 10202 20202 39770 40147 58001 6002/ 72162 887//;
0178595670999992000020606004+22030+121570FM-12+032599999V0200201N018010012019N0100001N1+01871+01871101021ADDAA106004191AY161061AY221061GF108991081061001501999999MA1999999097251MD1710451+9999MW1021REMSYN078AAXX  06061 59567 11260 80218 10187 20187 39725 40102 57045 60041 70262 886//;
0109595670999992000020609004+22030+121570FM-12+032599999V0200101N013019999999N0100001N1+99999+99999999999ADDGF108991999999002501999999REMSYN071AAXX  06091 59567 12360 80113 1183 20167 39737 40115 51012 6004/ 885//;
0150595670999992000020612004+22030+121570FM-12+032599999V0200101N028010021019N0100001N1+01781+01661101301ADDAA112004191GF108991081051002501999999MA1999999097511MD1110141+9999REMSYN072AAXX  06121 59567 12360 80128 10178 20166 39751 40130 51014 60042 885//;
0163595670999992000020621004+22030+121570FM-12+032599999V0200101N009010021019N0100001N1+01801+01601101211ADDAA199000091GF108991081051002501999999MA1999999097421MD1810051+9999REMSYN066AAXX  06211 59567 32360 80109 10180 20160 39742 40121 58005 885//;EQDQ01  00002PRCP99
0163595670999992000020700004+22030+121570FM-12+032599999V0203601N015010021019N0180001N1+01841+01631101371ADDAA199000091GF108991081051002501999999MA1999999097581MD1310161+9999REMSYN066AAXX  07001 59567 32368 83615 10184 20163 39758 40137 53016 885//;EQDQ01  00002PRCP99
0163595670999992000020706004+22030+121570FM-12+032599999V0200101N009010021019N0150001N1+01951+01661101141ADDAA199000091GF108991081051002501999999MA1999999097371MD1810261+9999REMSYN066AAXX  07061 59567 32365 80109 10195 20166 39737 40114 58026 885//;EQDQ01  00002PRCP99
0163595670999992000020709004+22030+121570FM-12+032599999V0200201N010010075019N0120001N1+01831+01551101241ADDAA199000091GF108991081051008001999999MA1999999097451MD1310081+9999REMSYN066AAXX  07091 59567 32562 80210 10183 20155 39745 40124 53008 885//;EQDQ01  00002PRCP99
0163595670999992000020712004+22030+121570FM-12+032599999V0203601N006010021019N0100001N1+01841+01461101371ADDAA199000091GF108991081051002501999999MA1999999097581MD1210131+9999REMSYN066AAXX  07121 59567 32360 83606 10184 20146 39758 40137 52013 885//;EQDQ01  00002PRCP99
0163595670999992000020721004+22030+121570FM-12+032599999V0200101N017010012019N0100001N1+01531+01371101451ADDAA199000091GF108991081051001501999999MA1999999097621MD1310041+9999REMSYN066AAXX  07211 59567 32260 80117 10153 20137 39762 40145 53004 885//;EQDQ01  00002PRCP99
0163595670999992000020800004+22030+121570FM-12+032599999V0200101N009010075019N0100001N1+01521+01291101731ADDAA199000091GF108991081051008001999999MA1999999097881MD1210261+9999REMSYN066AAXX  08001 59567 32560 80109 10152 20129 39788 40173 52026 885//;EQDQ01  00002PRCP99
0163595670999992000020803004+22030+121570FM-12+032599999V0203601N016010042019N0100001N1+01561+01241101731ADDAA199000091GF108991081051004501999999MA1999999097891MD1010011+9999REMSYN066AAXX  08031 59567 32460 83616 10156 20124 39789 40173 50001 885//;EQDQ01  00002PRCP99
0163595670999992000020806004+22030+121570FM-12+032599999V0203601N009010042019N0100001N1+01611+01261101521ADDAA199000091GF108991081051004501999999MA1999999097691MD1710201+9999REMSYN066AAXX  08061 59567 32460 83609 10161 20126 39769 40152 57020 885//;EQDQ01  00002PRCP99
0163595670999992000020809004+22030+121570FM-12+032599999V0203601N008010075019N0100001N1+01491+01141101661ADDAA199000091GF108991081051008001999999MA1999999097811MD1310121+9999REMSYN066AAXX  08091 59567 32560 83608 10149 20114 39781 40166 53012 885//;EQDQ01  00002PRCP99
0163595670999992000020812004+22030+121570FM-12+032599999V0203601N008010042019N0100001N1+01391+01171101891ADDAA199000091GF108991081051004501999999MA1999999098021MD1110211+9999REMSYN066AAXX  08121 59567 32460 83608 10139 20117 39802 40189 51021 885//;EQDQ01  00002PRCP99
0178595670999992000020821004+22030+121570FM-12+032599999V0200101N011010012019N0100001N1+01411+01241101921ADDAA100002091AY161031AY221031GF108991081051001501999999MA1999999098061MD1410001+9999MW1211REMSYN078AAXX  08211 59567 11260 80111 10141 20124 39806 40192 54000 6002/ 72162 885//;
0178595670999992000020900004+22030+121570FM-12+032599999V0200201N008010042019N0100001N1+01501+01211102041ADDAA112002091AY161061AY221061GF108991081051004501999999MA1999999098181MD1210121+9999MW1021REMSYN078AAXX  09001 59567 11460 80208 10150 20121 39818 40204 52012 60022 70262 885//;
0144595670999992000020903004+22030+121570FM-12+032599999V0200101N005010042019N0100001N1+01551+01261101971ADDAA199000021GF108991081051004501999999MA1999999098121MD1810061+9999REMSYN066AAXX  09031 59567 32460 80105 10155 20126 39812 40197 58006 885//;
0144595670999992000020906004+22030+121570FM-12+032599999V0200101N010010042019N0100001N1+01611+01231101701ADDAA199000021GF108991081051004501999999MA1999999097871MD1810251+9999REMSYN066AAXX  09061 59567 32460 80110 10161 20123 39787 40170 58025 885//;
0144595670999992000020909004+22030+121570FM-12+032599999V0200301N008010042019N0100001N1+01601+01241101711ADDAA199000021GF108991081051004501999999MA1999999097881MD1310011+9999REMSYN066AAXX  09091 59567 32460 80308 10160 20124 39788 40171 53001 885//;
0163595670999992000020912004+22030+121570FM-12+032599999V0200201N005010042019N0100001N1+01651+01231101881ADDAA199000091GF108991081051004501999999MA1999999098051MD1210171+9999REMSYN066AAXX  09121 59567 32460 80205 10165 20123 39805 40188 52017 885//;EQDQ01  00002PRCP99
0163595670999992000020921004+22030+121570FM-12+032599999V0200101N007010042019N0100001N1+01641+01481101721ADDAA199000091GF108991081051004501999999MA1999999097891MD1510051+9999REMSYN066AAXX  09211 59567 32460 80107 10164 20148 39789 40172 55005 885//;EQDQ01  00002PRCP99
0178595670999992000021000004+22030+121570FM-12+032599999V0200501N006010042019N0100001N1+01751+01491101841ADDAA112000591AY161061AY221061GF108991081051004501999999MA1999999098021MD1210131+9999MW1021REMSYN078AAXX  10001 59567 11460 80506 10175 20149 39802 40184 52013 69952 70262 885//;
0163595670999992000021003004+22030+121570FM-12+032599999V0200301N004010042019N0150001N1+01861+01581101781ADDAA199000091GF107991071051004501999999MA1999999097981MD1810041+9999REMSYN066AAXX  10031 59567 32465 70304 10186 20158 39798 40178 58004 875//;EQDQ01  00002PRCP99
0178595670999992000021006004+22030+121570FM-12+032599999V0201001N003010042019N0100001N1+01921+01541101491ADDAA106001091AY161061AY221061GF108991081051004501999999MA1999999097711MD1710271+9999MW1211REMSYN078AAXX  10061 59567 11460 81003 10192 20154 39771 40149 57027 60011 72162 885//;
0150595670999992000021009004+22030+121570FM-12+032599999V0201301N004012200019N0150001N1+01951+01581101511ADDAA100001091GF102991021021004501001011MA1999999097731MD1310021+9999REMSYN072AAXX  10091 59567 12465 21304 10195 20158 39773 40151 53002 6001/ 82201;
0150595670999992000021012004+22030+121570FM-12+032599999V0201401N009012200019N0150001N1+01921+01561101651ADDAA112001091GF103991031021004501001001MA1999999097861MD1110131+9999REMSYN072AAXX  10121 59567 12465 31409 10192 20156 39786 40165 51013 60012 83200;
0155595670999992000021021004+22030+121570FM-12+032599999V0201501N008012200019N0150001N1+01951+99999999999ADDAA100000591GF102991999021004501001001MA1999999097761REMSYN072AAXX  10211 59567 15465 21508 10195 20/62 39776 4/154 5/004 6995/ 88200;EQDQ01+000082SCOTLC
0150595670999992000021100004+22030+121570FM-12+032599999V0201501N008010042019N0100001N1+02061+01691101681ADDAA112000591GF106991061051004501001001MA1999999097911MD1210151+9999REMSYN072AAXX  11001 59567 12460 61508 10206 20169 39791 40168 52015 69952 86500;
0163595670999992000021103004+22030+121570FM-12+032599999V0201801N005010042019N0200001N1+02181+01831101601ADDAA199000091GF107991071041004501999999MA1999999097851MD1810061+9999REMSYN066AAXX  11031 59567 32470 71805 10218 20183 39785 40160 58006 874//;EQDQ01  00002PRCP99
0163595670999992000021106004+22030+121570FM-12+032599999V0201801N004010042019N0150001N1+02201+01861101381ADDAA199000091GF108991081051004501999999MA1999999097641MD1710211+9999REMSYN066AAXX  11061 59567 32465 81804 10220 20186 39764 40138 57021 885//;EQDQ01  00002PRCP99
0163595670999992000021109004+22030+121570FM-12+032599999V0201101N003010042019N0150001N1+02161+01841101371ADDAA199000091GF106991061051004501001001MA1999999097621MD1510021+9999REMSYN066AAXX  11091 59567 32465 61103 10216 20184 39762 40137 55002 86500;EQDQ01  00002PRCP99
0163595670999992000021112004+22030+121570FM-12+032599999V0200701N003010042019N0150001N1+02101+01881101471ADDAA199000091GF107991071051004501999999MA1999999097711MD1110091+9999REMSYN066AAXX  11121 59567 32465 70703 10210 20188 39771 40147 51009 875//;EQDQ01  00002PRCP99
0178595670999992000021121004+22030+121570FM-12+032599999V0200201N011010012019N0100001N1+01921+01921101291ADDAA100025991AY161031AY221031GF108991081071001501999999MA1999999097521MD1710031+9999MW1631REMSYN078AAXX  11211 59567 11260 80211 10192 20192 39752 40129 57003 6026/ 76362 887//;
0178595670999992000021200004+22030+121570FM-12+032599999V0200201N019010012019N0100001N1+01941+01941101351ADDAA112034091AY161061AY221061GF108991081071001501999999MA1999999097581MD1010061+9999MW1211REMSYN078AAXX  12001 59567 11260 80219 10194 20194 39758 40135 50006 60342 72162 887//;
0178595670999992000021203004+22030+121570FM-12+032599999V0200101N013010012019N0100001N1+01961+01961101371ADDAA100007191AY161031AY221031GF108991081071001501999999MA1999999097601MD1010021+9999MW1611REMSYN078AAXX  12031 59567 11260 80113 10196 20196 39760 40137 50002 6007/ 76162 887//;
0178595670999992000021206004+22030+121570FM-12+032599999V0200201N012010012019N0100001N1+01951+01901101201ADDAA106007991AY161061AY221061GF108991081071001501999999MA1999999097431MD1810171+9999MW1611REMSYN078AAXX  12061 59567 11260 80212 10195 20190 39743 40120 58017 60081 76162 887//;
0178595670999992000021209004+22030+121570FM-12+032599999V0200101N018010012019N0200001N1+01961+01901101221ADDAA100009991AY161031AY221031GF108991081051001501999999MA1999999097451MD1310021+9999MW1021REMSYN078AAXX  12091 59567 11270 80118 10196 20190 39745 40122 53002 6010/ 70262 885//;
0178595670999992000021212004+22030+121570FM-12+032599999V0203601N009010012019N0100001N1+01991+01921101341ADDAA112009991AY161061AY221061GF108991081051001501999999MA1999999097571MD1310121+9999MW1021REMSYN078AAXX  12121 59567 11260 83609 10199 20192 39757 40134 53012 60102 70262 885//;
0150595670999992000021221004+22030+121570FM-12+032599999V0200101N008010012019N0150001N1+01981+01921101261ADDAA100000591GF108991081051001501999999MA1999999097501MD1310031+9999REMSYN072AAXX  12211 59567 12265 80108 10198 20192 39750 40126 53003 6995/ 885//;
0150595670999992000021300004+22030+121570FM-12+032599999V0200101N008010012019N0300001N1+02001+01921101421ADDAA112000591GF108991081051001501999999MA1999999097651MD1010151+9999REMSYN072AAXX  13001 59567 12280 80108 10200 20192 39765 40142 50015 69952 885//;
0163595670999992000021303004+22030+121570FM-12+032599999V0203601N009010042019N0300001N1+02211+02031101321ADDAA199000091GF106991061041004501001001MA1999999097581MD1810071+9999REMSYN066AAXX  13031 59567 32480 63609 10221 20203 39758 40132 58007 86400;EQDQ01  00002PRCP99
0163595670999992000021306004+22030+121570FM-12+032599999V0200101N005010021019N0200001N1+02291+02091101041ADDAA199000091GF106991061041002501001001MA1999999097321MD1810261+9999REMSYN066AAXX  13061 59567 32370 60105 10229 20209 39732 40104 58026 86400;EQDQ01  00002PRCP99
0163595670999992000021309004+22030+121570FM-12+032599999V0200201N008012200019N0300001N1+02141+01941101081ADDAA199000091GF104991041041004501001001MA1999999097341MD1310021+9999REMSYN066AAXX  13091 59567 32480 40208 10214 20194 39734 40108 53002 84400;EQDQ01  00002PRCP99
0163595670999992000021312004+22030+121570FM-12+032599999V0200501N006012200019N0200001N1+02061+01871101191ADDAA199000091GF103991031041002501001001MA1999999097441MD1210101+9999REMSYN066AAXX  13121 59567 32370 30506 10206 20187 39744 40119 52010 83400;EQDQ01  00002PRCP99
0163595670999992000021321004+22030+121570FM-12+032599999V0202701N006012200019N0150001N1+01951+01771101161ADDAA199000091GF101991011021001501001001MA1999999097401MD1510021+9999REMSYN066AAXX  13211 59567 32265 12706 10195 20177 39740 40116 55002 81200;EQDQ01  00002PRCP99
0191595670999992000021400004+22030+121570FM-12+032599999V0203001N001010012019N0080001N1+02071+01881101311ADDAA199000091AY111061AY211061GF108991081061001501999999MA1999999097551MD1210151+9999MW1101REMSYN072AAXX  14001 59567 31258 83001 10207 20188 39755 40131 52015 71011 886//;EQDQ01  00002PRCP99
0163595670999992000021403004+22030+121570FM-12+032599999V0200201N006010042019N0100001N1+02261+01971101261ADDAA199000091GF106991061041004501001001MA1999999097531MD1810021+9999REMSYN066AAXX  14031 59567 32460 60206 10226 20197 39753 40126 58002 86400;EQDQ01  00002PRCP99
0163595670999992000021406004+22030+121570FM-12+032599999V0200101N011012200019N0150001N1+02311+01971101071ADDAA199000091GF102991021021004501001001MA1999999097351MD1710181+9999REMSYN066AAXX  14061 59567 32465 20111 10231 20197 39735 40107 57018 82200;EQDQ01  00002PRCP99
0163595670999992000021409004+22030+121570FM-12+032599999V0203601N003012200019N0200001N1+02261+01921101171ADDAA199000091GF102991021021004501001001MA1999999097441MD1310091+9999REMSYN066AAXX  14091 59567 32470 23603 10226 20192 39744 40117 53009 82200;EQDQ01  00002PRCP99
0163595670999992000021412004+22030+121570FM-12+032599999V0200101N007010042019N0100001N1+02101+01881101361ADDAA199000091GF108991081051004501999999MA1999999097611MD1210171+9999REMSYN066AAXX  14121 59567 32460 80107 10210 20188 39761 40136 52017 885//;EQDQ01  00002PRCP99
0178595670999992000021421004+22030+121570FM-12+032599999V0203501N008010012019N0100001N1+01671+01591101511ADDAA100020191AY161031AY221031GF108991081051001501999999MA1999999097701MD1310051+9999MW1211REMSYN078AAXX  14211 59567 11260 83508 10167 20159 39770 40151 53005 6020/ 72162 885//;
0178595670999992000021500004+22030+121570FM-12+032599999V0203501N013010012019N0100001N1+01671+01511101871ADDAA112021191AY161061AY221061GF108991081051001501999999MA1999999098041MD1210341+9999MW1021REMSYN078AAXX  15001 59567 11260 83513 10167 20151 39804 40187 52034 60212 70262 885//;
0144595670999992000021503004+22030+121570FM-12+032599999V0203601N015010042019N0100001N1+01701+01511101911ADDAA199000021GF108991081051004501999999MA1999999098091MD1010051+9999REMSYN066AAXX  15031 59567 32460 83615 10170 20151 39809 40191 50005 885//;
0144595670999992000021506004+22030+121570FM-12+032599999V0203501N005010042019N0100001N1+01721+01451101751ADDAA199000021GF108991081051004501999999MA1999999097931MD1710161+9999REMSYN066AAXX  15061 59567 32460 83505 10172 20145 39793 40175 57016 885//;
0144595670999992000021509004+22030+121570FM-12+032599999V0203501N005010042019N0100001N1+01721+01451101751ADDAA199000021GF108991081051004501999999MA1999999097931MD1710161+9999REMSYN066AAXX  15091 59567 32460 83505 10172 20145 39793 40175 57016 885//;
0163595670999992000021512004+22030+121570FM-12+032599999V0200101N009010042019N0100001N1+01611+01431101941ADDAA199000091GF108991081051004501999999MA1999999098101MD1110161+9999REMSYN066AAXX  15121 59567 32460 80109 10161 20143 39810 40194 51016 885//;EQDQ01  00002PRCP99
0163595670999992000021521004+22030+121570FM-12+032599999V0200201N014010042019N0100001N1+01611+01391101921ADDAA199000091GF108991081051004501999999MA1999999098081MD1310011+9999REMSYN066AAXX  15211 59567 32460 80214 10161 20139 39808 40192 53001 885//;EQDQ01  00002PRCP99
0178595670999992000021600004+22030+121570FM-12+032599999V0200301N007010042019N0100001N1+01681+01371102021ADDAA112002091AY161061AY221061GF108991081051004501999999MA1999999098191MD1110111+9999MW1021REMSYN078AAXX  16001 59567 11460 80307 10168 20137 39819 40202 51011 60022 70262 885//;
0178595670999992000021603004+22030+121570FM-12+032599999V0200701N009010042019N0100001N1+01701+01441101991ADDAA100000591AY161031AY221031GF108991081051004501999999MA1999999098161MD1810031+9999MW1021REMSYN078AAXX  16031 59567 11460 80709 10170 20144 39816 40199 58003 6995/ 70262 885//;
0178595670999992000021606004+22030+121570FM-12+032599999V0200301N005010042019N0100001N1+01701+01451101741ADDAA106001091AY161061AY221061GF108991081051004501999999MA1999999097921MD1710241+9999MW1211REMSYN078AAXX  16061 59567 11460 80305 10170 20145 39792 40174 57024 60011 72162 885//;
0150595670999992000021609004+22030+121570FM-12+032599999V0200501N006010042019N0100001N1+01741+01451101771ADDAA100001091GF108991081051004501999999MA1999999097961MD1310041+9999REMSYN072AAXX  16091 59567 12460 80506 10174 20145 39796 40177 53004 6001/ 885//;
0150595670999992000021612004+22030+121570FM-12+032599999V0200201N005010042019N0100001N1+01771+01461101941ADDAA112001091GF108991081051004501999999MA1999999098121MD1210161+9999REMSYN072AAXX  16121 59567 12460 80205 10177 20146 39812 40194 52016 60012 885//;
0178595670999992000021621004+22030+121570FM-12+032599999V0200401N004010012019N0050001N1+01661+01641101941ADDAA100007191AY161031AY221031GF108991081071001501999999MA1999999098111MD1310021+9999MW1601REMSYN078AAXX  16211 59567 11250 80404 10166 20164 39811 40194 53002 6007/ 76062 887//;
0178595670999992000021700004+22030+121570FM-12+032599999V0200601N005010012019N0100001N1+01721+01721102071ADDAA112007991AY161061AY221061GF108991081061001501999999MA1999999098241MD1110131+9999MW1021REMSYN078AAXX  17001 59567 11260 80605 10172 20172 39824 40207 51013 60082 70262 886//;
0144595670999992000021703004+22030+121570FM-12+032599999V0200201N006010012019N0100001N1+01791+01721102091ADDAA199000021GF108991081051001501999999MA1999999098271MD1010031+9999REMSYN066AAXX  17031 59567 32260 80206 10179 20172 39827 40209 50003 885//;
0178595670999992000021706004+22030+121570FM-12+032599999V0200301N003010042019N0150001N1+01771+01651101841ADDAA106004191AY161061AY221061GF108991081051004501999999MA1999999098031MD1810241+9999MW1211REMSYN078AAXX  17061 59567 11465 80303 10177 20165 39803 40184 58024 60041 72162 885//;
0178595670999992000021709004+22030+121570FM-12+032599999V0200601N006010012019N0100001N1+01771+01701101811ADDAA100005191AY161031AY221031GF108991081051001501999999MA1999999098001MD1510031+9999MW1021REMSYN078AAXX  17091 59567 11260 80606 10177 20170 39800 40181 55003 6005/ 70262 885//;
0178595670999992000021712004+22030+121570FM-12+032599999V0200401N006010012019N0100001N1+01871+01761101881ADDAA112005191AY161061AY221061GF108991081051001501999999MA1999999098071MD1010071+9999MW1021REMSYN078AAXX  17121 59567 11260 80406 10187 20176 39807 40188 50007 60052 70262 885//;
0178595670999992000021721004+22030+121570FM-12+032599999V0201401N005010042019N0100001N1+01941+01681101771ADDAA100003091AY161031AY221031GF108991081051004501999999MA1999999097981MD1710061+9999MW1021REMSYN078AAXX  17211 59567 11460 81405 10194 20168 39798 40177 57006 6003/ 70262 885//;
0178595670999992000021800004+22030+121570FM-12+032599999V0201401N014010042019N0100001N1+01991+01711101901ADDAA112003091AY161061AY221061GF108991081051004501999999MA1999999098111MD1210131+9999MW1021REMSYN078AAXX  18001 59567 11460 81414 10199 20171 39811 40190 52013 60032 70262 885//;
0163595670999992000021803004+22030+121570FM-12+032599999V0201601N005010042019N0100001N1+02281+01911101851ADDAA199000091GF107991071051004501999999MA1999999098101MD1810011+9999REMSYN066AAXX  18031 59567 32460 71605 10228 20191 39810 40185 58001 875//;EQDQ01  00002PRCP99
0163595670999992000021806004+22030+121570FM-12+032599999V0201801N008010042019N0100001N1+02221+01851101581ADDAA199000091GF107991071051004501999999MA1999999097831MD1710271+9999REMSYN066AAXX  18061 59567 32460 71808 10222 20185 39783 40158 57027 875//;EQDQ01  00002PRCP99
0163595670999992000021809004+22030+121570FM-12+032599999V0201701N007010042019N0100001N1+02091+01771101521ADDAA199000091GF107991071051004501999999MA1999999097761MD1610071+9999REMSYN066AAXX  18091 59567 32460 71707 10209 20177 39776 40152 56007 875//;EQDQ01  00002PRCP99
0163595670999992000021812004+22030+121570FM-12+032599999V0201801N007010042019N0100001N1+02081+01841101541ADDAA199000091GF106991061051004501001001MA1999999097781MD1010021+9999REMSYN066AAXX  18121 59567 32460 61807 10208 20184 39778 40154 50002 86500;EQDQ01  00002PRCP99
0163595670999992000021900004+22030+121570FM-12+032599999V0202201N023010012019N0100001N1+02221+02151101211ADDAA199000091GF108991081051001501999999MA1999999097481MD1310031+9999REMSYN066AAXX  19001 59567 32260 82223 10222 20215 39748 40121 53003 885//;EQDQ01  00002PRCP99
0163595670999992000021903004+22030+121570FM-12+032599999V0202301N014010012019N0150001N1+02381+02251101151ADDAA199000091GF106991061051001501001001MA1999999097441MD1810041+9999REMSYN066AAXX  19031 59567 32265 62314 10238 20225 39744 40115 58004 86500;EQDQ01  00002PRCP99
0163595670999992000021906004+22030+121570FM-12+032599999V0202401N014010012019N0100001N1+02331+02231100841ADDAA199000091GF108991081051001501999999MA1999999097131MD1710311+9999REMSYN066AAXX  19061 59567 32260 82414 10233 20223 39713 40084 57031 885//;EQDQ01  00002PRCP99
0163595670999992000021909004+22030+121570FM-12+032599999V0202401N015012200019N0150001N1+02321+02151100781ADDAA199000091GF102991021021001501001001MA1999999097071MD1510061+9999REMSYN066AAXX  19091 59567 32265 22415 10232 20215 39707 40078 55006 82200;EQDQ01  00002PRCP99
0163595670999992000021912004+22030+121570FM-12+032599999V0202401N016012200019N0150001N1+02241+02071100871ADDAA199000091GF101991011021001501001001MA1999999097151MD1310081+9999REMSYN066AAXX  19121 59567 32265 12416 10224 20207 39715 40087 53008 81200;EQDQ01  00002PRCP99
0163595670999992000021921004+22030+121570FM-12+032599999V0202401N012019999999N0100001N1+02231+02031100851ADDAA199000091GF107991071001999999031999MA1999999097131MD1510031+9999REMSYN066AAXX  19211 59567 32960 72412 10223 20203 39713 40085 55003 8703/;EQDQ01  00002PRCP99
0179595670999992000022000004+22030+121570FM-12+032599999V0200201N005010042019N0100001N1+02321+02141101121ADDAA199000091GF107991071051004501999999MA1999999097401MD1010271+9999REMSYN066AAXX  20001 59567 32460 70205 10232 20214 39740 40112 50207 875//;EQDQ01+002072APC3  Q02  00002PRCP99
0163595670999992000022003004+22030+121570FM-12+032599999V0200101N010010012019N0100001N1+02161+02061101261ADDAA199000091GF108991081051001501999999MA1999999097521MD1010121+9999REMSYN066AAXX  20031 59567 32260 80110 10216 20206 39752 40126 50012 885//;EQDQ01  00002PRCP99
0178595670999992000022006004+22030+121570FM-12+032599999V0200201N010010012019N0100001N1+02021+01951101091ADDAA106002091AY161061AY221061GF108991081051001501999999MA1999999097331MD1810191+9999MW1021REMSYN078AAXX  20061 59567 11260 80210 10202 20195 39733 40109 58019 60021 70262 885//;
0150595670999992000022009004+22030+121570FM-12+032599999V0200101N010010012019N0100001N1+01971+01901101101ADDAA100002091GF108991081051001501999999MA1999999097341MD1310011+9999REMSYN072AAXX  20091 59567 12260 80110 10197 20190 39734 40110 53001 6002/ 885//;
0178595670999992000022012004+22030+121570FM-12+032599999V0203601N009010012019N0050001N1+01871+01861101181ADDAA112007191AY161061AY221061GF108991081051001501999999MA1999999097401MD1010061+9999MW1601REMSYN078AAXX  20121 59567 11250 83609 10187 20186 39740 40118 50006 60072 76062 885//;
0178595670999992000022021004+22030+121570FM-12+032599999V0200101N019010012019N0050001N1+01771+01771101431ADDAA100011991AY161031AY221031GF108991081051001501999999MA1999999097631MD1310041+9999MW1211REMSYN078AAXX  20211 59567 11250 80119 10177 20177 39763 40143 53004 6012/ 72162 885//;
0178595670999992000022100004+22030+121570FM-12+032599999V0200101N006010012019N0150001N1+01761+01761101601ADDAA112014091AY161061AY221061GF108991081051001501999999MA1999999097791MD1110161+9999MW1211REMSYN078AAXX  21001 59567 11265 80106 10176 20176 39779 40160 51016 60142 72162 885//;
0178595670999992000022103004+22030+121570FM-12+032599999V0203601N006010006019N0050001N1+01761+01761101651ADDAA100000591AY161031AY221031GF108991081071000751999999MA1999999097841MD1010051+9999MW1601REMSYN078AAXX  21031 59567 11150 83606 10176 20176 39784 40165 50005 6995/ 76062 887//;
0178595670999992000022106004+22030+121570FM-12+032599999V0203401N004010006019N0050001N1+01751+01681101461ADDAA106004191AY161061AY221061GF108991081071000751999999MA1999999097661MD1710181+9999MW1211REMSYN078AAXX  21061 59567 11150 83404 10175 20168 39766 40146 57018 60041 72162 887//;
0178595670999992000022109004+22030+121570FM-12+032599999V0200201N015010042019N0150001N1+01751+01671101471ADDAA100005191AY161031AY221031GF108991081051004501999999MA1999999097661MD1410001+9999MW1021REMSYN078AAXX  21091 59567 11465 80215 10175 20167 39766 40147 54000 6005/ 70262 885//;
0178595670999992000022121004+22030+121570FM-12+032599999V0201701N003010012019N0150001N1+01931+01851101251ADDAA100002091AY161031AY221031GF108991081051001501999999MA1999999097481MD1710101+9999MW1021REMSYN078AAXX  21211 59567 11265 81703 10193 20185 39748 40125 57010 6002/ 70262 885//;
0178595670999992000022200004+22030+121570FM-12+032599999V0202401N010010012019N0150001N1+02061+02001101321ADDAA112002091AY161061AY221061GF107991071051001501999999MA1999999097561MD1110081+9999MW1021REMSYN078AAXX  22001 59567 11265 72410 10206 20200 39756 40132 51008 60022 70262 875//;
0163595670999992000022203004+22030+121570FM-12+032599999V0202301N019010012019N0100001N1+02341+02201101221ADDAA199000091GF106991061051001501001001MA1999999097501MD1810061+9999REMSYN066AAXX  22031 59567 32260 62319 10234 20220 39750 40122 58006 86500;EQDQ01  00002PRCP99
0163595670999992000022206004+22030+121570FM-12+032599999V0202501N009010042019N0100001N1+02511+02291101091ADDAA199000091GF106991061051004501001001MA1999999097401MD1710101+9999REMSYN066AAXX  22061 59567 32460 62509 10251 20229 39740 40109 57010 86500;EQDQ01  00002PRCP99
0178595670999992000022209004+22030+121570FM-12+032599999V0200201N013010012019N0100001N1+02041+01961101211ADDAA100002091AY161031AY221031GF108991081051001501999999MA1999999097451MD1310051+9999MW1211REMSYN078AAXX  22091 59567 11260 80213 10204 20196 39745 40121 53005 6002/ 72162 885//;
0178595670999992000022212004+22030+121570FM-12+032599999V0200201N012010012019N0100001N1+01971+01911101291ADDAA112004191AY161061AY221061GF108991081051001501999999MA1999999097521MD1310071+9999MW1211REMSYN078AAXX  22121 59567 11260 80212 10197 20191 39752 40129 53007 60042 72162 885//;
0178595670999992000022221004+22030+121570FM-12+032599999V0200101N007010012019N0100001N1+01981+01911101181ADDAA100003091AY161031AY221031GF108991081051001501999999MA1999999097421MD1510061+9999MW1021REMSYN078AAXX  22211 59567 11260 80107 10198 20191 39742 40118 55006 6003/ 70262 885//;
0178595670999992000022300004+22030+121570FM-12+032599999V0200201N006010006019N0050001N1+01981+01961101321ADDAA112003091AY161061AY221061GF108991081051000751999999MA1999999097551MD1210131+9999MW1021REMSYN078AAXX  23001 59567 11150 80206 10198 20196 39755 40132 52013 60032 70262 885//;
0178595670999992000022303004+22030+121570FM-12+032599999V0200301N004010012019N0200001N1+02061+02001101351ADDAA100000591AY161031AY221031GF108991081051001501999999MA1999999097591MD1010041+9999MW1021REMSYN078AAXX  23031 59567 11270 80304 10206 20200 39759 40135 50004 6995/ 70262 885//;
0178595670999992000022306004+22030+121570FM-12+032599999V0201701N001010012019N0150001N1+02161+02031101131ADDAA106000591AY161061AY221061GF108991081051001501999999MA1999999097391MD1810201+9999MW1021REMSYN078AAXX  23061 59567 11265 81701 10216 20203 39739 40113 58020 69951 70262 885//;
0150595670999992000022309004+22030+121570FM-12+032599999V0201901N002010012019N0100001N1+02131+02001101131ADDAA100000591GF108991071061001501999999MA1999999097391MD1410001+9999REMSYN072AAXX  23091 59567 12260 81902 10213 20200 39739 40113 54000 6995/ 876//;
0150595670999992000022312004+22030+121570FM-12+032599999V0203401N001010012019N0100001N1+02071+01981101311ADDAA112000591GF108991081061001501999999MA1999999097551MD1110161+9999REMSYN072AAXX  23121 59567 12260 83401 10207 20198 39755 40131 51016 69952 886//;
0150595670999992000022321004+22030+121570FM-12+032599999V0200201N030010042019N0100001N1+01911+01801101371ADDAA100005191GF108991081061004501999999MA1999999097591MD1310051+9999REMSYN072AAXX  23211 59567 12460 80230 10191 20180 39759 40137 53005 6005/ 886//;
0150595670999992000022400004+22030+121570FM-12+032599999V0200101N010010021019N0100001N1+01921+01781101581ADDAA112005191GF108991081051002501999999MA1999999097801MD1110211+9999REMSYN072AAXX  24001 59567 12360 80110 10192 20178 39780 40158 51021 60052 885//;
0163595670999992000022403004+22030+121570FM-12+032599999V0200101N012010021019N0150001N1+01931+01761101591ADDAA199000091GF108991081051002501999999MA1999999097811MD1010011+9999REMSYN066AAXX  24031 59567 32365 80112 10193 20176 39781 40159 50001 885//;EQDQ01  00002PRCP99
0163595670999992000022406004+22030+121570FM-12+032599999V0200101N011010021019N0150001N1+01921+01771101431ADDAA199000091GF108991081051002501999999MA1999999097651MD1510161+9999REMSYN066AAXX  24061 59567 32365 80111 10192 20177 39765 40143 55016 885//;EQDQ01  00002PRCP99
0163595670999992000022409004+22030+121570FM-12+032599999V0200101N012010012019N0100001N1+01831+01741101411ADDAA199000091GF108991081051001501999999MA1999999097621MD1510031+9999REMSYN066AAXX  24091 59567 32260 80112 10183 20174 39762 40141 55003 885//;EQDQ01  00002PRCP99
0178595670999992000022421004+22030+121570FM-12+032599999V0200201N014010012019N0100001N1+01841+01731101421ADDAA100000591AY161031AY221031GF108991081051001501999999MA1999999097631MD1510061+9999MW1021REMSYN078AAXX  24211 59567 11260 80214 10184 20173 39763 40142 55006 6995/ 70262 885//;
0197595670999992000022500004+22030+121570FM-12+032599999V0200201N043020012019N0100001N1+01821+01731101451ADDAA112002091AY161061AY221061GF108991081051001501999999MA1999999097661MD1010031+9999MW1211REMSYN078AAXX  25001 59567 11260 80243 10182 20173 39766 40145 50003 60022 72162 885//;EQDQ01+004303WOSPD 
0144595670999992000022503004+22030+121570FM-12+032599999V0200101N024010042019N0150001N1+01771+01611101551ADDAA199000021GF108991081051004501999999MA1999999097751MD1010091+9999REMSYN066AAXX  25031 59567 32465 80124 10177 20161 39775 40155 50009 885//;
0144595670999992000022506004+22030+121570FM-12+032599999V0200101N025010042019N0150001N1+01791+01581101361ADDAA199000021GF108991081051004501999999MA1999999097571MD1610181+9999REMSYN066AAXX  25061 59567 32465 80125 10179 20158 39757 40136 56018 885//;
0144595670999992000022509004+22030+121570FM-12+032599999V0200101N010010042019N0100001N1+01781+01591101381ADDAA199000021GF108991081051004501999999MA1999999097591MD1310021+9999REMSYN066AAXX  25091 59567 32460 80110 10178 20159 39759 40138 53002 885//;
0178595670999992000022512004+22030+121570FM-12+032599999V0200101N016010042019N0100001N1+01751+01661101461ADDAA112000591AY161061AY221061GF108991081051004501999999MA1999999097661MD1110071+9999MW1211REMSYN078AAXX  25121 59567 11460 80116 10175 20166 39766 40146 51007 69952 72162 885//;
0178595670999992000022521004+22030+121570FM-12+032599999V0203601N019010042019N0100001N1+01641+01551101541ADDAA100002091AY161031AY221031GF108991081051004501999999MA1999999097721MD1310101+9999MW1021REMSYN078AAXX  25211 59567 11460 83619 10164 20155 39772 40154 53010 6002/ 70262 885//;
0178595670999992000022600004+22030+121570FM-12+032599999V0200101N028010012019N0100001N1+01591+01551101681ADDAA112004191AY161061AY221061GF108991081051001501999999MA1999999097851MD1310131+9999MW1211REMSYN078AAXX  26001 59567 11260 80128 10159 20155 39785 40168 53013 60042 72162 885//;
0178595670999992000022603004+22030+121570FM-12+032599999V0203601N011010012019N0100001N1+01541+01461101831ADDAA100002091AY161031AY221031GF108991081051001501999999MA1999999097981MD1110131+9999MW1021REMSYN078AAXX  26031 59567 11260 83611 10154 20146 39798 40183 51013 6002/ 70262 885//;
0178595670999992000022606004+22030+121570FM-12+032599999V0203601N022010012019N0100001N1+01511+01431101631ADDAA106002091AY161061AY221061GF108991081051001501999999MA1999999097791MD1710191+9999MW1021REMSYN078AAXX  26061 59567 11260 83622 10151 20143 39779 40163 57019 60021 70262 885//;
0178595670999992000022609004+22030+121570FM-12+032599999V0203501N009010012019N0100001N1+01421+01331101821ADDAA100004191AY161031AY221031GF108991081051001501999999MA1999999097961MD1310171+9999MW1211REMSYN078AAXX  26091 59567 11260 83509 10142 20133 39796 40182 53017 6004/ 72162 885//;
0178595670999992000022612004+22030+121570FM-12+032599999V0203501N007010012019N0100001N1+01391+01301102031ADDAA112005191AY161061AY221061GF108991081051001501999999MA1999999098161MD1310201+9999MW1211REMSYN078AAXX  26121 59567 11260 83507 10139 20130 39816 40203 53020 60052 72162 885//;
0150595670999992000022621004+22030+121570FM-12+032599999V0203601N015010042019N0100001N1+01511+01151101931ADDAA100000591GF108991081051004501999999MA1999999098081MD1510101+9999REMSYN072AAXX  26211 59567 12460 83615 10151 20115 39808 40193 55010 6995/ 885//;
0150595670999992000022700004+22030+121570FM-12+032599999V0200101N014010042019N0100001N1+01571+01201102151ADDAA112000591GF108991081051004501999999MA1999999098301MD1210221+9999REMSYN072AAXX  27001 59567 12460 80114 10157 20120 39830 40215 52022 69952 885//;
0163595670999992000022703004+22030+121570FM-12+032599999V0203601N005010042019N0100001N1+01591+01281102161ADDAA199000091GF108991081051004501999999MA1999999098311MD1010011+9999REMSYN066AAXX  27031 59567 32460 83605 10159 20128 39831 40216 50001 885//;EQDQ01  00002PRCP99
0163595670999992000022706004+22030+121570FM-12+032599999V0200101N006010042019N0100001N1+01631+01271101921ADDAA199000091GF108991081051004501999999MA1999999098091MD1710221+9999REMSYN066AAXX  27061 59567 32460 80106 10163 20127 39809 40192 57022 885//;EQDQ01  00002PRCP99
0163595670999992000022709004+22030+121570FM-12+032599999V0200201N008010042019N0100001N1+01681+01261101871ADDAA199000091GF108991081051004501999999MA1999999098041MD1510051+9999REMSYN066AAXX  27091 59567 32460 80208 10168 20126 39804 40187 55005 885//;EQDQ01  00002PRCP99
0163595670999992000022712004+22030+121570FM-12+032599999V0200201N013010042019N0100001N1+01681+01331101971ADDAA199000091GF108991081051004501999999MA1999999098141MD1110101+9999REMSYN066AAXX  27121 59567 32460 80213 10168 20133 39814 40197 51010 885//;EQDQ01  00002PRCP99
0163595670999992000022721004+22030+121570FM-12+032599999V0200201N004010042019N0100001N1+01791+01491101771ADDAA199000091GF108991081051004501999999MA1999999097961MD1710071+9999REMSYN066AAXX  27211 59567 32460 80204 10179 20149 39796 40177 57007 885//;EQDQ01  00002PRCP99
0163595670999992000022800004+22030+121570FM-12+032599999V0200301N004010042019N0100001N1+01861+01631101881ADDAA199000091GF108991081051004501999999MA1999999098081MD1110121+9999REMSYN066AAXX  28001 59567 32460 80304 10186 20163 39808 40188 51012 885//;EQDQ01  00002PRCP99
0163595670999992000022803004+22030+121570FM-12+032599999V0200501N003010042019N0100001N1+01911+01701101851ADDAA199000091GF108991081051004501999999MA1999999098051MD1810031+9999REMSYN066AAXX  28031 59567 32460 80503 10191 20170 39805 40185 58003 885//;EQDQ01  00002PRCP99
0163595670999992000022806004+22030+121570FM-12+032599999V0200301N004010042019N0100001N1+01911+01761101661ADDAA199000091GF108991081051004501999999MA1999999097871MD1710181+9999REMSYN066AAXX  28061 59567 32460 80304 10191 20176 39787 40166 57018 885//;EQDQ01  00002PRCP99
0178595670999992000022809004+22030+121570FM-12+032599999V0200201N011010012019N0100001N1+01831+01771101701ADDAA100003091AY161031AY221031GF108991081051001501999999MA1999999097901MD1210031+9999MW1211REMSYN078AAXX  28091 59567 11260 80211 10183 20177 39790 40170 52003 6003/ 72162 885//;
0178595670999992000022812004+22030+121570FM-12+032599999V0200201N028010012019N0050001N1+01741+01681101861ADDAA112006191AY161061AY221061GF108991081071001501999999MA1999999098041MD1210141+9999MW1621REMSYN078AAXX  28121 59567 11250 80228 10174 20168 39804 40186 52014 60062 76262 887//;
0150595670999992000022821004+22030+121570FM-12+032599999V0200201N012010012019N0100001N1+01761+01641101831ADDAA100001091GF108991081051001501999999MA1999999098011MD1510001+9999REMSYN072AAXX  28211 59567 12260 80212 10176 20164 39801 40183 55000 6001/ 885//;
0178595670999992000022900004+22030+121570FM-12+032599999V0200101N017010042019N0150001N1+01781+01691101881ADDAA112002091AY161061AY221061GF108991081051004501999999MA1999999098061MD1310051+9999MW1021REMSYN078AAXX  29001 59567 11465 80117 10178 20169 39806 40188 53005 60022 70262 885//;
0163595670999992000022903004+22030+121570FM-12+032599999V0200101N014010042019N0150001N1+01741+01571101841ADDAA199000091GF108991081051004501999999MA1999999098021MD1810041+9999REMSYN066AAXX  29031 59567 32465 80114 10174 20157 39802 40184 58004 885//;EQDQ01  00002PRCP99
0163595670999992000022909004+22030+121570FM-12+032599999V0203601N011010021019N0150001N1+01731+01601101751ADDAA199000091GF108991081051002501999999MA1999999097931MD1310021+9999REMSYN066AAXX  29091 59567 32365 83611 10173 20160 39793 40175 53002 885//;EQDQ01  00002PRCP99
0163595670999992000022912004+22030+121570FM-12+032599999V0203601N011010042019N0100001N1+01701+01571101911ADDAA199000091GF108991081051004501999999MA1999999098081MD1310151+9999REMSYN066AAXX  29121 59567 32460 83611 10170 20157 39808 40191 53015 885//;EQDQ01  00002PRCP99
0150595670999992000022921004+22030+121570FM-12+032599999V0200101N013010012019N0100001N1+01731+01641101721ADDAA100000591GF108991081051001501999999MA1999999097901MD1510061+9999REMSYN072AAXX  29211 59567 12260 80113 10173 20164 39790 40172 55006 6995/ 885//;
0150595670999992000030100004+22030+121570FM-12+032599999V0200101N026010012019N0100001N1+01831+01701101821ADDAA112000591GF108991081051001501999999MA1999999098011MD1310111+9999REMSYN072AAXX  01001 59567 12260 80126 10183 20170 39801 40182 53011 69952 885//;
0163595670999992000030103004+22030+121570FM-12+032599999V0200201N017010021019N0150001N1+01921+01731101871ADDAA199000091GF108991081051002501999999MA1999999098071MD1010061+9999REMSYN066AAXX  01031 59567 32365 80217 10192 20173 39807 40187 50006 885//;EQDQ01  00002PRCP99
0163595670999992000030106004+22030+121570FM-12+032599999V0200101N010010021019N0150001N1+01941+01781101671ADDAA199000091GF108991081051002501999999MA1999999097881MD1610191+9999REMSYN066AAXX  01061 59567 32365 80110 10194 20178 39788 40167 56019 885//;EQDQ01  00002PRCP99
0178595670999992000030109004+22030+121570FM-12+032599999V0200201N020010012019N0050001N1+01841+01841101641ADDAA100002091AY161031AY221031GF108991081051001501999999MA1999999097841MD1510041+9999MW1211REMSYN078AAXX  01091 59567 11250 80220 10184 20184 39784 40164 55004 6002/ 72162 885//;
0178595670999992000030112004+22030+121570FM-12+032599999V0200301N015010012019N0100001N1+01841+01841101751ADDAA112009991AY161061AY221061GF108991081051001501999999MA1999999097951MD1310111+9999MW1211REMSYN078AAXX  01121 59567 11260 80315 10184 20184 39795 40175 53011 60102 72162 885//;
0178595670999992000030200004+22030+121570FM-12+032599999V0200201N027010012019N0150001N1+01941+01871101801ADDAA112006191AY161061AY221061GF108991081051001501999999MA1999999098011MD1210201+9999MW1021REMSYN078AAXX  02001 59567 11265 80227 10194 20187 39801 40180 52020 60062 70262 885//;
0178595670999992000030203004+22030+121570FM-12+032599999V0200201N011010042019N0150001N1+01921+01821101801ADDAA100000591AY161031AY221031GF108991081051004501999999MA1999999098001MD1810011+9999MW1021REMSYN078AAXX  02031 59567 11465 80211 10192 20182 39800 40180 58001 6995/ 70262 885//;
0178595670999992000030206004+22030+121570FM-12+032599999V0200101N013010042019N0150001N1+02051+01801101621ADDAA106000591AY161061AY221061GF108991081051004501999999MA1999999097851MD1810151+9999MW1021REMSYN078AAXX  02061 59567 11465 80113 10205 20180 39785 40162 58015 69951 70262 885//;
0150595670999992000030209004+22030+121570FM-12+032599999V0200101N007010042019N0150001N1+02011+01791101621ADDAA100000591GF106991061041004501001001MA1999999097851MD1410001+9999REMSYN072AAXX  02091 59567 12465 60107 10201 20179 39785 40162 54000 6995/ 86400;
0150595670999992000030212004+22030+121570FM-12+032599999V0200101N006010042019N0100001N1+02021+01741101781ADDAA112000591GF108991081051004501999999MA1999999098001MD1210151+9999REMSYN072AAXX  02121 59567 12460 80106 10202 20174 39800 40178 52015 69952 885//;
0163595670999992000030221004+22030+121570FM-12+032599999V0200101N004010012019N0150001N1+01971+01821101691ADDAA199000091GF108991081051001501999999MA1999999097911MD1510041+9999REMSYN066AAXX  02211 59567 32265 80104 10197 20182 39791 40169 55004 885//;EQDQ01  00002PRCP99
0163595670999992000030300004+22030+121570FM-12+032599999V0200201N005010021019N0200001N1+02001+01881101821ADDAA199000091GF107991071051002501999999MA1999999098041MD1210131+9999REMSYN066AAXX  03001 59567 32370 70205 10200 20188 39804 40182 52013 875//;EQDQ01  00002PRCP99
0163595670999992000030303004+22030+121570FM-12+032599999V0200101N005010042019N0200001N1+02261+01991101821ADDAA199000091GF105991051051004501001001MA1999999098071MD1010031+9999REMSYN066AAXX  03031 59567 32470 50105 10226 20199 39807 40182 50003 85500;EQDQ01  00002PRCP99
0163595670999992000030306004+22030+121570FM-12+032599999V0200201N008012200019N0300001N1+02261+01941101551ADDAA199000091GF102991021001999999031001MA1999999097811MD1810261+9999REMSYN066AAXX  03061 59567 32980 20208 10226 20194 39781 40155 58026 82030;EQDQ01  00002PRCP99
0163595670999992000030309004+22030+121570FM-12+032599999V0200201N006010042019N0200001N1+02111+01851101591ADDAA199000091GF106991061051004501001001MA1999999097831MD1310021+9999REMSYN066AAXX  03091 59567 32470 60206 10211 20185 39783 40159 53002 86500;EQDQ01  00002PRCP99
0163595670999992000030312004+22030+121570FM-12+032599999V0200201N016010042019N0150001N1+02011+01741101691ADDAA199000091GF106991061051004501001001MA1999999097911MD1210081+9999REMSYN066AAXX  03121 59567 32465 60216 10201 20174 39791 40169 52008 86500;EQDQ01  00002PRCP99
0163595670999992000030321004+22030+121570FM-12+032599999V0200301N007012200019N0100001N1+02021+01891101511ADDAA199000091GF102991021051004501001001MA1999999097741MD1510041+9999REMSYN066AAXX  03211 59567 32460 20307 10202 20189 39774 40151 55004 82500;EQDQ01  00002PRCP99
0163595670999992000030400004+22030+121570FM-12+032599999V0200201N005010012019N0100001N1+02121+02011101651ADDAA199000091GF107991071051001501999999MA1999999097891MD1210151+9999REMSYN066AAXX  04001 59567 32260 70205 10212 20201 39789 40165 52015 875//;EQDQ01  00002PRCP99
0163595670999992000030403004+22030+121570FM-12+032599999V0200301N005010012019N0100001N1+02311+02131101611ADDAA199000091GF107991071051001501999999MA1999999097871MD1810021+9999REMSYN066AAXX  04031 59567 32260 70305 10231 20213 39787 40161 58002 875//;EQDQ01  00002PRCP99
0163595670999992000030406004+22030+121570FM-12+032599999V0200801N008010012019N0100001N1+02271+02131101321ADDAA199000091GF108991081051001501999999MA1999999097591MD1810281+9999REMSYN066AAXX  04061 59567 32260 80808 10227 20213 39759 40132 58028 885//;EQDQ01  00002PRCP99
0163595670999992000030409004+22030+121570FM-12+032599999V0201101N005010012019N0100001N1+02191+02071101291ADDAA199000091GF108991081051001501999999MA1999999097551MD1510041+9999REMSYN066AAXX  04091 59567 32260 81105 10219 20207 39755 40129 55004 885//;EQDQ01  00002PRCP99
0163595670999992000030412004+22030+121570FM-12+032599999V0200101N006010012019N0100001N1+02211+02161101381ADDAA199000091GF108991081051001501999999MA1999999097641MD1210091+9999REMSYN066AAXX  04121 59567 32260 80106 10221 20216 39764 40138 52009 885//;EQDQ01  00002PRCP99
0178595670999992000030421004+22030+121570FM-12+032599999V0201801N003010042019N0100001N1+02211+02131101171ADDAA100000591AY161031AY221031GF108991081051004501999999MA1999999097441MD1510091+9999MW1021REMSYN078AAXX  04211 59567 11460 81803 10221 20213 39744 40117 55009 6995/ 70262 885//;
0178595670999992000030500004+22030+121570FM-12+032599999V0201901N003010012019N0100001N1+02231+02181101261ADDAA112002091AY161061AY221061GF108991081051001501999999MA1999999097531MD1210091+9999MW1211REMSYN078AAXX  05001 59567 11260 81903 10223 20218 39753 40126 52009 60022 72162 885//;
0178595670999992000030503004+22030+121570FM-12+032599999V0200101N004010012019N0030001N1+02141+02141101201ADDAA100030091AY161031AY221031GF108991081071001501999999MA1999999097461MD1810071+9999MW1641REMSYN078AAXX  05031 59567 11230 80104 10214 20214 39746 40120 58007 6030/ 76462 887//;
0178595670999992000030506004+22030+121570FM-12+032599999V0203501N002010012019N0050001N1+02181+02181100951ADDAA106074991AY161061AY221061GF108991081071001501999999MA1999999097221MD1810241+9999MW1621REMSYN078AAXX  05061 59567 11250 83502 10218 20218 39722 40095 58024 60751 76262 887//;
0178595670999992000030509004+22030+121570FM-12+032599999V0200201N007010012019N0050001N1+02131+02131100961ADDAA100091991AY161031AY221031GF108991081071001501999999MA1999999097231MD1310011+9999MW1601REMSYN078AAXX  05091 59567 11250 80207 10213 20213 39723 40096 53001 6092/ 76062 887//;
0178595670999992000030512004+22030+121570FM-12+032599999V0200201N012010012019N0100001N1+02101+02101101051ADDAA112094091AY161061AY221061GF108991081051001501999999MA1999999097311MD1310081+9999MW1021REMSYN078AAXX  05121 59567 11260 80212 10210 20210 39731 40105 53008 60942 70262 885//;
0178595670999992000030521004+22030+121570FM-12+032599999V0203601N011010012019N0100001N1+01991+01991101021ADDAA100009991AY161031AY221031GF108991081051001501999999MA1999999097271MD1510021+9999MW1211REMSYN078AAXX  05211 59567 11260 83611 10199 20199 39727 40102 55002 6010/ 72162 885//;
0178595670999992000030600004+22030+121570FM-12+032599999V0203601N010010012019N0100001N1+01981+01981101161ADDAA112009991AY161061AY221061GF108991081051001501999999MA1999999097401MD1110131+9999MW1021REMSYN078AAXX  06001 59567 11260 83610 10198 20198 39740 40116 51013 60102 70262 885//;
0144595670999992000030603004+22030+121570FM-12+032599999V0203601N015010012019N0100001N1+02041+01911101221ADDAA199000021GF108991081051001501999999MA1999999097461MD1010061+9999REMSYN066AAXX  06031 59567 32260 83615 10204 20191 39746 40122 50006 885//;
0144595670999992000030606004+22030+121570FM-12+032599999V0203601N014010012019N0100001N1+02061+01931101021ADDAA199000021GF108991081051001501999999MA1999999097271MD1710191+9999REMSYN066AAXX  06061 59567 32260 83614 10206 20193 39727 40102 57019 885//;
0144595670999992000030609004+22030+121570FM-12+032599999V0203501N006010012019N0100001N1+02031+01901101011ADDAA199000021GF108991081051001501999999MA1999999097261MD1510011+9999REMSYN066AAXX  06091 59567 32260 83506 10203 20190 39726 40101 55001 885//;
0163595670999992000030612004+22030+121570FM-12+032599999V0203401N007010012019N0100001N1+02001+01901101211ADDAA199000091GF108991081051001501999999MA1999999097451MD1210191+9999REMSYN066AAXX  06121 59567 32260 83407 10200 20190 39745 40121 52019 885//;EQDQ01  00002PRCP99
0163595670999992000030621004+22030+121570FM-12+032599999V0203601N007010012019N0100001N1+02001+01841101291ADDAA199000091GF108991081051001501999999MA1999999097521MD1310051+9999REMSYN066AAXX  06211 59567 32260 83607 10200 20184 39752 40129 53005 885//;EQDQ01  00002PRCP99
0163595670999992000030700004+22030+121570FM-12+032599999V0203601N016010042019N0100001N1+02031+01861101381ADDAA199000091GF108991081051004501999999MA1999999097611MD1210091+9999REMSYN066AAXX  07001 59567 32460 83616 10203 20186 39761 40138 52009 885//;EQDQ01  00002PRCP99
0163595670999992000030703004+22030+121570FM-12+032599999V0200101N008010042019N0100001N1+02211+01981101361ADDAA199000091GF106991061051004501001001MA1999999097621MD1010011+9999REMSYN066AAXX  07031 59567 32460 60108 10221 20198 39762 40136 50001 86500;EQDQ01  00002PRCP99
0178595670999992000030706004+22030+121570FM-12+032599999V0200101N027010012019N0100001N1+02021+01871101191ADDAA106001091AY161061AY221061GF108991081051001501999999MA1999999097431MD1810191+9999MW1211REMSYN078AAXX  07061 59567 11260 80127 10202 20187 39743 40119 58019 60011 72162 885//;
0150595670999992000030709004+22030+121570FM-12+032599999V0203601N011010012019N0100001N1+02031+01871101211ADDAA100001091GF107991071051001501999999MA1999999097451MD1310021+9999REMSYN072AAXX  07091 59567 12260 73611 10203 20187 39745 40121 53002 6001/ 875//;
0150595670999992000030712004+22030+121570FM-12+032599999V0200101N033010042019N0100001N1+01981+01811101311ADDAA112001091GF105991051051004501001001MA1999999097541MD1210091+9999REMSYN072AAXX  07121 59567 12460 50133 10198 20181 39754 40131 52009 60012 85500;
0179595670999992000030721004+22030+121570FM-12+032599999V0200101N040020042019N0100001N1+01931+01751101321ADDAA199000091GF108991081051004501999999MA1999999097551MD1510031+9999REMSYN066AAXX  07211 59567 32460 80140 10193 20175 39755 40132 55003 885//;EQDQ01+004003WOSPD Q02  00002PRCP99
0163595670999992000030800004+22030+121570FM-12+032599999V0200101N024010042019N0100001N1+01871+01691101601ADDAA199000091GF107991071051004501999999MA1999999097811MD1210261+9999REMSYN066AAXX  08001 59567 32460 70124 10187 20169 39781 40160 52026 875//;EQDQ01  00002PRCP99
0163595670999992000030806004+22030+121570FM-12+032599999V0200101N013010021019N0100001N1+01881+01701101381ADDAA199000091GF108991081051002501999999MA1999999097601MD1610171+9999REMSYN066AAXX  08061 59567 32360 80113 10188 20170 39760 40138 56017 885//;EQDQ01  00002PRCP99
0163595670999992000030809004+22030+121570FM-12+032599999V0203101N011010021019N0100001N1+01851+01681101391ADDAA199000091GF108991081051002501999999MA1999999097601MD1510001+9999REMSYN066AAXX  08091 59567 32360 83111 10185 20168 39760 40139 55000 885//;EQDQ01  00002PRCP99
0163595670999992000030812004+22030+121570FM-12+032599999V0200101N017010021019N0100001N1+01871+01681101531ADDAA199000091GF108991081051002501999999MA1999999097741MD1210141+9999REMSYN066AAXX  08121 59567 32360 80117 10187 20168 39774 40153 52014 885//;EQDQ01  00002PRCP99
0178595670999992000030821004+22030+121570FM-12+032599999V0200201N016010012019N0100001N1+01851+01761101511ADDAA100000591AY161031AY221031GF108991081051001501999999MA1999999097721MD1310021+9999MW1021REMSYN078AAXX  08211 59567 11260 80216 10185 20176 39772 40151 53002 6995/ 70262 885//;
0178595670999992000030900004+22030+121570FM-12+032599999V0200201N031010012019N0100001N1+01941+01791101721ADDAA112000591AY161061AY221061GF108991081051001501999999MA1999999097931MD1210211+9999MW1021REMSYN078AAXX  09001 59567 11260 80231 10194 20179 39793 40172 52021 69952 70262 885//;
0163595670999992000030903004+22030+121570FM-12+032599999V0200201N007010012019N0100001N1+02011+01911101821ADDAA199000091GF108991081051001501999999MA1999999098041MD1110111+9999REMSYN066AAXX  09031 59567 32260 80207 10201 20191 39804 40182 51011 885//;EQDQ01  00002PRCP99
0178595670999992000030906004+22030+121570FM-12+032599999V0200101N015010012019N0100001N1+01871+01791101551ADDAA106007991AY161061AY221061GF108991081051001501999999MA1999999097761MD1710281+9999MW1021REMSYN078AAXX  09061 59567 11260 80115 10187 20179 39776 40155 57028 60081 70262 885//;
0178595670999992000030912004+22030+121570FM-12+032599999V0200201N013010012019N0100001N1+01951+01811101681ADDAA112008991AY161061AY221061GF108991081051001501999999MA1999999097901MD1210101+9999MW1021REMSYN078AAXX  09121 59567 11260 80213 10195 20181 39790 40168 52010 60092 70262 885//;
0178595670999992000030921004+22030+121570FM-12+032599999V0203601N004010012019N0100001N1+02001+01891101601ADDAA100000591AY161031AY221031GF108991081051001501999999MA1999999097831MD1510031+9999MW1211REMSYN078AAXX  09211 59567 11260 83604 10200 20189 39783 40160 55003 6995/ 72162 885//;
0178595670999992000031000004+22030+121570FM-12+032599999V0200101N006012200019N0100001N1+02131+02001101731ADDAA112001091AY161061AY221061GF104991041051001501001001MA1999999097971MD1110141+9999MW1011REMSYN078AAXX  10001 59567 11260 40106 10213 20200 39797 40173 51014 60012 70162 84500;
0144595670999992000031003004+22030+121570FM-12+032599999V0200601N007010042019N0100001N1+02211+02041101681ADDAA199000021GF107991071051004501999999MA1999999097931MD1810041+9999REMSYN066AAXX  10031 59567 32460 70607 10221 20204 39793 40168 58004 875//;
0144595670999992000031006004+22030+121570FM-12+032599999V0200701N008010021019N0100001N1+02231+02051101461ADDAA199000021GF108991081051002501999999MA1999999097721MD1810211+9999REMSYN066AAXX  10061 59567 32360 80708 10223 20205 39772 40146 58021 885//;
0144595670999992000031009004+22030+121570FM-12+032599999V0200701N006010012019N0100001N1+02181+02061101401ADDAA199000021GF108991081051001501999999MA1999999097661MD1510061+9999REMSYN066AAXX  10091 59567 32260 80706 10218 20206 39766 40140 55006 885//;
0178595670999992000031012004+22030+121570FM-12+032599999V0200901N006010012019N0100001N1+02171+02171101431ADDAA112000591AY161061AY221061GF108991081071001501999999MA1999999097681MD1310021+9999MW1601REMSYN078AAXX  10121 59567 11260 80906 10217 20217 39768 40143 53002 69952 76062 887//;
0150595670999992000031021004+22030+121570FM-12+032599999V0201901N014010006019N0100001N1+02301+02301101111ADDAA100003091GF108991081061000751999999MA1999999097391MD1510091+9999REMSYN072AAXX  10211 59567 12160 81914 10230 20230 39739 40111 55009 6003/ 886//;
0115595670999992000031100004+22030+121570FM-12+032599999V0202201N008019999999N0100001N1+02321+99999999999ADDGF108991999999000751999999REMSYN077AAXX  11001 59567 11160 82208 10232 2232 39745 40117 53006 60042 70262 886//;
0163595670999992000031103004+22030+121570FM-12+032599999V0202201N009010006019N0100001N1+02461+02461101071ADDAA199000091GF108991081061000751999999MA1999999097371MD1810081+9999REMSYN066AAXX  11031 59567 32160 82209 10246 20246 39737 40107 58008 886//;EQDQ01  00002PRCP99
0163595670999992000031106004+22030+121570FM-12+032599999V0202401N011010006019N0100001N1+02401+02251100831ADDAA199000091GF108991081061000751999999MA1999999097131MD1710241+9999REMSYN066AAXX  11061 59567 32160 82411 10240 20225 39713 40083 57024 886//;EQDQ01  00002PRCP99
0163595670999992000031109004+22030+121570FM-12+032599999V0202401N012010012019N0100001N1+02361+02211100771ADDAA199000091GF107991071051001501999999MA1999999097071MD1510061+9999REMSYN066AAXX  11091 59567 32260 72412 10236 20221 39707 40077 55006 875//;EQDQ01  00002PRCP99
0163595670999992000031112004+22030+121570FM-12+032599999V0202601N005010042019N0100001N1+02261+02091101031ADDAA199000091GF106991061051004501001001MA1999999097301MD1310231+9999REMSYN066AAXX  11121 59567 32460 62605 10226 20209 39730 40103 53023 86500;EQDQ01  00002PRCP99
0163595670999992000031121004+22030+121570FM-12+032599999V0200201N013010006019N0100001N1+02111+02111101051ADDAA199000091GF108991081051000751999999MA1999999097311MD1510021+9999REMSYN066AAXX  11211 59567 32160 80213 10211 20211 39731 40105 55002 885//;EQDQ01  00002PRCP99
0178595670999992000031200004+22030+121570FM-12+032599999V0200101N006010012019N0100001N1+02031+02031101231ADDAA112005191AY161061AY221061GF108991081071001501999999MA1999999097471MD1110161+9999MW1611REMSYN078AAXX  12001 59567 11260 80106 10203 20203 39747 40123 51016 60052 76162 887//;
0178595670999992000031203004+22030+121570FM-12+032599999V0200101N020010012019N0100001N1+02001+01931101241ADDAA100002091AY161031AY221031GF108991081071001501999999MA1999999097481MD1010011+9999MW1211REMSYN078AAXX  12031 59567 11260 80120 10200 20193 39748 40124 50001 6002/ 72162 887//;
0178595670999992000031206004+22030+121570FM-12+032599999V0200101N019010012019N0100001N1+01951+01831101111ADDAA106002091AY161061AY221061GF108991081071001501999999MA1999999097351MD1710131+9999MW1021REMSYN078AAXX  12061 59567 11260 80119 10195 20183 39735 40111 57013 60021 70262 887//;
0178595670999992000031209004+22030+121570FM-12+032599999V0200101N007010012019N0100001N1+01901+01831101171ADDAA100004191AY161031AY221031GF108991081071001501999999MA1999999097401MD1310051+9999MW1021REMSYN078AAXX  12091 59567 11260 80107 10190 20183 39740 40117 53005 6004/ 70262 887//;
0178595670999992000031212004+22030+121570FM-12+032599999V0200201N008010012019N0100001N1+01931+01851101341ADDAA112004191AY161061AY221061GF108991081071001501999999MA1999999097571MD1210171+9999MW1021REMSYN078AAXX  12121 59567 11260 80208 10193 20185 39757 40134 52017 60042 70262 887//;
0178595670999992000031221004+22030+121570FM-12+032599999V0203601N005010006019N0100001N1+02001+02001101361ADDAA100003091AY161031AY221031GF108991081071000751999999MA1999999097591MD1310041+9999MW1611REMSYN078AAXX  12211 59567 11160 83605 10200 20200 39759 40136 53004 6003/ 76162 887//;
0178595670999992000031300004+22030+121570FM-12+032599999V0200101N015010006019N0100001N1+01961+01961101491ADDAA112006191AY161061AY221061GF108991081071000751999999MA1999999097711MD1110121+9999MW1211REMSYN078AAXX  13001 59567 11160 80115 10196 20196 39771 40149 51012 60062 72162 887//;
0178595670999992000031303004+22030+121570FM-12+032599999V0200101N012010012019N0120001N1+02041+02041101481ADDAA100001091AY161031AY221031GF108991081051001501999999MA1999999097711MD1410001+9999MW1021REMSYN078AAXX  13031 59567 11262 80112 10204 20204 39771 40148 54000 6001/ 70262 885//;
0178595670999992000031306004+22030+121570FM-12+032599999V0200101N005010012019N0150001N1+02161+02021101291ADDAA106001091AY161061AY221061GF108991081051001501999999MA1999999097551MD1710161+9999MW1021REMSYN078AAXX  13061 59567 11265 80105 10216 20202 39755 40129 57016 60011 70262 885//;
0150595670999992000031309004+22030+121570FM-12+032599999V0200201N006010012019N0150001N1+02111+01961101321ADDAA100001091GF107991071051001501999999MA1999999097571MD1310021+9999REMSYN072AAXX  13091 59567 12265 70206 10211 20196 39757 40132 53002 6001/ 875//;
0150595670999992000031312004+22030+121570FM-12+032599999V0200101N022010012019N0100001N1+02021+01931101441ADDAA112001091GF108991081051001501999999MA1999999097671MD1210101+9999REMSYN072AAXX  13121 59567 12260 80122 10202 20193 39767 40144 52010 60012 885//;
0150595670999992000031321004+22030+121570FM-12+032599999V0203601N008010360019N0120001N1+02001+01871101411ADDAA100000591GF105991031021004501031001MA1999999097641MD1510011+9999REMSYN072AAXX  13211 59567 12462 53608 10200 20187 39764 40141 55001 6995/ 83230;
0150595670999992000031400004+22030+121570FM-12+032599999V0203601N013010012019N0120001N1+02071+01981101601ADDAA112000591GF107991071051001501999999MA1999999097831MD1110191+9999REMSYN072AAXX  14001 59567 12262 73613 10207 20198 39783 40160 51019 69952 875//;
0163595670999992000031403004+22030+121570FM-12+032599999V0200101N007010012019N0120001N1+02251+02081101521ADDAA199000091GF106991061051001501001001MA1999999097781MD1810051+9999REMSYN066AAXX  14031 59567 32262 60107 10225 20208 39778 40152 58005 86500;EQDQ01  00002PRCP99
0163595670999992000031406004+22030+121570FM-12+032599999V0203601N012010012019N0120001N1+02361+02151101291ADDAA199000091GF105991051051001501001001MA1999999097571MD1710211+9999REMSYN066AAXX  14061 59567 32262 53612 10236 20215 39757 40129 57021 85500;EQDQ01  00002PRCP99
0163595670999992000031409004+22030+121570FM-12+032599999V0203601N005012200019N0120001N1+02241+02041101311ADDAA199000091GF102991021011002501001001MA1999999097581MD1310011+9999REMSYN066AAXX  14091 59567 32362 23605 10224 20204 39758 40131 53001 82100;EQDQ01  00002PRCP99
0163595670999992000031412004+22030+121570FM-12+032599999V0200201N013010012019N0120001N1+02121+01981101441ADDAA199000091GF106991061051001501001001MA1999999097691MD1310111+9999REMSYN066AAXX  14121 59567 32262 60213 10212 20198 39769 40144 53011 86500;EQDQ01  00002PRCP99
0163595670999992000031421004+22030+121570FM-12+032599999V0200501N004010012019N0100001N1+02101+02001101351ADDAA199000091GF108991081051001501999999MA1999999097601MD1310031+9999REMSYN066AAXX  14211 59567 32260 80504 10210 20200 39760 40135 53003 885//;EQDQ01  00002PRCP99
0163595670999992000031500004+22030+121570FM-12+032599999V0200801N007012200019N0120001N1+02231+02101101461ADDAA199000091GF102991021021001501001001MA1999999097721MD1110121+9999REMSYN066AAXX  15001 59567 32262 20807 10223 20210 39772 40146 51012 82200;EQDQ01  00002PRCP99
0163595670999992000031503004+22030+121570FM-12+032599999V0202001N003012200019N0120001N1+02491+02271101331ADDAA199000091GF104991041041001501001001MA1999999097631MD1810091+9999REMSYN066AAXX  15031 59567 32262 42003 10249 20227 39763 40133 58009 84400;EQDQ01  00002PRCP99
0163595670999992000031506004+22030+121570FM-12+032599999V0202301N011010012019N0120001N1+02501+02271101001ADDAA199000091GF106991061041001501001001MA1999999097311MD1810321+9999REMSYN066AAXX  15061 59567 32262 62311 10250 20227 39731 40100 58032 86400;EQDQ01  00002PRCP99
0163595670999992000031509004+22030+121570FM-12+032599999V0202201N018010012019N0120001N1+02281+02131100891ADDAA199000091GF106991061041001501001001MA1999999097181MD1610131+9999REMSYN066AAXX  15091 59567 32262 62218 10228 20213 39718 40089 56013 86400;EQDQ01  00002PRCP99
0163595670999992000031512004+22030+121570FM-12+032599999V0202201N023010042019N0100001N1+02241+02151100941ADDAA199000091GF108991081041004501999999MA1999999097221MD1310041+9999REMSYN066AAXX  15121 59567 32460 82223 10224 20215 39722 40094 53004 884//;EQDQ01  00002PRCP99
0163595670999992000031521004+22030+121570FM-12+032599999V0202501N014012200019N0100001N1+02191+02031100851ADDAA199000091GF102991011011008001031001MA1999999097131MD1510071+9999REMSYN066AAXX  15211 59567 32560 22514 10219 20203 39713 40085 55007 81130;EQDQ01  00002PRCP99
0163595670999992000031600004+22030+121570FM-12+032599999V0202501N035012200019N0100001N1+02261+02031100821ADDAA199000091GF102991011011008001001011MA1999999097111MD1810021+9999REMSYN066AAXX  16001 59567 32560 22535 10226 20203 39711 40082 58002 81101;EQDQ01  00002PRCP99
0163595670999992000031603004+22030+121570FM-12+032599999V0202401N014012200019N0100001N1+02381+02041100901ADDAA199000091GF101991011011008001001001MA1999999097201MD1010091+9999REMSYN066AAXX  16031 59567 32560 12414 10238 20204 39720 40090 50009 81100;EQDQ01  00002PRCP99
0163595670999992000031606004+22030+121570FM-12+032599999V0200101N035010012019N0100001N1+02261+02101100681ADDAA199000091GF108991081061001501999999MA1999999096971MD1810231+9999REMSYN066AAXX  16061 59567 32260 80135 10226 20210 39697 40068 58023 886//;EQDQ01  00002PRCP99
0163595670999992000031609004+22030+121570FM-12+032599999V0203601N016010021019N0100001N1+01971+01771101001ADDAA199000091GF108991081061002501999999MA1999999097241MD1310271+9999REMSYN066AAXX  16091 59567 32360 83616 10197 20177 39724 40100 53027 886//;EQDQ01  00002PRCP99
0163595670999992000031612004+22030+121570FM-12+032599999V0203601N016010021019N0100001N1+01851+01711101321ADDAA199000091GF108991081061002501999999MA1999999097541MD1210301+9999REMSYN066AAXX  16121 59567 32360 83616 10185 20171 39754 40132 52030 886//;EQDQ01  00002PRCP99
0178595670999992000031621004+22030+121570FM-12+032599999V0203601N009010012019N0100001N1+01721+01461101401ADDAA100000591AY161031AY221031GF108991081051001501999999MA1999999097601MD1010041+9999MW1021REMSYN078AAXX  16211 59567 11260 83609 10172 20146 39760 40140 50004 6995/ 70262 885//;
0178595670999992000031700004+22030+121570FM-12+032599999V0203601N011010042019N0100001N1+01741+01441101611ADDAA112000591AY161061AY221061GF108991081051004501999999MA1999999097801MD1210201+9999MW1021REMSYN078AAXX  17001 59567 11460 83611 10174 20144 39780 40161 52020 69952 70262 885//;
0163595670999992000031703004+22030+121570FM-12+032599999V0200101N006010042019N0120001N1+01871+01531101551ADDAA199000091GF108991081051004501999999MA1999999097761MD1810041+9999REMSYN066AAXX  17031 59567 32462 80106 10187 20153 39776 40155 58004 885//;EQDQ01  00002PRCP99
0163595670999992000031706004+22030+121570FM-12+032599999V0203601N009010042019N0100001N1+01761+01551101371ADDAA199000091GF108991081051004501999999MA1999999097571MD1710191+9999REMSYN066AAXX  17061 59567 32460 83609 10176 20155 39757 40137 57019 885//;EQDQ01  00002PRCP99
0163595670999992000031709004+22030+121570FM-12+032599999V0200201N007010042019N0100001N1+01801+01531101371ADDAA199000091GF108991081051004501999999MA1999999097581MD1310011+9999REMSYN066AAXX  17091 59567 32460 80207 10180 20153 39758 40137 53001 885//;EQDQ01  00002PRCP99
0163595670999992000031712004+22030+121570FM-12+032599999V0200201N013010021019N0100001N1+01791+01591101491ADDAA199000091GF108991081051002501999999MA1999999097691MD1110111+9999REMSYN066AAXX  17121 59567 32360 80213 10179 20159 39769 40149 51011 885//;EQDQ01  00002PRCP99
0163595670999992000031721004+22030+121570FM-12+032599999V0200301N007010042019N0100001N1+01891+01661101331ADDAA199000091GF108991081051004501999999MA1999999097551MD1510111+9999REMSYN066AAXX  17211 59567 32460 80307 10189 20166 39755 40133 55011 885//;EQDQ01  00002PRCP99
0163595670999992000031800004+22030+121570FM-12+032599999V0200601N011010360019N0120001N1+01991+01641101461ADDAA199000091GF107991021011004501011999MA1999999097691MD1110141+9999REMSYN066AAXX  18001 59567 32462 70611 10199 20164 39769 40146 51014 8211/;EQDQ01  00002PRCP99
0163595670999992000031803004+22030+121570FM-12+032599999V0200501N006010075019N0100001N1+02161+01791101401ADDAA199000091GF107991071051008001999999MA1999999097651MD1810041+9999REMSYN066AAXX  18031 59567 32560 70506 10216 20179 39765 40140 58004 875//;EQDQ01  00002PRCP99
0163595670999992000031809004+22030+121570FM-12+032599999V0200501N005010075019N0100001N1+02061+01751101141ADDAA199000091GF105991051051008001001001MA1999999097391MD1410001+9999REMSYN066AAXX  18091 59567 32560 50505 10206 20175 39739 40114 54000 85500;EQDQ01  00002PRCP99
0163595670999992000031812004+22030+121570FM-12+032599999V0200501N005010075019N0100001N1+02051+01771101261ADDAA199000091GF108991081051008001999999MA1999999097501MD1310111+9999REMSYN066AAXX  18121 59567 32560 80505 10205 20177 39750 40126 53011 885//;EQDQ01  00002PRCP99
0163595670999992000031821004+22030+121570FM-12+032599999V0200701N006010042019N0100001N1+02051+01821101151ADDAA199000091GF107991071051004501999999MA1999999097401MD1510031+9999REMSYN066AAXX  18211 59567 32460 70706 10205 20182 39740 40115 55003 875//;EQDQ01  00002PRCP99
0163595670999992000031900004+22030+121570FM-12+032599999V0200401N006010042019N0120001N1+02151+01921101251ADDAA199000091GF107991071051004501999999MA1999999097511MD1210111+9999REMSYN066AAXX  19001 59567 32462 70406 10215 20192 39751 40125 52011 875//;EQDQ01  00002PRCP99
0163595670999992000031903004+22030+121570FM-12+032599999V0200101N004012200019N0120001N1+02421+02121101181ADDAA199000091GF103991031021004501001001MA1999999097471MD1810041+9999REMSYN066AAXX  19031 59567 32462 30104 10242 20212 39747 40118 58004 83200;EQDQ01  00002PRCP99
0163595670999992000031906004+22030+121570FM-12+032599999V0203501N005010042019N0120001N1+02311+02001101051ADDAA199000091GF108991081051004501999999MA1999999097331MD1810141+9999REMSYN066AAXX  19061 59567 32462 83505 10231 20200 39733 40105 58014 885//;EQDQ01  00002PRCP99
0163595670999992000031909004+22030+121570FM-12+032599999V0200101N008010012019N0100001N1+02011+01861101121ADDAA199000091GF108991081051001501999999MA1999999097361MD1310031+9999REMSYN066AAXX  19091 59567 32260 80108 10201 20186 39736 40112 53003 885//;EQDQ01  00002PRCP99
0163595670999992000031912004+22030+121570FM-12+032599999V0203501N006010012019N0100001N1+01991+01781101291ADDAA199000091GF108991081051001501999999MA1999999097531MD1210171+9999REMSYN066AAXX  19121 59567 32260 83506 10199 20178 39753 40129 52017 885//;EQDQ01  00002PRCP99
0163595670999992000031921004+22030+121570FM-12+032599999V0200101N006010042019N0100001N1+01901+01581101451ADDAA199000091GF108991081051004501999999MA1999999097671MD1510021+9999REMSYN066AAXX  19211 59567 32460 80106 10190 20158 39767 40145 55002 885//;EQDQ01  00002PRCP99
0163595670999992000032000004+22030+121570FM-12+032599999V0200101N014010075019N0100001N1+01901+01561101631ADDAA199000091GF108991081051008001999999MA1999999097841MD1210171+9999REMSYN066AAXX  20001 59567 32560 80114 10190 20156 39784 40163 52017 885//;EQDQ01  00002PRCP99
0163595670999992000032003004+22030+121570FM-12+032599999V0200101N006010075019N0120001N1+01921+01521101631ADDAA199000091GF108991081051008001999999MA1999999097841MD1410001+9999REMSYN066AAXX  20031 59567 32562 80106 10192 20152 39784 40163 54000 885//;EQDQ01  00002PRCP99
0163595670999992000032006004+22030+121570FM-12+032599999V0200201N008010075019N0100001N1+02171+01681101401ADDAA199000091GF106991061051008001001001MA1999999097651MD1710191+9999REMSYN066AAXX  20061 59567 32560 60208 10217 20168 39765 40140 57019 86500;EQDQ01  00002PRCP99
0163595670999992000032009004+22030+121570FM-12+032599999V0200101N007010075019N0100001N1+01901+01491101411ADDAA199000091GF107991071051008001999999MA1999999097631MD1510021+9999REMSYN066AAXX  20091 59567 32560 70107 10190 20149 39763 40141 55002 875//;EQDQ01  00002PRCP99
0163595670999992000032021004+22030+121570FM-12+032599999V0200301N004012200019N0100001N1+01801+01341101551ADDAA199000091GF101991011011008001001001MA1999999097751MD1510021+9999REMSYN066AAXX  20211 59567 32560 10304 10180 20134 39775 40155 55002 81100;EQDQ01  00002PRCP99
0163595670999992000032100004+22030+121570FM-12+032599999V0203601N004010075019N0120001N1+01891+01531101691ADDAA199000091GF107991071051008001999999MA1999999097901MD1210151+9999REMSYN066AAXX  21001 59567 32562 73604 10189 20153 39790 40169 52015 875//;EQDQ01  00002PRCP99
0163595670999992000032103004+22030+121570FM-12+032599999V0200301N005012200019N0120001N1+02251+01651101591ADDAA199000091GF103991031021008001001001MA1999999097851MD1810051+9999REMSYN066AAXX  21031 59567 32562 30305 10225 20165 39785 40159 58005 83200;EQDQ01  00002PRCP99
0163595670999992000032106004+22030+121570FM-12+032599999V0200601N004012200019N0150001N1+02211+01631101311ADDAA199000091GF102991011011008001001011MA1999999097571MD1710281+9999REMSYN066AAXX  21061 59567 32565 20604 10221 20163 39757 40131 57028 81101;EQDQ01  00002PRCP99
0163595670999992000032109004+22030+121570FM-12+032599999V0200201N003012200019N0150001N1+02111+01621101311ADDAA199000091GF103991021011008001031001MA1999999097561MD1510011+9999REMSYN066AAXX  21091 59567 32565 30203 10211 20162 39756 40131 55001 82130;EQDQ01  00002PRCP99
0163595670999992000032112004+22030+121570FM-12+032599999V0200301N008010075019N0120001N1+01981+01611101471ADDAA199000091GF105991051051008001001001MA1999999097701MD1210141+9999REMSYN066AAXX  21121 59567 32562 50308 10198 20161 39770 40147 52014 85500;EQDQ01  00002PRCP99
0163595670999992000032121004+22030+121570FM-12+032599999V0200401N003010042019N0100001N1+01951+01591101451ADDAA199000091GF106991061051004501001001MA1999999097671MD1310011+9999REMSYN066AAXX  21211 59567 32460 60403 10195 20159 39767 40145 53001 86500;EQDQ01  00002PRCP99
0163595670999992000032200004+22030+121570FM-12+032599999V0200201N007012200019N0100001N1+02161+01791101581ADDAA199000091GF102991021011004501001001MA1999999097831MD1210161+9999REMSYN066AAXX  22001 59567 32460 20207 10216 20179 39783 40158 52016 82100;EQDQ01  00002PRCP99
0163595670999992000032203004+22030+121570FM-12+032599999V0200501N005012200019N0100001N1+02341+01871101561ADDAA199000091GF102991021011008001001001MA1999999097831MD1410001+9999REMSYN066AAXX  22031 59567 32560 20505 10234 20187 39783 40156 54000 82100;EQDQ01  00002PRCP99
0163595670999992000032206004+22030+121570FM-12+032599999V0200401N008012200019N0100001N1+02331+01861101321ADDAA199000091GF101991011011008001001001MA1999999097601MD1710231+9999REMSYN066AAXX  22061 59567 32560 10408 10233 20186 39760 40132 57023 81100;EQDQ01  00002PRCP99
0163595670999992000032209004+22030+121570FM-12+032599999V0200501N005012200019N0100001N1+02121+01761101401ADDAA199000091GF103991031011008001001001MA1999999097651MD1310051+9999REMSYN066AAXX  22091 59567 32560 30505 10212 20176 39765 40140 53005 83100;EQDQ01  00002PRCP99
0163595670999992000032212004+22030+121570FM-12+032599999V0200401N008010075019N0100001N1+02101+01751101581ADDAA199000091GF106991061041008001001001MA1999999097821MD1210171+9999REMSYN066AAXX  22121 59567 32560 60408 10210 20175 39782 40158 52017 86400;EQDQ01  00002PRCP99
0163595670999992000032221004+22030+121570FM-12+032599999V0200701N014010042019N0100001N1+02061+01731101491ADDAA199000091GF107991071041004501999999MA1999999097731MD1310021+9999REMSYN066AAXX  22211 59567 32460 70714 10206 20173 39773 40149 53002 874//;EQDQ01  00002PRCP99
0163595670999992000032300004+22030+121570FM-12+032599999V0200601N014010360019N0120001N1+02141+01801101651ADDAA199000091GF106991031021004501031001MA1999999097891MD1110161+9999REMSYN066AAXX  23001 59567 32462 60614 10214 20180 39789 40165 51016 83230;EQDQ01  00002PRCP99
0163595670999992000032303004+22030+121570FM-12+032599999V0200701N007012200019N0150001N1+02341+01871101611ADDAA199000091GF103991031021008001001001MA1999999097881MD1810011+9999REMSYN066AAXX  23031 59567 32565 30707 10234 20187 39788 40161 58001 83200;EQDQ01  00002PRCP99
0163595670999992000032306004+22030+121570FM-12+032599999V0200901N008012200019N0120001N1+02361+01971101381ADDAA199000091GF102991021011008001001001MA1999999097661MD1810221+9999REMSYN066AAXX  23061 59567 32562 20908 10236 20197 39766 40138 58022 82100;EQDQ01  00002PRCP99
0163595670999992000032309004+22030+121570FM-12+032599999V0200801N003012200019N0120001N1+02141+01821101411ADDAA199000091GF102991021001999999011001MA1999999097661MD1410001+9999REMSYN066AAXX  23091 59567 32962 20803 10214 20182 39766 40141 54000 82010;EQDQ01  00002PRCP99
0163595670999992000032312004+22030+121570FM-12+032599999V0200501N009010075019N0120001N1+02131+01811101601ADDAA199000091GF107991071051008001999999MA1999999097841MD1110181+9999REMSYN066AAXX  23121 59567 32562 70509 10213 20181 39784 40160 51018 875//;EQDQ01  00002PRCP99
0178595670999992000032321004+22030+121570FM-12+032599999V0200201N020010012019N0100001N1+01971+01841101611ADDAA100004191AY161031AY221031GF108991081071001501999999MA1999999097831MD1310061+9999MW1601REMSYN078AAXX  23211 59567 11260 80220 10197 20184 39783 40161 53006 6004/ 76062 887//;
0178595670999992000032400004+22030+121570FM-12+032599999V0200101N016010012019N0100001N1+01861+01711101791ADDAA112005191AY161061AY221061GF108991081071001501999999MA1999999097991MD1210161+9999MW1021REMSYN078AAXX  24001 59567 11260 80116 10186 20171 39799 40179 52016 60052 70262 887//;
0178595670999992000032403004+22030+121570FM-12+032599999V0200101N009010042019N0100001N1+01871+01621101991ADDAA100000591AY161031AY221031GF108991081051004501999999MA1999999098181MD1110191+9999MW1211REMSYN078AAXX  24031 59567 11460 80109 10187 20162 39818 40199 51019 6995/ 72162 885//;
0178595670999992000032406004+22030+121570FM-12+032599999V0200101N013010075019N0100001N1+02051+01751101731ADDAA106000591AY161061AY221061GF106991061051008001001001MA1999999097961MD1810221+9999MW1011REMSYN078AAXX  24061 59567 11560 60113 10205 20175 39796 40173 58022 69951 70162 86500;
0150595670999992000032409004+22030+121570FM-12+032599999V0200101N007010075019N0100001N1+01801+01541101711ADDAA100000591GF108991081051008001999999MA1999999097911MD1510051+9999REMSYN072AAXX  24091 59567 12560 80107 10180 20154 39791 40171 55005 6995/ 885//;
0150595670999992000032412004+22030+121570FM-12+032599999V0200101N008010075019N0100001N1+01791+01471101941ADDAA112000591GF108991081051008001999999MA1999999098131MD1110221+9999REMSYN072AAXX  24121 59567 12560 80108 10179 20147 39813 40194 51022 69952 885//;
0150595670999992000032421004+22030+121570FM-12+032599999V0200101N007010075019N0100001N1+01781+01431102071ADDAA100000791GF108991081051008001999999MA1999999098251MD1310061+9999REMSYN072AAXX  24211 59567 12560 80107 10178 20143 39825 40207 53006 6990/ 885//;
0163595670999992000032500004+22030+121570FM-12+032599999V0200201N012010042019N0120001N1+01811+01391102241ADDAA199000091GF108991081051004501999999MA1999999098411MD1110161+9999REMSYN066AAXX  25001 59567 32462 80212 10181 20139 39841 40224 51016 885//;EQDQ01  00002PRCP99
0163595670999992000032503004+22030+121570FM-12+032599999V0200201N005010042019N0120001N1+01891+01421102121ADDAA199000091GF108991081051004501999999MA1999999098311MD1710101+9999REMSYN066AAXX  25031 59567 32462 80205 10189 20142 39831 40212 57010 885//;EQDQ01  00002PRCP99
0163595670999992000032506004+22030+121570FM-12+032599999V0200201N011010042019N0100001N1+01891+01411101851ADDAA199000091GF108991081051004501999999MA1999999098051MD1810261+9999REMSYN066AAXX  25061 59567 32460 80211 10189 20141 39805 40185 58026 885//;EQDQ01  00002PRCP99
0163595670999992000032509004+22030+121570FM-12+032599999V0200201N005010042019N0100001N1+01841+01401101831ADDAA199000091GF108991081051004501999999MA1999999098031MD1510021+9999REMSYN066AAXX  25091 59567 32460 80205 10184 20140 39803 40183 55002 885//;EQDQ01  00002PRCP99
0163595670999992000032512004+22030+121570FM-12+032599999V0200401N010010042019N0100001N1+01861+01421102011ADDAA199000091GF108991081051004501999999MA1999999098201MD1210171+9999REMSYN066AAXX  25121 59567 32460 80410 10186 20142 39820 40201 52017 885//;EQDQ01  00002PRCP99
0163595670999992000032521004+22030+121570FM-12+032599999V0200401N005010042019N0100001N1+01821+01481101971ADDAA199000091GF108991081051004501999999MA1999999098161MD1510021+9999REMSYN066AAXX  25211 59567 32460 80405 10182 20148 39816 40197 55002 885//;EQDQ01  00002PRCP99
0163595670999992000032600004+22030+121570FM-12+032599999V0200501N008010075019N0100001N1+01901+01481102051ADDAA199000091GF108991081051008001999999MA1999999098251MD1310091+9999REMSYN066AAXX  26001 59567 32560 80508 10190 20148 39825 40205 53009 885//;EQDQ01  00002PRCP99
0163595670999992000032601004+22030+121570FM-12+032599999V0200501N008010075019N0100001N1+01901+01481102051ADDAA199000091GF108991081051008001999999MA1999999098251MD1310091+9999REMSYN066AAXX  26011 59567 32560 80508 10190 20148 39825 40205 53009 885//;EQDQ01  00002PRCP99
0163595670999992000032603004+22030+121570FM-12+032599999V0200501N004010075019N0120001N1+01941+01481102021ADDAA199000091GF108991081051008001999999MA1999999098221MD1810031+9999REMSYN066AAXX  26031 59567 32562 80504 10194 20148 39822 40202 58003 885//;EQDQ01  00002PRCP99
0163595670999992000032606004+22030+121570FM-12+032599999V0200601N006010075019N0120001N1+01951+01551101721ADDAA199000091GF108991081051008001999999MA1999999097931MD1710291+9999REMSYN066AAXX  26061 59567 32562 80606 10195 20155 39793 40172 57029 885//;EQDQ01  00002PRCP99
0163595670999992000032609004+22030+121570FM-12+032599999V0200301N003010075019N0120001N1+01871+01561101721ADDAA199000091GF108991081051008001999999MA1999999097921MD1510011+9999REMSYN066AAXX  26091 59567 32562 80303 10187 20156 39792 40172 55001 885//;EQDQ01  00002PRCP99
0163595670999992000032612004+22030+121570FM-12+032599999V0200701N005010075019N0120001N1+01951+01521101801ADDAA199000091GF108991081051008001999999MA1999999098011MD1310091+9999REMSYN066AAXX  26121 59567 32562 80705 10195 20152 39801 40180 53009 885//;EQDQ01  00002PRCP99
0178595670999992000032621004+22030+121570FM-12+032599999V0200801N005010075019N0100001N1+01781+01601101601ADDAA100001091AY161031AY221031GF108991081051008001999999MA1999999097801MD1510051+9999MW1021REMSYN078AAXX  26211 59567 11560 80805 10178 20160 39780 40160 55005 6001/ 70262 885//;
0178595670999992000032700004+22030+121570FM-12+032599999V0201601N006012200019N0100001N1+02121+01831101671ADDAA112001091AY161061AY221061GF102991011011008001031001MA1999999097911MD1210111+9999MW1011REMSYN078AAXX  27001 59567 11560 21606 10212 20183 39791 40167 52011 60012 70162 81130;
0163595670999992000032703004+22030+121570FM-12+032599999V0201901N006010075019N0120001N1+02341+01941101601ADDAA199000091GF106991061051008001001001MA1999999097861MD1810051+9999REMSYN066AAXX  27031 59567 32562 61906 10234 20194 39786 40160 58005 86500;EQDQ01  00002PRCP99
0163595670999992000032706004+22030+121570FM-12+032599999V0202101N012010075019N0120001N1+02351+01911101321ADDAA199000091GF106991061051008001001001MA1999999097601MD1710261+9999REMSYN066AAXX  27061 59567 32562 62112 10235 20191 39760 40132 57026 86500;EQDQ01  00002PRCP99
0163595670999992000032709004+22030+121570FM-12+032599999V0202301N008012200019N0120001N1+02161+01781101281ADDAA199000091GF102991021011004501001001MA1999999097541MD1510061+9999REMSYN066AAXX  27091 59567 32462 22308 10216 20178 39754 40128 55006 82100;EQDQ01  00002PRCP99
0163595670999992000032712004+22030+121570FM-12+032599999V0202201N013010042019N0120001N1+02141+01811101451ADDAA199000091GF107991071051004501999999MA1999999097701MD1310161+9999REMSYN066AAXX  27121 59567 32462 72213 10214 20181 39770 40145 53016 875//;EQDQ01  00002PRCP99
0163595670999992000032721004+22030+121570FM-12+032599999V0202601N020012200019N0120001N1+02121+01721101231ADDAA199000091GF101991011011008001001001MA1999999097481MD1510031+9999REMSYN066AAXX  27211 59567 32562 12620 10212 20172 39748 40123 55003 81100;EQDQ01  00002PRCP99
0163595670999992000032800004+22030+121570FM-12+032599999V0202601N019012200019N0120001N1+02241+01731101391ADDAA199000091GF101991001001999999001011MA1999999097651MD1210171+9999REMSYN066AAXX  28001 59567 32962 12619 10224 20173 39765 40139 52017 80001;EQDQ01  00002PRCP99
0163595670999992000032803004+22030+121570FM-12+032599999V0202601N008012200019N0120001N1+02371+01791101341ADDAA199000091GF101991001001999999001011MA1999999097621MD1810031+9999REMSYN066AAXX  28031 59567 32962 12608 10237 20179 39762 40134 58003 80001;EQDQ01  00002PRCP99
0163595670999992000032806004+22030+121570FM-12+032599999V0202501N010012200019N0100001N1+02501+01991101191ADDAA199000091GF101991011011008001001001MA1999999097491MD1710131+9999REMSYN066AAXX  28061 59567 32560 12510 10250 20199 39749 40119 57013 81100;EQDQ01  00002PRCP99
0163595670999992000032809004+22030+121570FM-12+032599999V0200701N003012200019N0120001N1+02281+01871101281ADDAA199000091GF102991021011008001001001MA1999999097551MD1310061+9999REMSYN066AAXX  28091 59567 32562 20703 10228 20187 39755 40128 53006 82100;EQDQ01  00002PRCP99
0163595670999992000032812004+22030+121570FM-12+032599999V0200701N007012200019N0120001N1+02181+01781101511ADDAA199000091GF102991021011008001001001MA1999999097761MD1210211+9999REMSYN066AAXX  28121 59567 32562 20707 10218 20178 39776 40151 52021 82100;EQDQ01  00002PRCP99
0163595670999992000032821004+22030+121570FM-12+032599999V0200101N007010042019N0120001N1+02211+01941101611ADDAA199000091GF108991081051004501999999MA1999999097861MD1310071+9999REMSYN066AAXX  28211 59567 32462 80107 10221 20194 39786 40161 53007 885//;EQDQ01  00002PRCP99
0163595670999992000032900004+22030+121570FM-12+032599999V0200101N008010042019N0100001N1+02241+01961101851ADDAA199000091GF107991071051004501999999MA1999999098101MD1110241+9999REMSYN066AAXX  29001 59567 32460 70108 10224 20196 39810 40185 51024 875//;EQDQ01  00002PRCP99
0163595670999992000032903004+22030+121570FM-12+032599999V0200101N010010042019N0100001N1+02151+01851101941ADDAA199000091GF107991071051004501999999MA1999999098171MD1010071+9999REMSYN066AAXX  29031 59567 32460 70110 10215 20185 39817 40194 50007 875//;EQDQ01  00002PRCP99
0163595670999992000032906004+22030+121570FM-12+032599999V0200201N020010042019N0100001N1+02061+01731101771ADDAA199000091GF107991071051004501999999MA1999999098001MD1810171+9999REMSYN066AAXX  29061 59567 32460 70220 10206 20173 39800 40177 58017 875//;EQDQ01  00002PRCP99
0163595670999992000032909004+22030+121570FM-12+032599999V0200301N008010042019N0100001N1+02001+01631101791ADDAA199000091GF107991071051004501999999MA1999999098011MD1310011+9999REMSYN066AAXX  29091 59567 32460 70308 10200 20163 39801 40179 53001 875//;EQDQ01  00002PRCP99
0163595670999992000032912004+22030+121570FM-12+032599999V0200401N006010042019N0100001N1+01961+01571101891ADDAA199000091GF108991081051004501999999MA1999999098101MD1210091+9999REMSYN066AAXX  29121 59567 32460 80406 10196 20157 39810 40189 52009 885//;EQDQ01  00002PRCP99
0163595670999992000032921004+22030+121570FM-12+032599999V0200501N007010042019N0100001N1+01911+01521101691ADDAA199000091GF105991051051004501001001MA1999999097901MD1510021+9999REMSYN066AAXX  29211 59567 32460 50507 10191 20152 39790 40169 55002 85500;EQDQ01  00002PRCP99
0163595670999992000033000004+22030+121570FM-12+032599999V0200601N014010075019N0100001N1+01961+01581101851ADDAA199000091GF107991071051008001999999MA1999999098061MD1310161+9999REMSYN066AAXX  30001 59567 32560 70614 10196 20158 39806 40185 53016 875//;EQDQ01  00002PRCP99
0163595670999992000033003004+22030+121570FM-12+032599999V0200701N007010042019N0100001N1+02041+01641101761ADDAA199000091GF107991071051004501999999MA1999999097981MD1810081+9999REMSYN066AAXX  30031 59567 32460 70707 10204 20164 39798 40176 58008 875//;EQDQ01  00002PRCP99
0163595670999992000033006004+22030+121570FM-12+032599999V0200501N012012200019N0100001N1+02121+01681101451ADDAA199000091GF105991021011008001001081MA1999999097701MD1810281+9999REMSYN066AAXX  30061 59567 32560 50512 10212 20168 39770 40145 58028 82108;EQDQ01  00002PRCP99
0163595670999992000033009004+22030+121570FM-12+032599999V0200501N011010075019N0100001N1+02011+01631101391ADDAA199000091GF107991051051008001071999MA1999999097621MD1510081+9999REMSYN066AAXX  30091 59567 32560 70511 10201 20163 39762 40139 55008 8557/;EQDQ01  00002PRCP99
0163595670999992000033012004+22030+121570FM-12+032599999V0200601N011010042019N0100001N1+01991+01631101481ADDAA199000091GF108991081051004501999999MA1999999097711MD1210091+9999REMSYN066AAXX  30121 59567 32460 80611 10199 20163 39771 40148 52009 885//;EQDQ01  00002PRCP99
0163595670999992000033021004+22030+121570FM-12+032599999V0200801N005010042019N0100001N1+02051+01781101201ADDAA199000091GF108991081051004501999999MA1999999097451MD1510061+9999REMSYN066AAXX  30211 59567 32460 80805 10205 20178 39745 40120 55006 885//;EQDQ01  00002PRCP99
0163595670999992000033100004+22030+121570FM-12+032599999V0200901N009010021019N0100001N1+02121+01901101321ADDAA199000091GF108991081051002501999999MA1999999097571MD1310121+9999REMSYN066AAXX  31001 59567 32360 80909 10212 20190 39757 40132 53012 885//;EQDQ01  00002PRCP99
0163595670999992000033103004+22030+121570FM-12+032599999V0201201N004010012019N0100001N1+02181+01971101301ADDAA199000091GF108991081051001501999999MA1999999097561MD1510011+9999REMSYN066AAXX  31031 59567 32260 81204 10218 20197 39756 40130 55001 885//;EQDQ01  00002PRCP99
0178595670999992000033106004+22030+121570FM-12+032599999V0201801N005010006019N0100001N1+02221+02061101061ADDAA106003091AY161061AY221061GF108991081051000751999999MA1999999097331MD1710231+9999MW1211REMSYN078AAXX  31061 59567 11160 81805 10222 20206 39733 40106 57023 60031 72162 885//;
0178595670999992000033109004+22030+121570FM-12+032599999V0201501N005010006019N0100001N1+02251+02101100971ADDAA100007191AY161031AY221031GF108991081051000751999999MA1999999097251MD1510081+9999MW1021REMSYN078AAXX  31091 59567 11160 81505 10225 20210 39725 40097 55008 6007/ 70262 885//;
0178595670999992000033112004+22030+121570FM-12+032599999V0200201N007010012019N0100001N1+02171+02171101121ADDAA112075991AY161061AY221061GF108991081071001501999999MA1999999097381MD1110131+9999MW1211REMSYN078AAXX  31121 59567 11260 80207 10217 20217 39738 40112 51013 60762 72162 887//;
0150595670999992000033121004+22030+121570FM-12+032599999V0200301N007010006019N0100001N1+02181+02181100961ADDAA100011991GF108991081061000751999999MA1999999097231MD1510041+9999REMSYN072AAXX  31211 59567 12160 80307 10218 20218 39723 40096 55004 6012/ 886//;
0178595670999992000040100004+22030+121570FM-12+032599999V0200301N003010360019N0120001N1+02271+02201101121ADDAA112013091AY161061AY221061GF107991011011001501071999MA1999999097401MD1210171+9999MW1011REMSYN078AAXX  01001 59567 11262 70303 10227 20220 39740 40112 52017 60132 70162 8117/;
0163595670999992000040103004+22030+121570FM-12+032599999V0200201N001010360019N0150001N1+02441+02191101051ADDAA199000091GF106991011011002501071001MA1999999097351MD1810051+9999REMSYN066AAXX  01031 59567 32365 60201 10244 20219 39735 40105 58005 81170;EQDQ01  00002PRCP99
0163595670999992000040106004+22030+121570FM-12+032599999V0201901N011010006019N0100001N1+02301+02111100861ADDAA199000091GF108991081061000751999999MA1999999097151MD1810201+9999REMSYN066AAXX  01061 59567 32160 81911 10230 20211 39715 40086 58020 886//;EQDQ01  00002PRCP99
0163595670999992000040109004+22030+121570FM-12+032599999V0202101N005010006019N0100001N1+02251+02151100791ADDAA199000091GF108991081061000751999999MA1999999097081MD1710071+9999REMSYN066AAXX  01091 59567 32160 82105 10225 20215 39708 40079 57007 886//;EQDQ01  00002PRCP99
0163595670999992000040112004+22030+121570FM-12+032599999V0202301N014010006019N0100001N1+02341+02341100921ADDAA199000091GF108991081061000751999999MA1999999097211MD1310131+9999REMSYN066AAXX  01121 59567 32160 82314 10234 20234 39721 40092 53013 886//;EQDQ01  00002PRCP99
0135595670999992000040121004+22030+121570FM-12+032599999V0202401N022012200019N0200001N1+02341+01961100851ADDAA100015091GF101991011011999999001001MD1310021+9999REMSYN072AAXX  01211 59567 12970 12422 10234 20196 3/715 40085 53002 6015/ 81100;
0150595670999992000040200004+22030+121570FM-12+032599999V0202801N002012200019N0150001N1+02491+02181101091ADDAA112015091GF103991031021008001001001MA1999999097391MD1310241+9999REMSYN072AAXX  02001 59567 12565 32802 10249 20218 39739 40109 53024 60152 83200;
0133595670999992000040201004+22030+121570FM-12+032599999V0202801N002012200019N0150001N1+02491+02181101091ADDGF103991031021008001999001MA1999999097391MD1310241+9999REMSYN066AAXX  02011 59567 12565 32802 10249 20218 39739 40109 53024 832/0;
0163595670999992000040203004+22030+121570FM-12+032599999V0201901N002010012019N0180001N1+02741+02401101101ADDAA199000091GF106991061021001501001001MA1999999097431MD1010041+9999REMSYN066AAXX  02031 59567 32268 61902 10274 20240 39743 40110 50004 86200;EQDQ01  00002PRCP99
0163595670999992000040206004+22030+121570FM-12+032599999V0202301N004010012019N0200001N1+02691+02281100931ADDAA199000091GF106991061021001501001001MA1999999097261MD1710171+9999REMSYN066AAXX  02061 59567 32270 62304 10269 20228 39726 40093 57017 86200;EQDQ01  00002PRCP99
0163595670999992000040209004+22030+121570FM-12+032599999V0200201N005010012019N0150001N1+02361+02091100901ADDAA199000091GF108991081051001501999999MA1999999097201MD1610061+9999REMSYN066AAXX  02091 59567 32265 80205 10236 20209 39720 40090 56006 885//;EQDQ01  00002PRCP99
0163595670999992000040212004+22030+121570FM-12+032599999V0200101N007010012019N0100001N1+02261+02091101111ADDAA199000091GF108991081051001501999999MA1999999097391MD1310191+9999REMSYN066AAXX  02121 59567 32260 80107 10226 20209 39739 40111 53019 885//;EQDQ01  00002PRCP99
0163595670999992000040221004+22030+121570FM-12+032599999V0200101N006010012019N0100001N1+02181+01991101091ADDAA199000091GF108991081051001501999999MA1999999097361MD1510041+9999REMSYN066AAXX  02211 59567 32260 80106 10218 20199 39736 40109 55004 885//;EQDQ01  00002PRCP99
0163595670999992000040300004+22030+121570FM-12+032599999V0200301N010010012019N0100001N1+02291+02121101311ADDAA199000091GF107991071051001501999999MA1999999097581MD1210221+9999REMSYN066AAXX  03001 59567 32260 70310 10229 20212 39758 40131 52022 875//;EQDQ01  00002PRCP99
0163595670999992000040303004+22030+121570FM-12+032599999V0200401N006010900019N0120001N1+02441+02201101241ADDAA199000091GF105991021011001501031021MA1999999097531MD1610051+9999REMSYN066AAXX  03031 59567 32262 50406 10244 20220 39753 40124 56005 82132;EQDQ01  00002PRCP99
0163595670999992000040306004+22030+121570FM-12+032599999V0200501N004012200019N0120001N1+02411+02161100981ADDAA199000091GF103991021011001501031011MA1999999097281MD1810251+9999REMSYN066AAXX  03061 59567 32262 30504 10241 20216 39728 40098 58025 82131;EQDQ01  00002PRCP99
0163595670999992000040309004+22030+121570FM-12+032599999V0200601N002010360019N0100001N1+02341+02141100941ADDAA199000091GF105991031021001501031011MA1999999097231MD1510051+9999REMSYN066AAXX  03091 59567 32260 50602 10234 20214 39723 40094 55005 83231;EQDQ01  00002PRCP99
0163595670999992000040312004+22030+121570FM-12+032599999V0200801N007012200019N0100001N1+02271+02121101091ADDAA199000091GF102991021011001501001001MA1999999097371MD1110141+9999REMSYN066AAXX  03121 59567 32260 20807 10227 20212 39737 40109 51014 82100;EQDQ01  00002PRCP99
0163595670999992000040321004+22030+121570FM-12+032599999V0202401N007010012019N0100001N1+02311+02211100861ADDAA199000091GF108991081051001501999999MA1999999097151MD1510041+9999REMSYN066AAXX  03211 59567 32260 82407 10231 20221 39715 40086 55004 885//;EQDQ01  00002PRCP99
0178595670999992000040400004+22030+121570FM-12+032599999V0202201N014010006019N0100001N1+02341+02201101091ADDAA112000591AY161061AY221061GF108991081071000751999999MA1999999097381MD1110231+9999MW1601REMSYN078AAXX  04001 59567 11160 82214 10234 20220 39738 40109 51023 69952 76062 887//;
0178595670999992000040403004+22030+121570FM-12+032599999V0202301N007010360019N0200001N1+02361+02291100971ADDAA100000591AY161031AY221031GF106991011011001501031001MA1999999097261MD1810121+9999MW1031REMSYN078AAXX  04031 59567 11270 62307 10236 20229 39726 40097 58012 6995/ 70362 81130;
0178595670999992000040406004+22030+121570FM-12+032599999V0202301N023012200019N0180001N1+02581+02271100671ADDAA106000591AY161061AY221061GF102991011011004501031001MA1999999097001MD1710261+9999MW1011REMSYN078AAXX  04061 59567 11468 22323 10258 20227 39700 40067 57026 69951 70162 81130;
0150595670999992000040409004+22030+121570FM-12+032599999V0202501N024012200019N0180001N1+02491+02061100521ADDAA100000591GF101991011011008001001001MA1999999096851MD1810151+9999REMSYN072AAXX  04091 59567 12568 12524 10249 20206 39685 40052 58015 6995/ 81100;
0150595670999992000040412004+22030+121570FM-12+032599999V0203401N004010042019N0120001N1+02391+02101100891ADDAA112000591GF106991061051004501001001MA1999999097191MD1110341+9999REMSYN072AAXX  04121 59567 12462 63404 10239 20210 39719 40089 51034 69952 86500;
0178595670999992000040421004+22030+121570FM-12+032599999V0200201N007010012019N0100001N1+02171+02041100991ADDAA100003091AY161031AY221031GF108991081051001501999999MA1999999097261MD1510021+9999MW1021REMSYN078AAXX  04211 59567 11260 80207 10217 20204 39726 40099 55002 6003/ 70262 885//;
0178595670999992000040500004+22030+121570FM-12+032599999V0200101N010010012019N0100001N1+02181+02031101181ADDAA112003091AY161061AY221061GF108991081051001501999999MA1999999097441MD1110181+9999MW1021REMSYN078AAXX  05001 59567 11260 80110 10218 20203 39744 40118 51018 60032 70262 885//;
0178595670999992000040503004+22030+121570FM-12+032599999V0200201N011010012019N0100001N1+02191+02021101241ADDAA100000591AY161031AY221031GF108991081051001501999999MA1999999097501MD1010061+9999MW1021REMSYN078AAXX  05031 59567 11260 80211 10219 20202 39750 40124 50006 6995/ 70262 885//;
0178595670999992000040506004+22030+121570FM-12+032599999V0200201N007010012019N0100001N1+02121+01991101091ADDAA106001091AY161061AY221061GF108991081051001501999999MA1999999097341MD1810161+9999MW1021REMSYN078AAXX  05061 59567 11260 80207 10212 20199 39734 40109 58016 60011 70262 885//;
0178595670999992000040509004+22030+121570FM-12+032599999V0200101N005010012019N0100001N1+02041+01921101071ADDAA100003091AY161031AY221031GF108991081051001501999999MA1999999097321MD1510021+9999MW1211REMSYN078AAXX  05091 59567 11260 80105 10204 20192 39732 40107 55002 6003/ 72162 885//;
0178595670999992000040521004+22030+121570FM-12+032599999V0200101N008010012019N0100001N1+01861+01861101481ADDAA100014091AY161031AY221031GF108991081051001501999999MA1999999097691MD1310051+9999MW1021REMSYN078AAXX  05211 59567 11260 80108 10186 20186 39769 40148 53005 6014/ 70262 885//;
0178595670999992000040600004+22030+121570FM-12+032599999V0200201N009010042019N0150001N1+01941+01731101711ADDAA112014091AY161061AY221061GF108991081051004501999999MA1999999097921MD1210231+9999MW1021REMSYN078AAXX  06001 59567 11465 80209 10194 20173 39792 40171 52023 60142 70262 885//;
0163595670999992000040603004+22030+121570FM-12+032599999V0200101N007010042019N0150001N1+02051+01811101651ADDAA199000091GF108991081051004501999999MA1999999097881MD1810041+9999REMSYN066AAXX  06031 59567 32465 80107 10205 20181 39788 40165 58004 885//;EQDQ01  00002PRCP99
0163595670999992000040606004+22030+121570FM-12+032599999V0200101N007010042019N0100001N1+02121+01861101391ADDAA199000091GF108991081051004501999999MA1999999097641MD1810241+9999REMSYN066AAXX  06061 59567 32460 80107 10212 20186 39764 40139 58024 885//;EQDQ01  00002PRCP99
0163595670999992000040609004+22030+121570FM-12+032599999V0200101N005010042019N0150001N1+02041+01761101441ADDAA199000091GF108991081051004501999999MA1999999097681MD1310041+9999REMSYN066AAXX  06091 59567 32465 80105 10204 20176 39768 40144 53004 885//;EQDQ01  00002PRCP99
0163595670999992000040612004+22030+121570FM-12+032599999V0200201N011010042019N0150001N1+02081+01811101641ADDAA199000091GF108991081051004501999999MA1999999097871MD1210191+9999REMSYN066AAXX  06121 59567 32465 80211 10208 20181 39787 40164 52019 885//;EQDQ01  00002PRCP99
0163595670999992000040621004+22030+121570FM-12+032599999V0200301N006010042019N0150001N1+02121+01911101531ADDAA199000091GF108991081051004501999999MA1999999097771MD1610111+9999REMSYN066AAXX  06211 59567 32465 80306 10212 20191 39777 40153 56011 885//;EQDQ01  00002PRCP99
0163595670999992000040700004+22030+121570FM-12+032599999V0200401N006010042019N0100001N1+02241+01961101631ADDAA199000091GF107991071051004501999999MA1999999097881MD1310111+9999REMSYN066AAXX  07001 59567 32460 70406 10224 20196 39788 40163 53011 875//;EQDQ01  00002PRCP99
0163595670999992000040703004+22030+121570FM-12+032599999V0200701N008010042019N0100001N1+02331+02051101721ADDAA199000091GF106991061041004501999999MA1999999097981MD1110101+9999REMSYN066AAXX  07031 59567 32460 60708 10233 20205 39798 40172 51010 864//;EQDQ01  00002PRCP99
0163595670999992000040706004+22030+121570FM-12+032599999V0200501N011010042019N0100001N1+02361+02031101521ADDAA199000091GF106991061041004501001001MA1999999097791MD1810191+9999REMSYN066AAXX  07061 59567 32460 60511 10236 20203 39779 40152 58019 86400;EQDQ01  00002PRCP99
0163595670999992000040709004+22030+121570FM-12+032599999V0200401N007012200019N0100001N1+02211+01941101441ADDAA199000091GF104991041021004501001001MA1999999097701MD1510091+9999REMSYN066AAXX  07091 59567 32460 40407 10221 20194 39770 40144 55009 84200;EQDQ01  00002PRCP99
0163595670999992000040712004+22030+121570FM-12+032599999V0200201N008010042019N0100001N1+02201+01941101601ADDAA199000091GF108991081051004501999999MA1999999097851MD1110151+9999REMSYN066AAXX  07121 59567 32460 80208 10220 20194 39785 40160 51015 885//;EQDQ01  00002PRCP99
0163595670999992000040721004+22030+121570FM-12+032599999V0200201N017010042019N0100001N1+02151+01861101461ADDAA199000091GF106991061051004501001001MA1999999097711MD1510041+9999REMSYN066AAXX  07211 59567 32460 60217 10215 20186 39771 40146 55004 86500;EQDQ01  00002PRCP99
0163595670999992000040800004+22030+121570FM-12+032599999V0200201N016010042019N0100001N1+02231+01951101651ADDAA199000091GF107991071041004501999999MA1999999097901MD1110191+9999REMSYN066AAXX  08001 59567 32460 70216 10223 20195 39790 40165 51019 874//;EQDQ01  00002PRCP99
0163595670999992000040803004+22030+121570FM-12+032599999V0200201N007010042019N0100001N1+02501+02171101581ADDAA199000091GF106991061041004501001001MA1999999097871MD1810031+9999REMSYN066AAXX  08031 59567 32460 60207 10250 20217 39787 40158 58003 86400;EQDQ01  00002PRCP99
0163595670999992000040806004+22030+121570FM-12+032599999V0200401N011010042019N0100001N1+02381+02081101431ADDAA199000091GF107991071041004501999999MA1999999097711MD1710161+9999REMSYN066AAXX  08061 59567 32460 70411 10238 20208 39771 40143 57016 874//;EQDQ01  00002PRCP99
0163595670999992000040809004+22030+121570FM-12+032599999V0200201N007010012019N0100001N1+02271+02051101321ADDAA199000091GF108991081041001501999999MA1999999097591MD1610121+9999REMSYN066AAXX  08091 59567 32260 80207 10227 20205 39759 40132 56012 884//;EQDQ01  00002PRCP99
0163595670999992000040812004+22030+121570FM-12+032599999V0200201N014010012019N0100001N1+02221+02031101431ADDAA199000091GF108991081051001501999999MA1999999097691MD1310101+9999REMSYN066AAXX  08121 59567 32260 80214 10222 20203 39769 40143 53010 885//;EQDQ01  00002PRCP99
0163595670999992000040821004+22030+121570FM-12+032599999V0200501N008010012019N0150001N1+02231+02101101311ADDAA199000091GF108991081051001501999999MA1999999097571MD1810041+9999REMSYN066AAXX  08211 59567 32265 80508 10223 20210 39757 40131 58004 885//;EQDQ01  00002PRCP99
0163595670999992000040900004+22030+121570FM-12+032599999V0200501N006010042019N0150001N1+02401+02201101401ADDAA199000091GF106991061051004501001001MA1999999097681MD1010111+9999REMSYN066AAXX  09001 59567 32465 60506 10240 20220 39768 40140 50011 86500;EQDQ01  00002PRCP99
0178595670999992000040903004+22030+121570FM-12+032599999V0201501N005010012019N0200001N1+02451+02371101421ADDAA100001091AY161031AY221031GF108991081051001501999999MA1999999097711MD1010031+9999MW1211REMSYN078AAXX  09031 59567 11270 81505 10245 20237 39771 40142 50003 6001/ 72162 885//;
0178595670999992000040906004+22030+121570FM-12+032599999V0201901N009010012019N0150001N1+02481+02321101201ADDAA106001091AY161061AY221061GF107991071051001501999999MA1999999097501MD1710211+9999MW1021REMSYN078AAXX  09061 59567 11265 71909 10248 20232 39750 40120 57021 60011 70262 875//;
0150595670999992000040909004+22030+121570FM-12+032599999V0202001N008010012019N0200001N1+02451+02291101131ADDAA100001091GF106991061041001501001001MA1999999097431MD1710071+9999REMSYN072AAXX  09091 59567 12270 62008 10245 20229 39743 40113 57007 6001/ 86400;
0150595670999992000040912004+22030+121570FM-12+032599999V0202001N014010012019N0150001N1+02381+02261101241ADDAA112001091GF107991071051001501999999MA1999999097531MD1210101+9999REMSYN072AAXX  09121 59567 12265 72014 10238 20226 39753 40124 52010 60012 875//;
0163595670999992000040921004+22030+121570FM-12+032599999V0202001N006010012019N0100001N1+02391+02311101171ADDAA199000091GF108991081051001501999999MA1999999097461MD1510031+9999REMSYN066AAXX  09211 59567 32260 82006 10239 20231 39746 40117 55003 885//;EQDQ01  00002PRCP99
0163595670999992000041000004+22030+121570FM-12+032599999V0202301N006010012019N0150001N1+02461+02351101361ADDAA199000091GF108991081051001501999999MA1999999097651MD1210191+9999REMSYN066AAXX  10001 59567 32265 82306 10246 20235 39765 40136 52019 885//;EQDQ01  00002PRCP99
0178595670999992000041003004+22030+121570FM-12+032599999V0203601N002010012019N0200001N1+02491+02211101391ADDAA100001091AY161031AY221031GF106991061041001501001001MA1999999097681MD1010031+9999MW1601REMSYN078AAXX  10031 59567 11270 63602 10249 20221 39768 40139 50003 6001/ 76062 86400;
0178595670999992000041006004+22030+121570FM-12+032599999V0200201N007010012019N0100001N1+02401+02281101261ADDAA106007991AY161061AY221061GF108991081051001501999999MA1999999097551MD1710131+9999MW1211REMSYN078AAXX  10061 59567 11260 80207 10240 20228 39755 40126 57013 60081 72162 885//;
0150595670999992000041009004+22030+121570FM-12+032599999V0200101N009010042019N0100001N1+02231+02071101281ADDAA100007991GF108991081051004501999999MA1999999097551MD1410001+9999REMSYN072AAXX  10091 59567 12460 80109 10223 20207 39755 40128 54000 6008/ 885//;
0150595670999992000041012004+22030+121570FM-12+032599999V0200101N026010012019N0100001N1+02101+01971101431ADDAA112007991GF108991081051001501999999MA1999999097671MD1010121+9999REMSYN072AAXX  10121 59567 12260 80126 10210 20197 39767 40143 50012 60082 885//;
0163595670999992000041021004+22030+121570FM-12+032599999V0200101N014010042019N0100001N1+01941+01561101641ADDAA199000091GF108991081051004501999999MA1999999097861MD1310041+9999REMSYN066AAXX  10211 59567 32460 80114 10194 20156 39786 40164 53004 885//;EQDQ01  00002PRCP99
0163595670999992000041100004+22030+121570FM-12+032599999V0200201N014010042019N0100001N1+01941+01621101801ADDAA199000091GF108991081051004501999999MA1999999098011MD1210151+9999REMSYN066AAXX  11001 59567 32460 80214 10194 20162 39801 40180 52015 885//;EQDQ01  00002PRCP99
0163595670999992000041103004+22030+121570FM-12+032599999V0200201N007010042019N0100001N1+01941+01681101721ADDAA199000091GF108991081051004501999999MA1999999097931MD1810081+9999REMSYN066AAXX  11031 59567 32460 80207 10194 20168 39793 40172 58008 885//;EQDQ01  00002PRCP99
0163595670999992000041106004+22030+121570FM-12+032599999V0203601N005010042019N0100001N1+01951+01701101511ADDAA199000091GF108991081051004501999999MA1999999097731MD1710201+9999REMSYN066AAXX  11061 59567 32460 83605 10195 20170 39773 40151 57020 885//;EQDQ01  00002PRCP99
0163595670999992000041109004+22030+121570FM-12+032599999V0200101N005010042019N0100001N1+01971+01691101451ADDAA199000091GF108991081051004501999999MA1999999097681MD1510051+9999REMSYN066AAXX  11091 59567 32460 80105 10197 20169 39768 40145 55005 885//;EQDQ01  00002PRCP99
0163595670999992000041112004+22030+121570FM-12+032599999V0200201N012010042019N0100001N1+01921+01711101571ADDAA199000091GF108991081051004501999999MA1999999097791MD1210111+9999REMSYN066AAXX  11121 59567 32460 80212 10192 20171 39779 40157 52011 885//;EQDQ01  00002PRCP99
0150595670999992000041121004+22030+121570FM-12+032599999V0200901N003010042019N0100001N1+02011+01801101301ADDAA100000591GF108991081051004501999999MA1999999097541MD1510041+9999REMSYN072AAXX  11211 59567 12460 80903 10201 20180 39754 40130 55004 6995/ 885//;
0150595670999992000041200004+22030+121570FM-12+032599999V0201701N004010042019N0100001N1+02121+01941101401ADDAA112000591GF108991081051004501999999MA1999999097651MD1110111+9999REMSYN072AAXX  12001 59567 12460 81704 10212 20194 39765 40140 51011 69952 885//;
0163595670999992000041203004+22030+121570FM-12+032599999V0202301N005010042019N0100001N1+02321+02081101271ADDAA199000091GF108991081051004501999999MA1999999097551MD1810101+9999REMSYN066AAXX  12031 59567 32460 82305 10232 20208 39755 40127 58010 885//;EQDQ01  00002PRCP99
0163595670999992000041206004+22030+121570FM-12+032599999V0202401N012010042019N0100001N1+02331+02041101011ADDAA199000091GF107991071051004501999999MA1999999097301MD1710251+9999REMSYN066AAXX  12061 59567 32460 72412 10233 20204 39730 40101 57025 875//;EQDQ01  00002PRCP99
0163595670999992000041209004+22030+121570FM-12+032599999V0202301N007010042019N0100001N1+02221+01951100911ADDAA199000091GF108991081051004501999999MA1999999097191MD1610111+9999REMSYN066AAXX  12091 59567 32460 82307 10222 20195 39719 40091 56011 885//;EQDQ01  00002PRCP99
0163595670999992000041212004+22030+121570FM-12+032599999V0202401N008010042019N0100001N1+02231+02001101061ADDAA199000091GF108991081051004501999999MA1999999097331MD1210141+9999REMSYN066AAXX  12121 59567 32460 82408 10223 20200 39733 40106 52014 885//;EQDQ01  00002PRCP99
0163595670999992000041221004+22030+121570FM-12+032599999V0203001N002010042019N0100001N1+02261+01901100971ADDAA199000091GF108991081051004501999999MA1999999097251MD1310041+9999REMSYN066AAXX  12211 59567 32460 83002 10226 20190 39725 40097 53004 885//;EQDQ01  00002PRCP99
0163595670999992000041300004+22030+121570FM-12+032599999V0202401N005010042019N0100001N1+02281+02111101151ADDAA199000091GF108991081051004501999999MA1999999097431MD1210181+9999REMSYN066AAXX  13001 59567 32460 82405 10228 20211 39743 40115 52018 885//;EQDQ01  00002PRCP99
0163595670999992000041303004+22030+121570FM-12+032599999V0201901N001010012019N0100001N1+02541+02301101101ADDAA199000091GF107991071051001501999999MA1999999097411MD1810021+9999REMSYN066AAXX  13031 59567 32260 71901 10254 20230 39741 40110 58002 875//;EQDQ01  00002PRCP99
0163595670999992000041306004+22030+121570FM-12+032599999V0200401N002010042019N0100001N1+02441+02181100871ADDAA199000091GF108991081051004501999999MA1999999097181MD1710231+9999REMSYN066AAXX  13061 59567 32460 80402 10244 20218 39718 40087 57023 885//;EQDQ01  00002PRCP99
0163595670999992000041309004+22030+121570FM-12+032599999V0200201N002019999999N0100001N1+02421+02151100871ADDAA199000091GF105991051001999999031001MA1999999097171MD1510011+9999REMSYN066AAXX  13091 59567 32960 50202 10242 20215 39717 40087 55001 85030;EQDQ01  00002PRCP99
0163595670999992000041312004+22030+121570FM-12+032599999V0200601N002012200019N0100001N1+02361+02071101061ADDAA199000091GF102991021021004501001001MA1999999097351MD1210181+9999REMSYN066AAXX  13121 59567 32460 20602 10236 20207 39735 40106 52018 82200;EQDQ01  00002PRCP99
0163595670999992000041321004+22030+121570FM-12+032599999V0202401N007012200019N0100001N1+02241+02121100861ADDAA199000091GF103991031021001501001001MA1999999097141MD1810081+9999REMSYN066AAXX  13211 59567 32260 32407 10224 20212 39714 40086 58008 83200;EQDQ01  00002PRCP99
0163595670999992000041400004+22030+121570FM-12+032599999V0202401N008010012019N0100001N1+02391+02271100931ADDAA199000091GF107991071051001501999999MA1999999097231MD1310091+9999REMSYN066AAXX  14001 59567 32260 72408 10239 20227 39723 40093 53009 875//;EQDQ01  00002PRCP99
0163595670999992000041403004+22030+121570FM-12+032599999V0202301N009010012019N0100001N1+02531+02391100841ADDAA199000091GF108991081051001501999999MA1999999097161MD1810071+9999REMSYN066AAXX  14031 59567 32260 82309 10253 20239 39716 40084 58007 885//;EQDQ01  00002PRCP99
0163595670999992000041406004+22030+121570FM-12+032599999V0202501N009010012019N0100001N1+02421+02301100621ADDAA199000091GF108991081051001501999999MA1999999096931MD1810231+9999REMSYN066AAXX  14061 59567 32260 82509 10242 20230 39693 40062 58023 885//;EQDQ01  00002PRCP99
0163595670999992000041409004+22030+121570FM-12+032599999V0202501N012010012019N0100001N1+02371+02251100571ADDAA199000091GF108991081051001501999999MA1999999096881MD1510051+9999REMSYN066AAXX  14091 59567 32260 82512 10237 20225 39688 40057 55005 885//;EQDQ01  00002PRCP99
0163595670999992000041500004+22030+121570FM-12+032599999V0202501N026019999999N0100001N1+02411+02241100881ADDAA199000091GF106991061001999999031001MA1999999097181MD1310191+9999REMSYN066AAXX  15001 59567 32960 62526 10241 20224 39718 40088 53019 86030;EQDQ01  00002PRCP99
0178595670999992000041503004+22030+121570FM-12+032599999V0200301N011010012019N0100001N1+02291+02091101111ADDAA100000591AY161031AY221031GF108991081071001501999999MA1999999097391MD1010211+9999MW1611REMSYN078AAXX  15031 59567 11260 80311 10229 20209 39739 40111 50021 6995/ 76162 887//;
0178595670999992000041506004+22030+121570FM-12+032599999V0200301N029010012019N0100001N1+02061+01891101031ADDAA106001091AY161061AY221061GF108991081051001501999999MA1999999097281MD1710111+9999MW1021REMSYN078AAXX  15061 59567 11260 80329 10206 20189 39728 40103 57011 60011 70262 885//;
0178595670999992000041509004+22030+121570FM-12+032599999V0200201N011010042019N0100001N1+02021+01851101151ADDAA100002091AY161031AY221031GF107991071051004501999999MA1999999097391MD1310111+9999MW1021REMSYN078AAXX  15091 59567 11460 70211 10202 20185 39739 40115 53011 6002/ 70262 875//;
0178595670999992000041512004+22030+121570FM-12+032599999V0200101N014010012019N0100001N1+01931+01801101271ADDAA112002091AY161061AY221061GF108991081051001501999999MA1999999097501MD1110111+9999MW1021REMSYN078AAXX  15121 59567 11260 80114 10193 20180 39750 40127 51011 60022 70262 885//;
0178595670999992000041521004+22030+121570FM-12+032599999V0200101N006010042019N0100001N1+01801+01731101301ADDAA100014091AY161031AY221031GF108991081051004501999999MA1999999097511MD1510011+9999MW1021REMSYN078AAXX  15211 59567 11460 80106 10180 20173 39751 40130 55001 6014/ 70262 885//;
0178595670999992000041600004+22030+121570FM-12+032599999V0200101N006010012019N0050001N1+01791+01771101511ADDAA112017091AY161061AY221061GF108991081071001501999999MA1999999097711MD1210201+9999MW1601REMSYN078AAXX  16001 59567 11250 80106 10179 20177 39771 40151 52020 60172 76062 887//;
0178595670999992000041603004+22030+121570FM-12+032599999V0200101N009010012019N0050001N1+01751+01751101531ADDAA100013091AY161031AY221031GF108991081071001501999999MA1999999097731MD1010021+9999MW1601REMSYN078AAXX  16031 59567 11250 80109 10175 20175 39773 40153 50002 6013/ 76062 887//;
0178595670999992000041606004+22030+121570FM-12+032599999V0200101N013010021019N0100001N1+01831+01631101431ADDAA106013091AY161061AY221061GF108991081051002501999999MA1999999097641MD1810091+9999MW1021REMSYN078AAXX  16061 59567 11360 80113 10183 20163 39764 40143 58009 60131 70262 885//;
0150595670999992000041609004+22030+121570FM-12+032599999V0200101N006010042019N0100001N1+01861+01571101461ADDAA100013091GF108991081051004501999999MA1999999097671MD1310031+9999REMSYN072AAXX  16091 59567 12460 80106 10186 20157 39767 40146 53003 6013/ 885//;
0150595670999992000041612004+22030+121570FM-12+032599999V0200101N013010042019N0100001N1+01861+01501101651ADDAA112013091GF108991081051004501999999MA1999999097861MD1110191+9999REMSYN072AAXX  16121 59567 12460 80113 10186 20150 39786 40165 51019 60132 885//;
0163595670999992000041621004+22030+121570FM-12+032599999V0200301N006012200019N0100001N1+01851+01361101581ADDAA199000091GF102991021051004501001001MA1999999097781MD1510001+9999REMSYN066AAXX  16211 59567 32460 20306 10185 20136 39778 40158 55000 82500;EQDQ01  00002PRCP99
0163595670999992000041700004+22030+121570FM-12+032599999V0200301N007010042019N0100001N1+02001+01521101751ADDAA199000091GF106991061051004501001001MA1999999097971MD1110191+9999REMSYN066AAXX  17001 59567 32460 60307 10200 20152 39797 40175 51019 86500;EQDQ01  00002PRCP99
0163595670999992000041703004+22030+121570FM-12+032599999V0200301N012012200019N0150001N1+02091+01551101711ADDAA199000091GF104991041051004501001001MA1999999097941MD1810031+9999REMSYN066AAXX  17031 59567 32465 40312 10209 20155 39794 40171 58003 84500;EQDQ01  00002PRCP99
0163595670999992000041706004+22030+121570FM-12+032599999V0200201N016010360019N0150001N1+02221+01601101531ADDAA199000091GF105991041011004501031001MA1999999097791MD1710151+9999REMSYN066AAXX  17061 59567 32465 50216 10222 20160 39779 40153 57015 84130;EQDQ01  00002PRCP99
0163595670999992000041709004+22030+121570FM-12+032599999V0200301N018010360019N0100001N1+01991+01401101541ADDAA199000091GF106991011011004501031001MA1999999097771MD1510021+9999REMSYN066AAXX  17091 59567 32460 60318 10199 20140 39777 40154 55002 81130;EQDQ01  00002PRCP99
0163595670999992000041712004+22030+121570FM-12+032599999V0200301N013010042019N0100001N1+01951+01441101791ADDAA199000091GF108991081051004501999999MA1999999098001MD1110231+9999REMSYN066AAXX  17121 59567 32460 80313 10195 20144 39800 40179 51023 885//;EQDQ01  00002PRCP99
0163595670999992000041721004+22030+121570FM-12+032599999V0200401N005010042019N0100001N1+01991+01561101641ADDAA199000091GF108991081051004501999999MA1999999097861MD1310021+9999REMSYN066AAXX  17211 59567 32460 80405 10199 20156 39786 40164 53002 885//;EQDQ01  00002PRCP99
0163595670999992000041800004+22030+121570FM-12+032599999V0200201N009010042019N0100001N1+01911+01731101771ADDAA199000091GF108991081051004501999999MA1999999097981MD1210121+9999REMSYN066AAXX  18001 59567 32460 80209 10191 20173 39798 40177 52012 885//;EQDQ01  00002PRCP99
0163595670999992000041803004+22030+121570FM-12+032599999V0200301N006010042019N0100001N1+02061+01791101681ADDAA199000091GF108991081051004501999999MA1999999097911MD1810071+9999REMSYN066AAXX  18031 59567 32460 80306 10206 20179 39791 40168 58007 885//;EQDQ01  00002PRCP99
0163595670999992000041806004+22030+121570FM-12+032599999V0200401N005010042019N0100001N1+02121+01851101451ADDAA199000091GF108991081051004501999999MA1999999097701MD1710211+9999REMSYN066AAXX  18061 59567 32460 80405 10212 20185 39770 40145 57021 885//;EQDQ01  00002PRCP99
0163595670999992000041809004+22030+121570FM-12+032599999V0200301N007010042019N0100001N1+02121+01841101311ADDAA199000091GF108991081051004501999999MA1999999097561MD1710141+9999REMSYN066AAXX  18091 59567 32460 80307 10212 20184 39756 40131 57014 885//;EQDQ01  00002PRCP99
0163595670999992000041812004+22030+121570FM-12+032599999V0200301N013010042019N0100001N1+02111+01901101421ADDAA199000091GF108991081051004501999999MA1999999097671MD1210111+9999REMSYN066AAXX  18121 59567 32460 80313 10211 20190 39767 40142 52011 885//;EQDQ01  00002PRCP99
0178595670999992000041821004+22030+121570FM-12+032599999V0201501N003010042019N0100001N1+02221+02221101221ADDAA100003091AY161031AY221031GF108991081051004501999999MA1999999097491MD1510051+9999MW1211REMSYN078AAXX  18211 59567 11460 81503 10222 20222 39749 40122 55005 6003/ 72162 885//;
0178595670999992000041900004+22030+121570FM-12+032599999V0202301N003010006019N0040001N1+02351+02351101331ADDAA112003091AY161061AY221061GF108991081051000751999999MA1999999097611MD1310121+9999MW1021REMSYN078AAXX  19001 59567 11140 82303 10235 20235 39761 40133 53012 60032 70262 885//;
0144595670999992000041903004+22030+121570FM-12+032599999V0202201N002010012019N0150001N1+02591+02411101221ADDAA199000021GF105991051021001501001001MA1999999097531MD1810081+9999REMSYN066AAXX  19031 59567 32265 52202 10259 20241 39753 40122 58008 85200;
0144595670999992000041906004+22030+121570FM-12+032599999V0202101N005010012019N0100001N1+02541+02351100921ADDAA199000021GF108991081051001501999999MA1999999097241MD1710291+9999REMSYN066AAXX  19061 59567 32260 82105 10254 20235 39724 40092 57029 885//;
0144595670999992000041909004+22030+121570FM-12+032599999V0202501N003012200019N0150001N1+02511+02281100921ADDAA199000021GF104991041021001501001001MA1999999097231MD1510011+9999REMSYN066AAXX  19091 59567 32265 42503 10251 20228 39723 40092 55001 84200;
0163595670999992000041912004+22030+121570FM-12+032599999V0200301N007012200019N0150001N1+02351+02151101091ADDAA199000091GF102991021021001501001001MA1999999097381MD1110151+9999REMSYN066AAXX  19121 59567 32265 20307 10235 20215 39738 40109 51015 82200;EQDQ01  00002PRCP99
0163595670999992000041921004+22030+121570FM-12+032599999V0200301N012012200019N0150001N1+02251+02251101021ADDAA199000091GF102991021021001501001001MA1999999097301MD1510021+9999REMSYN066AAXX  19211 59567 32265 20312 10225 20225 39730 40102 55002 82200;EQDQ01  00002PRCP99
0163595670999992000042000004+22030+121570FM-12+032599999V0200501N003012200019N0100001N1+02521+02311101071ADDAA199000091GF103991031051004501001001MA1999999097381MD1310081+9999REMSYN066AAXX  20001 59567 32460 30503 10252 20231 39738 40107 53008 83500;EQDQ01  00002PRCP99
0163595670999992000042003004+22030+121570FM-12+032599999V0201801N002012200019N0200001N1+02841+02471101001ADDAA199000091GF101991011021004501001001MA1999999097351MD1810031+9999REMSYN066AAXX  20031 59567 32470 11802 10284 20247 39735 40100 58003 81200;EQDQ01  00002PRCP99
0163595670999992000042006004+22030+121570FM-12+032599999V0202401N009012200019N0200001N1+02721+02421100841ADDAA199000091GF102991021021004501001001MA1999999097181MD1710171+9999REMSYN066AAXX  20061 59567 32470 22409 10272 20242 39718 40084 57017 82200;EQDQ01  00002PRCP99
0163595670999992000042009004+22030+121570FM-12+032599999V0202401N014012200019N0200001N1+02461+02251100761ADDAA199000091GF104991041021001501001001MA1999999097071MD1710111+9999REMSYN066AAXX  20091 59567 32270 42414 10246 20225 39707 40076 57011 84200;EQDQ01  00002PRCP99
0163595670999992000042012004+22030+121570FM-12+032599999V0202501N017012200019N0150001N1+02371+02221100841ADDAA199000091GF102991021041004501001001MA1999999097141MD1310071+9999REMSYN066AAXX  20121 59567 32465 22517 10237 20222 39714 40084 53007 82400;EQDQ01  00002PRCP99
0163595670999992000042021004+22030+121570FM-12+032599999V0202501N034012200019N0100001N1+02281+02111100701ADDAA199000091GF102991021041001501001001MA1999999096991MD1710111+9999REMSYN066AAXX  20211 59567 32260 22534 10228 20211 39699 40070 57011 82400;EQDQ01  00002PRCP99
0163595670999992000042100004+22030+121570FM-12+032599999V0202501N021012200019N0100001N1+02371+02121100901ADDAA199000091GF101991011011004501001001MA1999999097201MD1210211+9999REMSYN066AAXX  21001 59567 32460 12521 10237 20212 39720 40090 52021 81100;EQDQ01  00002PRCP99
0163595670999992000042103004+22030+121570FM-12+032599999V0202501N008012200019N0100001N1+02621+02331100941ADDAA199000091GF101991011011004501001001MA1999999097271MD1010071+9999REMSYN066AAXX  21031 59567 32460 12508 10262 20233 39727 40094 50007 81100;EQDQ01  00002PRCP99
0163595670999992000042106004+22030+121570FM-12+032599999V0202501N006012200019N0100001N1+02651+02351100811ADDAA199000091GF102991021011004501001001MA1999999097141MD1710131+9999REMSYN066AAXX  21061 59567 32460 22506 10265 20235 39714 40081 57013 82100;EQDQ01  00002PRCP99
0163595670999992000042109004+22030+121570FM-12+032599999V0203301N004010042019N0100001N1+02511+02191100911ADDAA199000091GF105991051041004501001001MA1999999097221MD1210081+9999REMSYN066AAXX  21091 59567 32460 53304 10251 20219 39722 40091 52008 85400;EQDQ01  00002PRCP99
0163595670999992000042112004+22030+121570FM-12+032599999V0200101N007010042019N0100001N1+02341+02201101021ADDAA199000091GF108991081051004501999999MA1999999097311MD1310091+9999REMSYN066AAXX  21121 59567 32460 80107 10234 20220 39731 40102 53009 885//;EQDQ01  00002PRCP99
0178595670999992000042121004+22030+121570FM-12+032599999V0200201N013010021019N0100001N1+02191+02061101181ADDAA100001091AY161031AY221031GF108991081051002501999999MA1999999097441MD1010031+9999MW1211REMSYN078AAXX  21211 59567 11360 80213 10219 20206 39744 40118 50003 6001/ 72162 885//;
0178595670999992000042200004+22030+121570FM-12+032599999V0200501N009010021019N0100001N1+02211+02061101271ADDAA112002091AY161061AY221061GF108991081051002501999999MA1999999097531MD1310091+9999MW1021REMSYN078AAXX  22001 59567 11360 80509 10221 20206 39753 40127 53009 60022 70262 885//;
0178595670999992000042203004+22030+121570FM-12+032599999V0200501N004010021019N0100001N1+02361+02211101211ADDAA100000591AY161031AY221031GF108991081051002501999999MA1999999097491MD1810041+9999MW1021REMSYN078AAXX  22031 59567 11360 80504 10236 20221 39749 40121 58004 6995/ 70262 885//;
0178595670999992000042206004+22030+121570FM-12+032599999V0200501N003010021019N0100001N1+02441+02221100931ADDAA106000591AY161061AY221061GF106991061051002501001001MA1999999097231MD1810261+9999MW1021REMSYN078AAXX  22061 59567 11360 60503 10244 20222 39723 40093 58026 69951 70262 86500;
0150595670999992000042209004+22030+121570FM-12+032599999V0200801N001012200019N0100001N1+02411+02271100831ADDAA100000591GF103991031021002501001001MA1999999097131MD1610101+9999REMSYN072AAXX  22091 59567 12360 30801 10241 20227 39713 40083 56010 6995/ 83200;
0163595670999992000042221004+22030+121570FM-12+032599999V0200201N003010012019N0100001N1+02321+02221100981ADDAA199000091GF108991081051001501999999MA1999999097271MD1310181+9999REMSYN066AAXX  22211 59567 32260 80203 10232 20222 39727 40098 53018 885//;EQDQ01  00002PRCP99
0163595670999992000042300004+22030+121570FM-12+032599999V0200201N008010012019N0100001N1+02261+02131101171ADDAA199000091GF108991081051001501999999MA1999999097441MD1210171+9999REMSYN066AAXX  23001 59567 32260 80208 10226 20213 39744 40117 52017 885//;EQDQ01  00002PRCP99
0178595670999992000042303004+22030+121570FM-12+032599999V0200201N008010012019N0100001N1+02241+02111101171ADDAA100004191AY161031AY221031GF108991081051001501999999MA1999999097441MD1010001+9999MW1601REMSYN078AAXX  23031 59567 11260 80208 10224 20211 39744 40117 50000 6004/ 76062 885//;
0178595670999992000042306004+22030+121570FM-12+032599999V0200201N008010012019N0100001N1+02191+02161101001ADDAA106007991AY161061AY221061GF108991081051001501999999MA1999999097271MD1710171+9999MW1211REMSYN078AAXX  23061 59567 11260 80208 10219 20216 39727 40100 57017 60081 72162 885//;
0178595670999992000042309004+22030+121570FM-12+032599999V0200201N011010012019N0050001N1+02121+02121100941ADDAA100013091AY161031AY221031GF108991081071001501999999MA1999999097201MD1510071+9999MW1601REMSYN078AAXX  23091 59567 11250 80211 10212 20212 39720 40094 55007 6013/ 76062 887//;
0178595670999992000042312004+22030+121570FM-12+032599999V0200501N006010012019N0100001N1+02161+02161101081ADDAA112016091AY161061AY221061GF108991081051001501999999MA1999999097341MD1210141+9999MW1211REMSYN078AAXX  23121 59567 11260 80506 10216 20216 39734 40108 52014 60162 72162 885//;
0144595670999992000042321004+22030+121570FM-12+032599999V0200101N006010012019N0100001N1+02171+02071100951ADDAA199000021GF108991081051001501999999MA1999999097221MD1610081+9999REMSYN066AAXX  23211 59567 32260 80106 10217 20207 39722 40095 56008 885//;
0178595670999992000042400004+22030+121570FM-12+032599999V0200101N005010012019N0100001N1+02241+02101101141ADDAA112000591AY161061AY221061GF108991081051001501999999MA1999999097411MD1210191+9999MW1021REMSYN078AAXX  24001 59567 11260 80105 10224 20210 39741 40114 52019 69952 70262 885//;
0163595670999992000042403004+22030+121570FM-12+032599999V0200301N007010012019N0100001N1+02261+02131101121ADDAA199000091GF108991081051001501999999MA1999999097391MD1810021+9999REMSYN066AAXX  24031 59567 32260 80307 10226 20213 39739 40112 58002 885//;EQDQ01  00002PRCP99
0163595670999992000042406004+22030+121570FM-12+032599999V0200201N004010012019N0150001N1+02391+02211100971ADDAA199000091GF107991071051001501999999MA1999999097261MD1810131+9999REMSYN066AAXX  24061 59567 32265 70204 10239 20221 39726 40097 58013 875//;EQDQ01  00002PRCP99
0163595670999992000042409004+22030+121570FM-12+032599999V0200201N007010012019N0150001N1+02301+02091100941ADDAA199000091GF107991071051001501999999MA1999999097231MD1510031+9999REMSYN066AAXX  24091 59567 32265 70207 10230 20209 39723 40094 55003 875//;EQDQ01  00002PRCP99
0163595670999992000042421004+22030+121570FM-12+032599999V0202601N001012200019N0150001N1+02261+02031100871ADDAA199000091GF102991021051004501001001MA1999999097151MD1510021+9999REMSYN066AAXX  24211 59567 32465 22601 10226 20203 39715 40087 55002 82500;EQDQ01  00002PRCP99
0163595670999992000042500004+22030+121570FM-12+032599999V0202301N014010012019N0200001N1+02381+02261100931ADDAA199000091GF107991071051001501999999MA1999999097231MD1310081+9999REMSYN066AAXX  25001 59567 32270 72314 10238 20226 39723 40093 53008 875//;EQDQ01  00002PRCP99
0163595670999992000042503004+22030+121570FM-12+032599999V0202301N025010012019N0150001N1+02451+02341100841ADDAA199000091GF108991081051001501999999MA1999999097151MD1810081+9999REMSYN066AAXX  25031 59567 32265 82325 10245 20234 39715 40084 58008 885//;EQDQ01  00002PRCP99
0163595670999992000042506004+22030+121570FM-12+032599999V0202501N016010012019N0150001N1+02491+02331100591ADDAA199000091GF107991071051001501999999MA1999999096911MD1810241+9999REMSYN066AAXX  25061 59567 32265 72516 10249 20233 39691 40059 58024 875//;EQDQ01  00002PRCP99
0163595670999992000042509004+22030+121570FM-12+032599999V0202601N017010012019N0150001N1+02461+02291100501ADDAA199000091GF107991071051001501999999MA1999999096821MD1710091+9999REMSYN066AAXX  25091 59567 32265 72617 10246 20229 39682 40050 57009 875//;EQDQ01  00002PRCP99
0163595670999992000042512004+22030+121570FM-12+032599999V0202501N032010012019N0100001N1+02421+02281100701ADDAA199000091GF108991081051001501999999MA1999999097011MD1310191+9999REMSYN066AAXX  25121 59567 32260 82532 10242 20228 39701 40070 53019 885//;EQDQ01  00002PRCP99
0163595670999992000042521004+22030+121570FM-12+032599999V0202501N033012200019N0100001N1+02391+02281100521ADDAA199000091GF102991021051001501001001MA1999999096831MD1310031+9999REMSYN066AAXX  25211 59567 32260 22533 10239 20228 39683 40052 53003 82500;EQDQ01  00002PRCP99
0163595670999992000042600004+22030+121570FM-12+032599999V0202501N035012200019N0100001N1+02501+02301100681ADDAA199000091GF102991021021001501001001MA1999999097001MD1110171+9999REMSYN066AAXX  26001 59567 32260 22535 10250 20230 39700 40068 51017 82200;EQDQ01  00002PRCP99
0163595670999992000042603004+22030+121570FM-12+032599999V0202501N019010360019N0100001N1+02611+02371100681ADDAA199000091GF106991011011001501031001MA1999999097011MD1010011+9999REMSYN066AAXX  26031 59567 32260 62519 10261 20237 39701 40068 50001 81130;EQDQ01  00002PRCP99
0163595670999992000042606004+22030+121570FM-12+032599999V0202501N030019999999N0100001N1+02691+02361100611ADDAA199000091GF106991061001999999031001MA1999999096961MD1810051+9999REMSYN066AAXX  26061 59567 32960 62530 10269 20236 39696 40061 58005 86030;EQDQ01  00002PRCP99
0179595670999992000042609004+22030+121570FM-12+032599999V0202601N011019999999N0150001N1+02611+02301100581ADDAA199000091GF106991001001999999001021MA1999999096921MD1510041+9999REMSYN066AAXX  26091 59567 32965 62611 10261 20230 39692 40058 55004 86002;EQDQ01+000062SCOTLCQ02  00002PRCP99
0163595670999992000042612004+22030+121570FM-12+032599999V0203101N007012200019N0100001N1+02501+02231100871ADDAA199000091GF103991031011004501001001MA1999999097181MD1210261+9999REMSYN066AAXX  26121 59567 32460 33107 10250 20223 39718 40087 52026 83100;EQDQ01  00002PRCP99
0163595670999992000042621004+22030+121570FM-12+032599999V0202601N006010012019N0100001N1+02441+02311100741ADDAA199000091GF108991081051001501999999MA1999999097051MD1610121+9999REMSYN066AAXX  26211 59567 32260 82606 10244 20231 39705 40074 56012 885//;EQDQ01  00002PRCP99
0178595670999992000042700004+22030+121570FM-12+032599999V0203601N002010012019N0050001N1+02431+02301100991ADDAA112003091AY161061AY221061GF108991081071001501999999MA1999999097291MD1110241+9999MW1601REMSYN078AAXX  27001 59567 11250 83602 10243 20230 39729 40099 51024 60032 76062 887//;
0178595670999992000042703004+22030+121570FM-12+032599999V0200301N013010012019N0100001N1+02101+02001101181ADDAA100011991AY161031AY221031GF108991081051001501999999MA1999999097431MD1210141+9999MW1021REMSYN078AAXX  27031 59567 11260 80313 10210 20200 39743 40118 52014 6012/ 70262 885//;
0178595670999992000042706004+22030+121570FM-12+032599999V0200301N019010012019N0100001N1+01971+01881101201ADDAA106014091AY161061AY221061GF108991081051001501999999MA1999999097441MD1010011+9999MW1211REMSYN078AAXX  27061 59567 11260 80319 10197 20188 39744 40120 50001 60141 72162 885//;
0178595670999992000042709004+22030+121570FM-12+032599999V0200101N008010012019N0100001N1+01941+01861101221ADDAA100015091AY161031AY221031GF108991081051001501999999MA1999999097451MD1310011+9999MW1021REMSYN078AAXX  27091 59567 11260 80108 10194 20186 39745 40122 53001 6015/ 70262 885//;
0178595670999992000042712004+22030+121570FM-12+032599999V0200201N017010012019N0100001N1+01901+01791101391ADDAA112016091AY161061AY221061GF108991081051001501999999MA1999999097611MD1210161+9999MW1021REMSYN078AAXX  27121 59567 11260 80217 10190 20179 39761 40139 52016 60162 70262 885//;
0150595670999992000042721004+22030+121570FM-12+032599999V0200401N006010042019N0100001N1+01991+01721101361ADDAA100000591GF108991081051004501999999MA1999999097591MD1010031+9999REMSYN072AAXX  27211 59567 12460 80406 10199 20172 39759 40136 50003 6995/ 885//;
0150595670999992000042800004+22030+121570FM-12+032599999V0200101N006010042019N0100001N1+02001+01781101531ADDAA112000591GF108991081051004501999999MA1999999097761MD1310171+9999REMSYN072AAXX  28001 59567 12460 80106 10200 20178 39776 40153 53017 69952 885//;
0163595670999992000042806004+22030+121570FM-12+032599999V0200301N015010021019N0100001N1+02051+01891101231ADDAA199000091GF108991081051002501999999MA1999999097481MD1810231+9999REMSYN066AAXX  28061 59567 32360 80315 10205 20189 39748 40123 58023 885//;EQDQ01  00002PRCP99
0163595670999992000042809004+22030+121570FM-12+032599999V0200301N005010021019N0100001N1+01991+01861101291ADDAA199000091GF108991081051002501999999MA1999999097531MD1310051+9999REMSYN066AAXX  28091 59567 32360 80305 10199 20186 39753 40129 53005 885//;EQDQ01  00002PRCP99
0163595670999992000042812004+22030+121570FM-12+032599999V0200401N008010042019N0100001N1+02031+02031101431ADDAA199000091GF108991081051004501999999MA1999999097671MD1110141+9999REMSYN066AAXX  28121 59567 32460 80408 10203 20203 39767 40143 51014 885//;EQDQ01  00002PRCP99
0150595670999992000042821004+22030+121570FM-12+032599999V0200501N005010042019N0100001N1+02121+02121101391ADDAA100003091GF108991081051004501999999MA1999999097641MD1410001+9999REMSYN072AAXX  28211 59567 12460 80505 10212 20212 39764 40139 54000 6003/ 885//;
0150595670999992000042900004+22030+121570FM-12+032599999V0200401N006010012019N0100001N1+02241+02241101491ADDAA112003091GF108991081051001501999999MA1999999097751MD1310111+9999REMSYN072AAXX  29001 59567 12260 80406 10224 20224 39775 40149 53011 60032 885//;
0163595670999992000042903004+22030+121570FM-12+032599999V0200501N001010012019N0100001N1+02611+02521101421ADDAA199000091GF108991081051001501999999MA1999999097731MD1510021+9999REMSYN066AAXX  29031 59567 32260 80501 10261 20252 39773 40142 55002 885//;EQDQ01  00002PRCP99
0163595670999992000042906004+22030+121570FM-12+032599999V0201601N001010012019N0100001N1+02471+02301101251ADDAA199000091GF108991081051001501999999MA1999999097551MD1810181+9999REMSYN066AAXX  29061 59567 32260 81601 10247 20230 39755 40125 58018 885//;EQDQ01  00002PRCP99
0163595670999992000042909004+22030+121570FM-12+032599999V0202201N002010012019N0100001N1+02431+02271101151ADDAA199000091GF108991081051001501999999MA1999999097451MD1510101+9999REMSYN066AAXX  29091 59567 32260 82202 10243 20227 39745 40115 55010 885//;EQDQ01  00002PRCP99
0163595670999992000042912004+22030+121570FM-12+032599999V0202301N002010042019N0100001N1+02381+02221101281ADDAA199000091GF105991051051004501001001MA1999999097561MD1310111+9999REMSYN066AAXX  29121 59567 32460 52302 10238 20222 39756 40128 53011 85500;EQDQ01  00002PRCP99
0163595670999992000042921004+22030+121570FM-12+032599999V0202401N009010012019N0100001N1+02391+02391101081ADDAA199000091GF106991061051001501001001MA1999999097371MD1510051+9999REMSYN066AAXX  29211 59567 32260 62409 10239 20239 39737 40108 55005 86500;EQDQ01  00002PRCP99
0163595670999992000043000004+22030+121570FM-12+032599999V0202501N011012200019N0150001N1+02501+02271101131ADDAA199000091GF102991021011004501001001MA1999999097431MD1010061+9999REMSYN066AAXX  30001 59567 32465 22511 10250 20227 39743 40113 50006 82100;EQDQ01  00002PRCP99
0163595670999992000043003004+22030+121570FM-12+032599999V0202501N013012200019N0100001N1+02631+02411101051ADDAA199000091GF104991041021001501001001MA1999999097371MD1710061+9999REMSYN066AAXX  30031 59567 32260 42513 10263 20241 39737 40105 57006 84200;EQDQ01  00002PRCP99
0163595670999992000043006004+22030+121570FM-12+032599999V0202501N031012200019N0100001N1+02651+02331100821ADDAA199000091GF102991021011001501001001MA1999999097151MD1710221+9999REMSYN066AAXX  30061 59567 32260 22531 10265 20233 39715 40082 57022 82100;EQDQ01  00002PRCP99
0163595670999992000043009004+22030+121570FM-12+032599999V0202501N016012200019N0100001N1+02551+02331100641ADDAA199000091GF102991021011001501001001MA1999999096971MD1710181+9999REMSYN066AAXX  30091 59567 32260 22516 10255 20233 39697 40064 57018 82100;EQDQ01  00002PRCP99
0163595670999992000043012004+22030+121570FM-12+032599999V0203601N006012200019N0100001N1+02571+02211100881ADDAA199000091GF104991041021001501001001MA1999999097201MD1310231+9999REMSYN066AAXX  30121 59567 32260 43606 10257 20221 39720 40088 53023 84200;EQDQ01  00002PRCP99
0150595670999992000043021004+22030+121570FM-12+032599999V0200301N018010012019N0100001N1+02201+02051100921ADDAA100001091GF108991081051001501999999MA1999999097201MD1310011+9999REMSYN072AAXX  30211 59567 12260 80318 10220 20205 39720 40092 53001 6001/ 885//;
0150595670999992000050100004+22030+121570FM-12+032599999V0200301N007010012019N0100001N1+02241+02081101191ADDAA112001091GF108991081051001501999999MA1999999097461MD1110261+9999REMSYN072AAXX  01001 59567 12260 80307 10224 20208 39746 40119 51026 60012 885//;
0163595670999992000050103004+22030+121570FM-12+032599999V0200401N006010042019N0100001N1+02381+02131101221ADDAA199000091GF108991081051004501999999MA1999999097511MD1010051+9999REMSYN066AAXX  01031 59567 32460 80406 10238 20213 39751 40122 50005 885//;EQDQ01  00002PRCP99
0163595670999992000050106004+22030+121570FM-12+032599999V0200401N008010042019N0100001N1+02371+02141100991ADDAA199000091GF108991081051004501999999MA1999999097281MD1710231+9999REMSYN066AAXX  01061 59567 32460 80408 10237 20214 39728 40099 57023 885//;EQDQ01  00002PRCP99
0163595670999992000050109004+22030+121570FM-12+032599999V0200401N006010042019N0100001N1+02251+02051100941ADDAA199000091GF108991081051004501999999MA1999999097221MD1710061+9999REMSYN066AAXX  01091 59567 32460 80406 10225 20205 39722 40094 57006 885//;EQDQ01  00002PRCP99
0163595670999992000050112004+22030+121570FM-12+032599999V0200401N013010042019N0100001N1+02171+02021101091ADDAA199000091GF108991081051004501999999MA1999999097361MD1210141+9999REMSYN066AAXX  01121 59567 32460 80413 10217 20202 39736 40109 52014 885//;EQDQ01  00002PRCP99
0163595670999992000050121004+22030+121570FM-12+032599999V0209999C000010012019N0100001N1+02191+02041100961ADDAA199000091GF108991081051001501999999MA1999999097231MD1510011+9999REMSYN066AAXX  01211 59567 32260 80000 10219 20204 39723 40096 55001 885//;EQDQ01  00002PRCP99
0163595670999992000050200004+22030+121570FM-12+032599999V0202101N001010012019N0100001N1+02331+02191101131ADDAA199000091GF108991081051001501999999MA1999999097411MD1110181+9999REMSYN066AAXX  02001 59567 32260 82101 10233 20219 39741 40113 51018 885//;EQDQ01  00002PRCP99
0163595670999992000050203004+22030+121570FM-12+032599999V0209999C000010012019N0100001N1+02401+02261101121ADDAA199000091GF108991081061001501999999MA1999999097411MD1410001+9999REMSYN066AAXX  02031 59567 32260 80000 10240 20226 39741 40112 54000 886//;EQDQ01  00002PRCP99
0163595670999992000050206004+22030+121570FM-12+032599999V0202301N002010012019N0100001N1+02541+02391100951ADDAA199000091GF108991081061001501999999MA1999999097271MD1810141+9999REMSYN066AAXX  02061 59567 32260 82302 10254 20239 39727 40095 58014 886//;EQDQ01  00002PRCP99
0163595670999992000050209004+22030+121570FM-12+032599999V0200201N006010012019N0100001N1+02331+02201100991ADDAA199000091GF108991081061001501999999MA1999999097281MD1310011+9999REMSYN066AAXX  02091 59567 32260 80206 10233 20220 39728 40099 53001 886//;EQDQ01  00002PRCP99
0163595670999992000050212004+22030+121570FM-12+032599999V0200301N010010012019N0100001N1+02261+02011101161ADDAA199000091GF108991081061001501999999MA1999999097431MD1210151+9999REMSYN066AAXX  02121 59567 32260 80310 10226 20201 39743 40116 52015 886//;EQDQ01  00002PRCP99
0178595670999992000050221004+22030+121570FM-12+032599999V0200201N005010012019N0100001N1+02171+02171101111ADDAA100007191AY161031AY221031GF108991081051001501999999MA1999999097371MD1510011+9999MW1021REMSYN078AAXX  02211 59567 11260 80205 10217 20217 39737 40111 55001 6007/ 70262 885//;
0178595670999992000050300004+22030+121570FM-12+032599999V0200201N007010021019N0100001N1+02221+02071101291ADDAA112007191AY161061AY221061GF107991071051002501999999MA1999999097551MD1210181+9999MW1021REMSYN078AAXX  03001 59567 11360 70207 10222 20207 39755 40129 52018 60072 70262 875//;
0163595670999992000050303004+22030+121570FM-12+032599999V0200201N005010021019N0150001N1+02281+02091101341ADDAA199000091GF108991081051002501999999MA1999999097611MD1010061+9999REMSYN066AAXX  03031 59567 32365 80205 10228 20209 39761 40134 50006 885//;EQDQ01  00002PRCP99
0163595670999992000050306004+22030+121570FM-12+032599999V0200201N012010042019N0200001N1+02471+02211101161ADDAA199000091GF107991071051004501999999MA1999999097461MD1710151+9999REMSYN066AAXX  03061 59567 32470 70212 10247 20221 39746 40116 57015 875//;EQDQ01  00002PRCP99
0163595670999992000050309004+22030+121570FM-12+032599999V0200201N007010042019N0200001N1+02251+01991101151ADDAA199000091GF108991081051004501999999MA1999999097421MD1610041+9999REMSYN066AAXX  03091 59567 32470 80207 10225 20199 39742 40115 56004 885//;EQDQ01  00002PRCP99
0163595670999992000050312004+22030+121570FM-12+032599999V0200201N004010042019N0150001N1+02251+01981101291ADDAA199000091GF108991081051004501999999MA1999999097561MD1210141+9999REMSYN066AAXX  03121 59567 32465 80204 10225 20198 39756 40129 52014 885//;EQDQ01  00002PRCP99
0178595670999992000050321004+22030+121570FM-12+032599999V0200501N009010012019N0100001N1+02161+02081101171ADDAA100004191AY161031AY221031GF108991081051001501999999MA1999999097431MD1510031+9999MW1211REMSYN078AAXX  03211 59567 11260 80509 10216 20208 39743 40117 55003 6004/ 72162 885//;
0178595670999992000050400004+22030+121570FM-12+032599999V0200401N005010006019N0050001N1+02201+02201101301ADDAA112006191AY161061AY221061GF108991081051000751999999MA1999999097561MD1110131+9999MW1601REMSYN078AAXX  04001 59567 11150 80405 10220 20220 39756 40130 51013 60062 76062 885//;
0178595670999992000050403004+22030+121570FM-12+032599999V0200501N006010006019N0050001N1+02261+02261101331ADDAA100007991AY161031AY221031GF108991081051000751999999MA1999999097601MD1010041+9999MW1021REMSYN078AAXX  04031 59567 11150 80506 10226 20226 39760 40133 50004 6008/ 70262 885//;
0178595670999992000050406004+22030+121570FM-12+032599999V0200201N006010006019N0050001N1+02211+02211101271ADDAA106024991AY161061AY221061GF108991081051000751999999MA1999999097531MD1810071+9999MW1211REMSYN078AAXX  04061 59567 11150 80206 10221 20221 39753 40127 58007 60251 72162 885//;
0178595670999992000050409004+22030+121570FM-12+032599999V0200301N006010042019N0200001N1+02131+02131101271ADDAA100026991AY161031AY221031GF108991081051004501999999MA1999999097521MD1510011+9999MW1021REMSYN078AAXX  04091 59567 11470 80306 10213 20213 39752 40127 55001 6027/ 70262 885//;
0178595670999992000050412004+22030+121570FM-12+032599999V0200301N015010042019N0150001N1+02231+01851101401ADDAA112026991AY161061AY221061GF108991081051004501999999MA1999999097661MD1110141+9999MW1021REMSYN078AAXX  04121 59567 11465 80315 10223 20185 39766 40140 51014 60272 70262 885//;
0163595670999992000050421004+22030+121570FM-12+032599999V0200401N011019999999N0150001N1+02171+01831101331ADDAA199000091GF107991071001999999031999MA1999999097591MD1610051+9999REMSYN066AAXX  04211 59567 32965 70411 10217 20183 39759 40133 56005 8703/;EQDQ01  00002PRCP99
0163595670999992000050500004+22030+121570FM-12+032599999V0200301N010019999999N0150001N1+02361+01961101431ADDAA199000091GF105991051001999999031001MA1999999097711MD1110121+9999REMSYN066AAXX  05001 59567 32965 50310 10236 20196 39771 40143 51012 85030;EQDQ01  00002PRCP99
0163595670999992000050503004+22030+121570FM-12+032599999V0200301N006012200019N0150001N1+02561+02071101471ADDAA199000091GF103991031011008001001001MA1999999097771MD1310061+9999REMSYN066AAXX  05031 59567 32565 30306 10256 20207 39777 40147 53006 83100;EQDQ01  00002PRCP99
0163595670999992000050506004+22030+121570FM-12+032599999V0200501N014012200019N0150001N1+02391+01951101381ADDAA199000091GF103991031011008001001001MA1999999097661MD1810111+9999REMSYN066AAXX  05061 59567 32565 30514 10239 20195 39766 40138 58011 83100;EQDQ01  00002PRCP99
0163595670999992000050509004+22030+121570FM-12+032599999V0200701N007010075019N0150001N1+02281+01821101361ADDAA199000091GF108991081051008001999999MA1999999097631MD1510031+9999REMSYN066AAXX  05091 59567 32565 80707 10228 20182 39763 40136 55003 885//;EQDQ01  00002PRCP99
0163595670999992000050512004+22030+121570FM-12+032599999V0200601N016010075019N0120001N1+02271+01781101471ADDAA199000091GF108991081051008001999999MA1999999097731MD1110101+9999REMSYN066AAXX  05121 59567 32562 80616 10227 20178 39773 40147 51010 885//;EQDQ01  00002PRCP99
0163595670999992000050521004+22030+121570FM-12+032599999V0200201N002012200019N0120001N1+02151+01861101341ADDAA199000091GF101991011011008001001001MA1999999097591MD1510051+9999REMSYN066AAXX  05211 59567 32562 10202 10215 20186 39759 40134 55005 81100;EQDQ01  00002PRCP99
0163595670999992000050600004+22030+121570FM-12+032599999V0200201N010012200019N0150001N1+02351+01991101451ADDAA199000091GF101991011011008001001001MA1999999097721MD1210131+9999REMSYN066AAXX  06001 59567 32565 10210 10235 20199 39772 40145 52013 81100;EQDQ01  00002PRCP99
0163595670999992000050603004+22030+121570FM-12+032599999V0200401N005012200019N0150001N1+02521+02071101411ADDAA199000091GF102991021011008001001001MA1999999097711MD1510011+9999REMSYN066AAXX  06031 59567 32565 20405 10252 20207 39771 40141 55001 82100;EQDQ01  00002PRCP99
0163595670999992000050606004+22030+121570FM-12+032599999V0200501N012012200019N0150001N1+02411+01951101331ADDAA199000091GF103991031011008001001001MA1999999097621MD1710091+9999REMSYN066AAXX  06061 59567 32565 30512 10241 20195 39762 40133 57009 83100;EQDQ01  00002PRCP99
0163595670999992000050609004+22030+121570FM-12+032599999V0200501N006010360019N0150001N1+02281+01891101231ADDAA199000091GF106991041051008001031001MA1999999097501MD1610121+9999REMSYN066AAXX  06091 59567 32565 60506 10228 20189 39750 40123 56012 84530;EQDQ01  00002PRCP99
0163595670999992000050612004+22030+121570FM-12+032599999V0200901N010010075019N0120001N1+02281+01971101351ADDAA199000091GF108991081051008001999999MA1999999097621MD1210121+9999REMSYN066AAXX  06121 59567 32562 80910 10228 20197 39762 40135 52012 885//;EQDQ01  00002PRCP99
0163595670999992000050621004+22030+121570FM-12+032599999V0200101N004012200019N0120001N1+02141+01871101241ADDAA199000091GF102991021011008001001001MA1999999097501MD1410001+9999REMSYN066AAXX  06211 59567 32562 20104 10214 20187 39750 40124 54000 82100;EQDQ01  00002PRCP99
0163595670999992000050700004+22030+121570FM-12+032599999V0200101N009010042019N0150001N1+02191+01981101381ADDAA199000091GF107991071051004501999999MA1999999097641MD1110141+9999REMSYN066AAXX  07001 59567 32465 70109 10219 20198 39764 40138 51014 875//;EQDQ01  00002PRCP99
0163595670999992000050703004+22030+121570FM-12+032599999V0200201N006010042019N0150001N1+02211+01971101411ADDAA199000091GF108991081051004501999999MA1999999097671MD1010031+9999REMSYN066AAXX  07031 59567 32465 80206 10221 20197 39767 40141 50003 885//;EQDQ01  00002PRCP99
0163595670999992000050706004+22030+121570FM-12+032599999V0200201N006010042019N0180001N1+02221+01931101241ADDAA199000091GF108991081051004501999999MA1999999097511MD1810161+9999REMSYN066AAXX  07061 59567 32468 80206 10222 20193 39751 40124 58016 885//;EQDQ01  00002PRCP99
0163595670999992000050709004+22030+121570FM-12+032599999V0200301N008010042019N0180001N1+02191+01851101151ADDAA199000091GF107991071051004501999999MA1999999097421MD1510091+9999REMSYN066AAXX  07091 59567 32468 70308 10219 20185 39742 40115 55009 875//;EQDQ01  00002PRCP99
0163595670999992000050721004+22030+121570FM-12+032599999V0203601N010012200019N0120001N1+02121+01731101151ADDAA199000091GF103991031021008001001001MA1999999097411MD1310021+9999REMSYN066AAXX  07211 59567 32562 33610 10212 20173 39741 40115 53002 83200;EQDQ01  00002PRCP99
0163595670999992000050800004+22030+121570FM-12+032599999V0200201N012010075019N0150001N1+02271+01901101251ADDAA199000091GF106991061021008001001001MA1999999097521MD1110111+9999REMSYN066AAXX  08001 59567 32565 60212 10227 20190 39752 40125 51011 86200;EQDQ01  00002PRCP99
0163595670999992000050803004+22030+121570FM-12+032599999V0200201N007010075019N0150001N1+02421+01971101221ADDAA199000091GF106991061021008001001001MA1999999097511MD1510011+9999REMSYN066AAXX  08031 59567 32565 60207 10242 20197 39751 40122 55001 86200;EQDQ01  00002PRCP99
0163595670999992000050806004+22030+121570FM-12+032599999V0200301N014010075019N0150001N1+02391+01891101081ADDAA199000091GF106991061021008001001001MA1999999097371MD1710141+9999REMSYN066AAXX  08061 59567 32565 60314 10239 20189 39737 40108 57014 86200;EQDQ01  00002PRCP99
0163595670999992000050809004+22030+121570FM-12+032599999V0200201N012010075019N0120001N1+02261+01781101041ADDAA199000091GF106991061021008001001001MA1999999097321MD1510051+9999REMSYN066AAXX  08091 59567 32562 60212 10226 20178 39732 40104 55005 86200;EQDQ01  00002PRCP99
0163595670999992000050812004+22030+121570FM-12+032599999V0200301N015010042019N0100001N1+02171+01641101191ADDAA199000091GF107991071051004501999999MA1999999097451MD1210131+9999REMSYN066AAXX  08121 59567 32460 70315 10217 20164 39745 40119 52013 875//;EQDQ01  00002PRCP99
0163595670999992000050821004+22030+121570FM-12+032599999V0200401N015012200019N0120001N1+02111+01601100981ADDAA199000091GF103991031021008001001001MA1999999097241MD1610081+9999REMSYN066AAXX  08211 59567 32562 30415 10211 20160 39724 40098 56008 83200;EQDQ01  00002PRCP99
0163595670999992000050900004+22030+121570FM-12+032599999V0200301N006012200019N0120001N1+02261+01681101021ADDAA199000091GF104991041021008001001001MA1999999097301MD1310061+9999REMSYN066AAXX  09001 59567 32562 40306 10226 20168 39730 40102 53006 84200;EQDQ01  00002PRCP99
0163595670999992000050903004+22030+121570FM-12+032599999V0200301N004012200019N0120001N1+02451+01831100981ADDAA199000091GF103991031021008001001001MA1999999097281MD1810021+9999REMSYN066AAXX  09031 59567 32562 30304 10245 20183 39728 40098 58002 83200;EQDQ01  00002PRCP99
0163595670999992000050906004+22030+121570FM-12+032599999V0200301N010012200019N0120001N1+02481+01811100751ADDAA199000091GF101991011011008001001001MA1999999097071MD1710211+9999REMSYN066AAXX  09061 59567 32562 10310 10248 20181 39707 40075 57021 81100;EQDQ01  00002PRCP99
0163595670999992000050909004+22030+121570FM-12+032599999V0200401N007012200019N0120001N1+02261+01661100701ADDAA199000091GF101991011011008001001001MA1999999096991MD1510081+9999REMSYN066AAXX  09091 59567 32562 10407 10226 20166 39699 40070 55008 81100;EQDQ01  00002PRCP99
0163595670999992000050912004+22030+121570FM-12+032599999V0200401N011012200019N0100001N1+02121+01571100821ADDAA199000091GF102991021011008001001001MA1999999097091MD1110101+9999REMSYN066AAXX  09121 59567 32560 20411 10212 20157 39709 40082 51010 82100;EQDQ01  00002PRCP99
0163595670999992000050921004+22030+121570FM-12+032599999V0200401N005012200019N0100001N1+02021+01581100671ADDAA199000091GF101991011011008001001001MA1999999096931MD1810041+9999REMSYN066AAXX  09211 59567 32560 10405 10202 20158 39693 40067 58004 81100;EQDQ01  00002PRCP99
0173595670999992000051000004+22030+121570FM-12+032599999V0200601N008012200019N0120001N1+02331+01711100741ADDAA199000091GA1001+999999999GF100991001001999999001001MA1999999097041MD1110111+9999REMSYN060AAXX  10001 59567 32962 00608 10233 20171 39704 40074 51011;EQDQ01  00002PRCP99
0163595670999992000051003004+22030+121570FM-12+032599999V0200601N004012200019N0120001N1+02511+01891100731ADDAA199000091GF102991021011008001001001MA1999999097051MD1010011+9999REMSYN066AAXX  10031 59567 32562 20604 10251 20189 39705 40073 50001 82100;EQDQ01  00002PRCP99
0163595670999992000051006004+22030+121570FM-12+032599999V0200501N005012200019N0100001N1+02451+01821100611ADDAA199000091GF102991021011008001001001MA1999999096931MD1810121+9999REMSYN066AAXX  10061 59567 32560 20505 10245 20182 39693 40061 58012 82100;EQDQ01  00002PRCP99
0173595670999992000051009004+22030+121570FM-12+032599999V0200401N005012200019N0100001N1+02331+01761100641ADDAA199000091GA1001+999999999GF100991001001999999001001MA1999999096941MD1310011+9999REMSYN060AAXX  10091 59567 32960 00405 10233 20176 39694 40064 53001;EQDQ01  00002PRCP99
0163595670999992000051012004+22030+121570FM-12+032599999V0200401N006012200019N0100001N1+02191+01711100811ADDAA199000091GF102991021011008001001001MA1999999097091MD1210151+9999REMSYN066AAXX  10121 59567 32560 20406 10219 20171 39709 40081 52015 82100;EQDQ01  00002PRCP99
0163595670999992000051021004+22030+121570FM-12+032599999V0200401N006010075019N0100001N1+02211+01821100731ADDAA199000091GF107991071051008001999999MA1999999097011MD1510011+9999REMSYN066AAXX  10211 59567 32560 70406 10221 20182 39701 40073 55001 875//;EQDQ01  00002PRCP99
0163595670999992000051100004+22030+121570FM-12+032599999V0200201N005010075019N0150001N1+02281+01781100791ADDAA199000091GF107991071051008001999999MA1999999097081MD1110071+9999REMSYN066AAXX  11001 59567 32565 70205 10228 20178 39708 40079 51007 875//;EQDQ01  00002PRCP99
0178595670999992000051103004+22030+121570FM-12+032599999V0200401N012010012019N0100001N1+02161+01911100791ADDAA100001091AY161031AY221031GF108991081071001501999999MA1999999097071MD1810011+9999MW1601REMSYN078AAXX  11031 59567 11260 80412 10216 20191 39707 40079 58001 6001/ 76062 887//;
0178595670999992000051106004+22030+121570FM-12+032599999V0200301N011010360019N0150001N1+02501+02041100711ADDAA106001091AY161061AY221061GF106991041051008001031001MA1999999097031MD1810041+9999MW1011REMSYN078AAXX  11061 59567 11565 60311 10250 20204 39703 40071 58004 60011 70162 84530;
0150595670999992000051109004+22030+121570FM-12+032599999V0203601N006010042019N0150001N1+02281+01831100751ADDAA100001091GF107991071051004501999999MA1999999097041MD1310011+9999REMSYN072AAXX  11091 59567 12465 73606 10228 20183 39704 40075 53001 6001/ 875//;
0150595670999992000051112004+22030+121570FM-12+032599999V0200201N008010042019N0100001N1+02271+01751100911ADDAA112001091GF108991081051004501999999MA1999999097191MD1210151+9999REMSYN072AAXX  11121 59567 12460 80208 10227 20175 39719 40091 52015 60012 885//;
0163595670999992000051121004+22030+121570FM-12+032599999V0200301N006010360019N0100001N1+02221+01711100811ADDAA199000091GF107991021011008001031001MA1999999097091MD1510061+9999REMSYN066AAXX  11211 59567 32560 70306 10222 20171 39709 40081 55006 82130;EQDQ01  00002PRCP99
0163595670999992000051200004+22030+121570FM-12+032599999V0200601N004010075019N0120001N1+02251+01831100931ADDAA199000091GF108991051051008001021999MA1999999097211MD1210121+9999REMSYN066AAXX  12001 59567 32562 80604 10225 20183 39721 40093 52012 8552/;EQDQ01  00002PRCP99
0163595670999992000051203004+22030+121570FM-12+032599999V0200601N005010075019N0100001N1+02281+01831100911ADDAA199000091GF108991061051008001011999MA1999999097201MD1510011+9999REMSYN066AAXX  12031 59567 32560 80605 10228 20183 39720 40091 55001 8651/;EQDQ01  00002PRCP99
0163595670999992000051206004+22030+121570FM-12+032599999V0200401N010010075019N0100001N1+02261+01791100791ADDAA199000091GF108991081051008001999999MA1999999097081MD1710121+9999REMSYN066AAXX  12061 59567 32560 80410 10226 20179 39708 40079 57012 885//;EQDQ01  00002PRCP99
0163595670999992000051209004+22030+121570FM-12+032599999V0200701N005010360019N0120001N1+02261+01741100741ADDAA199000091GF108991011011008001021999MA1999999097031MD1510051+9999REMSYN066AAXX  12091 59567 32562 80705 10226 20174 39703 40074 55005 8112/;EQDQ01  00002PRCP99
0163595670999992000051212004+22030+121570FM-12+032599999V0200701N010010360019N0100001N1+02291+01701100851ADDAA199000091GF108991021051008001021999MA1999999097141MD1110111+9999REMSYN066AAXX  12121 59567 32560 80710 10229 20170 39714 40085 51011 8252/;EQDQ01  00002PRCP99
0163595670999992000051221004+22030+121570FM-12+032599999V0200701N002010360019N0120001N1+02331+01631100851ADDAA199000091GF106991011011004501071001MA1999999097141MD1310081+9999REMSYN066AAXX  12211 59567 32462 60702 10233 20163 39714 40085 53008 81170;EQDQ01  00002PRCP99
0163595670999992000051300004+22030+121570FM-12+032599999V0200401N005010360019N0180001N1+02391+01821101011ADDAA199000091GF106991011011008001071001MA1999999097311MD1110171+9999REMSYN066AAXX  13001 59567 32568 60405 10239 20182 39731 40101 51017 81170;EQDQ01  00002PRCP99
0163595670999992000051303004+22030+121570FM-12+032599999V0200801N006010360019N0180001N1+02591+01911100951ADDAA199000091GF106991011011008001031001MA1999999097271MD1810041+9999REMSYN066AAXX  13031 59567 32568 60806 10259 20191 39727 40095 58004 81130;EQDQ01  00002PRCP99
0163595670999992000051306004+22030+121570FM-12+032599999V0200801N007010360019N0150001N1+02471+01961100801ADDAA199000091GF106991011011008001031001MA1999999097111MD1810161+9999REMSYN066AAXX  13061 59567 32565 60807 10247 20196 39711 40080 58016 81130;EQDQ01  00002PRCP99
0163595670999992000051309004+22030+121570FM-12+032599999V0200601N005012200019N0150001N1+02441+01911100841ADDAA199000091GF103991011011008001031011MA1999999097151MD1310041+9999REMSYN066AAXX  13091 59567 32565 30605 10244 20191 39715 40084 53004 81131;EQDQ01  00002PRCP99
0163595670999992000051312004+22030+121570FM-12+032599999V0200701N007010075019N0120001N1+02351+01851101041ADDAA199000091GF106991061051008001001001MA1999999097331MD1210181+9999REMSYN066AAXX  13121 59567 32562 60707 10235 20185 39733 40104 52018 86500;EQDQ01  00002PRCP99
0163595670999992000051321004+22030+121570FM-12+032599999V0200301N006010360019N0120001N1+02251+01911101031ADDAA199000091GF106991011011004501031081MA1999999097311MD1310051+9999REMSYN066AAXX  13211 59567 32462 60306 10225 20191 39731 40103 53005 81138;EQDQ01  00002PRCP99
0163595670999992000051400004+22030+121570FM-12+032599999V0200201N011019999999N0120001N1+02381+01941101171ADDAA199000091GF106991061001999999071001MA1999999097461MD1210151+9999REMSYN066AAXX  14001 59567 32962 60211 10238 20194 39746 40117 52015 86070;EQDQ01  00002PRCP99
0163595670999992000051403004+22030+121570FM-12+032599999V0200201N005019999999N0120001N1+02461+01941101141ADDAA199000091GF107991071001999999071999MA1999999097441MD1810021+9999REMSYN066AAXX  14031 59567 32962 70205 10246 20194 39744 40114 58002 8707/;EQDQ01  00002PRCP99
0163595670999992000051406004+22030+121570FM-12+032599999V0200301N004019999999N0120001N1+02461+01961101011ADDAA199000091GF107991071001999999071999MA1999999097311MD1810131+9999REMSYN066AAXX  14061 59567 32962 70304 10246 20196 39731 40101 58013 8707/;EQDQ01  00002PRCP99
0163595670999992000051409004+22030+121570FM-12+032599999V0200401N006010021019N0120001N1+02401+02091100951ADDAA199000091GF108991081051002501999999MA1999999097251MD1510061+9999REMSYN066AAXX  14091 59567 32362 80406 10240 20209 39725 40095 55006 885//;EQDQ01  00002PRCP99
0163595670999992000051412004+22030+121570FM-12+032599999V0200601N014010042019N0120001N1+02351+02041101061ADDAA199000091GF108991081051004501999999MA1999999097351MD1210101+9999REMSYN066AAXX  14121 59567 32462 80614 10235 20204 39735 40106 52010 885//;EQDQ01  00002PRCP99
0163595670999992000051421004+22030+121570FM-12+032599999V0200601N007010360019N0100001N1+02331+02031100921ADDAA199000091GF107991021011004501071999MA1999999097211MD1510021+9999REMSYN066AAXX  14211 59567 32460 70607 10233 20203 39721 40092 55002 8217/;EQDQ01  00002PRCP99
0163595670999992000051500004+22030+121570FM-12+032599999V0200501N013010042019N0120001N1+02391+02071101001ADDAA199000091GF107991071051004501999999MA1999999097301MD1110091+9999REMSYN066AAXX  15001 59567 32462 70513 10239 20207 39730 40100 51009 875//;EQDQ01  00002PRCP99
0178595670999992000051503004+22030+121570FM-12+032599999V0200301N005010012019N0100001N1+02281+02121101041ADDAA100000591AY161031AY221031GF108991081061001501999999MA1999999097321MD1010021+9999MW1211REMSYN078AAXX  15031 59567 11260 80305 10228 20212 39732 40104 50002 6995/ 72162 886//;
0178595670999992000051506004+22030+121570FM-12+032599999V0200201N006010012019N0120001N1+02271+02071100861ADDAA106001091AY161061AY221061GF108991081051001501999999MA1999999097151MD1810171+9999MW1021REMSYN078AAXX  15061 59567 11262 80206 10227 20207 39715 40086 58017 60011 70262 885//;
0150595670999992000051509004+22030+121570FM-12+032599999V0203601N003010006019N0100001N1+02311+02141100771ADDAA100001091GF108991081051000751999999MA1999999097061MD1610091+9999REMSYN072AAXX  15091 59567 12160 83603 10231 20214 39706 40077 56009 6001/ 885//;
0150595670999992000051512004+22030+121570FM-12+032599999V0200401N011010021019N0100001N1+02351+02121100881ADDAA112001091GF107991071051002501999999MA1999999097181MD1310121+9999REMSYN072AAXX  15121 59567 12360 70411 10235 20212 39718 40088 53012 60012 875//;
0163595670999992000051521004+22030+121570FM-12+032599999V0200101N007010012019N0100001N1+02351+02141100681ADDAA199000091GF108991081051001501999999MA1999999096981MD1510021+9999REMSYN066AAXX  15211 59567 32260 80107 10235 20214 39698 40068 55002 885//;EQDQ01  00002PRCP99
0163595670999992000051609004+22030+121570FM-12+032599999V0200201N003010012019N0120001N1+02441+02201100391ADDAA199000091GF106991061041001501001001MA1999999096711MD1710091+9999REMSYN066AAXX  16091 59567 32262 60203 10244 20220 39671 40039 57009 86400;EQDQ01  00002PRCP99
0163595670999992000051612004+22030+121570FM-12+032599999V0200201N012010012019N0120001N1+02401+02221100531ADDAA199000091GF107991071041001501999999MA1999999096841MD1310131+9999REMSYN066AAXX  16121 59567 32262 70212 10240 20222 39684 40053 53013 874//;EQDQ01  00002PRCP99
0150595670999992000051621004+22030+121570FM-12+032599999V0200301N014010012019N0150001N1+02331+02151100391ADDAA100008991GF106991061041001501001001MA1999999096701MD1510021+9999REMSYN072AAXX  16211 59567 12265 60314 10233 20215 39670 40039 55002 6009/ 86400;
0150595670999992000051700004+22030+121570FM-12+032599999V0203601N010010006019N0100001N1+02371+02201100511ADDAA112008991GF108991081051000751999999MA1999999096821MD1110121+9999REMSYN072AAXX  17001 59567 12160 83610 10237 20220 39682 40051 51012 60092 885//;
0163595670999992000051703004+22030+121570FM-12+032599999V0200101N007010012019N0150001N1+02501+02251100581ADDAA199000091GF108991081051001501999999MA1999999096901MD1110081+9999REMSYN066AAXX  17031 59567 32265 80107 10250 20225 39690 40058 51008 885//;EQDQ01  00002PRCP99
0163595670999992000051706004+22030+121570FM-12+032599999V0200101N008010006019N0100001N1+02371+02181100481ADDAA199000091GF108991081061000751999999MA1999999096791MD1710111+9999REMSYN066AAXX  17061 59567 32160 80108 10237 20218 39679 40048 57011 886//;EQDQ01  00002PRCP99
0178595670999992000051709004+22030+121570FM-12+032599999V0200201N021010012019N0120001N1+02351+02111100441ADDAA100003091AY161031AY221031GF107991071051001501999999MA1999999096751MD1510041+9999MW1021REMSYN078AAXX  17091 59567 11262 70221 10235 20211 39675 40044 55004 6003/ 70262 875//;
0178595670999992000051712004+22030+121570FM-12+032599999V0200101N007010012019N0100001N1+02331+02031100681ADDAA112003091AY161061AY221061GF108991081051001501999999MA1999999096981MD1310231+9999MW1031REMSYN078AAXX  17121 59567 11260 80107 10233 20203 39698 40068 53023 60032 70362 885//;
0163595670999992000051721004+22030+121570FM-12+032599999V0200201N007010021019N0100001N1+02251+01961100591ADDAA199000091GF106991061041002501001001MA1999999096881MD1510011+9999REMSYN066AAXX  17211 59567 32360 60207 10225 20196 39688 40059 55001 86400;EQDQ01  00002PRCP99
0163595670999992000051800004+22030+121570FM-12+032599999V0200201N016010042019N0100001N1+02341+02031100691ADDAA199000091GF105991051041004501001001MA1999999096991MD1210111+9999REMSYN066AAXX  18001 59567 32460 50216 10234 20203 39699 40069 52011 85400;EQDQ01  00002PRCP99
0163595670999992000051803004+22030+121570FM-12+032599999V0200101N006010021019N0100001N1+02501+02191100681ADDAA199000091GF106991061041002501001001MA1999999097001MD1010011+9999REMSYN066AAXX  18031 59567 32360 60106 10250 20219 39700 40068 50001 86400;EQDQ01  00002PRCP99
0163595670999992000051809004+22030+121570FM-12+032599999V0200201N009010012019N0100001N1+02361+02141100511ADDAA199000091GF107991071041001501999999MA1999999096821MD1810051+9999REMSYN066AAXX  18091 59567 32260 70209 10236 20214 39682 40051 58005 874//;EQDQ01  00002PRCP99
0163595670999992000051812004+22030+121570FM-12+032599999V0200201N005010042019N0100001N1+02351+02181100671ADDAA199000091GF108991081041004501999999MA1999999096971MD1210151+9999REMSYN066AAXX  18121 59567 32460 80205 10235 20218 39697 40067 52015 884//;EQDQ01  00002PRCP99
0163595670999992000051821004+22030+121570FM-12+032599999V0200301N016012200019N0100001N1+02311+02091100511ADDAA199000091GF103991031041004501001001MA1999999096811MD1510011+9999REMSYN066AAXX  18211 59567 32460 30316 10231 20209 39681 40051 55001 83400;EQDQ01  00002PRCP99
0163595670999992000051900004+22030+121570FM-12+032599999V0200201N007010021019N0120001N1+02401+02161100621ADDAA199000091GF107991071041002501999999MA1999999096931MD1110121+9999REMSYN066AAXX  19001 59567 32362 70207 10240 20216 39693 40062 51012 874//;EQDQ01  00002PRCP99
0163595670999992000051903004+22030+121570FM-12+032599999V0200201N004010075019N0150001N1+02611+02211100621ADDAA199000091GF106991051041008001031001MA1999999096961MD1010031+9999REMSYN066AAXX  19031 59567 32565 60204 10261 20221 39696 40062 50003 85430;EQDQ01  00002PRCP99
0163595670999992000051906004+22030+121570FM-12+032599999V0200301N007010042019N0150001N1+02531+02191100581ADDAA199000091GF106991061041004501001001MA1999999096911MD1810051+9999REMSYN066AAXX  19061 59567 32465 60307 10253 20219 39691 40058 58005 86400;EQDQ01  00002PRCP99
0163595670999992000051909004+22030+121570FM-12+032599999V0200301N005010021019N0120001N1+02361+02131100591ADDAA199000091GF107991071041002501999999MA1999999096901MD1510011+9999REMSYN066AAXX  19091 59567 32362 70305 10236 20213 39690 40059 55001 874//;EQDQ01  00002PRCP99
0178595670999992000051912004+22030+121570FM-12+032599999V0200101N005010021019N0120001N1+02231+02131100791ADDAA112000591AY161061AY221061GF108991081041002501999999MA1999999097071MD1310171+9999MW1211REMSYN078AAXX  19121 59567 11362 80105 10223 20213 39707 40079 53017 69952 72162 884//;
0178595670999992000051921004+22030+121570FM-12+032599999V0200101N005010012019N0100001N1+02201+02091100851ADDAA100004191AY161031AY221031GF108991081051001501999999MA1999999097131MD1110071+9999MW1211REMSYN078AAXX  19211 59567 11260 80105 10220 20209 39713 40085 51007 6004/ 72162 885//;
0178595670999992000052000004+22030+121570FM-12+032599999V0200101N014010042019N0120001N1+02251+02061100981ADDAA112004191AY161061AY221061GF107991071051004501999999MA1999999097261MD1110131+9999MW1021REMSYN078AAXX  20001 59567 11462 70114 10225 20206 39726 40098 51013 60042 70262 875//;
0144595670999992000052003004+22030+121570FM-12+032599999V0200301N035010021019N0100001N1+02211+01981100921ADDAA199000021GF108991081051002501999999MA1999999097201MD1510061+9999REMSYN066AAXX  20031 59567 32360 80335 10221 20198 39720 40092 55006 885//;
0178595670999992000052006004+22030+121570FM-12+032599999V0200201N006010360019N0100001N1+02201+02031100921ADDAA106002091AY161061AY221061GF108991021071004501011999MA1999999097201MD1410001+9999MW1211REMSYN078AAXX  20061 59567 11460 80206 10220 20203 39720 40092 54000 60021 72162 8271/;
0178595670999992000052009004+22030+121570FM-12+032599999V0200301N015010012019N0100001N1+02041+01891100811ADDAA100003091AY161031AY221031GF108991081071001501999999MA1999999097071MD1610131+9999MW1611REMSYN078AAXX  20091 59567 11260 80315 10204 20189 39707 40081 56013 6003/ 76162 887//;
0178595670999992000052012004+22030+121570FM-12+032599999V0200201N010010012019N0100001N1+02031+01931101011ADDAA112006191AY161061AY221061GF108991081071001501999999MA1999999097261MD1310191+9999MW1611REMSYN078AAXX  20121 59567 11260 80210 10203 20193 39726 40101 53019 60062 76162 887//;
0178595670999992000052021004+22030+121570FM-12+032599999V0200101N007010012019N0100001N1+02041+01931100921ADDAA100007191AY161031AY221031GF108991081071001501999999MA1999999097181MD1310151+9999MW1611REMSYN078AAXX  20211 59567 11260 80107 10204 20193 39718 40092 53015 6007/ 76162 887//;
0178595670999992000052100004+22030+121570FM-12+032599999V0200201N015010012019N0100001N1+02041+01961100941ADDAA112011991AY161061AY221061GF108991081071001501999999MA1999999097191MD1310011+9999MW1611REMSYN078AAXX  21001 59567 11260 80215 10204 20196 39719 40094 53001 60122 76162 887//;
0178595670999992000052103004+22030+121570FM-12+032599999V0200201N008010012019N0100001N1+02091+01991100911ADDAA100005191AY161031AY261031GF108991081071001501999999MA1999999097171MD1810021+9999MW1611REMSYN078AAXX  21031 59567 11260 80208 10209 20199 39717 40091 58002 6005/ 76166 887//;
0178595670999992000052106004+22030+121570FM-12+032599999V0200101N013010006019N0100001N1+02081+02021100841ADDAA106009991AY161061AY261061GF108991081071000751999999MA1999999097101MD1810071+9999MW1611REMSYN078AAXX  21061 59567 11160 80113 10208 20202 39710 40084 58007 60101 76166 887//;
0178595670999992000052109004+22030+121570FM-12+032599999V0200301N018010006019N0100001N1+02051+02011100651ADDAA100014091AY161031AY261031GF108991081071000751999999MA1999999096921MD1610181+9999MW1611REMSYN078AAXX  21091 59567 11160 80318 10205 20201 39692 40065 56018 6014/ 76166 887//;
0178595670999992000052112004+22030+121570FM-12+032599999V0200301N038010012019N0100001N1+02071+01961100711ADDAA112015091AY161061AY221061GF108991081061001501999999MA1999999096981MD1010061+9999MW1021REMSYN078AAXX  21121 59567 11260 80338 10207 20196 39698 40071 50006 60152 70262 886//;
0144595670999992000052121004+22030+121570FM-12+032599999V0200101N012010012019N0100001N1+02191+02011100681ADDAA199000021GF107991071051001501999999MA1999999096961MD1310111+9999REMSYN066AAXX  21211 59567 32260 70112 10219 20201 39696 40068 53011 875//;
0163595670999992000052200004+22030+121570FM-12+032599999V0200201N027010021019N0120001N1+02241+02041100861ADDAA199000091GF107991071051002501999999MA1999999097141MD1010181+9999REMSYN066AAXX  22001 59567 32362 70227 10224 20204 39714 40086 50018 875//;EQDQ01  00002PRCP99
0163595670999992000052203004+22030+121570FM-12+032599999V0200201N011010021019N0120001N1+02341+02051100991ADDAA199000091GF107991071051002501999999MA1999999097281MD1110141+9999REMSYN066AAXX  22031 59567 32362 70211 10234 20205 39728 40099 51014 875//;EQDQ01  00002PRCP99
0163595670999992000052206004+22030+121570FM-12+032599999V0200201N010010042019N0150001N1+02321+02031101031ADDAA199000091GF107991071051004501999999MA1999999097321MD1010041+9999REMSYN066AAXX  22061 59567 32465 70210 10232 20203 39732 40103 50004 875//;EQDQ01  00002PRCP99
0178595670999992000052209004+22030+121570FM-12+032599999V0200301N011010006019N0100001N1+02211+02091101071ADDAA100001091AY161031AY221031GF108991081071000751999999MA1999999097341MD1010021+9999MW1611REMSYN078AAXX  22091 59567 11160 80311 10221 20209 39734 40107 50002 6001/ 76162 887//;
0150595670999992000052221004+22030+121570FM-12+032599999V0200301N007010042019N0120001N1+02241+01981101101ADDAA100000791GF107991071051004501999999MA1999999097371MD1010051+9999REMSYN072AAXX  22211 59567 12462 70307 10224 20198 39737 40110 50005 6990/ 875//;
0178595670999992000052300004+22030+121570FM-12+032599999V0200201N013010012019N0120001N1+02181+02101101201ADDAA112000591AY161061AY221061GF108991081051001501999999MA1999999097461MD1010091+9999MW1211REMSYN078AAXX  23001 59567 11262 80213 10218 20210 39746 40120 50009 69952 72162 885//;
0144595670999992000052303004+22030+121570FM-12+032599999V0200301N007010075019N0150001N1+02301+02001101221ADDAA199000021GF108991081051008001999999MA1999999097501MD1010041+9999REMSYN066AAXX  23031 59567 32565 80307 10230 20200 39750 40122 50004 885//;
0144595670999992000052306004+22030+121570FM-12+032599999V0200201N004010360019N0180001N1+02561+02041101061ADDAA199000021GF106991021011008001031001MA1999999097371MD1810131+9999REMSYN066AAXX  23061 59567 32568 60204 10256 20204 39737 40106 58013 82130;
0144595670999992000052309004+22030+121570FM-12+032599999V0200201N006010360019N0180001N1+02341+01951101021ADDAA199000021GF106991021011008001071001MA1999999097311MD1510061+9999REMSYN066AAXX  23091 59567 32568 60206 10234 20195 39731 40102 55006 82170;
0144595670999992000052312004+22030+121570FM-12+032599999V0200201N010010360019N0120001N1+02241+01941101171ADDAA199000021GF106991021011008001071001MA1999999097441MD1210131+9999REMSYN066AAXX  23121 59567 32562 60210 10224 20194 39744 40117 52013 82170;
0163595670999992000052400004+22030+121570FM-12+032599999V0200301N006010360019N0150001N1+02411+02101101191ADDAA199000091GF106991021011004501071001MA1999999097481MD1110141+9999REMSYN066AAXX  24001 59567 32465 60306 10241 20210 39748 40119 51014 82170;EQDQ01  00002PRCP99
0163595670999992000052403004+22030+121570FM-12+032599999V0200601N006010360019N0200001N1+02481+02131101161ADDAA199000091GF106991031041004501031001MA1999999097461MD1810021+9999REMSYN066AAXX  24031 59567 32470 60606 10248 20213 39746 40116 58002 83430;EQDQ01  00002PRCP99
0163595670999992000052406004+22030+121570FM-12+032599999V0200401N004012200019N0300001N1+02551+02131100991ADDAA199000091GF102991021011004501001091MA1999999097311MD1710151+9999REMSYN066AAXX  24061 59567 32480 20404 10255 20213 39731 40099 57015 82109;EQDQ01  00002PRCP99
0163595670999992000052409004+22030+121570FM-12+032599999V0200301N006010900019N0300001N1+02411+02081100961ADDAA199000091GF105991041041004501001091MA1999999097261MD1510051+9999REMSYN066AAXX  24091 59567 32480 50306 10241 20208 39726 40096 55005 84409;EQDQ01  00002PRCP99
0163595670999992000052412004+22030+121570FM-12+032599999V0200401N003010042019N0200001N1+02321+02081101011ADDAA199000091GF107991071041004501999999MA1999999097301MD1310041+9999REMSYN066AAXX  24121 59567 32470 70403 10232 20208 39730 40101 53004 874//;EQDQ01  00002PRCP99
0163595670999992000052421004+22030+121570FM-12+032599999V0200501N006012200019N0300001N1+02281+02091100911ADDAA199000091GF103991021011004501031001MA1999999097201MD1510061+9999REMSYN066AAXX  24211 59567 32480 30506 10228 20209 39720 40091 55006 82130;EQDQ01  00002PRCP99
0163595670999992000052500004+22030+121570FM-12+032599999V0200701N006010360019N0300001N1+02491+02191101021ADDAA199000091GF105991031011004501031001MA1999999097331MD1110131+9999REMSYN066AAXX  25001 59567 32480 50706 10249 20219 39733 40102 51013 83130;EQDQ01  00002PRCP99
0163595670999992000052503004+22030+121570FM-12+032599999V0200801N007010360019N0300001N1+02531+02231100981ADDAA199000091GF107991021011004501071999MA1999999097291MD1810041+9999REMSYN066AAXX  25031 59567 32480 70807 10253 20223 39729 40098 58004 8217/;EQDQ01  00002PRCP99
0163595670999992000052506004+22030+121570FM-12+032599999V0200701N010010042019N0300001N1+02511+02231100821ADDAA199000091GF107991071041004501999999MA1999999097141MD1710151+9999REMSYN066AAXX  25061 59567 32480 70710 10251 20223 39714 40082 57015 874//;EQDQ01  00002PRCP99
0163595670999992000052509004+22030+121570FM-12+032599999V0201001N003010012019N0250001N1+02411+02221100781ADDAA199000091GF107991071041001501999999MA1999999097091MD1510051+9999REMSYN066AAXX  25091 59567 32275 71003 10241 20222 39709 40078 55005 874//;EQDQ01  00002PRCP99
0163595670999992000052512004+22030+121570FM-12+032599999V0200801N003010012019N0100001N1+02351+02241100931ADDAA199000091GF108991081041001501999999MA1999999097221MD1310131+9999REMSYN066AAXX  25121 59567 32260 80803 10235 20224 39722 40093 53013 884//;EQDQ01  00002PRCP99
0178595670999992000052521004+22030+121570FM-12+032599999V0202601N008010012019N0100001N1+02361+02321100731ADDAA100030091AY161031AY221031GF108991081071001501999999MA1999999097031MD1510021+9999MW1611REMSYN078AAXX  25211 59567 11260 82608 10236 20232 39703 40073 55002 6030/ 76162 887//;
0178595670999992000052600004+22030+121570FM-12+032599999V0202501N017010012019N0100001N1+02461+02401100821ADDAA112030091AY161061AY221061GF108991081051001501999999MA1999999097131MD1110101+9999MW1021REMSYN078AAXX  26001 59567 11260 82517 10246 20240 39713 40082 51010 60302 70262 885//;
0144595670999992000052603004+22030+121570FM-12+032599999V0202401N022010021019N0250001N1+02581+02451100781ADDAA199000021GF106991061051002501001001MA1999999097111MD1810021+9999REMSYN066AAXX  26031 59567 32375 62422 10258 20245 39711 40078 58002 86500;
0144595670999992000052606004+22030+121570FM-12+032599999V0202501N013010021019N0200001N1+02531+02251100701ADDAA199000021GF107991071051002501999999MA1999999097021MD1710091+9999REMSYN066AAXX  26061 59567 32370 72513 10253 20225 39702 40070 57009 875//;
0144595670999992000052609004+22030+121570FM-12+032599999V0202501N011010021019N0180001N1+02511+02291100671ADDAA199000021GF106991051051002501031001MA1999999096991MD1510031+9999REMSYN066AAXX  26091 59567 32368 62511 10251 20229 39699 40067 55003 85530;
0163595670999992000052621004+22030+121570FM-12+032599999V0202501N013010360019N0200001N1+02401+02271100721ADDAA199000091GF106991031021001501031001MA1999999097031MD1310071+9999REMSYN066AAXX  26211 59567 32270 62513 10240 20227 39703 40072 53007 83230;EQDQ01  00002PRCP99
0163595670999992000052700004+22030+121570FM-12+032599999V0202501N012010012019N0200001N1+02491+02321100921ADDAA199000091GF106991061041001501001001MA1999999097231MD1110201+9999REMSYN066AAXX  27001 59567 32270 62512 10249 20232 39723 40092 51020 86400;EQDQ01  00002PRCP99
0163595670999992000052703004+22030+121570FM-12+032599999V0202501N012010012019N0150001N1+02521+02351100931ADDAA199000091GF108991081051001501999999MA1999999097241MD1010011+9999REMSYN066AAXX  27031 59567 32265 82512 10252 20235 39724 40093 50001 885//;EQDQ01  00002PRCP99
0163595670999992000052706004+22030+121570FM-12+032599999V0202501N026010012019N0150001N1+02521+02371100751ADDAA199000091GF107991071051001501999999MA1999999097071MD1810171+9999REMSYN066AAXX  27061 59567 32265 72526 10252 20237 39707 40075 58017 875//;EQDQ01  00002PRCP99
0163595670999992000052709004+22030+121570FM-12+032599999V0202501N023010360019N0150001N1+02521+02321100701ADDAA199000091GF105991021021001501031001MA1999999097021MD1510051+9999REMSYN066AAXX  27091 59567 32265 52523 10252 20232 39702 40070 55005 82230;EQDQ01  00002PRCP99
0163595670999992000052712004+22030+121570FM-12+032599999V0202501N011010360019N0120001N1+02511+02351100851ADDAA199000091GF105991021021001501031001MA1999999097171MD1310151+9999REMSYN066AAXX  27121 59567 32262 52511 10251 20235 39717 40085 53015 82230;EQDQ01  00002PRCP99
0163595670999992000052721004+22030+121570FM-12+032599999V0202601N012012200019N0150001N1+02451+02341100921ADDAA199000091GF104991021011001501031001MA1999999097231MD1510021+9999REMSYN066AAXX  27211 59567 32265 42612 10245 20234 39723 40092 55002 82130;EQDQ01  00002PRCP99
0163595670999992000052800004+22030+121570FM-12+032599999V0202501N006012200019N0150001N1+02561+02431101111ADDAA199000091GF102991021011001501001011MA1999999097421MD1210191+9999REMSYN066AAXX  28001 59567 32265 22506 10256 20243 39742 40111 52019 82101;EQDQ01  00002PRCP99
0163595670999992000052803004+22030+121570FM-12+032599999V0202501N006010012019N0150001N1+02721+02511101091ADDAA199000091GF107991071041001501999999MA1999999097421MD1410001+9999REMSYN066AAXX  28031 59567 32265 72506 10272 20251 39742 40109 54000 874//;EQDQ01  00002PRCP99
0163595670999992000052806004+22030+121570FM-12+032599999V0202501N006010012019N0200001N1+02841+02561100931ADDAA199000091GF106991061041001501001001MA1999999097281MD1710141+9999REMSYN066AAXX  28061 59567 32270 62506 10284 20256 39728 40093 57014 86400;EQDQ01  00002PRCP99
0163595670999992000052809004+22030+121570FM-12+032599999V0202401N005010021019N0200001N1+02651+02441100891ADDAA199000091GF107991071041002501999999MA1999999097221MD1510061+9999REMSYN066AAXX  28091 59567 32370 72405 10265 20244 39722 40089 55006 874//;EQDQ01  00002PRCP99
0163595670999992000052812004+22030+121570FM-12+032599999V0201901N007010021019N0200001N1+02581+02431101181ADDAA199000091GF105991051041002501001001MA1999999097491MD1110271+9999REMSYN066AAXX  28121 59567 32370 51907 10258 20243 39749 40118 51027 85400;EQDQ01  00002PRCP99
0150595670999992000052821004+22030+121570FM-12+032599999V0201901N003010012019N0150001N1+02521+02401101071ADDAA100010991GF106991061041001501001001MA1999999097381MD1510011+9999REMSYN072AAXX  28211 59567 12265 61903 10252 20240 39738 40107 55001 6011/ 86400;
0150595670999992000052900004+22030+121570FM-12+032599999V0202001N004010012019N0180001N1+02581+02461101291ADDAA112010991GF107991071041001501999999MA1999999097601MD1110221+9999REMSYN072AAXX  29001 59567 12268 72004 10258 20246 39760 40129 51022 60112 874//;
0178595670999992000052903004+22030+121570FM-12+032599999V0201901N003010012019N0180001N1+02681+02471101251ADDAA100002091AY161031AY221031GF106991061041001501001001MA1999999097571MD1810031+9999MW1011REMSYN078AAXX  29031 59567 11268 61903 10268 20247 39757 40125 58003 6002/ 70162 86400;
0178595670999992000052906004+22030+121570FM-12+032599999V0202001N004012200019N0180001N1+02811+02471101031ADDAA106002091AY161061AY221061GF104991021021004501031001MA1999999097381MD1710191+9999MW1011REMSYN078AAXX  29061 59567 11468 42004 10281 20247 39738 40103 57019 60021 70162 82230;
0150595670999992000052909004+22030+121570FM-12+032599999V0201801N002010012019N0150001N1+02701+02381100971ADDAA100002091GF106991061041001501001001MA1999999097301MD1610081+9999REMSYN072AAXX  29091 59567 12265 61802 10270 20238 39730 40097 56008 6002/ 86400;
0150595670999992000052912004+22030+121570FM-12+032599999V0200801N004012200019N0120001N1+02541+02381101091ADDAA112002091GF102991021021004501001001MA1999999097401MD1210101+9999REMSYN072AAXX  29121 59567 12462 20804 10254 20238 39740 40109 52010 60022 82200;
0163595670999992000052921004+22030+121570FM-12+032599999V0201501N003010900019N0150001N1+02511+02321101081ADDAA199000091GF105991021021001501021011MA1999999097391MD1310031+9999REMSYN066AAXX  29211 59567 32265 51503 10251 20232 39739 40108 53003 82221;EQDQ01  00002PRCP99
0163595670999992000053000004+22030+121570FM-12+032599999V0202001N008012200019N0200001N1+02681+02481101141ADDAA199000091GF104991041021001501001001MA1999999097471MD1010081+9999REMSYN066AAXX  30001 59567 32270 42008 10268 20248 39747 40114 50008 84200;EQDQ01  00002PRCP99
0178595670999992000053003004+22030+121570FM-12+032599999V0201901N012010021019N0300001N1+02731+02491101111ADDAA100000591AY181031AY221031GF106991061041002501001001MA1999999097441MD1810031+9999MW1251REMSYN078AAXX  30031 59567 11380 61912 10273 20249 39744 40111 58003 6995/ 72582 86400;
0178595670999992000053006004+22030+121570FM-12+032599999V0202001N013010012019N0150001N1+02771+02511100891ADDAA106000591AY181061AY221061GF106991061041001501001001MA1999999097241MD1710201+9999MW1031REMSYN078AAXX  30061 59567 11265 62013 10277 20251 39724 40089 57020 69951 70382 86400;
0150595670999992000053009004+22030+121570FM-12+032599999V0202001N007010012019N0150001N1+02631+02461100851ADDAA100000591GF106991061041001501001001MA1999999097181MD1710061+9999REMSYN072AAXX  30091 59567 12265 62007 10263 20246 39718 40085 57006 6995/ 86400;
0150595670999992000053012004+22030+121570FM-12+032599999V0202101N008010012019N0120001N1+02581+02451100981ADDAA112000591GF107991071041001501999999MA1999999097301MD1210121+9999REMSYN072AAXX  30121 59567 12262 72108 10258 20245 39730 40098 52012 69952 874//;
0163595670999992000053021004+22030+121570FM-12+032599999V0202201N009012200019N0200001N1+02511+02331100801ADDAA199000091GF104991031021001501031001MA1999999097121MD1710091+9999REMSYN066AAXX  30211 59567 32270 42209 10251 20233 39712 40080 57009 83230;EQDQ01  00002PRCP99
0163595670999992000053100004+22030+121570FM-12+032599999V0202201N009010012019N0120001N1+02631+02451100951ADDAA199000091GF107991071041001501999999MA1999999097281MD1110161+9999REMSYN066AAXX  31001 59567 32262 72209 10263 20245 39728 40095 51016 874//;EQDQ01  00002PRCP99
0163595670999992000053103004+22030+121570FM-12+032599999V0202301N011010012019N0120001N1+02671+02471100971ADDAA199000091GF107991071041001501999999MA1999999097301MD1010021+9999REMSYN066AAXX  31031 59567 32262 72311 10267 20247 39730 40097 50002 874//;EQDQ01  00002PRCP99
0163595670999992000053106004+22030+121570FM-12+032599999V0202501N021012200019N0200001N1+02781+02511100811ADDAA199000091GF102991021011001501001001MA1999999097161MD1710141+9999REMSYN066AAXX  31061 59567 32270 22521 10278 20251 39716 40081 57014 82100;EQDQ01  00002PRCP99
0163595670999992000053109004+22030+121570FM-12+032599999V0202301N013012200019N0300001N1+02671+02341100641ADDAA199000091GF102991011011001501001011MA1999999096981MD1710181+9999REMSYN066AAXX  31091 59567 32280 22313 10267 20234 39698 40064 57018 81101;EQDQ01  00002PRCP99
0163595670999992000053112004+22030+121570FM-12+032599999V0202401N031012200019N0300001N1+02591+02331100751ADDAA199000091GF101991011011001501001001MA1999999097081MD1110101+9999REMSYN066AAXX  31121 59567 32280 12431 10259 20233 39708 40075 51010 81100;EQDQ01  00002PRCP99
0163595670999992000053121004+22030+121570FM-12+032599999V0202501N010010012019N0150001N1+02541+02381100891ADDAA199000091GF107991071041001501999999MA1999999097211MD1310071+9999REMSYN066AAXX  31211 59567 32265 72510 10254 20238 39721 40089 53007 874//;EQDQ01  00002PRCP99
0163595670999992000060100004+22030+121570FM-12+032599999V0202501N012010012019N0120001N1+02611+02421101121ADDAA199000091GF107991071041001501999999MA1999999097441MD1110231+9999REMSYN066AAXX  01001 59567 32262 72512 10261 20242 39744 40112 51023 874//;EQDQ01  00002PRCP99
0178595670999992000060103004+22030+121570FM-12+032599999V0202001N007010012019N0150001N1+02671+02491101181ADDAA100000791AY181031AY221031GF106991061041001501001001MA1999999097501MD1110061+9999MW1251REMSYN078AAXX  01031 59567 11265 62007 10267 20249 39750 40118 51006 6990/ 72582 86400;
0178595670999992000060106004+22030+121570FM-12+032599999V0202001N003010360019N0200001N1+02771+02501101071ADDAA106000791AY181061AY221061GF106991041041004501031001MA1999999097411MD1710091+9999MW1011REMSYN078AAXX  01061 59567 11470 62003 10277 20250 39741 40107 57009 69901 70182 84430;
0150595670999992000060109004+22030+121570FM-12+032599999V0202001N005012200019N0200001N1+02671+02401101031ADDAA100000791GF104991031041004501001011MA1999999097361MD1710051+9999REMSYN072AAXX  01091 59567 12470 42005 10267 20240 39736 40103 57005 6990/ 83401;
0150595670999992000060112004+22030+121570FM-12+032599999V0201301N004012200019N0200001N1+02561+02331101211ADDAA112000791GF101991011011004501001001MA1999999097521MD1310161+9999REMSYN072AAXX  01121 59567 12470 11304 10256 20233 39752 40121 53016 69902 81100;
0163595670999992000060121004+22030+121570FM-12+032599999V0200901N009010042019N0250001N1+02511+02281101211ADDAA199000091GF106991061041004501001011MA1999999097511MD1510051+9999REMSYN066AAXX  01211 59567 32475 60909 10251 20228 39751 40121 55005 86401;EQDQ01  00002PRCP99
0163595670999992000060200004+22030+121570FM-12+032599999V0200801N012010042019N0300001N1+02621+02361101331ADDAA199000091GF106991061041004501001001MA1999999097641MD1110131+9999REMSYN066AAXX  02001 59567 32480 60812 10262 20236 39764 40133 51013 86400;EQDQ01  00002PRCP99
0163595670999992000060203004+22030+121570FM-12+032599999V0200701N006010042019N0300001N1+02771+02401101341ADDAA199000091GF105991051011004501001001MA1999999097671MD1010031+9999REMSYN066AAXX  02031 59567 32480 50706 10277 20240 39767 40134 50003 85100;EQDQ01  00002PRCP99
0163595670999992000060206004+22030+121570FM-12+032599999V0200801N011012200019N0250001N1+02741+02361101181ADDAA199000091GF102991021011002501001001MA1999999097511MD1710161+9999REMSYN066AAXX  02061 59567 32375 20811 10274 20236 39751 40118 57016 82100;EQDQ01  00002PRCP99
0163595670999992000060209004+22030+121570FM-12+032599999V0200801N006012200019N0250001N1+02591+02371101111ADDAA199000091GF103991031011004501001001MA1999999097431MD1510081+9999REMSYN066AAXX  02091 59567 32475 30806 10259 20237 39743 40111 55008 83100;EQDQ01  00002PRCP99
0163595670999992000060212004+22030+121570FM-12+032599999V0200901N007012200019N0250001N1+02571+02341101221ADDAA199000091GF102991021011002501001001MA1999999097531MD1310101+9999REMSYN066AAXX  02121 59567 32375 20907 10257 20234 39753 40122 53010 82100;EQDQ01  00002PRCP99
0163595670999992000060221004+22030+121570FM-12+032599999V0200901N006012200019N0150001N1+02491+02301101101ADDAA199000091GF102991021011002501001001MA1999999097401MD1510061+9999REMSYN066AAXX  02211 59567 32365 20906 10249 20230 39740 40110 55006 82100;EQDQ01  00002PRCP99
0163595670999992000060300004+22030+121570FM-12+032599999V0202501N001012200019N0200001N1+02621+02341101171ADDAA199000091GF104991041021004501001001MA1999999097491MD1110091+9999REMSYN066AAXX  03001 59567 32470 42501 10262 20234 39749 40117 51009 84200;EQDQ01  00002PRCP99
0163595670999992000060303004+22030+121570FM-12+032599999V0202101N004012200019N0200001N1+02861+02531101121ADDAA199000091GF103991031011004501001001MA1999999097471MD1810021+9999REMSYN066AAXX  03031 59567 32470 32104 10286 20253 39747 40112 58002 83100;EQDQ01  00002PRCP99
0163595670999992000060306004+22030+121570FM-12+032599999V0202101N005012200019N0200001N1+02821+02471100961ADDAA199000091GF104991041011004501001001MA1999999097311MD1710161+9999REMSYN066AAXX  03061 59567 32470 42105 10282 20247 39731 40096 57016 84100;EQDQ01  00002PRCP99
0163595670999992000060309004+22030+121570FM-12+032599999V0202101N006012200019N0200001N1+02661+02401100901ADDAA199000091GF102991021011002501001001MA1999999097231MD1510081+9999REMSYN066AAXX  03091 59567 32370 22106 10266 20240 39723 40090 55008 82100;EQDQ01  00002PRCP99
0163595670999992000060312004+22030+121570FM-12+032599999V0202201N014012200019N0200001N1+02541+02371101001ADDAA199000091GF101991011011002501001001MA1999999097311MD1210081+9999REMSYN066AAXX  03121 59567 32370 12214 10254 20237 39731 40100 52008 81100;EQDQ01  00002PRCP99
0163595670999992000060321004+22030+121570FM-12+032599999V0202301N008012200019N0150001N1+02501+02341100781ADDAA199000091GF102991021011001501001001MA1999999097101MD1510041+9999REMSYN066AAXX  03211 59567 32265 22308 10250 20234 39710 40078 55004 82100;EQDQ01  00002PRCP99
0163595670999992000060400004+22030+121570FM-12+032599999V0202301N008010042019N0200001N1+02641+02391100881ADDAA199000091GF106991061021004501001001MA1999999097211MD1110111+9999REMSYN066AAXX  04001 59567 32470 62308 10264 20239 39721 40088 51011 86200;EQDQ01  00002PRCP99
0163595670999992000060403004+22030+121570FM-12+032599999V0202401N012010042019N0200001N1+02761+02451100771ADDAA199000091GF106991061021004501001001MA1999999097121MD1810091+9999REMSYN066AAXX  04031 59567 32470 62412 10276 20245 39712 40077 58009 86200;EQDQ01  00002PRCP99
0163595670999992000060406004+22030+121570FM-12+032599999V0202601N012010021019N0200001N1+02731+02391100651ADDAA199000091GF106991061021002501001001MA1999999097001MD1710121+9999REMSYN066AAXX  04061 59567 32370 62612 10273 20239 39700 40065 57012 86200;EQDQ01  00002PRCP99
0163595670999992000060409004+22030+121570FM-12+032599999V0202401N012012200019N0200001N1+02641+02371100491ADDAA199000091GF102991021021001501001001MA1999999096831MD1710171+9999REMSYN066AAXX  04091 59567 32270 22412 10264 20237 39683 40049 57017 82200;EQDQ01  00002PRCP99
0163595670999992000060412004+22030+121570FM-12+032599999V0202601N016010042019N0150001N1+02601+02411100541ADDAA199000091GF108991081051004501999999MA1999999096881MD1110051+9999REMSYN066AAXX  04121 59567 32465 82616 10260 20241 39688 40054 51005 885//;EQDQ01  00002PRCP99
0163595670999992000060421004+22030+121570FM-12+032599999V0202601N015010012019N0150001N1+02541+02371100491ADDAA199000091GF107991071051001501999999MA1999999096821MD1310091+9999REMSYN066AAXX  04211 59567 32265 72615 10254 20237 39682 40049 53009 875//;EQDQ01  00002PRCP99
0163595670999992000060500004+22030+121570FM-12+032599999V0202601N026012200019N0200001N1+02611+02371100651ADDAA199000091GF101991011021001501001001MA1999999096991MD1110171+9999REMSYN066AAXX  05001 59567 32270 12626 10261 20237 39699 40065 51017 81200;EQDQ01  00002PRCP99
0163595670999992000060503004+22030+121570FM-12+032599999V0202601N014012200019N0200001N1+02721+02401100651ADDAA199000091GF103991031021004501001001MA1999999097001MD1010011+9999REMSYN066AAXX  05031 59567 32470 32614 10272 20240 39700 40065 50001 83200;EQDQ01  00002PRCP99
0163595670999992000060506004+22030+121570FM-12+032599999V0202501N031010042019N0150001N1+02621+02381100541ADDAA199000091GF107991071051004501999999MA1999999096881MD1810121+9999REMSYN066AAXX  05061 59567 32465 72531 10262 20238 39688 40054 58012 875//;EQDQ01  00002PRCP99
0163595670999992000060509004+22030+121570FM-12+032599999V0202501N011010021019N0150001N1+02591+02371100611ADDAA199000091GF105991051051002501001001MA1999999096941MD1210061+9999REMSYN066AAXX  05091 59567 32365 52511 10259 20237 39694 40061 52006 85500;EQDQ01  00002PRCP99
0163595670999992000060512004+22030+121570FM-12+032599999V0202001N002010021019N0100001N1+02561+02361100851ADDAA199000091GF107991071051002501999999MA1999999097171MD1210231+9999REMSYN066AAXX  05121 59567 32360 72002 10256 20236 39717 40085 52023 875//;EQDQ01  00002PRCP99
0163595670999992000060521004+22030+121570FM-12+032599999V0202601N009010012019N0100001N1+02551+02431100801ADDAA199000091GF108991081051001501999999MA1999999097121MD1510021+9999REMSYN066AAXX  05211 59567 32260 82609 10255 20243 39712 40080 55002 885//;EQDQ01  00002PRCP99
0163595670999992000060600004+22030+121570FM-12+032599999V0202601N009010012019N0100001N1+02601+02451100921ADDAA199000091GF108991081051001501999999MA1999999097241MD1110121+9999REMSYN066AAXX  06001 59567 32260 82609 10260 20245 39724 40092 51012 885//;EQDQ01  00002PRCP99
0163595670999992000060603004+22030+121570FM-12+032599999V0202601N020010012019N0100001N1+02681+02441100921ADDAA199000091GF107991071051001501999999MA1999999097251MD1010011+9999REMSYN066AAXX  06031 59567 32260 72620 10268 20244 39725 40092 50001 875//;EQDQ01  00002PRCP99
0163595670999992000060606004+22030+121570FM-12+032599999V0202601N026010012019N0150001N1+02691+02411100801ADDAA199000091GF105991051051001501001001MA1999999097141MD1510111+9999REMSYN066AAXX  06061 59567 32265 52626 10269 20241 39714 40080 55011 85500;EQDQ01  00002PRCP99
0163595670999992000060609004+22030+121570FM-12+032599999V0202601N013012200019N0150001N1+02691+02411100721ADDAA199000091GF106991011011001501001011MA1999999097061MD1610081+9999REMSYN066AAXX  06091 59567 32265 62613 10269 20241 39706 40072 56008 81101;EQDQ01  00002PRCP99
0163595670999992000060612004+22030+121570FM-12+032599999V0202801N013010042019N0100001N1+02561+02301100881ADDAA199000091GF108991081051004501999999MA1999999097201MD1310141+9999REMSYN066AAXX  06121 59567 32460 82813 10256 20230 39720 40088 53014 885//;EQDQ01  00002PRCP99
0163595670999992000060621004+22030+121570FM-12+032599999V0202801N004010042019N0100001N1+02431+02271100961ADDAA199000091GF106991061051004501001001MA1999999097261MD1310051+9999REMSYN066AAXX  06211 59567 32460 62804 10243 20227 39726 40096 53005 86500;EQDQ01  00002PRCP99
0163595670999992000060700004+22030+121570FM-12+032599999V0202601N011010360019N0100001N1+02581+02371101011ADDAA199000091GF107991021021001501031999MA1999999097331MD1010071+9999REMSYN066AAXX  07001 59567 32260 72611 10258 20237 39733 40101 50007 8223/;EQDQ01  00002PRCP99
0163595670999992000060703004+22030+121570FM-12+032599999V0202501N008010012019N0150001N1+02661+02421100971ADDAA199000091GF107991071051001501999999MA1999999097301MD1810031+9999REMSYN066AAXX  07031 59567 32265 72508 10266 20242 39730 40097 58003 875//;EQDQ01  00002PRCP99
0163595670999992000060706004+22030+121570FM-12+032599999V0202601N024010360019N0200001N1+02791+02441100841ADDAA199000091GF105991011021004501031001MA1999999097191MD1710111+9999REMSYN066AAXX  07061 59567 32470 52624 10279 20244 39719 40084 57011 81230;EQDQ01  00002PRCP99
0163595670999992000060709004+22030+121570FM-12+032599999V0202601N016012200019N0200001N1+02621+02371100701ADDAA199000091GF104991041051001501001001MA1999999097031MD1610161+9999REMSYN066AAXX  07091 59567 32270 42616 10262 20237 39703 40070 56016 84500;EQDQ01  00002PRCP99
0163595670999992000060712004+22030+121570FM-12+032599999V0202601N028010012019N0200001N1+02591+02401100821ADDAA199000091GF107991071051001501999999MA1999999097151MD1310121+9999REMSYN066AAXX  07121 59567 32270 72628 10259 20240 39715 40082 53012 875//;EQDQ01  00002PRCP99
0163595670999992000060721004+22030+121570FM-12+032599999V0202601N032010012019N0150001N1+02571+02381100711ADDAA199000091GF107991071051001501999999MA1999999097041MD1510061+9999REMSYN066AAXX  07211 59567 32265 72632 10257 20238 39704 40071 55006 875//;EQDQ01  00002PRCP99
0163595670999992000060800004+22030+121570FM-12+032599999V0202601N032012200019N0150001N1+02621+02401100791ADDAA199000091GF106991021041001501001011MA1999999097121MD1110081+9999REMSYN066AAXX  08001 59567 32265 62632 10262 20240 39712 40079 51008 82401;EQDQ01  00002PRCP99
0163595670999992000060803004+22030+121570FM-12+032599999V0202601N019012200019N0150001N1+02711+02461100751ADDAA199000091GF106991021041001501001011MA1999999097091MD1810031+9999REMSYN066AAXX  08031 59567 32265 62619 10271 20246 39709 40075 58003 82401;EQDQ01  00002PRCP99
0163595670999992000060806004+22030+121570FM-12+032599999V0202501N020010012019N0150001N1+02721+02461100581ADDAA199000091GF105991051041001501001001MA1999999096931MD1810161+9999REMSYN066AAXX  08061 59567 32265 52520 10272 20246 39693 40058 58016 85400;EQDQ01  00002PRCP99
0163595670999992000060809004+22030+121570FM-12+032599999V0202601N019012200019N0150001N1+02651+02411100591ADDAA199000091GF106991021041001501001011MA1999999096931MD1510001+9999REMSYN066AAXX  08091 59567 32265 62619 10265 20241 39693 40059 55000 82401;EQDQ01  00002PRCP99
0163595670999992000060812004+22030+121570FM-12+032599999V0202501N034010012019N0100001N1+02611+02421100781ADDAA199000091GF105991051041001501001001MA1999999097111MD1210181+9999REMSYN066AAXX  08121 59567 32260 52534 10261 20242 39711 40078 52018 85400;EQDQ01  00002PRCP99
0163595670999992000060821004+22030+121570FM-12+032599999V0202501N033010012019N0100001N1+02601+02401100671ADDAA199000091GF105991051041001501001001MA1999999097001MD1510031+9999REMSYN066AAXX  08211 59567 32260 52533 10260 20240 39700 40067 55003 85400;EQDQ01  00002PRCP99
0163595670999992000060900004+22030+121570FM-12+032599999V0202601N017010042019N0150001N1+02661+02381100731ADDAA199000091GF106991061051004501001001MA1999999097071MD1110071+9999REMSYN066AAXX  09001 59567 32465 62617 10266 20238 39707 40073 51007 86500;EQDQ01  00002PRCP99
0163595670999992000060903004+22030+121570FM-12+032599999V0202601N027010042019N0150001N1+02711+02411100821ADDAA199000091GF106991061051004501001001MA1999999097161MD1110091+9999REMSYN066AAXX  09031 59567 32465 62627 10271 20241 39716 40082 51009 86500;EQDQ01  00002PRCP99
0163595670999992000060906004+22030+121570FM-12+032599999V0202601N027010012019N0200001N1+02751+02441100721ADDAA199000091GF107991071051001501999999MA1999999097071MD1610091+9999REMSYN066AAXX  09061 59567 32270 72627 10275 20244 39707 40072 56009 875//;EQDQ01  00002PRCP99
0163595670999992000060909004+22030+121570FM-12+032599999V0202601N028010042019N0200001N1+02661+02421100701ADDAA199000091GF107991071051004501999999MA1999999097041MD1510031+9999REMSYN066AAXX  09091 59567 32470 72628 10266 20242 39704 40070 55003 875//;EQDQ01  00002PRCP99
0163595670999992000060921004+22030+121570FM-12+032599999V0202501N011010042019N0150001N1+02591+02411100821ADDAA199000091GF107991071051004501999999MA1999999097151MD1510021+9999REMSYN066AAXX  09211 59567 32465 72511 10259 20241 39715 40082 55002 875//;EQDQ01  00002PRCP99
0163595670999992000061000004+22030+121570FM-12+032599999V0202501N029010021019N0150001N1+02641+02411100881ADDAA199000091GF107991071051002501999999MA1999999097211MD1010061+9999REMSYN066AAXX  10001 59567 32365 72529 10264 20241 39721 40088 50006 875//;EQDQ01  00002PRCP99
0163595670999992000061003004+22030+121570FM-12+032599999V0202501N012012200019N0200001N1+02721+02421100911ADDAA199000091GF107991021021001501001011MA1999999097251MD1010041+9999REMSYN066AAXX  10031 59567 32270 72512 10272 20242 39725 40091 50004 82201;EQDQ01  00002PRCP99
0163595670999992000061006004+22030+121570FM-12+032599999V0202501N028010021019N0200001N1+02651+02421100711ADDAA199000091GF107991071051002501999999MA1999999097051MD1810201+9999REMSYN066AAXX  10061 59567 32370 72528 10265 20242 39705 40071 58020 875//;EQDQ01  00002PRCP99
0163595670999992000061009004+22030+121570FM-12+032599999V0202601N025010021019N0200001N1+02651+02381100681ADDAA199000091GF106991061051002501001001MA1999999097021MD1510031+9999REMSYN066AAXX  10091 59567 32370 62625 10265 20238 39702 40068 55003 86500;EQDQ01  00002PRCP99
0163595670999992000061012004+22030+121570FM-12+032599999V0202601N016010021019N0150001N1+02651+02391100841ADDAA199000091GF107991071051002501999999MA1999999097171MD1210151+9999REMSYN066AAXX  10121 59567 32365 72616 10265 20239 39717 40084 52015 875//;EQDQ01  00002PRCP99
0163595670999992000061021004+22030+121570FM-12+032599999V0202501N027010012019N0150001N1+02571+02391100641ADDAA199000091GF106991061051001501001001MA1999999096971MD1510021+9999REMSYN066AAXX  10211 59567 32265 62527 10257 20239 39697 40064 55002 86500;EQDQ01  00002PRCP99
0163595670999992000061100004+22030+121570FM-12+032599999V0202601N031010042019N0150001N1+02661+02371100741ADDAA199000091GF106991061051004501001001MA1999999097081MD1110111+9999REMSYN066AAXX  11001 59567 32465 62631 10266 20237 39708 40074 51011 86500;EQDQ01  00002PRCP99
0163595670999992000061103004+22030+121570FM-12+032599999V0202601N015010042019N0200001N1+02721+02401100721ADDAA199000091GF107991071051004501999999MA1999999097071MD1510011+9999REMSYN066AAXX  11031 59567 32470 72615 10272 20240 39707 40072 55001 875//;EQDQ01  00002PRCP99
0163595670999992000061106004+22030+121570FM-12+032599999V0202501N016010042019N0200001N1+02681+02391100521ADDAA199000091GF107991071051004501999999MA1999999096871MD1810201+9999REMSYN066AAXX  11061 59567 32470 72516 10268 20239 39687 40052 58020 875//;EQDQ01  00002PRCP99
0163595670999992000061109004+22030+121570FM-12+032599999V0202601N017010042019N0150001N1+02651+02351100471ADDAA199000091GF107991071051004501999999MA1999999096821MD1810051+9999REMSYN066AAXX  11091 59567 32465 72617 10265 20235 39682 40047 58005 875//;EQDQ01  00002PRCP99
0163595670999992000061112004+22030+121570FM-12+032599999V0202601N032010042019N0200001N1+02631+02401100611ADDAA199000091GF107991071051004501999999MA1999999096951MD1110131+9999REMSYN066AAXX  11121 59567 32470 72632 10263 20240 39695 40061 51013 875//;EQDQ01  00002PRCP99
0163595670999992000061121004+22030+121570FM-12+032599999V0202501N014010012019N0150001N1+02611+02401100431ADDAA199000091GF108991081051001501999999MA1999999096771MD1610091+9999REMSYN066AAXX  11211 59567 32265 82514 10261 20240 39677 40043 56009 885//;EQDQ01  00002PRCP99
0163595670999992000061200004+22030+121570FM-12+032599999V0202501N015010012019N0150001N1+02651+02431100491ADDAA199000091GF107991071051001501999999MA1999999096841MD1110071+9999REMSYN066AAXX  12001 59567 32265 72515 10265 20243 39684 40049 51007 875//;EQDQ01  00002PRCP99
0163595670999992000061203004+22030+121570FM-12+032599999V0202601N015010360019N0150001N1+02521+02231100471ADDAA199000091GF107991021021001501031001MA1999999096801MD1810041+9999REMSYN066AAXX  12031 59567 32265 72615 10252 20223 39680 40047 58004 82230;EQDQ01  00002PRCP99
0163595670999992000061206004+22030+121570FM-12+032599999V0202601N017010012019N0150001N1+02701+02451100281ADDAA199000091GF107991071051001501999999MA1999999096641MD1810161+9999REMSYN066AAXX  12061 59567 32265 72617 10270 20245 39664 40028 58016 875//;EQDQ01  00002PRCP99
0163595670999992000061209004+22030+121570FM-12+032599999V0202601N030010012019N0100001N1+02641+02411100251ADDAA199000091GF107991071051001501999999MA1999999096601MD1810041+9999REMSYN066AAXX  12091 59567 32260 72630 10264 20241 39660 40025 58004 875//;EQDQ01  00002PRCP99
0178595670999992000061212004+22030+121570FM-12+032599999V0202601N025010021019N0100001N1+02621+02491100471ADDAA112000591AY161061AY221061GF108991081051002501999999MA1999999096811MD1210211+9999MW1021REMSYN078AAXX  12121 59567 11360 82625 10262 20249 39681 40047 52021 69952 70262 885//;
0178595670999992000061221004+22030+121570FM-12+032599999V0200401N020010012019N0100001N1+02281+02201100461ADDAA100016091AY161031AY221031GF108991081051001501999999MA1999999096761MD1510001+9999MW1021REMSYN078AAXX  12211 59567 11260 80420 10228 20220 39676 40046 55000 6016/ 70262 885//;
0178595670999992000061300004+22030+121570FM-12+032599999V0200401N015010006019N0050001N1+02251+02201100591ADDAA112031091AY161061AY221061GF108991081071000751999999MA1999999096881MD1110121+9999MW1631REMSYN078AAXX  13001 59567 11150 80415 10225 20220 39688 40059 51012 60312 76362 887//;
0178595670999992000061303004+22030+121570FM-12+032599999V0200401N030010012019N0100001N1+02181+02131100541ADDAA100005191AY161031AY221031GF108991081071001501999999MA1999999096831MD1810051+9999MW1631REMSYN078AAXX  13031 59567 11260 80430 10218 20213 39683 40054 58005 6005/ 76362 887//;
0178595670999992000061306004+22030+121570FM-12+032599999V0200301N010010006019N0050001N1+02081+02031100551ADDAA106016091AY161061AY221061GF108991081071000751999999MA1999999096821MD1510011+9999MW1631REMSYN078AAXX  13061 59567 11150 80310 10208 20203 39682 40055 55001 60161 76362 887//;
0178595670999992000061309004+22030+121570FM-12+032599999V0200201N007010006019N0050001N1+02081+02051100561ADDAA100035191AY161031AY221031GF108991081071000751999999MA1999999096831MD1310011+9999MW1631REMSYN078AAXX  13091 59567 11150 80207 10208 20205 39683 40056 53001 6035/ 76362 887//;
0178595670999992000061312004+22030+121570FM-12+032599999V0200101N009010006019N0050001N1+02071+02071100741ADDAA112047091AY161061AY221061GF108991081071000751999999MA1999999097011MD1210181+9999MW1631REMSYN078AAXX  13121 59567 11150 80109 10207 20207 39701 40074 52018 60472 76362 887//;
0178595670999992000061321004+22290+121560FM-12+032599999V0200401N017010012019N0100001N1+02001+01861100561ADDAA100016091AY161031AY221031GF108991081071001501999999MA1999999096821MD1410001+9999MW1021REMSYN078AAXX  13211 59567 11260 80417 10200 20186 39682 40056 54000 6016/ 70262 887//;
0178595670999992000061400004+22290+121560FM-12+032599999V0200201N010010012019N0100001N1+02031+01941100711ADDAA112018091AY161061AY221061GF108991081051001501999999MA1999999096971MD1310151+9999MW1211REMSYN078AAXX  14001 59567 11260 80210 10203 20194 39697 40071 53015 60182 72162 885//;
0178595670999992000061403004+22290+121560FM-12+032599999V0200301N020010012019N0100001N1+02021+01881100831ADDAA100002091AY161031AY221031GF108991081051001501999999MA1999999097081MD1010111+9999MW1021REMSYN078AAXX  14031 59567 11260 80320 10202 20188 39708 40083 50011 6002/ 70262 885//;
0178595670999992000061406004+22290+121560FM-12+032599999V0200301N009010012019N0050001N1+01991+01911100751ADDAA106005191AY161061AY221061GF108991081071001501999999MA1999999097011MD1510071+9999MW1601REMSYN078AAXX  14061 59567 11250 80309 10199 20191 39701 40075 55007 60051 76062 887//;
0178595670999992000061409004+22290+121560FM-12+032599999V0200201N006010012019N0050001N1+02051+01981100721ADDAA100009991AY161031AY221031GF108991081071001501999999MA1999999096981MD1510031+9999MW1601REMSYN078AAXX  14091 59567 11250 80206 10205 20198 39698 40072 55003 6010/ 76062 887//;
0178595670999992000061412004+22290+121560FM-12+032599999V0200301N011010012019N0050001N1+02121+02011100801ADDAA112014091AY161061AY221061GF108991081071001501999999MA1999999097071MD1310091+9999MW1601REMSYN078AAXX  14121 59567 11250 80311 10212 20201 39707 40080 53009 60142 76062 887//;
0178595670999992000061421004+22290+121560FM-12+032599999V0200401N011010012019N0050001N1+02131+02111100641ADDAA100011991AY161031AY221031GF108991081071001501999999MA1999999096921MD1510051+9999MW1601REMSYN078AAXX  14211 59567 11250 80411 10213 20211 39692 40064 55005 6012/ 76062 887//;
0178595670999992000061500004+22290+121560FM-12+032599999V0200301N017010006019N0050001N1+02211+02181100731ADDAA112013091AY161061AY221061GF108991081071000751999999MA1999999097011MD1210091+9999MW1601REMSYN078AAXX  15001 59567 11150 80317 10221 20218 39701 40073 52009 60132 76062 887//;
0178595670999992000061506004+22290+121560FM-12+032599999V0200301N014010006019N0080001N1+02271+02161100611ADDAA106002091AY161061AY221061GF108991081071000751999999MA1999999096911MD1710091+9999MW1101REMSYN078AAXX  15061 59567 11158 80314 10227 20216 39691 40061 57009 60021 71062 887//;
0178595670999992000061509004+22290+121560FM-12+032599999V0200501N004010006019N0050001N1+02291+02181100641ADDAA100002091AY161031AY221031GF108991081071000751999999MA1999999096931MD1310021+9999MW1101REMSYN078AAXX  15091 59567 11150 80504 10229 20218 39693 40064 53002 6002/ 71062 887//;
0178595670999992000061512004+22290+121560FM-12+032599999V0200701N002010042019N0100001N1+02321+02181100741ADDAA112002091AY161061AY221061GF108991081051004501999999MA1999999097041MD1310111+9999MW1021REMSYN078AAXX  15121 59567 11460 80702 10232 20218 39704 40074 53011 60022 70262 885//;
0178595670999992000061521004+22290+121560FM-12+032599999V0201601N006010012019N0150001N1+02381+02241100661ADDAA100000591AY161031AY221031GF108991081051001501999999MA1999999096971MD1010011+9999MW1021REMSYN078AAXX  15211 59567 11265 81606 10238 20224 39697 40066 50001 6995/ 70262 885//;
0178595670999992000061600004+22290+121560FM-12+032599999V0201801N007010012019N0150001N1+02531+02391100741ADDAA112000591AY161061AY221061GF107991071051001501999999MA1999999097061MD1110091+9999MW1021REMSYN078AAXX  16001 59567 11265 71807 10253 20239 39706 40074 51009 69952 70262 875//;
0163595670999992000061603004+22290+121560FM-12+032599999V0202001N005010012019N0100001N1+02631+02471100731ADDAA199000091GF107991071051001501999999MA1999999097061MD1010001+9999REMSYN066AAXX  16031 59567 32260 72005 10263 20247 39706 40073 50000 875//;EQDQ01  00002PRCP99
0178595670999992000061606004+22290+121560FM-12+032599999V0202001N002010012019N0050001N1+02471+02471100701ADDAA106053191AY161061AY221061GF108991081071001501999999MA1999999097031MD1710031+9999MW1601REMSYN078AAXX  16061 59567 11250 82002 10247 20247 39703 40070 57003 60531 76062 887//;
0213595670999992000061612004+22290+121560FM-12+032599999V0202301N009010042019N0100001N1+02471+02461100811ADDAA112057991AY161061AY221061GF108991081051004501999999MA1999999999999MD1210191+9999MW1021REMSYN078AAXX  16121 59567 11460 82309 10247 20246 39174 40081 52019 60582 70262 885//;EQDQ01+091743APOSP Q02 091743APOSP 
0163595670999992000061621004+22290+121560FM-12+032599999V0202101N007010042019N0100001N1+02451+02441100751ADDAA199000091GF108991081051004501999999MA1999999097081MD1310061+9999REMSYN066AAXX  16211 59567 32460 82107 10245 20244 39708 40075 53006 885//;EQDQ01  00002PRCP99
0163595670999992000061700004+22290+121560FM-12+032599999V0202301N007010012019N0100001N1+02521+02521100981ADDAA199000091GF108991081051001501999999MA1999999097291MD1210191+9999REMSYN066AAXX  17001 59567 32260 82307 10252 20252 39729 40098 52019 885//;EQDQ01  00002PRCP99
0163595670999992000061703004+22290+121560FM-12+032599999V0202401N003019999999N0100001N1+02731+02571101001ADDAA199000091GF107991041051004501999999MA1999999097361MD1210071+9999REMSYN066AAXX  17031 59567 32460 72403 10273 20257 39736 40100 52007 845//;EQDQ01  00002PRCP99
0163595670999992000061706004+22290+121560FM-12+032599999V0202001N003010012019N0100001N1+02951+02511100881ADDAA199000091GF108991081051001501999999MA1999999097271MD1710091+9999REMSYN066AAXX  17061 59567 32260 82003 10295 20251 39727 40088 57009 885//;EQDQ01  00002PRCP99
0163595670999992000061709004+22290+121560FM-12+032599999V0201901N001010012019N0100001N1+02821+02511100861ADDAA199000091GF107991071051001501999999MA1999999097241MD1510031+9999REMSYN066AAXX  17091 59567 32260 71901 10282 20251 39724 40086 55003 875//;EQDQ01  00002PRCP99
0163595670999992000061712004+22290+121560FM-12+032599999V0201801N011010012019N0100001N1+02591+02481101001ADDAA199000091GF108991081051001501999999MA1999999097351MD1210111+9999REMSYN066AAXX  17121 59567 32260 81811 10259 20248 39735 40100 52011 885//;EQDQ01  00002PRCP99
0150595670999992000061721004+22290+121560FM-12+032599999V0201301N005010012019N0100001N1+02551+02471100981ADDAA100000591GF107991071051001501999999MA1999999097321MD1710061+9999REMSYN072AAXX  17211 59567 12260 71305 10255 20247 39732 40098 57006 6994/ 875//;
0178595670999992000061800004+22290+121560FM-12+032599999V0201101N006010012019N0100001N1+02601+02551101081ADDAA112002091AY161061AY221061GF107991071051001501999999MA1999999097431MD1210111+9999MW1021REMSYN078AAXX  18001 59567 11260 71106 10260 20255 39743 40108 52011 60022 70262 875//;
0163595670999992000061803004+22290+121560FM-12+032599999V0201801N005010012019N0100001N1+02701+02551101101ADDAA199000091GF107991071051001501999999MA1999999097461MD1010031+9999REMSYN066AAXX  18031 59567 32260 71805 10270 20255 39746 40110 50003 875//;EQDQ01  00002PRCP99
0163595670999992000061806004+22290+121560FM-12+032599999V0201801N012010012019N0100001N1+02681+02541100991ADDAA199000091GF107991071051001501999999MA1999999097351MD1810111+9999REMSYN066AAXX  18061 59567 32260 71812 10268 20254 39735 40099 58011 875//;EQDQ01  00002PRCP99
0163595670999992000061809004+22290+121560FM-12+032599999V0202101N014010012019N0100001N1+02641+02541100901ADDAA199000091GF107991071051001501999999MA1999999097261MD1510061+9999REMSYN066AAXX  18091 59567 32260 72114 10264 20254 39726 40090 55006 875//;EQDQ01  00002PRCP99
0163595670999992000061812004+22290+121560FM-12+032599999V0201901N005010012019N0100001N1+02601+02541101061ADDAA199000091GF108991081051001501999999MA1999999097411MD1210151+9999REMSYN066AAXX  18121 59567 32260 81905 10260 20254 39741 40106 52015 885//;EQDQ01  00002PRCP99
0163595670999992000061821004+22290+121560FM-12+032599999V0202301N003012200019N0100001N1+02421+02361100931ADDAA199000091GF102991021021001501001001MA1999999097261MD1710041+9999REMSYN066AAXX  18211 59567 32260 22303 10242 20236 39726 40093 57004 82200;EQDQ01  00002PRCP99
0178595670999992000061900004+22290+121560FM-12+032599999V0201601N004010012019N0150001N1+02671+02561101041ADDAA112022191AY161061AY221061GF107991071051001501999999MA1999999097401MD1210141+9999MW1211REMSYN078AAXX  19001 59567 11265 71604 10267 20256 39740 40104 52014 60222 72162 875//;
0144595670999992000061903004+22290+121560FM-12+032599999V0202001N011010042019N0300001N1+02931+02631101041ADDAA199000021GF106991061021004501001001MA1999999097431MD1010031+9999REMSYN066AAXX  19031 59567 32480 62011 10293 20263 39743 40104 50003 86200;
0144595670999992000061906004+22290+121560FM-12+032599999V0202001N010010012019N0300001N1+02931+02591100921ADDAA199000021GF107991071051001501999999MA1999999097311MD1710121+9999REMSYN066AAXX  19061 59567 32280 72010 10293 20259 39731 40092 57012 875//;
0144595670999992000061909004+22290+121560FM-12+032599999V0202401N003010021019N0300001N1+02751+02551100891ADDAA199000021GF105991051021002501001001MA1999999097261MD1710051+9999REMSYN066AAXX  19091 59567 32380 52403 10275 20255 39726 40089 57005 85200;
0144595670999992000061912004+22290+121560FM-12+032599999V0202101N006012200019N0300001N1+02551+02481101051ADDAA199000021GF102991021021004501001001MA1999999097391MD1210131+9999REMSYN066AAXX  19121 59567 32480 22106 10255 20248 39739 40105 52013 82200;
0178595670999992000061921004+22290+121560FM-12+032599999V0202201N008010012019N0300001N1+02541+02471101001ADDAA100004191AY161031AY221031GF107991071051001501999999MA1999999097341MD1510011+9999MW1021REMSYN078AAXX  19211 59567 11280 72208 10254 20247 39734 40100 55001 6004/ 70262 875//;
0178595670999992000062000004+22290+121560FM-12+032599999V0202501N008012200019N0200001N1+02591+02501101121ADDAA112007191AY161061AY221061GF106991021021001501001011MA1999999097461MD1110051+9999MW1021REMSYN078AAXX  20001 59567 11270 62508 10259 20250 39746 40112 51005 60072 70262 82201;
0163595670999992000062003004+22290+121560FM-12+032599999V0202301N007012200019N0200001N1+02741+02591101091ADDAA199000091GF106991031021001501001011MA1999999097431MD1810031+9999REMSYN066AAXX  20031 59567 32270 62307 10274 20259 39743 40109 58003 83201;EQDQ01  00002PRCP99
0163595670999992000062006004+22290+121560FM-12+032599999V0202301N015012200019N0300001N1+02801+02551100921ADDAA199000091GF106991021021001501001011MA1999999097301MD1710131+9999REMSYN066AAXX  20061 59567 32280 62315 10280 20255 39730 40092 57013 82201;EQDQ01  00002PRCP99
0163595670999992000062009004+22290+121560FM-12+032599999V0202301N009010012019N0300001N1+02711+02501100891ADDAA199000091GF105991051021001501001001MA1999999097261MD1510041+9999REMSYN066AAXX  20091 59567 32280 52309 10271 20250 39726 40089 55004 85200;EQDQ01  00002PRCP99
0163595670999992000062012004+22290+121560FM-12+032599999V0202401N016010021019N0200001N1+02591+02491101091ADDAA199000091GF106991061041002501001001MA1999999097401MD1210141+9999REMSYN066AAXX  20121 59567 32370 62416 10259 20249 39740 40109 52014 86400;EQDQ01  00002PRCP99
0163595670999992000062021004+22290+121560FM-12+032599999V0202501N009012200019N0200001N1+02531+02441101111ADDAA199000091GF104991041041002501001001MA1999999097411MD1510031+9999REMSYN066AAXX  20211 59567 32370 42509 10253 20244 39741 40111 55003 84400;EQDQ01  00002PRCP99
0163595670999992000062100004+22290+121560FM-12+032599999V0202301N010010012019N0300001N1+02681+02561101201ADDAA199000091GF106991061041001501001001MA1999999097521MD1210111+9999REMSYN066AAXX  21001 59567 32280 62310 10268 20256 39752 40120 52011 86400;EQDQ01  00002PRCP99
0178595670999992000062103004+22290+121560FM-12+032599999V0202101N007010042019N0300001N1+02841+02631101211ADDAA100004191AY161031AY221031GF106991061041004501001001MA1999999097551MD1010031+9999MW1211REMSYN078AAXX  21031 59567 11480 62107 10284 20263 39755 40121 50003 6004/ 72162 86400;
0178595670999992000062106004+22290+121560FM-12+032599999V0202301N016012200019N0300001N1+02831+02561101101ADDAA106004191AY161061AY221061GF102991021021004501001001MA1999999097441MD1810111+9999MW1021REMSYN078AAXX  21061 59567 11480 22316 10283 20256 39744 40110 58011 60041 70262 82200;
0150595670999992000062109004+22290+121560FM-12+032599999V0202401N009012200019N0300001N1+02691+02561101011ADDAA100004191GF102991021021004501001001MA1999999097341MD1610101+9999REMSYN072AAXX  21091 59567 12480 22409 10269 20256 39734 40101 56010 6004/ 82200;
0150595670999992000062112004+22290+121560FM-12+032599999V0202501N016010042019N0200001N1+02621+02501101181ADDAA112004191GF108991081051004501999999MA1999999097491MD1310151+9999REMSYN072AAXX  21121 59567 12470 82516 10262 20250 39749 40118 53015 60042 885//;
0163595670999992000062121004+22290+121560FM-12+032599999V0202401N008010042019N0300001N1+02551+02431101191ADDAA199000091GF106991061041004501001001MA1999999097491MD1310051+9999REMSYN066AAXX  21211 59567 32480 62408 10255 20243 39749 40119 53005 86400;EQDQ01  00002PRCP99
0163595670999992000062200004+22290+121560FM-12+032599999V0202501N008012200019N0300001N1+02641+02461101271ADDAA199000091GF101991011021004501001001MA1999999097581MD1010091+9999REMSYN066AAXX  22001 59567 32480 12508 10264 20246 39758 40127 50009 81200;EQDQ01  00002PRCP99
0163595670999992000062203004+22290+121560FM-12+032599999V0202501N008012200019N0300001N1+02731+02451101181ADDAA199000091GF102991021021004501001001MA1999999097511MD1510071+9999REMSYN066AAXX  22031 59567 32480 22508 10273 20245 39751 40118 55007 82200;EQDQ01  00002PRCP99
0163595670999992000062206004+22290+121560FM-12+032599999V0202401N008012200019N0300001N1+02791+02521101071ADDAA199000091GF102991021021004501001001MA1999999097411MD1710101+9999REMSYN066AAXX  22061 59567 32480 22408 10279 20252 39741 40107 57010 82200;EQDQ01  00002PRCP99
0163595670999992000062209004+22290+121560FM-12+032599999V0202401N009012200019N0300001N1+02701+02491100961ADDAA199000091GF101991011021004501001001MA1999999097291MD1610121+9999REMSYN066AAXX  22091 59567 32480 12409 10270 20249 39729 40096 56012 81200;EQDQ01  00002PRCP99
0163595670999992000062212004+22290+121560FM-12+032599999V0202401N009012200019N0200001N1+02601+02481101121ADDAA199000091GF101991011021004501001001MA1999999097431MD1210141+9999REMSYN066AAXX  22121 59567 32470 12409 10260 20248 39743 40112 52014 81200;EQDQ01  00002PRCP99
0163595670999992000062221004+22290+121560FM-12+032599999V0202501N009012200019N0200001N1+02561+02401101061ADDAA199000091GF102991021041004501001001MA1999999097371MD1310031+9999REMSYN066AAXX  22211 59567 32470 22509 10256 20240 39737 40106 53003 82400;EQDQ01  00002PRCP99
0163595670999992000062300004+22290+121560FM-12+032599999V0202401N014010042019N0300001N1+02641+02461101151ADDAA199000091GF106991061041004501001001MA1999999097471MD1210101+9999REMSYN066AAXX  23001 59567 32480 62414 10264 20246 39747 40115 52010 86400;EQDQ01  00002PRCP99
0163595670999992000062303004+22290+121560FM-12+032599999V0202501N009010042019N0300001N1+02691+02501101071ADDAA199000091GF107991071041004501999999MA1999999097401MD1810071+9999REMSYN066AAXX  23031 59567 32480 72509 10269 20250 39740 40107 58007 874//;EQDQ01  00002PRCP99
0163595670999992000062306004+22290+121560FM-12+032599999V0202501N021012200019N0200001N1+02791+02481100881ADDAA199000091GF102991021021004501001001MA1999999097221MD1710181+9999REMSYN066AAXX  23061 59567 32470 22521 10279 20248 39722 40088 57018 82200;EQDQ01  00002PRCP99
0163595670999992000062309004+22290+121560FM-12+032599999V0202401N011012200019N0200001N1+02681+02451100751ADDAA199000091GF101991011021004501001001MA1999999097091MD1710131+9999REMSYN066AAXX  23091 59567 32470 12411 10268 20245 39709 40075 57013 81200;EQDQ01  00002PRCP99
0163595670999992000062321004+22290+121560FM-12+032599999V0202401N006010042019N0200001N1+02541+02441100941ADDAA199000091GF106991061041004501001001MA1999999097251MD1510021+9999REMSYN066AAXX  23211 59567 32470 62406 10254 20244 39725 40094 55002 86400;EQDQ01  00002PRCP99
0163595670999992000062400004+22290+121560FM-12+032599999V0202401N012012200019N0300001N1+02681+02441101081ADDAA199000091GF101991011021004501001001MA1999999097401MD1110151+9999REMSYN066AAXX  24001 59567 32480 12412 10268 20244 39740 40108 51015 81200;EQDQ01  00002PRCP99
0163595670999992000062403004+22290+121560FM-12+032599999V0202301N007012200019N0300001N1+02821+02551101041ADDAA199000091GF102991021021004501001001MA1999999097381MD1510021+9999REMSYN066AAXX  24031 59567 32480 22307 10282 20255 39738 40104 55002 82200;EQDQ01  00002PRCP99
0163595670999992000062406004+22290+121560FM-12+032599999V0202401N007012200019N0300001N1+02851+02551100941ADDAA199000091GF102991021021004501001001MA1999999097291MD1710091+9999REMSYN066AAXX  24061 59567 32480 22407 10285 20255 39729 40094 57009 82200;EQDQ01  00002PRCP99
0163595670999992000062409004+22290+121560FM-12+032599999V0202101N011012200019N0300001N1+02691+02521100851ADDAA199000091GF103991031021004501001001MA1999999097181MD1610111+9999REMSYN066AAXX  24091 59567 32480 32111 10269 20252 39718 40085 56011 83200;EQDQ01  00002PRCP99
0163595670999992000062412004+22290+121560FM-12+032599999V0202001N006012200019N0200001N1+02621+02471101001ADDAA199000091GF101991011011004501001001MA1999999097321MD1110141+9999REMSYN066AAXX  24121 59567 32470 12006 10262 20247 39732 40100 51014 81100;EQDQ01  00002PRCP99
0163595670999992000062421004+22290+121560FM-12+032599999V0201901N004012200019N0200001N1+02591+02471101041ADDAA199000091GF102991021041001501001001MA1999999097351MD1310031+9999REMSYN066AAXX  24211 59567 32270 21904 10259 20247 39735 40104 53003 82400;EQDQ01  00002PRCP99
0178595670999992000062500004+22290+121560FM-12+032599999V0201701N006010042019N0300001N1+02701+02531101171ADDAA112001091AY161061AY221061GF106991061041004501001001MA1999999097491MD1110141+9999MW1021REMSYN078AAXX  25001 59567 11480 61706 10270 20253 39749 40117 51014 60012 70262 86400;
0163595670999992000062503004+22290+121560FM-12+032599999V0201801N004010042019N0300001N1+02881+02541101121ADDAA199000091GF105991051021004501001001MA1999999097471MD1510021+9999REMSYN066AAXX  25031 59567 32480 51804 10288 20254 39747 40112 55002 85200;EQDQ01  00002PRCP99
0163595670999992000062506004+22290+121560FM-12+032599999V0201901N005010042019N0300001N1+02811+02551101021ADDAA199000091GF105991051021004501001001MA1999999097361MD1710111+9999REMSYN066AAXX  25061 59567 32480 51905 10281 20255 39736 40102 57011 85200;EQDQ01  00002PRCP99
0163595670999992000062509004+22290+121560FM-12+032599999V0202001N004012200019N0300001N1+02791+02531100961ADDAA199000091GF102991021021004501001001MA1999999097301MD1510061+9999REMSYN066AAXX  25091 59567 32480 22004 10279 20253 39730 40096 55006 82200;EQDQ01  00002PRCP99
0163595670999992000062512004+22290+121560FM-12+032599999V0201301N006012200019N0300001N1+02641+02481101081ADDAA199000091GF101991011021004501001001MA1999999097401MD1110101+9999REMSYN066AAXX  25121 59567 32480 11306 10264 20248 39740 40108 51010 81200;EQDQ01  00002PRCP99
0163595670999992000062521004+22290+121560FM-12+032599999V0201601N003012200019N0300001N1+02581+02431101151ADDAA199000091GF102991021021004501001001MA1999999097461MD1310021+9999REMSYN066AAXX  25211 59567 32480 21603 10258 20243 39746 40115 53002 82200;EQDQ01  00002PRCP99
0163595670999992000062600004+22290+121560FM-12+032599999V0201801N003012200019N0300001N1+02701+02481101231ADDAA199000091GF103991031021004501001001MA1999999097551MD1110091+9999REMSYN066AAXX  26001 59567 32480 31803 10270 20248 39755 40123 51009 83200;EQDQ01  00002PRCP99
0163595670999992000062603004+22290+121560FM-12+032599999V0201901N008010042019N0300001N1+02811+02571101171ADDAA199000091GF105991051021004501001001MA1999999097511MD1810041+9999REMSYN066AAXX  26031 59567 32480 51908 10281 20257 39751 40117 58004 85200;EQDQ01  00002PRCP99
0163595670999992000062606004+22290+121560FM-12+032599999V0201901N004012200019N0300001N1+02921+02571101021ADDAA199000091GF101991011021004501001001MA1999999097371MD1810141+9999REMSYN066AAXX  26061 59567 32480 11904 10292 20257 39737 40102 58014 81200;EQDQ01  00002PRCP99
0163595670999992000062609004+22290+121560FM-12+032599999V0202001N004012200019N0300001N1+02781+02491101021ADDAA199000091GF102991021021004501001001MA1999999097361MD1510011+9999REMSYN066AAXX  26091 59567 32480 22004 10278 20249 39736 40102 55001 82200;EQDQ01  00002PRCP99
0163595670999992000062612004+22290+121560FM-12+032599999V0201601N003012200019N0200001N1+02621+02451101161ADDAA199000091GF102991021041004501001001MA1999999097471MD1310111+9999REMSYN066AAXX  26121 59567 32470 21603 10262 20245 39747 40116 53011 82400;EQDQ01  00002PRCP99
0178595670999992000062621004+22290+121560FM-12+032599999V0201801N005012200019N0300001N1+02561+02381101111ADDAA100003091AY161031AY211031GF101991011021004501001001MA1999999097421MD1010011+9999MW1021REMSYN078AAXX  26211 59567 11480 11805 10256 20238 39742 40111 50001 6003/ 70261 81200;
0178595670999992000062700004+22290+121560FM-12+032599999V0201901N003010042019N0300001N1+02721+02541101241ADDAA112004191AY161061AY221061GF106991061041004501001001MA1999999097561MD1110141+9999MW1211REMSYN078AAXX  27001 59567 11480 61903 10272 20254 39756 40124 51014 60042 72162 86400;
0144595670999992000062703004+22290+121560FM-12+032599999V0200801N004012200019N0300001N1+02851+02641101161ADDAA199000021GF104991041021004501001001MA1999999097501MD1810061+9999REMSYN066AAXX  27031 59567 32480 40804 10285 20264 39750 40116 58006 84200;
0144595670999992000062706004+22290+121560FM-12+032599999V0202001N001012200019N0300001N1+02991+02521101001ADDAA199000021GF101991011021004501001001MA1999999097361MD1810141+9999REMSYN066AAXX  27061 59567 32480 12001 10299 20252 39736 40100 58014 81200;
0144595670999992000062709004+22290+121560FM-12+032599999V0200301N006012200019N0300001N1+02741+02411100951ADDAA199000021GF106991011021004501001061MA1999999097291MD1710071+9999REMSYN066AAXX  27091 59567 32480 60306 10274 20241 39729 40095 57007 81206;
0144595670999992000062712004+22290+121560FM-12+032599999V0200701N005012200019N0300001N1+02641+02391101061ADDAA199000021GF101991011021004501001001MA1999999097381MD1210091+9999REMSYN066AAXX  27121 59567 32480 10705 10264 20239 39738 40106 52009 81200;
0163595670999992000062721004+22290+121560FM-12+032599999V0201401N002010042019N0300001N1+02611+02411101001ADDAA199000091GF107991071051004501999999MA1999999097321MD1310011+9999REMSYN066AAXX  27211 59567 32480 71402 10261 20241 39732 40100 53001 875//;EQDQ01  00002PRCP99
0163595670999992000062800004+22290+121560FM-12+032599999V0202001N004012200019N0300001N1+02721+02461101031ADDAA199000091GF105991011021004501001011MA1999999097361MD1310041+9999REMSYN066AAXX  28001 59567 32480 52004 10272 20246 39736 40103 53004 81201;EQDQ01  00002PRCP99
0163595670999992000062803004+22290+121560FM-12+032599999V0202001N003012200019N0300001N1+02971+02611100971ADDAA199000091GF105991011021004501001011MA1999999097331MD1810031+9999REMSYN066AAXX  28031 59567 32480 52003 10297 20261 39733 40097 58003 81201;EQDQ01  00002PRCP99
0163595670999992000062806004+22290+121560FM-12+032599999V0202301N003012200019N0300001N1+02941+02601100821ADDAA199000091GF105991011021004501001011MA1999999097181MD1810151+9999REMSYN066AAXX  28061 59567 32480 52303 10294 20260 39718 40082 58015 81201;EQDQ01  00002PRCP99
0163595670999992000062809004+22290+121560FM-12+032599999V0202101N006012200019N0300001N1+02801+02471100761ADDAA199000091GF105991011021004501001011MA1999999097111MD1510071+9999REMSYN066AAXX  28091 59567 32480 52106 10280 20247 39711 40076 55007 81201;EQDQ01  00002PRCP99
0163595670999992000062812004+22290+121560FM-12+032599999V0201601N004012200019N0200001N1+02651+02431100921ADDAA199000091GF105991011011004501001011MA1999999097251MD1310141+9999REMSYN066AAXX  28121 59567 32470 51604 10265 20243 39725 40092 53014 81101;EQDQ01  00002PRCP99
0163595670999992000062821004+22290+121560FM-12+032599999V0202101N008012200019N0200001N1+02591+02441100741ADDAA199000091GF102991021041004501001001MA1999999097071MD1310011+9999REMSYN066AAXX  28211 59567 32470 22108 10259 20244 39707 40074 53001 82400;EQDQ01  00002PRCP99
0163595670999992000062900004+22290+121560FM-12+032599999V0202001N005010900019N0300001N1+02761+02501100831ADDAA199000091GF107991011021004501001061MA1999999097171MD1110101+9999REMSYN066AAXX  29001 59567 32480 72005 10276 20250 39717 40083 51010 81206;EQDQ01  00002PRCP99
0163595670999992000062903004+22290+121560FM-12+032599999V0202301N004012200019N0300001N1+02941+02581100851ADDAA199000091GF106991021021004501001041MA1999999097211MD1010041+9999REMSYN066AAXX  29031 59567 32480 62304 10294 20258 39721 40085 50004 82204;EQDQ01  00002PRCP99
0163595670999992000062912004+22290+121560FM-12+032599999V0201701N004012200019N0300001N1+02631+02421100781ADDAA199000091GF101991011021004501001001MA1999999097111MD1210141+9999REMSYN066AAXX  29121 59567 32480 11704 10263 20242 39711 40078 52014 81200;EQDQ01  00002PRCP99
0163595670999992000062921004+22290+121560FM-12+032599999V0201601N006012200019N0300001N1+02571+02391100781ADDAA199000091GF101991011021004501001001MA1999999097101MD1510031+9999REMSYN066AAXX  29211 59567 32480 11606 10257 20239 39710 40078 55003 81200;EQDQ01  00002PRCP99
0163595670999992000063000004+22290+121560FM-12+032599999V0200801N008012200019N0300001N1+02861+02521100841ADDAA199000091GF101991011021004501001001MA1999999097191MD1110091+9999REMSYN066AAXX  30001 59567 32480 10808 10286 20252 39719 40084 51009 81200;EQDQ01  00002PRCP99
0163595670999992000063003004+22290+121560FM-12+032599999V0200701N007012200019N0300001N1+02921+02531100921ADDAA199000091GF102991021021004501001001MA1999999097281MD1110091+9999REMSYN066AAXX  30031 59567 32480 20707 10292 20253 39728 40092 51009 82200;EQDQ01  00002PRCP99
0163595670999992000063009004+22290+121560FM-12+032599999V0200301N005012200019N0300001N1+02811+02391100711ADDAA199000091GF101991011021004501001001MA1999999097061MD1710141+9999REMSYN066AAXX  30091 59567 32480 10305 10281 20239 39706 40071 57014 81200;EQDQ01  00002PRCP99
0163595670999992000063012004+22290+121560FM-12+032599999V0200401N010012200019N0200001N1+02681+02451100891ADDAA199000091GF101991011021004501001001MA1999999097221MD1210161+9999REMSYN066AAXX  30121 59567 32470 10410 10268 20245 39722 40089 52016 81200;EQDQ01  00002PRCP99
0163595670999992000063021004+22290+121560FM-12+032599999V0201101N004012200019N0200001N1+02581+02391100871ADDAA199000091GF104991041041004501001001MA1999999097191MD1310051+9999REMSYN066AAXX  30211 59567 32470 41104 10258 20239 39719 40087 53005 84400;EQDQ01  00002PRCP99
0163595670999992000070100004+22290+121560FM-12+032599999V0201401N007010042019N0150001N1+02641+02451100971ADDAA199000091GF108991081051004501999999MA1999999097291MD1010101+9999REMSYN066AAXX  01001 59567 32465 81407 10264 20245 39729 40097 50010 885//;EQDQ01  00002PRCP99
0163595670999992000070103004+22290+121560FM-12+032599999V0200201N001010012019N0150001N1+02731+02511100981ADDAA199000091GF107991071051001501999999MA1999999097311MD1010021+9999REMSYN066AAXX  01031 59567 32265 70201 10273 20251 39731 40098 50002 875//;EQDQ01  00002PRCP99
0163595670999992000070106004+22290+121560FM-12+032599999V0200401N008010012019N0150001N1+02611+02401100861ADDAA199000091GF107991071041001501999999MA1999999097181MD1510131+9999REMSYN066AAXX  01061 59567 32265 70408 10261 20240 39718 40086 55013 874//;EQDQ01  00002PRCP99
0163595670999992000070109004+22290+121560FM-12+032599999V0200601N006010042019N0300001N1+02731+02431100801ADDAA199000091GF106991061041004501001001MA1999999097141MD1510041+9999REMSYN066AAXX  01091 59567 32480 60606 10273 20243 39714 40080 55004 86400;EQDQ01  00002PRCP99
0163595670999992000070112004+22290+121560FM-12+032599999V0200701N009012200019N0300001N1+02681+02351100901ADDAA199000091GF102991021021004501001001MA1999999097231MD1310091+9999REMSYN066AAXX  01121 59567 32480 20709 10268 20235 39723 40090 53009 82200;EQDQ01  00002PRCP99
0150595670999992000070121004+22290+121560FM-12+032599999V0200201N009010012019N0150001N1+02451+02361100751ADDAA100023191GF107991071041001501999999MA1999999097061MD1710111+9999REMSYN072AAXX  01211 59567 12265 70209 10245 20236 39706 40075 57011 6023/ 874//;
0150595670999992000070200004+22290+121560FM-12+032599999V0200401N005010021019N0200001N1+02721+02471100811ADDAA112023191GF107991051041002501001011MA1999999097151MD1110091+9999REMSYN072AAXX  02001 59567 12370 70405 10272 20247 39715 40081 51009 60232 85401;
0163595670999992000070203004+22290+121560FM-12+032599999V0200401N007012200019N0300001N1+02911+02561100851ADDAA199000091GF102991021021004501001001MA1999999097211MD1010061+9999REMSYN066AAXX  02031 59567 32480 20407 10291 20256 39721 40085 50006 82200;EQDQ01  00002PRCP99
0163595670999992000070206004+22290+121560FM-12+032599999V0200201N009012200019N0300001N1+02911+02571100681ADDAA199000091GF104991041021004501001001MA1999999097051MD1710161+9999REMSYN066AAXX  02061 59567 32480 40209 10291 20257 39705 40068 57016 84200;EQDQ01  00002PRCP99
0163595670999992000070209004+22290+121560FM-12+032599999V0200501N005012200019N0300001N1+02731+02441100601ADDAA199000091GF104991041021004501001001MA1999999096951MD1510101+9999REMSYN066AAXX  02091 59567 32480 40505 10273 20244 39695 40060 55010 84200;EQDQ01  00002PRCP99
0163595670999992000070212004+22290+121560FM-12+032599999V0200301N009012200019N0200001N1+02661+02441100701ADDAA199000091GF104991041041004501001001MA1999999097041MD1210091+9999REMSYN066AAXX  02121 59567 32470 40309 10266 20244 39704 40070 52009 84400;EQDQ01  00002PRCP99
0163595670999992000070300004+22290+121560FM-12+032599999V0200101N007012200019N0200001N1+02731+02441100531ADDAA199000091GF102991021021004501001001MA1999999096881MD1310051+9999REMSYN066AAXX  03001 59567 32470 20107 10273 20244 39688 40053 53005 82200;EQDQ01  00002PRCP99
0163595670999992000070303004+22290+121560FM-12+032599999V0203601N004010042019N0200001N1+02841+02551100501ADDAA199000091GF105991051021004501001001MA1999999096861MD1510021+9999REMSYN066AAXX  03031 59567 32470 53604 10284 20255 39686 40050 55002 85200;EQDQ01  00002PRCP99
0163595670999992000070306004+22290+121560FM-12+032599999V0200301N026010012019N0200001N1+02671+02391100341ADDAA199000091GF106991061021001501001001MA1999999096691MD1810171+9999REMSYN066AAXX  03061 59567 32270 60326 10267 20239 39669 40034 58017 86200;EQDQ01  00002PRCP99
0163595670999992000070309004+22290+121560FM-12+032599999V0200101N004010012019N0200001N1+02701+02481100251ADDAA199000091GF105991051021001501001001MA1999999096611MD1510081+9999REMSYN066AAXX  03091 59567 32270 50104 10270 20248 39661 40025 55008 85200;EQDQ01  00002PRCP99
0163595670999992000070312004+22290+121560FM-12+032599999V0200201N012010042019N0200001N1+02641+02451100321ADDAA199000091GF105991051041004501001001MA1999999096671MD1210061+9999REMSYN066AAXX  03121 59567 32470 50212 10264 20245 39667 40032 52006 85400;EQDQ01  00002PRCP99
0178595670999992000070321004+22290+121560FM-12+032599999V0200201N007012200019N0200001N1+02521+02381100141ADDAA100017091AY161031AY221031GF102991021041004501001001MA1999999096481MD1610101+9999MW1021REMSYN078AAXX  03211 59567 11470 20207 10252 20238 39648 40014 56010 6017/ 70262 82400;
0178595670999992000070400004+22290+121560FM-12+032599999V0200201N005010012019N0150001N1+02591+02451100251ADDAA112017091AY161061AY221061GF107991071051001501999999MA1999999096591MD1310111+9999MW1031REMSYN078AAXX  04001 59567 11265 70205 10259 20245 39659 40025 53011 60172 70362 875//;
0178595670999992000070403004+22290+121560FM-12+032599999V0200301N008010360019N0180001N1+02701+02551100201ADDAA100000591AY161031AY221031GF106991031021001501031011MA1999999096561MD1810031+9999MW1211REMSYN078AAXX  04031 59567 11268 60308 10270 20255 39656 40020 58003 6995/ 72162 83231;
0178595670999992000070406004+22290+121560FM-12+032599999V0200401N005010360019N0200001N1+02781+02511100101ADDAA106000591AY161061AY221061GF106991031021002501031001MA1999999096471MD1810091+9999MW1021REMSYN078AAXX  04061 59567 11370 60405 10278 20251 39647 40010 58009 69951 70262 83230;
0178595670999992000070409004+22290+121560FM-12+032599999V0200201N004010360019N0180001N1+02611+02441100131ADDAA100002091AY161031AY221031GF106991031021004501031001MA1999999096481MD1310011+9999MW1021REMSYN078AAXX  04091 59567 11468 60204 10261 20244 39648 40013 53001 6002/ 70262 83230;
0178595670999992000070412004+22290+121560FM-12+032599999V0200401N012010012019N0100001N1+02381+02271100271ADDAA100006191AY161061AY221061GF108991081071001501999999MA1999999096591MD1010111+9999MW1211REMSYN078AAXX  04121 59567 11260 80412 10238 20227 39659 40027 50011 6006/ 72162 887//;
0178595670999992000070500004+22290+121560FM-12+032599999V0200201N007010012019N0100001N1+02511+02481100091ADDAA112009991AY161061AY221061GF108991081051001501999999MA1999999096431MD1310041+9999MW1211REMSYN078AAXX  05001 59567 11260 80207 10251 20248 39643 40009 53004 60102 72162 885//;
0178595670999992000070503004+22290+121560FM-12+032599999V0200201N010010012019N0120001N1+02491+02421100131ADDAA100000591AY161031AY221031GF108991081051001501999999MA1999999096471MD1310041+9999MW1021REMSYN078AAXX  05031 59567 11262 80210 10249 20242 39647 40013 53004 6995/ 70262 885//;
0178595670999992000070506004+22290+121560FM-12+032599999V0200101N006010006019N0100001N1+02571+02521099981ADDAA106015091AY161061AY221061GF108991081071000751999999MA1999999096331MD1810141+9999MW1621REMSYN078AAXX  05061 59567 11160 80106 10257 20252 39633 49998 58014 60151 76262 887//;
0178595670999992000070509004+22290+121560FM-12+032599999V0200301N009010006019N0100001N1+02531+02531099941ADDAA100020191AY161031AY221031GF108991081061000751999999MA1999999096291MD1510041+9999MW1211REMSYN078AAXX  05091 59567 11160 80309 10253 20253 39629 49994 55004 6020/ 72162 886//;
0178595670999992000070512004+22290+121560FM-12+032599999V0203601N006010012019N0100001N1+02491+02491099981ADDAA112027991AY161061AY221061GF108991081071001501999999MA1999999096321MD1210031+9999MW1211REMSYN078AAXX  05121 59567 11260 83606 10249 20249 39632 49998 52003 60282 72162 887//;
0178595670999992000070521004+22290+121560FM-12+032599999V0200401N027010012019N0100001N1+02451+02421099911ADDAA100024991AY161031AY221031GF108991081051001501999999MA1999999096251MD1510011+9999MW1211REMSYN078AAXX  05211 59567 11260 80427 10245 20242 39625 49991 55001 6025/ 72162 885//;
0178595670999992000070603004+22290+121560FM-12+032599999V0200401N012010012019N0100001N1+02491+02391100081ADDAA100000591AY161031AY221031GF108991081051001501999999MA1999999096421MD1410001+9999MW1031REMSYN078AAXX  06031 59567 11260 80412 10249 20239 39642 40008 54000 6995/ 70362 885//;
0178595670999992000070606004+22290+121560FM-12+032599999V0200201N011010021019N0100001N1+02561+02561100041ADDAA106010991AY161061AY221061GF108991081051002501999999MA1999999096391MD1810031+9999MW1021REMSYN078AAXX  06061 59567 11360 80211 10256 20256 39639 40004 58003 60111 70262 885//;
0178595670999992000070609004+22290+121560FM-12+032599999V0200301N010010012019N0100001N1+02551+02551100041ADDAA100018091AY161031AY221031GF108991081071001501999999MA1999999096391MD1410001+9999MW1621REMSYN078AAXX  06091 59567 11260 80310 10255 20255 39639 40004 54000 6018/ 76262 887//;
0178595670999992000070612004+22290+121560FM-12+032599999V0200501N016010012019N0100001N1+02531+02521100171ADDAA112021191AY161061AY221061GF108991081051001501999999MA1999999096511MD1310121+9999MW1211REMSYN078AAXX  06121 59567 11260 80516 10253 20252 39651 40017 53012 60212 72162 885//;
0150595670999992000070621004+22290+121560FM-12+032599999V0200201N007010012019N0100001N1+02451+02421100021ADDAA100029091GF108991081051001501999999MA1999999096351MD1810071+9999REMSYN072AAXX  06211 59567 12260 80207 10245 20242 39635 40002 58007 6029/ 885//;
0163595670999992000070703004+22290+121560FM-12+032599999V0200401N007010012019N0120001N1+02521+02471100111ADDAA199000091GF108991081051001501999999MA1999999096451MD1810061+9999REMSYN066AAXX  07031 59567 32262 80407 10252 20247 39645 40011 58006 885//;EQDQ01  00002PRCP99
0178595670999992000070706004+22290+121560FM-12+032599999V0200201N006010012019N0120001N1+02361+02361100071ADDAA106022191AY161061AY221061GF108991081051001501999999MA1999999096391MD1710061+9999MW1601REMSYN078AAXX  07061 59567 11262 80206 10236 20236 39639 40007 57006 60221 76062 885//;
0178595670999992000070709004+22290+121560FM-12+032599999V0200301N007010012019N0120001N1+02531+02501099931ADDAA100022191AY161031AY221031GF108991081051001501999999MA1999999096281MD1610111+9999MW1021REMSYN078AAXX  07091 59567 11262 80307 10253 20250 39628 49993 56011 6022/ 70262 885//;
0178595670999992000070712004+22290+121560FM-12+032599999V0200801N006010012019N0100001N1+02451+02421100111ADDAA112023191AY161061AY221061GF108991081051001501999999MA1999999096441MD1210161+9999MW1601REMSYN078AAXX  07121 59567 11260 80806 10245 20242 39644 40011 52016 60232 76062 885//;
0150595670999992000070721004+22290+121560FM-12+032599999V0200301N012010012019N0150001N1+02451+02411099871ADDAA100005191GF108991081051001501999999MA1999999096211MD1510091+9999REMSYN072AAXX  07211 59567 12265 80312 10245 20241 39621 49987 55009 6005/ 885//;
0178595670999992000070800004+22290+121560FM-12+032599999V0200201N010010006019N0100001N1+02431+02431099901ADDAA112008991AY161061AY221061GF108991081051000751999999MA1999999096241MD1310031+9999MW1621REMSYN078AAXX  08001 59567 11160 80210 10243 20243 39624 49990 53003 60092 76262 885//;
0178595670999992000070803004+22290+121560FM-12+032599999V0203601N006010006019N0100001N1+02451+02451099901ADDAA100009991AY161031AY221031GF108991081071000751999999MA1999999096241MD1410001+9999MW1621REMSYN078AAXX  08031 59567 11160 83606 10245 20245 39624 49990 54000 6010/ 76262 887//;
0178595670999992000070806004+22290+121560FM-12+032599999V0200701N011010042019N0120001N1+02311+02311099861ADDAA106037191AY191061AY281061GF108991081071004501999999MA1999999096181MD1810061+9999MW1601REMSYN078AAXX  08061 59567 11462 80711 10231 20231 39618 49986 58006 60371 76098 887//;
0178595670999992000070809004+22290+121560FM-12+032599999V0200301N008010012019N0100001N1+02371+02371099761ADDAA100041991AY161031AY221031GF108991081071001501999999MA1999999096091MD1510091+9999MW1601REMSYN078AAXX  08091 59567 11260 80308 10237 20237 39609 49976 55009 6042/ 76062 887//;
0178595670999992000070812004+22290+121560FM-12+032599999V0200301N027010012019N0100001N1+02361+02321099611ADDAA112050091AY161061AY221061GF108991081071001501999999MA1999999095951MD1810141+9999MW1601REMSYN078AAXX  08121 59567 11260 80327 10236 20232 39595 49961 58014 60502 76062 887//;
0178595670999992000070818004+22290+121560FM-12+032599999V0201201N008010012019N0100001N1+02431+02431099321ADDAA106073991AY161061AY221061GF108991081071001501999999MA1999999095681MD1810131+9999MW1621REMSYN078AAXX  08181 59567 11260 81208 10243 20243 39568 49932 58013 60741 76262 887//;
0230595670999992000070821004+22290+121560FM-12+032599999V0201601N045020006019N0100001N1+02451+02421999999ADDAA100085191AY161031AY261031GF108991081071000751999999MD1811282+9999MW1601REMSYN078AAXX  08211 59567 11160 81645 10245 20242 39440 49799 58128 6085/ 76066 887//;EQDQ01+004503WOSPD Q02+094403APOSP Q03+097993APOSLPQ04+001282APC3  
0229595670999992000070900004+22290+121560FM-12+032599999V0202401N048020006019N0100001N1+02341+02291099121ADDAA112094091AY161061AY221061GF108991081071000751999999MA1999999095471MD1410001+9999MW1601REMSYN078AAXX  09001 59567 11160 82448 10234 20229 39547 49912 53107 60942 76062 887//;EQDQ01+004803WOSPD Q02+000032APCTENQ03+001072APC3  
0178595670999992000070903004+22290+121560FM-12+032599999V0202301N036010006019N0100001N1+02561+02521099501ADDAA100006191AY161031AY221031GF108991081071000751999999MA1999999095871MD1110401+9999MW1611REMSYN078AAXX  09031 59567 11160 82336 10256 20252 39587 49950 51040 6006/ 76162 887//;
0150595670999992000070909004+22290+121560FM-12+032599999V0202501N016010012019N0120001N1+02501+02481099731ADDAA100007191GF108991081061001501999999MA1999999096081MD1310121+9999REMSYN072AAXX  09091 59567 12262 82516 10250 20248 39608 49973 53012 6007/ 886//;
0150595670999992000070912004+22290+121560FM-12+032599999V0202401N015010021019N0100001N1+02551+02291100011ADDAA112007191GF107991071051002501999999MA1999999096361MD1110281+9999REMSYN072AAXX  09121 59567 12360 72415 10255 20229 39636 40001 51028 60072 875//;
0163595670999992000070921004+22290+121560FM-12+032599999V0202301N021010012019N0100001N1+02521+02421100371ADDAA199000091GF108991081051001501999999MA1999999096701MD1310151+9999REMSYN066AAXX  09211 59567 32260 82321 10252 20242 39670 40037 53015 885//;EQDQ01  00002PRCP99
0163595670999992000071000004+22290+121560FM-12+032599999V0202301N016010012019N0100001N1+02581+02471100601ADDAA199000091GF108991081051001501999999MA1999999096931MD1110231+9999REMSYN066AAXX  10001 59567 32260 82316 10258 20247 39693 40060 51023 885//;EQDQ01  00002PRCP99
0163595670999992000071003004+22290+121560FM-12+032599999V0202401N006010012019N0120001N1+02701+02561100721ADDAA199000091GF108991081051001501999999MA1999999097061MD1110131+9999REMSYN066AAXX  10031 59567 32262 82406 10270 20256 39706 40072 51013 885//;EQDQ01  00002PRCP99
0163595670999992000071006004+22290+121560FM-12+032599999V0202401N005010012019N0180001N1+02851+02601100701ADDAA199000091GF108991081051001501999999MA1999999097061MD1410001+9999REMSYN066AAXX  10061 59567 32268 82405 10285 20260 39706 40070 54000 885//;EQDQ01  00002PRCP99
0163595670999992000071009004+22290+121560FM-12+032599999V0202501N003010360019N0180001N1+02701+02511100721ADDAA199000091GF108991021021001501031001MA1999999097061MD1410001+9999REMSYN066AAXX  10091 59567 32268 82503 10270 20251 39706 40072 54000 82230;EQDQ01  00002PRCP99
0163595670999992000071012004+22290+121560FM-12+032599999V0201101N009010360019N0100001N1+02611+02521100941ADDAA199000091GF106991021021001501031001MA1999999097261MD1210201+9999REMSYN066AAXX  10121 59567 32260 61109 10261 20252 39726 40094 52020 82230;EQDQ01  00002PRCP99
0163595670999992000071021004+22290+121560FM-12+032599999V0201501N014010012019N0120001N1+02621+02441101091ADDAA199000091GF107991071051001501999999MA1999999097411MD1310031+9999REMSYN066AAXX  10211 59567 32262 71514 10262 20244 39741 40109 53003 875//;EQDQ01  00002PRCP99
0163595670999992000071100004+22290+121560FM-12+032599999V0201201N009010012019N0120001N1+02671+02541101241ADDAA199000091GF107991071041001501999999MA1999999097561MD1210151+9999REMSYN066AAXX  11001 59567 32262 71209 10267 20254 39756 40124 52015 874//;EQDQ01  00002PRCP99
0163595670999992000071103004+22290+121560FM-12+032599999V0200801N005010012019N0120001N1+02821+02641101271ADDAA199000091GF106991061041001501001001MA1999999097601MD1010041+9999REMSYN066AAXX  11031 59567 32262 60805 10282 20264 39760 40127 50004 86400;EQDQ01  00002PRCP99
0178595670999992000071106004+22290+121560FM-12+032599999V0200601N008010012019N0120001N1+02731+02571101161ADDAA106000591AY181061AY221061GF106991061041001501001001MA1999999097491MD1810111+9999MW1021REMSYN078AAXX  11061 59567 11262 60608 10273 20257 39749 40116 58011 69951 70282 86400;
0150595670999992000071109004+22290+121560FM-12+032599999V0200501N003012200019N0120001N1+02711+02521101121ADDAA100000591GF103991021021001501001021MA1999999097451MD1510041+9999REMSYN072AAXX  11091 59567 12262 30503 10271 20252 39745 40112 55004 6995/ 82202;
0150595670999992000071112004+22290+121560FM-12+032599999V0200701N005010006019N0100001N1+02621+02541101251ADDAA112000591GF108991081041000751999999MA1999999097561MD1210111+9999REMSYN072AAXX  11121 59567 12160 80705 10262 20254 39756 40125 52011 69952 884//;
0163595670999992000071121004+22290+121560FM-12+032599999V0200401N005010006019N0100001N1+02521+02501101161ADDAA199000091GF108991081041000751999999MA1999999097461MD1510031+9999REMSYN066AAXX  11211 59567 32160 80405 10252 20250 39746 40116 55003 884//;EQDQ01  00002PRCP99
0163595670999992000071200004+22290+121560FM-12+032599999V0200501N009010012019N0150001N1+02711+02531101191ADDAA199000091GF106991061041001501001001MA1999999097511MD1010051+9999REMSYN066AAXX  12001 59567 32265 60509 10271 20253 39751 40119 50005 86400;EQDQ01  00002PRCP99
0163595670999992000071203004+22290+121560FM-12+032599999V0200201N004010021019N0180001N1+02781+02561101171ADDAA199000091GF106991061041002501001001MA1999999097501MD1810011+9999REMSYN066AAXX  12031 59567 32368 60204 10278 20256 39750 40117 58001 86400;EQDQ01  00002PRCP99
0163595670999992000071206004+22290+121560FM-12+032599999V0200401N005010900019N0180001N1+02821+02511101031ADDAA199000091GF105991021021002501031011MA1999999097371MD1710131+9999REMSYN066AAXX  12061 59567 32368 50405 10282 20251 39737 40103 57013 82231;EQDQ01  00002PRCP99
0163595670999992000071212004+22290+121560FM-12+032599999V0200301N005010021019N0120001N1+02561+02431101031ADDAA199000091GF107991071041002501999999MA1999999097341MD1310061+9999REMSYN066AAXX  12121 59567 32362 70305 10256 20243 39734 40103 53006 874//;EQDQ01  00002PRCP99
0178595670999992000071221004+22290+121560FM-12+032599999V0200201N004010012019N0120001N1+02511+02431100891ADDAA100001091AY181031AY221031GF107991071041001501999999MA1999999097201MD1510061+9999MW1021REMSYN078AAXX  12211 59567 11262 70204 10251 20243 39720 40089 55006 6001/ 70282 874//;
0150595670999992000071300004+22290+121560FM-12+032599999V0200301N005012200019N0150001N1+02671+02461100921ADDAA112001091GF102991011011004501001081MA1999999097251MD1010051+9999REMSYN072AAXX  13001 59567 12465 20305 10267 20246 39725 40092 50005 60012 81108;
0163595670999992000071303004+22290+121560FM-12+032599999V0200501N011010042019N0150001N1+02711+02501100881ADDAA199000091GF107991071041004501999999MA1999999097211MD1810041+9999REMSYN066AAXX  13031 59567 32465 70511 10271 20250 39721 40088 58004 874//;EQDQ01  00002PRCP99
0163595670999992000071306004+22290+121560FM-12+032599999V0200301N010010042019N0150001N1+02771+02561100741ADDAA199000091GF107991071041004501999999MA1999999097091MD1710121+9999REMSYN066AAXX  13061 59567 32465 70310 10277 20256 39709 40074 57012 874//;EQDQ01  00002PRCP99
0163595670999992000071309004+22290+121560FM-12+032599999V0200301N011010042019N0150001N1+02641+02491100771ADDAA199000091GF107991071041004501999999MA1999999097101MD1310011+9999REMSYN066AAXX  13091 59567 32465 70311 10264 20249 39710 40077 53001 874//;EQDQ01  00002PRCP99
0163595670999992000071312004+22290+121560FM-12+032599999V0200301N008010021019N0150001N1+02581+02461100861ADDAA199000091GF107991071041002501999999MA1999999097181MD1310081+9999REMSYN066AAXX  13121 59567 32365 70308 10258 20246 39718 40086 53008 874//;EQDQ01  00002PRCP99
0163595670999992000071321004+22290+121560FM-12+032599999V0200301N006010021019N0150001N1+02511+02361100621ADDAA199000091GF105991051041002501001001MA1999999096941MD1510041+9999REMSYN066AAXX  13211 59567 32365 50306 10251 20236 39694 40062 55004 85400;EQDQ01  00002PRCP99
0163595670999992000071400004+22290+121560FM-12+032599999V0200301N007012200019N0180001N1+02651+02431100721ADDAA199000091GF102991021021004501001001MA1999999097051MD1210111+9999REMSYN066AAXX  14001 59567 32468 20307 10265 20243 39705 40072 52011 82200;EQDQ01  00002PRCP99
0163595670999992000071403004+22290+121560FM-12+032599999V0200201N007010360019N0150001N1+02681+02431100731ADDAA199000091GF105991021021004501041001MA1999999097071MD1010021+9999REMSYN066AAXX  14031 59567 32465 50207 10268 20243 39707 40073 50002 82240;EQDQ01  00002PRCP99
0163595670999992000071406004+22290+121560FM-12+032599999V0203601N008010012019N0150001N1+02611+02491100551ADDAA199000091GF108991081051001501999999MA1999999096881MD1710191+9999REMSYN066AAXX  14061 59567 32265 83608 10261 20249 39688 40055 57019 885//;EQDQ01  00002PRCP99
0178595670999992000071409004+22290+121560FM-12+032599999V0200101N004010012019N0100001N1+02481+02461100541ADDAA100007991AY161031AY221031GF108991081051001501999999MA1999999096861MD1810021+9999MW1211REMSYN078AAXX  14091 59567 11260 80104 10248 20246 39686 40054 58002 6008/ 72162 885//;
0178595670999992000071412004+22290+121560FM-12+032599999V0203601N006010012019N0100001N1+02431+02431100621ADDAA112009991AY161061AY221061GF108991081051001501999999MA1999999096931MD1010071+9999MW1211REMSYN078AAXX  14121 59567 11260 83606 10243 20243 39693 40062 50007 60102 72162 885//;
0178595670999992000071421004+22290+121560FM-12+032599999V0200601N006010012019N0100001N1+02451+02451100601ADDAA100007991AY161031AY221031GF106991061051001501031001MA1999999096911MD1510011+9999MW1021REMSYN078AAXX  14211 59567 11260 60606 10245 20245 39691 40060 55001 6008/ 70262 86530;
0178595670999992000071500004+22290+121560FM-12+032599999V0200301N013010012019N0120001N1+02551+02511100691ADDAA112008991AY181061AY261061GF106991061041001501001001MA1999999097011MD1110101+9999MW1011REMSYN078AAXX  15001 59567 11262 60313 10255 20251 39701 40069 51010 60092 70186 86400;
0178595670999992000071503004+22290+121560FM-12+032599999V0200301N006010012019N0100001N1+02521+02521100681ADDAA100004191AY181031AY221031GF107991071041001501999999MA1999999097001MD1510011+9999MW1251REMSYN078AAXX  15031 59567 11260 70306 10252 20252 39700 40068 55001 6004/ 72582 874//;
0178595670999992000071506004+22290+121560FM-12+032599999V0200301N007010012019N0100001N1+02581+02511100481ADDAA106004191AY181061AY221061GF107991071041001501999999MA1999999096811MD1810191+9999MW1021REMSYN078AAXX  15061 59567 11260 70307 10258 20251 39681 40048 58019 60041 70282 874//;
0178595670999992000071509004+22290+121560FM-12+032599999V0200201N011010006019N0100001N1+02361+02361100591ADDAA100018091AY181031AY221031GF108991081071000751999999MA1999999096891MD1310081+9999MW1801REMSYN078AAXX  15091 59567 11160 80211 10236 20236 39689 40059 53008 6018/ 78082 887//;
0178595670999992000071512004+22290+121560FM-12+032599999V0200401N007010012019N0100001N1+02431+02381100701ADDAA112021191AY181061AY221061GF107991071041001501999999MA1999999097011MD1310121+9999MW1011REMSYN078AAXX  15121 59567 11260 70407 10243 20238 39701 40070 53012 60212 70182 874//;
0178595670999992000071600004+22290+121560FM-12+032599999V0202601N007010006019N0100001N1+02381+02381100761ADDAA112019191AY181061AY221061GF108991081071000751999999MA1999999097061MD1310111+9999MW1801REMSYN078AAXX  16001 59567 11160 82607 10238 20238 39706 40076 53011 60192 78082 887//;
0178595670999992000071603004+22290+121560FM-12+032599999V0200801N002010012019N0150001N1+02681+02661100781ADDAA100002091AY181031AY221031GF107991071051001501999999MA1999999097111MD1310051+9999MW1251REMSYN078AAXX  16031 59567 11265 70802 10268 20266 39711 40078 53005 6002/ 72582 875//;
0178595670999992000071606004+22290+121560FM-12+032599999V0201901N012010006019N0100001N1+02351+02351100751ADDAA106022191AY181061AY261061GF108991081071000751999999MA1999999097051MD1710061+9999MW1601REMSYN078AAXX  16061 59567 11160 81912 10235 20235 39705 40075 57006 60221 76086 887//;
0178595670999992000071609004+22290+121560FM-12+032599999V0201601N008010012019N0100001N1+02411+02411100711ADDAA100030091AY161031AY221031GF108991081051001501999999MA1999999097011MD1510041+9999MW1021REMSYN078AAXX  16091 59567 11260 81608 10241 20241 39701 40071 55004 6030/ 70262 885//;
0178595670999992000071612004+22290+121560FM-12+032599999V0201601N011010012019N0100001N1+02391+02391100871ADDAA112035191AY181061AY261061GF108991081051001501999999MA1999999097171MD1310161+9999MW1251REMSYN078AAXX  16121 59567 11260 81611 10239 20239 39717 40087 53016 60352 72586 885//;
0178595670999992000071621004+22290+121560FM-12+032599999V0201501N017010012019N0100001N1+02421+02421100901ADDAA100005191AY161031AY221031GF108991081071001501999999MA1999999097201MD1310061+9999MW1611REMSYN078AAXX  16211 59567 11260 81517 10242 20242 39720 40090 53006 6005/ 76162 887//;
0178595670999992000071700004+22290+121560FM-12+032599999V0201601N017010012019N0100001N1+02451+02451101031ADDAA112007191AY161061AY221061GF108991081071001501999999MA1999999097331MD1110131+9999MW1601REMSYN078AAXX  17001 59567 11260 81617 10245 20245 39733 40103 51013 60072 76062 887//;
0178595670999992000071703004+22290+121560FM-12+032599999V0201601N008010360019N0100001N1+02541+02501101071ADDAA100000791AY161031AY221031GF108991011051001501021999MA1999999097381MD1210051+9999MW1021REMSYN078AAXX  17031 59567 11260 81608 10254 20250 39738 40107 52005 6990/ 70262 8152/;
0178595670999992000071706004+22290+121560FM-12+032599999V0201901N008010360019N0120001N1+02571+02381100931ADDAA106000791AY161061AY221061GF108991011051004501021999MA1999999097251MD1510131+9999MW1021REMSYN078AAXX  17061 59567 11462 81908 10257 20238 39725 40093 55013 69901 70262 8152/;
0150595670999992000071709004+22290+121560FM-12+032599999V0202301N007010360019N0120001N1+02561+02431100881ADDAA100000791GF108991011051004501021999MA1999999097201MD1710051+9999REMSYN072AAXX  17091 59567 12462 82307 10256 20243 39720 40088 57005 6990/ 8152/;
0150595670999992000071712004+22290+121560FM-12+032599999V0202301N019010360019N0120001N1+02551+02381100921ADDAA112000791GF108991021051004501021999MA1999999097231MD1310031+9999REMSYN072AAXX  17121 59567 12462 82319 10255 20238 39723 40092 53003 69902 8252/;
0178595670999992000071721004+22020+121560FM-12+032599999V0202301N010010360019N0100001N1+02511+02391100841ADDAA100000591AY161031AY221031GF106991021051004501071001MA1999999097151MD1510041+9999MW1011REMSYN078AAXX  17211 59567 11460 62310 10251 20239 39715 40084 55004 6995/ 70162 82570;
0178595670999992000071800004+22020+121560FM-12+032599999V0202401N012010360019N0150001N1+02601+02381100881ADDAA112000591AY161061AY221061GF106991011011004501071001MA1999999097201MD1010051+9999MW1021REMSYN078AAXX  18001 59567 11465 62412 10260 20238 39720 40088 50005 69952 70262 81170;
0163595670999992000071803004+22020+121560FM-12+032599999V0202301N010010360019N0150001N1+02711+02501100971ADDAA199000091GF107991021011004501071999MA1999999097301MD1110101+9999REMSYN066AAXX  18031 59567 32465 72310 10271 20250 39730 40097 51010 8217/;EQDQ01  00002PRCP99
0163595670999992000071806004+22020+121560FM-12+032599999V0202301N009010012019N0120001N1+02641+02481100841ADDAA199000091GF107991071041001501999999MA1999999097171MD1710131+9999REMSYN066AAXX  18061 59567 32262 72309 10264 20248 39717 40084 57013 874//;EQDQ01  00002PRCP99
0163595670999992000071809004+22020+121560FM-12+032599999V0202301N007010360019N0120001N1+02581+02461100791ADDAA199000091GF107991021021002501071999MA1999999097111MD1510061+9999REMSYN066AAXX  18091 59567 32362 72307 10258 20246 39711 40079 55006 8227/;EQDQ01  00002PRCP99
0163595670999992000071812004+22020+121560FM-12+032599999V0202201N009010012019N0100001N1+02541+02491100911ADDAA199000091GF108991081041001501999999MA1999999097221MD1310111+9999REMSYN066AAXX  18121 59567 32260 82209 10254 20249 39722 40091 53011 884//;EQDQ01  00002PRCP99
0163595670999992000071821004+22020+121560FM-12+032599999V0202001N006010360019N0120001N1+02471+02341100761ADDAA199000091GF107991011011002501071999MA1999999097071MD1410001+9999REMSYN066AAXX  18211 59567 32362 72006 10247 20234 39707 40076 54000 8117/;EQDQ01  00002PRCP99
0178595670999992000071900004+22020+121560FM-12+032599999V0201701N003010360019N0120001N1+02551+02371100921ADDAA112000791AY161061AY221061GF107991021021004501071999MA1999999097231MD1210161+9999MW1211REMSYN078AAXX  19001 59567 11462 71703 10255 20237 39723 40092 52016 69902 72162 8227/;
0144595670999992000071903004+22020+121560FM-12+032599999V0200601N003010021019N0100001N1+02481+02361100941ADDAA199000021GF107991071041002501999999MA1999999097241MD1010011+9999REMSYN066AAXX  19031 59567 32360 70603 10248 20236 39724 40094 50001 874//;
0178595670999992000071906004+22020+121560FM-12+032599999V0202601N004012200019N0150001N1+02741+02491100741ADDAA106003091AY181061AY221061GF103991011021004501031081MA1999999097081MD1710161+9999MW1251REMSYN078AAXX  19061 59567 11465 32604 10274 20249 39708 40074 57016 60031 72582 81238;
0150595670999992000071909004+22020+121560FM-12+032599999V0200801N003012200019N0200001N1+02591+02241100791ADDAA100003091GF102991011091004501031031MA1999999097111MD1310031+9999REMSYN072AAXX  19091 59567 12470 20803 10259 20224 39711 40079 53003 6003/ 81933;
0150595670999992000071912004+22020+121560FM-12+032599999V0200901N009012200019N0200001N1+02481+02401100941ADDAA112003091GF102991021021002501001001MA1999999097241MD1310131+9999REMSYN072AAXX  19121 59567 12370 20909 10248 20240 39724 40094 53013 60032 82200;
0163595670999992000071921004+22020+121560FM-12+032599999V0200401N007012200019N0250001N1+02441+02381100911ADDAA199000091GF102991021041001501061001MA1999999097211MD1510021+9999REMSYN066AAXX  19211 59567 32275 20407 10244 20238 39721 40091 55002 82460;EQDQ01  00002PRCP99
0163595670999992000072000004+22020+121560FM-12+032599999V0200401N014010012019N0250001N1+02541+02471101011ADDAA199000091GF107991071041001501999999MA1999999097321MD1210111+9999REMSYN066AAXX  20001 59567 32275 70414 10254 20247 39732 40101 52011 874//;EQDQ01  00002PRCP99
0163595670999992000072003004+22020+121560FM-12+032599999V0200601N009010012019N0250001N1+02661+02551101071ADDAA199000091GF107991071041001501999999MA1999999097391MD1010071+9999REMSYN066AAXX  20031 59567 32275 70609 10266 20255 39739 40107 50007 874//;EQDQ01  00002PRCP99
0163595670999992000072006004+22020+121560FM-12+032599999V0200401N004010360019N0250001N1+02741+02531101011ADDAA199000091GF106991021021004501091011MA1999999097341MD1810051+9999REMSYN066AAXX  20061 59567 32475 60404 10274 20253 39734 40101 58005 82291;EQDQ01  00002PRCP99
0163595670999992000072009004+22020+121560FM-12+032599999V0200301N003010360019N0250001N1+02591+02431100991ADDAA199000091GF106991031021004501031001MA1999999097311MD1510031+9999REMSYN066AAXX  20091 59567 32475 60303 10259 20243 39731 40099 55003 83230;EQDQ01  00002PRCP99
0163595670999992000072012004+22020+121560FM-12+032599999V0200401N005012200019N0150001N1+02501+02371101111ADDAA199000091GF103991031021004501001001MA1999999097411MD1110101+9999REMSYN066AAXX  20121 59567 32465 30405 10250 20237 39741 40111 51010 83200;EQDQ01  00002PRCP99
0163595670999992000072021004+22020+121560FM-12+032599999V0200301N008010360019N0180001N1+02461+02401101091ADDAA199000091GF105991031041001501031001MA1999999097391MD1310011+9999REMSYN066AAXX  20211 59567 32268 50308 10246 20240 39739 40109 53001 83430;EQDQ01  00002PRCP99
0178595670999992000072100004+22020+121560FM-12+032599999V0200201N004012200019N0250001N1+02571+02491101141ADDAA112001091AY181061AY221061GF102991021021001501081001MA1999999097451MD1110061+9999MW1251REMSYN078AAXX  21001 59567 11275 20204 10257 20249 39745 40114 51006 60012 72582 82280;
0144595670999992000072103004+22020+121560FM-12+032599999V0200201N007012200019N0250001N1+02771+02581101121ADDAA199000021GF103991031041001501001001MA1999999097451MD1410001+9999REMSYN066AAXX  21031 59567 32275 30207 10277 20258 39745 40112 54000 83400;
0144595670999992000072106004+22020+121560FM-12+032599999V0200401N004012200019N0300001N1+02761+02491100951ADDAA199000021GF103991021021004501081001MA1999999097291MD1810161+9999REMSYN066AAXX  21061 59567 32480 30404 10276 20249 39729 40095 58016 82280;
0144595670999992000072109004+22020+121560FM-12+032599999V0200301N003012200019N0300001N1+02671+02481100871ADDAA199000021GF102991011021004501081021MA1999999097201MD1710091+9999REMSYN066AAXX  21091 59567 32480 20303 10267 20248 39720 40087 57009 81282;
0144595670999992000072112004+22020+121560FM-12+032599999V0200301N006012200019N0200001N1+02511+02361101051ADDAA199000021GF101991011021004501001001MA1999999097351MD1210151+9999REMSYN066AAXX  21121 59567 32470 10306 10251 20236 39735 40105 52015 81200;
0163595670999992000072121004+22020+121560FM-12+032599999V0200301N010012200019N0250001N1+02441+02351100891ADDAA199000091GF102991011021001501001011MA1999999097191MD1710091+9999REMSYN066AAXX  21211 59567 32275 20310 10244 20235 39719 40089 57009 81201;EQDQ01  00002PRCP99
0163595670999992000072200004+22020+121560FM-12+032599999V0200301N004012200019N0300001N1+02651+02501100871ADDAA199000091GF105991031021001501001011MA1999999097201MD1010011+9999REMSYN066AAXX  22001 59567 32280 50304 10265 20250 39720 40087 50001 83201;EQDQ01  00002PRCP99
0163595670999992000072203004+22020+121560FM-12+032599999V0200301N005010012019N0300001N1+02731+02541100811ADDAA199000091GF106991061041001501001001MA1999999097151MD1810051+9999REMSYN066AAXX  22031 59567 32280 60305 10273 20254 39715 40081 58005 86400;EQDQ01  00002PRCP99
0163595670999992000072206004+22020+121560FM-12+032599999V0200501N004012200019N0300001N1+02781+02511100761ADDAA199000091GF104991021021008001031001MA1999999097111MD1510041+9999REMSYN066AAXX  22061 59567 32580 40504 10278 20251 39711 40076 55004 82230;EQDQ01  00002PRCP99
0163595670999992000072209004+22020+121560FM-12+032599999V0200301N004012200019N0200001N1+02641+02351100691ADDAA199000091GF104991021021008001031001MA1999999097021MD1710091+9999REMSYN066AAXX  22091 59567 32570 40304 10264 20235 39702 40069 57009 82230;EQDQ01  00002PRCP99
0163595670999992000072212004+22020+121560FM-12+032599999V0200301N010012200019N0120001N1+02531+02391100821ADDAA199000091GF103991031021004501001001MA1999999097141MD1310121+9999REMSYN066AAXX  22121 59567 32462 30310 10253 20239 39714 40082 53012 83200;EQDQ01  00002PRCP99
0163595670999992000072221004+22020+121560FM-12+032599999V0200301N011012200019N0180001N1+02471+02391100561ADDAA199000091GF104991021011001501031001MA1999999096881MD1610091+9999REMSYN066AAXX  22211 59567 32268 40311 10247 20239 39688 40056 56009 82130;EQDQ01  00002PRCP99
0163595670999992000072300004+22020+121560FM-12+032599999V0200201N002012200019N0150001N1+02641+02521100611ADDAA199000091GF102991021021001501001001MA1999999096951MD1310071+9999REMSYN066AAXX  23001 59567 32265 20202 10264 20252 39695 40061 53007 82200;EQDQ01  00002PRCP99
0163595670999992000072303004+22020+121560FM-12+032599999V0200401N005010012019N0150001N1+02811+02581100631ADDAA199000091GF106991061041001501001001MA1999999096991MD1010041+9999REMSYN066AAXX  23031 59567 32265 60405 10281 20258 39699 40063 50004 86400;EQDQ01  00002PRCP99
0163595670999992000072306004+22020+121560FM-12+032599999V0200301N004012200019N0150001N1+02801+02581100511ADDAA199000091GF105991041041001501001011MA1999999096871MD1710121+9999REMSYN066AAXX  23061 59567 32265 50304 10280 20258 39687 40051 57012 84401;EQDQ01  00002PRCP99
0163595670999992000072309004+22020+121560FM-12+032599999V0200401N004010012019N0150001N1+02701+02531100481ADDAA199000091GF107991071041001501999999MA1999999096831MD1510041+9999REMSYN066AAXX  23091 59567 32265 70404 10270 20253 39683 40048 55004 874//;EQDQ01  00002PRCP99
0163595670999992000072312004+22020+121560FM-12+032599999V0200501N007012200019N0200001N1+02591+02431100611ADDAA199000091GF101991011011004501001001MA1999999096941MD1310111+9999REMSYN066AAXX  23121 59567 32470 10507 10259 20243 39694 40061 53011 81100;EQDQ01  00002PRCP99
0163595670999992000072321004+22020+121560FM-12+032599999V0200301N007012200019N0150001N1+02531+02471100481ADDAA199000091GF103991021041001501031001MA1999999096811MD1410001+9999REMSYN066AAXX  23211 59567 32265 30307 10253 20247 39681 40048 54000 82430;EQDQ01  00002PRCP99
0163595670999992000072403004+22020+121560FM-12+032599999V0200301N006012200019N0200001N1+02891+02631100541ADDAA199000091GF103991031021001501001001MA1999999096911MD1510021+9999REMSYN066AAXX  24031 59567 32270 30306 10289 20263 39691 40054 55002 83200;EQDQ01  00002PRCP99
0163595670999992000072406004+22020+121560FM-12+032599999V0200301N005012200019N0200001N1+02901+02641100371ADDAA199000091GF104991031021002501031001MA1999999096751MD1710161+9999REMSYN066AAXX  24061 59567 32370 40305 10290 20264 39675 40037 57016 83230;EQDQ01  00002PRCP99
0163595670999992000072409004+22020+121560FM-12+032599999V0200201N002010021019N0180001N1+02721+02501100411ADDAA199000091GF106991061041002501001001MA1999999096761MD1310011+9999REMSYN066AAXX  24091 59567 32368 60202 10272 20250 39676 40041 53001 86400;EQDQ01  00002PRCP99
0163595670999992000072412004+22020+121560FM-12+032599999V0200101N004010021019N0100001N1+02541+02451100491ADDAA199000091GF106991061041002501001001MA1999999096821MD1210061+9999REMSYN066AAXX  24121 59567 32360 60104 10254 20245 39682 40049 52006 86400;EQDQ01  00002PRCP99
0163595670999992000072421004+22020+121560FM-12+032599999V0202701N007010012019N0100001N1+02521+02451100291ADDAA199000091GF106991061041001501001001MA1999999096621MD1510111+9999REMSYN066AAXX  24211 59567 32260 62707 10252 20245 39662 40029 55011 86400;EQDQ01  00002PRCP99
0163595670999992000072500004+22020+121560FM-12+032599999V0202501N008012200019N0100001N1+02671+02511100361ADDAA199000091GF102991011011004501001081MA1999999096711MD1210091+9999REMSYN066AAXX  25001 59567 32460 22508 10267 20251 39671 40036 52009 81108;EQDQ01  00002PRCP99
0163595670999992000072509004+22020+121560FM-12+032599999V0202601N031010900019N0120001N1+02631+02451100201ADDAA199000091GF107991021021002501001061MA1999999096551MD1810121+9999REMSYN066AAXX  25091 59567 32362 72631 10263 20245 39655 40020 58012 82206;EQDQ01  00002PRCP99
0163595670999992000072521004+22020+121560FM-12+032599999V0202601N019010012019N0120001N1+02531+02391100151ADDAA199000091GF107991071051001501999999MA1999999096491MD1310031+9999REMSYN066AAXX  25211 59567 32262 72619 10253 20239 39649 40015 53003 875//;EQDQ01  00002PRCP99
0163595670999992000072600004+22020+121560FM-12+032599999V0202601N020010012019N0150001N1+02571+02401100201ADDAA199000091GF106991051051001501001011MA1999999096541MD1310051+9999REMSYN066AAXX  26001 59567 32265 62620 10257 20240 39654 40020 53005 85501;EQDQ01  00002PRCP99
0163595670999992000072603004+22020+121560FM-12+032599999V0202501N031010012019N0150001N1+02561+02381100251ADDAA199000091GF108991081051001501999999MA1999999096591MD1010051+9999REMSYN066AAXX  26031 59567 32265 82531 10256 20238 39659 40025 50005 885//;EQDQ01  00002PRCP99
0163595670999992000072606004+22020+121560FM-12+032599999V0202501N021010012019N0150001N1+02621+02451099951ADDAA199000091GF107991071051001501999999MA1999999096311MD1710281+9999REMSYN066AAXX  26061 59567 32265 72521 10262 20245 39631 49995 57028 875//;EQDQ01  00002PRCP99
0163595670999992000072609004+22020+121560FM-12+032599999V0202501N034010012019N0150001N1+02561+02451099921ADDAA199000091GF108991081051001501999999MA1999999096271MD1710041+9999REMSYN066AAXX  26091 59567 32265 82534 10256 20245 39627 49992 57004 885//;EQDQ01  00002PRCP99
0163595670999992000072612004+22020+121560FM-12+032599999V0202601N018010012019N0100001N1+02571+02441100091ADDAA199000091GF108991081051001501999999MA1999999096441MD1110171+9999REMSYN066AAXX  26121 59567 32260 82618 10257 20244 39644 40009 51017 885//;EQDQ01  00002PRCP99
0163595670999992000072621004+22020+121560FM-12+032599999V0202601N019010012019N0100001N1+02561+02481099941ADDAA199000091GF108991081051001501999999MA1999999096291MD1010031+9999REMSYN066AAXX  26211 59567 32260 82619 10256 20248 39629 49994 50003 885//;EQDQ01  00002PRCP99
0163595670999992000072700004+22020+121560FM-12+032599999V0202601N037010900019N0120001N1+02591+02461100011ADDAA199000091GF106991021011001501001081MA1999999096361MD1010071+9999REMSYN066AAXX  27001 59567 32262 62637 10259 20246 39636 40001 50007 82108;EQDQ01  00002PRCP99
0163595670999992000072703004+22020+121560FM-12+032599999V0202501N033012200019N0120001N1+02711+02511100021ADDAA199000091GF102991021021001501001081MA1999999096391MD1010031+9999REMSYN066AAXX  27031 59567 32262 22533 10271 20251 39639 40002 50003 82208;EQDQ01  00002PRCP99
0163595670999992000072706004+22020+121560FM-12+032599999V0202501N016012200019N0100001N1+02721+02521099971ADDAA199000091GF103991021011001501001081MA1999999096341MD1510051+9999REMSYN066AAXX  27061 59567 32260 32516 10272 20252 39634 49997 55005 82108;EQDQ01  00002PRCP99
0163595670999992000072709004+22020+121560FM-12+032599999V0202601N031012200019N0120001N1+02621+02391099971ADDAA199000091GF102991011021002501001081MA1999999096331MD1510011+9999REMSYN066AAXX  27091 59567 32362 22631 10262 20239 39633 49997 55001 81208;EQDQ01  00002PRCP99
0163595670999992000072712004+22020+121560FM-12+032599999V0202601N033010012019N0100001N1+02611+02561100161ADDAA199000091GF108991081041001501999999MA1999999096511MD1210181+9999REMSYN066AAXX  27121 59567 32260 82633 10261 20256 39651 40016 52018 884//;EQDQ01  00002PRCP99
0178595670999992000072721004+22020+121560FM-12+032599999V0202601N034010012019N0100001N1+02581+02511099991ADDAA100000791AY161031AY221031GF107991071041001501999999MA1999999096341MD1510121+9999MW1021REMSYN078AAXX  27211 59567 11260 72634 10258 20251 39634 49999 55012 6990/ 70262 874//;
0150595670999992000072800004+22020+121560FM-12+032599999V0202501N039010012019N0120001N1+02601+02501100201ADDAA112000791GF108991081041001501999999MA1999999096551MD1310211+9999REMSYN072AAXX  28001 59567 12262 82539 10260 20250 39655 40020 53021 69902 884//;
0179595670999992000072803004+22020+121560FM-12+032599999V0202601N043020006019N0100001N1+02641+02531100161ADDAA199000091GF108991081041000751999999MA1999999096511MD1510041+9999REMSYN066AAXX  28031 59567 32160 82643 10264 20253 39651 40016 55004 884//;EQDQ01+004303WOSPD Q02  00002PRCP99
0163595670999992000072806004+22020+121560FM-12+032599999V0202601N022010012019N0120001N1+02661+02511100071ADDAA199000091GF106991061041001501001001MA1999999096431MD1710081+9999REMSYN066AAXX  28061 59567 32262 62622 10266 20251 39643 40007 57008 86400;EQDQ01  00002PRCP99
0163595670999992000072809004+22020+121560FM-12+032599999V0202601N038010360019N0120001N1+02511+02251100011ADDAA199000091GF106991011011002501031001MA1999999096351MD1510081+9999REMSYN066AAXX  28091 59567 32362 62638 10251 20225 39635 40001 55008 81130;EQDQ01  00002PRCP99
0179595670999992000072812004+22020+121560FM-12+032599999V0202601N040020012019N0100001N1+02531+02431100151ADDAA199000091GF107991071041001501999999MA1999999096491MD1110141+9999REMSYN066AAXX  28121 59567 32260 72640 10253 20243 39649 40015 51014 874//;EQDQ01+004003WOSPD Q02  00002PRCP99
0179595670999992000072821004+22020+121560FM-12+032599999V0202501N043020012019N0100001N1+02551+02461100011ADDAA199000091GF108991081041001501999999MA1999999096361MD1510021+9999REMSYN066AAXX  28211 59567 32260 82543 10255 20246 39636 40001 55002 884//;EQDQ01+004303WOSPD Q02  00002PRCP99
0163595670999992000072900004+22020+121560FM-12+032599999V0202501N022010012019N0100001N1+02581+02471100191ADDAA199000091GF107991071041001501999999MA1999999096531MD1210171+9999REMSYN066AAXX  29001 59567 32260 72522 10258 20247 39653 40019 52017 874//;EQDQ01  00002PRCP99
0163595670999992000072903004+22020+121560FM-12+032599999V0202601N023010012019N0100001N1+02651+02511100141ADDAA199000091GF107991071041001501999999MA1999999096491MD1810041+9999REMSYN066AAXX  29031 59567 32260 72623 10265 20251 39649 40014 58004 874//;EQDQ01  00002PRCP99
0163595670999992000072906004+22020+121560FM-12+032599999V0202601N023010012019N0100001N1+02661+02511100091ADDAA199000091GF107991071041001501999999MA1999999096451MD1510041+9999REMSYN066AAXX  29061 59567 32260 72623 10266 20251 39645 40009 55004 874//;EQDQ01  00002PRCP99
0163595670999992000072909004+22020+121560FM-12+032599999V0202601N022010012019N0100001N1+02591+02481099991ADDAA199000091GF107991071041001501999999MA1999999096341MD1610111+9999REMSYN066AAXX  29091 59567 32260 72622 10259 20248 39634 49999 56011 874//;EQDQ01  00002PRCP99
0163595670999992000072912004+22020+121560FM-12+032599999V0202601N022010012019N0100001N1+02571+02481100201ADDAA199000091GF108991081041001501999999MA1999999096541MD1310201+9999REMSYN066AAXX  29121 59567 32260 82622 10257 20248 39654 40020 53020 884//;EQDQ01  00002PRCP99
0163595670999992000072921004+22020+121560FM-12+032599999V0202501N023010012019N0100001N1+02561+02461100111ADDAA199000091GF107991071041001501999999MA1999999096451MD1510051+9999REMSYN066AAXX  29211 59567 32260 72523 10256 20246 39645 40011 55005 874//;EQDQ01  00002PRCP99
0163595670999992000073000004+22020+121560FM-12+032599999V0202501N021010012019N0120001N1+02571+02471100371ADDAA199000091GF108991081041001501999999MA1999999096711MD1310261+9999REMSYN066AAXX  30001 59567 32262 82521 10257 20247 39671 40037 53026 884//;EQDQ01  00002PRCP99
0163595670999992000073003004+22020+121560FM-12+032599999V0202501N020010012019N0100001N1+02571+02491100361ADDAA199000091GF108991081041001501999999MA1999999096701MD1810011+9999REMSYN066AAXX  30031 59567 32260 82520 10257 20249 39670 40036 58001 884//;EQDQ01  00002PRCP99
0163595670999992000073006004+22020+121560FM-12+032599999V0202601N022010042019N0150001N1+02591+02381100181ADDAA199000091GF107991071041004501999999MA1999999096531MD1610171+9999REMSYN066AAXX  30061 59567 32465 72622 10259 20238 39653 40018 56017 874//;EQDQ01  00002PRCP99
0163595670999992000073009004+22020+121560FM-12+032599999V0202601N020010012019N0100001N1+02521+02441100211ADDAA199000091GF107991071041001501999999MA1999999096551MD1310021+9999REMSYN066AAXX  30091 59567 32260 72620 10252 20244 39655 40021 53002 874//;EQDQ01  00002PRCP99
0163595670999992000073012004+22020+121560FM-12+032599999V0202601N018010012019N0100001N1+02501+02301100441ADDAA199000091GF108991081041001501999999MA1999999096771MD1110221+9999REMSYN066AAXX  30121 59567 32260 82618 10250 20230 39677 40044 51022 884//;EQDQ01  00002PRCP99
0150595670999992000073021004+22020+121560FM-12+032599999V0202501N016010012019N0100001N1+02521+02431100511ADDAA100002091GF108991081041001501999999MA1999999096841MD1310041+9999REMSYN072AAXX  30211 59567 12260 82516 10252 20243 39684 40051 53004 6002/ 884//;
0150595670999992000073100004+22020+121560FM-12+032599999V0202501N014010012019N0100001N1+02561+02461100621ADDAA112002091GF108991081041001501999999MA1999999096951MD1310111+9999REMSYN072AAXX  31001 59567 12260 82514 10256 20246 39695 40062 53011 60022 884//;
0163595670999992000073103004+22020+121560FM-12+032599999V0202501N015010012019N0100001N1+02621+02501100611ADDAA199000091GF107991071041001501999999MA1999999096941MD1810011+9999REMSYN066AAXX  31031 59567 32260 72515 10262 20250 39694 40061 58001 874//;EQDQ01  00002PRCP99
0163595670999992000073106004+22020+121560FM-12+032599999V0202601N015010012019N0120001N1+02501+02341100561ADDAA199000091GF106991061041001501021999MA1999999096881MD1710061+9999REMSYN066AAXX  31061 59567 32262 62615 10250 20234 39688 40056 57006 8642/;EQDQ01  00002PRCP99
0163595670999992000073109004+22020+121560FM-12+032599999V0202601N015010006019N0100001N1+02411+02371100511ADDAA199000091GF108991081061000751999999MA1999999096821MD1510061+9999REMSYN066AAXX  31091 59567 32160 82615 10241 20237 39682 40051 55006 886//;EQDQ01  00002PRCP99
0163595670999992000073112004+22020+121560FM-12+032599999V0202601N016010012019N0100001N1+02491+02381100621ADDAA199000091GF108991081051001501999999MA1999999096941MD1310121+9999REMSYN066AAXX  31121 59567 32260 82616 10249 20238 39694 40062 53012 885//;EQDQ01  00002PRCP99
0178595670999992000073121004+22020+121560FM-12+032599999V0202601N014010012019N0100001N1+02381+02281100571ADDAA100011991AY161031AY221031GF108991061071001501021999MA1999999096881MD1810081+9999MW1021REMSYN078AAXX  31211 59567 11260 82614 10238 20228 39688 40057 58008 6012/ 70262 8672/;
0178595670999992000080100004+22020+121560FM-12+032599999V0202601N025010006019N0100001N1+02441+02401100681ADDAA112011991AY161061AY221061GF108991081061000751999999MA1999999096991MD1210111+9999MW1021REMSYN078AAXX  01001 59567 11160 82625 10244 20240 39699 40068 52011 60122 70262 886//;
0178595670999992000080103004+22020+121560FM-12+032599999V0202601N016010006019N0100001N1+02481+02431100691ADDAA100000591AY161031AY221031GF108991081061000751999999MA1999999097001MD1010011+9999MW1211REMSYN078AAXX  01031 59567 11160 82616 10248 20243 39700 40069 50001 6995/ 72162 886//;
0178595670999992000080106004+22020+121560FM-12+032599999V0202601N013010360019N0100001N1+02511+02391100621ADDAA106000591AY161061AY221061GF108991021021001501021999MA1999999096941MD1810061+9999MW1021REMSYN078AAXX  01061 59567 11260 82613 10251 20239 39694 40062 58006 69951 70262 8222/;
0150595670999992000080112004+22020+121560FM-12+032599999V0202601N015010012019N0100001N1+02501+02261100621ADDAA112000591GF108991081041001501999999MA1999999096941MD1310081+9999REMSYN072AAXX  01121 59567 12260 82615 10250 20226 39694 40062 53008 69952 884//;
0163595670999992000080121004+22020+121560FM-12+032599999V0202601N011010012019N0100001N1+02461+02391100691ADDAA199000091GF108991081041001501999999MA1999999097001MD1310011+9999REMSYN066AAXX  01211 59567 32260 82611 10246 20239 39700 40069 53001 884//;EQDQ01  00002PRCP99
0163595670999992000080200004+22020+121560FM-12+032599999V0202601N012010360019N0120001N1+02521+02411100661ADDAA199000091GF108991021021001501021999MA1999999096981MD1510021+9999REMSYN066AAXX  02001 59567 32262 82612 10252 20241 39698 40066 55002 8222/;EQDQ01  00002PRCP99
0163595670999992000080203004+22020+121560FM-12+032599999V0202601N013010012019N0150001N1+02541+02441100631ADDAA199000091GF108991081041001501999999MA1999999096951MD1710031+9999REMSYN066AAXX  02031 59567 32265 82613 10254 20244 39695 40063 57003 884//;EQDQ01  00002PRCP99
0163595670999992000080206004+22020+121560FM-12+032599999V0202701N013010360019N0120001N1+02451+02331100581ADDAA199000091GF107991031041001501021999MA1999999096891MD1810061+9999REMSYN066AAXX  02061 59567 32262 72713 10245 20233 39689 40058 58006 8342/;EQDQ01  00002PRCP99
0163595670999992000080209004+22020+121560FM-12+032599999V0202501N015010012019N0120001N1+02351+02271100571ADDAA199000091GF107991071041001501999999MA1999999096871MD1510021+9999REMSYN066AAXX  02091 59567 32262 72515 10235 20227 39687 40057 55002 874//;EQDQ01  00002PRCP99
0163595670999992000080212004+22020+121560FM-12+032599999V0202601N011010012019N0100001N1+02371+02251100661ADDAA199000091GF108991081041001501999999MA1999999096961MD1210091+9999REMSYN066AAXX  02121 59567 32260 82611 10237 20225 39696 40066 52009 884//;EQDQ01  00002PRCP99
0178595670999992000080221004+22020+121560FM-12+032599999V0202601N014010021019N0120001N1+02391+02291100511ADDAA100000591AY161031AY221031GF106991061041002501001001MA1999999096821MD1510061+9999MW1211REMSYN078AAXX  02211 59567 11362 62614 10239 20229 39682 40051 55006 6995/ 72162 86400;
0178595670999992000080300004+22020+121560FM-12+032599999V0202601N012010012019N0150001N1+02481+02321100671ADDAA112000591AY161061AY221061GF107991071051001501999999MA1999999096981MD1110161+9999MW1021REMSYN078AAXX  03001 59567 11265 72612 10248 20232 39698 40067 51016 69952 70262 875//;
0144595670999992000080303004+22020+121560FM-12+032599999V0202601N008010042019N0150001N1+02681+02451100701ADDAA199000021GF107991071051004501999999MA1999999097041MD1110061+9999REMSYN066AAXX  03031 59567 32465 72608 10268 20245 39704 40070 51006 875//;
0144595670999992000080306004+22020+121560FM-12+032599999V0202501N006010012019N0150001N1+02541+02401100711ADDAA199000021GF108991081051001501999999MA1999999097031MD1510011+9999REMSYN066AAXX  03061 59567 32265 82506 10254 20240 39703 40071 55001 885//;
0144595670999992000080309004+22020+121560FM-12+032599999V0202501N011010042019N0200001N1+02381+02261100651ADDAA199000021GF108991081051004501999999MA1999999096951MD1510081+9999REMSYN066AAXX  03091 59567 32470 82511 10238 20226 39695 40065 55008 885//;
0178595670999992000080312004+22020+121560FM-12+032599999V0202701N012010012019N0150001N1+02321+02251100781ADDAA112003091AY161061AY221061GF108991081051001501999999MA1999999097071MD1310121+9999MW1601REMSYN078AAXX  03121 59567 11265 82712 10232 20225 39707 40078 53012 60032 76062 885//;
0150595670999992000080321004+22020+121560FM-12+032599999V0202601N011010042019N0150001N1+02381+02271100541ADDAA100003091GF108991081051004501999999MA1999999096851MD1510011+9999REMSYN072AAXX  03211 59567 12465 82611 10238 20227 39685 40054 55001 6003/ 885//;
0150595670999992000080400004+22020+121560FM-12+032599999V0203101N002010042019N0150001N1+02551+02321100721ADDAA112003091GF107991071051004501999999MA1999999097041MD1310191+9999REMSYN072AAXX  04001 59567 12465 73102 10255 20232 39704 40072 53019 60032 875//;
0163595670999992000080406004+22020+121560FM-12+032599999V0200501N002010042019N0150001N1+02731+02461100671ADDAA199000091GF106991061041004501001001MA1999999097011MD1810131+9999REMSYN066AAXX  04061 59567 32465 60502 10273 20246 39701 40067 58013 86400;EQDQ01  00002PRCP99
0163595670999992000080409004+22020+121560FM-12+032599999V0202601N004010012019N0150001N1+02491+02371100721ADDAA199000091GF107991071041001501999999MA1999999097031MD1010021+9999REMSYN066AAXX  04091 59567 32265 72604 10249 20237 39703 40072 50002 874//;EQDQ01  00002PRCP99
0163595670999992000080412004+22020+121560FM-12+032599999V0202901N004012200019N0150001N1+02431+02291100821ADDAA199000091GF103991031021004501001001MA1999999097121MD1210091+9999REMSYN066AAXX  04121 59567 32465 32904 10243 20229 39712 40082 52009 83200;EQDQ01  00002PRCP99
0163595670999992000080421004+22020+121560FM-12+032599999V0202701N006010042019N0150001N1+02431+02111100881ADDAA199000091GF108991081041004501999999MA1999999097181MD1310031+9999REMSYN066AAXX  04211 59567 32465 82706 10243 20211 39718 40088 53003 884//;EQDQ01  00002PRCP99
0163595670999992000080500004+22020+121560FM-12+032599999V0202601N005010042019N0150001N1+02521+02221100931ADDAA199000091GF106991061041004501001001MA1999999097241MD1310061+9999REMSYN066AAXX  05001 59567 32465 62605 10252 20222 39724 40093 53006 86400;EQDQ01  00002PRCP99
0163595670999992000080503004+22020+121560FM-12+032599999V0202101N001010360019N0150001N1+02841+02511100891ADDAA199000091GF106991011021004501031001MA1999999097241MD1410001+9999REMSYN066AAXX  05031 59567 32465 62101 10284 20251 39724 40089 54000 81230;EQDQ01  00002PRCP99
0163595670999992000080506004+22020+121560FM-12+032599999V0200501N003012200019N0150001N1+02791+02311100781ADDAA199000091GF103991011021004501031001MA1999999097131MD1610111+9999REMSYN066AAXX  05061 59567 32465 30503 10279 20231 39713 40078 56011 81230;EQDQ01  00002PRCP99
0163595670999992000080509004+22020+121560FM-12+032599999V0200201N001012200019N0150001N1+02631+02321100771ADDAA199000091GF104991041041004501001001MA1999999097101MD1510031+9999REMSYN066AAXX  05091 59567 32465 40201 10263 20232 39710 40077 55003 84400;EQDQ01  00002PRCP99
0163595670999992000080512004+22020+121560FM-12+032599999V0203501N003010042019N0150001N1+02521+02311100911ADDAA199000091GF106991061041004501001001MA1999999097221MD1310121+9999REMSYN066AAXX  05121 59567 32465 63503 10252 20231 39722 40091 53012 86400;EQDQ01  00002PRCP99
0163595670999992000080521004+22020+121560FM-12+032599999V0200101N003010042019N0150001N1+02451+02271100851ADDAA199000091GF106991061041004501001001MA1999999097151MD1510051+9999REMSYN066AAXX  05211 59567 32465 60103 10245 20227 39715 40085 55005 86400;EQDQ01  00002PRCP99
0163595670999992000080600004+22020+121560FM-12+032599999V0200401N002010012019N0150001N1+02721+02451100961ADDAA199000091GF106991061041001501001001MA1999999097291MD1110141+9999REMSYN066AAXX  06001 59567 32265 60402 10272 20245 39729 40096 51014 86400;EQDQ01  00002PRCP99
0163595670999992000080603004+22020+121560FM-12+032599999V0201701N002010042019N0150001N1+02721+02481100961ADDAA199000091GF105991051041004501001001MA1999999097291MD1410001+9999REMSYN066AAXX  06031 59567 32465 51702 10272 20248 39729 40096 54000 85400;EQDQ01  00002PRCP99
0163595670999992000080606004+22020+121560FM-12+032599999V0201201N001012200019N0150001N1+02821+02481100801ADDAA199000091GF103991031021004501001001MA1999999097151MD1810141+9999REMSYN066AAXX  06061 59567 32465 31201 10282 20248 39715 40080 58014 83200;EQDQ01  00002PRCP99
0163595670999992000080609004+22020+121560FM-12+032599999V0200201N004010012019N0150001N1+02671+02381100801ADDAA199000091GF106991061021001501001001MA1999999097131MD1510021+9999REMSYN066AAXX  06091 59567 32265 60204 10267 20238 39713 40080 55002 86200;EQDQ01  00002PRCP99
0178595670999992000080612004+22020+121560FM-12+032599999V0200301N010010012019N0150001N1+02501+02391100841ADDAA112009991AY161061AY221061GF108991081051001501999999MA1999999097151MD1010021+9999MW1021REMSYN078AAXX  06121 59567 11265 80310 10250 20239 39715 40084 50002 60102 70262 885//;
0150595670999992000080621004+22020+121560FM-12+032599999V0200201N007010006019N0150001N1+02471+02401100841ADDAA100009991GF108991081051000751999999MA1999999097151MD1310041+9999REMSYN072AAXX  06211 59567 12165 80207 10247 20240 39715 40084 53004 6010/ 885//;
0150595670999992000080700004+22020+121560FM-12+032599999V0200301N006012200019N0150001N1+02621+02511100931ADDAA112010991GF104991041021001501001001MA1999999097251MD1110101+9999REMSYN072AAXX  07001 59567 12265 40306 10262 20251 39725 40093 51010 60112 84200;
0163595670999992000080703004+22020+121560FM-12+032599999V0200301N006010021019N0200001N1+02801+02581100911ADDAA199000091GF106991061021002501001001MA1999999097251MD1410001+9999REMSYN066AAXX  07031 59567 32370 60306 10280 20258 39725 40091 54000 86200;EQDQ01  00002PRCP99
0163595670999992000080706004+22020+121560FM-12+032599999V0200401N005010042019N0200001N1+02721+02481100851ADDAA199000091GF105991051021004501001001MA1999999097191MD1510061+9999REMSYN066AAXX  07061 59567 32470 50405 10272 20248 39719 40085 55006 85200;EQDQ01  00002PRCP99
0163595670999992000080709004+22020+121560FM-12+032599999V0200301N005012200019N0200001N1+02701+02471100811ADDAA199000091GF102991021021004501001001MA1999999097151MD1510041+9999REMSYN066AAXX  07091 59567 32470 20305 10270 20247 39715 40081 55004 82200;EQDQ01  00002PRCP99
0163595670999992000080712004+22020+121560FM-12+032599999V0200401N005012200019N0200001N1+02521+02381100961ADDAA199000091GF102991021021004501001001MA1999999097271MD1110121+9999REMSYN066AAXX  07121 59567 32470 20405 10252 20238 39727 40096 51012 82200;EQDQ01  00002PRCP99
0163595670999992000080721004+22020+121560FM-12+032599999V0203001N004010042019N0200001N1+02451+02321100951ADDAA199000091GF107991071051004501999999MA1999999097251MD1010011+9999REMSYN066AAXX  07211 59567 32470 73004 10245 20232 39725 40095 50001 875//;EQDQ01  00002PRCP99
0163595670999992000080800004+22020+121560FM-12+032599999V0201801N001012200019N0200001N1+02681+02521101001ADDAA199000091GF102991021021004501001001MA1999999097331MD1310081+9999REMSYN066AAXX  08001 59567 32470 21801 10268 20252 39733 40100 53008 82200;EQDQ01  00002PRCP99
0163595670999992000080803004+22020+121560FM-12+032599999V0202101N003012200019N0200001N1+02831+02541101011ADDAA199000091GF102991021021004501001001MA1999999097351MD1010021+9999REMSYN066AAXX  08031 59567 32470 22103 10283 20254 39735 40101 50002 82200;EQDQ01  00002PRCP99
0163595670999992000080806004+22020+121560FM-12+032599999V0202001N004010012019N0100001N1+02831+02581100901ADDAA199000091GF106991061041001501001001MA1999999097251MD1810101+9999REMSYN066AAXX  08061 59567 32260 62004 10283 20258 39725 40090 58010 86400;EQDQ01  00002PRCP99
0163595670999992000080809004+22020+121560FM-12+032599999V0202101N003010012019N0100001N1+02651+02481100811ADDAA199000091GF107991071051001501999999MA1999999097141MD1810111+9999REMSYN066AAXX  08091 59567 32260 72103 10265 20248 39714 40081 58011 875//;EQDQ01  00002PRCP99
0163595670999992000080812004+22020+121560FM-12+032599999V0202701N005010012019N0100001N1+02531+02401100941ADDAA199000091GF106991061051001501001001MA1999999097251MD1310111+9999REMSYN066AAXX  08121 59567 32260 62705 10253 20240 39725 40094 53011 86500;EQDQ01  00002PRCP99
0163595670999992000080821004+22020+121560FM-12+032599999V0209999C000010042019N0100001N1+02541+02191100741ADDAA199000091GF107991071051004501999999MA1999999097061MD1510061+9999REMSYN066AAXX  08211 59567 32460 70000 10254 20219 39706 40074 55006 875//;EQDQ01  00002PRCP99
0163595670999992000080903004+22020+121560FM-12+032599999V0201901N001010042019N0100001N1+02701+02521100851ADDAA199000091GF106991061041004501001001MA1999999097181MD1810061+9999REMSYN066AAXX  09031 59567 32460 61901 10270 20252 39718 40085 58006 86400;EQDQ01  00002PRCP99
0163595670999992000080921004+22020+121560FM-12+032599999V0202601N007012200019N0100001N1+02461+02361100511ADDAA199000091GF101991011011004501001001MA1999999096831MD1710101+9999REMSYN066AAXX  09211 59567 32460 12607 10246 20236 39683 40051 57010 81100;EQDQ01  00002PRCP99
0163595670999992000081000004+22020+121560FM-12+032599999V0202501N009012200019N0100001N1+02601+02371100541ADDAA199000091GF101991011021004501001001MA1999999096871MD1010041+9999REMSYN066AAXX  10001 59567 32460 12509 10260 20237 39687 40054 50004 81200;EQDQ01  00002PRCP99
0163595670999992000081003004+22020+121560FM-12+032599999V0202501N016012200019N0100001N1+02731+02481100421ADDAA199000091GF101991011021004501001001MA1999999096771MD1810101+9999REMSYN066AAXX  10031 59567 32460 12516 10273 20248 39677 40042 58010 81200;EQDQ01  00002PRCP99
0163595670999992000081006004+22020+121560FM-12+032599999V0202501N037010042019N0100001N1+02681+02481100161ADDAA199000091GF106991061051004501001001MA1999999096521MD1810251+9999REMSYN066AAXX  10061 59567 32460 62537 10268 20248 39652 40016 58025 86500;EQDQ01  00002PRCP99
0163595670999992000081009004+22020+121560FM-12+032599999V0202501N016010012019N0100001N1+02611+02491100151ADDAA199000091GF107991071051001501999999MA1999999096501MD1510021+9999REMSYN066AAXX  10091 59567 32260 72516 10261 20249 39650 40015 55002 875//;EQDQ01  00002PRCP99
0163595670999992000081012004+22020+121560FM-12+032599999V0202501N014010012019N0100001N1+02601+02491100311ADDAA199000091GF107991071051001501999999MA1999999096651MD1210151+9999REMSYN066AAXX  10121 59567 32260 72514 10260 20249 39665 40031 52015 875//;EQDQ01  00002PRCP99
0163595670999992000081021004+22020+121560FM-12+032599999V0202601N010010012019N0100001N1+02561+02471100321ADDAA199000091GF108991081051001501999999MA1999999096661MD1310051+9999REMSYN066AAXX  10211 59567 32260 82610 10256 20247 39666 40032 53005 885//;EQDQ01  00002PRCP99
0163595670999992000081100004+22020+121560FM-12+032599999V0202501N012010012019N0100001N1+02621+02511100391ADDAA199000091GF105991051041001501001001MA1999999096731MD1310071+9999REMSYN066AAXX  11001 59567 32260 52512 10262 20251 39673 40039 53007 85400;EQDQ01  00002PRCP99
0163595670999992000081103004+22020+121560FM-12+032599999V0202501N014010012019N0100001N1+02751+02531100401ADDAA199000091GF105991051021001501001001MA1999999096761MD1310031+9999REMSYN066AAXX  11031 59567 32260 52514 10275 20253 39676 40040 53003 85200;EQDQ01  00002PRCP99
0163595670999992000081106004+22020+121560FM-12+032599999V0202601N016012200019N0100001N1+02731+02511100241ADDAA199000091GF106991021021001501001011MA1999999096601MD1810161+9999REMSYN066AAXX  11061 59567 32260 62616 10273 20251 39660 40024 58016 82201;EQDQ01  00002PRCP99
0163595670999992000081109004+22020+121560FM-12+032599999V0202501N014010012019N0100001N1+02641+02471100221ADDAA199000091GF105991051041001501001001MA1999999096571MD1510031+9999REMSYN066AAXX  11091 59567 32260 52514 10264 20247 39657 40022 55003 85400;EQDQ01  00002PRCP99
0163595670999992000081112004+22020+121560FM-12+032599999V0202501N011010012019N0100001N1+02601+02511100441ADDAA199000091GF105991051041001501001001MA1999999096781MD1210211+9999REMSYN066AAXX  11121 59567 32260 52511 10260 20251 39678 40044 52021 85400;EQDQ01  00002PRCP99
0163595670999992000081121004+22020+121560FM-12+032599999V0202601N009010012019N0100001N1+02521+02461100451ADDAA199000091GF105991051041001501001001MA1999999096781MD1710071+9999REMSYN066AAXX  11211 59567 32260 52609 10252 20246 39678 40045 57007 85400;EQDQ01  00002PRCP99
0163595670999992000081200004+22020+121560FM-12+032599999V0202601N026010012019N0100001N1+02621+02491100541ADDAA199000091GF105991051041001501001001MA1999999096881MD1110101+9999REMSYN066AAXX  12001 59567 32260 52626 10262 20249 39688 40054 51010 85400;EQDQ01  00002PRCP99
0163595670999992000081203004+22020+121560FM-12+032599999V0202501N014010012019N0100001N1+02731+02511100541ADDAA199000091GF106991061041001501001001MA1999999096891MD1010011+9999REMSYN066AAXX  12031 59567 32260 62514 10273 20251 39689 40054 50001 86400;EQDQ01  00002PRCP99
0163595670999992000081206004+22020+121560FM-12+032599999V0202501N015012200019N0100001N1+02731+02501100421ADDAA199000091GF106991021021001501001011MA1999999096771MD1810121+9999REMSYN066AAXX  12061 59567 32260 62515 10273 20250 39677 40042 58012 82201;EQDQ01  00002PRCP99
0163595670999992000081209004+22020+121560FM-12+032599999V0202601N014010042019N0100001N1+02641+02451100491ADDAA199000091GF107991071051004501999999MA1999999096831MD1110061+9999REMSYN066AAXX  12091 59567 32460 72614 10264 20245 39683 40049 51006 875//;EQDQ01  00002PRCP99
0163595670999992000081212004+22020+121560FM-12+032599999V0202701N006010042019N0100001N1+02611+02451100731ADDAA199000091GF107991071051004501999999MA1999999097061MD1310231+9999REMSYN066AAXX  12121 59567 32460 72706 10261 20245 39706 40073 53023 875//;EQDQ01  00002PRCP99
0150595670999992000081221004+22020+121560FM-12+032599999V0202501N012010042019N0100001N1+02551+02421100711ADDAA100002091GF107991071051004501999999MA1999999097031MD1310011+9999REMSYN072AAXX  12211 59567 12460 72512 10255 20242 39703 40071 53001 6002/ 875//;
0163595670999992000081303004+22020+121560FM-12+032599999V0202501N010012200019N0150001N1+02741+02481100841ADDAA199000091GF106991021021004501001011MA1999999097181MD1010031+9999REMSYN066AAXX  13031 59567 32465 62510 10274 20248 39718 40084 50003 82201;EQDQ01  00002PRCP99
0163595670999992000081306004+22020+121560FM-12+032599999V0202501N011012200019N0150001N1+02721+02471100681ADDAA199000091GF106991041021004501001011MA1999999097021MD1810161+9999REMSYN066AAXX  13061 59567 32465 62511 10272 20247 39702 40068 58016 84201;EQDQ01  00002PRCP99
0163595670999992000081309004+22020+121560FM-12+032599999V0202601N013012200019N0150001N1+02661+02441100591ADDAA199000091GF106991041021004501001011MA1999999096931MD1710091+9999REMSYN066AAXX  13091 59567 32465 62613 10266 20244 39693 40059 57009 84201;EQDQ01  00002PRCP99
0163595670999992000081312004+22020+121560FM-12+032599999V0202501N011010042019N0150001N1+02591+02401100741ADDAA199000091GF105991051041004501001001MA1999999097071MD1310141+9999REMSYN066AAXX  13121 59567 32465 52511 10259 20240 39707 40074 53014 85400;EQDQ01  00002PRCP99
0163595670999992000081321004+22020+121560FM-12+032599999V0202501N010010012019N0100001N1+02571+02451100721ADDAA199000091GF105991051041001501001001MA1999999097041MD1510071+9999REMSYN066AAXX  13211 59567 32260 52510 10257 20245 39704 40072 55007 85400;EQDQ01  00002PRCP99
0163595670999992000081400004+22020+121560FM-12+032599999V0202501N011010012019N0150001N1+02611+02481100781ADDAA199000091GF107991071041001501999999MA1999999097111MD1110071+9999REMSYN066AAXX  14001 59567 32265 72511 10261 20248 39711 40078 51007 874//;EQDQ01  00002PRCP99
0163595670999992000081403004+22020+121560FM-12+032599999V0202501N012012200019N0150001N1+02751+02531100761ADDAA199000091GF104991041021004501001001MA1999999097101MD1810011+9999REMSYN066AAXX  14031 59567 32465 42512 10275 20253 39710 40076 58001 84200;EQDQ01  00002PRCP99
0163595670999992000081406004+22020+121560FM-12+032599999V0202501N012010012019N0100001N1+02691+02541100651ADDAA199000091GF105991051021001501001001MA1999999096991MD1610111+9999REMSYN066AAXX  14061 59567 32260 52512 10269 20254 39699 40065 56011 85200;EQDQ01  00002PRCP99
0163595670999992000081409004+22020+121560FM-12+032599999V0202501N014012200019N0100001N1+02581+02411100551ADDAA199000091GF102991021021004501001001MA1999999096881MD1610111+9999REMSYN066AAXX  14091 59567 32460 22514 10258 20241 39688 40055 56011 82200;EQDQ01  00002PRCP99
0163595670999992000081412004+22020+121560FM-12+032599999V0202501N011010012019N0100001N1+02551+02431100711ADDAA199000091GF107991071051001501999999MA1999999097031MD1310151+9999REMSYN066AAXX  14121 59567 32260 72511 10255 20243 39703 40071 53015 875//;EQDQ01  00002PRCP99
0163595670999992000081421004+22020+121560FM-12+032599999V0202401N012010012019N0100001N1+02541+02461100571ADDAA199000091GF107991071051001501999999MA1999999096901MD1510071+9999REMSYN066AAXX  14211 59567 32260 72412 10254 20246 39690 40057 55007 875//;EQDQ01  00002PRCP99
0163595670999992000081500004+22020+121560FM-12+032599999V0202501N011010012019N0100001N1+02641+02521100681ADDAA199000091GF106991051041001501041001MA1999999097011MD1010111+9999REMSYN066AAXX  15001 59567 32260 62511 10264 20252 39701 40068 50011 85440;EQDQ01  00002PRCP99
0163595670999992000081503004+22020+121560FM-12+032599999V0202401N013010012019N0100001N1+02551+02411100781ADDAA199000091GF108991081051001501999999MA1999999097101MD1210091+9999REMSYN066AAXX  15031 59567 32260 82413 10255 20241 39710 40078 52009 885//;EQDQ01  00002PRCP99
0163595670999992000081506004+22020+121560FM-12+032599999V0202401N012010012019N0100001N1+02581+02511100681ADDAA199000091GF108991081051001501999999MA1999999097011MD1710091+9999REMSYN066AAXX  15061 59567 32260 82412 10258 20251 39701 40068 57009 885//;EQDQ01  00002PRCP99
0178595670999992000081509004+22020+121560FM-12+032599999V0202601N011010012019N0100001N1+02481+02481100511ADDAA100004191AY161031AY221031GF107991071051001501999999MA1999999096831MD1810181+9999MW1021REMSYN078AAXX  15091 59567 11260 72611 10248 20248 39683 40051 58018 6004/ 70262 875//;
0178595670999992000081512004+22020+121560FM-12+032599999V0202601N018012200019N0100001N1+02541+02281100461ADDAA112005191AY161061AY211061GF102991021051004501001001MA1999999096791MD1510041+9999MW1021REMSYN078AAXX  15121 59567 11460 22618 10254 20228 39679 40046 55004 60052 70261 82500;
0163595670999992000081521004+22020+121560FM-12+032599999V0202601N014010012019N0100001N1+02531+02491100531ADDAA199000091GF108991081051001501999999MA1999999096861MD1710031+9999REMSYN066AAXX  15211 59567 32260 82614 10253 20249 39686 40053 57003 885//;EQDQ01  00002PRCP99
0163595670999992000081600004+22020+121560FM-12+032599999V0202501N009010012019N0100001N1+02591+02521100721ADDAA199000091GF107991071051001501999999MA1999999097051MD1110191+9999REMSYN066AAXX  16001 59567 32260 72509 10259 20252 39705 40072 51019 875//;EQDQ01  00002PRCP99
0163595670999992000081603004+22020+121560FM-12+032599999V0202501N011012200019N0100001N1+02741+02511100741ADDAA199000091GF102991021021001501001001MA1999999097081MD1010031+9999REMSYN066AAXX  16031 59567 32260 22511 10274 20251 39708 40074 50003 82200;EQDQ01  00002PRCP99
0163595670999992000081606004+22020+121560FM-12+032599999V0202501N009010012019N0100001N1+02711+02531100661ADDAA199000091GF108991081051001501999999MA1999999097001MD1810081+9999REMSYN066AAXX  16061 59567 32260 82509 10271 20253 39700 40066 58008 885//;EQDQ01  00002PRCP99
0163595670999992000081609004+22020+121560FM-12+032599999V0202501N012012200019N0100001N1+02611+02461100521ADDAA199000091GF104991041041001501001001MA1999999096861MD1810141+9999REMSYN066AAXX  16091 59567 32260 42512 10261 20246 39686 40052 58014 84400;EQDQ01  00002PRCP99
0163595670999992000081612004+22020+121560FM-12+032599999V0202401N010010042019N0100001N1+02581+02411100701ADDAA199000091GF106991061051004501001001MA1999999097031MD1310171+9999REMSYN066AAXX  16121 59567 32460 62410 10258 20241 39703 40070 53017 86500;EQDQ01  00002PRCP99
0163595670999992000081621004+22020+121560FM-12+032599999V0202401N008010042019N0100001N1+02501+02401100871ADDAA199000091GF107991071051004501999999MA1999999097181MD1310031+9999REMSYN066AAXX  16211 59567 32460 72408 10250 20240 39718 40087 53003 875//;EQDQ01  00002PRCP99
0163595670999992000081700004+22020+121560FM-12+032599999V0202401N007012200019N0150001N1+02631+02451100971ADDAA199000091GF104991011011004501001011MA1999999097291MD1110111+9999REMSYN066AAXX  17001 59567 32465 42407 10263 20245 39729 40097 51011 81101;EQDQ01  00002PRCP99
0163595670999992000081703004+22020+121560FM-12+032599999V0202501N004012200019N0200001N1+02891+02621100931ADDAA199000091GF104991011011004501001011MA1999999097281MD1810011+9999REMSYN066AAXX  17031 59567 32470 42504 10289 20262 39728 40093 58001 81101;EQDQ01  00002PRCP99
0163595670999992000081706004+22020+121560FM-12+032599999V0202401N004012200019N0200001N1+02891+02591100811ADDAA199000091GF104991011021004501001011MA1999999097171MD1710111+9999REMSYN066AAXX  17061 59567 32470 42404 10289 20259 39717 40081 57011 81201;EQDQ01  00002PRCP99
0163595670999992000081709004+22020+121560FM-12+032599999V0202101N005012200019N0200001N1+02731+02511100791ADDAA199000091GF104991011021004501001011MA1999999097131MD1510041+9999REMSYN066AAXX  17091 59567 32470 42105 10273 20251 39713 40079 55004 81201;EQDQ01  00002PRCP99
0163595670999992000081712004+22020+121560FM-12+032599999V0201701N002012200019N0150001N1+02611+02511100991ADDAA199000091GF101991011011004501001001MA1999999097311MD1210181+9999REMSYN066AAXX  17121 59567 32465 11702 10261 20251 39731 40099 52018 81100;EQDQ01  00002PRCP99
0163595670999992000081721004+22020+121560FM-12+032599999V0201401N002012200019N0150001N1+02541+02441100971ADDAA199000091GF101991011021002501001001MA1999999097281MD1710061+9999REMSYN066AAXX  17211 59567 32365 11402 10254 20244 39728 40097 57006 81200;EQDQ01  00002PRCP99
0163595670999992000081800004+22020+121560FM-12+032599999V0200601N003012200019N0200001N1+02741+02561101061ADDAA199000091GF104991041021004501001001MA1999999097391MD1210111+9999REMSYN066AAXX  18001 59567 32470 40603 10274 20256 39739 40106 52011 84200;EQDQ01  00002PRCP99
0163595670999992000081803004+22020+121560FM-12+032599999V0200601N004010042019N0200001N1+02821+02611101051ADDAA199000091GF106991061021004501001001MA1999999097391MD1410001+9999REMSYN066AAXX  18031 59567 32470 60604 10282 20261 39739 40105 54000 86200;EQDQ01  00002PRCP99
0163595670999992000081806004+22020+121560FM-12+032599999V0201001N004010042019N0300001N1+02691+02491100931ADDAA199000091GF105991051021004501001001MA1999999097261MD1810131+9999REMSYN066AAXX  18061 59567 32480 51004 10269 20249 39726 40093 58013 85200;EQDQ01  00002PRCP99
0163595670999992000081809004+22020+121560FM-12+032599999V0200901N002012200019N0300001N1+02751+02531100881ADDAA199000091GF103991031021004501001001MA1999999097221MD1510041+9999REMSYN066AAXX  18091 59567 32480 30902 10275 20253 39722 40088 55004 83200;EQDQ01  00002PRCP99
0163595670999992000081812004+22020+121560FM-12+032599999V0200801N004012200019N0300001N1+02611+02501101001ADDAA199000091GF102991021021004501001001MA1999999097321MD1310101+9999REMSYN066AAXX  18121 59567 32480 20804 10261 20250 39732 40100 53010 82200;EQDQ01  00002PRCP99
0163595670999992000081821004+22020+121560FM-12+032599999V0201201N003010042019N0300001N1+02541+02451100821ADDAA199000091GF106991061041004501001001MA1999999097141MD1510071+9999REMSYN066AAXX  18211 59567 32480 61203 10254 20245 39714 40082 55007 86400;EQDQ01  00002PRCP99
0163595670999992000081900004+22020+121560FM-12+032599999V0201801N001012200019N0300001N1+02741+02601100871ADDAA199000091GF101991011021004501001001MA1999999097211MD1110071+9999REMSYN066AAXX  19001 59567 32480 11801 10274 20260 39721 40087 51007 81200;EQDQ01  00002PRCP99
0163595670999992000081903004+22020+121560FM-12+032599999V0200701N002012200019N0300001N1+02691+02501100841ADDAA199000091GF104991041021004501001001MA1999999097171MD1810041+9999REMSYN066AAXX  19031 59567 32480 40702 10269 20250 39717 40084 58004 84200;EQDQ01  00002PRCP99
0163595670999992000081906004+22020+121560FM-12+032599999V0201901N002012200019N0300001N1+02891+02621100681ADDAA199000091GF101991011021004501001001MA1999999097041MD1710131+9999REMSYN066AAXX  19061 59567 32480 11902 10289 20262 39704 40068 57013 81200;EQDQ01  00002PRCP99
0163595670999992000081909004+22020+121560FM-12+032599999V0201301N002012200019N0300001N1+02771+02491100641ADDAA199000091GF101991011021004501001001MA1999999096991MD1810051+9999REMSYN066AAXX  19091 59567 32480 11302 10277 20249 39699 40064 58005 81200;EQDQ01  00002PRCP99
0163595670999992000081912004+22020+121560FM-12+032599999V0201101N004012200019N0200001N1+02611+02441100831ADDAA199000091GF101991011011004501001001MA1999999097151MD1110161+9999REMSYN066AAXX  19121 59567 32470 11104 10261 20244 39715 40083 51016 81100;EQDQ01  00002PRCP99
0163595670999992000081921004+22020+121560FM-12+032599999V0201001N003012200019N0200001N1+02561+02421100691ADDAA199000091GF101991011011002501001001MA1999999097011MD1510011+9999REMSYN066AAXX  19211 59567 32370 11003 10256 20242 39701 40069 55001 81100;EQDQ01  00002PRCP99
0163595670999992000082000004+22020+121560FM-12+032599999V0201501N002010042019N0300001N1+02851+02621100711ADDAA199000091GF105991051021004501001001MA1999999097071MD1310061+9999REMSYN066AAXX  20001 59567 32480 51502 10285 20262 39707 40071 53006 85200;EQDQ01  00002PRCP99
0163595670999992000082003004+22020+121560FM-12+032599999V0200601N003012200019N0300001N1+02761+02491100701ADDAA199000091GF102991021021004501001001MA1999999097051MD1810021+9999REMSYN066AAXX  20031 59567 32480 20603 10276 20249 39705 40070 58002 82200;EQDQ01  00002PRCP99
0163595670999992000082006004+22020+121560FM-12+032599999V0200801N004012200019N0300001N1+02841+02531100601ADDAA199000091GF101991011021004501001001MA1999999096961MD1810091+9999REMSYN066AAXX  20061 59567 32480 10804 10284 20253 39696 40060 58009 81200;EQDQ01  00002PRCP99
0163595670999992000082009004+22020+121560FM-12+032599999V0200701N004012200019N0300001N1+02671+02421100531ADDAA199000091GF102991021021004501001001MA1999999096871MD1710091+9999REMSYN066AAXX  20091 59567 32480 20704 10267 20242 39687 40053 57009 82200;EQDQ01  00002PRCP99
0163595670999992000082012004+22020+121560FM-12+032599999V0200401N006012200019N0300001N1+02591+02401100661ADDAA199000091GF101991011021004501001001MA1999999096991MD1110121+9999REMSYN066AAXX  20121 59567 32480 10406 10259 20240 39699 40066 51012 81200;EQDQ01  00002PRCP99
0163595670999992000082021004+22020+121560FM-12+032599999V0200401N005010042019N0200001N1+02541+02401100541ADDAA199000091GF106991061051004501001001MA1999999096871MD1510011+9999REMSYN066AAXX  20211 59567 32470 60405 10254 20240 39687 40054 55001 86500;EQDQ01  00002PRCP99
0163595670999992000082100004+22020+121560FM-12+032599999V0200401N005012200019N0300001N1+02731+02441100691ADDAA199000091GF106991021021004501001011MA1999999097031MD1110161+9999REMSYN066AAXX  21001 59567 32480 60405 10273 20244 39703 40069 51016 82201;EQDQ01  00002PRCP99
0163595670999992000082103004+22020+121560FM-12+032599999V0200201N006012200019N0300001N1+02901+02521100611ADDAA199000091GF104991011021004501001011MA1999999096981MD1810051+9999REMSYN066AAXX  21031 59567 32480 40206 10290 20252 39698 40061 58005 81201;EQDQ01  00002PRCP99
0163595670999992000082106004+22020+121560FM-12+032599999V0200201N007012200019N0300001N1+02841+02481100381ADDAA199000091GF104991011021004501001011MA1999999096751MD1810231+9999REMSYN066AAXX  21061 59567 32480 40207 10284 20248 39675 40038 58023 81201;EQDQ01  00002PRCP99
0163595670999992000082109004+22020+121560FM-12+032599999V0200201N006012200019N0200001N1+02721+02421100321ADDAA199000091GF104991011021004501001011MA1999999096681MD1810071+9999REMSYN066AAXX  21091 59567 32470 40206 10272 20242 39668 40032 58007 81201;EQDQ01  00002PRCP99
0163595670999992000082112004+22020+121560FM-12+032599999V0200101N007010042019N0150001N1+02641+02461100441ADDAA199000091GF106991061051004501001001MA1999999096781MD1110101+9999REMSYN066AAXX  21121 59567 32465 60107 10264 20246 39678 40044 51010 86500;EQDQ01  00002PRCP99
0178595670999992000082118004+22020+121560FM-12+032599999V0200401N018010012019N0100001N1+02441+02401100041ADDAA106022191AY161061AY221061GF108991081051001501999999MA1999999096371MD1710251+9999MW1021REMSYN078AAXX  21181 59567 11260 80418 10244 20240 39637 40004 57025 60221 70262 885//;
0178595670999992000082121004+22020+121560FM-12+032599999V0200401N017010012019N0100001N1+02501+02361099951ADDAA100034091AY161031AY221031GF108991081051001501999999MA1999999096291MD1810081+9999MW1211REMSYN078AAXX  21211 59567 11260 80417 10250 20236 39629 49995 58008 6034/ 72162 885//;
0178595670999992000082200004+22020+121560FM-12+032599999V0200301N020010012019N0080001N1+02401+02381099801ADDAA112045091AY161061AY221061GF108991081071001501999999MA1999999096141MD1710151+9999MW1611REMSYN078AAXX  22001 59567 11258 80320 10240 20238 39614 49980 57015 60452 76162 887//;
0178595670999992000082203004+22020+121560FM-12+032599999V0200401N028010006019N0050001N1+02441+02411099351ADDAA100010991AY161031AY221031GF108991081071000751999999MA1999999095711MD1710431+9999MW1631REMSYN078AAXX  22031 59567 11150 80428 10244 20241 39571 49935 57043 6011/ 76362 887//;
0178595670999992000082206004+22020+121560FM-12+032599999V0200301N029010012019N0050001N1+02381+02341098481ADDAA106015091AY161061AY221061GF108991081071001501999999MA1999999094861MD1810851+9999MW1601REMSYN078AAXX  22061 59567 11250 80329 10238 20234 39486 49848 58085 60151 76062 887//;
0178595670999992000082209004+22020+121560FM-12+032599999V0200301N020010012019N0050001N1+02421+02421097572ADDAA100039991AY161031AY261031GF108991081071001501999999MA1999999093992MD1810871+9999MW1631REMSYN078AAXX  22091 59567 11250 80320 10242 20242 39399 49757 58087 6040/ 76366 887//;
0246595670999992000082212004+22020+121560FM-12+032599999V0202601N999990006019N0030001N1+02331+02321999999ADDAA112099191AY161061AY261061GF108991081071000751999999MD1811362+9999MW1651REMSYN078AAXX  22121 59567 11130 82648 10233 20232 39263 49617 58136 60992 76566 887//;EQDQ01+004803WOSPD Q02+092633APOSP Q03+096173APOSLPQ04+001362APC3  Q050004803WOSPD 
0197595670999992000082218004+22020+121560FM-12+032599999V0202201N020010006019N0050001N1+02481+02481099451ADDAA106016091AY161061AY221061GF108991081071000751999999MA1999999095811MD1110722+9999MW1631REMSYN078AAXX  22181 59567 11150 82220 10248 20248 39581 49945 51072 60161 76362 887//;EQDQ01+000722APC3  
0178595670999992000082221004+22020+121560FM-12+032599999V0202201N018010006019N0050001N1+02461+02461099711ADDAA100023991AY161031AY221031GF108991081071000751999999MA1999999096061MD1110251+9999MW1611REMSYN078AAXX  22211 59567 11150 82218 10246 20246 39606 49971 51025 6024/ 76162 887//;
0178595670999992000082300004+22020+121560FM-12+032599999V0202001N023010012019N0100001N1+02471+02471100091ADDAA112025991AY161061AY221061GF108991081051001501999999MA1999999096421MD1110361+9999MW1021REMSYN078AAXX  23001 59567 11260 82023 10247 20247 39642 40009 51036 60262 70262 885//;
0144595670999992000082303004+22020+121560FM-12+032599999V0201901N015010012019N0100001N1+02521+02451100281ADDAA199000021GF108991081051001501999999MA1999999096611MD1010191+9999REMSYN066AAXX  23031 59567 32260 81915 10252 20245 39661 40028 50019 885//;
0178595670999992000082306004+22020+121560FM-12+032599999V0202101N017010012019N0100001N1+02481+02391100281ADDAA106000591AY161061AY221061GF108991081051001501999999MA1999999096611MD1010001+9999MW1611REMSYN078AAXX  23061 59567 11260 82117 10248 20239 39661 40028 50000 69951 76162 885//;
0178595670999992000082309004+22020+121560FM-12+032599999V0202101N013010012019N0100001N1+02521+02471100321ADDAA100003091AY161031AY221031GF108991081051001501999999MA1999999096651MD1310041+9999MW1211REMSYN078AAXX  23091 59567 11260 82113 10252 20247 39665 40032 53004 6003/ 72162 885//;
0178595670999992000082312004+22020+121560FM-12+032599999V0202101N014010012019N0100001N1+02501+02441100561ADDAA112007191AY161061AY221061GF108991081051001501999999MA1999999096881MD1210231+9999MW1021REMSYN078AAXX  23121 59567 11260 82114 10250 20244 39688 40056 52023 60072 70262 885//;
0150595670999992000082321004+22020+121560FM-12+032599999V0202101N014010042019N0100001N1+02571+02351100711ADDAA100002091GF108991081051004501999999MA1999999097031MD1310081+9999REMSYN072AAXX  23211 59567 12460 82114 10257 20235 39703 40071 53008 6002/ 885//;
0150595670999992000082400004+22020+121560FM-12+032599999V0201901N008010012019N0100001N1+02571+02491100931ADDAA112002091GF108991081051001501999999MA1999999097251MD1210221+9999REMSYN072AAXX  24001 59567 12260 81908 10257 20249 39725 40093 52022 60022 885//;
0163595670999992000082403004+22020+121560FM-12+032599999V0202101N007010042019N0150001N1+02811+02551100921ADDAA199000091GF107991051051004501001091MA1999999097271MD1010021+9999REMSYN066AAXX  24031 59567 32465 72107 10281 20255 39727 40092 50002 85509;EQDQ01  00002PRCP99
0163595670999992000082406004+22020+121560FM-12+032599999V0202101N007010042019N0150001N1+02711+02491100771ADDAA199000091GF107991071051004501999999MA1999999097111MD1810161+9999REMSYN066AAXX  24061 59567 32465 72107 10271 20249 39711 40077 58016 875//;EQDQ01  00002PRCP99
0178595670999992000082409004+22020+121560FM-12+032599999V0202201N005010042019N0200001N1+02391+02251100841ADDAA100001091AY161031AY221031GF108991081051004501999999MA1999999097141MD1310031+9999MW1211REMSYN078AAXX  24091 59567 11470 82205 10239 20225 39714 40084 53003 6001/ 72162 885//;
0178595670999992000082412004+22020+121560FM-12+032599999V0202401N005010042019N0150001N1+02471+02411100991ADDAA112001091AY161061AY221061GF108991081051004501999999MA1999999097291MD1210151+9999MW1021REMSYN078AAXX  24121 59567 11465 82405 10247 20241 39729 40099 52015 60012 70262 885//;
0144595670999992000082421004+22020+121560FM-12+032599999V0201601N001010012019N0100001N1+02501+02411100931ADDAA199000021GF107991071051001501999999MA1999999097241MD1310011+9999REMSYN066AAXX  24211 59567 32260 71601 10250 20241 39724 40093 53001 875//;
0178595670999992000082500004+22020+121560FM-12+032599999V0201301N001010042019N0150001N1+02611+02541100981ADDAA112002091AY161061AY221061GF107991071051004501999999MA1999999097301MD1110061+9999MW1021REMSYN078AAXX  25001 59567 11465 71301 10261 20254 39730 40098 51006 60022 70262 875//;
0163595670999992000082503004+22020+121560FM-12+032599999V0202001N004012200019N0200001N1+02811+02611100991ADDAA199000091GF106991011021004501001011MA1999999097331MD1010031+9999REMSYN066AAXX  25031 59567 32470 62004 10281 20261 39733 40099 50003 81201;EQDQ01  00002PRCP99
0178595670999992000082506004+22020+121560FM-12+032599999V0201801N003010042019N0100001N1+02611+02491100831ADDAA106002091AY161061AY221061GF108991081051004501999999MA1999999097151MD1810181+9999MW1021REMSYN078AAXX  25061 59567 11460 81803 10261 20249 39715 40083 58018 60021 70262 885//;
0178595670999992000082509004+22020+121560FM-12+032599999V0200901N001010012019N0100001N1+02501+02501100761ADDAA100005191AY161031AY221031GF108991081051001501999999MA1999999097071MD1810081+9999MW1021REMSYN078AAXX  25091 59567 11260 80901 10250 20250 39707 40076 58008 6005/ 70262 885//;
0178595670999992000082512004+22020+121560FM-12+032599999V0200901N003010042019N0100001N1+02491+02391100921ADDAA112005191AY161061AY221061GF108991081051004501999999MA1999999097231MD1210161+9999MW1021REMSYN078AAXX  25121 59567 11460 80903 10249 20239 39723 40092 52016 60052 70262 885//;
0163595670999992000082521004+22020+121560FM-12+032599999V0202001N005010042019N0100001N1+02511+02471100741ADDAA199000091GF108991081051004501999999MA1999999097061MD1510001+9999REMSYN066AAXX  25211 59567 32460 82005 10251 20247 39706 40074 55000 885//;EQDQ01  00002PRCP99
0163595670999992000082600004+22020+121560FM-12+032599999V0201801N003010021019N0150001N1+02601+02521100801ADDAA199000091GF107991071051002501999999MA1999999097121MD1210061+9999REMSYN066AAXX  26001 59567 32365 71803 10260 20252 39712 40080 52006 875//;EQDQ01  00002PRCP99
0178595670999992000082603004+22020+121560FM-12+032599999V0202201N006010042019N0150001N1+02451+02401100851ADDAA100000591AY161031AY221031GF107991071051004501999999MA1999999097151MD1010031+9999MW1021REMSYN078AAXX  26031 59567 11465 72206 10245 20240 39715 40085 50003 6995/ 70262 875//;
0150595670999992000082609004+22020+121560FM-12+032599999V0202401N005019999999N0150001N1+02571+02471100631ADDAA100000591GF108991081001999999011999MA1999999096961MD1510011+9999REMSYN072AAXX  26091 59567 12965 82405 10257 20247 39696 40063 55001 6995/ 8801/;
0178595670999992000082612004+22020+121560FM-12+032599999V0202401N004010012019N0150001N1+02291+02291100861ADDAA112042991AY161061AY221061GF108991081051001501999999MA1999999097141MD1310181+9999MW1211REMSYN078AAXX  26121 59567 11265 82404 10229 20229 39714 40086 53018 60432 72162 885//;
0150595670999992000082621004+22020+121560FM-12+032599999V0202401N004010012019N0150001N1+02421+02421100641ADDAA100000591GF107991071051001501999999MA1999999096951MD1510051+9999REMSYN072AAXX  26211 59567 12265 72404 10242 20242 39695 40064 55005 6995/ 875//;
0150595670999992000082700004+22020+121560FM-12+032599999V0201601N001010360019N0150001N1+02601+02421100661ADDAA112000591GF105991011021004501031001MA1999999096991MD1310041+9999REMSYN072AAXX  27001 59567 12465 51601 10260 20242 39699 40066 53004 69952 81230;
0178595670999992000082703004+22020+121560FM-12+032599999V0201101N002010360019N0200001N1+02771+02551100631ADDAA100001091AY161031AY221031GF105991011021004501031001MA1999999096981MD1810011+9999MW1021REMSYN078AAXX  27031 59567 11470 51102 10277 20255 39698 40063 58001 6001/ 70262 81230;
0178595670999992000082706004+22020+121560FM-12+032599999V0200601N005012200019N0200001N1+02841+02511100511ADDAA106001091AY161061AY211061GF102991011021004501031001MA1999999096871MD1810111+9999MW1021REMSYN078AAXX  27061 59567 11470 20605 10284 20251 39687 40051 58011 60011 70261 81230;
0178595670999992000082709004+22020+121560FM-12+032599999V0200901N004010012019N0200001N1+02561+02501100511ADDAA100003091AY161031AY211031GF106991061041001501001001MA1999999096841MD1510031+9999MW1211REMSYN078AAXX  27091 59567 11270 60904 10256 20250 39684 40051 55003 6003/ 72161 86400;
0178595670999992000082712004+22020+121560FM-12+032599999V0209999C000010042019N0150001N1+02451+02391100711ADDAA112004191AY161061AY211061GF106991061041004501001001MA1999999097021MD1210181+9999MW1021REMSYN078AAXX  27121 59567 11465 60000 10245 20239 39702 40071 52018 60042 70261 86400;
0144595670999992000082721004+22020+121560FM-12+032599999V0202801N006010042019N0100001N1+02381+02281100391ADDAA199000021GF105991051051004501001001MA1999999096701MD1510041+9999REMSYN066AAXX  27211 59567 32460 52806 10238 20228 39670 40039 55004 85500;
0163595670999992000082800004+22020+121560FM-12+032599999V0202901N002010900019N0150001N1+02521+02321100351ADDAA199000091GF106991011021004501001091MA1999999096681MD1810021+9999REMSYN066AAXX  28001 59567 32465 62902 10252 20232 39668 40035 58002 81209;EQDQ01  00002PRCP99
0163595670999992000082803004+22020+121560FM-12+032599999V0202901N004010900019N0200001N1+02671+02351100321ADDAA199000091GF106991011021004501001021MA1999999096671MD1810011+9999REMSYN066AAXX  28031 59567 32470 62904 10267 20235 39667 40032 58001 81202;EQDQ01  00002PRCP99
0163595670999992000082806004+22020+121560FM-12+032599999V0202401N002010360019N0200001N1+02821+02511100101ADDAA199000091GF107991011021004501011999MA1999999096481MD1710191+9999REMSYN066AAXX  28061 59567 32470 72402 10282 20251 39648 40010 57019 8121/;EQDQ01  00002PRCP99
0163595670999992000082809004+22020+121560FM-12+032599999V0202901N002019999999N0200001N1+02581+02311099991ADDAA199000091GF107991071001999999031999MA1999999096341MD1710141+9999REMSYN066AAXX  28091 59567 32970 72902 10258 20231 39634 49999 57014 8703/;EQDQ01  00002PRCP99
0163595670999992000082812004+22020+121560FM-12+032599999V0202701N009010042019N0150001N1+02561+02431099921ADDAA199000091GF108991081051004501999999MA1999999096271MD1710071+9999REMSYN066AAXX  28121 59567 32465 82709 10256 20243 39627 49992 57007 885//;EQDQ01  00002PRCP99
0163595670999992000082818004+22020+121560FM-12+032599999V0202701N012010042019N0150001N1+02551+02481099661ADDAA199000091GF108991081051004501999999MA1999999096021MD1810121+9999REMSYN066AAXX  28181 59567 32465 82712 10255 20248 39602 49966 58012 885//;EQDQ01  00002PRCP99
0163595670999992000082821004+22020+121560FM-12+032599999V0202601N013010042019N0150001N1+02531+02431099511ADDAA199000091GF108991081051004501999999MA1999999095871MD1710151+9999REMSYN066AAXX  28211 59567 32465 82613 10253 20243 39587 49951 57015 885//;EQDQ01  00002PRCP99
0163595670999992000082900004+22020+121560FM-12+032599999V0202601N018010012019N0100001N1+02581+02511099541ADDAA199000091GF108991081051001501999999MA1999999095911MD1210041+9999REMSYN066AAXX  29001 59567 32260 82618 10258 20251 39591 49954 52004 885//;EQDQ01  00002PRCP99
0163595670999992000082903004+22020+121560FM-12+032599999V0202601N019010012019N0100001N1+02611+02551099471ADDAA199000091GF108991081051001501999999MA1999999095841MD1810071+9999REMSYN066AAXX  29031 59567 32260 82619 10261 20255 39584 49947 58007 885//;EQDQ01  00002PRCP99
0163595670999992000082906004+22020+121560FM-12+032599999V0202601N020010012019N0100001N1+02571+02491099191ADDAA199000091GF108991081051001501999999MA1999999095571MD1710271+9999REMSYN066AAXX  29061 59567 32260 82620 10257 20249 39557 49919 57027 885//;EQDQ01  00002PRCP99
0163595670999992000082909004+22020+121560FM-12+032599999V0202601N024010012019N0100001N1+02571+02421099121ADDAA199000091GF108991081051001501999999MA1999999095501MD1810071+9999REMSYN066AAXX  29091 59567 32260 82624 10257 20242 39550 49912 58007 885//;EQDQ01  00002PRCP99
0163595670999992000082912004+22020+121560FM-12+032599999V0202601N020010012019N0100001N1+02521+02451099261ADDAA199000091GF108991081051001501999999MA1999999095631MD1010131+9999REMSYN066AAXX  29121 59567 32260 82620 10252 20245 39563 49926 50013 885//;EQDQ01  00002PRCP99
0163595670999992000082918004+22020+121560FM-12+032599999V0202501N017010042019N0100001N1+02561+02511099331ADDAA199000091GF107991071051004501999999MA1999999095701MD1810061+9999REMSYN066AAXX  29181 59567 32460 72517 10256 20251 39570 49933 58006 875//;EQDQ01  00002PRCP99
0163595670999992000082921004+22020+121560FM-12+032599999V0202501N022010042019N0100001N1+02561+02451099331ADDAA199000091GF108991081051004501999999MA1999999095701MD1510001+9999REMSYN066AAXX  29211 59567 32460 82522 10256 20245 39570 49933 55000 885//;EQDQ01  00002PRCP99
0163595670999992000083000004+22020+121560FM-12+032599999V0202501N020010042019N0100001N1+02611+02441099531ADDAA199000091GF108991081051004501999999MA1999999095901MD1210201+9999REMSYN066AAXX  30001 59567 32460 82520 10261 20244 39590 49953 52020 885//;EQDQ01  00002PRCP99
0163595670999992000083003004+22020+121560FM-12+032599999V0202501N017010042019N0100001N1+02711+02491099711ADDAA199000091GF107991071051004501999999MA1999999096091MD1110191+9999REMSYN066AAXX  30031 59567 32460 72517 10271 20249 39609 49971 51019 875//;EQDQ01  00002PRCP99
0163595670999992000083006004+22020+121560FM-12+032599999V0202501N014010042019N0100001N1+02711+02461099781ADDAA199000091GF107991071051004501999999MA1999999096151MD1010061+9999REMSYN066AAXX  30061 59567 32460 72514 10271 20246 39615 49978 50006 875//;EQDQ01  00002PRCP99
0163595670999992000083009004+22020+121560FM-12+032599999V0202401N013010042019N0100001N1+02551+02451099811ADDAA199000091GF108991081051004501999999MA1999999096161MD1310011+9999REMSYN066AAXX  30091 59567 32460 82413 10255 20245 39616 49981 53001 885//;EQDQ01  00002PRCP99
0163595670999992000083012004+22020+121560FM-12+032599999V0202401N013012200019N0100001N1+02581+02431100031ADDAA199000091GF104991041051004501001001MA1999999096381MD1110221+9999REMSYN066AAXX  30121 59567 32460 42413 10258 20243 39638 40003 51022 84500;EQDQ01  00002PRCP99
0163595670999992000083021004+22020+121560FM-12+032599999V0202401N010010012019N0100001N1+02601+02441100191ADDAA199000091GF108991081051001501999999MA1999999096541MD1310071+9999REMSYN066AAXX  30211 59567 32260 82410 10260 20244 39654 40019 53007 885//;EQDQ01  00002PRCP99
0163595670999992000083100004+22020+121560FM-12+032599999V0202301N007012200019N0150001N1+02701+02551100361ADDAA199000091GF103991011021001501001011MA1999999096711MD1210171+9999REMSYN066AAXX  31001 59567 32265 32307 10270 20255 39671 40036 52017 81201;EQDQ01  00002PRCP99
0163595670999992000083103004+22020+121560FM-12+032599999V0202301N008012200019N0150001N1+02861+02611100461ADDAA199000091GF106991041021004501001011MA1999999096831MD1110121+9999REMSYN066AAXX  31031 59567 32465 62308 10286 20261 39683 40046 51012 84201;EQDQ01  00002PRCP99
0163595670999992000083106004+22020+121560FM-12+032599999V0202301N008012200019N0150001N1+02801+02541100391ADDAA199000091GF106991041021004501001011MA1999999096751MD1810081+9999REMSYN066AAXX  31061 59567 32465 62308 10280 20254 39675 40039 58008 84201;EQDQ01  00002PRCP99
0163595670999992000083109004+22020+121560FM-12+032599999V0202401N009010360019N0150001N1+02711+02521100481ADDAA199000091GF106991021021004501031001MA1999999096831MD1310081+9999REMSYN066AAXX  31091 59567 32465 62409 10271 20252 39683 40048 53008 82230;EQDQ01  00002PRCP99
0178595670999992000083112004+22020+121560FM-12+032599999V0202301N007010042019N0100001N1+02481+02431100741ADDAA112000591AY161061AY221061GF108991081051004501999999MA1999999097051MD1210221+9999MW1021REMSYN078AAXX  31121 59567 11460 82307 10248 20243 39705 40074 52022 69952 70262 885//;
0163595670999992000083121004+22020+121560FM-12+032599999V0202601N007012200019N0100001N1+02551+02471100641ADDAA199000091GF101991011011002501001001MA1999999096961MD1010011+9999REMSYN066AAXX  31211 59567 32360 12607 10255 20247 39696 40064 50001 81100;EQDQ01  00002PRCP99
0163595670999992000090100004+22020+121560FM-12+032599999V0202001N004010012019N0100001N1+02721+02581100871ADDAA199000091GF106991061041001501001001MA1999999097211MD1110251+9999REMSYN066AAXX  01001 59567 32260 62004 10272 20258 39721 40087 51025 86400;EQDQ01  00002PRCP99
0163595670999992000090103004+22020+121560FM-12+032599999V0201801N003012200019N0200001N1+02991+02601100931ADDAA199000091GF102991021021004501001021MA1999999097301MD1310091+9999REMSYN066AAXX  01031 59567 32470 21803 10299 20260 39730 40093 53009 82202;EQDQ01  00002PRCP99
0163595670999992000090106004+22020+121560FM-12+032599999V0202001N003010900019N0200001N1+02891+02411100731ADDAA199000091GF107991021021004501001021MA1999999097091MD1710211+9999REMSYN066AAXX  01061 59567 32470 72003 10289 20241 39709 40073 57021 82202;EQDQ01  00002PRCP99
0163595670999992000090109004+22020+121560FM-12+032599999V0202201N003010360019N0150001N1+02731+02501100771ADDAA199000091GF107991021021004501031001MA1999999097111MD1310021+9999REMSYN066AAXX  01091 59567 32465 72203 10273 20250 39711 40077 53002 82230;EQDQ01  00002PRCP99
0178595670999992000090112004+22020+121560FM-12+032599999V0202201N005010012019N0150001N1+02471+02421100921ADDAA112000591AY161061AY221061GF108991081051001501999999MA1999999097221MD1310111+9999MW1601REMSYN078AAXX  01121 59567 11265 82205 10247 20242 39722 40092 53011 69952 76062 885//;
0150595670999992000090121004+22020+121560FM-12+032599999V0202901N004010042019N0150001N1+02411+02411100771ADDAA100002091GF107991071051004501999999MA1999999097071MD1510041+9999REMSYN072AAXX  01211 59567 12465 72904 10241 20241 39707 40077 55004 6002/ 875//;
0150595670999992000090200004+22020+121560FM-12+032599999V0200601N004012200019N0150001N1+02671+02521100821ADDAA112002091GF105991011021004501001011MA1999999097151MD1310081+9999REMSYN072AAXX  02001 59567 12465 50604 10267 20252 39715 40082 53008 60022 81201;
0163595670999992000090203004+22020+121560FM-12+032599999V0200901N003012200019N0150001N1+02831+02621100801ADDAA199000091GF105991011021004501001011MA1999999097151MD1010001+9999REMSYN066AAXX  02031 59567 32465 50903 10283 20262 39715 40080 50000 81201;EQDQ01  00002PRCP99
0163595670999992000090206004+22020+121560FM-12+032599999V0200601N004012200019N0200001N1+02741+02491100661ADDAA199000091GF106991021021004501001011MA1999999097011MD1810141+9999REMSYN066AAXX  02061 59567 32470 60604 10274 20249 39701 40066 58014 82201;EQDQ01  00002PRCP99
0163595670999992000090209004+22020+121560FM-12+032599999V0200401N003010012019N0150001N1+02621+02481100641ADDAA199000091GF107991051041001501031001MA1999999096971MD1510041+9999REMSYN066AAXX  02091 59567 32265 70403 10262 20248 39697 40064 55004 85430;EQDQ01  00002PRCP99
0163595670999992000090212004+22020+121560FM-12+032599999V0200401N004010042019N0100001N1+02561+02431100721ADDAA199000091GF107991071041004501999999MA1999999097041MD1310071+9999REMSYN066AAXX  02121 59567 32460 70404 10256 20243 39704 40072 53007 874//;EQDQ01  00002PRCP99
0178595670999992000090221004+22020+121560FM-12+032599999V0200901N005010042019N0100001N1+02421+02391100691ADDAA100006191AY161031AY221031GF105991051041004501001001MA1999999097001MD1310031+9999MW1021REMSYN078AAXX  02211 59567 11460 50905 10242 20239 39700 40069 53003 6006/ 70262 85400;
0178595670999992000090300004+22020+121560FM-12+032599999V0200601N003012200019N0200001N1+02641+02511100761ADDAA112007191AY161061AY211061GF104991011021004501001011MA1999999097091MD1110091+9999MW1021REMSYN078AAXX  03001 59567 11470 40603 10264 20251 39709 40076 51009 60072 70261 81201;
0163595670999992000090303004+22020+121560FM-12+032599999V0200701N004012200019N0200001N1+02791+02551100791ADDAA199000091GF102991021021004501001001MA1999999097141MD1310051+9999REMSYN066AAXX  03031 59567 32470 20704 10279 20255 39714 40079 53005 82200;EQDQ01  00002PRCP99
0163595670999992000090306004+22020+121560FM-12+032599999V0201101N008012200019N0300001N1+02701+02461100721ADDAA199000091GF102991021021004501001001MA1999999097061MD1810081+9999REMSYN066AAXX  03061 59567 32480 21108 10270 20246 39706 40072 58008 82200;EQDQ01  00002PRCP99
0163595670999992000090309004+22020+121560FM-12+032599999V0200601N005012200019N0300001N1+02711+02491100671ADDAA199000091GF104991021021004501001011MA1999999097011MD1810051+9999REMSYN066AAXX  03091 59567 32480 40605 10271 20249 39701 40067 58005 82201;EQDQ01  00002PRCP99
0163595670999992000090312004+22020+121560FM-12+032599999V0200501N005010042019N0200001N1+02561+02431100801ADDAA199000091GF107991071041004501999999MA1999999097121MD1310111+9999REMSYN066AAXX  03121 59567 32470 70505 10256 20243 39712 40080 53011 874//;EQDQ01  00002PRCP99
0150595670999992000090321004+22020+121560FM-12+032599999V0200601N005010042019N0100001N1+02511+02401100671ADDAA100000591GF107991071041004501999999MA1999999096991MD1710091+9999REMSYN072AAXX  03211 59567 12460 70605 10251 20240 39699 40067 57009 6995/ 874//;
0150595670999992000090400004+22020+121560FM-12+032599999V0200401N003010042019N0150001N1+02651+02451100731ADDAA112000591GF106991061041004501001001MA1999999097061MD1110071+9999REMSYN072AAXX  04001 59567 12465 60403 10265 20245 39706 40073 51007 69952 86400;
0163595670999992000090403004+22020+121560FM-12+032599999V0200501N004010042019N0150001N1+02761+02481100661ADDAA199000091GF106991061041004501001001MA1999999097011MD1810051+9999REMSYN066AAXX  04031 59567 32465 60504 10276 20248 39701 40066 58005 86400;EQDQ01  00002PRCP99
0163595670999992000090406004+22020+121560FM-12+032599999V0200601N004012200019N0150001N1+02791+02421100471ADDAA199000091GF103991021021008001001011MA1999999096831MD1710181+9999REMSYN066AAXX  04061 59567 32565 30604 10279 20242 39683 40047 57018 82201;EQDQ01  00002PRCP99
0163595670999992000090409004+22020+121560FM-12+032599999V0200601N003010900019N0150001N1+02631+02351100451ADDAA199000091GF106991041041004501001021MA1999999096791MD1510041+9999REMSYN066AAXX  04091 59567 32465 60603 10263 20235 39679 40045 55004 84402;EQDQ01  00002PRCP99
0163595670999992000090412004+22020+121560FM-12+032599999V0200601N004012200019N0150001N1+02501+02281100611ADDAA199000091GF102991021011004501001011MA1999999096931MD1310141+9999REMSYN066AAXX  04121 59567 32465 20604 10250 20228 39693 40061 53014 82101;EQDQ01  00002PRCP99
0163595670999992000090421004+22020+121560FM-12+032599999V0209999C000012200019N0200001N1+02421+02241100381ADDAA199000091GF101991011011004501001001MA1999999096701MD1810071+9999REMSYN066AAXX  04211 59567 32470 10000 10242 20224 39670 40038 58007 81100;EQDQ01  00002PRCP99
0163595670999992000090500004+22020+121560FM-12+032599999V0209999C000012200019N0150001N1+02631+02401100511ADDAA199000091GF101991011011004501001001MA1999999096851MD1210151+9999REMSYN066AAXX  05001 59567 32465 10000 10263 20240 39685 40051 52015 81100;EQDQ01  00002PRCP99
0163595670999992000090503004+22020+121560FM-12+032599999V0201601N001012200019N0150001N1+02871+02421100421ADDAA199000091GF101991011011008001001001MA1999999096791MD1810061+9999REMSYN066AAXX  05031 59567 32565 11601 10287 20242 39679 40042 58006 81100;EQDQ01  00002PRCP99
0178595670999992000090512004+22020+121560FM-12+032599999V0200101N008010021019N0100001N1+02071+02001101791ADDAA112002091AY161061AY221061GF108991081051002501999999MA1999999098031MD1110151+9999MW1601REMSYN078AAXX  05121 59567 11360 80108 10207 20200 39803 40179 51015 60022 76062 885//;
0178595670999992000090521004+22020+121560FM-12+032599999V0200201N016010012019N0050001N1+01971+01971101591ADDAA100003091AY161031AY221031GF108991081071001501999999MA1999999097831MD1510021+9999MW1601REMSYN078AAXX  05211 59567 11250 80216 10197 20197 39783 40159 55002 6003/ 76062 887//;
0178595670999992000090600004+22020+121560FM-12+032599999V0200101N012010012019N0100001N1+01931+01921101751ADDAA112003091AY161061AY221061GF108991081071001501999999MA1999999097971MD1310141+9999MW1211REMSYN078AAXX  06001 59567 11260 80112 10193 20192 39797 40175 53014 60032 72162 887//;
0178595670999992000090603004+22020+121560FM-12+032599999V0200201N015010042019N0100001N1+01991+01811101791ADDAA100000191AY161031AY221031GF107991071051004501999999MA1999999098021MD1010051+9999MW1021REMSYN078AAXX  06031 59567 11460 70215 10199 20181 39802 40179 50005 6991/ 70262 875//;
0178595670999992000090606004+22020+121560FM-12+032599999V0200101N011010042019N0100001N1+01911+01741101681ADDAA106000191AY161061AY221061GF108991081051004501999999MA1999999097901MD1610121+9999MW1021REMSYN078AAXX  06061 59567 11460 80111 10191 20174 39790 40168 56012 69911 70262 885//;
0150595670999992000090609004+22020+121560FM-12+032599999V0200201N011010021019N0100001N1+01781+01691101811ADDAA100000191GF108991081051002501999999MA1999999098011MD1310111+9999REMSYN072AAXX  06091 59567 12360 80211 10178 20169 39801 40181 53011 6991/ 885//;
0178595670999992000090612004+22020+121560FM-12+032599999V0200101N011010042019N0100001N1+01741+01671102011ADDAA112001091AY161061AY221061GF108991081051004501999999MA1999999098201MD1310191+9999MW1211REMSYN078AAXX  06121 59567 11460 80111 10174 20167 39820 40201 53019 60012 72162 885//;
0150595670999992000090621004+22020+121560FM-12+032599999V0200101N009010042019N0100001N1+01761+01331102021ADDAA100000191GF108991081051004501999999MA1999999098211MD1310021+9999REMSYN072AAXX  06211 59567 12460 80109 10176 20133 39821 40202 53002 6991/ 885//;
0179595670999992000090700004+22020+121560FM-12+032599999V0200201N004010042019N0150001N1+02561+02411100732ADDAA199000021GF107991071041004501999999MA1999999097052MD1110191+9999REMSYN066AAXX  07001 59567 32465 70204 10256 20241 39705 40073 51019 874//;EQDQ01+097053APOSP Q02+100733APOSLP
0163595670999992000090703004+22020+121560FM-12+032599999V0200301N005010042019N0100001N1+02511+02371100771ADDAA199000091GF108991081041004501999999MA1999999097081MD1210031+9999REMSYN066AAXX  07031 59567 32460 80305 10251 20237 39708 40077 52003 884//;EQDQ01  00002PRCP99
0178595670999992000090706004+22020+121560FM-12+032599999V0200301N006010012019N0100001N1+02431+02241100651ADDAA106001091AY161061AY221061GF108991081041001501999999MA1999999096961MD1710121+9999MW1021REMSYN078AAXX  07061 59567 11260 80306 10243 20224 39696 40065 57012 60011 70262 884//;
0150595670999992000090709004+22020+121560FM-12+032599999V0200301N005010360019N0100001N1+02481+02361100691ADDAA100001091GF108991011011001501071001MA1999999097001MD1310041+9999REMSYN072AAXX  07091 59567 12260 80305 10248 20236 39700 40069 53004 6001/ 81170;
0150595670999992000090712004+22020+121560FM-12+032599999V0200401N012010360019N0100001N1+02521+02171100841ADDAA112001091GF108991011011001501071999MA1999999097151MD1210151+9999REMSYN072AAXX  07121 59567 12260 80412 10252 20217 39715 40084 52015 60012 8117/;
0163595670999992000090721004+22020+121560FM-12+032599999V0200401N008010042019N0100001N1+02441+02271100781ADDAA199000091GF108991081041004501999999MA1999999097091MD1310021+9999REMSYN066AAXX  07211 59567 32460 80408 10244 20227 39709 40078 53002 884//;EQDQ01  00002PRCP99
0163595670999992000090800004+22020+121560FM-12+032599999V0200401N011010042019N0100001N1+02531+02301100841ADDAA199000091GF107991071041004501999999MA1999999097151MD1210061+9999REMSYN066AAXX  08001 59567 32460 70411 10253 20230 39715 40084 52006 874//;EQDQ01  00002PRCP99
0163595670999992000090806004+22020+121560FM-12+032599999V0200201N003010075019N0100001N1+02821+02391100701ADDAA199000091GF106991061041008001001001MA1999999097051MD1710061+9999REMSYN066AAXX  08061 59567 32560 60203 10282 20239 39705 40070 57006 86400;EQDQ01  00002PRCP99
0163595670999992000090809004+22020+121560FM-12+032599999V0200301N005010042019N0100001N1+02541+02311100711ADDAA199000091GF107991061041004501071999MA1999999097031MD1510021+9999REMSYN066AAXX  08091 59567 32460 70305 10254 20231 39703 40071 55002 8647/;EQDQ01  00002PRCP99
0163595670999992000090818004+22020+121560FM-12+032599999V0200301N014010042019N0100001N1+02461+02141100631ADDAA199000091GF108991081051004501999999MA1999999096941MD1810141+9999REMSYN066AAXX  08181 59567 32460 80314 10246 20214 39694 40063 58014 885//;EQDQ01  00002PRCP99
0163595670999992000090821004+22020+121560FM-12+032599999V0200401N005010042019N0100001N1+02431+02131100681ADDAA199000091GF108991081051004501999999MA1999999096991MD1310051+9999REMSYN066AAXX  08211 59567 32460 80405 10243 20213 39699 40068 53005 885//;EQDQ01  00002PRCP99
0163595670999992000090900004+22020+121560FM-12+032599999V0200501N013010360019N0120001N1+02511+02171100781ADDAA199000091GF106991021021008001011001MA1999999097091MD1110101+9999REMSYN066AAXX  09001 59567 32562 60513 10251 20217 39709 40078 51010 82210;EQDQ01  00002PRCP99
0163595670999992000090903004+22020+121560FM-12+032599999V0200901N003010360019N0100001N1+02701+02271100731ADDAA199000091GF108991011011008001011999MA1999999097071MD1810021+9999REMSYN066AAXX  09031 59567 32560 80903 10270 20227 39707 40073 58002 8111/;EQDQ01  00002PRCP99
0163595670999992000090906004+22020+121560FM-12+032599999V0202401N018010075019N0120001N1+02691+02231100441ADDAA199000091GF107991051051008001031999MA1999999096791MD1810281+9999REMSYN066AAXX  09061 59567 32562 72418 10269 20223 39679 40044 58028 8553/;EQDQ01  00002PRCP99
0163595670999992000090909004+22020+121560FM-12+032599999V0202601N011010075019N0100001N1+02571+02351100281ADDAA199000091GF107991051051008001031999MA1999999096621MD1710171+9999REMSYN066AAXX  09091 59567 32560 72611 10257 20235 39662 40028 57017 8553/;EQDQ01  00002PRCP99
0163595670999992000090912004+22020+121560FM-12+032599999V0202601N004010360019N0120001N1+02531+02361100411ADDAA199000091GF105991011011008001031001MA1999999096741MD1210121+9999REMSYN066AAXX  09121 59567 32562 52604 10253 20236 39674 40041 52012 81130;EQDQ01  00002PRCP99
0163595670999992000090918004+22020+121560FM-12+032599999V0202701N006010042019N0100001N1+02491+02351100191ADDAA199000091GF108991081051004501999999MA1999999096521MD1810191+9999REMSYN066AAXX  09181 59567 32460 82706 10249 20235 39652 40019 58019 885//;EQDQ01  00002PRCP99
0163595670999992000090921004+22020+121560FM-12+032599999V0203301N003010042019N0100001N1+02541+02281100131ADDAA199000091GF108991081051004501999999MA1999999096471MD1510051+9999REMSYN066AAXX  09211 59567 32460 83303 10254 20228 39647 40013 55005 885//;EQDQ01  00002PRCP99
0178595670999992000091000004+22020+121560FM-12+032599999V0200401N018010075019N0120001N1+02451+02241100121ADDAA112000591AY161061AY221061GF108991081051008001999999MA1999999096451MD1510021+9999MW1211REMSYN078AAXX  10001 59567 11562 80418 10245 20224 39645 40012 55002 69952 72162 885//;
0178595670999992000091003004+22020+121560FM-12+032599999V0200301N011010012019N0100001N1+02341+02341100021ADDAA100009991AY161031AY261031GF108991081071001501999999MA1999999096341MD1510111+9999MW1611REMSYN078AAXX  10031 59567 11260 80311 10234 20234 39634 40002 55011 6010/ 76166 887//;
0197595670999992000091006004+22020+121560FM-12+032599999V0200601N048020012019N0100001N1+02381+02301099641ADDAA106024991AY161061AY261061GF108991081071001501999999MA1999999095981MD1810361+9999MW1611REMSYN078AAXX  10061 59567 11260 80648 10238 20230 39598 49964 58036 60251 76166 887//;EQDQ01+004803WOSPD 
0178595670999992000091009004+22020+121560FM-12+032599999V0200501N024010012019N0100001N1+02441+02411099811ADDAA100030091AY161031AY221031GF108991081071001501999999MA1999999096151MD1310171+9999MW1211REMSYN078AAXX  10091 59567 11260 80524 10244 20241 39615 49981 53017 6030/ 72162 887//;
0178595670999992000091012004+22020+121560FM-12+032599999V0200401N030010012019N0100001N1+02451+02401100021ADDAA112032091AY161061AY221061GF108991081051001501999999MA1999999096351MD1310201+9999MW1021REMSYN078AAXX  10121 59567 11260 80430 10245 20240 39635 40002 53020 60322 70262 885//;
0178595670999992000091021004+22020+121560FM-12+032599999V0200301N008010021019N0100001N1+02461+02351100131ADDAA100000591AY161031AY221031GF106991061051002501001001MA1999999096461MD1010071+9999MW1021REMSYN078AAXX  10211 59567 11360 60308 10246 20235 39646 40013 50007 6995/ 70262 86500;
0178595670999992000091100004+22020+121560FM-12+032599999V0200401N018010042019N0120001N1+02581+02371100201ADDAA112000591AY161061AY221061GF106991061041004501001001MA1999999096541MD1110081+9999MW1021REMSYN078AAXX  11001 59567 11462 60418 10258 20237 39654 40020 51008 69952 70262 86400;
0163595670999992000091103004+22020+121560FM-12+032599999V0200301N008012200019N0120001N1+02691+02361100231ADDAA199000091GF102991021021002501001001MA1999999096591MD1010051+9999REMSYN066AAXX  11031 59567 32362 20308 10269 20236 39659 40023 50005 82200;EQDQ01  00002PRCP99
0163595670999992000091106004+22020+121560FM-12+032599999V0200301N010012200019N0120001N1+02741+02381100121ADDAA199000091GF102991021021004501001001MA1999999096491MD1510101+9999REMSYN066AAXX  11061 59567 32462 20310 10274 20238 39649 40012 55010 82200;EQDQ01  00002PRCP99
0163595670999992000091109004+22020+121560FM-12+032599999V0200401N005010021019N0100001N1+02631+02341100181ADDAA199000091GF106991061041002501001001MA1999999096531MD1310041+9999REMSYN066AAXX  11091 59567 32360 60405 10263 20234 39653 40018 53004 86400;EQDQ01  00002PRCP99
0163595670999992000091112004+22020+121560FM-12+032599999V0200301N008010012019N0100001N1+02481+02341100341ADDAA199000091GF108991081041001501999999MA1999999096671MD1210141+9999REMSYN066AAXX  11121 59567 32260 80308 10248 20234 39667 40034 52014 884//;EQDQ01  00002PRCP99
0150595670999992000091121004+22020+121560FM-12+032599999V0200401N006010042019N0100001N1+02461+02281100181ADDAA100001091GF107991071041004501999999MA1999999096511MD1510061+9999REMSYN072AAXX  11211 59567 12460 70406 10246 20228 39651 40018 55006 6001/ 874//;
0150595670999992000091200004+22020+121560FM-12+032599999V0200501N011010042019N0120001N1+02521+02311100321ADDAA112001091GF107991061041004501071999MA1999999096651MD1310141+9999REMSYN072AAXX  12001 59567 12462 70511 10252 20231 39665 40032 53014 60012 8647/;
0178595670999992000091203004+22020+121560FM-12+032599999V0200501N010010360019N0100001N1+02521+02341100291ADDAA100019191AY161031AY221031GF106991041041002501071001MA1999999096621MD1810031+9999MW1011REMSYN078AAXX  12031 59567 11360 60510 10252 20234 39662 40029 58003 6019/ 70162 84470;
0178595670999992000091206004+22020+121560FM-12+032599999V0200601N017010021019N0100001N1+02411+02271100171ADDAA106019191AY161061AY221061GF108991081071002501999999MA1999999096491MD1710131+9999MW1021REMSYN078AAXX  12061 59567 11360 80617 10241 20227 39649 40017 57013 60191 70262 887//;
0178595670999992000091212004+22020+121560FM-12+032599999V0200701N012010006019N0100001N1+02311+02291100221ADDAA112024991AY161061AY221061GF108991081051000751999999MA1999999096531MD1210091+9999MW1021REMSYN078AAXX  12121 59567 11160 80712 10231 20229 39653 40022 52009 60252 70262 885//;
0150595670999992000091221004+22020+121560FM-12+032599999V0201601N005010042019N0100001N1+02331+02131099951ADDAA100000591GF108991081051004501999999MA1999999096271MD1610101+9999REMSYN072AAXX  12211 59567 12460 81605 10233 20213 39627 49995 56010 6995/ 885//;
0170595670999992000091300004+22020+121560FM-12+032599999V0201901N007012200019N0100001N1+02411+02121099941ADDAA112001091AY161061GF102991021021004501001001MA1999999096271MD1410001+9999MW1211REMSYN078AAXX  13001 59567 11460 21907 10241 20212 39627 49994 54000 60012 72160 82200;
0144595670999992000091303004+22020+121560FM-12+032599999V0200201N002012200019N0120001N1+02681+02101099821ADDAA199000021GF102991011011008001001011MA1999999096191MD1510081+9999REMSYN066AAXX  13031 59567 32562 20202 10268 20210 39619 49982 55008 81101;
0144595670999992000091306004+22020+121560FM-12+032599999V0202901N006010042019N0120001N1+02741+02311099751ADDAA199000021GF105991051041004501001001MA1999999096131MD1710061+9999REMSYN066AAXX  13061 59567 32462 52906 10274 20231 39613 49975 57006 85400;
0144595670999992000091309004+22020+121560FM-12+032599999V0203101N002010042019N0120001N1+02611+02191099831ADDAA199000021GF106991061041004501001001MA1999999096191MD1310061+9999REMSYN066AAXX  13091 59567 32462 63102 10261 20219 39619 49983 53006 86400;
0144595670999992000091312004+22020+121560FM-12+032599999V0200901N008010012019N0100001N1+02421+02251100051ADDAA199000021GF108991081041001501999999MA1999999096381MD1210191+9999REMSYN066AAXX  13121 59567 32260 80908 10242 20225 39638 40005 52019 884//;
0150595670999992000091321004+22020+121560FM-12+032599999V0202701N006010021019N0100001N1+02371+02231099791ADDAA100000791GF107991071041002501999999MA1999999096121MD1610111+9999REMSYN072AAXX  13211 59567 12360 72706 10237 20223 39612 49979 56011 6990/ 874//;
0150595670999992000091400004+22020+121560FM-12+032599999V0202801N015010900019N0120001N1+02461+02141099761ADDAA112000791GF106991011051008001001081MA1999999096111MD1510011+9999REMSYN072AAXX  14001 59567 12562 62815 10246 20214 39611 49976 55001 69902 81508;
0163595670999992000091403004+22020+121560FM-12+032599999V0202701N020012200019N0100001N1+02571+02091099641ADDAA199000091GF104991011011008001001081MA1999999096001MD1810111+9999REMSYN066AAXX  14031 59567 32560 42720 10257 20209 39600 49964 58011 81108;EQDQ01  00002PRCP99
0179595670999992000091406004+22020+121560FM-12+032599999V0202701N999992200019N0100001N1+02601+02091099481ADDAA199000091GF102991011011008001001081MA1999999095851MD1510151+9999REMSYN066AAXX  14061 59567 32560 22746 10260 20209 39585 49948 55015 81108;EQDQ01+004603WOSPD Q02  00002PRCP99
0163595670999992000091409004+22020+121560FM-12+032599999V0202601N020019999999N0100001N1+02531+02121099561ADDAA199000091GF106991011001999999031081MA1999999095921MD1110071+9999REMSYN066AAXX  14091 59567 32960 62620 10253 20212 39592 49956 51007 81038;EQDQ01  00002PRCP99
0163595670999992000091412004+22020+121560FM-12+032599999V0202701N024010360019N0100001N1+02461+02131099871ADDAA199000091GF106991011011008001031081MA1999999096211MD1210291+9999REMSYN066AAXX  14121 59567 32560 62724 10246 20213 39621 49987 52029 81138;EQDQ01  00002PRCP99
0163595670999992000091421004+22020+121560FM-12+032599999V0202701N016019999999N0100001N1+02401+02041099771ADDAA199000091GF106991061001999999071001MA1999999096111MD1610061+9999REMSYN066AAXX  14211 59567 32960 62716 10240 20204 39611 49977 56006 86070;EQDQ01  00002PRCP99
0163595670999992000091500004+22020+121560FM-12+032599999V0202701N029010360019N0120001N1+02431+02121100041ADDAA199000091GF105991031021004501031001MA1999999096371MD1110261+9999REMSYN066AAXX  15001 59567 32462 52729 10243 20212 39637 40004 51026 83230;EQDQ01  00002PRCP99
0163595670999992000091503004+22020+121560FM-12+032599999V0202701N016010075019N0120001N1+02551+01971100111ADDAA199000091GF106991061051008001001001MA1999999096451MD1010081+9999REMSYN066AAXX  15031 59567 32562 62716 10255 20197 39645 40011 50008 86500;EQDQ01  00002PRCP99
0163595670999992000091506004+22020+121560FM-12+032599999V0202601N026012200019N0120001N1+02701+02141100111ADDAA199000091GF103991021021008001031011MA1999999096471MD1010021+9999REMSYN066AAXX  15061 59567 32562 32626 10270 20214 39647 40011 50002 82231;EQDQ01  00002PRCP99
0179595670999992000091509004+22020+121560FM-12+032599999V0202701N015012200019N0120001N1+02561+01971100191ADDAA199000091GF103991001001999999001081MA1999999096531MD1310061+9999REMSYN066AAXX  15091 59567 32962 32715 10256 20197 39653 40019 53006 83008;EQDQ01+000032SCOTLCQ02  00002PRCP99
0163595670999992000091512004+22020+121560FM-12+032599999V0202701N032012200019N0100001N1+02461+02161100361ADDAA199000091GF104991021021004501031001MA1999999096681MD1210151+9999REMSYN066AAXX  15121 59567 32460 42732 10246 20216 39668 40036 52015 82230;EQDQ01  00002PRCP99
0178595670999992000091521004+22020+121560FM-12+032599999V0200501N011010012019N0100001N1+02171+02131100611ADDAA100015091AY161031AY221031GF108991081051001501999999MA1999999096891MD1310271+9999MW1021REMSYN078AAXX  15211 59567 11260 80511 10217 20213 39689 40061 53027 6015/ 70262 885//;
0178595670999992000091600004+22020+121560FM-12+032599999V0200401N024010006019N0100001N1+02091+02091100861ADDAA112021191AY161061AY221061GF108991081071000751999999MA1999999097121MD1110231+9999MW1601REMSYN078AAXX  16001 59567 11160 80424 10209 20209 39712 40086 51023 60212 76062 887//;
0178595670999992000091603004+22020+121560FM-12+032599999V0200401N007010360019N0120001N1+02431+02131100981ADDAA100000591AY161031AY221031GF106991021011004501071001MA1999999097281MD1110161+9999MW1031REMSYN078AAXX  16031 59567 11462 60407 10243 20213 39728 40098 51016 6995/ 70362 82170;
0178595670999992000091606004+22020+121560FM-12+032599999V0200401N012012200019N0120001N1+02611+02301100831ADDAA106000591AY161061AY221061GF103991021011008001031001MA1999999097151MD1810131+9999MW1011REMSYN078AAXX  16061 59567 11562 30412 10261 20230 39715 40083 58013 69951 70162 82130;
0150595670999992000091609004+22020+121560FM-12+032599999V0200201N006012200019N0120001N1+02431+02041100891ADDAA100000591GF103991021011008001031011MA1999999097191MD1310041+9999REMSYN072AAXX  16091 59567 12562 30206 10243 20204 39719 40089 53004 6995/ 82131;
0150595670999992000091612004+22020+121560FM-12+032599999V0200201N010010075019N0120001N1+02381+02031101101ADDAA112000591GF107991061051008001001081MA1999999097391MD1210201+9999REMSYN072AAXX  16121 59567 12562 70210 10238 20203 39739 40110 52020 69952 86508;
0178595670999992000091621004+22020+121560FM-12+032599999V0200801N005010042019N0120001N1+02291+02131101161ADDAA100000591AY181031AY221031GF108991081041004501999999MA1999999097431MD1310041+9999MW1251REMSYN078AAXX  16211 59567 11462 80805 10229 20213 39743 40116 53004 6995/ 72582 884//;
0178595670999992000091700004+22020+121560FM-12+032599999V0200401N010010360019N0120001N1+02471+02161101261ADDAA112003091AY181061AY221061GF106991011011008001031001MA1999999097551MD1310121+9999MW1021REMSYN078AAXX  17001 59567 11562 60410 10247 20216 39755 40126 53012 60032 70282 81130;
0178595670999992000091703004+22020+121560FM-12+032599999V0200301N005010360019N0150001N1+02531+02041101251ADDAA100000591AY181031AY221031GF107991021011008001021001MA1999999097551MD1410001+9999MW1031REMSYN078AAXX  17031 59567 11565 70305 10253 20204 39755 40125 54000 6995/ 70382 82120;
0178595670999992000091706004+22020+121560FM-12+032599999V0200301N008019999999N0120001N1+02521+02031101101ADDAA106000591AY181061AY221061GF107991071001999999021999MA1999999097401MD1710151+9999MW1021REMSYN078AAXX  17061 59567 11962 70308 10252 20203 39740 40110 57015 69951 70282 8702/;
0150595670999992000091709004+22020+121560FM-12+032599999V0200301N009010075019N0120001N1+02361+02071101131ADDAA100000591GF107991071051008001999999MA1999999097411MD1310011+9999REMSYN072AAXX  17091 59567 12562 70309 10236 20207 39741 40113 53001 6995/ 875//;
0150595670999992000091712004+22020+121560FM-12+032599999V0200301N011010042019N0100001N1+02371+01881101241ADDAA112000591GF108991081051004501999999MA1999999097521MD1210111+9999REMSYN072AAXX  17121 59567 12460 80311 10237 20188 39752 40124 52011 69952 885//;
0163595670999992000091721004+22020+121560FM-12+032599999V0200401N004010075019N0100001N1+02341+02051101211ADDAA199000091GF108991081051008001999999MA1999999097491MD1310021+9999REMSYN066AAXX  17211 59567 32560 80404 10234 20205 39749 40121 53002 885//;EQDQ01  00002PRCP99
0163595670999992000091800004+22020+121560FM-12+032599999V0200501N010010075019N0100001N1+02381+02031101321ADDAA199000091GF106991061041008001001001MA1999999097601MD1210111+9999REMSYN066AAXX  18001 59567 32560 60510 10238 20203 39760 40132 52011 86400;EQDQ01  00002PRCP99
0163595670999992000091803004+22020+121560FM-12+032599999V0200301N005012200019N0100001N1+02601+02141101291ADDAA199000091GF102991021011008001001001MA1999999097601MD1410001+9999REMSYN066AAXX  18031 59567 32560 20305 10260 20214 39760 40129 54000 82100;EQDQ01  00002PRCP99
0163595670999992000091806004+22020+121560FM-12+032599999V0200401N013012200019N0100001N1+02651+02071101151ADDAA199000091GF101991011011008001001001MA1999999097471MD1810131+9999REMSYN066AAXX  18061 59567 32560 10413 10265 20207 39747 40115 58013 81100;EQDQ01  00002PRCP99
0163595670999992000091809004+22020+121560FM-12+032599999V0200501N007012200019N0100001N1+02451+02001101201ADDAA199000091GF103991031011008001001001MA1999999097491MD1310021+9999REMSYN066AAXX  18091 59567 32560 30507 10245 20200 39749 40120 53002 83100;EQDQ01  00002PRCP99
0163595670999992000091812004+22020+121560FM-12+032599999V0200501N016012200019N0100001N1+02361+01971101371ADDAA199000091GF101991011011008001001001MA1999999097641MD1210151+9999REMSYN066AAXX  18121 59567 32560 10516 10236 20197 39764 40137 52015 81100;EQDQ01  00002PRCP99
0163595670999992000091821004+22020+121560FM-12+032599999V0200401N006012200019N0120001N1+02291+01861101361ADDAA199000091GF102991021011008001001001MA1999999097631MD1310031+9999REMSYN066AAXX  18211 59567 32562 20406 10229 20186 39763 40136 53003 82100;EQDQ01  00002PRCP99
0163595670999992000091900004+22020+121560FM-12+032599999V0200401N016012200019N0120001N1+02421+01941101461ADDAA199000091GF102991011011008001031001MA1999999097741MD1310111+9999REMSYN066AAXX  19001 59567 32562 20416 10242 20194 39774 40146 53011 81130;EQDQ01  00002PRCP99
0163595670999992000091903004+22020+121560FM-12+032599999V0200301N006012200019N0150001N1+02611+02041101461ADDAA199000091GF102991011011008001031001MA1999999097761MD1210021+9999REMSYN066AAXX  19031 59567 32565 20306 10261 20204 39776 40146 52002 81130;EQDQ01  00002PRCP99
0163595670999992000091906004+22020+121560FM-12+032599999V0200401N011012200019N0150001N1+02651+02051101281ADDAA199000091GF102991011011008001031001MA1999999097591MD1710171+9999REMSYN066AAXX  19061 59567 32565 20411 10265 20205 39759 40128 57017 81130;EQDQ01  00002PRCP99
0163595670999992000091909004+22020+121560FM-12+032599999V0200401N008010042019N0150001N1+02451+02111101271ADDAA199000091GF106991061041004501001011MA1999999097561MD1510031+9999REMSYN066AAXX  19091 59567 32465 60408 10245 20211 39756 40127 55003 86401;EQDQ01  00002PRCP99
0163595670999992000091912004+22020+121560FM-12+032599999V0200401N014010042019N0100001N1+02411+02081101461ADDAA199000091GF106991061041004501001001MA1999999097741MD1210181+9999REMSYN066AAXX  19121 59567 32460 60414 10241 20208 39774 40146 52018 86400;EQDQ01  00002PRCP99
0163595670999992000091921004+22020+121560FM-12+032599999V0200501N013010012019N0100001N1+02371+02221101361ADDAA199000091GF108991081051001501999999MA1999999097641MD1810061+9999REMSYN066AAXX  19211 59567 32260 80513 10237 20222 39764 40136 58006 885//;EQDQ01  00002PRCP99
0178595670999992000092000004+22020+121560FM-12+032599999V0200401N017010360019N0100001N1+02431+02281101491ADDAA112002091AY181061AY221061GF105991041041004501031001MA1999999097771MD1110131+9999MW1011REMSYN078AAXX  20001 59567 11460 50417 10243 20228 39777 40149 51013 60022 70182 84430;
0163595670999992000092006004+22020+121560FM-12+032599999V0200301N008010042019N0100001N1+02671+02381101361ADDAA199000091GF106991051041004501001011MA1999999097671MD1610071+9999REMSYN066AAXX  20061 59567 32460 60308 10267 20238 39767 40136 56007 85401;EQDQ01  00002PRCP99
0163595670999992000092009004+22020+121560FM-12+032599999V0200301N006012200019N0100001N1+02531+02191101361ADDAA199000091GF103991021011004501001021MA1999999097661MD1510011+9999REMSYN066AAXX  20091 59567 32460 30306 10253 20219 39766 40136 55001 82102;EQDQ01  00002PRCP99
0163595670999992000092012004+22020+121560FM-12+032599999V0200401N012010042019N0100001N1+02461+02291101541ADDAA199000091GF107991071051004501999999MA1999999097821MD1310161+9999REMSYN066AAXX  20121 59567 32460 70412 10246 20229 39782 40154 53016 875//;EQDQ01  00002PRCP99
0178595670999992000092021004+22020+121560FM-12+032599999V0200401N008010012019N0100001N1+02401+02341101451ADDAA100001091AY181031AY221031GF107991071041001501999999MA1999999097731MD1310031+9999MW1021REMSYN078AAXX  20211 59567 11260 70408 10240 20234 39773 40145 53003 6001/ 70282 874//;
0178595670999992000092100004+22020+121560FM-12+032599999V0200301N007010012019N0150001N1+02421+02391101561ADDAA112002091AY181061AY221061GF108991081041001501999999MA1999999097831MD1110101+9999MW1251REMSYN078AAXX  21001 59567 11265 80307 10242 20239 39783 40156 51010 60022 72582 884//;
0144595670999992000092103004+22020+121560FM-12+032599999V0200401N006010012019N0150001N1+02681+02511101631ADDAA199000021GF107991071041001501999999MA1999999097931MD1010101+9999REMSYN066AAXX  21031 59567 32265 70406 10268 20251 39793 40163 50010 874//;
0178595670999992000092106004+22020+121560FM-12+032599999V0200401N008010012019N0120001N1+02711+02551101491ADDAA106003091AY181061AY221061GF106991061041001501001001MA1999999097801MD1810131+9999MW1021REMSYN078AAXX  21061 59567 11262 60408 10271 20255 39780 40149 58013 60031 70282 86400;
0150595670999992000092109004+22020+121560FM-12+032599999V0200701N005010012019N0150001N1+02521+02411101531ADDAA100003091GF107991071041001501999999MA1999999097821MD1310021+9999REMSYN072AAXX  21091 59567 12265 70705 10252 20241 39782 40153 53002 6003/ 874//;
0150595670999992000092112004+22020+121560FM-12+032599999V0200701N011010012019N0100001N1+02481+02381101681ADDAA112003091GF108991081041001501999999MA1999999097961MD1210141+9999REMSYN072AAXX  21121 59567 12260 80711 10248 20238 39796 40168 52014 60032 884//;
0163595670999992000092121004+22020+121560FM-12+032599999V0200401N005010012019N0100001N1+02421+02331101461ADDAA199000091GF107991071041001501999999MA1999999097741MD1510061+9999REMSYN066AAXX  21211 59567 32260 70405 10242 20233 39774 40146 55006 874//;EQDQ01  00002PRCP99
0163595670999992000092200004+22020+121560FM-12+032599999V0200501N009010042019N0120001N1+02581+02421101601ADDAA199000091GF106991061041004501001001MA1999999097891MD1310151+9999REMSYN066AAXX  22001 59567 32462 60509 10258 20242 39789 40160 53015 86400;EQDQ01  00002PRCP99
0163595670999992000092203004+22020+121560FM-12+032599999V0200701N005012200019N0150001N1+02641+02441101591ADDAA199000091GF103991021021004501001091MA1999999097891MD1410001+9999REMSYN066AAXX  22031 59567 32465 30705 10264 20244 39789 40159 54000 82209;EQDQ01  00002PRCP99
0179595670999992000092206004+22020+121560FM-12+032599999V0200701N007012200019N0150001N1+02611+02381101431ADDAA199000091GF102991011021004501031001MA1999999097731MD1710161+9999REMSYN066AAXX  22061 59567 32465 20707 10261 20238 39773 40143 57076 81230;EQDQ01+000762APC3  Q02  00002PRCP99
0163595670999992000092209004+22020+121560FM-12+032599999V0200701N005010042019N0150001N1+02531+02341101391ADDAA199000091GF106991061041004501001001MA1999999097681MD1510051+9999REMSYN066AAXX  22091 59567 32465 60705 10253 20234 39768 40139 55005 86400;EQDQ01  00002PRCP99
0163595670999992000092212004+22020+121560FM-12+032599999V0200601N009012200019N0120001N1+02471+02331101521ADDAA199000091GF102991021021004501001001MA1999999097801MD1210121+9999REMSYN066AAXX  22121 59567 32462 20609 10247 20233 39780 40152 52012 82200;EQDQ01  00002PRCP99
0163595670999992000092221004+22020+121560FM-12+032599999V0200701N004012200019N0120001N1+02381+02221101371ADDAA199000091GF104991041021004501001001MA1999999097651MD1510011+9999REMSYN066AAXX  22211 59567 32462 40704 10238 20222 39765 40137 55001 84200;EQDQ01  00002PRCP99
0163595670999992000092300004+22020+121560FM-12+032599999V0200401N005010042019N0150001N1+02471+02301101481ADDAA199000091GF106991061041004501001001MA1999999097761MD1210111+9999REMSYN066AAXX  23001 59567 32465 60405 10247 20230 39776 40148 52011 86400;EQDQ01  00002PRCP99
0163595670999992000092303004+22020+121560FM-12+032599999V0200401N004012200019N0150001N1+02741+02411101471ADDAA199000091GF103991031021004501001001MA1999999097791MD1010031+9999REMSYN066AAXX  23031 59567 32465 30404 10274 20241 39779 40147 50003 83200;EQDQ01  00002PRCP99
0163595670999992000092306004+22020+121560FM-12+032599999V0200401N007010042019N0150001N1+02671+02371101251ADDAA199000091GF106991061041004501001001MA1999999097571MD1810221+9999REMSYN066AAXX  23061 59567 32465 60407 10267 20237 39757 40125 58022 86400;EQDQ01  00002PRCP99
0163595670999992000092309004+22020+121560FM-12+032599999V0200401N006010012019N0120001N1+02501+02281101211ADDAA199000091GF106991061041001501001001MA1999999097511MD1510061+9999REMSYN066AAXX  23091 59567 32262 60406 10250 20228 39751 40121 55006 86400;EQDQ01  00002PRCP99
0178595670999992000092312004+22020+121560FM-12+032599999V0200501N009010012019N0100001N1+02421+02271101411ADDAA112000591AY181061AY221061GF108991081041001501999999MA1999999097691MD1210181+9999MW1021REMSYN078AAXX  23121 59567 11260 80509 10242 20227 39769 40141 52018 69952 70282 884//;
0163595670999992000092321004+22020+121560FM-12+032599999V0200601N004010042019N0100001N1+02371+02191101211ADDAA199000091GF107991071041004501999999MA1999999097491MD1510091+9999REMSYN066AAXX  23211 59567 32460 70604 10237 20219 39749 40121 55009 874//;EQDQ01  00002PRCP99
0163595670999992000092403004+22020+121560FM-12+032599999V0200301N003010075019N0100001N1+02711+02421101301ADDAA199000091GF106991061041008001001001MA1999999097621MD1410001+9999REMSYN066AAXX  24031 59567 32560 60303 10271 20242 39762 40130 54000 86400;EQDQ01  00002PRCP99
0163595670999992000092406004+22020+121560FM-12+032599999V0200501N009010075019N0100001N1+02581+02301101131ADDAA199000091GF107991071041008001999999MA1999999097441MD1710181+9999REMSYN066AAXX  24061 59567 32560 70509 10258 20230 39744 40113 57018 874//;EQDQ01  00002PRCP99
0163595670999992000092409004+22020+121560FM-12+032599999V0200401N005012200019N0100001N1+02491+02191101111ADDAA199000091GF104991031021008001001011MA1999999097411MD1510031+9999REMSYN066AAXX  24091 59567 32560 40405 10249 20219 39741 40111 55003 83201;EQDQ01  00002PRCP99
0163595670999992000092412004+22020+121560FM-12+032599999V0200601N008010075019N0100001N1+02411+02161101301ADDAA199000091GF107991071041008001999999MA1999999097581MD1310171+9999REMSYN066AAXX  24121 59567 32560 70608 10241 20216 39758 40130 53017 874//;EQDQ01  00002PRCP99
0163595670999992000092421004+22020+121560FM-12+032599999V0200601N007012200019N0120001N1+02481+02181101321ADDAA199000091GF102991021021004501001001MA1999999097611MD1210151+9999REMSYN066AAXX  24211 59567 32462 20607 10248 20218 39761 40132 52015 82200;EQDQ01  00002PRCP99
0163595670999992000092503004+22020+121560FM-12+032599999V0200501N004012200019N0120001N1+02631+02201101341ADDAA199000091GF103991031021004501001001MA1999999097651MD1010041+9999REMSYN066AAXX  25031 59567 32462 30504 10263 20220 39765 40134 50004 83200;EQDQ01  00002PRCP99
0163595670999992000092506004+22020+121560FM-12+032599999V0200601N007012200019N0120001N1+02561+02121101131ADDAA199000091GF102991021021008001001001MA1999999097441MD1710211+9999REMSYN066AAXX  25061 59567 32562 20607 10256 20212 39744 40113 57021 82200;EQDQ01  00002PRCP99
0179595670999992000092509004+22020+121560FM-12+032599999V0200601N005012200019N0120001N1+02391+02061101121ADDAA199000091GF103991001001999999001051MA1999999097411MD1510031+9999REMSYN066AAXX  25091 59567 32962 30605 10239 20206 39741 40112 55003 83005;EQDQ01+000032SCOTLCQ02  00002PRCP99
0163595670999992000092512004+22020+121560FM-12+032599999V0200601N010012200019N0100001N1+02381+02071101321ADDAA199000091GF102991021021008001001001MA1999999097601MD1210191+9999REMSYN066AAXX  25121 59567 32560 20610 10238 20207 39760 40132 52019 82200;EQDQ01  00002PRCP99
0163595670999992000092521004+22020+121560FM-12+032599999V0200501N004010042019N0100001N1+02341+02031101291ADDAA199000091GF106991061041004501001001MA1999999097561MD1510021+9999REMSYN066AAXX  25211 59567 32460 60504 10234 20203 39756 40129 55002 86400;EQDQ01  00002PRCP99
0163595670999992000092600004+22020+121560FM-12+032599999V0200501N005012200019N0100001N1+02491+02121101431ADDAA199000091GF101991011011008001001001MA1999999097721MD1110161+9999REMSYN066AAXX  26001 59567 32560 10505 10249 20212 39772 40143 51016 81100;EQDQ01  00002PRCP99
0163595670999992000092603004+22020+121560FM-12+032599999V0200601N005012200019N0100001N1+02641+02141101361ADDAA199000091GF101991011011008001001001MA1999999097671MD1810051+9999REMSYN066AAXX  26031 59567 32560 10605 10264 20214 39767 40136 58005 81100;EQDQ01  00002PRCP99
0163595670999992000092606004+22020+121560FM-12+032599999V0200401N011010075019N0100001N1+02581+02201101221ADDAA199000091GF105991051041008001001001MA1999999097531MD1710141+9999REMSYN066AAXX  26061 59567 32560 50411 10258 20220 39753 40122 57014 85400;EQDQ01  00002PRCP99
0163595670999992000092609004+22020+121560FM-12+032599999V0200501N007012200019N0100001N1+02451+02061101261ADDAA199000091GF102991021011008001001011MA1999999097551MD1310021+9999REMSYN066AAXX  26091 59567 32560 20507 10245 20206 39755 40126 53002 82101;EQDQ01  00002PRCP99
0163595670999992000092612004+22020+121560FM-12+032599999V0200501N017012200019N0100001N1+02381+02051101391ADDAA199000091GF101991011011008001001001MA1999999097671MD1310121+9999REMSYN066AAXX  26121 59567 32560 10517 10238 20205 39767 40139 53012 81100;EQDQ01  00002PRCP99
0163595670999992000092700004+22020+121560FM-12+032599999V0200401N011012200019N0120001N1+02481+02231101451ADDAA199000091GF102991021021008001001001MA1999999097741MD1210121+9999REMSYN066AAXX  27001 59567 32562 20411 10248 20223 39774 40145 52012 82200;EQDQ01  00002PRCP99
0163595670999992000092706004+22020+121560FM-12+032599999V0200801N010010042019N0150001N1+02521+02201101271ADDAA199000091GF107991071041004501999999MA1999999097571MD1710141+9999REMSYN066AAXX  27061 59567 32465 70810 10252 20220 39757 40127 57014 874//;EQDQ01  00002PRCP99
0163595670999992000092709004+22020+121560FM-12+032599999V0200601N004010360019N0100001N1+02491+02151101221ADDAA199000091GF105991031021008001011001MA1999999097521MD1810051+9999REMSYN066AAXX  27091 59567 32560 50604 10249 20215 39752 40122 58005 83210;EQDQ01  00002PRCP99
0163595670999992000092712004+22020+121560FM-12+032599999V0200901N010012200019N0100001N1+02421+02161101431ADDAA199000091GF102991021021004501001001MA1999999097711MD1110191+9999REMSYN066AAXX  27121 59567 32460 20910 10242 20216 39771 40143 51019 82200;EQDQ01  00002PRCP99
0163595670999992000092721004+22020+121560FM-12+032599999V0200701N004012200019N0100001N1+02351+02101101381ADDAA199000091GF104991041021001501001001MA1999999097651MD1510021+9999REMSYN066AAXX  27211 59567 32260 40704 10235 20210 39765 40138 55002 84200;EQDQ01  00002PRCP99
0163595670999992000092800004+22020+121560FM-12+032599999V0200701N009012200019N0120001N1+02531+02201101471ADDAA199000091GF102991021011004501001001MA1999999097761MD1110111+9999REMSYN066AAXX  28001 59567 32462 20709 10253 20220 39776 40147 51011 82100;EQDQ01  00002PRCP99
0163595670999992000092803004+22020+121560FM-12+032599999V0200701N004012200019N0120001N1+02641+02231101441ADDAA199000091GF102991021011004501001001MA1999999097751MD1810011+9999REMSYN066AAXX  28031 59567 32462 20704 10264 20223 39775 40144 58001 82100;EQDQ01  00002PRCP99
0163595670999992000092806004+22020+121560FM-12+032599999V0200701N008012200019N0120001N1+02571+02131101311ADDAA199000091GF101991011011008001001001MA1999999097611MD1710141+9999REMSYN066AAXX  28061 59567 32562 10708 10257 20213 39761 40131 57014 81100;EQDQ01  00002PRCP99
0163595670999992000092809004+22020+121560FM-12+032599999V0200601N003012200019N0120001N1+02421+02071101311ADDAA199000091GF101991001001999999001011MA1999999097591MD1510021+9999REMSYN066AAXX  28091 59567 32962 10603 10242 20207 39759 40131 55002 80001;EQDQ01  00002PRCP99
0163595670999992000092812004+22020+121560FM-12+032599999V0200801N008012200019N0120001N1+02371+02081101471ADDAA199000091GF101991011011008001001001MA1999999097741MD1210151+9999REMSYN066AAXX  28121 59567 32562 10808 10237 20208 39774 40147 52015 81100;EQDQ01  00002PRCP99
0163595670999992000092821004+22020+121560FM-12+032599999V0200401N003012200019N0150001N1+02301+02051101341ADDAA199000091GF101991011021008001001001MA1999999097611MD1610101+9999REMSYN066AAXX  28211 59567 32565 10403 10230 20205 39761 40134 56010 81200;EQDQ01  00002PRCP99
0163595670999992000092900004+22020+121560FM-12+032599999V0200401N005010042019N0150001N1+02511+02231101481ADDAA199000091GF106991061041004501001001MA1999999097771MD1310161+9999REMSYN066AAXX  29001 59567 32465 60405 10251 20223 39777 40148 53016 86400;EQDQ01  00002PRCP99
0163595670999992000092903004+22020+121560FM-12+032599999V0200801N005012200019N0150001N1+02591+02201101471ADDAA199000091GF102991021021008001001011MA1999999097771MD1410001+9999REMSYN066AAXX  29031 59567 32565 20805 10259 20220 39777 40147 54000 82201;EQDQ01  00002PRCP99
0163595670999992000092906004+22020+121560FM-12+032599999V0200701N007012200019N0180001N1+02571+02101101351ADDAA199000091GF101991011011008001001001MA1999999097651MD1710121+9999REMSYN066AAXX  29061 59567 32568 10707 10257 20210 39765 40135 57012 81100;EQDQ01  00002PRCP99
0163595670999992000092909004+22020+121560FM-12+032599999V0200601N003012200019N0180001N1+02441+02081101321ADDAA199000091GF101991011011008001001001MA1999999097611MD1510041+9999REMSYN066AAXX  29091 59567 32568 10603 10244 20208 39761 40132 55004 81100;EQDQ01  00002PRCP99
0163595670999992000092912004+22020+121560FM-12+032599999V0200701N008012200019N0100001N1+02361+02091101501ADDAA199000091GF102991021011008001001001MA1999999097771MD1210161+9999REMSYN066AAXX  29121 59567 32560 20708 10236 20209 39777 40150 52016 82100;EQDQ01  00002PRCP99
0163595670999992000092921004+22020+121560FM-12+032599999V0200701N005012200019N0100001N1+02321+02121101411ADDAA199000091GF101991011011008001001001MA1999999097681MD1510021+9999REMSYN066AAXX  29211 59567 32560 10705 10232 20212 39768 40141 55002 81100;EQDQ01  00002PRCP99
0163595670999992000093000004+22020+121560FM-12+032599999V0200301N003012200019N0120001N1+02441+02231101581ADDAA199000091GF102991021041004501001001MA1999999097861MD1210181+9999REMSYN066AAXX  30001 59567 32462 20303 10244 20223 39786 40158 52018 82400;EQDQ01  00002PRCP99
0163595670999992000093003004+22020+121560FM-12+032599999V0200701N004010042019N0120001N1+02571+02211101591ADDAA199000091GF105991051041004501001001MA1999999097881MD1010021+9999REMSYN066AAXX  30031 59567 32462 50704 10257 20221 39788 40159 50002 85400;EQDQ01  00002PRCP99
0163595670999992000093006004+22020+121560FM-12+032599999V0200801N009012200019N0120001N1+02571+02201101441ADDAA199000091GF101991011021008001001001MA1999999097741MD1810141+9999REMSYN066AAXX  30061 59567 32562 10809 10257 20220 39774 40144 58014 81200;EQDQ01  00002PRCP99
0163595670999992000093009004+22020+121560FM-12+032599999V0200501N005012200019N0100001N1+02501+02171101411ADDAA199000091GF102991011011008001001011MA1999999097701MD1510041+9999REMSYN066AAXX  30091 59567 32560 20505 10250 20217 39770 40141 55004 81101;EQDQ01  00002PRCP99
0163595670999992000093012004+22020+121560FM-12+032599999V0200601N010012200019N0100001N1+02391+02181101591ADDAA199000091GF101991011011008001001001MA1999999097861MD1310161+9999REMSYN066AAXX  30121 59567 32560 10610 10239 20218 39786 40159 53016 81100;EQDQ01  00002PRCP99
0163595670999992000093021004+22020+121560FM-12+032599999V0200301N003010042019N0100001N1+02401+02241101531ADDAA199000091GF106991061041004501001001MA1999999097801MD1810011+9999REMSYN066AAXX  30211 59567 32460 60303 10240 20224 39780 40153 58001 86400;EQDQ01  00002PRCP99
0163595670999992000100100004+22020+121560FM-12+032599999V0200401N008012200019N0120001N1+02501+02301101591ADDAA199000091GF103991031021002501001001MA1999999097871MD1310071+9999REMSYN066AAXX  01001 59567 32362 30408 10250 20230 39787 40159 53007 83200;EQDQ01  00002PRCP99
0163595670999992000100103004+22020+121560FM-12+032599999V0200401N005010042019N0120001N1+02731+02361101561ADDAA199000091GF105991051041004501001001MA1999999097871MD1410001+9999REMSYN066AAXX  01031 59567 32462 50405 10273 20236 39787 40156 54000 85400;EQDQ01  00002PRCP99
0163595670999992000100106004+22020+121560FM-12+032599999V0200601N011012200019N0150001N1+02671+02291101361ADDAA199000091GF102991011011008001011001MA1999999097671MD1710201+9999REMSYN066AAXX  01061 59567 32565 20611 10267 20229 39767 40136 57020 81110;EQDQ01  00002PRCP99
0163595670999992000100109004+22020+121560FM-12+032599999V0200501N005010021019N0150001N1+02601+02331101351ADDAA199000091GF105991051041002501001001MA1999999097651MD1510021+9999REMSYN066AAXX  01091 59567 32365 50505 10260 20233 39765 40135 55002 85400;EQDQ01  00002PRCP99
0163595670999992000100112004+22020+121560FM-12+032599999V0200401N008010021019N0100001N1+02461+02311101541ADDAA199000091GF105991051041002501001001MA1999999097821MD1210171+9999REMSYN066AAXX  01121 59567 32360 50408 10246 20231 39782 40154 52017 85400;EQDQ01  00002PRCP99
0178595670999992000100121004+22020+121560FM-12+032599999V0200701N004012200019N0100001N1+02391+02361101341ADDAA100004191AY181031AY221031GF102991021021001501001001MA1999999097621MD1510061+9999MW1021REMSYN078AAXX  01211 59567 11260 20704 10239 20236 39762 40134 55006 6004/ 70282 82200;
0178595670999992000100200004+22020+121560FM-12+032599999V0200901N003010360019N0150001N1+02511+02411101451ADDAA112004191AY181061AY221061GF105991031021001501031001MA1999999097741MD1210121+9999MW1031REMSYN078AAXX  02001 59567 11265 50903 10251 20241 39774 40145 52012 60042 70382 83230;
0163595670999992000100203004+22020+121560FM-12+032599999V0200601N002010021019N0250001N1+02621+02511101341ADDAA199000091GF106991061041002501001001MA1999999097651MD1810091+9999REMSYN066AAXX  02031 59567 32375 60602 10262 20251 39765 40134 58009 86400;EQDQ01  00002PRCP99
0163595670999992000100206004+22020+121560FM-12+032599999V0202201N006012200019N0280001N1+02891+02601101081ADDAA199000091GF103991031021002501001001MA1999999097431MD1710221+9999REMSYN066AAXX  02061 59567 32378 32206 10289 20260 39743 40108 57022 83200;EQDQ01  00002PRCP99
0163595670999992000100209004+22020+121560FM-12+032599999V0202201N003010021019N0300001N1+02591+02371101161ADDAA199000091GF105991051021002501001001MA1999999097471MD1310041+9999REMSYN066AAXX  02091 59567 32380 52203 10259 20237 39747 40116 53004 85200;EQDQ01  00002PRCP99
0163595670999992000100212004+22020+121560FM-12+032599999V0202101N005012200019N0100001N1+02481+02371101321ADDAA199000091GF103991031021002501001001MA1999999097611MD1310141+9999REMSYN066AAXX  02121 59567 32360 32105 10248 20237 39761 40132 53014 83200;EQDQ01  00002PRCP99
0163595670999992000100221004+22020+121560FM-12+032599999V0202401N004010012019N0100001N1+02471+02421101161ADDAA199000091GF106991061041001501001001MA1999999097461MD1710061+9999REMSYN066AAXX  02211 59567 32260 62404 10247 20242 39746 40116 57006 86400;EQDQ01  00002PRCP99
0178595670999992000100300004+22020+121560FM-12+032599999V0202201N007010012019N0200001N1+02511+02501101291ADDAA112010991AY181061AY221061GF106991061041001501001001MA1999999097591MD1110131+9999MW1031REMSYN078AAXX  03001 59567 11270 62207 10251 20250 39759 40129 51013 60112 70382 86400;
0163595670999992000100303004+22020+121560FM-12+032599999V0202601N003010360019N0200001N1+02801+02611101201ADDAA199000091GF106991031021002501031011MA1999999097531MD1810061+9999REMSYN066AAXX  03031 59567 32370 62603 10280 20261 39753 40120 58006 83231;EQDQ01  00002PRCP99
0163595670999992000100306004+22020+121560FM-12+032599999V0202601N006012200019N0200001N1+02861+02601100961ADDAA199000091GF104991021021001501031001MA1999999097311MD1710221+9999REMSYN066AAXX  03061 59567 32270 42606 10286 20260 39731 40096 57022 82230;EQDQ01  00002PRCP99
0163595670999992000100309004+22020+121560FM-12+032599999V0202501N005010360019N0200001N1+02641+02491100971ADDAA199000091GF105991031021002501031001MA1999999097291MD1510021+9999REMSYN066AAXX  03091 59567 32370 52505 10264 20249 39729 40097 55002 83230;EQDQ01  00002PRCP99
0163595670999992000100312004+22020+121560FM-12+032599999V0202401N007012200019N0100001N1+02511+02411101201ADDAA199000091GF102991021021002501001001MA1999999097501MD1210211+9999REMSYN066AAXX  03121 59567 32360 22407 10251 20241 39750 40120 52021 82200;EQDQ01  00002PRCP99
0178595670999992000100321004+22020+121560FM-12+032599999V0200301N002010021019N0100001N1+02331+02331101211ADDAA100023991AY181031AY221031GF108991081051002501999999MA1999999097491MD1310051+9999MW1251REMSYN078AAXX  03211 59567 11360 80302 10233 20233 39749 40121 53005 6024/ 72582 885//;
0178595670999992000100400004+22020+121560FM-12+032599999V0200501N004010042019N0280001N1+02431+02431101351ADDAA112027991AY181061AY221061GF107991071051004501999999MA1999999097631MD1210141+9999MW1021REMSYN078AAXX  04001 59567 11478 70504 10243 20243 39763 40135 52014 60282 70282 875//;
0144595670999992000100403004+22020+121560FM-12+032599999V0200601N006010012019N0200001N1+02451+02391101361ADDAA199000021GF107991051051001501031999MA1999999097651MD1010021+9999REMSYN066AAXX  04031 59567 32270 70606 10245 20239 39765 40136 50002 8553/;
0144595670999992000100406004+22020+121560FM-12+032599999V0200901N007010042019N0250001N1+02561+02421101151ADDAA199000021GF107991051051004501031011MA1999999097461MD1810191+9999REMSYN066AAXX  04061 59567 32475 70907 10256 20242 39746 40115 58019 85531;
0144595670999992000100409004+22020+121560FM-12+032599999V0200801N002012200019N0180001N1+02491+02331101161ADDAA199000021GF104991011011008001001081MA1999999097461MD1410001+9999REMSYN066AAXX  04091 59567 32568 40802 10249 20233 39746 40116 54000 81108;
0163595670999992000100412004+22020+121560FM-12+032599999V0200601N010010021019N0100001N1+02461+02381101311ADDAA199000091GF107991071051002501999999MA1999999097601MD1110141+9999REMSYN066AAXX  04121 59567 32360 70610 10246 20238 39760 40131 51014 875//;EQDQ01  00002PRCP99
0163595670999992000100421004+22020+121560FM-12+032599999V0200501N005010042019N0100001N1+02431+02291101341ADDAA199000091GF106991061051004501001001MA1999999097621MD1310031+9999REMSYN066AAXX  04211 59567 32460 60505 10243 20229 39762 40134 53003 86500;EQDQ01  00002PRCP99
0163595670999992000100503004+22020+121560FM-12+032599999V0200501N004012200019N0250001N1+02801+02481101341ADDAA199000091GF102991021021008001031001MA1999999097671MD1810111+9999REMSYN066AAXX  05031 59567 32575 20504 10280 20248 39767 40134 58011 82230;EQDQ01  00002PRCP99
0163595670999992000100506004+22020+121560FM-12+032599999V0200501N008010360019N0250001N1+02691+02451101231ADDAA199000091GF105991021021004501091001MA1999999097551MD1710121+9999REMSYN066AAXX  05061 59567 32475 50508 10269 20245 39755 40123 57012 82290;EQDQ01  00002PRCP99
0163595670999992000100509004+22020+121560FM-12+032599999V0200801N005010360019N0250001N1+02551+02321101221ADDAA199000091GF106991011021004501031081MA1999999097521MD1510031+9999REMSYN066AAXX  05091 59567 32475 60805 10255 20232 39752 40122 55003 81238;EQDQ01  00002PRCP99
0163595670999992000100512004+22020+121560FM-12+032599999V0200801N010010042019N0100001N1+02531+02351101391ADDAA199000091GF106991061041004501001001MA1999999097681MD1210161+9999REMSYN066AAXX  05121 59567 32460 60810 10253 20235 39768 40139 52016 86400;EQDQ01  00002PRCP99
0178595670999992000100521004+22020+121560FM-12+032599999V0200501N005012200019N0100001N1+02431+02391101301ADDAA100004191AY181031AY221031GF104991021021001501011001MA1999999097591MD1510071+9999MW1021REMSYN078AAXX  05211 59567 11260 40505 10243 20239 39759 40130 55007 6004/ 70282 82210;
0178595670999992000100600004+22020+121560FM-12+032599999V0200701N008012200019N0200001N1+02621+02511101451ADDAA112004191AY181061AY211061GF103991031021004501001001MA1999999097751MD1110161+9999MW1021REMSYN078AAXX  06001 59567 11470 30708 10262 20251 39775 40145 51016 60042 70281 83200;
0178595670999992000100603004+22020+121560FM-12+032599999V0200601N005010042019N0200001N1+02651+02451101431ADDAA100000591AY181031AY211031GF105991051021004501001001MA1999999097741MD1810011+9999MW1021REMSYN078AAXX  06031 59567 11470 50605 10265 20245 39774 40143 58001 6995/ 70281 85200;
0178595670999992000100606004+22020+121560FM-12+032599999V0200701N005012200019N0300001N1+02641+02371101231ADDAA106000591AY181061AY211061GF102991021021004501001001MA1999999097541MD1710201+9999MW1021REMSYN078AAXX  06061 59567 11480 20705 10264 20237 39754 40123 57020 69951 70281 82200;
0150595670999992000100609004+22020+121560FM-12+032599999V0200601N005012200019N0300001N1+02521+02281101211ADDAA100000591GF102991021011004501001001MA1999999097511MD1510031+9999REMSYN072AAXX  06091 59567 12480 20605 10252 20228 39751 40121 55003 6995/ 82100;
0150595670999992000100612004+22020+121560FM-12+032599999V0200601N009012200019N0200001N1+02481+02281101381ADDAA112000591GF102991021011004501001001MA1999999097671MD1110161+9999REMSYN072AAXX  06121 59567 12470 20609 10248 20228 39767 40138 51016 69952 82100;
0163595670999992000100621004+22020+121560FM-12+032599999V0200501N006012200019N0100001N1+02431+02291101221ADDAA199000091GF101991011011004501001001MA1999999097511MD1510011+9999REMSYN066AAXX  06211 59567 32460 10506 10243 20229 39751 40122 55001 81100;EQDQ01  00002PRCP99
0163595670999992000100700004+22020+121560FM-12+032599999V0200201N002010012019N0100001N1+02401+02341101421ADDAA199000091GF107991071051001501999999MA1999999097701MD1310191+9999REMSYN066AAXX  07001 59567 32260 70202 10240 20234 39770 40142 53019 875//;EQDQ01  00002PRCP99
0178595670999992000100703004+22020+121560FM-12+032599999V0200401N006010012019N0150001N1+02621+02461101231ADDAA100029091AY161031AY221031GF106991061051001501001001MA1999999097541MD1810161+9999MW1021REMSYN078AAXX  07031 59567 11265 60406 10262 20246 39754 40123 58016 6029/ 70262 86500;
0178595670999992000100706004+22020+121560FM-12+032599999V0200501N008010042019N0200001N1+02631+02391101061ADDAA106029091AY161061AY221061GF106991061051004501001001MA1999999097381MD1810161+9999MW1021REMSYN078AAXX  07061 59567 11470 60508 10263 20239 39738 40106 58016 60291 70262 86500;
0150595670999992000100709004+22020+121560FM-12+032599999V0200601N004012200019N0200001N1+02531+02331101071ADDAA100029091GF104991041021004501001001MA1999999097381MD1410001+9999REMSYN072AAXX  07091 59567 12470 40604 10253 20233 39738 40107 54000 6029/ 84200;
0178595670999992000100712004+22020+121560FM-12+032599999V0200601N007010042019N0200001N1+02471+02401101261ADDAA112030091AY161061AY221061GF107991071051004501999999MA1999999097551MD1210171+9999MW1211REMSYN078AAXX  07121 59567 11470 70607 10247 20240 39755 40126 52017 60302 72162 875//;
0178595670999992000100721004+22020+121560FM-12+032599999V0200501N005010012019N0200001N1+02371+02311101061ADDAA100005191AY161031AY221031GF107991071051001501999999MA1999999097351MD1510011+9999MW1211REMSYN078AAXX  07211 59567 11270 70505 10237 20231 39735 40106 55001 6005/ 72162 875//;
0178595670999992000100800004+22020+121560FM-12+032599999V0200401N004012200019N0200001N1+02501+02401101151ADDAA112005191AY161061AY221061GF105991011021004501001011MA1999999097451MD1110101+9999MW1021REMSYN078AAXX  08001 59567 11470 50404 10250 20240 39745 40115 51010 60052 70262 81201;
0144595670999992000100803004+22020+121560FM-12+032599999V0200401N004012200019N0200001N1+02671+02481101091ADDAA199000021GF106991021021004501001011MA1999999097411MD1810041+9999REMSYN066AAXX  08031 59567 32470 60404 10267 20248 39741 40109 58004 82201;
0144595670999992000100806004+22020+121560FM-12+032599999V0200401N013012200019N0300001N1+02711+02421100811ADDAA199000021GF102991021021004501001001MA1999999097151MD1710261+9999REMSYN066AAXX  08061 59567 32480 20413 10271 20242 39715 40081 57026 82200;
0144595670999992000100809004+22020+121560FM-12+032599999V0200601N005010042019N0200001N1+02511+02321100891ADDAA199000021GF105991051041004501001001MA1999999097201MD1310051+9999REMSYN066AAXX  08091 59567 32470 50605 10251 20232 39720 40089 53005 85400;
0163595670999992000100812004+22020+121560FM-12+032599999V0200401N013010042019N0200001N1+02501+02271101051ADDAA199000091GF105991051041004501001001MA1999999097351MD1210151+9999REMSYN066AAXX  08121 59567 32470 50413 10250 20227 39735 40105 52015 85400;EQDQ01  00002PRCP99
0163595670999992000100821004+22020+121560FM-12+032599999V0200501N016012200019N0100001N1+02431+02341100901ADDAA199000091GF101991011011004501001001MA1999999097201MD1510091+9999REMSYN066AAXX  08211 59567 32460 10516 10243 20234 39720 40090 55009 81100;EQDQ01  00002PRCP99
0178595670999992000100900004+22020+121560FM-12+032599999V0200701N018010012019N0100001N1+02291+02291101111ADDAA112004191AY161061AY221061GF108991081051001501999999MA1999999097391MD1110191+9999MW1621REMSYN078AAXX  09001 59567 11260 80718 10229 20229 39739 40111 51019 60042 76262 885//;
0178595670999992000100903004+22020+121560FM-12+032599999V0200501N005010042019N0200001N1+02591+02471101131ADDAA100000591AY161031AY221031GF107991071051004501999999MA1999999097441MD1010051+9999MW1021REMSYN078AAXX  09031 59567 11470 70505 10259 20247 39744 40113 50005 6995/ 70262 875//;
0178595670999992000100906004+22020+121560FM-12+032599999V0200801N022010012019N0100001N1+02311+02231100921ADDAA106002091AY161061AY221061GF108991081051001501999999MA1999999097201MD1810241+9999MW1021REMSYN078AAXX  09061 59567 11260 80822 10231 20223 39720 40092 58024 60021 70262 885//;
0178595670999992000100909004+22020+121560FM-12+032599999V0200701N006010021019N0150001N1+02371+02371101031ADDAA100011991AY161031AY221031GF107991071051002501999999MA1999999097321MD1210121+9999MW1021REMSYN078AAXX  09091 59567 11365 70706 10237 20237 39732 40103 52012 6012/ 70262 875//;
0178595670999992000100912004+22020+121560FM-12+032599999V0200201N006010012019N0100001N1+02401+02401101141ADDAA112013091AY161061AY221061GF108991081051001501999999MA1999999097431MD1310111+9999MW1211REMSYN078AAXX  09121 59567 11260 80206 10240 20240 39743 40114 53011 60132 72162 885//;
0144595670999992000100921004+22020+121560FM-12+032599999V0200301N004010012019N0100001N1+02441+02371101011ADDAA199000021GF108991081051001501999999MA1999999097311MD1410001+9999REMSYN066AAXX  09211 59567 32260 80304 10244 20237 39731 40101 54000 885//;
0178595670999992000101000004+22020+121560FM-12+032599999V0200501N012010012019N0150001N1+02591+02431101201ADDAA112001091AY161061AY221061GF107991071051001501999999MA1999999097511MD1210201+9999MW1021REMSYN078AAXX  10001 59567 11265 70512 10259 20243 39751 40120 52020 60012 70262 875//;
0163595670999992000101003004+22020+121560FM-12+032599999V0200501N005010042019N0200001N1+02651+02491101211ADDAA199000091GF106991061041004501001001MA1999999097531MD1010021+9999REMSYN066AAXX  10031 59567 32470 60505 10265 20249 39753 40121 50002 86400;EQDQ01  00002PRCP99
0163595670999992000101006004+22020+121560FM-12+032599999V0200401N009010042019N0200001N1+02671+02411101061ADDAA199000091GF105991051021004501001001MA1999999097381MD1710151+9999REMSYN066AAXX  10061 59567 32470 50409 10267 20241 39738 40106 57015 85200;EQDQ01  00002PRCP99
0163595670999992000101009004+22020+121560FM-12+032599999V0200401N006010042019N0150001N1+02551+02341101071ADDAA199000091GF105991051021004501001001MA1999999097381MD1510001+9999REMSYN066AAXX  10091 59567 32465 50406 10255 20234 39738 40107 55000 85200;EQDQ01  00002PRCP99
0163595670999992000101012004+22020+121560FM-12+032599999V0200401N008010042019N0100001N1+02531+02351101291ADDAA199000091GF105991051041004501001001MA1999999097591MD1310211+9999REMSYN066AAXX  10121 59567 32460 50408 10253 20235 39759 40129 53021 85400;EQDQ01  00002PRCP99
0163595670999992000101021004+22020+121560FM-12+032599999V0200701N004012200019N0100001N1+02491+02361101141ADDAA199000091GF102991021041004501001001MA1999999097441MD1510021+9999REMSYN066AAXX  10211 59567 32460 20704 10249 20236 39744 40114 55002 82400;EQDQ01  00002PRCP99
0163595670999992000101100004+22020+121560FM-12+032599999V0200601N011010042019N0150001N1+02581+02391101301ADDAA199000091GF107991071041004501999999MA1999999097601MD1110161+9999REMSYN066AAXX  11001 59567 32465 70611 10258 20239 39760 40130 51016 874//;EQDQ01  00002PRCP99
0178595670999992000101103004+22020+121560FM-12+032599999V0200601N005010042019N0150001N1+02721+02481101271ADDAA100000591AY161031AY221031GF107991071041004501999999MA1999999097591MD1810011+9999MW1021REMSYN078AAXX  11031 59567 11465 70605 10272 20248 39759 40127 58001 6995/ 70262 874//;
0178595670999992000101106004+22020+121560FM-12+032599999V0200601N012010042019N0100001N1+02581+02361101081ADDAA106000591AY161061AY221061GF107991071041004501999999MA1999999097391MD1710201+9999MW1021REMSYN078AAXX  11061 59567 11460 70612 10258 20236 39739 40108 57020 69951 70262 874//;
0150595670999992000101109004+22020+121560FM-12+032599999V0200601N006010042019N0100001N1+02541+02351101091ADDAA100000591GF108991081051004501999999MA1999999097401MD1010011+9999REMSYN072AAXX  11091 59567 12460 80606 10254 20235 39740 40109 50001 6995/ 885//;
0150595670999992000101112004+22020+121560FM-12+032599999V0200601N012010042019N0100001N1+02501+02381101201ADDAA112000591GF107991071051004501999999MA1999999097501MD1310101+9999REMSYN072AAXX  11121 59567 12460 70612 10250 20238 39750 40120 53010 69952 875//;
0178595670999992000101121004+22020+121560FM-12+032599999V0200501N005010012019N0100001N1+02341+02341101131ADDAA100015091AY161031AY221031GF108991081051001501999999MA1999999097411MD1310031+9999MW1631REMSYN078AAXX  11211 59567 11260 80505 10234 20234 39741 40113 53003 6015/ 76362 885//;
0178595670999992000101200004+22020+121560FM-12+032599999V0200801N022010012019N0050001N1+02291+02291101301ADDAA112025991AY161061AY221061GF108991081071001501999999MA1999999097571MD1210161+9999MW1621REMSYN078AAXX  12001 59567 11250 80822 10229 20229 39757 40130 52016 60262 76262 887//;
0178595670999992000101203004+22020+121560FM-12+032599999V0200801N009010012019N0100001N1+02381+02381101221ADDAA100014091AY161031AY221031GF108991081051001501999999MA1999999097501MD1810071+9999MW1021REMSYN078AAXX  12031 59567 11260 80809 10238 20238 39750 40122 58007 6014/ 70262 885//;
0178595670999992000101206004+22020+121560FM-12+032599999V0200401N010010012019N0100001N1+02481+02391101061ADDAA106014091AY161061AY221061GF108991081051001501999999MA1999999097361MD1710141+9999MW1021REMSYN078AAXX  12061 59567 11260 80410 10248 20239 39736 40106 57014 60141 70262 885//;
0178595670999992000101209004+22020+121560FM-12+032599999V0200401N010010012019N0100001N1+02351+02321101011ADDAA100015091AY161031AY221031GF108991081051001501999999MA1999999097301MD1510061+9999MW1211REMSYN078AAXX  12091 59567 11260 80410 10235 20232 39730 40101 55006 6015/ 72162 885//;
0178595670999992000101212004+22020+121560FM-12+032599999V0200501N027010012019N0050001N1+02201+02141101191ADDAA112018091AY161061AY221061GF108991081071001501999999MA1999999097451MD1310151+9999MW1601REMSYN078AAXX  12121 59567 11250 80527 10220 20214 39745 40119 53015 60182 76062 887//;
0150595670999992000101221004+22020+121560FM-12+032599999V0200401N010010042019N0100001N1+02381+02061101001ADDAA100023991GF106991061051004501001001MA1999999097291MD1510051+9999REMSYN072AAXX  12211 59567 12460 60410 10238 20206 39729 40100 55005 6024/ 86500;
0150595670999992000101300004+22020+121560FM-12+032599999V0200401N017010042019N0100001N1+02451+02161101161ADDAA112023991GF107991071051004501999999MA1999999097451MD1110161+9999REMSYN072AAXX  13001 59567 12460 70417 10245 20216 39745 40116 51016 60242 875//;
0163595670999992000101303004+22020+121560FM-12+032599999V0200401N010010042019N0100001N1+02521+02141101161ADDAA199000091GF107991071051004501999999MA1999999097461MD1010011+9999REMSYN066AAXX  13031 59567 32460 70410 10252 20214 39746 40116 50001 875//;EQDQ01  00002PRCP99
0163595670999992000101306004+22020+121560FM-12+032599999V0200401N018010042019N0100001N1+02521+02041100911ADDAA199000091GF106991061051004501001001MA1999999097221MD1610241+9999REMSYN066AAXX  13061 59567 32460 60418 10252 20204 39722 40091 56024 86500;EQDQ01  00002PRCP99
0163595670999992000101309004+22020+121560FM-12+032599999V0200301N008010042019N0100001N1+02461+02041100961ADDAA199000091GF108991081051004501999999MA1999999097261MD1310041+9999REMSYN066AAXX  13091 59567 32460 80308 10246 20204 39726 40096 53004 885//;EQDQ01  00002PRCP99
0163595670999992000101312004+22020+121560FM-12+032599999V0200601N016010042019N0100001N1+02461+02171101151ADDAA199000091GF108991081051004501999999MA1999999097441MD1110181+9999REMSYN066AAXX  13121 59567 32460 80616 10246 20217 39744 40115 51018 885//;EQDQ01  00002PRCP99
0163595670999992000101321004+22020+121560FM-12+032599999V0200601N009010042019N0100001N1+02431+02231101061ADDAA199000091GF108991081051004501999999MA1999999097351MD1510041+9999REMSYN066AAXX  13211 59567 32460 80609 10243 20223 39735 40106 55004 885//;EQDQ01  00002PRCP99
0163595670999992000101400004+22020+121560FM-12+032599999V0200501N017010042019N0100001N1+02421+02271101211ADDAA199000091GF108991081051004501999999MA1999999097501MD1210151+9999REMSYN066AAXX  14001 59567 32460 80517 10242 20227 39750 40121 52015 885//;EQDQ01  00002PRCP99
0178595670999992000101403004+22020+121560FM-12+032599999V0200501N012010021019N0080001N1+02261+02211101211ADDAA100005191AY161031AY221031GF108991081051002501999999MA1999999097481MD1810021+9999MW1601REMSYN078AAXX  14031 59567 11358 80512 10226 20221 39748 40121 58002 6005/ 76062 885//;
0178595670999992000101406004+22020+121560FM-12+032599999V0200501N015010042019N0100001N1+02301+02231101081ADDAA106005191AY161061AY221061GF108991081051004501999999MA1999999097361MD1710121+9999MW1021REMSYN078AAXX  14061 59567 11460 80515 10230 20223 39736 40108 57012 60051 70262 885//;
0150595670999992000101409004+22020+121560FM-12+032599999V0200501N010010042019N0100001N1+02441+02221101111ADDAA100005191GF108991081051004501999999MA1999999097401MD1310041+9999REMSYN072AAXX  14091 59567 12460 80510 10244 20222 39740 40111 53004 6005/ 885//;
0150595670999992000101412004+22020+121560FM-12+032599999V0200501N015010042019N0100001N1+02441+02151101331ADDAA112005191GF105991051051004501001001MA1999999097621MD1110221+9999REMSYN072AAXX  14121 59567 12460 50515 10244 20215 39762 40133 51022 60052 85500;
0163595670999992000101421004+22020+121560FM-12+032599999V0200401N008012200019N0100001N1+02411+02101101331ADDAA199000091GF103991031051004501001001MA1999999097611MD1310011+9999REMSYN066AAXX  14211 59567 32460 30408 10241 20210 39761 40133 53001 83500;EQDQ01  00002PRCP99
0163595670999992000101500004+22020+121560FM-12+032599999V0200401N016010042019N0100001N1+02441+02071101491ADDAA199000091GF107991071051004501999999MA1999999097771MD1210161+9999REMSYN066AAXX  15001 59567 32460 70416 10244 20207 39777 40149 52016 875//;EQDQ01  00002PRCP99
0163595670999992000101503004+22020+121560FM-12+032599999V0200401N007010360019N0100001N1+02511+02161101501ADDAA199000091GF107991041051004501031001MA1999999097791MD1010021+9999REMSYN066AAXX  15031 59567 32460 70407 10251 20216 39779 40150 50002 84530;EQDQ01  00002PRCP99
0163595670999992000101506004+22020+121560FM-12+032599999V0200401N014010042019N0100001N1+02521+02141101291ADDAA199000091GF106991061051004501001001MA1999999097591MD1710201+9999REMSYN066AAXX  15061 59567 32460 60414 10252 20214 39759 40129 57020 86500;EQDQ01  00002PRCP99
0163595670999992000101509004+22020+121560FM-12+032599999V0200401N006010042019N0100001N1+02421+02121101341ADDAA199000091GF107991071051004501999999MA1999999097621MD1310031+9999REMSYN066AAXX  15091 59567 32460 70406 10242 20212 39762 40134 53003 875//;EQDQ01  00002PRCP99
0178595670999992000101512004+22020+121560FM-12+032599999V0200401N020010042019N0100001N1+02331+02201101451ADDAA112000591AY161061AY221061GF108991081051004501999999MA1999999097721MD1110101+9999MW1021REMSYN078AAXX  15121 59567 11460 80420 10233 20220 39772 40145 51010 69952 70262 885//;
0178595670999992000101521004+22020+121560FM-12+032599999V0200401N010010042019N0100001N1+02311+02151101281ADDAA100001091AY161031AY221031GF108991081051004501999999MA1999999097551MD1510081+9999MW1211REMSYN078AAXX  15211 59567 11460 80410 10231 20215 39755 40128 55008 6001/ 72162 885//;
0178595670999992000101600004+22020+121560FM-12+032599999V0200401N015010042019N0100001N1+02341+02211101431ADDAA112001091AY161061AY221061GF107991071051004501999999MA1999999097701MD1310151+9999MW1021REMSYN078AAXX  16001 59567 11460 70415 10234 20221 39770 40143 53015 60012 70262 875//;
0178595670999992000102000004+22020+121560FM-12+032599999V0200501N013010012019N0200001N1+02461+02381101381ADDAA112002091AY161061AY221061GF107991071051001501999999MA1999999097671MD1110171+9999MW1021REMSYN078AAXX  20001 59567 11270 70513 10246 20238 39767 40138 51017 60022 70262 875//;
0178595670999992000102003004+22020+121560FM-12+032599999V0200501N002010012019N0200001N1+02511+02471101431ADDAA100002091AY161031AY221031GF107991071051001501999999MA1999999097721MD1010051+9999MW1211REMSYN078AAXX  20031 59567 11270 70502 10251 20247 39772 40143 50005 6002/ 72162 875//;
0178595670999992000102006004+22020+121560FM-12+032599999V0200501N004010012019N0100001N1+02391+02391101311ADDAA100010991AY161061AY221061GF107991071051001501999999MA1999999097591MD1310051+9999MW1021REMSYN078AAXX  20061 59567 11260 70504 10239 20239 39759 40131 53005 6011/ 70262 875//;
0178595670999992000102012004+22020+121560FM-12+032599999V0200401N012010012019N0100001N1+02391+02321101501ADDAA112011991AY161061AY221061GF108991081051001501999999MA1999999097771MD1110181+9999MW1021REMSYN078AAXX  20121 59567 11260 80412 10239 20232 39777 40150 51018 60122 70262 885//;
0150595670999992000102021004+22020+121560FM-12+032599999V0200401N006010012019N0100001N1+02431+02411101361ADDAA100000591GF108991081051001501999999MA1999999097641MD1310021+9999REMSYN072AAXX  20211 59567 12260 80406 10243 20241 39764 40136 53002 6995/ 885//;
0178595670999992000102100004+22020+121560FM-12+032599999V0200501N006010006019N0100001N1+02431+02431101481ADDAA112003091AY161061AY221061GF108991081051000751999999MA1999999097761MD1210121+9999MW1211REMSYN078AAXX  21001 59567 11160 80506 10243 20243 39776 40148 52012 60032 72162 885//;
0178595670999992000102103004+22020+121560FM-12+032599999V0201201N003010006019N0050001N1+02541+02541101451ADDAA100007191AY161031AY221031GF108991081051000751999999MA1999999097741MD1810021+9999MW1211REMSYN078AAXX  21031 59567 11150 81203 10254 20254 39774 40145 58002 6007/ 72162 885//;
0178595670999992000102106004+22020+121560FM-12+032599999V0200501N011010006019N0050001N1+02461+02461101241ADDAA106008991AY161061AY221061GF108991081051000751999999MA1999999097531MD1710211+9999MW1101REMSYN078AAXX  21061 59567 11150 80511 10246 20246 39753 40124 57021 60091 71062 885//;
0178595670999992000102109004+22020+121560FM-12+032599999V0200601N009010006019N0050001N1+02421+02381101181ADDAA100008991AY121031AY221031GF108991081051000751999999MA1999999097471MD1510061+9999MW1101REMSYN078AAXX  21091 59567 11150 80609 10242 20238 39747 40118 55006 6009/ 71022 885//;
0178595670999992000102112004+22020+121560FM-12+032599999V0200601N008010006019N0050001N1+02441+02411101371ADDAA112008991AY121061AY221061GF108991081051000751999999MA1999999097651MD1210181+9999MW1101REMSYN078AAXX  21121 59567 11150 80608 10244 20241 39765 40137 52018 60092 71022 885//;
0178595670999992000102121004+22020+121560FM-12+032599999V0200901N004010006019N0050001N1+02401+02371101251ADDAA100000591AY121031AY221031GF108991081051000751999999MA1999999097531MD1510031+9999MW1101REMSYN078AAXX  21211 59567 11150 80904 10240 20237 39753 40125 55003 6995/ 71022 885//;
0150595670999992000102200004+22020+121560FM-12+032599999V0200701N011010012019N0200001N1+02441+02401101401ADDAA112000591GF107991071051001501999999MA1999999097681MD1210151+9999REMSYN072AAXX  22001 59567 12270 70711 10244 20240 39768 40140 52015 69952 875//;
0163595670999992000102203004+22020+121560FM-12+032599999V0200201N003010012019N0200001N1+02591+02511101281ADDAA199000091GF105991051021001501001001MA1999999097591MD1810091+9999REMSYN066AAXX  22031 59567 32270 50203 10259 20251 39759 40128 58009 85200;EQDQ01  00002PRCP99
0163595670999992000102206004+22020+121560FM-12+032599999V0200401N005010012019N0150001N1+02611+02501101041ADDAA199000091GF107991071041001501999999MA1999999097361MD1710231+9999REMSYN066AAXX  22061 59567 32265 70405 10261 20250 39736 40104 57023 874//;EQDQ01  00002PRCP99
0163595670999992000102209004+22020+121560FM-12+032599999V0200701N003012200019N0150001N1+02491+02401101081ADDAA199000091GF103991031021001501001001MA1999999097381MD1310021+9999REMSYN066AAXX  22091 59567 32265 30703 10249 20240 39738 40108 53002 83200;EQDQ01  00002PRCP99
0163595670999992000102212004+22020+121560FM-12+032599999V0200701N007010012019N0100001N1+02451+02391101271ADDAA199000091GF107991071041001501999999MA1999999097561MD1210181+9999REMSYN066AAXX  22121 59567 32260 70707 10245 20239 39756 40127 52018 874//;EQDQ01  00002PRCP99
0163595670999992000102221004+22020+121560FM-12+032599999V0200801N004012200019N0100001N1+02411+02301101131ADDAA199000091GF102991021051004501001001MA1999999097421MD1510001+9999REMSYN066AAXX  22211 59567 32460 20804 10241 20230 39742 40113 55000 82500;EQDQ01  00002PRCP99
0163595670999992000102300004+22020+121560FM-12+032599999V0200601N009010042019N0100001N1+02491+02351101301ADDAA199000091GF106991061051004501001001MA1999999097591MD1110171+9999REMSYN066AAXX  23001 59567 32460 60609 10249 20235 39759 40130 51017 86500;EQDQ01  00002PRCP99
0163595670999992000102303004+22020+121560FM-12+032599999V0200501N004010042019N0150001N1+02681+02471101171ADDAA199000091GF105991051051004501001001MA1999999097491MD1810101+9999REMSYN066AAXX  23031 59567 32465 50504 10268 20247 39749 40117 58010 85500;EQDQ01  00002PRCP99
0163595670999992000102306004+22020+121560FM-12+032599999V0200501N007012200019N0200001N1+02671+02431100911ADDAA199000091GF104991041051004501001001MA1999999097241MD1710251+9999REMSYN066AAXX  23061 59567 32470 40507 10267 20243 39724 40091 57025 84500;EQDQ01  00002PRCP99
0163595670999992000102309004+22020+121560FM-12+032599999V0200501N002012200019N0200001N1+02521+02341101051ADDAA199000091GF104991041041004501001001MA1999999097361MD1310121+9999REMSYN066AAXX  23091 59567 32470 40502 10252 20234 39736 40105 53012 84400;EQDQ01  00002PRCP99
0163595670999992000102312004+22020+121560FM-12+032599999V0200501N006012200019N0200001N1+02451+02291101241ADDAA199000091GF102991021021004501001001MA1999999097531MD1110171+9999REMSYN066AAXX  23121 59567 32470 20506 10245 20229 39753 40124 51017 82200;EQDQ01  00002PRCP99
0163595670999992000102321004+22020+121560FM-12+032599999V0200501N004010021019N0150001N1+02421+02321101161ADDAA199000091GF106991061051002501001001MA1999999097451MD1510011+9999REMSYN066AAXX  23211 59567 32365 60504 10242 20232 39745 40116 55001 86500;EQDQ01  00002PRCP99
0163595670999992000102400004+22020+121560FM-12+032599999V0200401N006010021019N0150001N1+02531+02391101261ADDAA199000091GF106991061051002501001001MA1999999097561MD1210111+9999REMSYN066AAXX  24001 59567 32365 60406 10253 20239 39756 40126 52011 86500;EQDQ01  00002PRCP99
0163595670999992000102406004+22020+121560FM-12+032599999V0200401N011010042019N0100001N1+02621+02441101041ADDAA199000091GF105991051021004501001001MA1999999097361MD1710221+9999REMSYN066AAXX  24061 59567 32460 50411 10262 20244 39736 40104 57022 85200;EQDQ01  00002PRCP99
0163595670999992000102409004+22020+121560FM-12+032599999V0200401N004012200019N0100001N1+02481+02301101131ADDAA199000091GF102991021021004501001001MA1999999097431MD1210071+9999REMSYN066AAXX  24091 59567 32460 20404 10248 20230 39743 40113 52007 82200;EQDQ01  00002PRCP99
0163595670999992000102412004+22020+121560FM-12+032599999V0200201N008010042019N0100001N1+02461+02301101241ADDAA199000091GF107991071051004501999999MA1999999097531MD1210101+9999REMSYN066AAXX  24121 59567 32460 70208 10246 20230 39753 40124 52010 875//;EQDQ01  00002PRCP99
0163595670999992000102418004+22020+121560FM-12+032599999V0200501N024010042019N0100001N1+02431+02301101081ADDAA199000091GF105991051051004501001001MA1999999097371MD1810151+9999REMSYN066AAXX  24181 59567 32460 50524 10243 20230 39737 40108 58015 85500;EQDQ01  00002PRCP99
0163595670999992000102421004+22020+121560FM-12+032599999V0200401N012012200019N0100001N1+02441+02311101041ADDAA199000091GF102991021051004501001001MA1999999097341MD1510031+9999REMSYN066AAXX  24211 59567 32460 20412 10244 20231 39734 40104 55003 82500;EQDQ01  00002PRCP99
0163595670999992000102500004+22020+121560FM-12+032599999V0200501N007010042019N0100001N1+02511+02351101241ADDAA199000091GF107991071051004501999999MA1999999097541MD1210201+9999REMSYN066AAXX  25001 59567 32460 70507 10251 20235 39754 40124 52020 875//;EQDQ01  00002PRCP99
0163595670999992000102503004+22020+121560FM-12+032599999V0200501N008010042019N0100001N1+02591+02381101241ADDAA199000091GF107991071051004501999999MA1999999097551MD1010011+9999REMSYN066AAXX  25031 59567 32460 70508 10259 20238 39755 40124 50001 875//;EQDQ01  00002PRCP99
0163595670999992000102506004+22020+121560FM-12+032599999V0200401N009012200019N0100001N1+02681+02441101061ADDAA199000091GF104991021021004501001011MA1999999097381MD1710171+9999REMSYN066AAXX  25061 59567 32460 40409 10268 20244 39738 40106 57017 82201;EQDQ01  00002PRCP99
0163595670999992000102509004+22020+121560FM-12+032599999V0200401N004010012019N0100001N1+02471+02361101191ADDAA199000091GF107991071051001501999999MA1999999097481MD1310101+9999REMSYN066AAXX  25091 59567 32260 70404 10247 20236 39748 40119 53010 875//;EQDQ01  00002PRCP99
0163595670999992000102512004+22020+121560FM-12+032599999V0200401N009010042019N0100001N1+02461+02331101361ADDAA199000091GF108991081051004501999999MA1999999097651MD1210171+9999REMSYN066AAXX  25121 59567 32460 80409 10246 20233 39765 40136 52017 885//;EQDQ01  00002PRCP99
0163595670999992000102518004+22020+121560FM-12+032599999V0200601N013010042019N0100001N1+02421+02341101241ADDAA199000091GF106991061051004501001001MA1999999097531MD1810161+9999REMSYN066AAXX  25181 59567 32460 60613 10242 20234 39753 40124 58016 86500;EQDQ01  00002PRCP99
0163595670999992000102521004+22020+121560FM-12+032599999V0200501N008010042019N0100001N1+02421+02331101311ADDAA199000091GF108991081051004501999999MA1999999097591MD1310061+9999REMSYN066AAXX  25211 59567 32460 80508 10242 20233 39759 40131 53006 885//;EQDQ01  00002PRCP99
0163595670999992000102600004+22020+121560FM-12+032599999V0200501N015010042019N0100001N1+02411+02291101391ADDAA199000091GF108991081051004501999999MA1999999097671MD1310081+9999REMSYN066AAXX  26001 59567 32460 80515 10241 20229 39767 40139 53008 885//;EQDQ01  00002PRCP99
0163595670999992000102603004+22020+121560FM-12+032599999V0200501N006010042019N0100001N1+02391+02211101431ADDAA199000091GF107991071051004501999999MA1999999097711MD1010041+9999REMSYN066AAXX  26031 59567 32460 70506 10239 20221 39771 40143 50004 875//;EQDQ01  00002PRCP99
0163595670999992000102606004+22020+121560FM-12+032599999V0200501N012010042019N0100001N1+02401+02201101281ADDAA199000091GF108991081051004501999999MA1999999097561MD1610151+9999REMSYN066AAXX  26061 59567 32460 80512 10240 20220 39756 40128 56015 885//;EQDQ01  00002PRCP99
0163595670999992000102609004+22020+121560FM-12+032599999V0200501N007010042019N0100001N1+02331+02101101411ADDAA199000091GF107991071051004501999999MA1999999097681MD1210121+9999REMSYN066AAXX  26091 59567 32460 70507 10233 20210 39768 40141 52012 875//;EQDQ01  00002PRCP99
0163595670999992000102612004+22020+121560FM-12+032599999V0200501N013010042019N0100001N1+02291+02051101471ADDAA199000091GF107991071051004501999999MA1999999097731MD1110051+9999REMSYN066AAXX  26121 59567 32460 70513 10229 20205 39773 40147 51005 875//;EQDQ01  00002PRCP99
0163595670999992000102621004+22020+121560FM-12+032599999V0200501N008010042019N0100001N1+02241+02041101411ADDAA199000091GF106991061051004501001001MA1999999097671MD1510021+9999REMSYN066AAXX  26211 59567 32460 60508 10224 20204 39767 40141 55002 86500;EQDQ01  00002PRCP99
0163595670999992000102700004+22020+121560FM-12+032599999V0200501N018010042019N0100001N1+02291+02051101511ADDAA199000091GF106991061051004501001001MA1999999097771MD1310101+9999REMSYN066AAXX  27001 59567 32460 60518 10229 20205 39777 40151 53010 86500;EQDQ01  00002PRCP99
0163595670999992000102703004+22020+121560FM-12+032599999V0200501N009010042019N0100001N1+02341+02101101541ADDAA199000091GF107991071051004501999999MA1999999097811MD1010041+9999REMSYN066AAXX  27031 59567 32460 70509 10234 20210 39781 40154 50004 875//;EQDQ01  00002PRCP99
0163595670999992000102706004+22020+121560FM-12+032599999V0200501N032010042019N0100001N1+02331+02091101261ADDAA199000091GF107991071051004501999999MA1999999097531MD1610281+9999REMSYN066AAXX  27061 59567 32460 70532 10233 20209 39753 40126 56028 875//;EQDQ01  00002PRCP99
0163595670999992000102709004+22020+121560FM-12+032599999V0200501N011010042019N0100001N1+02271+02051101331ADDAA199000091GF107991071051004501999999MA1999999097591MD1310061+9999REMSYN066AAXX  27091 59567 32460 70511 10227 20205 39759 40133 53006 875//;EQDQ01  00002PRCP99
0163595670999992000102712004+22020+121560FM-12+032599999V0200501N024010042019N0100001N1+02321+02101101441ADDAA199000091GF108991081051004501999999MA1999999097711MD1010121+9999REMSYN066AAXX  27121 59567 32460 80524 10232 20210 39771 40144 50012 885//;EQDQ01  00002PRCP99
0163595670999992000102721004+22020+121560FM-12+032599999V0200501N016010042019N0100001N1+02321+02181101281ADDAA199000091GF108991081051004501999999MA1999999097551MD1810061+9999REMSYN066AAXX  27211 59567 32460 80516 10232 20218 39755 40128 58006 885//;EQDQ01  00002PRCP99
0163595670999992000102800004+22020+121560FM-12+032599999V0200501N016010021019N0100001N1+02391+02261101441ADDAA199000091GF106991061051002501001001MA1999999097721MD1110171+9999REMSYN066AAXX  28001 59567 32360 60516 10239 20226 39772 40144 51017 86500;EQDQ01  00002PRCP99
0163595670999992000102803004+22020+121560FM-12+032599999V0200501N003012200019N0150001N1+02551+02381101381ADDAA199000091GF102991021021002501001001MA1999999097681MD1810041+9999REMSYN066AAXX  28031 59567 32365 20503 10255 20238 39768 40138 58004 82200;EQDQ01  00002PRCP99
0163595670999992000102809004+22020+121560FM-12+032599999V0200501N007010012019N0150001N1+02441+02311101161ADDAA199000091GF108991081051001501999999MA1999999097451MD1110131+9999REMSYN066AAXX  28091 59567 32265 80507 10244 20231 39745 40116 51013 885//;EQDQ01  00002PRCP99
0163595670999992000102812004+22020+121560FM-12+032599999V0200501N011010042019N0100001N1+02441+02351101221ADDAA199000091GF108991081051004501999999MA1999999097511MD1210061+9999REMSYN066AAXX  28121 59567 32460 80511 10244 20235 39751 40122 52006 885//;EQDQ01  00002PRCP99
0163595670999992000102821004+22020+121560FM-12+032599999V0200501N005010012019N0100001N1+02431+02321100961ADDAA199000091GF108991081051001501999999MA1999999097261MD1510101+9999REMSYN066AAXX  28211 59567 32260 80505 10243 20232 39726 40096 55010 885//;EQDQ01  00002PRCP99
0163595670999992000102900004+22020+121560FM-12+032599999V0200501N006010012019N0100001N1+02451+02341101041ADDAA199000091GF108991081051001501999999MA1999999097341MD1010081+9999REMSYN066AAXX  29001 59567 32260 80506 10245 20234 39734 40104 50008 885//;EQDQ01  00002PRCP99
0197595670999992000102906004+22020+121560FM-12+032599999V0200501N999990012019N0080001N1+02301+02301100761ADDAA106019191AY161061AY221061GF108991081051001501999999MA1999999097051MD1810301+9999MW1211REMSYN078AAXX  29061 59567 11258 80532 10230 20230 39705 40076 58030 60191 72162 885//;EQDQ01+003203WOSPD 
0178595670999992000102909004+22020+121560FM-12+032599999V0200501N007010012019N0080001N1+02291+02291100951ADDAA100022191AY161031AY221031GF108991081051001501999999MA1999999097231MD1210181+9999MW1631REMSYN078AAXX  29091 59567 11258 80507 10229 20229 39723 40095 52018 6022/ 76362 885//;
0197595670999992000102912004+22020+121560FM-12+032599999V0200501N035020012019N0080001N1+02271+02271100891ADDAA112026991AY161061AY221061GF108991081051001501999999MA1999999097171MD1510061+9999MW1101REMSYN078AAXX  29121 59567 11258 80535 10227 20227 39717 40089 55006 60272 71062 885//;EQDQ01+003503WOSPD 
0178595670999992000102921004+22020+121560FM-12+032599999V0200501N017010006019N0050001N1+02131+02131100661ADDAA100040991AY161031AY221031GF108991081071000751999999MA1999999096931MD1810091+9999MW1631REMSYN078AAXX  29211 59567 11150 80517 10213 20213 39693 40066 58009 6041/ 76362 887//;
0178595670999992000103000004+22020+121560FM-12+032599999V0200501N011010012019N0050001N1+02101+02101100841ADDAA112053191AY161061AY221061GF108991081071001501999999MA1999999097101MD1310171+9999MW1621REMSYN078AAXX  30001 59567 11250 80511 10210 20210 39710 40084 53017 60532 76262 887//;
0178595670999992000103003004+22020+121560FM-12+032599999V0200501N014010012019N0080001N1+02151+02151100721ADDAA100013091AY161031AY261031GF108991081071001501999999MA1999999096991MD1810111+9999MW1611REMSYN078AAXX  30031 59567 11258 80514 10215 20215 39699 40072 58011 6013/ 76166 887//;
0197595670999992000103006004+22020+121560FM-12+032599999V0200401N999990012019N0050001N1+02121+02121100231ADDAA106016091AY161061AY261061GF108991081071001501999999MA1999999096521MD1810471+9999MW1611REMSYN078AAXX  30061 59567 11250 80457 10212 20212 39652 40023 58047 60161 76166 887//;EQDQ01+005703WOSPD 
0178595670999992000103009004+22020+121560FM-12+032599999V0200201N019010012019N0050001N1+02161+02161100371ADDAA100022191AY161031AY261031GF108991081071001501999999MA1999999096661MD1110141+9999MW1631REMSYN078AAXX  30091 59567 11250 80219 10216 20216 39666 40037 51014 6022/ 76366 887//;
0178595670999992000103012004+22020+121560FM-12+032599999V0203601N007010012019N0050001N1+02301+02301100741ADDAA112041991AY161061AY261061GF108991081071001501999999MA1999999097031MD1110371+9999MW1611REMSYN078AAXX  30121 59567 11250 83607 10230 20230 39703 40074 51037 60422 76166 887//;
0178595670999992000103021004+22020+121560FM-12+032599999V0200701N006010012019N0050001N1+02351+02331100371ADDAA100127091AY161031AY261031GF108991081071001501999999MA1999999096681MD1710121+9999MW1651REMSYN078AAXX  30211 59567 11250 80706 10235 20233 39668 40037 57012 6127/ 76566 887//;
0178595670999992000103100004+22020+121560FM-12+032599999V0201101N021010012019N0050001N1+02441+02441100271ADDAA112145091AY161061AY261061GF108991081071001501999999MA1999999096591MD1810091+9999MW1631REMSYN078AAXX  31001 59567 11250 81121 10244 20244 39659 40027 58009 61452 76366 887//;
0178595670999992000103103004+22020+121560FM-12+032599999V0201201N012010012019N0080001N1+02451+02451100181ADDAA100006191AY161031AY261031GF108991081071001501999999MA1999999096511MD1810081+9999MW1611REMSYN078AAXX  31031 59567 11258 81212 10245 20245 39651 40018 58008 6006/ 76166 887//;
0178595670999992000103106004+22020+121560FM-12+032599999V0201201N028010012019N0080001N1+02471+02471099911ADDAA106017091AY161061AY221061GF108991081071001501999999MA1999999096251MD1510261+9999MW1631REMSYN078AAXX  31061 59567 11258 81228 10247 20247 39625 49991 55026 60171 76362 887//;
0178595670999992000103109004+22020+121560FM-12+032599999V0201401N010010012019N0080001N1+02481+02481099831ADDAA100034091AY161031AY221031GF108991081071001501999999MA1999999096181MD1510071+9999MW1631REMSYN078AAXX  31091 59567 11258 81410 10248 20248 39618 49983 55007 6034/ 76362 887//;
0197595670999992000103112004+22020+121560FM-12+032599999V0201101N040020012019N0080001N1+02411+02411099601ADDAA112040991AY161061AY221061GF108991081071001501999999MA1999999095951MD1510231+9999MW1631REMSYN078AAXX  31121 59567 11258 81140 10241 20241 39595 49960 55023 60412 76362 887//;EQDQ01+004003WOSPD 
0229595670999992000103118004+22020+121560FM-12+032599999V0202201N999990012019N0080001N1+02261+02261999999ADDAA100003091AY161061AY221061GF108991081071001501999999MA1999999999999MD1510221+9999MW1211REMSYN078AAXX  31181 59567 11258 82256 10226 20226 39465 49827 55022 6003/ 72162 887//;EQDQ01+005603WOSPD Q02 094653APOSP Q03 098273APOSLP
0178595670999992000103121004+22020+121560FM-12+032599999V0202501N025010012019N0080001N1+02121+02061099381ADDAA100004191AY161031AY221031GF108991081071001501999999MA1999999095701MD1111051+9999MW1211REMSYN078AAXX  31211 59567 11258 82525 10212 20206 39570 49938 51105 6004/ 72162 887//;
0197595670999992000110100004+22020+121560FM-12+032599999V0202601N999990012019N0100001N1+02121+01901099931ADDAA112004191AY161061AY221061GF108991081071001501999999MA1999999096231MD1110531+9999MW1021REMSYN078AAXX  01001 59567 11260 82647 10212 20190 39623 49993 51053 60042 70262 887//;EQDQ01+004703WOSPD 
0144595670999992000110103004+22020+121560FM-12+032599999V0202701N016010042019N0150001N1+02221+01931099871ADDAA199000021GF107991071051004501999999MA1999999096181MD1810051+9999REMSYN066AAXX  01031 59567 32465 72716 10222 20193 39618 49987 58005 875//;
0144595670999992000110106004+22020+121560FM-12+032599999V0202501N028010021019N0100001N1+02361+02051100061ADDAA199000021GF106991061051002501001001MA1999999096381MD1210201+9999REMSYN066AAXX  01061 59567 32360 62528 10236 20205 39638 40006 52020 86500;
0144595670999992000110109004+22020+121560FM-12+032599999V0200401N005010042019N0150001N1+02451+02161100461ADDAA199000021GF107991071051004501999999MA1999999096781MD1110401+9999REMSYN066AAXX  01091 59567 32465 70405 10245 20216 39678 40046 51040 875//;
0163595670999992000110112004+22020+121560FM-12+032599999V0200401N021010042019N0100001N1+02251+01951100991ADDAA199000091GF107991071051004501999999MA1999999097261MD1110481+9999REMSYN066AAXX  01121 59567 32460 70421 10225 20195 39726 40099 51048 875//;EQDQ01  00002PRCP99
0163595670999992000110121004+22020+121560FM-12+032599999V0200401N008010012019N0100001N1+02111+01911101251ADDAA199000091GF108991081051001501999999MA1999999097501MD1210061+9999REMSYN066AAXX  01211 59567 32260 80408 10211 20191 39750 40125 52006 885//;EQDQ01  00002PRCP99
0163595670999992000110200004+22020+121560FM-12+032599999V0200401N022010021019N0100001N1+02111+01901101391ADDAA199000091GF108991081051002501999999MA1999999097631MD1210131+9999REMSYN066AAXX  02001 59567 32360 80422 10211 20190 39763 40139 52013 885//;EQDQ01  00002PRCP99
0163595670999992000110203004+22020+121560FM-12+032599999V0200401N012010021019N0100001N1+02121+01911101371ADDAA199000091GF108991081051002501999999MA1999999097611MD1810021+9999REMSYN066AAXX  02031 59567 32360 80412 10212 20191 39761 40137 58002 885//;EQDQ01  00002PRCP99
0163595670999992000110206004+22020+121560FM-12+032599999V0200401N022010021019N0100001N1+02121+01941101251ADDAA199000091GF108991081051002501999999MA1999999097501MD1810111+9999REMSYN066AAXX  02061 59567 32360 80422 10212 20194 39750 40125 58011 885//;EQDQ01  00002PRCP99
0163595670999992000110209004+22020+121560FM-12+032599999V0200401N013010021019N0100001N1+02121+01941101291ADDAA199000091GF108991081051002501999999MA1999999097541MD1010041+9999REMSYN066AAXX  02091 59567 32360 80413 10212 20194 39754 40129 50004 885//;EQDQ01  00002PRCP99
0163595670999992000110212004+22020+121560FM-12+032599999V0200401N025010021019N0100001N1+02121+01991101411ADDAA199000091GF108991081051002501999999MA1999999097651MD1310111+9999REMSYN066AAXX  02121 59567 32360 80425 10212 20199 39765 40141 53011 885//;EQDQ01  00002PRCP99
0178595670999992000110221004+22020+121560FM-12+032599999V0200401N014010012019N0100001N1+02101+02101101341ADDAA100001091AY161031AY221031GF108991081051001501999999MA1999999097581MD1310141+9999MW1211REMSYN078AAXX  02211 59567 11260 80414 10210 20210 39758 40134 53014 6001/ 72162 885//;
0178595670999992000110300004+22020+121560FM-12+032599999V0200201N012010021019N0100001N1+02111+02111101491ADDAA112002091AY161061AY221061GF108991081051002501999999MA1999999097731MD1110151+9999MW1021REMSYN078AAXX  03001 59567 11360 80212 10211 20211 39773 40149 51015 60022 70262 885//;
0144595670999992000110306004+22020+121560FM-12+032599999V0200201N017010012019N0100001N1+02081+02041101261ADDAA199000021GF108991081051001501999999MA1999999097501MD1510191+9999REMSYN066AAXX  03061 59567 32260 80217 10208 20204 39750 40126 55019 885//;
0178595670999992000110309004+22020+121560FM-12+032599999V0200401N015010012019N0100001N1+02081+02081101301ADDAA100001091AY161031AY221031GF108991081051001501999999MA1999999097541MD1310041+9999MW1211REMSYN078AAXX  03091 59567 11260 80415 10208 20208 39754 40130 53004 6001/ 72162 885//;
0178595670999992000110312004+22020+121560FM-12+032599999V0200401N036010012019N0050001N1+02091+02091101411ADDAA112007191AY161061AY221061GF108991081071001501999999MA1999999097651MD1010111+9999MW1601REMSYN078AAXX  03121 59567 11250 80436 10209 20209 39765 40141 50011 60072 76062 887//;
0150595670999992000110321004+22020+121560FM-12+032599999V0200501N011010012019N0100001N1+02201+02171101291ADDAA100010991GF108991081051001501999999MA1999999097551MD1310021+9999REMSYN072AAXX  03211 59567 12260 80511 10220 20217 39755 40129 53002 6011/ 885//;
0150595670999992000110400004+22020+121560FM-12+032599999V0200201N010010012019N0100001N1+02301+02271101491ADDAA112010991GF108991081051001501999999MA1999999097751MD1210201+9999REMSYN072AAXX  04001 59567 12260 80210 10230 20227 39775 40149 52020 60112 885//;
0163595670999992000110403004+22020+121560FM-12+032599999V0200201N004010012019N0100001N1+02351+02291101411ADDAA199000091GF108991081051001501999999MA1999999097681MD1810071+9999REMSYN066AAXX  04031 59567 32260 80204 10235 20229 39768 40141 58007 885//;EQDQ01  00002PRCP99
0163595670999992000110406004+22020+121560FM-12+032599999V0200201N018010012019N0100001N1+02331+02251101211ADDAA199000091GF107991071051001501999999MA1999999097491MD1810191+9999REMSYN066AAXX  04061 59567 32260 70218 10233 20225 39749 40121 58019 875//;EQDQ01  00002PRCP99
0178595670999992000110409004+22020+121560FM-12+032599999V0200401N009010042019N0100001N1+02281+02231101241ADDAA100002091AY161031AY221031GF108991081051004501999999MA1999999097511MD1010021+9999MW1021REMSYN078AAXX  04091 59567 11460 80409 10228 20223 39751 40124 50002 6002/ 70262 885//;
0178595670999992000110412004+22020+121560FM-12+032599999V0200201N007010042019N0100001N1+02351+02321101341ADDAA112002091AY161061AY221061GF108991081051004501999999MA1999999097611MD1110101+9999MW1021REMSYN078AAXX  04121 59567 11460 80207 10235 20232 39761 40134 51010 60022 70262 885//;
0150595670999992000110421004+22020+121560FM-12+032599999V0200501N004010012019N0100001N1+02231+02231101101ADDAA100019191GF108991081051001501999999MA1999999097371MD1510011+9999REMSYN072AAXX  04211 59567 12260 80504 10223 20223 39737 40110 55001 6019/ 885//;
0150595670999992000110500004+22020+121560FM-12+032599999V0200701N009010006019N0100001N1+02301+02251101211ADDAA112019191GF108991081051000751999999MA1999999097481MD1110111+9999REMSYN072AAXX  05001 59567 12160 80709 10230 20225 39748 40121 51011 60192 885//;
0163595670999992000110503004+22020+121560FM-12+032599999V0200401N003010012019N0150001N1+02461+02361101091ADDAA199000091GF108991081051001501999999MA1999999097391MD1810091+9999REMSYN066AAXX  05031 59567 32265 80403 10246 20236 39739 40109 58009 885//;EQDQ01  00002PRCP99
0163595670999992000110506004+22020+121560FM-12+032599999V0200401N006010012019N0150001N1+02431+02321100891ADDAA199000091GF108991081051001501999999MA1999999097191MD1810201+9999REMSYN066AAXX  05061 59567 32265 80406 10243 20232 39719 40089 58020 885//;EQDQ01  00002PRCP99
0163595670999992000110509004+22020+121560FM-12+032599999V0200401N004010012019N0150001N1+02341+02261100931ADDAA199000091GF107991071051001501999999MA1999999097221MD1010031+9999REMSYN066AAXX  05091 59567 32265 70404 10234 20226 39722 40093 50003 875//;EQDQ01  00002PRCP99
0163595670999992000110512004+22020+121560FM-12+032599999V0200401N016010012019N0120001N1+02311+02251101091ADDAA199000091GF108991081051001501999999MA1999999097371MD1210151+9999REMSYN066AAXX  05121 59567 32262 80416 10231 20225 39737 40109 52015 885//;EQDQ01  00002PRCP99
0150595670999992000110521004+22020+121560FM-12+032599999V0200401N008010012019N0120001N1+02311+02241100861ADDAA100000591GF108991081051001501999999MA1999999097151MD1510051+9999REMSYN072AAXX  05211 59567 12262 80408 10231 20224 39715 40086 55005 6995/ 885//;
0150595670999992000110600004+22020+121560FM-12+032599999V0200401N010010012019N0120001N1+02351+02281101011ADDAA112000591GF107991071051001501999999MA1999999097301MD1110151+9999REMSYN072AAXX  06001 59567 12262 70410 10235 20228 39730 40101 51015 69952 875//;
0163595670999992000110603004+22020+121560FM-12+032599999V0200401N018010006019N0100001N1+02281+02251100981ADDAA199000091GF108991081051000751999999MA1999999097261MD1810041+9999REMSYN066AAXX  06031 59567 32160 80418 10228 20225 39726 40098 58004 885//;EQDQ01  00002PRCP99
0178595670999992000110606004+22020+121560FM-12+032599999V0200501N028010006019N0100001N1+02281+02271100841ADDAA106001091AY161061AY221061GF108991081051000751999999MA1999999097121MD1810141+9999MW1211REMSYN078AAXX  06061 59567 11160 80528 10228 20227 39712 40084 58014 60011 72162 885//;
0178595670999992000110609004+22020+121560FM-12+032599999V0200301N012010006019N0100001N1+02301+02301100961ADDAA100017091AY161031AY221031GF108991081051000751999999MA1999999097241MD1310121+9999MW1021REMSYN078AAXX  06091 59567 11160 80312 10230 20230 39724 40096 53012 6017/ 70262 885//;
0178595670999992000110612004+22020+121560FM-12+032599999V0200101N010010012019N0100001N1+02321+02321101111ADDAA112017091AY161061AY221061GF108991081051001501999999MA1999999097391MD1110151+9999MW1021REMSYN078AAXX  06121 59567 11260 80110 10232 20232 39739 40111 51015 60172 70262 885//;
0163595670999992000110621004+22020+121560FM-12+032599999V0200501N009010012019N0100001N1+02361+02361101071ADDAA199000091GF108991081051001501999999MA1999999097361MD1510021+9999REMSYN066AAXX  06211 59567 32260 80509 10236 20236 39736 40107 55002 885//;EQDQ01  00002PRCP99
0178595670999992000110700004+22020+121560FM-12+032599999V0200401N006010006019N0100001N1+02231+02231101411ADDAA112055991AY161061AY221061GF108991081071000751999999MA1999999097671MD1210311+9999MW1631REMSYN078AAXX  07001 59567 11160 80406 10223 20223 39767 40141 52031 60562 76362 887//;
0178595670999992000110703004+22020+121560FM-12+032599999V0200601N004010360019N0150001N1+02241+02201101301ADDAA100007191AY161031AY221031GF108991021071000751021999MA1999999097561MD1810111+9999MW1211REMSYN078AAXX  07031 59567 11165 80604 10224 20220 39756 40130 58011 6007/ 72162 8272/;
0178595670999992000110706004+22020+121560FM-12+032599999V0200201N013010006019N0100001N1+02321+02321101101ADDAA106013091AY161061AY221061GF108991081071000751999999MA1999999097381MD1710181+9999MW1211REMSYN078AAXX  07061 59567 11160 80213 10232 20232 39738 40110 57018 60131 72162 887//;
0178595670999992000110709004+22020+121560FM-12+032599999V0200301N002010360019N0200001N1+02261+02221101181ADDAA100013091AY161031AY221031GF106991031041001501071001MA1999999097451MD1310071+9999MW1211REMSYN078AAXX  07091 59567 11270 60302 10226 20222 39745 40118 53007 6013/ 72162 83470;
0178595670999992000110712004+22020+121560FM-12+032599999V0200201N005010360019N0200001N1+02321+02251101341ADDAA112013091AY161061AY221061GF106991011011001501071001MA1999999097611MD1110161+9999MW1021REMSYN078AAXX  07121 59567 11270 60205 10232 20225 39761 40134 51016 60132 70262 81170;
0163595670999992000110800004+22020+121560FM-12+032599999V0200401N008010012019N0120001N1+02341+02321101241ADDAA199000091GF108991081051001501999999MA1999999097521MD1110131+9999REMSYN066AAXX  08001 59567 32262 80408 10234 20232 39752 40124 51013 885//;EQDQ01  00002PRCP99
0178595670999992000110803004+22020+121560FM-12+032599999V0200401N005010012019N0100001N1+02351+02351101221ADDAA100007991AY161031AY221031GF108991081051001501999999MA1999999097501MD1810021+9999MW1211REMSYN078AAXX  08031 59567 11260 80405 10235 20235 39750 40122 58002 6008/ 72162 885//;
0178595670999992000110806004+22020+121560FM-12+032599999V0200601N016010006019N0100001N1+02241+02171101001ADDAA106015091AY161061AY221061GF108991081071000751999999MA1999999097271MD1710231+9999MW1631REMSYN078AAXX  08061 59567 11160 80616 10224 20217 39727 40100 57023 60151 76362 887//;
0178595670999992000110809004+22020+121560FM-12+032599999V0200401N009010006019N0100001N1+02311+02311100941ADDAA100018091AY161031AY221031GF108991081051000751999999MA1999999097221MD1510051+9999MW1021REMSYN078AAXX  08091 59567 11160 80409 10231 20231 39722 40094 55005 6018/ 70262 885//;
0178595670999992000110812004+22020+121560FM-12+032599999V0200401N006010021019N0100001N1+02301+02291101101ADDAA112018091AY161061AY221061GF108991081051002501999999MA1999999097381MD1110161+9999MW1021REMSYN078AAXX  08121 59567 11360 80406 10230 20229 39738 40110 51016 60182 70262 885//;
0150595670999992000110821004+22020+121560FM-12+032599999V0200301N003012200019N0100001N1+02311+02191101011ADDAA100001091GF103991031051002501001001MA1999999097291MD1310021+9999REMSYN072AAXX  08211 59567 12360 30303 10231 20219 39729 40101 53002 6001/ 83500;
0150595670999992000110900004+22020+121560FM-12+032599999V0200601N014010021019N0150001N1+02371+02251101221ADDAA112001091GF106991061041002501001001MA1999999097501MD1110211+9999REMSYN072AAXX  09001 59567 12365 60614 10237 20225 39750 40122 51021 60012 86400;
0163595670999992000110903004+22020+121560FM-12+032599999V0200501N016010360019N0150001N1+02381+02161101171ADDAA199000091GF106991021011004501071001MA1999999097451MD1810051+9999REMSYN066AAXX  09031 59567 32465 60516 10238 20216 39745 40117 58005 82170;EQDQ01  00002PRCP99
0163595670999992000110906004+22020+121560FM-12+032599999V0200601N036010042019N0150001N1+02471+02111100981ADDAA199000091GF106991051051004501001081MA1999999097281MD1510171+9999REMSYN066AAXX  09061 59567 32465 60636 10247 20211 39728 40098 55017 85508;EQDQ01  00002PRCP99
0163595670999992000110909004+22020+121560FM-12+032599999V0200501N007010012019N0120001N1+02291+02171101171ADDAA199000091GF107991071051001501999999MA1999999097441MD1210161+9999REMSYN066AAXX  09091 59567 32262 70507 10229 20217 39744 40117 52016 875//;EQDQ01  00002PRCP99
0163595670999992000110912004+22020+121560FM-12+032599999V0200501N030010012019N0120001N1+02311+02221101341ADDAA199000091GF108991081051001501999999MA1999999097611MD1110171+9999REMSYN066AAXX  09121 59567 32262 80530 10231 20222 39761 40134 51017 885//;EQDQ01  00002PRCP99
0150595670999992000110921004+22020+121560FM-12+032599999V0200401N009010012019N0100001N1+02311+02231101481ADDAA100000591GF108991081051001501999999MA1999999097741MD1310071+9999REMSYN072AAXX  09211 59567 12260 80409 10231 20223 39774 40148 53007 6995/ 885//;
0178595670999992000111000004+22020+121560FM-12+032599999V0200401N009010006019N0100001N1+02221+02221101741ADDAA112008991AY161061AY221061GF108991081071000751999999MA1999999097981MD1110241+9999MW1611REMSYN078AAXX  10001 59567 11160 80409 10222 20222 39798 40174 51024 60092 76162 887//;
0178595670999992000111003004+22020+121560FM-12+032599999V0200501N009010012019N0150001N1+02281+02281101731ADDAA100006191AY161031AY221031GF108991081051001501999999MA1999999097981MD1410001+9999MW1021REMSYN078AAXX  10031 59567 11265 80509 10228 20228 39798 40173 54000 6006/ 70262 885//;
0178595670999992000111006004+22020+121560FM-12+032599999V0200501N008010012019N0150001N1+02301+02301101521ADDAA106006191AY161061AY221061GF108991081051001501999999MA1999999097781MD1710201+9999MW1021REMSYN078AAXX  10061 59567 11265 80508 10230 20230 39778 40152 57020 60061 70262 885//;
0150595670999992000111009004+22020+121560FM-12+032599999V0200501N006010012019N0120001N1+02211+02121101541ADDAA100006191GF108991081051001501999999MA1999999097791MD1310011+9999REMSYN072AAXX  10091 59567 12262 80506 10221 20212 39779 40154 53001 6006/ 885//;
0150595670999992000111012004+22020+121560FM-12+032599999V0200501N015010021019N0100001N1+02351+02151101711ADDAA112006191GF108991081051002501999999MA1999999097971MD1310181+9999REMSYN072AAXX  10121 59567 12360 80515 10235 20215 39797 40171 53018 60062 885//;
0178595670999992000111021004+22020+121560FM-12+032599999V0200401N007010021019N0100001N1+02211+02141101621ADDAA100000591AY161031AY221031GF108991081051002501999999MA1999999097871MD1510021+9999MW1021REMSYN078AAXX  10211 59567 11360 80407 10221 20214 39787 40162 55002 6995/ 70262 885//;
0150595670999992000111100004+22020+121560FM-12+032599999V0200401N015010042019N0100001N1+02301+02121101741ADDAA112000591GF108991081051004501999999MA1999999097991MD1210121+9999REMSYN072AAXX  11001 59567 12460 80415 10230 20212 39799 40174 52012 69952 885//;
0163595670999992000111103004+22020+121560FM-12+032599999V0200501N007010021019N0100001N1+02301+02151101721ADDAA199000091GF107991071051002501999999MA1999999097971MD1810021+9999REMSYN066AAXX  11031 59567 32360 70507 10230 20215 39797 40172 58002 875//;EQDQ01  00002PRCP99
0163595670999992000111106004+22020+121560FM-12+032599999V0200501N014010042019N0100001N1+02351+02091101571ADDAA199000091GF108991081051004501999999MA1999999097841MD1610131+9999REMSYN066AAXX  11061 59567 32460 80514 10235 20209 39784 40157 56013 885//;EQDQ01  00002PRCP99
0163595670999992000111109004+22020+121560FM-12+032599999V0200401N005010012019N0100001N1+02281+02131101551ADDAA199000091GF107991071051001501999999MA1999999097811MD1510031+9999REMSYN066AAXX  11091 59567 32260 70405 10228 20213 39781 40155 55003 875//;EQDQ01  00002PRCP99
0178595670999992000111112004+22020+121560FM-12+032599999V0200501N015010006019N0100001N1+02221+02191101681ADDAA112007191AY161061AY221061GF108991081071000751999999MA1999999097931MD1310121+9999MW1211REMSYN078AAXX  11121 59567 11160 80515 10222 20219 39793 40168 53012 60072 72162 887//;
0178595670999992000111121004+22020+121560FM-12+032599999V0200601N006010021019N0100001N1+02281+02191101531ADDAA100014091AY161031AY221031GF108991081041002501999999MA1999999097791MD1510021+9999MW1021REMSYN078AAXX  11211 59567 11360 80606 10228 20219 39779 40153 55002 6014/ 70262 884//;
0178595670999992000111200004+22020+121560FM-12+032599999V0200501N005010021019N0100001N1+02351+02281101621ADDAA112017091AY161061AY221061GF108991081041002501999999MA1999999097881MD1310091+9999MW1211REMSYN078AAXX  12001 59567 11360 80505 10235 20228 39788 40162 53009 60172 72162 884//;
0178595670999992000111203004+22020+121560FM-12+032599999V0200501N013010006019N0100001N1+02291+02221101521ADDAA100003091AY161031AY221031GF108991081071000751999999MA1999999097781MD1810101+9999MW1611REMSYN078AAXX  12031 59567 11160 80513 10229 20222 39778 40152 58010 6003/ 76162 887//;
0197595670999992000111206004+22020+121560FM-12+032599999V0200501N999990012019N0100001N1+02201+02121101291ADDAA106004191AY161061AY221061GF108991081051001501999999MA1999999097551MD1810231+9999MW1021REMSYN078AAXX  12061 59567 11260 80539 10220 20212 39755 40129 58023 60041 70262 885//;EQDQ01+003903WOSPD 
0150595670999992000111209004+22020+121560FM-12+032599999V0200501N007010021019N0100001N1+02131+01991101451ADDAA100004191GF108991081051002501999999MA1999999097691MD1310141+9999REMSYN072AAXX  12091 59567 12360 80507 10213 20199 39769 40145 53014 6004/ 885//;
0178595670999992000111212004+22020+121560FM-12+032599999V0200501N011010006019N0100001N1+02121+02001101651ADDAA112005191AY161061AY221061GF108991081071000751999999MA1999999097881MD1310191+9999MW1611REMSYN078AAXX  12121 59567 11160 80511 10212 20200 39788 40165 53019 60052 76162 887//;
0178595670999992000111221004+22020+121560FM-12+032599999V0200501N010010012019N0100001N1+02081+02081101391ADDAA100013091AY161031AY221031GF108991081051001501999999MA1999999097631MD1010021+9999MW1021REMSYN078AAXX  12211 59567 11260 80510 10208 20208 39763 40139 50002 6013/ 70262 885//;
0178595670999992000111300004+22020+121560FM-12+032599999V0200601N034010006019N0100001N1+02141+02141101471ADDAA112014091AY161061AY221061GF108991081051000751999999MA1999999097711MD1010081+9999MW1021REMSYN078AAXX  13001 59567 11160 80634 10214 20214 39771 40147 50008 60142 70262 885//;
0178595670999992000111303004+22020+121560FM-12+032599999V0200501N011010012019N0100001N1+02221+02221101531ADDAA100015091AY161031AY221031GF108991081071001501999999MA1999999097781MD1010071+9999MW1611REMSYN078AAXX  13031 59567 11260 80511 10222 20222 39778 40153 50007 6015/ 76162 887//;
0178595670999992000111306004+22020+121560FM-12+032599999V0200501N011010021019N0120001N1+02261+02181101371ADDAA106015091AY161061AY221061GF108991081051002501999999MA1999999097631MD1710151+9999MW1211REMSYN078AAXX  13061 59567 11362 80511 10226 20218 39763 40137 57015 60151 72162 885//;
0150595670999992000111309004+22020+121560FM-12+032599999V0200401N010010006019N0100001N1+02231+02191101361ADDAA100015091GF108991081051000751999999MA1999999097621MD1510011+9999REMSYN072AAXX  13091 59567 12160 80410 10223 20219 39762 40136 55001 6015/ 885//;
0178595670999992000111312004+22020+121560FM-12+032599999V0200301N017010006019N0100001N1+02211+02161101481ADDAA112019191AY161061AY221061GF108991081071000751999999MA1999999097731MD1210111+9999MW1611REMSYN078AAXX  13121 59567 11160 80317 10221 20216 39773 40148 52011 60192 76162 887//;
0178595670999992000111321004+22020+121560FM-12+032599999V0200401N003010012019N0100001N1+02151+02151101451ADDAA100045091AY161031AY221031GF108991081071001501999999MA1999999097701MD1310041+9999MW1651REMSYN078AAXX  13211 59567 11260 80403 10215 20215 39770 40145 53004 6045/ 76562 887//;
0178595670999992000111400004+22020+121560FM-12+032599999V0200401N020010006019N0100001N1+02201+02201101531ADDAA112055191AY161061AY221061GF107991071051000751999999MA1999999097781MD1110081+9999MW1211REMSYN078AAXX  14001 59567 11160 70420 10220 20220 39778 40153 51008 60552 72162 875//;
0172595670999992000111403004+22020+121560FM-12+032599999V0200301N007010012019N0150001N1+02341+02291101491ADDAA199000021AY161031AY221031GF108991081051001501999999MA1999999097761MD1810021+9999MW1021REMSYN072AAXX  14031 59567 31265 80307 10234 20229 39776 40149 58002 70262 885//;
0172595670999992000111406004+22020+121560FM-12+032599999V0200201N008010012019N0180001N1+02491+02381101261ADDAA199000021AY161061AY221061GF107991071051001501999999MA1999999097551MD1710211+9999MW1011REMSYN072AAXX  14061 59567 31268 70208 10249 20238 39755 40126 57021 70162 875//;
0144595670999992000111409004+22020+121560FM-12+032599999V0200401N006010012019N0150001N1+02381+02291101371ADDAA199000021GF106991061051001501001001MA1999999097651MD1110101+9999REMSYN066AAXX  14091 59567 32265 60406 10238 20229 39765 40137 51010 86500;
0150595670999992000111500004+22020+121560FM-12+032599999V0200101N006010006019N0100001N1+02391+02371101601ADDAA112007191GF107991071041000751999999MA1999999097871MD1110191+9999REMSYN072AAXX  15001 59567 12160 70106 10239 20237 39787 40160 51019 60072 874//;
0163595670999992000111503004+22020+121560FM-12+032599999V0200301N005010012019N0100001N1+02461+02371101591ADDAA199000091GF107991071041001501999999MA1999999097871MD1410001+9999REMSYN066AAXX  15031 59567 32260 70305 10246 20237 39787 40159 54000 874//;EQDQ01  00002PRCP99
0163595670999992000111509004+22020+121560FM-12+032599999V0200301N006010021019N0120001N1+02411+02291101431ADDAA199000091GF107991071041002501999999MA1999999097711MD1310031+9999REMSYN066AAXX  15091 59567 32362 70306 10241 20229 39771 40143 53003 874//;EQDQ01  00002PRCP99
0163595670999992000111512004+22020+121560FM-12+032599999V0200301N014010021019N0120001N1+02391+02301101611ADDAA199000091GF106991061041002501001001MA1999999097881MD1110171+9999REMSYN066AAXX  15121 59567 32362 60314 10239 20230 39788 40161 51017 86400;EQDQ01  00002PRCP99
0163595670999992000111521004+22020+121560FM-12+032599999V0200301N006010012019N0100001N1+02361+02301101451ADDAA199000091GF107991071041001501999999MA1999999097721MD1510061+9999REMSYN066AAXX  15211 59567 32260 70306 10236 20230 39772 40145 55006 874//;EQDQ01  00002PRCP99
0163595670999992000111600004+22020+121560FM-12+032599999V0200301N015010012019N0120001N1+02441+02331101601ADDAA199000091GF107991071041001501999999MA1999999097881MD1210161+9999REMSYN066AAXX  16001 59567 32262 70315 10244 20233 39788 40160 52016 874//;EQDQ01  00002PRCP99
0163595670999992000111603004+22020+121560FM-12+032599999V0200301N007010021019N0150001N1+02511+02371101511ADDAA199000091GF106991061041002501001001MA1999999097801MD1810081+9999REMSYN066AAXX  16031 59567 32365 60307 10251 20237 39780 40151 58008 86400;EQDQ01  00002PRCP99
0163595670999992000111606004+22020+121560FM-12+032599999V0200301N016010012019N0150001N1+02561+02391101361ADDAA199000091GF106991061041001501001001MA1999999097661MD1810141+9999REMSYN066AAXX  16061 59567 32265 60316 10256 20239 39766 40136 58014 86400;EQDQ01  00002PRCP99
0178595670999992000111609004+22020+121560FM-12+032599999V0200301N005010012019N0120001N1+02371+02301101461ADDAA100000591AY181031AY221031GF106991061041001501001001MA1999999097731MD1310071+9999MW1021REMSYN078AAXX  16091 59567 11262 60305 10237 20230 39773 40146 53007 6995/ 70282 86400;
0178595670999992000111612004+22020+121560FM-12+032599999V0200201N009010012019N0100001N1+02401+02341101591ADDAA112000591AY181061AY221061GF108991081041001501999999MA1999999097861MD1110131+9999MW1021REMSYN078AAXX  16121 59567 11260 80209 10240 20234 39786 40159 51013 69952 70282 884//;
0150595670999992000111621004+22020+121560FM-12+032599999V0200301N005012200019N0100001N1+02341+02291101501ADDAA100011991GF103991031021001501001001MA1999999097771MD1410001+9999REMSYN072AAXX  16211 59567 12260 30305 10234 20229 39777 40150 54000 6012/ 83200;
0169595670999992000111700004+22020+121560FM-12+032599999V0200401N040020012019N0120001N1+02311+02201101501ADDAA112011991GF108991081051001501999999MA1999999097761MD1510011+9999REMSYN072AAXX  17001 59567 12262 80440 10231 20220 39776 40150 55001 60122 885//;EQDQ01+004003WOSPD 
0163595670999992000111703004+22020+121560FM-12+032599999V0200301N018010012019N0100001N1+02231+02141101541ADDAA199000091GF108991081051001501999999MA1999999097791MD1010031+9999REMSYN066AAXX  17031 59567 32260 80318 10223 20214 39779 40154 50003 885//;EQDQ01  00002PRCP99
0195595670999992000111706004+22020+121560FM-12+032599999V0200301N999990012019N0100001N1+02161+02041101231ADDAA199000091GF108991081051001501999999MA1999999097481MD1810311+9999REMSYN066AAXX  17061 59567 32260 80350 10216 20204 39748 40123 58031 885//;EQDQ01+005003WOSPD Q02  00002PRCP99Q030005003WOSPD 
0178595670999992000111712004+22020+121560FM-12+032599999V0200101N018010006019N0100001N1+02101+02101101581ADDAA112002091AY161061AY221061GF108991081071000751999999MA1999999097811MD1110171+9999MW1211REMSYN078AAXX  17121 59567 11160 80118 10210 20210 39781 40158 51017 60022 72162 887//;
0178595670999992000111721004+22020+121560FM-12+032599999V0200301N012010006019N0100001N1+02051+02051101601ADDAA100004191AY161031AY221031GF108991081071000751999999MA1999999097831MD1310041+9999MW1611REMSYN078AAXX  17211 59567 11160 80312 10205 20205 39783 40160 53004 6004/ 76162 887//;
0178595670999992000111800004+22020+121560FM-12+032599999V0200201N015010012019N0100001N1+02041+01991101811ADDAA112005191AY161061AY221061GF108991081051001501999999MA1999999098031MD1210201+9999MW1021REMSYN078AAXX  18001 59567 11260 80215 10204 20199 39803 40181 52020 60052 70262 885//;
0144595670999992000111803004+22020+121560FM-12+032599999V0200201N009010021019N0100001N1+02161+02021101721ADDAA199000021GF108991081051002501999999MA1999999097961MD1810071+9999REMSYN066AAXX  18031 59567 32360 80209 10216 20202 39796 40172 58007 885//;
0178595670999992000111806004+22020+121560FM-12+032599999V0200201N012010012019N0100001N1+02091+02041101591ADDAA106000591AY161061AY221061GF108991081051001501999999MA1999999097821MD1610141+9999MW1021REMSYN078AAXX  18061 59567 11260 80212 10209 20204 39782 40159 56014 69951 70262 885//;
0150595670999992000111809004+22020+121560FM-12+032599999V0200301N008010021019N0100001N1+02221+02071101611ADDAA100000591GF108991081051002501999999MA1999999097861MD1310041+9999REMSYN072AAXX  18091 59567 12360 80308 10222 20207 39786 40161 53004 6995/ 885//;
0150595670999992000111812004+22020+121560FM-12+032599999V0200301N016010021019N0100001N1+02251+02041101721ADDAA112000591GF108991081051002501999999MA1999999097971MD1110111+9999REMSYN072AAXX  18121 59567 12360 80316 10225 20204 39797 40172 51011 69952 885//;
0163595670999992000111821004+22020+121560FM-12+032599999V0200301N009010021019N0100001N1+02261+02081101521ADDAA199000091GF108991081051002501999999MA1999999097781MD1510061+9999REMSYN066AAXX  18211 59567 32360 80309 10226 20208 39778 40152 55006 885//;EQDQ01  00002PRCP99
0163595670999992000111903004+22020+121560FM-12+032599999V0200301N009010042019N0100001N1+02321+02091101571ADDAA199000091GF108991081051004501999999MA1999999097831MD1810091+9999REMSYN066AAXX  19031 59567 32460 80309 10232 20209 39783 40157 58009 885//;EQDQ01  00002PRCP99
0178595670999992000112000004+22020+121560FM-12+032599999V0200401N003010360019N0250001N1+02371+02251101361ADDAA112021191AY161061AY221061GF105991021021008001031001MA1999999097641MD1110191+9999MW1011REMSYN078AAXX  20001 59567 11575 50403 10237 20225 39764 40136 51019 60212 70162 82230;
0163595670999992000112003004+22020+121560FM-12+032599999V0200401N006010012019N0200001N1+02511+02351101361ADDAA199000091GF107991071041001501999999MA1999999097651MD1010011+9999REMSYN066AAXX  20031 59567 32270 70406 10251 20235 39765 40136 50001 874//;EQDQ01  00002PRCP99
0197595670999992000112006004+22020+121560FM-12+032599999V0200301N032020006019N0100001N1+02271+02231101071ADDAA106000791AY161061AY221061GF108991081041000751999999MA1999999097341MD1810311+9999MW1211REMSYN078AAXX  20061 59567 11160 80332 10227 20223 39734 40107 58031 69901 72162 884//;EQDQ01+003203WOSPD 
0178595670999992000112009004+22020+121560FM-12+032599999V0200301N018010006019N0100001N1+02061+02041101121ADDAA100001091AY161031AY221031GF108991081071000751999999MA1999999097371MD1010031+9999MW1611REMSYN078AAXX  20091 59567 11160 80318 10206 20204 39737 40112 50003 6001/ 76162 887//;
0178595670999992000112012004+22020+121560FM-12+032599999V0200301N034010006019N0100001N1+01901+01901101381ADDAA112006191AY161061AY221061GF108991081051000751999999MA1999999097601MD1110231+9999MW1211REMSYN078AAXX  20121 59567 11160 80334 10190 20190 39760 40138 51023 60062 72162 885//;
0178595670999992000112021004+22020+121560FM-12+032599999V0200201N011010006019N0100001N1+01821+01821101461ADDAA100002091AY161031AY221031GF108991081071000751999999MA1999999097661MD1310111+9999MW1611REMSYN078AAXX  20211 59567 11160 80211 10182 20182 39766 40146 53011 6002/ 76162 887//;
0178595670999992000112100004+22020+121560FM-12+032599999V0200201N024010012019N0100001N1+01861+01841101641ADDAA112003091AY161061AY221061GF108991081071001501999999MA1999999097841MD1310181+9999MW1211REMSYN078AAXX  21001 59567 11260 80224 10186 20184 39784 40164 53018 60032 72162 887//;
0178595670999992000112103004+22020+121560FM-12+032599999V0200301N020010042019N0100001N1+01931+01811101501ADDAA100000591AY161031AY221031GF108991081051004501999999MA1999999097721MD1810121+9999MW1021REMSYN078AAXX  21031 59567 11460 80320 10193 20181 39772 40150 58012 6995/ 70262 885//;
0178595670999992000112106004+22020+121560FM-12+032599999V0200301N028010042019N0100001N1+01921+01791101411ADDAA106000591AY161061AY221061GF107991071051004501999999MA1999999097631MD1810091+9999MW1021REMSYN078AAXX  21061 59567 11460 70328 10192 20179 39763 40141 58009 69951 70262 875//;
0150595670999992000112109004+22020+121560FM-12+032599999V0200201N009010012019N0100001N1+01871+01831101611ADDAA100000591GF108991081051001501999999MA1999999097811MD1310181+9999REMSYN072AAXX  21091 59567 12260 80209 10187 20183 39781 40161 53018 6995/ 885//;
0163595670999992000112606004+22020+121560FM-12+032599999V0200201N010010021019N0100001N1+02511+02331101481ADDAA199000091GF108991081051002501999999MA1999999097771MD1710201+9999REMSYN066AAXX  26061 59567 32360 80210 10251 20233 39777 40148 57020 885//;EQDQ01  00002PRCP99
0163595670999992000112609004+22020+121560FM-12+032599999V0200301N006010021019N0100001N1+02351+02221101551ADDAA199000091GF108991081051002501999999MA1999999097821MD1310051+9999REMSYN066AAXX  26091 59567 32360 80306 10235 20222 39782 40155 53005 885//;EQDQ01  00002PRCP99
0163595670999992000120203004+22020+121560FM-12+032599999V0200201N007010012019N0150001N1+02281+02071101671ADDAA199000091GF108991081041001501999999MA1999999097921MD1810031+9999REMSYN066AAXX  02031 59567 32265 80207 10228 20207 39792 40167 58003 884//;EQDQ01  00002PRCP99
0163595670999992000120206004+22020+121560FM-12+032599999V0200301N019010012019N0100001N1+02251+02111101411ADDAA199000091GF107991071041001501999999MA1999999097671MD1710251+9999REMSYN066AAXX  02061 59567 32260 70319 10225 20211 39767 40141 57025 874//;EQDQ01  00002PRCP99
0163595670999992000120209004+22020+121560FM-12+032599999V0200301N008010021019N0100001N1+02201+01941101491ADDAA199000091GF107991071041002501999999MA1999999097741MD1310071+9999REMSYN066AAXX  02091 59567 32360 70308 10220 20194 39774 40149 53007 874//;EQDQ01  00002PRCP99
0163595670999992000120212004+22020+121560FM-12+032599999V0200301N014010021019N0100001N1+02221+01931101661ADDAA199000091GF107991071041002501999999MA1999999097911MD1110171+9999REMSYN066AAXX  02121 59567 32360 70314 10222 20193 39791 40166 51017 874//;EQDQ01  00002PRCP99
0163595670999992000120221004+22020+121560FM-12+032599999V0200301N009010021019N0100001N1+02141+01781101501ADDAA199000091GF107991071041002501999999MA1999999097741MD1310051+9999REMSYN066AAXX  02211 59567 32360 70309 10214 20178 39774 40150 53005 874//;EQDQ01  00002PRCP99
0163595670999992000120300004+22020+121560FM-12+032599999V0200301N018010042019N0120001N1+02171+01841101651ADDAA199000091GF107991071041004501999999MA1999999097891MD1210151+9999REMSYN066AAXX  03001 59567 32462 70318 10217 20184 39789 40165 52015 874//;EQDQ01  00002PRCP99
0163595670999992000120303004+22020+121560FM-12+032599999V0200301N008010042019N0120001N1+02241+01881101611ADDAA199000091GF107991071051004501999999MA1999999097861MD1810031+9999REMSYN066AAXX  03031 59567 32462 70308 10224 20188 39786 40161 58003 875//;EQDQ01  00002PRCP99
0163595670999992000120306004+22020+121560FM-12+032599999V0200401N016010042019N0150001N1+02171+01811101371ADDAA199000091GF108991081051004501999999MA1999999097621MD1710241+9999REMSYN066AAXX  03061 59567 32465 80416 10217 20181 39762 40137 57024 885//;EQDQ01  00002PRCP99
0163595670999992000120309004+22020+121560FM-12+032599999V0200201N007010042019N0120001N1+02131+01771101441ADDAA199000091GF108991081051004501999999MA1999999097681MD1310061+9999REMSYN066AAXX  03091 59567 32462 80207 10213 20177 39768 40144 53006 885//;EQDQ01  00002PRCP99
0163595670999992000120312004+22020+121560FM-12+032599999V0200301N019010042019N0100001N1+02151+01781101571ADDAA199000091GF108991081051004501999999MA1999999097811MD1210131+9999REMSYN066AAXX  03121 59567 32460 80319 10215 20178 39781 40157 52013 885//;EQDQ01  00002PRCP99
0178595670999992000120321004+22020+121560FM-12+032599999V0200301N014010012019N0100001N1+01941+01921101301ADDAA100002091AY161031AY221031GF108991081051001501999999MA1999999097521MD1510111+9999MW1021REMSYN078AAXX  03211 59567 11260 80314 10194 20192 39752 40130 55011 6002/ 70262 885//;
0178595670999992000120400004+22020+121560FM-12+032599999V0200201N012010012019N0120001N1+02011+01971101601ADDAA112003091AY161061AY221061GF108991081051001501999999MA1999999097821MD1210301+9999MW1021REMSYN078AAXX  04001 59567 11262 80212 10201 20197 39782 40160 52030 60032 70262 885//;
0178595670999992000120412004+22020+121560FM-12+032599999V0200301N022010021019N0100001N1+02021+01931101541ADDAA112007191AY161061AY221061GF108991081051002501999999MA1999999097771MD1310111+9999MW1021REMSYN078AAXX  04121 59567 11360 80322 10202 20193 39777 40154 53011 60072 70262 885//;
0178595670999992000120421004+22020+121560FM-12+032599999V0200301N006010021019N0100001N1+02061+01871101521ADDAA100003091AY161031AY221031GF108991081051002501999999MA1999999097751MD1310061+9999MW1211REMSYN078AAXX  04211 59567 11360 80306 10206 20187 39775 40152 53006 6003/ 72162 885//;
0178595670999992000120500004+22020+121560FM-12+032599999V0200501N012010042019N0100001N1+02151+01891101681ADDAA112003091AY161061AY221061GF107991071051004501999999MA1999999097921MD1110171+9999MW1021REMSYN078AAXX  05001 59567 11460 70512 10215 20189 39792 40168 51017 60032 70262 875//;
0150595670999992000120812004+22020+121560FM-12+032599999V0200301N021010042019N0100001N1+02101+01701101521ADDAA112007191GF106991061051004501001001MA1999999097761MD1310061+9999REMSYN072AAXX  08121 59567 12460 60321 10210 20170 39776 40152 53006 60072 86500;
0163595670999992000120900004+22020+121560FM-12+032599999V0200401N014012200019N0100001N1+02171+01811101591ADDAA199000091GF107991031051004501001011MA1999999097831MD1210181+9999REMSYN066AAXX  09001 59567 32460 70414 10217 20181 39783 40159 52018 83501;EQDQ01  00002PRCP99
0163595670999992000120903004+22020+121560FM-12+032599999V0200301N006010042019N0150001N1+02241+01891101531ADDAA199000091GF107991071051004501999999MA1999999097781MD1810051+9999REMSYN066AAXX  09031 59567 32465 70306 10224 20189 39778 40153 58005 875//;EQDQ01  00002PRCP99
0163595670999992000120906004+22020+121560FM-12+032599999V0200301N012010042019N0150001N1+02211+01861101321ADDAA199000091GF107991071051004501999999MA1999999097581MD1710201+9999REMSYN066AAXX  09061 59567 32465 70312 10221 20186 39758 40132 57020 875//;EQDQ01  00002PRCP99
0163595670999992000120909004+22020+121560FM-12+032599999V0200201N007010042019N0150001N1+02161+01791101361ADDAA199000091GF108991081051004501999999MA1999999097611MD1310031+9999REMSYN066AAXX  09091 59567 32465 80207 10216 20179 39761 40136 53003 885//;EQDQ01  00002PRCP99
0163595670999992000120912004+22020+121560FM-12+032599999V0200301N016010042019N0100001N1+02171+01841101441ADDAA199000091GF107991071051004501999999MA1999999097691MD1110081+9999REMSYN066AAXX  09121 59567 32460 70316 10217 20184 39769 40144 51008 875//;EQDQ01  00002PRCP99
0163595670999992000120921004+22020+121560FM-12+032599999V0200201N006010042019N0100001N1+02181+01931101491ADDAA199000091GF108991081051004501999999MA1999999097741MD1310031+9999REMSYN066AAXX  09211 59567 32460 80206 10218 20193 39774 40149 53003 885//;EQDQ01  00002PRCP99
0163595670999992000121000004+22020+121560FM-12+032599999V0200301N013010042019N0100001N1+02201+01981101681ADDAA199000091GF108991081051004501999999MA1999999097921MD1310181+9999REMSYN066AAXX  10001 59567 32460 80313 10220 20198 39792 40168 53018 885//;EQDQ01  00002PRCP99
0163595670999992000121003004+22020+121560FM-12+032599999V0200301N006010042019N0100001N1+02181+01991101661ADDAA199000091GF108991081051004501999999MA1999999097901MD1810021+9999REMSYN066AAXX  10031 59567 32460 80306 10218 20199 39790 40166 58002 885//;EQDQ01  00002PRCP99
0178595670999992000121006004+22020+121560FM-12+032599999V0200301N015010021019N0100001N1+02111+02051101491ADDAA106000591AY161061AY221061GF108991081051002501999999MA1999999097731MD1810171+9999MW1211REMSYN078AAXX  10061 59567 11360 80315 10211 20205 39773 40149 58017 69951 72162 885//;
0178595670999992000121009004+22020+121560FM-12+032599999V0200301N010010012019N0050001N1+01951+01951101681ADDAA100002091AY161031AY221031GF108991081051001501999999MA1999999097891MD1310161+9999MW1601REMSYN078AAXX  10091 59567 11250 80310 10195 20195 39789 40168 53016 6002/ 76062 885//;
0178595670999992000121012004+22020+121560FM-12+032599999V0200301N021010042019N0100001N1+01991+01991101691ADDAA112003091AY161061AY221061GF107991071051004501999999MA1999999097911MD1010021+9999MW1021REMSYN078AAXX  10121 59567 11460 70321 10199 20199 39791 40169 50002 60032 70262 875//;
0144595670999992000121021004+22020+121560FM-12+032599999V0200301N010010042019N0100001N1+02131+01851101741ADDAA199000021GF108991081051004501999999MA1999999097971MD1310041+9999REMSYN066AAXX  10211 59567 32460 80310 10213 20185 39797 40174 53004 885//;
0178595670999992000121100004+22020+121560FM-12+032599999V0200301N018010042019N0100001N1+02091+01851101911ADDAA112000591AY161061AY221061GF108991081051004501999999MA1999999098131MD1110161+9999MW1021REMSYN078AAXX  11001 59567 11460 80318 10209 20185 39813 40191 51016 69952 70262 885//;
0178595670999992000121103004+22020+121560FM-12+032599999V0200301N009010006019N0050001N1+01971+01921101941ADDAA100002091AY161031AY221031GF108991081051000751999999MA1999999098141MD1010011+9999MW1601REMSYN078AAXX  11031 59567 11150 80309 10197 20192 39814 40194 50001 6002/ 76062 885//;
0178595670999992000121106004+22020+121560FM-12+032599999V0200201N016010006019N0050001N1+01931+01931101801ADDAA106006191AY161061AY221061GF108991081051000751999999MA1999999098001MD1810141+9999MW1601REMSYN078AAXX  11061 59567 11150 80216 10193 20193 39800 40180 58014 60061 76062 885//;
0178595670999992000121109004+22020+121560FM-12+032599999V0200201N009010006019N0050001N1+01891+01891101911ADDAA100010991AY161031AY221031GF108991081051000751999999MA1999999098111MD1310111+9999MW1601REMSYN078AAXX  11091 59567 11150 80209 10189 20189 39811 40191 53011 6011/ 76062 885//;
0178595670999992000121112004+22020+121560FM-12+032599999V0200301N020010042019N0080001N1+01881+01881101991ADDAA112014091AY161061AY221061GF108991081051004501999999MA1999999098181MD1010071+9999MW1601REMSYN078AAXX  11121 59567 11458 80320 10188 20188 39818 40199 50007 60142 76062 885//;
0144595670999992000121121004+22020+121560FM-12+032599999V0200301N013010042019N0100001N1+01951+01761101811ADDAA199000021GF108991081051004501999999MA1999999098021MD1310041+9999REMSYN066AAXX  11211 59567 32460 80313 10195 20176 39802 40181 53004 885//;
0144595670999992000121200004+22020+121560FM-12+032599999V0200301N022010042019N0100001N1+01941+01791101951ADDAA199000021GF108991081051004501999999MA1999999098151MD1310131+9999REMSYN066AAXX  12001 59567 32460 80322 10194 20179 39815 40195 53013 885//;
0163595670999992000121203004+22020+121560FM-12+032599999V0200301N014010042019N0100001N1+01991+01751101801ADDAA199000091GF108991081051004501999999MA1999999098011MD1810141+9999REMSYN066AAXX  12031 59567 32460 80314 10199 20175 39801 40180 58014 885//;EQDQ01  00002PRCP99
0163595670999992000121206004+22020+121560FM-12+032599999V0200201N015010042019N0100001N1+01991+01781101651ADDAA199000091GF108991081051004501999999MA1999999097871MD1810141+9999REMSYN066AAXX  12061 59567 32460 80215 10199 20178 39787 40165 58014 885//;EQDQ01  00002PRCP99
0163595670999992000121209004+22020+121560FM-12+032599999V0200201N007010042019N0100001N1+01951+01841101671ADDAA199000091GF108991081051004501999999MA1999999097881MD1310011+9999REMSYN066AAXX  12091 59567 32460 80207 10195 20184 39788 40167 53001 885//;EQDQ01  00002PRCP99
0163595670999992000121212004+22020+121560FM-12+032599999V0200301N018010042019N0100001N1+01961+01881101781ADDAA199000091GF108991081051004501999999MA1999999097991MD1310111+9999REMSYN066AAXX  12121 59567 32460 80318 10196 20188 39799 40178 53011 885//;EQDQ01  00002PRCP99
0178595670999992000121221004+22020+121560FM-12+032599999V0200201N004010012019N0050001N1+01951+01951101511ADDAA100013091AY161031AY221031GF108991081051001501999999MA1999999097731MD1510061+9999MW1601REMSYN078AAXX  12211 59567 11250 80204 10195 20195 39773 40151 55006 6013/ 76062 885//;
0178595670999992000121300004+22020+121560FM-12+032599999V0200501N009010006019N0050001N1+02001+02001101581ADDAA112024991AY161061AY221061GF108991081051000751999999MA1999999097801MD1110071+9999MW1601REMSYN078AAXX  13001 59567 11150 80509 10200 20200 39780 40158 51007 60252 76062 885//;
0178595670999992000121306004+22020+121560FM-12+032599999V0201201N007010012019N0080001N1+02141+02141101191ADDAA106013091AY161061AY221061GF108991081051001501999999MA1999999097441MD1710231+9999MW1631REMSYN078AAXX  13061 59567 11258 81207 10214 20214 39744 40119 57023 60131 76362 885//;
0178595670999992000121312004+22020+121560FM-12+032599999V0202001N016010042019N0100001N1+02241+02151101281ADDAA112016091AY161061AY221061GF108991081051004501999999MA1999999097541MD1210061+9999MW1021REMSYN078AAXX  13121 59567 11460 82016 10224 20215 39754 40128 52006 60162 70262 885//;
0178595670999992000121321004+22020+121560FM-12+032599999V0200301N011010042019N0100001N1+01911+01911101391ADDAA100048091AY161031AY221031GF108991081051004501999999MA1999999097611MD1310051+9999MW1211REMSYN078AAXX  13211 59567 11460 80311 10191 20191 39761 40139 53005 6048/ 72162 885//;
0178595670999992000121400004+22020+121560FM-12+032599999V0200201N007010012019N0100001N1+01911+01911101621ADDAA112048091AY161061AY221061GF108991081051001501999999MA1999999097831MD1110221+9999MW1021REMSYN078AAXX  14001 59567 11260 80207 10191 20191 39783 40162 51022 60482 70262 885//;
0178595670999992000121403004+22020+121560FM-12+032599999V0200301N011010012019N0100001N1+01901+01901101561ADDAA100006191AY161031AY221031GF108991081051001501999999MA1999999097771MD1810061+9999MW1211REMSYN078AAXX  14031 59567 11260 80311 10190 20190 39777 40156 58006 6006/ 72162 885//;
0178595670999992000121406004+22020+121560FM-12+032599999V0200301N028010012019N0100001N1+01901+01871101431ADDAA106007191AY161061AY221061GF108991081051001501999999MA1999999097641MD1510131+9999MW1211REMSYN078AAXX  14061 59567 11260 80328 10190 20187 39764 40143 55013 60071 72162 885//;
0178595670999992000121409004+22020+121560FM-12+032599999V0200201N011010012019N0100001N1+01991+01901101581ADDAA100009991AY161031AY221031GF108991081051001501999999MA1999999097801MD1110161+9999MW1021REMSYN078AAXX  14091 59567 11260 80211 10199 20190 39780 40158 51016 6010/ 70262 885//;
0178595670999992000121412004+22020+121560FM-12+032599999V0200301N020010042019N0100001N1+02011+01901101741ADDAA112010991AY161061AY221061GF108991081051004501999999MA1999999097961MD1210161+9999MW1021REMSYN078AAXX  14121 59567 11460 80320 10201 20190 39796 40174 52016 60112 70262 885//;
0150595670999992000121421004+22020+121560FM-12+032599999V0200201N009010042019N0100001N1+02001+01861101691ADDAA100001091GF107991071051004501999999MA1999999097911MD1310021+9999REMSYN072AAXX  14211 59567 12460 70209 10200 20186 39791 40169 53002 6001/ 875//;
0150595670999992000121500004+22020+121560FM-12+032599999V0200201N013010042019N0100001N1+02021+01871101891ADDAA112001091GF108991081051004501999999MA1999999098101MD1210191+9999REMSYN072AAXX  15001 59567 12460 80213 10202 20187 39810 40189 52019 60012 885//;
0178595670999992000121503004+22020+121560FM-12+032599999V0200101N005010012019N0100001N1+02011+01971101851ADDAA100000591AY161031AY221031GF108991081051001501999999MA1999999098061MD1810041+9999MW1021REMSYN078AAXX  15031 59567 11260 80105 10201 20197 39806 40185 58004 6995/ 70262 885//;
0178595670999992000121506004+22020+121560FM-12+032599999V0200201N012010006019N0050001N1+02021+02021101711ADDAA106001091AY161061AY221061GF108991081051000751999999MA1999999097931MD1610131+9999MW1211REMSYN078AAXX  15061 59567 11150 80212 10202 20202 39793 40171 56013 60011 72162 885//;
0178595670999992000121509004+22020+121560FM-12+032599999V0200301N009010006019N0050001N1+02031+02031101771ADDAA100005191AY161031AY221031GF108991081051000751999999MA1999999097991MD1310061+9999MW1601REMSYN078AAXX  15091 59567 11150 80309 10203 20203 39799 40177 53006 6005/ 76062 885//;
0178595670999992000121512004+22020+121560FM-12+032599999V0200201N012010006019N0050001N1+02081+02081101841ADDAA112008991AY161061AY221061GF108991081051000751999999MA1999999098061MD1010071+9999MW1601REMSYN078AAXX  15121 59567 11150 80212 10208 20208 39806 40184 50007 60092 76062 885//;
0178595670999992000121521004+22020+121560FM-12+032599999V0200201N005010006019N0050001N1+02151+02151101801ADDAA100023191AY161031AY221031GF108991081051000751999999MA1999999098031MD1310051+9999MW1601REMSYN078AAXX  15211 59567 11150 80205 10215 20215 39803 40180 53005 6023/ 76062 885//;
0178595670999992000121600004+22020+121560FM-12+032599999V0200201N009010006019N0030001N1+02161+02161101911ADDAA112023991AY161061AY221061GF108991081061000751999999MA1999999098141MD1210111+9999MW1101REMSYN078AAXX  16001 59567 11130 80209 10216 20216 39814 40191 52011 60242 71062 886//;
0178595670999992000121603004+22020+121560FM-12+032599999V0200201N006010006019N0030001N1+02171+02171101801ADDAA100003091AY161031AY221031GF108991081071000751999999MA1999999098031MD1810111+9999MW1601REMSYN078AAXX  16031 59567 11130 80206 10217 20217 39803 40180 58011 6003/ 76062 887//;
0178595670999992000121606004+22020+121560FM-12+032599999V0200401N012010006019N0030001N1+02161+02161101611ADDAA106023991AY161061AY221061GF108991081071000751999999MA1999999097851MD1710181+9999MW1621REMSYN078AAXX  16061 59567 11130 80412 10216 20216 39785 40161 57018 60241 76262 887//;
0178595670999992000121609004+22020+121560FM-12+032599999V0200701N012010006019N0030001N1+02041+02041101741ADDAA100039991AY161031AY261031GF108991081071000751999999MA1999999097961MD1310111+9999MW1631REMSYN078AAXX  16091 59567 11130 80712 10204 20204 39796 40174 53011 6040/ 76366 887//;
0178595670999992000121612004+22020+121560FM-12+032599999V0200401N017010006019N0050001N1+01921+01921101951ADDAA112055191AY161061AY261061GF108991081071000751999999MA1999999098151MD1010191+9999MW1611REMSYN078AAXX  16121 59567 11150 80417 10192 20192 39815 40195 50019 60552 76166 887//;
0150595670999992000121621004+22020+121560FM-12+032599999V0200301N008012200019N0100001N1+02101+02071101751ADDAA100004191GF104991041051001501001001MA1999999097981MD1510011+9999REMSYN072AAXX  16211 59567 12260 40308 10210 20207 39798 40175 55001 6004/ 84500;
0150595670999992000121700004+22020+121560FM-12+032599999V0200201N007010012019N0100001N1+02191+02161101891ADDAA112004191GF106991061051001501001001MA1999999098121MD1210141+9999REMSYN072AAXX  17001 59567 12260 60207 10219 20216 39812 40189 52014 60042 86500;
0163595670999992000121703004+22020+121560FM-12+032599999V0200301N008010012019N0100001N1+02301+02231101791ADDAA199000091GF107991071051001501999999MA1999999098041MD1810081+9999REMSYN066AAXX  17031 59567 32260 70308 10230 20223 39804 40179 58008 875//;EQDQ01  00002PRCP99
0178595670999992000121706004+22020+121560FM-12+032599999V0200301N015010006019N0030001N1+02171+02171101561ADDAA106049091AY161061AY221061GF108991081071000751999999MA1999999097801MD1610241+9999MW1631REMSYN078AAXX  17061 59567 11130 80315 10217 20217 39780 40156 56024 60491 76362 887//;
0178595670999992000121709004+22020+121560FM-12+032599999V0200501N008010006019N0050001N1+02001+02001101651ADDAA100066091AY161031AY261031GF108991081071000751999999MA1999999097871MD1110071+9999MW1611REMSYN078AAXX  17091 59567 11150 80508 10200 20200 39787 40165 51007 6066/ 76166 887//;
0178595670999992000121712004+22020+121560FM-12+032599999V0200301N012010012019N0100001N1+02161+02161101731ADDAA112070191AY161061AY221061GF108991081051001501999999MA1999999097971MD1110101+9999MW1211REMSYN078AAXX  17121 59567 11260 80312 10216 20216 39797 40173 51010 60702 72162 885//;
0144595670999992000121721004+22020+121560FM-12+032599999V0200301N008010012019N0100001N1+02181+02181101491ADDAA199000021GF108991081051001501999999MA1999999097741MD1510051+9999REMSYN066AAXX  17211 59567 32260 80308 10218 20218 39774 40149 55005 885//;
0144595670999992000121800004+22020+121560FM-12+032599999V0200401N018010006019N0100001N1+02211+02211101631ADDAA199000021GF108991081051000751999999MA1999999097881MD1110141+9999REMSYN066AAXX  18001 59567 32160 80418 10221 20221 39788 40163 51014 885//;
0163595670999992000121803004+22020+121560FM-12+032599999V0200301N005010006019N0050001N1+02271+02271101651ADDAA199000091GF108991081051000751999999MA1999999097901MD1010021+9999REMSYN066AAXX  18031 59567 32150 80305 10227 20227 39790 40165 50002 885//;EQDQ01  00002PRCP99
0178595670999992000121806004+22020+121560FM-12+032599999V0200201N008010006019N0050001N1+02241+02221101391ADDAA106000591AY161061AY221061GF108991081051000751999999MA1999999097651MD1710251+9999MW1211REMSYN078AAXX  18061 59567 11150 80208 10224 20222 39765 40139 57025 69951 72162 885//;
0150595670999992000121809004+22020+121560FM-12+032599999V0200301N008010012019N0100001N1+02221+02191101411ADDAA100000591GF107991071051001501999999MA1999999097671MD1310021+9999REMSYN072AAXX  18091 59567 12260 70308 10222 20219 39767 40141 53002 6995/ 875//;
0150595670999992000121812004+22020+121560FM-12+032599999V0200401N012010012019N0100001N1+02261+02241101661ADDAA112000591GF108991081051001501999999MA1999999097911MD1110241+9999REMSYN072AAXX  18121 59567 12260 80412 10226 20224 39791 40166 51024 69952 885//;
0163595670999992000121821004+22020+121560FM-12+032599999V0200701N006010012019N0100001N1+02271+02251101621ADDAA199000091GF108991081051001501999999MA1999999097871MD1310041+9999REMSYN066AAXX  18211 59567 32260 80706 10227 20225 39787 40162 53004 885//;EQDQ01  00002PRCP99
0163595670999992000121900004+22020+121560FM-12+032599999V0200601N010010012019N0100001N1+02281+02271101771ADDAA199000091GF107991071051001501999999MA1999999098021MD1210151+9999REMSYN066AAXX  19001 59567 32260 70610 10228 20227 39802 40177 52015 875//;EQDQ01  00002PRCP99
0163595670999992000121903004+22020+121560FM-12+032599999V0200801N008010042019N0150001N1+02451+02311101721ADDAA199000091GF106991061051004501001001MA1999999097991MD1810031+9999REMSYN066AAXX  19031 59567 32465 60808 10245 20231 39799 40172 58003 86500;EQDQ01  00002PRCP99
0163595670999992000121906004+22020+121560FM-12+032599999V0200601N012010042019N0200001N1+02351+02181101541ADDAA199000091GF107991071051004501999999MA1999999097811MD1710181+9999REMSYN066AAXX  19061 59567 32470 70612 10235 20218 39781 40154 57018 875//;EQDQ01  00002PRCP99
0163595670999992000121909004+22020+121560FM-12+032599999V0200401N008010042019N0200001N1+02271+02161101531ADDAA199000091GF107991071051004501999999MA1999999097791MD1510021+9999REMSYN066AAXX  19091 59567 32470 70408 10227 20216 39779 40153 55002 875//;EQDQ01  00002PRCP99
0163595670999992000121912004+22020+121560FM-12+032599999V0200301N010010042019N0150001N1+02261+02251101691ADDAA199000091GF108991081051004501999999MA1999999097941MD1210151+9999REMSYN066AAXX  19121 59567 32465 80310 10226 20225 39794 40169 52015 885//;EQDQ01  00002PRCP99
0150595670999992000121921004+22020+121560FM-12+032599999V0200601N007010012019N0100001N1+02251+02191101491ADDAA100000591GF108991081051001501999999MA1999999097751MD1510081+9999REMSYN072AAXX  19211 59567 12260 80607 10225 20219 39775 40149 55008 6995/ 885//;
0178595670999992000122000004+22020+121560FM-12+032599999V0200801N013010021019N0100001N1+02291+02201101631ADDAA112001091AY161061AY221061GF108991081051002501999999MA1999999097891MD1210141+9999MW1021REMSYN078AAXX  20001 59567 11360 80813 10229 20220 39789 40163 52014 60012 70262 885//;
0163595670999992000122003004+22020+121560FM-12+032599999V0201201N002010042019N0100001N1+02401+02291101561ADDAA199000091GF107991071051004501999999MA1999999097831MD1810061+9999REMSYN066AAXX  20031 59567 32460 71202 10240 20229 39783 40156 58006 875//;EQDQ01  00002PRCP99
0163595670999992000122006004+22020+121560FM-12+032599999V0202001N010010021019N0100001N1+02381+02251101281ADDAA199000091GF108991081051002501999999MA1999999097561MD1710271+9999REMSYN066AAXX  20061 59567 32360 82010 10238 20225 39756 40128 57027 885//;EQDQ01  00002PRCP99
0163595670999992000122009004+22020+121560FM-12+032599999V0202401N008010012019N0100001N1+02351+02251101301ADDAA199000091GF106991061051001501001001MA1999999097581MD1310021+9999REMSYN066AAXX  20091 59567 32260 62408 10235 20225 39758 40130 53002 86500;EQDQ01  00002PRCP99
0163595670999992000122012004+22020+121560FM-12+032599999V0202601N006012200019N0100001N1+02291+02261101501ADDAA199000091GF103991031051004501001001MA1999999097761MD1310181+9999REMSYN066AAXX  20121 59567 32460 32606 10229 20226 39776 40150 53018 83500;EQDQ01  00002PRCP99
0150595670999992000122021004+22020+121560FM-12+032599999V0200201N009010012019N0100001N1+01981+01871101431ADDAA100003091GF108991081051001501999999MA1999999097651MD1810071+9999REMSYN072AAXX  20211 59567 12260 80209 10198 20187 39765 40143 58007 6003/ 885//;
0150595670999992000122100004+22020+121560FM-12+032599999V0200201N019010021019N0100001N1+01981+01821101681ADDAA112003091GF107991071051002501999999MA1999999097901MD1210251+9999REMSYN072AAXX  21001 59567 12360 70219 10198 20182 39790 40168 52025 60032 875//;
0163595670999992000122103004+22020+121560FM-12+032599999V0200301N009010021019N0150001N1+02051+01911101651ADDAA199000091GF107991071051002501999999MA1999999097881MD1810021+9999REMSYN066AAXX  21031 59567 32365 70309 10205 20191 39788 40165 58002 875//;EQDQ01  00002PRCP99
0163595670999992000122106004+22020+121560FM-12+032599999V0200201N020010021019N0150001N1+01971+01831101371ADDAA199000091GF107991071051002501999999MA1999999097601MD1710281+9999REMSYN066AAXX  21061 59567 32365 70220 10197 20183 39760 40137 57028 875//;EQDQ01  00002PRCP99
0178595670999992000122109004+22020+121560FM-12+032599999V0200301N008010021019N0150001N1+01901+01851101461ADDAA100000591AY161031AY221031GF107991071051002501999999MA1999999097671MD1310071+9999MW1021REMSYN078AAXX  21091 59567 11365 70308 10190 20185 39767 40146 53007 6995/ 70262 875//;
0178595670999992000122112004+22020+121560FM-12+032599999V0200301N026010012019N0100001N1+01891+01811101601ADDAA112002091AY161061AY221061GF108991081051001501999999MA1999999097811MD1110141+9999MW1021REMSYN078AAXX  21121 59567 11260 80326 10189 20181 39781 40160 51014 60022 70262 885//;
0150595670999992000122121004+22020+121560FM-12+032599999V0200401N016010012019N0100001N1+01931+01811101371ADDAA100004191GF105991051051001501001001MA1999999097591MD1510031+9999REMSYN072AAXX  21211 59567 12260 50416 10193 20181 39759 40137 55003 6004/ 85500;
0150595670999992000122200004+22020+121560FM-12+032599999V0200301N031012200019N0100001N1+01981+01811101461ADDAA112004191GF103991031051004501001001MA1999999097681MD1310091+9999REMSYN072AAXX  22001 59567 12460 30331 10198 20181 39768 40146 53009 60042 83500;
0163595670999992000122203004+22020+121560FM-12+032599999V0200301N010010042019N0100001N1+02051+01901101511ADDAA199000091GF107991071051004501999999MA1999999097741MD1010061+9999REMSYN066AAXX  22031 59567 32460 70310 10205 20190 39774 40151 50006 875//;EQDQ01  00002PRCP99
0163595670999992000122206004+22020+121560FM-12+032599999V0200201N010010042019N0150001N1+02291+02001101231ADDAA199000091GF107991071051004501999999MA1999999097501MD1710241+9999REMSYN066AAXX  22061 59567 32465 70210 10229 20200 39750 40123 57024 875//;EQDQ01  00002PRCP99
0163595670999992000122209004+22020+121560FM-12+032599999V0200301N008010042019N0150001N1+02061+01861101311ADDAA199000091GF108991081051004501999999MA1999999097551MD1110051+9999REMSYN066AAXX  22091 59567 32465 80308 10206 20186 39755 40131 51005 885//;EQDQ01  00002PRCP99
0163595670999992000122212004+22020+121560FM-12+032599999V0200301N025010042019N0150001N1+02101+01871101461ADDAA199000091GF108991081051004501999999MA1999999097701MD1210151+9999REMSYN066AAXX  22121 59567 32465 80325 10210 20187 39770 40146 52015 885//;EQDQ01  00002PRCP99
0163595670999992000122221004+22020+121560FM-12+032599999V0200201N010010042019N0100001N1+02001+01891101321ADDAA199000091GF108991081051004501999999MA1999999097551MD1510021+9999REMSYN066AAXX  22211 59567 32460 80210 10200 20189 39755 40132 55002 885//;EQDQ01  00002PRCP99
0163595670999992000122300004+22020+121560FM-12+032599999V0200301N020010021019N0100001N1+02001+01831101461ADDAA199000091GF107991071051002501999999MA1999999097691MD1110141+9999REMSYN066AAXX  23001 59567 32360 70320 10200 20183 39769 40146 51014 875//;EQDQ01  00002PRCP99
0163595670999992000122303004+22020+121560FM-12+032599999V0200201N009010021019N0100001N1+01981+01791101531ADDAA199000091GF107991071051002501999999MA1999999097751MD1010061+9999REMSYN066AAXX  23031 59567 32360 70209 10198 20179 39775 40153 50006 875//;EQDQ01  00002PRCP99
0163595670999992000122306004+22020+121560FM-12+032599999V0200201N019010042019N0100001N1+02131+01781101341ADDAA199000091GF107991071051004501999999MA1999999097591MD1710161+9999REMSYN066AAXX  23061 59567 32460 70219 10213 20178 39759 40134 57016 875//;EQDQ01  00002PRCP99
0163595670999992000122309004+22020+121560FM-12+032599999V0200201N010010042019N0100001N1+01951+01611101501ADDAA199000091GF107991071051004501999999MA1999999097721MD1310131+9999REMSYN066AAXX  23091 59567 32460 70210 10195 20161 39772 40150 53013 875//;EQDQ01  00002PRCP99
0163595670999992000122312004+22020+121560FM-12+032599999V0200201N019010042019N0100001N1+01931+01491101701ADDAA199000091GF108991081051004501999999MA1999999097911MD1110191+9999REMSYN066AAXX  23121 59567 32460 80219 10193 20149 39791 40170 51019 885//;EQDQ01  00002PRCP99
0163595670999992000122321004+22020+121560FM-12+032599999V0200301N011012200019N0100001N1+01881+01411101691ADDAA199000091GF102991021051004501001001MA1999999097891MD1310021+9999REMSYN066AAXX  23211 59567 32460 20311 10188 20141 39789 40169 53002 82500;EQDQ01  00002PRCP99
0163595670999992000122400004+22020+121560FM-12+032599999V0200301N021010042019N0100001N1+01911+01461101871ADDAA199000091GF106991061051004501001001MA1999999098071MD1110181+9999REMSYN066AAXX  24001 59567 32460 60321 10191 20146 39807 40187 51018 86500;EQDQ01  00002PRCP99
0163595670999992000122403004+22020+121560FM-12+032599999V0200201N007010042019N0100001N1+02071+01621101831ADDAA199000091GF106991061051004501001001MA1999999098051MD1810021+9999REMSYN066AAXX  24031 59567 32460 60207 10207 20162 39805 40183 58002 86500;EQDQ01  00002PRCP99
0163595670999992000122406004+22020+121560FM-12+032599999V0200301N013010042019N0100001N1+02151+01681101681ADDAA199000091GF106991061051004501001001MA1999999097921MD1810131+9999REMSYN066AAXX  24061 59567 32460 60313 10215 20168 39792 40168 58013 86500;EQDQ01  00002PRCP99
0163595670999992000122409004+22020+121560FM-12+032599999V0200301N007010042019N0100001N1+01951+01531101781ADDAA199000091GF105991051051004501001001MA1999999097991MD1310071+9999REMSYN066AAXX  24091 59567 32460 50307 10195 20153 39799 40178 53007 85500;EQDQ01  00002PRCP99
0163595670999992000122412004+22020+121560FM-12+032599999V0200201N012010042019N0100001N1+01951+01551101881ADDAA199000091GF106991061051004501001001MA1999999098081MD1310091+9999REMSYN066AAXX  24121 59567 32460 60212 10195 20155 39808 40188 53009 86500;EQDQ01  00002PRCP99
0163595670999992000122421004+22020+121560FM-12+032599999V0200201N007012200019N0100001N1+01921+01421101841ADDAA199000091GF101991011021004501001001MA1999999098041MD1310011+9999REMSYN066AAXX  24211 59567 32460 10207 10192 20142 39804 40184 53001 81200;EQDQ01  00002PRCP99
0163595670999992000122500004+22020+121560FM-12+032599999V0200101N006012200019N0100001N1+01971+01371102021ADDAA199000091GF101991011011004501001001MA1999999098221MD1310181+9999REMSYN066AAXX  25001 59567 32460 10106 10197 20137 39822 40202 53018 81100;EQDQ01  00002PRCP99
0163595670999992000122503004+22020+121560FM-12+032599999V0200301N009012200019N0150001N1+02141+01491101951ADDAA199000091GF101991011001999999031001MA1999999098181MD1810041+9999REMSYN066AAXX  25031 59567 32965 10309 10214 20149 39818 40195 58004 81030;EQDQ01  00002PRCP99
0163595670999992000122506004+22020+121560FM-12+032599999V0200201N014012200019N0150001N1+02211+01631101841ADDAA199000091GF102991021001999999031001MA1999999098081MD1710101+9999REMSYN066AAXX  25061 59567 32965 20214 10221 20163 39808 40184 57010 82030;EQDQ01  00002PRCP99
0163595670999992000122509004+22020+121560FM-12+032599999V0200101N006012200019N0100001N1+02001+01461101971ADDAA199000091GF101991011001999999031001MA1999999098181MD1310101+9999REMSYN066AAXX  25091 59567 32960 10106 10200 20146 39818 40197 53010 81030;EQDQ01  00002PRCP99
0163595670999992000122512004+22020+121560FM-12+032599999V0200301N022012200019N0100001N1+02001+01471102101ADDAA199000091GF102991021051004501001001MA1999999098301MD1110121+9999REMSYN066AAXX  25121 59567 32460 20322 10200 20147 39830 40210 51012 82500;EQDQ01  00002PRCP99
0163595670999992000122521004+22020+121560FM-12+032599999V0200301N010012200019N0100001N1+01981+01401102011ADDAA199000091GF102991021051004501001001MA1999999098211MD1310021+9999REMSYN066AAXX  25211 59567 32460 20310 10198 20140 39821 40201 53002 82500;EQDQ01  00002PRCP99
0163595670999992000122600004+22020+121560FM-12+032599999V0200301N022010042019N0100001N1+02031+01651102061ADDAA199000091GF106991061051004501001001MA1999999098271MD1110061+9999REMSYN066AAXX  26001 59567 32460 60322 10203 20165 39827 40206 51006 86500;EQDQ01  00002PRCP99
0163595670999992000122603004+22020+121560FM-12+032599999V0200401N008010042019N0100001N1+02151+01731102081ADDAA199000091GF107991071051004501999999MA1999999098301MD1010031+9999REMSYN066AAXX  26031 59567 32460 70408 10215 20173 39830 40208 50003 875//;EQDQ01  00002PRCP99
0163595670999992000122606004+22020+121560FM-12+032599999V0200401N018010042019N0100001N1+02091+01651101931ADDAA199000091GF107991071051004501999999MA1999999098151MD1810151+9999REMSYN066AAXX  26061 59567 32460 70418 10209 20165 39815 40193 58015 875//;EQDQ01  00002PRCP99
0163595670999992000122609004+22020+121560FM-12+032599999V0200301N011010042019N0100001N1+02031+01551101971ADDAA199000091GF106991061051004501001001MA1999999098181MD1210031+9999REMSYN066AAXX  26091 59567 32460 60311 10203 20155 39818 40197 52003 86500;EQDQ01  00002PRCP99
0163595670999992000122612004+22020+121560FM-12+032599999V0200401N018010042019N0100001N1+02021+01631102111ADDAA199000091GF108991081051004501999999MA1999999098311MD1110131+9999REMSYN066AAXX  26121 59567 32460 80418 10202 20163 39831 40211 51013 885//;EQDQ01  00002PRCP99
0163595670999992000122621004+22020+121560FM-12+032599999V0200401N009010042019N0100001N1+01991+01591101961ADDAA199000091GF108991081051004501999999MA1999999098171MD1410001+9999REMSYN066AAXX  26211 59567 32460 80409 10199 20159 39817 40196 54000 885//;EQDQ01  00002PRCP99
0163595670999992000122700004+22020+121560FM-12+032599999V0200501N019010042019N0100001N1+02011+01571102091ADDAA199000091GF108991081051004501999999MA1999999098291MD1310121+9999REMSYN066AAXX  27001 59567 32460 80519 10201 20157 39829 40209 53012 885//;EQDQ01  00002PRCP99
0163595670999992000122703004+22020+121560FM-12+032599999V0200301N008010042019N0150001N1+02011+01601102051ADDAA199000091GF108991081051004501999999MA1999999098261MD1710031+9999REMSYN066AAXX  27031 59567 32465 80308 10201 20160 39826 40205 57003 885//;EQDQ01  00002PRCP99
0163595670999992000122706004+22020+121560FM-12+032599999V0200401N014010042019N0150001N1+02021+01551101771ADDAA199000091GF108991081051004501999999MA1999999097991MD1710271+9999REMSYN066AAXX  27061 59567 32465 80414 10202 20155 39799 40177 57027 885//;EQDQ01  00002PRCP99
0163595670999992000122709004+22020+121560FM-12+032599999V0200601N010010042019N0100001N1+02031+01641101811ADDAA199000091GF108991081051004501999999MA1999999098031MD1310041+9999REMSYN066AAXX  27091 59567 32460 80610 10203 20164 39803 40181 53004 885//;EQDQ01  00002PRCP99
0163595670999992000122712004+22020+121560FM-12+032599999V0200401N012010042019N0100001N1+02031+01671101921ADDAA199000091GF108991081051004501999999MA1999999098131MD1210101+9999REMSYN066AAXX  27121 59567 32460 80412 10203 20167 39813 40192 52010 885//;EQDQ01  00002PRCP99
0178595670999992000122721004+22020+121560FM-12+032599999V0200301N006010042019N0100001N1+01911+01721101741ADDAA100000591AY161031AY221031GF108991081051004501999999MA1999999097941MD1510051+9999MW1211REMSYN078AAXX  27211 59567 11460 80306 10191 20172 39794 40174 55005 6995/ 72162 885//;
0178595670999992000122800004+22020+121560FM-12+032599999V0200301N014010042019N0150001N1+01911+01821101821ADDAA112000591AY161061AY221061GF107991071051004501999999MA1999999098021MD1310081+9999MW1021REMSYN078AAXX  28001 59567 11465 70314 10191 20182 39802 40182 53008 69952 70262 875//;
0178595670999992000122803004+22020+121560FM-12+032599999V0200301N006010042019N0150001N1+01871+01861101801ADDAA100003091AY161031AY221031GF108991081051004501999999MA1999999098001MD1810021+9999MW1211REMSYN078AAXX  28031 59567 11465 80306 10187 20186 39800 40180 58002 6003/ 72162 885//;
0178595670999992000122806004+22020+121560FM-12+032599999V0200201N012010012019N0100001N1+01941+01911101571ADDAA106004191AY161061AY221061GF108991081051001501999999MA1999999097781MD1710221+9999MW1211REMSYN078AAXX  28061 59567 11260 80212 10194 20191 39778 40157 57022 60041 72162 885//;
0150595670999992000122809004+22020+121560FM-12+032599999V0200101N005010042019N0100001N1+01951+01821101611ADDAA100004191GF108991081051004501999999MA1999999097821MD1310041+9999REMSYN072AAXX  28091 59567 12460 80105 10195 20182 39782 40161 53004 6004/ 885//;
0178595670999992000122812004+22020+121560FM-12+032599999V0200301N014010012019N0100001N1+01921+01871101691ADDAA112006191AY161061AY221061GF108991081051001501999999MA1999999097901MD1210081+9999MW1211REMSYN078AAXX  28121 59567 11260 80314 10192 20187 39790 40169 52008 60062 72162 885//;
0178595670999992000122821004+22020+121560FM-12+032599999V0200201N007010012019N0100001N1+01891+01861101441ADDAA100003091AY161031AY221031GF108991081051001501999999MA1999999097651MD1810081+9999MW1021REMSYN078AAXX  28211 59567 11260 80207 10189 20186 39765 40144 58008 6003/ 70262 885//;
0178595670999992000122900004+22020+121560FM-12+032599999V0200301N026010012019N0100001N1+01921+01851101561ADDAA112003091AY161061AY221061GF108991081051001501999999MA1999999097771MD1210121+9999MW1021REMSYN078AAXX  29001 59567 11260 80326 10192 20185 39777 40156 52012 60032 70262 885//;
0163595670999992000122903004+22020+121560FM-12+032599999V0200401N023010012019N0100001N1+01921+01851101411ADDAA199000091GF108991081051001501999999MA1999999097631MD1810141+9999REMSYN066AAXX  29031 59567 32260 80423 10192 20185 39763 40141 58014 885//;EQDQ01  00002PRCP99
0178595670999992000122906004+22020+121560FM-12+032599999V0200301N011010006019N0050001N1+01911+01911101271ADDAA106002091AY161061AY221061GF108991081051000751999999MA1999999097491MD1510141+9999MW1211REMSYN078AAXX  29061 59567 11150 80311 10191 20191 39749 40127 55014 60021 72162 885//;
0178595670999992000122909004+22020+121560FM-12+032599999V0200401N007010042019N0150001N1+01931+01931101371ADDAA100006191AY161031AY221031GF108991081051004501999999MA1999999097591MD1110101+9999MW1021REMSYN078AAXX  29091 59567 11465 80407 10193 20193 39759 40137 51010 6006/ 70262 885//;
0178595670999992000122912004+22020+121560FM-12+032599999V0200301N012010012019N0100001N1+01941+01941101421ADDAA112006191AY161061AY221061GF108991081051001501999999MA1999999097641MD1310051+9999MW1021REMSYN078AAXX  29121 59567 11260 80312 10194 20194 39764 40142 53005 60062 70262 885//;
0178595670999992000122921004+22020+121560FM-12+032599999V0200301N006010006019N0050001N1+01961+01961101161ADDAA100021191AY161031AY221031GF108991081051000751999999MA1999999097391MD1510101+9999MW1601REMSYN078AAXX  29211 59567 11150 80306 10196 20196 39739 40116 55010 6021/ 76062 885//;
0178595670999992000123000004+22020+121560FM-12+032599999V0200301N010010006019N0050001N1+02001+02001101201ADDAA112035191AY161061AY221061GF108991081051000751999999MA1999999097441MD1310051+9999MW1631REMSYN078AAXX  30001 59567 11150 80310 10200 20200 39744 40120 53005 60352 76362 885//;
0178595670999992000123003004+22020+121560FM-12+032599999V0200301N007010006019N0030001N1+02001+02001101121ADDAA100017091AY161031AY221031GF108991081071000751999999MA1999999097361MD1810081+9999MW1631REMSYN078AAXX  30031 59567 11130 80307 10200 20200 39736 40112 58008 6017/ 76362 887//;
0178595670999992000123006004+22020+121560FM-12+032599999V0200401N021010006019N0030001N1+01961+01961100821ADDAA106022191AY161061AY221061GF108991081071000751999999MA1999999097061MD1810301+9999MW1631REMSYN078AAXX  30061 59567 11130 80421 10196 20196 39706 40082 58030 60221 76362 887//;
0178595670999992000123009004+22020+121560FM-12+032599999V0200401N018010012019N0080001N1+01911+01911100801ADDAA100026991AY161031AY221031GF108991081051001501999999MA1999999097041MD1810021+9999MW1611REMSYN078AAXX  30091 59567 11258 80418 10191 20191 39704 40080 58002 6027/ 76162 885//;
0178595670999992000123012004+22020+121560FM-12+032599999V0200301N036010012019N0100001N1+02001+01891100861ADDAA112026991AY161061AY221061GF108991081051001501999999MA1999999097111MD1110071+9999MW1021REMSYN078AAXX  30121 59567 11260 80336 10200 20189 39711 40086 51007 60272 70262 885//;
0150595670999992000123021004+22020+121560FM-12+032599999V0200301N013010012019N0100001N1+01921+01791100771ADDAA100003091GF108991081051001501999999MA1999999097011MD1310051+9999REMSYN072AAXX  30211 59567 12260 80313 10192 20179 39701 40077 53005 6003/ 885//;
0150595670999992000123100004+22020+121560FM-12+032599999V0200301N030010042019N0100001N1+01941+01711100981ADDAA112003091GF107991071051004501999999MA1999999097221MD1110211+9999REMSYN072AAXX  31001 59567 12460 70330 10194 20171 39722 40098 51021 60032 875//;
0163595670999992000123103004+22020+121560FM-12+032599999V0200201N008010042019N0100001N1+01941+01611101091ADDAA199000091GF107991071051004501999999MA1999999097321MD1010101+9999REMSYN066AAXX  31031 59567 32460 70208 10194 20161 39732 40109 50010 875//;EQDQ01  00002PRCP99
0163595670999992000123106004+22020+121560FM-12+032599999V0200201N015010042019N0100001N1+01891+01571100951ADDAA199000091GF107991071051004501999999MA1999999097181MD1510141+9999REMSYN066AAXX  31061 59567 32460 70215 10189 20157 39718 40095 55014 875//;EQDQ01  00002PRCP99
0163595670999992000123109004+22020+121560FM-12+032599999V0200201N008010042019N0100001N1+01861+01461101101ADDAA199000091GF107991071051004501999999MA1999999097321MD1110141+9999REMSYN066AAXX  31091 59567 32460 70208 10186 20146 39732 40110 51014 875//;EQDQ01  00002PRCP99
0163595670999992000123112004+22020+121560FM-12+032599999V0200301N020010042019N0100001N1+01821+01441101271ADDAA199000091GF108991081051004501999999MA1999999097481MD1110161+9999REMSYN066AAXX  31121 59567 32460 80320 10182 20144 39748 40127 51016 885//;EQDQ01  00002PRCP99
0163595670999992000123121004+22020+121560FM-12+032599999V0200301N010012200019N0100001N1+01681+01111101531ADDAA199000091GF102991021021004501001001MA1999999097711MD1310071+9999REMSYN066AAXX  31211 59567 32460 20310 10168 20111 39771 40153 53007 82200;EQDQ01  00002PRCP99
