0161600600999992000010106004+29370-010180FM-12+0066GMMF V0201801N001012200019N0060001N1+01381+00831101941ADDAA106000091GA1001+999999999GF100991001001999999001001KA1999N+01281REMSYN064AAXX  01064 60060 32956 01802 10138 20083 40194 5//// 333 20128;EQDQ01  00002PRCP06
0174600600999992000010109004+29370-010180FM-12+0066GMMF V0201401N001010048019N0060001N1+01401+01081102111ADDAA106000091GA1061+004809069GF106991061051004501001001MD1210171+9999REMSYN076AAXX  01094 60060 32456 61402 10140 20108 40211 52017 86500 333 86616 95300;EQDQ01  00002PRCP06
0174600600999992000010112004+29370-010180FM-12+0066GMMF V0203201N001012200019N0080001N1+01711+01321102291ADDAA106000091GA1011+004809069GF101991011051004501001001MD1110191+9999REMSYN076AAXX  01124 60060 32458 13202 10171 20132 40229 51019 81500 333 81616 95300;EQDQ01  00002PRCP06
0152600600999992000010115004+29370-010180FM-12+0066GMMF V0203601N002112200019N0080001N1+01801+01331102121ADDAA106000091GA1001+999999999GF100991001001999999001001MD1710161+9999REMSYN054AAXX  01154 60060 32958 03604 10180 20133 40212 57016;EQDQ01  00002PRCP06
0193600600999992000010118004+29370-010180FM-12+0066GMMF V0203601N001012200019N0080001N1+01691+01381102131ADDAA106000091GA1031+004809069GF103991031051004501001001KA1120M+01821MD1010001+9999REMSYN082AAXX  01184 60060 32458 33602 10169 20138 40213 50000 83500 333 10182 83616 95300;EQDQ01  00002PRCP06
0152600600999992000010121004+29370-010180FM-12+0066GMMF V0201601N001012200019N0060001N1+01511+01301102201ADDAA106000091GA1001+999999999GF100991001001999999001001MD1310071+9999REMSYN054AAXX  01214 60060 32956 01602 10151 20130 40220 53007;EQDQ01  00002PRCP06
0179600600999992000010206004+29370-010180FM-12+0066GMMF V0200801N001012200019N0060001N1+01311+01211102311ADDAA106000091GA1011+087009009GF101991001001999999001011KA1120N+01281REMSYN082AAXX  02064 60060 32956 10802 10131 20121 40231 5//// 80001 333 20128 81079 95300;EQDQ01  00002PRCP06
0152600600999992000010209004+29370-010180FM-12+0066GMMF V0201001N002612200019N0060001N1+01411+01131102451ADDAA106000091GA1001+999999999GF100991001001999999001001MD1310151+9999REMSYN054AAXX  02094 60060 32956 01005 10141 20113 40245 53015;EQDQ01  00002PRCP06
0174600600999992000010212004+29370-010180FM-12+0066GMMF V0200201N004612200019N0060001N1+01651+01221102561ADDAA106000091GA1011+003909089GF103991031081004501001001MD1110111+9999REMSYN076AAXX  02124 60060 32456 30209 10165 20122 40256 51011 83800 333 81813 95300;EQDQ01  00002PRCP06
0174600600999992000010215004+29370-010180FM-12+0066GMMF V0200201N005112200019N0060001N1+01731+01211102441ADDAA106000091GA1011+003909089GF102991021081004501001001MD1810101+9999REMSYN076AAXX  02154 60060 32456 20210 10173 20121 40244 58010 82800 333 81813 95300;EQDQ01  00002PRCP06
0175600600999992000010218004+29370-010180FM-12+0066GMMF V0200401N006212200019N0060001N1+01611+01201102441ADDAA106000091GA1001+999999999GF100991001001999999001001KA1999M+01761MD1410001+9999REMSYN064AAXX  02184 60060 32956 00412 10161 20120 40244 54000 333 10176;EQDQ01  00002PRCP06
0152600600999992000010221004+29370-010180FM-12+0066GMMF V0200601N004112200019N0060001N1+01501+01151102511ADDAA106000091GA1001+999999999GF100991001001999999001001MD1310061+9999REMSYN054AAXX  02214 60060 32956 00608 10150 20115 40251 53006;EQDQ01  00002PRCP06
0152600600999992000010312004+29370-010180FM-12+0066GMMF V0202801N002112200019N0100001N1+01721+00731102651ADDAA106000091GA1001+999999999GF100991001001999999001001MD1010051+9999REMSYN054AAXX  03124 60060 32960 02804 10172 20073 40265 50005;EQDQ01  00002PRCP06
0152600600999992000010315004+29370-010180FM-12+0066GMMF V0202801N002112200019N0100001N1+01701+01001102461ADDAA106000091GA1001+999999999GF100991001001999999001001MD1710191+9999REMSYN054AAXX  03154 60060 32960 02804 10170 20100 40246 57019;EQDQ01  00002PRCP06
0152600600999992000010412004+29370-010180FM-12+0066GMMF V0203001N002112200019N0100001N1+01641+00951102581ADDAA106000091GA1001+999999999GF100991001001999999001001MD1010091+9999REMSYN054AAXX  04124 60060 32960 03004 10164 20095 40258 50009;EQDQ01  00002PRCP06
0174600600999992000010415004+29370-010180FM-12+0066GMMF V0203601N003612200019N0100001N1+01651+01141102401ADDAA106000091GA1011+004809069GF101991011051004501001001MD1810171+9999REMSYN076AAXX  04154 60060 32460 13607 10165 20114 40240 58017 81500 333 81616 85300;EQDQ01  00002PRCP06
0187600600999992000010418004+29370-010180FM-12+0066GMMF V0200401N003112200019N0100001N1+01631+00961102341ADDAA106000091GA1011+004809059GF101991011051004501001001KA1120M+01691MD1810071+9999REMSYN076AAXX  04184 60060 32460 10406 10163 20096 40234 58007 81500 333 10169 81616;EQDQ01  00002PRCP06
0152600600999992000010421004+29370-010180FM-12+0066GMMF V0200201N003612200019N0080001N1+01521+01001102411ADDAA106000091GA1001+999999999GF100991001001999999001001MD1310071+9999REMSYN054AAXX  04214 60060 32958 00207 10152 20100 40241 53007;EQDQ01  00002PRCP06
0161600600999992000010506004+29370-010180FM-12+0066GMMF V0201201N004612200019N0080001N1+01461-00361102291ADDAA106000091GA1001+999999999GF100991001001999999001001KA1999N+01371REMSYN064AAXX  05064 60060 32958 01209 10146 21036 40229 5//// 333 20137;EQDQ01  00002PRCP06
0152600600999992000010509004+29370-010180FM-12+0066GMMF V0201201N006712200019N0120001N1+01501-00241102371ADDAA106000091GA1001+999999999GF100991001001999999001001MD1310071+9999REMSYN054AAXX  05094 60060 32962 01213 10150 21024 40237 53007;EQDQ01  00002PRCP06
0152600600999992000010512004+29370-010180FM-12+0066GMMF V0201401N006212200019N0120001N1+01871-00211102361ADDAA106000091GA1001+999999999GF100991001001999999001001MD1010001+9999REMSYN054AAXX  05124 60060 32962 01412 10187 21021 40236 50000;EQDQ01  00002PRCP06
0174600600999992000010515004+29370-010180FM-12+0066GMMF V0201201N005112200019N0120001N1+01761+00871102191ADDAA106000091GA1021+004809069GF102991021051004501001001MD1810161+9999REMSYN076AAXX  05154 60060 32462 21210 10176 20087 40219 58016 82500 333 82616 95300;EQDQ01  00002PRCP06
0174600600999992000010521004+29370-010180FM-12+0066GMMF V0201201N003112200019N0080001N1+01451+00641102211ADDAA106000091GA1021+030009039GF102991021001008001031001MD1310031+9999REMSYN076AAXX  05214 60060 32558 21206 10145 20064 40221 53003 82030 333 82360 85300;EQDQ01  00002PRCP06
0161600600999992000010606004+29370-010180FM-12+0066GMMF V0201401N006712200019N0080001N1+01431-00041101931ADDAA106000091GA1001+999999999GF100991001001999999001001KA1999N+01221REMSYN064AAXX  06064 60060 32958 01413 10143 21004 40193 5//// 333 20122;EQDQ01  00002PRCP06
0174600600999992000010612004+29370-010180FM-12+0066GMMF V0201201N007212200019N0150001N1+01651-00401102011ADDAA106000091GA1021+060009009GF102991001001999999001021MD1810031+9999REMSYN076AAXX  06124 60060 32965 21214 10165 21040 40201 58003 80002 333 82070 95300;EQDQ01  00002PRCP06
0174600600999992000010615004+29370-010180FM-12+0066GMMF V0201201N004112200019N0150001N1+01901-00251101751ADDAA106000091GA1031+060009009GF103991001001999999001021MD1610291+9999REMSYN076AAXX  06154 60060 32965 31208 10190 21025 40175 56029 80002 333 83070 85300;EQDQ01  00002PRCP06
0174600600999992000010621004+29370-010180FM-12+0066GMMF V0201201N007212200019N0080001N1+01551+00471101771ADDAA106000091GA1021+060009009GF102991001001999999001021MD1310071+9999REMSYN076AAXX  06214 60060 32958 21214 10155 20047 40177 53007 80002 333 82070 95300;EQDQ01  00002PRCP06
0179600600999992000010706004+29370-010180FM-12+0066GMMF V0201201N006712200019N0060001N1+01451+00231101831ADDAA106000091GA1031+060009009GF103991001001999999001021KA1120N+01381REMSYN082AAXX  07064 60060 32956 31213 10145 20023 40183 5//// 80002 333 20138 83070 95300;EQDQ01  00002PRCP06
0174600600999992000010709004+29370-010180FM-12+0066GMMF V0201601N006210600019N0120001N1+01431+00461102101ADDAA106000091GA1061+060009009GF106991001001999999001021MD1210161+9999REMSYN076AAXX  07094 60060 32962 61612 10143 20046 40210 52016 80002 333 86070 95300;EQDQ01  00002PRCP06
0196600600999992000010712004+29370-010180FM-12+0066GMMF V0201401N005110600019N0150001N1+01711-00761102171ADDAA106000091GA1031+030009039GA2031+060009009GF105991031001999999031021MD1010081+9999REMSYN082AAXX  07124 60060 32965 51410 10171 21076 40217 50008 83032 333 83360 83070 95300;EQDQ01  00002PRCP06
0196600600999992000010715004+29370-010180FM-12+0066GMMF V0201401N006710600019N0150001N1+01821-00991101891ADDAA106000091GA1021+030009039GA2041+060009009GF105991021001999999031021MD1810271+9999REMSYN082AAXX  07154 60060 32965 51413 10182 21099 40189 58027 82032 333 82360 84070 95300;EQDQ01  00002PRCP06
0209600600999992000010718004+29370-010180FM-12+0066GMMF V0200401N005119999999N0100001N1+01551+00752101891ADDAA106000091GA1041+030009039GF106991041001999999031021KA1120M+01881MD1610011+9999REMSYN082AAXX  07184 60060 32960 60410 10155 20075 40189 56001 84032 333 10188 84360 95300;EQDQ01+000753ATOD  Q02  00002PRCP06
0174600600999992000010721004+29370-010180FM-12+0066GMMF V0200801N003119999999N0080001N1+01461+00501102021ADDAA106000091GA1041+030009039GF105991041001999999031021MD1310131+9999REMSYN076AAXX  07214 60060 32958 50806 10146 20050 40202 53013 84032 333 84360 95300;EQDQ01  00002PRCP06
0179600600999992000010806004+29370-010180FM-12+0066GMMF V0201401N004610300019N0080001N1+01491-00731102081ADDAA106000091GA1071+030009039GF107991071001999999071999KA1120N+01271REMSYN082AAXX  08064 60060 32958 71409 10149 21073 40208 5//// 8707/ 333 20127 87360 95300;EQDQ01  00002PRCP06
0196600600999992000010809004+29370-010180FM-12+0066GMMF V0203201N002610600019N0120001N1+01501-00701102211ADDAA106000091GA1021+030009039GA2051+060009009GF106991021001999999031021MD1310131+9999REMSYN082AAXX  08094 60060 32962 63205 10150 21070 40221 53013 82032 333 82360 85070 95300;EQDQ01  00002PRCP06
0174600600999992000010815004+29370-010180FM-12+0066GMMF V0200401N006712200019N0150001N1+01681+00211102241ADDAA106000091GA1021+060009009GF102991001001999999001021MD1810101+9999REMSYN076AAXX  08154 60060 32965 20413 10168 20021 40224 58010 80002 333 82070 95300;EQDQ01  00002PRCP06
0152600600999992000010821004+29370-010180FM-12+0066GMMF V0200601N004112200019N0100001N1+01471+00521102331ADDAA106000091GA1001+999999999GF100991001001999999001001MD1310111+9999REMSYN054AAXX  08214 60060 32960 00608 10147 20052 40233 53011;EQDQ01  00002PRCP06
0174600600999992000010915004+29370-010180FM-12+0066GMMF V0203201N003112200019N0150001N1+01661+01081102291ADDAA106000091GA1011+004809069GF101991011051999999001001MD1810151+9999REMSYN076AAXX  09154 60060 32965 13206 10166 20108 40229 58015 81500 333 81616 95300;EQDQ01  00002PRCP06
0193600600999992000010918004+29370-010180FM-12+0066GMMF V0203601N003612200019N0120001N1+01571+01171102291ADDAA106000091GA1041+004809069GF104991041051008001001001KA1120M+01741MD1410001+9999REMSYN082AAXX  09184 60060 32562 43607 10157 20117 40229 54000 84500 333 10174 84616 95300;EQDQ01  00002PRCP06
0152600600999992000010921004+29370-010180FM-12+0066GMMF V0200801N003112200019N0100001N1+01541+01131102311ADDAA106000091GA1001+999999999GF100991001001999999001001MD1210011+9999REMSYN054AAXX  09214 60060 32960 00806 10154 20113 40231 52001;EQDQ01  00002PRCP06
0174600600999992000011009004+29370-010180FM-12+0066GMMF V0202001N003112200019N0080001N1+01351+01061102231ADDAA106000091GA1031+004809069GF103991031051004501001001MD1310081+9999REMSYN076AAXX  10094 60060 32458 32006 10135 20106 40223 53008 83500 333 83616 95300;EQDQ01  00002PRCP06
0174600600999992000011012004+29370-010180FM-12+0066GMMF V0203601N002112200019N0080001N1+01591+01091102211ADDAA106000091GA1021+004809069GF102991021051004501001001MD1010011+9999REMSYN076AAXX  10124 60060 32458 23604 10159 20109 40221 50001 82500 333 82616 95300;EQDQ01  00002PRCP06
0193600600999992000011018004+29370-010180FM-12+0066GMMF V0200201N006712200019N0150001N1+01561+00811102001ADDAA106000091GA1021+004809089GF102991021021008001001001KA1120M+01731MD1610061+9999REMSYN082AAXX  10184 60060 32565 20213 10156 20081 40200 56006 82200 333 10173 82816 95300;EQDQ01  00002PRCP06
0152600600999992000011115004+29370-010180FM-12+0066GMMF V0200201N006212200019N0150001N1+01571+00441102051ADDAA106000091GA1001+999999999GF100991001001999999001001MD1710081+9999REMSYN054AAXX  11154 60060 32965 00212 10157 20044 40205 57008;EQDQ01  00002PRCP06
0175600600999992000011118004+29370-010180FM-12+0066GMMF V0200201N005112200019N0120001N1+01541+00631102101ADDAA106000091GA1001+999999999GF100991001001999999001001KA1999M+01641MD1310051+9999REMSYN064AAXX  11184 60060 32962 00210 10154 20063 40210 53005 333 10164;EQDQ01  00002PRCP06
0152600600999992000011209004+29370-010180FM-12+0066GMMF V0200801N001512200019N0080001N1+01141+00521102401ADDAA106000091GA1001+999999999GF100991001001999999001001MD1310161+9999REMSYN054AAXX  12094 60060 32958 00803 10114 20052 40240 53016;EQDQ01  00002PRCP06
0152600600999992000011212004+29370-010180FM-12+0066GMMF V0200401N002612200019N0080001N1+01601+00501102511ADDAA106000091GA1001+999999999GF100991001001999999001001MD1010121+9999REMSYN054AAXX  12124 60060 32958 00405 10160 20050 40251 50012;EQDQ01  00002PRCP06
0174600600999992000011215004+29370-010180FM-12+0066GMMF V0200201N003112200019N0100001N1+01651+00651102371ADDAA106000091GA1011+004809069GF101991011051004501001001MD1810131+9999REMSYN076AAXX  12154 60060 32460 10206 10165 20065 40237 58013 81500 333 81616 95300;EQDQ01  00002PRCP06
0175600600999992000011218004+29370-010180FM-12+0066GMMF V0203401N002612200019N0100001N1+01561+00481102411ADDAA106000091GA1001+999999999GF100991001001999999001001KA1999M+01681MD1110031+9999REMSYN064AAXX  12184 60060 32960 03405 10156 20048 40241 51003 333 10168;EQDQ01  00002PRCP06
0152600600999992000011221004+29370-010180FM-12+0066GMMF V0201001N002112200019N0100001N1+01401+00721102491ADDAA106000091GA1001+999999999GF100991001001999999001001MD1310081+9999REMSYN054AAXX  12214 60060 32960 01004 10140 20072 40249 53008;EQDQ01  00002PRCP06
0161600600999992000011306004+29370-010180FM-12+0066GMMF V0202401N001012200019N0080001N1+01251-00081102461ADDAA106000091GA1001+999999999GF100991001001999999001001KA1999N+01121REMSYN064AAXX  13064 60060 32958 02402 10125 21008 40246 5//// 333 20112;EQDQ01  00002PRCP06
0174600600999992000011309004+29370-010180FM-12+0066GMMF V0203201N001012200019N0100001N1+01211+00211102521ADDAA106000091GA1031+060009009GF103991001001999999001021MD1210061+9999REMSYN076AAXX  13094 60060 32960 33202 10121 20021 40252 52006 80002 333 83070 95300;EQDQ01  00002PRCP06
0174600600999992000011312004+29370-010180FM-12+0066GMMF V0203201N002612200019N0100001N1+01601+00431102511ADDAA106000091GA1031+060009009GF103991001001999999001021MD1010001+9999REMSYN076AAXX  13124 60060 32960 33205 10160 20043 40251 50000 80002 333 83070 95300;EQDQ01  00002PRCP06
0174600600999992000011315004+29370-010180FM-12+0066GMMF V0200201N003112200019N0100001N1+01611+00821102291ADDAA106000091GA1021+060009009GF102991001001999999001021MD1710211+9999REMSYN076AAXX  13154 60060 32960 20206 10161 20082 40229 57021 80002 333 82070 95300;EQDQ01  00002PRCP06
0193600600999992000011318004+29370-010180FM-12+0066GMMF V0203601N003112200019N0100001N1+01521+00871102261ADDAA106000091GA1021+060009009GF102991001001999999001021KA1120M+01651MD1810031+9999REMSYN082AAXX  13184 60060 32960 23606 10152 20087 40226 58003 80002 333 10165 82070 95300;EQDQ01  00002PRCP06
0156600600999992000011321004+29370-010180FM-12+006699999V0200801N00311220001MN0080001N1+01481+00781102261ADDAA199000091GA1001+999999999GF100991001001999999001001MD1410001+9999REMSYN058    AAXX  13214 60060 32958 00806 10148 20078 40226 54000;EQDQ01  00002PRCP99
0183600600999992000011406004+29370-010180FM-12+006699999V0201201N00461220001MN0080001N1+01161+00611101951ADDAA199000091GA1021+060009009GF102991001001999999001021KA1120N+01141REMSYN086    AAXX  14064 60060 32958 21209 10116 20061 40195 5//// 80002 333 20114 82070 95300;EQDQ01  00002PRCP99
0178600600999992000011409004+29370-010180FM-12+006699999V0201401N00461220001MN0100001N1+01241+00681101911ADDAA199000091GA1011+003909089GF104991011021004501031021MD1610041+9999REMSYN080    AAXX  14094 60060 32460 41409 10124 20068 40191 56004 81232 333 81813 95300;EQDQ01  00002PRCP99
0200600600999992000011412004+29370-010180FM-12+006699999V0202401N00571024001MN0100001N1+01521+00811101901ADDAA199000091GA1031+003909089GA2071+024009039GF107991031021004501071999MD1410001+9999REMSYN086    AAXX  14124 60060 32460 72411 10152 20081 40190 54000 8327/ 333 83813 87358 95300;EQDQ01  00002PRCP99
0160600600999992000011415004+29370-010180FM-12+006699999V0202601N00721004801MN0060001N1+01481+00981101611ADDGA1081+004809089GF108991081021004501999999MD1710291+9999MW1611REMSYN086    AAXX  14154 60060 41456 82614 10148 20098 40161 57029 761// 882// 333 88816 95300;
0212600600999992000011418004+29370-010180FM-12+006699999V0200401N00621004801MN0060001N1+01361+01081101581ADDAA112001091AY161061AY221061GA1071+004809089GF107991071021004501999999KA1120M+01601MD1810041+9999MW1021REMSYN098    AAXX  14184 60060 11456 70412 10136 20108 40158 58004 60012 70262 872// 333 10160 87816 95300;
0159600600999992000011421004+29370-010180FM-12+006699999V0201001N00261004801MN0080001N1+01361+00731101611ADDAA199000021GA1051+004809089GF105991051021004501001001MD1310031+9999REMSYN080    AAXX  14214 60060 32458 51005 10136 20073 40161 53003 85200 333 85816 95300;
0178600600999992000011509004+29370-010180FM-12+006699999V0201601N00261004801MN0080001N1+01201+00801101531ADDAA199000091GA1051+004809089GF105991051021004501001001MD1210061+9999REMSYN080    AAXX  15094 60060 32458 51605 10120 20080 40153 52006 85200 333 85816 95300;EQDQ01  00002PRCP99
0178600600999992000011512004+29370-010180FM-12+006699999V0202401N00361220001MN0100001N1+01581+00821101541ADDAA199000091GA1031+004809089GF103991031021004501001001MD1010021+9999REMSYN080    AAXX  15124 60060 32460 32407 10158 20082 40154 50002 83200 333 83816 95300;EQDQ01  00002PRCP99
0178600600999992000011515004+29370-010180FM-12+006699999V0202201N00671036001MN0120001N1+01701+00701101361ADDAA199000091GA1041+004809089GF106991041021004501031001MD1810181+9999REMSYN080    AAXX  15154 60060 32462 62213 10170 20070 40136 58018 84230 333 84816 95300;EQDQ01  00002PRCP99
0197600600999992000011518004+29370-010180FM-12+006699999V0203201N00361004801MN0100001N1+01401+01061101421ADDAA199000091GA1061+004809089GF106991061021004501001001KA1120M+01781MD1310051+9999REMSYN086    AAXX  15184 60060 32460 63207 10140 20106 40142 53005 86200 333 10178 86816 95300;EQDQ01  00002PRCP99
0178600600999992000011521004+29370-010180FM-12+006699999V0209999C00001004801MN0080001N1+01351+01041101501ADDAA199000091GA1071+004809089GF107991071021004501999999MD1310081+9999REMSYN080    AAXX  15214 60060 32458 70000 10135 20104 40150 53008 872// 333 87816 95300;EQDQ01  00002PRCP99
0183600600999992000011606004+29370-010180FM-12+006699999V0201601N00211220001MN0080001N1+01551+00351101461ADDAA199000091GA1011+060009009GF101991001001999999001021KA1120N+01251REMSYN086    AAXX  16064 60060 32958 11604 10155 20035 40146 5//// 80002 333 20125 81070 95300;EQDQ01  00002PRCP99
0200600600999992000011609004+29370-010180FM-12+006699999V0201601N00261006001MN0150001N1+01601+00391101651ADDAA199000091GA1021+003909089GA2031+006009069GF105991051081004501001001MD1310191+9999REMSYN086    AAXX  16094 60060 32465 51605 10160 20039 40165 53019 85800 333 82813 83620 95300;EQDQ01  00002PRCP99
0193600600999992000011612004+29370-010180FM-12+006699999V0201401N00821220001MN0150001N1+02001+00371101751ADDAA106000191AY161061AY211061GA1011+003909089GF103991021081004501031001MD1110111+9999MW1021REMSYN092    AAXX  16124 60060 11465 31416 10200 20037 40175 51011 69911 70261 82830 333 81813 95300;
0178600600999992000011615004+29370-010180FM-12+006699999V0202201N00821006001MN0150001N1+02081-00011101751ADDAA199000091GA1071+006009089GF107991071021008001001001MD1510001+9999REMSYN080    AAXX  16154 60060 32565 72216 10208 21001 40175 55000 87200 333 87820 95300;EQDQ01  00002PRCP99
0184600600999992000011618004+29370-010180FM-12+006699999V0202001N00261006001MN0150001N1+01821+00131101771ADDAA112000191GA1051+006009069GF105991051051008001001001KA1120M+02251MD1310021+9999REMSYN092    AAXX  16184 60060 12565 52005 10182 20013 40177 53002 69912 85500 333 10225 85620 95300;
0152600600999992000011706004+29370-010180FM-12+006699999V0202601N00101220001MN0100001N1+01361+00061102051ADDAA124000191GA1001+999999999GF100991001001999999001001KA1999N+01291REMSYN074    AAXX  17064 60060 12960 02602 10136 20006 40205 5//// 69914 333 20129;
0178600600999992000011709004+29370-010180FM-12+006699999V0201201N00821060001MN0150001N1+01711-00151102171ADDAA199000091GA1051+060009009GF105991001001999999001021MD1310131+9999REMSYN080    AAXX  17094 60060 32965 51216 10171 21015 40217 53013 80002 333 85070 95300;EQDQ01  00002PRCP99
0178600600999992000011712004+29370-010180FM-12+006699999V0201401N00771220001MN0150001N1+02161-00541102261ADDAA199000091GA1041+060009009GF104991001001999999001021MD1110091+9999REMSYN080    AAXX  17124 60060 32965 41415 10216 21054 40226 51009 80002 333 84070 95300;EQDQ01  00002PRCP99
0178600600999992000011715004+29370-010180FM-12+006699999V0201401N00411060001MN0150001N1+02381-00621102081ADDAA199000091GA1051+060009009GF105991001001999999001021MD1610181+9999REMSYN080    AAXX  17154 60060 32965 51408 10238 21062 40208 56018 80002 333 85070 95300;EQDQ01  00002PRCP99
0197600600999992000011718004+29370-010180FM-12+006699999V0200401N00311220001MN0120001N1+01761+00572102121ADDAA199000091GA1041+060009009GF104991001001999999001021KA1120M+02421MD1310031+9999REMSYN086    AAXX  17184 60060 32962 40406 10176 20057 40212 53003 80002 333 10242 84070 95300;EQDQ01  00002PRCP99
0178600600999992000011721004+29370-010180FM-12+006699999V0203601N00211220001MN0100001N1+01681+00151102171ADDAA199000091GA1031+060009009GF103991001001999999001021MD1310051+9999REMSYN080    AAXX  17214 60060 32960 33604 10168 20015 40217 53005 80002 333 83070 95300;EQDQ01  00002PRCP99
0165600600999992000011806004+29370-010180FM-12+006699999V0201801N00151220001MN0080001N1+01501-00241102051ADDAA199000091GA1001+999999999GF100991001001999999001001KA1999N+01361REMSYN068    AAXX  18064 60060 32958 01803 10150 21024 40205 5//// 333 20136;EQDQ01  00002PRCP99
0156600600999992000011809004+29370-010180FM-12+006699999V0200601N00151220001MN0120001N1+01541+00361102141ADDAA199000091GA1001+999999999GF100991001001999999001001MD1310091+9999REMSYN058    AAXX  18094 60060 32962 00603 10154 20036 40214 53009;EQDQ01  00002PRCP99
0156600600999992000011812004+29370-010180FM-12+006699999V0202601N00211220001MN0150001N1+01871+00631102211ADDAA199000091GA1001+999999999GF100991001001999999001001MD1010081+9999REMSYN058    AAXX  18124 60060 32965 02604 10187 20063 40221 50008;EQDQ01  00002PRCP99
0178600600999992000011815004+29370-010180FM-12+006699999V0202401N00311030001MN0150001N1+01901+00361102051ADDAA199000091GA1061+030009039GF106991061001999999071001MD1610161+9999REMSYN080    AAXX  18154 60060 32965 62406 10190 20036 40205 56016 86070 333 86360 95300;EQDQ01  00002PRCP99
0197600600999992000011818004+29370-010180FM-12+006699999V0203201N00101030001MN0140001N1+01701+00701102071ADDAA199000091GA1051+030009039GF105991051001999999071001KA1120M+02031MD1310021+9999REMSYN086    AAXX  18184 60060 32964 53202 10170 20070 40207 53002 85070 333 10203 85360 95300;EQDQ01  00002PRCP99
0156600600999992000011821004+29370-010180FM-12+006699999V0200801N00261220001MN0120001N1+01451+00991102101ADDAA199000091GA1001+999999999GF100991001001999999001001MD1310021+9999REMSYN058    AAXX  18214 60060 32962 00805 10145 20099 40210 53002;EQDQ01  00002PRCP99
0183600600999992000011906004+29370-010180FM-12+006699999V0201001N00261220001MN0100001N1+01371+00721101901ADDAA199000091GA1011+060009009GF101991001001999999001011KA1120N+01341REMSYN086    AAXX  19064 60060 32960 11005 10137 20072 40190 5//// 80001 333 20134 81070 95300;EQDQ01  00002PRCP99
0178600600999992000011909004+29370-010180FM-12+006699999V0201001N00311220001MN0150001N1+01331+00571101951ADDAA199000091GA1011+003909089GF103991011021999999001999MD1310051+9999REMSYN080    AAXX  19094 60060 32965 31006 10133 20057 40195 53005 8120/ 333 81813 95300;EQDQ01  00002PRCP99
0178600600999992000011912004+29370-010180FM-12+006699999V0200201N00311220001MN0150001N1+01621+01021102011ADDAA199000091GA1011+003909089GF102991011021004501001011MD1010071+9999REMSYN080    AAXX  19124 60060 32465 20206 10162 20102 40201 50007 81201 333 81813 95300;EQDQ01  00002PRCP99
0193600600999992000011918004+29370-010180FM-12+0066GMMF V0200401N004112200019N0150001N1+01561+01141101851ADDAA199000091GA1011+003909089GF103991011011004501031001KA1120M+01711MD1310031+9999REMSYN082AAXX  19184 60060 32465 30408 10156 20114 40185 53003 81130 333 10171 81813 95300;EQDQ01  00002PRCP99
0173600600999992000012006004+29370-010180FM-12+0066GMMF V0201001N005112200019N0100001N1+01271+00641101911ADDAA199000091GA1021+030009079GF102991021001999999031001KA1120N+01231REMSYN076AAXX  20064 60060 32960 21010 10127 20064 40191 5//// 82030 333 20123 82360;EQDQ01  00002PRCP99
0174600600999992000012009004+29370-010180FM-12+0066GMMF V0202001N001012200019N0150001N1+01271+00601101981ADDAA199000091GA1031+024009039GF103991031001999999031001MD1310071+9999REMSYN076AAXX  20094 60060 32965 32002 10127 20060 40198 53007 83030 333 83358 95300;EQDQ01  00002PRCP99
0196600600999992000012012004+29370-010180FM-12+0066GMMF V0203001N002610600019N0150001N1+01621+00841102021ADDAA199000091GA1021+030009039GA2041+060009009GF106991021001999999031021MD1010051+9999REMSYN082AAXX  20124 60060 32965 63005 10162 20084 40202 50005 82032 333 82360 84070 95300;EQDQ01  00002PRCP99
0174600600999992000012015004+29370-010180FM-12+0066GMMF V0200201N003112200019N0150001N1+01661+01111101901ADDAA199000091GA1011+030009039GF104991011001999999031021MD1710121+9999REMSYN076AAXX  20154 60060 32965 40206 10166 20111 40190 57012 81032 333 81360 95300;EQDQ01  00002PRCP99
0193600600999992000012018004+29370-010180FM-12+0066GMMF V0200201N003612200019N0120001N1+01621+01151101931ADDAA199000091GA1021+030009039GF103991021001999999031021KA1120M+01741MD1110031+9999REMSYN082AAXX  20184 60060 32962 30207 10162 20115 40193 51003 82032 333 10174 82360 95300;EQDQ01  00002PRCP99
0174600600999992000012021004+29370-010180FM-12+0066GMMF V0200401N004112200019N0100001N1+01421+00901102011ADDAA199000091GA1021+030009039GF102991021001999999031001MD1310081+9999REMSYN076AAXX  20214 60060 32960 20408 10142 20090 40201 53008 82030 333 82360 95300;EQDQ01  00002PRCP99
0179600600999992000012106004+29370-010180FM-12+0066GMMF V0202401N003619999999N0100001N1+01501+00221101941ADDAA199000091GA1041+030009039GF105991041001999999031021KA1120N+01351REMSYN082AAXX  21064 60060 32960 52407 10150 20022 40194 5//// 84032 333 20135 84360 95300;EQDQ01  00002PRCP99
0174600600999992000012109004+29370-010180FM-12+0066GMMF V0201801N002610300019N0120001N1+01621+00531102021ADDAA199000091GA1071+030009039GF107991071001999999071999MD1310081+9999REMSYN076AAXX  21094 60060 32962 71805 10162 20053 40202 53008 8707/ 333 87360 95300;EQDQ01  00002PRCP99
0174600600999992000012112004+29370-010180FM-12+0066GMMF V0203601N002612200019N0140001N1+01921+00331102081ADDAA199000091GA1041+030009039GF104991041001999999031001MD1110071+9999REMSYN076AAXX  21124 60060 32964 43605 10192 20033 40208 51007 84030 333 84360 95300;EQDQ01  00002PRCP99
0174600600999992000012115004+29370-010180FM-12+0066GMMF V0200201N005710300019N0180001N1+02041+00551101961ADDAA199000091GA1051+030009039GF105991051001999999031001MD1810121+9999REMSYN076AAXX  21154 60060 32968 50211 10204 20055 40196 58012 85030 333 85360 95300;EQDQ01  00002PRCP99
0193600600999992000012118004+29370-010180FM-12+0066GMMF V0200401N004112200019N0150001N1+01751+00881102011ADDAA199000091GA1031+030009039GF103991031001999999031001KA1120M+02061MD1210051+9999REMSYN082AAXX  21184 60060 32965 30408 10175 20088 40201 52005 83030 333 10206 83360 95300;EQDQ01  00002PRCP99
0174600600999992000012121004+29370-010180FM-12+0066GMMF V0202801N002112200019N0120001N1+01701+00281102051ADDAA199000091GA1021+030009039GF102991021001999999031001MD1310031+9999REMSYN076AAXX  21214 60060 32962 22804 10170 20028 40205 53003 82030 333 82360 95300;EQDQ01  00002PRCP99
0161600600999992000012206004+29370-010180FM-12+0066GMMF V0201601N001012200019N0120001N1+01551+00031102011ADDAA199000091GA1001+999999999GF100991001001999999001001KA1999N+01491REMSYN064AAXX  22064 60060 32962 01602 10155 20003 40201 5//// 333 20149;EQDQ01  00002PRCP99
0174600600999992000012209004+29370-010180FM-12+0066GMMF V0209999C000012200019N0150001N1+01561-00201102101ADDAA199000091GA1021+030009039GF102991021001999999031001MD1310091+9999REMSYN076AAXX  22094 60060 32965 20000 10156 21020 40210 53009 82030 333 82360 95300;EQDQ01  00002PRCP99
0174600600999992000012212004+29370-010180FM-12+0066GMMF V0203401N001512200019N0200001N1+01971+00351102121ADDAA199000091GA1021+030009039GF102991021001999999031001MD1010031+9999REMSYN076AAXX  22124 60060 32970 23403 10197 20035 40212 50003 82030 333 82360 95300;EQDQ01  00002PRCP99
0174600600999992000012215004+29370-010180FM-12+0066GMMF V0202601N002112200019N0200001N1+01921+00591102011ADDAA199000091GA1021+030009039GF102991021001999999031001MD1810111+9999REMSYN076AAXX  22154 60060 32970 22604 10192 20059 40201 58011 82030 333 82360 95300;EQDQ01  00002PRCP99
0193600600999992000012218004+29370-010180FM-12+0066GMMF V0200201N003112200019N0200001N1+01761+00761102011ADDAA199000091GA1011+030009039GF101991011001999999031001KA1120M+02051MD1510001+9999REMSYN082AAXX  22184 60060 32970 10206 10176 20076 40201 55000 81030 333 10205 81360 95300;EQDQ01  00002PRCP99
0152600600999992000012221004+29370-010180FM-12+0066GMMF V0201001N005112200019N0100001N1+01701-00051101981ADDAA199000091GA1001+999999999GF100991001001999999001001MD1610041+9999REMSYN054AAXX  22214 60060 32960 01010 10170 21005 40198 56004;EQDQ01  00002PRCP99
0161600600999992000012306004+29370-010180FM-12+0066GMMF V0201801N002112200019N0100001N1+01301+00131101831ADDAA199000091GA1001+999999999GF100991001001999999001001KA1999N+01201REMSYN064AAXX  23064 60060 32960 01804 10130 20013 40183 5//// 333 20120;EQDQ01  00002PRCP99
0152600600999992000012309004+29370-010180FM-12+0066GMMF V0202201N001012200019N0120001N1+01301+00061101871ADDAA199000091GA1001+999999999GF100991001001999999001001MD1310041+9999REMSYN054AAXX  23094 60060 32962 02202 10130 20006 40187 53004;EQDQ01  00002PRCP99
0168600600999992000012315004+29370-010180FM-12+0066GMMF V0203601N002612200019N0120001N1+01841+00681101761ADDAA199000091GA1041+060009019GF104991001001999999001021MD1710151+9999REMSYN070AAXX  23154 60060 32962 43605 10184 20068 40176 57015 80002 333 84070;EQDQ01  00002PRCP99
0193600600999992000012318004+29370-010180FM-12+0066GMMF V0203601N002112200019N0100001N1+01801+00021101721ADDAA199000091GA1031+060009009GF103991001001999999001021KA1120M+01891MD1610041+9999REMSYN082AAXX  23184 60060 32960 33604 10180 20002 40172 56004 80002 333 10189 83070 95300;EQDQ01  00002PRCP99
0174600600999992000012321004+29370-010180FM-12+0066GMMF V0201401N002612200019N0100001N1+01741-00021101721ADDAA199000091GA1021+060009009GF102991001001999999001021MD1810011+9999REMSYN076AAXX  23214 60060 32960 21405 10174 21002 40172 58001 80002 333 82070 95300;EQDQ01  00002PRCP99
0179600600999992000012406004+29370-010180FM-12+0066GMMF V0201401N003610600019N0100001N1+01601-00471101531ADDAA199000091GA1051+060009009GF105991001001999999001021KA1120N+01451REMSYN082AAXX  24064 60060 32960 51407 10160 21047 40153 5//// 80002 333 20145 85070 95300;EQDQ01  00002PRCP99
0196600600999992000012409004+29370-010180FM-12+0066GMMF V0201401N005712200019N0150001N1+01961-01161101551ADDAA199000091GA1011+030009039GA2031+060009009GF104991011001999999031021MD1210031+9999REMSYN082AAXX  24094 60060 32965 41411 10196 21116 40155 52003 81032 333 81360 83070 95300;EQDQ01  00002PRCP99
0196600600999992000012412004+29370-010180FM-12+0066GMMF V0201801N007719999999N0140001N1+02401-01041101561ADDAA199000091GA1011+030009039GA2041+060009009GF105991011001999999031021MD1010021+9999REMSYN082AAXX  24124 60060 32964 51815 10240 21104 40156 50002 81032 333 81360 84070 95300;EQDQ01  00002PRCP99
0174600600999992000012415004+29370-010180FM-12+0066GMMF V0202601N002612200019N0150001N1+02261+00341101361ADDAA199000091GA1041+060009009GF104991001001999999001021MD1610201+9999REMSYN076AAXX  24154 60060 32965 42605 10226 20034 40136 56020 80002 333 84070 95300;EQDQ01  00002PRCP99
0193600600999992000012418004+29370-010180FM-12+0066GMMF V0200201N002112200019N0120001N1+01981+00491101361ADDAA199000091GA1041+060009009GF104991001001999999001021KA1120M+02601MD1510011+9999REMSYN082AAXX  24184 60060 32962 40204 10198 20049 40136 55001 80002 333 10260 84070 95300;EQDQ01  00002PRCP99
0161600600999992000012506004+29370-010180FM-12+0066GMMF V0201001N010812200019N0100001N1+02051-00581101181ADDAA199000091GA1001+999999999GF100991001001999999001001KA1999N+01461REMSYN064AAXX  25064 60060 32960 01021 10205 21058 40118 5//// 333 20146;EQDQ01  00002PRCP99
0152600600999992000012509004+29370-010180FM-12+0066GMMF V0201001N010312200019N0140001N1+02001-00451101201ADDAA199000091GA1001+999999999GF100991001001999999001001MD1110021+9999REMSYN054AAXX  25094 60060 32964 01020 10200 21045 40120 51002;EQDQ01  00002PRCP99
0152600600999992000012512004+29370-010180FM-12+0066GMMF V0201801N007212200019N0150001N1+02501-00451101261ADDAA199000091GA1001+999999999GF100991001001999999001001MD1010071+9999REMSYN054AAXX  25124 60060 32965 01814 10250 21045 40126 50007;EQDQ01  00002PRCP99
0152600600999992000012515004+29370-010180FM-12+0066GMMF V0202201N007212200019N0150001N1+01891+01051101231ADDAA199000091GA1001+999999999GF100991001001999999001001MD1710041+9999REMSYN054AAXX  25154 60060 32965 02214 10189 20105 40123 57004;EQDQ01  00002PRCP99
0193600600999992000012518004+29370-010180FM-12+0066GMMF V0202201N004112200019N0150001N1+01711+01381101381ADDAA199000091GA1041+004809069GF104991041051004501001001KA1120M+02541MD1310131+9999REMSYN082AAXX  25184 60060 32465 42208 10171 20138 40138 53013 84500 333 10254 84616 95300;EQDQ01  00002PRCP99
0152600600999992000012521004+29370-010180FM-12+0066GMMF V0201001N001012200019N0080001N1+01571+01271101561ADDAA199000091GA1001+999999999GF100991001001999999001001MD1210181+9999REMSYN054AAXX  25214 60060 32958 01002 10157 20127 40156 52018;EQDQ01  00002PRCP99
0161600600999992000012606004+29370-010180FM-12+0066GMMF V0201001N004112200019N0080001N1+01311+01051101611ADDAA199000091GA1001+999999999GF100991001001999999001001KA1999N+01291REMSYN064AAXX  26064 60060 32958 01008 10131 20105 40161 5//// 333 20129;EQDQ01  00002PRCP99
0174600600999992000012609004+29370-010180FM-12+0066GMMF V0201001N004612200019N0120001N1+01401+01021101701ADDAA199000091GA1011+004809089GF101991011021004501001001MD1310091+9999REMSYN076AAXX  26094 60060 32462 11009 10140 20102 40170 53009 81200 333 81816 95300;EQDQ01  00002PRCP99
0174600600999992000012612004+29370-010180FM-12+0066GMMF V0200401N003112200019N0150001N1+01691+01161101761ADDAA199000091GA1011+004809069GF101991011021999999001001MD1010071+9999REMSYN076AAXX  26124 60060 32965 10406 10169 20116 40176 50007 81200 333 81616 95300;EQDQ01  00002PRCP99
0174600600999992000012615004+29370-010180FM-12+0066GMMF V0203601N003612200019N0150001N1+01671+01261101651ADDAA199000091GA1021+004809089GF102991021021004501001001MD1710111+9999REMSYN076AAXX  26154 60060 32465 23607 10167 20126 40165 57011 82200 333 82816 95300;EQDQ01  00002PRCP99
0193600600999992000012618004+29370-010180FM-12+0066GMMF V0200201N003612200019N0150001N1+01641+01171101651ADDAA199000091GA1021+004809089GF102991021021004501001001KA1120M+01741MD1410001+9999REMSYN082AAXX  26184 60060 32465 20207 10164 20117 40165 54000 82200 333 10174 82816 95300;EQDQ01  00002PRCP99
0168600600999992000012621004+29370-010180FM-12+0066GMMF V0200801N002612200019N0100001N1+01501+01091101821ADDAA199000091GA1011+004809029GF101991011021004501001001MD1310171+9999REMSYN070AAXX  26214 60060 32460 10805 10150 20109 40182 53017 81200 333 81816;EQDQ01  00002PRCP99
0161600600999992000012706004+29370-010180FM-12+0066GMMF V0201601N002112200019N0100001N1+01251+00831101851ADDAA199000091GA1001+999999999GF100991001001999999001001KA1999N+01211REMSYN064AAXX  27064 60060 32960 01604 10125 20083 40185 5//// 333 20121;EQDQ01  00002PRCP99
0168600600999992000012709004+29370-010180FM-12+0066GMMF V0202001N001010600019N0080001N1+01281+00951101931ADDAA199000091GA1061+060009019GF106991001001999999001021MD1310081+9999REMSYN070AAXX  27094 60060 32958 62002 10128 20095 40193 53008 80002 333 86070;EQDQ01  00002PRCP99
0174600600999992000012712004+29370-010180FM-12+0066GMMF V0202601N001510600019N0080001N1+01571+01071102051ADDAA199000091GA1071+060009009GF107991001001999999001021MD1210131+9999REMSYN076AAXX  27124 60060 32958 72603 10157 20107 40205 52013 80002 333 87070 95300;EQDQ01  00002PRCP99
0174600600999992000012715004+29370-010180FM-12+0066GMMF V0203601N002110600019N0060001N1+01561+01201101941ADDAA199000091GA1071+060009009GF107991001001999999001021MD1810111+9999REMSYN076AAXX  27154 60060 32956 73604 10156 20120 40194 58011 80002 333 87070 95300;EQDQ01  00002PRCP99
0215600600999992000012718004+29370-010180FM-12+0066GMMF V0200401N001510600019N0060001N1+01521+01231102011ADDAA199000091GA1021+030009039GA2071+060009009GF107991021001999999031021KA1120M+01601MD1210071+9999REMSYN088AAXX  27184 60060 32956 70403 10152 20123 40201 52007 82032 333 10160 82360 87070 95300;EQDQ01  00002PRCP99
0174600600999992000012721004+29370-010180FM-12+0066GMMF V0201401N001512200019N0060001N1+01421+01001102151ADDAA199000091GA1021+060009009GF102991001001999999001021MD1110131+9999REMSYN076AAXX  27214 60060 32956 21403 10142 20100 40215 51013 80002 333 82070 95300;EQDQ01  00002PRCP99
0179600600999992000012806004+29370-010180FM-12+0066GMMF V0200201N002110600019N0060001N1+01881+00791101911ADDAA199000091GA1061+060009009GF106991001001999999001021KA1120N+01371REMSYN082AAXX  28064 60060 32956 60204 10188 20079 40191 5//// 80002 333 20137 86070 95300;EQDQ01  00002PRCP99
0186600600999992000012809004+29370-010180FM-12+0066GMMF V0201601N009310240019N0100001N1+01941+01231102121ADDAY121031GA1031+006009069GA2061+024009049GF107991031051008001071999MD1310211+9999MW1601REMSYN088AAXX  28094 60060 41560 71618 10194 20123 40212 53021 7602/ 8357/ 333 83620 86458 95300;
0211600600999992000012812004+29370-010180FM-12+0066GMMF V0201401N007210240019N0120001N1+02421+00971102261ADDAA106000791AY161061AY221061GA1021+006009069GA2031+024009039GF105991021051008001031001MD1110151+9999MW1031REMSYN094AAXX  28124 60060 11562 51414 10242 20097 40226 51015 69901 70362 82530 333 82620 83358 95300;
0177600600999992000012815004+29370-010180FM-12+0066GMMF V0202001N00621006001CN0120001N1+02631+00931102141ADDAA199000021GA1021+003909089GA2031+006009069GF106991041081004501031001MD1810111+9999REMSYN082AAXX  28154 60060 32462 62012 10263 20093 40214 58011 84830 333 82813 83620 95300;
0208600600999992000012818004+29370-010180FM-12+0066GMMF V0203601N001510060019N0100001N1+02021+01451102231ADDAA112000191AY121061AY221061GA1061+006009089GF106991061021008001001001KA1120M+02671MD1310071+9999MW1211REMSYN094AAXX  28184 60060 11560 63603 10202 20145 40223 53007 69912 72122 86200 333 10267 86820 95300;
0155600600999992000012821004+29370-010180FM-12+0066GMMF V0200201N002612200019N0080001N1+02021+01141102321ADDAA199000021GA1041+006009089GF104991041021008001001001MD1310081+9999REMSYN076AAXX  28214 60060 32558 40205 10202 20114 40232 53008 84200 333 84820 95300;
0166600600999992000012906004+29370-010180FM-12+0066GMMF V0202601N001010240019N0080001N1+01901+01191102331ADDAA124000191GA1071+024009039GF107991071001999999031999KA1120N+01861REMSYN088AAXX  29064 60060 12958 72602 10190 20119 40233 5//// 69914 8703/ 333 20186 87358 95300;
0174600600999992000012909004+29370-010180FM-12+0066GMMF V0203201N001012200019N0100001N1+01871+01311102441ADDAA199000091GA1041+006009069GF104991041051008001001001MD1310111+9999REMSYN076AAXX  29094 60060 32560 43202 10187 20131 40244 53011 84500 333 84620 95300;EQDQ01  00002PRCP99
0196600600999992000012912004+29370-010180FM-12+0066GMMF V0203201N001010600019N0100001N1+02211+01311102471ADDAA199000091GA1011+006009069GA2051+060009009GF105991011051008001001021MD1010041+9999REMSYN082AAXX  29124 60060 32560 53202 10221 20131 40247 50004 81502 333 81620 85070 95300;EQDQ01  00002PRCP99
0174600600999992000012915004+29370-010180FM-12+0066GMMF V0203601N002112200019N0100001N1+02161+01271102271ADDAA199000091GA1041+060009009GF104991001001999999001021MD1610201+9999REMSYN076AAXX  29154 60060 32960 43604 10216 20127 40227 56020 80002 333 84070 95300;EQDQ01  00002PRCP99
0193600600999992000012918004+29370-010180FM-12+0066GMMF V0200201N005110600019N0100001N1+01931+01241102251ADDAA199000091GA1061+060009009GF106991001001999999001021KA1120M+02271MD1510021+9999REMSYN082AAXX  29184 60060 32960 60210 10193 20124 40225 55002 80002 333 10227 86070 95300;EQDQ01  00002PRCP99
0174600600999992000012921004+29370-010180FM-12+0066GMMF V0200401N002612200019N0080001N1+01751+01251102371ADDAA199000091GA1031+060009009GF103991001001999999001021MD1310111+9999REMSYN076AAXX  29214 60060 32958 30405 10175 20125 40237 53011 80002 333 83070 95300;EQDQ01  00002PRCP99
0161600600999992000013006004+29370-010180FM-12+0066GMMF V0201001N002612200019N0080001N1+01721+01041102361ADDAA199000091GA1001+999999999GF100991001001999999001001KA1999N+01561REMSYN064AAXX  30064 60060 32958 01005 10172 20104 40236 5//// 333 20156;EQDQ01  00002PRCP99
0174600600999992000013009004+29370-010180FM-12+0066GMMF V0200201N002612200019N0100001N1+01631+01011102491ADDAA199000091GA1031+060009009GF103991001001999999001021MD1310121+9999REMSYN076AAXX  30094 60060 32960 30205 10163 20101 40249 53012 80002 333 83070 95300;EQDQ01  00002PRCP99
0174600600999992000013012004+29370-010180FM-12+0066GMMF V0201201N007710600019N0100001N1+02621+00171102431ADDAA199000091GA1061+060009009GF106991001001999999001021MD1010031+9999REMSYN076AAXX  30124 60060 32960 61215 10262 20017 40243 50003 80002 333 86070 95300;EQDQ01  00002PRCP99
0196600600999992000013015004+29370-010180FM-12+0066GMMF V0201201N008710240019N0100001N1+02701+00601102311ADDAA199000091GA1051+024009039GA2031+051009009GF107991051001999999071021MD1810121+9999REMSYN082AAXX  30154 60060 32960 71217 10270 20060 40231 58012 85072 333 85358 83067 95300;EQDQ01  00002PRCP99
0215600600999992000013018004+29370-010180FM-12+0066GMMF V0201401N006210480019N0100001N1+02641+00491102311ADDAA199000091GA1041+024009039GA2031+048009009GF105991041001999999071021KA1120M+02791MD1510001+9999REMSYN088AAXX  30184 60060 32960 51412 10264 20049 40231 55000 84072 333 10279 84358 83066 95300;EQDQ01  00002PRCP99
0174600600999992000013021004+29370-010180FM-12+0066GMMF V0201201N007212200019N0080001N1+02521+00521102501ADDAA199000091GA1021+024009039GF104991021001022501031021MD1310191+9999REMSYN076AAXX  30214 60060 32858 41214 10252 20052 40250 53019 82032 333 82358 95300;EQDQ01  00002PRCP99
0179600600999992000013106004+29370-010180FM-12+0066GMMF V0201201N010812200019N0080001N1+02351+00091102481ADDAA199000091GA1031+060009009GF103991001001999999001021KA1120N+02301REMSYN082AAXX  31064 60060 32958 31221 10235 20009 40248 5//// 80002 333 20230 83070 95300;EQDQ01  00002PRCP99
0196600600999992000013109004+29370-010180FM-12+0066GMMF V0201201N010812200019N0120001N1+02321+00471102681ADDAA199000091GA1021+024009039GA2031+048009009GF104991021001022501031021MD1310201+9999REMSYN082AAXX  31094 60060 32862 41221 10232 20047 40268 53020 82032 333 82358 83066 95300;EQDQ01  00002PRCP99
0174600600999992000013112004+29370-010180FM-12+0066GMMF V0201601N009312200019N0150001N1+02641+00701102801ADDAA199000091GA1011+024009039GF103991011001022501031021MD1110031+9999REMSYN076AAXX  31124 60060 32865 31618 10264 20070 40280 51003 81032 333 81358 95300;EQDQ01  00002PRCP99
0174600600999992000013115004+29370-010180FM-12+0066GMMF V0201001N008212200019N0150001N1+02781+00741102621ADDAA199000091GA1011+024009039GF101991011001999999031001MD1710181+9999REMSYN076AAXX  31154 60060 32965 11016 10278 20074 40262 57018 81030 333 81358 95300;EQDQ01  00002PRCP99
0152600600999992000020112004+29370-010180FM-12+0066GMMF V0202601N004112200019N0150001N1+02231+00901103041ADDAA199000091GA1001+999999999GF100991001001999999001001MD1210151+9999REMSYN054AAXX  01124 60060 32965 02608 10223 20090 40304 52015;EQDQ01  00002PRCP99
0152600600999992000020115004+29370-010180FM-12+0066GMMF V0200201N002612200019N0150001N1+02231+00501102811ADDAA199000091GA1001+999999999GF100991001001999999001001MD1810231+9999REMSYN054AAXX  01154 60060 32965 00205 10223 20050 40281 58023;EQDQ01  00002PRCP99
0175600600999992000020118004+29370-010180FM-12+0066GMMF V0200401N004612200019N0150001N1+02251+00141102591ADDAA199000091GA1001+999999999GF100991001001999999001001KA1999M+02471MD1610021+9999REMSYN064AAXX  01184 60060 32965 00409 10225 20014 40259 56002 333 10247;EQDQ01  00002PRCP99
0152600600999992000020121004+29370-010180FM-12+0066GMMF V0200401N003612200019N0100001N1+01921+00221102921ADDAA199000091GA1001+999999999GF100991001001999999001001MD1310121+9999REMSYN054AAXX  01214 60060 32960 00407 10192 20022 40292 53012;EQDQ01  00002PRCP99
0161600600999992000020206004+29370-010180FM-12+0066GMMF V0201801N001512200019N0100001N1+01751+00191102801ADDAA199000091GA1001+999999999GF100991001001999999001001KA1999N+01641REMSYN064AAXX  02064 60060 32960 01803 10175 20019 40280 5//// 333 20164;EQDQ01  00002PRCP99
0152600600999992000020209004+29370-010180FM-12+0066GMMF V0201401N001512200019N0100001N1+01821+00241102861ADDAA199000091GA1001+999999999GF100991001001999999001001MD1310061+9999REMSYN054AAXX  02094 60060 32960 01403 10182 20024 40286 53006;EQDQ01  00002PRCP99
0152600600999992000020212004+29370-010180FM-12+0066GMMF V0200201N002112200019N0150001N1+02021+00451102941ADDAA199000091GA1001+999999999GF100991001001999999001001MD1110081+9999REMSYN054AAXX  02124 60060 32965 00204 10202 20045 40294 51008;EQDQ01  00002PRCP99
0175600600999992000020218004+29370-010180FM-12+0066GMMF V0200201N004112200019N0150001N1+02001+01131102661ADDAA199000091GA1001+999999999GF100991001001999999001001KA1999M+02241MD1510021+9999REMSYN064AAXX  02184 60060 32965 00208 10200 20113 40266 55002 333 10224;EQDQ01  00002PRCP99
0152600600999992000020221004+29370-010180FM-12+0066GMMF V0200401N001512200019N0100001N1+01961+00351102721ADDAA199000091GA1001+999999999GF100991001001999999001001MD1210061+9999REMSYN054AAXX  02214 60060 32960 00403 10196 20035 40272 52006;EQDQ01  00002PRCP99
0161600600999992000020306004+29370-010180FM-12+0066GMMF V0200401N001512200019N0100001N1+01621+00461102611ADDAA199000091GA1001+999999999GF100991001001999999001001KA1999N+01571REMSYN064AAXX  03064 60060 32960 00403 10162 20046 40261 5//// 333 20157;EQDQ01  00002PRCP99
0152600600999992000020309004+29370-010180FM-12+0066GMMF V0209999C000012200019N0150001N1+01651+00521102661ADDAA199000091GA1001+999999999GF100991001001999999001001MD1110051+9999REMSYN054AAXX  03094 60060 32965 00000 10165 20052 40266 51005;EQDQ01  00002PRCP99
0152600600999992000020312004+29370-010180FM-12+0066GMMF V0203201N001012200019N0150001N1+02151+00821102691ADDAA199000091GA1001+999999999GF100991001001999999001001MD1110051+9999REMSYN054AAXX  03124 60060 32965 03202 10215 20082 40269 51005;EQDQ01  00002PRCP99
0152600600999992000020315004+29370-010180FM-12+0066GMMF V0200201N003112200019N0150001N1+02311+00421102521ADDAA199000091GA1001+999999999GF100991001001999999001001MD1810171+9999REMSYN054AAXX  03154 60060 32965 00206 10231 20042 40252 58017;EQDQ01  00002PRCP99
0175600600999992000020318004+29370-010180FM-12+0066GMMF V0200201N003112200019N0150001N1+02351+00431102451ADDAA199000091GA1001+999999999GF100991001001999999001001KA1999M+02401MD1610071+9999REMSYN064AAXX  03184 60060 32965 00206 10235 20043 40245 56007 333 10240;EQDQ01  00002PRCP99
0152600600999992000020321004+29370-010180FM-12+0066GMMF V0201201N005712200019N0100001N1+02221+00581102491ADDAA199000091GA1001+999999999GF100991001001999999001001MD1110041+9999REMSYN054AAXX  03214 60060 32960 01211 10222 20058 40249 51004;EQDQ01  00002PRCP99
0161600600999992000020406004+29370-010180FM-12+0066GMMF V0201201N001512200019N0080001N1+01571+00841102511ADDAA199000091GA1001+999999999GF100991001001999999001001KA1999N+01561REMSYN064AAXX  04064 60060 32958 01203 10157 20084 40251 5//// 333 20156;EQDQ01  00002PRCP99
0174600600999992000020412004+29370-010180FM-12+0066GMMF V0200201N001510600019N0100001N1+02101+01131102671ADDAA199000091GA1051+060009009GF105991001001999999001021MD1010061+9999REMSYN076AAXX  04124 60060 32960 50203 10210 20113 40267 50006 80002 333 85070 95300;EQDQ01  00002PRCP99
0174600600999992000020415004+29370-010180FM-12+0066GMMF V0200201N002610600019N0100001N1+02231+01611102521ADDAA199000091GA1051+060009009GF105991001001999999001021MD1710151+9999REMSYN076AAXX  04154 60060 32960 50205 10223 20161 40252 57015 80002 333 85070 95300;EQDQ01  00002PRCP99
0193600600999992000020418004+29370-010180FM-12+0066GMMF V0200401N002610600019N0100001N1+02451+00392102521ADDAA199000091GA1051+060009009GF105991001001999999001021KA1120M+02481MD1510001+9999REMSYN082AAXX  04184 60060 32960 50405 10245 20039 40252 55000 80002 333 10248 85070 95300;EQDQ01  00002PRCP99
0174600600999992000020421004+29370-010180FM-12+0066GMMF V0209999C000012200019N0080001N1+01761+00941102621ADDAA199000091GA1021+060009009GF102991001001999999001021MD1310091+9999REMSYN076AAXX  04214 60060 32958 20000 10176 20094 40262 53009 80002 333 82070 95300;EQDQ01  00002PRCP99
0161600600999992000020506004+29370-010180FM-12+0066GMMF V0201601N003612200019N0080001N1+02241+00571102571ADDAA199000091GA1001+999999999GF100991001001999999001001KA1999N+01801REMSYN064AAXX  05064 60060 32958 01607 10224 20057 40257 5//// 333 20180;EQDQ01  00002PRCP99
0168600600999992000020509004+29370-010180FM-12+0066GMMF V0201601N009812200019N0100001N1+02361+00351102711ADDAA199000091GA1021+060009019GF102991001001999999001021MD1310141+9999REMSYN070AAXX  05094 60060 32960 21619 10236 20035 40271 53014 80002 333 82070;EQDQ01  00002PRCP99
0174600600999992000020512004+29370-010180FM-12+0066GMMF V0201401N007212200019N0100001N1+02741+01021102781ADDAA199000091GA1021+060009009GF102991001001999999001021MD1010081+9999REMSYN076AAXX  05124 60060 32960 21414 10274 20102 40278 50008 80002 333 82070 95300;EQDQ01  00002PRCP99
0174600600999992000020515004+29370-010180FM-12+0066GMMF V0203601N005712200019N0120001N1+02351+01101102691ADDAA199000091GA1021+060009009GF102991001001999999001021MD1610101+9999REMSYN076AAXX  05154 60060 32962 23611 10235 20110 40269 56010 80002 333 82070 95300;EQDQ01  00002PRCP99
0193600600999992000020518004+29370-010180FM-12+0066GMMF V0200401N006212200019N0120001N1+02111+01191102751ADDAA199000091GA1011+060009009GF101991001001999999001011KA1120M+02831MD1310061+9999REMSYN082AAXX  05184 60060 32962 10412 10211 20119 40275 53006 80001 333 10283 81070 95300;EQDQ01  00002PRCP99
0174600600999992000020521004+29370-010180FM-12+0066GMMF V0200401N003612200019N0100001N1+01971+00981102941ADDAA199000091GA1011+060009009GF101991001001999999001011MD1310181+9999REMSYN076AAXX  05214 60060 32960 10407 10197 20098 40294 53018 80001 333 81070 95300;EQDQ01  00002PRCP99
0161600600999992000020606004+29370-010180FM-12+0066GMMF V0201201N006212200019N0080001N1+01951+00511102931ADDAA199000091GA1001+999999999GF100991001001999999001001KA1999N+01811REMSYN064AAXX  06064 60060 32958 01212 10195 20051 40293 5//// 333 20181;EQDQ01  00002PRCP99
0174600600999992000020615004+29370-010180FM-12+0066GMMF V0200201N007212200019N0100001N1+01971+01641103081ADDAA199000091GA1011+060009009GF101991001001999999001011MD1710061+9999REMSYN076AAXX  06154 60060 32960 10214 10197 20164 40308 57006 80001 333 81070 95300;EQDQ01  00002PRCP99
0193600600999992000020618004+29370-010180FM-12+0066GMMF V0200201N005712200019N0100001N1+01861+01421103061ADDAA199000091GA1011+060009009GF101991001001999999001011KA1120M+02531MD1610021+9999REMSYN082AAXX  06184 60060 32960 10211 10186 20142 40306 56002 80001 333 10253 81070 95300;EQDQ01  00002PRCP99
0174600600999992000020621004+29370-010180FM-12+0066GMMF V0200601N004112200019N0080001N1+01721+01131103141ADDAA199000091GA1011+060009009GF101991001001999999001011MD1310081+9999REMSYN076AAXX  06214 60060 32958 10608 10172 20113 40314 53008 80001 333 81070 95300;EQDQ01  00002PRCP99
0185600600999992000020706004+29370-010180FM-12+0066GMMF V0200601N002610048019N0060001N1+01451+01341103101ADDAA199000091GA1061+004809059GF106991061051008001001001KA1120N+01341REMSYN088AAXX  07064 60060 32556 60605 10145 20134 40310 5//// 86500 333 20134 30010 86516 95300;EQDQ01  00002PRCP99
0174600600999992000020709004+29370-010180FM-12+0066GMMF V0201201N001512200019N0080001N1+01431+01071103211ADDAA199000091GA1021+060009009GF102991001001999999001021MD1310111+9999REMSYN076AAXX  07094 60060 32958 21203 10143 20107 40321 53011 80002 333 82070 95300;EQDQ01  00002PRCP99
0174600600999992000020712004+29370-010180FM-12+0066GMMF V0203401N002612200019N0080001N1+01811+00981103261ADDAA199000091GA1021+060009009GF102991001001999999001021MD1110061+9999REMSYN076AAXX  07124 60060 32958 23405 10181 20098 40326 51006 80002 333 82070 95300;EQDQ01  00002PRCP99
0174600600999992000020715004+29370-010180FM-12+0066GMMF V0200201N003112200019N0080001N1+01961+01331103101ADDAA199000091GA1011+060009009GF101991001001999999001011MD1810161+9999REMSYN076AAXX  07154 60060 32958 10206 10196 20133 40310 58016 80001 333 81070 95300;EQDQ01  00002PRCP99
0175600600999992000020718004+29370-010180FM-12+0066GMMF V0200401N003112200019N0080001N1+01881+01111103121ADDAA199000091GA1001+999999999GF100991001001999999001001KA1999M+01991MD1210021+9999REMSYN064AAXX  07184 60060 32958 00406 10188 20111 40312 52002 333 10199;EQDQ01  00002PRCP99
0152600600999992000020721004+29370-010180FM-12+0066GMMF V0200401N002612200019N0080001N1+01741+01101103151ADDAA199000091GA1001+999999999GF100991001001999999001001MD1310041+9999REMSYN054AAXX  07214 60060 32958 00405 10174 20110 40315 53004;EQDQ01  00002PRCP99
0174600600999992000020809004+29370-010180FM-12+0066GMMF V0201001N001512200019N0070001N1+01401+01181103141ADDAA199000091GA1011+003009079GF101991011061004501001001MD1310071+9999REMSYN076AAXX  08094 60060 32457 11003 10140 20118 40314 53007 81600 333 81710 95300;EQDQ01  00002PRCP99
0152600600999992000020812004+29370-010180FM-12+0066GMMF V0203201N002612200019N0070001N1+01701+01311103121ADDAA199000091GA1001+999999999GF100991001001999999001001MD1810011+9999REMSYN054AAXX  08124 60060 32957 03205 10170 20131 40312 58001;EQDQ01  00002PRCP99
0152600600999992000020815004+29370-010180FM-12+0066GMMF V0203201N003112200019N0060001N1+01811+01371102971ADDAA199000091GA1001+999999999GF100991001001999999001001MD1810151+9999REMSYN054AAXX  08154 60060 32956 03206 10181 20137 40297 58015;EQDQ01  00002PRCP99
0193600600999992000020818004+29370-010180FM-12+0066GMMF V0203401N002612200019N0060001N1+01721+01481102941ADDAA199000091GA1021+003609079GF102991021061004501001001KA1120M+01831MD1710031+9999REMSYN082AAXX  08184 60060 32456 23405 10172 20148 40294 57003 82600 333 10183 82712 95300;EQDQ01  00002PRCP99
0174600600999992000020821004+29370-010180FM-12+0066GMMF V0200401N001512200019N0060001N1+01581+01391102981ADDAA199000091GA1011+003009079GF101991011061004501001001MD1110031+9999REMSYN076AAXX  08214 60060 32456 10403 10158 20139 40298 51003 81600 333 81710 95300;EQDQ01  00002PRCP99
0185600600999992000020906004+29370-010180FM-12+0066GMMF V0202001N002612200019N0060001N1+01541+01311102811ADDAA199000091GA1041+004809069GF104991041051004501001001KA1120N+01451REMSYN088AAXX  09064 60060 32456 42005 10154 20131 40281 5//// 84500 333 20145 30007 84616 95300;EQDQ01  00002PRCP99
0174600600999992000020909004+29370-010180FM-12+0066GMMF V0202001N001512200019N0060001N1+01541+01331102891ADDAA199000091GA1031+003609079GF103991031061004501001001MD1310081+9999REMSYN076AAXX  09094 60060 32456 32003 10154 20133 40289 53008 83600 333 83712 95300;EQDQ01  00002PRCP99
0174600600999992000020912004+29370-010180FM-12+0066GMMF V0202801N002612200019N0060001N1+01701+01351102901ADDAA199000091GA1021+003909079GF102991021061004501001001MD1210021+9999REMSYN076AAXX  09124 60060 32456 22805 10170 20135 40290 52002 82600 333 82713 95300;EQDQ01  00002PRCP99
0152600600999992000020915004+29370-010180FM-12+0066GMMF V0202401N003112200019N0060001N1+01861+01411102721ADDAA199000091GA1001+999999999GF100991001001999999001001MD1810181+9999REMSYN054AAXX  09154 60060 32956 02406 10186 20141 40272 58018;EQDQ01  00002PRCP99
0175600600999992000020918004+29370-010180FM-12+0066GMMF V0203601N002612200019N0060001N1+01711+01441102641ADDAA199000091GA1001+999999999GF100991001001999999001001KA1999M+01881MD1610081+9999REMSYN064AAXX  09184 60060 32956 03605 10171 20144 40264 56008 333 10188;EQDQ01  00002PRCP99
0152600600999992000020921004+29370-010180FM-12+0066GMMF V0200601N002612200019N0060001N1+01571+01321102741ADDAA199000091GA1001+999999999GF100991001001999999001001MD1210091+9999REMSYN054AAXX  09214 60060 32956 00605 10157 20132 40274 52009;EQDQ01  00002PRCP99
0185600600999992000021006004+29370-010180FM-12+0066GMMF V0202001N002610030019N0050001N1+01421+01241102571ADDAA199000091GA1081+003009079GF108991081061004501999999KA1120N+01331REMSYN088AAXX  10064 60060 32450 82005 10142 20124 40257 5//// 886// 333 20133 30006 88710 95300;EQDQ01  00002PRCP99
0174600600999992000021009004+29370-010180FM-12+0066GMMF V0201801N002610030019N0050001N1+01401+01161102671ADDAA199000091GA1081+003009079GF108991081061004501999999MD1210101+9999REMSYN076AAXX  10094 60060 32450 81805 10140 20116 40267 52010 886// 333 88710 95300;EQDQ01  00002PRCP99
0174600600999992000021015004+29370-010180FM-12+0066GMMF V0203201N002612200019N0050001N1+01601+01241102501ADDAA199000091GA1031+003009079GF103991031061004501001001MD1810201+9999REMSYN076AAXX  10154 60060 32450 33205 10160 20124 40250 58020 83600 333 83710 95300;EQDQ01  00002PRCP99
0175600600999992000021018004+29370-010180FM-12+0066GMMF V0203601N002612200019N0060001N1+01601+01261102431ADDAA199000091GA1001+999999999GF100991001001999999001001KA1999M+01671MD1710061+9999REMSYN064AAXX  10184 60060 32956 03605 10160 20126 40243 57006 333 10167;EQDQ01  00002PRCP99
0174600600999992000021021004+29370-010180FM-12+0066GMMF V0200401N001510030019N0050001N1+01501+01231102491ADDAA199000091GA1071+003009079GF107991071061004501999999MD1310061+9999REMSYN076AAXX  10214 60060 32450 70403 10150 20123 40249 53006 876// 333 87710 95300;EQDQ01  00002PRCP99
0185600600999992000021106004+29370-010180FM-12+0066GMMF V0201801N001010030019N0050001N1+01371+01151102341ADDAA199000091GA1071+003009079GF107991071061004501999999KA1120N+01281REMSYN088AAXX  11064 60060 32450 71802 10137 20115 40234 5//// 876// 333 20128 30005 87710 95300;EQDQ01  00002PRCP99
0196600600999992000021112004+29370-010180FM-12+0066GMMF V0202801N002610600019N0050001N1+01561+01201102451ADDAA199000091GA1021+004809069GA2031+060009009GF105991021051004501001021MD1010071+9999REMSYN082AAXX  11124 60060 32450 52805 10156 20120 40245 50007 82502 333 82616 83070 95300;EQDQ01  00002PRCP99
0174600600999992000021115004+29370-010180FM-12+0066GMMF V0202601N002112200019N0050001N1+01641+01311102381ADDAA199000091GA1031+004809069GF104991031051004501001021MD1610071+9999REMSYN076AAXX  11154 60060 32450 42604 10164 20131 40238 56007 83502 333 83616 95300;EQDQ01  00002PRCP99
0193600600999992000021118004+29370-010180FM-12+0066GMMF V0203601N001512200019N0050001N1+01641+01311102341ADDAA199000091GA1011+004809069GF103991011051004501001021KA1120M+01691MD1610041+9999REMSYN082AAXX  11184 60060 32450 33603 10164 20131 40234 56004 81502 333 10169 81616 95300;EQDQ01  00002PRCP99
0174600600999992000021121004+29370-010180FM-12+0066GMMF V0200601N00151090001CN0050001N1+01521+01291102411ADDAA199000091GA1011+004809069GF105991011051004501001021MD1310071+9999REMSYN076AAXX  11214 60060 32450 50603 10152 20129 40241 53007 81502 333 81616 84070;EQDQ01  00002PRCP99
0185600600999992000021206004+29370-010180FM-12+0066GMMF V0201201N003110048019N0050001N1+01411+01281102501ADDAA199000091GA1061+004809069GF106991061051004501001001KA1120N+01371REMSYN088AAXX  12064 60060 32450 61206 10141 20128 40250 5//// 86500 333 20137 30005 86616 95300;EQDQ01  00002PRCP99
0194600600999992000021209004+29370-010180FM-12+0066GMMF V0200601N002110024019N0020001N1+01351+01251102421ADDAA199000091AY121031GA1071+002409079GF107991071061002501999999MD1310051+9999MW1101REMSYN082AAXX  12094 60060 31320 70604 10135 20125 40242 53005 7102/ 876// 333 87708 95310;EQDQ01  00002PRCP99
0174600600999992000021212004+29370-010180FM-12+0066GMMF V0203201N002612200019N0050001N1+01581+01291102491ADDAA199000091GA1021+004809069GF103991021051004501001011MD1010071+9999REMSYN076AAXX  12124 60060 32450 33205 10158 20129 40249 50007 82501 333 82616 95300;EQDQ01  00002PRCP99
0174600600999992000021215004+29370-010180FM-12+0066GMMF V0200201N003612200019N0060001N1+01711+01361102331ADDAA199000091GA1011+060009009GF101991001001999999001011MD1710151+9999REMSYN076AAXX  12154 60060 32956 10207 10171 20136 40233 57015 80001 333 81070 95300;EQDQ01  00002PRCP99
0175600600999992000021218004+29370-010180FM-12+0066GMMF V0200201N003112200019N0050001N1+01711+01411102301ADDAA199000091GA1001+999999999GF100991001001999999001001KA1999M+01771MD1610031+9999REMSYN064AAXX  12184 60060 32950 00206 10171 20141 40230 56003 333 10177;EQDQ01  00002PRCP99
0174600600999992000021221004+29370-010180FM-12+0066GMMF V0200801N001510048019N0050001N1+01591+01351102381ADDAA199000091GA1071+004809069GF107991071051004501999999MD1310071+9999REMSYN076AAXX  12214 60060 32450 70803 10159 20135 40238 53007 875// 333 87616 95300;EQDQ01  00002PRCP99
0185600600999992000021306004+29370-010180FM-12+0066GMMF V0202001N002110030019N0050001N1+01561+01371102351ADDAA199000091GA1081+003009079GF108991081061004501999999KA1120N+01451REMSYN088AAXX  13064 60060 32450 82004 10156 20137 40235 5//// 886// 333 20145 30005 88710 95300;EQDQ01  00002PRCP99
0174600600999992000021309004+29370-010180FM-12+0066GMMF V0201801N002112200019N0050001N1+01551+01351102391ADDAA199000091GA1041+003009079GF104991041061004501001001MD1310041+9999REMSYN076AAXX  13094 60060 32450 41804 10155 20135 40239 53004 84600 333 84710 95300;EQDQ01  00002PRCP99
0152600600999992000021312004+29370-010180FM-12+0066GMMF V0202601N003612200019N0060001N1+01801+01501102461ADDAA199000091GA1001+999999999GF100991001001999999001001MD1010061+9999REMSYN054AAXX  13124 60060 32956 02607 10180 20150 40246 50006;EQDQ01  00002PRCP99
0152600600999992000021315004+29370-010180FM-12+0066GMMF V0203001N002112200019N0060001N1+01811+01451102361ADDAA199000091GA1001+999999999GF100991001001999999001001MD1610101+9999REMSYN054AAXX  13154 60060 32956 03004 10181 20145 40236 56010;EQDQ01  00002PRCP99
0175600600999992000021318004+29370-010180FM-12+0066GMMF V0202801N001012200019N0060001N1+01721+01501102361ADDAA199000091GA1001+999999999GF100991001001999999001001KA1999M+01861MD1410001+9999REMSYN064AAXX  13184 60060 32956 02802 10172 20150 40236 54000 333 10186;EQDQ01  00002PRCP99
0174600600999992000021321004+29370-010180FM-12+0066GMMF V0203601N002112200019N0050001N1+01611+01451102431ADDAA199000091GA1021+004809069GF102991021051004501001001MD1210061+9999REMSYN076AAXX  13214 60060 32450 23604 10161 20145 40243 52006 82500 333 82616 95300;EQDQ01  00002PRCP99
0197600600999992000021406004+29370-010180FM-12+0066GMMF V0201601N002610024019N0030001N1+01351+01311102391ADDAA199000091GA1051+002409079GF105991051061002501001001KA1120N+01331MW1101REMSYN094AAXX  14064 60060 31330 51605 10135 20131 40239 5//// 710// 85600 333 20133 31005 85708 95310;EQDQ01  00002PRCP99
0194600600999992000021409004+29370-010180FM-12+0066GMMF V0201201N001510024019N0015001N1+01401+01331102501ADDAA199000091AY141031GA1061+002409079GF106991061061002501001001MD1310111+9999MW1101REMSYN082AAXX  14094 60060 31315 61203 10140 20133 40250 53011 7104/ 86600 333 86708 95310;EQDQ01  00002PRCP99
0202600600999992000021412004+29370-010180FM-12+0066GMMF V0203201N002112200019N0030001N1+01631+01371102601ADDAA199000091AY141061AY221061GA1041+003009079GF104991041061004501001001MD1310111+9999MW1101REMSYN082AAXX  14124 60060 31430 43204 10163 20137 40260 53011 71042 84600 333 84710 95300;EQDQ01  00002PRCP99
0202600600999992000021415004+29370-010180FM-12+0066GMMF V0202801N002612200019N0040001N1+01631+01331102451ADDAA199000091AY101031AY201031GA1041+003009079GF104991041061004501001001MD1810121+9999MW1101REMSYN082AAXX  14154 60060 31440 42805 10163 20133 40245 58012 71000 84600 333 84710 95300;EQDQ01  00002PRCP99
0175600600999992000021418004+29370-010180FM-12+0066GMMF V0200201N002612200019N0050001N1+01621+01341102411ADDAA199000091GA1001+999999999GF100991001001999999001001KA1999M+01691MD1510041+9999REMSYN064AAXX  14184 60060 32950 00205 10162 20134 40241 55004 333 10169;EQDQ01  00002PRCP99
0152600600999992000021421004+29370-010180FM-12+0066GMMF V0200401N002112200019N0050001N1+01561+01321102431ADDAA199000091GA1001+999999999GF100991001001999999001001MD1310021+9999REMSYN054AAXX  14214 60060 32950 00404 10156 20132 40243 53002;EQDQ01  00002PRCP99
0197600600999992000021506004+29370-010180FM-12+0066GMMF V0202201N002110030019N0030001N1+01351+01171102391ADDAA199000091GA1071+003009079GF107991071061004501999999KA1120N+01281MW1101REMSYN094AAXX  15064 60060 31430 72204 10135 20117 40239 5//// 710// 876// 333 20128 30005 87710 95300;EQDQ01  00002PRCP99
0202600600999992000021509004+29370-010180FM-12+0066GMMF V0202001N003110030019N0030001N1+01371+01151102491ADDAA199000091AY121031AY221031GA1071+003009079GF107991071061004501999999MD1310101+9999MW1101REMSYN082AAXX  15094 60060 31430 72006 10137 20115 40249 53010 71022 876// 333 87710 95300;EQDQ01  00002PRCP99
0202600600999992000021512004+29370-010180FM-12+0066GMMF V0202601N003612200019N0040001N1+01601+01221102581ADDAA199000091AY111061AY211061GA1031+003009079GF103991031061004501001001MD1110091+9999MW1101REMSYN082AAXX  15124 60060 31440 32607 10160 20122 40258 51009 71011 83600 333 83710 95300;EQDQ01  00002PRCP99
0194600600999992000021515004+29370-010180FM-12+0066GMMF V0202401N004112200019N0040001N1+01801+01371102421ADDAA199000091AY101031GA1021+003009079GF102991021061004501001001MD1610151+9999MW1101REMSYN082AAXX  15154 60060 31440 22408 10180 20137 40242 56015 7100/ 82600 333 82710 95300;EQDQ01  00002PRCP99
0194600600999992000021521004+29370-010180FM-12+0066GMMF V0200801N001010030019N0030001N1+01551+01321102461ADDAA199000091AY121031GA1071+003009079GF107991071061004501999999MD1310081+9999MW1101REMSYN082AAXX  15214 60060 31430 70802 10155 20132 40246 53008 7102/ 876// 333 87710 95300;EQDQ01  00002PRCP99
0197600600999992000021606004+29370-010180FM-12+0066GMMF V0201601N001510030019N0030001N1+01321+01151102481ADDAA199000091GA1061+003009079GF106991061061004501001001KA1120N+01281MW1101REMSYN094AAXX  16064 60060 31430 61603 10132 20115 40248 5//// 710// 86600 333 20128 31008 86710 95310;EQDQ01  00002PRCP99
0194600600999992000021609004+29370-010180FM-12+0066GMMF V0201801N001012200019N0040001N1+01301+01111102581ADDAA199000091AY111031GA1021+003009079GF102991021061004501001001MD1310101+9999MW1101REMSYN082AAXX  16094 60060 31440 21802 10130 20111 40258 53010 7101/ 82600 333 82710 95300;EQDQ01  00002PRCP99
0202600600999992000021612004+29370-010180FM-12+0066GMMF V0203601N002112200019N0040001N1+01701+01351102691ADDAA199000091AY111061AY211061GA1021+003009079GF102991021061004501001001MD1110131+9999MW1101REMSYN082AAXX  16124 60060 31440 23604 10170 20135 40269 51013 71011 82600 333 82710 95300;EQDQ01  00002PRCP99
0174600600999992000021615004+29370-010180FM-12+0066GMMF V0200201N004612200019N0050001N1+01741+01391102531ADDAA199000091GA1011+003009079GF101991011061004501001001MD1810161+9999REMSYN076AAXX  16154 60060 32450 10209 10174 20139 40253 58016 81600 333 81710 95300;EQDQ01  00002PRCP99
0175600600999992000021618004+29370-010180FM-12+0066GMMF V0200201N003112200019N0050001N1+01701+01421102501ADDAA199000091GA1001+999999999GF100991001001999999001001KA1999M+01771MD1510031+9999REMSYN064AAXX  16184 60060 32950 00206 10170 20142 40250 55003 333 10177;EQDQ01  00002PRCP99
0152600600999992000021621004+29370-010180FM-12+0066GMMF V0200401N003112200019N0050001N1+01521+01301102571ADDAA199000091GA1001+999999999GF100991001001999999001001MD1210061+9999REMSYN054AAXX  16214 60060 32950 00406 10152 20130 40257 52006;EQDQ01  00002PRCP99
0185600600999992000021706004+29370-010180FM-12+0066GMMF V0201601N002112200019N0050001N1+01401+01181102411ADDAA199000091GA1041+003009079GF104991041061004501001001KA1120N+01311REMSYN088AAXX  17064 60060 32450 41604 10140 20118 40241 5//// 84600 333 20131 30007 84710 95300;EQDQ01  00002PRCP99
0202600600999992000021709004+29370-010180FM-12+0066GMMF V0201801N002610030019N0040001N1+01401+01161102471ADDAA199000091AY111031AY211031GA1071+003009079GF107991071061004501999999MD1310061+9999MW1101REMSYN082AAXX  17094 60060 31440 71805 10140 20116 40247 53006 71011 876// 333 87710 95300;EQDQ01  00002PRCP99
0202600600999992000021712004+29370-010180FM-12+0066GMMF V0202801N002612200019N0040001N1+01621+01221102491ADDAA199000091AY111061AY211061GA1021+003009079GF102991021061004501001001MD1010021+9999MW1101REMSYN082AAXX  17124 60060 31440 22805 10162 20122 40249 50002 71011 82600 333 82710 95300;EQDQ01  00002PRCP99
0152600600999992000021715004+29370-010180FM-12+0066GMMF V0202801N002112200019N0050001N1+01801+01311102301ADDAA199000091GA1001+999999999GF100991001001999999001001MD1710181+9999REMSYN054AAXX  17154 60060 32950 02804 10180 20131 40230 57018;EQDQ01  00002PRCP99
0215600600999992000021718004+29370-010180FM-12+0066GMMF V0202801N002110048019N0050001N1+01651+01301102261ADDAA199000091GA1021+003009079GA2031+004809069GF105991051051004501001001KA1120M+01821MD1510061+9999REMSYN088AAXX  17184 60060 32450 52804 10165 20130 40226 55006 85500 333 10182 82710 83616 95300;EQDQ01  00002PRCP99
0174600600999992000021721004+29370-010180FM-12+0066GMMF V0202601N001012200019N0050001N1+01501+01251102291ADDAA199000091GA1021+004809069GF102991021051004501001001MD1310031+9999REMSYN076AAXX  17214 60060 32450 22602 10150 20125 40229 53003 82500 333 82616 95300;EQDQ01  00002PRCP99
0174600600999992000021809004+29370-010180FM-12+0066GMMF V0201201N001512200019N0050001N1+01351+01171102301ADDAA199000091GA1031+004809069GF103991031051004501001001MD1210111+9999REMSYN076AAXX  18094 60060 32450 31203 10135 20117 40230 52011 83500 333 83616 95300;EQDQ01  00002PRCP99
0152600600999992000021815004+29370-010180FM-12+0066GMMF V0202801N004112200019N0050001N1+01771+01371102171ADDAA199000091GA1001+999999999GF100991001001999999001001MD1810141+9999REMSYN054AAXX  18154 60060 32950 02808 10177 20137 40217 58014;EQDQ01  00002PRCP99
0175600600999992000021818004+29370-010180FM-12+0066GMMF V0202801N003112200019N0050001N1+01691+01301102171ADDAA199000091GA1001+999999999GF100991001001999999001001KA1999M+01811MD1510011+9999REMSYN064AAXX  18184 60060 32950 02806 10169 20130 40217 55001 333 10181;EQDQ01  00002PRCP99
0152600600999992000021821004+29370-010180FM-12+0066GMMF V0201001N001012200019N0050001N1+01531+01241102251ADDAA199000091GA1001+999999999GF100991001001999999001001MD1310081+9999REMSYN054AAXX  18214 60060 32950 01002 10153 20124 40225 53008;EQDQ01  00002PRCP99
0167600600999992000021906004+29370-010180FM-12+0066GMMF V0202201N001512200019N0060001N1+01341+00951102151ADDAA199000091GA1001+999999999GF100991001001999999001001KA1120N+01251REMSYN070AAXX  19064 60060 32956 02203 10134 20095 40215 5//// 333 20125 30006;EQDQ01  00002PRCP99
0174600600999992000021909004+29370-010180FM-12+0066GMMF V0202001N001512200019N0050001N1+01441+00901102221ADDAA199000091GA1011+004809069GF101991011051004501001001MD1310071+9999REMSYN076AAXX  19094 60060 32450 12003 10144 20090 40222 53007 81500 333 81616 95300;EQDQ01  00002PRCP99
0174600600999992000021912004+29370-010180FM-12+0066GMMF V0203401N002612200019N0050001N1+01751+01231102201ADDAA199000091GA1021+060009009GF102991001001999999001011MD1010001+9999REMSYN076AAXX  19124 60060 32950 23405 10175 20123 40220 50000 80001 333 82070 95300;EQDQ01  00002PRCP99
0174600600999992000021915004+29370-010180FM-12+0066GMMF V0200201N002612200019N0050001N1+01771+01311102041ADDAA199000091GA1041+060009009GF104991001001999999001021MD1810161+9999REMSYN076AAXX  19154 60060 32950 40205 10177 20131 40204 58016 80002 333 84070 95300;EQDQ01  00002PRCP99
0193600600999992000021918004+29370-010180FM-12+0066GMMF V0200201N004112200019N0050001N1+01801+01461101961ADDAA199000091GA1021+060009009GF104991001001999999001021KA1120M+01921MD1610081+9999REMSYN082AAXX  19184 60060 32950 40208 10180 20146 40196 56008 80002 333 10192 82070 95300;EQDQ01  00002PRCP99
0174600600999992000021921004+29370-010180FM-12+0066GMMF V0200201N004612200019N0050001N1+01661+01431102021ADDAA199000091GA1041+060009009GF104991001001999999001021MD1310051+9999REMSYN076AAXX  19214 60060 32950 40209 10166 20143 40202 53005 80002 333 84070 95300;EQDQ01  00002PRCP99
0185600600999992000022006004+29370-010180FM-12+0066GMMF V0202201N002110048019N0050001N1+01461+01171101961ADDAA199000091GA1071+004809069GF107991071051004501999999KA1120N+01351REMSYN088AAXX  20064 60060 32450 72204 10146 20117 40196 5//// 875// 333 20135 31003 87616 95300;EQDQ01  00002PRCP99
0174600600999992000022009004+29370-010180FM-12+0066GMMF V0201601N001512200019N0050001N1+01451+01191102041ADDAA199000091GA1021+004809069GF102991021051004501001001MD1310081+9999REMSYN076AAXX  20094 60060 32450 21603 10145 20119 40204 53008 82500 333 82616 95300;EQDQ01  00002PRCP99
0174600600999992000022012004+29370-010180FM-12+0066GMMF V0203201N002112200019N0050001N1+01771+01391102081ADDAA199000091GA1021+060009009GF102991001001999999001011MD1110051+9999REMSYN076AAXX  20124 60060 32950 23204 10177 20139 40208 51005 80001 333 82070 95300;EQDQ01  00002PRCP99
0174600600999992000022015004+29370-010180FM-12+0066GMMF V0203401N002112200019N0050001N1+01851+01421101961ADDAA199000091GA1011+004809069GF102991011051004501001011MD1710121+9999REMSYN076AAXX  20154 60060 32450 23404 10185 20142 40196 57012 81501 333 81616 95300;EQDQ01  00002PRCP99
0193600600999992000022018004+29370-010180FM-12+0066GMMF V0200201N006210900019N0050001N1+01731+01401101951ADDAA199000091GA1011+004809069GF105991011051004501001021KA1120M+01891MD1710011+9999REMSYN082AAXX  20184 60060 32450 50212 10173 20140 40195 57001 81502 333 10189 81616 95300;EQDQ01  00002PRCP99
0174600600999992000022021004+29370-010180FM-12+0066GMMF V0200401N003612200019N0050001N1+01601+01391101991ADDAA199000091GA1031+060009009GF103991001001999999001021MD1310031+9999REMSYN076AAXX  20214 60060 32950 30407 10160 20139 40199 53003 80002 333 83070 95300;EQDQ01  00002PRCP99
0197600600999992000022106004+29370-010180FM-12+0066GMMF V0201001N002110030019N0030001N1+01461+01241101971ADDAA199000091GA1061+003009079GF106991061061004501001001KA1120N+01401MW1101REMSYN094AAXX  21064 60060 31430 61004 10146 20124 40197 5//// 710// 86600 333 20140 30005 86710 95300;EQDQ01  00002PRCP99
0224600600999992000022109004+29370-010180FM-12+0066GMMF V0201001N002610048019N0035001N1+01501+01251102061ADDAA199000091AY121031AY221031GA1021+003009079GA2041+004809069GF106991061051004501001001MD1310091+9999MW1101REMSYN088AAXX  21094 60060 31435 61005 10150 20125 40206 53009 71022 86500 333 82710 84616 95300;EQDQ01  00002PRCP99
0180600600999992000022112004+29370-010180FM-12+0066GMMF V0200401N002612200019N0040001N1+01681+01291102141ADDAA199000091AY111061AY211061GA1001+999999999GF100991001001999999001001MD1210081+9999MW1101REMSYN060AAXX  21124 60060 31940 00405 10168 20129 40214 52008 71011;EQDQ01  00002PRCP99
0216600600999992000022115004+29370-010180FM-12+0066GMMF V0203401N002612200019N0045001N1+01821+01461102041ADDAA199000091AY101031GA1011+003909089GA2031+004809069GF104991041081004501001001MD1810091+9999MW1101REMSYN088AAXX  21154 60060 31445 43405 10182 20146 40204 58009 7100/ 84800 333 81813 83616 95300;EQDQ01  00002PRCP99
0193600600999992000022118004+29370-010180FM-12+0066GMMF V0200201N003612200019N0050001N1+01771+01451102001ADDAA199000091GA1031+004809069GF103991031051004501001001KA1120M+01851MD1610041+9999REMSYN082AAXX  21184 60060 32450 30207 10177 20145 40200 56004 83500 333 10185 83616 85300;EQDQ01  00002PRCP99
0174600600999992000022121004+29370-010180FM-12+0066GMMF V0200401N003610048019N0050001N1+01581+01391102101ADDAA199000091GA1061+004809069GF106991061051004501001001MD1110091+9999REMSYN076AAXX  21214 60060 32450 60407 10158 20139 40210 51009 86500 333 86616 95300;EQDQ01  00002PRCP99
0219600600999992000022206004+29370-010180FM-12+0066GMMF V0201801N001510048019N0040001N1+01451+01361102091ADDAA199000091GA1031+003009079GA2041+004809069GF106991061051004501001001KA1120N+01351MW1101REMSYN100AAXX  22064 60060 31440 61803 10145 20136 40209 5//// 710// 86500 333 20135 31004 83710 84616 95310;EQDQ01  00002PRCP99
0194600600999992000022209004+29370-010180FM-12+0066GMMF V0202001N001012200019N0040001N1+01461+01281102241ADDAA199000091AY111031GA1021+004809069GF102991021051004501001001MD1310151+9999MW1101REMSYN082AAXX  22094 60060 31440 22002 10146 20128 40224 53015 7101/ 82500 333 82616 95300;EQDQ01  00002PRCP99
0180600600999992000022212004+29370-010180FM-12+0066GMMF V0203401N002112200019N0045001N1+01731+01361102301ADDAA199000091AY111061AY211061GA1001+999999999GF100991001001999999001001MD1110061+9999MW1101REMSYN060AAXX  22124 60060 31945 03404 10173 20136 40230 51006 71011;EQDQ01  00002PRCP99
0152600600999992000022215004+29370-010180FM-12+0066GMMF V0203601N003112200019N0050001N1+01911+01451102071ADDAA199000091GA1001+999999999GF100991001001999999001001MD1810221+9999REMSYN054AAXX  22154 60060 32950 03606 10191 20145 40207 58022;EQDQ01  00002PRCP99
0175600600999992000022218004+29370-010180FM-12+0066GMMF V0203601N003112200019N0050001N1+01831+01491102041ADDAA199000091GA1001+999999999GF100991001001999999001001KA1999M+01971MD1610031+9999REMSYN064AAXX  22184 60060 32950 03606 10183 20149 40204 56003 333 10197;EQDQ01  00002PRCP99
0152600600999992000022221004+29370-010180FM-12+0066GMMF V0201801N001512200019N0050001N1+01691+01391102101ADDAA199000091GA1001+999999999GF100991001001999999001001MD1310061+9999REMSYN054AAXX  22214 60060 32950 01803 10169 20139 40210 53006;EQDQ01  00002PRCP99
0174600600999992000022309004+29370-010180FM-12+0066GMMF V0203401N002112200019N0050001N1+01451+00601101971ADDAA199000091GA1021+060009009GF102991001001999999001021MD1310071+9999REMSYN076AAXX  23094 60060 32950 23404 10145 20060 40197 53007 80002 333 82070 95300;EQDQ01  00002PRCP99
0174600600999992000022312004+29370-010180FM-12+0066GMMF V0202801N002610600019N0050001N1+02011+01471101971ADDAA199000091GA1051+060009009GF105991001001999999001021MD1110011+9999REMSYN076AAXX  23124 60060 32950 52805 10201 20147 40197 51001 80002 333 85070 95300;EQDQ01  00002PRCP99
0174600600999992000022315004+29370-010180FM-12+0066GMMF V0202401N002610600019N0050001N1+02061+01601101791ADDAA199000091GA1051+060009009GF105991001001999999001021MD1810181+9999REMSYN076AAXX  23154 60060 32950 52405 10206 20160 40179 58018 80002 333 85070 95300;EQDQ01  00002PRCP99
0215600600999992000022318004+29370-010180FM-12+0066GMMF V0200201N001510600019N0050001N1+01991+01371101711ADDAA199000091GA1031+030009039GA2041+060009009GF106991031001999999031021KA1120M+02241MD1610081+9999REMSYN088AAXX  23184 60060 32950 60203 10199 20137 40171 56008 83032 333 10224 83360 84070 95300;EQDQ01  00002PRCP99
0196600600999992000022321004+29370-010180FM-12+0066GMMF V0201201N004612200019N0050001N1+02231+01311101711ADDAA199000091GA1021+030009039GA2031+060009009GF104991021001999999031021MD1510001+9999REMSYN082AAXX  23214 60060 32950 41209 10223 20131 40171 55000 82032 333 82360 83070 95300;EQDQ01  00002PRCP99
0207600600999992000022406004+29370-010180FM-12+0066GMMF V0202401N001510600019N0050001N1+01671+01431101581ADDAA199000091GA1031+030009039GA2041+060009009GF106991031001999999031021KA1120N+01581REMSYN094AAXX  24064 60060 32950 62403 10167 20143 40158 5//// 83032 333 20158 30010 83360 84070 95300;EQDQ01  00002PRCP99
0196600600999992000022409004+29370-010180FM-12+0066GMMF V0201401N007210600019N0050001N1+02521+00761101671ADDAA199000091GA1041+030009039GA2031+060009009GF106991041001999999081021MD1310111+9999REMSYN082AAXX  24094 60060 32950 61414 10252 20076 40167 53011 84082 333 84360 83070 95300;EQDQ01  00002PRCP99
0218600600999992000022412004+29370-010180FM-12+0066GMMF V0201201N00931060001CN0050001N1+02861+00991101701ADDAA199000091GA1021+004809089GA2031+030009039GA3051+060009009GF107991021021004501081021MD1010041+9999REMSYN088AAXX  24124 60060 32450 71218 10286 20099 40170 50004 82282 333 82816 83360 85070 95300;EQDQ01  00002PRCP99
0196600600999992000022415004+29370-010180FM-12+0066GMMF V0201201N006210300019N0050001N1+02811+00461101651ADDAA199000091GA1031+004809089GA2071+030009039GF108991031021004501071999MD1610051+9999REMSYN082AAXX  24154 60060 32450 81212 10281 20046 40165 56005 8327/ 333 83816 87360 95300;EQDQ01  00002PRCP99
0215600600999992000022418004+29370-010180FM-12+0066GMMF V0200401N004610300019N0050001N1+02781-00291101551ADDAA199000091GA1031+004809089GA2061+030009039GF108991031021004501071999KA1120M+02921MD1610101+9999REMSYN088AAXX  24184 60060 32450 80409 10278 21029 40155 56010 8327/ 333 10292 83816 86360 95300;EQDQ01  00002PRCP99
0196600600999992000022421004+29370-010180FM-12+0066GMMF V0201201N004610300019N0050001N1+02751-00091101821ADDAA199000091GA1021+004809089GA2041+030009039GF106991021021004501031001MD1010271+9999REMSYN082AAXX  24214 60060 32450 61209 10275 21009 40182 50027 82230 333 82816 84360 95300;EQDQ01  00002PRCP99
0207600600999992000022506004+29370-010180FM-12+0066GMMF V0200801N007210300019N0050001N1+02351+00091101941ADDAA199000091GA1031+004809089GA2061+030009039GF108991031021004501071999KA1120N+02321REMSYN094AAXX  25064 60060 32450 80814 10235 20009 40194 5//// 8327/ 333 20232 30014 83816 86360 95300;EQDQ01  00002PRCP99
0196600600999992000022509004+29370-010180FM-12+0066GMMF V0200801N007210300019N0060001N1+02311+00161101981ADDAA199000091GA1021+006009089GA2041+030009039GF106991021021004501081001MD1310041+9999REMSYN082AAXX  25094 60060 32456 60814 10231 20016 40198 53004 82280 333 82820 84360 95300;EQDQ01  00002PRCP99
0196600600999992000022512004+29370-010180FM-12+0066GMMF V0200801N007710300019N0060001N1+02501-00151102061ADDAA199000091GA1031+006009089GA2031+030009039GF106991031021004501081001MD1210081+9999REMSYN082AAXX  25124 60060 32456 60815 10250 21015 40206 52008 83280 333 83820 83360 95300;EQDQ01  00002PRCP99
0186600600999992000022515004+29370-010180FM-12+0066GMMF V0200601N007210300019N0050001N1+02241-00111101821ADDAY161031GA1031+006009089GA2031+030009039GF106991031021008001081001MD1710241+9999MW1071REMSYN088AAXX  25154 60060 41550 60614 10224 21011 40182 57024 7076/ 83280 333 83820 83360 95300;
0230600600999992000022518004+29370-010180FM-12+0066GMMF V0200601N006210300019N0050001N1+02361+00491101951ADDAA112001091AY161061AY221061GA1031+006009089GA2061+030009049GF107991031021008001071999KA1120M+02551MD1310131+9999MW1021REMSYN100AAXX  25184 60060 11550 70612 10236 20049 40195 53013 60012 70262 8327/ 333 10255 83820 86460 95300;
0186600600999992000022521004+29370-010180FM-12+0066GMMF V0200801N001510300019N0050001N1+02201+00341102141ADDAY161031GA1031+006009089GA2061+030009049GF107991031021008001071999MD1110191+9999MW1021REMSYN088AAXX  25214 60060 41550 70803 10220 20034 40214 51019 7026/ 8327/ 333 83820 86460 95300;
0196600600999992000022609004+29370-010180FM-12+0066GMMF V0201401N010310060019N0050001N1+02081-00581102091ADDAA199000091GA1051+006009089GA2061+030009039GF108991051021008001071999MD1110051+9999REMSYN082AAXX  26094 60060 32550 81420 10208 21058 40209 51005 8527/ 333 85820 86360 95300;EQDQ01  00002PRCP99
0212600600999992000022612004+29370-010180FM-12+0066GMMF V0201201N010310300019N0060001N1+01981+01112102331ADDAA199000091GA1041+006009089GA2051+030009039GF107991041021008001071999MD1210241+9999REMSYN082AAXX  26124 60060 32556 71220 10198 20111 40233 52024 8427/ 333 84820 85360 95300;EQDQ01+001113ATOD  Q02  00002PRCP99
0196600600999992000022615004+29370-010180FM-12+0066GMMF V0200201N004110300019N0060001N1+01961+01251102201ADDAA199000091GA1031+006009089GA2041+030009039GF106991031021008001071001MD1810131+9999REMSYN082AAXX  26154 60060 32556 60208 10196 20125 40220 58013 83270 333 83820 84360 95300;EQDQ01  00002PRCP99
0215600600999992000022618004+29370-010180FM-12+0066GMMF V0202201N003610300019N0080001N1+01831+00801102331ADDAA199000091GA1021+006009089GA2081+030009049GF108991021021008001071999KA1120M+02411MD1110121+9999REMSYN088AAXX  26184 60060 32558 82207 10183 20080 40233 51012 8227/ 333 10241 82820 88460 95300;EQDQ01  00002PRCP99
0172600600999992000022621004+29370-010180FM-12+0066GMMF V0201001N007212200019N0060001N1+02001-00061102201ADDAY161031AY211031GA1021+006009089GF102991021021004501001001MD1810121+9999MW1011REMSYN082AAXX  26214 60060 41456 21014 10200 21006 40220 58012 70161 82200 333 82820 95300;
0154600600999992000022706004+29370-010180FM-12+0066GMMF V0200401N002112200019N0060001N1+01701-00361102221ADDAA124000591GA1001+999999999GF100991001001999999001001KA1120N+01541REMSYN076AAXX  27064 60060 12956 00404 10170 21036 40222 5//// 69954 333 20154 30007;
0196600600999992000022709004+29370-010180FM-12+0066GMMF V0201201N003619999999N0080001N1+01901-00161102301ADDAA199000091GA1011+030009039GA2041+051009009GF105991011001999999031021MD1110081+9999REMSYN082AAXX  27094 60060 32958 51207 10190 21016 40230 51008 81032 333 81360 84067 95300;EQDQ01  00002PRCP99
0174600600999992000022712004+29370-010180FM-12+0066GMMF V0200201N003612200019N0080001N1+02021+00451102341ADDAA199000091GA1041+051009009GF104991001001999999001021MD1010041+9999REMSYN076AAXX  27124 60060 32958 40207 10202 20045 40234 50004 80002 333 84067 95300;EQDQ01  00002PRCP99
0193600600999992000022718004+29370-010180FM-12+0066GMMF V0200401N003610600019N0080001N1+01851+01231102151ADDAA199000091GA1071+060009009GF107991001001999999001021KA1120M+02131MD1310021+9999REMSYN082AAXX  27184 60060 32958 70407 10185 20123 40215 53002 80002 333 10213 87070 95300;EQDQ01  00002PRCP99
0174600600999992000022721004+29370-010180FM-12+0066GMMF V0200201N002112200019N0060001N1+01651+01311102221ADDAA199000091GA1041+051009009GF104991001001999999001021MD1210061+9999REMSYN076AAXX  27214 60060 32956 40204 10165 20131 40222 52006 80002 333 84067 95300;EQDQ01  00002PRCP99
0185600600999992000022806004+29370-010180FM-12+0066GMMF V0201801N001010510019N0060001N1+01541+01331102221ADDAA199000091GA1051+051009009GF105991001001999999001021KA1120N+01491REMSYN088AAXX  28064 60060 32956 51802 10154 20133 40222 5//// 80002 333 20149 30008 85067 95300;EQDQ01  00002PRCP99
0196600600999992000022809004+29370-010180FM-12+0066GMMF V0201801N001010510019N0060001N1+01611+01371102291ADDAA199000091GA1031+024009039GA2051+051009009GF107991031001999999031021MD1310071+9999REMSYN082AAXX  28094 60060 32956 71802 10161 20137 40229 53007 83032 333 83358 85067 95300;EQDQ01  00002PRCP99
0196600600999992000022812004+29370-010180FM-12+0066GMMF V0202801N003610510019N0050001N1+01821+01411102321ADDAA199000091GA1021+024009039GA2061+051009009GF107991021001999999081021MD1210031+9999REMSYN082AAXX  28124 60060 32950 72807 10182 20141 40232 52003 82082 333 82358 86067 95300;EQDQ01  00002PRCP99
0173600600999992000022815004+29370-010180FM-12+0066GMMF V0203401N004110510019N0050001N1+01841+01431102161ADDAA199000091GA1051+051009019GF105991001001999999001021MD1810151+9999REMSYN075AAXX  28154 60060 32950 53408 10184 20143 40216 58015 80002 333 8506795300;EQDQ01  00002PRCP99
0193600600999992000022818004+29370-010180FM-12+0066GMMF V0200201N004112200019N0060001N1+01851+01311102151ADDAA199000091GA1021+004809069GF103991021051008001001011KA1120M+01901MD1510011+9999REMSYN082AAXX  28184 60060 32556 30208 10185 20131 40215 55001 82501 333 10190 82616 95300;EQDQ01  00002PRCP99
0152600600999992000022821004+29370-010180FM-12+0066GMMF V0200201N003612200019N0060001N1+01611+01381102281ADDAA199000091GA1001+999999999GF100991001001999999001001MD1310121+9999REMSYN054AAXX  28214 60060 32956 00207 10161 20138 40228 53012;EQDQ01  00002PRCP99
0185600600999992000022906004+29370-010180FM-12+0066GMMF V0202601N003619999999N0060001N1+01421+01201102251ADDAA199000091GA1041+004809069GF105991041051008001001001KA1120N+01381REMSYN088AAXX  29064 60060 32556 52607 10142 20120 40225 5//// 84500 333 20138 30007 84616 95300;EQDQ01  00002PRCP99
0152600600999992000022909004+29370-010180FM-12+0066GMMF V0201801N002612200019N0060001N1+01541+01241102351ADDAA199000091GA1001+999999999GF100991001001999999001001MD1210101+9999REMSYN054AAXX  29094 60060 32956 01805 10154 20124 40235 52010;EQDQ01  00002PRCP99
0152600600999992000022912004+29370-010180FM-12+0066GMMF V0203201N002612200019N0060001N1+01711+01291102371ADDAA199000091GA1001+999999999GF100991001001999999001001MD1310031+9999REMSYN054AAXX  29124 60060 32956 03205 10171 20129 40237 53003;EQDQ01  00002PRCP99
0190600600999992000022915004+29370-010180FM-12+0066GMMF V0203601N003112200019N0060001N1+01861+01431999999ADDAA199000091GA1031+004809069GF103991031051004501001001MD1810161+9999REMSYN076AAXX  29154 60060 32456 33606 10186 20143 40142 58016 83500 333 83616 95300;EQDQ01+101423APOSLPQ02  00002PRCP99
0193600600999992000022918004+29370-010180FM-12+0066GMMF V0200201N003612200019N0060001N1+01901+00961102191ADDAA199000091GA1021+060009009GF102991001001999999001011KA1120M+01931MD1710011+9999REMSYN082AAXX  29184 60060 32956 20207 10190 20096 40219 57001 80001 333 10193 82070 95300;EQDQ01  00002PRCP99
0152600600999992000022921004+29370-010180FM-12+0066GMMF V0200401N003112200019N0060001N1+01701+01281102271ADDAA199000091GA1001+999999999GF100991001001999999001001MD1310081+9999REMSYN054AAXX  29214 60060 32956 00406 10170 20128 40227 53008;EQDQ01  00002PRCP99
0167600600999992000030106004+29370-010180FM-12+0066GMMF V0201801N001012200019N0060001N1+01361+01131102231ADDAA199000091GA1001+999999999GF100991001001999999001001KA1120N+01331REMSYN070AAXX  01064 60060 32956 01802 10136 20113 40223 5//// 333 20133 30007;EQDQ01  00002PRCP99
0202600600999992000030109004+29370-010180FM-12+0066GMMF V0201801N001512200019N0020001N1+01421+01271102311ADDAA199000091AY111031AY211031GA1041+002409079GF104991041061002501001001MD1310081+9999MW1101REMSYN082AAXX  01094 60060 31320 41803 10142 20127 40231 53008 71011 84600 333 84708 95300;EQDQ01  00002PRCP99
0194600600999992000030115004+29370-010180FM-12+0066GMMF V0203601N004110510019N0030001N1+01901+01421102161ADDAA199000091AY111031GA1061+051009009GF106991001001999999001021MD1710201+9999MW1101REMSYN082AAXX  01154 60060 31930 63608 10190 20142 40216 57020 7101/ 80002 333 86067 95310;EQDQ01  00002PRCP99
0221600600999992000030118004+29370-010180FM-12+0066GMMF V0200601N006710510019N0030001N1+01911+01511102121ADDAA199000091AY111061AY211061GA1051+051009009GF105991001001999999001021KA1120M+01941MD1510041+9999MW1101REMSYN088AAXX  01184 60060 31930 50613 10191 20151 40212 55004 71011 80002 333 10194 85067 95300;EQDQ01  00002PRCP99
0174600600999992000030121004+29370-010180FM-12+0066GMMF V0201001N003612200019N0050001N1+01861+01021102171ADDAA199000091GA1021+051009009GF102991001001999999001021MD1310051+9999REMSYN076AAXX  01214 60060 32950 21007 10186 20102 40217 53005 80002 333 82067 95300;EQDQ01  00002PRCP99
0185600600999992000030206004+29370-010180FM-12+0066GMMF V0201001N001512200019N0050001N1+01681+00281102021ADDAA199000091GA1021+051009009GF102991001001999999001021KA1120N+01601REMSYN088AAXX  02064 60060 32950 21003 10168 20028 40202 5//// 80002 333 20160 30005 82067 95300;EQDQ01  00002PRCP99
0174600600999992000030209004+29370-010180FM-12+0066GMMF V0200401N001010510019N0050001N1+01681+00721102121ADDAA199000091GA1051+051009009GF105991001001999999001021MD1310101+9999REMSYN076AAXX  02094 60060 32950 50402 10168 20072 40212 53010 80002 333 85067 95300;EQDQ01  00002PRCP99
0202600600999992000030212004+29370-010180FM-12+0066GMMF V0202601N002112200019N0030001N1+02141+01351102121ADDAA199000091AY111061AY211061GA1041+051009009GF104991001001999999001021MD1010011+9999MW1101REMSYN082AAXX  02124 60060 31930 42604 10214 20135 40212 50001 71011 80002 333 84067 95300;EQDQ01  00002PRCP99
0172600600999992000030215004+29370-010180FM-12+0066GMMF V0200201N002612200019N0040001N1+02041+01431101991ADDAA199000091AY111031GA1001+999999999GF100991001001999999001001MD1810131+9999MW1101REMSYN060AAXX  02154 60060 32940 00205 10204 20143 40199 58013 7101/;EQDQ01  00002PRCP99
0175600600999992000030218004+29370-010180FM-12+0066GMMF V0200201N005112200019N0060001N1+02001+01161101891ADDAA199000091GA1001+999999999GF100991001001999999001001KA1999M+02241MD1610101+9999REMSYN064AAXX  02184 60060 32956 00210 10200 20116 40189 56010 333 10224;EQDQ01  00002PRCP99
0152600600999992000030221004+29370-010180FM-12+0066GMMF V0200401N005112200019N0050001N1+02001+00751102001ADDAA199000091GA1001+999999999GF100991001001999999001001MD1210111+9999REMSYN054AAXX  02214 60060 32950 00410 10200 20075 40200 52011;EQDQ01  00002PRCP99
0152600600999992000030306004+29370-010180FM-12+0066GMMF V0202201N001512200019N0060001N1+02001+00601101961ADDAA199000091GA1001+999999999GF100991001001999999001001MD1310091+9999REMSYN054AAXX  03064 60060 32956 02203 10200 20060 40196 53009;EQDQ01  00002PRCP99
0152600600999992000030312004+29370-010180FM-12+0066GMMF V0202401N002112200019N0060001N1+02261+01051101991ADDAA199000091GA1001+999999999GF100991001001999999001001MD1010041+9999REMSYN054AAXX  03124 60060 32956 02404 10226 20105 40199 50004;EQDQ01  00002PRCP99
0152600600999992000030315004+29370-010180FM-12+0066GMMF V0203201N002612200019N0050001N1+02421+01131101871ADDAA199000091GA1001+999999999GF100991001001999999001001MD1810121+9999REMSYN054AAXX  03154 60060 32950 03205 10242 20113 40187 58012;EQDQ01  00002PRCP99
0175600600999992000030318004+29370-010180FM-12+0066GMMF V0200401N005112200019N0050001N1+02301+01051101781ADDAA199000091GA1001+999999999GF100991001001999999001001KA1999M+02621MD1510091+9999REMSYN064AAXX  03184 60060 32950 00410 10230 20105 40178 55009 333 10262;EQDQ01  00002PRCP99
0152600600999992000030321004+29370-010180FM-12+0066GMMF V0200401N004112200019N0050001N1+02111+00761101891ADDAA199000091GA1001+999999999GF100991001001999999001001MD1310101+9999REMSYN054AAXX  03214 60060 32950 00408 10211 20076 40189 53010;EQDQ01  00002PRCP99
0167600600999992000030406004+29370-010180FM-12+0066GMMF V0201001N006212200019N0050001N1+02801-00821101691ADDAA199000091GA1001+999999999GF100991001001999999001001KA1120N+02041REMSYN070AAXX  04064 60060 32950 01012 10280 21082 40169 5//// 333 20204 30010;EQDQ01  00002PRCP99
0174600600999992000030409004+29370-010180FM-12+0066GMMF V0200801N007712200019N0060001N1+02861-00831101771ADDAA199000091GA1031+060009009GF103991001001999999001021MD1310081+9999REMSYN076AAXX  04094 60060 32956 30815 10286 21083 40177 53008 80002 333 83070 95300;EQDQ01  00002PRCP99
0196600600999992000030412004+29370-010180FM-12+0066GMMF V0202201N003610600019N0060001N1+02841+00041101901ADDAA199000091GA1021+030009039GA2051+060009009GF106991021001999999081021MD1110131+9999REMSYN082AAXX  04124 60060 32956 62207 10284 20004 40190 51013 82082 333 82360 85070 95300;EQDQ01  00002PRCP99
0174600600999992000030415004+29370-010180FM-12+0066GMMF V0203401N003610600019N0050001N1+03321-00221101691ADDAA199000091GA1061+060009009GF106991001001999999001021MD1810201+9999REMSYN076AAXX  04154 60060 32950 63407 10332 21022 40169 58020 80002 333 86070 95300;EQDQ01  00002PRCP99
0193600600999992000030418004+29370-010180FM-12+0066GMMF V0200401N003610510019N0050001N1+02901-00071101711ADDAA199000091GA1061+051009009GF106991001001999999001021KA1120M+03341MD1310011+9999REMSYN082AAXX  04184 60060 32950 60407 10290 21007 40171 53001 80002 333 10334 86067 95300;EQDQ01  00002PRCP99
0159600600999992000030421004+29370-010180FM-12+0066GMMF V0200401N002112200019N0050001N1+99999+99999999999ADDAA199000091GA1041+051009009GF104991999999999999999999REMSYN075AAXX  04214 60060 32950 40404 0213 20136 40192 53019 80002 333 84067 95300;EQDQ01  00002PRCP99
0207600600999992000030506004+29370-010180FM-12+0066GMMF V0201801N001510510019N0050001N1+02741+00011101831ADDAA199000091GA1031+024009039GA2041+051009009GF106991031001999999081021KA1120N+02091REMSYN094AAXX  05064 60060 32950 61803 10274 20001 40183 5//// 83082 333 20209 30016 83358 84067 95300;EQDQ01  00002PRCP99
0196600600999992000030509004+29370-010180FM-12+0066GMMF V0201401N003110510019N0050001N1+02801+00111101831ADDAA199000091GA1031+024009039GA2041+051009009GF106991031001999999081021MD1310061+9999REMSYN082AAXX  05094 60060 32950 61406 10280 20011 40183 53006 83082 333 83358 84067 95300;EQDQ01  00002PRCP99
0174600600999992000030512004+29370-010180FM-12+0066GMMF V0201401N005119999999N0050001N1+03251+00311101801ADDAA199000091GA1031+024009039GF105991031001999999081021MD1810021+9999REMSYN076AAXX  05124 60060 32950 51410 10325 20031 40180 58002 83082 333 83358 95300;EQDQ01  00002PRCP99
0174600600999992000030515004+29370-010180FM-12+0066GMMF V0200801N005112200019N0060001N1+03431+00101101531ADDAA199000091GA1041+024009039GF104991041001999999081001MD1810261+9999REMSYN076AAXX  05154 60060 32956 40810 10343 20010 40153 58026 84080 333 84358 95300;EQDQ01  00002PRCP99
0193600600999992000030518004+29370-010180FM-12+0066GMMF V0201401N006210240019N0060001N1+03251+00051101571ADDAA199000091GA1061+024009039GF106991061001999999081001KA1120M+03471MD1310031+9999REMSYN082AAXX  05184 60060 32956 61412 10325 20005 40157 53003 86080 333 10347 86358 95300;EQDQ01  00002PRCP99
0174600600999992000030521004+29370-010180FM-12+0066GMMF V0201201N006212200019N0060001N1+03091+00321101651ADDAA199000091GA1041+024009039GF104991041001999999081001MD1310081+9999REMSYN076AAXX  05214 60060 32956 41212 10309 20032 40165 53008 84080 333 84358 95300;EQDQ01  00002PRCP99
0185600600999992000030606004+29370-010180FM-12+0066GMMF V0200801N009310240019N0060001N1+03051+00031101501ADDAA199000091GA1071+024009039GF107991071001999999081999KA1120N+02921REMSYN088AAXX  06064 60060 32956 70818 10305 20003 40150 5//// 8708/ 333 20292 30022 87358 95300;EQDQ01  00002PRCP99
0174600600999992000030609004+29370-010180FM-12+0066GMMF V0201401N008710240019N0080001N1+02961+00061101731ADDAA199000091GA1071+024009039GF107991071001999999071999MD1210231+9999REMSYN076AAXX  06094 60060 32958 71417 10296 20006 40173 52023 8707/ 333 87358 95300;EQDQ01  00002PRCP99
0174600600999992000030612004+29370-010180FM-12+0066GMMF V0201401N010310240019N0080001N1+03201+00261101781ADDAA199000091GA1071+024009039GF107991071001999999071999MD1310051+9999REMSYN076AAXX  06124 60060 32958 71420 10320 20026 40178 53005 8707/ 333 87358 95300;EQDQ01  00002PRCP99
0193600600999992000030618004+29370-010180FM-12+0066GMMF V0201401N007210240019N0060001N1+03301+00451101531ADDAA199000091GA1061+024009039GF106991061001999999071001KA1120M+03411MD1510011+9999REMSYN082AAXX  06184 60060 32956 61414 10330 20045 40153 55001 86070 333 10341 86358 95300;EQDQ01  00002PRCP99
0174600600999992000030621004+29370-010180FM-12+0066GMMF V0201201N006212200019N0060001N1+03131+00361101691ADDAA199000091GA1021+024009039GF102991021001999999071001MD1310161+9999REMSYN076AAXX  06214 60060 32956 21212 10313 20036 40169 53016 82070 333 82358 95300;EQDQ01  00002PRCP99
0185600600999992000030706004+29370-010180FM-12+0066GMMF V0201201N006712200019N0060001N1+03051-00081101641ADDAA199000091GA1031+024009039GF103991031001999999081001KA1120N+03021REMSYN088AAXX  07064 60060 32956 31213 10305 21008 40164 5//// 83080 333 20302 30024 83358 95300;EQDQ01  00002PRCP99
0196600600999992000030709004+29370-010180FM-12+0066GMMF V0201201N008210600019N0060001N1+03101+00311101761ADDAA199000091GA1021+024009039GA2051+060009009GF106991021001999999031021MD1310121+9999REMSYN082AAXX  07094 60060 32956 61216 10310 20031 40176 53012 82032 333 82358 85070 95300;EQDQ01  00002PRCP99
0174600600999992000030712004+29370-010180FM-12+0066GMMF V0201401N011312200019N0070001N1+03301+00351101781ADDAA199000091GA1011+030009039GF102991011001999999031021MD1110021+9999REMSYN076AAXX  07124 60060 32957 21422 10330 20035 40178 51002 81032 333 81360 95300;EQDQ01  00002PRCP99
0174600600999992000030715004+29370-010180FM-12+0066GMMF V0201401N009312200019N0060001N1+03461+00851101561ADDAA199000091GA1021+030009039GF103991021001999999031021MD1710211+9999REMSYN076AAXX  07154 60060 32956 31418 10346 20085 40156 57021 82032 333 82360 95300;EQDQ01  00002PRCP99
0215600600999992000030718004+29370-010180FM-12+0066GMMF V0201401N009319999999N0060001N1+03341+00651101581ADDAA199000091GA1021+030009039GA2031+060009009GF105991021001999999081021KA1120M+03501MD1510021+9999REMSYN088AAXX  07184 60060 32956 51418 10334 20065 40158 55002 82082 333 10350 82360 83070 95300;EQDQ01  00002PRCP99
0174600600999992000030721004+29370-010180FM-12+0066GMMF V0201401N011312200019N0060001N1+03191+00601101701ADDAA199000091GA1021+030009039GF103991021001999999081021MD1310121+9999REMSYN076AAXX  07214 60060 32956 31422 10319 20060 40170 53012 82082 333 82360 95300;EQDQ01  00002PRCP99
0179600600999992000030806004+29370-010180FM-12+0066GMMF V0201401N011312200019N0060001N1+02971+00881101651ADDAA199000091GA1021+060009019GF102991001001999999001021KA1120N+02901REMSYN082AAXX  08064 60060 32956 21422 10297 20088 40165 5//// 80002 333 20290 30024 82070;EQDQ01  00002PRCP99
0174600600999992000030809004+29370-010180FM-12+0066GMMF V0201401N011810600019N0060001N1+02931+00631101741ADDAA199000091GA1061+060009009GF106991001001999999001021MD1310081+9999REMSYN076AAXX  08094 60060 32956 61423 10293 20063 40174 53008 80002 333 86070 95300;EQDQ01  00002PRCP99
0174600600999992000030812004+29370-010180FM-12+0066GMMF V0201401N011312200019N0060001N1+03301+00121101861ADDAA199000091GA1031+060009009GF103991001001999999001021MD1210131+9999REMSYN076AAXX  08124 60060 32956 31422 10330 20012 40186 52013 80002 333 83070 95300;EQDQ01  00002PRCP99
0196600600999992000030815004+29370-010180FM-12+0066GMMF V0201001N012310600019N0060001N1+03451-00261101691ADDAA199000091GA1031+024009039GA2031+060009009GF106991031001999999071021MD1710161+9999REMSYN082AAXX  08154 60060 32956 61024 10345 21026 40169 57016 83072 333 83358 83070 95300;EQDQ01  00002PRCP99
0215600600999992000030818004+29370-010180FM-12+0066GMMF V0201401N011310600019N0060001N1+03361+00231101771ADDAA199000091GA1031+024009039GA2031+060009009GF106991031001999999071021KA1120M+03491MD1210081+9999REMSYN088AAXX  08184 60060 32956 61422 10336 20023 40177 52008 83072 333 10349 83358 83070 95300;EQDQ01  00002PRCP99
0196600600999992000030821004+29370-010180FM-12+0066GMMF V0201401N009319999999N0060001N1+03321+00361101901ADDAA199000091GA1021+024009039GA2031+060009009GF105991021001999999071021MD1210121+9999REMSYN082AAXX  08214 60060 32956 51418 10332 20036 40190 52012 82072 333 82358 83070 95300;EQDQ01  00002PRCP99
0185600600999992000030906004+29370-010180FM-12+0066GMMF V0201401N009312200019N0060001N1+03131-00541101851ADDAA199000091GA1031+060009009GF103991001001999999001021KA1120N+03081REMSYN088AAXX  09064 60060 32956 31418 10313 21054 40185 5//// 80002 333 20308 30026 83070 95300;EQDQ01  00002PRCP99
0168600600999992000030909004+29370-010180FM-12+0066GMMF V0201001N010312200019N0060001N1+03171+00321101971ADDAA199000091GA1031+060009019GF103991001001999999001021MD1310121+9999REMSYN070AAXX  09094 60060 32956 31020 10317 20032 40197 53012 80002 333 83070;EQDQ01  00002PRCP99
0174600600999992000030912004+29370-010180FM-12+0066GMMF V0201201N010312200019N0060001N1+03451+00351102041ADDAA199000091GA1021+060009009GF102991001001999999001021MD1110081+9999REMSYN076AAXX  09124 60060 32956 21220 10345 20035 40204 51008 80002 333 82070 95300;EQDQ01  00002PRCP99
0152600600999992000030915004+29370-010180FM-12+0066GMMF V0200201N005112200019N0060001N1+02911+00771102021ADDAA199000091GA1001+999999999GF100991001001999999001001MD1810041+9999REMSYN054AAXX  09154 60060 32956 00210 10291 20077 40202 58004;EQDQ01  00002PRCP99
0193600600999992000030918004+29370-010180FM-12+0066GMMF V0200201N004112200019N0060001N1+02881+00841101971ADDAA199000091GA1031+060009009GF103991001001999999001021KA1120M+03501MD1610051+9999REMSYN082AAXX  09184 60060 32956 30208 10288 20084 40197 56005 80002 333 10350 83070 95300;EQDQ01  00002PRCP99
0174600600999992000030921004+29370-010180FM-12+0066GMMF V0201201N003612200019N0060001N1+02781+00801102031ADDAA199000091GA1021+060009009GF102991001001999999001021MD1210061+9999REMSYN076AAXX  09214 60060 32956 21207 10278 20080 40203 52006 80002 333 82070 95300;EQDQ01  00002PRCP99
0185600600999992000031006004+29370-010180FM-12+0066GMMF V0203601N002112200019N0060001N1+02471+00511101871ADDAA199000091GA1021+060009009GF102991001001999999001021KA1120N+02271REMSYN088AAXX  10064 60060 32956 23604 10247 20051 40187 5//// 80002 333 20227 30020 82070 95300;EQDQ01  00002PRCP99
0152600600999992000031009004+29370-010180FM-12+0066GMMF V0203001N001012200019N0060001N1+02531+01051101981ADDAA199000091GA1001+999999999GF100991001001999999001001MD1210111+9999REMSYN054AAXX  10094 60060 32956 03002 10253 20105 40198 52011;EQDQ01  00002PRCP99
0152600600999992000031012004+29370-010180FM-12+0066GMMF V0201601N007212200019N0060001N1+03521-00021102031ADDAA199000091GA1001+999999999GF100991001001999999001001MD1210081+9999REMSYN054AAXX  10124 60060 32956 01614 10352 21002 40203 52008;EQDQ01  00002PRCP99
0174600600999992000031015004+29370-010180FM-12+0066GMMF V0203001N001512200019N0060001N1+02651+00921101981ADDAA199000091GA1021+060009009GF102991001001999999001021MD1610071+9999REMSYN076AAXX  10154 60060 32956 23003 10265 20092 40198 56007 80002 333 82070 95300;EQDQ01  00002PRCP99
0193600600999992000031018004+29370-010180FM-12+0066GMMF V0203601N001512200019N0050001N1+02651+00521101901ADDAA199000091GA1011+060009009GF101991001001999999001011KA1120M+03561MD1610081+9999REMSYN082AAXX  10184 60060 32950 13603 10265 20052 40190 56008 80001 333 10356 81070 95300;EQDQ01  00002PRCP99
0168600600999992000031021004+29370-010180FM-12+0066GMMF V0200801N001512200019N0050001N1+02571+00641101981ADDAA199000091GA1011+030009079GF102991011001999999081011MD1210081+9999REMSYN070AAXX  10214 60060 32950 20803 10257 20064 40198 52008 81081 333 81360;EQDQ01  00002PRCP99
0185600600999992000031106004+29370-010180FM-12+0066GMMF V0202001N001512200019N0050001N1+02591+00141101901ADDAA199000091GA1021+051009009GF102991001001999999001021KA1120N+02301REMSYN088AAXX  11064 60060 32950 22003 10259 20014 40190 5//// 80002 333 20230 30013 82067 95300;EQDQ01  00002PRCP99
0174600600999992000031109004+29370-010180FM-12+0066GMMF V0201401N007212200019N0050001N1+02661+00111101951ADDAA199000091GA1031+060009009GF103991001001999999001021MD1310051+9999REMSYN076AAXX  11094 60060 32950 31414 10266 20011 40195 53005 80002 333 83070 95300;EQDQ01  00002PRCP99
0174600600999992000031112004+29370-010180FM-12+0066GMMF V0201601N006212200019N0060001N1+03271-00081101981ADDAA199000091GA1031+060009009GF103991001001999999001021MD1110041+9999REMSYN076AAXX  11124 60060 32956 31612 10327 21008 40198 51004 80002 333 83070 95300;EQDQ01  00002PRCP99
0174600600999992000031115004+29370-010180FM-12+0066GMMF V0202801N004110600019N0060001N1+02711+00491101951ADDAA199000091GA1061+060009009GF106991001001999999001021MD1810041+9999REMSYN076AAXX  11154 60060 32956 62808 10271 20049 40195 58004 80002 333 86070 95300;EQDQ01  00002PRCP99
0193600600999992000031118004+29370-010180FM-12+0066GMMF V0203601N001010600019N0060001N1+02671+00701101971ADDAA199000091GA1051+060009009GF105991001001999999001021KA1120M+03321MD1110021+9999REMSYN082AAXX  11184 60060 32956 53602 10267 20070 40197 51002 80002 333 10332 85070 95300;EQDQ01  00002PRCP99
0174600600999992000031121004+29370-010180FM-12+0066GMMF V0200401N003110600019N0060001N1+02511+00081102061ADDAA199000091GA1051+060009009GF105991001001999999001021MD1310081+9999REMSYN076AAXX  11214 60060 32956 50406 10251 20008 40206 53008 80002 333 85070 95300;EQDQ01  00002PRCP99
0185600600999992000031206004+29370-010180FM-12+0066GMMF V0202201N001012200019N0060001N1+02041+00741101961ADDAA199000091GA1021+060009009GF102991001001999999001021KA1120N+02031REMSYN088AAXX  12064 60060 32956 22202 10204 20074 40196 5//// 80002 333 20203 30011 82070 95300;EQDQ01  00002PRCP99
0174600600999992000031209004+29370-010180FM-12+0066GMMF V0200201N001012200019N0060001N1+02371+00661102041ADDAA199000091GA1021+024009039GF102991021001999999031001MD1310091+9999REMSYN076AAXX  12094 60060 32956 20202 10237 20066 40204 53009 82030 333 82358 95300;EQDQ01  00002PRCP99
0174600600999992000031212004+29370-010180FM-12+0066GMMF V0200201N002612200019N0060001N1+02311+01531102061ADDAA199000091GA1021+024009039GF102991021001999999031001MD1010021+9999REMSYN076AAXX  12124 60060 32956 20205 10231 20153 40206 50002 82030 333 82358 95300;EQDQ01  00002PRCP99
0174600600999992000031215004+29370-010180FM-12+0066GMMF V0200201N003112200019N0060001N1+02301+01471101961ADDAA199000091GA1011+024009039GF101991011001999999031001MD1810101+9999REMSYN076AAXX  12154 60060 32956 10206 10230 20147 40196 58010 81030 333 81358 95300;EQDQ01  00002PRCP99
0175600600999992000031218004+29370-010180FM-12+0066GMMF V0200201N003612200019N0060001N1+02491+00621101911ADDAA199000091GA1001+999999999GF100991001001999999001001KA1999M+02541MD1510051+9999REMSYN064AAXX  12184 60060 32956 00207 10249 20062 40191 55005 333 10254;EQDQ01  00002PRCP99
0174600600999992000031221004+29370-010180FM-12+0066GMMF V0200401N003112200019N0060001N1+02471+00051101991ADDAA199000091GA1021+060009009GF102991001001999999001011MD1210081+9999REMSYN076AAXX  12214 60060 32956 20406 10247 20005 40199 52008 80001 333 82070 95300;EQDQ01  00002PRCP99
0167600600999992000031306004+29370-010180FM-12+0066GMMF V0201801N002112200019N0060001N1+02041+00311101931ADDAA199000091GA1001+999999999GF100991001001999999001001KA1120N+01991REMSYN070AAXX  13064 60060 32956 01804 10204 20031 40193 5//// 333 20199 30010;EQDQ01  00002PRCP99
0152600600999992000031309004+29370-010180FM-12+0066GMMF V0200401N002112200019N0060001N1+02151+00821102071ADDAA199000091GA1001+999999999GF100991001001999999001001MD1310151+9999REMSYN054AAXX  13094 60060 32956 00404 10215 20082 40207 53015;EQDQ01  00002PRCP99
0152600600999992000031312004+29370-010180FM-12+0066GMMF V0202401N002612200019N0060001N1+02441+01351102101ADDAA199000091GA1001+999999999GF100991001001999999001001MD1010031+9999REMSYN054AAXX  13124 60060 32956 02405 10244 20135 40210 50003;EQDQ01  00002PRCP99
0152600600999992000031315004+29370-010180FM-12+0066GMMF V0200401N003112200019N0060001N1+02501+00561101951ADDAA199000091GA1001+999999999GF100991001001999999001001MD1810151+9999REMSYN054AAXX  13154 60060 32956 00406 10250 20056 40195 58015;EQDQ01  00002PRCP99
0175600600999992000031318004+29370-010180FM-12+0066GMMF V0200601N005712200019N0060001N1+02211+01391101941ADDAA199000091GA1001+999999999GF100991001001999999001001KA1999M+02581MD1510011+9999REMSYN064AAXX  13184 60060 32956 00611 10221 20139 40194 55001 333 10258;EQDQ01  00002PRCP99
0152600600999992000031321004+29370-010180FM-12+0066GMMF V0200201N003112200019N0060001N1+02201+01651102071ADDAA199000091GA1001+999999999GF100991001001999999001001MD1110121+9999REMSYN054AAXX  13214 60060 32956 00206 10220 20165 40207 51012;EQDQ01  00002PRCP99
0167600600999992000031406004+29370-010180FM-12+0066GMMF V0200601N003112200019N0060001N1+01771+01291101931ADDAA199000091GA1001+999999999GF100991001001999999001001KA1120N+01661REMSYN070AAXX  14064 60060 32956 00606 10177 20129 40193 5//// 333 20166 30010;EQDQ01  00002PRCP99
0152600600999992000031409004+29370-010180FM-12+0066GMMF V0200601N003112200019N0060001N1+01851+01411102031ADDAA199000091GA1001+999999999GF100991001001999999001001MD1310101+9999REMSYN054AAXX  14094 60060 32956 00606 10185 20141 40203 53010;EQDQ01  00002PRCP99
0174600600999992000031412004+29370-010180FM-12+0066GMMF V0203401N003112200019N0050001N1+01921+01661102081ADDAA199000091GA1021+003009079GF102991021061004501001001MD1110051+9999REMSYN076AAXX  14124 60060 32450 23406 10192 20166 40208 51005 82600 333 82710 95300;EQDQ01  00002PRCP99
0174600600999992000031415004+29370-010180FM-12+0066GMMF V0203601N004112200019N0050001N1+01941+01651101931ADDAA199000091GA1021+003009079GF102991021061004501001001MD1810151+9999REMSYN076AAXX  14154 60060 32450 23608 10194 20165 40193 58015 82600 333 82710 95300;EQDQ01  00002PRCP99
0193600600999992000031418004+29370-010180FM-12+0066GMMF V0203601N003610030019N0050001N1+01881+01611101871ADDAA199000091GA1061+003009079GF106991061061004501001001KA1120M+02001MD1610061+9999REMSYN082AAXX  14184 60060 32450 63607 10188 20161 40187 56006 86600 333 10200 86710 95300;EQDQ01  00002PRCP99
0174600600999992000031421004+29370-010180FM-12+0066GMMF V0203201N001512200019N0050001N1+01741+01501101931ADDAA199000091GA1021+003009079GF102991021061004501001001MD1110051+9999REMSYN076AAXX  14214 60060 32450 23203 10174 20150 40193 51005 82600 333 82710 95300;EQDQ01  00002PRCP99
0167600600999992000031506004+29370-010180FM-12+0066GMMF V0202201N002112200019N0060001N1+01661+01471101661ADDAA199000091GA1001+999999999GF100991001001999999001001KA1120N+01611REMSYN070AAXX  15064 60060 32956 02204 10166 20147 40166 5//// 333 20161 30009;EQDQ01  00002PRCP99
0174600600999992000031509004+29370-010180FM-12+0066GMMF V0202401N002612200019N0050001N1+01801+01311101741ADDAA199000091GA1041+003009079GF104991041061004501001001MD1210071+9999REMSYN076AAXX  15094 60060 32450 42405 10180 20131 40174 52007 84600 333 84710 95300;EQDQ01  00002PRCP99
0174600600999992000031512004+29370-010180FM-12+0066GMMF V0202801N003112200019N0050001N1+01951+01401101751ADDAA199000091GA1021+003309079GF102991021061004501001001MD1110031+9999REMSYN076AAXX  15124 60060 32450 22806 10195 20140 40175 51003 82600 333 82711 95300;EQDQ01  00002PRCP99
0174600600999992000031515004+29370-010180FM-12+0066GMMF V0203201N002112200019N0050001N1+01931+01481101561ADDAA199000091GA1021+003009079GF102991021061004501001001MD1610191+9999REMSYN076AAXX  15154 60060 32450 23204 10193 20148 40156 56019 82600 333 82710 95300;EQDQ01  00002PRCP99
0175600600999992000031518004+29370-010180FM-12+0066GMMF V0203201N001512200019N0050001N1+01851+01571101471ADDAA199000091GA1001+999999999GF100991001001999999001001KA1999M+02021MD1610091+9999REMSYN064AAXX  15184 60060 32950 03203 10185 20157 40147 56009 333 10202;EQDQ01  00002PRCP99
0152600600999992000031521004+29370-010180FM-12+0066GMMF V0209999C000012200019N0050001N1+01801+01551101571ADDAA199000091GA1001+999999999GF100991001001999999001001MD1310101+9999REMSYN054AAXX  15214 60060 32950 00000 10180 20155 40157 53010;EQDQ01  00002PRCP99
0167600600999992000031606004+29370-010180FM-12+0066GMMF V0209999C000012200019N0060001N1+01621+01361101521ADDAA199000091GA1001+999999999GF100991001001999999001001KA1120N+01581REMSYN070AAXX  16064 60060 32956 00000 10162 20136 40152 5//// 333 20158 30010;EQDQ01  00002PRCP99
0174600600999992000031609004+29370-010180FM-12+0066GMMF V0203401N001012200019N0060001N1+01741+01381101611ADDAA199000091GA1041+004809069GF104991041051004501001001MD1310091+9999REMSYN076AAXX  16094 60060 32456 43402 10174 20138 40161 53009 84500 333 84616 95300;EQDQ01  00002PRCP99
0152600600999992000031612004+29370-010180FM-12+0066GMMF V0203201N002612200019N0060001N1+01921+01501101671ADDAA199000091GA1001+999999999GF100991001001999999001001MD1010071+9999REMSYN054AAXX  16124 60060 32956 03205 10192 20150 40167 50007;EQDQ01  00002PRCP99
0152600600999992000031615004+29370-010180FM-12+0066GMMF V0200201N002112200019N0060001N1+01971+01531101511ADDAA199000091GA1001+999999999GF100991001001999999001001MD1710161+9999REMSYN054AAXX  16154 60060 32956 00204 10197 20153 40151 57016;EQDQ01  00002PRCP99
0175600600999992000031618004+29370-010180FM-12+0066GMMF V0200401N004112200019N0060001N1+02051+01571101481ADDAA199000091GA1001+999999999GF100991001001999999001001KA1999M+02081MD1010031+9999REMSYN064AAXX  16184 60060 32956 00408 10205 20157 40148 50003 333 10208;EQDQ01  00002PRCP99
0152600600999992000031621004+29370-010180FM-12+0066GMMF V0200801N003112200019N0060001N1+02161+00681101551ADDAA199000091GA1001+999999999GF100991001001999999001001MD1310081+9999REMSYN054AAXX  16214 60060 32956 00806 10216 20068 40155 53008;EQDQ01  00002PRCP99
0167600600999992000031706004+29370-010180FM-12+0066GMMF V0201401N006212200019N0060001N1+02221-00011101441ADDAA199000091GA1001+999999999GF100991001001999999001001KA1120N+01861REMSYN070AAXX  17064 60060 32956 01412 10222 21001 40144 5//// 333 20186 30013;EQDQ01  00002PRCP99
0152600600999992000031709004+29370-010180FM-12+0066GMMF V0201401N005712200019N0060001N1+02521+00201101581ADDAA199000091GA1001+999999999GF100991001001999999001001MD1310141+9999REMSYN054AAXX  17094 60060 32956 01411 10252 20020 40158 53014;EQDQ01  00002PRCP99
0152600600999992000031712004+29370-010180FM-12+0066GMMF V0201201N006212200019N0120001N1+02911-00051101621ADDAA199000091GA1001+999999999GF100991001001999999001001MD1010051+9999REMSYN054AAXX  17124 60060 32962 01212 10291 21005 40162 50005;EQDQ01  00002PRCP99
0152600600999992000031715004+29370-010180FM-12+0066GMMF V0202001N004612200019N0120001N1+02421+01222101601ADDAA199000091GA1001+999999999GF100991001001999999001001MD1610021+9999REMSYN054AAXX  17154 60060 32962 02009 10242 20122 40160 56002;EQDQ01  00002PRCP99
0175600600999992000031718004+29370-010180FM-12+0066GMMF V0200401N004112200019N0100001N1+02381+00981101561ADDAA199000091GA1001+999999999GF100991001001999999001001KA1999M+03051MD1510041+9999REMSYN064AAXX  17184 60060 32960 00408 10238 20098 40156 55004 333 10305;EQDQ01  00002PRCP99
0152600600999992000031721004+29370-010180FM-12+0066GMMF V0200601N004612200019N0060001N1+02261+01011101611ADDAA199000091GA1001+999999999GF100991001001999999001001MD1310051+9999REMSYN054AAXX  17214 60060 32956 00609 10226 20101 40161 53005;EQDQ01  00002PRCP99
0167600600999992000031806004+29370-010180FM-12+0066GMMF V0201801N001512200019N0060001N1+02111+00371101561ADDAA199000091GA1001+999999999GF100991001001999999001001KA1120N+02061REMSYN070AAXX  18064 60060 32956 01803 10211 20037 40156 5//// 333 20206 30011;EQDQ01  00002PRCP99
0152600600999992000031809004+29370-010180FM-12+0066GMMF V0200201N001512200019N0060001N1+02191+00411101631ADDAA199000091GA1001+999999999GF100991001001999999001001MD1310071+9999REMSYN054AAXX  18094 60060 32956 00203 10219 20041 40163 53007;EQDQ01  00002PRCP99
0152600600999992000031815004+29370-010180FM-12+0066GMMF V0203401N003112200019N0060001N1+02131+01551101651ADDAA199000091GA1001+999999999GF100991001001999999001001MD1810101+9999REMSYN054AAXX  18154 60060 32956 03406 10213 20155 40165 58010;EQDQ01  00002PRCP99
0175600600999992000031818004+29370-010180FM-12+0066GMMF V0200401N004112200019N0060001N1+02001+01501101651ADDAA199000091GA1001+999999999GF100991001001999999001001KA1999M+02341MD1410001+9999REMSYN064AAXX  18184 60060 32956 00408 10200 20150 40165 54000 333 10234;EQDQ01  00002PRCP99
0152600600999992000031821004+29370-010180FM-12+0066GMMF V0200201N003112200019N0050001N1+01831+01491101751ADDAA199000091GA1001+999999999GF100991001001999999001001MD1210101+9999REMSYN054AAXX  18214 60060 32950 00206 10183 20149 40175 52010;EQDQ01  00002PRCP99
0185600600999992000031906004+29370-010180FM-12+0066GMMF V0201801N002612200019N0060001N1+01611+01381101531ADDAA199000091GA1031+004809069GF103991031051004501001001KA1120N+01541REMSYN088AAXX  19064 60060 32456 31805 10161 20138 40153 5//// 83500 333 20154 30009 83616 95300;EQDQ01  00002PRCP99
0174600600999992000031909004+29370-010180FM-12+0066GMMF V0202401N001012200019N0060001N1+01801+01441101581ADDAA199000091GA1031+004809069GF103991031051004501001001MD1210041+9999REMSYN076AAXX  19094 60060 32456 32402 10180 20144 40158 52004 83500 333 83616 95300;EQDQ01  00002PRCP99
0174600600999992000031912004+29370-010180FM-12+0066GMMF V0203201N002112200019N0060001N1+01901+01521101571ADDAA199000091GA1021+004809069GF102991021051004501001001MD1310011+9999REMSYN076AAXX  19124 60060 32456 23204 10190 20152 40157 53001 82500 333 82616 95300;EQDQ01  00002PRCP99
0174600600999992000031915004+29370-010180FM-12+0066GMMF V0203201N003112200019N0060001N1+01951+01501101481ADDAA199000091GA1021+004809069GF102991021051004501001001MD1810091+9999REMSYN076AAXX  19154 60060 32456 23206 10195 20150 40148 58009 82500 333 82616 95300;EQDQ01  00002PRCP99
0193600600999992000031918004+29370-010180FM-12+0066GMMF V0203601N003612200019N0060001N1+01891+01561101451ADDAA199000091GA1031+004809069GF103991031051004501001001KA1120M+02001MD1810031+9999REMSYN082AAXX  19184 60060 32456 33607 10189 20156 40145 58003 83500 333 10200 83616 95300;EQDQ01  00002PRCP99
0152600600999992000031921004+29370-010180FM-12+0066GMMF V0200201N002112200019N0060001N1+01701+01441101501ADDAA199000091GA1001+999999999GF100991001001999999001001MD1210041+9999REMSYN054AAXX  19214 60060 32956 00204 10170 20144 40150 52004;EQDQ01  00002PRCP99
0185600600999992000032006004+29370-010180FM-12+0066GMMF V0201201N001510048019N0060001N1+01601+01371101301ADDAA199000091GA1061+004809069GF106991061051004501001001KA1120N+01541REMSYN088AAXX  20064 60060 32456 61203 10160 20137 40130 5//// 86500 333 20154 30009 86616 95300;EQDQ01  00002PRCP99
0196600600999992000032009004+29370-010180FM-12+0066GMMF V0203201N002110060019N0060001N1+01761+01371101361ADDAA199000091GA1031+004509089GA2031+006009069GF105991051081004501001001MD1110071+9999REMSYN082AAXX  20094 60060 32456 53204 10176 20137 40136 51007 85800 333 83815 83620 95300;EQDQ01  00002PRCP99
0168600600999992000032012004+29370-010180FM-12+0066GMMF V0203201N003112200019N0060001N1+01851+01371101371ADDAA199000091GA1031+004509029GF104991041081004501001001MD1010011+9999REMSYN070AAXX  20124 60060 32456 43206 10185 20137 40137 50001 84800 333 83815;EQDQ01  00002PRCP99
0174600600999992000032015004+29370-010180FM-12+0066GMMF V0203201N004112200019N0060001N1+01901+01351101181ADDAA199000091GA1021+004809089GF102991021021004501001001MD1810181+9999REMSYN076AAXX  20154 60060 32456 23208 10190 20135 40118 58018 82200 333 82816 95300;EQDQ01  00002PRCP99
0193600600999992000032018004+29370-010180FM-12+0066GMMF V0200201N003610048019N0060001N1+01821+01441101131ADDAA199000091GA1071+004809089GF107991071021004501999999KA1120M+01981MD1610061+9999REMSYN082AAXX  20184 60060 32456 70207 10182 20144 40113 56006 872// 333 10198 87816 95300;EQDQ01  00002PRCP99
0174600600999992000032021004+29370-010180FM-12+0066GMMF V0203601N002610048019N0060001N1+01751+01311101231ADDAA199000091GA1071+004809089GF107991071021004501999999MD1310101+9999REMSYN076AAXX  20214 60060 32456 73605 10175 20131 40123 53010 872// 333 87816 95300;EQDQ01  00002PRCP99
0207600600999992000032106004+29370-010180FM-12+0066GMMF V0203401N001512200019N0060001N1+01641+01211101111ADDAA199000091GA1021+004809069GA2031+024009039GF104991021051004501081001KA1120N+01601REMSYN094AAXX  21064 60060 32456 43403 10164 20121 40111 5//// 82580 333 20160 30012 82616 83358 95300;EQDQ01  00002PRCP99
0174600600999992000032109004+29370-010180FM-12+0066GMMF V0203601N002112200019N0080001N1+01741+01161101161ADDAA199000091GA1021+004809069GF103991021051004501031001MD1310051+9999REMSYN076AAXX  21094 60060 32458 33604 10174 20116 40116 53005 82530 333 82616 95300;EQDQ01  00002PRCP99
0174600600999992000032112004+29370-010180FM-12+0066GMMF V0203201N003112200019N0080001N1+01841+01151101271ADDAA199000091GA1011+004509089GF102991021081004501001001MD1110111+9999REMSYN076AAXX  21124 60060 32458 23206 10184 20115 40127 51011 82800 333 81815 95300;EQDQ01  00002PRCP99
0174600600999992000032115004+29370-010180FM-12+0066GMMF V0203001N004112200019N0080001N1+01911+01201101191ADDAA199000091GA1031+004809089GF103991031021004501001001MD1610071+9999REMSYN076AAXX  21154 60060 32458 33008 10191 20120 40119 56007 83200 333 83816 95300;EQDQ01  00002PRCP99
0193600600999992000032118004+29370-010180FM-12+0066GMMF V0203201N003612200019N0080001N1+01841+01151101201ADDAA199000091GA1021+004809089GF102991021021004501001001KA1120M+01971MD1010001+9999REMSYN082AAXX  21184 60060 32458 23207 10184 20115 40120 50000 82200 333 10197 82816 95300;EQDQ01  00002PRCP99
0185600600999992000032206004+29370-010180FM-12+0066GMMF V0200801N001510048019N0080001N1+01651+01271101331ADDAA199000091GA1061+004809089GF106991061021004501001001KA1120N+01551REMSYN088AAXX  22064 60060 32458 60803 10165 20127 40133 5//// 86200 333 20155 30008 86816 95300;EQDQ01  00002PRCP99
0196600600999992000032209004+29370-010180FM-12+0066GMMF V0200201N002110300019N0080001N1+01721+01141101421ADDAA199000091GA1031+004809089GA2031+030009039GF106991021021004501031001MD1310091+9999REMSYN082AAXX  22094 60060 32458 60204 10172 20114 40142 53009 82230 333 83816 83360 95300;EQDQ01  00002PRCP99
0174600600999992000032212004+29370-010180FM-12+0066GMMF V0200201N003610048019N0100001N1+01861+01321101561ADDAA199000091GA1051+004809089GF105991051021004501001001MD1110151+9999REMSYN076AAXX  22124 60060 32460 50207 10186 20132 40156 51015 85200 333 85816 95300;EQDQ01  00002PRCP99
0174600600999992000032215004+29370-010180FM-12+0066GMMF V0203401N003112200019N0100001N1+01871+01341101521ADDAA199000091GA1021+004809089GF102991021021004501001001MD1810041+9999REMSYN076AAXX  22154 60060 32460 23406 10187 20134 40152 58004 82200 333 82816 95300;EQDQ01  00002PRCP99
0193600600999992000032218004+29370-010180FM-12+0066GMMF V0203601N003612200019N0100001N1+01861+01081101491ADDAA199000091GA1021+004809089GF102991021021004501001001KA1120M+01941MD1610031+9999REMSYN082AAXX  22184 60060 32460 23607 10186 20108 40149 56003 82200 333 10194 82816 95300;EQDQ01  00002PRCP99
0174600600999992000032221004+29370-010180FM-12+0066GMMF V0203601N004112200019N0080001N1+01721+01201101621ADDAA199000091GA1021+004809089GF102991021021004501001001MD1310121+9999REMSYN076AAXX  22214 60060 32458 23608 10172 20120 40162 53012 82200 333 82816 95300;EQDQ01  00002PRCP99
0185600600999992000032306004+29370-010180FM-12+0066GMMF V0200401N004612200019N0100001N1+01601+01151101531ADDAA199000091GA1031+004809089GF103991031021004501001001KA1120N+01551REMSYN088AAXX  23064 60060 32460 30409 10160 20115 40153 5//// 83200 333 20155 30008 83816 95300;EQDQ01  00002PRCP99
0174600600999992000032309004+29370-010180FM-12+0066GMMF V0200601N005112200019N0100001N1+01701+01211101581ADDAA199000091GA1031+004809089GF103991031021004501001001MD1310051+9999REMSYN076AAXX  23094 60060 32460 30610 10170 20121 40158 53005 83200 333 83816 95300;EQDQ01  00002PRCP99
0160600600999992000032315004+29370-010180FM-12+0066GMMF V0203601N005712200019N0120001N1+01921+01021101641ADDAA199000091GA1021+004809089GF102991021021004501001001REMSYN076AAXX  23154 60060 32462 23611 10192 20102 40164 5/005 82200 333 82816 95300;EQDQ01  00002PRCP99
0193600600999992000032318004+29370-010180FM-12+0066GMMF V0203601N005112200019N0120001N1+01811+01161101641ADDAA199000091GA1021+004809089GF102991021021004501001001KA1120M+01941MD1510001+9999REMSYN082AAXX  23184 60060 32462 23610 10181 20116 40164 55000 82200 333 10194 82816 95300;EQDQ01  00002PRCP99
0174600600999992000032321004+29370-010180FM-12+0066GMMF V0203601N006712200019N0100001N1+01661+01091101701ADDAA199000091GA1021+004809089GF102991021021004501001001MD1210051+9999REMSYN076AAXX  23214 60060 32460 23613 10166 20109 40170 52005 82200 333 82816 95300;EQDQ01  00002PRCP99
0185600600999992000032406004+29370-010180FM-12+0066GMMF V0200201N007712200019N0100001N1+01621+01221101611ADDAA199000091GA1031+004809089GF103991031021004501001001KA1120N+01561REMSYN088AAXX  24064 60060 32460 30215 10162 20122 40161 5//// 83200 333 20156 30009 83816 95300;EQDQ01  00002PRCP99
0174600600999992000032409004+29370-010180FM-12+0066GMMF V0203601N006212200019N0100001N1+01751+01171101691ADDAA199000091GA1011+004809089GF101991011021004501001001MD1310091+9999REMSYN076AAXX  24094 60060 32460 13612 10175 20117 40169 53009 81200 333 81816 95300;EQDQ01  00002PRCP99
0174600600999992000032415004+29370-010180FM-12+0066GMMF V0200401N007712200019N0100001N1+01831+01231101711ADDAA199000091GA1011+004809089GF101991011021004501001001MD1810081+9999REMSYN076AAXX  24154 60060 32460 10415 10183 20123 40171 58008 81200 333 81816 95300;EQDQ01  00002PRCP99
0193600600999992000032418004+29370-010180FM-12+0066GMMF V0200201N007710048019N0100001N1+01841+01371101671ADDAA199000091GA1051+004809089GF105991051021004501001001KA1120M+01921MD1510041+9999REMSYN082AAXX  24184 60060 32460 50215 10184 20137 40167 55004 85200 333 10192 85816 95300;EQDQ01  00002PRCP99
0174600600999992000032421004+29370-010180FM-12+0066GMMF V0200201N007712200019N0080001N1+01701+01281101731ADDAA199000091GA1021+004809089GF102991021021004501001001MD1310061+9999REMSYN076AAXX  24214 60060 32458 20215 10170 20128 40173 53006 82200 333 82816 95300;EQDQ01  00002PRCP99
0185600600999992000032506004+29370-010180FM-12+0066GMMF V0209999C000010048019N0080001N1+01501+01291101541ADDAA199000091GA1061+004809069GF106991061051004501001001KA1120N+01411REMSYN088AAXX  25064 60060 32458 60000 10150 20129 40154 5//// 86500 333 20141 30009 86616 95300;EQDQ01  00002PRCP99
0174600600999992000032509004+29370-010180FM-12+0066GMMF V0203401N001510048019N0080001N1+01691+01391101611ADDAA199000091GA1071+004809069GF107991071051004501999999MD1310071+9999REMSYN076AAXX  25094 60060 32458 73403 10169 20139 40161 53007 875// 333 87616 95300;EQDQ01  00002PRCP99
0196600600999992000032512004+29370-010180FM-12+0066GMMF V0203201N003610600019N0070001N1+01771+01481101631ADDAA199000091GA1011+004809069GA2061+060009009GF106991011051004501001021MD1010031+9999REMSYN082AAXX  25124 60060 32457 63207 10177 20148 40163 50003 81502 333 81616 86070 95300;EQDQ01  00002PRCP99
0174600600999992000032515004+29370-010180FM-12+0066GMMF V0200401N005110600019N0070001N1+01811+01341101551ADDAA199000091GA1061+060009009GF106991001001999999001021MD1810081+9999REMSYN076AAXX  25154 60060 32957 60410 10181 20134 40155 58008 80002 333 86070 95300;EQDQ01  00002PRCP99
0193600600999992000032518004+29370-010180FM-12+0066GMMF V0200401N005710600019N0080001N1+01821+01411101561ADDAA199000091GA1051+060009009GF105991001001999999001021KA1120M+01851MD1310011+9999REMSYN082AAXX  25184 60060 32958 50411 10182 20141 40156 53001 80002 333 10185 85070 95300;EQDQ01  00002PRCP99
0174600600999992000032521004+29370-010180FM-12+0066GMMF V0200401N004110048019N0080001N1+01701+01391101571ADDAA199000091GA1061+004809069GF106991061051004501001001MD1410001+9999REMSYN076AAXX  25214 60060 32458 60408 10170 20139 40157 54000 86500 333 86616 95300;EQDQ01  00002PRCP99
0185600600999992000032606004+29370-010180FM-12+0066GMMF V0201801N002610048019N0060001N1+01621+01391101381ADDAA199000091GA1061+004809069GF106991061051004501001001KA1120N+01521REMSYN088AAXX  26064 60060 32456 61805 10162 20139 40138 5//// 86500 333 20152 30008 86616 95300;EQDQ01  00002PRCP99
0174600600999992000032609004+29370-010180FM-12+0066GMMF V0202601N002610048019N0060001N1+01721+01411101451ADDAA199000091GA1051+004809069GF105991051051004501001001MD1310071+9999REMSYN076AAXX  26094 60060 32456 52605 10172 20141 40145 53007 85500 333 85616 95300;EQDQ01  00002PRCP99
0174600600999992000032612004+29370-010180FM-12+0066GMMF V0202801N004112200019N0070001N1+01821+01481101451ADDAA199000091GA1011+004809069GF101991011051004501001001MD1010011+9999REMSYN076AAXX  26124 60060 32457 12808 10182 20148 40145 50001 81500 333 81616 95300;EQDQ01  00002PRCP99
0152600600999992000032615004+29370-010180FM-12+0066GMMF V0200201N004112200019N0080001N1+01831+01441101321ADDAA199000091GA1001+999999999GF100991001001999999001001MD1810131+9999REMSYN054AAXX  26154 60060 32958 00208 10183 20144 40132 58013;EQDQ01  00002PRCP99
0175600600999992000032618004+29370-010180FM-12+0066GMMF V0200201N003112200019N0080001N1+01841+01541101251ADDAA199000091GA1001+999999999GF100991001001999999001001KA1999M+01921MD1810071+9999REMSYN064AAXX  26184 60060 32958 00206 10184 20154 40125 58007 333 10192;EQDQ01  00002PRCP99
0152600600999992000032621004+29370-010180FM-12+0066GMMF V0202601N001512200019N0070001N1+01691+01421101311ADDAA199000091GA1001+999999999GF100991001001999999001001MD1310061+9999REMSYN054AAXX  26214 60060 32957 02603 10169 20142 40131 53006;EQDQ01  00002PRCP99
0167600600999992000032706004+29370-010180FM-12+0066GMMF V0202001N002112200019N0060001N1+01541+01311101191ADDAA199000091GA1001+999999999GF100991001001999999001001KA1120N+01501REMSYN070AAXX  27064 60060 32956 02004 10154 20131 40119 5//// 333 20150 30009;EQDQ01  00002PRCP99
0180600600999992000032709004+29370-010180FM-12+0066GMMF V0202401N002112200019N0040001N1+01701+01351101241ADDAA199000091AY101031AY201031GA1001+999999999GF100991001001999999001001MD1310051+9999MW1101REMSYN060AAXX  27094 60060 31940 02404 10170 20135 40124 53005 71000;EQDQ01  00002PRCP99
0200600600999992000032712004+29370-010180FM-12+0066GMMF V0202401N003612200019N0050001N1+01861+01301101231ADDAA199000091GA1011+060009019GF199999001001999999001999MD1010001+9999REMSYN070AAXX  27124 60060 32950 02407 10186 20130 40123 50000 80001 333 81070;EQDQ01+000002SCOTCVQ02+000002SCOHCGQ03  00002PRCP99
0174600600999992000032715004+29370-010180FM-12+0066GMMF V0203201N003112200019N0050001N1+01921+01401101101ADDAA199000091GA1011+060009009GF101991001001999999001011MD1810131+9999REMSYN076AAXX  27154 60060 32950 13206 10192 20140 40110 58013 80001 333 81070 95300;EQDQ01  00002PRCP99
0193600600999992000032718004+29370-010180FM-12+0066GMMF V0203601N005112200019N0050001N1+01801+01371101131ADDAA199000091GA1011+004809069GF102991011051004501001011KA1120M+01961MD1310021+9999REMSYN082AAXX  27184 60060 32450 23610 10180 20137 40113 53002 81501 333 10196 81616 95300;EQDQ01  00002PRCP99
0174600600999992000032721004+29370-010180FM-12+0066GMMF V0200201N003112200019N0050001N1+01681+01391101211ADDAA199000091GA1011+004809069GF101991011051004501001001MD1310081+9999REMSYN076AAXX  27214 60060 32450 10206 10168 20139 40121 53008 81500 333 81616 95300;EQDQ01  00002PRCP99
0191600600999992000032806004+29370-010180FM-12+0066GMMF V0202001N002110048019N0030001N1+01661+01381101231ADDAA199000091GA1071+004809069GF107991071051999999999999KA1120N+00091MW1101REMSYN088AAXX  28064 60060 31930 72004 10166 20138 40123 5//// 710// 875// 333 20009 87616 95300;EQDQ01  00002PRCP99
0202600600999992000032809004+29370-010180FM-12+0066GMMF V0202601N003610048019N0040001N1+01711+01361101321ADDAA199000091AY121031AY221031GA1061+004809069GF106991061051004501001001MD1310081+9999MW1101REMSYN082AAXX  28094 60060 31440 62607 10171 20136 40132 53008 71022 86500 333 86616 95300;EQDQ01  00002PRCP99
0174600600999992000032812004+29370-010180FM-12+0066GMMF V0203001N004612200019N0060001N1+01851+01421101331ADDAA199000091GA1011+004809069GF101991011051004501001001MD1010021+9999REMSYN076AAXX  28124 60060 32456 13009 10185 20142 40133 50002 81500 333 81616 95300;EQDQ01  00002PRCP99
0174600600999992000032815004+29370-010180FM-12+0066GMMF V0200201N004112200019N0080001N1+01841+01371101291ADDAA199000091GA1031+004809069GF103991031051004501001001MD1810041+9999REMSYN076AAXX  28154 60060 32458 30208 10184 20137 40129 58004 83500 333 83616 95300;EQDQ01  00002PRCP99
0193600600999992000032818004+29370-010180FM-12+0066GMMF V0200201N004612200019N0080001N1+01761+01421101241ADDAA199000091GA1021+004809069GF104991021051004501001021KA1120M+01901MD1610051+9999REMSYN082AAXX  28184 60060 32458 40209 10176 20142 40124 56005 82502 333 10190 82616 95300;EQDQ01  00002PRCP99
0174600600999992000032821004+29370-010180FM-12+0066GMMF V0200401N003612200019N0060001N1+01691+01411101301ADDAA199000091GA1021+004809069GF103991021051004501001021MD1310061+9999REMSYN076AAXX  28214 60060 32456 30407 10169 20141 40130 53006 82502 333 82616 95300;EQDQ01  00002PRCP99
0185600600999992000032906004+29370-010180FM-12+0066GMMF V0209999C000012200019N0050001N1+01451+01211101161ADDAA199000091GA1021+003009079GF104991021061004501001021KA1120N+01411REMSYN088AAXX  29064 60060 32450 40000 10145 20121 40116 5//// 82602 333 20141 30008 82710 95300;EQDQ01  00002PRCP99
0174600600999992000032909004+29370-010180FM-12+0066GMMF V0202601N002110048019N0080001N1+01631+01321101281ADDAA199000091GA1071+004809069GF107991071051004501999999MD1310121+9999REMSYN076AAXX  29094 60060 32458 72604 10163 20132 40128 53012 875// 333 87616 95300;EQDQ01  00002PRCP99
0174600600999992000032912004+29370-010180FM-12+0066GMMF V0203401N003612200019N0080001N1+01801+01371101251ADDAA199000091GA1031+060009009GF103991001001999999001021MD1810031+9999REMSYN076AAXX  29124 60060 32958 33407 10180 20137 40125 58003 80002 333 83070 95300;EQDQ01  00002PRCP99
0196600600999992000032915004+29370-010180FM-12+0066GMMF V0203201N003610600019N0080001N1+01831+01361101211ADDAA199000091GA1031+030009039GA2031+060009009GF105991031001999999031021MD1710041+9999REMSYN082AAXX  29154 60060 32958 53207 10183 20136 40121 57004 83032 333 83360 83070 95300;EQDQ01  00002PRCP99
0215600600999992000032918004+29370-010180FM-12+0066GMMF V0203401N003110600019N0080001N1+01731+01291101241ADDAA199000091GA1031+030009039GA2041+060009009GF106991031001999999031021KA1120M+01871MD1310031+9999REMSYN088AAXX  29184 60060 32958 63406 10173 20129 40124 53003 83032 333 10187 83360 84070 95300;EQDQ01  00002PRCP99
0196600600999992000032921004+29370-010180FM-12+0066GMMF V0200201N003110600019N0080001N1+01651+01341101271ADDAA199000091GA1031+030009039GA2041+060009009GF106991031001999999031021MD1310031+9999REMSYN082AAXX  29214 60060 32958 60206 10165 20134 40127 53003 83032 333 83360 84070 95300;EQDQ01  00002PRCP99
0185600600999992000033006004+29370-010180FM-12+0066GMMF V0200401N002610048019N0060001N1+01591+01381101201ADDAA199000091GA1061+004809089GF106991061021004501001001KA1120N+01501REMSYN088AAXX  30064 60060 32456 60405 10159 20138 40120 5//// 86200 333 20150 30011 86816 95300;EQDQ01  00002PRCP99
0196600600999992000033009004+29370-010180FM-12+0066GMMF V0200201N003110300019N0080001N1+01671+01441101271ADDAA199000091GA1041+004809089GA2031+030009039GF106991041021004501031001MD1210071+9999REMSYN082AAXX  30094 60060 32458 60206 10167 20144 40127 52007 84230 333 84816 83360 95300;EQDQ01  00002PRCP99
0174600600999992000033012004+29370-010180FM-12+0066GMMF V0203401N004112200019N0080001N1+01771+01231101331ADDAA199000091GA1031+004809089GF103991031021004501001001MD1010061+9999REMSYN076AAXX  30124 60060 32458 33408 10177 20123 40133 50006 83200 333 83816 95300;EQDQ01  00002PRCP99
0174600600999992000033015004+29370-010180FM-12+0066GMMF V0203601N003612200019N0120001N1+01851+01391101311ADDAA199000091GA1021+004809089GF102991021021004501001001MD1810021+9999REMSYN076AAXX  30154 60060 32462 23607 10185 20139 40131 58002 82200 333 82816 95300;EQDQ01  00002PRCP99
0175600600999992000033018004+29370-010180FM-12+0066GMMF V0203601N003612200019N0120001N1+01801+01291101361ADDAA199000091GA1001+999999999GF100991001001999999001001KA1999M+01891MD1110051+9999REMSYN064AAXX  30184 60060 32962 03607 10180 20129 40136 51005 333 10189;EQDQ01  00002PRCP99
0152600600999992000033021004+29370-010180FM-12+0066GMMF V0200401N004612200019N0080001N1+01701+01351101541ADDAA199000091GA1001+999999999GF100991001001999999001001MD1310171+9999REMSYN054AAXX  30214 60060 32958 00409 10170 20135 40154 53017;EQDQ01  00002PRCP99
0185600600999992000033106004+29370-010180FM-12+0066GMMF V0200801N001512200019N0080001N1+01511+01301101461ADDAA199000091GA1031+004809069GF103991031051004501001001KA1120N+01421REMSYN088AAXX  31064 60060 32458 30803 10151 20130 40146 5//// 83500 333 20142 30009 83616 95300;EQDQ01  00002PRCP99
0174600600999992000033109004+29370-010180FM-12+0066GMMF V0200401N002612200019N0100001N1+01721+01331101491ADDAA199000091GA1011+004809069GF101991011051004501001001MD1310031+9999REMSYN076AAXX  31094 60060 32460 10405 10172 20133 40149 53003 81500 333 81616 95300;EQDQ01  00002PRCP99
0152600600999992000033112004+29370-010180FM-12+0066GMMF V0203001N003612200019N0100001N1+01821+01541101481ADDAA199000091GA1001+999999999GF100991001001999999001001MD1410001+9999REMSYN054AAXX  31124 60060 32960 03007 10182 20154 40148 54000;EQDQ01  00002PRCP99
0174600600999992000033115004+29370-010180FM-12+0066GMMF V0203201N004112200019N0100001N1+01881+01601101411ADDAA199000091GA1031+004809069GF103991031051004501001001MD1710071+9999REMSYN076AAXX  31154 60060 32460 33208 10188 20160 40141 57007 83500 333 83616 95300;EQDQ01  00002PRCP99
0193600600999992000033118004+29370-010180FM-12+0066GMMF V0203601N004112200019N0100001N1+01811+01451101351ADDAA199000091GA1021+004809069GF102991021051004501001001KA1120M+01971MD1510061+9999REMSYN082AAXX  31184 60060 32460 23608 10181 20145 40135 55006 82500 333 10197 82616 95300;EQDQ01  00002PRCP99
0152600600999992000033121004+29370-010180FM-12+0066GMMF V0203601N003612200019N0080001N1+01671+01501101371ADDAA199000091GA1001+999999999GF100991001001999999001001MD1310011+9999REMSYN054AAXX  31214 60060 32958 03607 10167 20150 40137 53001;EQDQ01  00002PRCP99
0167600600999992000040106004+29370-010180FM-12+0066GMMF V0201801N001012200019N0080001N1+01331+01071101201ADDAA199000091GA1001+999999999GF100991001001999999001001KA1120N+01321REMSYN070AAXX  01064 60060 32958 01802 10133 20107 40120 5//// 333 20132 30010;EQDQ01  00002PRCP99
0152600600999992000040109004+29370-010180FM-12+0066GMMF V0202801N001512200019N0100001N1+01711+01321101151ADDAA199000091GA1001+999999999GF100991001001999999001001MD1610041+9999REMSYN054AAXX  01094 60060 32960 02803 10171 20132 40115 56004;EQDQ01  00002PRCP99
0152600600999992000040112004+29370-010180FM-12+0066GMMF V0203201N002112200019N0100001N1+02021+01481101121ADDAA199000091GA1001+999999999GF100991001001999999001001MD1810031+9999REMSYN054AAXX  01124 60060 32960 03204 10202 20148 40112 58003;EQDQ01  00002PRCP99
0174600600999992000040115004+29370-010180FM-12+0066GMMF V0202601N002612200019N0150001N1+02141+01391100911ADDAA199000091GA1021+060009009GF102991001001999999001021MD1710201+9999REMSYN076AAXX  01154 60060 32965 22605 10214 20139 40091 57020 80002 333 82070 95300;EQDQ01  00002PRCP99
0193600600999992000040118004+29370-010180FM-12+0066GMMF V0202601N002612200019N0150001N1+02141+01371100761ADDAA199000091GA1011+060009009GF101991001001999999001011KA1120M+02241MD1610151+9999REMSYN082AAXX  01184 60060 32965 12605 10214 20137 40076 56015 80001 333 10224 81070 95300;EQDQ01  00002PRCP99
0152600600999992000040121004+29370-010180FM-12+0066GMMF V0202201N002112200019N0100001N1+01891+01071100761ADDAA199000091GA1001+999999999GF100991001001999999001001MD1410001+9999REMSYN054AAXX  01214 60060 32960 02204 10189 20107 40076 54000;EQDQ01  00002PRCP99
0179600600999992000040206004+29370-010180FM-12+0066GMMF V0202201N009310048019N0100001N1+01841+01501100451ADDAA199000091GA1051+004809089GF105991051021004501001001KA1120N+01781REMSYN082AAXX  02064 60060 32460 52218 10184 20150 40045 5//// 85200 333 20178 85816 95300;EQDQ01  00002PRCP99
0174600600999992000040209004+29370-010180FM-12+0066GMMF V0202201N011310048019N0100001N1+01871+01681100541ADDAA199000091GA1071+004809089GF107991071021004501999999MD1310101+9999REMSYN076AAXX  02094 60060 32460 72222 10187 20168 40054 53010 872// 333 87816 95300;EQDQ01  00002PRCP99
0189600600999992000040212004+29370-010180FM-12+0066GMMF V0202201N011310048019N0100001N1+01961+01731100601ADDAA106000591AY181061AY211061GA1061+004809089GF106991061021004501001001MD1310061+9999MW1801REMSYN088AAXX  02124 60060 11460 62222 10196 20173 40060 53006 69951 78081 86200 333 86816 95300;
0172600600999992000040215004+29370-010180FM-12+0066GMMF V0202201N010310048019N0080001N1+01971+01811100581ADDAY181031AY221031GA1071+004809089GF107991071021004501999999MD1810021+9999MW1251REMSYN082AAXX  02154 60060 41458 72220 10197 20181 40058 58002 72582 872// 333 87816 95300;
0208600600999992000040218004+29370-010180FM-12+0066GMMF V0203201N003610048019N0080001N1+01851+01601100621ADDAA112000591AY181061AY261061GA1061+004809089GF106991061021004501001001KA1120M+02101MD1110041+9999MW1211REMSYN094AAXX  02184 60060 11458 63207 10185 20160 40062 51004 69962 72186 86200 333 10210 86816 95300;
0172600600999992000040221004+29370-010180FM-12+0066GMMF V0200801N001510048019N0080001N1+01621+01391100831ADDAY161031AY221031GA1051+004809089GF105991051021004501001001MD1310201+9999MW1011REMSYN082AAXX  02214 60060 41458 50803 10162 20139 40083 53020 70162 85200 333 85816 95300;
0172600600999992000040306004+29370-010180FM-12+0066GMMF V0202001N002612200019N0080001N1+01471+01161100861ADDAA124001091GA1031+006009089GF104991031021004501001001KA1120N+01421REMSYN094AAXX  03064 60060 12458 42005 10147 20116 40086 5//// 60014 83200 333 20142 30006 83820 95300;
0194600600999992000040309004+29370-010180FM-12+0066GMMF V0202201N003110060019N0100001N1+01511+01211100981ADDAY181031AY221031GA1021+003909089GA2031+006009069GF105991051081004501001001MD1210121+9999MW1011REMSYN088AAXX  03094 60060 41460 52206 10151 20121 40098 52012 70182 85800 333 82813 83620 95300;
0211600600999992000040312004+29370-010180FM-12+0066GMMF V0202201N004110060019N0100001N1+01641+01401101111ADDAA106003091AY181061AY281061GA1031+003909089GA2031+006009069GF105991051081004501001001MD1210141+9999MW1011REMSYN094AAXX  03124 60060 11460 52208 10164 20140 40111 52014 60031 70188 85800 333 83813 83620 95300;
0194600600999992000040315004+29370-010180FM-12+0066GMMF V0202201N006210060019N0100001N1+01631+01411101091ADDAY181031AY221031GA1031+003909089GA2061+006009069GF107991071081004501999999MD1710021+9999MW1021REMSYN088AAXX  03154 60060 41460 72212 10163 20141 40109 57002 70282 878// 333 83813 86620 95300;
0230600600999992000040318004+29370-010180FM-12+0066GMMF V0202801N004110060019N0100001N1+01471+01351101151ADDAA112007991AY181061AY281061GA1031+003909089GA2031+006009069GF105991051081004501001001KA1120M+01691MD1310061+9999MW1251REMSYN100AAXX  03184 60060 11460 52808 10147 20135 40115 53006 60082 72588 85800 333 10169 83813 83620 95300;
0155600600999992000040321004+29370-010180FM-12+0066GMMF V0202801N005112200019N0080001N1+01491+01321101341ADDAA199000021GA1021+003909089GF103991031081004501001001MD1310181+9999REMSYN076AAXX  03214 60060 32458 32810 10149 20132 40134 53018 83800 333 82813 95300;
0172600600999992000040406004+29370-010180FM-12+0066GMMF V0203601N004612200019N0100001N1+01501+01131101521ADDAA124010991GA1021+003909089GF103991031081004501001001KA1120N+01391REMSYN094AAXX  04064 60060 12460 33609 10150 20113 40152 5//// 60114 83800 333 20139 31006 82813 95300;
0159600600999992000040412004+29370-010180FM-12+0066GMMF V0203601N005712200019N0120001N1+01791+99999999999ADDAA199000091GA1021+003909089GF103991999999004501999999REMSYN075AAXX  04124 60060 32462 33611 10179 2018 40187 51014 83800 333 82813 95300;EQDQ01  00002PRCP99
0174600600999992000040415004+29370-010180FM-12+0066GMMF V0203401N005112200019N0100001N1+01821+01221101841ADDAA199000091GA1021+003909089GF103991031081004501001001MD1810131+9999REMSYN076AAXX  04154 60060 32460 33410 10182 20122 40184 58013 83800 333 82813 95300;EQDQ01  00002PRCP99
0193600600999992000040418004+29370-010180FM-12+0066GMMF V0200201N006212200019N0100001N1+01711+01151101861ADDAA199000091GA1021+003909089GF103991031081004501001001KA1120M+01871MD1110011+9999REMSYN082AAXX  04184 60060 32460 30212 10171 20115 40186 51001 83800 333 10187 82813 95300;EQDQ01  00002PRCP99
0174600600999992000040421004+29370-010180FM-12+0066GMMF V0200201N005712200019N0080001N1+01601+01241101921ADDAA199000091GA1011+003909089GF102991021081004501001001MD1310061+9999REMSYN076AAXX  04214 60060 32458 20211 10160 20124 40192 53006 82800 333 81813 95300;EQDQ01  00002PRCP99
0174600600999992000040509004+29370-010180FM-12+0066GMMF V0200601N005112200019N0100001N1+01741+01221101851ADDAA199000091GA1021+003909089GF104991041081004501001001MD1310031+9999REMSYN076AAXX  05094 60060 32460 40610 10174 20122 40185 53003 84800 333 82813 95300;EQDQ01  00002PRCP99
0174600600999992000040512004+29370-010180FM-12+0066GMMF V0200201N006212200019N0100001N1+01751+01251101931ADDAA199000091GA1011+003909089GF102991021081004501001001MD1110091+9999REMSYN076AAXX  05124 60060 32460 20212 10175 20125 40193 51009 82800 333 81813 95300;EQDQ01  00002PRCP99
0174600600999992000040515004+29370-010180FM-12+0066GMMF V0202601N003612200019N0120001N1+01731+01211101761ADDAA199000091GA1031+060009009GF103991001001999999001021MD1810181+9999REMSYN076AAXX  05154 60060 32962 32607 10173 20121 40176 58018 80002 333 83070 95300;EQDQ01  00002PRCP99
0193600600999992000040518004+29370-010180FM-12+0066GMMF V0200201N006212200019N0120001N1+01771+01171101641ADDAA199000091GA1031+060009009GF103991001001999999001021KA1120M+01821MD1810111+9999REMSYN082AAXX  05184 60060 32962 30212 10177 20117 40164 58011 80002 333 10182 83070 95300;EQDQ01  00002PRCP99
0174600600999992000040521004+29370-010180FM-12+0066GMMF V0200201N006212200019N0080001N1+01601+01201101701ADDAA199000091GA1021+060009009GF102991001001999999001021MD1310061+9999REMSYN076AAXX  05214 60060 32958 20212 10160 20120 40170 53006 80002 333 82070 95300;EQDQ01  00002PRCP99
0185600600999992000040606004+29370-010180FM-12+0066GMMF V0202001N003112200019N0080001N1+01311+01101101471ADDAA199000091GA1021+060009009GF102991001001999999001021KA1120N+01271REMSYN088AAXX  06064 60060 32958 22006 10131 20110 40147 5//// 80002 333 20127 30007 82070 95300;EQDQ01  00002PRCP99
0152600600999992000040609004+29370-010180FM-12+0066GMMF V0201201N002112200019N0100001N1+01601+01061101421ADDAA199000091GA1001+999999999GF100991001001999999001001MD1810041+9999REMSYN054AAXX  06094 60060 32960 01204 10160 20106 40142 58004;EQDQ01  00002PRCP99
0190600600999992000040615004+29370-010180FM-12+0066GMMF V0203601N003112200019N0120001N1+02511+00841100981ADDAA199000091GA1031+060009009GF103991001001999999001021MD1810321+9999REMSYN076AAXX  06154 60060 32962 33606 10251 20084 40098 58032 83002 333 83070 95300;EQDQ01+000032SCOTLCQ02  00002PRCP99
0193600600999992000040618004+29370-010180FM-12+0066GMMF V0200201N002110600019N0120001N1+02571+00851100831ADDAA199000091GA1051+060009009GF105991001001999999001021KA1120M+02651MD1610151+9999REMSYN082AAXX  06184 60060 32962 50204 10257 20085 40083 56015 80002 333 10265 85070 95300;EQDQ01  00002PRCP99
0174600600999992000040706004+29370-010180FM-12+0066GMMF V0202001N006712200019N0120001N1+01951+01181100831ADDAA199000091GA1031+060009009GF103991001001999999001021MD1310091+9999REMSYN076AAXX  07064 60060 32962 32013 10195 20118 40083 53009 80002 333 83070 95300;EQDQ01  00002PRCP99
0174600600999992000040712004+29370-010180FM-12+0066GMMF V0202201N005112200019N0120001N1+02141+01511101001ADDAA199000091GA1021+030009039GF103991021001999999031021MD1310171+9999REMSYN076AAXX  07124 60060 32962 32210 10214 20151 40100 53017 82032 333 82360 95300;EQDQ01  00002PRCP99
0174600600999992000040715004+29370-010180FM-12+0066GMMF V0202401N008219999999N0100001N1+02171+01861101031ADDAA199000091GA1031+030009039GF105991031001999999031021MD1110031+9999REMSYN076AAXX  07154 60060 32960 52416 10217 20186 40103 51003 83032 333 83360 95300;EQDQ01  00002PRCP99
0193600600999992000040718004+29370-010180FM-12+0066GMMF V0202401N006219999999N0100001N1+02091+01791101031ADDAA199000091GA1041+030009039GF106991041001999999031021KA1120M+02271MD1410001+9999REMSYN082AAXX  07184 60060 32960 62412 10209 20179 40103 54000 84032 333 10227 84360 95300;EQDQ01  00002PRCP99
0174600600999992000040721004+29370-010180FM-12+0066GMMF V0202001N002119999999N0100001N1+01801+01511101121ADDAA199000091GA1041+030009039GF106991041001999999031021MD1310081+9999REMSYN076AAXX  07214 60060 32960 62004 10180 20151 40112 53008 84032 333 84360 95300;EQDQ01  00002PRCP99
0174600600999992000040809004+29370-010180FM-12+0066GMMF V0202401N004612200019N0100001N1+01871+01591101191ADDAA199000091GA1011+003909089GF103991031081004501001001MD1310051+9999REMSYN076AAXX  08094 60060 32460 32409 10187 20159 40119 53005 83800 333 81813 95300;EQDQ01  00002PRCP99
0174600600999992000040812004+29370-010180FM-12+0066GMMF V0202601N005112200019N0120001N1+02001+01621101261ADDAA199000091GA1011+003909089GF102991021081004501001001MD1310071+9999REMSYN076AAXX  08124 60060 32462 22610 10200 20162 40126 53007 82800 333 81813 95300;EQDQ01  00002PRCP99
0174600600999992000040815004+29370-010180FM-12+0066GMMF V0203201N004112200019N0120001N1+02051+01571101221ADDAA199000091GA1011+003909089GF101991011021004501001001MD1810041+9999REMSYN076AAXX  08154 60060 32462 13208 10205 20157 40122 58004 81200 333 81813 95300;EQDQ01  00002PRCP99
0175600600999992000040818004+29370-010180FM-12+0066GMMF V0203201N003612200019N0120001N1+01901+01351101221ADDAA199000091GA1001+999999999GF100991001001999999001001KA1999M+02051MD1410001+9999REMSYN064AAXX  08184 60060 32962 03207 10190 20135 40122 54000 333 10205;EQDQ01  00002PRCP99
0152600600999992000040821004+29370-010180FM-12+0066GMMF V0200601N004112200019N0100001N1+01801+01371101311ADDAA199000091GA1001+999999999GF100991001001999999001001MD1310081+9999REMSYN054AAXX  08214 60060 32960 00608 10180 20137 40131 53008;EQDQ01  00002PRCP99
0196600600999992000040915004+29370-010180FM-12+0066GMMF V0202601N003110048019N0070001N1+01951+01711101321ADDAA199000091GA1021+003909089GA2051+004809069GF106991061081004501001001MD1710041+9999REMSYN082AAXX  09154 60060 32457 62606 10195 20171 40132 57004 86800 333 82813 85616 95300;EQDQ01  00002PRCP99
0193600600999992000040918004+29370-010180FM-12+0066GMMF V0203601N005112200019N0120001N1+01861+01531101281ADDAA199000091GA1021+003909089GF104991041081004501001001KA1120M+02011MD1710041+9999REMSYN082AAXX  09184 60060 32462 43610 10186 20153 40128 57004 84800 333 10201 82813 95300;EQDQ01  00002PRCP99
0168600600999992000040921004+29370-010180FM-12+0066GMMF V0203601N003112200019N0080001N1+01731+01461101361ADDAA199000091GA1011+003909029GF102991021081004501001001MD1310071+9999REMSYN070AAXX  09214 60060 32458 23606 10173 20146 40136 53007 82800 333 81813;EQDQ01  00002PRCP99
0185600600999992000041006004+29370-010180FM-12+0066GMMF V0203601N005112200019N0080001N1+01681+01531101381ADDAA199000091GA1041+003909089GF104991041021004501001001KA1120N+01621REMSYN088AAXX  10064 60060 32458 43610 10168 20153 40138 5//// 84200 333 20162 30007 84813 95300;EQDQ01  00002PRCP99
0174600600999992000041009004+29370-010180FM-12+0066GMMF V0200201N005110048019N0100001N1+01751+01511101591ADDAA199000091GA1051+004809089GF105991051021004501001001MD1310221+9999REMSYN076AAXX  10094 60060 32460 50210 10175 20151 40159 53022 85200 333 85816 95300;EQDQ01  00002PRCP99
0174600600999992000041012004+29370-010180FM-12+0066GMMF V0200201N006712200019N0100001N1+01921+01551101681ADDAA199000091GA1041+004809089GF104991041021004501001001MD1110091+9999REMSYN076AAXX  10124 60060 32460 40213 10192 20155 40168 51009 84200 333 84816 95300;EQDQ01  00002PRCP99
0174600600999992000041015004+29370-010180FM-12+0066GMMF V0203601N007210039019N0100001N1+01981+01601101611ADDAA199000091GA1051+003909089GF105991051021004501001001MD1710071+9999REMSYN076AAXX  10154 60060 32460 53614 10198 20160 40161 57007 85200 333 85813 95300;EQDQ01  00002PRCP99
0193600600999992000041018004+29370-010180FM-12+0066GMMF V0200201N006710039019N0100001N1+01851+01501101631ADDAA199000091GA1051+003909089GF105991051021004501001001KA1120M+02051MD1110031+9999REMSYN082AAXX  10184 60060 32460 50213 10185 20150 40163 51003 85200 333 10205 85813 95300;EQDQ01  00002PRCP99
0174600600999992000041021004+29370-010180FM-12+0066GMMF V0200201N006210039019N0100001N1+01741+01501101741ADDAA199000091GA1051+003909089GF105991051021004501001001MD1310101+9999REMSYN076AAXX  10214 60060 32460 50212 10174 20150 40174 53010 85200 333 85813 95300;EQDQ01  00002PRCP99
0185600600999992000041106004+29370-010180FM-12+0066GMMF V0200201N008210039019N0100001N1+01701+01531101651ADDAA199000091GA1051+003909089GF105991051021004501001001KA1120N+01591REMSYN088AAXX  11064 60060 32460 50216 10170 20153 40165 5/003 85200 333 20159 30082 85813 95300;EQDQ01  00002PRCP99
0174600600999992000041109004+29370-010180FM-12+0066GMMF V0200201N009312200019N0100001N1+01761+01521101641ADDAA199000091GA1041+003909089GF104991041021004501001001MD1410001+9999REMSYN076AAXX  11094 60060 32460 40218 10176 20152 40164 54000 84200 333 84813 95300;EQDQ01  00002PRCP99
0174600600999992000041112004+29370-010180FM-12+0066GMMF V0200401N009312200019N0120001N1+01931+01601101671ADDAA199000091GA1021+003909089GF102991021021004501001001MD1110031+9999REMSYN076AAXX  11124 60060 32462 20418 10193 20160 40167 51003 82200 333 82813 95300;EQDQ01  00002PRCP99
0174600600999992000041115004+29370-010180FM-12+0066GMMF V0200201N006712200019N0080001N1+01941+01541101631ADDAA199000091GA1041+003909089GF104991041021004501001001MD1810041+9999REMSYN076AAXX  11154 60060 32458 40213 10194 20154 40163 58004 84200 333 84813 95300;EQDQ01  00002PRCP99
0193600600999992000041118004+29370-010180FM-12+0066GMMF V0200201N006210039019N0080001N1+01831+01511101551ADDAA199000091GA1051+003909089GF105991051021004501001001KA1120M+01991MD1610081+9999REMSYN082AAXX  11184 60060 32458 50212 10183 20151 40155 56008 85200 333 10199 85813 95300;EQDQ01  00002PRCP99
0174600600999992000041121004+29370-010180FM-12+0066GMMF V0200401N006210039019N0080001N1+01751+01511101571ADDAA199000091GA1071+003909089GF107991071021004501999999MD1110021+9999REMSYN076AAXX  11214 60060 32458 70412 10175 20151 40157 51002 872// 333 87813 95300;EQDQ01  00002PRCP99
0207600600999992000041206004+29370-010180FM-12+0066GMMF V0202601N002110240019N0080001N1+01621+01521101191ADDAA199000091GA1031+003909089GA2031+024009039GF105991031021004501081001KA1120N+01591REMSYN094AAXX  12064 60060 32458 52604 10162 20152 40119 5//// 83280 333 20159 30012 83813 83358 95300;EQDQ01  00002PRCP99
0196600600999992000041209004+29370-010180FM-12+0066GMMF V0202801N003110048019N0080001N1+01711+01521101211ADDAA199000091GA1041+003909089GA2061+004809069GF108991081081004501999999MD1310021+9999REMSYN082AAXX  12094 60060 32458 82806 10171 20152 40121 53002 888// 333 84813 86616 95300;EQDQ01  00002PRCP99
0174600600999992000041212004+29370-010180FM-12+0066GMMF V0202801N002112200019N0080001N1+01881+01531101241ADDAA199000091GA1021+006009069GF102991021051004501001001MD1110041+9999REMSYN076AAXX  12124 60060 32458 22804 10188 20153 40124 51004 82500 333 82620 95300;EQDQ01  00002PRCP99
0196600600999992000041215004+29370-010180FM-12+0066GMMF V0203201N004110060019N0080001N1+01881+01501101181ADDAA199000091GA1031+003909089GA2041+006009069GF106991061081004501001001MD1810061+9999REMSYN082AAXX  12154 60060 32458 63208 10188 20150 40118 58006 86800 333 83813 84620 95300;EQDQ01  00002PRCP99
0215600600999992000041218004+29370-010180FM-12+0066GMMF V0203601N003110060019N0080001N1+01781+01421101211ADDAA199000091GA1031+003909089GA2031+006009069GF105991051081004501001001KA1120M+01921MD1210021+9999REMSYN088AAXX  12184 60060 32458 53606 10178 20142 40121 52002 85800 333 10192 83813 83620 95300;EQDQ01  00002PRCP99
0196600600999992000041221004+29370-010180FM-12+0066GMMF V0200201N003112200019N0080001N1+01681+01401101281ADDAA199000091GA1021+003909089GA2031+006009069GF104991041081004501001001MD1210071+9999REMSYN082AAXX  12214 60060 32458 40206 10168 20140 40128 52007 84800 333 82813 83620 95300;EQDQ01  00002PRCP99
0207600600999992000041306004+29370-010180FM-12+0066GMMF V0203601N004110048019N0080001N1+01631+01231101231ADDAA199000091GA1041+003909089GA2051+004809069GF107991071081004501999999KA1120N+01591REMSYN094AAXX  13064 60060 32458 73608 10163 20123 40123 5//// 878// 333 20159 30011 84813 85616 95300;EQDQ01  00002PRCP99
0196600600999992000041309004+29370-010180FM-12+0066GMMF V0203201N003110060019N0090001N1+01701+01051101361ADDAA199000091GA1041+003909089GA2051+006009069GF107991071081004501999999MD1310121+9999REMSYN082AAXX  13094 60060 32459 73206 10170 20105 40136 53012 878// 333 84813 85620 95300;EQDQ01  00002PRCP99
0174600600999992000041312004+29370-010180FM-12+0066GMMF V0200201N002112200019N0100001N1+01851+01021101411ADDAA199000091GA1021+006009069GF102991021051008001001001MD1110061+9999REMSYN076AAXX  13124 60060 32560 20204 10185 20102 40141 51006 82500 333 82620 95300;EQDQ01  00002PRCP99
0174600600999992000041315004+29370-010180FM-12+0066GMMF V0203401N004112200019N0100001N1+01981+01401101371ADDAA199000091GA1011+006009069GF101991011051008001001001MD1710041+9999REMSYN076AAXX  13154 60060 32560 13408 10198 20140 40137 57004 81500 333 81620 95300;EQDQ01  00002PRCP99
0193600600999992000041318004+29370-010180FM-12+0066GMMF V0203401N004112200019N0100001N1+01891+01461101331ADDAA199000091GA1021+006009069GF102991021051008001001001KA1120M+02011MD1610041+9999REMSYN082AAXX  13184 60060 32560 23408 10189 20146 40133 56004 82500 333 10201 82620 95300;EQDQ01  00002PRCP99
0174600600999992000041321004+29370-010180FM-12+0066GMMF V0200401N002612200019N0100001N1+01681+01401101371ADDAA199000091GA1021+006009069GF102991021051008001001001MD1310031+9999REMSYN076AAXX  13214 60060 32560 20405 10168 20140 40137 53003 82500 333 82620 95300;EQDQ01  00002PRCP99
0185600600999992000041406004+29370-010180FM-12+0066GMMF V0202401N002610060019N0100001N1+01651+01481101311ADDAA199000091GA1061+006009069GF106991061051008001001001KA1120N+01551REMSYN088AAXX  14064 60060 32560 62405 10165 20148 40131 5/001 86500 333 20155 30025 86620 95300;EQDQ01  00002PRCP99
0196600600999992000041409004+29370-010180FM-12+0066GMMF V0202401N004110060019N0100001N1+01761+01541101411ADDAA199000091GA1021+003909089GA2051+006009069GF106991061081004501001001MD1310041+9999REMSYN082AAXX  14094 60060 32460 62408 10176 20154 40141 53004 86800 333 82813 85620 95300;EQDQ01  00002PRCP99
0196600600999992000041415004+29370-010180FM-12+0066GMMF V0202601N00411004801CN0080001N1+02041+01681101531ADDAA199000091GA1021+003909089GA2031+004809069GF106991041081004501001021MD1410001+9999REMSYN082AAXX  14154 60060 32458 62608 10204 20168 40153 54000 84802 333 82813 83616 95300;EQDQ01  00002PRCP99
0215600600999992000041418004+29370-010180FM-12+0066GMMF V0203001N002112200019N0080001N1+02011+01761101451ADDAA199000091GA1021+003909089GA2031+004809069GF104991021021004501001021KA1120M+02071MD1810081+9999REMSYN088AAXX  14184 60060 32458 43004 10201 20176 40145 58008 82202 333 10207 82813 83616 95300;EQDQ01  00002PRCP99
0174600600999992000041421004+29370-010180FM-12+0066GMMF V0202801N001012200019N0080001N1+01841+01611101491ADDAA199000091GA1011+003909089GF101991011021004501001001MD1310041+9999REMSYN076AAXX  14214 60060 32458 12802 10184 20161 40149 53004 81200 333 81813 95300;EQDQ01  00002PRCP99
0167600600999992000041506004+29370-010180FM-12+0066GMMF V0201401N004112200019N0080001N1+01591+01401101191ADDAA199000091GA1001+999999999GF100991001001999999001001KA1120N+01491REMSYN070AAXX  15064 60060 32958 01408 10159 20140 40119 5//// 333 20149 30011;EQDQ01  00002PRCP99
0174600600999992000041509004+29370-010180FM-12+0066GMMF V0203001N001512200019N0080001N1+01961+01391101161ADDAA199000091GA1041+060009009GF104991001001999999001021MD1610021+9999REMSYN076AAXX  15094 60060 32958 43003 10196 20139 40116 56002 80002 333 84070 95300;EQDQ01  00002PRCP99
0174600600999992000041512004+29370-010180FM-12+0066GMMF V0202401N004612200019N0100001N1+02081+01511101231ADDAA199000091GA1011+060009009GF101991001001999999001011MD1110071+9999REMSYN076AAXX  15124 60060 32960 12409 10208 20151 40123 51007 80001 333 81070 95300;EQDQ01  00002PRCP99
0174600600999992000041515004+29370-010180FM-12+0066GMMF V0202401N004612200019N0100001N1+02201+01611101081ADDAA199000091GA1011+060009009GF101991001001999999001011MD1710151+9999REMSYN076AAXX  15154 60060 32960 12409 10220 20161 40108 57015 80001 333 81070 95300;EQDQ01  00002PRCP99
0193600600999992000041518004+29370-010180FM-12+0066GMMF V0202401N005119999999N0100001N1+02401+01391101021ADDAA199000091GA1041+060009009GF105991001001999999001021KA1120M+02421MD1810051+9999REMSYN082AAXX  15184 60060 32960 52410 10240 20139 40102 58005 80002 333 10242 84070 95300;EQDQ01  00002PRCP99
0174600600999992000041521004+29370-010180FM-12+0066GMMF V0202401N004610600019N0080001N1+02101+01501101071ADDAA199000091GA1051+060009009GF105991001001999999001021MD1210041+9999REMSYN076AAXX  15214 60060 32958 52409 10210 20150 40107 52004 80002 333 85070 95300;EQDQ01  00002PRCP99
0214600600999992000041606004+29370-010180FM-12+0066GMMF V0202201N008210048019N0080001N1+01901+01691101111ADDAA124001091AY161061GA1041+003909089GA2051+004809069GF107991071081004501999999KA1120N+01861MW1021REMSYN106AAXX  16064 60060 11458 72216 10190 20169 40111 5//// 60014 7026/ 878// 333 20186 30009 84813 85616 95300;
0186600600999992000041609004+29370-010180FM-12+0066GMMF V0203201N004110048019N0080001N1+01931+01821101441ADDAY161031GA1031+003909089GA2041+004809069GF106991061081004501001001MD1310321+9999MW1211REMSYN088AAXX  16094 60060 41458 63208 10193 20182 40144 53032 7216/ 86800 333 83813 84616 95300;
0211600600999992000041612004+29370-010180FM-12+0066GMMF V0203201N004110048019N0080001N1+01851+01551101731ADDAA106000591AY161061AY221061GA1041+003909089GA2051+004809069GF107991071081004501999999MD1110291+9999MW1211REMSYN094AAXX  16124 60060 11458 73208 10185 20155 40173 51029 69951 72162 878// 333 84813 85616 95300;
0177600600999992000041615004+29370-010180FM-12+0066GMMF V0203201N005112200019N0080001N1+02051+01611101761ADDAA199000021GA1021+003909089GA2031+006009069GF104991041081004501001001MD1110031+9999REMSYN082AAXX  16154 60060 32458 43210 10205 20161 40176 51003 84800 333 82813 83620 95300;
0180600600999992000041618004+29370-010180FM-12+0066GMMF V0200201N006212200019N0100001N1+01961+01561101731ADDAA112000591GA1011+003909089GF103991031081004501001001KA1120M+02071MD1610031+9999REMSYN088AAXX  16184 60060 12460 30212 10196 20156 40173 56003 69952 83800 333 10207 81813 95300;
0127600600999992000041621004+29370-010180FM-12+0066GMMF V0200201N006712200019N0080001N1+01781+01441101871ADDAA199000021GF104991041081004501001001MD1310141+9999REMSYN064AAXX  16214 60060 32458 40213 10178 20144 40187 53014 84800 333;
0172600600999992000041706004+29370-010180FM-12+0066GMMF V0203401N007712200019N0080001N1+01671+01371101891ADDAA124000591GA1011+003909089GF103991031081004501001001KA1120N+01501REMSYN094AAXX  17064 60060 12458 33415 10167 20137 40189 5/001 69954 83800 333 20150 30051 81813 95300;
0174600600999992000041709004+29370-010180FM-12+0066GMMF V0200401N008212200019N0100001N1+01741+01341102041ADDAA199000091GA1011+003909089GF103991031081004501001001MD1210151+9999REMSYN076AAXX  17094 60060 32460 30416 10174 20134 40204 52015 83800 333 81813 95300;EQDQ01  00002PRCP99
0174600600999992000041712004+29370-010180FM-12+0066GMMF V0200401N006212200019N0100001N1+01881+01401102081ADDAA199000091GA1011+003909089GF103991011021004501001021MD1110051+9999REMSYN076AAXX  17124 60060 32460 30412 10188 20140 40208 51005 81202 333 81813 95300;EQDQ01  00002PRCP99
0174600600999992000041715004+29370-010180FM-12+0066GMMF V0203601N003612200019N0120001N1+01841+01431101951ADDAA199000091GA1021+060009009GF102991001001999999001011MD1810131+9999REMSYN076AAXX  17154 60060 32962 23607 10184 20143 40195 58013 80001 333 82070 95300;EQDQ01  00002PRCP99
0193600600999992000041718004+29370-010180FM-12+0066GMMF V0200201N004619999999N0120001N1+01871+01411101961ADDAA199000091GA1041+030009039GF105991041001999999081011KA1120M+01941MD1210011+9999REMSYN082AAXX  17184 60060 32962 50209 10187 20141 40196 52001 84081 333 10194 84360 95300;EQDQ01  00002PRCP99
0174600600999992000041721004+29370-010180FM-12+0066GMMF V0200201N005712200019N0080001N1+01741+01571102051ADDAA199000091GA1031+024009039GF104991031001999999081011MD1210081+9999REMSYN076AAXX  17214 60060 32958 40211 10174 20157 40205 52008 83081 333 83358 95300;EQDQ01  00002PRCP99
0207600600999992000041806004+29370-010180FM-12+0066GMMF V0201401N003610480019N0080001N1+01621+01541101961ADDAA199000091GA1041+004809069GA2031+048009009GF106991041051004501001021KA1120N+01571REMSYN094AAXX  18064 60060 32458 61407 10162 20154 40196 5//// 84502 333 20157 30013 84616 83066 95300;EQDQ01  00002PRCP99
0174600600999992000041809004+29370-010180FM-12+0066GMMF V0201401N001012200019N0080001N1+01861+01661102071ADDAA199000091GA1011+048009009GF101991001001999999001011MD1310121+9999REMSYN076AAXX  18094 60060 32958 11402 10186 20166 40207 53012 80001 333 81066 95300;EQDQ01  00002PRCP99
0174600600999992000041815004+29370-010180FM-12+0066GMMF V0200201N006212200019N0080001N1+02001+01711102051ADDAA199000091GA1021+060009009GF102991001001999999001011MD1710101+9999REMSYN076AAXX  18154 60060 32958 20212 10200 20171 40205 57010 80001 333 82070 95300;EQDQ01  00002PRCP99
0193600600999992000041818004+29370-010180FM-12+0066GMMF V0200201N005112200019N0080001N1+01891+01611102011ADDAA199000091GA1021+060009009GF102991001001999999001021KA1120M+02021MD1610041+9999REMSYN082AAXX  18184 60060 32958 20210 10189 20161 40201 56004 80002 333 10202 82070 95300;EQDQ01  00002PRCP99
0174600600999992000041821004+29370-010180FM-12+0066GMMF V0200401N002112200019N0080001N1+01771+01531102081ADDAA199000091GA1021+048009009GF102991001001999999001021MD1310071+9999REMSYN076AAXX  18214 60060 32958 20404 10177 20153 40208 53007 80002 333 82066 95300;EQDQ01  00002PRCP99
0185600600999992000041906004+29370-010180FM-12+0066GMMF V0202001N002612200019N0080001N1+01571+01501101891ADDAA199000091GA1021+048009009GF102991001001999999001021KA1120N+01521REMSYN088AAXX  19064 60060 32958 22005 10157 20150 40189 5//// 80002 333 20152 30012 82066 95300;EQDQ01  00002PRCP99
0196600600999992000041909004+29370-010180FM-12+0066GMMF V0202401N002110600019N0080001N1+01801+01631101931ADDAA199000091GA1021+030009039GA2041+060009009GF105991021001999999031021MD1010051+9999REMSYN082AAXX  19094 60060 32958 52404 10180 20163 40193 50005 82032 333 82360 84070 95300;EQDQ01  00002PRCP99
0152600600999992000041912004+29370-010180FM-12+0066GMMF V0202401N006710600019N0080001N1+02001+01841102041ADDGA1021+030009039GA2061+060009009GF107991021001999999031021REMSYN082AAXX  19124 60060 /2958 72413 10200 20184 40204 5/001 82032 333 82360 86070 95300;
0196600600999992000041915004+29370-010180FM-12+0066GMMF V0202401N005119999999N0100001N1+02031+01651101951ADDAA199000091GA1021+030009039GA2031+060009009GF105991021001999999031021MD1610091+9999REMSYN082AAXX  19154 60060 32960 52410 10203 20165 40195 56009 82032 333 82360 83070 95300;EQDQ01  00002PRCP99
0193600600999992000041918004+29370-010180FM-12+0066GMMF V0203601N004112200019N0100001N1+01941+01611101751ADDAA199000091GA1011+030009039GF103991011001999999031021KA1120M+02071MD1610201+9999REMSYN082AAXX  19184 60060 32960 33608 10194 20161 40175 56020 81032 333 10207 81360 95300;EQDQ01  00002PRCP99
0174600600999992000041921004+29370-010180FM-12+0066GMMF V0200401N004112200019N0100001N1+01761+01491101851ADDAA199000091GA1041+006009069GF104991041051008001001001MD1310101+9999REMSYN076AAXX  19214 60060 32560 40408 10176 20149 40185 53010 84500 333 84620 95300;EQDQ01  00002PRCP99
0185600600999992000042006004+29370-010180FM-12+0066GMMF V0202801N002610060019N0080001N1+01771+01511101791ADDAA199000091GA1071+006009069GF107991071051008001999999KA1120N+01651REMSYN088AAXX  20064 60060 32558 72805 10177 20151 40179 5/003 875// 333 20165 30030 87620 95300;EQDQ01  00002PRCP99
0174600600999992000042012004+29370-010180FM-12+0066GMMF V0202801N004112200019N0100001N1+01931+01551101961ADDAA199000091GA1021+006009069GF102991021051008001001001MD1310091+9999REMSYN076AAXX  20124 60060 32560 22808 10193 20155 40196 53009 82500 333 82620 95300;EQDQ01  00002PRCP99
0174600600999992000042015004+29370-010180FM-12+0066GMMF V0200201N004610060019N0080001N1+01981+01651101851ADDAA199000091GA1071+006009069GF107991071051008001999999MD1710111+9999REMSYN076AAXX  20154 60060 32558 70209 10198 20165 40185 57011 875// 333 87620 95300;EQDQ01  00002PRCP99
0193600600999992000042018004+29370-010180FM-12+0066GMMF V0200401N006710060019N0080001N1+01841+01501101771ADDAA199000091GA1071+006009069GF107991071051008001999999KA1120M+02001MD1610081+9999REMSYN082AAXX  20184 60060 32558 70413 10184 20150 40177 56008 875// 333 10200 87620 95300;EQDQ01  00002PRCP99
0174600600999992000042021004+29370-010180FM-12+0066GMMF V0200401N004610060019N0070001N1+01761+01461101841ADDAA199000091GA1051+006009069GF105991051051008001001001MD1310071+9999REMSYN076AAXX  20214 60060 32557 50409 10176 20146 40184 53007 85500 333 85620 95300;EQDQ01  00002PRCP99
0175600600999992000042106004+29370-010180FM-12+0066GMMF V0202801N002110042019N0040001N1+01711+01571101731ADDAA199000091GF108991081061004501999999KA1120N+01621MW1101REMSYN088AAXX  21064 60060 31440 82804 10171 20157 40173 5//// 710// 886// 333 20162 30010 95300;EQDQ01  00002PRCP99
0202600600999992000042109004+29370-010180FM-12+0066GMMF V0202401N002110030019N0040001N1+01761+01581101791ADDAA199000091AY121031AY221031GA1081+003009079GF108991081061004501999999MD1210071+9999MW1101REMSYN082AAXX  21094 60060 31440 82404 10176 20158 40179 52007 71022 886// 333 88710 95300;EQDQ01  00002PRCP99
0202600600999992000042112004+29370-010180FM-12+0066GMMF V0202801N004110030019N0040001N1+01861+01451101881ADDAA199000091AY121061AY221061GA1071+003009079GF107991071061004501999999MD1210091+9999MW1101REMSYN082AAXX  21124 60060 31440 72808 10186 20145 40188 52009 71022 876// 333 87710 95300;EQDQ01  00002PRCP99
0194600600999992000042115004+29370-010180FM-12+0066GMMF V0203601N005710030019N0040001N1+01901+01441101811ADDAA199000091AY121031GA1081+003009079GF108991081061004501999999MD1810071+9999MW1101REMSYN082AAXX  21154 60060 31440 83611 10190 20144 40181 58007 7102/ 886// 333 88710 95310;EQDQ01  00002PRCP99
0193600600999992000042118004+29370-010180FM-12+0066GMMF V0200201N006212200019N0050001N1+01841+01431101791ADDAA199000091GA1021+003009079GF102991021061004501001001KA1120M+01991MD1510021+9999REMSYN082AAXX  21184 60060 32450 20212 10184 20143 40179 55002 82600 333 10199 82710 95300;EQDQ01  00002PRCP99
0152600600999992000042121004+29370-010180FM-12+0066GMMF V0200401N004612200019N0050001N1+01701+01441101841ADDAA199000091GA1001+999999999GF100991001001999999001001MD1210041+9999REMSYN054AAXX  21214 60060 32950 00409 10170 20144 40184 52004;EQDQ01  00002PRCP99
0197600600999992000042206004+29370-010180FM-12+0066GMMF V0200201N003610030019N0040001N1+01691+01471101941ADDAA199000091GA1061+003009079GF106991061061004501001001KA1120N+01581MW1101REMSYN094AAXX  22064 60060 31440 60207 10169 20147 40194 5//// 710// 86600 333 20158 30013 86710 95310;EQDQ01  00002PRCP99
0174600600999992000042209004+29370-010180FM-12+0066GMMF V0200401N004110048019N0050001N1+01831+01401102071ADDAA199000091GA1061+004809069GF106991061051004501001001MD1310141+9999REMSYN076AAXX  22094 60060 32450 60408 10183 20140 40207 53014 86500 333 86616 95300;EQDQ01  00002PRCP99
0174600600999992000042215004+29370-010180FM-12+0066GMMF V0200201N006212200019N0080001N1+02001+01671102071ADDAA199000091GA1021+004809069GF102991021051004501001001MD1710061+9999REMSYN076AAXX  22154 60060 32458 20212 10200 20167 40207 57006 82500 333 82616 95300;EQDQ01  00002PRCP99
0193600600999992000042218004+29370-010180FM-12+0066GMMF V0200201N006712200019N0080001N1+02021+01631102011ADDAA199000091GA1031+004809069GF103991031051004501001001KA1120M+02141MD1610031+9999REMSYN082AAXX  22184 60060 32458 30213 10202 20163 40201 56003 83500 333 10214 83616 95300;EQDQ01  00002PRCP99
0174600600999992000042221004+29370-010180FM-12+0066GMMF V0200201N007210048019N0080001N1+01881+01581102121ADDAA199000091GA1061+004809069GF106991061051004501001001MD1310111+9999REMSYN076AAXX  22214 60060 32458 60214 10188 20158 40212 53011 86500 333 86616 95300;EQDQ01  00002PRCP99
0185600600999992000042306004+29370-010180FM-12+0066GMMF V0200201N005110048019N0070001N1+01721+01451101891ADDAA199000091GA1071+004809069GF107991071051004501999999KA1120N+01621REMSYN088AAXX  23064 60060 32457 70210 10172 20145 40189 5/008 875// 333 20162 30020 87616 95300;EQDQ01  00002PRCP99
0174600600999992000042309004+29370-010180FM-12+0066GMMF V0200201N002110048019N0080001N1+01761+01491101881ADDAA199000091GA1071+004809069GF107991071051004501999999MD1710011+9999REMSYN076AAXX  23094 60060 32458 70204 10176 20149 40188 57001 875// 333 87616 95300;EQDQ01  00002PRCP99
0174600600999992000042312004+29370-010180FM-12+0066GMMF V0200401N002112200019N0060001N1+01891+01561101881ADDAA199000091GA1021+004809069GF103991021051004501001001MD1410001+9999REMSYN076AAXX  23124 60060 32456 30404 10189 20156 40188 54000 82500 333 82616 95300;EQDQ01  00002PRCP99
0152600600999992000042315004+29370-010180FM-12+0066GMMF V0200201N002112200019N0080001N1+01941+01501101721ADDAA199000091GA1001+999999999GF100991001001999999001001MD1810161+9999REMSYN054AAXX  23154 60060 32958 00204 10194 20150 40172 58016;EQDQ01  00002PRCP99
0175600600999992000042318004+29370-010180FM-12+0066GMMF V0200401N005112200019N0080001N1+01901+01481101641ADDAA199000091GA1001+999999999GF100991001001999999001001KA1999M+02011MD1610081+9999REMSYN064AAXX  23184 60060 32958 00410 10190 20148 40164 56008 333 10201;EQDQ01  00002PRCP99
0152600600999992000042321004+29370-010180FM-12+0066GMMF V0203401N002112200019N0070001N1+01781+01401101681ADDAA199000091GA1001+999999999GF100991001001999999001001MD1310041+9999REMSYN054AAXX  23214 60060 32957 03404 10178 20140 40168 53004;EQDQ01  00002PRCP99
0185600600999992000042406004+29370-010180FM-12+0066GMMF V0202201N004610048019N0060001N1+01661+01401101561ADDAA199000091GA1071+004809069GF107991071051004501999999KA1120N+01601REMSYN088AAXX  24064 60060 32456 72209 10166 20140 40156 5//// 875// 333 20160 30013 87616 95300;EQDQ01  00002PRCP99
0174600600999992000042409004+29370-010180FM-12+0066GMMF V0202401N004612200019N0080001N1+01751+01431101601ADDAA199000091GA1021+004809069GF102991021051004501001001MD1110051+9999REMSYN076AAXX  24094 60060 32458 22409 10175 20143 40160 51005 82500 333 82616 95300;EQDQ01  00002PRCP99
0174600600999992000042415004+29370-010180FM-12+0066GMMF V0203001N004110048019N0060001N1+01931+01551101531ADDAA199000091GA1051+004809069GF105991051051004501001001MD1810081+9999REMSYN076AAXX  24154 60060 32456 53008 10193 20155 40153 58008 85500 333 85616 95300;EQDQ01  00002PRCP99
0193600600999992000042418004+29370-010180FM-12+0066GMMF V0200201N006210048019N0050001N1+01801+01571101511ADDAA199000091GA1071+004809069GF107991071051004501999999KA1120M+02031MD1610021+9999REMSYN082AAXX  24184 60060 32450 70212 10180 20157 40151 56002 875// 333 10203 87616 95300;EQDQ01  00002PRCP99
0174600600999992000042421004+29370-010180FM-12+0066GMMF V0200401N004610048019N0050001N1+01741+01551101611ADDAA199000091GA1051+004809069GF105991051051004501001001MD1310091+9999REMSYN076AAXX  24214 60060 32450 50409 10174 20155 40161 53009 85500 333 85616 95300;EQDQ01  00002PRCP99
0185600600999992000042506004+29370-010180FM-12+0066GMMF V0200201N002110048019N0060001N1+01651+01481101451ADDAA199000091GA1071+004809069GF107991071051004501999999KA1120N+01621REMSYN088AAXX  25064 60060 32456 70204 10165 20148 40145 5//// 875// 333 20162 30014 87616 95300;EQDQ01  00002PRCP99
0174600600999992000042509004+29370-010180FM-12+0066GMMF V0203201N001510048019N0050001N1+01651+01481101491ADDAA199000091GA1081+004809069GF108991081051004501999999MD1310041+9999REMSYN076AAXX  25094 60060 32450 83203 10165 20148 40149 53004 885// 333 88616 95300;EQDQ01  00002PRCP99
0174600600999992000042512004+29370-010180FM-12+0066GMMF V0202801N002110048019N0050001N1+01821+01541101561ADDAA199000091GA1071+004809069GF107991071051004501999999MD1010081+9999REMSYN076AAXX  25124 60060 32450 72804 10182 20154 40156 50008 875// 333 87616 95300;EQDQ01  00002PRCP99
0174600600999992000042515004+29370-010180FM-12+0066GMMF V0200201N007210048019N0050001N1+01781+01511101521ADDAA199000091GA1081+004809069GF108991081051004501999999MD1710041+9999REMSYN076AAXX  25154 60060 32450 80214 10178 20151 40152 57004 885// 333 88616 95300;EQDQ01  00002PRCP99
0193600600999992000042518004+29370-010180FM-12+0066GMMF V0200201N007210048019N0060001N1+01791+01501101481ADDAA199000091GA1061+004809069GF106991061051004501001001KA1120M+01851MD1610041+9999REMSYN082AAXX  25184 60060 32456 60214 10179 20150 40148 56004 86500 333 10185 86616 95300;EQDQ01  00002PRCP99
0174600600999992000042521004+29370-010180FM-12+0066GMMF V0200201N006710048019N0060001N1+01721+01451101561ADDAA199000091GA1061+004809069GF106991061051004501001001MD1310071+9999REMSYN076AAXX  25214 60060 32456 60213 10172 20145 40156 53007 86500 333 86616 95300;EQDQ01  00002PRCP99
0185600600999992000042606004+29370-010180FM-12+0066GMMF V0200401N004110048019N0060001N1+01681+01481101491ADDAA199000091GA1061+004809069GF106991061051004501001001KA1120N+01551REMSYN088AAXX  26064 60060 32456 60408 10168 20148 40149 5/004 86500 333 20155 30035 86616 95300;EQDQ01  00002PRCP99
0174600600999992000042609004+29370-010180FM-12+0066GMMF V0200401N005110048019N0080001N1+01771+01481101561ADDAA199000091GA1051+004809069GF105991051051004501001001MD1310081+9999REMSYN076AAXX  26094 60060 32458 50410 10177 20148 40156 53008 85500 333 85616 95300;EQDQ01  00002PRCP99
0211600600999992000042612004+29370-010180FM-12+0066GMMF V0200401N007210048019N0070001N1+01821+01481101681ADDAA106000191AY161061AY221061GA1021+003909089GA2051+004809069GF106991061081004501001001MD1110121+9999MW1211REMSYN094AAXX  26124 60060 11457 60414 10182 20148 40168 51012 69921 72162 86800 333 82813 85616 95300;
0177600600999992000042615004+29370-010180FM-12+0066GMMF V0200201N006710048019N0100001N1+01891+01591101681ADDAA199000021GA1021+003909089GA2031+004809069GF105991051081004501001001MD1410001+9999REMSYN082AAXX  26154 60060 32460 50213 10189 20159 40168 54000 85800 333 82813 83616 95300;
0180600600999992000042618004+29370-010180FM-12+0066GMMF V0200201N008712200019N0100001N1+01801+01151101651ADDAA112000191GA1011+003909089GF102991021081004501001001KA1120M+01931MD1810031+9999REMSYN088AAXX  26184 60060 12460 20217 10180 20115 40165 58003 69922 82800 333 10193 81813 95300;
0155600600999992000042621004+29370-010180FM-12+0066GMMF V0200401N005712200019N0080001N1+01691+01141101771ADDAA199000021GA1021+004809069GF102991021051004501001001MD1310111+9999REMSYN076AAXX  26214 60060 32458 20411 10169 20114 40177 53011 82500 333 82616 95300;
0166600600999992000042706004+29370-010180FM-12+0066GMMF V0200201N006212200019N0100001N1+01541+01251101801ADDAA124000191GA1021+003909029GF104991041081004501001001KA1120N+01491REMSYN088AAXX  27064 60060 12460 40212 10154 20125 40180 5//// 69924 84800 333 20149 30010 82813;
0174600600999992000042709004+29370-010180FM-12+0066GMMF V0200201N008212200019N0120001N1+01701+01371101851ADDAA199000091GA1021+003909089GF103991031081004501001001MD1310041+9999REMSYN076AAXX  27094 60060 32462 30216 10170 20137 40185 53004 83800 333 82813 95300;EQDQ01  00002PRCP99
0174600600999992000042712004+29370-010180FM-12+0066GMMF V0200201N009312200019N0120001N1+01811+01261101891ADDAA199000091GA1011+003909089GF102991021081004501001001MD1010051+9999REMSYN076AAXX  27124 60060 32462 20218 10181 20126 40189 50005 82800 333 81813 95300;EQDQ01  00002PRCP99
0174600600999992000042715004+29370-010180FM-12+0066GMMF V0203601N006712200019N0120001N1+01901+01151101841ADDAA199000091GA1011+003909089GF103991031081004501001001MD1810051+9999REMSYN076AAXX  27154 60060 32462 33613 10190 20115 40184 58005 83800 333 81813 95300;EQDQ01  00002PRCP99
0193600600999992000042718004+29370-010180FM-12+0066GMMF V0203601N008212200019N0120001N1+01761+01101101811ADDAA199000091GA1021+003909089GF102991021021004501001001KA1120M+01951MD1610031+9999REMSYN082AAXX  27184 60060 32462 23616 10176 20110 40181 56003 82200 333 10195 82813 95300;EQDQ01  00002PRCP99
0174600600999992000042721004+29370-010180FM-12+0066GMMF V0203601N008212200019N0080001N1+01701+01151101881ADDAA199000091GA1031+003909089GF103991031021004501001001MD1310061+9999REMSYN076AAXX  27214 60060 32458 33616 10170 20115 40188 53006 83200 333 83813 95300;EQDQ01  00002PRCP99
0185600600999992000042806004+29370-010180FM-12+0066GMMF V0203601N007212200019N0100001N1+01471+01101101601ADDAA199000091GA1021+003909089GF102991021011004501001001KA1120N+01441REMSYN088AAXX  28064 60060 32460 23614 10147 20110 40160 5//// 82100 333 20144 30012 82813 95300;EQDQ01  00002PRCP99
0174600600999992000042809004+29370-010180FM-12+0066GMMF V0203601N006712200019N0120001N1+01651+01141101661ADDAA199000091GA1021+003909089GF102991021021004501001001MD1310061+9999REMSYN076AAXX  28094 60060 32462 23613 10165 20114 40166 53006 82200 333 82813 95300;EQDQ01  00002PRCP99
0174600600999992000042812004+29370-010180FM-12+0066GMMF V0203601N005112200019N0120001N1+01731+01211101641ADDAA199000091GA1021+003909089GF102991021021004501001001MD1810021+9999REMSYN076AAXX  28124 60060 32462 23610 10173 20121 40164 58002 82200 333 82813 95300;EQDQ01  00002PRCP99
0174600600999992000042815004+29370-010180FM-12+0066GMMF V0203601N006212200019N0120001N1+01871+01411101601ADDAA199000091GA1021+003909089GF102991021021004501001001MD1610031+9999REMSYN076AAXX  28154 60060 32462 23612 10187 20141 40160 56003 82200 333 82813 95300;EQDQ01  00002PRCP99
0193600600999992000042818004+29370-010180FM-12+0066GMMF V0203601N005112200019N0120001N1+01771+01331101571ADDAA199000091GA1011+003909089GF101991011021004501001001KA1120M+01921MD1610031+9999REMSYN082AAXX  28184 60060 32462 13610 10177 20133 40157 56003 81200 333 10192 81813 95300;EQDQ01  00002PRCP99
0196600600999992000042821004+29370-010180FM-12+0066GMMF V0200201N006710048019N0100001N1+01661+01381101611ADDAA199000091GA1021+003909089GA2061+004809069GF107991071081004501999999MD1310031+9999REMSYN082AAXX  28214 60060 32460 70213 10166 20138 40161 53003 878// 333 82813 86616 95300;EQDQ01  00002PRCP99
0185600600999992000042906004+29370-010180FM-12+0066GMMF V0203601N003110048019N0100001N1+01641+01401101331ADDAA199000091GA1071+004809069GF107991071051004501999999KA1120N+01521REMSYN088AAXX  29064 60060 32460 73606 10164 20140 40133 5/007 875// 333 20152 30028 87616 95300;EQDQ01  00002PRCP99
0174600600999992000042909004+29370-010180FM-12+0066GMMF V0203201N002610048019N0100001N1+01671+01411101411ADDAA199000091GA1071+004809069GF107991071051004501999999MD1210091+9999REMSYN076AAXX  29094 60060 32460 73205 10167 20141 40141 52009 875// 333 87616 95300;EQDQ01  00002PRCP99
0174600600999992000042912004+29370-010180FM-12+0066GMMF V0200201N003110048019N0100001N1+01751+01441101431ADDAA199000091GA1071+004809069GF107991071051004501999999MD1110021+9999REMSYN076AAXX  29124 60060 32460 70206 10175 20144 40143 51002 875// 333 87616 95300;EQDQ01  00002PRCP99
0174600600999992000042915004+29370-010180FM-12+0066GMMF V0203601N003110048019N0100001N1+01701+01351101321ADDAA199000091GA1071+004809069GF107991071051004501999999MD1310111+9999REMSYN076AAXX  29154 60060 32460 73606 10170 20135 40132 53011 875// 333 87616 87616;EQDQ01  00002PRCP99
0215600600999992000042918004+29370-010180FM-12+0066GMMF V0203601N002610600019N0100001N1+01691+01361101251ADDAA199000091GA1041+004809069GA2031+060009009GF106991041051004501001021KA1120M+01821MD1710071+9999REMSYN088AAXX  29184 60060 32460 63605 10169 20136 40125 57007 84502 333 10182 84616 83070 95300;EQDQ01  00002PRCP99
0174600600999992000042921004+29370-010180FM-12+0066GMMF V0203601N003112200019N0100001N1+01601+01301101251ADDAA199000091GA1031+004809069GF103991031051004501001001MD1410001+9999REMSYN076AAXX  29214 60060 32460 33606 10160 20130 40125 54000 83500 333 83616 95300;EQDQ01  00002PRCP99
0206600600999992000043006004+29370-010180FM-12+0066GMMF V0202401N003610060019N0100001N1+01611+01421101151ADDAA124000791GA1031+004809089GA2081+006009069GF108991081081004501999999KA1120N+01441MW1211REMSYN106AAXX  30064 60060 11460 82407 10161 20142 40115 5//// 69904 721// 888// 333 20144 30010 83816 88620 95300;
0194600600999992000043009004+29370-010180FM-12+0066GMMF V0203601N002610048019N0120001N1+01621+01461101251ADDAY161031AY221031GA1021+003909089GA2061+004809069GF106991061081004501001001MD1110101+9999MW1011REMSYN088AAXX  30094 60060 41462 63605 10162 20146 40125 51010 70162 86800 333 82813 86616 95300;
0189600600999992000043012004+29370-010180FM-12+0066GMMF V0203201N00261009001CN0120001N1+01821+01441101361ADDAA106002091AY161061AY221061GA1031+003909089GF107991071081004501999999MD1110111+9999MW1031REMSYN088AAXX  30124 60060 11462 73205 10182 20144 40136 51011 60021 70362 878// 333 83813 866//;
0155600600999992000043015004+29370-010180FM-12+0066GMMF V0203001N002112200019N0120001N1+01851+01601101371ADDAA199000021GA1041+004809089GF104991041021004501001001MD1010011+9999REMSYN076AAXX  30154 60060 32462 43004 10185 20160 40137 50001 84200 333 84816 95300;
0180600600999992000043018004+29370-010180FM-12+0066GMMF V0203001N002612200019N0120001N1+01861+01511101331ADDAA112002091GA1041+004809089GF104991041021004501001001KA1120M+01961MD1610041+9999REMSYN088AAXX  30184 60060 12462 43005 10186 20151 40133 56004 60022 84200 333 10196 84816 95300;
0168600600999992000043021004+29370-010180FM-12+0066GMMF V0203001N001512200019N0100001N1+01681+01471101401ADDAA199000091GA1021+003909029GF102991021021004501001001MD1310061+9999REMSYN070AAXX  30214 60060 32460 23003 10168 20147 40140 53006 82200 333 82813;EQDQ01  00002PRCP99
0166600600999992000050106004+29370-010180FM-12+0066GMMF V0203201N001510900019N0060001N1+01581+01441101301ADDAA124002091GA1011+003909089GF105991011021004501081011KA1120N+01541REMSYN088AAXX  01064 60060 12456 53203 10158 20144 40130 5//// 60024 81281 333 20154 81813 83358;
0174600600999992000050109004+29370-010180FM-12+0066GMMF V0203201N002612200019N0080001N1+01741+01571101361ADDAA199000091GA1021+003909089GF103991021021004501031001MD1310061+9999REMSYN076AAXX  01094 60060 32458 33205 10174 20157 40136 53006 82230 333 82813 95300;EQDQ01  00002PRCP99
0174600600999992000050112004+29370-010180FM-12+0066GMMF V0203201N002612200019N0100001N1+01881+01361101371ADDAA199000091GA1021+003909089GF103991021021004501031001MD1110021+9999REMSYN076AAXX  01124 60060 32460 33205 10188 20136 40137 51002 82230 333 82813 95300;EQDQ01  00002PRCP99
0174600600999992000050115004+29370-010180FM-12+0066GMMF V0203001N003612200019N0120001N1+01971+01521101211ADDAA199000091GA1031+003909089GF103991031021004501001001MD1810061+9999REMSYN076AAXX  01154 60060 32462 33007 10197 20152 40121 58006 83200 333 83813 95300;EQDQ01  00002PRCP99
0193600600999992000050118004+29370-010180FM-12+0066GMMF V0203001N004112200019N0120001N1+01951+01531101281ADDAA199000091GA1011+003909089GF101991011021004501001001KA1120M+02051MD1810031+9999REMSYN082AAXX  01184 60060 32462 13008 10195 20153 40128 58003 81200 333 10205 81813 95300;EQDQ01  00002PRCP99
0174600600999992000050121004+29370-010180FM-12+0066GMMF V0203601N003112200019N0100001N1+01791+01471101271ADDAA199000091GA1021+003909089GF102991021021004501001001MD1610011+9999REMSYN076AAXX  01214 60060 32460 23606 10179 20147 40127 56001 82200 333 82813 95300;EQDQ01  00002PRCP99
0179600600999992000050206004+29370-010180FM-12+0066GMMF V0201201N002612200019N0100001N1+01581+01281100981ADDAA199000091GA1021+006009069GF102991021051008001001001KA1120N+01451REMSYN082AAXX  02064 60060 32560 21205 10158 20128 40098 5/008 82500 333 20145 82620 95300;EQDQ01  00002PRCP99
0174600600999992000050209004+29370-010180FM-12+0066GMMF V0203201N001512200019N0120001N1+01771+01431101011ADDAA199000091GA1011+006009069GF101991011051008001001001MD1210021+9999REMSYN076AAXX  02094 60060 32562 13203 10177 20143 40101 52002 81500 333 81620 95300;EQDQ01  00002PRCP99
0174600600999992000050212004+29370-010180FM-12+0066GMMF V0203601N005112200019N0120001N1+01951+01571101061ADDAA199000091GA1011+003909089GF101991011021004501001001MD1310061+9999REMSYN076AAXX  02124 60060 32462 13610 10195 20157 40106 53006 81200 333 81813 95300;EQDQ01  00002PRCP99
0152600600999992000050215004+29370-010180FM-12+0066GMMF V0202601N005712200019N0120001N1+01981+01581100961ADDAA199000091GA1001+999999999GF100991001001999999001001MD1810101+9999REMSYN054AAXX  02154 60060 32962 02611 10198 20158 40096 58010;EQDQ01  00002PRCP99
0175600600999992000050218004+29370-010180FM-12+0066GMMF V0202601N005112200019N0120001N1+02001+01561100951ADDAA199000091GA1001+999999999GF100991001001999999001001KA1999M+02051MD1510011+9999REMSYN064AAXX  02184 60060 32962 02610 10200 20156 40095 55001 333 10205;EQDQ01  00002PRCP99
0152600600999992000050221004+29370-010180FM-12+0066GMMF V0202601N002112200019N0100001N1+01981+01281100981ADDAA199000091GA1001+999999999GF100991001001999999001001MD1310031+9999REMSYN054AAXX  02214 60060 32960 02604 10198 20128 40098 53003;EQDQ01  00002PRCP99
0188600600999992000050306004+29370-010180FM-12+0066GMMF V0202201N003610048019N0100001N1+01811+01631100911ADDAA124000191GA1031+003909089GA2031+004809069GF106991061081004501001001KA1120N+01741REMSYN094AAXX  03064 60060 12460 62207 10181 20163 40091 5//// 69924 86800 333 20174 83813 83616 95300;
0196600600999992000050309004+29370-010180FM-12+0066GMMF V0202201N005712200019N0120001N1+02141+01521101001ADDAA199000091GA1011+003909089GA2031+006009069GF103991031081004501001001MD1310101+9999REMSYN082AAXX  03094 60060 32462 32211 10214 20152 40100 53010 83800 333 81813 83620 95300;EQDQ01  00002PRCP99
0174600600999992000050312004+29370-010180FM-12+0066GMMF V0202201N004612200019N0120001N1+02201+01591101031ADDAA199000091GA1021+003909089GF104991041081004501001001MD1010031+9999REMSYN076AAXX  03124 60060 32462 42209 10220 20159 40103 50003 84800 333 82813 95300;EQDQ01  00002PRCP99
0152600600999992000050315004+29370-010180FM-12+0066GMMF V0202401N006212200019N0120001N1+02231+01521100991ADDAA199000091GA1001+999999999GF100991001001999999001001MD1710041+9999REMSYN054AAXX  03154 60060 32962 02412 10223 20152 40099 57004;EQDQ01  00002PRCP99
0175600600999992000050318004+29370-010180FM-12+0066GMMF V0202401N002612200019N0120001N1+02101+01481101031ADDAA199000091GA1001+999999999GF100991001001999999001001KA1999M+02381MD1310041+9999REMSYN064AAXX  03184 60060 32962 02405 10210 20148 40103 53004 333 10238;EQDQ01  00002PRCP99
0152600600999992000050321004+29370-010180FM-12+0066GMMF V0202401N002112200019N0080001N1+01931+01481101181ADDAA199000091GA1001+999999999GF100991001001999999001001MD1310151+9999REMSYN054AAXX  03214 60060 32958 02404 10193 20148 40118 53015;EQDQ01  00002PRCP99
0179600600999992000050406004+29370-010180FM-12+0066GMMF V0201801N003112200019N0100001N1+01761+01421101201ADDAA199000091GA1011+003909089GF101991011011004501001001KA1120N+01721REMSYN082AAXX  04064 60060 32460 11806 10176 20142 40120 5//// 81100 333 20172 81813 95300;EQDQ01  00002PRCP99
0196600600999992000050409004+29370-010180FM-12+0066GMMF V0202601N004112200019N0120001N1+02051+01561101311ADDAA199000091GA1011+003909089GA2031+004809069GF104991041081004501001001MD1310111+9999REMSYN082AAXX  04094 60060 32462 42608 10205 20156 40131 53011 84800 333 81813 83616 95300;EQDQ01  00002PRCP99
0174600600999992000050412004+29370-010180FM-12+0066GMMF V0202601N005112200019N0120001N1+02111+01771101391ADDAA199000091GA1011+003909089GF102991021081004501001001MD1110081+9999REMSYN076AAXX  04124 60060 32462 22610 10211 20177 40139 51008 82800 333 81813 95300;EQDQ01  00002PRCP99
0174600600999992000050415004+29370-010180FM-12+0066GMMF V0202601N004612200019N0120001N1+02201+01841101361ADDAA199000091GA1011+003909089GF102991021021004501001001MD1710021+9999REMSYN076AAXX  04154 60060 32462 22609 10220 20184 40136 57002 82200 333 81813 95300;EQDQ01  00002PRCP99
0193600600999992000050418004+29370-010180FM-12+0066GMMF V0202801N003112200019N0150001N1+02061+01731101321ADDAA199000091GA1011+006009069GF101991011051008001001001KA1120M+02251MD1710051+9999REMSYN082AAXX  04184 60060 32565 12806 10206 20173 40132 57005 81500 333 10225 81620 95300;EQDQ01  00002PRCP99
0174600600999992000050421004+29370-010180FM-12+0066GMMF V0200401N002612200019N0100001N1+01901+01601101331ADDAA199000091GA1011+006009069GF101991011051008001001001MD1310011+9999REMSYN076AAXX  04214 60060 32560 10405 10190 20160 40133 53001 81500 333 81620 95300;EQDQ01  00002PRCP99
0179600600999992000050506004+29370-010180FM-12+0066GMMF V0202001N001012200019N0100001N1+01681+01381101331ADDAA199000091GA1011+006009069GF101991011051008001001001KA1120N+01551REMSYN082AAXX  05064 60060 32560 12002 10168 20138 40133 5/006 81500 333 20155 81620 95300;EQDQ01  00002PRCP99
0174600600999992000050509004+29370-010180FM-12+0066GMMF V0202601N002112200019N0150001N1+01921+01551101361ADDAA199000091GA1011+006009069GF101991011051008001001001MD1210041+9999REMSYN076AAXX  05094 60060 32565 12604 10192 20155 40136 52004 81500 333 81620 95300;EQDQ01  00002PRCP99
0152600600999992000050515004+29370-010180FM-12+0066GMMF V0203201N003612200019N0120001N1+02061+01521101331ADDAA199000091GA1001+999999999GF100991001001999999001001MD1710041+9999REMSYN054AAXX  05154 60060 32962 03207 10206 20152 40133 57004;EQDQ01  00002PRCP99
0175600600999992000050518004+29370-010180FM-12+0066GMMF V0203401N002612200019N0120001N1+02001+01591101231ADDAA199000091GA1001+999999999GF100991001001999999001001KA1999M+02101MD1810091+9999REMSYN064AAXX  05184 60060 32962 03405 10200 20159 40123 58009 333 10210;EQDQ01  00002PRCP99
0152600600999992000050521004+29370-010180FM-12+0066GMMF V0203601N003112200019N0100001N1+01891+01571101291ADDAA199000091GA1001+999999999GF100991001001999999001001MD1310051+9999REMSYN054AAXX  05214 60060 32960 03606 10189 20157 40129 53005;EQDQ01  00002PRCP99
0179600600999992000050606004+29370-010180FM-12+0066GMMF V0201801N003112200019N0100001N1+01701+01461101271ADDAA199000091GA1011+003909089GF102991021081004501001001KA1120N+01641REMSYN082AAXX  06064 60060 32460 21806 10170 20146 40127 5//// 82800 333 20164 81813 95300;EQDQ01  00002PRCP99
0196600600999992000050609004+29370-010180FM-12+0066GMMF V0202401N002610048019N0100001N1+01861+01531101311ADDAA199000091GA1021+003909089GA2031+004809069GF105991051081004501001001MD1310041+9999REMSYN082AAXX  06094 60060 32460 52405 10186 20153 40131 53004 85800 333 82813 83616 95300;EQDQ01  00002PRCP99
0196600600999992000050612004+29370-010180FM-12+0066GMMF V0202601N005710048019N0100001N1+02091+01611101351ADDAA199000091GA1031+003909089GA2031+004809069GF106991061081004501001001MD1110041+9999REMSYN082AAXX  06124 60060 32460 62611 10209 20161 40135 51004 86800 333 83813 83616 95300;EQDQ01  00002PRCP99
0174600600999992000050615004+29370-010180FM-12+0066GMMF V0202801N003612200019N0120001N1+02101+01611101321ADDAA199000091GA1021+003909089GF102991021021004501001001MD1810031+9999REMSYN076AAXX  06154 60060 32462 22807 10210 20161 40132 58003 82200 333 82813 95300;EQDQ01  00002PRCP99
0193600600999992000050618004+29370-010180FM-12+0066GMMF V0203001N002612200019N0120001N1+02001+01461101271ADDAA199000091GA1041+003909089GF104991041021004501001001KA1120M+02141MD1610041+9999REMSYN082AAXX  06184 60060 32462 43005 10200 20146 40127 56004 84200 333 10214 84813 95300;EQDQ01  00002PRCP99
0174600600999992000050621004+29370-010180FM-12+0066GMMF V0203201N002612200019N0080001N1+01841+01451101331ADDAA199000091GA1041+003909089GF104991041021004501001001MD1310051+9999REMSYN076AAXX  06214 60060 32458 43205 10184 20145 40133 53005 84200 333 84813 95300;EQDQ01  00002PRCP99
0179600600999992000050706004+29370-010180FM-12+0066GMMF V0209999C000012200019N0100001N1+01681+01401101271ADDAA199000091GA1041+003909089GF104991041021004501001001KA1120N+01651REMSYN082AAXX  07064 60060 32460 40000 10168 20140 40127 5//// 84200 333 20165 84813 95300;EQDQ01  00002PRCP99
0174600600999992000050709004+29370-010180FM-12+0066GMMF V0203201N00211009001CN0100001N1+01811+01341101361ADDAA199000091GA1041+003909089GF106991061081004501001001MD1310091+9999REMSYN076AAXX  07094 60060 32460 63204 10181 20134 40136 53009 86800 333 84813 83616;EQDQ01  00002PRCP99
0174600600999992000050712004+29370-010180FM-12+0066GMMF V0203201N003612200019N0120001N1+01971+01401101431ADDAA199000091GA1031+003909089GF103991031021004501001001MD1110071+9999REMSYN076AAXX  07124 60060 32462 33207 10197 20140 40143 51007 83200 333 83813 95300;EQDQ01  00002PRCP99
0174600600999992000050715004+29370-010180FM-12+0066GMMF V0203201N004612200019N0120001N1+02081+01541101361ADDAA199000091GA1041+003909089GF104991041021004501001001MD1710071+9999REMSYN076AAXX  07154 60060 32462 43209 10208 20154 40136 57007 84200 333 84813 95300;EQDQ01  00002PRCP99
0193600600999992000050718004+29370-010180FM-12+0066GMMF V0203601N004612200019N0120001N1+01961+01521101361ADDAA199000091GA1031+003909089GF103991031021004501001001KA1120M+02121MD1410001+9999REMSYN082AAXX  07184 60060 32462 33609 10196 20152 40136 54000 83200 333 10212 83813 95300;EQDQ01  00002PRCP99
0174600600999992000050721004+29370-010180FM-12+0066GMMF V0200201N003112200019N0100001N1+01861+01561101361ADDAA199000091GA1021+003909089GF102991021021004501001001MD1410001+9999REMSYN076AAXX  07214 60060 32460 20206 10186 20156 40136 54000 82200 333 82813 95300;EQDQ01  00002PRCP99
0201600600999992000050806004+29370-010180FM-12+0066GMMF V0200201N003110060019N0100001N1+01801+01531101401ADDAA199000091GA1031+003909089GA2051+006009069GF107991071081004501999999KA1120N+01701REMSYN088AAXX  08064 60060 32460 70206 10180 20153 40140 5/001 878// 333 20170 83813 85620 95300;EQDQ01  00002PRCP99
0174600600999992000050809004+29370-010180FM-12+0066GMMF V0203601N005110039019N0120001N1+01871+01591101471ADDAA199000091GA1051+003909089GF105991051021004501001001MD1310071+9999REMSYN076AAXX  08094 60060 32462 53610 10187 20159 40147 53007 85200 333 85813 95300;EQDQ01  00002PRCP99
0174600600999992000050812004+29370-010180FM-12+0066GMMF V0203401N004112200019N0150001N1+02031+01621101591ADDAA199000091GA1031+003909089GF103991031021004501001001MD1210121+9999REMSYN076AAXX  08124 60060 32465 33408 10203 20162 40159 52012 83200 333 83813 95300;EQDQ01  00002PRCP99
0174600600999992000050815004+29370-010180FM-12+0066GMMF V0200201N004112200019N0150001N1+02001+01501101561ADDAA199000091GA1041+003909089GF104991041021004501001001MD1810031+9999REMSYN076AAXX  08154 60060 32465 40208 10200 20150 40156 58003 84200 333 84813 95300;EQDQ01  00002PRCP99
0193600600999992000050818004+29370-010180FM-12+0066GMMF V0203601N003112200019N0150001N1+01981+01621101571ADDAA199000091GA1041+003909089GF104991041021004501001001KA1120M+02101MD1310011+9999REMSYN082AAXX  08184 60060 32465 43606 10198 20162 40157 53001 84200 333 10210 84813 95300;EQDQ01  00002PRCP99
0174600600999992000050821004+29370-010180FM-12+0066GMMF V0203601N001512200019N0120001N1+01941+01591101641ADDAA199000091GA1041+003909089GF104991041021004501001001MD1310071+9999REMSYN076AAXX  08214 60060 32462 43603 10194 20159 40164 53007 84200 333 84813 95300;EQDQ01  00002PRCP99
0186600600999992000050906004+29370-010180FM-12+0066GMMF V0203601N003110039019N0100001N1+01661+01511101521ADDAA124000891AY161061GA1051+003909089GF105991051021004501001001KA1120N+01571MW1011REMSYN094AAXX  09064 60060 11460 53606 10166 20151 40152 5//// 69984 7016/ 85200 333 20157 85813 95300;
0174600600999992000050909004+29370-010180FM-12+0066GMMF V0203601N002112200019N0150001N1+01841+01611101571ADDAA199000091GA1041+003909089GF104991041021004501001001MD1310091+9999REMSYN076AAXX  09094 60060 32465 43604 10184 20161 40157 53009 84200 333 84813 95300;EQDQ01  00002PRCP99
0174600600999992000050912004+29370-010180FM-12+0066GMMF V0203601N005112200019N0150001N1+02011+01681101611ADDAA199000091GA1041+003909089GF104991041021004501001001MD1110041+9999REMSYN076AAXX  09124 60060 32465 43610 10201 20168 40161 51004 84200 333 84813 95300;EQDQ01  00002PRCP99
0174600600999992000050915004+29370-010180FM-12+0066GMMF V0203601N004612200019N0150001N1+02021+01591101551ADDAA199000091GA1031+003909089GF103991031021004501001001MD1710061+9999REMSYN076AAXX  09154 60060 32465 33609 10202 20159 40155 57006 83200 333 83813 95300;EQDQ01  00002PRCP99
0193600600999992000050918004+29370-010180FM-12+0066GMMF V0203601N005110039019N0150001N1+01961+01621101561ADDAA199000091GA1051+003909089GF105991051021004501001001KA1120M+02081MD1210011+9999REMSYN082AAXX  09184 60060 32465 53610 10196 20162 40156 52001 85200 333 10208 85813 95300;EQDQ01  00002PRCP99
0174600600999992000050921004+29370-010180FM-12+0066GMMF V0203601N004612200019N0120001N1+01801+01511101591ADDAA199000091GA1031+003909089GF103991031021004501001001MD1310031+9999REMSYN076AAXX  09214 60060 32462 33609 10180 20151 40159 53003 83200 333 83813 95300;EQDQ01  00002PRCP99
0179600600999992000051006004+29370-010180FM-12+0066GMMF V0200201N004110039019N0150001N1+01711+01521101491ADDAA199000091GA1051+003909089GF105991051021004501001001KA1120N+01661REMSYN082AAXX  10064 60060 32465 50208 10171 20152 40149 5//// 85200 333 20166 85813 95300;EQDQ01  00002PRCP99
0174600600999992000051009004+29370-010180FM-12+0066GMMF V0203601N005110039019N0150001N1+01851+01601101521ADDAA199000091GA1051+003909089GF105991051021004501001001MD1310041+9999REMSYN076AAXX  10094 60060 32465 53610 10185 20160 40152 53004 85200 333 85813 95300;EQDQ01  00002PRCP99
0174600600999992000051012004+29370-010180FM-12+0066GMMF V0203601N005112200019N0150001N1+02001+01561101521ADDAA199000091GA1031+003909089GF103991031021004501001001MD1010001+9999REMSYN076AAXX  10124 60060 32465 33610 10200 20156 40152 50000 83200 333 83813 95300;EQDQ01  00002PRCP99
0174600600999992000051015004+29370-010180FM-12+0066GMMF V0200201N004612200019N0150001N1+02061+01631101491ADDAA199000091GA1021+003909089GF102991021021004501001001MD1710031+9999REMSYN076AAXX  10154 60060 32465 20209 10206 20163 40149 57003 82200 333 82813 95300;EQDQ01  00002PRCP99
0193600600999992000051018004+29370-010180FM-12+0066GMMF V0203601N006212200019N0150001N1+01971+01661101451ADDAA199000091GA1041+003909089GF104991041021004501001001KA1120M+02081MD1710041+9999REMSYN082AAXX  10184 60060 32465 43612 10197 20166 40145 57004 84200 333 10208 84813 95300;EQDQ01  00002PRCP99
0174600600999992000051021004+29370-010180FM-12+0066GMMF V0203601N005112200019N0120001N1+01831+01561101561ADDAA199000091GA1041+003909089GF104991041021004501001001MD1310111+9999REMSYN076AAXX  10214 60060 32462 43610 10183 20156 40156 53011 84200 333 84813 95300;EQDQ01  00002PRCP99
0179600600999992000051106004+29370-010180FM-12+0066GMMF V0203601N003610048019N0080001N1+01781+01561101411ADDAA199000091GA1081+004809069GF108991081051004501999999KA1120N+01751REMSYN082AAXX  11064 60060 32458 83607 10178 20156 40141 5//// 885// 333 20175 88616 95300;EQDQ01  00002PRCP99
0174600600999992000051109004+29370-010180FM-12+0066GMMF V0203001N004110048019N0120001N1+01851+01371101481ADDAA199000091GA1071+004809069GF107991071051004501999999MD1210071+9999REMSYN076AAXX  11094 60060 32462 73008 10185 20137 40148 52007 875// 333 87616 95300;EQDQ01  00002PRCP99
0174600600999992000051112004+29370-010180FM-12+0066GMMF V0202801N003610048019N0100001N1+01971+01361101471ADDAA199000091GA1061+004809069GF106991061051004501001001MD1810011+9999REMSYN076AAXX  11124 60060 32460 62807 10197 20136 40147 58001 86500 333 86616 95300;EQDQ01  00002PRCP99
0174600600999992000051115004+29370-010180FM-12+0066GMMF V0202801N003612200019N0100001N1+02051+01561101391ADDAA199000091GA1041+004809069GF104991041051004501001001MD1610081+9999REMSYN076AAXX  11154 60060 32460 42807 10205 20156 40139 56008 84500 333 84616 95300;EQDQ01  00002PRCP99
0193600600999992000051118004+29370-010180FM-12+0066GMMF V0200201N003110048019N0100001N1+01921+01681101321ADDAA199000091GA1071+004809069GF107991071051004501999999KA1120M+02101MD1810071+9999REMSYN082AAXX  11184 60060 32460 70206 10192 20168 40132 58007 875// 333 10210 87616 95300;EQDQ01  00002PRCP99
0174600600999992000051121004+29370-010180FM-12+0066GMMF V0203601N004110048019N0100001N1+01861+01661101411ADDAA199000091GA1051+004809069GF105991051051004501001001MD1210091+9999REMSYN076AAXX  11214 60060 32460 53608 10186 20166 40141 52009 85500 333 85616 95300;EQDQ01  00002PRCP99
0201600600999992000051206004+29370-010180FM-12+0066GMMF V0203601N002610048019N0100001N1+01811+01681101431ADDAA199000091GA1021+003909089GA2061+004809069GF108991081081004501999999KA1120N+01731REMSYN088AAXX  12064 60060 32460 83605 10181 20168 40143 5//// 888// 333 20173 82813 86616 95300;EQDQ01  00002PRCP99
0196600600999992000051209004+29370-010180FM-12+0066GMMF V0203601N003610048019N0100001N1+01901+01741101521ADDAA199000091GA1021+003909089GA2051+004809069GF106991061081004501001001MD1310091+9999REMSYN082AAXX  12094 60060 32460 63607 10190 20174 40152 53009 86800 333 82813 85616 95300;EQDQ01  00002PRCP99
0174600600999992000051212004+29370-010180FM-12+0066GMMF V0203401N004612200019N0100001N1+02051+01801101531ADDAA199000091GA1011+003909089GF103991031081004501001001MD1110011+9999REMSYN076AAXX  12124 60060 32460 33409 10205 20180 40153 51001 83800 333 81813 95300;EQDQ01  00002PRCP99
0196600600999992000051215004+29370-010180FM-12+0066GMMF V0203401N003610048019N0080001N1+02121+01721101481ADDAA199000091GA1021+003909089GA2061+004809069GF107991071081004501999999MD1710051+9999REMSYN082AAXX  12154 60060 32458 73407 10212 20172 40148 57005 878// 333 82813 86616 95300;EQDQ01  00002PRCP99
0215600600999992000051218004+29370-010180FM-12+0066GMMF V0203601N005110048019N0060001N1+01961+01671101511ADDAA199000091GA1021+003909089GA2051+004809069GF106991061081004501001001KA1120M+02161MD1310031+9999REMSYN088AAXX  12184 60060 32456 63610 10196 20167 40151 53003 86800 333 10216 82813 85616 95300;EQDQ01  00002PRCP99
0196600600999992000051221004+29370-010180FM-12+0066GMMF V0200401N005110048019N0060001N1+01861+01631101611ADDAA199000091GA1031+003909089GA2031+004809069GF105991051081004501001001MD1310101+9999REMSYN082AAXX  12214 60060 32456 50410 10186 20163 40161 53010 85800 333 83813 83616 95300;EQDQ01  00002PRCP99
0179600600999992000051306004+29370-010180FM-12+0066GMMF V0203601N002610048019N0080001N1+01841+01641101491ADDAA199000091GA1081+004809069GF108991081051004501999999KA1120N+01721REMSYN082AAXX  13064 60060 32458 83605 10184 20164 40149 5//// 885// 333 20172 88616 95300;EQDQ01  00002PRCP99
0174600600999992000051309004+29370-010180FM-12+0066GMMF V0203601N002610048019N0080001N1+01871+01601101511ADDAA199000091GA1061+004809069GF106991061051004501001001MD1310021+9999REMSYN076AAXX  13094 60060 32458 63605 10187 20160 40151 53002 86500 333 86616 95300;EQDQ01  00002PRCP99
0174600600999992000051312004+29370-010180FM-12+0066GMMF V0203001N004112200019N0080001N1+02001+01561101511ADDAA199000091GA1031+004809069GF103991031051004501001001MD1010001+9999REMSYN076AAXX  13124 60060 32458 33008 10200 20156 40151 50000 83500 333 83616 95300;EQDQ01  00002PRCP99
0174600600999992000051315004+29370-010180FM-12+0066GMMF V0203401N003610048019N0080001N1+02021+01581101441ADDAA199000091GA1061+004809069GF106991061051004501001001MD1610071+9999REMSYN076AAXX  13154 60060 32458 63407 10202 20158 40144 56007 86500 333 86616 95300;EQDQ01  00002PRCP99
0193600600999992000051318004+29370-010180FM-12+0066GMMF V0203601N005110048019N0080001N1+01961+01731101431ADDAA199000091GA1061+004809069GF106991061051004501001001KA1120M+02071MD1510011+9999REMSYN082AAXX  13184 60060 32458 63610 10196 20173 40143 55001 86500 333 10207 86616 95300;EQDQ01  00002PRCP99
0174600600999992000051321004+29370-010180FM-12+0066GMMF V0203601N003612200019N0080001N1+01881+01671101551ADDAA199000091GA1031+004809069GF103991031051004501001001MD1310121+9999REMSYN076AAXX  13214 60060 32458 33607 10188 20167 40155 53012 83500 333 83616 95300;EQDQ01  00002PRCP99
0179600600999992000051406004+29370-010180FM-12+0066GMMF V0202401N003110048019N0060001N1+01841+01711101371ADDAA199000091GA1081+004809069GF108991081051004501999999KA1120N+01801REMSYN082AAXX  14064 60060 32456 82406 10184 20171 40137 5//// 885// 333 20180 88616 95300;EQDQ01  00002PRCP99
0174600600999992000051409004+29370-010180FM-12+0066GMMF V0202201N003610048019N0060001N1+01911+01731101401ADDAA199000091GA1081+004809069GF108991081051004501999999MD1310031+9999REMSYN076AAXX  14094 60060 32456 82207 10191 20173 40140 53003 885// 333 88616 95300;EQDQ01  00002PRCP99
0174600600999992000051412004+29370-010180FM-12+0066GMMF V0202801N004110048019N0070001N1+02111+01631101371ADDAA199000091GA1051+004809069GF105991051051004501001001MD1810031+9999REMSYN076AAXX  14124 60060 32457 52808 10211 20163 40137 58003 85500 333 85616 95300;EQDQ01  00002PRCP99
0174600600999992000051415004+29370-010180FM-12+0066GMMF V0203601N005710048019N0060001N1+01961+01461101361ADDAA199000091GA1081+004809069GF108991081051004501999999MD1810011+9999REMSYN076AAXX  14154 60060 32456 83611 10196 20146 40136 58001 885// 333 88616 95300;EQDQ01  00002PRCP99
0193600600999992000051418004+29370-010180FM-12+0066GMMF V0200201N005110048019N0060001N1+01931+01671101331ADDAA199000091GA1071+004809069GF107991071051004501999999KA1120M+02151MD1610031+9999REMSYN082AAXX  14184 60060 32456 70210 10193 20167 40133 56003 875// 333 10215 87616 95300;EQDQ01  00002PRCP99
0174600600999992000051421004+29370-010180FM-12+0066GMMF V0203601N005110048019N0060001N1+01901+01691101431ADDAA199000091GA1071+004809069GF107991071051004501999999MD1310131+9999REMSYN076AAXX  14214 60060 32456 73610 10190 20169 40143 53013 875// 333 87616 95300;EQDQ01  00002PRCP99
0201600600999992000051506004+29370-010180FM-12+0066GMMF V0202201N002110048019N0050001N1+01821+01721101291ADDAA199000091GA1021+003009079GA2081+004809069GF108991081051004501999999KA1120N+01771REMSYN088AAXX  15064 60060 32450 82204 10182 20172 40129 5//// 885// 333 20177 82710 88616 95300;EQDQ01  00002PRCP99
0186600600999992000051509004+29370-010180FM-12+0066GMMF V0203201N002110048019N0035001N1+01811+01751101371ADDAY151031GA1041+002409079GA2061+004809069GF108991081051002501999999MD1110081+9999MW1511REMSYN088AAXX  15094 60060 41335 83204 10181 20175 40137 51008 7515/ 885// 333 84708 86616 95310;
0211600600999992000051512004+29370-010180FM-12+0066GMMF V0203201N002110048019N0035001N1+01921+01731101401ADDAA106000391AY151061AY251061GA1021+003009079GA2081+004809069GF108991081051004501999999MD1010031+9999MW1101REMSYN094AAXX  15124 60060 11435 83204 10192 20173 40140 50003 69931 71055 885// 333 82710 88616 95300;
0189600600999992000051515004+29370-010180FM-12+0066GMMF V0203401N002610048019N0040001N1+02011+01761101331ADDAA199000021GA1011+003009079GA2081+004809069GF108991081051004501999999MD1810071+9999MW1101REMSYN088AAXX  15154 60060 32440 83405 10201 20176 40133 58007 710// 885// 333 81710 88616 95300;
0230600600999992000051518004+29370-010180FM-12+0066GMMF V0203601N004610048019N0040001N1+01951+01601101311ADDAA112000391AY121061AY221061GA1021+003009079GA2081+004809069GF108991081051004501999999KA1120M+02061MD1810021+9999MW1101REMSYN100AAXX  15184 60060 11440 83609 10195 20160 40131 58002 69932 71022 885// 333 10206 82710 88616 95300;
0205600600999992000051521004+29370-010180FM-12+0066GMMF V0203601N006710048019N0040001N1+01891+01591101391ADDAA199000021AY121031AY221031GA1021+003009079GA2081+004809069GF108991081051004501999999MD1310081+9999MW1101REMSYN088AAXX  15214 60060 31440 83613 10189 20159 40139 53008 71022 885// 333 82710 88616 95300;
0200600600999992000051606004+29370-010180FM-12+0066GMMF V0203601N003610048019N0035001N1+01841+01641101391ADDAA124000391GA1031+003009079GA2081+004809069GF108991081051004501999999KA1120N+01781MW1101REMSYN100AAXX  16064 60060 11435 83607 10184 20164 40139 5//// 69934 710// 885// 333 20178 83710 88616 95300;
0224600600999992000051609004+29370-010180FM-12+0066GMMF V0203601N004610048019N0040001N1+01871+01651101481ADDAA199000091AY121031AY221031GA1021+003009079GA2081+004809069GF108991081051004501999999MD1310091+9999MW1101REMSYN088AAXX  16094 60060 31440 83609 10187 20165 40148 53009 71022 885// 333 82710 88616 95300;EQDQ01  00002PRCP99
0202600600999992000051612004+29370-010180FM-12+0066GMMF V0203201N002110048019N0040001N1+02031+01591101511ADDAA199000091AY121061AY221061GA1081+004809069GF108991081051004501999999MD1010031+9999MW1101REMSYN082AAXX  16124 60060 31440 83204 10203 20159 40151 50003 71022 885// 333 88616 95300;EQDQ01  00002PRCP99
0202600600999992000051615004+29370-010180FM-12+0066GMMF V0203601N004110048019N0035001N1+02021+01711101511ADDAA199000091AY121031AY221031GA1081+004809069GF108991081051004501999999MD1010001+9999MW1101REMSYN082AAXX  16154 60060 31435 83608 10202 20171 40151 50000 71022 885// 333 88616 95300;EQDQ01  00002PRCP99
0221600600999992000051618004+29370-010180FM-12+0066GMMF V0203601N007210048019N0040001N1+01951+01661101521ADDAA199000091AY121061AY221061GA1081+004809069GF108991081051004501999999KA1120M+02081MD1110011+9999MW1101REMSYN088AAXX  16184 60060 31440 83614 10195 20166 40152 51001 71022 885// 333 10208 88616 95300;EQDQ01  00002PRCP99
0188600600999992000051621004+29370-010180FM-12+0066GMMF V0200201N007710048019N0040001N1+01871+01591101561ADDAA199000091AY121031GA1081+004809059GF108991081051004501999999MD1310041+9999MW1101REMSYN076AAXX  16214 60060 31440 80215 10187 20159 40156 53004 7102/ 885// 333 88616;EQDQ01  00002PRCP99
0200600600999992000051706004+29370-010180FM-12+0066GMMF V0200201N004110048019N0040001N1+01741+01591101521ADDAA124000791GA1031+003009079GA2081+004809069GF108991081051004501999999KA1120N+01711MW1501REMSYN100AAXX  17064 60060 11440 80208 10174 20159 40152 5//// 69904 750// 885// 333 20171 83710 88616 95300;
0186600600999992000051709004+29370-010180FM-12+0066GMMF V0200401N004110048019N0040001N1+01841+01521101591ADDAY151031GA1011+003009079GA2081+004809069GF108991081051004501999999MD1310081+9999MW1101REMSYN088AAXX  17094 60060 41440 80408 10184 20152 40159 53008 7105/ 885// 333 81710 88616 95300;
0189600600999992000051712004+29370-010180FM-12+0066GMMF V0200201N004110048019N0040001N1+01991+01371101571ADDAA106000791AY151061AY221061GA1081+004809069GF108991081051004501999999MD1610021+9999MW1101REMSYN088AAXX  17124 60060 11440 80208 10199 20137 40157 56002 69901 71052 885// 333 88616 95300;
0183600600999992000051715004+29370-010180FM-12+0066GMMF V0203601N003610048019N0040001N1+01961+01561101491ADDAA199000021AY121031AY221031GA1081+004809069GF108991081051004501999999MD1810081+9999MW1101REMSYN082AAXX  17154 60060 31440 83607 10196 20156 40149 58008 71022 885// 333 88616 95300;
0202600600999992000051718004+29370-010180FM-12+0066GMMF V0200201N005710048019N0040001N1+01941+01521101481ADDAA199000021AY121061AY221061GA1081+004809069GF108991081051004501999999KA1120M+02011MD1610011+9999MW1101REMSYN088AAXX  17184 60060 31440 80211 10194 20152 40148 56001 71022 885// 333 10201 88616 95300;
0202600600999992000051721004+29370-010180FM-12+0066GMMF V0200201N005110048019N0040001N1+01871+01471101571ADDAA199000091AY121031AY221031GA1081+004809069GF108991081051004501999999MD1310091+9999MW1101REMSYN082AAXX  17214 60060 31440 80210 10187 20147 40157 53009 71022 885// 333 88616 95300;EQDQ01  00002PRCP99
0200600600999992000051806004+29370-010180FM-12+0066GMMF V0202801N002110048019N0030001N1+01731+01611101541ADDAA124000191GA1041+002409079GA2081+004809069GF108991081051004501999999KA1120N+01661MW1501REMSYN100AAXX  18064 60060 11430 82804 10173 20161 40154 5//// 69924 750// 885// 333 20166 84708 88616 95300;
0194600600999992000051809004+29370-010180FM-12+0066GMMF V0200401N002610048019N0040001N1+01851+01601101551ADDAY151031AY221031GA1011+003009079GA2081+004809069GF108991081051004501999999MD1210021+9999MW1101REMSYN088AAXX  18094 60060 41440 80405 10185 20160 40155 52002 71052 885// 333 81710 88616 95300;
0189600600999992000051812004+29370-010180FM-12+0066GMMF V0203401N001510048019N0040001N1+01891+01571101531ADDAA106000191AY151061AY221061GA1081+004809069GF108991081051004501999999MD1710021+9999MW1101REMSYN088AAXX  18124 60060 11440 83403 10189 20157 40153 57002 69921 71052 885// 333 88616 95300;
0180600600999992000051818004+29370-010180FM-12+0066GMMF V0203601N005112200019N9999999N1+02131+01761101391ADDAA112000191GA1041+004809069GF104991041051004501001001KA1120M+02201MD1610041+9999REMSYN088AAXX  18184 60060 32455 43610 10213 20176 40139 56004 69922 84500 333 10220 84616 95300;
0174600600999992000051821004+29370-010180FM-12+0066GMMF V0200201N004610048019N0060001N1+01951+01711101391ADDAA199000091GA1071+004809069GF107991071051004501999999MD1410001+9999REMSYN076AAXX  18214 60060 32456 70209 10195 20171 40139 54000 875// 333 87616 95300;EQDQ01  00002PRCP99
0166600600999992000051906004+29370-010180FM-12+0066GMMF V0200401N002610048019N0060001N1+01861+01641101361ADDAA124000191GA1071+004809069GF107991071051004501999999KA1120N+01711REMSYN088AAXX  19064 60060 12456 70405 10186 20164 40136 5/002 69924 875// 333 20171 87616 95300;
0196600600999992000051909004+29370-010180FM-12+0066GMMF V0200201N002610300019N0060001N1+01961+01701101431ADDAA199000091GA1041+004809069GA2061+030009039GF107991041051004501031999MD1310071+9999REMSYN082AAXX  19094 60060 32456 70205 10196 20170 40143 53007 8453/ 333 84616 86360 95300;EQDQ01  00002PRCP99
0212600600999992000051912004+29370-010180FM-12+0066GMMF V0200201N00361004201CN0060001N1+02041+01711101431ADDAA199000091GA1041+003009079GA2091+004809069GF108991091051004501999999MD1410001+9999REMSYN082AAXX  19124 60060 32456 80207 10204 20171 40143 54000 885// 333 84710 89616 95300;EQDQ01+000082SCOTLCQ02  00002PRCP99
0196600600999992000051915004+29370-010180FM-12+0066GMMF V0203201N002610600019N0060001N1+02081+01601101361ADDAA199000091GA1031+004809069GA2031+060009009GF106991031051004501031021MD1710071+9999REMSYN082AAXX  19154 60060 32456 63205 10208 20160 40136 57007 83532 333 83616 83070 95300;EQDQ01  00002PRCP99
0215600600999992000051918004+29370-010180FM-12+0066GMMF V0203601N00311090001CN0060001N1+02001+01611101321ADDAA199000091GA1011+004809069GA2041+024009039GF105991011051004501031021KA1120M+02141MD1510041+9999REMSYN088AAXX  19184 60060 32456 53606 10200 20161 40132 55004 81532 333 10214 81616 84358 95300;EQDQ01  00002PRCP99
0174600600999992000051921004+29370-010180FM-12+0066GMMF V0203601N004110048019N0060001N1+01911+01651101401ADDAA199000091GA1071+004809069GF107991071051004501999999MD1310081+9999REMSYN076AAXX  19214 60060 32456 73608 10191 20165 40140 53008 875// 333 87616 95300;EQDQ01  00002PRCP99
0179600600999992000052006004+29370-010180FM-12+0066GMMF V0200201N003110048019N0060001N1+01811+01471101281ADDAA199000091GA1081+004809069GF108991081051004501999999KA1120N+01761REMSYN082AAXX  20064 60060 32456 80206 10181 20147 40128 5//// 885// 333 20176 88616 95300;EQDQ01  00002PRCP99
0196600600999992000052009004+29370-010180FM-12+0066GMMF V0200201N004110240019N0060001N1+01881+01471101371ADDAA199000091GA1031+004809069GA2051+024009039GF106991031051004501031001MD1210091+9999REMSYN082AAXX  20094 60060 32456 60208 10188 20147 40137 52009 83530 333 83616 85358 95300;EQDQ01  00002PRCP99
0196600600999992000052012004+29370-010180FM-12+0066GMMF V0203601N006212200019N0060001N1+02021+01481101331ADDAA199000091GA1021+024009039GA2041+051009009GF104991021001004501031021MD1510041+9999REMSYN082AAXX  20124 60060 32456 43612 10202 20148 40133 55004 82032 333 82358 84067 95300;EQDQ01  00002PRCP99
0196600600999992000052015004+29370-010180FM-12+0066GMMF V0203201N003610510019N0080001N1+02021+01361101321ADDAA199000091GA1011+004809069GA2051+051009009GF105991011051004501001021MD1810011+9999REMSYN082AAXX  20154 60060 32458 53207 10202 20136 40132 58001 81502 333 81616 85067 95300;EQDQ01  00002PRCP99
0215600600999992000052018004+29370-010180FM-12+0066GMMF V0203401N003110510019N0100001N1+02011+01511101281ADDAA199000091GA1021+004809069GA2041+051009009GF105991021051004501001021KA1120M+02061MD1610041+9999REMSYN088AAXX  20184 60060 32460 53406 10201 20151 40128 56004 82502 333 10206 82616 84067 95300;EQDQ01  00002PRCP99
0174600600999992000052021004+29370-010180FM-12+0066GMMF V0203601N002612200019N0080001N1+01851+01421101351ADDAA199000091GA1011+004809069GF101991011051004501001001MD1310071+9999REMSYN076AAXX  20214 60060 32458 13605 10185 20142 40135 53007 81500 333 81616 95300;EQDQ01  00002PRCP99
0179600600999992000052106004+29370-010180FM-12+0066GMMF V0201801N001012200019N0100001N1+01661+01191101311ADDAA199000091GA1021+004809069GF102991021051004501001001KA1120N+01631REMSYN082AAXX  21064 60060 32460 21802 10166 20119 40131 5//// 82500 333 20163 82616 95300;EQDQ01  00002PRCP99
0168600600999992000052109004+29370-010180FM-12+0066GMMF V0203601N003112200019N0100001N1+01951+01231101311ADDAA199000091GA1011+004809059GF101991011051004501001001MD1010001+9999REMSYN070AAXX  21094 60060 32460 13606 10195 20123 40131 50000 81500 333 81616;EQDQ01  00002PRCP99
0174600600999992000052112004+29370-010180FM-12+0066GMMF V0203001N003112200019N0120001N1+02121+01481101411ADDAA199000091GA1011+004809069GF101991011051004501001001MD1210101+9999REMSYN076AAXX  21124 60060 32462 13006 10212 20148 40141 52010 81500 333 81616 95300;EQDQ01  00002PRCP99
0174600600999992000052115004+29370-010180FM-12+0066GMMF V0203201N004112200019N0150001N1+02181+01551101391ADDAA199000091GA1021+004809069GF102991021051004501001001MD1610011+9999REMSYN076AAXX  21154 60060 32465 23208 10218 20155 40139 56001 82500 333 82616 95300;EQDQ01  00002PRCP99
0193600600999992000052118004+29370-010180FM-12+0066GMMF V0203401N003612200019N0150001N1+02141+01541101401ADDAA199000091GA1021+004809069GF102991021051004501001001KA1120M+02261MD1410001+9999REMSYN082AAXX  21184 60060 32465 23407 10214 20154 40140 54000 82500 333 10226 82616 95300;EQDQ01  00002PRCP99
0174600600999992000052121004+29370-010180FM-12+0066GMMF V0200201N003110048019N0100001N1+01951+01581101451ADDAA199000091GA1051+004809069GF105991051051004501001001MD1310051+9999REMSYN076AAXX  21214 60060 32460 50206 10195 20158 40145 53005 85500 333 85616 95300;EQDQ01  00002PRCP99
0179600600999992000052206004+29370-010180FM-12+0066GMMF V0200401N003112200019N0100001N1+01701+01401101491ADDAA199000091GA1021+004809069GF102991021051004501001001KA1120N+01641REMSYN082AAXX  22064 60060 32460 20406 10170 20140 40149 5/003 82500 333 20164 82616 95300;EQDQ01  00002PRCP99
0174600600999992000052209004+29370-010180FM-12+0066GMMF V0200201N003112200019N0120001N1+01961+01521101571ADDAA199000091GA1011+006009069GF101991011051004501001001MD1210091+9999REMSYN076AAXX  22094 60060 32462 10206 10196 20152 40157 52009 81500 333 81620 95300;EQDQ01  00002PRCP99
0174600600999992000052212004+29370-010180FM-12+0066GMMF V0203401N005112200019N0150001N1+02081+01591101591ADDAA199000091GA1011+004809069GF101991011051004501001001MD1110021+9999REMSYN076AAXX  22124 60060 32465 13410 10208 20159 40159 51002 81500 333 81616 95300;EQDQ01  00002PRCP99
0174600600999992000052215004+29370-010180FM-12+0066GMMF V0203201N004612200019N0150001N1+02071+01481101611ADDAA199000091GA1011+004809069GF101991011051004501001001MD1010021+9999REMSYN076AAXX  22154 60060 32465 13209 10207 20148 40161 50002 81500 333 81616 95300;EQDQ01  00002PRCP99
0193600600999992000052218004+29370-010180FM-12+0066GMMF V0203601N005712200019N0150001N1+02051+01461101561ADDAA199000091GA1011+004809069GF101991011051004501001001KA1120M+02151MD1610051+9999REMSYN082AAXX  22184 60060 32465 13611 10205 20146 40156 56005 81500 333 10215 81616 95300;EQDQ01  00002PRCP99
0174600600999992000052221004+29370-010180FM-12+0066GMMF V0200201N004612200019N0100001N1+01891+01431101691ADDAA199000091GA1011+004809069GF101991011051004501001001MD1310131+9999REMSYN076AAXX  22214 60060 32460 10209 10189 20143 40169 53013 81500 333 81616 95300;EQDQ01  00002PRCP99
0179600600999992000052306004+29370-010180FM-12+0066GMMF V0200801N002612200019N0100001N1+01701+01491101821ADDAA199000091GA1011+004809069GF101991011051004501001001KA1120N+01671REMSYN082AAXX  23064 60060 32460 10805 10170 20149 40182 5//// 81500 333 20167 81616 95300;EQDQ01  00002PRCP99
0174600600999992000052309004+29370-010180FM-12+0066GMMF V0203601N002612200019N0100001N1+01951+01421101931ADDAA199000091GA1011+004809069GF101991011051004501001001MD1110121+9999REMSYN076AAXX  23094 60060 32460 13605 10195 20142 40193 51012 81500 333 81616 95300;EQDQ01  00002PRCP99
0174600600999992000052312004+29370-010180FM-12+0066GMMF V0203401N005112200019N0120001N1+02161+01571102001ADDAA199000091GA1011+004809069GF101991011051004501001001MD1110081+9999REMSYN076AAXX  23124 60060 32462 13410 10216 20157 40200 51008 81500 333 81616 95300;EQDQ01  00002PRCP99
0174600600999992000052315004+29370-010180FM-12+0066GMMF V0203201N004112200019N0150001N1+02111+01531101971ADDAA199000091GA1021+004809069GF102991021051004501001001MD1810041+9999REMSYN076AAXX  23154 60060 32465 23208 10211 20153 40197 58004 82500 333 82616 95300;EQDQ01  00002PRCP99
0193600600999992000052318004+29370-010180FM-12+0066GMMF V0203601N004112200019N0150001N1+02081+01451101931ADDAA199000091GA1021+004809069GF102991021051004501001001KA1120M+02211MD1710041+9999REMSYN082AAXX  23184 60060 32465 23608 10208 20145 40193 57004 82500 333 10221 82616 95300;EQDQ01  00002PRCP99
0174600600999992000052321004+29370-010180FM-12+0066GMMF V0203601N005112200019N0100001N1+01921+01521102091ADDAA199000091GA1031+004809089GF103991031021004501001001MD1310161+9999REMSYN076AAXX  23214 60060 32460 33610 10192 20152 40209 53016 83200 333 83816 95300;EQDQ01  00002PRCP99
0179600600999992000052406004+29370-010180FM-12+0066GMMF V0203601N00511009001CN0100001N1+01811+01541102001ADDAA199000091GA1041+003909089GF105991051081004501001001KA1120N+01741REMSYN082AAXX  24064 60060 32460 53610 10181 20154 40200 5//// 85800 333 20174 84813 95300;EQDQ01  00002PRCP99
0174600600999992000052409004+29370-010180FM-12+0066GMMF V0203601N00411009001CN0100001N1+01971+01601102031ADDAA199000091GA1041+003909089GF105991051081004501001001MD1310031+9999REMSYN076AAXX  24094 60060 32460 53608 10197 20160 40203 53003 85800 333 84813 95300;EQDQ01  00002PRCP99
0196600600999992000052415004+29370-010180FM-12+0066GMMF V0200201N007212200019N0100001N1+02221+01711102071ADDAA199000091GA1011+003909089GA2031+004809069GF104991041081004501001001MD1610011+9999REMSYN082AAXX  24154 60060 32460 40214 10222 20171 40207 56001 84800 333 81813 83616 95300;EQDQ01  00002PRCP99
0215600600999992000052418004+29370-010180FM-12+0066GMMF V0200201N007710048019N0100001N1+02131+01761102041ADDAA199000091GA1031+003909089GA2061+004809069GF107991071081004501999999KA1120M+02291MD1610041+9999REMSYN088AAXX  24184 60060 32460 70215 10213 20176 40204 56004 878// 333 10229 83813 86616 95300;EQDQ01  00002PRCP99
0196600600999992000052421004+29370-010180FM-12+0066GMMF V0200201N005110048019N0100001N1+01971+01691102041ADDAA199000091GA1031+003909089GA2071+004809069GF108991081081004501999999MD1410001+9999REMSYN082AAXX  24214 60060 32460 80210 10197 20169 40204 54000 888// 333 83813 87616 95300;EQDQ01  00002PRCP99
0201600600999992000052506004+29370-010180FM-12+0066GMMF V0202801N001010048019N0100001N1+01921+01661101791ADDAA199000091GA1031+003909089GA2071+004809069GF108991081081004501999999KA1120N+01801REMSYN088AAXX  25064 60060 32460 82802 10192 20166 40179 5/009 888// 333 20180 83813 87616 95300;EQDQ01  00002PRCP99
0174600600999992000052509004+29370-010180FM-12+0066GMMF V0200201N003110048019N0100001N1+01951+01661101871ADDAA199000091GA1051+004809069GF105991051051004501001001MD1310081+9999REMSYN076AAXX  25094 60060 32460 50206 10195 20166 40187 53008 85500 333 85616 95300;EQDQ01  00002PRCP99
0174600600999992000052512004+29370-010180FM-12+0066GMMF V0202801N003612200019N0100001N1+02071+01661101881ADDAA199000091GA1011+004809069GF101991011051004501001001MD1310011+9999REMSYN076AAXX  25124 60060 32460 12807 10207 20166 40188 53001 81500 333 81616 95300;EQDQ01  00002PRCP99
0174600600999992000052515004+29370-010180FM-12+0066GMMF V0203201N003612200019N0100001N1+02051+01721101831ADDAA199000091GA1011+004809069GF101991011051004501001001MD1810051+9999REMSYN076AAXX  25154 60060 32460 13207 10205 20172 40183 58005 81500 333 81616 95300;EQDQ01  00002PRCP99
0193600600999992000052518004+29370-010180FM-12+0066GMMF V0203601N006219999999N0080001N1+02061+01681101791ADDAA199000091GA1011+004809069GF107991011051004501001001KA1120M+02141MD1710041+9999REMSYN082AAXX  25184 60060 32458 73612 10206 20168 40179 57004 81500 333 10214 81616 95300;EQDQ01  00002PRCP99
0174600600999992000052521004+29370-010180FM-12+0066GMMF V0200201N004610048019N0060001N1+01921+01641101851ADDAA199000091GA1071+004809069GF107991071051004501999999MD1310061+9999REMSYN076AAXX  25214 60060 32456 70209 10192 20164 40185 53006 875// 333 87616 95300;EQDQ01  00002PRCP99
0179600600999992000052606004+29370-010180FM-12+0066GMMF V0202401N004610048019N0060001N1+01821+01601101721ADDAA199000091GA1061+004809069GF106991061051004501001001KA1120N+01771REMSYN082AAXX  26064 60060 32456 62409 10182 20160 40172 5//// 86500 333 20177 86616 95300;EQDQ01  00002PRCP99
0174600600999992000052609004+29370-010180FM-12+0066GMMF V0202401N004612200019N0060001N1+01931+01641101811ADDAA199000091GA1021+004809069GF102991021051004501001001MD1210091+9999REMSYN076AAXX  26094 60060 32456 22409 10193 20164 40181 52009 82500 333 82616 95300;EQDQ01  00002PRCP99
0174600600999992000052612004+29370-010180FM-12+0066GMMF V0202401N006212200019N0060001N1+02141+01671101871ADDAA199000091GA1011+004809069GF101991011051004501001001MD1010061+9999REMSYN076AAXX  26124 60060 32456 12412 10214 20167 40187 50006 81500 333 81616 95300;EQDQ01  00002PRCP99
0174600600999992000052615004+29370-010180FM-12+0066GMMF V0202601N005112200019N0060001N1+02091+01681101771ADDAA199000091GA1021+004809069GF102991021051004501001001MD1710101+9999REMSYN076AAXX  26154 60060 32456 22610 10209 20168 40177 57010 82500 333 82616 95300;EQDQ01  00002PRCP99
0193600600999992000052618004+29370-010180FM-12+0066GMMF V0203601N004612200019N0060001N1+02041+01701101751ADDAA199000091GA1021+004809069GF102991021051004501001001KA1120M+02171MD1610021+9999REMSYN082AAXX  26184 60060 32456 23609 10204 20170 40175 56002 82500 333 10217 82616 95300;EQDQ01  00002PRCP99
0152600600999992000052621004+29370-010180FM-12+0066GMMF V0203601N005112200019N0060001N1+01901+01671101791ADDAA199000091GA1001+999999999GF100991001001999999001001MD1310041+9999REMSYN054AAXX  26214 60060 32956 03610 10190 20167 40179 53004;EQDQ01  00002PRCP99
0179600600999992000052706004+29370-010180FM-12+0066GMMF V0202401N005110048019N0060001N1+01841+01661101611ADDAA199000091GA1061+004809069GF106991061051004501001001KA1120N+01801REMSYN082AAXX  27064 60060 32456 62410 10184 20166 40161 5//// 86500 333 20180 86616 95300;EQDQ01  00002PRCP99
0174600600999992000052709004+29370-010180FM-12+0066GMMF V0202401N004610048019N0070001N1+01901+01581101671ADDAA199000091GA1051+004809069GF105991051051004501001001MD1310061+9999REMSYN076AAXX  27094 60060 32457 52409 10190 20158 40167 53006 85500 333 85616 95300;EQDQ01  00002PRCP99
0174600600999992000052712004+29370-010180FM-12+0066GMMF V0202801N004612200019N0070001N1+01991+01521101651ADDAA199000091GA1011+004809069GF101991011051004501001001MD1810021+9999REMSYN076AAXX  27124 60060 32457 12809 10199 20152 40165 58002 81500 333 81616 95300;EQDQ01  00002PRCP99
0152600600999992000052715004+29370-010180FM-12+0066GMMF V0202601N005112200019N0070001N1+02081+01641101631ADDAA199000091GA1001+999999999GF100991001001999999001001MD1810021+9999REMSYN054AAXX  27154 60060 32957 02610 10208 20164 40163 58002;EQDQ01  00002PRCP99
0175600600999992000052718004+29370-010180FM-12+0066GMMF V0200201N004112200019N0060001N1+02051+01661101611ADDAA199000091GA1001+999999999GF100991001001999999001001KA1999M+02191MD1710021+9999REMSYN064AAXX  27184 60060 32956 00208 10205 20166 40161 57002 333 10219;EQDQ01  00002PRCP99
0174600600999992000052721004+29370-010180FM-12+0066GMMF V0200401N004110048019N0060001N1+01941+01701101691ADDAA199000091GA1081+004809069GF108991081051004501999999MD1110081+9999REMSYN076AAXX  27214 60060 32456 80408 10194 20170 40169 51008 885// 333 88616 95300;EQDQ01  00002PRCP99
0179600600999992000052806004+29370-010180FM-12+0066GMMF V0202601N004110030019N0060001N1+01841+01671101631ADDAA199000091GA1081+003009079GF108991081061004501999999KA1120N+01811REMSYN082AAXX  28064 60060 32456 82608 10184 20167 40163 5//// 886// 333 20181 88710 95300;EQDQ01  00002PRCP99
0174600600999992000052809004+29370-010180FM-12+0066GMMF V0202801N003610030019N0060001N1+01861+01681101721ADDAA199000091GA1071+003009079GF107991071061004501999999MD1310091+9999REMSYN076AAXX  28094 60060 32456 72807 10186 20168 40172 53009 876// 333 87710 95300;EQDQ01  00002PRCP99
0174600600999992000052812004+29370-010180FM-12+0066GMMF V0203401N003110030019N0060001N1+01921+01691101771ADDAA199000091GA1071+003009079GF107991071061004501999999MD1110051+9999REMSYN076AAXX  28124 60060 32456 73406 10192 20169 40177 51005 876// 333 87710 95300;EQDQ01  00002PRCP99
0174600600999992000052815004+29370-010180FM-12+0066GMMF V0203401N004112200019N0070001N1+02091+01711101721ADDAA199000091GA1011+003009079GF101991011061004501001001MD1710051+9999REMSYN076AAXX  28154 60060 32457 13408 10209 20171 40172 57005 81600 333 81710 95300;EQDQ01  00002PRCP99
0215600600999992000052818004+29370-010180FM-12+0066GMMF V0203401N003610048019N0070001N1+02051+01731101711ADDAA199000091GA1031+003009079GA2061+004809069GF107991071051004501999999KA1120M+02151MD1810011+9999REMSYN088AAXX  28184 60060 32457 73407 10205 20173 40171 58001 875// 333 10215 83710 86616 95300;EQDQ01  00002PRCP99
0174600600999992000052821004+29370-010180FM-12+0066GMMF V0200201N005112200019N0070001N1+01951+01671101711ADDAA199000091GA1021+003009079GF102991021061004501001001MD1410001+9999REMSYN076AAXX  28214 60060 32457 20210 10195 20167 40171 54000 82600 333 82710 95300;EQDQ01  00002PRCP99
0191600600999992000052906004+29370-010180FM-12+0066GMMF V0202001N002610024019N0008001N1+01691+01691101551ADDAA199000091GA1081+002409079GF108991081061002501999999KA1120N+01671MW1461REMSYN088AAXX  29064 60060 31308 82005 10169 20169 40155 5//// 746// 886// 333 20167 88708 95310;EQDQ01  00002PRCP99
0194600600999992000052909004+29370-010180FM-12+0066GMMF V0202601N002610024019N0008001N1+01761+01761101641ADDAA199000091AY141031GA1071+002409079GF107991071061002501999999MD1310091+9999MW1461REMSYN082AAXX  29094 60060 31308 72605 10176 20176 40164 53009 7464/ 876// 333 87708 95310;EQDQ01  00002PRCP99
0202600600999992000052912004+29370-010180FM-12+0066GMMF V0203201N002612200019N0020001N1+01921+01711101681ADDAA199000091AY141061AY241061GA1041+003009079GF104991041061004501001001MD1110041+9999MW1101REMSYN082AAXX  29124 60060 31420 43205 10192 20171 40168 51004 71044 84600 333 84710 95300;EQDQ01  00002PRCP99
0202600600999992000052915004+29370-010180FM-12+0066GMMF V0203601N002612200019N0035001N1+02081+01731101611ADDAA199000091AY111031AY211031GA1021+003009079GF102991021061004501001001MD1810071+9999MW1101REMSYN082AAXX  29154 60060 31435 23605 10208 20173 40161 58007 71011 82600 333 82710 95300;EQDQ01  00002PRCP99
0175600600999992000052918004+29370-010180FM-12+0066GMMF V0203601N004112200019N0060001N1+02141+01771101571ADDAA199000091GA1001+999999999GF100991001001999999001001KA1999M+02201MD1710041+9999REMSYN064AAXX  29184 60060 32956 03608 10214 20177 40157 57004 333 10220;EQDQ01  00002PRCP99
0152600600999992000052921004+29370-010180FM-12+0066GMMF V0203601N005712200019N0060001N1+01961+01751101631ADDAA199000091GA1001+999999999GF100991001001999999001001MD1310061+9999REMSYN054AAXX  29214 60060 32956 03611 10196 20175 40163 53006;EQDQ01  00002PRCP99
0191600600999992000053006004+29370-010180FM-12+0066GMMF V0202201N001510024019N0008001N1+01701+01701101401ADDAA199000091GA1081+002409079GF108991081061002501999999KA1120N+01621MW1461REMSYN088AAXX  30064 60060 31308 82203 10170 20170 40140 5//// 746// 886// 333 20162 88708 95360;EQDQ01  00002PRCP99
0202600600999992000053009004+29370-010180FM-12+0066GMMF V0203201N001510030019N0020001N1+01761+01691101451ADDAA199000091AY121031AY221031GA1061+003009079GF106991061061004501001001MD1310061+9999MW1101REMSYN082AAXX  30094 60060 31420 63203 10176 20169 40145 53006 71022 86600 333 86710 95300;EQDQ01  00002PRCP99
0202600600999992000053012004+29370-010180FM-12+0066GMMF V0202601N004110030019N0020001N1+01961+01771101631ADDAA199000091AY141061AY221061GA1061+003009079GF106991061061004501001001MD1210181+9999MW1101REMSYN082AAXX  30124 60060 31420 62608 10196 20177 40163 52018 71042 86600 333 86710 95300;EQDQ01  00002PRCP99
0194600600999992000053015004+29370-010180FM-12+0066GMMF V0203601N003612200019N0040001N1+02121+01801101641ADDAA199000091AY111031GA1031+003009079GF103991031061004501001001MD1210011+9999MW1101REMSYN082AAXX  30154 60060 32440 33607 10212 20180 40164 52001 7101/ 83600 333 83710 95300;EQDQ01  00002PRCP99
0194600600999992000053021004+29370-010180FM-12+0066GMMF V0203601N006212200019N0040001N1+01901+01801101631ADDAA199000091AY101031GA1021+003009079GF102991021061004501001001MD1210031+9999MW1101REMSYN082AAXX  30214 60060 31440 23612 10190 20180 40163 52003 7100/ 82600 333 82710 95300;EQDQ01  00002PRCP99
0191600600999992000053106004+29370-010180FM-12+0066GMMF V0202201N003110024019N0002001N1+01681+01681101461ADDAA199000091GA1081+002409079GF108991081061002501999999KA1120N+01641MW1461REMSYN088AAXX  31064 60060 31302 82206 10168 20168 40146 5//// 746// 886// 333 20164 88708 95360;EQDQ01  00002PRCP99
0194600600999992000053109004+29370-010180FM-12+0066GMMF V0202601N003110030019N0012001N1+01711+01611101561ADDAA199000091AY141031GA1081+003009079GF108991081061004501999999MD1310101+9999MW1101REMSYN082AAXX  31094 60060 31412 82606 10171 20161 40156 53010 7104/ 886// 333 88710 95310;EQDQ01  00002PRCP99
0202600600999992000053112004+29370-010180FM-12+0066GMMF V0202601N003610030019N0025001N1+01831+01701101631ADDAA199000091AY141061AY221061GA1071+003009079GF107991071061004501999999MD1210081+9999MW1101REMSYN082AAXX  31124 60060 31425 72607 10183 20170 40163 52008 71042 876// 333 87710 95300;EQDQ01  00002PRCP99
0194600600999992000053115004+29370-010180FM-12+0066GMMF V0203601N002612200019N0040001N1+02051+01671101521ADDAA199000091AY111031GA1021+003009079GF102991021061004501001001MD1710111+9999MW1101REMSYN082AAXX  31154 60060 31440 23605 10205 20167 40152 57011 7101/ 82600 333 82710 95300;EQDQ01  00002PRCP99
0237600600999992000053118004+29370-010180FM-12+0066GMMF V0203601N002612200019N0040001N1+02011+01771101451ADDAA199000091AY111061AY211061GA1011+060009009GF101991001001999999001011KA1120M+02111MD1710071+9999MW1101REMSYN088AAXX  31184 60060 31440 13605 10201 20177 40145 57007 71011 80001 333 10211 81070 95300;EQDQ01+004502SCOLCBQ02  00002PRCP99
0194600600999992000053121004+29370-010180FM-12+0066GMMF V0200401N002612200019N0020001N1+01901+01771101531ADDAA199000091AY111031GA1031+003009079GF103991031061004501001001MD1210081+9999MW1101REMSYN082AAXX  31214 60060 31420 30405 10190 20177 40153 52008 7101/ 83600 333 83710 95300;EQDQ01  00002PRCP99
0191600600999992000060106004+29370-010180FM-12+0066GMMF V0201801N001510018019N0000001N1+01551+01551101331ADDAA199000091GA1061+001809079GF106991061061002501001001KA1120N+01521MW1461REMSYN088AAXX  01064 60060 31300 61803 10155 20155 40133 5//// 746// 86600 333 20152 86706 95360;EQDQ01  00002PRCP99
0194600600999992000060109004+29370-010180FM-12+0066GMMF V0203601N001512200019N0025001N1+02101+01721101321ADDAA199000091AY141031GA1031+060009009GF103991001001999999001021MD1010001+9999MW1101REMSYN082AAXX  01094 60060 31925 33603 10210 20172 40132 50000 7104/ 80002 333 83070 95300;EQDQ01  00002PRCP99
0202600600999992000060112004+29370-010180FM-12+0066GMMF V0202401N007212200019N0012001N1+01921+01691101551ADDAA199000091AY141061AY241061GA1031+003009079GF104991031061002501001021MD1210231+9999MW1101REMSYN082AAXX  01124 60060 31312 42414 10192 20169 40155 52023 71044 83602 333 83710 95300;EQDQ01  00002PRCP99
0224600600999992000060115004+29370-010180FM-12+0066GMMF V0202401N004610600019N0012001N1+02041+01801101441ADDAA199000091AY111031AY211031GA1021+003009079GA2041+060009009GF106991021061004501001021MD1710111+9999MW1101REMSYN088AAXX  01154 60060 31412 62409 10204 20180 40144 57011 71011 82602 333 82710 84070 95300;EQDQ01  00002PRCP99
0243600600999992000060118004+29370-010180FM-12+0066GMMF V0203401N003610600019N0012001N1+01921+01791101391ADDAA199000091AY111061AY211061GA1031+003009079GA2031+060009009GF106991031061004501001021KA1120M+02101MD1810051+9999MW1101REMSYN094AAXX  01184 60060 31412 63407 10192 20179 40139 58005 71011 83602 333 10210 83710 83070 95300;EQDQ01  00002PRCP99
0202600600999992000060121004+29370-010180FM-12+0066GMMF V0200201N001010030019N0010001N1+01761+01681101441ADDAA199000091AY121031AY221031GA1081+003009079GF108991081061004501999999MD1310051+9999MW1101REMSYN082AAXX  01214 60060 31410 80202 10176 20168 40144 53005 71022 886// 333 88710 95310;EQDQ01  00002PRCP99
0191600600999992000060206004+29370-010180FM-12+0066GMMF V0202001N003610024019N0010001N1+01721+01671101361ADDAA199000091GA1081+002409079GF108991081061002501999999KA1120N+01561MW1101REMSYN088AAXX  02064 60060 31310 82007 10172 20167 40136 5//// 710// 886// 333 20156 88708 95360;EQDQ01  00002PRCP99
0186600600999992000060209004+29370-010180FM-12+0066GMMF V0202401N004110024019N0012001N1+01741+01671101491ADDAA199000091GA1081+002409079GF108991081061002501999999MD1310131+9999MW1101REMSYN082AAXX  02094 60060 31312 82408 10174 20167 40149 53013 710// 886// 333 88708 95360;EQDQ01  00002PRCP99
0202600600999992000060212004+29370-010180FM-12+0066GMMF V0202401N006710024019N0014001N1+02001+01781101531ADDAA199000091AY121061AY221061GA1081+002409079GF108991081061002501999999MD1310051+9999MW1101REMSYN082AAXX  02124 60060 31314 82413 10200 20178 40153 53005 71022 886// 333 88708 95360;EQDQ01  00002PRCP99
0194600600999992000060215004+29370-010180FM-12+0066GMMF V0202601N003610030019N0030001N1+02101+01871101451ADDAA199000091AY121031GA1051+003009079GF105991051061004501001001MD1610081+9999MW1101REMSYN082AAXX  02154 60060 31430 52607 10210 20187 40145 56008 7102/ 85600 333 85710 95300;EQDQ01  00002PRCP99
0221600600999992000060218004+29370-010180FM-12+0066GMMF V0202401N002610030019N0016001N1+02001+01861101391ADDAA199000091AY121061AY221061GA1061+003009079GF106991061061004501001001KA1120M+02141MD1610061+9999MW1101REMSYN088AAXX  02184 60060 31416 62405 10200 20186 40139 56006 71022 86600 333 10214 86710 95310;EQDQ01  00002PRCP99
0194600600999992000060221004+29370-010180FM-12+0066GMMF V0203401N001510024019N0014001N1+01901+01801101451ADDAA199000091AY121031GA1081+002409079GF108991081061002501999999MD1210061+9999MW1101REMSYN082AAXX  02214 60060 31314 83403 10190 20180 40145 52006 7102/ 886// 333 88708 95360;EQDQ01  00002PRCP99
0191600600999992000060306004+29370-010180FM-12+0066GMMF V0200201N001010024019N0012001N1+01841+01781101431ADDAA199000091GA1081+002409079GF108991081061002501999999KA1120N+01771MW1101REMSYN088AAXX  03064 60060 31312 80202 10184 20178 40143 5//// 710// 886// 333 20177 88708 95310;EQDQ01  00002PRCP99
0194600600999992000060309004+29370-010180FM-12+0066GMMF V0200201N003110024019N0010001N1+01851+01741101441ADDAA199000091AY121031GA1081+002409079GF108991081061002501999999MD1210011+9999MW1101REMSYN082AAXX  03094 60060 31310 80206 10185 20174 40144 52001 7102/ 886// 333 88708 95310;EQDQ01  00002PRCP99
0202600600999992000060312004+29370-010180FM-12+0066GMMF V0200201N003610030019N0018001N1+01971+01731101551ADDAA199000091AY121061AY221061GA1081+003009079GF108991081061004501999999MD1110111+9999MW1101REMSYN082AAXX  03124 60060 31418 80207 10197 20173 40155 51011 71022 886// 333 88710 95300;EQDQ01  00002PRCP99
0194600600999992000060315004+29370-010180FM-12+0066GMMF V0203601N005710030019N0020001N1+02001+01761101451ADDAA199000091AY121031GA1071+003009079GF107991071061004501999999MD1710101+9999MW1101REMSYN082AAXX  03154 60060 31420 73611 10200 20176 40145 57010 7102/ 876// 333 87710 95300;EQDQ01  00002PRCP99
0221600600999992000060318004+29370-010180FM-12+0066GMMF V0200201N007712200019N0040001N1+02001+01741101391ADDAA199000091AY111061AY211061GA1031+003609079GF104991031061004501031001KA1120M+02161MD1610061+9999MW1101REMSYN088AAXX  03184 60060 31440 40215 10200 20174 40139 56006 71011 83630 333 10216 83712 95300;EQDQ01  00002PRCP99
0194600600999992000060321004+29370-010180FM-12+0066GMMF V0200201N006710030019N0040001N1+01921+01641101451ADDAA199000091AY111031GA1071+003009079GF107991071061004501999999MD1210061+9999MW1101REMSYN082AAXX  03214 60060 31440 70213 10192 20164 40145 52006 7101/ 876// 333 87710 95300;EQDQ01  00002PRCP99
0213600600999992000060406004+29370-010180FM-12+0066GMMF V0202201N002110048019N0040001N1+01801+01671101291ADDAA199000091GA1021+003009079GA2081+004809069GF108991081051004501999999KA1120N+01761MW1101REMSYN094AAXX  04064 60060 31440 82204 10180 20167 40129 5//// 710// 885// 333 20176 82710 88616 95300;EQDQ01  00002PRCP99
0194600600999992000060409004+29370-010180FM-12+0066GMMF V0203401N002110048019N0025001N1+01831+01701101361ADDAA199000091AY161031GA1081+004809069GF108991081051004501999999MD1110071+9999MW1101REMSYN082AAXX  04094 60060 31425 83404 10183 20170 40136 51007 7106/ 885// 333 88616 95300;EQDQ01  00002PRCP99
0189600600999992000060412004+29370-010180FM-12+0066GMMF V0203601N005110048019N0030001N1+01941+01731101371ADDAA106000391AY161061AY221061GA1081+004809069GF108991081051004501999999MD1110011+9999MW1101REMSYN088AAXX  04124 60060 11430 83610 10194 20173 40137 51001 69931 71062 885// 333 88616 95300;
0224600600999992000060415004+29370-010180FM-12+0066GMMF V0203401N003610240019N0040001N1+02041+01711101861ADDAA199000091AY121031AY221031GA1021+006009069GA2031+024009039GF105991021051008001031001MD1810101+9999MW1101REMSYN088AAXX  04154 60060 31540 53407 10204 20171 40186 58010 71022 82530 333 82620 83358 95300;EQDQ01  00002PRCP99
0230600600999992000060418004+29370-010180FM-12+0066GMMF V0200201N004610240019N0040001N1+02021+01731101201ADDAA112000391AY121061AY221061GA1031+006009069GA2031+024009039GF106991061051008001031001KA1120M+02121MD1510061+9999MW1101REMSYN100AAXX  04184 60060 11540 60209 10202 20173 40120 55006 69932 71022 86530 333 10212 83620 83358 95300;
0224600600999992000060421004+29370-010180FM-12+0066GMMF V0200201N010310060019N0040001N1+01901+01721101021ADDAA199000091AY121031AY221031GA1051+006009069GA2021+009009099GF107991071091004501999999MD1810181+9999MW1101REMSYN088AAXX  04214 60060 31440 70220 10190 20172 40102 58018 71022 879// 333 85620 82930 95300;EQDQ01  00002PRCP99
0178600600999992000060506004+29370-010180FM-12+0066GMMF V0202001N001510060019N0030001N1+01921+01601101031ADDAA124000591GA1071+006009089GF107991071021008001999999KA1120N+01801MW1101REMSYN094AAXX  05064 60060 11530 72003 10192 20160 40103 5//// 69954 710// 872// 333 20180 87820 95300;
0196600600999992000060509004+29370-010180FM-12+0066GMMF V0201401N006710240019N0050001N1+03172+01201100931ADDAA199000091GA1021+006009089GA2031+024009039GF105991021021008001031001MD1810071+9999REMSYN082AAXX  05094 60060 32550 51413 10317 20120 40093 58007 82230 333 82820 83358 95300;EQDQ01  00002PRCP99
0202600600999992000060512004+29370-010180FM-12+0066GMMF V0203201N003612200019N0040001N1+02301+01581101231ADDAA199000091AY111061AY211061GA1021+024009039GF104991021001999999081021MD1110281+9999MW1101REMSYN082AAXX  05124 60060 31940 43207 10230 20158 40123 51028 71011 82082 333 82358 95300;EQDQ01  00002PRCP99
0196600600999992000060515004+29370-010180FM-12+0066GMMF V0203001N006219999999N0050001N1+02451+01551101181ADDAA199000091GA1021+024009039GA2031+060009009GF105991021001999999081021MD1510051+9999REMSYN082AAXX  05154 60060 32950 53012 10245 20155 40118 55005 82082 333 82358 83070 95300;EQDQ01  00002PRCP99
0193600600999992000060518004+29370-010180FM-12+0066GMMF V0200401N004112200019N0050001N1+02321+01581101071ADDAA199000091GA1021+024009039GF103991021001999999081011KA1120M+03241MD1610111+9999REMSYN082AAXX  05184 60060 32950 30408 10232 20158 40107 56011 82081 333 10324 82358 95300;EQDQ01  00002PRCP99
0174600600999992000060521004+29370-010180FM-12+0066GMMF V0202401N002112200019N0050001N1+02281+01581101071ADDAA199000091GA1041+024009039GF104991041001999999031001MD1510001+9999REMSYN076AAXX  05214 60060 32950 42404 10228 20158 40107 55000 84030 333 84358 95300;EQDQ01  00002PRCP99
0191600600999992000060606004+29370-010180FM-12+0066GMMF V0202601N001012200019N0030001N1+01981+01561101021ADDAA199000091GA1021+024009039GF102991021001999999081001KA1120N+01931MW1101REMSYN088AAXX  06064 60060 31930 22602 10198 20156 40102 5//// 710// 82080 333 20193 82358 95300;EQDQ01  00002PRCP99
0194600600999992000060609004+29370-010180FM-12+0066GMMF V0202401N008212200019N0032001N1+02091+01681101271ADDAA199000091AY101031GA1031+024009039GF103991031001999999081001MD1310251+9999MW1101REMSYN082AAXX  06094 60060 31932 32416 10209 20168 40127 53025 7100/ 83080 333 83358 95300;EQDQ01  00002PRCP99
0202600600999992000060612004+29370-010180FM-12+0066GMMF V0202401N008212200019N0040001N1+02171+01741101341ADDAA199000091AY101061AY201061GA1031+024009039GF103991031001999999081001MD1010071+9999MW1101REMSYN082AAXX  06124 60060 31940 32416 10217 20174 40134 50007 71000 83080 333 83358 95300;EQDQ01  00002PRCP99
0194600600999992000060615004+29370-010180FM-12+0066GMMF V0202401N008212200019N0045001N1+02271+01791101301ADDAA199000091AY101031GA1021+021009039GF102991021001999999081001MD1710041+9999MW1101REMSYN082AAXX  06154 60060 31945 22416 10227 20179 40130 57004 7100/ 82080 333 82357 95300;EQDQ01  00002PRCP99
0221600600999992000060618004+29370-010180FM-12+0066GMMF V0202401N004112200019N0040001N1+02151+01731101281ADDAA199000091AY101061AY201061GA1031+021009039GF103991031001999999081001KA1120M+02331MD1510021+9999MW1101REMSYN088AAXX  06184 60060 31940 32408 10215 20173 40128 55002 71000 83080 333 10233 83357 95300;EQDQ01  00002PRCP99
0194600600999992000060621004+29370-010180FM-12+0066GMMF V0202401N004612200019N0040001N1+02351+01641101311ADDAA199000091AY101031GA1021+021009039GF102991021001999999081001MD1310031+9999MW1101REMSYN082AAXX  06214 60060 31940 22409 10235 20164 40131 53003 7100/ 82080 333 82357 95300;EQDQ01  00002PRCP99
0191600600999992000060706004+29370-010180FM-12+0066GMMF V0202401N005110024019N0012001N1+01801+01741101411ADDAA199000091GA1081+002409079GF108991081061002501999999KA1120N+01771MW1101REMSYN088AAXX  07064 60060 31312 82410 10180 20174 40141 5//// 710// 886// 333 20177 88708 95360;EQDQ01  00002PRCP99
0202600600999992000060709004+29370-010180FM-12+0066GMMF V0202201N005710030019N0025001N1+01901+01741101481ADDAA199000091AY121031AY221031GA1081+003009079GF108991081061002501999999MD1110071+9999MW1101REMSYN082AAXX  07094 60060 31325 82211 10190 20174 40148 51007 71022 886// 333 88710 95310;EQDQ01  00002PRCP99
0202600600999992000060712004+29370-010180FM-12+0066GMMF V0202201N006210030019N0030001N1+02011+01721101521ADDAA199000091AY121061AY221061GA1071+003009079GF107991071061004501999999MD1310041+9999MW1101REMSYN082AAXX  07124 60060 31430 72212 10201 20172 40152 53004 71022 876// 333 87710 95310;EQDQ01  00002PRCP99
0202600600999992000060715004+29370-010180FM-12+0066GMMF V0202401N006212200019N0040001N1+02211+01661101431ADDAA199000091AY111031AY211031GA1021+060009009GF102991001001999999001021MD1710091+9999MW1101REMSYN082AAXX  07154 60060 31940 22412 10221 20166 40143 57009 71011 80002 333 82070 95300;EQDQ01  00002PRCP99
0175600600999992000060718004+29370-010180FM-12+0066GMMF V0202201N006212200019N0050001N1+01991+01701101391ADDAA199000091GA1001+999999999GF100991001001999999001001KA1999M+02241MD1510041+9999REMSYN064AAXX  07184 60060 32950 02212 10199 20170 40139 55004 333 10224;EQDQ01  00002PRCP99
0174600600999992000060721004+29370-010180FM-12+0066GMMF V0202201N003112200019N0050001N1+01891+01661101471ADDAA199000091GA1021+030009039GF102991021001999999031001MD1310081+9999REMSYN076AAXX  07214 60060 32950 22206 10189 20166 40147 53008 82030 333 82360 95300;EQDQ01  00002PRCP99
0191600600999992000060806004+29370-010180FM-12+0066GMMF V0202201N001510048019N0030001N1+01861+01641101401ADDAA199000091GA1081+004809069GF108991081051004501999999KA1120N+01831MW1101REMSYN088AAXX  08064 60060 32430 82203 10186 20164 40140 5//// 710// 885// 333 20183 88616 95300;EQDQ01  00002PRCP99
0196600600999992000060815004+29370-010180FM-12+0066GMMF V0203401N002119999999N0060001N1+02121+01691101481ADDAA199000091GA1021+030009039GA2031+060009009GF105991021001999999031021MD1810061+9999REMSYN082AAXX  08154 60060 32956 53404 10212 20169 40148 58006 82032 333 82360 83070 95300;EQDQ01  00002PRCP99
0193600600999992000060818004+29370-010180FM-12+0066GMMF V0203001N003112200019N0060001N1+02111+01691101551ADDAA199000091GA1021+030009039GF104991021001999999031021KA1120M+02251MD1310061+9999REMSYN082AAXX  08184 60060 32956 43006 10211 20169 40155 53006 82032 333 10225 82360 95300;EQDQ01  00002PRCP99
0196600600999992000060821004+29370-010180FM-12+0066GMMF V0200401N003119999999N0060001N1+02001+01671101571ADDAA199000091GA1021+030009039GA2031+060009009GF105991021001999999031021MD1310021+9999REMSYN082AAXX  08214 60060 32956 50406 10200 20167 40157 53002 82032 333 82360 83070 95300;EQDQ01  00002PRCP99
0179600600999992000060906004+29370-010180FM-12+0066GMMF V0203601N002112200019N0050001N1+01861+01681101571ADDAA199000091GA1041+051009009GF104991001001999999001021KA1120N+01821REMSYN082AAXX  09064 60060 32950 43604 10186 20168 40157 5//// 80002 333 20182 84067 95300;EQDQ01  00002PRCP99
0174600600999992000060909004+29370-010180FM-12+0066GMMF V0203601N004610510019N0050001N1+02021+01661101641ADDAA199000091GA1051+051009009GF105991001001999999001021MD1210071+9999REMSYN076AAXX  09094 60060 32950 53609 10202 20166 40164 52007 80002 333 85067 95300;EQDQ01  00002PRCP99
0168600600999992000060912004+29370-010180FM-12+0066GMMF V0203601N003112200019N0050001N1+02101+01731101791ADDAA199000091GA1041+051009019GF104991001001999999001021MD1210151+9999REMSYN070AAXX  09124 60060 32950 43606 10210 20173 40179 52015 80002 333 84067;EQDQ01  00002PRCP99
0174600600999992000060915004+29370-010180FM-12+0066GMMF V0200201N004612200019N0050001N1+02151+01681101781ADDAA199000091GA1021+060009009GF102991001001999999001021MD1010001+9999REMSYN076AAXX  09154 60060 32950 20209 10215 20168 40178 50000 80002 333 82070 95300;EQDQ01  00002PRCP99
0215600600999992000060918004+29370-010180FM-12+0066GMMF V0203601N007712200019N0060001N1+02081+01671101771ADDAA199000091GA1011+024009039GA2031+051009009GF104991011001999999031021KA1120M+02241MD1410001+9999REMSYN088AAXX  09184 60060 32956 43615 10208 20167 40177 54002 81032 333 10224 81358 83067 95300;EQDQ01  00002PRCP99
0174600600999992000060921004+29370-010180FM-12+0066GMMF V0203601N003112200019N0060001N1+01921+01571101961ADDAA199000091GA1011+024009039GF103991011001999999031021MD1210191+9999REMSYN076AAXX  09214 60060 32956 33606 10192 20157 40196 52019 81032 333 81358 95300;EQDQ01  00002PRCP99
0179600600999992000061006004+29370-010180FM-12+0066GMMF V0200601N003112200019N0050001N1+01751+01581101711ADDAA199000091GA1021+060009009GF102991001001999999001011KA1120N+01721REMSYN082AAXX  10064 60060 32950 20606 10175 20158 40171 5//// 80001 333 20172 82070 95300;EQDQ01  00002PRCP99
0194600600999992000061009004+29370-010180FM-12+0066GMMF V0203001N001510030019N0040001N1+01851+01691101831ADDAA199000091AY111031GA1071+003009079GF107991071061004501999999MD1210121+9999MW1101REMSYN082AAXX  10094 60060 31440 73003 10185 20169 40183 52012 7101/ 876// 333 87710 95300;EQDQ01  00002PRCP99
0174600600999992000061012004+29370-010180FM-12+0066GMMF V0203401N001512200019N0050001N1+02021+01681101881ADDAA199000091GA1021+003009079GF102991021061004501001001MD1010051+9999REMSYN076AAXX  10124 60060 32450 23403 10202 20168 40188 50005 82600 333 82710 95300;EQDQ01  00002PRCP99
0174600600999992000061015004+29370-010180FM-12+0066GMMF V0202801N003612200019N0060001N1+02201+01691101821ADDAA199000091GA1011+060009009GF101991001001999999001011MD1710051+9999REMSYN076AAXX  10154 60060 32956 12807 10220 20169 40182 57005 80001 333 81070 95300;EQDQ01  00002PRCP99
0193600600999992000061018004+29370-010180FM-12+0066GMMF V0203201N003612200019N0060001N1+02101+01601101811ADDAA199000091GA1021+060009009GF102991001001999999001011KA1120M+02231MD1710021+9999REMSYN082AAXX  10184 60060 32956 23207 10210 20160 40181 57002 80001 333 10223 82070 95300;EQDQ01  00002PRCP99
0174600600999992000061021004+29370-010180FM-12+0066GMMF V0203601N002612200019N0060001N1+01921+01581101971ADDAA199000091GA1021+060009009GF102991001001999999001011MD1310061+9999REMSYN076AAXX  10214 60060 32956 23605 10192 20158 40197 53006 80001 333 82070 95300;EQDQ01  00002PRCP99
0161600600999992000061106004+29370-010180FM-12+0066GMMF V0202201N004612200019N0050001N1+01711+01381101821ADDAA199000091GA1001+999999999GF100991001001999999001001KA1999N+01641REMSYN064AAXX  11064 60060 32950 02209 10171 20138 40182 5//// 333 20164;EQDQ01  00002PRCP99
0152600600999992000061109004+29370-010180FM-12+0066GMMF V0202401N005712200019N0050001N1+01901+01501101881ADDAA199000091GA1001+999999999GF100991001001999999001001MD1110071+9999REMSYN054AAXX  11094 60060 32950 02411 10190 20150 40188 51007;EQDQ01  00002PRCP99
0152600600999992000061112004+29370-010180FM-12+0066GMMF V0202601N004612200019N0060001N1+02061+01491101851ADDAA199000091GA1001+999999999GF100991001001999999001001MD1610031+9999REMSYN054AAXX  11124 60060 32956 02609 10206 20149 40185 56003;EQDQ01  00002PRCP99
0152600600999992000061115004+29370-010180FM-12+0066GMMF V0203201N003112200019N0060001N1+02171+01531101741ADDAA199000091GA1001+999999999GF100991001001999999001001MD1810101+9999REMSYN054AAXX  11154 60060 32956 03206 10217 20153 40174 58010;EQDQ01  00002PRCP99
0175600600999992000061118004+29370-010180FM-12+0066GMMF V0203401N003112200019N0060001N1+02111+01571101691ADDAA199000091GA1001+999999999GF100991001001999999001001KA1999M+02221MD1810061+9999REMSYN064AAXX  11184 60060 32956 03406 10211 20157 40169 58006 333 10222;EQDQ01  00002PRCP99
0152600600999992000061121004+29370-010180FM-12+0066GMMF V0202801N002112200019N0050001N1+01921+01601101751ADDAA199000091GA1001+999999999GF100991001001999999001001MD1310061+9999REMSYN054AAXX  11214 60060 32950 02804 10192 20160 40175 53006;EQDQ01  00002PRCP99
0161600600999992000061206004+29370-010180FM-12+0066GMMF V0200201N004612200019N0050001N1+01751+01551101611ADDAA199000091GA1001+999999999GF100991001001999999001001KA1999N+01731REMSYN064AAXX  12064 60060 32950 00209 10175 20155 40161 5//// 333 20173;EQDQ01  00002PRCP99
0174600600999992000061209004+29370-010180FM-12+0066GMMF V0202001N005112200019N0050001N1+01901+01601101711ADDAA199000091GA1041+003009079GF104991041061004501001001MD1310101+9999REMSYN076AAXX  12094 60060 32450 42010 10190 20160 40171 53010 84600 333 84710 95300;EQDQ01  00002PRCP99
0174600600999992000061212004+29370-010180FM-12+0066GMMF V0202601N005112200019N0050001N1+02061+01601101731ADDAA199000091GA1011+003009079GF101991011061004501001001MD1010021+9999REMSYN076AAXX  12124 60060 32450 12610 10206 20160 40173 50002 81600 333 81710 95300;EQDQ01  00002PRCP99
0174600600999992000061215004+29370-010180FM-12+0066GMMF V0202201N006712200019N0050001N1+02021+01631101671ADDAA199000091GA1011+003009079GF101991011061004501001001MD1710061+9999REMSYN076AAXX  12154 60060 32450 12213 10202 20163 40167 57006 81600 333 81710 95300;EQDQ01  00002PRCP99
0193600600999992000061218004+29370-010180FM-12+0066GMMF V0200201N004612200019N0050001N1+01991+01681101601ADDAA199000091GA1031+003009079GF103991031061004501001001KA1120M+02131MD1610071+9999REMSYN082AAXX  12184 60060 32450 30209 10199 20168 40160 56007 83600 333 10213 83710 95300;EQDQ01  00002PRCP99
0174600600999992000061221004+29370-010180FM-12+0066GMMF V0203201N002110030019N0050001N1+01881+01651101641ADDAA199000091GA1081+003009079GF108991081061004501999999MD1310041+9999REMSYN076AAXX  12214 60060 32450 83204 10188 20165 40164 53004 886// 333 88710 95300;EQDQ01  00002PRCP99
0191600600999992000061306004+29370-010180FM-12+0066GMMF V0202201N004110030019N0020001N1+01851+01741101571ADDAA199000091GA1081+003009079GF108991081061004501999999KA1120N+01821MW1101REMSYN088AAXX  13064 60060 31420 82208 10185 20174 40157 5//// 710// 886// 333 20182 88710 95300;EQDQ01  00002PRCP99
0194600600999992000061309004+29370-010180FM-12+0066GMMF V0200201N004610024019N0020001N1+01871+01761101611ADDAA199000091AY121031GA1081+002409079GF108991081061002501999999MD1110041+9999MW1101REMSYN082AAXX  13094 60060 31320 80209 10187 20176 40161 51004 7102/ 886// 333 88708 95310;EQDQ01  00002PRCP99
0202600600999992000061312004+29370-010180FM-12+0066GMMF V0202601N003610030019N0025001N1+02061+01811101631ADDAA199000091AY121061AY221061GA1081+003009079GF108991081061002501999999MD1210021+9999MW1101REMSYN082AAXX  13124 60060 31325 82607 10206 20181 40163 52002 71022 886// 333 88710 95300;EQDQ01  00002PRCP99
0202600600999992000061315004+29370-010180FM-12+0066GMMF V0203001N004110900019N0035001N1+02101+01811101531ADDAA199000091AY121031AY221031GA1041+003009079GF105991041061004501001021MD1610101+9999MW1101REMSYN082AAXX  13154 60060 31435 53008 10210 20181 40153 56010 71022 84602 333 84710 95300;EQDQ01  00002PRCP99
0175600600999992000061318004+29370-010180FM-12+0066GMMF V0202801N003612200019N0050001N1+02151+01751101471ADDAA199000091GA1001+999999999GF100991001001999999001001KA1999M+02221MD1610051+9999REMSYN064AAXX  13184 60060 32950 02807 10215 20175 40147 56005 333 10222;EQDQ01  00002PRCP99
0191600600999992000061406004+29360-010170FM-12+0066GMMF V0202201N002110030019N0030001N1+01831+01631101471ADDAA199000091GA1081+003009079GF108991081061004501999999KA1120N+01801MW1101REMSYN088AAXX  14064 60060 31430 82204 10183 20163 40147 5//// 710// 886// 333 20180 88710 95300;EQDQ01  00002PRCP99
0224600600999992000061409004+29360-010170FM-12+0066GMMF V0202601N003110048019N0040001N1+01941+01611101491ADDAA199000091AY121031AY221031GA1011+003009079GA2081+004809069GF108991081051004501999999MD1310051+9999MW1101REMSYN088AAXX  14094 60060 31440 82606 10194 20161 40149 53005 71022 885// 333 81710 88616 95300;EQDQ01  00002PRCP99
0174600600999992000061412004+29360-010170FM-12+0066GMMF V0202601N004112200019N0050001N1+02141+01651101591ADDAA199000091GA1011+004809069GF101991011051004501001001MD1110071+9999REMSYN076AAXX  14124 60060 32450 12608 10214 20165 40159 51007 81500 333 81616 95300;EQDQ01  00002PRCP99
0174600600999992000061415004+29360-010170FM-12+0066GMMF V0203001N003112200019N0050001N1+02261+01611101511ADDAA199000091GA1031+004809069GF103991031051004501001001MD1710071+9999REMSYN076AAXX  14154 60060 32450 33006 10226 20161 40151 57007 83500 333 83616 95300;EQDQ01  00002PRCP99
0175600600999992000061418004+29360-010170FM-12+0066GMMF V0202801N003112200019N0060001N1+02161+01531101431ADDAA199000091GA1001+999999999GF100991001001999999001001KA1999M+02291MD1710081+9999REMSYN064AAXX  14184 60060 32956 02806 10216 20153 40143 57008 333 10229;EQDQ01  00002PRCP99
0174600600999992000061421004+29360-010170FM-12+0066GMMF V0202601N002112200019N0050001N1+01971+01691101471ADDAA199000091GA1031+004809069GF103991031051999999001001MD1310131+9999REMSYN076AAXX  14214 60060 32950 32604 10197 20169 40147 53013 83500 333 83616 95300;EQDQ01  00002PRCP99
0179600600999992000061506004+29360-010170FM-12+0066GMMF V0202801N001510048019N0050001N1+01861+01591101391ADDAA199000091GA1081+004809069GF108991081051004501999999KA1120N+01831REMSYN082AAXX  15064 60060 32450 82803 10186 20159 40139 5//// 885// 333 20183 88616 95300;EQDQ01  00002PRCP99
0174600600999992000061509004+29360-010170FM-12+0066GMMF V0202801N003110048019N0050001N1+01891+01591101451ADDAA199000091GA1081+004809069GF108991081051004501999999MD1210061+9999REMSYN076AAXX  15094 60060 32450 82806 10189 20159 40145 52006 885// 333 88616 95300;EQDQ01  00002PRCP99
0174600600999992000061512004+29360-010170FM-12+0066GMMF V0203001N002110060019N0050001N1+01951+01601101521ADDAA199000091GA1081+006009069GF108991081051004501999999MD1210071+9999REMSYN076AAXX  15124 60060 32450 83004 10195 20160 40152 52007 885// 333 88620 95300;EQDQ01  00002PRCP99
0152600600999992000061515004+29360-010170FM-12+0066GMMF V0202801N004112200019N0060001N1+02111+01551101441ADDAA199000091GA1001+999999999GF100991001001999999001001MD1810081+9999REMSYN054AAXX  15154 60060 32456 02808 10211 20155 40144 58008;EQDQ01  00002PRCP99
0175600600999992000061518004+29360-010170FM-12+0066GMMF V0202801N003112200019N0060001N1+02101+01611101391ADDAA199000091GA1001+999999999GF100991001001999999001001KA1999M+02211MD1610051+9999REMSYN064AAXX  15184 60060 32956 02806 10210 20161 40139 56005 333 10221;EQDQ01  00002PRCP99
0159600600999992000061521004+29360-010170FM-12+0066GMMF V0203001N002112200019N0050001N1+01961+99999999999ADDAA199000091GA1021+003009079GF103991999999004501999999REMSYN075AAXX  15214 60060 32450 33004 10196 2013 40147 53008 82601 333 82710 95300;EQDQ01  00002PRCP99
0179600600999992000061606004+29360-010170FM-12+0066GMMF V0203401N002110048019N0050001N1+01851+01601101391ADDAA199000091GA1081+004809069GF108991081051004501999999KA1120N+01821REMSYN082AAXX  16064 60060 32450 83404 10185 20160 40139 5//// 885// 333 20182 88616 95300;EQDQ01  00002PRCP99
0174600600999992000061609004+29360-010170FM-12+0066GMMF V0202601N003110048019N0050001N1+01911+01631101471ADDAA199000091GA1071+004809069GF107991071051004501999999MD1310081+9999REMSYN076AAXX  16094 60060 32450 72606 10191 20163 40147 53008 875// 333 87616 95300;EQDQ01  00002PRCP99
0174600600999992000061612004+29360-010170FM-12+0066GMMF V0203201N003610048019N0060001N1+02021+01601101551ADDAA199000091GA1061+004809069GF106991061051004501001001MD1110081+9999REMSYN076AAXX  16124 60060 32456 63207 10202 20160 40155 51008 86500 333 86616 95300;EQDQ01  00002PRCP99
0187600600999992000061618004+29360-010170FM-12+0066GMMF V0203401N003112200019N0060001N1+02121+01691101431ADDAA199000091GA1011+060009019GF101991001001999999001011KA1120M+02201MD1610021+9999REMSYN076AAXX  16184 60060 32956 13406 10212 20169 40143 56002 80001 333 10220 81070;EQDQ01  00002PRCP99
0174600600999992000061621004+29360-010170FM-12+0066GMMF V0203601N002612200019N0060001N1+01981+01641101481ADDAA199000091GA1041+060009009GF104991001001999999001021MD1310051+9999REMSYN076AAXX  16214 60060 32956 43605 10198 20164 40148 53005 80002 333 84070 95300;EQDQ01  00002PRCP99
0179600600999992000061706004+29360-010170FM-12+0066GMMF V0200201N002610048019N0060001N1+01911+01671101411ADDAA199000091GA1081+004809069GF108991081051004501999999KA1120N+01851REMSYN082AAXX  17064 60060 32456 80205 10191 20167 40141 5//// 885// 333 20185 88616 95300;EQDQ01  00002PRCP99
0174600600999992000061709004+29360-010170FM-12+0066GMMF V0200401N004110048019N0060001N1+01971+01681101511ADDAA199000091GA1081+004809069GF108991081051004501999999MD1210101+9999REMSYN076AAXX  17094 60060 32456 80408 10197 20168 40151 52010 885// 333 88616 95300;EQDQ01  00002PRCP99
0174600600999992000061712004+29360-010170FM-12+0066GMMF V0203601N004610048019N0060001N1+02101+01701101591ADDAA199000091GA1061+004809069GF106991061051004501001001MD1110081+9999REMSYN076AAXX  17124 60060 32456 63609 10210 20170 40159 51008 86500 333 86616 95300;EQDQ01  00002PRCP99
0174600600999992000061715004+29360-010170FM-12+0066GMMF V0203401N003610048019N0060001N1+02161+01731101541ADDAA199000091GA1051+004809069GF105991051051004501001001MD1610041+9999REMSYN076AAXX  17154 60060 32456 53407 10216 20173 40154 56004 85500 333 85616 95300;EQDQ01  00002PRCP99
0193600600999992000061718004+29360-010170FM-12+0066GMMF V0200201N003110048019N0060001N1+02061+01741101561ADDAA199000091GA1051+004809069GF106991051051004501031001KA1120M+02221MD1310011+9999REMSYN082AAXX  17184 60060 32456 60206 10206 20174 40156 53001 85530 333 10222 85616 95300;EQDQ01  00002PRCP99
0190600600999992000061721004+29360-010170FM-12+0066GMMF V0203601N004112200019N0060001N1+02001+01761101641ADDAA199000091GA1031+024009039GF103991999001999999031001MD1310081+9999REMSYN076AAXX  17214 60060 32956 33608 10200 20176 40164 53008 82030 333 83358 95300;EQDQ01+000022SCOTLCQ02  00002PRCP99
0179600600999992000061806004+29360-010170FM-12+0066GMMF V0200601N001510048019N0050001N1+01921+01791101611ADDAA199000091GA1081+004809069GF108991081051004501999999KA1120N+01871REMSYN082AAXX  18064 60060 32450 80603 10192 20179 40161 5//// 885// 333 20187 88616 95300;EQDQ01  00002PRCP99
0174600600999992000061809004+29360-010170FM-12+0066GMMF V0203601N004110048019N0050001N1+02061+01791102051ADDAA199000091GA1081+004809069GF108991081051004501999999MD1210081+9999REMSYN076AAXX  18094 60060 32450 83608 10206 20179 40205 52008 885// 333 88616 95300;EQDQ01  00002PRCP99
0174600600999992000061812004+29360-010170FM-12+0066GMMF V0203601N002610360019N0050001N1+02171+01831101781ADDAA199000091GA1031+004809069GF105991031051004501031001MD1210101+9999REMSYN076AAXX  18124 60060 32450 53605 10217 20183 40178 52010 83530 333 83616 95300;EQDQ01  00002PRCP99
0174600600999992000061815004+29360-010170FM-12+0066GMMF V0203601N005712200019N0050001N1+02261+01771101741ADDAA199000091GA1011+051009009GF101991001001999999001011MD1610041+9999REMSYN076AAXX  18154 60060 32950 13611 10226 20177 40174 56004 80001 333 81067 95300;EQDQ01  00002PRCP99
0215600600999992000061818004+29360-010170FM-12+0066GMMF V0200201N006712200019N0060001N1+02151+01841101761ADDAA199000091GA1011+003009079GA2041+024009039GF104991011061004501031001KA1120M+02331MD1310011+9999REMSYN088AAXX  18184 60060 32456 40213 10215 20184 40176 53001 81630 333 10233 81710 84358 95300;EQDQ01  00002PRCP99
0174600600999992000061821004+29360-010170FM-12+0066GMMF V0200201N006710240019N0050001N1+02001+01771101811ADDAA199000091GA1051+024009039GF105991051001999999031001MD1210051+9999REMSYN076AAXX  18214 60060 32950 50213 10200 20177 40181 52005 85030 333 85358 95300;EQDQ01  00002PRCP99
0191600600999992000061906004+29360-010170FM-12+0066GMMF V0200201N001510030019N0025001N1+01911+01811101671ADDAA199000091GA1081+003009079GF108991081061004501999999KA1120N+01851MW1101REMSYN088AAXX  19064 60060 31425 80203 10191 20181 40167 5//// 710// 886// 333 20185 88710 95300;EQDQ01  00002PRCP99
0194600600999992000061909004+29360-010170FM-12+0066GMMF V0200201N003110030019N0025001N1+01941+01711101791ADDAA199000091AY121031GA1081+003009079GF108991081061004501999999MD1210121+9999MW1101REMSYN082AAXX  19094 60060 31425 80206 10194 20171 40179 52012 7102/ 886// 333 88710 95300;EQDQ01  00002PRCP99
0224600600999992000061912004+29360-010170FM-12+0066GMMF V0203601N003610048019N0040001N1+02091+01741101791ADDAA199000091AY121061AY221061GA1011+003009079GA2061+004809069GF106991061051004501001001MD1010001+9999MW1101REMSYN088AAXX  19124 60060 31440 63607 10209 20174 40179 50000 71022 86500 333 81710 86616 95300;EQDQ01  00002PRCP99
0202600600999992000061915004+29360-010170FM-12+0066GMMF V0203601N006212200019N0040001N1+02171+01751101651ADDAA199000091AY111031AY211031GA1021+004809069GF102991021051004501001001MD1610141+9999MW1101REMSYN082AAXX  19154 60060 31440 23612 10217 20175 40165 56014 71011 82500 333 82616 95300;EQDQ01  00002PRCP99
0193600600999992000061918004+29360-010170FM-12+0066GMMF V0203601N006712200019N0050001N1+02131+01761101571ADDAA199000091GA1011+004809069GF101991011051004501001001KA1120M+02261MD1810081+9999REMSYN082AAXX  19184 60060 32450 13613 10213 20176 40157 58008 81500 333 10226 81616 95300;EQDQ01  00002PRCP99
0174600600999992000061921004+29360-010170FM-12+0066GMMF V0200401N005112200019N0050001N1+01981+01751101691ADDAA199000091GA1021+004809069GF102991021051004501001001MD1110121+9999REMSYN076AAXX  19214 60060 32450 20410 10198 20175 40169 51012 82500 333 82616 95300;EQDQ01  00002PRCP99
0191600600999992000062006004+29360-010170FM-12+0066GMMF V0202201N001512200019N0040001N1+01851+01631101611ADDAA199000091GA1021+003009079GF102991021061004501001001KA1120N+01801MW1101REMSYN088AAXX  20064 60060 31440 22203 10185 20163 40161 5//// 710// 82600 333 20180 82710 95300;EQDQ01  00002PRCP99
0202600600999992000062009004+29360-010170FM-12+0066GMMF V0202601N002612200019N0040001N1+01941+01711101611ADDAA199000091AY101031AY201031GA1031+003009079GF103991031061004501001001MD1410001+9999MW1101REMSYN082AAXX  20094 60060 31440 32605 10194 20171 40161 54000 71000 83600 333 83710 95300;EQDQ01  00002PRCP99
0202600600999992000062012004+29360-010170FM-12+0066GMMF V0202601N005110360019N0040001N1+02071+01721101611ADDAA199000091AY111061AY211061GA1041+003009079GF106991041061004501031001MD1010001+9999MW1101REMSYN082AAXX  20124 60060 31440 62610 10207 20172 40161 50000 71011 84630 333 84710 95300;EQDQ01  00002PRCP99
0216600600999992000062015004+29360-010170FM-12+0066GMMF V0203601N003110510019N0040001N1+02141+01871101651ADDAA199000091AY111031GA1041+003009079GA2031+051009009GF106991041061004501001021MD1510041+9999MW1101REMSYN088AAXX  20154 60060 31440 63606 10214 20187 40165 55004 7101/ 84602 333 84710 83067 95300;EQDQ01  00002PRCP99
0175600600999992000062018004+29360-010170FM-12+0066GMMF V0203601N005712200019N0050001N1+02201+01731101591ADDAA199000091GA1001+999999999GF100991001001999999001001KA1999M+03141MD1810051+9999REMSYN064AAXX  20184 60060 32950 03611 10220 20173 40159 58005 333 10314;EQDQ01  00002PRCP99
0152600600999992000062021004+29360-010170FM-12+0066GMMF V0200401N003612200019N0050001N1+02021+01711101691ADDAA199000091GA1001+999999999GF100991001001999999001001MD1310091+9999REMSYN054AAXX  20214 60060 32950 00407 10202 20171 40169 53009;EQDQ01  00002PRCP99
0179600600999992000062106004+29360-010170FM-12+0066GMMF V0202201N002110360019N0050001N1+01901+01741101711ADDAA199000091GA1041+003009079GF105991041061004501031001KA1120N+01801REMSYN082AAXX  21064 60060 32450 52204 10190 20174 40171 5//// 84630 333 20180 84710 95300;EQDQ01  00002PRCP99
0194600600999992000062109004+29360-010170FM-12+0066GMMF V0202601N004110030019N0040001N1+01901+01741101751ADDAA199000091AY121031GA1071+003009079GF107991071061004501999999MD1310041+9999MW1101REMSYN082AAXX  21094 60060 32440 72608 10190 20174 40175 53004 7102/ 876// 333 87710 95310;EQDQ01  00002PRCP99
0174600600999992000062112004+29360-010170FM-12+0066GMMF V0202801N002112200019N0040001N1+02131+01761101761ADDAA199000091GA1021+003009079GF102991021061004501001001MD1010011+9999REMSYN076AAXX  21124 60060 31440 22804 10213 20176 40176 50001 82600 333 82710 95300;EQDQ01  00002PRCP99
0194600600999992000062115004+29360-010170FM-12+0066GMMF V0203601N003112200019N0040001N1+02171+01831101701ADDAA199000091AY101031GA1021+003009079GF102991021061004501001001MD1710051+9999MW1101REMSYN082AAXX  21154 60060 31440 23606 10217 20183 40170 57005 7100/ 82600 333 82710 95300;EQDQ01  00002PRCP99
0175600600999992000062118004+29360-010170FM-12+0066GMMF V0200201N005112200019N0060001N1+02101+01641101681ADDAA199000091GA1001+999999999GF100991001001999999001001KA1999M+02221MD1810031+9999REMSYN064AAXX  21184 60060 32956 00210 10210 20164 40168 58003 333 10222;EQDQ01  00002PRCP99
0152600600999992000062121004+29360-010170FM-12+0066GMMF V0203601N003112200019N0060001N1+01981+01641101721ADDAA199000091GA1001+999999999GF100991001001999999001001MD1310041+9999REMSYN054AAXX  21214 60060 32956 03606 10198 20164 40172 53004;EQDQ01  00002PRCP99
0179600600999992000062206004+29360-010170FM-12+0066GMMF V0202401N002610048019N0050001N1+01881+01671101751ADDAA199000091GA1081+004809069GF108991081051004501999999KA1120N+01851REMSYN082AAXX  22064 60060 32450 82405 10188 20167 40175 5//// 885// 333 20185 88616 95300;EQDQ01  00002PRCP99
0174600600999992000062209004+29360-010170FM-12+0066GMMF V0202601N005710048019N0050001N1+02011+01681101791ADDAA199000091GA1061+004809069GF106991061051004501001001MD1110041+9999REMSYN076AAXX  22094 60060 32450 62611 10201 20168 40179 51004 86500 333 86616 95300;EQDQ01  00002PRCP99
0152600600999992000062212004+29360-010170FM-12+0066GMMF V0202401N006712200019N0050001N1+02131+01701101771ADDAA199000091GA1001+999999999GF100991001001999999001001MD1810021+9999REMSYN054AAXX  22124 60060 32950 02413 10213 20170 40177 58002;EQDQ01  00002PRCP99
0152600600999992000062215004+29360-010170FM-12+0066GMMF V0202801N005712200019N0060001N1+02171+01741101681ADDAA199000091GA1001+999999999GF100991001001999999001001MD1610081+9999REMSYN054AAXX  22154 60060 32956 02811 10217 20174 40168 56008;EQDQ01  00002PRCP99
0175600600999992000062218004+29360-010170FM-12+0066GMMF V0203601N003612200019N0060001N1+02141+01711101641ADDAA199000091GA1001+999999999GF100991001001999999001001KA1999M+02221MD1610051+9999REMSYN064AAXX  22184 60060 32956 03607 10214 20171 40164 56005 333 10222;EQDQ01  00002PRCP99
0152600600999992000062221004+29360-010170FM-12+0066GMMF V0202401N003112200019N0060001N1+02021+01641101671ADDAA199000091GA1001+999999999GF100991001001999999001001MD1510031+9999REMSYN054AAXX  22214 60060 32956 02406 10202 20164 40167 55003;EQDQ01  00002PRCP99
0179600600999992000062306004+29360-010170FM-12+0066GMMF V0203601N002110048019N0050001N1+01911+01671101711ADDAA199000091GA1081+004809069GF108991081051004501999999KA1120N+01861REMSYN082AAXX  23064 60060 32450 83604 10191 20167 40171 5//// 885// 333 20186 88616 95300;EQDQ01  00002PRCP99
0174600600999992000062309004+29360-010170FM-12+0066GMMF V0202801N002610048019N0060001N1+01951+01691101731ADDAA199000091GA1081+004809069GF108991081051004501999999MD1310021+9999REMSYN076AAXX  23094 60060 32456 82805 10195 20169 40173 53002 885// 333 88616 95300;EQDQ01  00002PRCP99
0174600600999992000062312004+29360-010170FM-12+0066GMMF V0203001N003610048019N0060001N1+01981+01641101771ADDAA199000091GA1081+004809069GF108991081051004501999999MD1210041+9999REMSYN076AAXX  23124 60060 32456 83007 10198 20164 40177 52004 885// 333 88616 95300;EQDQ01  00002PRCP99
0193600600999992000062318004+29360-010170FM-12+0066GMMF V0200201N006210048019N0060001N1+02151+01571101681ADDAA199000091GA1071+004809069GF107991071051004501999999KA1120M+02181MD1810031+9999REMSYN082AAXX  23184 60060 32456 70212 10215 20157 40168 58003 875// 333 10218 87616 95300;EQDQ01  00002PRCP99
0174600600999992000062321004+29360-010170FM-12+0066GMMF V0200201N006212200019N0060001N1+01961+01451101751ADDAA199000091GA1031+004809069GF103991031051004501001001MD1110061+9999REMSYN076AAXX  23214 60060 32456 30212 10196 20145 40175 51006 83500 333 83616 95300;EQDQ01  00002PRCP99
0179600600999992000062406004+29360-010170FM-12+0066GMMF V0203601N003610048019N0060001N1+01851+01471101511ADDAA199000091GA1081+004809069GF108991081051004501999999KA1120N+01791REMSYN082AAXX  24064 60060 32456 83607 10185 20147 40151 5//// 885// 333 20179 88616 95300;EQDQ01  00002PRCP99
0168600600999992000062409004+29360-010170FM-12+0066GMMF V0203601N002110048019N0060001N1+01941+01541101531ADDAA199000091GA1071+004809059GF107991071051004501999999MD1310051+9999REMSYN070AAXX  24094 60060 32456 73604 10194 20154 40153 53005 875// 333 87616;EQDQ01  00002PRCP99
0174600600999992000062412004+29360-010170FM-12+0066GMMF V0203601N003110048019N0060001N1+01971+01551101551ADDAA199000091GA1061+004809069GF106991061051004501001001MD1310021+9999REMSYN076AAXX  24124 60060 32456 63606 10197 20155 40155 53002 86500 333 86616 95300;EQDQ01  00002PRCP99
0193600600999992000062418004+29360-010170FM-12+0066GMMF V0203601N004112200019N0080001N1+02061+01471101371ADDAA199000091GA1011+004809069GF103991011051004501001021KA1120M+02201MD1810081+9999REMSYN082AAXX  24184 60060 32458 33608 10206 20147 40137 58008 81502 333 10220 81616 95300;EQDQ01  00002PRCP99
0179600600999992000062506004+29360-010170FM-12+0066GMMF V0203601N003610048019N0060001N1+01821+01621101281ADDAA199000091GA1051+004809069GF106991051051004501001001KA1120N+01791REMSYN082AAXX  25064 60060 32456 63607 10182 20162 40128 5//// 85500 333 20179 85616 95300;EQDQ01  00002PRCP99
0174600600999992000062509004+29360-010170FM-12+0066GMMF V0200201N004110048019N0080001N1+01901+01581101391ADDAA199000091GA1061+004809069GF106991061051004501001001MD1310111+9999REMSYN076AAXX  25094 60060 32458 60208 10190 20158 40139 53011 86500 333 86616 95300;EQDQ01  00002PRCP99
0174600600999992000062512004+29360-010170FM-12+0066GMMF V0203601N004110048019N0080001N1+02031+01591101441ADDAA199000091GA1071+004809069GF107991071051004501999999MD1110051+9999REMSYN076AAXX  25124 60060 32458 73608 10203 20159 40144 51005 875// 333 87616 95300;EQDQ01  00002PRCP99
0196600600999992000062515004+29360-010170FM-12+0066GMMF V0203201N003612200019N0100001N1+02101+01551101391ADDAA199000091GA1011+004809069GA2031+060009009GF103991011051004501001021MD1810051+9999REMSYN082AAXX  25154 60060 32460 33207 10210 20155 40139 58005 81502 333 81616 83070 95300;EQDQ01  00002PRCP99
0193600600999992000062518004+29360-010170FM-12+0066GMMF V0203601N003612200019N0100001N1+02041+01561101411ADDAA199000091GA1021+004809069GF102991021051004501001001KA1120M+02151MD1310021+9999REMSYN082AAXX  25184 60060 32460 23607 10204 20156 40141 53002 82500 333 10215 82616 95300;EQDQ01  00002PRCP99
0152600600999992000062521004+29360-010170FM-12+0066GMMF V0203601N003612200019N0080001N1+01961+01611101551ADDAA199000091GA1001+999999999GF100991001001999999001001MD1310141+9999REMSYN054AAXX  25214 60060 32958 03607 10196 20161 40155 53014;EQDQ01  00002PRCP99
0161600600999992000062606004+29360-010170FM-12+0066GMMF V0200401N002612200019N0080001N1+01761+01211101551ADDAA199000091GA1001+999999999GF100991001001999999001001KA1999N+01721REMSYN064AAXX  26064 60060 32958 00405 10176 20121 40155 5//// 333 20172;EQDQ01  00002PRCP99
0152600600999992000062609004+29360-010170FM-12+0066GMMF V0203601N004112200019N0100001N1+02101+01161101611ADDAA199000091GA1001+999999999GF100991001001999999001001MD1210061+9999REMSYN054AAXX  26094 60060 32960 03608 10210 20116 40161 52006;EQDQ01  00002PRCP99
0152600600999992000062612004+29360-010170FM-12+0066GMMF V0203601N005712200019N0150001N1+02121+01591101721ADDAA199000091GA1001+999999999GF100991001001999999001001MD1110111+9999REMSYN054AAXX  26124 60060 32965 03611 10212 20159 40172 51011;EQDQ01  00002PRCP99
0174600600999992000062615004+29360-010170FM-12+0066GMMF V0203601N007212200019N0120001N1+02101+01661101681ADDAA199000091GA1011+060009009GF101991001001999999001011MD1710041+9999REMSYN076AAXX  26154 60060 32962 13614 10210 20166 40168 57004 80001 333 81070 95300;EQDQ01  00002PRCP99
0175600600999992000062618004+29360-010170FM-12+0066GMMF V0203601N005712200019N0120001N1+02061+01651101671ADDAA199000091GA1001+999999999GF100991001001999999001001KA1999M+02231MD1510011+9999REMSYN064AAXX  26184 60060 32962 03611 10206 20165 40167 55001 333 10223;EQDQ01  00002PRCP99
0152600600999992000062621004+29360-010170FM-12+0066GMMF V0203601N005112200019N0080001N1+01921+01621101791ADDAA199000091GA1001+999999999GF100991001001999999001001MD1310121+9999REMSYN054AAXX  26214 60060 32958 03610 10192 20162 40179 53012;EQDQ01  00002PRCP99
0161600600999992000062706004+29360-010170FM-12+0066GMMF V0200401N002612200019N0080001N1+01861+01591101721ADDAA199000091GA1001+999999999GF100991001001999999001001KA1999N+01841REMSYN064AAXX  27064 60060 32958 00405 10186 20159 40172 5//// 333 20184;EQDQ01  00002PRCP99
0174600600999992000062709004+29360-010170FM-12+0066GMMF V0203401N004110600019N0100001N1+02011+01701101771ADDAA199000091GA1061+060009009GF106991001001999999001021MD1310051+9999REMSYN076AAXX  27094 60060 32960 63408 10201 20170 40177 53005 80002 333 86070 95300;EQDQ01  00002PRCP99
0174600600999992000062712004+29360-010170FM-12+0066GMMF V0203601N002112200019N0080001N1+02151+01751101801ADDAA199000091GA1021+004809069GF104991021051004501001021MD1110041+9999REMSYN076AAXX  27124 60060 32458 43604 10215 20175 40180 51004 82502 333 82616 95300;EQDQ01  00002PRCP99
0174600600999992000062715004+29360-010170FM-12+0066GMMF V0203601N004612200019N0080001N1+02141+01791101751ADDAA199000091GA1011+004809069GF101991011051004501001001MD1810061+9999REMSYN076AAXX  27154 60060 32458 13609 10214 20179 40175 58006 81500 333 81616 95300;EQDQ01  00002PRCP99
0193600600999992000062718004+29360-010170FM-12+0066GMMF V0203601N006212200019N0080001N1+02151+01841101741ADDAA199000091GA1011+004809069GF101991011051004501001001KA1120M+02301MD1010001+9999REMSYN082AAXX  27184 60060 32458 13612 10215 20184 40174 50000 81500 333 10230 81616 95300;EQDQ01  00002PRCP99
0174600600999992000062721004+29360-010170FM-12+0066GMMF V0200201N006712200019N0060001N1+02101+01811101791ADDAA199000091GA1031+024009039GF103991031001004501031001MD1210041+9999REMSYN076AAXX  27214 60060 32456 30213 10210 20181 40179 52004 83030 333 83358 95300;EQDQ01  00002PRCP99
0191600600999992000062806004+29360-010170FM-12+0066GMMF V0202201N001010030019N0040001N1+01931+01801101671ADDAA199000091GA1071+003009079GF107991071061004501999999KA1120N+01901MW1101REMSYN088AAXX  28064 60060 31440 72202 10193 20180 40167 5//// 710// 876// 333 20190 87710 95300;EQDQ01  00002PRCP99
0194600600999992000062809004+29360-010170FM-12+0066GMMF V0202601N003110024019N0008001N1+01901+01901101711ADDAA199000091AY121031GA1081+002409079GF108991081061002501999999MD1110041+9999MW1461REMSYN082AAXX  28094 60060 31308 82606 10190 20190 40171 51004 7462/ 886// 333 88708 95360;EQDQ01  00002PRCP99
0202600600999992000062812004+29360-010170FM-12+0066GMMF V0202601N005112200019N0030001N1+02151+01841101691ADDAA199000091AY141061AY221061GA1041+003009079GF104991041061004501001001MD1410001+9999MW1101REMSYN082AAXX  28124 60060 31430 42610 10215 20184 40169 54002 71042 84600 333 84710 95300;EQDQ01  00002PRCP99
0194600600999992000062815004+29360-010170FM-12+0066GMMF V0203601N002612200019N0035001N1+02141+01821101631ADDAA199000091AY101031GA1041+003009079GF104991041061004501001001MD1710061+9999MW1101REMSYN082AAXX  28154 60060 31435 43605 10214 20182 40163 57006 7100/ 84600 333 84710 95300;EQDQ01  00002PRCP99
0193600600999992000062818004+29360-010170FM-12+0066GMMF V0203601N003112200019N0050001N1+02211+01821101581ADDAA199000091GA1031+003009079GF103991031061004501001001KA1120M+02241MD1610041+9999REMSYN082AAXX  28184 60060 32450 33606 10221 20182 40158 56004 83600 333 10224 83710 95300;EQDQ01  00002PRCP99
0152600600999992000062821004+29360-010170FM-12+0066GMMF V0203601N003612200019N0050001N1+02121+01801101631ADDAA199000091GA1001+999999999GF100991001001999999001001MD1310041+9999REMSYN054AAXX  28214 60060 32950 03607 10212 20180 40163 53004;EQDQ01  00002PRCP99
0213600600999992000062906004+29360-010170FM-12+0066GMMF V0202401N003610048019N0030001N1+01961+01831101591ADDAA199000091GA1031+003009079GA2081+004809069GF108991081051004501999999KA1120N+01891MW1101REMSYN094AAXX  29064 60060 31430 82407 10196 20183 40159 5//// 710// 885// 333 20189 83710 88616 95310;EQDQ01  00002PRCP99
0224600600999992000062909004+29360-010170FM-12+0066GMMF V0202601N004610048019N0035001N1+01991+01821101561ADDAA199000091AY121031AY221031GA1021+003009079GA2081+004809069GF108991081051004501999999MD1210041+9999MW1101REMSYN088AAXX  29094 60060 31435 82609 10199 20182 40156 52004 71022 885// 333 82710 88616 95300;EQDQ01  00002PRCP99
0202600600999992000062912004+29360-010170FM-12+0066GMMF V0202801N003612200019N0040001N1+02161+01831101551ADDAA199000091AY111061AY211061GA1031+004809069GF103991031051004501001001MD1010001+9999MW1101REMSYN082AAXX  29124 60060 31440 32807 10216 20183 40155 50000 71011 83500 333 83616 95300;EQDQ01  00002PRCP99
0172600600999992000062915004+29360-010170FM-12+0066GMMF V0202601N003112200019N0045001N1+02241+01861101441ADDAA199000091AY101031GA1001+999999999GF100991001001999999001001MD1710111+9999MW1101REMSYN060AAXX  29154 60060 31945 02606 10224 20186 40144 57011 7100/;EQDQ01  00002PRCP99
0175600600999992000062918004+29360-010170FM-12+0066GMMF V0203601N004612200019N0050001N1+02151+01851101421ADDAA199000091GA1001+999999999GF100991001001999999001001KA1999M+02291MD1610021+9999REMSYN064AAXX  29184 60060 32950 03609 10215 20185 40142 56002 333 10229;EQDQ01  00002PRCP99
0216600600999992000063009004+29360-010170FM-12+0066GMMF V0202401N004110048019N0025001N1+01981+01851101351ADDAA199000091AY121031GA1031+003009079GA2071+004809069GF108991081051004501999999MD1310031+9999MW1101REMSYN088AAXX  30094 60060 31425 82408 10198 20185 40135 53003 7102/ 885// 333 83710 87616 95310;EQDQ01  00002PRCP99
0202600600999992000063012004+29360-010170FM-12+0066GMMF V0202601N004610048019N0035001N1+02141+01871101361ADDAA199000091AY121061AY221061GA1071+004809069GF107991071051004501999999MD1210011+9999MW1101REMSYN082AAXX  30124 60060 31435 72609 10214 20187 40136 52001 71022 875// 333 87616 95300;EQDQ01  00002PRCP99
0190600600999992000063015004+29360-010170FM-12+0066GMMF V0202601N003110048019N0035001N1+02051+01831101321ADDAA199000091GA1021+003009079GA2081+004809069GF108991999999004501999999MD1710041+9999REMSYN076AAXX  30154 60060 31435 82606 10205 20183 40132 57004 333 82710 88616 95300;EQDQ01  00002PRCP99
0243600600999992000063018004+29360-010170FM-12+0066GMMF V0203401N003110048019N0030001N1+02001+01791101291ADDAA199000091AY121061AY221061GA1011+003009079GA2081+004809069GF108991081051004501999999KA1120M+02201MD1610031+9999MW1101REMSYN094AAXX  30184 60060 31430 83406 10200 20179 40129 56003 71022 885// 333 10220 81710 88616 95300;EQDQ01  00002PRCP99
0216600600999992000063021004+29360-010170FM-12+0066GMMF V0203601N004110048019N0030001N1+02021+01911101361ADDAA199000091AY121031GA1011+003009079GA2081+004809069GF108991081051004501999999MD1310071+9999MW1101REMSYN088AAXX  30214 60060 31430 83608 10202 20191 40136 53007 7102/ 885// 333 81710 88616 95300;EQDQ01  00002PRCP99
0191600600999992000070106004+29360-010170FM-12+0066GMMF V0202201N003110048019N0040001N1+01981+01851101041ADDAA199000091GA1081+004809069GF108991081051004501999999KA1120N+01951MW1101REMSYN088AAXX  01064 60060 31440 82206 10198 20185 40104 5//// 710// 885// 333 20195 88616 95300;EQDQ01  00002PRCP99
0216600600999992000070109004+29360-010170FM-12+0066GMMF V0202601N004110048019N0035001N1+01981+01871101141ADDAA199000091AY121031GA1021+003009079GA2081+004809069GF108991081051004501999999MD1310101+9999MW1101REMSYN088AAXX  01094 60060 31435 82608 10198 20187 40114 53010 7102/ 885// 333 82710 88616 95300;EQDQ01  00002PRCP99
0202600600999992000070112004+29360-010170FM-12+0066GMMF V0202201N003610048019N0040001N1+02081+01881101271ADDAA199000091AY121061AY221061GA1081+004809069GF108991081051004501999999MD1210131+9999MW1101REMSYN082AAXX  01124 60060 31440 82207 10208 20188 40127 52013 71022 885// 333 88616 95300;EQDQ01  00002PRCP99
0202600600999992000070115004+29360-010170FM-12+0066GMMF V0203201N002610048019N0040001N1+02191+01891101161ADDAA199000091AY121031AY221031GA1051+004809069GF105991051051004501001001MD1810111+9999MW1101REMSYN082AAXX  01154 60060 31440 53205 10219 20189 40116 58011 71022 85500 333 85616 95300;EQDQ01  00002PRCP99
0221600600999992000070118004+29360-010170FM-12+0066GMMF V0202801N003610048019N0040001N1+02061+01821101181ADDAA199000091AY121061AY221061GA1071+004809069GF107991071051004501999999KA1120M+02231MD1310021+9999MW1101REMSYN088AAXX  01184 60060 31440 72807 10206 20182 40118 53002 71022 875// 333 10223 87616 95300;EQDQ01  00002PRCP99
0202600600999992000070121004+29360-010170FM-12+0066GMMF V0203201N002110048019N0040001N1+01961+01751101231ADDAA199000091AY121031AY221031GA1061+004809069GF106991061051004501001001MD1310051+9999MW1101REMSYN082AAXX  01214 60060 31440 63204 10196 20175 40123 53005 71022 86500 333 86616 95300;EQDQ01  00002PRCP99
0213600600999992000070206004+29360-010170FM-12+0066GMMF V0202401N003610048019N0030001N1+01951+01851101241ADDAA199000091GA1031+003009079GA2081+004809069GF108991081051004501999999KA1120N+01911MW1101REMSYN094AAXX  02064 60060 31430 82407 10195 20185 40124 5//// 710// 885// 333 20191 83710 88616 95310;EQDQ01  00002PRCP99
0202600600999992000070209004+29360-010170FM-12+0066GMMF V0202401N003610048019N0040001N1+02051+01841101271ADDAA199000091AY121031AY221031GA1071+004809069GF107991071051004501999999MD1310031+9999MW1101REMSYN082AAXX  02094 60060 31440 72407 10205 20184 40127 53003 71022 875// 333 87616 95300;EQDQ01  00002PRCP99
0186600600999992000070212004+29360-010170FM-12+0066GMMF V0202401N005110048019N0040001N1+02091+01841101411ADDAA199000091GA1081+004809069GF108991081051004501999999MD1110131+9999MW1101REMSYN082AAXX  02124 60060 31440 82410 10209 20184 40141 51013 710// 885// 333 88616 95300;EQDQ01  00002PRCP99
0194600600999992000070215004+29360-010170FM-12+0066GMMF V0202801N002610048019N0035001N1+02101+01781101371ADDAA199000091AY121031GA1071+004809069GF107991071051004501999999MD1710041+9999MW1101REMSYN082AAXX  02154 60060 31435 72805 10210 20178 40137 57004 7102/ 875// 333 87616 95300;EQDQ01  00002PRCP99
0193600600999992000070218004+29360-010170FM-12+0066GMMF V0203601N004612200019N0050001N1+02101+01811101361ADDAA199000091GA1031+004809069GF103991031051004501001001KA1120M+02201MD1510011+9999REMSYN082AAXX  02184 60060 32450 33609 10210 20181 40136 55001 83500 333 10220 83616 95300;EQDQ01  00002PRCP99
0174600600999992000070221004+29360-010170FM-12+0066GMMF V0203601N005112200019N0050001N1+02061+01811101511ADDAA199000091GA1021+004809069GF102991021051004501001001MD1310151+9999REMSYN076AAXX  02214 60060 32450 23610 10206 20181 40151 53015 82500 333 82616 95300;EQDQ01  00002PRCP99
0179600600999992000070306004+29360-010170FM-12+0066GMMF V0202601N001510048019N0050001N1+01901+01751101411ADDAA199000091GA1081+004809069GF108991081051004501999999KA1120N+01871REMSYN082AAXX  03064 60060 32450 82603 10190 20175 40141 5//// 885// 333 20187 88616 95300;EQDQ01  00002PRCP99
0216600600999992000070309004+29360-010170FM-12+0066GMMF V0202601N002110048019N0035001N1+01911+01801101471ADDAA199000091AY121031GA1031+003009079GA2081+004809069GF108991081051004501999999MD1310061+9999MW1101REMSYN088AAXX  03094 60060 31435 82604 10191 20180 40147 53006 7102/ 885// 333 83710 88616 95310;EQDQ01  00002PRCP99
0224600600999992000070312004+29360-010170FM-12+0066GMMF V0203401N003110048019N0040001N1+02001+01811101551ADDAA199000091AY121061AY221061GA1011+003009079GA2071+004809069GF107991071051004501999999MD1310081+9999MW1101REMSYN088AAXX  03124 60060 31440 73406 10200 20181 40155 53008 71022 875// 333 81710 87616 95300;EQDQ01  00002PRCP99
0174600600999992000070315004+29360-010170FM-12+0066GMMF V0200401N005712200019N0050001N1+02151+01801101541ADDAA199000091GA1011+004809069GF101991011051004501001001MD1410001+9999REMSYN076AAXX  03154 60060 32450 10411 10215 20180 40154 54000 81500 333 81616 95300;EQDQ01  00002PRCP99
0152600600999992000070321004+29360-010170FM-12+0066GMMF V0200201N006212200019N0080001N1+02031+01651101521ADDAA199000091GA1001+999999999GF100991001001999999001001MD1210031+9999REMSYN054AAXX  03214 60060 32958 00212 10203 20165 40152 52003;EQDQ01  00002PRCP99
0179600600999992000070406004+29360-010170FM-12+0066GMMF V0202601N001010048019N0070001N1+01891+01661101311ADDAA199000091GA1071+004809069GF107991071051004501999999KA1120N+01851REMSYN082AAXX  04064 60060 32457 72602 10189 20166 40131 5//// 875// 333 20185 87616 95300;EQDQ01  00002PRCP99
0174600600999992000070409004+29360-010170FM-12+0066GMMF V0202601N003112200019N0070001N1+01951+01691101311ADDAA199000091GA1031+004809069GF103991031051004501001001MD1510001+9999REMSYN076AAXX  04094 60060 32457 32606 10195 20169 40131 55000 83500 333 83616 95300;EQDQ01  00002PRCP99
0174600600999992000070412004+29360-010170FM-12+0066GMMF V0202601N003112200019N0080001N1+02121+01741101321ADDAA199000091GA1031+004809069GF103991031051004501001001MD1310011+9999REMSYN076AAXX  04124 60060 32458 32606 10212 20174 40132 53001 83500 333 83616 95300;EQDQ01  00002PRCP99
0174600600999992000070415004+29360-010170FM-12+0066GMMF V0203601N002112200019N0080001N1+02141+01721101241ADDAA199000091GA1011+004809069GF101991011051004501001001MD1810071+9999REMSYN076AAXX  04154 60060 32458 13604 10214 20172 40124 58007 81500 333 81616 95300;EQDQ01  00002PRCP99
0193600600999992000070418004+29360-010170FM-12+0066GMMF V0200201N004612200019N0080001N1+02131+01761101221ADDAA199000091GA1021+004809069GF102991021051004501001001KA1120M+02301MD1810021+9999REMSYN082AAXX  04184 60060 32458 20209 10213 20176 40122 58002 82500 333 10230 82616 95300;EQDQ01  00002PRCP99
0179600600999992000070506004+29360-010170FM-12+0066GMMF V0202401N004610048019N0050001N1+01911+01681101021ADDAA199000091GA1071+004809069GF107991071051004501999999KA1120N+01851REMSYN082AAXX  05064 60060 32450 72409 10191 20168 40102 5//// 875// 333 20185 87616 95300;EQDQ01  00002PRCP99
0174600600999992000070509004+29360-010170FM-12+0066GMMF V0202201N003110360019N0070001N1+01951+01711101101ADDAA199000091GA1041+004809069GF105991041051004501031001MD1110081+9999REMSYN076AAXX  05094 60060 32457 52206 10195 20171 40110 51008 84530 333 84616 95300;EQDQ01  00002PRCP99
0174600600999992000070512004+29360-010170FM-12+0066GMMF V0203001N003612200019N0070001N1+02191+01751101081ADDAA199000091GA1021+004809069GF103991021051004501031001MD1710021+9999REMSYN076AAXX  05124 60060 32457 33007 10219 20175 40108 57002 82530 333 82616 95300;EQDQ01  00002PRCP99
0174600600999992000070515004+29360-010170FM-12+0066GMMF V0203201N003112200019N0070001N1+02111+01771101051ADDAA199000091GA1011+024009039GF101991011001999999031001MD1610041+9999REMSYN076AAXX  05154 60060 32957 13206 10211 20177 40105 56004 81030 333 81358 95300;EQDQ01  00002PRCP99
0175600600999992000070518004+29360-010170FM-12+0066GMMF V0203601N005712200019N0060001N1+02121+01781100991ADDAA199000091GA1001+999999999GF100991001001999999001001KA1999M+02181MD1710051+9999REMSYN064AAXX  05184 60060 32956 03611 10212 20178 40099 57005 333 10218;EQDQ01  00002PRCP99
0174600600999992000070521004+29360-010170FM-12+0066GMMF V0203601N004612200019N0060001N1+02011+01801101041ADDAA199000091GA1031+004809069GF103991031051004501001001MD1310051+9999REMSYN076AAXX  05214 60060 32456 33609 10201 20180 40104 53005 83500 333 83616 95300;EQDQ01  00002PRCP99
0213600600999992000070606004+29360-010170FM-12+0066GMMF V0202401N004610048019N0040001N1+01931+01851100961ADDAA199000091GA1041+003009079GA2081+004809069GF108991081051004501999999KA1120N+01881MW1101REMSYN094AAXX  06064 60060 31440 82409 10193 20185 40096 5//// 710// 885// 333 20188 84710 88616 95310;EQDQ01  00002PRCP99
0216600600999992000070609004+29360-010170FM-12+0066GMMF V0202601N002610048019N0035001N1+01961+01861101101ADDAA199000091AY121031GA1021+003009089GA2081+004809069GF108991081051004501999999MD1310141+9999MW1101REMSYN088AAXX  06094 60060 31435 82605 10196 20186 40110 53014 7102/ 885// 333 82810 88616 95310;EQDQ01  00002PRCP99
0224600600999992000070612004+29360-010170FM-12+0066GMMF V0202601N002610048019N0045001N1+02101+01901101161ADDAA199000091AY121061AY221061GA1031+003009079GA2081+004809069GF108991081051004501999999MD1110061+9999MW1101REMSYN088AAXX  06124 60060 31445 82605 10210 20190 40116 51006 71022 885// 333 83710 88616 95310;EQDQ01  00002PRCP99
0193600600999992000070618004+29360-010170FM-12+0066GMMF V0200601N003612200019N0050001N1+02501+01901100941ADDAA199000091GA1031+021009039GF103991031001999999081001KA1120M+02521MD1810171+9999REMSYN082AAXX  06184 60060 32950 30607 10250 20190 40094 58017 83080 333 10252 83357 95300;EQDQ01  00002PRCP99
0174600600999992000070621004+29360-010170FM-12+0066GMMF V0202801N002110210019N0050001N1+02051+01901101081ADDAA199000091GA1051+021009039GF105991051001999999031001MD1310131+9999REMSYN076AAXX  06214 60060 32950 52804 10205 20190 40108 53013 85030 333 85357 95300;EQDQ01  00002PRCP99
0213600600999992000070706004+29360-010170FM-12+0066GMMF V0202401N006210048019N0040001N1+01901+01691101231ADDAA199000091GA1031+002409079GA2081+004809069GF108991081051002501999999KA1120N+01871MW1101REMSYN094AAXX  07064 60060 31340 82412 10190 20169 40123 5//// 710// 885// 333 20187 83708 88616 95310;EQDQ01  00002PRCP99
0216600600999992000070709004+29360-010170FM-12+0066GMMF V0202401N008710048019N0045001N1+02001+01811101471ADDAA199000091AY121031GA1021+003009079GA2061+004809069GF106991061051004501001001MD1110231+9999MW1101REMSYN088AAXX  07094 60060 31445 62417 10200 20181 40147 51023 7102/ 86500 333 82710 86616 95300;EQDQ01  00002PRCP99
0174600600999992000070712004+29360-010170FM-12+0066GMMF V0202201N008212200019N0050001N1+02281+01861101631ADDAA199000091GA1041+004809069GF104991041051004501001001MD1110171+9999REMSYN076AAXX  07124 60060 32450 42216 10228 20186 40163 51017 84500 333 84616 95300;EQDQ01  00002PRCP99
0152600600999992000070715004+29360-010170FM-12+0066GMMF V0202601N008712200019N0060001N1+02391+01911101581ADDAA199000091GA1001+999999999GF100991001001999999001001MD1810051+9999REMSYN054AAXX  07154 60060 32956 02617 10239 20191 40158 58005;EQDQ01  00002PRCP99
0175600600999992000070718004+29360-010170FM-12+0066GMMF V0202601N006712200019N0060001N1+02321+02011101561ADDAA199000091GA1001+999999999GF100991001001999999001001KA1999M+02441MD1810021+9999REMSYN064AAXX  07184 60060 32956 02613 10232 20201 40156 58002 333 10244;EQDQ01  00002PRCP99
0174600600999992000070721004+29360-010170FM-12+0066GMMF V0202401N005112200019N0050001N1+02101+01941101641ADDAA199000091GA1041+003009079GF104991041061004501001001MD1210071+9999REMSYN076AAXX  07214 60060 32450 42410 10210 20194 40164 52007 84600 333 84710 95300;EQDQ01  00002PRCP99
0191600600999992000070806004+29360-010170FM-12+0066GMMF V0203401N001010024019N0015001N1+01961+01901101571ADDAA199000091GA1081+002409079GF108991081061002501999999KA1120N+01921MW1101REMSYN088AAXX  08064 60060 31315 83402 10196 20190 40157 5//// 710// 886// 333 20192 88708 95360;EQDQ01  00002PRCP99
0172600600999992000070809004+29360-010170FM-12+0066GMMF V0203601N002610024019N0018001N1+01951+01901101651ADDAY151031AY221031GA1081+002409079GF108991081061002501999999MD1310081+9999MW1201REMSYN082AAXX  08094 60060 41318 83605 10195 20190 40165 53008 72052 886// 333 88708 95360;
0211600600999992000070812004+29360-010170FM-12+0066GMMF V0203001N003110048019N0050001N1+02091+01801101671ADDAA106000191AY151061AY221061GA1021+003009079GA2081+004809069GF108991081051004501999999MD1010021+9999MW1011REMSYN094AAXX  08124 60060 11450 83006 10209 20180 40167 50002 69921 70152 885// 333 82710 88616 95300;
0177600600999992000070815004+29360-010170FM-12+0066GMMF V0202401N003610048019N0050001N1+02041+01851101651ADDAA199000021GA1021+003009079GA2081+004809069GF108991081051004501999999MD1610021+9999REMSYN082AAXX  08154 60060 32450 82407 10204 20185 40165 56002 885// 333 82710 88616 95300;
0180600600999992000070818004+29360-010170FM-12+0066GMMF V0200401N006210048019N0050001N1+02121+01851101631ADDAA112000191GA1061+004809069GF106991061051004501001001KA1120M+02141MD1810021+9999REMSYN088AAXX  08184 60060 12450 60412 10212 20185 40163 58002 69922 86500 333 10214 86616 95300;
0155600600999992000070821004+29360-010170FM-12+0066GMMF V0200401N004612200019N0050001N1+02061+01811101721ADDAA199000021GA1031+004809069GF103991031051004501001001MD1310091+9999REMSYN076AAXX  08214 60060 32450 30409 10206 20181 40172 53009 83500 333 83616 95300;
0178600600999992000070906004+29360-010170FM-12+0066GMMF V0203201N001510024019N0008001N1+01901+01801101571ADDAA124000191GA1081+002409079GF108991081061002501999999KA1120N+01871MW1101REMSYN094AAXX  09064 60060 11308 83203 10190 20180 40157 5//// 69924 710// 886// 333 20187 88708 95310;
0194600600999992000070909004+29360-010170FM-12+0066GMMF V0203001N001510024019N0020001N1+01921+01791101611ADDAA199000091AY121031GA1081+002409079GF108991081061002501999999MD1310041+9999MW1101REMSYN082AAXX  09094 60060 31320 83003 10192 20179 40161 53004 7102/ 886// 333 88708 95310;EQDQ01  00002PRCP99
0202600600999992000070912004+29360-010170FM-12+0066GMMF V0203201N002110030019N0040001N1+02051+01731101691ADDAA199000091AY121061AY221061GA1061+003009079GF106991061061004501001001MD1210081+9999MW1101REMSYN082AAXX  09124 60060 31440 63204 10205 20173 40169 52008 71022 86600 333 86710 95300;EQDQ01  00002PRCP99
0194600600999992000070915004+29360-010170FM-12+0066GMMF V0203601N007212200019N0045001N1+02121+01771101681ADDAA199000091AY111031GA1021+003009079GF102991021061004501001001MD1410001+9999MW1101REMSYN082AAXX  09154 60060 31445 23614 10212 20177 40168 54000 7101/ 82600 333 82710 95300;EQDQ01  00002PRCP99
0193600600999992000070918004+29360-010170FM-12+0066GMMF V0200201N007712200019N0050001N1+02131+01701101651ADDAA199000091GA1011+003009079GF101991011061004501001001KA1120M+02241MD1610041+9999REMSYN082AAXX  09184 60060 32450 10215 10213 20170 40165 56004 81600 333 10224 81710 95300;EQDQ01  00002PRCP99
0174600600999992000070921004+29360-010170FM-12+0066GMMF V0200201N007210030019N0050001N1+02041+01661101711ADDAA199000091GA1051+003009079GF105991051061004501001001MD1210061+9999REMSYN076AAXX  09214 60060 32450 50214 10204 20166 40171 52006 85600 333 85710 95300;EQDQ01  00002PRCP99
0179600600999992000071006004+29360-010170FM-12+0066GMMF V0203601N003110048019N0050001N1+01901+01661101471ADDAA199000091GA1081+004809069GF108991081051004501999999KA1120N+01861REMSYN082AAXX  10064 60060 32450 83606 10190 20166 40147 5//// 885// 333 20186 88616 95300;EQDQ01  00002PRCP99
0174600600999992000071009004+29360-010170FM-12+0066GMMF V0200401N005110048019N0050001N1+01941+01631101491ADDAA199000091GA1081+004809069GF108991081051004501999999MD1110021+9999REMSYN076AAXX  10094 60060 32450 80410 10194 20163 40149 51002 885// 333 88616 95300;EQDQ01  00002PRCP99
0174600600999992000071012004+29360-010170FM-12+0066GMMF V0200201N007212200019N0050001N1+02101+01621101511ADDAA199000091GA1021+004809069GF102991021051004501001001MD1310021+9999REMSYN076AAXX  10124 60060 32450 20214 10210 20162 40151 53002 82500 333 82616 95300;EQDQ01  00002PRCP99
0152600600999992000071015004+29360-010170FM-12+0066GMMF V0203601N006712200019N0080001N1+02241+01581101381ADDAA199000091GA1001+999999999GF100991001001999999001001MD1810121+9999REMSYN054AAXX  10154 60060 32958 03613 10224 20158 40138 58012;EQDQ01  00002PRCP99
0175600600999992000071018004+29360-010170FM-12+0066GMMF V0200201N006212200019N0080001N1+02191+01661101241ADDAA199000091GA1001+999999999GF100991001001999999001001KA1999M+02271MD1710141+9999REMSYN064AAXX  10184 60060 32958 00212 10219 20166 40124 57014 333 10227;EQDQ01  00002PRCP99
0174600600999992000071021004+29360-010170FM-12+0066GMMF V0203601N002110048019N0070001N1+02001+01621101201ADDAA199000091GA1071+004809069GF107991071051999999999999MD1710041+9999REMSYN076AAXX  10214 60060 32957 73604 10200 20162 40120 57004 875// 333 87616 95300;EQDQ01  00002PRCP99
0179600600999992000071106004+29360-010170FM-12+0066GMMF V0202601N002610048019N0050001N1+01861+01631100911ADDAA199000091GA1081+004809069GF108991081051004501999999KA1120N+01821REMSYN082AAXX  11064 60060 32450 82605 10186 20163 40091 5//// 885// 333 20182 88616 95300;EQDQ01  00002PRCP99
0174600600999992000071109004+29360-010170FM-12+0066GMMF V0202401N002610048019N0060001N1+01921+01621100941ADDAA199000091GA1071+004809069GF107991071051004501999999MD1310031+9999REMSYN076AAXX  11094 60060 32456 72405 10192 20162 40094 53003 875// 333 87616 95300;EQDQ01  00002PRCP99
0174600600999992000071112004+29360-010170FM-12+0066GMMF V0203601N002610048019N0060001N1+02161+01691101021ADDAA199000091GA1051+004809069GF105991051051004501001999MD1110081+9999REMSYN076AAXX  11124 60060 32456 53605 10216 20169 40102 51008 8550/ 333 85616 95300;EQDQ01  00002PRCP99
0174600600999992000071115004+29360-010170FM-12+0066GMMF V0203601N002112200019N0070001N1+02201+01721101001ADDAA199000091GA1021+004809069GF102991021051004501001001MD1710021+9999REMSYN076AAXX  11154 60060 32457 23604 10220 20172 40100 57002 82500 333 82616 95300;EQDQ01  00002PRCP99
0193600600999992000071118004+29360-010170FM-12+0066GMMF V0203601N004110048019N0060001N1+02141+01771101061ADDAA199000091GA1071+004809069GF107991071051004501999999KA1120M+02241MD1110061+9999REMSYN082AAXX  11184 60060 32456 73608 10214 20177 40106 51006 875// 333 10224 87616 95300;EQDQ01  00002PRCP99
0174600600999992000071121004+29360-010170FM-12+0066GMMF V0203601N005710048019N0050001N1+02041+01631101161ADDAA199000091GA1061+004809069GF106991061051004501001001MD1310101+9999REMSYN076AAXX  11214 60060 32450 63611 10204 20163 40116 53010 86500 333 86616 95300;EQDQ01  00002PRCP99
0179600600999992000071206004+29360-010170FM-12+0066GMMF V0202401N003110048019N0050001N1+01821+01621101131ADDAA199000091GA1081+004809069GF108991081051004501999999KA1120N+01801REMSYN082AAXX  12064 60060 32450 82406 10182 20162 40113 5//// 885// 333 20180 88616 95300;EQDQ01  00002PRCP99
0174600600999992000071209004+29360-010170FM-12+0066GMMF V0202401N005110048019N0050001N1+01951+01601101291ADDAA199000091GA1061+004809069GF106991061051004501001001MD1310161+9999REMSYN076AAXX  12094 60060 32450 62410 10195 20160 40129 53016 86500 333 86616 95300;EQDQ01  00002PRCP99
0174600600999992000071212004+29360-010170FM-12+0066GMMF V0202401N004610048019N0050001N1+02131+01621101431ADDAA199000091GA1051+004809069GF105991051051004501001001MD1110141+9999REMSYN076AAXX  12124 60060 32450 52409 10213 20162 40143 51014 85500 333 85616 95300;EQDQ01  00002PRCP99
0174600600999992000071215004+29360-010170FM-12+0066GMMF V0202601N004612200019N0050001N1+02151+01681101391ADDAA199000091GA1041+004809069GF104991041051004501001001MD1810031+9999REMSYN076AAXX  12154 60060 32450 42609 10215 20168 40139 58003 84500 333 84616 95300;EQDQ01  00002PRCP99
0193600600999992000071218004+29360-010170FM-12+0066GMMF V0203601N003112200019N0060001N1+02011+01681101401ADDAA199000091GA1011+004809069GF101991011051004501001001KA1120M+02211MD1510001+9999REMSYN082AAXX  12184 60060 32456 13606 10201 20168 40140 55000 81500 333 10221 81616 95300;EQDQ01  00002PRCP99
0174600600999992000071221004+29360-010170FM-12+0066GMMF V0200201N005112200019N0050001N1+02041+01771101471ADDAA199000091GA1041+004809069GF104991041051004501001001MD1210071+9999REMSYN076AAXX  12214 60060 32450 40210 10204 20177 40147 52007 84500 333 84616 95300;EQDQ01  00002PRCP99
0191600600999992000071306004+29360-010170FM-12+0066GMMF V0202001N001510048019N0035001N1+01991+01771101521ADDAA199000091GA1081+004809069GF108991081051004501999999KA1120N+01901MW1101REMSYN088AAXX  13064 60060 31435 82003 10199 20177 40152 5//// 710// 885// 333 20190 88616 95300;EQDQ01  00002PRCP99
0216600600999992000071309004+29360-010170FM-12+0066GMMF V0202201N002110024019N0025001N1+01921+01841101631ADDAA199000091AY121031GA1051+002409079GA2041+004809069GF108991081061002501999999MD1310111+9999MW1101REMSYN088AAXX  13094 60060 31325 82204 10192 20184 40163 53011 7102/ 886// 333 85708 84616 95310;EQDQ01  00002PRCP99
0202600600999992000071312004+29360-010170FM-12+0066GMMF V0202601N004110048019N0035001N1+02141+01841101681ADDAA199000091AY121061AY221061GA1061+004809069GF106991061051004501001001MD1010051+9999MW1101REMSYN082AAXX  13124 60060 31435 62608 10214 20184 40168 50005 71022 86500 333 86616 95300;EQDQ01  00002PRCP99
0174600600999992000071315004+29360-010170FM-12+0066GMMF V0203201N004112200019N0050001N1+02201+01841101601ADDAA199000091GA1041+004809069GF104991041051004501001001MD1810071+9999REMSYN076AAXX  13154 60060 32450 43208 10220 20184 40160 58007 84500 333 84616 95300;EQDQ01  00002PRCP99
0243600600999992000071318004+29360-010170FM-12+0066GMMF V0200201N003610048019N0040001N1+01991+01751101631ADDAA199000091AY111061AY211061GA1021+003009079GA2081+004809069GF108991081051004501999999KA1120M+02251MD1310021+9999MW1101REMSYN094AAXX  13184 60060 31440 80207 10199 20175 40163 53002 71011 885// 333 10225 82710 88616 95310;EQDQ01  00002PRCP99
0224600600999992000071321004+29360-010170FM-12+0066GMMF V0200601N003110048019N0040001N1+01921+01701101691ADDAA199000091AY111031AY211031GA1021+003009079GA2051+004809069GF106991061051004501001001MD1310041+9999MW1101REMSYN088AAXX  13214 60060 31440 60606 10192 20170 40169 53004 71011 86500 333 82710 85616 95300;EQDQ01  00002PRCP99
0213600600999992000071406004+29360-010170FM-12+0066GMMF V0202801N002110048019N0035001N1+01861+01681101561ADDAA199000091GA1031+003009079GA2081+004809069GF108991081051004501999999KA1120N+01821MW1101REMSYN094AAXX  14064 60060 31435 82804 10186 20168 40156 5//// 710// 885// 333 20182 83710 88616 95310;EQDQ01  00002PRCP99
0224600600999992000071409004+29360-010170FM-12+0066GMMF V0203401N001510048019N0040001N1+01901+01691101601ADDAA199000091AY121031AY221031GA1031+003009079GA2081+004809069GF108991081051004501999999MD1310041+9999MW1101REMSYN088AAXX  14094 60060 31440 83403 10190 20169 40160 53004 71022 885// 333 83710 88616 95310;EQDQ01  00002PRCP99
0224600600999992000071412004+29360-010170FM-12+0066GMMF V0202601N003110048019N0040001N1+02001+01741101611ADDAA199000091AY121061AY221061GA1011+003009079GA2081+004809069GF108991081051004501999999MD1310011+9999MW1101REMSYN088AAXX  14124 60060 31440 82606 10200 20174 40161 53001 71022 885// 333 81710 88616 95300;EQDQ01  00002PRCP99
0216600600999992000071415004+29360-010170FM-12+0066GMMF V0202401N002610048019N0040001N1+02001+01671101611ADDAA199000091AY121031GA1021+003009079GA2081+004809069GF108991081051004501999999MD1410001+9999MW1101REMSYN088AAXX  14154 60060 31440 82405 10200 20167 40161 54000 7102/ 885// 333 82710 88616 95300;EQDQ01  00002PRCP99
0193600600999992000071418004+29360-010170FM-12+0066GMMF V0200401N006210048019N0050001N1+02181+01681101501ADDAA199000091GA1071+004809069GF107991071051004501999999KA1120M+02201MD1810101+9999REMSYN082AAXX  14184 60060 32450 70412 10218 20168 40150 58010 875// 333 10220 87616 95300;EQDQ01  00002PRCP99
0174600600999992000071421004+29360-010170FM-12+0066GMMF V0200201N003612200019N0050001N1+02111+01771101521ADDAA199000091GA1041+004809069GF104991041051004501001001MD1310011+9999REMSYN076AAXX  14214 60060 32450 40207 10211 20177 40152 53001 84500 333 84616 95300;EQDQ01  00002PRCP99
0213600600999992000071506004+29360-010170FM-12+0066GMMF V0202601N001510048019N0040001N1+01951+01761101261ADDAA199000091GA1031+003009079GA2081+004809069GF108991081051004501999999KA1120N+01861MW1101REMSYN094AAXX  15064 60060 31440 82603 10195 20176 40126 5//// 710// 885// 333 20186 83710 88616 95310;EQDQ01  00002PRCP99
0216600600999992000071509004+29360-010170FM-12+0066GMMF V0202601N001510048019N0040001N1+02001+01811101291ADDAA199000091AY121031GA1031+003009079GA2081+004809069GF108991081051004501999999MD1110021+9999MW1101REMSYN088AAXX  15094 60060 31440 82603 10200 20181 40129 51002 7102/ 885// 333 83710 88616 95310;EQDQ01  00002PRCP99
0224600600999992000071512004+29360-010170FM-12+0066GMMF V0202401N002110048019N0040001N1+02061+01721101261ADDAA199000091AY121061AY221061GA1021+003009079GA2081+004809069GF108991081051004501999999MD1610021+9999MW1101REMSYN088AAXX  15124 60060 31440 82404 10206 20172 40126 56002 71022 885// 333 82710 88616 95310;EQDQ01  00002PRCP99
0216600600999992000071515004+29360-010170FM-12+0066GMMF V0203001N002610048019N0035001N1+02081+01761101161ADDAA199000091AY121031GA1021+003009079GA2081+004809069GF108991081051004501999999MD1710101+9999MW1101REMSYN088AAXX  15154 60060 32435 83005 10208 20176 40116 57010 7102/ 885// 333 82710 88616 95300;EQDQ01  00002PRCP99
0243600600999992000071518004+29360-010170FM-12+0066GMMF V0203601N001510048019N0025001N1+02021+01811101101ADDAA199000091AY121061AY221061GA1021+003009079GA2081+004809069GF108991081051004501999999KA1120M+02221MD1710061+9999MW1101REMSYN094AAXX  15184 60060 31425 83603 10202 20181 40110 57006 71022 885// 333 10222 82710 88616 95300;EQDQ01  00002PRCP99
0186600600999992000071606004+29360-010170FM-12+0066GMMF V0202201N001510024019N0020001N1+01971+01861100901ADDAA124000891AY151061GA1081+002409079GF108991081061002501999999KA1120N+01921MW1101REMSYN094AAXX  16064 60060 11320 82203 10197 20186 40090 5//// 69984 7105/ 886// 333 20192 88708 95310;
0164600600999992000071609004+29360-010170FM-12+0066GMMF V0202401N002110024019N0018001N1+01961+01861100941ADDAY151031GA1081+002409079GF108991081061002501999999MD1110021+9999MW1511REMSYN082AAXX  16094 60060 41318 82404 10196 20186 40094 51002 7515/ 886// 333 88708 95310;
0189600600999992000071612004+29360-010170FM-12+0066GMMF V0202601N002110021019N0008001N1+02011+02011100961ADDAA106001091AY151061AY241061GA1081+002109079GF108991081061002501999999MD1110041+9999MW1441REMSYN088AAXX  16124 60060 11308 82604 10201 20201 40096 51004 60011 74454 886// 333 88707 95360;
0172600600999992000071615004+29360-010170FM-12+0066GMMF V0203201N002110024019N0015001N1+02071+02021100921ADDAY151031AY221031GA1081+002409079GF108991081061002501999999MD1710031+9999MW1101REMSYN082AAXX  16154 60060 41315 83204 10207 20202 40092 57003 71052 886// 333 88708 95310;
0208600600999992000071618004+29360-010170FM-12+0066GMMF V0203401N002110024019N0020001N1+02041+02011100881ADDAA112001091AY151061AY221061GA1081+002409079GF108991081061004501999999KA1120M+02101MD1810041+9999MW1101REMSYN094AAXX  16184 60060 11420 83404 10204 20201 40088 58004 60012 71052 886// 333 10210 88708 95310;
0183600600999992000071621004+29360-010170FM-12+0066GMMF V0200601N001510024019N0015001N1+02061+01901100941ADDAA199000021AY121031AY221031GA1081+002409079GF108991081061002501999999MD1210061+9999MW1101REMSYN082AAXX  16214 60060 31315 80603 10206 20190 40094 52006 71022 886// 333 88708 95310;
0200600600999992000071706004+29360-010170FM-12+0066GMMF V0200401N002610048019N0030001N1+02001+01841101071ADDAA124001091GA1031+003009079GA2081+004809069GF108991081051004501999999KA1120N+01941MW1101REMSYN100AAXX  17064 60060 11430 80405 10200 20184 40107 5//// 60014 710// 885// 333 20194 83710 88616 95300;
0172600600999992000071709004+29360-010170FM-12+0066GMMF V0200201N002610030019N0025001N1+01991+01881101231ADDAY151031AY221031GA1081+003009079GF108991081061004501999999MD1310161+9999MW1501REMSYN082AAXX  17094 60060 41425 80205 10199 20188 40123 53016 75052 886// 333 88710 95310;
0211600600999992000071712004+29360-010170FM-12+0066GMMF V0203601N003110048019N0035001N1+02111+01881101391ADDAA106000791AY151061AY221061GA1021+003009079GA2081+004809069GF108991081051004501999999MD1110151+9999MW1101REMSYN094AAXX  17124 60060 11435 83606 10211 20188 40139 51015 69901 71052 885// 333 82710 88616 95300;
0149600600999992000071715004+29360-010170FM-12+0066GMMF V0203601N002610048019N0050001N1+02201+01811101381ADDAA199000021GA1071+004809059GF107991071051004501999999MD1010001+9999REMSYN070AAXX  17154 60060 32450 73605 10220 20181 40138 50000 875// 333 87616;
0180600600999992000071718004+29360-010170FM-12+0066GMMF V0203601N005112200019N0060001N1+02191+01761101421ADDAA112000791GA1021+004809069GF102991021051004501001001KA1120M+02271MD1210041+9999REMSYN088AAXX  17184 60060 12456 23610 10219 20176 40142 52004 69902 82500 333 10227 82616 95300;
0155600600999992000071721004+29360-010170FM-12+0066GMMF V0203601N004612200019N0050001N1+02001+01671101521ADDAA199000021GA1021+004809069GF102991021051004501001001MD1310091+9999REMSYN076AAXX  17214 60060 32450 23609 10200 20167 40152 53009 82500 333 82616 95300;
0166600600999992000071806004+29360-010170FM-12+0066GMMF V0200801N001510048019N0050001N1+01891+01611101551ADDAA124000791GA1081+004809069GF108991081051004501999999KA1120N+01821REMSYN088AAXX  18064 60060 12450 80803 10189 20161 40155 5//// 69904 885// 333 20182 88616 95300;
0174600600999992000071809004+29360-010170FM-12+0066GMMF V0203601N002110048019N0050001N1+01961+01641101691ADDAA199000091GA1081+004809069GF108991081051004501999999MD1310141+9999REMSYN076AAXX  18094 60060 32450 83604 10196 20164 40169 53014 885// 333 88616 95300;EQDQ01  00002PRCP99
0174600600999992000071812004+29360-010170FM-12+0066GMMF V0202801N002110048019N0050001N1+02151+01871101751ADDAA199000091GA1061+004809069GF106991061051004501001001MD1110071+9999REMSYN076AAXX  18124 60060 32450 62804 10215 20187 40175 51007 86500 333 86616 95300;EQDQ01  00002PRCP99
0174600600999992000071815004+29360-010170FM-12+0066GMMF V0203601N003110048019N0050001N1+02141+01841101691ADDAA199000091GA1061+004809069GF106991061051004501001001MD1610071+9999REMSYN076AAXX  18154 60060 32450 63606 10214 20184 40169 56007 86500 333 86616 95300;EQDQ01  00002PRCP99
0193600600999992000071818004+29360-010170FM-12+0066GMMF V0200201N006712200019N0060001N1+02141+01651101601ADDAA199000091GA1011+004809069GF101991011051004501001001KA1120M+02241MD1710091+9999REMSYN082AAXX  18184 60060 32456 10213 10214 20165 40160 57009 81500 333 10224 81616 95300;EQDQ01  00002PRCP99
0152600600999992000071821004+29360-010170FM-12+0066GMMF V0200201N006212200019N0060001N1+02031+01651101631ADDAA199000091GA1001+999999999GF100991001001999999001001MD1110031+9999REMSYN054AAXX  18214 60060 32956 00212 10203 20165 40163 51003;EQDQ01  00002PRCP99
0174600600999992000071909004+29360-010170FM-12+0066GMMF V0202401N003110048019N0050001N1+01951+01711101511ADDAA199000091GA1081+004809069GF108991081051004501999999MD1310031+9999REMSYN076AAXX  19094 60060 32450 82406 10195 20171 40151 53003 885// 333 88616 95300;EQDQ01  00002PRCP99
0152600600999992000071912004+29360-010170FM-12+0066GMMF V0202601N005112200019N0050001N1+02211+01711101471ADDAA199000091GA1001+999999999GF100991001001999999001001MD1810041+9999REMSYN054AAXX  19124 60060 32950 02610 10221 20171 40147 58004;EQDQ01  00002PRCP99
0174600600999992000071915004+29360-010170FM-12+0066GMMF V0202801N003610048019N0050001N1+02191+01761101421ADDAA199000091GA1061+004809069GF106991061051004501001001MD1810041+9999REMSYN076AAXX  19154 60060 32450 62807 10219 20176 40142 58004 86500 333 86616 95300;EQDQ01  00002PRCP99
0193600600999992000071918004+29360-010170FM-12+0066GMMF V0203601N005710048019N0050001N1+02101+01731101291ADDAA199000091GA1051+004809069GF105991051051004501001001KA1120M+02261MD1710141+9999REMSYN082AAXX  19184 60060 32450 53611 10210 20173 40129 57014 85500 333 10226 85616 95300;EQDQ01  00002PRCP99
0152600600999992000071921004+29360-010170FM-12+0066GMMF V0200201N004612200019N0050001N1+02021+01681101321ADDAA199000091GA1001+999999999GF100991001001999999001001MD1210031+9999REMSYN054AAXX  19214 60060 32950 00209 10202 20168 40132 52003;EQDQ01  00002PRCP99
0213600600999992000072006004+29360-010170FM-12+0066GMMF V0201801N002110048019N0040001N1+01881+01721101181ADDAA199000091GA1021+003009079GA2081+004809069GF108991081051004501999999KA1120N+01851MW1101REMSYN094AAXX  20064 60060 31440 81804 10188 20172 40118 5//// 710// 885// 333 20185 82710 88616 95300;EQDQ01  00002PRCP99
0224600600999992000072009004+29360-010170FM-12+0066GMMF V0202601N003110048019N0040001N1+01961+01761101191ADDAA199000091AY121031AY221031GA1021+003009079GA2051+004809069GF106991061051004501001001MD1110011+9999MW1101REMSYN088AAXX  20094 60060 31440 62606 10196 20176 40119 51001 71022 86500 333 82710 85616 95300;EQDQ01  00002PRCP99
0152600600999992000072012004+29360-010170FM-12+0066GMMF V0202801N004112200019N0050001N1+02121+01701101161ADDAA199000091GA1001+999999999GF100991001001999999001001MD1710031+9999REMSYN054AAXX  20124 60060 32950 02808 10212 20170 40116 57003;EQDQ01  00002PRCP99
0174600600999992000072015004+29360-010170FM-12+0066GMMF V0203001N003110048019N0050001N1+02141+01761101111ADDAA199000091GA1071+004809069GF107991071051004501999999MD1810051+9999REMSYN076AAXX  20154 60060 32450 73006 10214 20176 40111 58005 875// 333 87616 95300;EQDQ01  00002PRCP99
0175600600999992000072018004+29360-010170FM-12+0066GMMF V0203601N003612200019N0050001N1+02131+01781101061ADDAA199000091GA1001+999999999GF100991001001999999001001KA1999M+02261MD1810051+9999REMSYN064AAXX  20184 60060 32950 03607 10213 20178 40106 58005 333 10226;EQDQ01  00002PRCP99
0174600600999992000072021004+29360-010170FM-12+0066GMMF V0200401N003612200019N0050001N1+02071+01721101111ADDAA199000091GA1011+024009039GF102991011001999999031011MD1310051+9999REMSYN076AAXX  20214 60060 32950 20407 10207 20172 40111 53005 81031 333 81358 95300;EQDQ01  00002PRCP99
0173600600999992000072106004+29360-010170FM-12+0066GMMF V0203601N003610048019N0050001N1+02021+01831101111ADDAA199000091GA1081+004809059GF108991081051004501999999KA1120N+01961REMSYN076AAXX  21064 60060 32450 83607 10202 20183 40111 5//// 885// 333 20196 88616;EQDQ01  00002PRCP99
0216600600999992000072109004+29360-010170FM-12+0066GMMF V0203601N002110048019N0012001N1+01951+01871101161ADDAA199000091AY121031GA1041+002409079GA2081+004809069GF108991081051002501999999MD1210051+9999MW1101REMSYN088AAXX  21094 60060 31312 83604 10195 20187 40116 52005 7102/ 885// 333 84708 88616 95310;EQDQ01  00002PRCP99
0224600600999992000072112004+29360-010170FM-12+0066GMMF V0203401N001510048019N0020001N1+02021+01861101241ADDAA199000091AY121061AY221061GA1031+003009079GA2081+004809069GF108991081051002501999999MD1110081+9999MW1101REMSYN088AAXX  21124 60060 31320 83403 10202 20186 40124 51008 71022 885// 333 83710 88616 95310;EQDQ01  00002PRCP99
0194600600999992000072121004+29360-010170FM-12+0066GMMF V0200601N005712200019N0030001N1+02101+01781101361ADDAA199000091AY111031GA1021+004809069GF102991021051004501001001MD1310131+9999MW1101REMSYN082AAXX  21214 60060 31430 20611 10210 20178 40136 53013 7101/ 82500 333 82616 95300;EQDQ01  00002PRCP99
0191600600999992000072206004+29360-010170FM-12+0066GMMF V0202601N001510030019N0020001N1+01911+01811101261ADDAA199000091GA1081+003009079GF108991081061002501999999KA1120N+01861MW1101REMSYN088AAXX  22064 60060 31320 82603 10191 20181 40126 5//// 710// 886// 333 20186 88710 95300;EQDQ01  00002PRCP99
0202600600999992000072212004+29360-010170FM-12+0066GMMF V0202401N006210030019N0020001N1+02121+01831101361ADDAA199000091AY121061AY221061GA1071+003009079GF107991071061004501999999MD1310051+9999MW1101REMSYN082AAXX  22124 60060 31420 72412 10212 20183 40136 53005 71022 876// 333 87710 95300;EQDQ01  00002PRCP99
0202600600999992000072215004+29360-010170FM-12+0066GMMF V0202801N004610030019N0020001N1+02161+01791101301ADDAA199000091AY121031AY221031GA1071+003009079GF107991071061004501999999MD1610051+9999MW1101REMSYN082AAXX  22154 60060 31420 72809 10216 20179 40130 56005 71022 876// 333 87710 95300;EQDQ01  00002PRCP99
0203600600999992000072218004+29360-010170FM-12+0066GMMF V0200401N006212200019N0035001N1+02161+01741101271ADDAA199000091AY111061AY211061GA1001+999999999GF100991001001999999001001KA1999M+02211MD1710031+9999MW1101REMSYN070AAXX  22184 60060 31935 00412 10216 20174 40127 57003 71011 333 10221;EQDQ01  00002PRCP99
0144600600999992000072221004+29360-010170FM-12+0066GMMF V0200401N004612200019N0040001N1+02061+01691101431ADDAA199000091GA1001+999999999GF100991001001999999001001REMSYN060AAXX  22214 60060 32940 00409 10206 20169 40143 5/015 81000;EQDQ01  00002PRCP99
0179600600999992000072306004+29360-010170FM-12+0066GMMF V0209999C000010048019N0070001N1+01961+01821101441ADDAA199000091GA1081+004809069GF108991081051004501999999KA1120N+01921REMSYN082AAXX  23064 60060 32457 80000 10196 20182 40144 5//// 885// 333 20192 88616 95300;EQDQ01  00002PRCP99
0174600600999992000072309004+29360-010170FM-12+0066GMMF V0203001N002610048019N0080001N1+02001+01691101511ADDAA199000091GA1061+004809069GF106991061051004501001001MD1310071+9999REMSYN076AAXX  23094 60060 32458 63005 10200 20169 40151 53007 86500 333 86616 95300;EQDQ01  00002PRCP99
0174600600999992000072312004+29360-010170FM-12+0066GMMF V0203201N002612200019N0080001N1+02201+01721101521ADDAA199000091GA1021+004809069GF102991021051004501001001MD1010021+9999REMSYN076AAXX  23124 60060 32458 23205 10220 20172 40152 50002 82500 333 82616 95300;EQDQ01  00002PRCP99
0152600600999992000072315004+29360-010170FM-12+0066GMMF V0203601N004612200019N0060001N1+02151+01731101481ADDAA199000091GA1001+999999999GF100991001001999999001001MD1810041+9999REMSYN054AAXX  23154 60060 32956 03609 10215 20173 40148 58004;EQDQ01  00002PRCP99
0175600600999992000072318004+29360-010170FM-12+0066GMMF V0200201N006212200019N0060001N1+02171+01611101441ADDAA199000091GA1001+999999999GF100991001001999999001001KA1999M+02241MD1610041+9999REMSYN064AAXX  23184 60060 32956 00212 10217 20161 40144 56004 333 10224;EQDQ01  00002PRCP99
0152600600999992000072321004+29360-010170FM-12+0066GMMF V0200401N004112200019N0060001N1+02071+01581101521ADDAA199000091GA1001+999999999GF100991001001999999001001MD1210071+9999REMSYN054AAXX  23214 60060 32956 00408 10207 20158 40152 52007;EQDQ01  00002PRCP99
0179600600999992000072406004+29360-010170FM-12+0066GMMF V0202401N003110048019N0050001N1+01901+01671101401ADDAA199000091GA1071+004809069GF107991071051004501999999KA1120N+01881REMSYN082AAXX  24064 60060 32450 72406 10190 20167 40140 5//// 875// 333 20188 87616 95300;EQDQ01  00002PRCP99
0152600600999992000072412004+29360-010170FM-12+0066GMMF V0203001N002612200019N0050001N1+02121+01701101441ADDAA199000091GA1001+999999999GF100991001001999999001001MD1010011+9999REMSYN054AAXX  24124 60060 32950 03005 10212 20170 40144 50001;EQDQ01  00002PRCP99
0174600600999992000072415004+29360-010170FM-12+0066GMMF V0203401N003112200019N0060001N1+02051+01691101371ADDAA199000091GA1021+004809069GF102991021051004501001001MD1710071+9999REMSYN076AAXX  24154 60060 32456 23406 10205 20169 40137 57007 82500 333 82616 95300;EQDQ01  00002PRCP99
0175600600999992000072418004+29360-010170FM-12+0066GMMF V0200401N006712200019N0080001N1+02251+01601101341ADDAA199000091GA1001+999999999GF100991001001999999001001KA1999M+02301MD1610021+9999REMSYN064AAXX  24184 60060 32958 00413 10225 20160 40134 56002 333 10230;EQDQ01  00002PRCP99
0174600600999992000072421004+29360-010170FM-12+0066GMMF V0200401N005712200019N0070001N1+02101+01881101361ADDAA199000091GA1031+003009079GF103991031061004501001001MD1310021+9999REMSYN076AAXX  24214 60060 32457 30411 10210 20188 40136 53002 83600 333 83710 95300;EQDQ01  00002PRCP99
0179600600999992000072506004+29360-010170FM-12+0066GMMF V0202401N004110048019N0050001N1+01931+01721101151ADDAA199000091GA1081+004809069GF108991081051004501999999KA1120N+01891REMSYN082AAXX  25064 60060 32450 82408 10193 20172 40115 5//// 885// 333 20189 88616 95300;EQDQ01  00002PRCP99
0174600600999992000072509004+29360-010170FM-12+0066GMMF V0202401N004610048019N0050001N1+01981+01751101221ADDAA199000091GA1071+004809069GF107991071051004501999999MD1210071+9999REMSYN076AAXX  25094 60060 32450 72409 10198 20175 40122 52007 875// 333 87616 95300;EQDQ01  00002PRCP99
0174600600999992000072512004+29360-010170FM-12+0066GMMF V0203201N004112200019N0060001N1+02151+01771101231ADDAA199000091GA1031+004809069GF103991031051004501001001MD1010011+9999REMSYN076AAXX  25124 60060 32456 33208 10215 20177 40123 50001 83500 333 83616 95300;EQDQ01  00002PRCP99
0174600600999992000072515004+29360-010170FM-12+0066GMMF V0203401N002612200019N0060001N1+02151+01751101081ADDAA199000091GA1021+004809069GF102991021051004501001001MD1710051+9999REMSYN076AAXX  25154 60060 32456 23405 10215 20175 40108 57005 82500 333 82616 95300;EQDQ01  00002PRCP99
0175600600999992000072518004+29360-010170FM-12+0066GMMF V0203601N004112200019N0080001N1+02211+01701101161ADDAA199000091GA1001+999999999GF100991001001999999001001KA1999M+02241MD1610021+9999REMSYN064AAXX  25184 60060 32958 03608 10221 20170 40116 56002 333 10224;EQDQ01  00002PRCP99
0152600600999992000072521004+29360-010170FM-12+0066GMMF V0200601N003612200019N0070001N1+02131+01701101191ADDAA199000091GA1001+999999999GF100991001001999999001001MD1310031+9999REMSYN054AAXX  25214 60060 32957 00607 10213 20170 40119 53003;EQDQ01  00002PRCP99
0179600600999992000072606004+29360-010170FM-12+0066GMMF V0202401N004110048019N0050001N1+01951+01791101081ADDAA199000091GA1081+004809069GF108991081051004501999999KA1120N+01921REMSYN082AAXX  26064 60060 32450 82408 10195 20179 40108 5//// 885// 333 20192 88616 95300;EQDQ01  00002PRCP99
0174600600999992000072609004+29360-010170FM-12+0066GMMF V0202401N004110048019N0050001N1+02001+01811101141ADDAA199000091GA1071+004809069GF107991071051004501999999MD1210061+9999REMSYN076AAXX  26094 60060 32450 72408 10200 20181 40114 52006 875// 333 87616 95300;EQDQ01  00002PRCP99
0152600600999992000072612004+29360-010170FM-12+0066GMMF V0202401N004612200019N0060001N1+02091+01791101221ADDAA199000091GA1001+999999999GF100991001001999999001001MD1110081+9999REMSYN054AAXX  26124 60060 32956 02409 10209 20179 40122 51008;EQDQ01  00002PRCP99
0152600600999992000072615004+29360-010170FM-12+0066GMMF V0202801N002112200019N0060001N1+02241+01831101151ADDAA199000091GA1001+999999999GF100991001001999999001001MD1610071+9999REMSYN054AAXX  26154 60060 32956 02804 10224 20183 40115 56007;EQDQ01  00002PRCP99
0175600600999992000072618004+29360-010170FM-12+0066GMMF V0203601N004112200019N0060001N1+02151+01811101151ADDAA199000091GA1001+999999999GF100991001001999999001001KA1999M+02351MD1510001+9999REMSYN064AAXX  26184 60060 32956 03608 10215 20181 40115 55000 333 10235;EQDQ01  00002PRCP99
0152600600999992000072621004+29360-010170FM-12+0066GMMF V0200201N004612200019N0060001N1+02051+01811101241ADDAA199000091GA1001+999999999GF100991001001999999001001MD1310101+9999REMSYN054AAXX  26214 60060 32956 00209 10205 20181 40124 53010;EQDQ01  00002PRCP99
0201600600999992000072706004+29360-010170FM-12+0066GMMF V0202401N003110048019N0050001N1+01901+01801101191ADDAA199000091GA1031+003009079GA2081+004809069GF108991081051004501999999KA1120N+01871REMSYN088AAXX  27064 60060 32450 82406 10190 20180 40119 5//// 885// 333 20187 83710 88616 95300;EQDQ01  00002PRCP99
0196600600999992000072709004+29360-010170FM-12+0066GMMF V0202401N003110048019N0050001N1+02001+01781101361ADDAA199000091GA1021+003009079GA2081+004809069GF108991081051004501999999MD1310161+9999REMSYN082AAXX  27094 60060 32450 82406 10200 20178 40136 53016 885// 333 82710 88616 95300;EQDQ01  00002PRCP99
0168600600999992000072712004+29360-010170FM-12+0066GMMF V0202801N002110048019N0050001N1+02101+01851101401ADDAA199000091GA1051+004809059GF105991051051004501001001MD1110041+9999REMSYN070AAXX  27124 60060 32450 52804 10210 20185 40140 51004 85500 333 85616;EQDQ01  00002PRCP99
0174600600999992000072715004+29360-010170FM-12+0066GMMF V0203401N003112200019N0060001N1+02271+01831101321ADDAA199000091GA1031+004809069GF103991031051004501001001MD1810071+9999REMSYN076AAXX  27154 60060 32456 33406 10227 20183 40132 58007 83500 333 83616 95300;EQDQ01  00002PRCP99
0193600600999992000072718004+29360-010170FM-12+0066GMMF V0203601N005112200019N0060001N1+02171+01771101271ADDAA199000091GA1011+004809069GF102991011051004501031001KA1120M+02381MD1610051+9999REMSYN082AAXX  27184 60060 32456 23610 10217 20177 40127 56005 81530 333 10238 81616 95300;EQDQ01  00002PRCP99
0174600600999992000072721004+29360-010170FM-12+0066GMMF V0200201N006712200019N0060001N1+02071+01751101271ADDAA199000091GA1021+030009039GF102991021001999999031001MD1410001+9999REMSYN076AAXX  27214 60060 32956 20213 10207 20175 40127 54000 82030 333 82360 95300;EQDQ01  00002PRCP99
0201600600999992000072806004+29360-010170FM-12+0066GMMF V0202201N004110240019N0050001N1+01951+01761101221ADDAA199000091GA1011+003009079GA2061+024009039GF106991011061004501031001KA1120N+01861REMSYN088AAXX  28064 60060 32450 62208 10195 20176 40122 5//// 81630 333 20186 81710 86358 95300;EQDQ01  00002PRCP99
0174600600999992000072809004+29360-010170FM-12+0066GMMF V0202401N004112200019N0050001N1+02101+01781101261ADDAA199000091GA1031+024009039GF103991031001999999031001MD1110041+9999REMSYN076AAXX  28094 60060 32950 32408 10210 20178 40126 51004 83030 333 83358 95300;EQDQ01  00002PRCP99
0174600600999992000072812004+29360-010170FM-12+0066GMMF V0202401N004112200019N0050001N1+02211+01851101241ADDAA199000091GA1011+024009039GF101991011001999999031001MD1010021+9999REMSYN076AAXX  28124 60060 32950 12408 10221 20185 40124 50002 81030 333 81358 95300;EQDQ01  00002PRCP99
0174600600999992000072815004+29360-010170FM-12+0066GMMF V0202601N001512200019N0060001N1+02451+01941101171ADDAA199000091GA1011+024009039GF101991011001999999031001MD1810061+9999REMSYN076AAXX  28154 60060 32956 12603 10245 20194 40117 58006 81030 333 81358 95300;EQDQ01  00002PRCP99
0175600600999992000072818004+29360-010170FM-12+0066GMMF V0203601N003112200019N0050001N1+02321+01861101061ADDAA199000091GA1001+999999999GF100991001001999999001001KA1999M+02481MD1710111+9999REMSYN064AAXX  28184 60060 32950 03606 10232 20186 40106 57011 333 10248;EQDQ01  00002PRCP99
0152600600999992000072821004+29360-010170FM-12+0066GMMF V0203601N003112200019N0050001N1+02151+01921101121ADDAA199000091GA1001+999999999GF100991001001999999001001MD1310051+9999REMSYN054AAXX  28214 60060 32950 03606 10215 20192 40112 53005;EQDQ01  00002PRCP99
0161600600999992000072906004+29360-010170FM-12+0066GMMF V0202201N002112200019N0050001N1+01941+01731100961ADDAA199000091GA1001+999999999GF100991001001999999001001KA1999N+01901REMSYN064AAXX  29064 60060 32950 02204 10194 20173 40096 5//// 333 20190;EQDQ01  00002PRCP99
0152600600999992000072909004+29360-010170FM-12+0066GMMF V0202401N004612200019N0050001N1+02071+01831101021ADDAA199000091GA1001+999999999GF100991001001999999001001MD1310061+9999REMSYN054AAXX  29094 60060 32950 02409 10207 20183 40102 53006;EQDQ01  00002PRCP99
0152600600999992000072912004+29360-010170FM-12+0066GMMF V0202601N003612200019N0060001N1+02301+01831101061ADDAA199000091GA1001+999999999GF100991001001999999001001MD1110051+9999REMSYN054AAXX  29124 60060 32956 02607 10230 20183 40106 51005;EQDQ01  00002PRCP99
0152600600999992000072921004+29360-010170FM-12+0066GMMF V0203601N001512200019N0050001N1+02081+01881100951ADDAA199000091GA1001+999999999GF100991001001999999001001MD1210051+9999REMSYN054AAXX  29214 60060 32950 03603 10208 20188 40095 52005;EQDQ01  00002PRCP99
0161600600999992000073006004+29360-010170FM-12+0066GMMF V0202201N002112200019N0050001N1+01891+01781100861ADDAA199000091GA1001+999999999GF100991001001999999001001KA1999N+01851REMSYN064AAXX  30064 60060 32950 02204 10189 20178 40086 5//// 333 20185;EQDQ01  00002PRCP99
0164600600999992000073009004+29360-010170FM-12+0066GMMF V0203201N002112200019N0040001N1+02111+01891100941ADDAA199000091GA1001+999999999GF100991001001999999001001MD1110081+9999MW1101REMSYN060AAXX  30094 60060 32940 03204 10211 20189 40094 51008 710//;EQDQ01  00002PRCP99
0180600600999992000073012004+29360-010170FM-12+0066GMMF V0202401N004112200019N0040001N1+02301+01861101011ADDAA199000091AY101061AY201061GA1001+999999999GF100991001001999999001001MD1210081+9999MW1101REMSYN060AAXX  30124 60060 31940 02408 10230 20186 40101 52008 71000;EQDQ01  00002PRCP99
0194600600999992000073015004+29360-010170FM-12+0066GMMF V0203201N002112200019N0040001N1+02501+01951100951ADDAA199000091AY101031GA1031+021009039GF103991031001999999081001MD1610061+9999MW1101REMSYN082AAXX  30154 60060 31940 33204 10250 20195 40095 56006 7100/ 83080 333 83357 95300;EQDQ01  00002PRCP99
0221600600999992000073018004+29360-010170FM-12+0066GMMF V0203401N002112200019N0040001N1+02381+01981100911ADDAA199000091AY101061AY201061GA1031+021009039GF103991031001999999081001KA1120M+02541MD1810041+9999MW1101REMSYN088AAXX  30184 60060 31940 33404 10238 20198 40091 58004 71000 83080 333 10254 83357 95300;EQDQ01  00002PRCP99
0194600600999992000073021004+29360-010170FM-12+0066GMMF V0202201N003612200019N0040001N1+02301+01991101071ADDAA199000091AY101031GA1021+021009039GF102991021001999999081001MD1310161+9999MW1101REMSYN082AAXX  30214 60060 31940 22207 10230 20199 40107 53016 7100/ 82080 333 82357 95300;EQDQ01  00002PRCP99
0179600600999992000073106004+29360-010170FM-12+0066GMMF V0202401N003612200019N0050001N1+02161+01971101191ADDAA199000091GA1031+021009039GF103991031001999999031001KA1120N+02141REMSYN082AAXX  31064 60060 32950 32407 10216 20197 40119 5//// 83030 333 20214 83357 95300;EQDQ01  00002PRCP99
0174600600999992000073109004+29360-010170FM-12+0066GMMF V0202201N002112200019N0060001N1+02421+02091101261ADDAA199000091GA1031+021009039GF103991031001999999031001MD1210081+9999REMSYN076AAXX  31094 60060 32956 32204 10242 20209 40126 52008 83030 333 83357 95300;EQDQ01  00002PRCP99
0174600600999992000073112004+29360-010170FM-12+0066GMMF V0202401N002612200019N0050001N1+02771+02081101301ADDAA199000091GA1021+021009039GF102991021001999999031001MD1310041+9999REMSYN076AAXX  31124 60060 32950 22405 10277 20208 40130 53004 82030 333 82357 95300;EQDQ01  00002PRCP99
0174600600999992000073115004+29360-010170FM-12+0066GMMF V0202601N004112200019N0050001N1+02511+02101101231ADDAA199000091GA1021+006009089GF102991021021008001001001MD1810071+9999REMSYN076AAXX  31154 60060 32550 22608 10251 20210 40123 58007 82200 333 82820 95300;EQDQ01  00002PRCP99
0230600600999992000073118004+29360-010170FM-12+0066GMMF V0202401N002110060019N0050001N1+02531+02191101141ADDAA112002091AY191061AY281061GA1021+004809089GA2041+006009099GF105991051031004501001001KA1120M+03001MD1710091+9999MW1171REMSYN100AAXX  31184 60060 11450 52404 10253 20219 40114 57009 60022 71798 85300 333 10300 82816 84920 95300;
0174600600999992000073121004+29360-010170FM-12+0066GMMF V0201801N004112200019N0050001N1+02501+01991101111ADDAA199000091GA1021+004809069GF102991021051004501001001MD1810031+9999REMSYN076AAXX  31214 60060 32450 21808 10250 20199 40111 58003 82500 333 82616 95300;EQDQ01  00002PRCP99
0166600600999992000080106004+29360-010170FM-12+0066GMMF V0202401N003612200019N0050001N1+02321+02011101441ADDAA124002091GA1031+004809069GF103991031051004501001001KA1120N+02191REMSYN088AAXX  01064 60060 12450 32407 10232 20201 40144 5//// 60024 83500 333 20219 83616 95300;
0174600600999992000080109004+29360-010170FM-12+0066GMMF V0203601N001512200019N0050001N1+02571+02101101571ADDAA199000091GA1021+060009009GF102991001001999999001011MD1110141+9999REMSYN076AAXX  01094 60060 32950 23603 10257 20210 40157 51014 80001 333 82070 95300;EQDQ01  00002PRCP99
0152600600999992000080112004+29360-010170FM-12+0066GMMF V0202401N002112200019N0050001N1+02661+02061101631ADDAA199000091GA1001+999999999GF100991001001999999001001MD1210061+9999REMSYN054AAXX  01124 60060 32950 02404 10266 20206 40163 52006;EQDQ01  00002PRCP99
0174600600999992000080115004+29360-010170FM-12+0066GMMF V0203601N002110210019N0050001N1+02971+01921101531ADDAA199000091GA1051+021009039GF105991051001999999081001MD1810091+9999REMSYN076AAXX  01154 60060 32950 53604 10297 20192 40153 58009 85080 333 85357 95300;EQDQ01  00002PRCP99
0193600600999992000080118004+29360-010170FM-12+0066GMMF V0200401N002610210019N0050001N1+03251+01531101461ADDAA199000091GA1061+021009039GF106991061001999999081001KA1120M+03291MD1810071+9999REMSYN082AAXX  01184 60060 32950 60405 10325 20153 40146 58007 86080 333 10329 86357 95300;EQDQ01  00002PRCP99
0174600600999992000080121004+29360-010170FM-12+0066GMMF V0202401N004610210019N0050001N1+02741+01731101831ADDAA199000091GA1061+021009039GF106991061001999999081001MD1310361+9999REMSYN076AAXX  01214 60060 32950 62409 10274 20173 40183 53036 86080 333 86357 95300;EQDQ01  00002PRCP99
0195600600999992000080206004+29360-010170FM-12+0066GMMF V0209999C000012200019N0050001N1+02731+01541101611ADDAA199000091GA1041+024009039GF104991999001999999031001KA1120N+02521REMSYN082AAXX  02064 60060 32950 40000 10273 20154 40161 5//// 83030 333 20252 84358 95300;EQDQ01+000032SCOTLCQ02  00002PRCP99
0196600600999992000080209004+29360-010170FM-12+0066GMMF V0201201N007212200019N0050001N1+03501+01031101601ADDAA199000091GA1021+021009039GA2031+051009009GF104991021001999999031021MD1010011+9999REMSYN082AAXX  02094 60060 32950 41214 10350 20103 40160 50001 82032 333 82357 83067 95300;EQDQ01  00002PRCP99
0174600600999992000080212004+29360-010170FM-12+0066GMMF V0203601N002112200019N0050001N1+02831+01781101741ADDAA199000091GA1011+021009039GF103991011001999999031021MD1310121+9999REMSYN076AAXX  02124 60060 32950 33604 10283 20178 40174 53012 81032 333 81357 95300;EQDQ01  00002PRCP99
0152600600999992000080215004+29360-010170FM-12+0066GMMF V0200401N006212200019N0050001N1+03101+01691101641ADDAA199000091GA1001+999999999GF100991001001999999001001MD1810091+9999REMSYN054AAXX  02154 60060 32950 00412 10310 20169 40164 58009;EQDQ01  00002PRCP99
0175600600999992000080218004+29360-010170FM-12+0066GMMF V0200401N006712200019N0050001N1+02801+01861101691ADDAA199000091GA1001+999999999GF100991001001999999001001KA1999M+03821MD1010041+9999REMSYN064AAXX  02184 60060 32950 00413 10280 20186 40169 50004 333 10382;EQDQ01  00002PRCP99
0152600600999992000080221004+29360-010170FM-12+0066GMMF V0200401N004112200019N0050001N1+02271+02011101781ADDAA199000091GA1001+999999999GF100991001001999999001001MD1210081+9999REMSYN054AAXX  02214 60060 32950 00408 10227 20201 40178 52008;EQDQ01  00002PRCP99
0213600600999992000080306004+29360-010170FM-12+0066GMMF V0202401N003610048019N0040001N1+02101+01941101641ADDAA199000091GA1021+003009079GA2081+004809069GF108991081051004501999999KA1120N+02081MW1101REMSYN094AAXX  03064 60060 31440 82407 10210 20194 40164 5//// 710// 885// 333 20208 82710 88616 95300;EQDQ01  00002PRCP99
0194600600999992000080309004+29360-010170FM-12+0066GMMF V0202801N002612200019N0040001N1+02171+01941101661ADDAA199000091AY111031GA1031+004809069GF104991031051004501001011MD1010031+9999MW1101REMSYN082AAXX  03094 60060 31440 42805 10217 20194 40166 50003 7101/ 83501 333 83616 95300;EQDQ01  00002PRCP99
0152600600999992000080312004+29360-010170FM-12+0066GMMF V0203401N002612200019N0035001N1+02421+01941101631ADDAA199000091GA1001+999999999GF100991001001999999001001MD1710061+9999REMSYN054AAXX  03124 60060 31935 03405 10242 20194 40163 57006;EQDQ01  00002PRCP99
0152600600999992000080315004+29360-010170FM-12+0066GMMF V0203001N003112200019N0050001N1+02551+01941101551ADDAA199000091GA1001+999999999GF100991001001999999001001MD1810071+9999REMSYN054AAXX  03154 60060 32950 03006 10255 20194 40155 58007;EQDQ01  00002PRCP99
0175600600999992000080318004+29360-010170FM-12+0066GMMF V0203601N001512200019N0050001N1+02521+02101101461ADDAA199000091GA1001+999999999GF100991001001999999001001KA1999M+03101MD1610101+9999REMSYN064AAXX  03184 60060 32950 03603 10252 20210 40146 56010 333 10310;EQDQ01  00002PRCP99
0174600600999992000080321004+29360-010170FM-12+0066GMMF V0200401N003112200019N0050001N1+02331+01901101561ADDAA199000091GA1021+051009009GF102991001001999999001021MD1310101+9999REMSYN076AAXX  03214 60060 32950 20406 10233 20190 40156 53010 80002 333 82067 95300;EQDQ01  00002PRCP99
0161600600999992000080406004+29360-010170FM-12+0066GMMF V0202201N004112200019N0050001N1+02051+01841101511ADDAA199000091GA1001+999999999GF100991001001999999001001KA1999N+02021REMSYN064AAXX  04064 60060 32950 02208 10205 20184 40151 5//// 333 20202;EQDQ01  00002PRCP99
0174600600999992000080409004+29360-010170FM-12+0066GMMF V0202401N004612200019N0050001N1+02251+01921101581ADDAA199000091GA1021+051009009GF102991001001999999001021MD1310081+9999REMSYN076AAXX  04094 60060 32950 22409 10225 20192 40158 53008 80002 333 82067 95300;EQDQ01  00002PRCP99
0152600600999992000080412004+29360-010170FM-12+0066GMMF V0202401N004612200019N0050001N1+02301+01831101591ADDAA199000091GA1001+999999999GF100991001001999999001001MD1010011+9999REMSYN054AAXX  04124 60060 32950 02409 10230 20183 40159 50001;EQDQ01  00002PRCP99
0152600600999992000080415004+29360-010170FM-12+0066GMMF V0203601N003612200019N0050001N1+02301+01831101561ADDAA199000091GA1001+999999999GF100991001001999999001001MD1810031+9999REMSYN054AAXX  04154 60060 32950 03607 10230 20183 40156 58003;EQDQ01  00002PRCP99
0175600600999992000080418004+29360-010170FM-12+0066GMMF V0200201N006212200019N0060001N1+02441+01711101551ADDAA199000091GA1001+999999999GF100991001001999999001001KA1999M+02451MD1410001+9999REMSYN064AAXX  04184 60060 32956 00212 10244 20171 40155 54001 333 10245;EQDQ01  00002PRCP99
0174600600999992000080421004+29360-010170FM-12+0066GMMF V0200201N004112200019N0050001N1+02211+01681101601ADDAA199000091GA1011+060009009GF101991001001999999001011MD1310051+9999REMSYN076AAXX  04214 60060 32950 10208 10221 20168 40160 53005 80001 333 81070 95300;EQDQ01  00002PRCP99
0179600600999992000080506004+29360-010170FM-12+0066GMMF V0203601N001010048019N0060001N1+02001+01761101551ADDAA199000091GA1051+004809069GF105991051051008001001001KA1120N+01961REMSYN082AAXX  05064 60060 32556 53602 10200 20176 40155 5//// 85500 333 20196 85616 95300;EQDQ01  00002PRCP99
0174600600999992000080509004+29360-010170FM-12+0066GMMF V02099999999992200019N0060001N1+02071+01751101601ADDAA199000091GA1021+004809069GF102991021051008001001001MD1310051+9999REMSYN076AAXX  05094 60060 32556 2//// 10207 20175 40160 53005 82500 333 82616 95300;EQDQ01  00002PRCP99
0174600600999992000080512004+29360-010170FM-12+0066GMMF V02099999999992200019N0060001N1+02161+01741101621ADDAA199000091GA1031+004809069GF103991031051008001001001MD1210031+9999REMSYN076AAXX  05124 60060 32556 3//// 10216 20174 40162 52003 83500 333 83616 95300;EQDQ01  00002PRCP99
0174600600999992000080515004+29360-010170FM-12+0066GMMF V0203601N004110048019N0060001N1+02151+01901101591ADDAA199000091GA1071+004809069GF107991071051999999999999MD1610031+9999REMSYN076AAXX  05154 60060 32956 73608 10215 20190 40159 56003 875// 333 87616 95300;EQDQ01  00002PRCP99
0193600600999992000080518004+29360-010170FM-12+0066GMMF V0200201N004110048019N0060001N1+02281+01761101601ADDAA199000091GA1061+004809069GF106991061051004501001001KA1120M+02301MD1310011+9999REMSYN082AAXX  05184 60060 32456 60208 10228 20176 40160 53001 86500 333 10230 86616 95300;EQDQ01  00002PRCP99
0174600600999992000080521004+29360-010170FM-12+0066GMMF V0200201N003610048019N0060001N1+02141+01821101641ADDAA199000091GA1061+004809069GF106991061051004501001001MD1310031+9999REMSYN076AAXX  05214 60060 32456 60207 10214 20182 40164 53003 86500 333 86616 95300;EQDQ01  00002PRCP99
0179600600999992000080606004+29360-010170FM-12+0066GMMF V0203601N001510048019N0060001N1+02021+01801101431ADDAA199000091GA1061+004809069GF106991061051004501001001KA1120N+01971REMSYN082AAXX  06064 60060 32456 63603 10202 20180 40143 5//// 86500 333 20197 86616 95300;EQDQ01  00002PRCP99
0174600600999992000080609004+29360-010170FM-12+0066GMMF V0203601N003110048019N0060001N1+02101+01781101471ADDAA199000091GA1061+004809069GF106991061051004501001001MD1310041+9999REMSYN076AAXX  06094 60060 32456 63606 10210 20178 40147 53004 86500 333 86616 95300;EQDQ01  00002PRCP99
0174600600999992000080612004+29360-010170FM-12+0066GMMF V0202801N003110048019N0060001N1+02301+01831101431ADDAA199000091GA1061+004809069GF106991061051004501001001MD1810031+9999REMSYN076AAXX  06124 60060 32456 62806 10230 20183 40143 58003 86500 333 86616 95300;EQDQ01  00002PRCP99
0174600600999992000080615004+29360-010170FM-12+0066GMMF V0203601N002610048019N0050001N1+02201+01731101381ADDAA199000091GA1061+004809069GF106991061051004501001001MD1810051+9999REMSYN076AAXX  06154 60060 32450 63605 10220 20173 40138 58005 86500 333 86616 95300;EQDQ01  00002PRCP99
0193600600999992000080618004+29360-010170FM-12+0066GMMF V0203601N003110048019N0060001N1+02181+01851101361ADDAA199000091GA1071+004809069GF107991071051004501999999KA1120M+02321MD1710021+9999REMSYN082AAXX  06184 60060 32456 73606 10218 20185 40136 57002 875// 333 10232 87616 95300;EQDQ01  00002PRCP99
0174600600999992000080621004+29360-010170FM-12+0066GMMF V0203201N002112200019N0050001N1+02191+01811101401ADDAA199000091GA1021+004809069GF102991021051004501001001MD1310041+9999REMSYN076AAXX  06214 60060 32450 23204 10219 20181 40140 53004 82500 333 82616 95300;EQDQ01  00002PRCP99
0213600600999992000080706004+29360-010170FM-12+0066GMMF V0203601N003610048019N0040001N1+02001+01841101201ADDAA199000091GA1031+003009079GA2081+004809069GF108991081051004501999999KA1120N+01941MW1101REMSYN094AAXX  07064 60060 31440 83607 10200 20184 40120 5//// 710// 885// 333 20194 83710 88616 95300;EQDQ01  00002PRCP99
0194600600999992000080709004+29360-010170FM-12+0066GMMF V0202401N001010048019N0045001N1+02031+01841101291ADDAA199000091AY121031GA1081+004809069GF108991081051004501999999MD1110081+9999MW1101REMSYN082AAXX  07094 60060 31445 82402 10203 20184 40129 51008 7102/ 885// 333 88616 95300;EQDQ01  00002PRCP99
0224600600999992000080712004+29360-010170FM-12+0066GMMF V0203201N003110048019N0040001N1+02051+01841101391ADDAA199000091AY121061AY221061GA1021+003009079GA2081+004809069GF108991081051004501999999MD1310101+9999MW1101REMSYN088AAXX  07124 60060 31440 83206 10205 20184 40139 53010 71022 885// 333 82710 88616 95300;EQDQ01  00002PRCP99
0174600600999992000080715004+29360-010170FM-12+0066GMMF V0203401N002610048019N0050001N1+02271+01801101321ADDAA199000091GA1061+004809069GF106991061051004501001001MD1810061+9999REMSYN076AAXX  07154 60060 32450 63405 10227 20180 40132 58006 86500 333 86616 95300;EQDQ01  00002PRCP99
0193600600999992000080718004+29360-010170FM-12+0066GMMF V0203401N002112200019N0060001N1+02251+01851101341ADDAA199000091GA1041+004809069GF104991041051004501001001KA1120M+02331MD1110021+9999REMSYN082AAXX  07184 60060 32456 43404 10225 20185 40134 51002 84500 333 10233 84616 95300;EQDQ01  00002PRCP99
0174600600999992000080721004+29360-010170FM-12+0066GMMF V0200201N003112200019N0060001N1+02161+01891101401ADDAA199000091GA1021+004809069GF102991021051004501001001MD1310061+9999REMSYN076AAXX  07214 60060 32456 20206 10216 20189 40140 53006 82500 333 82616 95300;EQDQ01  00002PRCP99
0179600600999992000080806004+29360-010170FM-12+0066GMMF V0202401N001510048019N0050001N1+02101+01781101371ADDAA199000091GA1061+004809069GF106991061051004501001001KA1120N+01971REMSYN082AAXX  08064 60060 32450 62403 10210 20178 40137 5//// 86500 333 20197 86616 95300;EQDQ01  00002PRCP99
0174600600999992000080809004+29360-010170FM-12+0066GMMF V0203401N001510048019N0050001N1+02131+01791101481ADDAA199000091GA1071+004809069GF107991071051004501999999MD1310111+9999REMSYN076AAXX  08094 60060 32450 73403 10213 20179 40148 53011 875// 333 87616 95300;EQDQ01  00002PRCP99
0174600600999992000080812004+29360-010170FM-12+0066GMMF V0203201N003110048019N0060001N1+02301+01841101501ADDAA199000091GA1061+004809069GF106991061051004501001001MD1010031+9999REMSYN076AAXX  08124 60060 32456 63206 10230 20184 40150 50003 86500 333 86616 95300;EQDQ01  00002PRCP99
0174600600999992000080815004+29360-010170FM-12+0066GMMF V0203201N004610048019N0060001N1+02261+01881101471ADDAA199000091GA1061+004809069GF106991061051004501001001MD1810031+9999REMSYN076AAXX  08154 60060 32456 63209 10226 20188 40147 58003 86500 333 86616 95300;EQDQ01  00002PRCP99
0193600600999992000080818004+29360-010170FM-12+0066GMMF V0203601N004110048019N0060001N1+02201+01821101441ADDAA199000091GA1081+004809069GF108991081051004501999999KA1120M+02421MD1810031+9999REMSYN082AAXX  08184 60060 32456 83608 10220 20182 40144 58003 885// 333 10242 88616 95300;EQDQ01  00002PRCP99
0174600600999992000080821004+29360-010170FM-12+0066GMMF V0203601N003610048019N0050001N1+02131+01761101571ADDAA199000091GA1081+004809069GF108991081051004501999999MD1310121+9999REMSYN076AAXX  08214 60060 32450 83607 10213 20176 40157 53012 885// 333 88616 95300;EQDQ01  00002PRCP99
0179600600999992000080906004+29360-010170FM-12+0066GMMF V0203401N002110048019N0050001N1+02021+01801101561ADDAA199000091GA1081+004809069GF108991081051004501999999KA1120N+01991REMSYN082AAXX  09064 60060 32450 83404 10202 20180 40156 5//// 885// 333 20199 88616 95300;EQDQ01  00002PRCP99
0196600600999992000080909004+29360-010170FM-12+0066GMMF V0203001N002110048019N0050001N1+02051+01841101751ADDAA199000091GA1021+003009079GA2081+004809069GF108991081051004501999999MD1310191+9999REMSYN082AAXX  09094 60060 32450 83004 10205 20184 40175 53019 885// 333 82710 88616 95300;EQDQ01  00002PRCP99
0174600600999992000080912004+29360-010170FM-12+0066GMMF V0203401N003110048019N0060001N1+02241+01781101741ADDAA199000091GA1051+004809069GF105991051051004501001001MD1010001+9999REMSYN076AAXX  09124 60060 32456 53406 10224 20178 40174 50000 85500 333 85616 95300;EQDQ01  00002PRCP99
0174600600999992000080915004+29360-010170FM-12+0066GMMF V0203201N004112200019N0060001N1+02261+01871101701ADDAA199000091GA1031+004809069GF103991031051004501001001MD1810041+9999REMSYN076AAXX  09154 60060 32456 33208 10226 20187 40170 58004 83500 333 83616 95300;EQDQ01  00002PRCP99
0175600600999992000080918004+29360-010170FM-12+0066GMMF V0200201N002612200019N0060001N1+02301+01861101631ADDAA199000091GA1001+999999999GF100991001001999999001001KA1999M+02321MD1610071+9999REMSYN064AAXX  09184 60060 32956 00205 10230 20186 40163 56007 333 10232;EQDQ01  00002PRCP99
0152600600999992000080921004+29360-010170FM-12+0066GMMF V0200201N003112200019N0050001N1+02201+01861101681ADDAA199000091GA1001+999999999GF100991001001999999001001MD1310051+9999REMSYN054AAXX  09214 60060 32950 00206 10220 20186 40168 53005;EQDQ01  00002PRCP99
0179600600999992000081006004+29360-010170FM-12+0066GMMF V0200401N002110048019N0050001N1+02131+01851101611ADDAA199000091GA1071+004809069GF107991071051004501999999KA1120N+02041REMSYN082AAXX  10064 60060 32450 70404 10213 20185 40161 5//// 875// 333 20204 87616 95300;EQDQ01  00002PRCP99
0174600600999992000081009004+29360-010170FM-12+0066GMMF V0200401N002610048019N0050001N1+02161+01851101771ADDAA199000091GA1081+004809069GF108991081051004501999999MD1310101+9999REMSYN076AAXX  10094 60060 32450 80405 10216 20185 40177 53010 885// 333 88616 95300;EQDQ01  00002PRCP99
0174600600999992000081012004+29360-010170FM-12+0066GMMF V0203601N004610048019N0050001N1+02171+01891101821ADDAA199000091GA1081+004809069GF108991081051004501999999MD1010061+9999REMSYN076AAXX  10124 60060 32450 83609 10217 20189 40182 50006 885// 333 88616 95300;EQDQ01  00002PRCP99
0174600600999992000081015004+29360-010170FM-12+0066GMMF V0203401N006212200019N0050001N1+02411+01851101781ADDAA199000091GA1031+004809069GF103991031051004501001001MD1810041+9999REMSYN076AAXX  10154 60060 32450 33412 10241 20185 40178 58004 83500 333 83616 95300;EQDQ01  00002PRCP99
0193600600999992000081018004+29360-010170FM-12+0066GMMF V0203601N006712200019N0050001N1+02311+01891101761ADDAA199000091GA1011+004809069GF101991011051004501001001KA1120M+02471MD1610021+9999REMSYN082AAXX  10184 60060 32450 13613 10231 20189 40176 56002 81500 333 10247 81616 95300;EQDQ01  00002PRCP99
0152600600999992000081021004+29360-010170FM-12+0066GMMF V0200201N005112200019N0050001N1+02151+01831101831ADDAA199000091GA1001+999999999GF100991001001999999001001MD1210071+9999REMSYN054AAXX  10214 60060 32450 00210 10215 20183 40183 52007;EQDQ01  00002PRCP99
0179600600999992000081106004+29360-010170FM-12+0066GMMF V0200201N002612200019N0050001N1+02001+01841101631ADDAA199000091GA1041+003009079GF104991041061004501001001KA1120N+01961REMSYN082AAXX  11064 60060 32450 40205 10200 20184 40163 5//// 84600 333 20196 84710 95300;EQDQ01  00002PRCP99
0174600600999992000081112004+29360-010170FM-12+0066GMMF V0203601N003619999999N0050001N1+02251+01871101801ADDAA199000091GA1041+004809069GF105991041051004501001001MD1110021+9999REMSYN076AAXX  11124 60060 32450 53607 10225 20187 40180 51002 84500 333 84616 95300;EQDQ01  00002PRCP99
0175600600999992000081118004+29360-010170FM-12+0066GMMF V0203601N007712200019N0050001N1+02281+01841101581ADDAA199000091GA1001+999999999GF100991001001999999001001KA1999M+02401MD1610131+9999REMSYN064AAXX  11184 60060 32950 03615 10228 20184 40158 56013 333 10240;EQDQ01  00002PRCP99
0152600600999992000081121004+29360-010170FM-12+0066GMMF V0203601N004112200019N0050001N1+02121+01851101641ADDAA199000091GA1001+999999999GF100991001001999999001001MD1310051+9999REMSYN054AAXX  11214 60060 32950 03608 10212 20185 40164 53005;EQDQ01  00002PRCP99
0161600600999992000081206004+29360-010170FM-12+0066GMMF V0202401N003112200019N0050001N1+01981+01821101441ADDAA199000091GA1001+999999999GF100991001001999999001001KA1999N+01951REMSYN064AAXX  12064 60060 32950 02406 10198 20182 40144 5//// 333 20195;EQDQ01  00002PRCP99
0174600600999992000081209004+29360-010170FM-12+0066GMMF V0202401N002610048019N0050001N1+02081+01861101551ADDAA199000091GA1081+004809069GF108991081051004501999999MD1310111+9999REMSYN076AAXX  12094 60060 32450 82405 10208 20186 40155 53011 885// 333 88616 95300;EQDQ01  00002PRCP99
0159600600999992000081212004+29360-010170FM-12+0066GMMF V0202801N003612200019N0050001N1+02251+99999999999ADDAA199000091GA1021+004809069GF102991999999004501999999REMSYN075AAXX  12124 60060 32450 22807 10225 2018 40158 50004 82500 333 82616 95300;EQDQ01  00002PRCP99
0174600600999992000081215004+29360-010170FM-12+0066GMMF V0200201N003612200019N0050001N1+02201+01821101521ADDAA199000091GA1021+004809069GF102991021051004501001001MD1810061+9999REMSYN076AAXX  12154 60060 32450 20207 10220 20182 40152 58006 82500 333 82616 95300;EQDQ01  00002PRCP99
0175600600999992000081218004+29360-010170FM-12+0066GMMF V0209999C000012200019N0060001N1+99999+99999101521ADDAA199000091GA1001+999999999GF100991001001999999001001KA1999M+02351MD1410001+9999REMSYN064AAXX  12184 60060 32956 00000 19231 20176 40152 54000 333 10235;EQDQ01  00002PRCP99
0152600600999992000081221004+29360-010170FM-12+0066GMMF V0200201N005112200019N0050001N1+02131+01731101561ADDAA199000091GA1001+999999999GF100991001001999999001001MD1310031+9999REMSYN054AAXX  12214 60060 32950 00210 10213 20173 40156 53003;EQDQ01  00002PRCP99
0179600600999992000081306004+29360-010170FM-12+0066GMMF V0202401N003610048019N0050001N1+02011+01801101481ADDAA199000091GA1071+004809069GF107991071051004501999999KA1120N+01861REMSYN082AAXX  13064 60060 32450 72407 10201 20180 40148 5//// 875// 333 20186 87616 95300;EQDQ01  00002PRCP99
0224600600999992000081309004+29360-010170FM-12+0066GMMF V0202401N004610048019N0040001N1+02011+01771101521ADDAA199000091AY121031AY221031GA1021+003009079GA2081+004809069GF108991081051004501999999MD1310041+9999MW1101REMSYN088AAXX  13094 60060 31440 82409 10201 20177 40152 53004 71022 885// 333 82710 88616 95300;EQDQ01  00002PRCP99
0152600600999992000081312004+29360-010170FM-12+0066GMMF V0202601N005712200019N0050001N1+02301+01831101581ADDAA199000091GA1001+999999999GF100991001001999999001001MD1010071+9999REMSYN054AAXX  13124 60060 32950 02611 10230 20183 40158 50007;EQDQ01  00002PRCP99
0174600600999992000081315004+29360-010170FM-12+0066GMMF V0203001N002612200019N0050001N1+02201+01841101561ADDAA199000091GA1041+004809069GF104991041051004501001001MD1810021+9999REMSYN076AAXX  13154 60060 32450 43005 10220 20184 40156 58002 84500 333 84616 95300;EQDQ01  00002PRCP99
0193600600999992000081318004+29360-010170FM-12+0066GMMF V0203401N002112200019N0050001N1+02251+01781101521ADDAA199000091GA1011+003009079GF101991011061004501001001KA1120M+02371MD1710041+9999REMSYN082AAXX  13184 60060 32450 13404 10225 20178 40152 57004 81600 333 10237 81710 95300;EQDQ01  00002PRCP99
0168600600999992000081321004+29360-010170FM-12+0066GMMF V0202801N001512200019N0050001N1+02121+01741101601ADDAA199000091GA1021+051009019GF102991001001999999001021MD1310071+9999REMSYN070AAXX  13214 60060 32950 22803 10212 20174 40160 53007 80002 333 82067;EQDQ01  00002PRCP99
0179600600999992000081406004+29360-010170FM-12+0066GMMF V0202401N006710048019N0050001N1+01961+01801101481ADDAA199000091GA1061+004809069GF106991061051004501001001KA1120N+01931REMSYN082AAXX  14064 60060 32450 62413 10196 20180 40148 5//// 86500 333 20193 86616 95300;EQDQ01  00002PRCP99
0174600600999992000081409004+29360-010170FM-12+0066GMMF V0202401N003612200019N0050001N1+02101+01781101571ADDAA199000091GA1011+004809069GF101991011051004501001001MD1210091+9999REMSYN076AAXX  14094 60060 32450 12407 10210 20178 40157 52009 81500 333 81616 95300;EQDQ01  00002PRCP99
0152600600999992000081412004+29360-010170FM-12+0066GMMF V0202801N003612200019N0050001N1+02301+01831101601ADDAA199000091GA1001+999999999GF100991001001999999001001MD1110041+9999REMSYN054AAXX  14124 60060 32950 02807 10230 20183 40160 51004;EQDQ01  00002PRCP99
0175600600999992000081418004+29360-010170FM-12+0066GMMF V0203401N002112200019N0050001N1+02251+01891101381ADDAA199000091GA1001+999999999GF100991001001999999001001KA1999M+02371MD1610101+9999REMSYN064AAXX  14184 60060 32950 03404 10225 20189 40138 56010 333 10237;EQDQ01  00002PRCP99
0202600600999992000081421004+29360-010170FM-12+0066GMMF V0202601N003610030019N0040001N1+02041+01841101431ADDAA199000091AY121031AY221031GA1061+003009079GF106991061061004501001001MD1310041+9999MW1101REMSYN082AAXX  14214 60060 31440 62607 10204 20184 40143 53004 71022 86600 333 86710 95300;EQDQ01  00002PRCP99
0178600600999992000081506004+29360-010170FM-12+0066GMMF V0202001N001512200019N0050001N1+01991+01831101351ADDAA199000091GA1041+004809059GF104991041051004501001001KA1999N+01941REMSYN081AAXX  15064 60060 32450 42003 10199 20183 40135 5//// 84500 33320194 84616 95300;EQDQ01  00002PRCP99
0174600600999992000081509004+29360-010170FM-12+0066GMMF V0203401N002610048019N0050001N1+02091+01871101411ADDAA199000091GA1081+004809069GF108991081051004501999999MD1310061+9999REMSYN076AAXX  15094 60060 32450 83405 10209 20187 40141 53006 885// 333 88616 95300;EQDQ01  00002PRCP99
0174600600999992000081512004+29360-010170FM-12+0066GMMF V0203001N003112200019N0050001N1+02241+01901101401ADDAA199000091GA1021+004809069GF103991021051004501031001MD1010001+9999REMSYN076AAXX  15124 60060 32450 33006 10224 20190 40140 50000 82530 333 82616 95300;EQDQ01  00002PRCP99
0194600600999992000081515004+29360-010170FM-12+0066GMMF V0202801N003610360019N0045001N1+02181+01901101381ADDAA199000091AY111031GA1041+003009079GF105991041061004501031001MD1810021+9999MW1101REMSYN082AAXX  15154 60060 31445 52807 10218 20190 40138 58002 7101/ 84630 333 84710 95300;EQDQ01  00002PRCP99
0221600600999992000081518004+29360-010170FM-12+0066GMMF V0203201N002610030019N0040001N1+02101+01901101271ADDAA199000091AY111061AY211061GA1051+003009079GF105991051061004501001001KA1120M+02321MD1610111+9999MW1101REMSYN088AAXX  15184 60060 31440 53205 10210 20190 40127 56011 71011 85600 333 10232 85710 95300;EQDQ01  00002PRCP99
0194600600999992000081521004+29360-010170FM-12+0066GMMF V0202601N003110021019N0006001N1+01951+01951101371ADDAA199000091AY141031GA1081+002109079GF108991081061002501999999MD1310081+9999MW1461REMSYN082AAXX  15214 60060 31306 82606 10195 20195 40137 53008 7464/ 886// 333 88707 95360;EQDQ01  00002PRCP99
0213600600999992000081606004+29360-010170FM-12+0066GMMF V0202201N001510048019N0025001N1+02091+01971101391ADDAA199000091GA1031+003009079GA2081+004809069GF108991081051004501999999KA1120N+01911MW1101REMSYN094AAXX  16064 60060 31425 82203 10209 20197 40139 5//// 710// 885// 333 20191 83710 88616 95300;EQDQ01  00002PRCP99
0216600600999992000081609004+29360-010170FM-12+0066GMMF V0202601N002610048019N0035001N1+02121+01961101431ADDAA199000091AY121031GA1021+003009079GA2081+004809069GF108991081051004501999999MD1310041+9999MW1101REMSYN088AAXX  16094 60060 31435 82605 10212 20196 40143 53004 7102/ 885// 333 82710 88616 95300;EQDQ01  00002PRCP99
0174600600999992000081612004+29360-010170FM-12+0066GMMF V0202601N004110048019N0050001N1+02321+02011101401ADDAA199000091GA1051+004809069GF105991051051004501001001MD1410001+9999REMSYN076AAXX  16124 60060 32450 52608 10232 20201 40140 54002 85500 333 85616 95300;EQDQ01  00002PRCP99
0196600600999992000081615004+29360-010170FM-12+0066GMMF V0202801N003610048019N0040001N1+02371+02051101321ADDAA199000091GA1011+003009079GA2081+004809069GF108991081051004501999999MD1010081+9999REMSYN082AAXX  16154 60060 31440 82807 10237 20205 40132 50008 885// 333 81710 88616 95300;EQDQ01  00002PRCP99
0243600600999992000081618004+29360-010170FM-12+0066GMMF V0203001N003110048019N0030001N1+02161+02021101231ADDAA199000091AY121061AY221061GA1041+003009079GA2081+004809069GF108991081051004501999999KA1120M+02401MD1810091+9999MW1101REMSYN094AAXX  16184 60060 31430 83006 10216 20202 40123 58009 71022 885// 333 10240 84710 88616 95310;EQDQ01  00002PRCP99
0216600600999992000081621004+29360-010170FM-12+0066GMMF V0203601N001510048019N0020001N1+02021+01971101311ADDAA199000091AY121031GA1041+003009079GA2081+004809069GF108991081051004501999999MD1310071+9999MW1101REMSYN088AAXX  16214 60060 31420 83603 10202 20197 40131 53007 7102/ 885// 333 84710 88616 95310;EQDQ01  00002PRCP99
0213600600999992000081706004+29360-010170FM-12+0066GMMF V0201801N001010048019N0040001N1+02021+01911101241ADDAA199000091GA1011+003009079GA2061+004809069GF106991061051004501001001KA1120N+01941MW1101REMSYN094AAXX  17064 60060 31440 61802 10202 20191 40124 5//// 710// 86500 333 20194 81710 86616 95300;EQDQ01  00002PRCP99
0224600600999992000081709004+29360-010170FM-12+0066GMMF V0202401N002110048019N0035001N1+02061+01901101291ADDAA199000091AY121031AY221031GA1011+003009079GA2081+004809069GF108991081051004501999999MD1110041+9999MW1101REMSYN088AAXX  17094 60060 31435 82404 10206 20190 40129 51004 71022 885// 333 81710 88616 95300;EQDQ01  00002PRCP99
0224600600999992000081712004+29360-010170FM-12+0066GMMF V0203201N002110900019N0045001N1+02301+01961101321ADDAA199000091AY121061AY221061GA1011+004809069GA2021+024009039GF105991011051004501031021MD1010041+9999MW1101REMSYN088AAXX  17124 60060 31445 53204 10230 20196 40132 50004 71022 81532 333 81616 82358 95300;EQDQ01  00002PRCP99
0202600600999992000081715004+29360-010170FM-12+0066GMMF V0202801N002610048019N0040001N1+02251+02021101211ADDAA199000091AY121031AY221031GA1061+004809069GF106991061051004501001001MD1810101+9999MW1101REMSYN082AAXX  17154 60060 31440 62805 10225 20202 40121 58010 71022 86500 333 86616 95300;EQDQ01  00002PRCP99
0243600600999992000081718004+29360-010170FM-12+0066GMMF V0203201N003110048019N0040001N1+02081+01921101231ADDAA199000091AY121061AY221061GA1031+003009079GA2081+004809069GF108991081051004501999999KA1120M+02341MD1310011+9999MW1101REMSYN094AAXX  17184 60060 31440 83206 10208 20192 40123 53001 71022 885// 333 10234 83710 88616 95300;EQDQ01  00002PRCP99
0191600600999992000081721004+29360-010170FM-12+0066GMMF V0200201N004110042019N0030001N1+01991+01871101331ADDAA199000091AY121031AY221031GF108991081051004501999999MD1310091+9999MW1101REMSYN087AAXX  17214 60060 31430 80208 10199 20187 40133 53009 71022 885// 33 83710 88616 95300;EQDQ01  00002PRCP99
0191600600999992000081806004+29360-010170FM-12+0066GMMF V0202201N002610030019N0030001N1+01901+01821101231ADDAA199000091GA1081+003009079GF108991081061004501999999KA1120N+01851MW1101REMSYN088AAXX  18064 60060 31430 82205 10190 20182 40123 5//// 710// 886// 333 20185 88710 95310;EQDQ01  00002PRCP99
0194600600999992000081809004+29360-010170FM-12+0066GMMF V0202601N003610030019N0035001N1+01951+01811101261ADDAA199000091AY121031GA1071+003009079GF107991071061004501999999MD1310031+9999MW1101REMSYN082AAXX  18094 60060 31435 72607 10195 20181 40126 53003 7102/ 876// 333 87710 95310;EQDQ01  00002PRCP99
0202600600999992000081812004+29360-010170FM-12+0066GMMF V0202401N003610030019N0040001N1+02141+01871101241ADDAA199000091AY121061AY221061GA1061+003009079GF106991061061004501001001MD1810021+9999MW1101REMSYN082AAXX  18124 60060 31440 62407 10214 20187 40124 58002 71022 86600 333 86710 95300;EQDQ01  00002PRCP99
0194600600999992000081815004+29360-010170FM-12+0066GMMF V0203201N002612200019N0035001N1+02201+01951101141ADDAA199000091AY111031GA1041+003009079GF104991041061004501001001MD1810111+9999MW1101REMSYN082AAXX  18154 60060 31435 43205 10220 20195 40114 58011 7101/ 84600 333 84710 95300;EQDQ01  00002PRCP99
0221600600999992000081818004+29360-010170FM-12+0066GMMF V0203001N003110021019N0014001N1+02071+01931101151ADDAA199000091AY111061AY211061GA1081+002109079GF108991081061002501999999KA1120M+02241MD1310011+9999MW1101REMSYN088AAXX  18184 60060 31314 83006 10207 20193 40115 53001 71011 886// 333 10224 88707 95360;EQDQ01  00002PRCP99
0194600600999992000081821004+29360-010170FM-12+0066GMMF V0203201N001510021019N0006001N1+01971+01971101221ADDAA199000091AY141031GA1081+002109079GF108991081061002501999999MD1310071+9999MW1441REMSYN082AAXX  18214 60060 31306 83203 10197 20197 40122 53007 7444/ 886// 333 88707 95360;EQDQ01  00002PRCP99
0191600600999992000081906004+29360-010170FM-12+0066GMMF V0202601N002110018019N0006001N1+01901+01901101331ADDAA199000091GA1081+001809079GF108991081061001501999999KA1120N+01881MW1461REMSYN088AAXX  19064 60060 31206 82604 10190 20190 40133 5//// 746// 886// 333 20188 88706 95360;EQDQ01  00002PRCP99
0194600600999992000081909004+29360-010170FM-12+0066GMMF V0203201N001510018019N0006001N1+01921+01921101481ADDAA199000091AY141031GA1081+001809079GF108991081061001501999999MD1110151+9999MW1441REMSYN082AAXX  19094 60060 31206 83203 10192 20192 40148 51015 7444/ 886// 333 88706 95360;EQDQ01  00002PRCP99
0202600600999992000081912004+29360-010170FM-12+0066GMMF V0203601N002610030019N0025001N1+02051+01841101491ADDAA199000091AY141061AY241061GA1071+003009079GF107991071061002501999999MD1110011+9999MW1101REMSYN082AAXX  19124 60060 31325 73605 10205 20184 40149 51001 71044 876// 333 87710 95300;EQDQ01  00002PRCP99
0194600600999992000081915004+29360-010170FM-12+0066GMMF V0203401N002110030019N0035001N1+02211+01881101461ADDAA199000091AY121031GA1071+003009079GF107991071061002501999999MD1710021+9999MW1101REMSYN082AAXX  19154 60060 31335 73404 10221 20188 40146 57002 7102/ 876// 333 87710 95300;EQDQ01  00002PRCP99
0221600600999992000081918004+29360-010170FM-12+0066GMMF V0203601N003110030019N0040001N1+02151+01901101431ADDAA199000091AY121061AY221061GA1071+003009079GF107991071061004501999999KA1120M+02251MD1610031+9999MW1101REMSYN088AAXX  19184 60060 31440 73606 10215 20190 40143 56003 71022 876// 333 10225 87710 95300;EQDQ01  00002PRCP99
0194600600999992000081921004+29360-010170FM-12+0066GMMF V0200201N004112200019N0045001N1+02151+01921101471ADDAA199000091AY111031GA1021+003009079GF102991021061004501001001MD1310041+9999MW1101REMSYN082AAXX  19214 60060 31445 20208 10215 20192 40147 53004 7101/ 82600 333 82710 95300;EQDQ01  00002PRCP99
0191600600999992000082006004+29360-010170FM-12+0066GMMF V0202201N001510024019N0040001N1+02011+01871101471ADDAA199000091GA1061+002409079GF106991061061002501001001KA1120N+02001MW1101REMSYN088AAXX  20064 60060 31340 62203 10201 20187 40147 5//// 710// 86600 333 20200 86708 95310;EQDQ01  00002PRCP99
0196600600999992000082009004+29360-010170FM-12+0066GMMF V0202601N004610048019N0050001N1+02151+01931101601ADDAA199000091GA1021+003009079GA2071+004809069GF107991071051004501999999MD1310141+9999REMSYN082AAXX  20094 60060 32450 72609 10215 20193 40160 53014 875// 333 82710 87616 95300;EQDQ01  00002PRCP99
0174600600999992000082012004+29360-010170FM-12+0066GMMF V0203001N002112200019N0050001N1+02351+01971101591ADDAA199000091GA1021+004809069GF104991021051004501031001MD1010011+9999REMSYN076AAXX  20124 60060 32450 43004 10235 20197 40159 50001 82530 333 82616 95300;EQDQ01  00002PRCP99
0190600600999992000082015004+29360-010170FM-12+0066GMMF V0203201N003612200019N0050001N1+02341+02021101511ADDAA199000091GA1051+004809069GF199999031051004501001001MD1810081+9999REMSYN076AAXX  20154 60060 32450 33207 10234 20202 40151 58008 83500 333 85616 95300;EQDQ01+000032SCOTCVQ02  00002PRCP99
0175600600999992000082018004+29360-010170FM-12+0066GMMF V0200401N005712200019N0050001N1+02351+01931101511ADDAA199000091GA1001+999999999GF100991001001999999001001KA1999M+02491MD1010001+9999REMSYN064AAXX  20184 60060 32950 00411 10235 20193 40151 50000 333 10249;EQDQ01  00002PRCP99
0152600600999992000082021004+29360-010170FM-12+0066GMMF V0200401N005112200019N0080001N1+02151+01881101541ADDAA199000091GA1001+999999999GF100991001001999999001001MD1310031+9999REMSYN054AAXX  20214 60060 32958 00410 10215 20188 40154 53003;EQDQ01  00002PRCP99
0179600600999992000082106004+29360-010170FM-12+0066GMMF V0202601N002610048019N0060001N1+02101+01851101551ADDAA199000091GA1061+004809069GF106991061051004501001001KA1120N+01971REMSYN082AAXX  21064 60060 32456 62605 10210 20185 40155 5//// 86500 333 20197 86616 95300;EQDQ01  00002PRCP99
0174600600999992000082109004+29360-010170FM-12+0066GMMF V0202601N005712200019N0080001N1+02201+01891101621ADDAA199000091GA1021+030009039GF102991021001999999031001MD1310081+9999REMSYN076AAXX  21094 60060 32958 22611 10220 20189 40162 53008 82030 333 82360 95300;EQDQ01  00002PRCP99
0174600600999992000082112004+29360-010170FM-12+0066GMMF V0202601N005112200019N0080001N1+02301+01831101661ADDAA199000091GA1011+030009039GF101991011001999999031001MD1110041+9999REMSYN076AAXX  21124 60060 32958 12610 10230 20183 40166 51004 81030 333 81360 95300;EQDQ01  00002PRCP99
0174600600999992000082115004+29360-010170FM-12+0066GMMF V0203401N004612200019N0080001N1+02241+01831101621ADDAA199000091GA1011+004809069GF101991011051004501001001MD1610041+9999REMSYN076AAXX  21154 60060 32458 13409 10224 20183 40162 56004 81500 333 81616 95300;EQDQ01  00002PRCP99
0175600600999992000082118004+29360-010170FM-12+0066GMMF V0200401N007712200019N0080001N1+02341+01701101641ADDAA199000091GA1001+999999999GF100991001001999999001001KA1999M+02431MD1310021+9999REMSYN064AAXX  21184 60060 32958 00415 10234 20170 40164 53002 333 10243;EQDQ01  00002PRCP99
0152600600999992000082121004+29360-010170FM-12+0066GMMF V0200201N004112200019N0060001N1+02201+01651101721ADDAA199000091GA1001+999999999GF100991001001999999001001MD1210081+9999REMSYN054AAXX  21214 60060 32956 00208 10220 20165 40172 52008;EQDQ01  00002PRCP99
0179600600999992000082206004+29360-010170FM-12+0066GMMF V0202001N001512200019N0060001N1+01921+01661101511ADDAA199000091GA1021+024009039GF102991021001999999031001KA1120N+01881REMSYN082AAXX  22064 60060 32956 22003 10192 20166 40151 5//// 82030 333 20188 82358 95300;EQDQ01  00002PRCP99
0174600600999992000082209004+29360-010170FM-12+0066GMMF V0202601N004112200019N0060001N1+02101+01731101531ADDAA199000091GA1011+024009039GF103991011001999999031021MD1110021+9999REMSYN076AAXX  22094 60060 32956 32608 10210 20173 40153 51002 81032 333 81358 95300;EQDQ01  00002PRCP99
0174600600999992000082212004+29360-010170FM-12+0066GMMF V0202401N003612200019N0060001N1+02251+01791101591ADDAA199000091GA1011+051009009GF101991001001999999001011MD1010071+9999REMSYN076AAXX  22124 60060 32956 12407 10225 20179 40159 50007 80001 333 81067 95300;EQDQ01  00002PRCP99
0174600600999992000082215004+29360-010170FM-12+0066GMMF V0203601N003612200019N0080001N1+02221+01741101581ADDAA199000091GA1021+004809069GF102991021051004501001001MD1610011+9999REMSYN076AAXX  22154 60060 32458 23607 10222 20174 40158 56001 82500 333 82616 95300;EQDQ01  00002PRCP99
0175600600999992000082218004+29360-010170FM-12+0066GMMF V0200401N007212200019N0100001N1+02291+01561101561ADDAA199000091GA1001+999999999GF100991001001999999001001KA1999M+02321MD1610021+9999REMSYN064AAXX  22184 60060 32960 00414 10229 20156 40156 56002 333 10232;EQDQ01  00002PRCP99
0152600600999992000082221004+29360-010170FM-12+0066GMMF V0200401N006212200019N0080001N1+02111+01671101691ADDAA199000091GA1001+999999999GF100991001001999999001001MD1310121+9999REMSYN054AAXX  22214 60060 32958 00412 10211 20167 40169 53012;EQDQ01  00002PRCP99
0161600600999992000082306004+29360-010170FM-12+0066GMMF V0202001N002112200019N0080001N1+01831+01561101561ADDAA199000091GA1001+999999999GF100991001001999999001001KA1999N+01811REMSYN064AAXX  23064 60060 32958 02004 10183 20156 40156 5//// 333 20181;EQDQ01  00002PRCP99
0152600600999992000082309004+29360-010170FM-12+0066GMMF V0202401N004112200019N0100001N1+02021+01611101631ADDAA199000091GA1001+999999999GF100991001001999999001001MD1210071+9999REMSYN054AAXX  23094 60060 32960 02408 10202 20161 40163 52007;EQDQ01  00002PRCP99
0152600600999992000082312004+29360-010170FM-12+0066GMMF V0203201N003612200019N0100001N1+02111+01711101611ADDAA199000091GA1001+999999999GF100991001001999999001001MD1810021+9999REMSYN054AAXX  23124 60060 32960 03207 10211 20171 40161 58002;EQDQ01  00002PRCP99
0152600600999992000082315004+29360-010170FM-12+0066GMMF V0203401N004612200019N0120001N1+02141+01651101551ADDAA199000091GA1001+999999999GF100991001001999999001001MD1810061+9999REMSYN054AAXX  23154 60060 32962 03409 10214 20165 40155 58006;EQDQ01  00002PRCP99
0175600600999992000082318004+29360-010170FM-12+0066GMMF V0200401N004112200019N0120001N1+02241+01611101551ADDAA199000091GA1001+999999999GF100991001001999999001001KA1999M+02271MD1310011+9999REMSYN064AAXX  23184 60060 32962 00408 10224 20161 40155 53001 333 10227;EQDQ01  00002PRCP99
0152600600999992000082321004+29360-010170FM-12+0066GMMF V0200201N004612200019N0080001N1+02141+01681101601ADDAA199000091GA1001+999999999GF100991001001999999001001MD1310041+9999REMSYN054AAXX  23214 60060 32958 00209 10214 20168 40160 53004;EQDQ01  00002PRCP99
0179600600999992000082406004+29360-010170FM-12+0066GMMF V0202401N003110048019N0080001N1+01901+01741101511ADDAA199000091GA1051+004809069GF105991051051004501001001KA1120N+01861REMSYN082AAXX  24064 60060 32458 52406 10190 20174 40151 5//// 85500 333 20186 85616 95300;EQDQ01  00002PRCP99
0174600600999992000082409004+29360-010170FM-12+0066GMMF V0202401N004612200019N0080001N1+02001+01691101601ADDAA199000091GA1021+004809069GF102991021051004501001001MD1310091+9999REMSYN076AAXX  24094 60060 32458 22409 10200 20169 40160 53009 82500 333 82616 95300;EQDQ01  00002PRCP99
0152600600999992000082412004+29360-010170FM-12+0066GMMF V0202801N003612200019N0100001N1+02101+01721101651ADDAA199000091GA1001+999999999GF100991001001999999001001MD1010051+9999REMSYN054AAXX  24124 60060 32960 02807 10210 20172 40165 50005;EQDQ01  00002PRCP99
0152600600999992000082415004+29360-010170FM-12+0066GMMF V0203401N002612200019N0100001N1+02151+01711101561ADDAA199000091GA1001+999999999GF100991001001999999001001MD1710081+9999REMSYN054AAXX  24154 60060 32960 03405 10215 20171 40156 57008;EQDQ01  00002PRCP99
0175600600999992000082418004+29360-010170FM-12+0066GMMF V0200401N007212200019N0100001N1+02271+01771101561ADDAA199000091GA1001+999999999GF100991001001999999001001KA1999M+02321MD1510001+9999REMSYN064AAXX  24184 60060 32960 00414 10227 20177 40156 55000 333 10232;EQDQ01  00002PRCP99
0152600600999992000082421004+29360-010170FM-12+0066GMMF V0200601N005112200019N0080001N1+02211+01881101631ADDAA199000091GA1001+999999999GF100991001001999999001001MD1310071+9999REMSYN054AAXX  24214 60060 32958 00610 10221 20188 40163 53007;EQDQ01  00002PRCP99
0179600600999992000082506004+29360-010170FM-12+0066GMMF V0203601N001510024019N0050001N1+01951+01811101391ADDAA199000091GA1061+002409079GF106991061061002501001001KA1120N+01871REMSYN082AAXX  25064 60060 32350 63603 10195 20181 40139 5//// 86600 333 20187 86708 95310;EQDQ01  00002PRCP99
0194600600999992000082509004+29360-010170FM-12+0066GMMF V0202801N002110024019N0040001N1+01981+01811101451ADDAA199000091AY121031GA1071+002409079GF107991071061002501999999MD1310061+9999MW1101REMSYN082AAXX  25094 60060 31340 72804 10198 20181 40145 53006 7102/ 876// 333 87708 95310;EQDQ01  00002PRCP99
0202600600999992000082512004+29360-010170FM-12+0066GMMF V0203401N002612200019N0040001N1+02131+01811101481ADDAA199000091AY111061AY211061GA1021+003009079GF102991021061004501001001MD1110031+9999MW1101REMSYN082AAXX  25124 60060 31440 23405 10213 20181 40148 51003 71011 82600 333 82710 95300;EQDQ01  00002PRCP99
0174600600999992000082515004+29360-010170FM-12+0066GMMF V0203601N006712200019N0070001N1+02301+01761101431ADDAA199000091GA1021+004809069GF102991021051004501001001MD1710041+9999REMSYN076AAXX  25154 60060 32457 23613 10230 20176 40143 57004 82500 333 82616 95300;EQDQ01  00002PRCP99
0175600600999992000082518004+29360-010170FM-12+0066GMMF V0200401N007712200019N0080001N1+02221+01611101421ADDAA199000091GA1001+999999999GF100991001001999999001001KA1999M+02341MD1610011+9999REMSYN064AAXX  25184 60060 32958 00415 10222 20161 40142 56001 333 10234;EQDQ01  00002PRCP99
0161600600999992000082606004+29360-010170FM-12+0066GMMF V0202201N004112200019N0060001N1+01951+01691101221ADDAA199000091GA1001+999999999GF100991001001999999001001KA1999N+01821REMSYN064AAXX  26064 60060 32956 02208 10195 20169 40122 5//// 333 20182;EQDQ01  00002PRCP99
0152600600999992000082609004+29360-010170FM-12+0066GMMF V0202601N004612200019N0060001N1+02001+01701101311ADDAA199000091GA1001+999999999GF100991001001999999001001MD1310081+9999REMSYN054AAXX  26094 60060 32956 02609 10200 20170 40131 53008;EQDQ01  00002PRCP99
0152600600999992000082612004+29360-010170FM-12+0066GMMF V0202801N004112200019N0060001N1+02101+01761101391ADDAA199000091GA1001+999999999GF100991001001999999001001MD1310081+9999REMSYN054AAXX  26124 60060 32956 02808 10210 20176 40139 53008;EQDQ01  00002PRCP99
0152600600999992000082615004+29360-010170FM-12+0066GMMF V0203001N002112200019N0060001N1+02201+01631101321ADDAA199000091GA1001+999999999GF100991001001999999001001MD1610061+9999REMSYN054AAXX  26154 60060 32956 03004 10220 20163 40132 56006;EQDQ01  00002PRCP99
0193600600999992000082718004+29360-010170FM-12+0066GMMF V0203601N003112200019N0050001N1+02151+01771101271ADDAA199000091GA1011+024009039GF101991011001999999031001KA1120M+02231MD1810041+9999REMSYN082AAXX  27184 60060 32950 13606 10215 20177 40127 58004 81030 333 10223 81358 95300;EQDQ01  00002PRCP99
0152600600999992000082721004+29360-010170FM-12+0066GMMF V0203601N003612200019N0050001N1+02101+01771101391ADDAA199000091GA1001+999999999GF100991001001999999001001MD1110111+9999REMSYN054AAXX  27214 60060 32950 03607 10210 20177 40139 51011;EQDQ01  00002PRCP99
0179600600999992000082806004+29360-010170FM-12+0066GMMF V0202401N004610048019N0050001N1+02041+01881101291ADDAA199000091GA1071+004809069GF107991071051004501999999KA1120N+01951REMSYN082AAXX  28064 60060 32450 72409 10204 20188 40129 5//// 875// 333 20195 87616 95300;EQDQ01  00002PRCP99
0174600600999992000082809004+29360-010170FM-12+0066GMMF V0202201N005110048019N0050001N1+02061+01851101351ADDAA199000091GA1051+004809069GF105991051051004501001001MD1310061+9999REMSYN076AAXX  28094 60060 32450 52210 10206 20185 40135 53006 85500 333 85616 95300;EQDQ01  00002PRCP99
0202600600999992000082812004+29360-010170FM-12+0066GMMF V0202601N004110030019N0030001N1+02141+01871101441ADDAA199000091AY111061AY211061GA1081+003009079GF108991081061004501999999MD1110091+9999MW1101REMSYN082AAXX  28124 60060 31430 82608 10214 20187 40144 51009 71011 886// 333 88710 95300;EQDQ01  00002PRCP99
0194600600999992000082815004+29360-010170FM-12+0066GMMF V0202801N004610030019N0040001N1+02111+01861101391ADDAA199000091AY121031GA1081+003009079GF108991081061004501999999MD1610051+9999MW1101REMSYN082AAXX  28154 60060 31440 82809 10211 20186 40139 56005 7102/ 886// 333 88710 95310;EQDQ01  00002PRCP99
0221600600999992000082818004+29360-010170FM-12+0066GMMF V0203401N003110030019N0030001N1+02021+01811101361ADDAA199000091AY121061AY221061GA1081+003009079GF108991081061004501999999KA1120M+02261MD1610031+9999MW1101REMSYN088AAXX  28184 60060 31430 83406 10202 20181 40136 56003 71022 886// 333 10226 88710 95310;EQDQ01  00002PRCP99
0194600600999992000082821004+29360-010170FM-12+0066GMMF V0200601N002610030019N0040001N1+02001+01791101441ADDAA199000091AY121031GA1051+003009079GF105991051061004501001001MD1310081+9999MW1101REMSYN082AAXX  28214 60060 31440 50605 10200 20179 40144 53008 7102/ 85600 333 85710 95300;EQDQ01  00002PRCP99
0191600600999992000082906004+29360-010170FM-12+0066GMMF V0202201N002110018019N0015001N1+02081+01991101331ADDAA199000091GA1081+001809079GF108991081061002501999999KA1120N+01921MW1101REMSYN088AAXX  29064 60060 31315 82204 10208 20199 40133 5//// 710// 886// 333 20192 88706 95360;EQDQ01  00002PRCP99
0194600600999992000082909004+29360-010170FM-12+0066GMMF V0202401N003110024019N0015001N1+02101+02001101361ADDAA199000091AY121031GA1081+002409079GF108991081061002501999999MD1110031+9999MW1101REMSYN082AAXX  29094 60060 31315 82406 10210 20200 40136 51003 7102/ 886// 333 88708 95360;EQDQ01  00002PRCP99
0202600600999992000082912004+29360-010170FM-12+0066GMMF V0202601N003610030019N0020001N1+02121+01901101431ADDAA199000091AY151061AY221061GA1071+003009079GF107991071061004501999999MD1010071+9999MW1101REMSYN082AAXX  29124 60060 31420 72607 10212 20190 40143 50007 71052 876// 333 87710 95310;EQDQ01  00002PRCP99
0216600600999992000082915004+29360-010170FM-12+0066GMMF V0203601N003110048019N0040001N1+02111+01881101361ADDAA199000091AY121031GA1031+003009079GA2081+004809069GF108991081051004501999999MD1810071+9999MW1101REMSYN088AAXX  29154 60060 31440 83606 10211 20188 40136 58007 7102/ 885// 333 83710 88616 95300;EQDQ01  00002PRCP99
0230600600999992000082918004+29360-010170FM-12+0066GMMF V0200401N003610048019N0040001N1+02241+01961101361ADDAA112000191AY121061AY221061GA1021+003009079GA2061+004809069GF107991071051004501999999KA1120M+02261MD1010011+9999MW1101REMSYN100AAXX  29184 60060 11440 70407 10224 20196 40136 50001 69922 71022 875// 333 10226 82710 86616 95300;
0216600600999992000082921004+29360-010170FM-12+0066GMMF V0200201N003110048019N0035001N1+02121+01891101391ADDAA199000091AY121031GA1041+003009079GA2081+004809069GF108991081051004501999999MD1310031+9999MW1101REMSYN088AAXX  29214 60060 31435 80206 10212 20189 40139 53003 7102/ 885// 333 84710 88616 95300;EQDQ01  00002PRCP99
0131600600999992000083006004+29360-010170FM-12+0066GMMF V0202201N002619999999N0020001N1+02061+99999999999ADDGF108991999999002501999999REMSYN093AAXX  30064 60060 11320 82205 10206 2020 40114 5//// 69964 751// 886// 333 20196 88708 95360;
0164600600999992000083009004+29360-010170FM-12+0066GMMF V0202201N002110024019N0020001N1+02001+01941101161ADDAY151031GA1081+002409079GF108991081061002501999999MD1310021+9999MW1101REMSYN082AAXX  30094 60060 41320 82204 10200 20194 40116 53002 7105/ 886// 333 88708 95360;
0189600600999992000083012004+29360-010170FM-12+0066GMMF V0202401N002610024019N0015001N1+02021+01961101221ADDAA106000191AY151061AY221061GA1081+002409079GF108991081061002501999999MD1110061+9999MW1101REMSYN088AAXX  30124 60060 11315 82405 10202 20196 40122 51006 69911 71052 886// 333 88708 95360;
0186600600999992000083015004+29360-010170FM-12+0066GMMF V0203601N002610024019N0015001N1+02101+01941101181ADDAA199000091GA1081+002409079GF108991081061002501999999MD1610041+9999MW1101REMSYN082AAXX  30154 60060 31315 83605 10210 20194 40118 56004 710// 886// 333 88708 95360;EQDQ01  00002PRCP99
0208600600999992000083018004+29360-010170FM-12+0066GMMF V0203401N002110030019N0025001N1+02061+01941101141ADDAA112000191AY121061AY221061GA1081+003009079GF108991081061004501999999KA1120M+02121MD1610041+9999MW1101REMSYN094AAXX  30184 60060 11425 83404 10206 20194 40114 56004 69912 71022 886// 333 10212 88710 95310;
0164600600999992000083021004+29360-010170FM-12+0066GMMF V0200401N002110030019N0015001N1+02051+01971101201ADDAY151031GA1081+003009079GF108991081061002501999999MD1310061+9999MW1511REMSYN082AAXX  30214 60060 41315 80404 10205 20197 40120 53006 7515/ 886// 333 88710 95360;
0186600600999992000083106004+29360-010170FM-12+0066GMMF V0202201N001010024019N0040001N1+01951+01871101121ADDAA124001091AY151061GA1081+002409079GF108991081061002501999999KA1120N+01881MW1511REMSYN094AAXX  31064 60060 11340 82202 10195 20187 40112 5//// 60014 7515/ 886// 333 20188 88708 95360;
0164600600999992000083109004+29360-010170FM-12+0066GMMF V0202401N002610024019N0025001N1+01911+01861101201ADDAY151031GA1081+002409079GF108991081061002501999999MD1310081+9999MW1511REMSYN082AAXX  31094 60060 41325 82405 10191 20186 40120 53008 7515/ 886// 333 88708 95360;
0189600600999992000083112004+29360-010170FM-12+0066GMMF V0202401N003110030019N0020001N1+02041+01891101271ADDAA106000191AY151061AY241061GA1071+003009079GF107991071061004501999999MD1010071+9999MW1101REMSYN088AAXX  31124 60060 11420 72406 10204 20189 40127 50007 69911 71054 876// 333 87710 95310;
0175600600999992000083115004+29360-010170FM-12+0066GMMF V0203601N003610030019N0025001N1+01991+01851101221ADDAA199000021AY121031GA1081+003009079GF108991081061004501999999MD1810051+9999MW1101REMSYN082AAXX  31154 60060 31425 83607 10199 20185 40122 58005 7102/ 886// 333 88710 95310;
0202600600999992000083118004+29360-010170FM-12+0066GMMF V0203401N002110048019N0050001N1+02041+01871101201ADDAA112000191GA1031+003009079GA2061+004809069GF107991071051004501999999KA1120M+02101MD1710021+9999REMSYN094AAXX  31184 60060 12450 73404 10204 20187 40120 57002 69912 875// 333 10210 83710 86616 95300;
0155600600999992000083121004+29360-010170FM-12+0066GMMF V0200201N003610048019N0060001N1+02021+01851101241ADDAA199000021GA1051+004809069GF105991051051004501001001MD1310041+9999REMSYN076AAXX  31214 60060 32456 50207 10202 20185 40124 53004 85500 333 85616 95300;
0166600600999992000090106004+29360-010170FM-12+0066GMMF V0201001N002610048019N0080001N1+01911+01731101291ADDAA124000191GA1081+004809069GF108991081051004501999999KA1120N+01851REMSYN088AAXX  01064 60060 12458 81005 10191 20173 40129 5//// 69914 885// 333 20185 88616 95300;
0174600600999992000090109004+29360-010170FM-12+0066GMMF V0203601N002110048019N0100001N1+02001+01781101401ADDAA199000091GA1081+004809069GF108991081051004501999999MD1110111+9999REMSYN076AAXX  01094 60060 32460 83604 10200 20178 40140 51011 885// 333 88616 95300;EQDQ01  00002PRCP99
0174600600999992000090112004+29360-010170FM-12+0066GMMF V0202801N003612200019N0100001N1+02161+01741101441ADDAA199000091GA1011+004809069GF101991011051004501001001MD1110051+9999REMSYN076AAXX  01124 60060 32460 12807 10216 20174 40144 51005 81500 333 81616 95300;EQDQ01  00002PRCP99
0152600600999992000090115004+29360-010170FM-12+0066GMMF V0203201N002112200019N0120001N1+02151+01811101421ADDAA199000091GA1001+999999999GF100991001001999999001001MD1810021+9999REMSYN054AAXX  01154 60060 32962 03204 10215 20181 40142 58002;EQDQ01  00002PRCP99
0193600600999992000090118004+29360-010170FM-12+0066GMMF V0200201N003612200019N0100001N1+02051+01811101431ADDAA199000091GA1041+006009069GF104991041051008001001001KA1120M+02231MD1510001+9999REMSYN082AAXX  01184 60060 32560 40207 10205 20181 40143 55000 84500 333 10223 84620 95300;EQDQ01  00002PRCP99
0152600600999992000090121004+29360-010170FM-12+0066GMMF V0200601N003112200019N0080001N1+02001+01821101511ADDAA199000091GA1001+999999999GF100991001001999999001001MD1310081+9999REMSYN054AAXX  01214 60060 32958 00606 10200 20182 40151 53008;EQDQ01  00002PRCP99
0161600600999992000090206004+29360-010170FM-12+0066GMMF V0200801N001512200019N0100001N1+01931+01721101571ADDAA199000091GA1001+999999999GF100991001001999999001001KA1999N+01881REMSYN064AAXX  02064 60060 32960 00803 10193 20172 40157 5//// 333 20188;EQDQ01  00002PRCP99
0174600600999992000090209004+29360-010170FM-12+0066GMMF V0200401N002110048019N0080001N1+01991+01701101651ADDAA199000091GA1081+004809069GF108991081051004501999999MD1310081+9999REMSYN076AAXX  02094 60060 32458 80404 10199 20170 40165 53008 885// 333 88616 95300;EQDQ01  00002PRCP99
0174600600999992000090212004+29360-010170FM-12+0066GMMF V0202801N002110048019N0080001N1+02111+01731101731ADDAA199000091GA1061+004809069GF106991061051004501001001MD1110081+9999REMSYN076AAXX  02124 60060 32458 62804 10211 20173 40173 51008 86500 333 86616 95300;EQDQ01  00002PRCP99
0174600600999992000090215004+29360-010170FM-12+0066GMMF V0203001N002610048019N0060001N1+02111+01771101611ADDAA199000091GA1061+004809069GF106991061051004501001001MD1610121+9999REMSYN076AAXX  02154 60060 32456 63005 10211 20177 40161 56012 86500 333 86616 95300;EQDQ01  00002PRCP99
0175600600999992000090218004+29360-010170FM-12+0066GMMF V0203401N002612200019N0060001N1+02051+01751101631ADDAA199000091GA1001+999999999GF100991001001999999001001KA1999M+02151MD1310021+9999REMSYN064AAXX  02184 60060 32956 03405 10205 20175 40163 53002 333 10215;EQDQ01  00002PRCP99
0152600600999992000090221004+29360-010170FM-12+0066GMMF V0200401N002112200019N0060001N1+02021+01731101661ADDAA199000091GA1001+999999999GF100991001001999999001001MD1310031+9999REMSYN054AAXX  02214 60060 32956 00404 10202 20173 40166 53003;EQDQ01  00002PRCP99
0174600600999992000090309004+29360-010170FM-12+0066GMMF V0200401N002110048019N0070001N1+02041+01651101671ADDAA199000091GA1071+004809069GF107991071051004501999999MD1310071+9999REMSYN076AAXX  03094 60060 32457 70404 10204 20165 40167 53007 875// 333 87616 95300;EQDQ01  00002PRCP99
0174600600999992000090312004+29360-010170FM-12+0066GMMF V0200401N004612200019N0080001N1+02301+01761101671ADDAA199000091GA1031+004809069GF103991031051004501001001MD1010011+9999REMSYN076AAXX  03124 60060 32458 30409 10230 20176 40167 50001 83500 333 83616 95300;EQDQ01  00002PRCP99
0193600600999992000090318004+29360-010170FM-12+0066GMMF V0203601N003110048019N0060001N1+02151+01841101581ADDAA199000091GA1051+004809069GF105991051051004501001001KA1120M+02351MD1510021+9999REMSYN082AAXX  03184 60060 32456 53606 10215 20184 40158 55002 85500 333 10235 85616 95300;EQDQ01  00002PRCP99
0174600600999992000090321004+29360-010170FM-12+0066GMMF V0200601N003110048019N0060001N1+02161+01831101631ADDAA199000091GA1061+004809069GF106991061051004501001001MD1310041+9999REMSYN076AAXX  03214 60060 32456 60606 10216 20183 40163 53004 86500 333 86616 95300;EQDQ01  00002PRCP99
0179600600999992000090406004+29360-010170FM-12+0066GMMF V0200801N002110048019N0060001N1+02091+01841101481ADDAA199000091GA1061+004809069GF106991061051004501001001KA1120N+02041REMSYN082AAXX  04064 60060 32456 60804 10209 20184 40148 5//// 86500 333 20204 86616 95300;EQDQ01  00002PRCP99
0174600600999992000090409004+29360-010170FM-12+0066GMMF V0203601N002110048019N0060001N1+02071+01901101551ADDAA199000091GA1081+004809069GF108991081051004501999999MD1310071+9999REMSYN076AAXX  04094 60060 32456 83604 10207 20190 40155 53007 885// 333 88616 95300;EQDQ01  00002PRCP99
0174600600999992000090412004+29360-010170FM-12+0066GMMF V0203201N001510048019N0050001N1+02191+01911101551ADDAA199000091GA1071+004809069GF107991071051004501999999MD1010011+9999REMSYN076AAXX  04124 60060 32450 73203 10219 20191 40155 50001 875// 333 87616 95300;EQDQ01  00002PRCP99
0174600600999992000090415004+29360-010170FM-12+0066GMMF V0203201N003610048019N0050001N1+02211+01851101501ADDAA199000091GA1061+004809069GF106991061051004501001001MD1610051+9999REMSYN076AAXX  04154 60060 32450 63207 10221 20185 40150 56005 86500 333 86616 95300;EQDQ01  00002PRCP99
0193600600999992000090418004+29360-010170FM-12+0066GMMF V0203601N003110048019N0050001N1+02181+01861101401ADDAA199000091GA1061+004809069GF106991061051004501001001KA1120M+02311MD1610101+9999REMSYN082AAXX  04184 60060 32450 63606 10218 20186 40140 56010 86500 333 10231 86616 95300;EQDQ01  00002PRCP99
0174600600999992000090421004+29360-010170FM-12+0066GMMF V0202801N003110048019N0050001N1+02081+01841101461ADDAA199000091GA1071+004809069GF107991071051004501999999MD1310061+9999REMSYN076AAXX  04214 60060 32450 72806 10208 20184 40146 53006 875// 333 87616 95300;EQDQ01  00002PRCP99
0194600600999992000090509004+29360-010170FM-12+0066GMMF V0202801N002610048019N0010001N1+02001+01831101251ADDAA199000091AY121031GA1081+004809069GF108991081051004501999999MD1310021+9999MW1101REMSYN082AAXX  05094 60060 31410 82805 10200 20183 40125 53002 7102/ 885// 333 88616 95300;EQDQ01  00002PRCP99
0202600600999992000090512004+29360-010170FM-12+0066GMMF V0202601N005710048019N0035001N1+02101+01761101291ADDAA199000091AY121061AY221061GA1071+004809069GF107991071051004501999999MD1110041+9999MW1101REMSYN082AAXX  05124 60060 31435 72611 10210 20176 40129 51004 71022 875// 333 87616 95300;EQDQ01  00002PRCP99
0194600600999992000090515004+29360-010170FM-12+0066GMMF V0202601N004110048019N0030001N1+02151+01681101241ADDAA199000091AY121031GA1071+004809069GF107991071051004501999999MD1810041+9999MW1101REMSYN082AAXX  05154 60060 31430 72608 10215 20168 40124 58004 7102/ 875// 333 87616 95300;EQDQ01  00002PRCP99
0221600600999992000090518004+29360-010170FM-12+0066GMMF V0203601N003610048019N0030001N1+02151+01841101241ADDAA199000091AY121061AY221061GA1081+004809069GF108991081051004501999999KA1120M+02201MD1410001+9999MW1101REMSYN088AAXX  05184 60060 31430 83607 10215 20184 40124 54000 71022 885// 333 10220 88616 95300;EQDQ01  00002PRCP99
0194600600999992000090521004+29360-010170FM-12+0066GMMF V0200401N002610048019N0030001N1+02101+01811101291ADDAA199000091AY121031GA1081+004809069GF108991081051004501999999MD1110041+9999MW1101REMSYN082AAXX  05214 60060 31430 80405 10210 20181 40129 51004 7102/ 885// 333 88616 95300;EQDQ01  00002PRCP99
0229600600999992000090606004+29360-010170FM-12+0066GMMF V0202201N003112200019N0030001N1+01371+99999101071ADDAA199000091GA1041+003009079GA2081+004809069GF199999081051004501999999KA1120M+01911MW1101REMSYN094AAXX  06064 60060 31430 32206 10137 20186 40107 5//// 710// 885// 333 10191 84710 88616 85310;EQDQ01+000032SCOTCVQ02  00002PRCP99
0208600600999992000090609004+29360-010170FM-12+0066GMMF V0202801N002110048019N0030001N1+02001+01841101141ADDAA199000091GA1031+003009079GA2081+004809069GF108991081051004501999999MD1310071+9999MW1101REMSYN088AAXX  06094 60060 31430 82804 10200 20184 40114 53007 710// 885// 333 83710 88616 95310;EQDQ01  00002PRCP99
0224600600999992000090612004+29360-010170FM-12+0066GMMF V0203201N003110048019N0035001N1+02181+01801101181ADDAA199000091AY121061AY221061GA1021+003009079GA2081+004809069GF108991081051004501999999MD1010041+9999MW1101REMSYN088AAXX  06124 60060 31435 83206 10218 20180 40118 50004 71022 885// 333 82710 88616 95300;EQDQ01  00002PRCP99
0182600600999992000090615004+29360-010170FM-12+0066GMMF V02099999999992200019N0045001N1+02211+01901101081ADDAA199000091AY111031GA1001+999999999GF100991001001999999001001MD1810101+9999MW1101REMSYN070AAXX  06154 60060 31445 032/6 10221 20190 40108 58010 7101/ 333 8//59;EQDQ01  00002PRCP99
0203600600999992000090618004+29360-010170FM-12+0066GMMF V0203601N003112200019N0045001N1+02131+01931101041ADDAA199000091AY111061AY211061GA1001+999999999GF100991001001999999001001KA1999M+02251MD1810041+9999MW1101REMSYN070AAXX  06184 60060 31945 03606 10213 20193 40104 58004 71011 333 10225;EQDQ01  00002PRCP99
0172600600999992000090621004+29360-010170FM-12+0066GMMF V0200401N003112200019N0040001N1+02051+01871101041ADDAA199000091AY101031GA1001+999999999GF100991001001999999001001MD1410001+9999MW1101REMSYN060AAXX  06214 60060 31940 00406 10205 20187 40104 54000 7100/;EQDQ01  00002PRCP99
0179600600999992000090706004+29360-010170FM-12+0066GMMF V0209999C000012200019N0050001N1+02001+01841100941ADDAA199000091GA1021+003009079GF102991021061004501001001KA1120N+01951REMSYN082AAXX  07064 60060 32450 20000 10200 20184 40094 5//// 82600 333 20195 82710 95300;EQDQ01  00002PRCP99
0186600600999992000090709004+29360-010170FM-12+0066GMMF V0203401N001512200019N0040001N1+02151+01881101061ADDAA199000091GA1021+003009079GF102991021061004501001001MD1310121+9999MW1101REMSYN082AAXX  07094 60060 31440 23403 10215 20188 40106 53012 710// 82600 333 82710 95300;EQDQ01  00002PRCP99
0164600600999992000090712004+29360-010170FM-12+0066GMMF V0202801N003112200019N0045001N1+02301+01931101101ADDAA199000091GA1001+999999999GF100991001001999999001001MD1010051+9999MW1101REMSYN060AAXX  07124 60060 31945 02806 10230 20193 40110 50005 710//;EQDQ01  00002PRCP99
0174600600999992000090715004+29360-010170FM-12+0066GMMF V0202401N005112200019N0050001N1+02271+01961101031ADDAA199000091GA1031+004809069GF103991031051004501001001MD1810071+9999REMSYN076AAXX  07154 60060 32450 32410 10227 20196 40103 58007 83500 333 83616 95300;EQDQ01  00002PRCP99
0243600600999992000090718004+29360-010170FM-12+0066GMMF V0202601N002110048019N0035001N1+02111+02031101061ADDAA199000091AY121061AY221061GA1041+002409079GA2071+004809069GF108991081051002501999999KA1120M+02381MD1110021+9999MW1101REMSYN094AAXX  07184 60060 31335 82604 10211 20203 40106 51002 71022 885// 333 10238 84708 87616 95310;EQDQ01  00002PRCP99
0202600600999992000090721004+29360-010170FM-12+0066GMMF V0202401N001010024019N0008001N1+02001+02001101111ADDAA199000091AY141031AY221031GA1081+002409079GF108991081061002501999999MD1310051+9999MW1461REMSYN082AAXX  07214 60060 31308 82402 10200 20200 40111 53005 74642 886// 333 88708 95360;EQDQ01  00002PRCP99
0178600600999992000090806004+29360-010170FM-12+0066GMMF V0202201N003110024019N0012001N1+01921+01861101031ADDAA124000191GA1061+002409079GF106991061061002501001001KA1120N+01841MW1311REMSYN094AAXX  08064 60060 11312 62206 10192 20186 40103 5//// 69914 731// 86600 333 20184 86708 95360;
0186600600999992000090809004+29360-010170FM-12+0066GMMF V0202201N002110030019N0030001N1+01931+01881101161ADDAA199000091GA1081+003009079GF108991081061004501999999MD1310131+9999MW1101REMSYN082AAXX  08094 60060 31430 82204 10193 20188 40116 53013 710// 886// 333 88710 95310;EQDQ01  00002PRCP99
0152600600999992000090815004+29360-010170FM-12+0066GMMF V0202601N004112200019N0060001N1+02341+01921101111ADDAA199000091GA1001+999999999GF100991001001999999001001MD1710101+9999REMSYN054AAXX  08154 60060 32956 02608 10234 20192 40111 57010;EQDQ01  00002PRCP99
0175600600999992000090818004+29360-010170FM-12+0066GMMF V0202801N002112200019N0060001N1+02231+01941101071ADDAA199000091GA1001+999999999GF100991001001999999001001KA1999M+02401MD1610041+9999REMSYN064AAXX  08184 60060 32956 02804 10223 20194 40107 56004 333 10240;EQDQ01  00002PRCP99
0179600600999992000090906004+29360-010170FM-12+0066GMMF V0201201N001510024019N0050001N1+01991+01861101151ADDAA199000091GA1061+002409079GF106991061061002501001001KA1120N+01961REMSYN082AAXX  09064 60060 32350 61203 10199 20186 40115 5//// 86600 333 20196 86708 95310;EQDQ01  00002PRCP99
0194600600999992000090909004+29360-010170FM-12+0066GMMF V0201001N001010024019N0020001N1+01971+01881101241ADDAA199000091AY121031GA1071+002409079GF107991071061002501999999MD1310091+9999MW1101REMSYN082AAXX  09094 60060 31320 71002 10197 20188 40124 53009 7102/ 876// 333 87708 95310;EQDQ01  00002PRCP99
0202600600999992000090912004+29360-010170FM-12+0066GMMF V0203001N002110024019N0035001N1+02071+01831101331ADDAA199000091AY121061AY221061GA1071+002409079GF107991071061002501999999MD1010081+9999MW1101REMSYN082AAXX  09124 60060 31335 73004 10207 20183 40133 50008 71022 876// 333 87708 95310;EQDQ01  00002PRCP99
0210600600999992000090915004+29360-010170FM-12+0066GMMF V0203201N002110024019N0040001N1+02121+01901101241ADDAA199000091AY121031GA1061+002409079GF106991061061002501001001MD1510091+9999MW1101REMSYN082AAXX  09154 60060 31340 63204 10212 20190 40124 55608 7102/ 86600 333 86708 95310;EQDQ01+006087APC3  Q02  00002PRCP99
0221600600999992000090918004+29360-010170FM-12+0066GMMF V0203201N002110024019N0040001N1+02021+01861101291ADDAA199000091AY121061AY221061GA1061+002409079GF106991061061002501001001KA1120M+02181MD1110041+9999MW1101REMSYN088AAXX  09184 60060 31340 63204 10202 20186 40129 51004 71022 86600 333 10218 86708 95310;EQDQ01  00002PRCP99
0194600600999992000090921004+29360-010170FM-12+0066GMMF V0203601N001510030019N0035001N1+01951+01871101441ADDAA199000091AY121031GA1061+003009079GF106991061061004501001001MD1310151+9999MW1101REMSYN082AAXX  09214 60060 31435 63603 10195 20187 40144 53015 7102/ 86600 333 86710 95300;EQDQ01  00002PRCP99
0178600600999992000091006004+29360-010170FM-12+0066GMMF V0209999C000010024019N0012001N1+01851+01821101351ADDAA124000191GA1081+002409079GF108991081061002501999999KA1120N+01801MW1101REMSYN094AAXX  10064 60060 11312 80000 10185 20182 40135 5//// 69914 710// 886// 333 20180 88708 95360;
0202600600999992000091012004+29360-010170FM-12+0066GMMF V0203401N002110024019N0035001N1+01961+01821101561ADDAA199000091AY121061AY221061GA1081+002409079GF108991081061002501999999MD1210131+9999MW1101REMSYN082AAXX  10124 60060 31335 83404 10196 20182 40156 52013 71022 886// 333 88708 95360;EQDQ01  00002PRCP99
0194600600999992000091015004+29360-010170FM-12+0066GMMF V0203201N002110030019N0040001N1+02001+01841101521ADDAA199000091AY121031GA1071+003009079GF107991071061004501999999MD1710041+9999MW1101REMSYN082AAXX  10154 60060 31440 73204 10200 20184 40152 57004 7102/ 876// 333 87710 95310;EQDQ01  00002PRCP99
0193600600999992000091018004+29360-010170FM-12+0066GMMF V0200401N003110030019N0050001N1+02021+01831101491ADDAA199000091GA1051+003009079GF105991051061004501001001KA1120M+02151MD1610031+9999REMSYN082AAXX  10184 60060 32450 50406 10202 20183 40149 56003 85600 333 10215 85710 95300;EQDQ01  00002PRCP99
0174600600999992000091021004+29360-010170FM-12+0066GMMF V0200401N004112200019N0050001N1+01971+01831101591ADDAA199000091GA1021+003009079GF102991021061004501001001MD1310101+9999REMSYN076AAXX  10214 60060 32450 20408 10197 20183 40159 53010 82600 333 82710 95300;EQDQ01  00002PRCP99
0213600600999992000091106004+29360-010170FM-12+0066GMMF V0200201N003110048019N0020001N1+01911+01801101491ADDAA199000091GA1021+003009079GA2051+004809069GF106991061051004501001001KA1120N+01801MW1101REMSYN094AAXX  11064 60060 31420 60206 10191 20180 40149 5//// 710// 86500 333 20180 82710 85616 95300;EQDQ01  00002PRCP99
0216600600999992000091109004+29360-010170FM-12+0066GMMF V0200801N001510048019N0025001N1+01911+01761101591ADDAA199000091AY121031GA1041+003009079GA2071+004809069GF108991081051004501999999MD1310101+9999MW1101REMSYN088AAXX  11094 60060 31425 80803 10191 20176 40159 53010 7102/ 885// 333 84710 87616 95310;EQDQ01  00002PRCP99
0224600600999992000091112004+29360-010170FM-12+0066GMMF V0200201N003610048019N0040001N1+01961+01791101631ADDAA199000091AY121061AY221061GA1031+003009079GA2071+004809069GF107991071051004501999999MD1010041+9999MW1101REMSYN088AAXX  11124 60060 31440 70207 10196 20179 40163 50004 71022 875// 333 83710 87616 95310;EQDQ01  00002PRCP99
0216600600999992000091115004+29360-010170FM-12+0066GMMF V0203601N004110048019N0045001N1+02101+01781101521ADDAA199000091AY121031GA1011+003009079GA2071+004809069GF107991071051004501999999MD1710111+9999MW1101REMSYN088AAXX  11154 60060 31445 73608 10210 20178 40152 57011 7102/ 875// 333 81710 87616 95300;EQDQ01  00002PRCP99
0193600600999992000091118004+29360-010170FM-12+0066GMMF V0203601N004612200019N0060001N1+02121+01771101431ADDAA199000091GA1011+048009009GF101991001001999999001011KA1120M+02201MD1610091+9999REMSYN082AAXX  11184 60060 32956 13609 10212 20177 40143 56009 80001 333 10220 81066 95300;EQDQ01  00002PRCP99
0152600600999992000091121004+29360-010170FM-12+0066GMMF V0200601N003612200019N0060001N1+01981+01771101481ADDAA199000091GA1001+999999999GF100991001001999999001001MD1310051+9999REMSYN054AAXX  11214 60060 32956 00607 10198 20177 40148 53005;EQDQ01  00002PRCP99
0179600600999992000091206004+29360-010170FM-12+0066GMMF V0200601N001510048019N0050001N1+01951+01741101371ADDAA199000091GA1051+004809069GF105991051051004501001001KA1120N+01881REMSYN082AAXX  12064 60060 32450 50603 10195 20174 40137 5//// 85500 333 20188 85616 95300;EQDQ01  00002PRCP99
0168600600999992000091209004+29360-010170FM-12+0066GMMF V0203601N002110048019N0050001N1+02001+01721101411ADDAA199000091GA1071+004809059GF107991071051004501999999MD1210041+9999REMSYN070AAXX  12094 60060 32450 73604 10200 20172 40141 52004 875// 333 87616;EQDQ01  00002PRCP99
0174600600999992000091212004+29360-010170FM-12+0066GMMF V0203201N002612200019N0060001N1+02121+01781101401ADDAA199000091GA1031+004809069GF103991031051004501001001MD1010011+9999REMSYN076AAXX  12124 60060 32456 33205 10212 20178 40140 50001 83500 333 83616 95300;EQDQ01  00002PRCP99
0174600600999992000091215004+29360-010170FM-12+0066GMMF V0203401N003612200019N0070001N1+02201+01821101241ADDAA199000091GA1041+004809069GF104991041051004501001001MD1810151+9999REMSYN076AAXX  12154 60060 32457 43407 10220 20182 40124 58015 84500 333 84616 95300;EQDQ01  00002PRCP99
0193600600999992000091218004+29360-010170FM-12+0066GMMF V0203201N002610048019N0050001N1+02131+01851101231ADDAA199000091GA1071+004809069GF107991071051004501999999KA1120M+02261MD1610011+9999REMSYN082AAXX  12184 60060 32450 73205 10213 20185 40123 56001 875// 333 10226 87616 95300;EQDQ01  00002PRCP99
0174600600999992000091221004+29360-010170FM-12+0066GMMF V0202801N002610048019N0050001N1+01981+01751101391ADDAA199000091GA1081+004809069GF108991081051004501999999MD1310151+9999REMSYN076AAXX  12214 60060 32450 82805 10198 20175 40139 53015 885// 333 88616 95300;EQDQ01  00002PRCP99
0179600600999992000091306004+29360-010170FM-12+0066GMMF V0201201N002610048019N0050001N1+02021+01691101271ADDAA199000091GA1071+004809069GF107991071051004501999999KA1120N+01921REMSYN082AAXX  13064 60060 32450 71205 10202 20169 40127 5//// 875// 333 20192 87616 95300;EQDQ01  00002PRCP99
0174600600999992000091309004+29360-010170FM-12+0066GMMF V0203401N002610048019N0060001N1+02141+01691101331ADDAA199000091GA1071+004809069GF107991071051004501999999MD1310051+9999REMSYN076AAXX  13094 60060 32456 73405 10214 20169 40133 53005 875// 333 87616 95300;EQDQ01  00002PRCP99
0152600600999992000091312004+29360-010170FM-12+0066GMMF V0203601N003112200019N0070001N1+02221+01741101361ADDAA199000091GA1001+999999999GF100991001001999999001001MD1010041+9999REMSYN054AAXX  13124 60060 32957 03606 10222 20174 40136 50004;EQDQ01  00002PRCP99
0152600600999992000091315004+29360-010170FM-12+0066GMMF V0203601N002612200019N0080001N1+02271+01861101401ADDAA199000091GA1001+999999999GF100991001001999999001001MD1310041+9999REMSYN054AAXX  13154 60060 32958 03605 10227 20186 40140 53004;EQDQ01  00002PRCP99
0175600600999992000091318004+29360-010170FM-12+0066GMMF V0200201N002612200019N0080001N1+02221+01891101391ADDAA199000091GA1001+999999999GF100991001001999999001001KA1999M+02361MD1610011+9999REMSYN064AAXX  13184 60060 32958 00205 10222 20189 40139 56001 333 10236;EQDQ01  00002PRCP99
0174600600999992000091321004+29360-010170FM-12+0066GMMF V0202201N002110048019N0060001N1+02121+01851101481ADDAA199000091GA1051+004809069GF105991051051004501001001MD1210211+9999REMSYN076AAXX  13214 60060 32456 52204 10212 20185 40148 52021 85500 333 85616 95300;EQDQ01  00002PRCP99
0179600600999992000091406004+29360-010170FM-12+0066GMMF V0203201N002110048019N0060001N1+02001+01761101431ADDAA199000091GA1071+004809069GF107991071051004501999999KA1120N+01981REMSYN082AAXX  14064 60060 32456 73204 10200 20176 40143 5//// 875// 333 20198 87616 95300;EQDQ01  00002PRCP99
0174600600999992000091409004+29360-010170FM-12+0066GMMF V0203601N003612200019N0060001N1+02101+01781101451ADDAA199000091GA1031+004809069GF103991031051004501001001MD1210021+9999REMSYN076AAXX  14094 60060 32456 33607 10210 20178 40145 52002 83500 333 83616 95300;EQDQ01  00002PRCP99
0174600600999992000091412004+29360-010170FM-12+0066GMMF V0203601N002612200019N0060001N1+02131+01851101511ADDAA199000091GA1021+004809069GF102991021051004501001001MD1010061+9999REMSYN076AAXX  14124 60060 32456 23605 10213 20185 40151 50006 82500 333 82616 95300;EQDQ01  00002PRCP99
0174600600999992000091415004+29360-010170FM-12+0066GMMF V0203201N003112200019N0060001N1+02241+01901101501ADDAA199000091GA1031+004809069GF103991031051004501001001MD1410001+9999REMSYN076AAXX  14154 60060 32456 33206 10224 20190 40150 54000 83500 333 83616 95300;EQDQ01  00002PRCP99
0193600600999992000091418004+29360-010170FM-12+0066GMMF V0200401N004112200019N0060001N1+02141+01951101511ADDAA199000091GA1021+004809069GF102991021051004501001001KA1120M+02281MD1410001+9999REMSYN082AAXX  14184 60060 32456 20408 10214 20195 40151 54000 82500 333 10228 82616 95300;EQDQ01  00002PRCP99
0174600600999992000091421004+29360-010170FM-12+0066GMMF V0200201N005112200019N0060001N1+02001+01711101601ADDAA199000091GA1021+004809069GF102991021051004501001001MD1310091+9999REMSYN076AAXX  14214 60060 32456 20210 10200 20171 40160 53009 82500 333 82616 95300;EQDQ01  00002PRCP99
0179600600999992000091506004+29360-010170FM-12+0066GMMF V0202001N003112200019N0060001N1+01851+01601101411ADDAA199000091GA1021+004809069GF102991021051004501001001KA1120N+01821REMSYN082AAXX  15064 60060 32456 22006 10185 20160 40141 5/009 82500 333 20182 82616 95300;EQDQ01  00002PRCP99
0174600600999992000091509004+29360-010170FM-12+0066GMMF V0203401N002110360019N0070001N1+01921+01661101521ADDAA199000091GA1041+004809069GF105991041051004501031001MD1210111+9999REMSYN076AAXX  15094 60060 32457 53404 10192 20166 40152 52011 84530 333 84616 95300;EQDQ01  00002PRCP99
0174600600999992000091512004+29360-010170FM-12+0066GMMF V0203601N002112200019N0070001N1+02171+01851101681ADDAA199000091GA1011+003009079GF104991031051004501031001MD1110171+9999REMSYN076AAXX  15124 60060 32457 43604 10217 20185 40168 51017 83530 333 81710 95300;EQDQ01  00002PRCP99
0174600600999992000091515004+29360-010170FM-12+0066GMMF V0203401N003612200019N0070001N1+02241+01931101541ADDAA199000091GA1031+030009039GF103991031001999999031001MD1610141+9999REMSYN076AAXX  15154 60060 32957 33407 10224 20193 40154 56014 83030 333 83360 95300;EQDQ01  00002PRCP99
0193600600999992000091518004+29360-010170FM-12+0066GMMF V0203601N003112200019N0070001N1+02211+01871101561ADDAA199000091GA1041+030009039GF104991041001999999031001KA1120M+02321MD1310021+9999REMSYN082AAXX  15184 60060 32957 43606 10221 20187 40156 53002 84030 333 10232 84360 95300;EQDQ01  00002PRCP99
0174600600999992000091521004+29360-010170FM-12+0066GMMF V0203601N004612200019N0070001N1+02131+01811101631ADDAA199000091GA1031+030009039GF103991031001999999031001MD1310061+9999REMSYN076AAXX  15214 60060 32957 33609 10213 20181 40163 53006 83030 333 83360 95300;EQDQ01  00002PRCP99
0179600600999992000091606004+29360-010170FM-12+0066GMMF V0209999C000012200019N0060001N1+01911+01801101431ADDAA199000091GA1021+030009039GF102991021001999999031001KA1120N+01861REMSYN082AAXX  16064 60060 32956 20000 10191 20180 40143 5//// 82030 333 20186 82360 95300;EQDQ01  00002PRCP99
0202600600999992000091612004+29360-010170FM-12+0066GMMF V0202801N003612200019N0040001N1+02401+01741101591ADDAA199000091AY141061AY211061GA1021+003009079GF102991021061004501001001MD1810011+9999MW1101REMSYN082AAXX  16124 60060 31440 22807 10240 20174 40159 58001 71041 82600 333 82710 95300;EQDQ01  00002PRCP99
0152600600999992000091615004+29360-010170FM-12+0066GMMF V0203201N003612200019N0050001N1+02361+01901101561ADDAA199000091GA1001+999999999GF100991001001999999001001MD1810031+9999REMSYN054AAXX  16154 60060 32950 03207 10236 20190 40156 58003;EQDQ01  00002PRCP99
0175600600999992000091618004+29360-010170FM-12+0066GMMF V0203601N004112200019N0050001N1+02241+01961101551ADDAA199000091GA1001+999999999GF100991001001999999001001KA1999M+02461MD1610011+9999REMSYN064AAXX  16184 60060 32950 03608 10224 20196 40155 56001 333 10246;EQDQ01  00002PRCP99
0152600600999992000091621004+29360-010170FM-12+0066GMMF V0200401N004112200019N0050001N1+02151+01921101661ADDAA199000091GA1001+999999999GF100991001001999999001001MD1310111+9999REMSYN054AAXX  16214 60060 32950 00408 10215 20192 40166 53011;EQDQ01  00002PRCP99
0191600600999992000091706004+29360-010170FM-12+0066GMMF V0203401N002110024019N0015001N1+01921+01811101561ADDAA199000091GA1061+002409079GF106991061061002501001001KA1120N+01871MW1101REMSYN088AAXX  17064 60060 31315 63404 10192 20181 40156 5//// 710// 86600 333 20187 86708 95310;EQDQ01  00002PRCP99
0194600600999992000091709004+29360-010170FM-12+0066GMMF V0202401N002110024019N0020001N1+01911+01811101611ADDAA199000091AY121031GA1051+002409079GF105991051061002501001001MD1310051+9999MW1101REMSYN082AAXX  17094 60060 31320 52404 10191 20181 40161 53005 7102/ 85600 333 85708 95310;EQDQ01  00002PRCP99
0202600600999992000091712004+29360-010170FM-12+0066GMMF V0202401N004112200019N0025001N1+02191+01811101721ADDAA199000091AY121061AY211061GA1031+003009079GF103991031061004501001001MD1010121+9999MW1101REMSYN082AAXX  17124 60060 31425 32408 10219 20181 40172 50012 71021 83600 333 83710 95300;EQDQ01  00002PRCP99
0174600600999992000091715004+29360-010170FM-12+0066GMMF V0203401N004112200019N0060001N1+02251+01941101601ADDAA199000091GA1011+004809069GF101991011051004501001001MD1610121+9999REMSYN076AAXX  17154 60060 32456 13408 10225 20194 40160 56012 81500 333 81616 95300;EQDQ01  00002PRCP99
0193600600999992000091718004+29360-010170FM-12+0066GMMF V0200201N006712200019N0060001N1+02301+01961101601ADDAA199000091GA1011+003009079GF103991031051004501001001KA1120M+02401MD1410001+9999REMSYN082AAXX  17184 60060 32456 30213 10230 20196 40160 54000 83500 333 10240 81710 95300;EQDQ01  00002PRCP99
0196600600999992000091721004+29360-010170FM-12+0066GMMF V0200401N005112200019N0060001N1+02171+01901101581ADDAA199000091GA1011+003009079GA2031+004809069GF104991041051004501001001MD1610021+9999REMSYN082AAXX  17214 60060 32456 40410 10217 20190 40158 56002 84500 333 81710 83616 95300;EQDQ01  00002PRCP99
0179600600999992000091806004+29360-010170FM-12+0066GMMF V0200401N003610048019N0060001N1+02101+01831101591ADDAA199000091GA1061+004809069GF106991061051004501001001KA1120N+01951REMSYN082AAXX  18064 60060 32456 60407 10210 20183 40159 5/002 86500 333 20195 86616 95300;EQDQ01  00002PRCP99
0174600600999992000091809004+29360-010170FM-12+0066GMMF V0200401N005112200019N0060001N1+02301+01921101631ADDAA199000091GA1031+004809069GF103991031051004501001001MD1210051+9999REMSYN076AAXX  18094 60060 32456 30410 10230 20192 40163 52005 83500 333 83616 95300;EQDQ01  00002PRCP99
0174600600999992000091812004+29360-010170FM-12+0066GMMF V0200401N006212200019N0060001N1+02501+01871101621ADDAA199000091GA1021+004809069GF102991021051004501001001MD1810011+9999REMSYN076AAXX  18124 60060 32456 20412 10250 20187 40162 58001 82500 333 82616 95300;EQDQ01  00002PRCP99
0152600600999992000091815004+29360-010170FM-12+0066GMMF V0203601N003612200019N0200001N1+02401+01941101481ADDAA199000091GA1001+999999999GF100991001001999999001001MD1610141+9999REMSYN054AAXX  18154 60060 32970 03607 10240 20194 40148 56014;EQDQ01  00002PRCP99
0193600600999992000091818004+29360-010170FM-12+0066GMMF V0200401N003612200019N0150001N1+02251+01941101471ADDAA199000091GA1031+004809069GF103991031051004501001001KA1120M+02521MD1610011+9999REMSYN082AAXX  18184 60060 32465 30407 10225 20194 40147 56001 83500 333 10252 83616 95300;EQDQ01  00002PRCP99
0174600600999992000091821004+29360-010170FM-12+0066GMMF V0200401N003610048019N0100001N1+02161+01871101521ADDAA199000091GA1061+004809069GF106991061051004501001001MD1310051+9999REMSYN076AAXX  18214 60060 32460 60407 10216 20187 40152 53005 86500 333 86616 95300;EQDQ01  00002PRCP99
0179600600999992000091906004+29360-010170FM-12+0066GMMF V0203601N003110048019N0080001N1+02081+01921101431ADDAA199000091GA1071+004809069GF107991071051004501999999KA1120N+02011REMSYN082AAXX  19064 60060 32458 73606 10208 20192 40143 5//// 875// 333 20201 87616 95300;EQDQ01  00002PRCP99
0174600600999992000091909004+29360-010170FM-12+0066GMMF V0200201N004110048019N0100001N1+02111+01921101471ADDAA199000091GA1071+004809069GF107991071051004501999999MD1310041+9999REMSYN076AAXX  19094 60060 32460 70208 10211 20192 40147 53004 875// 333 87616 95300;EQDQ01  00002PRCP99
0174600600999992000091912004+29360-010170FM-12+0066GMMF V0200201N005112200019N0100001N1+02301+01831101461ADDAA199000091GA1041+004809069GF104991041051004501001001MD1010001+9999REMSYN076AAXX  19124 60060 32460 40210 10230 20183 40146 50000 84500 333 84616 95300;EQDQ01  00002PRCP99
0174600600999992000091915004+29360-010170FM-12+0066GMMF V0203601N002110048019N0080001N1+02221+01881101351ADDAA199000091GA1061+004809069GF106991061051004501001001MD1710111+9999REMSYN076AAXX  19154 60060 32458 63604 10222 20188 40135 57011 86500 333 86616 95300;EQDQ01  00002PRCP99
0193600600999992000091918004+29360-010170FM-12+0066GMMF V0203601N004610048019N0060001N1+02251+01831101341ADDAA199000091GA1061+004809069GF106991061051004501001001KA1120M+02341MD1710011+9999REMSYN082AAXX  19184 60060 32456 63609 10225 20183 40134 57001 86500 333 10234 86616 95300;EQDQ01  00002PRCP99
0174600600999992000091921004+29360-010170FM-12+0066GMMF V0203601N004610048019N0060001N1+02151+01881101361ADDAA199000091GA1051+004809069GF105991051051004501001001MD1310021+9999REMSYN076AAXX  19214 60060 32456 53609 10215 20188 40136 53002 85500 333 85616 95300;EQDQ01  00002PRCP99
0179600600999992000092006004+29360-010170FM-12+0066GMMF V0203601N003610048019N0060001N1+02041+01831101261ADDAA199000091GA1061+004809069GF106991061051004501001001KA1120N+02001REMSYN082AAXX  20064 60060 32456 63607 10204 20183 40126 5//// 86500 333 20200 86616 95300;EQDQ01  00002PRCP99
0174600600999992000092009004+29360-010170FM-12+0066GMMF V0200201N004110048019N0100001N1+02051+01711101271ADDAA199000091GA1051+004809069GF105991051051004501001001MD1310011+9999REMSYN076AAXX  20094 60060 32460 50208 10205 20171 40127 53001 85500 333 85616 95300;EQDQ01  00002PRCP99
0193600600999992000092018004+29360-010170FM-12+0066GMMF V0203601N005112200019N0100001N1+02171+01741101241ADDAA199000091GA1021+004809069GF102991021051004501001001KA1120M+02261MD1610021+9999REMSYN082AAXX  20184 60060 32460 23610 10217 20174 40124 56002 82500 333 10226 82616 95300;EQDQ01  00002PRCP99
0174600600999992000092021004+29360-010170FM-12+0066GMMF V0200401N003112200019N0080001N1+02061+01631101411ADDAA199000091GA1021+004809069GF102991021051004501001001MD1310161+9999REMSYN076AAXX  20214 60060 32458 20406 10206 20163 40141 53016 82500 333 82616 95300;EQDQ01  00002PRCP99
0179600600999992000092106004+29360-010170FM-12+0066GMMF V0202001N005112200019N0080001N1+01891+01571101321ADDAA199000091GA1021+004809069GF102991021051004501001001KA1120N+01861REMSYN082AAXX  21064 60060 32458 22010 10189 20157 40132 5/002 82500 333 20186 82616 95300;EQDQ01  00002PRCP99
0174600600999992000092109004+29360-010170FM-12+0066GMMF V0202401N006210048019N0100001N1+02031+01701101431ADDAA199000091GA1051+004809069GF105991051051004501001001MD1310111+9999REMSYN076AAXX  21094 60060 32460 52412 10203 20170 40143 53011 85500 333 85616 95300;EQDQ01  00002PRCP99
0174600600999992000092112004+29360-010170FM-12+0066GMMF V0202801N004112200019N0100001N1+02141+01791101531ADDAA199000091GA1021+004809069GF102991021051004501001001MD1110101+9999REMSYN076AAXX  21124 60060 32460 22808 10214 20179 40153 51010 82500 333 82616 95300;EQDQ01  00002PRCP99
0168600600999992000092115004+29360-010170FM-12+0066GMMF V0203201N003612200019N0120001N1+02151+01681101481ADDAA199000091GA1021+004809059GF102991021051004501001001MD1810041+9999REMSYN070AAXX  21154 60060 32462 23207 10215 20168 40148 58004 82500 333 82616;EQDQ01  00002PRCP99
0193600600999992000092118004+29360-010170FM-12+0066GMMF V0203601N002612200019N0120001N1+02061+01581101571ADDAA199000091GA1011+004809069GF101991011051004501001001KA1120M+02191MD1310081+9999REMSYN082AAXX  21184 60060 32462 13605 10206 20158 40157 53008 81500 333 10219 81616 95300;EQDQ01  00002PRCP99
0152600600999992000092121004+29360-010170FM-12+0066GMMF V0200401N002612200019N0100001N1+02001+01581101601ADDAA199000091GA1001+999999999GF100991001001999999001001MD1310031+9999REMSYN054AAXX  21214 60060 32960 00405 10200 20158 40160 53003;EQDQ01  00002PRCP99
0179600600999992000092206004+29360-010170FM-12+0066GMMF V0202401N002610048019N0060001N1+01881+01631101681ADDAA199000091GA1071+004809069GF107991071051004501999999KA1120N+01841REMSYN082AAXX  22064 60060 32456 72405 10188 20163 40168 5//// 875// 333 20184 87616 95300;EQDQ01  00002PRCP99
0174600600999992000092209004+29360-010170FM-12+0066GMMF V0203601N001512200019N0080001N1+02101+01781101761ADDAA199000091GA1021+003909089GF104991041081004501001001MD1310081+9999REMSYN076AAXX  22094 60060 32458 43603 10210 20178 40176 53008 84800 333 82813 95300;EQDQ01  00002PRCP99
0174600600999992000092212004+29360-010170FM-12+0066GMMF V0203201N002612200019N0080001N1+02301+01641101781ADDAA199000091GA1021+003909089GF102991021021004501001001MD1010031+9999REMSYN076AAXX  22124 60060 32458 23205 10230 20164 40178 50003 82200 333 82813 95300;EQDQ01  00002PRCP99
0174600600999992000092215004+29360-010170FM-12+0066GMMF V0203001N003112200019N0100001N1+02281+01841101681ADDAA199000091GA1011+003909089GF101991011021004501001001MD1810101+9999REMSYN076AAXX  22154 60060 32460 13006 10228 20184 40168 58010 81200 333 81813 95300;EQDQ01  00002PRCP99
0193600600999992000092218004+29360-010170FM-12+0066GMMF V0203001N002112200019N0100001N1+02201+01891101701ADDAA199000091GA1021+003909089GF102991021021004501001001KA1120M+02351MD1210021+9999REMSYN082AAXX  22184 60060 32460 23004 10220 20189 40170 52002 82200 333 10235 82813 95300;EQDQ01  00002PRCP99
0174600600999992000092221004+29360-010170FM-12+0066GMMF V0203601N002112200019N0080001N1+02101+01801101771ADDAA199000091GA1011+003909089GF101991011021004501001001MD1310061+9999REMSYN076AAXX  22214 60060 32458 13604 10210 20180 40177 53006 81200 333 81813 95300;EQDQ01  00002PRCP99
0179600600999992000092306004+29360-010170FM-12+0066GMMF V0200801N001512200019N0080001N1+01981+01751101651ADDAA199000091GA1041+003909089GF104991041021004501001001KA1120N+01941REMSYN082AAXX  23064 60060 32458 40803 10198 20175 40165 5//// 84200 333 20194 84813 95300;EQDQ01  00002PRCP99
0196600600999992000092309004+29360-010170FM-12+0066GMMF V0203001N001510048019N0080001N1+02011+01791101711ADDAA199000091GA1031+003909089GA2061+004809069GF107991071081004501999999MD1210061+9999REMSYN082AAXX  23094 60060 32458 73003 10201 20179 40171 52006 878// 333 83813 86616 95300;EQDQ01  00002PRCP99
0174600600999992000092312004+29360-010170FM-12+0066GMMF V0203601N002612200019N0120001N1+02151+01751101741ADDAA199000091GA1031+003909089GF104991041081004501001001MD1010041+9999REMSYN076AAXX  23124 60060 32462 43605 10215 20175 40174 50004 84800 333 83813 95300;EQDQ01  00002PRCP99
0174600600999992000092315004+29360-010170FM-12+0066GMMF V0203601N005112200019N0150001N1+02191+01811101561ADDAA199000091GA1021+003909089GF104991041081004501001001MD1710181+9999REMSYN076AAXX  23154 60060 32465 43610 10219 20181 40156 57018 84800 333 82813 95300;EQDQ01  00002PRCP99
0174600600999992000092321004+29360-010170FM-12+0066GMMF V0200601N003612200019N0080001N1+02021+01741101591ADDAA199000091GA1011+003909089GF103991031081004501001001MD1310041+9999REMSYN076AAXX  23214 60060 32458 30607 10202 20174 40159 53004 83800 333 81813 95300;EQDQ01  00002PRCP99
0179600600999992000092406004+29360-010170FM-12+0066GMMF V0200801N001512200019N0080001N1+01971+01691101571ADDAA199000091GA1031+004809069GF103991031051004501001001KA1120N+01941REMSYN082AAXX  24064 60060 32458 30803 10197 20169 40157 5/002 83500 333 20194 83616 95300;EQDQ01  00002PRCP99
0174600600999992000092412004+29360-010170FM-12+0066GMMF V0202301N003612200019N0120001N1+02221+01811101661ADDAA199000091GA1031+004809069GF103991031051004501001001MD1110061+9999REMSYN076AAXX  24124 60060 32462 32307 10222 20181 40166 51006 83500 333 83616 95300;EQDQ01  00002PRCP99
0174600600999992000092415004+29360-010170FM-12+0066GMMF V0203001N003612200019N0100001N1+02161+01831101581ADDAA199000091GA1031+004809069GF103991031051004501001001MD1810081+9999REMSYN076AAXX  24154 60060 32460 33007 10216 20183 40158 58008 83500 333 83616 95300;EQDQ01  00002PRCP99
0193600600999992000092418004+29360-010170FM-12+0066GMMF V0200201N004110048019N0100001N1+02101+01811101601ADDAA199000091GA1071+004809069GF107991071051004501999999KA1120M+02271MD1310011+9999REMSYN082AAXX  24184 60060 32460 70208 10210 20181 40160 53001 875// 333 10227 87616 95300;EQDQ01  00002PRCP99
0179600600999992000092506004+29360-010170FM-12+0066GMMF V0202001N002112200019N0080001N1+01911+01651101651ADDAA199000091GA1011+004809069GF103991011051004501001021KA1120N+01841REMSYN082AAXX  25064 60060 32458 32004 10191 20165 40165 5//// 81502 333 20184 81616 95300;EQDQ01  00002PRCP99
0174600600999992000092509004+29360-010170FM-12+0066GMMF V0202601N002610048019N0080001N1+02101+01781101671ADDAA199000091GA1081+004809069GF108991081051004501999999MD1210021+9999REMSYN076AAXX  25094 60060 32458 82605 10210 20178 40167 52002 885// 333 88616 95300;EQDQ01  00002PRCP99
0174600600999992000092512004+29360-010170FM-12+0066GMMF V0203001N003112200019N0080001N1+02261+01771101761ADDAA199000091GA1021+004809069GF102991021051004501001001MD1110101+9999REMSYN076AAXX  25124 60060 32458 23006 10226 20177 40176 51010 82500 333 82616 95300;EQDQ01  00002PRCP99
0196600600999992000092515004+29360-010170FM-12+0066GMMF V0203401N002610600019N0080001N1+02161+01861101741ADDAA199000091GA1021+004809069GA2031+060009009GF105991021051004501001021MD1610021+9999REMSYN082AAXX  25154 60060 32458 53405 10216 20186 40174 56002 82502 333 82616 83070 95300;EQDQ01  00002PRCP99
0215600600999992000092518004+29360-010170FM-12+0066GMMF V0203601N005712200019N0080001N1+02121+01781101761ADDAA199000091GA1021+004809069GA2031+060009009GF104991021051004501001021KA1120M+02301MD1310011+9999REMSYN088AAXX  25184 60060 32458 43611 10212 20178 40176 53001 82502 333 10230 82616 83070 95300;EQDQ01  00002PRCP99
0174600600999992000092521004+29360-010170FM-12+0066GMMF V0203601N005712200019N0080001N1+02071+01721101921ADDAA199000091GA1021+060009009GF102991001001999999001021MD1310161+9999REMSYN076AAXX  25214 60060 32958 23611 10207 20172 40192 53016 80002 333 82070 95300;EQDQ01  00002PRCP99
0179600600999992000092606004+29360-010170FM-12+0066GMMF V0209999C000012200019N0080001N1+02051+01751999999ADDAA199000091GA1011+004809069GF103991011051004501001021KA1120N+01961REMSYN082AAXX  26064 60060 32458 30000 10205 20175 40/95 5//// 81502 333 20196 81616 95300;EQDQ01  00002PRCP99
0216600600999992000092609004+29360-010170FM-12+0066GMMF V0200601N001510048019N0045001N1+02061+01831102091ADDAA199000091AY121031GA1041+003009079GA2071+004809069GF108991081051004501999999MD1310141+9999MW1101REMSYN088AAXX  26094 60060 31445 80603 10206 20183 40209 53014 7102/ 885// 333 84710 87616 95310;EQDQ01  00002PRCP99
0174600600999992000092612004+29360-010170FM-12+0066GMMF V0202601N003112200019N0070001N1+02301+01761102081ADDAA199000091GA1021+004809069GF102991021051004501001001MD1810021+9999REMSYN076AAXX  26124 60060 32457 22606 10230 20176 40208 58002 82500 333 82616 95300;EQDQ01  00002PRCP99
0174600600999992000092615004+29360-010170FM-12+0066GMMF V0203401N004112200019N0080001N1+02221+01911101901ADDAA199000091GA1031+004809069GF103991031051004501001001MD1610161+9999REMSYN076AAXX  26154 60060 32458 33408 10222 20191 40190 56016 83500 333 83616 95300;EQDQ01  00002PRCP99
0193600600999992000092618004+29360-010170FM-12+0066GMMF V0200401N005710048019N0060001N1+02101+01831101911ADDAA199000091GA1081+004809069GF108991081051004501999999KA1120M+02341MD1410001+9999REMSYN082AAXX  26184 60060 32456 80411 10210 20183 40191 54000 885// 333 10234 88616 95300;EQDQ01  00002PRCP99
0174600600999992000092621004+29360-010170FM-12+0066GMMF V02099999999990048019N0060001N1+02071+01801101971ADDAA199000091GA1061+004809069GF106991061051004501001001MD1310061+9999REMSYN076AAXX  26214 60060 32456 69410 10207 20180 40197 53006 86500 333 86616 95300;EQDQ01  00002PRCP99
0179600600999992000092706004+29360-010170FM-12+0066GMMF V0202401N002110048019N0060001N1+01981+01751101841ADDAA199000091GA1071+004809069GF107991071051004501999999KA1120N+01931REMSYN082AAXX  27064 60060 32456 72404 10198 20175 40184 5/006 875// 333 20193 87616 95300;EQDQ01  00002PRCP99
0174600600999992000092709004+29360-010170FM-12+0066GMMF V0202801N003110048019N0070001N1+02021+01891101881ADDAA199000091GA1061+004809069GF106991061051004501001001MD1310041+9999REMSYN076AAXX  27094 60060 32457 62806 10202 20189 40188 53004 86500 333 86616 95300;EQDQ01  00002PRCP99
0174600600999992000092712004+29360-010170FM-12+0066GMMF V0202601N003112200019N0080001N1+02201+01861101901ADDAA199000091GA1031+004809069GF103991031051004501001001MD1110031+9999REMSYN076AAXX  27124 60060 32458 32606 10220 20186 40190 51003 83500 333 83616 95300;EQDQ01  00002PRCP99
0174600600999992000092715004+29360-010170FM-12+0066GMMF V0203001N003612200019N0080001N1+02221+01811101761ADDAA199000091GA1031+004809069GF103991031051004501001001MD1810141+9999REMSYN076AAXX  27154 60060 32458 33007 10222 20181 40176 58014 83500 333 83616 95300;EQDQ01  00002PRCP99
0193600600999992000092718004+29360-010170FM-12+0066GMMF V0203601N003112200019N0060001N1+02101+01801101751ADDAA199000091GA1011+004809069GF101991011051004501001001KA1120M+02261MD1510011+9999REMSYN082AAXX  27184 60060 32456 13606 10210 20180 40175 55001 81500 333 10226 81616 95300;EQDQ01  00002PRCP99
0174600600999992000092721004+29360-010170FM-12+0066GMMF V0200801N003612200019N0060001N1+02071+01781101911ADDAA199000091GA1031+004809069GF103991031051004501001001MD1310151+9999REMSYN076AAXX  27214 60060 32456 30807 10207 20178 40191 53015 83500 333 83616 95300;EQDQ01  00002PRCP99
0179600600999992000092806004+29360-010170FM-12+0066GMMF V0202601N002110048019N0060001N1+01961+01791101651ADDAA199000091GA1061+004809069GF106991061051004501001001KA1120N+01911REMSYN082AAXX  28064 60060 32456 62604 10196 20179 40165 5//// 86500 333 20191 86616 95300;EQDQ01  00002PRCP99
0196600600999992000092809004+29360-010170FM-12+0066GMMF V0203201N002610048019N0060001N1+01991+01791101811ADDAA199000091GA1021+003009079GA2081+004809069GF108991081051004501999999MD1310161+9999REMSYN082AAXX  28094 60060 32456 83205 10199 20179 40181 53016 885// 333 82710 88616 95300;EQDQ01  00002PRCP99
0174600600999992000092812004+29360-010170FM-12+0066GMMF V0203601N003110048019N0060001N1+02091+01721101831ADDAA199000091GA1071+004809069GF107991071051004501999999MD1010021+9999REMSYN076AAXX  28124 60060 32456 73606 10209 20172 40183 50002 875// 333 87616 95300;EQDQ01  00002PRCP99
0174600600999992000092815004+29360-010170FM-12+0066GMMF V0203201N001510048019N0060001N1+02111+01741101711ADDAA199000091GA1071+004809069GF107991071051004501999999MD1710121+9999REMSYN076AAXX  28154 60060 32456 73203 10211 20174 40171 57012 875// 333 87616 95300;EQDQ01  00002PRCP99
0193600600999992000092818004+29360-010170FM-12+0066GMMF V0203601N003110048019N0060001N1+02001+01711101671ADDAA199000091GA1061+004809069GF106991061051004501001001KA1120M+02191MD1610041+9999REMSYN082AAXX  28184 60060 32456 63606 10200 20171 40167 56004 86500 333 10219 86616 95300;EQDQ01  00002PRCP99
0168600600999992000092821004+29360-010170FM-12+0066GMMF V0200201N003112200019N0060001N1+01971+99999999999ADDAA199000091GA1021+004809069GF102991021051004501001001MD1210061+9999REMSYN070AAXX  28214 60060 32456 20206 10197 200// 52006 82500 333 82616 95300;EQDQ01  00002PRCP99
0179600600999992000092906004+29360-010170FM-12+0066GMMF V0203601N004112200019N0060001N1+01901+01741101481ADDAA199000091GA1021+004809069GF102991021051004501001001KA1120N+01871REMSYN082AAXX  29064 60060 32456 23608 10190 20174 40148 5//// 82500 333 20187 82616 95300;EQDQ01  00002PRCP99
0196600600999992000092909004+29360-010170FM-12+0066GMMF V0200201N003110048019N0080001N1+01991+01701101521ADDAA199000091GA1031+003909089GA2041+004809069GF106991061081004501001001MD1310041+9999REMSYN082AAXX  29094 60060 32458 60206 10199 20170 40152 53004 86800 333 83813 84616 95300;EQDQ01  00002PRCP99
0196600600999992000092912004+29360-010170FM-12+0066GMMF V0200401N002610048019N0080001N1+02141+01771101521ADDAA199000091GA1031+003909089GA2031+004809069GF106991061081004501001001MD1010001+9999REMSYN082AAXX  29124 60060 32458 60405 10214 20177 40152 50000 86800 333 83813 83616 95300;EQDQ01  00002PRCP99
0196600600999992000092915004+29360-010170FM-12+0066GMMF V0203601N003110048019N0080001N1+02101+01781101401ADDAA199000091GA1031+003909089GA2061+004809069GF108991081081004501999999MD1710121+9999REMSYN082AAXX  29154 60060 32458 83606 10210 20178 40140 57012 888// 333 83813 86616 95300;EQDQ01  00002PRCP99
0193600600999992000092918004+29360-010170FM-12+0066GMMF V0203201N003612200019N0080001N1+02041+01751101331ADDAA199000091GA1021+003909089GF103991031081004501001001KA1120M+02181MD1710071+9999REMSYN082AAXX  29184 60060 32458 33207 10204 20175 40133 57007 83800 333 10218 82813 95300;EQDQ01  00002PRCP99
0196600600999992000092921004+29360-010170FM-12+0066GMMF V0200201N003110048019N0080001N1+01921+01601101361ADDAA199000091GA1021+003909089GA2031+004809069GF105991051081004501001001MD1210031+9999REMSYN082AAXX  29214 60060 32458 50206 10192 20160 40136 52003 85800 333 82813 83616 95300;EQDQ01  00002PRCP99
0179600600999992000093006004+29360-010170FM-12+0066GMMF V0203601N004112200019N0070001N1+01801+01491101351ADDAA199000091GA1021+004809069GF102991021051004501001001KA1120N+01751REMSYN082AAXX  30064 60060 32457 23608 10180 20149 40135 5/000 82500 333 20175 82616 95300;EQDQ01  00002PRCP99
0174600600999992000093009004+29360-010170FM-12+0066GMMF V0200601N004112200019N0100001N1+01881+01581101451ADDAA199000091GA1021+004809069GF102991021051004501001001MD1310121+9999REMSYN076AAXX  30094 60060 32460 20608 10188 20158 40145 53012 82500 333 82616 95300;EQDQ01  00002PRCP99
0174600600999992000093012004+29360-010170FM-12+0066GMMF V0200201N004112200019N0100001N1+02121+01691101591ADDAA199000091GA1011+004809069GF101991011051004501001001MD1110141+9999REMSYN076AAXX  30124 60060 32460 10208 10212 20169 40159 51014 81500 333 81616 95300;EQDQ01  00002PRCP99
0174600600999992000093015004+29360-010170FM-12+0066GMMF V0203601N003112200019N0100001N1+02191+01621101501ADDAA199000091GA1021+004809069GF102991021051004501001001MD1810081+9999REMSYN076AAXX  30154 60060 32460 23606 10219 20162 40150 58008 82500 333 82616 95300;EQDQ01  00002PRCP99
0193600600999992000093018004+29360-010170FM-12+0066GMMF V0203601N006212200019N0100001N1+02061+01551101451ADDAA199000091GA1021+004809069GF102991021051004501001001KA1120M+02231MD1710061+9999REMSYN082AAXX  30184 60060 32460 23612 10206 20155 40145 57006 82500 333 10223 82616 95300;EQDQ01  00002PRCP99
0174600600999992000093021004+29360-010170FM-12+0066GMMF V0203601N005112200019N0080001N1+01991+01581101501ADDAA199000091GA1021+004809069GF102991021051004501001001MD1310051+9999REMSYN076AAXX  30214 60060 32458 23610 10199 20158 40150 53005 82500 333 82616 95300;EQDQ01  00002PRCP99
0190600600999992000100109004+29360-010170FM-12+0066GMMF V0202601N002612200019N0050001N1+01841+01501101611ADDAA199000091GA1031+060009009GF103991001001999999001021MD1210131+9999REMSYN076AAXX  01094 60060 32450 32605 10184 20150 40161 52013 80002 333 83070 95300;EQDQ01+004502SCOLCBQ02  00002PRCP99
0174600600999992000100112004+29360-010170FM-12+0066GMMF V0202601N004112200019N0060001N1+02001+01501101691ADDAA199000091GA1021+060009009GF103991001001999999001021MD1010081+9999REMSYN076AAXX  01124 60060 32956 32608 10200 20150 40169 50008 80002 333 82070 95300;EQDQ01  00002PRCP99
0174600600999992000100115004+29360-010170FM-12+0066GMMF V0203601N002112200019N0060001N1+02101+01551101681ADDAA199000091GA1041+060009009GF104991001001999999001021MD1610011+9999REMSYN076AAXX  01154 60060 32956 43604 10210 20155 40168 56001 80002 333 84070 95300;EQDQ01  00002PRCP99
0193600600999992000100118004+29360-010170FM-12+0066GMMF V0200201N006212200019N0060001N1+02061+01451101691ADDAA199000091GA1041+060009009GF104991001001999999001021KA1120M+02161MD1210011+9999REMSYN082AAXX  01184 60060 32956 40212 10206 20145 40169 52001 80002 333 10216 84070 95300;EQDQ01  00002PRCP99
0174600600999992000100121004+29360-010170FM-12+0066GMMF V0200401N001512200019N0060001N1+01901+01481101811ADDAA199000091GA1021+060009009GF102991001001999999001021MD1310121+9999REMSYN076AAXX  01214 60060 32956 20403 10190 20148 40181 53012 80002 333 82070 95300;EQDQ01  00002PRCP99
0179600600999992000100206004+29360-010170FM-12+0066GMMF V0200201N002112200019N0060001N1+01641+01401101701ADDAA199000091GA1021+060009009GF102991001001999999001021KA1120N+01601REMSYN082AAXX  02064 60060 32956 20204 10164 20140 40170 5//// 80002 333 20160 82070 95300;EQDQ01  00002PRCP99
0196600600999992000100209004+29360-010170FM-12+0066GMMF V0202201N001010600019N0050001N1+01831+01631101831ADDAA199000091GA1031+004809069GA2031+060009009GF106991031051004501001021MD1110141+9999REMSYN082AAXX  02094 60060 32450 62202 10183 20163 40183 51014 83502 333 83616 83070 95300;EQDQ01  00002PRCP99
0152600600999992000100212004+29360-010170FM-12+0066GMMF V0203601N002112200019N0050001N1+02161+01631101821ADDAA199000091GA1001+999999999GF100991001001999999001001MD1010001+9999REMSYN054AAXX  02124 60060 32950 03604 10216 20163 40182 50000;EQDQ01  00002PRCP99
0162600600999992000100215004+29360-010170FM-12+0066GMMF V0203601N003112200019N0060001N1+02171+01611101711ADDAA199000091GA1001+999999999GF100991001001999999001001MD1610111+9999REMSYN064AAXX  02154 60060 32956 03606 10217 20161 40171 56011 333 95300;EQDQ01  00002PRCP99
0152600600999992000100221004+29360-010170FM-12+0066GMMF V0200401N002612200019N0060001N1+01961+01561101751ADDAA199000091GA1001+999999999GF100991001001999999001001MD1310061+9999REMSYN054AAXX  02214 60060 32956 00405 10196 20156 40175 53006;EQDQ01  00002PRCP99
0152600600999992000100312004+29360-010170FM-12+0066GMMF V0202401N001012200019N0060001N1+02281+01841101711ADDAA199000091GA1001+999999999GF100991001001999999001001MD1110031+9999REMSYN054AAXX  03124 60060 32956 02402 10228 20184 40171 51003;EQDQ01  00002PRCP99
0152600600999992000100315004+29360-010170FM-12+0066GMMF V0202601N002612200019N0060001N1+02491+01601101551ADDAA199000091GA1001+999999999GF100991001001999999001001MD1810161+9999REMSYN054AAXX  03154 60060 32956 02605 10249 20160 40155 58016;EQDQ01  00002PRCP99
0175600600999992000100318004+29360-010170FM-12+0066GMMF V0203601N003612200019N0060001N1+02311+01571101521ADDAA199000091GA1001+999999999GF100991001001999999001001KA1999M+02561MD1810031+9999REMSYN064AAXX  03184 60060 32956 03607 10231 20157 40152 58003 333 10256;EQDQ01  00002PRCP99
0152600600999992000100321004+29360-010170FM-12+0066GMMF V0200201N003612200019N0060001N1+02181+01521101561ADDAA199000091GA1001+999999999GF100991001001999999001001MD1310041+9999REMSYN054AAXX  03214 60060 32956 00207 10218 20152 40156 53004;EQDQ01  00002PRCP99
0197600600999992000100406004+29360-010170FM-12+0066GMMF V0202001N001510024019N0015001N1+01741+01711101441ADDAA199000091GA1081+002409079GF108991081061002501999999KA1120N+01711MW1101REMSYN094AAXX  04064 60060 31315 82003 10174 20171 40144 5//// 710// 886// 333 20171 30103 88708 95300;EQDQ01  00002PRCP99
0194600600999992000100409004+29360-010170FM-12+0066GMMF V0202401N002110024019N0015001N1+01741+01691101561ADDAA199000091AY121031GA1081+002409079GF108991081061002501999999MD1310121+9999MW1101REMSYN082AAXX  04094 60060 31315 82404 10174 20169 40156 53012 7102/ 886// 333 88708 95360;EQDQ01  00002PRCP99
0202600600999992000100412004+29360-010170FM-12+0066GMMF V0202601N003610030019N0030001N1+01911+01751101591ADDAA199000091AY121061AY221061GA1051+003009079GF105991051061004501001001MD1010041+9999MW1101REMSYN082AAXX  04124 60060 31430 52607 10191 20175 40159 50004 71022 85600 333 85710 95300;EQDQ01  00002PRCP99
0202600600999992000100415004+29360-010170FM-12+0066GMMF V0203201N002610030019N0035001N1+02101+01911101471ADDAA199000091AY121031AY221031GA1051+003009079GF105991051061004501001001MD1710121+9999MW1101REMSYN082AAXX  04154 60060 31435 53205 10210 20191 40147 57012 71022 85600 333 85710 95300;EQDQ01  00002PRCP99
0221600600999992000100418004+29360-010170FM-12+0066GMMF V0200201N002112200019N0035001N1+02001+01811101411ADDAA199000091AY111061AY211061GA1031+003009079GF103991031061004501001001KA1120M+02201MD1710061+9999MW1101REMSYN088AAXX  04184 60060 31435 30204 10200 20181 40141 57006 71011 83600 333 10220 83710 95300;EQDQ01  00002PRCP99
0202600600999992000100421004+29360-010170FM-12+0066GMMF V0200201N002612200019N0035001N1+01901+01691101441ADDAA199000091AY101031AY201031GA1041+003009079GF104991041061004501001001MD1210031+9999MW1101REMSYN082AAXX  04214 60060 31435 40205 10190 20169 40144 52003 71000 84600 333 84710 95300;EQDQ01  00002PRCP99
0197600600999992000100506004+29360-010170FM-12+0066GMMF V0209999C000010024019N0008001N1+01551+01551101361ADDAA199000091GA1081+002409079GF108991081061004501999999KA1120N+01481MW1461REMSYN094AAXX  05064 60060 31408 80000 10155 20155 40136 5/006 746// 886// 333 20148 30083 88708 95360;EQDQ01  00002PRCP99
0202600600999992000100509004+29360-010170FM-12+0066GMMF V0201801N001012200019N0040001N1+01721+01581101421ADDAA199000091AY111031AY211031GA1041+003009079GF104991041061004501001001MD1310061+9999MW1101REMSYN082AAXX  05094 60060 31440 41802 10172 20158 40142 53006 71011 84600 333 84710 95300;EQDQ01  00002PRCP99
0202600600999992000100512004+29360-010170FM-12+0066GMMF V0202801N002112200019N0040001N1+01971+01641101561ADDAA199000091AY101061AY201061GA1031+003009079GF103991031061004501001001MD1110161+9999MW1101REMSYN082AAXX  05124 60060 31440 32804 10197 20164 40156 51016 71000 83600 333 83710 95300;EQDQ01  00002PRCP99
0152600600999992000100515004+29360-010170FM-12+0066GMMF V0203601N003112200019N0060001N1+02211+01551101481ADDAA199000091GA1001+999999999GF100991001001999999001001MD1810081+9999REMSYN054AAXX  05154 60060 32956 03606 10221 20155 40148 58008;EQDQ01  00002PRCP99
0175600600999992000100518004+29360-010170FM-12+0066GMMF V0200201N003612200019N0060001N1+02281+01481101481ADDAA199000091GA1001+999999999GF100991001001999999001001KA1999M+02401MD1410001+9999REMSYN064AAXX  05184 60060 32956 00207 10228 20148 40148 54000 333 10240;EQDQ01  00002PRCP99
0152600600999992000100521004+29360-010170FM-12+0066GMMF V0203601N001012200019N0060001N1+02181+01321101511ADDAA199000091GA1001+999999999GF100991001001999999001001MD1310031+9999REMSYN054AAXX  05214 60060 32956 03602 10218 20132 40151 53003;EQDQ01  00002PRCP99
0167600600999992000100606004+29360-010170FM-12+0066GMMF V0202001N002112200019N0060001N1+01821+01591101431ADDAA199000091GA1001+999999999GF100991001001999999001001KA1120N+01781REMSYN070AAXX  06064 60060 32956 02004 10182 20159 40143 5//// 333 20178 30007;EQDQ01  00002PRCP99
0152600600999992000100609004+29360-010170FM-12+0066GMMF V0202801N001512200019N0060001N1+02101+01701101501ADDAA199000091GA1001+999999999GF100991001001999999001001MD1310081+9999REMSYN054AAXX  06094 60060 32956 02803 10210 20170 40150 53008;EQDQ01  00002PRCP99
0152600600999992000100612004+29360-010170FM-12+0066GMMF V0202801N001512200019N0060001N1+02651+01291101571ADDAA199000091GA1001+999999999GF100991001001999999001001MD1110081+9999REMSYN054AAXX  06124 60060 32956 02803 10265 20129 40157 51008;EQDQ01  00002PRCP99
0152600600999992000100615004+29360-010170FM-12+0066GMMF V0203401N002612200019N0080001N1+02591+01721101451ADDAA199000091GA1001+999999999GF100991001001999999001001MD1710121+9999REMSYN054AAXX  06154 60060 32958 03405 10259 20172 40145 57012;EQDQ01  00002PRCP99
0193600600999992000100618004+29360-010170FM-12+0066GMMF V0200601N003112200019N0060001N1+02531+01281101441ADDAA199000091GA1011+060009009GF101991001001999999001011KA1120M+03081MD1610011+9999REMSYN082AAXX  06184 60060 32956 10606 10253 20128 40144 56001 80001 333 10308 81070 95300;EQDQ01  00002PRCP99
0167600600999992000100706004+29360-010170FM-12+0066GMMF V0201001N004112200019N0070001N1+02891+00411101461ADDAA199000091GA1001+999999999GF100991001001999999001001KA1120N+02391REMSYN070AAXX  07064 60060 32957 01008 10289 20041 40146 5//// 333 20239 30007;EQDQ01  00002PRCP99
0174600600999992000100709004+29360-010170FM-12+0066GMMF V0201001N005112200019N0080001N1+03141+00361101521ADDAA199000091GA1011+060009009GF101991001001999999001011MD1310071+9999REMSYN076AAXX  07094 60060 32958 11010 10314 20036 40152 53007 80001 333 81070 95300;EQDQ01  00002PRCP99
0168600600999992000100712004+29360-010170FM-12+0066GMMF V0203401N003112200019N0080001N1+02661+01601101601ADDAA199000091GA1031+060009019GF103991001001999999001021MD1310081+9999REMSYN070AAXX  07124 60060 32958 33406 10266 20160 40160 53008 80002 333 83070;EQDQ01  00002PRCP99
0174600600999992000100715004+29360-010170FM-12+0066GMMF V0203601N001512200019N0060001N1+02511+01611101541ADDAA199000091GA1041+060009009GF104991001001999999001021MD1810051+9999REMSYN076AAXX  07154 60060 32956 43603 10251 20161 40154 58005 80002 333 84070 95300;EQDQ01  00002PRCP99
0193600600999992000100718004+29360-010170FM-12+0066GMMF V0200401N006212200019N0080001N1+02331+01581101561ADDAA199000091GA1021+060009009GF102991001001999999001021KA1120M+03161MD1310021+9999REMSYN082AAXX  07184 60060 32958 20412 10233 20158 40156 53002 80002 333 10316 82070 95300;EQDQ01  00002PRCP99
0168600600999992000100721004+29360-010170FM-12+0066GMMF V0200401N003612200019N0080001N1+02261+01191101661ADDAA199000091GA1011+060009019GF101991001001999999001011MD1310101+9999REMSYN070AAXX  07214 60060 32958 10407 10226 20119 40166 53010 80001 333 81070;EQDQ01  00002PRCP99
0167600600999992000100806004+29360-010170FM-12+0066GMMF V0202201N001512200019N0060001N1+01671+01531101601ADDAA199000091GA1001+999999999GF100991001001999999001001KA1120N+01641REMSYN070AAXX  08064 60060 32956 02203 10167 20153 40160 5//// 333 20164 30009;EQDQ01  00002PRCP99
0194600600999992000100809004+29360-010170FM-12+0066GMMF V0202401N001512200019N0040001N1+01751+01671101731ADDAA199000091AY101031GA1021+060009009GF102991001001999999001021MD1310141+9999MW1101REMSYN082AAXX  08094 60060 32940 22403 10175 20167 40173 53014 7100/ 80002 333 82070 95300;EQDQ01  00002PRCP99
0194600600999992000100812004+29360-010170FM-12+0066GMMF V0200201N001512200019N0020001N1+01971+01641101751ADDAA199000091AY141061GA1021+060009009GF102991001001999999001021MD1010021+9999MW1101REMSYN082AAXX  08124 60060 32920 20203 10197 20164 40175 50002 7104/ 80002 333 82070 95300;EQDQ01  00002PRCP99
0194600600999992000100815004+29360-010170FM-12+0066GMMF V0200201N003112200019N0035001N1+02281+01791101561ADDAA199000091AY101031GA1021+060009009GF102991001001999999001021MD1810181+9999MW1101REMSYN082AAXX  08154 60060 31935 20206 10228 20179 40156 58018 7100/ 80002 333 82070 95300;EQDQ01  00002PRCP99
0221600600999992000100818004+29360-010170FM-12+0066GMMF V0203601N003112200019N0035001N1+02031+01811101591ADDAA199000091AY101061AY201061GA1011+060009009GF101991001001999999001011KA1120M+02321MD1310021+9999MW1101REMSYN088AAXX  08184 60060 31935 13606 10203 20181 40159 53002 71000 80001 333 10232 81070 95300;EQDQ01  00002PRCP99
0194600600999992000100821004+29360-010170FM-12+0066GMMF V0200201N003112200019N0035001N1+02011+01521101671ADDAA199000091AY101031GA1021+060009009GF102991001001999999001011MD1310081+9999MW1101REMSYN082AAXX  08214 60060 31935 20206 10201 20152 40167 53008 7100/ 80001 333 82070 95300;EQDQ01  00002PRCP99
0185600600999992000100906004+29360-010170FM-12+0066GMMF V0202001N003610600019N0050001N1+01801+01631101551ADDAA199000091GA1051+060009009GF105991001001999999001021KA1120N+01731REMSYN088AAXX  09064 60060 32950 52007 10180 20163 40155 5//// 80002 333 20173 30007 85070 95300;EQDQ01  00002PRCP99
0194600600999992000100909004+29360-010170FM-12+0066GMMF V0202601N003110600019N0035001N1+01871+01761101691ADDAA199000091AY121031GA1061+060009009GF106991001001999999001021MD1310141+9999MW1101REMSYN082AAXX  09094 60060 31935 62606 10187 20176 40169 53014 7102/ 80002 333 86070 95300;EQDQ01  00002PRCP99
0224600600999992000100912004+29360-010170FM-12+0066GMMF V0203001N002110600019N0020001N1+02001+01791101711ADDAA199000091AY121061AY221061GA1021+003009079GA2041+060009009GF106991021061002501001021MD1010021+9999MW1101REMSYN088AAXX  09124 60060 31320 63004 10200 20179 40171 50002 71022 82602 333 82710 84070 95300;EQDQ01  00002PRCP99
0174600600999992000100915004+29360-010170FM-12+0066GMMF V0200201N006212200019N0050001N1+02121+01821101611ADDAA199000091GA1041+060009009GF104991001001999999001021MD1710101+9999REMSYN076AAXX  09154 60060 32950 40212 10212 20182 40161 57010 80002 333 84070 95300;EQDQ01  00002PRCP99
0215600600999992000100918004+29360-010170FM-12+0066GMMF V0200201N006710600019N0050001N1+02061+01761101611ADDAA199000091GA1031+030009039GA2031+060009009GF106991031001999999031021KA1120M+02291MD1410001+9999REMSYN088AAXX  09184 60060 32950 60213 10206 20176 40161 54000 83032 333 10229 83360 83070 95300;EQDQ01  00002PRCP99
0174600600999992000100921004+29360-010170FM-12+0066GMMF V0200201N006212200019N0050001N1+01981+01701101671ADDAA199000091GA1011+030009039GF103991011001999999031021MD1310061+9999REMSYN076AAXX  09214 60060 32950 30212 10198 20170 40167 53006 81032 333 81360 95300;EQDQ01  00002PRCP99
0185600600999992000101006004+29360-010170FM-12+0066GMMF V0209999C000010048019N0060001N1+01911+01731101561ADDAA199000091GA1051+004809069GF105991051051004501001001KA1120N+01791REMSYN088AAXX  10064 60060 32456 50000 10191 20173 40156 5//// 85500 333 20179 30007 85616 95300;EQDQ01  00002PRCP99
0174600600999992000101009004+29360-010170FM-12+0066GMMF V0202401N002610048019N0070001N1+01951+01761101591ADDAA199000091GA1071+004809069GF107991071051004501999999MD1310031+9999REMSYN076AAXX  10094 60060 32457 72405 10195 20176 40159 53003 875// 333 87616 95300;EQDQ01  00002PRCP99
0174600600999992000101012004+29360-010170FM-12+0066GMMF V0202401N005112200019N0060001N1+02091+01681101571ADDAA199000091GA1031+004809069GF103991031051004501001001MD1810021+9999REMSYN076AAXX  10124 60060 32456 32410 10209 20168 40157 58002 83500 333 83616 95300;EQDQ01  00002PRCP99
0152600600999992000101015004+29360-010170FM-12+0066GMMF V0202801N004112200019N0060001N1+01951+01711101361ADDAA199000091GA1001+999999999GF100991001001999999001001MD1810211+9999REMSYN054AAXX  10154 60060 32956 02808 10195 20171 40136 58021;EQDQ01  00002PRCP99
0193600600999992000101018004+29360-010170FM-12+0066GMMF V0202801N001510048019N0050001N1+01991+01681101361ADDAA199000091GA1071+004809069GF107991071051004501999999KA1120M+02151MD1410001+9999REMSYN082AAXX  10184 60060 32450 72803 10199 20168 40136 54000 875// 333 10215 87616 95300;EQDQ01  00002PRCP99
0168600600999992000101021004+29360-010170FM-12+0066GMMF V0202201N003110048019N0050001N1+01981+01751101371ADDAA199000091GA1071+004809059GF107991071051004501999999MD1210011+9999REMSYN070AAXX  10214 60060 32450 72206 10198 20175 40137 52001 875// 333 87616;EQDQ01  00002PRCP99
0185600600999992000101106004+29360-010170FM-12+0066GMMF V0202201N001512200019N0050001N1+01751+01601101251ADDAA199000091GA1031+004809069GF103991031051004501001001KA1120N+01731REMSYN088AAXX  11064 60060 32450 32203 10175 20160 40125 5//// 83500 333 20173 30007 83616 95300;EQDQ01  00002PRCP99
0168600600999992000101109004+29360-010170FM-12+0066GMMF V0202401N003612200019N0050001N1+01811+01661101331ADDAA199000091GA1041+004809059GF104991041051004501001001MD1310081+9999REMSYN070AAXX  11094 60060 32450 42407 10181 20166 40133 53008 84500 333 84616;EQDQ01  00002PRCP99
0174600600999992000101112004+29360-010170FM-12+0066GMMF V0202201N002112200019N0050001N1+02051+01641101441ADDAA199000091GA1041+004809069GF104991041051004501001001MD1010071+9999REMSYN076AAXX  11124 60060 32450 42204 10205 20164 40144 50007 84500 333 84616 95300;EQDQ01  00002PRCP99
0174600600999992000101115004+29360-010170FM-12+0066GMMF V0203001N002112200019N0060001N1+02061+01681101371ADDAA199000091GA1011+004809069GF101991011051004501001001MD1810031+9999REMSYN076AAXX  11154 60060 32456 13004 10206 20168 40137 58003 81500 333 81616 95300;EQDQ01  00002PRCP99
0193600600999992000101118004+29360-010170FM-12+0066GMMF V0200201N002112200019N0080001N1+02051+01761101401ADDAA199000091GA1021+004809069GF102991021051004501001001KA1120M+02131MD1210031+9999REMSYN082AAXX  11184 60060 32458 20204 10205 20176 40140 52003 82500 333 10213 82616 95300;EQDQ01  00002PRCP99
0174600600999992000101121004+29360-010170FM-12+0066GMMF V0200201N002112200019N0060001N1+02001+01761101481ADDAA199000091GA1021+004809069GF102991021051004501001001MD1310081+9999REMSYN076AAXX  11214 60060 32456 20204 10200 20176 40148 53008 82500 333 82616 95300;EQDQ01  00002PRCP99
0185600600999992000101206004+29360-010170FM-12+0066GMMF V0200201N003110048019N0050001N1+01901+01821101391ADDAA199000091GA1081+004809069GF108991081051004501999999KA1120N+01851REMSYN088AAXX  12064 60060 32450 80206 10190 20182 40139 5//// 885// 333 20185 30010 88616 95300;EQDQ01  00002PRCP99
0174600600999992000101209004+29360-010170FM-12+0066GMMF V0203601N001510048019N0050001N1+01921+01681101491ADDAA199000091GA1061+004809069GF106991061051004501001001MD1310041+9999REMSYN076AAXX  12094 60060 32450 63603 10192 20168 40149 53004 86500 333 86616 95300;EQDQ01  00002PRCP99
0174600600999992000101212004+29360-010170FM-12+0066GMMF V0203201N002112200019N0060001N1+02101+01641101471ADDAA199000091GA1011+004809069GF103991011051004501001021MD1010021+9999REMSYN076AAXX  12124 60060 32456 33204 10210 20164 40147 50002 81502 333 81616 95300;EQDQ01  00002PRCP99
0196600600999992000101215004+29360-010170FM-12+0066GMMF V0202401N003610600019N0100001N1+02201+01671101341ADDAA199000091GA1021+003909089GA2041+060009009GF106991031081004501001021MD1810121+9999REMSYN082AAXX  12154 60060 32460 62407 10220 20167 40134 58012 83802 333 82813 84070 95300;EQDQ01  00002PRCP99
0202600600999992000101218004+29360-010170FM-12+0066GMMF V0200201N009310060019N0100001N1+01841+01641101331ADDAA112001091GA1021+003909089GA2071+006009069GF107991071081004501999999KA1120M+02261MD1810021+9999REMSYN094AAXX  12184 60060 11460 70218 10184 20164 40133 58002 60012 878// 333 10226 82813 87620 95300;
0196600600999992000101221004+29360-010170FM-12+0066GMMF V0200201N003610060019N0080001N1+01931+01671101371ADDAA199000091GA1021+003909089GA2061+006009069GF107991071081004501999999MD1310041+9999REMSYN082AAXX  12214 60060 32458 70207 10193 20167 40137 53004 878// 333 82813 86620 95300;EQDQ01  00002PRCP99
0172600600999992000101306004+29360-010170FM-12+0066GMMF V0203601N004612200019N0100001N1+01741+01391101531ADDAA124001091GA1011+003909089GF103991021081004501001021KA1120N+01701REMSYN094AAXX  13064 60060 12460 33609 10174 20139 40153 5//// 60014 82802 333 20170 30010 81813 95300;
0196600600999992000101309004+29360-010170FM-12+0066GMMF V0200201N00411006001CN0120001N1+01801+01481101681ADDAA199000091GA1021+003909089GA2031+006009069GF106991041081004501001021MD1310161+9999REMSYN082AAXX  13094 60060 32462 60208 10180 20148 40168 53016 84802 333 82813 83620 95300;EQDQ01  00002PRCP99
0196600600999992000101312004+29360-010170FM-12+0066GMMF V0203401N003610600019N0180001N1+01941+01271101761ADDAA199000091GA1021+003909089GA2031+060009009GF105991031081004501001021MD1010081+9999REMSYN082AAXX  13124 60060 32468 53407 10194 20127 40176 50008 83802 333 82813 83070 95300;EQDQ01  00002PRCP99
0174600600999992000101315004+29360-010170FM-12+0066GMMF V0203601N005112200019N0200001N1+02001+01381101681ADDAA199000091GA1011+003909089GF104991021081004501001021MD1810081+9999REMSYN076AAXX  13154 60060 32470 43610 10200 20138 40168 58008 82802 333 81813 95300;EQDQ01  00002PRCP99
0193600600999992000101318004+29360-010170FM-12+0066GMMF V0203601N005112200019N0200001N1+01921+01331101691ADDAA199000091GA1011+003909089GF102991021081004501001001KA1120M+02021MD1210011+9999REMSYN082AAXX  13184 60060 32470 23610 10192 20133 40169 52001 82800 333 10202 81813 95300;EQDQ01  00002PRCP99
0174600600999992000101321004+29360-010170FM-12+0066GMMF V0203601N005112200019N0100001N1+01801+01271101761ADDAA199000091GA1011+003909089GF102991021081004501001001MD1310071+9999REMSYN076AAXX  13214 60060 32460 23610 10180 20127 40176 53007 82800 333 81813 95300;EQDQ01  00002PRCP99
0167600600999992000101406004+29360-010170FM-12+0066GMMF V0200801N004112200019N0100001N1+01651+01201101571ADDAA199000091GA1001+999999999GF100991001001999999001001KA1120N+01581REMSYN070AAXX  14064 60060 32960 00808 10165 20120 40157 5//// 333 20158 30006;EQDQ01  00002PRCP99
0152600600999992000101409004+29360-010170FM-12+0066GMMF V0200601N003112200019N0100001N1+01801+01171101671ADDAA199000091GA1001+999999999GF100991001001999999001001MD1310111+9999REMSYN054AAXX  14094 60060 32960 00606 10180 20117 40167 53011;EQDQ01  00002PRCP99
0152600600999992000101412004+29360-010170FM-12+0066GMMF V0203001N003112200019N0120001N1+01801+01251101751ADDAA199000091GA1001+999999999GF100991001001999999001001MD1210081+9999REMSYN054AAXX  14124 60060 32962 03006 10180 20125 40175 52008;EQDQ01  00002PRCP99
0174600600999992000101415004+29360-010170FM-12+0066GMMF V0203401N002612200019N0150001N1+01921+01371101611ADDAA199000091GA1021+006009069GF102991021051008001001001MD1610141+9999REMSYN076AAXX  14154 60060 32565 23405 10192 20137 40161 56014 82500 333 82620 95300;EQDQ01  00002PRCP99
0193600600999992000101418004+29360-010170FM-12+0066GMMF V0203201N002612200019N0120001N1+01851+01421101561ADDAA199000091GA1011+006009069GF103991011051008001001021KA1120M+01971MD1610051+9999REMSYN082AAXX  14184 60060 32562 33205 10185 20142 40156 56005 81502 333 10197 81620 95300;EQDQ01  00002PRCP99
0174600600999992000101421004+29360-010170FM-12+0066GMMF V0201001N002112200019N0100001N1+01771+01391101601ADDAA199000091GA1011+006009069GF103991011051008001001021MD1310041+9999REMSYN076AAXX  14214 60060 32560 31004 10177 20139 40160 53004 81502 333 81620 95300;EQDQ01  00002PRCP99
0173600600999992000101506004+29360-010170FM-12+0066GMMF V0202001N003112200019N0100001N1+01621+01321101581ADDAA199000091GA1001+999999999GF100991001001999999001001KA1120N+01551REMSYN076AAXX  15064 60060 32960 02006 10162 20132 40158 5/001 333 20155 30039 95300;EQDQ01  00002PRCP99
0174600600999992000101509004+29360-010170FM-12+0066GMMF V0202801N001012200019N0100001N1+01751+01311101631ADDAA199000091GA1031+060009009GF103991001001999999001021MD1310061+9999REMSYN076AAXX  15094 60060 32960 32802 10175 20131 40163 53006 80002 333 83070 95300;EQDQ01  00002PRCP99
0174600600999992000101512004+29360-010170FM-12+0066GMMF V0202401N005112200019N0150001N1+01981+01621101671ADDAA199000091GA1041+060009009GF104991001001999999001021MD1010041+9999REMSYN076AAXX  15124 60060 32965 42410 10198 20162 40167 50004 80002 333 84070 95300;EQDQ01  00002PRCP99
0174600600999992000101515004+29360-010170FM-12+0066GMMF V0203201N003610900019N0070001N1+01921+01621101591ADDAA199000091GA1041+004809069GF105991041051004501001021MD1810081+9999REMSYN076AAXX  15154 60060 32457 53207 10192 20162 40159 58008 84502 333 84616 95300;EQDQ01  00002PRCP99
0193600600999992000101518004+29360-010170FM-12+0066GMMF V0200401N003612200019N0100001N1+01801+01411101601ADDAA199000091GA1031+060009009GF103991001001999999001021KA1120M+02031MD1310011+9999REMSYN082AAXX  15184 60060 32960 30407 10180 20141 40160 53001 80002 333 10203 83070 95300;EQDQ01  00002PRCP99
0174600600999992000101521004+29360-010170FM-12+0066GMMF V0200601N003112200019N0070001N1+01761+01421101671ADDAA199000091GA1021+060009009GF102991001001999999001021MD1310071+9999REMSYN076AAXX  15214 60060 32957 20606 10176 20142 40167 53007 80002 333 82070 95300;EQDQ01  00002PRCP99
0193600600999992000101600004+29360-010170FM-12+0066GMMF V0200401N003612200019N0100001N1+01801+01411101601ADDAA199000091GA1031+060009009GF103991001001999999001021KA1120M+02031MD1310011+9999REMSYN082AAXX  16004 60060 32960 30407 10180 20141 40160 53001 80002 333 10203 83070 95300;EQDQ01  00002PRCP99
0179600600999992000101606004+29360-010170FM-12+0066GMMF V0201001N002112200019N0100001N1+01701+01421101651ADDAA199000091GA1021+060009019GF102991001001999999001021KA1120N+01661REMSYN082AAXX  16064 60060 32960 21004 10170 20142 40165 5//// 80002 333 20166 30006 82070;EQDQ01  00002PRCP99
0174600600999992000101609004+29360-010170FM-12+0066GMMF V0202801N002612200019N0100001N1+01841+01481101771ADDAA199000091GA1021+004809069GF104991021051004501001021MD1310131+9999REMSYN076AAXX  16094 60060 32460 42805 10184 20148 40177 53013 82502 333 82616 95300;EQDQ01  00002PRCP99
0196600600999992000101612004+29360-010170FM-12+0066GMMF V0202401N003612200019N0100001N1+01951+01621101841ADDAA199000091GA1011+004809069GA2031+060009009GF104991011051004501001021MD1110071+9999REMSYN082AAXX  16124 60060 32460 42407 10195 20162 40184 51007 81502 333 81616 83070 95300;EQDQ01  00002PRCP99
0174600600999992000101615004+29360-010170FM-12+0066GMMF V0203601N002112200019N0100001N1+02051+01481101791ADDAA199000091GA1021+060009009GF102991001001999999001021MD1710051+9999REMSYN076AAXX  16154 60060 32960 23604 10205 20148 40179 57005 80002 333 82070 95300;EQDQ01  00002PRCP99
0193600600999992000101618004+29360-010170FM-12+0066GMMF V0200201N003612200019N0100001N1+02011+01491101811ADDAA199000091GA1021+060009009GF102991001001999999001021KA1120M+02141MD1310021+9999REMSYN082AAXX  16184 60060 32960 20207 10201 20149 40181 53002 80002 333 10214 82070 95300;EQDQ01  00002PRCP99
0174600600999992000101621004+29360-010170FM-12+0066GMMF V0200201N003112200019N0080001N1+01971+01611101991ADDAA199000091GA1041+006009069GF104991041051004501001001MD1310181+9999REMSYN076AAXX  16214 60060 32458 40206 10197 20161 40199 53018 84500 333 84620 95300;EQDQ01  00002PRCP99
0185600600999992000101706004+29360-010170FM-12+0066GMMF V0202001N001012200019N0060001N1+01701+01531101961ADDAA199000091GA1021+060009009GF102991001001999999001021KA1120N+01671REMSYN088AAXX  17064 60060 32956 22002 10170 20153 40196 5//// 80002 333 20167 30004 82070 95300;EQDQ01  00002PRCP99
0174600600999992000101709004+29360-010170FM-12+0066GMMF V0203601N001510060019N0080001N1+01851+01531102081ADDAA199000091GA1071+006009069GF107991071051004501999999MD1310131+9999REMSYN076AAXX  17094 60060 32458 73603 10185 20153 40208 53013 875// 333 87620 95300;EQDQ01  00002PRCP99
0174600600999992000101712004+29360-010170FM-12+0066GMMF V0203201N002612200019N0100001N1+01901+01521102131ADDAA199000091GA1041+006009069GF104991041051004501001001MD1110051+9999REMSYN076AAXX  17124 60060 32460 43205 10190 20152 40213 51005 84500 333 84620 95300;EQDQ01  00002PRCP99
0168600600999992000101715004+29360-010170FM-12+0066GMMF V0203401N002612200019N0150001N1+02101+01701102031ADDAA199000091GA1011+006009059GF101991011051004501001001MD1710101+9999REMSYN070AAXX  17154 60060 32465 13405 10210 20170 40203 57010 81500 333 81620;EQDQ01  00002PRCP99
0193600600999992000101718004+29360-010170FM-12+0066GMMF V0200201N003112200019N0150001N1+01981+01691102031ADDAA199000091GA1011+006009069GF102991011051004501001001KA1120M+02151MD1410001+9999REMSYN082AAXX  17184 60060 32465 20206 10198 20169 40203 54000 81500 333 10215 81620 95300;EQDQ01  00002PRCP99
0174600600999992000101721004+29360-010170FM-12+0066GMMF V0201001N002112200019N0100001N1+01951+01621102031ADDAA199000091GA1021+006009069GF102991021051004501001001MD1410001+9999REMSYN076AAXX  17214 60060 32460 21004 10195 20162 40203 54000 82500 333 82620 95300;EQDQ01  00002PRCP99
0229600600999992000101806004+29360-010170FM-12+0066GMMF V0201201N001510030019N0008001N1+01741+01741102041ADDAA199000091AY141061AY241061GA1061+003009079GF106991999061004501001001KA1120N+01631MW1461REMSYN094AAXX  18064 60060 31408 61203 10174 20174 40204 5/001 74644 89600 333 20163 30021 86710 95360;EQDQ01+000092SCOTLCQ02  00002PRCP99
0202600600999992000101809004+29360-010170FM-12+0066GMMF V0209999C000010030019N0008001N1+01571+01571102141ADDAA199000091AY141031AY241031GA1071+003009079GF107991071061004501999999MD1310091+9999MW1421REMSYN082AAXX  18094 60060 31408 70000 10157 20157 40214 53009 74244 876// 333 87710 95360;EQDQ01  00002PRCP99
0174600600999992000101812004+29360-010170FM-12+0066GMMF V0203401N001012200019N0050001N1+01831+01661102201ADDAA199000091GA1031+003009079GF103991031061004501001001MD1110071+9999REMSYN076AAXX  18124 60060 32450 33402 10183 20166 40220 51007 83600 333 83710 95300;EQDQ01  00002PRCP99
0194600600999992000101815004+29360-010170FM-12+0066GMMF V0203401N002612200019N0030001N1+01751+01491102121ADDAA199000091AY111031GA1041+003009079GF104991041061004501001001MD1810081+9999MW1101REMSYN082AAXX  18154 60060 31430 43405 10175 20149 40212 58008 7101/ 84600 333 84710 95300;EQDQ01  00002PRCP99
0221600600999992000101818004+29360-010170FM-12+0066GMMF V0203601N003612200019N0030001N1+01671+01481102081ADDAA199000091AY101061AY201061GA1041+003009079GF104991041061004501001001KA1120M+01881MD1710041+9999MW1101REMSYN088AAXX  18184 60060 31430 43607 10167 20148 40208 57004 71000 84600 333 10188 84710 95300;EQDQ01  00002PRCP99
0165600600999992000101821004+29360-010170FM-12+0066GMMF V0200201N004112200019N0030001N1+01621+01431102111ADDAA199000091GA1021+003009079GF102991999999004501999999REMSYN081AAXX  18214 60060 31430 20208 10162 20143 40211 5304 7100/ 82600 333 82710 95300;EQDQ01  00002PRCP99
0197600600999992000101906004+29360-010170FM-12+0066GMMF V0209999C000012200019N0030001N1+01461+01071101971ADDAA199000091GA1021+003009079GF102991021061004501001001KA1120N+01361MW1101REMSYN094AAXX  19064 60060 31430 20000 10146 20107 40197 5//// 710// 82600 333 20136 30004 82710 95300;EQDQ01  00002PRCP99
0202600600999992000101909004+29360-010170FM-12+0066GMMF V0202601N002610030019N0015001N1+01601+01481999999ADDAA199000091GA1051+003009079GF105991051061004501001001MD1310131+9999MW1101REMSYN082AAXX  19094 60060 31415 52605 10160 20148 40110 53013 710// 85600 333 85710 95300;EQDQ01+101103APOSLPQ02  00002PRCP99
0194600600999992000101912004+29360-010170FM-12+0066GMMF V0202601N002610030019N0015001N1+01761+01431102111ADDAA199000091AY111061GA1051+003009079GF105991051061004501001001MD1010021+9999MW1101REMSYN082AAXX  19124 60060 31415 52605 10176 20143 40211 50002 7101/ 85600 333 85710 95300;EQDQ01  00002PRCP99
0194600600999992000101915004+29360-010170FM-12+0066GMMF V0202801N002610030019N0015001N1+01881+01561101951ADDAA199000091AY121031GA1051+003009079GF105991051061004501001001MD1810161+9999MW1101REMSYN082AAXX  19154 60060 31415 52805 10188 20156 40195 58016 7102/ 85600 333 85710 95300;EQDQ01  00002PRCP99
0221600600999992000101918004+29360-010170FM-12+0066GMMF V0203601N001012200019N0012001N1+01711+01521101931ADDAA199000091AY121061AY221061GA1031+003009079GF103991031061004501001001KA1120M+01901MD1710021+9999MW1101REMSYN088AAXX  19184 60060 31412 33602 10171 20152 40193 57002 71022 83600 333 10190 83710 95300;EQDQ01  00002PRCP99
0194600600999992000101921004+29360-010170FM-12+0066GMMF V0209999C000010021019N0004001N1+01571+01571101971ADDAA199000091AY141031GA1081+002109079GF108991081061002501999999MD1110031+9999MW1441REMSYN082AAXX  19214 60060 31304 80000 10157 20157 40197 51003 7444/ 886// 333 88707 95360;EQDQ01  00002PRCP99
0197600600999992000102006004+29360-010170FM-12+0066GMMF V0200601N003110021019N0005001N1+01411+01411101831ADDAA199000091GA1081+002109079GF108991081061002501999999KA1120N+01321MW1461REMSYN094AAXX  20064 60060 31305 80606 10141 20141 40183 5//// 746// 886// 333 20132 30004 88707 95360;EQDQ01  00002PRCP99
0194600600999992000102009004+29360-010170FM-12+0066GMMF V0201001N002110030019N0014001N1+01601+01371101891ADDAA199000091AY141031GA1061+003009079GF106991061061004501001001MD1310071+9999MW1101REMSYN082AAXX  20094 60060 31414 61004 10160 20137 40189 53007 7104/ 86600 333 86710 95300;EQDQ01  00002PRCP99
0202600600999992000102012004+29360-010170FM-12+0066GMMF V0203001N003110048019N0040001N1+01791+01381102011ADDAA199000091AY141061AY241061GA1071+004809069GF107991071051004501999999MD1110131+9999MW1101REMSYN082AAXX  20124 60060 31440 73006 10179 20138 40201 51013 71044 875// 333 87616 95300;EQDQ01  00002PRCP99
0202600600999992000102015004+29360-010170FM-12+0066GMMF V0200201N004112200019N0045001N1+01931+01461101881ADDAA199000091AY111031AY211031GA1041+004809069GF104991041051004501001001MD1610131+9999MW1101REMSYN082AAXX  20154 60060 31445 40208 10193 20146 40188 56013 71011 84500 333 84616 95300;EQDQ01  00002PRCP99
0215600600999992000102018004+29360-010170FM-12+0066GMMF V0200201N002610300019N0060001N1+01901+01571101691ADDAA199000091GA1021+004809069GA2051+030009039GF108991071051004501081021KA1120M+02351MD1510191+9999REMSYN088AAXX  20184 60060 32456 80205 10190 20157 40169 55019 87582 333 10235 82616 85360 95300;EQDQ01  00002PRCP99
0196600600999992000102021004+29360-010170FM-12+0066GMMF V0201201N002110300019N0060001N1+01901+01571101811ADDAA199000091GA1021+004809069GA2031+030009069GF106991051051004501081021MD1110121+9999REMSYN082AAXX  20214 60060 32456 61204 10190 20157 40181 51012 85582 333 82616 83660 95300;EQDQ01  00002PRCP99
0222600600999992000102106004+29360-010170FM-12+0066GMMF V0202201N001010300019N0060001N1+01781+01651101651ADDAA124000391AY161061AY261061GA1041+004809069GA2061+030009059GF108991041051004501071999KA1120N+01721MW1211REMSYN106AAXX  21064 60060 11456 82202 10178 20165 40165 5/008 69934 72166 8457/ 333 20172 30040 84616 86560 95300;
0177600600999992000102109004+29360-010170FM-12+0066GMMF V0200401N002110060019N0060001N1+01841+01591101721ADDAA199000021GA1041+003909089GA2061+006009069GF108991081081004501999999MD1310071+9999REMSYN082AAXX  21094 60060 32456 80404 10184 20159 40172 53007 888// 333 84813 86620 95300;
0177600600999992000102112004+29360-010170FM-12+0066GMMF V0200401N004110060019N0060001N1+01941+01611101761ADDAA199000021GA1041+003909089GA2051+006009069GF107991071081004501999999MD1110041+9999REMSYN082AAXX  21124 60060 32456 70408 10194 20161 40176 51004 878// 333 84813 85620 95300;
0177600600999992000102115004+29360-010170FM-12+0066GMMF V0203201N003610060019N0120001N1+01861+01491101601ADDAA199000021GA1031+003909089GA2051+006009069GF107991071081004501999999MD1810161+9999REMSYN082AAXX  21154 60060 32462 73207 10186 20149 40160 58016 878// 333 83813 85620 95300;
0196600600999992000102118004+29360-010170FM-12+0066GMMF V0200201N003610060019N0120001N1+01861+01431101591ADDAA199000021GA1011+003909089GA2051+006009069GF106991061081004501001001KA1120M+01961MD1610011+9999REMSYN088AAXX  21184 60060 32462 60207 10186 20143 40159 56001 86800 333 10196 81813 85620 95300;
0174600600999992000102121004+29360-010170FM-12+0066GMMF V0203601N005712200019N0080001N1+01781+01401101611ADDAA199000091GA1011+003909089GF103991031081004501001001MD1310011+9999REMSYN076AAXX  21214 60060 32458 33611 10178 20140 40161 53001 83800 333 81813 95300;EQDQ01  00002PRCP99
0185600600999992000102206004+29360-010170FM-12+0066GMMF V0203601N005712200019N0100001N1+01681+01281101361ADDAA199000091GA1021+030009039GF104991021001999999031021KA1120N+01621REMSYN088AAXX  22064 60060 32960 43611 10168 20128 40136 5//// 82032 333 20162 30004 82360 95300;EQDQ01  00002PRCP99
0174600600999992000102209004+29360-010170FM-12+0066GMMF V0203601N003612200019N0150001N1+01721+01231101381ADDAA199000091GA1011+003909089GF104991031081004501001021MD1310021+9999REMSYN076AAXX  22094 60060 32465 43607 10172 20123 40138 53002 83802 333 81813 95300;EQDQ01  00002PRCP99
0174600600999992000102212004+29360-010170FM-12+0066GMMF V0203401N005712200019N0200001N1+01761+01211101391ADDAA199000091GA1021+003909089GF104991031081004501001011MD1010021+9999REMSYN076AAXX  22124 60060 32470 43411 10176 20121 40139 50002 83801 333 82813 95300;EQDQ01  00002PRCP99
0174600600999992000102215004+29360-010170FM-12+0066GMMF V0203601N006212200019N0200001N1+01871+01131101321ADDAA199000091GA1021+003909089GF102991021021004501001001MD1710071+9999REMSYN076AAXX  22154 60060 32470 23612 10187 20113 40132 57007 82200 333 82813 95300;EQDQ01  00002PRCP99
0193600600999992000102218004+29360-010170FM-12+0066GMMF V0203601N006712200019N0200001N1+01771+01161101331ADDAA199000091GA1011+003909089GF101991011011004501001001KA1120M+01921MD1310011+9999REMSYN082AAXX  22184 60060 32470 13613 10177 20116 40133 53001 81100 333 10192 81813 95300;EQDQ01  00002PRCP99
0174600600999992000102221004+29360-010170FM-12+0066GMMF V0203601N007712200019N0100001N1+01721+01221101441ADDAA199000091GA1011+003909089GF102991011011004501001011MD1210101+9999REMSYN076AAXX  22214 60060 32460 23615 10172 20122 40144 52010 81101 333 81813 95300;EQDQ01  00002PRCP99
0185600600999992000102306004+29360-010170FM-12+0066GMMF V0200601N002112200019N0080001N1+01611+01401101411ADDAA199000091GA1021+004809069GF102991021051004501001001KA1120N+01571REMSYN088AAXX  23064 60060 32458 20604 10161 20140 40141 5//// 82500 333 20157 30005 82616 95300;EQDQ01  00002PRCP99
0174600600999992000102309004+29360-010170FM-12+0066GMMF V0202601N001010048019N0080001N1+01741+01431101531ADDAA199000091GA1071+004809089GF107991071021004501999999MD1310121+9999REMSYN076AAXX  23094 60060 32458 72602 10174 20143 40153 53012 872// 333 87816 95300;EQDQ01  00002PRCP99
0174600600999992000102312004+29360-010170FM-12+0066GMMF V0203201N001510048019N0080001N1+01941+01491101481ADDAA199000091GA1071+004809089GF107991071021004501999999MD1810041+9999REMSYN076AAXX  23124 60060 32458 73203 10194 20149 40148 58004 872// 333 87816 95300;EQDQ01  00002PRCP99
0174600600999992000102315004+29360-010170FM-12+0066GMMF V0203601N002110048019N0080001N1+02001+01591101371ADDAA199000091GA1061+004809089GF106991061021004501001001MD1710111+9999REMSYN076AAXX  23154 60060 32458 63604 10200 20159 40137 57011 86200 333 86816 95300;EQDQ01  00002PRCP99
0193600600999992000102318004+29360-010170FM-12+0066GMMF V0200601N004112200019N0080001N1+01901+01531101371ADDAA199000091GA1031+004809089GF103991031021004501001001KA1120M+02051MD1410001+9999REMSYN082AAXX  23184 60060 32458 30608 10190 20153 40137 54000 83200 333 10205 83816 95300;EQDQ01  00002PRCP99
0174600600999992000102321004+29360-010170FM-12+0066GMMF V0200801N004112200019N0080001N1+01791+01411101371ADDAA199000091GA1041+004809089GF104991041021004501001001MD1410001+9999REMSYN076AAXX  23214 60060 32458 40808 10179 20141 40137 54000 84200 333 84816 95300;EQDQ01  00002PRCP99
0185600600999992000102406004+29360-010170FM-12+0066GMMF V0201801N002112200019N0080001N1+01531+01161101311ADDAA199000091GA1021+004809089GF102991021021004501001001KA1120N+01451REMSYN088AAXX  24064 60060 32458 21804 10153 20116 40131 5/006 82200 333 20145 30010 82816 95300;EQDQ01  00002PRCP99
0174600600999992000102409004+29360-010170FM-12+0066GMMF V0202201N002112200019N0100001N1+01651+01301101361ADDAA199000091GA1011+004809089GF101991011021004501001001MD1310061+9999REMSYN076AAXX  24094 60060 32460 12204 10165 20130 40136 53006 81200 333 81816 95300;EQDQ01  00002PRCP99
0174600600999992000102412004+29360-010170FM-12+0066GMMF V0203201N002112200019N0100001N1+01881+01451101431ADDAA199000091GA1011+004809069GF101991011051004501001001MD1110081+9999REMSYN076AAXX  24124 60060 32460 13204 10188 20145 40143 51008 81500 333 81616 95300;EQDQ01  00002PRCP99
0174600600999992000102415004+29360-010170FM-12+0066GMMF V0202601N003112200019N0100001N1+01871+01481101311ADDAA199000091GA1011+004809069GF101991011051004501001001MD1810121+9999REMSYN076AAXX  24154 60060 32460 12606 10187 20148 40131 58012 81500 333 81616 95300;EQDQ01  00002PRCP99
0175600600999992000102418004+29360-010170FM-12+0066GMMF V0203601N002112200019N0100001N1+01811+01381101361ADDAA199000091GA1001+999999999GF100991001001999999001001KA1999M+01941MD1310051+9999REMSYN064AAXX  24184 60060 32960 03604 10181 20138 40136 53005 333 10194;EQDQ01  00002PRCP99
0154600600999992000102421004+29360-010170FM-12+0066GMMF V0200801N003110048019N0100001N1+01951+01581101481ADDAA199000091GA1051+004809069GF105991051051004501001001REMSYN070AAXX  24214 60060 32460 50806 10195 20158 40148 85500 333 85616 95300;EQDQ01  00002PRCP99
0185600600999992000102506004+29360-010170FM-12+0066GMMF V0202001N001510048019N0080001N1+01821+01551101491ADDAA199000091GA1051+004809069GF105991051051004501001001KA1120N+01751REMSYN088AAXX  25064 60060 32458 52003 10182 20155 40149 5//// 85500 333 20175 30004 85616 95300;EQDQ01  00002PRCP99
0194600600999992000102509004+29360-010170FM-12+0066GMMF V0202801N001510048019N0040001N1+01851+01631101691ADDAA199000091AY111031GA1071+004809069GF107991071051004501999999MD1310201+9999MW1101REMSYN082AAXX  25094 60060 31440 72803 10185 20163 40169 53020 7101/ 875// 333 87616 95300;EQDQ01  00002PRCP99
0202600600999992000102512004+29360-010170FM-12+0066GMMF V0203201N002612200019N0045001N1+01951+01711101821ADDAA199000091AY111061AY211061GA1031+004809069GF103991031051004501001001MD1010031+9999MW1101REMSYN082AAXX  25124 60060 31445 33205 10195 20171 40182 50003 71011 83500 333 83616 95300;EQDQ01  00002PRCP99
0194600600999992000102515004+29360-010170FM-12+0066GMMF V0203201N003110048019N0040001N1+01981+01691101671ADDAA199000091AY111031GA1061+004809069GF106991061051004501001001MD1610051+9999MW1101REMSYN082AAXX  25154 60060 31440 63206 10198 20169 40167 56005 7101/ 86500 333 86616 95300;EQDQ01  00002PRCP99
0221600600999992000102518004+29360-010170FM-12+0066GMMF V0203601N004110048019N0045001N1+01801+01551101681ADDAA199000091AY111061AY211061GA1051+004809069GF105991051051004501001001KA1120M+02071MD1310011+9999MW1101REMSYN088AAXX  25184 60060 31445 53608 10180 20155 40168 53001 71011 85500 333 10207 85616 95300;EQDQ01  00002PRCP99
0194600600999992000102521004+29360-010170FM-12+0066GMMF V0203601N003612200019N0045001N1+01711+01511101761ADDAA199000091AY111031GA1021+004809069GF102991021051004501001001MD1310081+9999MW1101REMSYN082AAXX  25214 60060 31445 23607 10171 20151 40176 53008 7101/ 82500 333 82616 95300;EQDQ01  00002PRCP99
0185600600999992000102606004+29360-010170FM-12+0066GMMF V0202001N002112200019N0050001N1+01551+01391101851ADDAA199000091GA1041+004809069GF104991041051004501001001KA1120N+01471REMSYN088AAXX  26064 60060 32450 42004 10155 20139 40185 5//// 84500 333 20147 30004 84616 95300;EQDQ01  00002PRCP99
0196600600999992000102609004+29360-010170FM-12+0066GMMF V0202601N002110300019N0060001N1+01781+01511101951ADDAA199000091GA1021+003909089GA2061+030009039GF107991041021004501071999MD1310111+9999REMSYN082AAXX  26094 60060 32456 72604 10178 20151 40195 53011 8427/ 333 82813 86360 95300;EQDQ01  00002PRCP99
0174600600999992000102612004+29360-010170FM-12+0066GMMF V0202601N004112200019N0060001N1+02021+01631102001ADDAA199000091GA1021+006009069GF102991021051008001001001MD1110051+9999REMSYN076AAXX  26124 60060 32556 22608 10202 20163 40200 51005 82500 333 82620 95300;EQDQ01  00002PRCP99
0174600600999992000102615004+29360-010170FM-12+0066GMMF V0203601N003110060019N0060001N1+01951+01621101851ADDAA199000091GA1071+006009069GF107991071051008001999999MD1610151+9999REMSYN076AAXX  26154 60060 32556 73606 10195 20162 40185 56015 875// 333 87620 95300;EQDQ01  00002PRCP99
0193600600999992000102618004+29360-010170FM-12+0066GMMF V0203401N001512200019N0060001N1+01901+01531101851ADDAA199000091GA1031+006009069GF103991031051008001001001KA1120M+02071MD1410001+9999REMSYN082AAXX  26184 60060 32556 33403 10190 20153 40185 54000 83500 333 10207 83620 95300;EQDQ01  00002PRCP99
0174600600999992000102621004+29360-010170FM-12+0066GMMF V0200401N003112200019N0060001N1+01751+01411101871ADDAA199000091GA1021+006009069GF102991021051008001001001MD1310021+9999REMSYN076AAXX  26214 60060 32556 20406 10175 20141 40187 53002 82500 333 82620 95300;EQDQ01  00002PRCP99
0185600600999992000102706004+29360-010170FM-12+0066GMMF V0202401N004110048019N0060001N1+01801+01491101831ADDAA199000091GA1061+004809069GF106991061051004501001001KA1120N+01601REMSYN088AAXX  27064 60060 32456 62408 10180 20149 40183 5/001 86500 333 20160 30019 86616 95300;EQDQ01  00002PRCP99
0174600600999992000102709004+29360-010170FM-12+0066GMMF V0202401N004110048019N0060001N1+01851+01531101911ADDAA199000091GA1061+004809069GF106991061051004501001001MD1210081+9999REMSYN076AAXX  27094 60060 32456 62408 10185 20153 40191 52008 86500 333 86616 95300;EQDQ01  00002PRCP99
0174600600999992000102712004+29360-010170FM-12+0066GMMF V0202401N004112200019N0060001N1+02021+01631101931ADDAA199000091GA1031+004809069GF103991031051004501001001MD1110021+9999REMSYN076AAXX  27124 60060 32456 32408 10202 20163 40193 51002 83500 333 83616 95300;EQDQ01  00002PRCP99
0174600600999992000102715004+29360-010170FM-12+0066GMMF V0203001N003610048019N0060001N1+01941+01611101791ADDAA199000091GA1061+004809069GF106991061051004501001001MD1610141+9999REMSYN076AAXX  27154 60060 32456 63007 10194 20161 40179 56014 86500 333 86616 95300;EQDQ01  00002PRCP99
0193600600999992000102718004+29360-010170FM-12+0066GMMF V0203601N002610048019N0060001N1+01801+01551101831ADDAA199000091GA1081+004809069GF108991081051004501999999KA1120M+02071MD1310041+9999REMSYN082AAXX  27184 60060 32456 83605 10180 20155 40183 53004 885// 333 10207 88616 95300;EQDQ01  00002PRCP99
0174600600999992000102721004+29360-010170FM-12+0066GMMF V0209999C000012200019N0060001N1+01741+01531101901ADDAA199000091GA1031+004809069GF103991031051004501001001MD1310061+9999REMSYN076AAXX  27214 60060 32456 30000 10174 20153 40190 53006 83500 333 83616 95300;EQDQ01  00002PRCP99
0185600600999992000102806004+29360-010170FM-12+0066GMMF V0202401N002610048019N0060001N1+01741+01501101841ADDAA199000091GA1061+004809069GF106991061051004501001001KA1120N+01601REMSYN088AAXX  28064 60060 32456 62405 10174 20150 40184 5//// 86500 333 20160 30003 86616 95300;EQDQ01  00002PRCP99
0174600600999992000102809004+29360-010170FM-12+0066GMMF V0202401N001510048019N0060001N1+01811+01501101961ADDAA199000091GA1051+004809069GF105991051051004501001001MD1310131+9999REMSYN076AAXX  28094 60060 32456 52403 10181 20150 40196 53013 85500 333 85616 95300;EQDQ01  00002PRCP99
0152600600999992000102812004+29360-010170FM-12+0066GMMF V0203601N002612200019N0060001N1+01911+01451102011ADDAA199000091GA1001+999999999GF100991001001999999001001MD1010051+9999REMSYN054AAXX  28124 60060 32956 03605 10191 20145 40201 50005;EQDQ01  00002PRCP99
0152600600999992000102815004+29360-010170FM-12+0066GMMF V0203601N004112200019N0060001N1+01951+01581101931ADDAA199000091GA1001+999999999GF100991001001999999001001MD1610081+9999REMSYN054AAXX  28154 60060 32956 03608 10195 20158 40193 56008;EQDQ01  00002PRCP99
0175600600999992000102818004+29360-010170FM-12+0066GMMF V0200201N004112200019N0060001N1+01841+01591101931ADDAA199000091GA1001+999999999GF100991001001999999001001KA1999M+02021MD1010001+9999REMSYN064AAXX  28184 60060 32456 00208 10184 20159 40193 50000 333 10202;EQDQ01  00002PRCP99
0197600600999992000102906004+29360-010170FM-12+0066GMMF V0201801N002110021019N0004001N1+01541+01541102001ADDAA199000091GA1081+002109079GF108991081061002501999999KA1120N+01521MW1461REMSYN094AAXX  29064 60060 31304 81804 10154 20154 40200 5//// 746// 886// 333 20152 30006 88707 95360;EQDQ01  00002PRCP99
0194600600999992000102909004+29360-010170FM-12+0066GMMF V0202401N001510021019N0012001N1+01571+01481102131ADDAA199000091AY141031GA1081+002109079GF108991081061002501999999MD1310131+9999MW1101REMSYN082AAXX  29094 60060 31312 82403 10157 20148 40213 53013 7104/ 886// 333 88707 95360;EQDQ01  00002PRCP99
0202600600999992000102912004+29360-010170FM-12+0066GMMF V0202801N002610027019N0014001N1+01681+01541102201ADDAA199000091AY141061AY221061GA1081+002709079GF108991081061002501999999MD1010071+9999MW1101REMSYN082AAXX  29124 60060 31314 82805 10168 20154 40220 50007 71042 886// 333 88709 95310;EQDQ01  00002PRCP99
0202600600999992000102915004+29360-010170FM-12+0066GMMF V0202801N002110030019N0014001N1+01791+01531102031ADDAA199000091AY121031AY221031GA1061+003009079GF106991061061004501001001MD1610161+9999MW1101REMSYN082AAXX  29154 60060 31414 62804 10179 20153 40203 56016 71022 86600 333 86710 95310;EQDQ01  00002PRCP99
0193600600999992000102918004+29360-010170FM-12+0066GMMF V0200401N002112200019N0050001N1+01801+01461101961ADDAA199000091GA1031+003009079GF103991031061004501001001KA1120M+01851MD1610061+9999REMSYN082AAXX  29184 60060 32450 30404 10180 20146 40196 56006 83600 333 10185 83710 95300;EQDQ01  00002PRCP99
0174600600999992000102921004+29360-010170FM-12+0066GMMF V0200601N002112200019N0050001N1+01721+01411102001ADDAA199000091GA1041+003009079GF104991041061004501001001MD1310031+9999REMSYN076AAXX  29214 60060 32450 40604 10172 20141 40200 53003 84600 333 84710 95300;EQDQ01  00002PRCP99
0197600600999992000103006004+29360-010170FM-12+0066GMMF V0202001N002110024019N0006001N1+01601+01601101941ADDAA199000091GA1081+002409079GF108991081061004501999999KA1120N+01551MW1461REMSYN094AAXX  30064 60060 31406 82004 10160 20160 40194 5/003 746// 886// 333 20155 30020 88708 95360;EQDQ01  00002PRCP99
0218600600999992000103009004+29360-010170FM-12+0066GMMF V0202101N002112200019N0014001N1+01621+01541102021ADDAA199000091AY141031AY241031GA1081+002409079GF199999081061004501999999MD1310081+9999MW1101REMSYN082AAXX  30094 60060 31414 22104 10162 20154 40202 53008 71044 886// 333 88708 95360;EQDQ01+000022SCOTCVQ02  00002PRCP99
0202600600999992000103012004+29360-010170FM-12+0066GMMF V0202401N004112200019N0030001N1+01811+01561102071ADDAA199000091AY141061AY241061GA1041+003009079GF104991041061004501001001MD1110041+9999MW1101REMSYN082AAXX  30124 60060 31430 42408 10181 20156 40207 51004 71044 84600 333 84710 95300;EQDQ01  00002PRCP99
0194600600999992000103015004+29360-010170FM-12+0066GMMF V0202601N004610036019N0030001N1+01801+01461101911ADDAA199000091AY111031GA1071+003609079GF107991071061004501999999MD1610141+9999MW1101REMSYN082AAXX  30154 60060 31430 72609 10180 20146 40191 56014 7101/ 876// 333 87712 95300;EQDQ01  00002PRCP99
0221600600999992000103018004+29360-010170FM-12+0066GMMF V0203601N002110036019N0035001N1+01661+01401101941ADDAA199000091AY111061AY211061GA1051+003609079GF105991051061004501001001KA1120M+01891MD1310021+9999MW1101REMSYN088AAXX  30184 60060 31435 53604 10166 20140 40194 53002 71011 85600 333 10189 85712 95300;EQDQ01  00002PRCP99
0152600600999992000103021004+29360-010170FM-12+0066GMMF V0200601N003112200019N0050001N1+01651+01321102001ADDAA199000091GA1001+999999999GF100991001001999999001001MD1210061+9999REMSYN054AAXX  30214 60060 32950 00606 10165 20132 40200 52006;EQDQ01  00002PRCP99
0167600600999992000103106004+29360-010170FM-12+0066GMMF V0201201N002112200019N0050001N1+01541+01221101821ADDAA199000091GA1001+999999999GF100991001001999999001001KA1120N+01501REMSYN070AAXX  31064 60060 32950 01204 10154 20122 40182 5//// 333 20150 30004;EQDQ01  00002PRCP99
0168600600999992000103109004+29360-010170FM-12+0066GMMF V0201801N002110048019N0050001N1+01711+99999101901ADDAA199000091GA1071+004809069GF107991071051004501999999MD1310081+9999REMSYN070AAXX  31094 60060 32450 71804 10171 40190 53008 875// 333 87616 95300;EQDQ01  00002PRCP99
0174600600999992000103112004+29360-010170FM-12+0066GMMF V0202601N002612200019N0050001N1+01911+01391101851ADDAA199000091GA1031+004809069GF103991031051004501001001MD1810041+9999REMSYN076AAXX  31124 60060 32450 32605 10191 20139 40185 58004 83500 333 83616 95300;EQDQ01  00002PRCP99
0174600600999992000103115004+29360-010170FM-12+0066GMMF V0203401N003612200019N0060001N1+01801+01431101731ADDAA199000091GA1021+004809069GF102991021051004501001001MD1710121+9999REMSYN076AAXX  31154 60060 32456 23407 10180 20143 40173 57012 82500 333 82616 95300;EQDQ01  00002PRCP99
0175600600999992000103118004+29360-010170FM-12+0066GMMF V0200201N003612200019N0070001N1+01791+01331101731ADDAA199000091GA1001+999999999GF100991001001999999001001KA1999M+01951MD1510001+9999REMSYN064AAXX  31184 60060 32957 00207 10179 20133 40173 55000 333 10195;EQDQ01  00002PRCP99
0152600600999992000103121004+29360-010170FM-12+0066GMMF V0200601N003112200019N0060001N1+01711+01341101781ADDAA199000091GA1001+999999999GF100991001001999999001001MD1110041+9999REMSYN054AAXX  31214 60060 32956 00606 10171 20134 40178 51004;EQDQ01  00002PRCP99
0167600600999992000110106004+29360-010170FM-12+0066GMMF V0201601N001012200019N0060001N1+01561+01351101581ADDAA199000091GA1001+999999999GF100991001001999999001001KA1120N+01531REMSYN070AAXX  01064 60060 32956 01602 10156 20135 40158 5//// 333 20153 30004;EQDQ01  00002PRCP99
0174600600999992000110109004+29360-010170FM-12+0066GMMF V0203201N001010048019N0050001N1+01681+01421101681ADDAA199000091GA1061+004809069GF106991061051004501001001MD1310101+9999REMSYN076AAXX  01094 60060 32450 63202 10168 20142 40168 53010 86500 333 86616 95300;EQDQ01  00002PRCP99
0174600600999992000110112004+29360-010170FM-12+0066GMMF V0203001N001012200019N0060001N1+01821+01411101671ADDAA199000091GA1011+004809069GF101991011051004501001001MD1010001+9999REMSYN076AAXX  01124 60060 32456 13002 10182 20141 40167 50000 81500 333 81616 95300;EQDQ01  00002PRCP99
0174600600999992000110115004+29360-010170FM-12+0066GMMF V0203001N004110048019N0070001N1+01941+01651101571ADDAA199000091GA1061+004809069GF106991061051004501001001MD1610101+9999REMSYN076AAXX  01154 60060 32457 63008 10194 20165 40157 56010 86500 333 86616 95300;EQDQ01  00002PRCP99
0193600600999992000110118004+29360-010170FM-12+0066GMMF V0200601N005110048019N0070001N1+01831+01601101611ADDAA199000091GA1061+004809069GF106991061051004501001001KA1120M+02021MD1310041+9999REMSYN082AAXX  01184 60060 32457 60610 10183 20160 40161 53004 86500 333 10202 86616 95300;EQDQ01  00002PRCP99
0174600600999992000110121004+29360-010170FM-12+0066GMMF V0200801N002112200019N0060001N1+01671+01441101621ADDAA199000091GA1041+004809069GF104991041051004501001001MD1410001+9999REMSYN076AAXX  01214 60060 32456 40804 10167 20144 40162 54000 84500 333 84616 95300;EQDQ01  00002PRCP99
0173600600999992000110206004+29360-010170FM-12+0066GMMF V0202001N004112200019N0080001N1+01581+01371101621ADDAA199000091GA1001+999999999GF100991001001999999001001KA1120N+01461REMSYN076AAXX  02064 60060 32958 02008 10158 20137 40162 5/000 333 20146 30009 95300;EQDQ01  00002PRCP99
0174600600999992000110209004+29360-010170FM-12+0066GMMF V0200801N002112200019N0070001N1+01601+01341101691ADDAA199000091GA1011+004809069GF101991011051004501001001MD1310071+9999REMSYN076AAXX  02094 60060 32457 10804 10160 20134 40169 53007 81500 333 81616 95300;EQDQ01  00002PRCP99
0174600600999992000110212004+29360-010170FM-12+0066GMMF V0203201N002612200019N0060001N1+01851+01471101791ADDAA199000091GA1011+004809069GF101991011051004501001001MD1010111+9999REMSYN076AAXX  02124 60060 32456 13205 10185 20147 40179 50011 81500 333 81616 95300;EQDQ01  00002PRCP99
0174600600999992000110215004+29360-010170FM-12+0066GMMF V0203601N002612200019N0060001N1+01851+01421101631ADDAA199000091GA1011+004809069GF101991011051004501001001MD1710161+9999REMSYN076AAXX  02154 60060 32456 13605 10185 20142 40163 57016 81500 333 81616 95300;EQDQ01  00002PRCP99
0193600600999992000110218004+29360-010170FM-12+0066GMMF V0200201N003112200019N0060001N1+01751+01481101611ADDAA199000091GA1031+004809069GF103991031051004501001001KA1120M+01881MD1510021+9999REMSYN082AAXX  02184 60060 32456 30206 10175 20148 40161 55002 83500 333 10188 83616 95300;EQDQ01  00002PRCP99
0174600600999992000110221004+29360-010170FM-12+0066GMMF V0200401N003612200019N0060001N1+01651+01391101701ADDAA199000091GA1021+004809069GF102991021051004501001001MD1310081+9999REMSYN076AAXX  02214 60060 32456 20407 10165 20139 40170 53008 82500 333 82616 95300;EQDQ01  00002PRCP99
0167600600999992000110306004+29360-010170FM-12+0066GMMF V0201801N003112200019N0060001N1+01471+01291101651ADDAA199000091GA1001+999999999GF100991001001999999001001KA1120N+01441REMSYN070AAXX  03064 60060 32956 01806 10147 20129 40165 5//// 333 20144 30005;EQDQ01  00002PRCP99
0174600600999992000110309004+29360-010170FM-12+0066GMMF V0209999C000010048019N0060001N1+01561+01351101731ADDAA199000091GA1071+004809069GF107991071051004501999999MD1310081+9999REMSYN076AAXX  03094 60060 32456 70000 10156 20135 40173 53008 875// 333 87616 95300;EQDQ01  00002PRCP99
0152600600999992000110312004+29360-010170FM-12+0066GMMF V0202601N002612200019N0060001N1+01871+01371101721ADDAA199000091GA1001+999999999GF100991001001999999001001MD1810011+9999REMSYN054AAXX  03124 60060 32956 02605 10187 20137 40172 58001;EQDQ01  00002PRCP99
0152600600999992000110315004+29360-010170FM-12+0066GMMF V0203601N003112200019N0060001N1+01801+01411101641ADDAA199000091GA1001+999999999GF100991001001999999001001MD1810081+9999REMSYN054AAXX  03154 60060 32956 03606 10180 20141 40164 58008;EQDQ01  00002PRCP99
0193600600999992000110318004+29360-010170FM-12+0066GMMF V0200401N003112200019N0060001N1+01781+01391101691ADDAA199000091GA1011+004809069GF101991011051004501001001KA1120M+01911MD1310051+9999REMSYN082AAXX  03184 60060 32456 10406 10178 20139 40169 53005 81500 333 10191 81616 95300;EQDQ01  00002PRCP99
0174600600999992000110321004+29360-010170FM-12+0066GMMF V0200401N004110048019N0060001N1+01841+01521101761ADDAA199000091GA1061+004809069GF106991061051004501001001MD1310071+9999REMSYN076AAXX  03214 60060 32456 60408 10184 20152 40176 53007 86500 333 86616 95300;EQDQ01  00002PRCP99
0185600600999992000110406004+29360-010170FM-12+0066GMMF V0202401N003110048019N0050001N1+01721+01501101691ADDAA199000091GA1071+004809069GF107991071051004501999999KA1120N+01681REMSYN088AAXX  04064 60060 32450 72406 10172 20150 40169 5//// 875// 333 20168 30006 87616 95300;EQDQ01  00002PRCP99
0174600600999992000110409004+29360-010170FM-12+0066GMMF V0202201N002610048019N0050001N1+01761+01541101831ADDAA199000091GA1071+004809069GF107991071051004501999999MD1310151+9999REMSYN076AAXX  04094 60060 32450 72205 10176 20154 40183 53015 875// 333 87616 95300;EQDQ01  00002PRCP99
0174600600999992000110412004+29360-010170FM-12+0066GMMF V0202201N003612200019N0050001N1+01951+01511101891ADDAA199000091GA1041+004809069GF104991041051004501001001MD1010061+9999REMSYN076AAXX  04124 60060 32450 42207 10195 20151 40189 50006 84500 333 84616 95300;EQDQ01  00002PRCP99
0174600600999992000110415004+29360-010170FM-12+0066GMMF V0202401N005112200019N0060001N1+01941+01471101791ADDAA199000091GA1031+004809069GF103991031051004501001001MD1610101+9999REMSYN076AAXX  04154 60060 32456 32410 10194 20147 40179 56010 83500 333 83616 95300;EQDQ01  00002PRCP99
0193600600999992000110418004+29360-010170FM-12+0066GMMF V0203001N002110048019N0060001N1+01741+01471101801ADDAA199000091GA1071+004809069GF107991071051004501999999KA1120M+02041MD1410001+9999REMSYN082AAXX  04184 60060 32456 73004 10174 20147 40180 54000 875// 333 10204 87616 95300;EQDQ01  00002PRCP99
0174600600999992000110421004+29360-010170FM-12+0066GMMF V0200801N001512200019N0060001N1+01651+01351101891ADDAA199000091GA1041+004809069GF104991041051004501001001MD1110091+9999REMSYN076AAXX  04214 60060 32456 40803 10165 20135 40189 51009 84500 333 84616 95300;EQDQ01  00002PRCP99
0185600600999992000110506004+29360-010170FM-12+0066GMMF V0202001N001512200019N0060001N1+01601+01301101801ADDAA199000091GA1021+004809069GF102991021051004501001001KA1120N+01451REMSYN088AAXX  05064 60060 32456 22003 10160 20130 40180 5/004 82500 333 20145 30015 82616 95300;EQDQ01  00002PRCP99
0174600600999992000110509004+29360-010170FM-12+0066GMMF V0202001N001010048019N0060001N1+01721+01411101921ADDAA199000091GA1051+004809069GF105991051051004501001001MD1210121+9999REMSYN076AAXX  05094 60060 32456 52002 10172 20141 40192 52012 85500 333 85616 95300;EQDQ01  00002PRCP99
0174600600999992000110512004+29360-010170FM-12+0066GMMF V0202601N001512200019N0060001N1+01941+01541101971ADDAA199000091GA1011+004809069GF101991011051004501001001MD1610061+9999REMSYN076AAXX  05124 60060 32456 12603 10194 20154 40197 56006 81500 333 81616 95300;EQDQ01  00002PRCP99
0168600600999992000110515004+29360-010170FM-12+0066GMMF V0203201N002612200019N0070001N1+01881+01361101871ADDAA199000091GA1031+060009019GF103991001001999999001021MD1810101+9999REMSYN070AAXX  05154 60060 32957 33205 10188 20136 40187 58010 80002 333 83070;EQDQ01  00002PRCP99
0193600600999992000110518004+29360-010170FM-12+0066GMMF V0203601N002610048019N0060001N1+01701+01421101841ADDAA199000091GA1071+004809069GF107991071051004501999999KA1120M+01961MD1510031+9999REMSYN082AAXX  05184 60060 32456 73605 10170 20142 40184 55003 875// 333 10196 87616 95300;EQDQ01  00002PRCP99
0174600600999992000110521004+29360-010170FM-12+0066GMMF V0200201N002610048019N0060001N1+01651+01371101891ADDAA199000091GA1051+004809069GF105991051051004501001001MD1210041+9999REMSYN076AAXX  05214 60060 32456 50205 10165 20137 40189 52004 85500 333 85616 95300;EQDQ01  00002PRCP99
0185600600999992000110606004+29360-010170FM-12+0066GMMF V0202001N002610048019N0060001N1+01651+01491101761ADDAA199000091GA1061+004809069GF106991061051004501001001KA1120N+01541REMSYN088AAXX  06064 60060 32456 62005 10165 20149 40176 5//// 86500 333 20154 30005 86616 95300;EQDQ01  00002PRCP99
0174600600999992000110609004+29360-010170FM-12+0066GMMF V0202401N003112200019N0070001N1+01701+01521101841ADDAA199000091GA1031+004809069GF103991031051004501001001MD1310081+9999REMSYN076AAXX  06094 60060 32457 32406 10170 20152 40184 53008 83500 333 83616 95300;EQDQ01  00002PRCP99
0152600600999992000110615004+29360-010170FM-12+0066GMMF V0202801N002112200019N0100001N1+01841+01311101691ADDAA199000091GA1001+999999999GF100991001001999999001001MD1810121+9999REMSYN054AAXX  06154 60060 32960 02804 10184 20131 40169 58012;EQDQ01  00002PRCP99
0193600600999992000110618004+29360-010170FM-12+0066GMMF V0200401N002112200019N0100001N1+01801+01341101691ADDAA199000091GA1031+004809069GF104991031051004501001021KA1120M+01881MD1510001+9999REMSYN082AAXX  06184 60060 32460 40404 10180 20134 40169 55000 83502 333 10188 83616 95300;EQDQ01  00002PRCP99
0174600600999992000110621004+29360-010170FM-12+0066GMMF V0200401N003610048019N0080001N1+01851+01461101681ADDAA199000091GA1061+004809069GF106991061051004501001001MD1610011+9999REMSYN076AAXX  06214 60060 32458 60407 10185 20146 40168 56001 86500 333 86616 95300;EQDQ01  00002PRCP99
0185600600999992000110706004+29360-010170FM-12+0066GMMF V0200401N002110048019N0060001N1+01761+01441101291ADDAA199000091GA1051+004809069GF105991051051004501001001KA1120N+01711REMSYN088AAXX  07064 60060 32456 50404 10176 20144 40129 5//// 85500 333 20171 30010 85616 95300;EQDQ01  00002PRCP99
0174600600999992000110709004+29360-010170FM-12+0066GMMF V0200201N002110048019N0060001N1+01701+01421101331ADDAA199000091GA1061+004809069GF106991061051004501001001MD1310041+9999REMSYN076AAXX  07094 60060 32456 60204 10170 20142 40133 53004 86500 333 86616 95300;EQDQ01  00002PRCP99
0196600600999992000110712004+29360-010170FM-12+0066GMMF V0203601N004110600019N0060001N1+01751+01431101331ADDAA199000091GA1031+004809069GA2031+060009009GF106991031051004501001021MD1010001+9999REMSYN082AAXX  07124 60060 32456 63608 10175 20143 40133 50000 83502 333 83616 83070 95300;EQDQ01  00002PRCP99
0174600600999992000110715004+29360-010170FM-12+0066GMMF V0200201N004110048019N0060001N1+01901+01381101151ADDAA199000091GA1061+004809069GF106991061051004501001001MD1610171+9999REMSYN076AAXX  07154 60060 32456 60208 10190 20138 40115 56017 86500 333 86616 95300;EQDQ01  00002PRCP99
0215600600999992000110718004+29360-010170FM-12+0066GMMF V0200201N004110300019N0060001N1+01771+01331101111ADDAA199000091GA1031+004809069GA2051+030009039GF107991071051004501031021KA1120M+01941MD1610041+9999REMSYN088AAXX  07184 60060 32456 70208 10177 20133 40111 56004 87532 333 10194 83616 85360 95300;EQDQ01  00002PRCP99
0196600600999992000110721004+29360-010170FM-12+0066GMMF V0200401N002610300019N0060001N1+01681+01371101121ADDAA199000091GA1021+004809069GA2031+030009039GF106991051051004501031021MD1410001+9999REMSYN082AAXX  07214 60060 32456 60405 10168 20137 40112 54000 85532 333 82616 83360 95300;EQDQ01  00002PRCP99
0173600600999992000110806004+29360-010170FM-12+0066GMMF V0209999C000012200019N0070001N1+01451+01081100791ADDAA199000091GA1001+999999999GF100991001001999999001001KA1120N+01401REMSYN076AAXX  08064 60060 32957 00000 10145 20108 40079 5/009 333 20140 30009 95300;EQDQ01  00002PRCP99
0174600600999992000110809004+29360-010170FM-12+0066GMMF V0209999C000012200019N0080001N1+01471+01161100961ADDAA199000091GA1031+060009009GF103991001001999999001021MD1310171+9999REMSYN076AAXX  08094 60060 32958 30000 10147 20116 40096 53017 80002 333 83070 95300;EQDQ01  00002PRCP99
0174600600999992000110812004+29360-010170FM-12+0066GMMF V0202801N001012200019N0070001N1+01751+01351101001ADDAA199000091GA1031+004809069GF103991031051004501001001MD1110041+9999REMSYN076AAXX  08124 60060 32457 32802 10175 20135 40100 51004 83500 333 83616 95300;EQDQ01  00002PRCP99
0190600600999992000110815004+29360-010170FM-12+0066GMMF V0203201N002112200019N0080001N1+01751+01391100911ADDAA199000091GA1011+004809069GF101991999051004501001001MD1810091+9999REMSYN076AAXX  08154 60060 32458 13204 10175 20139 40091 58009 82500 333 81616 95300;EQDQ01+000022SCOTLCQ02  00002PRCP99
0175600600999992000110818004+29360-010170FM-12+0066GMMF V0202601N002112200019N0080001N1+01751+01211100951ADDAA199000091GA1001+999999999GF100991001001999999001001KA1999M+01831MD1310041+9999REMSYN064AAXX  08184 60060 32958 02604 10175 20121 40095 53004 333 10183;EQDQ01  00002PRCP99
0152600600999992000110821004+29360-010170FM-12+0066GMMF V0203201N002112200019N0060001N1+01601+01181100991ADDAA199000091GA1001+999999999GF100991001001999999001001MD1110041+9999REMSYN054AAXX  08214 60060 32956 03204 10160 20118 40099 51004;EQDQ01  00002PRCP99
0152600600999992000110909004+29360-010170FM-12+0066GMMF V0201001N001012200019N0070001N1+01651+00921101171ADDAA199000091GA1001+999999999GF100991001001999999001001MD1310131+9999REMSYN054AAXX  09094 60060 32957 01002 10165 20092 40117 53013;EQDQ01  00002PRCP99
0152600600999992000110912004+29360-010170FM-12+0066GMMF V0200201N002112200019N0070001N1+01741+01241101281ADDAA199000091GA1001+999999999GF100991001001999999001001MD1110111+9999REMSYN054AAXX  09124 60060 32957 00204 10174 20124 40128 51011;EQDQ01  00002PRCP99
0174600600999992000110915004+29360-010170FM-12+0066GMMF V0202801N002612200019N0070001N1+01751+01331101191ADDAA199000091GA1011+004809069GF102991011051004501001011MD1610091+9999REMSYN076AAXX  09154 60060 32457 22805 10175 20133 40119 56009 81501 333 81616 95300;EQDQ01  00002PRCP99
0193600600999992000110918004+29360-010170FM-12+0066GMMF V0203601N001512200019N0070001N1+01651+01221101191ADDAA199000091GA1011+060009009GF101991001001999999001011KA1120M+01871MD1510001+9999REMSYN082AAXX  09184 60060 32957 13603 10165 20122 40119 55000 80001 333 10187 81070 95300;EQDQ01  00002PRCP99
0152600600999992000110921004+29360-010170FM-12+0066GMMF V0200801N001512200019N0060001N1+01571+01271101321ADDAA199000091GA1001+999999999GF100991001001999999001001MD1310121+9999REMSYN054AAXX  09214 60060 32956 00803 10157 20127 40132 53012;EQDQ01  00002PRCP99
0167600600999992000111006004+29360-010170FM-12+0066GMMF V0202001N002612200019N0060001N1+01501+01191101241ADDAA199000091GA1001+999999999GF100991001001999999001001KA1120N+01401REMSYN070AAXX  10064 60060 32956 02005 10150 20119 40124 5//// 333 20140 30003;EQDQ01  00002PRCP99
0174600600999992000111009004+29360-010170FM-12+0066GMMF V0202001N002110600019N0080001N1+01651+01301101321ADDAA199000091GA1061+060009009GF106991001001999999001011MD1110071+9999REMSYN076AAXX  10094 60060 32958 62004 10165 20130 40132 51007 80001 333 86070 95300;EQDQ01  00002PRCP99
0168600600999992000111012004+29360-010170FM-12+0066GMMF V0203401N002110600019N0060001N1+01871+01151101451ADDAA199000091GA1051+060009019GF105991001001999999001021MD1010021+9999REMSYN070AAXX  10124 60060 32956 53404 10187 20115 40145 50002 80002 333 85070;EQDQ01  00002PRCP99
0196600600999992000111015004+29360-010170FM-12+0066GMMF V0202801N002110150019N0100001N1+01811+01361101161ADDAA199000091GA1011+006009069GA2051+015009009GF106991011051004501001021MD1710161+9999REMSYN082AAXX  10154 60060 32460 62804 10181 20136 40116 57016 81502 333 81620 85050 95300;EQDQ01  00002PRCP99
0193600600999992000111018004+29360-010170FM-12+0066GMMF V0203201N001510600019N0100001N1+01701+01401101161ADDAA199000091GA1051+060009009GF105991001001999999001021KA1120M+01841MD1410001+9999REMSYN082AAXX  10184 60060 32960 53203 10170 20140 40116 54000 80002 333 10184 85070 95300;EQDQ01  00002PRCP99
0174600600999992000111021004+29360-010170FM-12+0066GMMF V0209999C000010600019N0080001N1+01601+01341101251ADDAA199000091GA1051+060009009GF105991001001999999001021MD1110091+9999REMSYN076AAXX  10214 60060 32958 50000 10160 20134 40125 51009 80002 333 85070 95300;EQDQ01  00002PRCP99
0185600600999992000111106004+29360-010170FM-12+0066GMMF V0201601N001510600019N0080001N1+01361+01191101251ADDAA199000091GA1051+060009009GF105991001001999999001021KA1120N+01361REMSYN088AAXX  11064 60060 32958 51603 10136 20119 40125 5/000 80002 333 20136 30011 85070 95300;EQDQ01  00002PRCP99
0174600600999992000111109004+29360-010170FM-12+0066GMMF V0201401N001010060019N0100001N1+01501+01291101341ADDAA199000091GA1061+006009069GF106991061051004501001001MD1210091+9999REMSYN076AAXX  11094 60060 32460 61402 10150 20129 40134 52009 86500 333 86620 95300;EQDQ01  00002PRCP99
0174600600999992000111112004+29360-010170FM-12+0066GMMF V0202801N002112200019N0100001N1+01801+01461101431ADDAA199000091GA1011+006009069GF102991021051004501001021MD1110101+9999REMSYN076AAXX  11124 60060 32460 22804 10180 20146 40143 51010 82502 333 81620 95300;EQDQ01  00002PRCP99
0193600600999992000111118004+29360-010170FM-12+0066GMMF V0203201N001012200019N0100001N1+01721+01431101351ADDAA199000091GA1021+030009039GF104991021001999999031021KA1120M+01991MD1310081+9999REMSYN082AAXX  11184 60060 32960 43202 10172 20143 40135 53008 82032 333 10199 82360 95300;EQDQ01  00002PRCP99
0154600600999992000111121004+29360-010170FM-12+0066GMMF V0200401N001512200019N0080001N1+01631+01321101461ADDAA199000091GA1021+030009039GF103991021001999999031021REMSYN070AAXX  11214 60060 32958 30403 10163 20132 40146 82032 333 82360 95300;EQDQ01  00002PRCP99
0194600600999992000111206004+29360-010170FM-12+0066GMMF V0200801N002110240019N0100001N1+02011+00981101411ADDAA124000391GA1031+006009089GA2041+024009039GF106991031021004501081001KA1120N+01551REMSYN100AAXX  12064 60060 12460 60804 10201 20098 40141 5//// 69934 83280 333 20155 30004 83820 84358 95300;
0164600600999992000111209004+29360-010170FM-12+0066GMMF V0202001N00361036001CN0080001N1+01901+01221101551ADDAY161031GA1021+006009089GF106991021021004501071021MD1310141+9999MW1011REMSYN082AAXX  12094 60060 41458 62007 10190 20122 40155 53014 7016/ 82272 333 82820 83358;
0233600600999992000111212004+29360-010170FM-12+0066GMMF V0201401N007710240019N0080001N1+02801+00781101621ADDAA106000191AY161061AY221061GA1021+006009089GA2011+009009099GA3031+024009039GF106991011091008001031001MD1110121+9999MW1031REMSYN100AAXX  12124 60060 11558 61415 10280 20078 40162 51012 69911 70362 81930 333 82820 81930 83358 95300;
0174600600999992000111215004+29360-010170FM-12+0066GMMF V0201401N005112200019N0080001N1+02881+00781101491ADDAA199000091GA1031+006009089GF104991031021008001031001MD1610131+9999REMSYN076AAXX  12154 60060 32558 41410 10288 20078 40149 56013 83230 333 83820 95300;EQDQ01  00002PRCP99
0193600600999992000111218004+29360-010170FM-12+0066GMMF V0201601N006712200019N0080001N1+02731+00721101501ADDAA199000091GA1021+024009039GF104991021001008001031021KA1120M+02901MD1310011+9999REMSYN082AAXX  12184 60060 32558 41613 10273 20072 40150 53001 82032 333 10290 82358 83067;EQDQ01  00002PRCP99
0190600600999992000111221004+29360-010170FM-12+0066GMMF V0201401N005112200019N0070001N1+02601+00731101541ADDAA199000091GA1031+051009009GF199999001001999999001021MD1310041+9999REMSYN076AAXX  12214 60060 32957 21410 10260 20073 40154 53004 80002 333 83067 95300;EQDQ01+000022SCOTCVQ02  00002PRCP99
0172600600999992000111306004+29360-010170FM-12+0066GMMF V0209999C000010240019N0080001N1+02511+00691101461ADDAA124000191GA1061+024009039GF106991061001999999071001KA1120N+02301REMSYN094AAXX  13064 60060 12958 60000 10251 20069 40146 5//// 69914 86070 333 20230 30013 86358 95300;
0196600600999992000111309004+29360-010170FM-12+0066GMMF V0202201N004112200019N0100001N1+02241+01221101641ADDAA199000091GA1011+006009069GA2041+024009039GF104991011051008001031001MD1110181+9999REMSYN082AAXX  13094 60060 32560 42208 10224 20122 40164 51018 81530 333 81620 84358 95300;EQDQ01  00002PRCP99
0193600600999992000111318004+29360-010170FM-12+0066GMMF V0200201N002610240019N0100001N1+02321+01411101421ADDAA199000091GA1061+024009039GF106991061001999999031001KA1120M+02691MD1710041+9999REMSYN082AAXX  13184 60060 32960 60205 10232 20141 40142 57004 86030 333 10269 86358 95300;EQDQ01  00002PRCP99
0174600600999992000111321004+29360-010170FM-12+0066GMMF V0200401N002110240019N0100001N1+02171+01361101361ADDAA199000091GA1051+024009039GF105991051001999999071001MD1610061+9999REMSYN076AAXX  13214 60060 32960 50404 10217 20136 40136 56006 85070 333 85358 95300;EQDQ01  00002PRCP99
0185600600999992000111406004+29360-010170FM-12+0066GMMF V0200401N001512200019N0100001N1+01721+01461101241ADDAA199000091GA1021+030009039GF102991021001999999031001KA1120N+01621REMSYN088AAXX  14064 60060 32960 20403 10172 20146 40124 5/007 82030 333 20162 30015 82360 95300;EQDQ01  00002PRCP99
0174600600999992000111409004+29360-010170FM-12+0066GMMF V0200401N001010060019N0080001N1+01711+01521101321ADDAA199000091GA1051+006009069GF106991051051004501031001MD1210071+9999REMSYN076AAXX  14094 60060 32458 60402 10171 20152 40132 52007 85530 333 85620 95300;EQDQ01  00002PRCP99
0174600600999992000111412004+29360-010170FM-12+0066GMMF V0203201N001512200019N0100001N1+01871+01571101401ADDAA199000091GA1021+006009069GF103991021051008001031001MD1210091+9999REMSYN076AAXX  14124 60060 32560 33203 10187 20157 40140 52009 82530 333 82620 95300;EQDQ01  00002PRCP99
0174600600999992000111415004+29360-010170FM-12+0066GMMF V0203601N002610060019N0080001N1+01901+01531101321ADDAA199000091GA1051+006009069GF105991051051008001001001MD1810081+9999REMSYN076AAXX  14154 60060 32558 53605 10190 20153 40132 58008 85500 333 85620 95300;EQDQ01  00002PRCP99
0193600600999992000111418004+29360-010170FM-12+0066GMMF V0200401N002612200019N0080001N1+01861+01531101361ADDAA199000091GA1021+006009069GF102991021051008001001001KA1120M+01981MD1210011+9999REMSYN082AAXX  14184 60060 32558 20405 10186 20153 40136 52001 82500 333 10198 82620 95300;EQDQ01  00002PRCP99
0174600600999992000111421004+29360-010170FM-12+0066GMMF V0200601N001510060019N0080001N1+01791+01471101401ADDAA199000091GA1051+006009069GF105991051051008001001001MD1210041+9999REMSYN076AAXX  14214 60060 32558 50603 10179 20147 40140 52004 85500 333 85620 95300;EQDQ01  00002PRCP99
0167600600999992000111506004+29360-010170FM-12+0066GMMF V0200801N001012200019N0080001N1+01521+01251101421ADDAA199000091GA1001+999999999GF100991001001999999001001KA1120N+01481REMSYN070AAXX  15064 60060 32958 00802 10152 20125 40142 5//// 333 20148 30004;EQDQ01  00002PRCP99
0164600600999992000111509004+29360-010170FM-12+0066GMMF V0200401N00211009001CN0080001N1+01401+01311101581ADDAY161031GA1041+003909089GF106991061081004501001001MD1210151+9999MW1251REMSYN082AAXX  15094 60060 41458 60404 10140 20131 40158 52015 7256/ 86800 333 84813 95300;
0211600600999992000111512004+29360-010170FM-12+0066GMMF V0200201N005110048019N0100001N1+01721+01281101661ADDAA106002091AY181061AY261061GA1021+003609089GA2051+004809069GF105991051081004501001001MD1010091+9999MW1011REMSYN094AAXX  15124 60060 11460 50210 10172 20128 40166 50009 60021 70186 85800 333 82812 85616 95300;
0155600600999992000111515004+29360-010170FM-12+0066GMMF V0203601N005112200019N0150001N1+01701+00941101611ADDAA199000021GA1021+003609089GF102991021081004501001001MD1810051+9999REMSYN076AAXX  15154 60060 32465 23610 10170 20094 40161 58005 82800 333 82812 95300;
0180600600999992000111518004+29360-010170FM-12+0066GMMF V0200201N005712200019N0150001N1+01661+00911101651ADDAA112002091GA1011+003609089GF102991021081004501001001KA1120M+01811MD1310041+9999REMSYN088AAXX  15184 60060 12465 20211 10166 20091 40165 53004 60022 82800 333 10181 81812 95300;
0133600600999992000111521004+29360-010170FM-12+0066GMMF V0200201N007212200019N0080001N1+01601+00931101741ADDAA199000021GA1001+999999999GF100991001001999999001001MD1310081+9999REMSYN054AAXX  15214 60060 32958 00214 10160 20093 40174 53008;
0154600600999992000111606004+29360-010170FM-12+0066GMMF V0200401N003112200019N0080001N1+01471+00841101771ADDAA124002091GA1001+999999999GF100991001001999999001001KA1120N+01451REMSYN076AAXX  16064 60060 12958 00406 10147 20084 40177 5//// 60024 333 20145 30005;
0152600600999992000111609004+29360-010170FM-12+0066GMMF V0201201N001512200019N0100001N1+01561+01011101921ADDAA199000091GA1001+999999999GF100991001001999999001001MD1310151+9999REMSYN054AAXX  16094 60060 32960 01203 10156 20101 40192 53015;EQDQ01  00002PRCP99
0152600600999992000111612004+29360-010170FM-12+0066GMMF V0202801N002612200019N0120001N1+01671+01041101961ADDAA199000091GA1001+999999999GF100991001001999999001001MD1010041+9999REMSYN054AAXX  16124 60060 32962 02805 10167 20104 40196 50004;EQDQ01  00002PRCP99
0174600600999992000111615004+29360-010170FM-12+0066GMMF V0203201N002112200019N0120001N1+01691+01001101851ADDAA199000091GA1021+006009069GF102991021051008001001001MD1710111+9999REMSYN076AAXX  16154 60060 32562 23204 10169 20100 40185 57011 82500 333 82620 95300;EQDQ01  00002PRCP99
0193600600999992000111618004+29360-010170FM-12+0066GMMF V0203601N001512200019N0100001N1+01641+01101101851ADDAA199000091GA1011+006009069GF101991011051008001001001KA1120M+01751MD1410001+9999REMSYN082AAXX  16184 60060 32560 13603 10164 20110 40185 54000 81500 333 10175 81620 95300;EQDQ01  00002PRCP99
0174600600999992000111621004+29360-010170FM-12+0066GMMF V0201601N001012200019N0100001N1+01521+01071101961ADDAA199000091GA1011+006009069GF101991011051008001001001MD1210111+9999REMSYN076AAXX  16214 60060 32560 11602 10152 20107 40196 52011 81500 333 81620 95300;EQDQ01  00002PRCP99
0173600600999992000111706004+29360-010170FM-12+0066GMMF V0200801N002112200019N0100001N1+01401+00761101971ADDAA199000091GA1001+999999999GF100991001001999999001001KA1120N+01301REMSYN076AAXX  17064 60060 32960 00804 10140 20076 40197 5/001 333 20130 30007 95300;EQDQ01  00002PRCP99
0162600600999992000111709004+29360-010170FM-12+0066GMMF V0200801N001012200019N0120001N1+01441+00801102131ADDAA199000091GA1001+999999999GF100991001001999999001001MD1310161+9999REMSYN064AAXX  17094 60060 32962 00802 10144 20080 40213 53016 333 95300;EQDQ01  00002PRCP99
0162600600999992000111712004+29360-010170FM-12+0066GMMF V0202801N002612200019N0150001N1+01721+01101102221ADDAA199000091GA1001+999999999GF100991001001999999001001MD1110101+9999REMSYN064AAXX  17124 60060 32965 02805 10172 20110 40222 51010 333 95300;EQDQ01  00002PRCP99
0152600600999992000111715004+29360-010170FM-12+0066GMMF V0203401N002612200019N0150001N1+01711+01311102081ADDAA199000091GA1001+999999999GF100991001001999999001001MD1810141+9999REMSYN054AAXX  17154 60060 32965 03405 10171 20131 40208 58014;EQDQ01  00002PRCP99
0175600600999992000111718004+29360-010170FM-12+0066GMMF V0200401N001512200019N0120001N1+01631+01331102091ADDAA199000091GA1001+999999999GF100991001001999999001001KA1999M+01781MD1310011+9999REMSYN064AAXX  17184 60060 32962 00403 10163 20133 40209 53001 333 10178;EQDQ01  00002PRCP99
0152600600999992000111721004+29360-010170FM-12+0066GMMF V0201401N001512200019N0080001N1+01521+01071102111ADDAA199000091GA1001+999999999GF100991001001999999001001MD1310031+9999REMSYN054AAXX  17214 60060 32958 01403 10152 20107 40211 53003;EQDQ01  00002PRCP99
0185600600999992000111806004+29360-010170FM-12+0066GMMF V0201601N001512200019N0080001N1+01451+01031101981ADDAA199000091GA1021+004809069GF102991021051004501001001KA1120N+01371REMSYN088AAXX  18064 60060 32458 21603 10145 20103 40198 5//// 82500 333 20137 30005 82616 95300;EQDQ01  00002PRCP99
0152600600999992000111809004+29360-010170FM-12+0066GMMF V0201801N001512200019N0100001N1+01511+01101102081ADDAA199000091GA1001+999999999GF100991001001999999001001MD1310101+9999REMSYN054AAXX  18094 60060 32960 01803 10151 20110 40208 53010;EQDQ01  00002PRCP99
0152600600999992000111812004+29360-010170FM-12+0066GMMF V0202801N004112200019N0120001N1+01701+01151102121ADDAA199000091GA1001+999999999GF100991001001999999001001MD1010041+9999REMSYN054AAXX  18124 60060 32962 02808 10170 20115 40212 50004;EQDQ01  00002PRCP99
0152600600999992000111815004+29360-010170FM-12+0066GMMF V0202801N003112200019N0120001N1+01751+01231101921ADDAA199000091GA1001+999999999GF100991001001999999001001MD1610191+9999REMSYN054AAXX  18154 60060 32962 02806 10175 20123 40192 56019;EQDQ01  00002PRCP99
0175600600999992000111818004+29360-010170FM-12+0066GMMF V0202401N002112200019N0120001N1+01611+01171101921ADDAA199000091GA1001+999999999GF100991001001999999001001KA1999M+01801MD1510011+9999REMSYN064AAXX  18184 60060 32962 02404 10161 20117 40192 55001 333 10180;EQDQ01  00002PRCP99
0152600600999992000111821004+29360-010170FM-12+0066GMMF V0201801N002612200019N0080001N1+01481+01151102001ADDAA199000091GA1001+999999999GF100991001001999999001001MD1210081+9999REMSYN054AAXX  18214 60060 32958 01805 10148 20115 40200 52008;EQDQ01  00002PRCP99
0167600600999992000111906004+29360-010170FM-12+0066GMMF V0201801N001512200019N0080001N1+01411+01031101901ADDAA199000091GA1001+999999999GF100991001001999999001001KA1120N+01331REMSYN070AAXX  19064 60060 32958 01803 10141 20103 40190 5//// 333 20133 30006;EQDQ01  00002PRCP99
0174600600999992000111909004+29360-010170FM-12+0066GMMF V0201801N001512200019N0080001N1+01501+01091101961ADDAA199000091GA1021+060009009GF102991001001999999001021MD1310071+9999REMSYN076AAXX  19094 60060 32958 21803 10150 20109 40196 53007 80002 333 82070 95300;EQDQ01  00002PRCP99
0174600600999992000111912004+29360-010170FM-12+0066GMMF V02099999999992200019N0080001N1+01701+01151101971ADDAA199000091GA1021+060009009GF102991001001999999001021MD1110011+9999REMSYN076AAXX  19124 60060 32958 2//// 10170 20115 40197 51001 80002 333 82070 95300;EQDQ01  00002PRCP99
0174600600999992000111915004+29360-010170FM-12+0066GMMF V0203001N002112200019N0100001N1+01691+01141101821ADDAA199000091GA1021+006009069GF104991021051008001001021MD1710151+9999REMSYN076AAXX  19154 60060 32560 43004 10169 20114 40182 57015 82502 333 82620 95300;EQDQ01  00002PRCP99
0193600600999992000111918004+29360-010170FM-12+0066GMMF V0200201N001512200019N0100001N1+01651+01201101811ADDAA199000091GA1011+060009009GF101991001001999999001021KA1120M+01751MD1610011+9999REMSYN082AAXX  19184 60060 32960 10203 10165 20120 40181 56001 80002 333 10175 81070 95300;EQDQ01  00002PRCP99
0174600600999992000111921004+29360-010170FM-12+0066GMMF V0200801N001012200019N0080001N1+01521+01221101921ADDAA199000091GA1021+060009009GF102991001001999999001021MD1210111+9999REMSYN076AAXX  19214 60060 32958 20802 10152 20122 40192 52011 80002 333 82070 95300;EQDQ01  00002PRCP99
0185600600999992000112006004+29360-010170FM-12+0066GMMF V0209999C000010060019N0080001N1+01461+01171101851ADDAA199000091GA1051+006009069GF105991051051008001001001KA1120N+01291REMSYN088AAXX  20064 60060 32558 50000 10146 20117 40185 5/003 85500 333 20129 30011 85620 95300;EQDQ01  00002PRCP99
0174600600999992000112009004+29360-010170FM-12+0066GMMF V0201401N001512200019N0080001N1+01461+01131101891ADDAA199000091GA1011+006009069GF101991011051008001001001MD1310041+9999REMSYN076AAXX  20094 60060 32558 11403 10146 20113 40189 53004 81500 333 81620 95300;EQDQ01  00002PRCP99
0174600600999992000112012004+29360-010170FM-12+0066GMMF V0202401N001512200019N0060001N1+01721+01301101981ADDAA199000091GA1011+006009069GF101991011051008001001001MD1110091+9999REMSYN076AAXX  20124 60060 32556 12403 10172 20130 40198 51009 81500 333 81620 95300;EQDQ01  00002PRCP99
0174600600999992000112015004+29360-010170FM-12+0066GMMF V0203201N002612200019N0100001N1+01711+01311101861ADDAA199000091GA1011+006009069GF101991011051008001001001MD1710121+9999REMSYN076AAXX  20154 60060 32560 13205 10171 20131 40186 57012 81500 333 81620 95300;EQDQ01  00002PRCP99
0193600600999992000112018004+29360-010170FM-12+0066GMMF V0200201N003112200019N0100001N1+01621+01321101891ADDAA199000091GA1011+004809069GF101991011051004501001001KA1120M+01791MD1310071+9999REMSYN082AAXX  20184 60060 32460 10206 10162 20132 40189 53007 81500 333 10179 81616 95300;EQDQ01  00002PRCP99
0152600600999992000112021004+29360-010170FM-12+0066GMMF V0200801N003112200019N0080001N1+01571+01211102011ADDAA199000091GA1001+999999999GF100991001001999999001001MD1310121+9999REMSYN054AAXX  20214 60060 32958 00806 10157 20121 40201 53012;EQDQ01  00002PRCP99
0167600600999992000112106004+29360-010170FM-12+0066GMMF V0201201N001512200019N0080001N1+01541+01241101961ADDAA199000091GA1001+999999999GF100991001001999999001001KA1120N+01511REMSYN070AAXX  21064 60060 32958 01203 10154 20124 40196 5//// 333 20151 30012;EQDQ01  00002PRCP99
0174600600999992000112109004+29360-010170FM-12+0066GMMF V0201001N001012200019N0080001N1+01651+01241102041ADDAA199000091GA1021+004809069GF102991021051999999001001MD1310081+9999REMSYN076AAXX  21094 60060 32958 21002 10165 20124 40204 53008 82500 333 82616 95300;EQDQ01  00002PRCP99
0174600600999992000112112004+29360-010170FM-12+0066GMMF V0203001N002110048019N0080001N1+01651+01391102101ADDAA199000091GA1061+004809069GF106991061051004501001001MD1110061+9999REMSYN076AAXX  21124 60060 32458 63004 10165 20139 40210 51006 86500 333 86616 95300;EQDQ01  00002PRCP99
0174600600999992000112115004+29360-010170FM-12+0066GMMF V0203601N002612200019N0080001N1+01841+01431101961ADDAA199000091GA1031+004809069GF103991031051004501001001MD1610131+9999REMSYN076AAXX  21154 60060 32458 33605 10184 20143 40196 56013 83500 333 83616 95300;EQDQ01  00002PRCP99
0175600600999992000112118004+29360-010170FM-12+0066GMMF V0200201N001512200019N0070001N1+01651+01351101971ADDAA199000091GA1001+999999999GF100991001001999999001001KA1999M+01861MD1410001+9999REMSYN064AAXX  21184 60060 32957 00203 10165 20135 40197 54000 333 10186;EQDQ01  00002PRCP99
0152600600999992000112121004+29360-010170FM-12+0066GMMF V0200601N002112200019N0060001N1+01501+01231102041ADDAA199000091GA1001+999999999GF100991001001999999001001MD1110071+9999REMSYN054AAXX  21214 60060 32956 00604 10150 20123 40204 51007;EQDQ01  00002PRCP99
0185600600999992000112206004+29360-010170FM-12+0066GMMF V0200801N003110048019N0060001N1+01551+01191101971ADDAA199000091GA1051+004809069GF105991051051004501001001KA1120N+01381REMSYN088AAXX  22064 60060 32456 50806 10155 20119 40197 5//// 85500 333 20138 30011 85616 95300;EQDQ01  00002PRCP99
0174600600999992000112209004+29360-010170FM-12+0066GMMF V0201401N002112200019N0080001N1+01571+01211102081ADDAA199000091GA1031+004809069GF103991031051004501001001MD1310111+9999REMSYN076AAXX  22094 60060 32458 31404 10157 20121 40208 53011 83500 333 83616 95300;EQDQ01  00002PRCP99
0174600600999992000112212004+29360-010170FM-12+0066GMMF V0203001N002112200019N0080001N1+01801+01331102091ADDAA199000091GA1011+004809069GF101991011051004501001001MD1010021+9999REMSYN076AAXX  22124 60060 32458 13004 10180 20133 40209 50002 81500 333 81616 95300;EQDQ01  00002PRCP99
0174600600999992000112215004+29360-010170FM-12+0066GMMF V0202401N001512200019N0080001N1+01851+01371102041ADDAA199000091GA1021+004809069GF102991021051004501001001MD1710051+9999REMSYN076AAXX  22154 60060 32458 22403 10185 20137 40204 57005 82500 333 82616 95300;EQDQ01  00002PRCP99
0193600600999992000112218004+29360-010170FM-12+0066GMMF V0203601N001512200019N0080001N1+01741+01351102051ADDAA199000091GA1011+004809069GF101991011051004501001001KA1120M+01871MD1410001+9999REMSYN082AAXX  22184 60060 32458 13603 10174 20135 40205 54000 81500 333 10187 81616 95300;EQDQ01  00002PRCP99
0174600600999992000112221004+29360-010170FM-12+0066GMMF V0200601N001512200019N0080001N1+01601+01301102121ADDAA199000091GA1021+004809069GF102991021051004501001001MD1310071+9999REMSYN076AAXX  22214 60060 32458 20603 10160 20130 40212 53007 82500 333 82616 95300;EQDQ01  00002PRCP99
0185600600999992000112306004+29360-010170FM-12+0066GMMF V0201001N001012200019N0080001N1+01401+01121102171ADDAA199000091GA1021+060009009GF102991001001999999001021KA1120N+01291REMSYN088AAXX  23064 60060 32958 21002 10140 20112 40217 5/001 80002 333 20129 30011 82070 95300;EQDQ01  00002PRCP99
0174600600999992000112309004+29360-010170FM-12+0066GMMF V0201201N002112200019N0100001N1+01501+01091102261ADDAA199000091GA1021+060009009GF102991001001999999001021MD1210091+9999REMSYN076AAXX  23094 60060 32960 21204 10150 20109 40226 52009 80002 333 82070 95300;EQDQ01  00002PRCP99
0174600600999992000112312004+29360-010170FM-12+0066GMMF V0202801N001512200019N0100001N1+01801+01181102321ADDAA199000091GA1041+060009009GF104991001001999999001021MD1110061+9999REMSYN076AAXX  23124 60060 32960 42803 10180 20118 40232 51006 80002 333 84070 95300;EQDQ01  00002PRCP99
0196600600999992000112315004+29360-010170FM-12+0066GMMF V0203201N002610600019N0150001N1+01831+01451102171ADDAA199000091GA1021+003909089GA2041+060009009GF105991021021004501001021MD1810141+9999REMSYN082AAXX  23154 60060 32465 53205 10183 20145 40217 58014 82202 333 82813 84070 95300;EQDQ01  00002PRCP99
0215600600999992000112318004+29360-010170FM-12+0066GMMF V0203201N002610900019N0150001N1+01711+01471102201ADDAA199000091GA1011+003909089GA2031+004809069GF105991031081004501001021KA1120M+01871MD1310041+9999REMSYN088AAXX  23184 60060 32465 53205 10171 20147 40220 53004 83802 333 10187 81813 83616 95300;EQDQ01  00002PRCP99
0168600600999992000112321004+29360-010170FM-12+0066GMMF V0202801N001512200019N0100001N1+01661+01441102251ADDAA199000091GA1031+004809059GF104991031051004501001021MD1310051+9999REMSYN070AAXX  23214 60060 32460 42803 10166 20144 40225 53005 83502 333 83616;EQDQ01  00002PRCP99
0185600600999992000112406004+29360-010170FM-12+0066GMMF V0200401N002610048019N0080001N1+01721+01551102121ADDAA199000091GA1061+004809069GF106991061051004501001001KA1120N+01631REMSYN088AAXX  24064 60060 32458 60405 10172 20155 40212 5//// 86500 333 20163 30004 86616 95300;EQDQ01  00002PRCP99
0196600600999992000112409004+29360-010170FM-12+0066GMMF V0200401N003110600019N0100001N1+01751+01481102191ADDAA199000091GA1021+004809069GA2041+060009009GF105991021051004501001021MD1310081+9999REMSYN082AAXX  24094 60060 32460 50406 10175 20148 40219 53008 82502 333 82616 84070 95300;EQDQ01  00002PRCP99
0174600600999992000112412004+29360-010170FM-12+0066GMMF V0200201N003612200019N0080001N1+01861+01531102241ADDAA199000091GA1011+004809069GF104991011051999999001021MD1110051+9999REMSYN076AAXX  24124 60060 32958 40207 10186 20153 40224 51005 81502 333 81616 83070;EQDQ01  00002PRCP99
0190600600999992000112415004+29360-010170FM-12+0066GMMF V0200201N003610600019N0080001N1+01901+01451102151ADDAA199000091GA1051+060009009GF105991001001999999001021MD1810091+9999REMSYN076AAXX  24154 60060 32458 50207 10190 20145 40215 58009 80002 333 85070 95300;EQDQ01+004502SCOLCBQ02  00002PRCP99
0193600600999992000112418004+29360-010170FM-12+0066GMMF V0200401N003612200019N0080001N1+01821+01511102171ADDAA199000091GA1021+060009009GF102991001001999999001021KA1120M+01931MD1010021+9999REMSYN082AAXX  24184 60060 32958 20407 10182 20151 40217 50002 80002 333 10193 82070 95300;EQDQ01  00002PRCP99
0152600600999992000112421004+29360-010170FM-12+0066GMMF V0200801N002112200019N0060001N1+01831+01511102241ADDAA199000091GA1001+999999999GF100991001001999999001001MD1110071+9999REMSYN054AAXX  24214 60060 32956 00804 10183 20151 40224 51007;EQDQ01  00002PRCP99
0185600600999992000112506004+29360-010170FM-12+0066GMMF V0201801N002110048019N0060001N1+01701+01501102141ADDAA199000091GA1051+004809069GF105991051051004501001001KA1120N+01561REMSYN088AAXX  25064 60060 32456 51804 10170 20150 40214 5//// 85500 333 20156 30010 85616 95300;EQDQ01  00002PRCP99
0152600600999992000112509004+29360-010170FM-12+0066GMMF V0200401N001512200019N0070001N1+01681+01421102261ADDAA199000091GA1001+999999999GF100991001001999999001001MD1310121+9999REMSYN054AAXX  25094 60060 32957 00403 10168 20142 40226 53012;EQDQ01  00002PRCP99
0152600600999992000112512004+29360-010170FM-12+0066GMMF V0202401N002612200019N0080001N1+01921+01471102321ADDAA199000091GA1001+999999999GF100991001001999999001001MD1010061+9999REMSYN054AAXX  25124 60060 32958 02405 10192 20147 40232 50006;EQDQ01  00002PRCP99
0174600600999992000112515004+29360-010170FM-12+0066GMMF V0202601N002112200019N0100001N1+01951+01441102191ADDAA199000091GA1011+004809069GF101991011051008001001001MD1710121+9999REMSYN076AAXX  25154 60060 32560 12604 10195 20144 40219 57012 81500 333 81616 95300;EQDQ01  00002PRCP99
0193600600999992000112518004+29360-010170FM-12+0066GMMF V0203201N002112200019N0080001N1+01871+01591102191ADDAA199000091GA1031+004809069GF103991031051008001001001KA1120M+02041MD1410001+9999REMSYN082AAXX  25184 60060 32558 33204 10187 20159 40219 54000 83500 333 10204 83616 95300;EQDQ01  00002PRCP99
0174600600999992000112521004+29360-010170FM-12+0066GMMF V0200201N001012200019N0080001N1+01731+01511102321ADDAA199000091GA1021+004809069GF102991021051004501001001MD1310121+9999REMSYN076AAXX  25214 60060 32458 20202 10173 20151 40232 53012 82500 333 82616 95300;EQDQ01  00002PRCP99
0173600600999992000112606004+29360-010170FM-12+0066GMMF V0202201N001512200019N0080001N1+01621+01521102221ADDAA199000091GA1001+999999999GF100991001001999999001001KA1120N+01441REMSYN076AAXX  26064 60060 32958 02203 10162 20152 40222 5/003 333 20144 30010 95300;EQDQ01  00002PRCP99
0152600600999992000112612004+29360-010170FM-12+0066GMMF V0209999C000012200019N0100001N1+01901+01381102331ADDAA199000091GA1001+999999999GF100991001001999999001001MD1110041+9999REMSYN054AAXX  26124 60060 32960 00000 10190 20138 40233 51004;EQDQ01  00002PRCP99
0194600600999992000112615004+29360-010170FM-12+0066GMMF V0202801N002610030019N0035001N1+01731+01441102251ADDAA199000091AY111031GA1081+003009079GF108991081061004501999999MD1810081+9999MW1101REMSYN082AAXX  26154 60060 31435 82805 10173 20144 40225 58008 7101/ 886// 333 88710 95310;EQDQ01  00002PRCP99
0213600600999992000112618004+29360-010170FM-12+0066GMMF V0202801N001510024019N0012001N1+01561+01511102381ADDAA199000091AY111061GA1081+002409079GF108991081061002501999999KA1120M+01921MD1310131+9999MW1101REMSYN088AAXX  26184 60060 31312 82803 10156 20151 40238 53013 7101/ 886// 333 10192 88708 95360;EQDQ01  00002PRCP99
0172600600999992000112621004+29360-010170FM-12+0066GMMF V0202201N002112200019N0040001N1+01491+01401102381ADDAA199000091AY111031GA1001+999999999GF100991001001999999001001MD1010001+9999MW1101REMSYN060AAXX  26214 60060 31940 02204 10149 20140 40238 50000 7101/;EQDQ01  00002PRCP99
0167600600999992000112706004+29360-010170FM-12+0066GMMF V0209999C000012200019N0060001N1+01551+00911102221ADDAA199000091GA1001+999999999GF100991001001999999001001KA1120N+01241REMSYN070AAXX  27064 60060 32956 00000 10155 20091 40222 5//// 333 20124 30005;EQDQ01  00002PRCP99
0194600600999992000112709004+29360-010170FM-12+0066GMMF V0202001N001512200019N0040001N1+01491+01211102321ADDAA199000091AY101031GA1031+003009079GF103991031061004501001001MD1310101+9999MW1101REMSYN082AAXX  27094 60060 31440 32003 10149 20121 40232 53010 7100/ 83600 333 83710 95300;EQDQ01  00002PRCP99
0174600600999992000112712004+29360-010170FM-12+0066GMMF V0202801N001012200019N0080001N1+02191+01351102241ADDAA199000091GA1021+060009009GF102991001001999999001021MD1010061+9999REMSYN076AAXX  27124 60060 32958 22802 10219 20135 40224 50006 80002 333 82070 95300;EQDQ01  00002PRCP99
0174600600999992000112715004+29360-010170FM-12+0066GMMF V0203001N002110600019N0080001N1+02381+00961102081ADDAA199000091GA1051+060009009GF105991001001999999001021MD1810161+9999REMSYN076AAXX  27154 60060 32958 53004 10238 20096 40208 58016 80002 333 85070 95300;EQDQ01  00002PRCP99
0193600600999992000112718004+29360-010170FM-12+0066GMMF V0200201N002612200019N0100001N1+02251+00681102111ADDAA199000091GA1031+060009009GF103991001001999999001021KA1120M+02491MD1310031+9999REMSYN082AAXX  27184 60060 32960 30205 10225 20068 40211 53003 80002 333 10249 83070 95300;EQDQ01  00002PRCP99
0174600600999992000112721004+29360-010170FM-12+0066GMMF V0202801N001012200019N0060001N1+02361+00611102141ADDAA199000091GA1021+060009009GF102991001001999999001021MD1210031+9999REMSYN076AAXX  27214 60060 32956 22802 10236 20061 40214 52003 80002 333 82070 95300;EQDQ01  00002PRCP99
0185600600999992000112806004+29360-010170FM-12+0066GMMF V0201001N001012200019N0060001N1+02111+00821101911ADDAA199000091GA1021+060009009GF103991001001999999001021KA1120N+01951REMSYN088AAXX  28064 60060 32956 31002 10211 20082 40191 5//// 80002 333 20195 30015 82070 95300;EQDQ01  00002PRCP99
0174600600999992000112809004+29360-010170FM-12+0066GMMF V0201601N007212200019N0070001N1+02581+00781101891ADDAA199000091GA1031+024009039GF104991031001999999031021MD1010001+9999REMSYN076AAXX  28094 60060 32957 41614 10258 20078 40189 50000 83032 333 83358 95300;EQDQ01  00002PRCP99
0174600600999992000112812004+29360-010170FM-12+0066GMMF V0201601N012312200019N0120001N1+02921+00791101911ADDAA199000091GA1021+024009039GF103991021001999999031021MD1010021+9999REMSYN076AAXX  28124 60060 32962 31624 10292 20079 40191 50002 82032 333 82358 95300;EQDQ01  00002PRCP99
0174600600999992000112815004+29360-010170FM-12+0066GMMF V0201801N005712200019N0120001N1+03011+00921101721ADDAA199000091GA1011+024009039GF103991011001999999031021MD1710181+9999REMSYN076AAXX  28154 60060 32962 31811 10301 20092 40172 57018 81032 333 81358 95300;EQDQ01  00002PRCP99
0193600600999992000112818004+29360-010170FM-12+0066GMMF V0201801N004112200019N0100001N1+02871+01221101691ADDAA199000091GA1021+024009039GF104991021001999999031021KA1120M+03091MD1610041+9999REMSYN082AAXX  28184 60060 32960 41808 10287 20122 40169 56004 82032 333 10309 82358 95300;EQDQ01  00002PRCP99
0174600600999992000112821004+29360-010170FM-12+0066GMMF V0201601N003112200019N0080001N1+02621+01211101811ADDAA199000091GA1011+024009039GF103991011001999999031021MD1310121+9999REMSYN076AAXX  28214 60060 32958 31606 10262 20121 40181 53012 81032 333 81358 95300;EQDQ01  00002PRCP99
0185600600999992000112906004+29360-010170FM-12+0066GMMF V0201201N002612200019N0080001N1+01821+01351101911ADDAA199000091GA1011+024009039GF103991011001999999031021KA1120N+01761REMSYN088AAXX  29064 60060 32958 31205 10182 20135 40191 5/004 81032 333 20176 30020 81358 95300;EQDQ01  00002PRCP99
0174600600999992000112909004+29360-010170FM-12+0066GMMF V0201201N001512200019N0080001N1+01751+01411102071ADDAA199000091GA1011+024009039GF103991011001999999031021MD1210161+9999REMSYN076AAXX  29094 60060 32958 31203 10175 20141 40207 52016 81032 333 81358 95300;EQDQ01  00002PRCP99
0174600600999992000112912004+29360-010170FM-12+0066GMMF V0203401N001512200019N0080001N1+01981+01601102151ADDAA199000091GA1021+006009069GF103991021051008001001021MD1010081+9999REMSYN076AAXX  29124 60060 32558 33403 10198 20160 40215 50008 82502 333 82620 95300;EQDQ01  00002PRCP99
0174600600999992000112915004+29360-010170FM-12+0066GMMF V0203601N003112200019N0080001N1+01951+01661102011ADDAA199000091GA1021+006009069GF104991021051004501001021MD1810151+9999REMSYN076AAXX  29154 60060 32458 43606 10195 20166 40201 58015 82502 333 82620 95300;EQDQ01  00002PRCP99
0193600600999992000112918004+29360-010170FM-12+0066GMMF V0203601N003112200019N0080001N1+01881+01651101991ADDAA199000091GA1021+006009069GF102991021051008001001001KA1120M+02011MD1710021+9999REMSYN082AAXX  29184 60060 32558 23606 10188 20165 40199 57002 82500 333 10201 82620 95300;EQDQ01  00002PRCP99
0152600600999992000112921004+29360-010170FM-12+0066GMMF V0202601N002112200019N0080001N1+01731+01511102051ADDAA199000091GA1001+999999999GF100991001001999999001001MD1310051+9999REMSYN054AAXX  29214 60060 32958 02604 10173 20151 40205 53005;EQDQ01  00002PRCP99
0167600600999992000113006004+29360-010170FM-12+0066GMMF V0209999C000012200019N0060001N1+01501+01321102001ADDAA199000091GA1001+999999999GF100991001001999999001001KA1120N+01461REMSYN070AAXX  30064 60060 32956 00000 10150 20132 40200 5//// 333 20146 30012;EQDQ01  00002PRCP99
0202600600999992000113009004+29360-010170FM-12+0066GMMF V0201401N001012200019N0040001N1+01561+01421102051ADDAA199000091AY101031AY201031GA1011+003009079GF103991011061004501001021MD1310091+9999MW1101REMSYN082AAXX  30094 60060 31440 31402 10156 20142 40205 53009 71000 81602 333 81710 95300;EQDQ01  00002PRCP99
0288600600999992000113012004+29360-010170FM-12+0066GMMF V0203401N002110600019N0045001N1+01791+01451102081ADDAA199000091AC12I9AY111061AY211061GA1051+060009009GF105991001001999999001021IA2240+00209KA1120M+02101KA2120N+01411MD1010001+9999MW1101REMSYN124AAXX  30124 60060 31945 53404 10179 20145 40208 50000 71011 80002 333 85070 95300 60096 32960 00206 10210 20141 40193 51003;EQDQ01  00002PRCP99
0196600600999992000113015004+29360-010170FM-12+0066GMMF V0203401N002110600019N0050001N1+01781+01541101931ADDAA199000091GA1041+004809069GA2031+060009009GF106991041051004501001021MD1610151+9999REMSYN082AAXX  30154 60060 32450 63404 10178 20154 40193 56015 84502 333 84616 83070 95300;EQDQ01  00002PRCP99
0193600600999992000113018004+29360-010170FM-12+0066GMMF V0200201N001510048019N0050001N1+01691+01471101981ADDAA199000091GA1051+004809069GF106991051051004501001021KA1120M+01861MD1310041+9999REMSYN082AAXX  30184 60060 32450 60203 10169 20147 40198 53004 85502 333 10186 85616 95300;EQDQ01  00002PRCP99
0174600600999992000113021004+29360-010170FM-12+0066GMMF V0200401N001512200019N0050001N1+01681+01461102031ADDAA199000091GA1031+004809069GF104991031051004501001021MD1310051+9999REMSYN076AAXX  30214 60060 32450 40403 10168 20146 40203 53005 83502 333 83616 95300;EQDQ01  00002PRCP99
0167600600999992000120106004+29360-010170FM-12+0066GMMF V0201801N002112200019N0050001N1+01491+01211102101ADDAA199000091GA1001+999999999GF100991001001999999001001KA1120N+01391REMSYN070AAXX  01064 60060 32950 01804 10149 20121 40210 5//// 333 20139 30010;EQDQ01  00002PRCP99
0152600600999992000120109004+29360-010170FM-12+0066GMMF V0200601N002112200019N0070001N1+01491+01241102201ADDAA199000091GA1001+999999999GF100991001001999999001001MD1310101+9999REMSYN054AAXX  01094 60060 32957 00604 10149 20124 40220 53010;EQDQ01  00002PRCP99
0174600600999992000120112004+29360-010170FM-12+0066GMMF V0203201N002612200019N0080001N1+01751+01461102251ADDAA199000091GA1021+004809069GF102991021051004501001001MD1010061+9999REMSYN076AAXX  01124 60060 32458 23205 10175 20146 40225 50006 82500 333 82616 95300;EQDQ01  00002PRCP99
0174600600999992000120115004+29360-010170FM-12+0066GMMF V0203201N002112200019N0080001N1+01851+01521102171ADDAA199000091GA1031+004809069GF103991031051004501001001MD1710081+9999REMSYN076AAXX  01154 60060 32458 33204 10185 20152 40217 57008 83500 333 83616 95300;EQDQ01  00002PRCP99
0193600600999992000120118004+29360-010170FM-12+0066GMMF V0203601N001510048019N0080001N1+01731+01461102221ADDAA199000091GA1051+004809069GF105991051051004501001001KA1120M+02001MD1210041+9999REMSYN082AAXX  01184 60060 32458 53603 10173 20146 40222 52004 85500 333 10200 85616 95300;EQDQ01  00002PRCP99
0174600600999992000120121004+29360-010170FM-12+0066GMMF V0200801N001512200019N0070001N1+01621+01361102341ADDAA199000091GA1021+004809069GF102991021051004501001001MD1210111+9999REMSYN076AAXX  01214 60060 32457 20803 10162 20136 40234 52011 82500 333 82616 95300;EQDQ01  00002PRCP99
0185600600999992000120206004+29360-010170FM-12+0066GMMF V0201201N002612200019N0060001N1+01801+01271102231ADDAA199000091GA1041+004809069GF104991041051004501001001KA1120N+01601REMSYN088AAXX  02064 60060 32456 41205 10180 20127 40223 5/005 84500 333 20160 30032 84616 95300;EQDQ01  00002PRCP99
0174600600999992000120209004+29360-010170FM-12+0066GMMF V0200401N001010048019N0070001N1+01791+01381102381ADDAA199000091GA1061+004809069GF106991061051004501001001MD1210141+9999REMSYN076AAXX  02094 60060 32457 60402 10179 20138 40238 52014 86500 333 86616 95300;EQDQ01  00002PRCP99
0174600600999992000120212004+29360-010170FM-12+0066GMMF V0200201N001512200019N0080001N1+01921+01471102411ADDAA199000091GA1011+004809069GF101991011051004501001001MD1110031+9999REMSYN076AAXX  02124 60060 32458 10203 10192 20147 40241 51003 81500 333 81616 95300;EQDQ01  00002PRCP99
0174600600999992000120215004+29360-010170FM-12+0066GMMF V0200401N003610048019N0100001N1+01831+01421102351ADDAA199000091GA1071+004809069GF107991071051004501999999MD1810071+9999REMSYN076AAXX  02154 60060 32460 70407 10183 20142 40235 58007 875// 333 87616 95300;EQDQ01  00002PRCP99
0193600600999992000120218004+29360-010170FM-12+0066GMMF V0200401N004110048019N0080001N1+01901+01481102301ADDAA199000091GA1071+004809069GF107991071051004501999999KA1120M+01991MD1410001+9999REMSYN082AAXX  02184 60060 32458 70408 10190 20148 40230 54000 875// 333 10199 87616 95300;EQDQ01  00002PRCP99
0174600600999992000120221004+29360-010170FM-12+0066GMMF V0200801N001012200019N0080001N1+01741+01421102371ADDAA199000091GA1021+004809069GF102991021051004501001001MD1310071+9999REMSYN076AAXX  02214 60060 32458 20802 10174 20142 40237 53007 82500 333 82616 95300;EQDQ01  00002PRCP99
0185600600999992000120306004+29360-010170FM-12+0066GMMF V0201801N002612200019N0080001N1+01651+01391102161ADDAA199000091GA1031+004809069GF103991031051004501001001KA1120N+01611REMSYN088AAXX  03064 60060 32458 31805 10165 20139 40216 5//// 83500 333 20161 30012 83616 95300;EQDQ01  00002PRCP99
0174600600999992000120309004+29360-010170FM-12+0066GMMF V0202001N002610048019N0080001N1+01701+01431102221ADDAA199000091GA1061+004809069GF106991061051004501001001MD1310061+9999REMSYN076AAXX  03094 60060 32458 62005 10170 20143 40222 53006 86500 333 86616 95300;EQDQ01  00002PRCP99
0174600600999992000120312004+29360-010170FM-12+0066GMMF V0203001N002112200019N0100001N1+01851+01331102231ADDAA199000091GA1041+060009009GF104991001001999999001021MD1110021+9999REMSYN076AAXX  03124 60060 32960 43004 10185 20133 40223 51002 80002 333 84070 95300;EQDQ01  00002PRCP99
0174600600999992000120315004+29360-010170FM-12+0066GMMF V0202601N002110600019N0080001N1+01871+01461102131ADDAA199000091GA1061+060009009GF106991001001999999001021MD1610101+9999REMSYN076AAXX  03154 60060 32958 62604 10187 20146 40213 56010 80002 333 86070 95300;EQDQ01  00002PRCP99
0193600600999992000120318004+29360-010170FM-12+0066GMMF V0203201N002112200019N0080001N1+01811+01491102131ADDAA199000091GA1041+060009009GF104991001001999999001021KA1120M+01961MD1510001+9999REMSYN082AAXX  03184 60060 32958 43204 10181 20149 40213 55000 80002 333 10196 84070 95300;EQDQ01  00002PRCP99
0168600600999992000120321004+29360-010170FM-12+0066GMMF V0201601N001012200019N0060001N1+01631+01421102211ADDAA199000091GA1031+060009019GF103991001001999999001021MD1310071+9999REMSYN070AAXX  03214 60060 32956 31602 10163 20142 40221 53007 80002 333 83070;EQDQ01  00002PRCP99
0185600600999992000120406004+29360-010170FM-12+0066GMMF V0201001N002110048019N0060001N1+01511+01411102141ADDAA199000091GA1081+004809069GF108991081051004501999999KA1120N+01471REMSYN088AAXX  04064 60060 32456 81004 10151 20141 40214 5//// 885// 333 20147 30012 88616 95300;EQDQ01  00002PRCP99
0216600600999992000120409004+29360-010170FM-12+0066GMMF V0200801N001510048019N0035001N1+01501+01391102211ADDAA199000091AY121031GA1031+002409079GA2081+004809069GF108991081051002501999999MD1110071+9999MW1101REMSYN088AAXX  04094 60060 31335 80803 10150 20139 40221 51007 7102/ 885// 333 83708 88616 95310;EQDQ01  00002PRCP99
0223600600999992000120412004+29360-010170FM-12+0066GMMF V0202801N002610048019N0040001N1+01571+01361102181ADDAA199000091AY121061AY221061GA1011+002409079GA2081+004809069GF108991081051002501999999MD1810031+9999MW1101REMSYN087AAXX  04124 60060 31340 82805 10157 20136 40218 58003 71022 885// 333 81708 88616 9300;EQDQ01  00002PRCP99
0174600600999992000120415004+29360-010170FM-12+0066GMMF V0203601N002110048019N0050001N1+01671+01371101971ADDAA199000091GA1061+004809069GF106991061051004501001001MD1810211+9999REMSYN076AAXX  04154 60060 32450 63604 10167 20137 40197 58021 86500 333 86616 95300;EQDQ01  00002PRCP99
0215600600999992000120418004+29360-010170FM-12+0066GMMF V0203601N001510600019N0060001N1+01641+01361101921ADDAA199000091GA1011+004809069GA2041+060009009GF105991011051004501001021KA1120M+01681MD1710051+9999REMSYN088AAXX  04184 60060 32456 53603 10164 20136 40192 57005 81502 333 10168 81616 84070 95300;EQDQ01  00002PRCP99
0196600600999992000120421004+29360-010170FM-12+0066GMMF V0209999C000012200019N0060001N1+01561+01371101961ADDAA199000091GA1011+004809069GA2031+060009009GF104991011051004501001021MD1310041+9999REMSYN082AAXX  04214 60060 32456 40000 10156 20137 40196 53004 81502 333 81616 83070 95300;EQDQ01  00002PRCP99
0179600600999992000120506004+29360-010170FM-12+0066GMMF V0201601N001012200019N0060001N1+01581+01371999999ADDAA199000091GA1041+004809069GF104991041051004501001001KA1120N+01451REMSYN082AAXX  05064 60060 32456 41602 10158 20137 5/001 84500 333 20145 30039 84616 95300;EQDQ01  00002PRCP99
0224600600999992000120509004+29360-010170FM-12+0066GMMF V0209999C000010048019N0030001N1+01521+01431102041ADDAA199000091AY121031AY221031GA1021+003009079GA2081+004809069GF108991081051004501999999MD1310081+9999MW1101REMSYN088AAXX  05094 60060 31430 80000 10152 20143 40204 53008 71022 885// 333 82710 88616 95310;EQDQ01  00002PRCP99
0202600600999992000120512004+29360-010170FM-12+0066GMMF V0202801N001010048019N0040001N1+01651+01391102081ADDAA199000091AY121061AY221061GA1061+004809069GF106991061051004501001001MD1110041+9999MW1101REMSYN082AAXX  05124 60060 31440 62802 10165 20139 40208 51004 71022 86500 333 86616 95300;EQDQ01  00002PRCP99
0196600600999992000120515004+29360-010170FM-12+0066GMMF V0203601N002610540019N0050001N1+01671+01411101971ADDAA199000091GA1031+004809069GA2061+054009009GF107991031051004501001021MD1710111+9999REMSYN082AAXX  05154 60060 32450 73605 10167 20141 40197 57011 83502 333 83616 86068 95300;EQDQ01  00002PRCP99
0215600600999992000120518004+29360-010170FM-12+0066GMMF V0200401N002110540019N0050001N1+01641+01411102001ADDAA199000091GA1021+030009039GA2051+054009009GF106991021001999999031021KA1120M+01711MD1310031+9999REMSYN088AAXX  05184 60060 32950 60404 10164 20141 40200 53003 82032 333 10171 82360 85068 95300;EQDQ01  00002PRCP99
0196600600999992000120521004+29360-010170FM-12+0066GMMF V0202001N002110540019N0050001N1+01621+01261101961ADDAA199000091GA1021+030009039GA2041+054009009GF106991021001999999031021MD1710041+9999REMSYN082AAXX  05214 60060 32950 62004 10162 20126 40196 57004 82032 333 82360 84068 95300;EQDQ01  00002PRCP99
0167600600999992000120606004+29360-010170FM-12+0066GMMF V0209999C000012200019N0050001N1+01541+00901101821ADDAA199000091GA1001+999999999GF100991001001999999001001KA1120N+01511REMSYN070AAXX  06064 60060 32950 00000 10154 20090 40182 5//// 333 20151 30010;EQDQ01  00002PRCP99
0218600600999992000120609004+29360-010170FM-12+0066GMMF V0209999C000010540019N0040001N1+01661+01311101891ADDAA199000091AY111031AY211031GA1061+054009009GF106991001001999999001021MD1310071+9999MW1101REMSYN082AAXX  06094 60060 31440 60000 10166 20131 40189 53007 71011 80002 333 86068 95300;EQDQ01+004502SCOLCBQ02  00002PRCP99
0224600600999992000120612004+29360-010170FM-12+0066GMMF V0209999C000010540019N0045001N1+02171+01281101831ADDAA199000091AY111061AY211061GA1021+030009039GA2051+054009009GF106991021001999999031021MD1810041+9999MW1101REMSYN088AAXX  06124 60060 31945 60000 10217 20128 40183 58004 71011 82032 333 82360 85068 95300;EQDQ01  00002PRCP99
0174600600999992000120615004+29360-010170FM-12+0066GMMF V0202601N001019999999N0060001N1+02741+00561101611ADDAA199000091GA1021+030009039GF105991021001999999031021MD1710211+9999REMSYN076AAXX  06154 60060 32956 52602 10274 20056 40161 57021 82032 333 82360 83070;EQDQ01  00002PRCP99
0215600600999992000120618004+29360-010170FM-12+0066GMMF V0201801N006210510019N0080001N1+02921+00001101551ADDAA199000091GA1021+024009039GA2041+051009009GF105991021001999999031021KA1120M+03051MD1610061+9999REMSYN088AAXX  06184 60060 32958 51812 10292 20000 40155 56006 82032 333 10305 82358 84067 95300;EQDQ01  00002PRCP99
0207600600999992000120706004+29360-010170FM-12+0066GMMF V0200801N009810510019N0060001N1+02651+00231101471ADDAA199000091GA1021+024009039GA2041+051009009GF105991021001999999031021KA1120N+02571REMSYN094AAXX  07064 60060 32956 50819 10265 20023 40147 5//// 82032 333 20257 30017 82358 84067 95300;EQDQ01  00002PRCP99
0174600600999992000120709004+29360-010170FM-12+0066GMMF V0200601N006210240019N0080001N1+02621+00181101511ADDAA199000091GA1061+024009039GF107991061001999999051021MD1110041+9999REMSYN076AAXX  07094 60060 32958 70612 10262 20018 40151 51004 86052 333 86358 95300;EQDQ01  00002PRCP99
0174600600999992000120712004+29360-010170FM-12+0066GMMF V0200601N007210240019N0100001N1+02801+00271101581ADDAA199000091GA1071+024009039GF107991071001999999051999MD1010071+9999REMSYN076AAXX  07124 60060 32960 70614 10280 20027 40158 50007 8705/ 333 87358 95300;EQDQ01  00002PRCP99
0174600600999992000120715004+29360-010170FM-12+0066GMMF V0202001N005110300019N0100001N1+02821+00481101531ADDAA199000091GA1071+030009039GF107991071001999999071999MD1710051+9999REMSYN076AAXX  07154 60060 32960 72010 10282 20048 40153 57005 8707/ 333 87360 95300;EQDQ01  00002PRCP99
0193600600999992000120718004+29360-010170FM-12+0066GMMF V0201801N006210300019N0100001N1+02331+00841101511ADDAA199000091GA1081+030009039GF108991081001999999071999KA1120M+02961MD1610031+9999REMSYN082AAXX  07184 60060 32960 81812 10233 20084 40151 56003 8807/ 333 10296 88360 95300;EQDQ01  00002PRCP99
0174600600999992000120721004+29360-010170FM-12+0066GMMF V0202001N002110300019N0080001N1+02251+00841101671ADDAA199000091GA1071+030009039GF107991071001999999071999MD1110161+9999REMSYN076AAXX  07214 60060 32958 72004 10225 20084 40167 51016 8707/ 333 87360 95300;EQDQ01  00002PRCP99
0185600600999992000120806004+29360-010170FM-12+0066GMMF V0200801N006210300019N0100001N1+02021+01271101731ADDAA199000091GA1061+030009039GF106991061001999999031001KA1120N+01861REMSYN088AAXX  08064 60060 32960 60812 10202 20127 40173 5/009 86030 333 20186 30056 86360 95300;EQDQ01  00002PRCP99
0174600600999992000120809004+29360-010170FM-12+0066GMMF V0202601N001010300019N0070001N1+01871+01591101851ADDAA199000091GA1071+030009039GF107991071001999999071999MD1310121+9999REMSYN076AAXX  08094 60060 32957 72602 10187 20159 40185 53012 8707/ 333 87360 95300;EQDQ01  00002PRCP99
0212600600999992000120815004+29360-010170FM-12+0066GMMF V0200401N003110300019N0100001N1+01821+01481102011ADDAA199000091GA1031+004809089GA2061+030009039GF107991031021004501999071MD1810061+9999REMSYN082AAXX  08154 60060 32460 70406 10182 20148 40201 58006 83207 333 83816 86360 95300;EQDQ01+000002SCOMCGQ02  00002PRCP99
0215600600999992000120818004+29360-010170FM-12+0066GMMF V0200401N003610300019N0100001N1+01811+01581102031ADDAA199000091GA1021+004809089GA2061+030009039GF107991021021004501071999KA1120M+02331MD1310021+9999REMSYN088AAXX  08184 60060 32460 70407 10181 20158 40203 53002 8227/ 333 10233 82816 86360 95300;EQDQ01  00002PRCP99
0174600600999992000120821004+29360-010170FM-12+0066GMMF V0200401N002112200019N0080001N1+01761+01451102151ADDAA199000091GA1021+030009039GF104991021001999999031021MD1310121+9999REMSYN076AAXX  08214 60060 32958 40404 10176 20145 40215 53012 82032 333 82360 95300;EQDQ01  00002PRCP99
0185600600999992000120906004+29360-010170FM-12+0066GMMF V0200601N002112200019N0080001N1+01651+01391102211ADDAA199000091GA1021+006009069GF102991021051004501001001KA1120N+01601REMSYN088AAXX  09064 60060 32458 20604 10165 20139 40221 5//// 82500 333 20160 30016 82620 95300;EQDQ01  00002PRCP99
0190600600999992000120909004+29360-010170FM-12+0066GMMF V0200601N003612200019N0100001N1+01701+01401102301ADDAA199000091GA1051+004809069GF199999041051004501001001MD1310091+9999REMSYN076AAXX  09094 60060 32460 40607 10170 20140 40230 53009 84500 333 85616 95300;EQDQ01+000042SCOTCVQ02  00002PRCP99
0196600600999992000120912004+29360-010170FM-12+0066GMMF V0200601N003610600019N0100001N1+01861+01231102371ADDAA199000091GA1011+004809069GA2041+060009009GF105991011051004501001021MD1010071+9999REMSYN082AAXX  09124 60060 32460 50607 10186 20123 40237 50007 81502 333 81616 84070 95300;EQDQ01  00002PRCP99
0152600600999992000120915004+29360-010170FM-12+0066GMMF V0200201N002112200019N0100001N1+01901+01181102251ADDAA199000091GA1001+999999999GF100991001001999999001001MD1610111+9999REMSYN054AAXX  09154 60060 32960 00204 10190 20118 40225 56011;EQDQ01  00002PRCP99
0152600600999992000120921004+29360-010170FM-12+0066GMMF V0200601N002112200019N0070001N1+01701+01351102361ADDAA199000091GA1001+999999999GF100991001001999999001001MD1210061+9999REMSYN054AAXX  09214 60060 32957 00604 10170 20135 40236 52006;EQDQ01  00002PRCP99
0167600600999992000121006004+29360-010170FM-12+0066GMMF V0201001N001012200019N0080001N1+01461+01201102281ADDAA199000091GA1001+999999999GF100991001001999999001001KA1120N+01361REMSYN070AAXX  10064 60060 32958 01002 10146 20120 40228 5//// 333 20136 30012;EQDQ01  00002PRCP99
0152600600999992000121009004+29360-010170FM-12+0066GMMF V0201001N002112200019N0080001N1+01501+01231102421ADDAA199000091GA1001+999999999GF100991001001999999001001MD1210131+9999REMSYN054AAXX  10094 60060 32958 01004 10150 20123 40242 52013;EQDQ01  00002PRCP99
0152600600999992000121012004+29360-010170FM-12+0066GMMF V0203201N001512200019N0080001N1+01781+01241102481ADDAA199000091GA1001+999999999GF100991001001999999001001MD1010071+9999REMSYN054AAXX  10124 60060 32958 03203 10178 20124 40248 50007;EQDQ01  00002PRCP99
0152600600999992000121015004+29360-010170FM-12+0066GMMF V0202601N001512200019N0100001N1+01921+01551102341ADDAA199000091GA1001+999999999GF100991001001999999001001MD1810141+9999REMSYN054AAXX  10154 60060 32960 02603 10192 20155 40234 58014;EQDQ01  00002PRCP99
0181600600999992000121018004+29360-010170FM-12+0066GMMF V0203201N001012200019N0100001N1+01851+01521102331ADDAA199000091GA1001+999999999GF100991001001999999001001KA1120M+02001MD1610011+9999REMSYN070AAXX  10184 60060 32960 03202 10185 20152 40233 56001 333 10200 95300;EQDQ01  00002PRCP99
0162600600999992000121021004+29360-010170FM-12+0066GMMF V0202201N001012200019N0080001N1+01701+01311102421ADDAA199000091GA1001+999999999GF100991001001999999001001MD1310091+9999REMSYN064AAXX  10214 60060 32958 02202 10170 20131 40242 53009 333 95300;EQDQ01  00002PRCP99
0173600600999992000121106004+29360-010170FM-12+0066GMMF V0200801N003112200019N0080001N1+02321+00771102471ADDAA199000091GA1001+999999999GF100991001001999999001001KA1120N+01601REMSYN076AAXX  11064 60060 32958 00806 10232 20077 40247 5//// 333 20160 30070 95300;EQDQ01  00002PRCP99
0162600600999992000121109004+29360-010170FM-12+0066GMMF V0200801N005112200019N0080001N1+02301+00501102631ADDAA199000091GA1001+999999999GF100991001001999999001001MD1210161+9999REMSYN064AAXX  11094 60060 32958 00810 10230 20050 40263 52016 333 95300;EQDQ01  00002PRCP99
0152600600999992000121112004+29360-010170FM-12+0066GMMF V0200801N005112200019N0150001N1+02701+00241102711ADDAA199000091GA1001+999999999GF100991001001999999001001MD1110091+9999REMSYN054AAXX  11124 60060 32965 00810 10270 20024 40271 51009;EQDQ01  00002PRCP99
0152600600999992000121115004+29360-010170FM-12+0066GMMF V0200401N004112200019N0150001N1+02501+00241102571ADDAA199000091GA1001+999999999GF100991001001999999001001MD1810151+9999REMSYN054AAXX  11154 60060 32965 00408 10250 20024 40257 58015;EQDQ01  00002PRCP99
0175600600999992000121118004+29360-010170FM-12+0066GMMF V0200401N003612200019N0120001N1+02341+00501102641ADDAA199000091GA1001+999999999GF100991001001999999001001KA1999M+02841MD1110051+9999REMSYN064AAXX  11184 60060 32962 00407 10234 20050 40264 51005 333 10284;EQDQ01  00002PRCP99
0152600600999992000121121004+29360-010170FM-12+0066GMMF V0201001N003112200019N0100001N1+02301+00111102751ADDAA199000091GA1001+999999999GF100991001001999999001001MD1210121+9999REMSYN054AAXX  11214 60060 32960 01006 10230 20011 40275 52012;EQDQ01  00002PRCP99
0167600600999992000121206004+29360-010170FM-12+0066GMMF V0201401N003612200019N0100001N1+02291+00051102801ADDAA199000091GA1001+999999999GF100991001001999999001001KA1120N+02001REMSYN070AAXX  12064 60060 32960 01407 10229 20005 40280 5//// 333 20200 30011;EQDQ01  00002PRCP99
0152600600999992000121209004+29360-010170FM-12+0066GMMF V0201401N003612200019N0150001N1+02261+00091102871ADDAA199000091GA1001+999999999GF100991001001999999001001MD1310071+9999REMSYN054AAXX  12094 60060 32965 01407 10226 20009 40287 53007;EQDQ01  00002PRCP99
0152600600999992000121212004+29360-010170FM-12+0066GMMF V0200201N004112200019N0120001N1+02221+00421102921ADDAA199000091GA1001+999999999GF100991001001999999001001MD1110051+9999REMSYN054AAXX  12124 60060 32962 00208 10222 20042 40292 51005;EQDQ01  00002PRCP99
0152600600999992000121215004+29360-010170FM-12+0066GMMF V0203601N001512200019N0120001N1+02211+00761102841ADDAA199000091GA1001+999999999GF100991001001999999001001MD1610081+9999REMSYN054AAXX  12154 60060 32962 03603 10221 20076 40284 56008;EQDQ01  00002PRCP99
0175600600999992000121218004+29360-010170FM-12+0066GMMF V0200201N002112200019N0100001N1+02121+00811102851ADDAA199000091GA1001+999999999GF100991001001999999001001KA1999M+02671MD1310011+9999REMSYN064AAXX  12184 60060 32960 00204 10212 20081 40285 53001 333 10267;EQDQ01  00002PRCP99
0152600600999992000121221004+29360-010170FM-12+0066GMMF V0201001N003112200019N0080001N1+02181+00151102891ADDAA199000091GA1001+999999999GF100991001001999999001001MD1310041+9999REMSYN054AAXX  12214 60060 32958 01006 10218 20015 40289 53004;EQDQ01  00002PRCP99
0167600600999992000121306004+29360-010170FM-12+0066GMMF V0202801N001012200019N0080001N1+02021+00711102741ADDAA199000091GA1001+999999999GF100991001001999999001001KA1120N+01851REMSYN070AAXX  13064 60060 32958 02802 10202 20071 40274 5//// 333 20185 30011;EQDQ01  00002PRCP99
0152600600999992000121309004+29360-010170FM-12+0066GMMF V0201201N001512200019N0120001N1+02161+00181102841ADDAA199000091GA1001+999999999GF100991001001999999001001MD1310111+9999REMSYN054AAXX  13094 60060 32962 01203 10216 20018 40284 53011;EQDQ01  00002PRCP99
0152600600999992000121315004+29360-010170FM-12+0066GMMF V0200201N002612200019N0200001N1+02151+00721102611ADDAA199000091GA1001+999999999GF100991001001999999001001MD1610181+9999REMSYN054AAXX  13154 60060 32970 00205 10215 20072 40261 56018;EQDQ01  00002PRCP99
0152600600999992000121321004+29360-010170FM-12+0066GMMF V0200601N003112200019N0100001N1+01971+01071102661ADDAA199000091GA1001+999999999GF100991001001999999001001MD1310041+9999REMSYN054AAXX  13214 60060 32960 00606 10197 20107 40266 53004;EQDQ01  00002PRCP99
0167600600999992000121406004+29360-010170FM-12+0066GMMF V0200801N003112200019N0100001N1+02001+00601102531ADDAA199000091GA1001+999999999GF100991001001999999001001KA1120N+01881REMSYN070AAXX  14064 60060 32960 00806 10200 20060 40253 5/005 333 20188 30020;EQDQ01  00002PRCP99
0152600600999992000121409004+29360-010170FM-12+0066GMMF V0201001N004112200019N0120001N1+01821+00861102541ADDAA199000091GA1001+999999999GF100991001001999999001001MD1310011+9999REMSYN054AAXX  14094 60060 32962 01008 10182 20086 40254 53001;EQDQ01  00002PRCP99
0152600600999992000121412004+29360-010170FM-12+0066GMMF V0202601N002112200019N0150001N1+02121+01261102521ADDAA199000091GA1001+999999999GF100991001001999999001001MD1810011+9999REMSYN054AAXX  14124 60060 32965 02604 10212 20126 40252 58001;EQDQ01  00002PRCP99
0152600600999992000121415004+29360-010170FM-12+0066GMMF V0203401N001512200019N0120001N1+02141+01321102351ADDAA199000091GA1001+999999999GF100991001001999999001001MD1810171+9999REMSYN054AAXX  14154 60060 32962 03403 10214 20132 40235 58017;EQDQ01  00002PRCP99
0175600600999992000121418004+29360-010170FM-12+0066GMMF V0200401N002112200019N0100001N1+02101+00531102281ADDAA199000091GA1001+999999999GF100991001001999999001001KA1999M+02341MD1810071+9999REMSYN064AAXX  14184 60060 32960 00404 10210 20053 40228 58007 333 10234;EQDQ01  00002PRCP99
0152600600999992000121421004+29360-010170FM-12+0066GMMF V0200801N002112200019N0100001N1+02001+00451102351ADDAA199000091GA1001+999999999GF100991001001999999001001MD1310071+9999REMSYN054AAXX  14214 60060 32960 00804 10200 20045 40235 53007;EQDQ01  00002PRCP99
0167600600999992000121506004+29360-010170FM-12+0066GMMF V02099999999992200019N0100001N1+01741+00091102041ADDAA199000091GA1001+999999999GF100991001001999999001001KA1120N+01701REMSYN070AAXX  15064 60060 32960 04003 10174 20009 40204 5//// 333 20170 30015;EQDQ01  00002PRCP99
0152600600999992000121509004+29360-010170FM-12+0066GMMF V0209999C000012200019N0100001N1+01621+00281102061ADDAA199000091GA1001+999999999GF100991001001999999001001MD1310021+9999REMSYN054AAXX  15094 60060 32960 00000 10162 20028 40206 53002;EQDQ01  00002PRCP99
0152600600999992000121512004+29360-010170FM-12+0066GMMF V0202801N001512200019N0100001N1+02101+00191102051ADDAA199000091GA1001+999999999GF100991001001999999001001MD1010001+9999REMSYN054AAXX  15124 60060 32960 02803 10210 20019 40205 50000;EQDQ01  00002PRCP99
0152600600999992000121515004+29360-010170FM-12+0066GMMF V0203601N002612200019N0100001N1+01921+01251101921ADDAA199000091GA1001+999999999GF100991001001999999001001MD1610131+9999REMSYN054AAXX  15154 60060 32960 03605 10192 20125 40192 56013;EQDQ01  00002PRCP99
0175600600999992000121518004+29360-010170FM-12+0066GMMF V0200201N002112200019N0100001N1+01951+01001101931ADDAA199000091GA1001+999999999GF100991001001999999001001KA1999M+02291MD1310011+9999REMSYN064AAXX  15184 60060 32960 00204 10195 20100 40193 53001 333 10229;EQDQ01  00002PRCP99
0152600600999992000121521004+29360-010170FM-12+0066GMMF V0201001N003112200019N0080001N1+01761+00751101951ADDAA199000091GA1001+999999999GF100991001001999999001001MD1110021+9999REMSYN054AAXX  15214 60060 32958 01006 10176 20075 40195 51002;EQDQ01  00002PRCP99
0167600600999992000121606004+29360-010170FM-12+0066GMMF V0201001N001012200019N0080001N1+01551+01211101931ADDAA199000091GA1001+999999999GF100991001001999999001001KA1120N+01421REMSYN070AAXX  16064 60060 32958 01002 10155 20121 40193 5//// 333 20142 30008;EQDQ01  00002PRCP99
0174600600999992000121609004+29360-010170FM-12+0066GMMF V0201001N001512200019N0060001N1+01601+01201102021ADDAA199000091GA1031+003009079GF103991031061004501001001MD1310091+9999REMSYN076AAXX  16094 60060 32456 31003 10160 20120 40202 53009 83600 333 83710 95300;EQDQ01  00002PRCP99
0174600600999992000121612004+29360-010170FM-12+0066GMMF V0202401N002112200019N0050001N1+01831+01441102051ADDAA199000091GA1011+003009079GF101991011061004501001001MD1010041+9999REMSYN076AAXX  16124 60060 32450 12404 10183 20144 40205 50004 81600 333 81710 95300;EQDQ01  00002PRCP99
0174600600999992000121615004+29360-010170FM-12+0066GMMF V0202401N001512200019N0070001N1+01871+01541101921ADDAA199000091GA1031+003009079GF103991031061004501001001MD1710131+9999REMSYN076AAXX  16154 60060 32457 32403 10187 20154 40192 57013 83600 333 83710 95300;EQDQ01  00002PRCP99
0193600600999992000121618004+29360-010170FM-12+0066GMMF V0203601N002112200019N0080001N1+01781+01471101881ADDAA199000091GA1031+003009079GF103991031061004501001001KA1120M+01951MD1610041+9999REMSYN082AAXX  16184 60060 32458 33604 10178 20147 40188 56004 83600 333 10195 83710 95300;EQDQ01  00002PRCP99
0174600600999992000121621004+29360-010170FM-12+0066GMMF V0200801N001012200019N0060001N1+01601+01301101941ADDAA199000091GA1031+003009079GF103991031061004501001001MD1110051+9999REMSYN076AAXX  16214 60060 32456 30802 10160 20130 40194 51005 83600 333 83710 95300;EQDQ01  00002PRCP99
0185600600999992000121706004+29360-010170FM-12+0066GMMF V0201801N001512200019N0060001N1+01551+01251101931ADDAA199000091GA1041+004809069GF104991041051004501001001KA1120N+01421REMSYN088AAXX  17064 60060 32456 41803 10155 20125 40193 5/001 84500 333 20142 30015 84616 95300;EQDQ01  00002PRCP99
0174600600999992000121709004+29360-010170FM-12+0066GMMF V0201001N003112200019N0080001N1+01541+01171102061ADDAA199000091GA1021+004809069GF102991021051004501001001MD1210131+9999REMSYN076AAXX  17094 60060 32458 21006 10154 20117 40206 52013 82500 333 82616 95300;EQDQ01  00002PRCP99
0152600600999992000121712004+29360-010170FM-12+0066GMMF V0203201N002112200019N0100001N1+01861+01341102151ADDAA199000091GA1001+999999999GF100991001001999999001001MD1010101+9999REMSYN054AAXX  17124 60060 32960 03204 10186 20134 40215 50010;EQDQ01  00002PRCP99
0193600600999992000121718004+29360-010170FM-12+0066GMMF V0200201N002112200019N0080001N1+01701+01351102051ADDAA199000091GA1011+004809069GF101991011051004501001001KA1120M+01881MD1510001+9999REMSYN082AAXX  17184 60060 32458 10204 10170 20135 40205 55000 81500 333 10188 81616 95300;EQDQ01  00002PRCP99
0167600600999992000121806004+29360-010170FM-12+0066GMMF V0209999C000012200019N0080001N1+01451+00511102091ADDAA199000091GA1001+999999999GF100991001001999999001001KA1120N+01401REMSYN070AAXX  18064 60060 32958 00000 10145 20051 40209 5//// 333 20140 30009;EQDQ01  00002PRCP99
0152600600999992000121809004+29360-010170FM-12+0066GMMF V0209999C000012200019N0080001N1+01521+00711102101ADDAA199000091GA1001+999999999GF100991001001999999001001MD1310011+9999REMSYN054AAXX  18094 60060 32958 00000 10152 20071 40210 53001;EQDQ01  00002PRCP99
0152600600999992000121812004+29360-010170FM-12+0066GMMF V0203601N001012200019N0070001N1+01911+01211102111ADDAA199000091GA1001+999999999GF100991001001999999001001MD1010021+9999REMSYN054AAXX  18124 60060 32957 03602 10191 20121 40211 50002;EQDQ01  00002PRCP99
0152600600999992000121815004+29360-010170FM-12+0066GMMF V0201001N003612200019N0100001N1+02541-00251101921ADDAA199000091GA1001+999999999GF100991001001999999001001MD1610181+9999REMSYN054AAXX  18154 60060 32960 01007 10254 21025 40192 56018;EQDQ01  00002PRCP99
0152600600999992000121821004+29360-010170FM-12+0066GMMF V0201601N004112200019N0080001N1+02171-00601101951ADDAA199000091GA1001+999999999GF100991001001999999001001MD1110031+9999REMSYN054AAXX  18214 60060 32958 01608 10217 21060 40195 51003;EQDQ01  00002PRCP99
0167600600999992000121906004+29360-010170FM-12+0066GMMF V0201001N010312200019N0080001N1+01921-00531101771ADDAA199000091GA1001+999999999GF100991001001999999001001KA1120N+01851REMSYN070AAXX  19064 60060 32958 01020 10192 21053 40177 5//// 333 20185 30011;EQDQ01  00002PRCP99
0152600600999992000121909004+29360-010170FM-12+0066GMMF V0201001N010312200019N0120001N1+01861-00381101841ADDAA199000091GA1001+999999999GF100991001001999999001001MD1310071+9999REMSYN054AAXX  19094 60060 32962 01020 10186 21038 40184 53007;EQDQ01  00002PRCP99
0152600600999992000121912004+29360-010170FM-12+0066GMMF V0201801N008212200019N0120001N1+02201-00321101781ADDAA199000091GA1001+999999999GF100991001001999999001001MD1010051+9999REMSYN054AAXX  19124 60060 32962 01816 10220 21032 40178 50005;EQDQ01  00002PRCP99
0168600600999992000121915004+29360-010170FM-12+0066GMMF V0201401N006210600019N0120001N1+02401-00021101381ADDAA199000091GA1051+060009019GF105991001001999999001021MD1710401+9999REMSYN070AAXX  19154 60060 32962 51412 10240 21002 40138 57040 80002 333 85070;EQDQ01  00002PRCP99
0215600600999992000121918004+29360-010170FM-12+0066GMMF V02099999999990600019N0100001N1+02251+00261101271ADDAA199000091GA1021+030009039GA2051+060009009GF106991021001999999031021KA1120M+02441MD1610111+9999REMSYN088AAXX  19184 60060 32960 64512 10225 20026 40127 56011 82032 333 10244 82360 85070 95300;EQDQ01  00002PRCP99
0190600600999992000121921004+29360-010170FM-12+0066GMMF V0202801N003610600019N0080001N1+02021+00801999999ADDAA199000091GA1021+030009039GA2041+060009009GF106991021001999999031021MD1310191+9999REMSYN076AAXX  19214 60060 32958 62807 10202 2008/ 53019 82032 333 82360 84070 95300;EQDQ01  00002PRCP99
0222600600999992000122006004+29360-010170FM-12+0066GMMF V0202001N003110048019N0060001N1+01301+00951101461ADDAA124007191AY161061AY261061GA1021+003909089GA2031+004809069GF105991051081004501001001KA1120N+01141MW1211REMSYN106AAXX  20064 60060 11456 52006 10130 20095 40146 5/0/3 60074 72166 85800 333 20114 30011 82813 83616 95300;
0177600600999992000122009004+29360-010170FM-12+0066GMMF V0203201N003110048019N0060001N1+01491+00991101521ADDAA199000021GA1031+003909089GA2031+004809069GF106991061081004501001001MD1310071+9999REMSYN082AAXX  20094 60060 32456 63206 10149 20099 40152 53007 86800 333 83813 83616 95300;
0183600600999992000122012004+29360-010170FM-12+0066GMMF V0200201N003110048019N0080001N1+01651+01061101601ADDAA106000191GA1031+003909089GA2031+004809069GF106991061081004501001001MD1010081+9999REMSYN088AAXX  20124 60060 12458 60206 10165 20106 40160 50008 69921 86800 333 83813 83616 95300;
0175600600999992000122015004+29360-010170FM-12+0066GMMF V0203001N003112200019N0100001N1+01701+01171101541ADDAA199000021AY161031GA1031+003909089GF104991041081004501001001MD1710071+9999MW1011REMSYN082AAXX  20154 60060 31460 43006 10170 20117 40154 57007 7016/ 84800 333 83813 95300;
0208600600999992000122018004+29360-010170FM-12+0066GMMF V0200201N002612200019N0100001N1+01511+01121101581ADDAA112000191AY161061AY211061GA1021+003909089GF103991031081004501001001KA1120M+01721MD1310041+9999MW1021REMSYN094AAXX  20184 60060 11460 30205 10151 20112 40158 53004 69922 70261 83800 333 10172 82813 95300;
0174600600999992000122021004+29360-010170FM-12+0066GMMF V0202001N001012200019N0080001N1+01411+01121101731ADDAA199000091GA1011+003909089GF102991021081004501001001MD1310041+9999REMSYN076AAXX  20214 60060 32458 22002 10141 20112 40173 53004 82800 333 81813 95300;EQDQ01  00002PRCP99
0154600600999992000122106004+29360-010170FM-12+0066GMMF V0201801N002112200019N0080001N1+01381+01041101531ADDAA124000191GA1001+999999999GF100991001001999999001001KA1120N+01271REMSYN076AAXX  21064 60060 12958 01804 10138 20104 40153 5//// 69924 333 20127 31009;
0174600600999992000122109004+29360-010170FM-12+0066GMMF V0201801N002612200019N0080001N1+01381+01061101461ADDAA199000091GA1021+004809069GF102991021051004501001001MD1710071+9999REMSYN076AAXX  21094 60060 32458 21805 10138 20106 40146 57007 82500 333 82616 95300;EQDQ01  00002PRCP99
0196600600999992000122112004+29360-010170FM-12+0066GMMF V0202201N004110048019N0080001N1+01671+01101101501ADDAA199000091GA1011+003909089GA2051+004809069GF105991051081004501001001MD1010051+9999REMSYN082AAXX  21124 60060 32458 52208 10167 20110 40150 50005 85800 333 81813 85616 95300;EQDQ01  00002PRCP99
0196600600999992000122115004+29360-010170FM-12+0066GMMF V0202201N00621004801CN0080001N1+01861+01241101201ADDAA199000091GA1021+003909089GA2031+004809069GF106991041081004501001021MD1810281+9999REMSYN082AAXX  21154 60060 32458 62212 10186 20124 40120 58028 84802 333 82813 83616 95300;EQDQ01  00002PRCP99
0215600600999992000122118004+29360-010170FM-12+0066GMMF V0202201N005110048019N0060001N1+01741+01351101191ADDAA199000091GA1041+003909089GA2061+004809069GF108991081081004501999999KA1120M+01901MD1610021+9999REMSYN088AAXX  21184 60060 32456 82210 10174 20135 40119 56002 888// 333 10190 84813 86616 95300;EQDQ01  00002PRCP99
0196600600999992000122121004+29360-010170FM-12+0066GMMF V0202201N003610048019N0060001N1+01751+01171101081ADDAA199000091GA1031+003909089GA2031+004809069GF105991051081004501001001MD1710111+9999REMSYN082AAXX  21214 60060 32456 52207 10175 20117 40108 57011 85800 333 83813 83616 95300;EQDQ01  00002PRCP99
0206600600999992000122206004+29360-010170FM-12+0066GMMF V0202401N013410048019N0050001N1+01751+01411100731ADDAA124002091GA1041+003909089GA2051+004809069GF107991071081004501999999KA1120N+01591MW1621REMSYN106AAXX  22064 60060 11450 72426 10175 20141 40073 5//// 60024 762// 878// 333 20159 32008 84813 85616 95310;
0186600600999992000122209004+29360-010170FM-12+0066GMMF V0202401N005110048019N0060001N1+01611+01611100911ADDAY181031GA1041+003909089GA2051+004809069GF107991071081004501999999MD1210181+9999MW1251REMSYN088AAXX  22094 60060 41456 72410 10161 20161 40091 52018 7258/ 878// 333 84813 85616 95310;
0211600600999992000122212004+29360-010170FM-12+0066GMMF V0202401N005710048019N0060001N1+01731+01631101071ADDAA106006191AY181061AY261061GA1041+003909089GA2041+004809069GF106991061081004501001001MD1110161+9999MW1211REMSYN094AAXX  22124 60060 11456 62411 10173 20163 40107 51016 60061 72186 86800 333 84813 84616 95300;
0177600600999992000122215004+29360-010170FM-12+0066GMMF V0202001N004112200019N0060001N1+01801+01631101051ADDAA199000021GA1021+003909089GA2031+004809069GF104991041081004501001001MD1510021+9999REMSYN082AAXX  22154 60060 32456 42008 10180 20163 40105 55002 84800 333 82813 83616 95300;
0180600600999992000122218004+29360-010170FM-12+0066GMMF V0202201N003112200019N0060001N1+01781+01441101111ADDAA112006191GA1011+003909089GF103991031081004501001001KA1120M+01861MD1110061+9999REMSYN088AAXX  22184 60060 12456 32206 10178 20144 40111 51006 60062 83800 333 10186 81813 95300;
0155600600999992000122221004+29360-010170FM-12+0066GMMF V0201801N001012200019N0060001N1+01601+01361101281ADDAA199000021GA1021+003909089GF103991031081004501001001MD1210171+9999REMSYN076AAXX  22214 60060 32456 31802 10160 20136 40128 52017 83800 333 82813 95300;
0194600600999992000122306004+29360-010170FM-12+0066GMMF V0201801N001512200019N0060001N1+01541+01171101251ADDAA124006191GA1011+003909089GA2031+004809069GF104991041081004501001001KA1120N+01451REMSYN100AAXX  23064 60060 12456 41803 10154 20117 40125 5/004 60064 84800 333 20145 30010 81813 83616 95300;
0174600600999992000122309004+29360-010170FM-12+0066GMMF V0202001N002612200019N0100001N1+01601+01181101321ADDAA199000091GA1021+004809069GF102991021051004501001001MD1110061+9999REMSYN076AAXX  23094 60060 32460 22005 10160 20118 40132 51006 82500 333 82616 95300;EQDQ01  00002PRCP99
0174600600999992000122312004+29360-010170FM-12+0066GMMF V0202201N004110600019N0150001N1+01801+01371101411ADDAA199000091GA1051+060009009GF105991001001999999001021MD1210101+9999REMSYN076AAXX  23124 60060 32965 52208 10180 20137 40141 52010 80002 333 85070 95300;EQDQ01  00002PRCP99
0196600600999992000122315004+29360-010170FM-12+0066GMMF V0201801N003110048019N0080001N1+01901+01601101291ADDAA199000091GA1011+003909089GA2071+004809069GF107991071081004501999999MD1710121+9999REMSYN082AAXX  23154 60060 32458 71806 10190 20160 40129 57012 878// 333 81813 87616 95300;EQDQ01  00002PRCP99
0215600600999992000122318004+29360-010170FM-12+0066GMMF V0202001N003610048019N0070001N1+01871+01501101261ADDAA199000091GA1011+003909089GA2051+004809069GF106991051081004501001021KA1120M+02001MD1510021+9999REMSYN088AAXX  23184 60060 32457 62007 10187 20150 40126 55002 85802 333 10200 81813 85616 95300;EQDQ01  00002PRCP99
0174600600999992000122321004+29360-010170FM-12+0066GMMF V0202001N004112200019N0070001N1+01811+01361101321ADDAA199000091GA1021+004809069GF102991021051004501001001MD1310051+9999REMSYN076AAXX  23214 60060 32457 22008 10181 20136 40132 53005 82500 333 82616 95300;EQDQ01  00002PRCP99
0185600600999992000122406004+29360-010170FM-12+0066GMMF V0202001N006210048019N0060001N1+01791+01501101291ADDAA199000091GA1081+004809089GF108991081021004501999999KA1120N+01741REMSYN088AAXX  24064 60060 32456 82012 10179 20150 40129 5//// 882// 333 20174 30016 88816 95300;EQDQ01  00002PRCP99
0174600600999992000122409004+29360-010170FM-12+0066GMMF V0202201N005110048019N0060001N1+01781+01541101411ADDAA199000091GA1071+004809089GF107991071021004501999999MD1210081+9999REMSYN076AAXX  24094 60060 32456 72210 10178 20154 40141 52008 872// 333 87816 95300;EQDQ01  00002PRCP99
0211600600999992000122412004+29360-010170FM-12+0066GMMF V0202001N005110045019N0050001N1+01751+01601101571ADDAA106001091AY161061AY221061GA1011+003909089GA2071+004509089GF107991071021004501999999MD1110161+9999MW1011REMSYN094AAXX  24124 60060 11450 72010 10175 20160 40157 51016 69991 70162 872// 333 81813 87815 95300;
0186600600999992000122415004+29360-010170FM-12+0066GMMF V0202001N003110048019N0050001N1+01741+01591101481ADDAY161031GA1011+003009089GA2071+004809089GF107991071081004501999999MD1610101+9999MW1011REMSYN088AAXX  24154 60060 41450 72006 10174 20159 40148 56010 7016/ 878// 333 81810 87816 95300;
0230600600999992000122418004+29360-010170FM-12+0066GMMF V0202001N002110048019N0050001N1+01821+01541101401ADDAA112002091AY161061AY221061GA1041+003909089GA2061+004809069GF108991081081004501999999KA1120M+01881MD1610071+9999MW1031REMSYN100AAXX  24184 60060 11450 82004 10182 20154 40140 56007 60022 70362 888// 333 10188 84813 86616 95300;
0186600600999992000122421004+29360-010170FM-12+0066GMMF V0202201N001010048019N0050001N1+01751+01491101471ADDAY161031GA1031+003909089GA2041+004809069GF106991061081004501001001MD1210071+9999MW1211REMSYN088AAXX  24214 60060 41450 62202 10175 20149 40147 52007 7216/ 86800 333 83813 84616 95300;
0177600600999992000122509004+29360-010170FM-12+0066GMMF V0202001N002610060019N0060001N1+01611+01501101661ADDAA199000021GA1031+003009079GA2051+006009089GF106991031021002501001001MD1810071+9999REMSYN082AAXX  25094 60060 32356 62005 10161 20150 40166 58007 83200 333 83710 85820 95800;
0174600600999992000122512004+29360-010170FM-12+0066GMMF V0201801N003612200019N0060001N1+01981+01581101631ADDAA199000091GA1031+003909089GF104991041081004501001001MD1010071+9999REMSYN076AAXX  25124 60060 32456 41807 10198 20158 40163 50007 84800 333 83813 95300;EQDQ01  00002PRCP99
0174600600999992000122515004+29360-010170FM-12+0066GMMF V0202401N006212200019N0060001N1+01981+01641101551ADDAA199000091GA1031+003909089GF106991041081004501001011MD1710081+9999REMSYN076AAXX  25154 60060 32456 62412 10198 20164 40155 57008 84801 333 83813 95300;EQDQ01  00002PRCP99
0215600600999992000122518004+29360-010170FM-12+0066GMMF V0202201N002610510019N0060001N1+01801+01581101531ADDAA199000091GA1011+003909089GA2041+051009009GF106991021081004501001021KA1120M+02001MD1510021+9999REMSYN088AAXX  25184 60060 32456 62205 10180 20158 40153 55002 82802 333 10200 81813 84067 95300;EQDQ01  00002PRCP99
0174600600999992000122521004+29360-010170FM-12+0066GMMF V0202001N001012200019N0060001N1+01621+01381101571ADDAA199000091GA1011+004809069GF101991011051004501001001MD1210021+9999REMSYN076AAXX  25214 60060 32456 12002 10162 20138 40157 52002 81500 333 81616 95300;EQDQ01  00002PRCP99
0185600600999992000122606004+29360-010170FM-12+0066GMMF V0201801N003612200019N0060001N1+01681+01351101371ADDAA199000091GA1021+004809069GF102991021051004501001001KA1120N+01561REMSYN088AAXX  26064 60060 32456 21807 10168 20135 40137 5//// 82500 333 20156 30013 82616 95300;EQDQ01  00002PRCP99
0196600600999992000122609004+29360-010170FM-12+0066GMMF V0202001N005110048019N0080001N1+01711+01441101461ADDAA199000091GA1021+003909089GA2071+004809069GF107991071081004501999999MD1310091+9999REMSYN082AAXX  26094 60060 32458 72010 10171 20144 40146 53009 878// 333 82813 87616 95300;EQDQ01  00002PRCP99
0196600600999992000122612004+29360-010170FM-12+0066GMMF V0202001N00461036001CN0070001N1+01911+01561101481ADDAA199000091GA1011+003909089GA2041+060009009GF106991021081004501031021MD1010031+9999REMSYN082AAXX  26124 60060 32457 62009 10191 20156 40148 50003 82832 333 81813 84070 95300;EQDQ01  00002PRCP99
0186600600999992000122615004+29360-010170FM-12+0066GMMF V0202001N005710240019N0060001N1+01851+01601101291ADDAY161031GA1021+003909089GA2071+024009049GF107991021021004501999999MD1710191+9999MW1211REMSYN088AAXX  26154 60060 41456 72011 10185 20160 40129 57019 7216/ 822// 333 82813 87458 95300;
0230600600999992000122618004+29360-010170FM-12+0066GMMF V0201801N005110048019N0050001N1+01781+01661101361ADDAA112000391AY161061AY261061GA1021+003909089GA2051+004809069GF108991081021004501999999KA1120M+01981MD1210071+9999MW1211REMSYN100AAXX  26184 60060 11450 81810 10178 20166 40136 52007 69932 72166 882// 333 10198 82813 85616 95300;
0177600600999992000122621004+29360-010170FM-12+0066GMMF V0201801N002112200019N0050001N1+01721+01501101481ADDAA199000021GA1011+003909089GA2041+004809069GF104991041081004501001001MD1210111+9999REMSYN082AAXX  26214 60060 32450 41804 10172 20150 40148 52011 84800 333 81813 84616 95300;
0172600600999992000122706004+29360-010170FM-12+0066GMMF V0203001N002112200019N0060001N1+01631+01441101641ADDAA124000391GA1031+004809069GF103991031051004501001001KA1120N+01571REMSYN094AAXX  27064 60060 12456 33004 10163 20144 40164 5//// 69934 83500 333 20157 31015 83616 95300;
0195600600999992000122709004+29360-010170FM-12+0066GMMF V0200801N001010900019N0080001N1+01661+01381101891ADDAA199000091GA1011+003909089GA2031+004809069GF105991031081004501001021MD1210251+9999REMSYN081AAXX  27094 60060 32458 50802 10166 20138 40189 52025 83802 333 81813 83616 9300;EQDQ01  00002PRCP99
0174600600999992000122712004+29360-010170FM-12+0066GMMF V0200201N002112200019N0080001N1+01801+01271102031ADDAA199000091GA1011+003909089GF102991021081004501001001MD1010151+9999REMSYN076AAXX  27124 60060 32458 20204 10180 20127 40203 50015 82800 333 81813 95300;EQDQ01  00002PRCP99
0174600600999992000122715004+29360-010170FM-12+0066GMMF V0203601N004612200019N0080001N1+01831+01241101961ADDAA199000091GA1041+003909089GF104991041021004501001001MD1610071+9999REMSYN076AAXX  27154 60060 32458 43609 10183 20124 40196 56007 84200 333 84813 95300;EQDQ01  00002PRCP99
0193600600999992000122718004+29360-010170FM-12+0066GMMF V0200401N005112200019N0080001N1+01781+01361101971ADDAA199000091GA1021+003909089GF103991021021004501001011KA1120M+01891MD1310011+9999REMSYN082AAXX  27184 60060 32458 30410 10178 20136 40197 53001 82201 333 10189 82813 95300;EQDQ01  00002PRCP99
0174600600999992000122721004+29360-010170FM-12+0066GMMF V0200401N005712200019N0070001N1+01711+01361102101ADDAA199000091GA1041+003909089GF104991041081004501001001MD1310121+9999REMSYN076AAXX  27214 60060 32457 40411 10171 20136 40210 53012 84800 333 84813 95300;EQDQ01  00002PRCP99
0167600600999992000122806004+29360-010170FM-12+0066GMMF V0200201N004112200019N0080001N1+01561+01081102181ADDAA199000091GA1001+999999999GF100991001001999999001001KA1120N+01451REMSYN070AAXX  28064 60060 32958 00208 10156 20108 40218 5//// 333 20145 30012;EQDQ01  00002PRCP99
0174600600999992000122809004+29360-010170FM-12+0066GMMF V0200401N003112200019N0080001N1+01551+01091102311ADDAA199000091GA1031+003909089GF103991031021004501001001MD1310131+9999REMSYN076AAXX  28094 60060 32458 30406 10155 20109 40231 53013 83200 333 83813 95300;EQDQ01  00002PRCP99
0152600600999992000122812004+29360-010170FM-12+0066GMMF V0200201N006712200019N0080001N1+01801+00831102451ADDAA199000091GA1001+999999999GF100991001001999999001001MD1010131+9999REMSYN054AAXX  28124 60060 32958 00213 10180 20083 40245 50013;EQDQ01  00002PRCP99
0174600600999992000122815004+29360-010170FM-12+0066GMMF V0200401N004112200019N0100001N1+01801+01011102281ADDAA199000091GA1011+004809069GF101991011051004501001001MD1710161+9999REMSYN076AAXX  28154 60060 32460 10408 10180 20101 40228 57016 81500 333 81616 95300;EQDQ01  00002PRCP99
0193600600999992000122818004+29360-010170FM-12+0066GMMF V0200401N004112200019N0100001N1+01701+01201102241ADDAA199000091GA1021+004809069GF102991021051004501001001KA1120M+01841MD1610051+9999REMSYN082AAXX  28184 60060 32460 20408 10170 20120 40224 56005 82500 333 10184 82616 95300;EQDQ01  00002PRCP99
0152600600999992000122821004+29360-010170FM-12+0066GMMF V0200601N002612200019N0080001N1+01591+01151102311ADDAA199000091GA1001+999999999GF100991001001999999001001MD1210061+9999REMSYN054AAXX  28214 60060 32958 00605 10159 20115 40231 52006;EQDQ01  00002PRCP99
0185600600999992000122906004+29360-010170FM-12+0066GMMF V0200801N001512200019N0080001N1+01601+01281102251ADDAA199000091GA1031+004809069GF103991031051004501001001KA1120N+01541REMSYN088AAXX  29064 60060 32458 30803 10160 20128 40225 5//// 83500 333 20154 30020 83616 95300;EQDQ01  00002PRCP99
0174600600999992000122909004+29360-010170FM-12+0066GMMF V0201001N002612200019N0100001N1+01531+01241102241ADDAA199000091GA1041+004809069GF104991041051004501001001MD1610011+9999REMSYN076AAXX  29094 60060 32460 41005 10153 20124 40224 56001 84500 333 84616 95300;EQDQ01  00002PRCP99
0174600600999992000122912004+29360-010170FM-12+0066GMMF V0202401N001512200019N0100001N1+01781+01401102321ADDAA199000091GA1031+004809069GF103991031051004501001001MD1210081+9999REMSYN076AAXX  29124 60060 32460 32403 10178 20140 40232 52008 83500 333 83616 95300;EQDQ01  00002PRCP99
0184600600999992000122915004+29360-010170FM-12+0066GMMF V0200201N002112200019N0100001N1+01761+01301102081ADDAA199000091GA1011+024009079GF102991011999999999031021MD1710231+9999REMSYN070AAXX  29154 60060 32960 20204 10176 20130 40208 57023 81032 333 81358;EQDQ01  00002PRCP99Q02    003SCOLCG
0193600600999992000122918004+29360-010170FM-12+0066GMMF V0200601N003112200019N0100001N1+01661+01331102131ADDAA199000091GA1021+024009039GF102991021001999999031001KA1120M+01801MD1010041+9999REMSYN082AAXX  29184 60060 32960 20606 10166 20133 40213 50004 82030 333 10180 82358 95300;EQDQ01  00002PRCP99
0174600600999992000122921004+29360-010170FM-12+0066GMMF V0200401N002112200019N0080001N1+01751+01351102281ADDAA199000091GA1041+004809069GF104991041051004501001001MD1110161+9999REMSYN076AAXX  29214 60060 32458 40404 10175 20135 40228 51016 84500 333 84616 95300;EQDQ01  00002PRCP99
0185600600999992000123006004+29360-010170FM-12+0066GMMF V0200601N002110048019N0060001N1+01721+01461102141ADDAA199000091GA1051+004809069GF106991061051004501001001KA1120N+01591REMSYN088AAXX  30064 60060 32456 60604 10172 20146 40214 5//// 86500 333 20159 30014 85616 95300;EQDQ01  00002PRCP99
0174600600999992000123009004+29360-010170FM-12+0066GMMF V0200601N002110048019N0080001N1+01681+01371102201ADDAA199000091GA1071+004809069GF107991071051004501999999MD1210061+9999REMSYN076AAXX  30094 60060 32458 70604 10168 20137 40220 52006 875// 333 87616 95300;EQDQ01  00002PRCP99
0168600600999992000123012004+29360-010170FM-12+0066GMMF V0200401N003610048019N0080001N1+01901+01371102191ADDAA199000091GA1071+004809059GF107991071051004501999999MD1010001+9999REMSYN070AAXX  30124 60060 32458 70407 10190 20137 40219 50000 875// 333 87616;EQDQ01  00002PRCP99
0174600600999992000123015004+29360-010170FM-12+0066GMMF V0203601N004612200019N0080001N1+01951+01381102031ADDAA199000091GA1021+004809069GF102991021051004501001001MD1810161+9999REMSYN076AAXX  30154 60060 32458 23609 10195 20138 40203 58016 82500 333 82616 95300;EQDQ01  00002PRCP99
0193600600999992000123018004+29360-010170FM-12+0066GMMF V0200401N002110048019N0080001N1+01771+01391102041ADDAA199000091GA1051+004809069GF105991051051004501001001KA1120M+01991MD1010011+9999REMSYN082AAXX  30184 60060 32458 50404 10177 20139 40204 50001 85500 333 10199 85616 95300;EQDQ01  00002PRCP99
0174600600999992000123021004+29360-010170FM-12+0066GMMF V0200401N001510048019N0070001N1+01711+01451102091ADDAA199000091GA1061+004809069GF106991061051004501001001MD1210041+9999REMSYN076AAXX  30214 60060 32457 60403 10171 20145 40209 52004 86500 333 86616 95300;EQDQ01  00002PRCP99
0167600600999992000123106004+29360-010170FM-12+0066GMMF V0201401N001512200019N0060001N1+01491+01211101841ADDAA199000091GA1001+999999999GF100991001001999999001001KA1120N+01431REMSYN070AAXX  31064 60060 32456 01403 10149 20121 40184 5//// 333 20143 30013;EQDQ01  00002PRCP99
0174600600999992000123109004+29360-010170FM-12+0066GMMF V0203001N001010048019N0060001N1+01581+01331101921ADDAA199000091GA1051+004809069GF105991051051004501001001MD1310081+9999REMSYN076AAXX  31094 60060 32456 53002 10158 20133 40192 53008 85500 333 85616 95300;EQDQ01  00002PRCP99
0174600600999992000123112004+29360-010170FM-12+0066GMMF V0203201N001512200019N0050001N1+01701+01331101961ADDAA199000091GA1021+004809069GF102991021051004501001001MD1010041+9999REMSYN076AAXX  31124 60060 32450 23203 10170 20133 40196 50004 82500 333 82616 95300;EQDQ01  00002PRCP99
0152600600999992000123115004+29360-010170FM-12+0066GMMF V0202801N002112200019N0080001N1+01781+01321101771ADDAA199000091GA1001+999999999GF100991001001999999001001MD1710181+9999REMSYN054AAXX  31154 60060 32958 02804 10178 20132 40177 57018;EQDQ01  00002PRCP99
0193600600999992000123118004+29360-010170FM-12+0066GMMF V0209999C000012200019N0060001N1+01701+01351101771ADDAA199000091GA1041+004809069GF104991041051004501001001KA1120M+01841MD1510011+9999REMSYN082AAXX  31184 60060 32456 40000 10170 20135 40177 55001 84500 333 10184 84616 95300;EQDQ01  00002PRCP99
0174600600999992000123121004+29360-010170FM-12+0066GMMF V0209999C000012200019N0060001N1+01551+01281101811ADDAA199000091GA1021+004809069GF102991021051004501001001MD1110041+9999REMSYN076AAXX  31214 60060 32456 20000 10155 20128 40181 51004 82500 333 82616 95300;EQDQ01  00002PRCP99
