0173607640999992000010109004+33700+008970FM-12+004699999V0209999C000012200019N0100001N1+00721+00421102881ADDAA106000091GA1001+999999999GF100991001001999999001001MA1999999102341MD1210181+9999REMSYN060AAXX  01094 60764 32960 00000 10072 20042 30234 40288 52018;EQDQ01  00002PRCP06
0195607640999992000010112004+33700+008970FM-12+004699999V0201801N002112200019N0150001N1+01241+00661102711ADDAA106000091GA1021+060009019GF102991001001999999001021MA1999999102181MD1710161+9999REMSYN082AAXX  01124 60764 32965 21804 10124 20066 30218 40271 57016 80002 333 50271 82070;EQDQ01  00002PRCP06
0189607640999992000010115004+33700+008970FM-12+004699999V0201801N002112200019N0150001N1+01401+00601102571ADDAA106000091GA1021+060009019GF102991001001999999001021MA1999999102051MD1710131+9999REMSYN076AAXX  01154 60764 32965 21804 10140 20060 30205 40257 57013 80002 333 82070;EQDQ01  00002PRCP06
0208607640999992000010118004+33700+008970FM-12+004699999V0209999C000012200019N0100001N1+00901+00501102641ADDAA106000091GA1021+060009019GF102991001001999999001021KA1120M+01461MA1999999102111MD1210061+9999REMSYN082AAXX  01184 60764 32960 20000 10090 20050 30211 40264 52006 80002 333 10146 82070;EQDQ01  00002PRCP06
0179607640999992000010209004+33700+008970FM-12+004699999V0209999C000012200019N0100001N1+00861+00491102691ADDAA106000091GA1001+999999999GF100991001001999999001001MA1999999099011MD1210141+9999REMSYN066AAXX  02094 60764 32960 00000 10086 20049 39901 40269 52014 84500;EQDQ01  00002PRCP06
0199607640999992000010212004+33700+008970FM-12+004699999V0203501N004112200019N0150001N1+01231+00611102951ADDAA106000091GA1001+999999999GF100991001001999999001001MA1999999102422MD1710071+9999REMSYN070AAXX  02124 60764 32965 03508 10123 20061 30242 40295 57007 333 50221;EQDQ01+102423APOSP Q02  00002PRCP06
0173607640999992000010215004+33700+008970FM-12+004699999V0203501N003112200019N0150001N1+01371+00591102861ADDAA106000091GA1001+999999999GF100991001001999999001001MA1999999102331MD1710091+9999REMSYN060AAXX  02154 60764 32965 03506 10137 20059 30233 40286 57009;EQDQ01  00002PRCP06
0196607640999992000010218004+33700+008970FM-12+004699999V0209999C000012200019N0100001N1+00911+00531102911ADDAA106000091GA1001+999999999GF100991001001999999001001KA1999M+01391MA1999999102381MD1210051+9999REMSYN070AAXX  02184 60764 32960 00000 10091 20053 30238 40291 52005 333 10139;EQDQ01  00002PRCP06
0208607640999992000010306004+33700+008970FM-12+004699999V0200201N002112200019N0080001N1+00061-00081103001ADDAA106000091GA1021+060009019GF102991001001999999001021KA1120N-00031MA1999999102451MD1610051+9999REMSYN082AAXX  03064 60764 33958 20204 10006 21008 30245 40300 56005 80002 333 21003 82070;EQDQ01  00002PRCP06
0173607640999992000010309004+33700+008970FM-12+004699999V0200301N002112200019N0080001N1+00621+00211103121ADDAA106000091GA1001+999999999GF100991001001999999001001MA1999999102581MD1210131+9999REMSYN060AAXX  03094 60764 32958 00304 10062 20021 30258 40312 52013;EQDQ01  00002PRCP06
0195607640999992000010312004+33700+008970FM-12+004699999V0200301N001012200019N0150001N1+01281+00621103031ADDAA106000091GA1011+009009029GF101991011021008001001001MA1999999102501MD1810081+9999REMSYN082AAXX  03124 60764 32565 10302 10128 20062 30250 40303 58008 81200 333 50181 81830;EQDQ01  00002PRCP06
0189607640999992000010315004+33700+008970FM-12+004699999V0203501N002112200019N0150001N1+01461+00651102901ADDAA106000091GA1031+009009029GF103991031021008001001001MA1999999102381MD1710121+9999REMSYN076AAXX  03154 60764 32565 33504 10146 20065 30238 40290 57012 83200 333 83830;EQDQ01  00002PRCP06
0208607640999992000010318004+33700+008970FM-12+004699999V0202601N001012200019N0100001N1+01011+00251102901ADDAA106000091GA1031+009009029GF103991031021008001001001KA1120M+01561MA1999999102371MD1710011+9999REMSYN082AAXX  03184 60764 32560 32602 10101 20025 30237 40290 57001 83200 333 10156 83830;EQDQ01  00002PRCP06
0208607640999992000010406004+33700+008970FM-12+004699999V0203401N001012200019N0100001N1+00421+00351103101ADDAA106000091GA1021+009009059GF102991021051008001001001KA1120N+00261MA1999999102561MD1310041+9999REMSYN082AAXX  04064 60764 33560 23402 10042 20035 30256 40310 53004 82500 333 20026 82630;EQDQ01  00002PRCP06
0173607640999992000010409004+33700+008970FM-12+004699999V0209999C000012200019N0100001N1+00901+00441103221ADDAA106000091GA1001+999999999GF100991001001999999001001MA1999999102691MD1210131+9999REMSYN060AAXX  04094 60764 32960 00000 10090 20044 30269 40322 52013;EQDQ01  00002PRCP06
0189607640999992000010415004+33700+008970FM-12+004699999V0200101N004112200019N0150001N1+01431+00761103021ADDAA106000091GA1031+009009029GF103991031021008001001001MA1999999102491MD1710071+9999REMSYN076AAXX  04154 60764 32565 30108 10143 20076 30249 40302 57007 83200 333 83830;EQDQ01  00002PRCP06
0224607640999992000010418004+33700+008970FM-12+004699999V0200101N002112200019N0100001N1+01041+00501103061ADDAA106000091GA1051+007809029GF199999031021008001001001KA1120M+01151MA1999999102531MD1210041+9999REMSYN082AAXX  04184 60764 32560 30104 10104 20050 30253 40306 52004 83200 333 10115 85826;EQDQ01+000032SCOTCVQ02  00002PRCP06
0208607640999992000010506004+33700+008970FM-12+004699999V0200401N000512200019N0100001N1+00021-00041103011ADDAA106000091GA1021+060009019GF102991001001999999001021KA1120N-00051MA1999999102461MD1510051+9999REMSYN082AAXX  05064 60764 33960 20401 10002 21004 30246 40301 55005 80002 333 21005 82070;EQDQ01  00002PRCP06
0173607640999992000010509004+33700+008970FM-12+004699999V0200401N002112200019N0100001N1+00591+00381103101ADDAA106000091GA1001+999999999GF100991001001999999001001MA1999999102561MD1310101+9999REMSYN060AAXX  05094 60764 32960 00404 10059 20038 30256 40310 53010;EQDQ01  00002PRCP06
0183607640999992000010512004+33700+008970FM-12+004699999V0201201N002112200019N0120001N1+01221+00601102921ADDAA106000091GA1001+999999999GF100991001001999999001001MA1999999102391MD1810171+9999REMSYN070AAXX  05124 60764 32962 01204 10122 20060 30239 40292 58017 333 50191;EQDQ01  00002PRCP06
0173607640999992000010515004+33700+008970FM-12+004699999V0202401N003112200019N0150001N1+01431+00661102691ADDAA106000091GA1001+999999999GF100991001001999999001001MA1999999102171MD1710121+9999REMSYN060AAXX  05154 60764 32965 02406 10143 20066 30217 40269 57012;EQDQ01  00002PRCP06
0196607640999992000010518004+33700+008970FM-12+004699999V0209999C000012200019N0100001N1+00901+00481102741ADDAA106000091GA1001+999999999GF100991001001999999001001KA1999M+01491MA1999999102211MD1210041+9999REMSYN070AAXX  05184 60764 32960 00000 10090 20048 30221 40274 52004 333 10149;EQDQ01  00002PRCP06
0196607640999992000010606004+33700+008970FM-12+004699999V0201701N001012200019N0080001N1-00121-00501102781ADDAA106000091GA1001+999999999GF100991001001999999001001KA1999N-00241MA1999999102231MD1610021+9999REMSYN070AAXX  06064 60764 33958 01702 11012 21050 30223 40278 56002 333 21024;EQDQ01  00002PRCP06
0173607640999992000010609004+33700+008970FM-12+004699999V0200901N003112200019N0080001N1+00581+00321102911ADDAA106000091GA1001+999999999GF100991001001999999001001MA1999999102371MD1210141+9999REMSYN060AAXX  06094 60764 32958 00906 10058 20032 30237 40291 52014;EQDQ01  00002PRCP06
0183607640999992000010612004+33700+008970FM-12+004699999V0209999C000012200019N0120001N1+01271+00611102751ADDAA106000091GA1001+999999999GF100991001001999999001001MA1999999102231MD1710141+9999REMSYN070AAXX  06124 60764 32962 00000 10127 20061 30223 40275 57014 333 50161;EQDQ01  00002PRCP06
0173607640999992000010615004+33700+008970FM-12+004699999V0202501N003112200019N0120001N1+01351+00631102641ADDAA106000091GA1001+999999999GF100991001001999999001001MA1999999102121MD1710111+9999REMSYN060AAXX  06154 60764 32962 02506 10135 20063 30212 40264 57011;EQDQ01  00002PRCP06
0196607640999992000010706004+33700+008970FM-12+004699999V0201101N002112200019N0080001N1+00021-00041102851ADDAA106000091GA1001+999999999GF100991001001999999001001KA1999N-00161MA1999999102301MD1410001+9999REMSYN070AAXX  07064 60764 33958 01104 10002 21004 30230 40285 54000 333 21016;EQDQ01  00002PRCP06
0173607640999992000010709004+33700+008970FM-12+004699999V0200901N003112200019N0100001N1+00541+00271102991ADDAA106000091GA1001+999999999GF100991001001999999001001MA1999999102451MD1210151+9999REMSYN060AAXX  07094 60764 32960 00906 10054 20027 30245 40299 52015;EQDQ01  00002PRCP06
0183607640999992000010712004+33700+008970FM-12+004699999V0202001N002112200019N0120001N1+01111+00641102851ADDAA106000091GA1001+999999999GF100991001001999999001001MA1999999102321MD1710131+9999REMSYN070AAXX  07124 60764 32962 02004 10111 20064 30232 40285 57013 333 50031;EQDQ01  00002PRCP06
0173607640999992000010715004+33700+008970FM-12+004699999V0202401N002112200019N0120001N1+01431+00651102641ADDAA106000091GA1001+999999999GF100991001001999999001001MA1999999102121MD1710201+9999REMSYN060AAXX  07154 60764 32962 02404 10143 20065 30212 40264 57020;EQDQ01  00002PRCP06
0196607640999992000010718004+33700+008970FM-12+004699999V0209999C000012200019N0100001N1+00801+00491102681ADDAA106000091GA1001+999999999GF100991001001999999001001KA1999M+01471MA1999999102151MD1210031+9999REMSYN070AAXX  07184 60764 32960 00000 10080 20049 30215 40268 52003 333 10147;EQDQ01  00002PRCP06
0173607640999992000010809004+33700+008970FM-12+004699999V0209999C000012200019N0100001N1+00601+00291102941ADDAA106000091GA1001+999999999GF100991001001999999001001MA1999999102401MD1210151+9999REMSYN060AAXX  08094 60764 32960 00000 10060 20029 30240 40294 52015;EQDQ01  00002PRCP06
0183607640999992000010812004+33700+008970FM-12+004699999V0201801N002112200019N0150001N1+01181+00721102851ADDAA106000091GA1001+999999999GF100991001001999999001001MA1999999102321MD1710081+9999REMSYN070AAXX  08124 60764 32965 01804 10118 20072 30232 40285 57008 333 50171;EQDQ01  00002PRCP06
0173607640999992000010815004+33700+008970FM-12+004699999V0202001N002112200019N0150001N1+01361+00761102691ADDAA106000091GA1001+999999999GF100991001001999999001001MA1999999102171MD1710151+9999REMSYN060AAXX  08154 60764 32965 02004 10136 20076 30217 40269 57015;EQDQ01  00002PRCP06
0189607640999992000010909004+33700+008970FM-12+004699999V0209999C000012200019N0100001N1+00671+00311102721ADDAA106000091GA1031+060009019GF103991001001999999001021MA1999999102181MD1210071+9999REMSYN076AAXX  09094 60764 32960 30000 10067 20031 30218 40272 52007 80002 333 83070;EQDQ01  00002PRCP06
0195607640999992000010912004+33700+008970FM-12+004699999V0202701N002112200019N0120001N1+01091+00601102571ADDAA106000091GA1031+060009019GF104991001001999999001021MA1999999102041MD1710141+9999REMSYN082AAXX  09124 60764 32962 42704 10109 20060 30204 40257 57014 80002 333 50181 83070;EQDQ01  00002PRCP06
0208607640999992000010918004+33700+008970FM-12+004699999V0209999C000012200019N0100001N1+00991+00541102451ADDAA106000091GA1021+060009019GF102991001001999999001021KA1120M+01501MA1999999101921MD1210031+9999REMSYN082AAXX  09184 60764 32960 20000 10099 20054 30192 40245 52003 80002 333 10150 82070;EQDQ01  00002PRCP06
0208607640999992000011006004+33700+008970FM-12+004699999V0202801N001012200019N0070001N1-00171-00411102591ADDAA106000091GA1031+060009019GF103991001001999999001021KA1120N-00241MA1999999102041MD1310041+9999REMSYN082AAXX  10064 60764 33957 32802 11017 21041 30204 40259 53004 80002 333 21024 83070;EQDQ01  00002PRCP06
0208607640999992000011009004+33700+008970FM-12+004699999V0202801N001012200019N0070001N1-00171-00411102591ADDAA106000091GA1031+060009019GF103991001001999999001021KA1120N-00241MA1999999102041MD1310041+9999REMSYN082AAXX  10094 60764 33957 32802 11017 21041 30204 40259 53004 80002 333 21024 83070;EQDQ01  00002PRCP06
0199607640999992000011012004+33700+008970FM-12+004699999V0203501N002112200019N0120001N1+01472+00291102611ADDAA106000091GA1001+999999999GF100991001001999999001001MA1999999102091MD1810141+9999REMSYN070AAXX  10124 60764 32962 03504 10147 20029 30209 40261 58014 333 50131;EQDQ01+001473ATOT  Q02  00002PRCP06
0173607640999992000011015004+33700+008970FM-12+004699999V0203601N003112200019N0120001N1+01661+00401102531ADDAA106000091GA1001+999999999GF100991001001999999001001MA1999999102011MD1610081+9999REMSYN060AAXX  10154 60764 32962 03606 10166 20040 30201 40253 56008;EQDQ01  00002PRCP06
0196607640999992000011018004+33700+008970FM-12+004699999V0203601N004112200019N0100001N1+01141+00451102591ADDAA106000091GA1001+999999999GF100991001001999999001001KA1999M+01741MA1999999102061MD1210051+9999REMSYN070AAXX  10184 60764 32960 03608 10114 20045 30206 40259 52005 333 10174;EQDQ01  00002PRCP06
0196607640999992000011106004+33700+008970FM-12+004699999V0203601N006212200019N0080001N1+00831+00611102931ADDAA106000091GA1001+999999999GF100991001001999999001001KA1999N+00641MA1999999102401MD1310101+9999REMSYN070AAXX  11064 60764 33958 03612 10083 20061 30240 40293 53010 333 20064;EQDQ01  00002PRCP06
0189607640999992000011109004+33700+008970FM-12+004699999V0203601N008212200019N0080001N1+01121+00601103081ADDAA106000091GA1021+060009019GF102991001001999999001021MA1999999102551MD1210151+9999REMSYN076AAXX  11094 60764 32958 23616 10112 20060 30255 40308 52015 80002 333 82070;EQDQ01  00002PRCP06
0195607640999992000011112004+33700+008970FM-12+004699999V0200201N008212200019N0100001N1+01501+00751102951ADDAA106000091GA1021+060009019GF102991001001999999001021MA1999999102431MD1810121+9999REMSYN082AAXX  11124 60764 32960 20216 10150 20075 30243 40295 58012 80002 333 50221 82070;EQDQ01  00002PRCP06
0189607640999992000011115004+33700+008970FM-12+004699999V0203601N006212200019N0120001N1+01601+00691102811ADDAA106000091GA1011+009009029GF102991011021008001001021MA1999999102291MD1610141+9999REMSYN076AAXX  11154 60764 32562 23612 10160 20069 30229 40281 56014 81202 333 81830;EQDQ01  00002PRCP06
0208607640999992000011118004+33700+008970FM-12+004699999V0203501N006212200019N0100001N1+01291+00541102881ADDAA106000091GA1011+009009029GF101991011021008001001021KA1120M+01641MA1999999102351MD1210061+9999REMSYN082AAXX  11184 60764 32560 13512 10129 20054 30235 40288 52006 81202 333 10164 81830;EQDQ01  00002PRCP06
0214607640999992000011206004+33700+008970FM-12+004699999V0203601N00821090001CN0100001N1+00901+00691102771ADDAA106000091GA1021+009909069GF105991021051008001001021KA1120N+00751MA1999999102241MD1610131+9999REMSYN088AAXX  12064 60764 33560 53616 10090 20069 30224 40277 56013 82502 333 20075 82633 84070;EQDQ01  00002PRCP06
0195607640999992000011209004+33700+008970FM-12+004699999V0203601N00871090001CN0100001N1+01131+00771102891ADDAA106000091GA1031+009909069GF105991031051008001001021MA1999999102361MD1210121+9999REMSYN082AAXX  12094 60764 32560 53617 10113 20077 30236 40289 52012 83502 333 83633 83070;EQDQ01  00002PRCP06
0201607640999992000011212004+33700+008970FM-12+004699999V0200201N00721007501CN0100001N1+01351+00781102671ADDAA106000091GA1021+009009089GF106991061021008001001001MA1999999102151MD1810211+9999REMSYN088AAXX  12124 60764 32560 60214 10135 20078 30215 40267 58021 86200 333 50391 82830 85633;EQDQ01  00002PRCP06
0195607640999992000011215004+33700+008970FM-12+004699999V0200301N005112200019N0120001N1+01491+00771102501ADDAA106000091GA1021+009009089GF104991021021008001001001MA1999999101981MD1710171+9999REMSYN082AAXX  12154 60764 32562 40310 10149 20077 30198 40250 57017 82200 333 82830 83633;EQDQ01  00002PRCP06
0214607640999992000011218004+33700+008970FM-12+004699999V0200201N005119999999N0100001N1+01241+00721102571ADDAA106000091GA1031+009009089GF106991031021008001001001KA1120M+01511MA1999999102041MD1210061+9999REMSYN088AAXX  12184 60764 32560 60210 10124 20072 30204 40257 52006 83200 333 10151 83830 84633;EQDQ01  00002PRCP06
0208607640999992000011306004+33700+008970FM-12+004699999V0209999C000012200019N0100001N1+00411+00231102291ADDAA106000091GA1041+009009059GF104991041051008001001001KA1120N+00391MA1999999101751MD1610051+9999REMSYN082AAXX  13064 60764 33560 40000 10041 20023 30175 40229 56005 84500 333 20039 84630;EQDQ01  00002PRCP06
0189607640999992000011309004+33700+008970FM-12+004699999V0200501N001012200019N0050001N1+01171+00671102301ADDAA106000091GA1031+009009059GF103991031051012501001001MA1999999101771MD1310021+9999REMSYN076AAXX  13094 60764 32650 30502 10117 20067 30177 40230 53002 83500 333 83630;EQDQ01  00002PRCP06
0195607640999992000011312004+33700+008970FM-12+004699999V0200201N001012200019N0150001N1+01471+00761102151ADDAA106000091GA1041+009009059GF104991041051008001001001MA1999999101631MD1810141+9999REMSYN082AAXX  13124 60764 32565 40202 10147 20076 30163 40215 58014 84500 333 50211 84630;EQDQ01  00002PRCP06
0193607640999992000011315004+33700+008970FM-12+004699999V0200901N00211007501CN0120001N1+01411+00881101981ADDAY161031AY211031GA1021+006909089GF105991051021008001001001MA1999999101461MD1710171+9999MW1211REMSYN088AAXX  13154 60764 41562 50904 10141 20088 30146 40198 57017 72161 85200 333 82823 84630;
0248607640999992000011318004+33700+008970FM-12+004699999V0202401N002112200019N0100001N1+00991+00671101991ADDAA112001091AY161061AY211061GA1021+006909089GF104991999021008001001001KA1120M+01531MA1999999101461MD1410001+9999MW1011REMSYN100AAXX  13184 60764 11560 42404 10099 20067 30146 40199 54000 60012 70161 85200 333 10153 82823 83630;EQDQ01+000052SCOTLC
0205607640999992000011406004+33700+008970FM-12+004699999V0200401N002112200019N0080001N1+00151+00101102011ADDAA124001091GA1011+009009059GF101991011051008001001001KA1120N+00091MA1999999101471MD1510041+9999REMSYN098    AAXX  14064 60764 13558 10404 10015 20010 30147 40201 55004 60014 81500 333 20009 70013 81630;
0177607640999992000011409004+33700+008970FM-12+004699999V0200701N002112200019N0080001N1+00541+00301102111ADDAA199000091GA1001+999999999GF100991001001999999001001MA1999999101571MD1310101+9999REMSYN064    AAXX  14094 60764 32958 00704 10054 20030 30157 40211 53010;EQDQ01  00002PRCP99
0187607640999992000011412004+33700+008970FM-12+004699999V0201801N003112200019N0100001N1+01091+00451102001ADDAA199000091GA1001+999999999GF100991001001999999001001MA1999999101471MD1810101+9999REMSYN074    AAXX  14124 60764 32960 01806 10109 20045 30147 40200 58010 333 50141;EQDQ01  00002PRCP99
0193607640999992000011415004+33700+008970FM-12+004699999V0202001N005112200019N0100001N1+01491+00411101811ADDAA199000091GA1011+060009019GF101991001001999999001021MA1999999101291MD1710121+9999REMSYN080    AAXX  14154 60764 32960 12010 10149 20041 30129 40181 57012 80002 333 81070;EQDQ01  00002PRCP99
0212607640999992000011418004+33700+008970FM-12+004699999V0202101N003112200019N0100001N1+01021+00341101881ADDAA199000091GA1011+060009019GF101991001001999999001021KA1120M+01511MA1999999101351MD1210061+9999REMSYN086    AAXX  14184 60764 32960 12106 10102 20034 30135 40188 52006 80002 333 10151 81070;EQDQ01  00002PRCP99
0212607640999992000011506004+33700+008970FM-12+004699999V0201701N001012200019N0080001N1+00171-00021102271ADDAA199000091GA1021+060009019GF102991001001999999001021KA1120N+00021MA1999999101731MD1410001+9999REMSYN086    AAXX  15064 60764 33958 21702 10017 21002 30173 40227 54000 80002 333 20002 82070;EQDQ01  00002PRCP99
0193607640999992000011509004+33700+008970FM-12+004699999V0201101N003112200019N0100001N1+00681+00221102471ADDAA199000091GA1041+060009019GF104991001001999999001021MA1999999101931MD1210201+9999REMSYN080    AAXX  15094 60764 32960 41106 10068 20022 30193 40247 52020 80002 333 84070;EQDQ01  00002PRCP99
0199607640999992000011512004+33700+008970FM-12+004699999V0202001N002112200019N0120001N1+01361+00391102361ADDAA199000091GA1041+060009019GF104991001001999999001021MA1999999101861MD1710071+9999REMSYN086    AAXX  15124 60764 32962 42004 10136 20039 30186 40236 57007 80002 333 50151 84070;EQDQ01  00002PRCP99
0187607640999992000011612004+33700+008970FM-12+004699999V0201801N002112200019N0120001N1+01201+00311102621ADDAA199000091GA1001+999999999GF100991001001999999001001MA1999999102111MD1710071+9999REMSYN074    AAXX  16124 60764 32962 01804 10120 20031 30211 40262 57007 333 50201;EQDQ01  00002PRCP99
0200607640999992000011706004+33700+008970FM-12+004699999V0200901N003112200019N0100001N1+00111-00091102481ADDAA199000091GA1001+999999999GF100991001001999999001001KA1999N+00071MA1999999101931MD1810111+9999REMSYN074    AAXX  17064 60764 33960 00906 10011 21009 30193 40248 58011 333 20007;EQDQ01  00002PRCP99
0177607640999992000011709004+33700+008970FM-12+004699999V0200901N003112200019N0100001N1+00521-00061102601ADDAA199000091GA1001+999999999GF100991001001999999001001MA1999999102061MD1210121+9999REMSYN064    AAXX  17094 60764 32960 00906 10052 21006 30206 40260 52012;EQDQ01  00002PRCP99
0187607640999992000011712004+33700+008970FM-12+004699999V0201001N002112200019N0150001N1+01191+00211102451ADDAA199000091GA1001+999999999GF100991001001999999001001MA1999999101921MD1810141+9999REMSYN074    AAXX  17124 60764 32965 01004 10119 20021 30192 40245 58014 333 50191;EQDQ01  00002PRCP99
0209607640999992000011715004+33700+008970FM-12+004699999V0202101N003112200019N0150001N1+01691+00031102211ADDAA199000091GA1011+030009079GF101991999001999999081001MA1999999101691MD1710231+9999REMSYN080    AAXX  17154 60764 32965 12106 10169 20003 30169 40221 57023 80080 333 81360;EQDQ01+000002SCOTLCQ02  00002PRCP99
0200607640999992000011806004+33700+008970FM-12+004699999V0203501N001012200019N0100001N1+00171+00011102301ADDAA199000091GA1001+999999999GF100991001001999999001001KA1999N+00031MA1999999101751MD1310061+9999REMSYN074    AAXX  18064 60764 33960 03502 10017 20001 30175 40230 53006 333 20003;EQDQ01  00002PRCP99
0177607640999992000011809004+33700+008970FM-12+004699999V0209999C000012200019N0150001N1+00721+00191102401ADDAA199000091GA1001+999999999GF100991001001999999001001MA1999999101861MD1210111+9999REMSYN064    AAXX  18094 60764 32965 00000 10072 20019 30186 40240 52011;EQDQ01  00002PRCP99
0187607640999992000011812004+33700+008970FM-12+004699999V0202101N005112200019N0100001N1+01391+00171102171ADDAA199000091GA1001+999999999GF100991001001999999001001MA1999999101651MD1810211+9999REMSYN074    AAXX  18124 60764 32960 02110 10139 20017 30165 40217 58021 333 50301;EQDQ01  00002PRCP99
0177607640999992000011815004+33700+008970FM-12+004699999V0202201N004112200019N0150001N1+01501+00181101911ADDAA199000091GA1001+999999999GF100991001001999999001001MA1999999101391MD1710261+9999REMSYN064    AAXX  18154 60764 32965 02208 10150 20018 30139 40191 57026;EQDQ01  00002PRCP99
0200607640999992000011818004+33700+008970FM-12+004699999V0201501N004112200019N0100001N1+01141+00261101881ADDAA199000091GA1001+999999999GF100991001001999999001001KA1999M+01561MA1999999101351MD1710041+9999REMSYN074    AAXX  18184 60764 32960 01508 10114 20026 30135 40188 57004 333 10156;EQDQ01  00002PRCP99
0193607640999992000011909004+33700+008970FM-12+004699999V0201101N003112200019N0080001N1+00591+00091101821ADDAA199000091GA1021+060009019GF102991001001999999001021MA1999999101281MD1310111+9999REMSYN080    AAXX  19094 60764 32958 21106 10059 20009 30128 40182 53011 80002 333 82070;EQDQ01  00002PRCP99
0199607640999992000011912004+33700+008970FM-12+004699999V0201901N003112200019N0120001N1+01271+00301101721ADDAA199000091GA1021+060009019GF102991001001999999001021MA1999999101201MD1810081+9999REMSYN086    AAXX  19124 60764 32962 21906 10127 20030 30120 40172 58008 80002 333 50231 82070;EQDQ01  00002PRCP99
0189607640999992000011915004+33700+008970FM-12+004699999V0202101N003112200019N0120001N1+01551+00201101661ADDAA199000091GA1031+060009019GF103991001001999999001021MA1999999101141MD1710061+9999REMSYN076AAXX  19154 60764 32962 32106 10155 20020 30114 40166 57006 80002 333 83070;EQDQ01  00002PRCP99
0208607640999992000011918004+33700+008970FM-12+004699999V0202501N002112200019N0100001N1+01181+00301101761ADDAA199000091GA1031+060009019GF103991001001999999001021KA1120M+01581MA1999999101241MD1210081+9999REMSYN082AAXX  19184 60764 32960 32504 10118 20030 30124 40176 52008 80002 333 10158 83070;EQDQ01  00002PRCP99
0214607640999992000012006004+33700+008970FM-12+004699999V0203101N001012200019N0100001N1+00361+00101102351ADDAA199000091GA1021+009909069GF104991021051008001081001KA1120N+00201MA1999999101811MD1310131+9999REMSYN088AAXX  20064 60764 33560 43102 10036 20010 30181 40235 53013 82580 333 20020 82633 83360;EQDQ01  00002PRCP99
0195607640999992000012012004+33700+008970FM-12+004699999V0203601N007212200019N0120001N1+01451+00321102581ADDAA199000091GA1041+009909059GF104991041051008001001001MA1999999102061MD1410001+9999REMSYN082AAXX  20124 60764 32562 43614 10145 20032 30206 40258 54000 84500 333 50181 84633;EQDQ01  00002PRCP99
0189607640999992000012015004+33700+008970FM-12+004699999V0203601N005110099019N0120001N1+01441+00151102481ADDAA199000091GA1051+009909059GF105991051051008001001001MA1999999101961MD1610101+9999REMSYN076AAXX  20154 60764 32562 53610 10144 20015 30196 40248 56010 85500 333 85633;EQDQ01  00002PRCP99
0207607640999992000012106004+33700+008970FM-12+004699999V0203601N00411007501CN0080001N1+00951+00721102681ADDAA124001091GA1021+007809089GF106991061021008001001001KA1120N+00911MA1999999102151MD1610051+9999REMSYN100AAXX  21064 60764 13558 63608 10095 20072 30215 40268 56005 60014 86200 333 20091 70010 82826 85630;
0195607640999992000012109004+33700+008970FM-12+004699999V0203601N00311007501CN0080001N1+00971+00651102761ADDAA199000091GA1021+007809089GF105991051021008001001001MA1999999102231MD1310091+9999REMSYN082AAXX  21094 60764 32558 53606 10097 20065 30223 40276 53009 85200 333 82826 84630;EQDQ01  00002PRCP99
0201607640999992000012112004+33700+008970FM-12+004699999V0203601N00511007501CN0100001N1+01291+00711102681ADDAA199000091GA1011+007809089GF106991061021008001001001MA1999999102161MD1810171+9999REMSYN088AAXX  21124 60764 32560 63610 10129 20071 30216 40268 58017 86200 333 50341 81826 86630;EQDQ01  00002PRCP99
0195607640999992000012115004+33700+008970FM-12+004699999V0200201N00311007501CN0100001N1+01371+00831102501ADDAA199000091GA1021+007809089GF105991051021008001001001MA1999999101981MD1710181+9999REMSYN082AAXX  21154 60764 32560 50206 10137 20083 30198 40250 57018 85200 333 82826 84630;EQDQ01  00002PRCP99
0208607640999992000012118004+33700+008970FM-12+004699999V0200301N002112200019N0100001N1+01011+00611102521ADDAA199000091GA1031+009009029GF104991011021008001001021KA1120M+01391MA1999999101991MD1110011+9999REMSYN082AAXX  21184 60764 32560 40304 10101 20061 30199 40252 51001 81202 333 10139 83830;EQDQ01  00002PRCP99
0173607640999992000012209004+33700+008970FM-12+004699999V0200801N003112200019N0100001N1+00511+00271102681ADDAA199000091GA1001+999999999GF100991001001999999001001MA1999999102141MD1210111+9999REMSYN060AAXX  22094 60764 32960 00806 10051 20027 30214 40268 52011;EQDQ01  00002PRCP99
0183607640999992000012212004+33700+008970FM-12+004699999V0202101N003112200019N0120001N1+01221+00421102491ADDAA199000091GA1001+999999999GF100991001001999999001001MA1999999101961MD1710181+9999REMSYN070AAXX  22124 60764 32962 02106 10122 20042 30196 40249 57018 333 50071;EQDQ01  00002PRCP99
0173607640999992000012215004+33700+008970FM-12+004699999V0202101N004112200019N0120001N1+01511+00351102271ADDAA199000091GA1001+999999999GF100991001001999999001001MA1999999101751MD1710211+9999REMSYN060AAXX  22154 60764 32962 02108 10151 20035 30175 40227 57021;EQDQ01  00002PRCP99
0196607640999992000012218004+33700+008970FM-12+004699999V0202101N002112200019N0100001N1+01131+00411102231ADDAA199000091GA1001+999999999GF100991001001999999001001KA1999M+01521MA1999999101701MD1710051+9999REMSYN070AAXX  22184 60764 32960 02104 10113 20041 30170 40223 57005 333 10152;EQDQ01  00002PRCP99
0173607640999992000012309004+33700+008970FM-12+004699999V0201101N002112200019N0100001N1+00661+00171101881ADDAA199000091GA1001+999999999GF100991001001999999001001MA1999999101351MD1110011+9999REMSYN060AAXX  23094 60764 32960 01104 10066 20017 30135 40188 51001;EQDQ01  00002PRCP99
0208607640999992000012406004+33700+008970FM-12+004699999V0200801N001012200019N0070001N1+00051-00091101811ADDAA199000091GA1011+030009079GF101991011001999999081001KA1120N+00021MA1999999101261MD1310041+9999REMSYN082AAXX  24064 60764 33957 10802 10005 21009 30126 40181 53004 81080 333 20002 81360;EQDQ01  00002PRCP99
0189607640999992000012409004+33700+008970FM-12+004699999V0201001N005112200019N0080001N1+00651+00041102001ADDAA199000091GA1021+030009079GF102991021001999999081001MA1999999101471MD1210211+9999REMSYN076AAXX  24094 60764 32958 21010 10065 20004 30147 40200 52021 82080 333 82360;EQDQ01  00002PRCP99
0195607640999992000012412004+33700+008970FM-12+004699999V0200801N002112200019N0100001N1+01271+00261101901ADDAA199000091GA1011+030009079GF101991011001999999081001MA1999999101381MD1810091+9999REMSYN082AAXX  24124 60764 32960 10804 10127 20026 30138 40190 58009 81080 333 50161 81360;EQDQ01  00002PRCP99
0189607640999992000012415004+33700+008970FM-12+004699999V0201601N003112200019N0100001N1+01321+00311101821ADDAA199000091GA1021+060009019GF102991001001999999001021MA1999999101301MD1610081+9999REMSYN076AAXX  24154 60764 32960 21606 10132 20031 30130 40182 56008 80002 333 82070;EQDQ01  00002PRCP99
0208607640999992000012418004+33700+008970FM-12+004699999V0201901N001012200019N0100001N1+00991+00431101891ADDAA199000091GA1021+060009019GF102991001001999999001021KA1120M+01411MA1999999101361MD1210061+9999REMSYN082AAXX  24184 60764 32960 21902 10099 20043 30136 40189 52006 80002 333 10141 82070;EQDQ01  00002PRCP99
0208607640999992000012421004+33700+008970FM-12+004699999V0201901N001012200019N0100001N1+00991+00431101891ADDAA199000091GA1021+060009019GF102991001001999999001021KA1120M+01411MA1999999101361MD1210061+9999REMSYN082AAXX  24214 60764 32960 21902 10099 20043 30136 40189 52006 80002 333 10141 82070;EQDQ01  00002PRCP99
0189607640999992000012509004+33700+008970FM-12+004699999V0201001N004112200019N0080001N1+00791+00161102371ADDAA199000091GA1021+030009079GF103991021001999999081021MA1999999101841MD1210131+9999REMSYN076AAXX  25094 60764 32958 31008 10079 20016 30184 40237 52013 82082 333 82360;EQDQ01  00002PRCP99
0201607640999992000012512004+33700+008970FM-12+004699999V0201101N003119999999N0100001N1+01381+00051102301ADDAA199000091GA1021+030009039GF105991021001999999081021MA1999999101781MD1810061+9999REMSYN088AAXX  25124 60764 32960 51106 10138 20005 30178 40230 58006 82082 333 50141 82360 84070;EQDQ01  00002PRCP99
0189607640999992000012515004+33700+008970FM-12+004699999V0200901N002112200019N0100001N1+01531+00131102221ADDAA199000091GA1011+030009079GF104991011001999999081021MA1999999101701MD1710081+9999REMSYN076AAXX  25154 60764 32960 40904 10153 20013 30170 40222 57008 81082 333 81360;EQDQ01  00002PRCP99
0208607640999992000012518004+33700+008970FM-12+004699999V0201001N002112200019N0100001N1+01141+00201102191ADDAA199000091GA1021+060009019GF102991001001999999001021KA1120M+01621MA1999999101661MD1710041+9999REMSYN082AAXX  25184 60764 32960 21004 10114 20020 30166 40219 57004 80002 333 10162 82070;EQDQ01  00002PRCP99
0208607640999992000012606004+33700+008970FM-12+004699999V0200401N002112200019N0100001N1+00471+00141102441ADDAA199000091GA1031+060009019GF103991001001999999001021KA1120N+00441MA1999999101901MD1310051+9999REMSYN082AAXX  26064 60764 33960 30404 10047 20014 30190 40244 53005 80002 333 20044 83070;EQDQ01  00002PRCP99
0189607640999992000012609004+33700+008970FM-12+004699999V0200901N004112200019N0100001N1+01101-00081102571ADDAA199000091GA1031+060009019GF103991001001999999001021MA1999999102041MD1210141+9999REMSYN076AAXX  26094 60764 32960 30908 10110 21008 30204 40257 52014 80002 333 83070;EQDQ01  00002PRCP99
0178607640999992000012612004+33700+008970FM-12+004699999V0201101N001012200019N0150001N1+01691+00261102531ADDAA199000091GF102991011001999999081021MA1999999102011MD1810031+9999REMSYN081AAXX  26124 60764 32965 21102 10169 20026 30201 40253 58003 81082 333 5241 81360;EQDQ01  00002PRCP99
0189607640999992000012615004+33700+008970FM-12+004699999V0202501N002112200019N0150001N1+01911+00171102481ADDAA199000091GA1021+060009019GF102991001001999999001021MA1999999101971MD1710041+9999REMSYN076AAXX  26154 60764 32965 22504 10191 20017 30197 40248 57004 80002 333 82070;EQDQ01  00002PRCP99
0208607640999992000012618004+33700+008970FM-12+004699999V0209999C000012200019N0100001N1+01481+00391102581ADDAA199000091GA1021+060009019GF102991001001999999001021KA1120M+01981MA1999999102061MD1210091+9999REMSYN082AAXX  26184 60764 32960 20000 10148 20039 30206 40258 52009 80002 333 10198 82070;EQDQ01  00002PRCP99
0220607640999992000012706004+33700+008970FM-12+004699999V0203601N008710069019N0012001N1+00941+00911103211ADDAA199000091GA1051+006909069GF105991051071008001001001KA1120N+00901MA1999999102681MD1210081+9999MW1101REMSYN088AAXX  27064 60764 31512 53617 10094 20091 30268 40321 52008 710// 85700 333 20090 85723;EQDQ01  00002PRCP99
0189607640999992000012709004+33700+008970FM-12+004699999V0200201N008712200019N0060001N1+01211+01101103321ADDAA199000091GA1031+006909069GF103991031071008001001001MA1999999102791MD1310111+9999REMSYN076AAXX  27094 60764 32556 30217 10121 20110 30279 40332 53011 83700 333 83723;EQDQ01  00002PRCP99
0195607640999992000012712004+33700+008970FM-12+004699999V0200301N005112200019N0080001N1+01641+01071103361ADDAA199000091GA1021+009009029GF102991021021008001001001MA1999999102841MD1110051+9999REMSYN082AAXX  27124 60764 32558 20310 10164 20107 30284 40336 51005 82200 333 50221 82830;EQDQ01  00002PRCP99
0189607640999992000012715004+33700+008970FM-12+004699999V0200401N004112200019N0120001N1+01891+00881103211ADDAA199000091GA1021+009009029GF103991021021008001001021MA1999999102691MD1710151+9999REMSYN076AAXX  27154 60764 32562 30408 10189 20088 30269 40321 57015 82202 333 82830;EQDQ01  00002PRCP99
0214607640999992000012718004+33700+008970FM-12+004699999V0200101N005112200019N0100001N1+01541+00941103251ADDAA199000091GA1011+009009089GF103991011021008001001021KA1120M+01911MA1999999102731MD1210041+9999REMSYN088AAXX  27184 60764 32560 30110 10154 20094 30273 40325 52004 81202 333 10191 81830 83070;EQDQ01  00002PRCP99
0208607640999992000012806004+33700+008970FM-12+004699999V0209999C000012200019N0060001N1+00471+00401103241ADDAA199000091GA1031+060009019GF103991001001999999001021KA1120N+00451MA1999999102701MD1510061+9999REMSYN082AAXX  28064 60764 33956 30000 10047 20040 30270 40324 55006 80002 333 20045 83070;EQDQ01  00002PRCP99
0195607640999992000012809004+33700+008970FM-12+004699999V0200701N002119999999N0070001N1+01011+00781103341ADDAA199000091GA1021+030009039GF106991021001999999081021MA1999999102811MD1210111+9999REMSYN082AAXX  28094 60764 32957 60704 10101 20078 30281 40334 52011 82082 333 82360 85070;EQDQ01  00002PRCP99
0201607640999992000012812004+33700+008970FM-12+004699999V0201801N004119999999N0100001N1+01401+00751103091ADDAA199000091GA1031+030009039GF107991031001999999081021MA1999999102561MD1810281+9999REMSYN088AAXX  28124 60764 32960 71808 10140 20075 30256 40309 58028 83082 333 50271 83360 85070;EQDQ01  00002PRCP99
0195607640999992000012815004+33700+008970FM-12+004699999V0202201N004119999999N0100001N1+01621+00861102881ADDAA199000091GA1021+030009039GF106991021001999999081021MA1999999102361MD1710201+9999REMSYN082AAXX  28154 60764 32960 62208 10162 20086 30236 40288 57020 82082 333 82360 85070;EQDQ01  00002PRCP99
0208607640999992000012906004+33700+008970FM-12+004699999V0201101N001012200019N0080001N1+00281+00121102771ADDAA199000091GA1021+060009019GF102991001001999999001021KA1120N+00221MA1999999102231MD1710021+9999REMSYN082AAXX  29064 60764 33958 21102 10028 20012 30223 40277 57002 80002 333 20022 82070;EQDQ01  00002PRCP99
0189607640999992000012909004+33700+008970FM-12+004699999V0201101N002112200019N0100001N1+00701+00521102821ADDAA199000091GA1021+060009019GF102991001001999999001021MA1999999102281MD1210051+9999REMSYN076AAXX  29094 60764 32960 21104 10070 20052 30228 40282 52005 80002 333 82070;EQDQ01  00002PRCP99
0195607640999992000012912004+33700+008970FM-12+004699999V0201801N002112200019N0120001N1+01451+00821102661ADDAA199000091GA1021+060009019GF102991001001999999001021MA1999999102141MD1710141+9999REMSYN082AAXX  29124 60764 32962 21804 10145 20082 30214 40266 57014 80002 333 50201 82070;EQDQ01  00002PRCP99
0189607640999992000012915004+33700+008970FM-12+004699999V0202301N005112200019N0120001N1+01901+00561102561ADDAA199000091GA1031+060009019GF103991001001999999001021MA1999999102051MD1710091+9999REMSYN076AAXX  29154 60764 32962 32310 10190 20056 30205 40256 57009 80002 333 83070;EQDQ01  00002PRCP99
0208607640999992000012918004+33700+008970FM-12+004699999V0202201N001010600019N0100001N1+01431+00591102661ADDAA199000091GA1051+060009019GF105991001001999999001021KA1120M+01931MA1999999102141MD1210041+9999REMSYN082AAXX  29184 60764 32960 52202 10143 20059 30214 40266 52004 80002 333 10193 85070;EQDQ01  00002PRCP99
0189607640999992000013009004+33700+008970FM-12+004699999V0202301N001012200019N0100001N1+01001+00481103331ADDAA199000091GA1031+060009019GF103991001001999999001021MA1999999102791MD1210221+9999REMSYN076AAXX  30094 60764 32960 32302 10100 20048 30279 40333 52022 80002 333 83070;EQDQ01  00002PRCP99
0189607640999992000013015004+33700+008970FM-12+004699999V0202001N003112200019N0150001N1+01811+00751103161ADDAA199000091GA1021+060009019GF102991001001999999001021MA1999999102641MD1710101+9999REMSYN076AAXX  30154 60764 32965 22006 10181 20075 30264 40316 57010 80002 333 82070;EQDQ01  00002PRCP99
0196607640999992000013106004+33700+008970FM-12+004699999V0201301N002112200019N0100001N1+00391+00161103501ADDAA199000091GA1001+999999999GF100991001001999999001001KA1999N+00271MA1999999102961MD1210091+9999REMSYN070AAXX  31064 60764 33960 01304 10039 20016 30296 40350 52009 333 20027;EQDQ01  00002PRCP99
0173607640999992000013109004+33700+008970FM-12+004699999V0201001N003112200019N0100001N1+00901+00281103651ADDAA199000091GA1001+999999999GF100991001001999999001001MA1999999103111MD1210161+9999REMSYN060AAXX  31094 60764 32960 01006 10090 20028 30311 40365 52016;EQDQ01  00002PRCP99
0183607640999992000013112004+33700+008970FM-12+004699999V0201201N002112200019N0150001N1+01561+00551103561ADDAA199000091GA1001+999999999GF100991001001999999001001MA1999999103041MD1810071+9999REMSYN070AAXX  31124 60764 32965 01204 10156 20055 30304 40356 58007 333 50131;EQDQ01  00002PRCP99
0173607640999992000013115004+33700+008970FM-12+004699999V0201801N002112200019N0150001N1+01831+00681103391ADDAA199000091GA1001+999999999GF100991001001999999001001MA1999999102871MD1710171+9999REMSYN060AAXX  31154 60764 32965 01804 10183 20068 30287 40339 57017;EQDQ01  00002PRCP99
0196607640999992000013118004+33700+008970FM-12+004699999V0209999C000012200019N0100001N1+01421+00771103361ADDAA199000091GA1001+999999999GF100991001001999999001001KA1999M+01881MA1999999102831MD1710041+9999REMSYN070AAXX  31184 60764 32960 00000 10142 20077 30283 40336 57004 333 10188;EQDQ01  00002PRCP99
0196607640999992000020106004+33700+008970FM-12+004699999V0209999C000012200019N0100001N1+00471+00201103461ADDAA199000091GA1001+999999999GF100991001001999999001001KA1999N+00421MA1999999102911MD1410001+9999REMSYN070AAXX  01064 60764 33960 00000 10047 20020 30291 40346 54000 333 20042;EQDQ01  00002PRCP99
0189607640999992000020109004+33700+008970FM-12+004699999V0201101N003112200019N0100001N1+01041+00401103541ADDAA199000091GA1021+060009019GF102991001001999999001021MA1999999103001MD1210091+9999REMSYN076AAXX  01094 60764 32960 21106 10104 20040 30300 40354 52009 80002 333 82070;EQDQ01  00002PRCP99
0195607640999992000020112004+33700+008970FM-12+004699999V0201801N002112200019N0150001N1+01681+00641103401ADDAA199000091GA1021+060009019GF102991001001999999001021MA1999999102881MD1810121+9999REMSYN082AAXX  01124 60764 32965 21804 10168 20064 30288 40340 58012 80002 333 50241 82070;EQDQ01  00002PRCP99
0189607640999992000020115004+33700+008970FM-12+004699999V0202101N003112200019N0150001N1+01911+00571103191ADDAA199000091GA1031+060009019GF103991001001999999001021MA1999999102671MD1710211+9999REMSYN076AAXX  01154 60764 32965 32106 10191 20057 30267 40319 57021 80002 333 83070;EQDQ01  00002PRCP99
0208607640999992000020118004+33700+008970FM-12+004699999V0202001N001012200019N0160001N1+01561+00711103201ADDAA199000091GA1031+060009019GF103991001001999999001021KA1120M+01971MA1999999102681MD1110011+9999REMSYN082AAXX  01184 60764 32966 32002 10156 20071 30268 40320 51001 80002 333 10197 83070;EQDQ01  00002PRCP99
0208607640999992000020206004+33700+008970FM-12+004699999V0201601N002112200019N0080001N1+00361+00041103161ADDAA199000091GA1041+060009019GF104991001001999999001021KA1120N+00261MA1999999102621MD1610071+9999REMSYN082AAXX  02064 60764 33958 41604 10036 20004 30262 40316 56007 80002 333 20026 84070;EQDQ01  00002PRCP99
0189607640999992000020209004+33700+008970FM-12+004699999V0201101N003110600019N0100001N1+00971+00171103231ADDAA199000091GA1051+060009019GF105991001001999999001021MA1999999102701MD1210081+9999REMSYN076AAXX  02094 60764 32960 51106 10097 20017 30270 40323 52008 80002 333 85070;EQDQ01  00002PRCP99
0195607640999992000020212004+33700+008970FM-12+004699999V0201601N003110600019N0150001N1+01701+00461103101ADDAA199000091GA1061+060009019GF106991001001999999001021MA1999999102581MD1810121+9999REMSYN082AAXX  02124 60764 32965 61606 10170 20046 30258 40310 58012 80002 333 50271 86070;EQDQ01  00002PRCP99
0189607640999992000020215004+33700+008970FM-12+004699999V0202201N003110600019N0150001N1+02021+00601102831ADDAA199000091GA1061+060009019GF106991001001999999001021MA1999999102321MD1710261+9999REMSYN076AAXX  02154 60764 32965 62206 10202 20060 30232 40283 57026 80002 333 86070;EQDQ01  00002PRCP99
0208607640999992000020218004+33700+008970FM-12+004699999V0209999C000010600019N0100001N1+01641+00841102791ADDAA199000091GA1061+060009019GF106991001001999999001021KA1120M+02061MA1999999102271MD1710051+9999REMSYN082AAXX  02184 60764 32960 60000 10164 20084 30227 40279 57005 80002 333 10206 86070;EQDQ01  00002PRCP99
0208607640999992000020306004+33700+008970FM-12+004699999V0201001N003112200019N0100001N1+00451-00031102631ADDAA199000091GA1021+060009019GF102991001001999999001021KA1120N+00401MA1999999102091MD1610031+9999REMSYN082AAXX  03064 60764 33960 21006 10045 21003 30209 40263 56003 80002 333 20040 82070;EQDQ01  00002PRCP99
0189607640999992000020309004+33700+008970FM-12+004699999V0201001N003112200019N0120001N1+01151+00151102701ADDAA199000091GA1041+060009019GF104991001001999999001021MA1999999102171MD1310081+9999REMSYN076AAXX  03094 60764 32962 41006 10115 20015 30217 40270 53008 80002 333 84070;EQDQ01  00002PRCP99
0195607640999992000020312004+33700+008970FM-12+004699999V0201001N002112200019N0150001N1+01811+00561102651ADDAA199000091GA1021+030009079GF103991021001999999081021MA1999999102131MD1810041+9999REMSYN082AAXX  03124 60764 32965 31004 10181 20056 30213 40265 58004 82082 333 50321 82360;EQDQ01  00002PRCP99
0195607640999992000020315004+33700+008970FM-12+004699999V0200101N006219999999N0150001N1+02041+01071102451ADDAA199000091GA1031+030009039GF105991031001999999081021MA1999999101941MD1710191+9999REMSYN082AAXX  03154 60764 32965 50112 10204 20107 30194 40245 57019 83082 333 83360 83070;EQDQ01  00002PRCP99
0214607640999992000020318004+33700+008970FM-12+004699999V0200201N003119999999N0100001N1+01791+01101102551ADDAA199000091GA1021+030009039GF106991021001999999081021KA1120M+02121MA1999999102031MD1210091+9999REMSYN088AAXX  03184 60764 32960 60206 10179 20110 30203 40255 52009 82082 333 10212 82360 84070;EQDQ01  00002PRCP99
0214607640999992000020406004+33700+008970FM-12+004699999V0200301N00101036001CN0100001N1+01261+00831103011ADDAA199000091GA1031+009909069GF106991031051008001081001KA1120N+01141MA1999999102481MD1310121+9999REMSYN088AAXX  04064 60764 33560 60302 10126 20083 30248 40301 53012 83580 333 20114 83633 84360;EQDQ01  00002PRCP99
0189607640999992000020409004+33700+008970FM-12+004699999V0203401N003110360019N0100001N1+01541+00781103191ADDAA199000091GA1041+009909059GF105991041051008001081001MA1999999102671MD1210191+9999REMSYN076AAXX  04094 60764 32560 53406 10154 20078 30267 40319 52019 84580 333 84633;EQDQ01  00002PRCP99
0195607640999992000020412004+33700+008970FM-12+004699999V0200201N004110099019N0120001N1+01801+00921103221ADDAA199000091GA1061+009909059GF106991061051008001001001MA1999999102701MD1110031+9999REMSYN082AAXX  04124 60764 32562 60208 10180 20092 30270 40322 51003 86500 333 50401 86633;EQDQ01  00002PRCP99
0189607640999992000020415004+33700+008970FM-12+004699999V0200101N007210099019N0120001N1+01831+01071103111ADDAA199000091GA1061+009909059GF106991061051008001001001MA1999999102591MD1710111+9999REMSYN076AAXX  04154 60764 32562 60114 10183 20107 30259 40311 57011 86500 333 86633;EQDQ01  00002PRCP99
0208607640999992000020506004+33700+008970FM-12+004699999V0200101N003112200019N0100001N1+00981+00561103591ADDAA199000091GA1031+009009059GF104991031051008001001021KA1120N+00881MA1999999103051MD1210091+9999REMSYN082AAXX  05064 60764 33560 40106 10098 20056 30305 40359 52009 83502 333 20088 83630;EQDQ01  00002PRCP99
0189607640999992000020509004+33700+008970FM-12+004699999V0200201N007212200019N0100001N1+01281+00601103701ADDAA199000091GA1021+009009059GF102991021051008001001001MA1999999103171MD1210121+9999REMSYN076AAXX  05094 60764 32560 20214 10128 20060 30317 40370 52012 82500 333 82630;EQDQ01  00002PRCP99
0189607640999992000020515004+33700+008970FM-12+004699999V0200101N006212200019N0120001N1+01661+00881103521ADDAA199000091GA1031+009009059GF103991031051008001001001MA1999999103001MD1710081+9999REMSYN076AAXX  05154 60764 32562 30112 10166 20088 30300 40352 57008 83500 333 83630;EQDQ01  00002PRCP99
0173607640999992000020609004+33700+008970FM-12+004699999V0209999C000012200019N0100001N1+00961+00601103721ADDAA199000091GA1001+999999999GF100991001001999999001001MA1999999103181MD1210071+9999REMSYN060AAXX  06094 60764 32960 00000 10096 20060 30318 40372 52007;EQDQ01  00002PRCP99
0189607640999992000020615004+33700+008970FM-12+004699999V0202301N005112200019N0150001N1+01621+00921103351ADDAA199000091GA1011+009009029GF101991011021008001001001MA1999999102851MD1710141+9999REMSYN076AAXX  06154 60764 32565 12310 10162 20092 30285 40335 57014 81200 333 81830;EQDQ01  00002PRCP99
0202607640999992000020618004+33700+008970FM-12+004699999V0202401N001012200019N0100001N1+01331+00791103351ADDAA199000091GF102991011051008001001021KA1999M+01661MA1999999101822MD1710031+9999REMSYN076AAXX  06184 60764 32560 22402 10133 20079 30182 40335 57003 81502 333 10166;EQDQ01+101823APOSP Q02  00002PRCP99
0196607640999992000020706004+33700+008970FM-12+004699999V0202401N001012200019N0100001N1+00131-00011103231ADDAA199000091GA1001+999999999GF100991001001999999001001KA1999N+00051MA1999999102681MD1610091+9999REMSYN070AAXX  07064 60764 33960 02402 10013 21001 30268 40323 56009 333 20005;EQDQ01  00002PRCP99
0173607640999992000020709004+33700+008970FM-12+004699999V0202301N002112200019N0100001N1+00941+00221103251ADDAA199000091GA1001+999999999GF100991001001999999001001MA1999999102721MD1310041+9999REMSYN060AAXX  07094 60764 32960 02304 10094 20022 30272 40325 53004;EQDQ01  00002PRCP99
0189607640999992000020715004+33700+008970FM-12+004699999V0202301N004112200019N0120001N1+01861+00181102821ADDAA199000091GA1031+060009019GF103991001001999999001021MA1999999102301MD1710251+9999REMSYN076AAXX  07154 60764 32962 32308 10186 20018 30230 40282 57025 80002 333 83070;EQDQ01  00002PRCP99
0208607640999992000020718004+33700+008970FM-12+004699999V0202201N002110600019N0100001N1+01431+00511102821ADDAA199000091GA1051+060009019GF105991001001999999001021KA1120M+01881MA1999999102301MD1410001+9999REMSYN082AAXX  07184 60764 32960 52204 10143 20051 30230 40282 54000 80002 333 10188 85070;EQDQ01  00002PRCP99
0214607640999992000020806004+33700+008970FM-12+004699999V0209999C000012200019N0080001N1+00491+00441103061ADDAA199000091GA1011+009909069GF103991011051008001001021KA1120N+00461MA1999999102521MD1310071+9999REMSYN088AAXX  08064 60764 33558 30000 10049 20044 30252 40306 53007 81502 333 20046 81633 83070;EQDQ01  00002PRCP99
0189607640999992000020809004+33700+008970FM-12+004699999V0200401N001012200019N0150001N1+01221+00891103191ADDAA199000091GA1021+060009019GF102991001001999999001021MA1999999102661MD1110141+9999REMSYN076AAXX  08094 60764 32965 20402 10122 20089 30266 40319 51014 80002 333 82070;EQDQ01  00002PRCP99
0195607640999992000020812004+33700+008970FM-12+004699999V0200201N003112200019N0100001N1+01631+00541103091ADDAA199000091GA1021+009009029GF102991021021008001001001MA1999999102571MD1810091+9999REMSYN082AAXX  08124 60764 32560 20206 10163 20054 30257 40309 58009 82200 333 50341 82830;EQDQ01  00002PRCP99
0189607640999992000020815004+33700+008970FM-12+004699999V0209999C000012200019N0150001N1+01811+00591102851ADDAA199000091GA1031+060009019GF103991001001999999001021MA1999999102331MD1710241+9999REMSYN076AAXX  08154 60764 32965 30000 10181 20059 30233 40285 57024 80002 333 83070;EQDQ01  00002PRCP99
0208607640999992000020818004+33700+008970FM-12+004699999V0202101N002112200019N0100001N1+01461+00551102811ADDAA199000091GA1041+060009019GF104991001001999999001021KA1120M+01871MA1999999102391MD1210061+9999REMSYN082AAXX  08184 60764 32960 42104 10146 20055 30239 40281 52006 80002 333 10187 84070;EQDQ01  00002PRCP99
0202607640999992000020906004+33700+008970FM-12+004699999V0201501N002112200019N0080001N1+00471+99999102871ADDAA199000091GA1031+030009079GF104991031001999999081021KA1120N+00401MA1999999102331MD1610051+9999REMSYN076AAXX  09064 60764 33958 41504 10047 30233 40287 56005 83082 333 20040 83360;EQDQ01  00002PRCP99
0195607640999992000020909004+33700+008970FM-12+004699999V0201801N00311036001CN0100001N1+01121+00421102941ADDAA199000091GA1021+009909069GF105991021051008001081001MA1999999102411MD1110081+9999REMSYN082AAXX  09094 60764 32560 51806 10112 20042 30241 40294 51008 82580 333 82633 84360;EQDQ01  00002PRCP99
0201607640999992000020912004+33700+008970FM-12+004699999V0202201N00621036001CN0120001N1+01601+00431102761ADDAA199000091GA1031+009909069GF105991031051008001081001MA1999999102241MD1810171+9999REMSYN088AAXX  09124 60764 32562 52212 10160 20043 30224 40276 58017 83580 333 50261 83633 83360;EQDQ01  00002PRCP99
0189607640999992000020915004+33700+008970FM-12+004699999V0202301N005112200019N0120001N1+02091+00481102421ADDAA199000091GA1021+060009019GF102991001001999999001021MA1999999101901MD1610341+9999REMSYN076AAXX  09154 60764 32962 22310 10209 20048 30190 40242 56034 80002 333 82070;EQDQ01  00002PRCP99
0208607640999992000020918004+33700+008970FM-12+004699999V0202301N003112200019N0100001N1+01691+00561102411ADDAA199000091GA1021+060009019GF102991001001999999001021KA1120M+02111MA1999999101891MD1710011+9999REMSYN082AAXX  09184 60764 32960 22306 10169 20056 30189 40241 57001 80002 333 10211 82070;EQDQ01  00002PRCP99
0208607640999992000021006004+33700+008970FM-12+004699999V0202701N004112200019N0070001N1+00921+00201102431ADDAA199000091GA1021+060009019GF102991001001999999001021KA1120N+00891MA1999999101901MD1310031+9999REMSYN082AAXX  10064 60764 33957 22708 10092 20020 30190 40243 53003 80002 333 20089 82070;EQDQ01  00002PRCP99
0189607640999992000021009004+33700+008970FM-12+004699999V0203101N005112200019N0080001N1+01521+00311102571ADDAA199000091GA1021+009909059GF103991021051008001001021MA1999999102051MD1110151+9999REMSYN076AAXX  10094 60764 32558 33110 10152 20031 30205 40257 51015 82502 333 82633;EQDQ01  00002PRCP99
0195607640999992000021012004+33700+008970FM-12+004699999V0203001N006212200019N0080001N1+01781+00431102451ADDAA199000091GA1041+009909059GF104991041051008001001001MA1999999101931MD1810121+9999REMSYN082AAXX  10124 60764 32558 43012 10178 20043 30193 40245 58012 84500 333 50601 84633;EQDQ01  00002PRCP99
0189607640999992000021015004+33700+008970FM-12+004699999V0203001N007210099019N0060001N1+01831+00651102171ADDAA199000091GA1061+009909059GF107991061051008001001021MA1999999101661MD1710271+9999REMSYN076AAXX  10154 60764 32556 73014 10183 20065 30166 40217 57027 86502 333 86633;EQDQ01  00002PRCP99
0208607640999992000021018004+33700+008970FM-12+004699999V0203201N008710900019N0060001N1+01341+00691102371ADDAA199000091GA1041+009909059GF105991041051008001001021KA1120M+01911MA1999999101851MD1210191+9999REMSYN082AAXX  10184 60764 32556 53217 10134 20069 30185 40237 52019 84502 333 10191 84633;EQDQ01  00002PRCP99
0208607640999992000021106004+33700+008970FM-12+004699999V0202701N003112200019N0100001N1+00631+00241102491ADDAA199000091GA1031+009909059GF103991031051008001001001KA1120N+00551MA1999999101951MD1310061+9999REMSYN082AAXX  11064 60764 33560 32706 10063 20024 30195 40249 53006 83500 333 20055 83633;EQDQ01  00002PRCP99
0195607640999992000021112004+33700+008970FM-12+004699999V0203101N004112200019N0120001N1+01561+00391102561ADDAA199000091GA1031+009009029GF103991031021008001001001MA1999999102041MD1810021+9999REMSYN082AAXX  11124 60764 32562 33108 10156 20039 30204 40256 58002 83200 333 50591 83830;EQDQ01  00002PRCP99
0189607640999992000021115004+33700+008970FM-12+004699999V0202501N002112200019N0150001N1+01741+00671102421ADDAA199000091GA1031+009009029GF103991031021008001001001MA1999999101901MD1710141+9999REMSYN076AAXX  11154 60764 32565 32504 10174 20067 30190 40242 57014 83200 333 83830;EQDQ01  00002PRCP99
0208607640999992000021206004+33700+008970FM-12+004699999V0201801N001012200019N0080001N1+00201-00081102861ADDAA199000091GA1021+060009019GF102991001001999999001021KA1120N+00161MA1999999102311MD1210021+9999REMSYN082AAXX  12064 60764 33958 21802 10020 21008 30231 40286 52002 80002 333 20016 82070;EQDQ01  00002PRCP99
0189607640999992000021209004+33700+008970FM-12+004699999V0201201N003112200019N0100001N1+00941+00551102941ADDAA199000091GA1031+060009019GF103991001001999999001021MA1999999102411MD1210101+9999REMSYN076AAXX  12094 60764 32960 31206 10094 20055 30241 40294 52010 80002 333 83070;EQDQ01  00002PRCP99
0195607640999992000021212004+33700+008970FM-12+004699999V0202301N003112200019N0120001N1+01701+00841102831ADDAA199000091GA1031+060009019GF103991001001999999001021MA1999999102311MD1710101+9999REMSYN082AAXX  12124 60764 32962 32306 10170 20084 30231 40283 57010 80002 333 50351 83070;EQDQ01  00002PRCP99
0189607640999992000021215004+33700+008970FM-12+004699999V0202501N003112200019N0150001N1+01861+00821102601ADDAA199000091GA1031+060009019GF103991001001999999001021MA1999999102091MD1710221+9999REMSYN076AAXX  12154 60764 32965 32506 10186 20082 30209 40260 57022 80002 333 83070;EQDQ01  00002PRCP99
0189607640999992000021309004+33700+008970FM-12+004699999V0201401N001012200019N0120001N1+01131+00411102871ADDAA199000091GA1021+009009059GF103991021051012501001021MA1999999102341MD1210211+9999REMSYN076AAXX  13094 60764 32662 31402 10113 20041 30234 40287 52021 82502 333 82630;EQDQ01  00002PRCP99
0189607640999992000021315004+33700+008970FM-12+004699999V0202201N002112200019N0150001N1+01851+00991102571ADDAA199000091GA1031+009009029GF103991021021008001001021MA1999999102061MD1710201+9999REMSYN076AAXX  13154 60764 32565 32204 10185 20099 30206 40257 57020 82202 333 83830;EQDQ01  00002PRCP99
0230607640999992000021406004+33700+008970FM-12+004699999V0209999C00001090001CN0080001N1+00231+00071102751ADDAA199000091GA1021+009009089GF106991021021008001001021KA1120N+99999MA1999999102201MD1610051+9999REMSYN088AAXX  14064 60764 33558 60000 10023 20007 30220 40275 56005 82202 333 20044 82830 85070;EQDQ01  00002PRCP99Q02 +00442ATMN  
0195607640999992000021409004+33700+008970FM-12+004699999V0202301N001012200019N0080001N1+01041+00211102821ADDAA199000091GA1011+009009089GF104991011021008001001021MA1999999102291MD1210091+9999REMSYN082AAXX  14094 60764 32558 42302 10104 20021 30229 40282 52009 81202 333 81830 84070;EQDQ01  00002PRCP99
0201607640999992000021412004+33700+008970FM-12+004699999V0201501N003119999999N0120001N1+01581+00151102711ADDAA199000091GA1021+030009039GF105991021001999999081021MA1999999102191MD1810101+9999REMSYN088AAXX  14124 60764 32962 51506 10158 20015 30219 40271 58010 82082 333 50231 82360 84070;EQDQ01  00002PRCP99
0195607640999992000021415004+33700+008970FM-12+004699999V0201701N002112200019N0120001N1+01701+00251102521ADDAA199000091GA1011+009009089GF104991011021008001001021MA1999999102001MD1710191+9999REMSYN082AAXX  14154 60764 32562 41704 10170 20025 30200 40252 57019 81202 333 81830 83070;EQDQ01  00002PRCP99
0214607640999992000021418004+33700+008970FM-12+004699999V0201601N002112200019N0100001N1+01411+00381102551ADDAA199000091GA1011+009009089GF103991011021008001001021KA1120M+01721MA1999999102031MD1210031+9999REMSYN088AAXX  14184 60764 32560 31604 10141 20038 30203 40255 52003 81202 333 10172 81830 83070;EQDQ01  00002PRCP99
0208607640999992000021506004+33700+008970FM-12+004699999V0200801N001012200019N0100001N1+00811+00201102831ADDAA199000091GA1041+009909059GF104991041051008001001001KA1120N+00781MA1999999102291MD1310121+9999REMSYN082AAXX  15064 60764 33560 40802 10081 20020 30229 40283 53012 84500 333 20078 84633;EQDQ01  00002PRCP99
0162607640999992000021509004+33700+008970FM-12+004699999V0200501N001012200019N0120001N1+01441+99999102981ADDAA199000091GA1011+009909059GF101991011051008001001001MD1210161+9999REMSYN064AAXX  15094 60764 32562 10502 10144 40298 52016 81500 333 81633;EQDQ01  00002PRCP99
0195607640999992000021512004+33700+008970FM-12+004699999V0201801N001012200019N0150001N1+01801+00501102931ADDAA199000091GA1011+009009029GF101991011021008001001001MA1999999102411MD1810041+9999REMSYN082AAXX  15124 60764 32565 11802 10180 20050 30241 40293 58004 81200 333 50251 81830;EQDQ01  00002PRCP99
0189607640999992000021515004+33700+008970FM-12+004699999V0201901N002112200019N0150001N1+01901+00491102771ADDAA199000091GA1011+009009029GF101991011021008001001001MA1999999102251MD1610161+9999REMSYN076AAXX  15154 60764 32565 11904 10190 20049 30225 40277 56016 81200 333 81830;EQDQ01  00002PRCP99
0208607640999992000021518004+33700+008970FM-12+004699999V0201401N002112200019N0100001N1+01681+00511102761ADDAA199000091GA1011+009009029GF101991011021008001001001KA1120M+02041MA1999999102241MD1710011+9999REMSYN082AAXX  15184 60764 32560 11404 10168 20051 30224 40276 57001 81200 333 10204 81830;EQDQ01  00002PRCP99
0208607640999992000021606004+33700+008970FM-12+004699999V0200601N002112200019N0100001N1+00591-00091102831ADDAA199000091GA1021+060009019GF102991001001999999001021KA1120N+00401MA1999999102291MD1610051+9999REMSYN082AAXX  16064 60764 33960 20604 10059 21009 30229 40283 56005 80002 333 20040 82070;EQDQ01  00002PRCP99
0189607640999992000021609004+33700+008970FM-12+004699999V0200501N003112200019N0100001N1+01061+00231102841ADDAA199000091GA1021+060009019GF102991001001999999001021MA1999999102311MD1110021+9999REMSYN076AAXX  16094 60764 32960 20506 10106 20023 30231 40284 51002 80002 333 82070;EQDQ01  00002PRCP99
0183607640999992000021612004+33700+008970FM-12+004699999V0201601N004112200019N0150001N1+01861+00411102861ADDAA199000091GA1001+999999999GF100991001001999999001001MA1999999102161MD1810151+9999REMSYN070AAXX  16124 60764 32965 01608 10186 20041 30216 40286 58015 333 50401;EQDQ01  00002PRCP99
0173607640999992000021615004+33700+008970FM-12+004699999V0201601N006212200019N0150001N1+02031+00561102361ADDAA199000091GA1001+999999999GF100991001001999999001001MA1999999101851MD1710311+9999REMSYN060AAXX  16154 60764 32965 01612 10203 20056 30185 40236 57031;EQDQ01  00002PRCP99
0196607640999992000021618004+33700+008970FM-12+004699999V0201601N004112200019N0100001N1+01741+00541102261ADDAA199000091GA1001+999999999GF100991001001999999001001KA1999M+02101MA1999999101741MD1710111+9999REMSYN070AAXX  16184 60764 32960 01608 10174 20054 30174 40226 57011 333 10210;EQDQ01  00002PRCP99
0214607640999992000021706004+33700+008970FM-12+004699999V0200301N001012200019N0100001N1+00651+00161101851ADDAA199000091GA1021+009909069GF104991021051008001081001KA1120N+00571MA1999999101321MD1710111+9999REMSYN088AAXX  17064 60764 33560 40302 10065 20016 30132 40185 57011 82580 333 20057 82633 83360;EQDQ01  00002PRCP99
0195607640999992000021709004+33700+008970FM-12+004699999V0202201N003112200019N0080001N1+01351+00211101881ADDAA199000091GA1011+030009039GF103991011001999999081021MA1999999101361MD1310041+9999REMSYN082AAXX  17094 60764 32958 32206 10135 20021 30136 40188 53004 81082 333 81360 83070;EQDQ01  00002PRCP99
0195607640999992000021712004+33700+008970FM-12+004699999V0202601N003112200019N0120001N1+01881+00531101861ADDAA199000091GA1021+060009019GF102991001001999999001021MA1999999101341MD1810021+9999REMSYN082AAXX  17124 60764 32962 22606 10188 20053 30134 40186 58002 80002 333 50421 82070;EQDQ01  00002PRCP99
0205607640999992000021715004+33700+008970FM-12+004699999V0203301N006212200019N0120001N1+02081+00751101751ADDAA199000091GA1031+009009059GF199999021051008001001001MA1999999101241MD1710101+9999REMSYN076AAXX  17154 60764 32562 23312 10208 20075 30124 40175 57010 82500 333 83630;EQDQ01+000022SCOTCVQ02  00002PRCP99
0224607640999992000021718004+33700+008970FM-12+004699999V0203301N005112200019N0100001N1+01831+00591101771ADDAA199000091GA1031+009009059GF199999021051008001001001KA1120M+02181MA1999999101261MD1210021+9999REMSYN082AAXX  17184 60764 32560 23310 10183 20059 30126 40177 52002 82500 333 10218 83630;EQDQ01+000022SCOTCVQ02  00002PRCP99
0208607640999992000021806004+33700+008970FM-12+004699999V0200801N001012200019N0100001N1+00591+00201102191ADDAA199000091GA1041+009009059GF104991041051008001001001KA1120N+00461MA1999999101651MD1310141+9999REMSYN082AAXX  18064 60764 33560 40802 10059 20020 30165 40219 53014 84500 333 20046 84630;EQDQ01  00002PRCP99
0189607640999992000021809004+33700+008970FM-12+004699999V0203501N008212200019N0100001N1+01701+00281102421ADDAA199000091GA1021+009009059GF102991021051008001001001MA1999999101901MD1210251+9999REMSYN076AAXX  18094 60764 32560 23516 10170 20028 30190 40242 52025 82500 333 82630;EQDQ01  00002PRCP99
0195607640999992000021812004+33700+008970FM-12+004699999V0203401N006212200019N0120001N1+01911+00551102511ADDAA199000091GA1031+009009059GF103991031051008001001001MA1999999101991MD1110091+9999REMSYN082AAXX  18124 60764 32562 33412 10191 20055 30199 40251 51009 83500 333 50461 83630;EQDQ01  00002PRCP99
0189607640999992000021815004+33700+008970FM-12+004699999V0200901N003112200019N0150001N1+02021+00691102431ADDAA199000091GA1011+060009019GF101991001001999999001021MA1999999101921MD1710071+9999REMSYN076AAXX  18154 60764 32965 10906 10202 20069 30192 40243 57007 80002 333 81070;EQDQ01  00002PRCP99
0196607640999992000021906004+33700+008970FM-12+004699999V0201201N001012200019N0100001N1+00411+00041102861ADDAA199000091GA1001+999999999GF100991001001999999001001KA1999N+00391MA1999999102321MD1210041+9999REMSYN070AAXX  19064 60764 33960 01202 10041 20004 30232 40286 52004 333 20039;EQDQ01  00002PRCP99
0173607640999992000021909004+33700+008970FM-12+004699999V0201701N002112200019N0120001N1+01161+00341102951ADDAA199000091GA1001+999999999GF100991001001999999001001MA1999999102421MD1210101+9999REMSYN060AAXX  19094 60764 32962 01704 10116 20034 30242 40295 52010;EQDQ01  00002PRCP99
0173607640999992000021915004+33700+008970FM-12+004699999V0202201N005112200019N0150001N1+02181+01051102421ADDAA199000091GA1001+999999999GF100991001001999999001001MA1999999101911MD1710311+9999REMSYN060AAXX  19154 60764 32965 02210 10218 20105 30191 40242 57031;EQDQ01  00002PRCP99
0212607640999992000021918004+33700+008970FM-12+004699999V0202001N003112200019N0100001N1+01861+01171102301ADDAA199000091GA1001+999999999GF100991001001999999001001KA1999M+02191MA1999999101192MD1710121+9999REMSYN070AAXX  19184 60764 32960 02006 10186 20117 30119 40230 57012 333 10219;EQDQ01+101193APOSP Q02  00002PRCP99
0173607640999992000022015004+33700+008970FM-12+004699999V0202101N005112200019N0150001N1+02371+01361101951ADDAA199000091GA1001+999999999GF100991001001999999001001MA1999999101451MD1710191+9999REMSYN060AAXX  20154 60764 32965 02110 10237 20136 30145 40195 57019;EQDQ01  00002PRCP99
0196607640999992000022106004+33700+008970FM-12+004699999V0203301N008712200019N0100001N1+01251+00941102341ADDAA199000091GA1001+999999999GF100991001001999999001001KA1999N+01131MA1999999101821MD1310061+9999REMSYN070AAXX  21064 60764 33960 03317 10125 20094 30182 40234 53006 333 20113;EQDQ01  00002PRCP99
0173607640999992000022109004+33700+008970FM-12+004699999V0200401N009812200019N0100001N1+01491+00351102561ADDAA199000091GA1001+999999999GF100991001001999999001001MA1999999102041MD1210221+9999REMSYN060AAXX  21094 60764 32960 00419 10149 20035 30204 40256 52022;EQDQ01  00002PRCP99
0173607640999992000022115004+33700+008970FM-12+004699999V0200201N004112200019N0150001N1+01951+00381102441ADDAA199000091GA1001+999999999GF100991001001999999001001MA1999999101931MD1610111+9999REMSYN060AAXX  21154 60764 32965 00208 10195 20038 30193 40244 56011;EQDQ01  00002PRCP99
0196607640999992000022118004+33700+008970FM-12+004699999V0200601N003112200019N0100001N1+01591+00351102511ADDAA199000091GA1001+999999999GF100991001001999999001001KA1999M+01981MA1999999101991MD1210061+9999REMSYN070AAXX  21184 60764 32960 00606 10159 20035 30199 40251 52006 333 10198;EQDQ01  00002PRCP99
0208607640999992000022206004+33700+008970FM-12+004699999V0209999C000012200019N0080001N1+00381+00061102781ADDAA199000091GA1031+060009019GF103991001001999999001021KA1120N+00351MA1999999102241MD1310041+9999REMSYN082AAXX  22064 60764 33958 30000 10038 20006 30224 40278 53004 80002 333 20035 83070;EQDQ01  00002PRCP99
0173607640999992000022209004+33700+008970FM-12+004699999V0201101N002112200019N0080001N1+01331+00521102841ADDAA199000091GA1001+999999999GF100991001001999999001001MA1999999102311MD1110071+9999REMSYN060AAXX  22094 60764 32958 01104 10133 20052 30231 40284 51007;EQDQ01  00002PRCP99
0195607640999992000022212004+33700+008970FM-12+004699999V0201901N002112200019N0150001N1+01641+00341102721ADDAA199000091GA1011+009009029GF102991011021008001001021MA1999999102201MD1810111+9999REMSYN082AAXX  22124 60764 32565 21904 10164 20034 30220 40272 58011 81202 333 50561 81830;EQDQ01  00002PRCP99
0189607640999992000022215004+33700+008970FM-12+004699999V0202501N003112200019N0150001N1+01761+00311102491ADDAA199000091GA1031+060009019GF103991001001999999001021MA1999999101971MD1610231+9999REMSYN076AAXX  22154 60764 32965 32506 10176 20031 30197 40249 56023 80002 333 83070;EQDQ01  00002PRCP99
0208607640999992000022218004+33700+008970FM-12+004699999V0202101N002112200019N0100001N1+01611+00291102421ADDAA199000091GA1031+060009019GF103991001001999999001021KA1120M+01851MA1999999101901MD1710071+9999REMSYN082AAXX  22184 60764 32960 32104 10161 20029 30190 40242 57007 80002 333 10185 83070;EQDQ01  00002PRCP99
0214607640999992000022306004+33700+008970FM-12+004699999V0201001N00311036001CN0100001N1+00871+00621102321ADDAA199000091GA1031+009909069GF105991031051008001081001KA1120N+00451MA1999999101791MD1410001+9999REMSYN088AAXX  23064 60764 33560 51006 10087 20062 30179 40232 54000 83580 333 20045 83633 83360;EQDQ01  00002PRCP99
0195607640999992000022309004+33700+008970FM-12+004699999V0200901N00411036001CN0100001N1+01241+00441102361ADDAA199000091GA1021+009909069GF105991021051008001081001MA1999999101831MD1310041+9999REMSYN082AAXX  23094 60764 32560 50908 10124 20044 30183 40236 53004 82580 333 82633 84360;EQDQ01  00002PRCP99
0201607640999992000022312004+33700+008970FM-12+004699999V0200301N00211036001CN0120001N1+01691+00441102231ADDAA199000091GA1041+009909069GF106991041051008001081001MA1999999101711MD1810121+9999REMSYN088AAXX  23124 60764 32562 60304 10169 20044 30171 40223 58012 84580 333 50341 84633 83360;EQDQ01  00002PRCP99
0159607640999992000022315004+33700+008970FM-12+004699999V0209999C000010099019N0080001N1+01221+00421102171ADDGA1081+009909059GF108991081051008001999999MA1999999101651MD1710061+9999REMSYN076AAXX  23154 60764 41558 80000 10122 20042 30165 40217 57006 885// 333 88633;
0223607640999992000022318004+33700+008970FM-12+004699999V0209999C000010099019N0100001N1+01141+01021102181ADDAA112004191AY161061AY221061GA1061+009909059GF106991061051008001001021KA1120M+01741MA1999999101651MD1410001+9999MW1011REMSYN094AAXX  23184 60764 11560 60000 10114 20102 30165 40218 54000 60042 70162 86502 333 10174 86633;
0220607640999992000022406004+33700+008970FM-12+004699999V0200401N002112200019N0080001N1+00781+00581102611ADDAA124004191GA1021+009009059GF102991999021008001001001KA1120N+00751MA1999999102081MD1310061+9999REMSYN094AAXX  24064 60764 13558 20404 10078 20058 30208 40261 53006 60044 84200 333 20075 70036 82630;EQDQ01+000042SCOTLC
0189607640999992000022409004+33700+008970FM-12+004699999V0200301N001012200019N0100001N1+01171+00631102851ADDAA199000091GA1011+009009059GF101991011051008001001001MA1999999102321MD1210241+9999REMSYN076AAXX  24094 60764 32560 10302 10117 20063 30232 40285 52024 81500 333 81630;EQDQ01  00002PRCP99
0195607640999992000022412004+33700+008970FM-12+004699999V0200401N008710090019N0150001N1+01521+00421102871ADDAA199000091GA1051+009009029GF105991051021008001001001MA1999999102351MD1110031+9999REMSYN082AAXX  24124 60764 32565 50417 10152 20042 30235 40287 51003 85200 333 50131 85830;EQDQ01  00002PRCP99
0189607640999992000022415004+33700+008970FM-12+004699999V0203501N004110090019N0150001N1+01661+00431102841ADDAA199000091GA1061+009009029GF106991061021008001001001MA1999999102321MD1710031+9999REMSYN076AAXX  24154 60764 32565 63508 10166 20043 30232 40284 57003 86200 333 86830;EQDQ01  00002PRCP99
0208607640999992000022418004+33700+008970FM-12+004699999V0200301N005112200019N0100001N1+01241+00521102991ADDAA199000091GA1041+009009029GF104991041021008001001001KA1120M+01711MA1999999102461MD1210141+9999REMSYN082AAXX  24184 60764 32560 40310 10124 20052 30246 40299 52014 84200 333 10171 84830;EQDQ01  00002PRCP99
0196607640999992000022506004+33700+008970FM-12+004699999V0203601N001012200019N0080001N1+00371+00221103531ADDAA199000091GA1001+999999999GF100991001001999999001001KA1999N+00331MA1999999102991MD1310051+9999REMSYN070AAXX  25064 60764 33958 03602 10037 20022 30299 40353 53005 333 20033;EQDQ01  00002PRCP99
0173607640999992000022509004+33700+008970FM-12+004699999V0203301N002112200019N0120001N1+01191+00361103661ADDAA199000091GA1001+999999999GF100991001001999999001001MA1999999103131MD1210141+9999REMSYN060AAXX  25094 60764 32962 03304 10119 20036 30313 40366 52014;EQDQ01  00002PRCP99
0196607640999992000022512004+33700+008970FM-12+004699999V0200201N003112200019N0150001N1+01611+00251103631ADDAA199000091GA1021+009009029GF102991021021008001001001MD1810021+9999REMSYN082AAXX  25124 60764 32565 20206 10161 20025 31311 40363 58002 82200 333 50321 82830;EQDQ01+013111APOSP Q02  00002PRCP99
0189607640999992000022515004+33700+008970FM-12+004699999V0200201N002112200019N0150001N1+01761+00401103431ADDAA199000091GA1011+009009029GF101991011021008001001001MA1999999102911MD1710201+9999REMSYN076AAXX  25154 60764 32565 10204 10176 20040 30291 40343 57020 81200 333 81830;EQDQ01  00002PRCP99
0196607640999992000022606004+33700+008970FM-12+004699999V0201201N002112200019N0100001N1+00381+00181103691ADDAA199000091GA1001+999999999GF100991001001999999001001KA1999N+00341MA1999999103141MD1210041+9999REMSYN070AAXX  26064 60764 33960 01204 10038 20018 30314 40369 52004 333 20034;EQDQ01  00002PRCP99
0173607640999992000022609004+33700+008970FM-12+004699999V0202101N003112200019N0120001N1+01061+00371103751ADDAA199000091GA1001+999999999GF100991001001999999001001MA1999999103221MD1210081+9999REMSYN060AAXX  26094 60764 32962 02106 10106 20037 30322 40375 52008;EQDQ01  00002PRCP99
0183607640999992000022612004+33700+008970FM-12+004699999V0202501N005112200019N0150001N1+01661+00431103521ADDAA199000091GA1001+999999999GF100991001001999999001001MA1999999103001MD1710221+9999REMSYN070AAXX  26124 60764 32965 02510 10166 20043 30300 40352 57022 333 50241;EQDQ01  00002PRCP99
0157607640999992000022615004+33700+008970FM-12+004699999V0202701N006212200019N0150001N1+01871+00511103271ADDAA199000091GF104991999999999999999999MA1999999102751MD1710251+9999REMSYN060AAXX  26154 60764 32965 42712 10187 20051 30275 40327 57025;EQDQ01  00002PRCP99
0189607640999992000022709004+33700+008970FM-12+004699999V0202201N002112200019N0120001N1+01121+00291103331ADDAA199000091GA1021+060009019GF102991001001999999001021MA1999999102801MD1210111+9999REMSYN076AAXX  27094 60764 32962 22204 10112 20029 30280 40333 52011 80002 333 82070;EQDQ01  00002PRCP99
0189607640999992000022715004+33700+008970FM-12+004699999V0202301N003112200019N0150001N1+01991+00571102961ADDAA199000091GA1021+060009019GF102991001001999999001021MA1999999102451MD1710201+9999REMSYN076AAXX  27154 60764 32965 22306 10199 20057 30245 40296 57020 80002 333 82070;EQDQ01  00002PRCP99
0208607640999992000022806004+33700+008970FM-12+004699999V0203101N001012200019N0100001N1+00221-00091103011ADDAA199000091GA1031+060009019GF103991001001999999001021KA1120N+00171MA1999999102461MD1310031+9999REMSYN082AAXX  28064 60764 33960 33102 10022 21009 30246 40301 53003 80002 333 20017 83070;EQDQ01  00002PRCP99
0205607640999992000022809004+33700+008970FM-12+004699999V0202601N002112200019N0100001N1+01201+00101999999ADDAA199000091GA1021+060009019GF102991001001999999001021MA1999999102611MD1110151+9999REMSYN076AAXX  28094 60764 32960 22604 10120 20010 30261 40214 51015 80002 333 82070;EQDQ01+102143APOSLPQ02  00002PRCP99
0195607640999992000022812004+33700+008970FM-12+004699999V0202901N001012200019N0150001N1+01901+00181103031ADDAA199000091GA1021+060009019GF102991001001999999001021MA1999999102511MD1810101+9999REMSYN082AAXX  28124 60764 32965 22902 10190 20018 30251 40303 58010 80002 333 50431 82070;EQDQ01  00002PRCP99
0189607640999992000022815004+33700+008970FM-12+004699999V0202801N001012200019N0150001N1+02051+00151102751ADDAA199000091GA1031+060009019GF103991001001999999001021MA1999999102241MD1710271+9999REMSYN076AAXX  28154 60764 32965 32802 10205 20015 30224 40275 57027 80002 333 83070;EQDQ01  00002PRCP99
0208607640999992000022818004+33700+008970FM-12+004699999V0209999C000012200019N0100001N1+01741+00411102801ADDAA199000091GA1041+060009019GF104991001001999999001021KA1120M+02121MA1999999102281MD1210041+9999REMSYN082AAXX  28184 60764 32960 40000 10174 20041 30228 40280 52004 80002 333 10212 84070;EQDQ01  00002PRCP99
0208607640999992000022906004+33700+008970FM-12+004699999V0201101N007212200019N0080001N1+01041+00811102901ADDAA199000091GA1031+060009019GF103991001001999999001021KA1120N+01011MA1999999102371MD1410001+9999REMSYN082AAXX  29064 60764 33958 31114 10104 20081 30237 40290 54000 80002 333 20101 83070;EQDQ01  00002PRCP99
0189607640999992000022909004+33700+008970FM-12+004699999V0201001N008712200019N0060001N1+01181+00991103121ADDAA199000091GA1021+060009019GF102991001001999999001021MA1999999102591MD1210281+9999REMSYN076AAXX  29094 60764 32956 21017 10118 20099 30259 40312 52028 80002 333 82070;EQDQ01  00002PRCP99
0195607640999992000022912004+33700+008970FM-12+004699999V0200401N006212200019N0100001N1+01851+00901103031ADDAA199000091GA1041+060009019GF104991001001999999001021MA1999999102511MD1810081+9999REMSYN082AAXX  29124 60764 32960 40412 10185 20090 30251 40303 58008 80002 333 50311 84070;EQDQ01  00002PRCP99
0189607640999992000022915004+33700+008970FM-12+004699999V0201101N002112200019N0120001N1+02211+00371102811ADDAA199000091GA1041+060009019GF104991001001999999001021MA1999999102301MD1710211+9999REMSYN076AAXX  29154 60764 32962 41104 10221 20037 30230 40281 57021 80002 333 84070;EQDQ01  00002PRCP99
0208607640999992000022918004+33700+008970FM-12+004699999V0209999C000010600019N0100001N1+01871+00601102871ADDAA199000091GA1061+060009019GF106991001001999999001021KA1120M+02231MA1999999102351MD1210051+9999REMSYN082AAXX  29184 60764 32960 60000 10187 20060 30235 40287 52005 80002 333 10223 86070;EQDQ01  00002PRCP99
0208607640999992000030106004+33700+008970FM-12+004699999V0209999C000010600019N0070001N1+00731+00561102821ADDAA199000091GA1051+060009019GF105991001001999999001021KA1120N+00691MA1999999102281MD1610041+9999REMSYN082AAXX  01064 60764 33957 50000 10073 20056 30228 40282 56004 80002 333 20069 85070;EQDQ01  00002PRCP99
0189607640999992000030109004+33700+008970FM-12+004699999V0201601N002112200019N0100001N1+01471+00601102831ADDAA199000091GA1031+060009019GF103991001001999999001021MA1999999102311MD1310031+9999REMSYN076AAXX  01094 60764 32960 31604 10147 20060 30231 40283 53003 80002 333 83070;EQDQ01  00002PRCP99
0195607640999992000030112004+33700+008970FM-12+004699999V0202401N004112200019N0150001N1+02051+00411102631ADDAA199000091GA1021+060009019GF102991001001999999001021MA1999999102121MD1810191+9999REMSYN082AAXX  01124 60764 32965 22408 10205 20041 30212 40263 58019 80002 333 50301 82070;EQDQ01  00002PRCP99
0162607640999992000030115004+33700+008970FM-12+004699999V0202401N004112200019N0150001N1+99999+99999999999ADDAA199000091GA1021+060009019GF102991001001999999001021MD1810191+9999REMSYN064AAXX  01154 60764 32965 22408 2//// 58019 80002 333 50301 82070;EQDQ01  00002PRCP99
0196607640999992000030118004+33700+008970FM-12+004699999V0202501N003112200019N0100001N1+01991+00501102261ADDAA199000091GA1001+999999999GF100991001001999999001001KA1999M+02341MA1999999101751MD1710101+9999REMSYN070AAXX  01184 60764 32960 02506 10199 20050 30175 40226 57010 333 10234;EQDQ01  00002PRCP99
0208607640999992000030206004+33700+008970FM-12+004699999V0201301N002112200019N0100001N1+00601-00191102091ADDAA199000091GA1021+060009019GF102991001001999999001021KA1120N+00501MA1999999101551MD1610071+9999REMSYN082AAXX  02064 60764 33960 21304 10060 21019 30155 40209 56007 80002 333 20050 82070;EQDQ01  00002PRCP99
0173607640999992000030209004+33700+008970FM-12+004699999V0201801N001012200019N0100001N1+01461-00121102261ADDAA199000091GA1001+999999999GF100991001001999999001001MA1999999101741MD1110191+9999REMSYN060AAXX  02094 60764 32960 01802 10146 21012 30174 40226 51019;EQDQ01  00002PRCP99
0183607640999992000030212004+33700+008970FM-12+004699999V0202901N001012200019N0150001N1+02081+00061102251ADDAA199000091GA1001+999999999GF100991001001999999001001MA1999999101741MD1410001+9999REMSYN070AAXX  02124 60764 32965 02902 10208 20006 30174 40225 54000 333 50521;EQDQ01  00002PRCP99
0189607640999992000030215004+33700+008970FM-12+004699999V0203601N006212200019N0120001N1+02331+00671102201ADDAA199000091GA1021+060009019GF102991001001999999001021MA1999999101701MD1610041+9999REMSYN076AAXX  02154 60764 32962 23612 10233 20067 30170 40220 56004 80002 333 82070;EQDQ01  00002PRCP99
0196607640999992000030218004+33700+008970FM-12+004699999V0203501N006212200019N0100001N1+01871+00521102381ADDAA199000091GA1001+999999999GF100991001001999999001001KA1999M+02401MA1999999101851MD1210151+9999REMSYN070AAXX  02184 60764 32960 03512 10187 20052 30185 40238 52015 333 10240;EQDQ01  00002PRCP99
0196607640999992000030306004+33700+008970FM-12+004699999V0201201N001012200019N0120001N1+00561-00061103041ADDAA199000091GA1001+999999999GF100991001001999999001001KA1999N+00471MA1999999102501MD1310141+9999REMSYN070AAXX  03064 60764 33962 01202 10056 21006 30250 40304 53014 333 20047;EQDQ01  00002PRCP99
0173607640999992000030309004+33700+008970FM-12+004699999V0201301N001012200019N0120001N1+01281+00101103251ADDAA199000091GA1001+999999999GF100991001001999999001001MA1999999102731MD1710231+9999REMSYN060AAXX  03094 60764 32962 01302 10128 20010 30273 40325 57023;EQDQ01  00002PRCP99
0183607640999992000030312004+33700+008970FM-12+004699999V0209999C000012200019N0150001N1+01711+00151103181ADDAA199000091GA1001+999999999GF100991001001999999001001MA1999999102661MD1710071+9999REMSYN070AAXX  03124 60764 32965 00000 10171 20015 30266 40318 57007 333 50841;EQDQ01  00002PRCP99
0173607640999992000030315004+33700+008970FM-12+004699999V0209999C000012200019N0150001N1+01891+00331102921ADDAA199000091GA1001+999999999GF100991001001999999001001MA1999999102411MD1710251+9999REMSYN060AAXX  03154 60764 32965 00000 10189 20033 30241 40292 57025;EQDQ01  00002PRCP99
0190607640999992000030318004+33700+008970FM-12+004699999V0202701N003112200019N0100001N1+01531+00491999999ADDAA199000091GA1001+999999999GF100991001001999999001001KA1999M+01921MA1999999102451MD1210041+9999REMSYN064AAXX  03184 60764 32960 02706 10153 20049 30245 52004 333 10192;EQDQ01  00002PRCP99
0196607640999992000030406004+33700+008970FM-12+004699999V0201401N003112200019N0100001N1+00481-00141102801ADDAA199000091GA1001+999999999GF100991001001999999001001KA1999N+00271MA1999999102261MD1710031+9999REMSYN070AAXX  04064 60764 33960 01406 10048 21014 30226 40280 57003 333 20027;EQDQ01  00002PRCP99
0173607640999992000030409004+33700+008970FM-12+004699999V0201801N001012200019N0120001N1+01221+00021102821ADDAA199000091GA1001+999999999GF100991001001999999001001MA1999999102291MD1210031+9999REMSYN060AAXX  04094 60764 32962 01802 10122 20002 30229 40282 52003;EQDQ01  00002PRCP99
0183607640999992000030412004+33700+008970FM-12+004699999V0202701N005112200019N0150001N1+01861+00471102631ADDAA199000091GA1001+999999999GF100991001001999999001001MA1999999102121MD1710171+9999REMSYN070AAXX  04124 60764 32965 02710 10186 20047 30212 40263 57017 333 50391;EQDQ01  00002PRCP99
0189607640999992000030415004+33700+008970FM-12+004699999V0202701N007212200019N0150001N1+02161+00961102291ADDAA199000091GA1031+060009019GF103991001001999999001021MA1999999101781MD1710341+9999REMSYN076AAXX  04154 60764 32965 32714 10216 20096 30178 40229 57034 80002 333 83070;EQDQ01  00002PRCP99
0173607640999992000030515004+33700+008970FM-12+004699999V0200601N006212200019N0150001N1+02311+01301102451ADDAA199000091GA1001+999999999GF100991001001999999001001MA1999999101741MD1710111+9999REMSYN060AAXX  05154 60764 32965 00612 10231 20130 30174 40245 57011;EQDQ01  00002PRCP99
0208607640999992000030606004+33700+008970FM-12+004699999V0200601N007212200019N0080001N1+01031+00871103201ADDAA199000091GA1031+060009019GF103991001001999999001021KA1120N+00991MA1999999102671MD1210091+9999REMSYN082AAXX  06064 60764 33958 30614 10103 20087 30267 40320 52009 80002 333 20099 83070;EQDQ01  00002PRCP99
0173607640999992000030609004+33700+008970FM-12+004699999V0200501N008212200019N0150001N1+01521+00451103381ADDAA199000091GA1001+999999999GF100991001001999999001001MA1999999102651MD1210181+9999REMSYN060AAXX  06094 60764 32965 00516 10152 20045 30265 40338 52018;EQDQ01  00002PRCP99
0183607640999992000030612004+33700+008970FM-12+004699999V0200501N008212200019N0100001N1+01841+00751103321ADDAA199000091GA1001+999999999GF100991001001999999001001MA1999999102801MD1710051+9999REMSYN070AAXX  06124 60764 32960 00516 10184 20075 30280 40332 57005 333 50741;EQDQ01  00002PRCP99
0173607640999992000030615004+33700+008970FM-12+004699999V0200801N005112200019N0120001N1+01971+00941103191ADDAA199000091GA1001+999999999GF100991001001999999001001MA1999999102681MD1710121+9999REMSYN060AAXX  06154 60764 32962 00810 10197 20094 30268 40319 57012;EQDQ01  00002PRCP99
0196607640999992000030706004+33700+008970FM-12+004699999V0200301N004112200019N0060001N1+00821+00781103371ADDAA199000091GA1001+999999999GF100991001001999999001001KA1999N+00801MA1999999102831MD1210061+9999REMSYN070AAXX  07064 60764 33956 00308 10082 20078 30283 40337 52006 333 20080;EQDQ01  00002PRCP99
0189607640999992000030709004+33700+008970FM-12+004699999V0200301N004112200019N0080001N1+01301+01091103461ADDAA199000091GA1021+009009059GF102991021051008001001021MA1999999102931MD1210101+9999REMSYN076AAXX  07094 60764 32558 20308 10130 20109 30293 40346 52010 82502 333 82630;EQDQ01  00002PRCP99
0199607640999992000030712004+33700+008970FM-12+004699999V0201801N004112200019N0150001N1+01861+01071999999ADDAA199000091GA1001+999999999GF100991001001999999001001MA1999999102801MD1710131+9999REMSYN070AAXX  07124 60764 32965 01808 10186 20107 30280 40232 57013 333 50571;EQDQ01+102323APOSLPQ02  00002PRCP99
0173607640999992000030715004+33700+008970FM-12+004699999V0209999C000012200019N0150001N1+02071+01241103031ADDAA199000091GA1001+999999999GF100991001001999999001001MA1999999102521MD1710281+9999REMSYN060AAXX  07154 60764 32965 00000 10207 20124 30252 40303 57028;EQDQ01  00002PRCP99
0196607640999992000030806004+33700+008970FM-12+004699999V0200601N003112200019N0100001N1+00841+00671102971ADDAA199000091GA1001+999999999GF100991001001999999001001KA1999N+00691MA1999999102431MD1410001+9999REMSYN070AAXX  08064 60764 33960 00606 10084 20067 30243 40297 54000 333 20069;EQDQ01  00002PRCP99
0173607640999992000030809004+33700+008970FM-12+004699999V0201501N003112200019N0120001N1+01481+00931103091ADDAA199000091GA1001+999999999GF100991001001999999001001MA1999999102571MD1210141+9999REMSYN060AAXX  08094 60764 32962 01506 10148 20093 30257 40309 52014;EQDQ01  00002PRCP99
0164607640999992000030812004+33700+008970FM-12+004699999V0202301N001012200019N0150001N1+02031+01231999999ADDAA199000091GF102991999999999999999999MA1999999102441REMSYN081AAXX  08124 60764 32965 22302 10203 20123 30244 4029 57016 80002 333 50411 82070;EQDQ01  00002PRCP99
0189607640999992000030815004+33700+008970FM-12+004699999V0203101N002112200019N0150001N1+02171+01321102771ADDAA199000091GA1031+060009019GF103991001001999999001021MA1999999102261MD1710181+9999REMSYN076AAXX  08154 60764 32965 33104 10217 20132 30226 40277 57018 80002 333 83070;EQDQ01  00002PRCP99
0214607640999992000030906004+33700+008970FM-12+004699999V0200501N009812200019N0080001N1+01121+01001103081ADDAA199000091GA1021+009009069GF104991021051008001001021KA1120N+01101MA1999999102551MD1210101+9999REMSYN088AAXX  09064 60764 33558 40519 10112 20100 30255 40308 52010 82502 333 20110 82630 83070;EQDQ01  00002PRCP99
0189607640999992000030909004+33700+008970FM-12+004699999V0200501N009812200019N0080001N1+01461+01081103221ADDAA199000091GA1011+009009059GF101991011051008001001021MA1999999102701MD1210151+9999REMSYN076AAXX  09094 60764 32558 10519 10146 20108 30270 40322 52015 81502 333 81630;EQDQ01  00002PRCP99
0195607640999992000030912004+33700+008970FM-12+004699999V0200501N007212200019N0100001N1+01861+01291103171ADDAA199000091GA1011+009009059GF101991011051008001001021MA1999999102651MD1710051+9999REMSYN082AAXX  09124 60764 32560 10514 10186 20129 30265 40317 57005 81502 333 50521 81630;EQDQ01  00002PRCP99
0189607640999992000030915004+33700+008970FM-12+004699999V0200301N006212200019N0150001N1+01991+01421102951ADDAA199000091GA1021+009009059GF102991021051008001001021MA1999999102441MD1710211+9999REMSYN076AAXX  09154 60764 32565 20312 10199 20142 30244 40295 57021 82502 333 82630;EQDQ01  00002PRCP99
0196607640999992000031006004+33700+008970FM-12+004699999V0209999C000012200019N0100001N1+00461+00411102961ADDAA199000091GA1001+999999999GF100991001001999999001001KA1999N+00391MA1999999102421MD1210041+9999REMSYN070AAXX  10064 60764 33960 00000 10046 20041 30242 40296 52004 333 20039;EQDQ01  00002PRCP99
0173607640999992000031009004+33700+008970FM-12+004699999V0200801N001012200019N0120001N1+01461+01181103021ADDAA199000091GA1001+999999999GF100991001001999999001001MA1999999102501MD1210081+9999REMSYN060AAXX  10094 60764 32962 00802 10146 20118 30250 40302 52008;EQDQ01  00002PRCP99
0183607640999992000031012004+33700+008970FM-12+004699999V0202301N004112200019N0150001N1+01911+01291102881ADDAA199000091GA1001+999999999GF100991001001999999001001MA1999999102361MD1710141+9999REMSYN070AAXX  10124 60764 32965 02308 10191 20129 30236 40288 57014 333 50441;EQDQ01  00002PRCP99
0173607640999992000031015004+33700+008970FM-12+004699999V0202601N004112200019N0150001N1+02131+01511102591ADDAA199000091GA1001+999999999GF100991001001999999001001MA1999999102081MD1710241+9999REMSYN060AAXX  10154 60764 32965 02608 10213 20151 30208 40259 57024;EQDQ01  00002PRCP99
0196607640999992000031106004+33700+008970FM-12+004699999V0200601N002112200019N0100001N1+00651+00541102741ADDAA199000091GA1001+999999999GF100991001001999999001001KA1999N+00621MA1999999102201MD1210061+9999REMSYN070AAXX  11064 60764 33960 00604 10065 20054 30220 40274 52006 333 20062;EQDQ01  00002PRCP99
0173607640999992000031109004+33700+008970FM-12+004699999V0200801N002112200019N0120001N1+01421+01041102791ADDAA199000091GA1001+999999999GF100991001001999999001001MA1999999102261MD1210061+9999REMSYN060AAXX  11094 60764 32962 00804 10142 20104 30226 40279 52006;EQDQ01  00002PRCP99
0183607640999992000031112004+33700+008970FM-12+004699999V0200901N002112200019N0150001N1+02161+01581102651ADDAA199000091GA1001+999999999GF100991001001999999001001MA1999999102141MD1710121+9999REMSYN070AAXX  11124 60764 32965 00904 10216 20158 30214 40265 57012 333 50401;EQDQ01  00002PRCP99
0173607640999992000031209004+33700+008970FM-12+004699999V0202301N002112200019N0120001N1+01721-00111102541ADDAA199000091GA1001+999999999GF100991001001999999001001MA1999999102021MD1110011+9999REMSYN060AAXX  12094 60764 32962 02304 10172 21011 30202 40254 51001;EQDQ01  00002PRCP99
0189607640999992000031215004+33700+008970FM-12+004699999V0202601N006212200019N0150001N1+02861+00051102111ADDAA199000091GA1031+060009019GF103991001001999999001021MA1999999101621MD1710181+9999REMSYN076AAXX  12154 60764 32965 32612 10286 20005 30162 40211 57018 80002 333 83070;EQDQ01  00002PRCP99
0240607640999992000031218004+33700+008970FM-12+004699999V0202301N004112200019N0100001N1+02421-00291101881ADDAA199000091GA1031+060009019GF103991001001999999001021KA1120M+02551MA1999999999999MD1310021+9999REMSYN082AAXX  12184 60764 32960 32308 10242 21029 39825 40188 53002 80002 333 10255 83070;EQDQ01+098253APOSP Q02  00002PRCP99Q03 098253APOSP 
0196607640999992000031306004+33700+008970FM-12+004699999V0201401N001012200019N0080001N1+00941-00051102361ADDAA199000091GA1001+999999999GF100991001001999999001001KA1999N+00981MA1999999101831MD1310041+9999REMSYN070AAXX  13064 60764 33958 01402 10094 21005 30183 40236 53004 333 20098;EQDQ01  00002PRCP99
0189607640999992000031309004+33700+008970FM-12+004699999V0201401N003110600019N0080001N1+01901-00231102421ADDAA199000091GA1051+060009019GF105991001001999999001021MA1999999101911MD1110081+9999REMSYN076AAXX  13094 60764 32958 51406 10190 21023 30191 40242 51008 80002 333 85070;EQDQ01  00002PRCP99
0195607640999992000031312004+33700+008970FM-12+004699999V0202401N003110600019N0080001N1+02511-00121102301ADDAA199000091GA1051+060009019GF105991001001999999001021MA1999999101801MD1710111+9999REMSYN082AAXX  13124 60764 32958 52406 10251 21012 30180 40230 57011 80002 333 50911 85070;EQDQ01  00002PRCP99
0189607640999992000031315004+33700+008970FM-12+004699999V0202101N002110600019N0080001N1+02781+00181102071ADDAA199000091GA1051+060009019GF105991001001999999001021MA1999999101571MD1710231+9999REMSYN076AAXX  13154 60764 32958 52104 10278 20018 30157 40207 57023 80002 333 85070;EQDQ01  00002PRCP99
0208607640999992000031318004+33700+008970FM-12+004699999V0202801N002110600019N0080001N1+02511+00561102091ADDAA199000091GA1051+060009019GF105991001001999999001021KA1120M+02841MA1999999101591MD1210021+9999REMSYN082AAXX  13184 60764 32958 52804 10251 20056 30159 40209 52002 80002 333 10284 85070;EQDQ01  00002PRCP99
0208607640999992000031406004+33700+008970FM-12+004699999V0200501N010810600019N0080001N1+01431+01211102211ADDAA199000091GA1051+060009019GF105991001001999999001021KA1120N+01411MA1999999101691MD1410001+9999REMSYN082AAXX  14064 60764 33958 50521 10143 20121 30169 40221 54000 80002 333 20141 85070;EQDQ01  00002PRCP99
0189607640999992000031409004+33700+008970FM-12+004699999V0200501N010810600019N0080001N1+01731+01311102271ADDAA199000091GA1051+060009019GF105991001001999999001021MA1999999101751MD1210061+9999REMSYN076AAXX  14094 60764 32958 50521 10173 20131 30175 40227 52006 80002 333 85070;EQDQ01  00002PRCP99
0195607640999992000031412004+33700+008970FM-12+004699999V0200501N008710600019N0080001N1+02281+01341102131ADDAA199000091GA1051+060009019GF105991001001999999001021MA1999999101631MD1710121+9999REMSYN082AAXX  14124 60764 32958 50517 10228 20134 30163 40213 57012 80002 333 50711 85070;EQDQ01  00002PRCP99
0189607640999992000031415004+33700+008970FM-12+004699999V0200501N008710600019N0080001N1+02331+01401101911ADDAA199000091GA1061+060009019GF106991001001999999001021MA1999999101411MD1710221+9999REMSYN076AAXX  14154 60764 32958 60517 10233 20140 30141 40191 57022 80002 333 86070;EQDQ01  00002PRCP99
0208607640999992000031418004+33700+008970FM-12+004699999V0200401N008710600019N0080001N1+01881+01301101881ADDAA199000091GA1061+060009019GF106991001001999999001021KA1120M+02401MA1999999101371MD1710041+9999REMSYN082AAXX  14184 60764 32958 60417 10188 20130 30137 40188 57004 80002 333 10240 86070;EQDQ01  00002PRCP99
0195607640999992000031505004+33700+008970FM-12+004699999V0200501N01291090001CN0060001N1+01571+99999101901ADDAA199000091GA1031+009909069GF107991031051008001001021MA1999999101381MD1610041+9999REMSYN082AAXX  15054 60764 32556 70525 10157 2/007 30138 40190 56004 83502 333 83633 85070;EQDQ01  00002PRCP99
0214607640999992000031506004+33700+008970FM-12+004699999V0200301N01181090001CN0070001N1+01371+01071101941ADDAA199000091GA1021+009909069GF106991021051008001001021KA1120N+01351MA1999999101421MD1310111+9999REMSYN088AAXX  15064 60764 33557 60323 10137 20107 30142 40194 53011 82502 333 20135 82633 85070;EQDQ01  00002PRCP99
0195607640999992000031509004+33700+008970FM-12+004699999V0200501N01291090001CN0060001N1+01571+01071101901ADDAA199000091GA1031+009909069GF107991031051008001001021MA1999999101381MD1610041+9999REMSYN082AAXX  15094 60764 32556 70525 10157 20107 30138 40190 56004 83502 333 83633 85070;EQDQ01  00002PRCP99
0201607640999992000031512004+33700+008970FM-12+004699999V0200501N00871090001CN0080001N1+02081+00961101861ADDAA199000091GA1021+009909069GF105991021051008001001021MA1999999101351MD1510031+9999REMSYN088AAXX  15124 60764 32558 50517 10208 20096 30135 40186 55003 82502 333 50551 82633 84070;EQDQ01  00002PRCP99
0214607640999992000031606004+33700+008970FM-12+004699999V0200401N00821090001CN0060001N1+01341+01151101681ADDAA199000091GA1041+009009069GF106991041051008001001021KA1120N+01181MA1999999101161MD1210191+9999REMSYN088AAXX  16064 60764 33556 60416 10134 20115 30116 40168 52019 84502 333 20118 84630 83070;EQDQ01  00002PRCP99
0195607640999992000031609004+33700+008970FM-12+004699999V0200501N008712200019N0080001N1+01651+00831101811ADDAA199000091GA1011+003909069GF103991011051008001001021MA1999999101291MD1210131+9999REMSYN082AAXX  16094 60764 32558 30517 10165 20083 30129 40181 52013 81502 333 81613 83070;EQDQ01  00002PRCP99
0201607640999992000031612004+33700+008970FM-12+004699999V0200601N00621036001CN0080001N1+01801+00731101891ADDAA199000091GA1031+009909069GF106991031051008001081001MA1999999101381MD1110091+9999REMSYN088AAXX  16124 60764 32558 60612 10180 20073 30138 40189 51009 83580 333 50971 83633 84360;EQDQ01  00002PRCP99
0201607640999992000031706004+33700+008970FM-12+004699999V0200601N002112200019N0080001N1+01131+00721102241ADDAA124000591GA1021+009909059GF103991021051008001001001KA1120N+01021MA1999999101711MD1310111+9999REMSYN094AAXX  17064 60764 13558 30604 10113 20072 30171 40224 53011 69944 82500 333 20102 70004 82633;
0189607640999992000031709004+33700+008970FM-12+004699999V0200301N003112200019N0100001N1+01451+00781102421ADDAA199000091GA1011+009909059GF101991011051008001001001MA1999999101901MD1210191+9999REMSYN076AAXX  17094 60764 32560 10306 10145 20078 30190 40242 52019 81500 333 81633;EQDQ01  00002PRCP99
0195607640999992000031712004+33700+008970FM-12+004699999V0200201N004112200019N0150001N1+01901+00611102341ADDAA199000091GA1021+009909059GF102991021051008001001001MA1999999101831MD1810071+9999REMSYN082AAXX  17124 60764 32565 20208 10190 20061 30183 40234 58007 82500 333 50371 82633;EQDQ01  00002PRCP99
0196607640999992000031806004+33700+008970FM-12+004699999V0201301N002112200019N0060001N1+00711+00601102181ADDAA199000091GA1001+999999999GF100991001001999999001001KA1999N+00651MA1999999101651MD1510031+9999REMSYN070AAXX  18064 60764 33956 01304 10071 20060 30165 40218 55003 333 20065;EQDQ01  00002PRCP99
0173607640999992000031809004+33700+008970FM-12+004699999V0201701N002112200019N0100001N1+01401+00761102231ADDAA199000091GA1001+999999999GF100991001001999999001001MA1999999101711MD1310061+9999REMSYN060AAXX  18094 60764 32960 01704 10140 20076 30171 40223 53006;EQDQ01  00002PRCP99
0183607640999992000031812004+33700+008970FM-12+004699999V0202601N005112200019N0150001N1+02031+00721102021ADDAA199000091GA1001+999999999GF100991001001999999001001MA1999999101511MD1710101+9999REMSYN070AAXX  18124 60764 32965 02610 10203 20072 30151 40202 57010 333 50491;EQDQ01  00002PRCP99
0208607640999992000031906004+33700+008970FM-12+004699999V0200301N007212200019N0060001N1+01191+01061101891ADDAA199000091GA1021+060009019GF102991001001999999001021KA1120N+00911MA1999999101371MD1310041+9999REMSYN082AAXX  19064 60764 33956 20314 10119 20106 30137 40189 53004 80002 333 20091 82070;EQDQ01  00002PRCP99
0189607640999992000031909004+33700+008970FM-12+004699999V0200401N008712200019N0080001N1+01581+01311101971ADDAA199000091GA1011+009009029GF101991011021008001001001MA1999999101451MD1210081+9999REMSYN076AAXX  19094 60764 32558 10417 10158 20131 30145 40197 52008 81200 333 81830;EQDQ01  00002PRCP99
0195607640999992000031912004+33700+008970FM-12+004699999V0200601N006212200019N0120001N1+02071+01041101921ADDAA199000091GA1011+009009029GF101991011021008001001001MA1999999101411MD1810041+9999REMSYN082AAXX  19124 60764 32562 10612 10207 20104 30141 40192 58004 81200 333 50511 81830;EQDQ01  00002PRCP99
0208607640999992000032006004+33700+008970FM-12+004699999V0200301N005112200019N0070001N1+01131+01091101971ADDAA199000091GA1041+009909059GF104991041051008001001001KA1120N+01051MA1999999101441MD1310071+9999REMSYN082AAXX  20064 60764 33557 40310 10113 20109 30144 40197 53007 84500 333 20105 84633;EQDQ01  00002PRCP99
0205607640999992000032009004+33700+008970FM-12+004699999V0200401N007212200019N0080001N1+01581+01041102101ADDAA199000091GA1021+009909059GF103991999051008001001021MA1999999101581MD1210141+9999REMSYN076AAXX  20094 60764 32558 30414 10158 20104 30158 40210 52014 80502 333 82633;EQDQ01+000002SCOTLCQ02  00002PRCP99
0195607640999992000032012004+33700+008970FM-12+004699999V0200501N002112200019N0120001N1+02111+00661101961ADDAA199000091GA1011+009009029GF102991011021008001001021MA1999999101451MD1810131+9999REMSYN082AAXX  20124 60764 32562 20504 10211 20066 30145 40196 58013 81202 333 50591 81830;EQDQ01  00002PRCP99
0189607640999992000032015004+33700+008970FM-12+004699999V0200901N001012200019N0150001N1+02361+00591101731ADDAA199000091GA1041+009009029GF104991041021008001001001MA1999999101231MD1710221+9999REMSYN076AAXX  20154 60764 32565 40902 10236 20059 30123 40173 57022 84200 333 84830;EQDQ01  00002PRCP99
0208607640999992000032106004+33700+008970FM-12+004699999V0200301N006212200019N0080001N1+01201+01071102071ADDAA199000091GA1011+009009029GF101991011021008001001001KA1120N+01141MA1999999101571MD1310091+9999REMSYN082AAXX  21064 60764 33558 10312 10120 20107 30157 40207 53009 81200 333 20114 81830;EQDQ01  00002PRCP99
0189607640999992000032109004+33700+008970FM-12+004699999V0201001N001012200019N0100001N1+01751+00901102191ADDAA199000091GA1021+009009029GF102991021021008001001001MA1999999101681MD1210131+9999REMSYN076AAXX  21094 60764 32560 21002 10175 20090 30168 40219 52013 82200 333 82830;EQDQ01  00002PRCP99
0183607640999992000032112004+33700+008970FM-12+004699999V0201601N002112200019N0150001N1+02241+00701102081ADDAA199000091GA1001+999999999GF100991001001999999001001MA1999999101571MD1810111+9999REMSYN070AAXX  21124 60764 32965 01604 10224 20070 30157 40208 58011 333 50501;EQDQ01  00002PRCP99
0189607640999992000032115004+33700+008970FM-12+004699999V0202401N002112200019N0150001N1+02481+00521101821ADDAA199000091GA1011+009009029GF101991011021008001001001MA1999999101321MD1710251+9999REMSYN076AAXX  21154 60764 32565 12404 10248 20052 30132 40182 57025 81200 333 81830;EQDQ01  00002PRCP99
0208607640999992000032206004+33700+008970FM-12+004699999V0200701N002112200019N0100001N1+01291+00671102011ADDAA199000091GA1041+060009019GF104991001001999999001021KA1120N+00911MA1999999101491MD1310101+9999REMSYN082AAXX  22064 60764 33960 40704 10129 20067 30149 40201 53010 80002 333 20091 84070;EQDQ01  00002PRCP99
0189607640999992000032209004+33700+008970FM-12+004699999V0200501N006212200019N0120001N1+01951+00911102171ADDAA199000091GA1031+060009019GF103991001001999999001021MA1999999101661MD1210171+9999REMSYN076AAXX  22094 60764 32962 30512 10195 20091 30166 40217 52017 80002 333 83070;EQDQ01  00002PRCP99
0195607640999992000032212004+33700+008970FM-12+004699999V0201101N003112200019N0150001N1+02411+00631102091ADDAA199000091GA1021+060009019GF102991001001999999001021MA1999999101591MD1810071+9999REMSYN082AAXX  22124 60764 32965 21106 10241 20063 30159 40209 58007 80002 333 50491 82070;EQDQ01  00002PRCP99
0196607640999992000032306004+33700+008970FM-12+004699999V0200301N008712200019N0060001N1+01361+01271102131ADDAA199000091GA1001+999999999GF100991001001999999001001KA1999N+01311MA1999999101611MD1310061+9999REMSYN070AAXX  23064 60764 33956 00317 10136 20127 30161 40213 53006 333 20131;EQDQ01  00002PRCP99
0183607640999992000032312004+33700+008970FM-12+004699999V0200401N003112200019N0120001N1+02351+01151102101ADDAA199000091GA1001+999999999GF100991001001999999001001MA1999999101601MD1810101+9999REMSYN070AAXX  23124 60764 32962 00406 10235 20115 30160 40210 58010 333 50521;EQDQ01  00002PRCP99
0208607640999992000032406004+33700+008970FM-12+004699999V0200401N007210360019N0060001N1+01361+01291101871ADDAA199000091GA1041+009909059GF105991041051008001081001KA1120N+01291MA1999999103051MD1510041+9999REMSYN082AAXX  24064 60764 33556 50414 10136 20129 30305 40187 55004 84580 333 20129 84633;EQDQ01  00002PRCP99
0211607640999992000032409004+33700+008970FM-12+004699999V0200501N008212200019N0070001N1+01881+01321101951ADDAA199000091GA1021+009909069GF104991021051008001081001MA1999999101442MD1210091+9999REMSYN082AAXX  24094 60764 32557 40516 10188 20132 30144 40195 52009 82580 333 82633 83360;EQDQ01+101443APOSP Q02  00002PRCP99
0201607640999992000032412004+33700+008970FM-12+004699999V0201201N004119999999N0100001N1+02791+00851101771ADDAA199000091GA1031+030009039GF106991031001999999081021MA1999999101271MD1810171+9999REMSYN088AAXX  24124 60764 32960 61208 10279 20085 30127 40177 58017 83082 333 50581 83360 84070;EQDQ01  00002PRCP99
0217607640999992000032509004+33700+008970FM-12+004699999V0200501N012910099019N0030001N1+01891+01271101471ADDAA199000091AY121031AY221031GA1051+009909059GF105991051051008001001001MA1999999100961MD1110071+9999MW1171REMSYN082AAXX  25094 60764 31530 50525 10189 20127 30096 40147 51007 71722 85500 333 85633;EQDQ01  00002PRCP99
0223607640999992000032512004+33700+008970FM-12+004699999V0200401N011810900019N0020001N1+02541+01581101371ADDAA199000091AY121061AY221061GA1041+009909059GF105991041051008001001021MA1999999100871MD1710091+9999MW1071REMSYN088AAXX  25124 60764 31520 50423 10254 20158 30087 40137 57009 70722 84502 333 50821 84633;EQDQ01  00002PRCP99
0189607640999992000032609004+33700+008970FM-12+004699999V0200401N003112200019N0080001N1+01881+01051101851ADDAA199000091GA1041+060009019GF104991001001999999001021MA1999999101341MD1210131+9999REMSYN076AAXX  26094 60764 32958 40406 10188 20105 30134 40185 52013 80002 333 84070;EQDQ01  00002PRCP99
0196607640999992000032706004+33700+008970FM-12+004699999V0200201N004112200019N0060001N1+01281+01011101981ADDAA199000091GA1001+999999999GF100991001001999999001001KA1999N+01251MA1999999101461MD1310131+9999REMSYN070AAXX  27064 60764 33956 00208 10128 20101 30146 40198 53013 333 20125;EQDQ01  00002PRCP99
0189607640999992000032709004+33700+008970FM-12+004699999V0201401N003112200019N0080001N1+01801+00921102031ADDAA199000091GA1021+060009019GF102991001001999999001021MA1999999101521MD1110061+9999REMSYN076AAXX  27094 60764 32958 21406 10180 20092 30152 40203 51006 80002 333 82070;EQDQ01  00002PRCP99
0195607640999992000032712004+33700+008970FM-12+004699999V0202101N003112200019N0150001N1+02341+00521101851ADDAA199000091GA1021+060009019GF102991001001999999001021MA1999999101351MD1810171+9999REMSYN082AAXX  27124 60764 32965 22106 10234 20052 30135 40185 58017 80002 333 50531 82070;EQDQ01  00002PRCP99
0189607640999992000032715004+33700+008970FM-12+004699999V0202501N006210600019N0150001N1+02701-00201101601ADDAA199000091GA1061+060009019GF106991001001999999001021MA1999999101101MD1710251+9999REMSYN076AAXX  27154 60764 32965 62512 10270 21020 30110 40160 57025 80002 333 86070;EQDQ01  00002PRCP99
0208607640999992000032806004+33700+008970FM-12+004699999V0209999C000010099019N0100001N1+01651+00691101341ADDAA199000091GA1061+009909059GF106991061051008001001001KA1120N+01341MA1999999100831MD1610141+9999REMSYN082AAXX  28064 60764 33560 60000 10165 20069 30083 40134 56014 86500 333 20134 86633;EQDQ01  00002PRCP99
0193607640999992000032809004+33700+008970FM-12+004699999V0200201N00101012001CN0080001N1+01991+00821101451ADDAY161031AY221031GA1021+007809089GF107991071081008001999999MA1999999100941MD1310111+9999MW1601REMSYN088AAXX  28094 60764 41558 70202 10199 20082 30094 40145 53011 76062 878// 333 82826 86633;
0216607640999992000032812004+33700+008970FM-12+004699999V0202701N00211012001CN0100001N1+02261+00941101141ADDAA106001091AY161061AY221061GA1021+007809089GF107991071081008001999999MA1999999100641MD1810301+9999MW1021REMSYN100AAXX  28124 60764 11560 72704 10226 20094 30064 40114 58030 60011 70262 878// 333 50821 82826 86633;
0170607640999992000032815004+33700+008970FM-12+004699999V0200601N006212200019N0120001N1+02671+00661100761ADDAA199000021GA1031+009909059GF104991031051008001001021MA1999999100271MD1710371+9999REMSYN076AAXX  28154 60764 32562 40612 10267 20066 30027 40076 57037 83502 333 83633;
0189607640999992000032906004+33700+008970FM-12+004699999V0201201N003112200019N0060001N1+01571+01341101051ADDAA124001091GA1001+999999999GF100991001001999999001001KA1120N+01441MA1999999100541MD1210161+9999REMSYN082AAXX  29064 60764 13956 01206 10157 20134 30054 40105 52016 60014 333 20144 70006;
0173607640999992000032909004+33700+008970FM-12+004699999V0209999C000012200019N0080001N1+02211+01321101341ADDAA199000091GA1001+999999999GF100991001001999999001001MA1999999100841MD1210301+9999REMSYN060AAXX  29094 60764 32958 00000 10221 20132 30084 40134 52030;EQDQ01  00002PRCP99
0195607640999992000032912004+33700+008970FM-12+004699999V0202801N002112200019N0120001N1+02671+01231101401ADDAA199000091GA1041+060009019GF104991001001999999001021MA1999999100901MD1110061+9999REMSYN082AAXX  29124 60764 32962 42804 10267 20123 30090 40140 51006 80002 333 50521 84070;EQDQ01  00002PRCP99
0208607640999992000033006004+33700+008970FM-12+004699999V0200301N010812200019N0080001N1+01371+01131101821ADDAA199000091GA1041+060009019GF104991001001999999001021KA1120N+01321MA1999999101311MD1310021+9999REMSYN082AAXX  30064 60764 33958 40321 10137 20113 30131 40182 53002 80002 333 20132 84070;EQDQ01  00002PRCP99
0189607640999992000033009004+33700+008970FM-12+004699999V0200301N009810600019N0080001N1+01901+01241101881ADDAA199000091GA1051+060009019GF105991001001999999001021MA1999999101381MD1210061+9999REMSYN076AAXX  30094 60764 32958 50319 10190 20124 30138 40188 52006 80002 333 85070;EQDQ01  00002PRCP99
0201607640999992000033012004+33700+008970FM-12+004699999V0201001N004119999999N0120001N1+02691+01101101731ADDAA199000091GA1011+030009039GF105991011001999999081021MA1999999101231MD1810141+9999REMSYN088AAXX  30124 60764 32962 51008 10269 20110 30123 40173 58014 81082 333 50681 81360 85070;EQDQ01  00002PRCP99
0201607640999992000033015004+33700+008970FM-12+004699999V0201001N004119999999N0120001N1+02691+01101101731ADDAA199000091GA1011+030009039GF105991011001999999081021MA1999999101231MD1810141+9999REMSYN088AAXX  30154 60764 32962 51008 10269 20110 30123 40173 58014 81082 333 50681 81360 85070;EQDQ01  00002PRCP99
0208607640999992000033106004+33700+008970FM-12+004699999V0200201N009812200019N0080001N1+01781+01281101251ADDAA199000091GA1041+009909059GF104991041051008001001001KA1120N+01431MA1999999100751MD1610071+9999REMSYN082AAXX  31064 60764 33558 40219 10178 20128 30075 40125 56007 84500 333 20143 84633;EQDQ01  00002PRCP99
0189607640999992000033109004+33700+008970FM-12+004699999V0200301N006212200019N0100001N1+02441+01341101301ADDAA199000091GA1031+060009019GF103991001001999999001021MA1999999100801MD1310051+9999REMSYN076AAXX  31094 60764 32960 30312 10244 20134 30080 40130 53005 80002 333 83070;EQDQ01  00002PRCP99
0201607640999992000033112004+33700+008970FM-12+004699999V0203501N002110099019N0100001N1+02771+01071101101ADDAA199000091GA1051+009909069GF107991051051008001081999MA1999999100611MD1810191+9999REMSYN088AAXX  31124 60764 32560 73504 10277 20107 30061 40110 58019 8558/ 333 50871 85633 83360;EQDQ01  00002PRCP99
0189607640999992000033115004+33700+008970FM-12+004699999V0201201N001010099019N0120001N1+02731+01211100971ADDAA199000091GA1051+009909059GF106991051051008001081001MA1999999100481MD1610131+9999REMSYN076AAXX  31154 60764 32562 61202 10273 20121 30048 40097 56013 85580 333 85633;EQDQ01  00002PRCP99
0236607640999992000033118004+33700+008970FM-12+004699999V0203301N011812200019N0030001N1+02221+01251101071ADDAA199000091AY111061AY211061GA1031+009909059GF104991031051008001001021KA1120M+02851MA1999999100571MD1310091+9999MW1071REMSYN088AAXX  31184 60764 31530 43323 10222 20125 30057 40107 53009 70711 83502 333 10285 83633;EQDQ01  00002PRCP99
0208607640999992000040106004+33700+008970FM-12+004699999V0200401N005112200019N0080001N1+01581+01411101381ADDAA199000091GA1031+060009019GF103991001001999999001021KA1120N+01401MA1999999100881MD1210121+9999REMSYN082AAXX  01064 60764 33958 30410 10158 20141 30088 40138 52012 80002 333 20140 83070;EQDQ01  00002PRCP99
0189607640999992000040109004+33700+008970FM-12+004699999V0201001N003112200019N0120001N1+02151+01191101491ADDAA199000091GA1021+060009019GF102991001001999999001021MA1999999100991MD1110111+9999REMSYN076AAXX  01094 60764 32962 21006 10215 20119 30099 40149 51011 80002 333 82070;EQDQ01  00002PRCP99
0195607640999992000040112004+33700+008970FM-12+004699999V0201101N003112200019N0150001N1+02681+01171101301ADDAA199000091GA1031+060009019GF103991001001999999001021MA1999999100801MD1810191+9999REMSYN082AAXX  01124 60764 32965 31106 10268 20117 30080 40130 58019 80002 333 50611 83070;EQDQ01  00002PRCP99
0189607640999992000040115004+33700+008970FM-12+004699999V0201501N001012200019N0150001N1+02841+01201101091ADDAA199000091GA1021+060009019GF102991001001999999001021MA1999999100601MD1710201+9999REMSYN076AAXX  01154 60764 32965 21502 10284 20120 30060 40109 57020 80002 333 82070;EQDQ01  00002PRCP99
0189607640999992000040209004+33700+008970FM-12+004699999V0200401N006212200019N0080001N1+02291+01341100871ADDAA199000091GA1041+060009019GF104991001001999999001021MA1999999100371MD1710131+9999REMSYN076AAXX  02094 60764 32958 40412 10229 20134 30037 40087 57013 80002 333 84070;EQDQ01  00002PRCP99
0195607640999992000040212004+33700+008970FM-12+004699999V0201701N004112200019N0080001N1+03091+01441100571ADDAA199000091GA1041+060009019GF104991001001999999001021MA1999999100091MD1710281+9999REMSYN082AAXX  02124 60764 32958 41708 10309 20144 30009 40057 57028 80002 333 50761 84070;EQDQ01  00002PRCP99
0189607640999992000040215004+33700+008970FM-12+004699999V0202301N005110600019N0080001N1+03411+01511100291ADDAA199000091GA1061+060009019GF106991001001999999001021MA1999999099811MD1710281+9999REMSYN076AAXX  02154 60764 32958 62310 10341 20151 39981 40029 57028 80002 333 86070;EQDQ01  00002PRCP99
0207607640999992000040306004+33700+008970FM-12+004699999V0201801N00821090001CN0150001N1+02361+01541100411ADDAA124000191GA1021+009009069GF106991021051008001001021KA1120N+02091MA1999999099911MD1110031+9999REMSYN100AAXX  03064 60764 13565 61816 10236 20154 39991 40041 51003 69924 82502 333 20209 70002 82630 85070;
0223607640999992000040309004+33700+008970FM-12+004699999V0202101N00981090001CN0020001N1+02501+01611100541ADDAA199000091AY121031AY221031GA1021+009009069GF106991041051008001001021MA1999999100051MD1210141+9999MW1071REMSYN088AAXX  03094 60764 31520 62119 10250 20161 30005 40054 52014 70722 84502 333 82630 83070;EQDQ01  00002PRCP99
0229607640999992000040312004+33700+008970FM-12+004699999V0201901N01081090001CN0018001N1+02871+01391100461ADDAA199000091AY121061AY221061GA1041+009009069GF107991041051008001001021MA1999999099971MD1810081+9999MW1071REMSYN094AAXX  03124 60764 31518 71921 10287 20139 39997 40046 58008 70722 84502 333 51141 84630 84070;EQDQ01  00002PRCP99
0223607640999992000040315004+33700+008970FM-12+004699999V0202201N008710090019N0018001N1+03081+01011100341ADDAA199000091AY121031AY221031GA1051+009009069GF107991051051008001001021MA1999999099861MD1610111+9999MW1071REMSYN088AAXX  03154 60764 31518 72217 10308 20101 39986 40034 56011 70722 85502 333 85630 83070;EQDQ01  00002PRCP99
0242607640999992000040318004+33700+008970FM-12+004699999V0202301N008710090019N0018001N1+02831+01061100361ADDAA199000091AY121061AY221061GA1051+009009069GF107991051051008001001021KA1120M+03131MA1999999099871MD1110011+9999MW1071REMSYN094AAXX  03184 60764 31518 72317 10283 20106 39987 40036 51001 70722 85502 333 10313 85630 83070;EQDQ01  00002PRCP99
0214607640999992000040406004+33700+008970FM-12+004699999V0201201N00411090001CN0080001N1+02071+01731100191ADDAA199000091GA1031+009009069GF107991031051008001001021KA1120N+01991MA1999999099691MD1710021+9999REMSYN088AAXX  04064 60764 33558 71208 10207 20173 39969 40019 57002 83502 333 20199 83630 85070;EQDQ01  00002PRCP99
0223607640999992000040409004+33700+008970FM-12+004699999V0202101N00871090001CN0020001N1+02681+01491100131ADDAA199000091AY121031AY221031GA1021+009009069GF107991021051008001001021MA1999999099641MD1610051+9999MW1071REMSYN088AAXX  04094 60764 31520 72117 10268 20149 39964 40013 56005 70722 82502 333 82630 86070;EQDQ01  00002PRCP99
0192607640999992000040412004+33700+008970FM-12+004699999V0202001N010819999999N0018001N1+02821+01111999999ADDAA199000091GA1021+009009069GF105991999999008001999999MA1999999099641REMSYN093AAXX  04124 60764 31518 52021 10282 20111 39964 4003 54000 70722 82502 333 51011 82630 84070;EQDQ01  00002PRCP99
0163607640999992000040506004+33700+008970FM-12+004699999V0202401N006212200019N0060001N1+01771+00741101311ADDAA199000091GF103991001001999999001021MA1999999101261MD1310231+9999REMSYN066AAXX  05064 60764 32956 32412 10177 20074 30126 40131 53023 80002;EQDQ01  00002PRCP99
0195607640999992000040512004+33700+008970FM-12+004699999V0202101N007212200019N0120001N1+02211+00291101821ADDAA199000091GA1031+060009019GF103991001001999999001021MA1999999101311MD1810081+9999REMSYN082AAXX  05124 60764 32962 32114 10221 20029 30131 40182 58008 80002 333 51431 83070;EQDQ01  00002PRCP99
0189607640999992000040515004+33700+008970FM-12+004699999V0202001N008212200019N0120001N1+02381+00401101731ADDAA199000091GA1031+060009019GF103991001001999999001021MA1999999101231MD1710081+9999REMSYN076AAXX  05154 60764 32962 32016 10238 20040 30123 40173 57008 80002 333 83070;EQDQ01  00002PRCP99
0208607640999992000040518004+33700+008970FM-12+004699999V0200501N007212200019N0100001N1+02081+00611101871ADDAA199000091GA1031+060009019GF103991001001999999001021KA1120M+02451MA1999999101321MD1210131+9999REMSYN082AAXX  05184 60764 32960 30514 10208 20061 30132 40187 52013 80002 333 10245 83070;EQDQ01  00002PRCP99
0208607640999992000040606004+33700+008970FM-12+004699999V0200301N006212200019N0080001N1+01451+00971102201ADDAA199000091GA1041+060009019GF104991001001999999001021KA1120N+01001MA1999999101681MD1210021+9999REMSYN082AAXX  06064 60764 33958 40312 10145 20097 30168 40220 52002 80002 333 20100 84070;EQDQ01  00002PRCP99
0189607640999992000040609004+33700+008970FM-12+004699999V0200201N003110600019N0100001N1+02001+01071102291ADDAA199000091GA1051+060009019GF105991001001999999001021MA1999999101781MD1210101+9999REMSYN076AAXX  06094 60764 32960 50206 10200 20107 30178 40229 52010 80002 333 85070;EQDQ01  00002PRCP99
0189607640999992000040615004+33700+008970FM-12+004699999V0202801N005112200019N0100001N1+02801+01051101931ADDAA199000091GA1031+060009019GF103991001001999999001021MA1999999101431MD1710201+9999REMSYN076AAXX  06154 60764 32960 32810 10280 20105 30143 40193 57020 80002 333 83070;EQDQ01  00002PRCP99
0208607640999992000040706004+33700+008970FM-12+004699999V0200301N007212200019N0080001N1+01521+01381102111ADDAA199000091GA1031+060009019GF103991001001999999001021KA1120N+01461MA1999999101591MD1710041+9999REMSYN082AAXX  07064 60764 33958 30314 10152 20138 30159 40211 57004 80002 333 20146 83070;EQDQ01  00002PRCP99
0189607640999992000040709004+33700+008970FM-12+004699999V0200301N007212200019N0100001N1+02021+01471102221ADDAA199000091GA1031+060009019GF103991001001999999001021MA1999999101711MD1210121+9999REMSYN076AAXX  07094 60764 32960 30314 10202 20147 30171 40222 52012 80002 333 83070;EQDQ01  00002PRCP99
0195607640999992000040712004+33700+008970FM-12+004699999V0200401N001012200019N0100001N1+02591+01281102071ADDAA199000091GA1031+060009019GF103991001001999999001021MA1999999101571MD1710141+9999REMSYN082AAXX  07124 60764 32960 30402 10259 20128 30157 40207 57014 80002 333 50791 83070;EQDQ01  00002PRCP99
0205607640999992000040715004+33700+008970FM-12+004699999V0200501N001010600019N0100001N1+02891+00801101861ADDAA199000091GA1071+060009019GF199999001001999999001021MA1999999101371MD1710201+9999REMSYN076AAXX  07154 60764 32960 50502 10289 20080 30137 40186 57020 80002 333 87070;EQDQ01+000052SCOTCVQ02  00002PRCP99
0208607640999992000040806004+33700+008970FM-12+004699999V0200201N008712200019N0080001N1+01511+01181102091ADDAA199000091GA1031+060009019GF103991001001999999001021KA1120N+01471MA1999999101571MD1710021+9999REMSYN082AAXX  08064 60764 33958 30217 10151 20118 30157 40209 57002 80002 333 20147 83070;EQDQ01  00002PRCP99
0217607640999992000040809004+33700+008970FM-12+004699999V0200201N010812200019N0030001N1+01961+01231102121ADDAA199000091AY101031AY201031GA1021+060009019GF102991001001999999001021MA1999999101611MD1310041+9999MW1071REMSYN082AAXX  08094 60764 31930 20221 10196 20123 30161 40212 53004 70700 80002 333 82070;EQDQ01  00002PRCP99
0195607640999992000040812004+33700+008970FM-12+004699999V0200301N008210600019N0070001N1+02431+01231101991ADDAA199000091GA1051+060009019GF105991001001999999001021MA1999999101491MD1810121+9999REMSYN082AAXX  08124 60764 32957 50316 10243 20123 30149 40199 58012 80002 333 50521 85070;EQDQ01  00002PRCP99
0189607640999992000040815004+33700+008970FM-12+004699999V0200301N009810600019N0070001N1+02521+01291101681ADDAA199000091GA1051+060009019GF105991001001999999001021MA1999999101181MD1710311+9999REMSYN076AAXX  08154 60764 32957 50319 10252 20129 30118 40168 57031 80002 333 85070;EQDQ01  00002PRCP99
0214607640999992000040906004+33700+008970FM-12+004699999V0200101N01391090001CN0060001N1+01671+01431101161ADDAA199000091GA1031+009009069GF106991031051008001001021KA1120N+01531MA1999999100651MD1710021+9999REMSYN088AAXX  09064 60764 33556 60127 10167 20143 30065 40116 57002 83502 333 20153 83630 84070;EQDQ01  00002PRCP99
0195607640999992000040909004+33700+008970FM-12+004699999V0200301N013910090019N0060001N1+02011+01471100921ADDAA199000091GA1051+009009069GF107991051051008001001021MA1999999100421MD1710231+9999REMSYN082AAXX  09094 60764 32556 70327 10201 20147 30042 40092 57023 85502 333 85630 83070;EQDQ01  00002PRCP99
0223607640999992000040915004+33700+008970FM-12+004699999V0200301N01391090001CN0030001N1+02461+01561100251ADDAA199000091AY121031AY221031GA1031+009009069GF107991031051008001001021MA1999999099761MD1710241+9999MW1071REMSYN088AAXX  09154 60764 31530 70327 10246 20156 39976 40025 57024 70722 83502 333 83630 85070;EQDQ01  00002PRCP99
0208607640999992000041006004+33700+008970FM-12+004699999V0200501N006212200019N0060001N1+01691+01381100801ADDAA199000091GA1021+060009019GF102991001001999999001021KA1120N+01601MA1999999100291MD1210061+9999REMSYN082AAXX  10064 60764 33956 20512 10169 20138 30029 40080 52006 80002 333 20160 82070;EQDQ01  00002PRCP99
0189607640999992000041009004+33700+008970FM-12+004699999V0200301N005112200019N0100001N1+02161+01261100861ADDAA199000091GA1021+060009019GF102991001001999999001021MA1999999100361MD1110071+9999REMSYN076AAXX  10094 60764 32960 20310 10216 20126 30036 40086 51007 80002 333 82070;EQDQ01  00002PRCP99
0195607640999992000041012004+33700+008970FM-12+004699999V0200201N004112200019N0120001N1+02601+01071100801ADDAA199000091GA1031+060009019GF103991001001999999001021MA1999999100311MD1610051+9999REMSYN082AAXX  10124 60764 32962 30208 10260 20107 30031 40080 56005 80002 333 50811 83070;EQDQ01  00002PRCP99
0189607640999992000041015004+33700+008970FM-12+004699999V0203601N002112200019N0150001N1+02821+00911100621ADDAA199000091GA1021+060009019GF102991001001999999001021MA1999999100131MD1710181+9999REMSYN076AAXX  10154 60764 32965 23604 10282 20091 30013 40062 57018 80002 333 82070;EQDQ01  00002PRCP99
0208607640999992000041018004+33700+008970FM-12+004699999V0200201N003112200019N0100001N1+02541+00991100571ADDAA199000091GA1021+060009019GF102991001001999999001021KA1120M+02861MA1999999100081MD1710051+9999REMSYN082AAXX  10184 60764 32960 20206 10254 20099 30008 40057 57005 80002 333 10286 82070;EQDQ01  00002PRCP99
0208607640999992000041106004+33700+008970FM-12+004699999V0200101N008212200019N0080001N1+01571+01301100901ADDAA199000091GA1021+009009029GF102991021021008001001001KA1120N+01491MA1999999100391MD1210081+9999REMSYN082AAXX  11064 60764 33558 20116 10157 20130 30039 40090 52008 82200 333 20149 82830;EQDQ01  00002PRCP99
0189607640999992000041109004+33700+008970FM-12+004699999V0200401N008712200019N0080001N1+02041+01231100831ADDAA199000091GA1011+009009029GF102991011021008001001021MA1999999100331MD1610061+9999REMSYN076AAXX  11094 60764 32558 20417 10204 20123 30033 40083 56006 81202 333 81830;EQDQ01  00002PRCP99
0195607640999992000041112004+33700+008970FM-12+004699999V0201501N003112200019N0080001N1+02511+01131100691ADDAA199000091GA1011+009009029GF102991011021008001001021MA1999999100201MD1710131+9999REMSYN082AAXX  11124 60764 32558 21506 10251 20113 30020 40069 57013 81202 333 50761 81830;EQDQ01  00002PRCP99
0217607640999992000041115004+33700+008970FM-12+004699999V0202901N010810090019N0012001N1+02371+01051100261ADDAA199000091AY111031AY221031GA1051+009009029GF106991051021008001001021MA1999999100111MD1710091+9999MW1071REMSYN082AAXX  11154 60764 31512 62921 10237 20105 30011 40026 57009 70712 85202 333 85830;EQDQ01  00002PRCP99
0242607640999992000041118004+33700+008970FM-12+004699999V0202801N005110090019N0100001N1+01461+01131100862ADDAA112000591AY161061AY221061GA1061+009009029GF107991061021008001001021KA1120M+02701MA1999999100351MD1210241+9999MW1601REMSYN094AAXX  11184 60764 11560 72810 10146 20113 30035 40086 52024 69942 76062 86202 333 10270 86830;EQDQ01+100863APOSLP
0211607640999992000041206004+33700+008970FM-12+004699999V0202801N001012200019N0100001N1+00821+00741101391ADDAA124001091AY111061AY201061GA1001+999999999GF100991001001999999001001KA1999N+00691MA1999999100861MD1210121+9999MW1001REMSYN082AAXX  12064 60764 13960 02802 10082 20074 30086 40139 52012 60014 70010 333 20069;
0173607640999992000041209004+33700+008970FM-12+004699999V0202301N003112200019N0120001N1+01621+00821101601ADDAA199000091GA1001+999999999GF100991001001999999001001MA1999999101091MD1210231+9999REMSYN060AAXX  12094 60764 32962 02306 10162 20082 30109 40160 52023;EQDQ01  00002PRCP99
0183607640999992000041212004+33700+008970FM-12+004699999V0202401N004112200019N0150001N1+02131+00641101521ADDAA199000091GA1001+999999999GF100991001001999999001001MA1999999101011MD1710061+9999REMSYN070AAXX  12124 60764 32965 02408 10213 20064 30101 40152 57006 333 50621;EQDQ01  00002PRCP99
0173607640999992000041215004+33700+008970FM-12+004699999V0202201N004112200019N0150001N1+02361+00611101331ADDAA199000091GA1001+999999999GF100991001001999999001001MA1999999100831MD1710141+9999REMSYN060AAXX  12154 60764 32965 02208 10236 20061 30083 40133 57014;EQDQ01  00002PRCP99
0208607640999992000041218004+33700+008970FM-12+004699999V0202201N004112200019N0100001N1+02141+00651101391ADDAA199000091GA1041+060009019GF104991001001999999001021KA1120M+02391MA1999999100851MD1210021+9999REMSYN082AAXX  12184 60764 32960 42208 10214 20065 30085 40139 52002 80002 333 10239 84070;EQDQ01  00002PRCP99
0208607640999992000041306004+33700+008970FM-12+004699999V0201101N003112200019N0100001N1+01311+00481101541ADDAA199000091GA1041+060009019GF104991001001999999001021KA1120N+01131MA1999999101021MD1210031+9999REMSYN082AAXX  13064 60764 33960 41106 10131 20048 30102 40154 52003 80002 333 20113 84070;EQDQ01  00002PRCP99
0189607640999992000041309004+33700+008970FM-12+004699999V0201501N003112200019N0120001N1+02131+00661101641ADDAA199000091GA1031+060009019GF103991001001999999001021MA1999999101131MD1210111+9999REMSYN076AAXX  13094 60764 32962 31506 10213 20066 30113 40164 52011 80002 333 83070;EQDQ01  00002PRCP99
0195607640999992000041312004+33700+008970FM-12+004699999V0202001N003112200019N0120001N1+02811+00591101531ADDAA199000091GA1031+060009019GF103991001001999999001021MA1999999101041MD1710091+9999REMSYN082AAXX  13124 60764 32962 32006 10281 20059 30104 40153 57009 80002 333 50481 83070;EQDQ01  00002PRCP99
0189607640999992000041315004+33700+008970FM-12+004699999V0202101N003112200019N0120001N1+02961+00781101271ADDAA199000091GA1031+060009019GF103991001001999999001021MA1999999100781MD1710211+9999REMSYN076AAXX  13154 60764 32962 32106 10296 20078 30078 40127 57021 80002 333 83070;EQDQ01  00002PRCP99
0202607640999992000041318004+33700+008970FM-12+004699999V0202001N003110600019N0100001N1+02541+99999101281ADDAA199000091GA1061+060009019GF106991001001999999001021KA1120M+03021MA1999999100781MD1410001+9999REMSYN076AAXX  13184 60764 32960 62006 10254 30078 40128 54000 80002 333 10302 86070;EQDQ01  00002PRCP99
0208607640999992000041406004+33700+008970FM-12+004699999V0201001N005112200019N0100001N1+01991+00211101091ADDAA199000091GA1041+060009019GF104991001001999999001021KA1120N+01521MA1999999100591MD1110021+9999REMSYN082AAXX  14064 60764 33960 41010 10199 20021 30059 40109 51002 80002 333 20152 84070;EQDQ01  00002PRCP99
0189607640999992000041409004+33700+008970FM-12+004699999V0201001N008212200019N0100001N1+02991+00401101041ADDAA199000091GA1041+060009019GF104991001001999999001021MA1999999100551MD1710041+9999REMSYN076AAXX  14094 60764 32960 41016 10299 20040 30055 40104 57004 80002 333 84070;EQDQ01  00002PRCP99
0189607640999992000041415004+33700+008970FM-12+004699999V0201801N005112200019N0060001N1+03601+01341100301ADDAA199000091GA1041+060009019GF104991001001999999001021MA1999999099821MD1710351+9999REMSYN076AAXX  14154 60764 32956 41810 10360 20134 39982 40030 57035 80002 333 84070;EQDQ01  00002PRCP99
0196607640999992000041506004+33700+008970FM-12+004699999V0200301N011812200019N0060001N1+01801+00771100721ADDAA199000091GA1001+999999999GF100991001001999999001001KA1999N+01761MA1999999100211MD1210041+9999REMSYN070AAXX  15064 60764 33956 00323 10180 20077 30021 40072 52004 333 20176;EQDQ01  00002PRCP99
0173607640999992000041509004+33700+008970FM-12+004699999V0200301N009812200019N0080001N1+02311+01171100991ADDAA199000091GA1001+999999999GF100991001001999999001001MA1999999100491MD1210281+9999REMSYN060AAXX  15094 60764 32958 00319 10231 20117 30049 40099 52028;EQDQ01  00002PRCP99
0183607640999992000041512004+33700+008970FM-12+004699999V0200301N005112200019N0120001N1+02761+01271101061ADDAA199000091GA1001+999999999GF100991001001999999001001MA1999999100571MD1210081+9999REMSYN070AAXX  15124 60764 32962 00310 10276 20127 30057 40106 52008 333 51191;EQDQ01  00002PRCP99
0173607640999992000041515004+33700+008970FM-12+004699999V0201501N002112200019N0120001N1+02911+01561100961ADDAA199000091GA1001+999999999GF100991001001999999001001MA1999999100461MD1710111+9999REMSYN060AAXX  15154 60764 32962 01504 10291 20156 30046 40096 57011;EQDQ01  00002PRCP99
0208607640999992000041606004+33700+008970FM-12+004699999V0209999C000010600019N0100001N1+01591+01231101381ADDAA199000091GA1051+060009019GF105991001001999999001021KA1120N+01481MA1999999100871MD1710021+9999REMSYN082AAXX  16064 60764 33960 50000 10159 20123 30087 40138 57002 80002 333 20148 85070;EQDQ01  00002PRCP99
0189607640999992000041609004+33700+008970FM-12+004699999V0201201N008210600019N0100001N1+02721+01221101461ADDAA199000091GA1051+060009019GF105991001001999999001021MA1999999100861MD1710011+9999REMSYN076AAXX  16094 60764 32960 51216 10272 20122 30086 40146 57001 80002 333 85070;EQDQ01  00002PRCP99
0195607640999992000041612004+33700+008970FM-12+004699999V0201501N006210600019N0100001N1+03041+01481101101ADDAA199000091GA1061+060009019GF106991001001999999001021MA1999999100671MD1710251+9999REMSYN082AAXX  16124 60764 32960 61512 10304 20148 30067 40110 57025 80002 333 50451 86070;EQDQ01  00002PRCP99
0189607640999992000041615004+33700+008970FM-12+004699999V0201601N008210600019N0100001N1+03231+01651100691ADDAA199000091GA1061+060009019GF106991001001999999001021MA1999999100211MD1710461+9999REMSYN076AAXX  16154 60764 32960 61616 10323 20165 30021 40069 57046 80002 333 86070;EQDQ01  00002PRCP99
0211607640999992000041709004+33700+008970FM-12+004699999V0203201N00821090001CN0050001N1+02231+00641100951ADDAA199000091GA1031+009009069GF105991031051008001001021MA1999999100451MD1210512+9999REMSYN082AAXX  17094 60764 32550 53216 10223 20064 30045 40095 52051 83502 333 83630 83070;EQDQ01+000512APC3  Q02  00002PRCP99
0195607640999992000041712004+33700+008970FM-12+004699999V0203301N006212200019N0150001N1+02381+00631101121ADDAA199000091GA1031+009009029GF104991021021008001001021MA1999999100621MD1110171+9999REMSYN082AAXX  17124 60764 32565 43312 10238 20063 30062 40112 51017 82202 333 51291 83830;EQDQ01  00002PRCP99
0189607640999992000041715004+33700+008970FM-12+004699999V0203301N007212200019N0120001N1+02651+00451101061ADDAA199000091GA1031+009009029GF103991031021008001001001MA1999999100571MD1610051+9999REMSYN076AAXX  17154 60764 32562 33314 10265 20045 30057 40106 56005 83200 333 83830;EQDQ01  00002PRCP99
0208607640999992000041718004+33700+008970FM-12+004699999V0203101N007212200019N0300001N1+02381+00651101281ADDAA199000091GA1031+009009029GF103991031021008001001001KA1120M+02511MA1999999100781MD1710211+9999REMSYN082AAXX  17184 60764 32580 33114 10238 20065 30078 40128 57021 83200 333 10251 83830;EQDQ01  00002PRCP99
0196607640999992000041806004+33700+008970FM-12+004699999V0202601N001012200019N0100001N1+01241+00411101741ADDAA199000091GA1001+999999999GF100991001001999999001001KA1999N+01131MA1999999101221MD1210101+9999REMSYN070AAXX  18064 60764 33960 02602 10124 20041 30122 40174 52010 333 20113;EQDQ01  00002PRCP99
0173607640999992000041809004+33700+008970FM-12+004699999V0203001N004112200019N0120001N1+01871+00371101811ADDAA199000091GA1001+999999999GF100991001001999999001001MA1999999101301MD1110081+9999REMSYN060AAXX  18094 60764 32962 03008 10187 20037 30130 40181 51008;EQDQ01  00002PRCP99
0183607640999992000041812004+33700+008970FM-12+004699999V0202901N004112200019N0150001N1+02271+00581101691ADDAA199000091GA1001+999999999GF100991001001999999001001MA1999999101291MD1810111+9999REMSYN070AAXX  18124 60764 32965 02908 10227 20058 30129 40169 58011 333 51051;EQDQ01  00002PRCP99
0173607640999992000041815004+33700+008970FM-12+004699999V0202701N005112200019N0150001N1+02561+00961101431ADDAA199000091GA1001+999999999GF100991001001999999001001MA1999999100931MD1710261+9999REMSYN060AAXX  18154 60764 32965 02710 10256 20096 30093 40143 57026;EQDQ01  00002PRCP99
0208607640999992000041818004+33700+008970FM-12+004699999V0202701N005112200019N0100001N1+02281+00891101481ADDAA199000091GA1021+009009029GF102991021021008001001001KA1120M+02601MA1999999100981MD1210051+9999REMSYN082AAXX  18184 60764 32560 22710 10228 20089 30098 40148 52005 82200 333 10260 82830;EQDQ01  00002PRCP99
0180607640999992000041906004+33700+008970FM-12+004699999V0201101N002112200019N0100001N1+01261+00491101741ADDAA199000091GF102991999999999999999999KA1999N+01071MA1999999101221MD1210021+9999REMSYN070AAXX  19064 60764 33960 21104 10126 20049 30122 40174 52002 333 20107;EQDQ01  00002PRCP99
0189607640999992000041909004+33700+008970FM-12+004699999V0201601N003112200019N0150001N1+01951+00641101781ADDAA199000091GA1011+009009029GF101991011021008001001001MA1999999101271MD1110051+9999REMSYN076AAXX  19094 60764 32565 11606 10195 20064 30127 40178 51005 81200 333 81830;EQDQ01  00002PRCP99
0195607640999992000041912004+33700+008970FM-12+004699999V0202601N005112200019N0150001N1+02501+01081101611ADDAA199000091GA1021+009009029GF102991021021008001001001MA1999999101111MD1810161+9999REMSYN082AAXX  19124 60764 32565 22610 10250 20108 30111 40161 58016 82200 333 50881 82830;EQDQ01  00002PRCP99
0189607640999992000041915004+33700+008970FM-12+004699999V0202701N003112200019N0150001N1+02701+01201101461ADDAA199000091GA1021+009009029GF102991021021008001001001MA1999999100961MD1710151+9999REMSYN076AAXX  19154 60764 32565 22706 10270 20120 30096 40146 57015 82200 333 82830;EQDQ01  00002PRCP99
0208607640999992000042006004+33700+008970FM-12+004699999V0209999C000012200019N0100001N1+01621+01061101681ADDAA199000091GA1031+009009059GF103991031051008001001001KA1120N+01601MA1999999101171MD1710021+9999REMSYN082AAXX  20064 60764 33560 30000 10162 20106 30117 40168 57002 83500 333 20160 83630;EQDQ01  00002PRCP99
0189607640999992000042009004+33700+008970FM-12+004699999V0202401N003112200019N0150001N1+02251+01061101731ADDAA199000091GA1021+009009029GF102991021021008001001001MA1999999101231MD1110061+9999REMSYN076AAXX  20094 60764 32565 22406 10225 20106 30123 40173 51006 82200 333 82830;EQDQ01  00002PRCP99
0163607640999992000042012004+33700+008970FM-12+004699999V0202901N004110075019N0150001N1+02541+01231101691ADDAA199000091GF105991051021008001001001MA1999999101191MD1810041+9999REMSYN066AAXX  20124 60764 32565 52908 10254 20123 30119 40169 58004 85200;EQDQ01  00002PRCP99
0189607640999992000042015004+33700+008970FM-12+004699999V0203201N003110090019N0150001N1+02781+01741101511ADDAA199000091GA1051+009009029GF105991051021008001001001MA1999999101021MD1710171+9999REMSYN076AAXX  20154 60764 32565 53206 10278 20174 30102 40151 57017 85200 333 85830;EQDQ01  00002PRCP99
0208607640999992000042018004+33700+008970FM-12+004699999V0203101N003110090019N0100001N1+02531+01881101521ADDAA199000091GA1061+009009029GF106991061021008001001001KA1120M+02871MA1999999101021MD1410001+9999REMSYN082AAXX  20184 60764 32560 63106 10253 20188 30102 40152 54000 86200 333 10287 86830;EQDQ01  00002PRCP99
0208607640999992000042106004+33700+008970FM-12+004699999V0209999C000012200019N0100001N1+01681+01331102081ADDAA199000091GA1021+009009059GF102991021051008001001001KA1120N+01491MA1999999101561MD1210041+9999REMSYN082AAXX  21064 60764 32560 20000 10168 20133 30156 40208 52004 82500 333 20149 82630;EQDQ01  00002PRCP99
0189607640999992000042109004+33700+008970FM-12+004699999V0201201N001012200019N0120001N1+02381+01081102151ADDAA199000091GA1011+009009059GF101991011051008001001001MA1999999101651MD1110091+9999REMSYN076AAXX  21094 60764 32562 11202 10238 20108 30165 40215 51009 81500 333 81630;EQDQ01  00002PRCP99
0195607640999992000042112004+33700+008970FM-12+004699999V0202601N002112200019N0150001N1+02751+01161102071ADDAA199000091GA1021+009009029GF102991021021008001001001MA1999999101571MD1810081+9999REMSYN082AAXX  21124 60764 32565 22604 10275 20116 30157 40207 58008 82200 333 50911 82830;EQDQ01  00002PRCP99
0189607640999992000042115004+33700+008970FM-12+004699999V0202601N003112200019N0150001N1+02921+01181101891ADDAA199000091GA1011+009009029GF101991011021008001001001MA1999999101401MD1710171+9999REMSYN076AAXX  21154 60764 32565 12606 10292 20118 30140 40189 57017 81200 333 81830;EQDQ01  00002PRCP99
0196607640999992000042118004+33700+008970FM-12+004699999V0209999C000012200019N0120001N1+02801+01191101581ADDAA199000091GA1001+999999999GF100991001001999999001001KA1999M+02941MA1999999101381MD1710021+9999REMSYN070AAXX  21184 60764 32962 00000 10280 20119 30138 40158 57002 333 10294;EQDQ01  00002PRCP99
0196607640999992000042206004+33700+008970FM-12+004699999V0200201N002112200019N0100001N1+01881+01311102181ADDAA199000091GA1001+999999999GF100991001001999999001001KA1999N+01681MA1999999101671MD1410001+9999REMSYN070AAXX  22064 60764 33960 00204 10188 20131 30167 40218 54000 333 20168;EQDQ01  00002PRCP99
0173607640999992000042209004+33700+008970FM-12+004699999V0209999C000012200019N0150001N1+02531+01301102231ADDAA199000091GA1001+999999999GF100991001001999999001001MA1999999101731MD1110061+9999REMSYN060AAXX  22094 60764 32965 00000 10253 20130 30173 40223 51006;EQDQ01  00002PRCP99
0173607640999992000042215004+33700+008970FM-12+004699999V0202401N002112200019N0150001N1+03271+01401101801ADDAA199000091GA1001+999999999GF100991001001999999001001MA1999999101311MD1710271+9999REMSYN060AAXX  22154 60764 32965 02404 10327 20140 30131 40180 57027;EQDQ01  00002PRCP99
0196607640999992000042218004+33700+008970FM-12+004699999V0202401N002112200019N0100001N1+03071+01631101701ADDAA199000091GA1001+999999999GF100991001001999999001001KA1999M+03301MA1999999101211MD1710101+9999REMSYN070AAXX  22184 60764 32960 02404 10307 20163 30121 40170 57010 333 10330;EQDQ01  00002PRCP99
0196607640999992000042306004+33700+008970FM-12+004699999V0201101N001012200019N0100001N1+01731+01041101831ADDAA199000091GA1001+999999999GF100991001001999999001001KA1999N+01501MA1999999101311MD1110021+9999REMSYN070AAXX  23064 60764 33960 01102 10173 20104 30131 40183 51002 333 20150;EQDQ01  00002PRCP99
0173607640999992000042309004+33700+008970FM-12+004699999V0202901N002112200019N0150001N1+02881+01481101901ADDAA199000091GA1001+999999999GF100991001001999999001001MA1999999101411MD1210101+9999REMSYN060AAXX  23094 60764 32965 02904 10288 20148 30141 40190 52010;EQDQ01  00002PRCP99
0189607640999992000042315004+33700+008970FM-12+004699999V0202701N004112200019N0150001N1+03521+02031101551ADDAA199000091GA1031+060009019GF103991001001999999001021MA1999999101071MD1710191+9999REMSYN076AAXX  23154 60764 32965 32708 10352 20203 30107 40155 57019 80002 333 83070;EQDQ01  00002PRCP99
0196607640999992000042406004+33700+008970FM-12+004699999V0200601N007212200019N0080001N1+01871+01121102191ADDAA199000091GA1001+999999999GF100991001001999999001001KA1999N+01651MA1999999101681MD1210041+9999REMSYN070AAXX  24064 60764 33958 00614 10187 20112 30168 40219 52004 333 20165;EQDQ01  00002PRCP99
0173607640999992000042409004+33700+008970FM-12+004699999V0200501N008212200019N0100001N1+02131+00441102321ADDAA199000091GA1001+999999999GF100991001001999999001001MA1999999101811MD1210131+9999REMSYN060AAXX  24094 60764 32960 00516 10213 20044 30181 40232 52013;EQDQ01  00002PRCP99
0173607640999992000042415004+33700+008970FM-12+004699999V0200901N007212200019N0150001N1+02681+00841101851ADDAA199000091GA1001+999999999GF100991001001999999001001MA1999999101351MD1710261+9999REMSYN060AAXX  24154 60764 32965 00914 10268 20084 30135 40185 57026;EQDQ01  00002PRCP99
0196607640999992000042418004+33700+008970FM-12+004699999V0200301N008712200019N0120001N1+02311+00981101761ADDAA199000091GA1001+999999999GF100991001001999999001001KA1999M+02761MA1999999101261MD1710091+9999REMSYN070AAXX  24184 60764 32962 00317 10231 20098 30126 40176 57009 333 10276;EQDQ01  00002PRCP99
0196607640999992000042506004+33700+008970FM-12+004699999V0200301N004112200019N0100001N1+01701+01001101711ADDAA199000091GA1001+999999999GF100991001001999999001001KA1999N+01521MA1999999101201MD1110021+9999REMSYN070AAXX  25064 60764 33960 00308 10170 20100 30120 40171 51002 333 20152;EQDQ01  00002PRCP99
0189607640999992000042509004+33700+008970FM-12+004699999V0201001N002112200019N0120001N1+02381+00841101751ADDAA199000091GA1021+060009019GF102991001001999999001021MA1999999101251MD1110051+9999REMSYN076AAXX  25094 60764 32962 21004 10238 20084 30125 40175 51005 80002 333 82070;EQDQ01  00002PRCP99
0195607640999992000042512004+33700+008970FM-12+004699999V0202201N002112200019N0150001N1+03011+01101101701ADDAA199000091GA1021+060009019GF102991001001999999001021MA1999999101211MD1810041+9999REMSYN082AAXX  25124 60764 32965 22204 10301 20110 30121 40170 58004 80002 333 51161 82070;EQDQ01  00002PRCP99
0189607640999992000042515004+33700+008970FM-12+004699999V0202301N003112200019N0150001N1+03271+01291101441ADDAA199000091GA1031+060009019GF103991001001999999001021MA1999999100951MD1710291+9999REMSYN076AAXX  25154 60764 32965 32306 10327 20129 30095 40144 57029 80002 333 83070;EQDQ01  00002PRCP99
0208607640999992000042518004+33700+008970FM-12+004699999V0202601N002112200019N0120001N1+03171+01431101361ADDAA199000091GA1041+060009019GF104991001001999999001021KA1120M+03341MA1999999100871MD1710081+9999REMSYN082AAXX  25184 60764 32962 42604 10317 20143 30087 40136 57008 80002 333 10334 84070;EQDQ01  00002PRCP99
0208607640999992000042606004+33700+008970FM-12+004699999V0200301N008712200019N0080001N1+01781+01681101431ADDAA199000091GA1031+009009029GF104991031051008001001021KA1120N+01721MA1999999100921MD1110051+9999REMSYN082AAXX  26064 60764 33558 40317 10178 20168 30092 40143 51005 83502 333 20172 83830;EQDQ01  00002PRCP99
0189607640999992000042609004+33700+008970FM-12+004699999V0200201N006212200019N0100001N1+02481+01641101501ADDAA199000091GA1041+060009019GF104991001001999999001021MA1999999101001MD1210081+9999REMSYN076AAXX  26094 60764 32960 40212 10248 20164 30100 40150 52008 80002 333 84070;EQDQ01  00002PRCP99
0195607640999992000042612004+33700+008970FM-12+004699999V0200401N003110600019N0120001N1+03351+01691101341ADDAA199000091GA1051+060009019GF105991001001999999001021MA1999999100861MD1810141+9999REMSYN082AAXX  26124 60764 32962 50406 10335 20169 30086 40134 58014 80002 333 50761 85070;EQDQ01  00002PRCP99
0189607640999992000042615004+33700+008970FM-12+004699999V0200201N001510600019N0120001N1+03601+01891101121ADDAA199000091GA1051+060009019GF105991001001999999001021MA1999999100641MD1710221+9999REMSYN076AAXX  26154 60764 32962 50203 10360 20189 30064 40112 57022 80002 333 85070;EQDQ01  00002PRCP99
0208607640999992000042618004+33700+008970FM-12+004699999V0200401N006210600019N0100001N1+03091+02081100991ADDAA199000091GA1051+060009019GF105991001001999999001021KA1120M+03731MA1999999100501MD1710141+9999REMSYN082AAXX  26184 60764 32960 50412 10309 20208 30050 40099 57014 80002 333 10373 85070;EQDQ01  00002PRCP99
0214607640999992000042706004+33700+008970FM-12+004699999V0200301N01391090001CN0060001N1+01891+01791100731ADDAA199000091GA1041+009009069GF106991041051008001001021KA1120N+01731MA1999999100231MD1710121+9999REMSYN088AAXX  27064 60764 33556 60327 10189 20179 30023 40073 57012 84502 333 20173 84630 83070;EQDQ01  00002PRCP99
0223607640999992000042712004+33700+008970FM-12+004699999V0200301N012910090019N0030001N1+02801+01951100511ADDAA199000091AY121061AY221061GA1061+009009059GF107991061051008001001021MA1999999100621MD1710241+9999MW1071REMSYN088AAXX  27124 60764 31530 70325 10280 20195 30062 40051 57024 70722 86502 333 51161 86630;EQDQ01  00002PRCP99
0239607640999992000042715004+33700+008970FM-12+004699999V0200201N01081090001CN0030001N1+02971+02131100361ADDAA199000091AY121031AY221031GA1031+009009069GF107991031051008001001021MA1999999099872MD1710151+9999MW1071REMSYN088AAXX  27154 60764 31530 70221 10297 20213 39987 40036 57015 70722 83502 333 83630 84070;EQDQ01+099873APOSP Q02  00002PRCP99
0236607640999992000042718004+33700+008970FM-12+004699999V0200201N009810090019N0030001N1+02641+02001100551ADDAA199000091AY121061AY221061GA1061+009009059GF107991061051008001001021KA1120M+03021MA1999999099961MD1210091+9999MW1071REMSYN088AAXX  27184 60764 31530 70219 10264 20200 39996 40055 52009 70722 86502 333 10302 86630;EQDQ01  00002PRCP99
0196607640999992000042806004+33700+008970FM-12+004699999V0200401N008712200019N0080001N1+01881+01561100961ADDAA199000091GA1001+999999999GF100991001001999999001001KA1999N+01761MA1999999100451MD1210211+9999REMSYN070AAXX  28064 60764 33958 00417 10188 20156 30045 40096 52021 333 20176;EQDQ01  00002PRCP99
0173607640999992000042809004+33700+008970FM-12+004699999V0200401N005112200019N0100001N1+02301+01091101081ADDAA199000091GA1001+999999999GF100991001001999999001001MA1999999100581MD1110131+9999REMSYN060AAXX  28094 60764 32960 00410 10230 20109 30058 40108 51013;EQDQ01  00002PRCP99
0195607640999992000042812004+33700+008970FM-12+004699999V0202401N001012200019N0150001N1+02671+01121101111ADDAA199000091GA1011+009009059GF101991011051008001001001MA1999999100621MD1310041+9999REMSYN082AAXX  28124 60764 32565 12402 10267 20112 30062 40111 53004 81500 333 51111 81630;EQDQ01  00002PRCP99
0173607640999992000042815004+33700+008970FM-12+004699999V0202701N003112200019N0150001N1+02881+00811101001ADDAA199000091GA1001+999999999GF100991001001999999001001MA1999999100511MD1710111+9999REMSYN060AAXX  28154 60764 32965 02706 10288 20081 30051 40100 57011;EQDQ01  00002PRCP99
0196607640999992000042906004+33700+008970FM-12+004699999V0200401N008212200019N0100001N1+01631+01011101841ADDAA199000091GA1001+999999999GF100991001001999999001001KA1999N+01391MA1999999101321MD1210211+9999REMSYN070AAXX  29064 60764 33960 00416 10163 20101 30132 40184 52021 333 20139;EQDQ01  00002PRCP99
0189607640999992000042909004+33700+008970FM-12+004699999V0200601N008212200019N0120001N1+02101+01081101901ADDAA199000091GA1031+060009019GF103991001001999999001021MA1999999101391MD1210071+9999REMSYN076AAXX  29094 60764 32962 30616 10210 20108 30139 40190 52007 80002 333 83070;EQDQ01  00002PRCP99
0195607640999992000042912004+33700+008970FM-12+004699999V0200501N004112200019N0150001N1+02421+01141101851ADDAA199000091GA1021+060009019GF102991001001999999001021MA1999999101321MD1710041+9999REMSYN082AAXX  29124 60764 32965 20508 10242 20114 30132 40185 57004 80002 333 51011 82070;EQDQ01  00002PRCP99
0173607640999992000042915004+33700+008970FM-12+004699999V0200201N004112200019N0150001N1+02521+01111101691ADDAA199000091GA1001+999999999GF100991001001999999001001MA1999999101191MD1710161+9999REMSYN060AAXX  29154 60764 32965 00208 10252 20111 30119 40169 57016;EQDQ01  00002PRCP99
0196607640999992000043006004+33700+008970FM-12+004699999V0200401N005112200019N0100001N1+01491+01331101971ADDAA199000091GA1001+999999999GF100991001001999999001001KA1999N+01361MA1999999101451MD1210071+9999REMSYN070AAXX  30064 60764 33960 00410 10149 20133 30145 40197 52007 333 20136;EQDQ01  00002PRCP99
0173607640999992000043009004+33700+008970FM-12+004699999V0200501N008212200019N0120001N1+02181+01351101921ADDAA199000091GA1001+999999999GF100991001001999999001001MA1999999101411MD1710041+9999REMSYN060AAXX  30094 60764 32962 00516 10218 20135 30141 40192 57004;EQDQ01  00002PRCP99
0183607640999992000043012004+33700+008970FM-12+004699999V0200501N007212200019N0150001N1+02571+01501101591ADDAA199000091GA1001+999999999GF100991001001999999001001MA1999999101091MD1710321+9999REMSYN070AAXX  30124 60764 32965 00514 10257 20150 30109 40159 57032 333 50921;EQDQ01  00002PRCP99
0173607640999992000043015004+33700+008970FM-12+004699999V0200401N008712200019N0150001N1+02641+01721101411ADDAA199000091GA1001+999999999GF100991001001999999001001MA1999999100911MD1710181+9999REMSYN060AAXX  30154 60764 32965 00417 10264 20172 30091 40141 57018;EQDQ01  00002PRCP99
0208607640999992000050106004+33700+008970FM-12+004699999V0200301N010812200019N0100001N1+01561+01471101111ADDAA199000091GA1031+060009019GF103991001001999999001021KA1120N+01471MA1999999100601MD1110021+9999REMSYN082AAXX  01064 60764 33960 30321 10156 20147 30060 40111 51002 80002 333 20147 83070;EQDQ01  00002PRCP99
0217607640999992000050109004+33700+008970FM-12+004699999V0200401N013912200019N0020001N1+02061+00991101181ADDAA199000091AY101031AY201031GA1021+009009059GF102991011051008001001001MA1999999100681MD1710081+9999MW1071REMSYN082AAXX  01094 60764 31520 20427 10206 20099 30068 40118 57008 70700 81500 333 82630;EQDQ01  00002PRCP99
0223607640999992000050112004+33700+008970FM-12+004699999V0200401N016412200019N0030001N1+02531+01221101111ADDAA199000091AY101061AY201061GA1011+009009059GF101991011051008001001001MA1999999100511MD1810071+9999MW1071REMSYN088AAXX  01124 60764 31530 10432 10253 20122 30051 40111 58007 70700 81500 333 51081 81630;EQDQ01  00002PRCP99
0173607640999992000050115004+33700+008970FM-12+004699999V0200501N009812200019N0060001N1+02541+01281100971ADDAA199000091GA1001+999999999GF100991001001999999001001MA1999999100471MD1710141+9999REMSYN060AAXX  01154 60764 32956 00519 10254 20128 30047 40097 57014;EQDQ01  00002PRCP99
0196607640999992000050118004+33700+008970FM-12+004699999V0200501N007212200019N0080001N1+02121+00931101001ADDAA199000091GA1001+999999999GF100991001001999999001001KA1999M+02631MA1999999100501MD1210031+9999REMSYN070AAXX  01184 60764 32958 00514 10212 20093 30050 40100 52003 333 10263;EQDQ01  00002PRCP99
0208607640999992000050206004+33700+008970FM-12+004699999V0202101N001512200019N0070001N1+01571+01401101361ADDAA199000091GA1021+060009019GF102991001001999999001021KA1120N+01341MA1999999100851MD1110041+9999REMSYN082AAXX  02064 60764 33957 22103 10157 20140 30085 40136 51004 80002 333 20134 82070;EQDQ01  00002PRCP99
0189607640999992000050209004+33700+008970FM-12+004699999V0200401N008212200019N0100001N1+02151+01151101501ADDAA199000091GA1021+060009019GF102991001001999999001021MA1999999101001MD1210151+9999REMSYN076AAXX  02094 60764 32960 20416 10215 20115 30100 40150 52015 80002 333 82070;EQDQ01  00002PRCP99
0195607640999992000050212004+33700+008970FM-12+004699999V0200401N002112200019N0150001N1+02681+00991101481ADDAA199000091GA1041+060009019GF104991001001999999001021MA1999999100981MD1810021+9999REMSYN082AAXX  02124 60764 32965 40404 10268 20099 30098 40148 58002 80002 333 51141 84070;EQDQ01  00002PRCP99
0189607640999992000050215004+33700+008970FM-12+004699999V0200201N003112200019N0150001N1+02841+00961101341ADDAA199000091GA1011+009009059GF102991011051008001001021MA1999999100851MD1710131+9999REMSYN076AAXX  02154 60764 32565 20206 10284 20096 30085 40134 57013 81502 333 81630;EQDQ01  00002PRCP99
0196607640999992000050306004+33700+008970FM-12+004699999V0200401N007212200019N0100001N1+01721+01431101831ADDAA199000091GA1001+999999999GF100991001001999999001001KA1999N+01511MA1999999101321MD1310111+9999REMSYN070AAXX  03064 60764 33960 00414 10172 20143 30132 40183 53011 333 20151;EQDQ01  00002PRCP99
0173607640999992000050309004+33700+008970FM-12+004699999V0200701N002112200019N0120001N1+02381+01211101921ADDAA199000091GA1001+999999999GF100991001001999999001001MA1999999101421MD1110101+9999REMSYN060AAXX  03094 60764 32962 00704 10238 20121 30142 40192 51010;EQDQ01  00002PRCP99
0183607640999992000050312004+33700+008970FM-12+004699999V0203601N001012200019N0150001N1+02801+01141101781ADDAA199000091GA1001+999999999GF100991001001999999001001MA1999999101281MD1810141+9999REMSYN070AAXX  03124 60764 32965 03602 10280 20114 30128 40178 58014 333 50861;EQDQ01  00002PRCP99
0173607640999992000050315004+33700+008970FM-12+004699999V0202101N002112200019N0150001N1+03041+00951101611ADDAA199000091GA1001+999999999GF100991001001999999001001MA1999999101121MD1710161+9999REMSYN060AAXX  03154 60764 32965 02104 10304 20095 30112 40161 57016;EQDQ01  00002PRCP99
0196607640999992000050406004+33700+008970FM-12+004699999V0200401N008212200019N0120001N1+01841+01571101811ADDAA199000091GA1001+999999999GF100991001001999999001001KA1999N+01731MA1999999101301MD1310071+9999REMSYN070AAXX  04064 60764 33962 00416 10184 20157 30130 40181 53007 333 20173;EQDQ01  00002PRCP99
0173607640999992000050409004+33700+008970FM-12+004699999V0200301N006212200019N0150001N1+02411+01541101931ADDAA199000091GA1001+999999999GF100991001001999999001001MA1999999101431MD1110131+9999REMSYN060AAXX  04094 60764 32965 00312 10241 20154 30143 40193 51013;EQDQ01  00002PRCP99
0183607640999992000050412004+33700+008970FM-12+004699999V0200801N002112200019N0150001N1+03051+01501101831ADDAA199000091GA1001+999999999GF100991001001999999001001MA1999999101341MD1810091+9999REMSYN070AAXX  04124 60764 32965 00804 10305 20150 30134 40183 58009 333 50771;EQDQ01  00002PRCP99
0208607640999992000050506004+33700+008970FM-12+004699999V0200301N008212200019N0070001N1+01821+01551101551ADDAA199000091GA1021+060009019GF102991001001999999001021KA1120N+01701MA1999999101041MD1610061+9999REMSYN082AAXX  05064 60764 33957 20316 10182 20155 30104 40155 56006 80002 333 20170 82070;EQDQ01  00002PRCP99
0195607640999992000050512004+33700+008970FM-12+004699999V0203601N004110600019N0100001N1+03291+01811101431ADDAA199000091GA1051+060009019GF105991001001999999001021MA1999999100941MD1710201+9999REMSYN082AAXX  05124 60764 32960 53608 10329 20181 30094 40143 57020 80002 333 50991 85070;EQDQ01  00002PRCP99
0189607640999992000050515004+33700+008970FM-12+004699999V0201701N002110600019N0100001N1+03561+01711101161ADDAA199000091GA1061+060009019GF106991001001999999001021MA1999999100681MD1710261+9999REMSYN076AAXX  05154 60764 32960 61704 10356 20171 30068 40116 57026 80002 333 86070;EQDQ01  00002PRCP99
0189607640999992000050609004+33700+008970FM-12+004699999V0200301N008712200019N0060001N1+02711+02121101111ADDAA199000091GA1041+060009019GF104991001001999999001021MA1999999100621MD1210011+9999REMSYN076AAXX  06094 60764 32956 40317 10271 20212 30062 40111 52001 80002 333 84070;EQDQ01  00002PRCP99
0201607640999992000050612004+33700+008970FM-12+004699999V0200301N00821090001CN0060001N1+03181+02411101001ADDAA199000091GA1031+009009069GF106991031051008001001021MA1999999100521MD1710101+9999REMSYN088AAXX  06124 60764 32556 60316 10318 20241 30052 40100 57010 83502 333 51181 83630 84070;EQDQ01  00002PRCP99
0195607640999992000050615004+33700+008970FM-12+004699999V0200301N00511090001CN0060001N1+03471+02641100851ADDAA199000091GA1031+009009069GF106991031051008001001021MA1999999100401MD1710121+9999REMSYN082AAXX  06154 60764 32556 60310 10347 20264 30040 40085 57012 83502 333 83630 84070;EQDQ01  00002PRCP99
0214607640999992000050618004+33700+008970FM-12+004699999V0200601N003110090019N0080001N1+03141+02241100941ADDAA199000091GA1051+009009069GF107991051051008001001021KA1120M+03561MA1999999100451MD1210051+9999REMSYN088AAXX  06184 60764 32558 70606 10314 20224 30045 40094 52005 85502 333 10356 85630 83070;EQDQ01  00002PRCP99
0208607640999992000050706004+33700+008970FM-12+004699999V0200201N002112200019N0060001N1+02281+01901101231ADDAA199000091GA1021+060009019GF102991001001999999001021KA1120N+01991MA1999999100731MD1310141+9999REMSYN082AAXX  07064 60764 33956 20204 10228 20190 30073 40123 53014 80002 333 20199 82070;EQDQ01  00002PRCP99
0195607640999992000050709004+33700+008970FM-12+004699999V0201201N00101036001CN0080001N1+02731+02011101371ADDAA199000091GA1041+009909069GF106991041051008001081001MA1999999100871MD1110141+9999REMSYN082AAXX  07094 60764 32558 61202 10273 20201 30087 40137 51014 84580 333 84633 83360;EQDQ01  00002PRCP99
0195607640999992000050715004+33700+008970FM-12+004699999V0201801N00511036001CN0080001N1+03501+02341101151ADDAA199000091GA1031+009909069GF105991031051008001081001MA1999999100671MD1610111+9999REMSYN082AAXX  07154 60764 32558 51810 10350 20234 30067 40115 56011 83580 333 83633 83360;EQDQ01  00002PRCP99
0208607640999992000050806004+33700+008970FM-12+004699999V0201001N002112200019N0080001N1+02401+01871101601ADDAA199000091GA1041+060009019GF104991001001999999001021KA1120N+02101MA1999999101101MD1310061+9999REMSYN082AAXX  08064 60764 33958 41004 10240 20187 30110 40160 53006 80002 333 20210 84070;EQDQ01  00002PRCP99
0189607640999992000050809004+33700+008970FM-12+004699999V0201401N005112200019N0100001N1+02991+02181101691ADDAA199000091GA1031+060009019GF103991001001999999001021MA1999999101201MD1110101+9999REMSYN076AAXX  08094 60764 32960 31410 10299 20218 30120 40169 51010 80002 333 83070;EQDQ01  00002PRCP99
0195607640999992000050812004+33700+008970FM-12+004699999V0201701N002112200019N0150001N1+03411+01541101601ADDAA199000091GA1041+060009019GF104991001001999999001021MA1999999101121MD1810081+9999REMSYN082AAXX  08124 60764 32965 41704 10341 20154 30112 40160 58008 80002 333 50871 84070;EQDQ01  00002PRCP99
0189607640999992000050815004+33700+008970FM-12+004699999V0201601N003110099019N0150001N1+03421+01491101431ADDAA199000091GA1051+009909059GF106991051051008001001021MA1999999100951MD1610171+9999REMSYN076AAXX  08154 60764 32565 61606 10342 20149 30095 40143 56017 85502 333 85633;EQDQ01  00002PRCP99
0214607640999992000050906004+33700+008970FM-12+004699999V0200301N00101090001CN0070001N1+02671+01541101371ADDAA199000091GA1021+009909069GF106991021051008001001021KA1120N+02481MA1999999100871MD1310121+9999REMSYN088AAXX  09064 60764 33557 60302 10267 20154 30087 40137 53012 82502 333 20248 82633 85070;EQDQ01  00002PRCP99
0195607640999992000050909004+33700+008970FM-12+004699999V0202501N00411036001CN0060001N1+03221+01671101411ADDAA199000091GA1021+009909069GF107991021051008001081021MA1999999100921MD1110051+9999REMSYN082AAXX  09094 60764 32556 72508 10322 20167 30092 40141 51005 82582 333 82633 84360;EQDQ01  00002PRCP99
0201607640999992000050912004+33700+008970FM-12+004699999V0201801N002119999999N0050001N1+03511+01771101371ADDAA199000091GA1031+030009039GF107991031001999999081021MA1999999100891MD1810031+9999REMSYN088AAXX  09124 60764 32950 71804 10351 20177 30089 40137 58003 83082 333 51171 83360 85070;EQDQ01  00002PRCP99
0195607640999992000050915004+33700+008970FM-12+004699999V0202601N003119999999N0070001N1+03801+01791101191ADDAA199000091GA1021+030009039GF106991021001999999081021MA1999999100711MD1810181+9999REMSYN082AAXX  09154 60764 32957 62606 10380 20179 30071 40119 58018 82082 333 82360 85070;EQDQ01  00002PRCP99
0207607640999992000051006004+33700+008970FM-12+004699999V0200701N004110090019N0080001N1+02291+01901101601ADDAA124000591GA1051+009009069GF107991051051008001081999KA1120N+02251MA1999999101091MD1110091+9999REMSYN100AAXX  10064 60764 13558 70708 10229 20190 30109 40160 51009 69944 8558/ 333 20225 70004 85630 83360;
0195607640999992000051009004+33700+008970FM-12+004699999V0200401N00511090001CN0100001N1+02771+01971101601ADDAA199000091GA1021+009009069GF105991021051008001081021MA1999999101111MD1310021+9999REMSYN082AAXX  10094 60764 32560 50410 10277 20197 30111 40160 53002 82582 333 82630 83360;EQDQ01  00002PRCP99
0201607640999992000051012004+33700+008970FM-12+004699999V0200601N005112200019N0150001N1+03361+01971101471ADDAA199000091GA1011+030009039GF103991011001999999081021MA1999999100991MD1810121+9999REMSYN088AAXX  10124 60764 32965 30610 10336 20197 30099 40147 58012 81082 333 51221 81360 83070;EQDQ01  00002PRCP99
0189607640999992000051015004+33700+008970FM-12+004699999V0201801N008210090019N0070001N1+03081+01961101531ADDAA199000091GA1061+009009059GF106991061051008001001001MA1999999101041MD1310051+9999REMSYN076AAXX  10154 60764 32557 61816 10308 20196 30104 40153 53005 86500 333 86630;EQDQ01  00002PRCP99
0201607640999992000051106004+33700+008970FM-12+004699999V0200901N003110900019N0080001N1+02721+01801101511ADDAA124000391GA1041+009909059GF105991041051008001001021KA1120N+02551MA1999999101011MD1310061+9999REMSYN094AAXX  11064 60764 13558 50906 10272 20180 30101 40151 53006 69934 84502 333 20255 70003 84633;
0189607640999992000051109004+33700+008970FM-12+004699999V0200801N004110099019N0080001N1+03191+01261101631ADDAA199000091GA1061+009909059GF107991061051008001001021MA1999999101141MD1210131+9999REMSYN076AAXX  11094 60764 32558 70808 10319 20126 30114 40163 52013 86502 333 86633;EQDQ01  00002PRCP99
0201607640999992000051112004+33700+008970FM-12+004699999V0201201N007210099019N0080001N1+03291+01551101611ADDAA199000091GA1051+009909069GF107991051051008001001021MA1999999101121MD1810021+9999REMSYN088AAXX  11124 60764 32558 71214 10329 20155 30112 40161 58002 85502 333 51311 85633 83070;EQDQ01  00002PRCP99
0208607640999992000051206004+33700+008970FM-12+004699999V0200301N011812200019N0070001N1+02191+01961101521ADDAA199000091GA1041+060009019GF104991001001999999001021KA1120N+02041MA1999999101021MD1310071+9999REMSYN082AAXX  12064 60764 33957 40323 10219 20196 30102 40152 53007 80002 333 20204 84070;EQDQ01  00002PRCP99
0189607640999992000051209004+33700+008970FM-12+004699999V0200401N010812200019N0080001N1+02901+01761101651ADDAA199000091GA1031+060009019GF103991001001999999001021MA1999999101161MD1110141+9999REMSYN076AAXX  12094 60764 32958 30421 10290 20176 30116 40165 51014 80002 333 83070;EQDQ01  00002PRCP99
0201607640999992000051212004+33700+008970FM-12+004699999V0200501N00981090001CN0100001N1+03331+01601101551ADDAA199000091GA1031+000609059GF105991031051008001001021MA1999999101061MD1710101+9999REMSYN088AAXX  12124 60764 32560 50519 10333 20160 30106 40155 57010 83502 333 51091 83633 83070;EQDQ01  00002PRCP99
0189607640999992000051215004+33700+008970FM-12+004699999V0201201N005110900019N0120001N1+03631+01591101391ADDAA199000091GA1041+009909059GF105991041051008001001021MA1999999100911MD1610151+9999REMSYN076AAXX  12154 60764 32562 51210 10363 20159 30091 40139 56015 84502 333 84633;EQDQ01  00002PRCP99
0226607640999992000051306004+33700+008970FM-12+004699999V0200401N015919999999N0030001N1+02521+01631101581ADDAA199000091GA1041+030009039GF106991041001999999081021KA1120N+02071MA1999999101081MD1610141+9999MW1071REMSYN094AAXX  13064 60764 31930 60431 10252 20163 30108 40158 56014 707// 84082 333 20207 84360 83070;EQDQ01  00002PRCP99
0201607640999992000051312004+33700+008970FM-12+004699999V0200401N00871036001CN0100001N1+03151+01851101571ADDAA199000091GA1021+009909069GF106991021051008001081001MA1999999101081MD1810041+9999REMSYN088AAXX  13124 60764 32560 60417 10315 20185 30108 40157 58004 82580 333 51481 82633 85360;EQDQ01  00002PRCP99
0195607640999992000051315004+33700+008970FM-12+004699999V0200301N00871036001CN0100001N1+03321+01921101431ADDAA199000091GA1031+009909069GF106991031051008001081001MA1999999100941MD1710141+9999REMSYN082AAXX  13154 60764 32560 60317 10332 20192 30094 40143 57014 83580 333 83633 84360;EQDQ01  00002PRCP99
0201607640999992000051406004+33700+008970FM-12+004699999V0200401N010812200019N0080001N1+02291+01731101711ADDAA124000391GA1041+060009019GF104991001001999999001021KA1120N+02031MA1999999101211MD1310051+9999REMSYN094AAXX  14064 60764 13958 40421 10229 20173 30121 40171 53005 69934 80002 333 20203 70003 84070;
0189607640999992000051409004+33700+008970FM-12+004699999V0200401N008712200019N0120001N1+02781+01741101781ADDAA199000091GA1031+060009019GF103991001001999999001021MA1999999101281MD1310071+9999REMSYN076AAXX  14094 60764 32962 30417 10278 20174 30128 40178 53007 80002 333 83070;EQDQ01  00002PRCP99
0195607640999992000051412004+33700+008970FM-12+004699999V0200601N004112200019N0150001N1+03231+01991101741ADDAA199000091GA1021+060009019GF102991001001999999001021MA1999999101251MD1810031+9999REMSYN082AAXX  14124 60764 32965 20608 10323 20199 30125 40174 58003 80002 333 51601 82070;EQDQ01  00002PRCP99
0189607640999992000051415004+33700+008970FM-12+004699999V0200301N004112200019N0150001N1+03361+02061101561ADDAA199000091GA1031+060009019GF103991001001999999001021MA1999999101081MD1710171+9999REMSYN076AAXX  14154 60764 32965 30308 10336 20206 30108 40156 57017 80002 333 83070;EQDQ01  00002PRCP99
0208607640999992000051506004+33700+008970FM-12+004699999V0200201N007212200019N0100001N1+02021+01731101881ADDAA199000091GA1031+060009019GF103991001001999999001021KA1120N+01871MA1999999101371MD1210041+9999REMSYN082AAXX  15064 60764 33960 30214 10202 20173 30137 40188 52004 80002 333 20187 83070;EQDQ01  00002PRCP99
0189607640999992000051509004+33700+008970FM-12+004699999V0200401N006212200019N0120001N1+02661+01551101961ADDAA199000091GA1021+060009019GF102991001001999999001021MA1999999101461MD1210091+9999REMSYN076AAXX  15094 60764 32962 20412 10266 20155 30146 40196 52009 80002 333 82070;EQDQ01  00002PRCP99
0183607640999992000051512004+33700+008970FM-12+004699999V0200401N005112200019N0150001N1+03221+01571101781ADDAA199000091GA1001+999999999GF100991001001999999001001MA1999999101251MD1710171+9999REMSYN070AAXX  15124 60764 32965 00410 10322 20157 30125 40178 57017 333 51141;EQDQ01  00002PRCP99
0189607640999992000051515004+33700+008970FM-12+004699999V0200101N003112200019N0150001N1+03321+01631101601ADDAA199000091GA1021+009009059GF102991021051008001001001MA1999999101111MD1710181+9999REMSYN076AAXX  15154 60764 32565 20106 10332 20163 30111 40160 57018 82500 333 82630;EQDQ01  00002PRCP99
0208607640999992000051518004+33700+008970FM-12+004699999V0200301N008212200019N0100001N1+02991+01781101561ADDAA199000091GA1021+009009059GF102991021051008001001001KA1120M+03371MA1999999101071MD1710041+9999REMSYN082AAXX  15184 60764 32560 20316 10299 20178 30107 40156 57004 82500 333 10337 82630;EQDQ01  00002PRCP99
0208607640999992000051606004+33700+008970FM-12+004699999V0200801N008212200019N0100001N1+02021+01801101971ADDAA199000091GA1021+060009019GF102991001001999999001021KA1120N+01991MA1999999101461MD1710021+9999REMSYN082AAXX  16064 60764 33960 20816 10202 20180 30146 40197 57002 80002 333 20199 82070;EQDQ01  00002PRCP99
0189607640999992000051609004+33700+008970FM-12+004699999V0200401N006212200019N0100001N1+02541+01871102041ADDAA199000091GA1021+060009019GF102991001001999999001021MA1999999101541MD1210081+9999REMSYN076AAXX  16094 60764 32960 20412 10254 20187 30154 40204 52008 80002 333 82070;EQDQ01  00002PRCP99
0195607640999992000051612004+33700+008970FM-12+004699999V0200401N005112200019N0150001N1+03091+01851101861ADDAA199000091GA1021+060009019GF102991001001999999001021MA1999999101371MD1710171+9999REMSYN082AAXX  16124 60764 32965 20410 10309 20185 30137 40186 57017 80002 333 51131 82070;EQDQ01  00002PRCP99
0237607640999992000051615004+33700+008970FM-12+004699999V0200301N004112200019N0150001N1+03321+02051101611ADDAA199000091GA1091+060009019GF109991091001999999001021MA1999999101121MD1710251+9999REMSYN076AAXX  16154 60764 32965 20308 10332 20205 30112 40161 57025 80002 333 89070;EQDQ01+000022SCOTCVQ02+000002SCOTLCQ03+000022SCOHCGQ04  00002PRCP99
0208607640999992000051618004+33700+008970FM-12+004699999V0200301N008712200019N0100001N1+02861+02011101631ADDAA199000091GA1021+009009059GF103991021051008001001021KA1120M+03391MA1999999101141MD1210021+9999REMSYN082AAXX  16184 60764 32560 30317 10286 20201 30114 40163 52002 82502 333 10339 82630;EQDQ01  00002PRCP99
0214607640999992000051706004+33700+008970FM-12+004699999V0200201N00871090001CN0100001N1+02111+01811101751ADDAA199000091GA1031+009009069GF106991031051008001001021KA1120N+02031MA1999999101241MD1210041+9999REMSYN088AAXX  17064 60764 33560 60217 10211 20181 30124 40175 52004 83502 333 20203 83630 84070;EQDQ01  00002PRCP99
0195607640999992000051709004+33700+008970FM-12+004699999V0200801N002112200019N0120001N1+02771+01291101811ADDAA199000091GA1021+009009069GF104991021051008001001021MA1999999101311MD1210071+9999REMSYN082AAXX  17094 60764 32562 40804 10277 20129 30131 40181 52007 82502 333 82630 83070;EQDQ01  00002PRCP99
0201607640999992000051712004+33700+008970FM-12+004699999V0201001N00311090001CN0120001N1+03191+01421101611ADDAA199000091GA1031+009009069GF107991031051008001001021MA1999999101121MD1810191+9999REMSYN088AAXX  17124 60764 32562 71006 10319 20142 30112 40161 58019 83502 333 50851 83630 85070;EQDQ01  00002PRCP99
0189607640999992000051715004+33700+008970FM-12+004699999V0209999C000010090019N0120001N1+03121+01721101451ADDAA199000091GA1051+009009059GF106991051051008001001021MA1999999100961MD1610161+9999REMSYN076AAXX  17154 60764 32562 60000 10312 20172 30096 40145 56016 85502 333 85630;EQDQ01  00002PRCP99
0208607640999992000051718004+33700+008970FM-12+004699999V0200401N004110090019N0100001N1+03041+01391101321ADDAA199000091GA1051+009009059GF106991051051008001001021KA1120M+03321MA1999999100831MD1710131+9999REMSYN082AAXX  17184 60764 32560 60408 10304 20139 30083 40132 57013 85502 333 10332 85630;EQDQ01  00002PRCP99
0214607640999992000051806004+33700+008970FM-12+004699999V0200401N00871090001CN0100001N1+02121+01771101461ADDAA199000091GA1031+009009069GF106991031051008001001021KA1120N+01901MA1999999100951MD1210061+9999REMSYN088AAXX  18064 60764 33560 60417 10212 20177 30095 40146 52006 83502 333 20190 83630 84070;EQDQ01  00002PRCP99
0189607640999992000051809004+33700+008970FM-12+004699999V0200401N007212200019N0120001N1+02701+01791101481ADDAA199000091GA1021+060009019GF102991001001999999001021MA1999999100981MD1110031+9999REMSYN076AAXX  18094 60764 32962 20414 10270 20179 30098 40148 51003 80002 333 82070;EQDQ01  00002PRCP99
0195607640999992000051812004+33700+008970FM-12+004699999V0200501N005112200019N0150001N1+03271+01781101341ADDAA199000091GA1021+060009019GF102991001001999999001021MA1999999100851MD1810131+9999REMSYN082AAXX  18124 60764 32965 20510 10327 20178 30085 40134 58013 80002 333 50961 82070;EQDQ01  00002PRCP99
0189607640999992000051815004+33700+008970FM-12+004699999V0200401N006212200019N0150001N1+03461+01931101051ADDAA199000091GA1031+060009019GF103991001001999999001021MA1999999100571MD1710281+9999REMSYN076AAXX  18154 60764 32965 30412 10346 20193 30057 40105 57028 80002 333 83070;EQDQ01  00002PRCP99
0214607640999992000051818004+33700+008970FM-12+004699999V0200201N01081090001CN0080001N1+02841+01931101151ADDAA199000091GA1031+009009069GF105991031051008001001021KA1120M+03491MA1999999100661MD1210091+9999REMSYN088AAXX  18184 60764 32558 50221 10284 20193 30066 40115 52009 83502 333 10349 83630 83070;EQDQ01  00002PRCP99
0207607640999992000051906004+33700+008970FM-12+004699999V0200301N009812200019N0080001N1+02081+02021101371ADDAA124002091GA1021+009009089GF104991021021008001001021KA1120N+01931MA1999999100861MD1310131+9999REMSYN100AAXX  19064 60764 13558 40319 10208 20202 30086 40137 53013 60024 82202 333 20193 70024 82830 83070;
0158607640999992000051909004+33700+008970FM-12+004699999V0200401N010812200019N0100001N1+02661+01691101411ADDAA199000091GF102991999999999999999999MA1999999100911REMSYN075AAXX  19094 60764 32960 20421 10266 20169 30091 40141 5105 80002 333 82070;EQDQ01  00002PRCP99
0195607640999992000051912004+33700+008970FM-12+004699999V0200401N008712200019N0150001N1+03131+01631101331ADDAA199000091GA1031+060009019GF103991001001999999001021MA1999999100841MD1810071+9999REMSYN082AAXX  19124 60764 32965 30417 10313 20163 30084 40133 58007 80002 333 51221 83070;EQDQ01  00002PRCP99
0201607640999992000052006004+33700+008970FM-12+004699999V0200701N003112200019N0100001N1+02011+01841101501ADDAA124000191GA1021+060009019GF102991001001999999001021KA1120N+01901MA1999999100991MD1210091+9999REMSYN094AAXX  20064 60764 13960 20706 10201 20184 30099 40150 52009 69924 80002 333 20190 70002 82070;
0189607640999992000052009004+33700+008970FM-12+004699999V0200301N005112200019N0120001N1+02541+01991101531ADDAA199000091GA1021+060009019GF102991001001999999001021MA1999999101031MD1210041+9999REMSYN076AAXX  20094 60764 32962 20310 10254 20199 30103 40153 52004 80002 333 82070;EQDQ01  00002PRCP99
0195607640999992000052012004+33700+008970FM-12+004699999V0200501N004112200019N0150001N1+03071+01911101461ADDAA199000091GA1041+060009019GF104991001001999999001021MA1999999100971MD1710061+9999REMSYN082AAXX  20124 60764 32965 40508 10307 20191 30097 40146 57006 80002 333 50991 84070;EQDQ01  00002PRCP99
0208607640999992000052018004+33700+008970FM-12+004699999V0200301N003110600019N0100001N1+03211+01961101221ADDAA199000091GA1061+060009019GF106991001001999999001021KA1120M+03461MA1999999100741MD1710011+9999REMSYN082AAXX  20184 60764 32960 60306 10321 20196 30074 40122 57001 80002 333 10346 86070;EQDQ01  00002PRCP99
0214607640999992000052106004+33700+008970FM-12+004699999V0209999C00001090001CN0100001N1+02511+01621101381ADDAA199000091GA1021+009009069GF106991021051008001001021KA1120N+02351MA1999999100881MD1210041+9999REMSYN088AAXX  21064 60764 33560 60000 10251 20162 30088 40138 52004 82502 333 20235 82630 85070;EQDQ01  00002PRCP99
0189607640999992000052109004+33700+008970FM-12+004699999V0201601N003110600019N0120001N1+03011+02001101471ADDAA199000091GA1061+060009019GF106991001001999999001021MA1999999100981MD1210101+9999REMSYN076AAXX  21094 60764 32962 61606 10301 20200 30098 40147 52010 80002 333 86070;EQDQ01  00002PRCP99
0189607640999992000052115004+33700+008970FM-12+004699999V0209999C000010600019N0120001N1+03691+01261101191ADDAA199000091GA1061+060009019GF106991001001999999001021MA1999999100711MD1710151+9999REMSYN076AAXX  21154 60764 32962 60000 10369 20126 30071 40119 57015 80002 333 86070;EQDQ01  00002PRCP99
0214607640999992000052118004+33700+008970FM-12+004699999V0200401N00311090001CN0100001N1+03441+01391101131ADDAA199000091GA1021+009009069GF107991021051008001001021KA1120M+03711MA1999999100651MD1710061+9999REMSYN088AAXX  21184 60764 32560 70406 10344 20139 30065 40113 57006 82502 333 10371 82630 86070;EQDQ01  00002PRCP99
0208607640999992000052206004+33700+008970FM-12+004699999V0203001N001010600019N0100001N1+02881+00071101161ADDAA199000091GA1061+060009019GF106991001001999999001021KA1120N+02741MA1999999100671MD1210061+9999REMSYN082AAXX  22064 60764 33960 63002 10288 20007 30067 40116 52006 80002 333 20274 86070;EQDQ01  00002PRCP99
0189607640999992000052209004+33700+008970FM-12+004699999V0201501N001010600019N0080001N1+03371+00771101221ADDAA199000091GA1051+060009019GF105991001001999999001021MA1999999100741MD1110071+9999REMSYN076AAXX  22094 60764 32958 51502 10337 20077 30074 40122 51007 80002 333 85070;EQDQ01  00002PRCP99
0195607640999992000052212004+33700+008970FM-12+004699999V0202801N002110600019N0100001N1+03701+00861101221ADDAA199000091GA1051+060009019GF105991001001999999001021MA1999999100741MD1410001+9999REMSYN082AAXX  22124 60764 32960 52804 10370 20086 30074 40122 54000 80002 333 51351 85070;EQDQ01  00002PRCP99
0195607640999992000052215004+33700+008970FM-12+004699999V0202801N005119999999N0120001N1+03811+00871101311ADDAA199000091GA1021+030009039GF106991021001999999081021MA1999999100831MD1310091+9999REMSYN082AAXX  22154 60764 32962 62810 10381 20087 30083 40131 53009 82082 333 82360 85070;EQDQ01  00002PRCP99
0214607640999992000052218004+33700+008970FM-12+004699999V0203301N002119999999N0100001N1+03671+01091101281ADDAA199000091GA1021+030009039GF106991021001008001081021KA1120M+03871MA1999999100801MD1710031+9999REMSYN088AAXX  22184 60764 32560 63304 10367 20109 30080 40128 57003 82082 333 10387 82360 85070;EQDQ01  00002PRCP99
0214607640999992000052306004+33700+008970FM-12+004699999V0200601N00511090001CN0100001N1+02381+01831101821ADDAA199000091GA1031+009009069GF107991031051008001001021KA1120N+02341MA1999999101321MD1210091+9999REMSYN088AAXX  23064 60764 33560 70610 10238 20183 30132 40182 52009 83502 333 20234 83630 85070;EQDQ01  00002PRCP99
0195607640999992000052312004+33700+008970FM-12+004699999V0200501N008210600019N0120001N1+03121+01791101831ADDAA199000091GA1061+060009019GF106991001001999999001021MA1999999101341MD1810111+9999REMSYN082AAXX  23124 60764 32962 60516 10312 20179 30134 40183 58011 80002 333 51401 86070;EQDQ01  00002PRCP99
0195607640999992000052315004+33700+008970FM-12+004699999V0200501N00721090001CN0120001N1+03311+01891101591ADDAA199000091GA1021+009909069GF107991021051008001001021MA1999999101101MD1710241+9999REMSYN082AAXX  23154 60764 32562 70514 10331 20189 30110 40159 57024 82502 333 82633 86070;EQDQ01  00002PRCP99
0214607640999992000052406004+33700+008970FM-12+004699999V0200301N00721090001CN0100001N1+02291+01971101711ADDAA199000091GA1031+009009069GF106991031051008001001021KA1120N+02241MA1999999101211MD1710091+9999REMSYN088AAXX  24064 60764 33560 60314 10229 20197 30121 40171 57009 83502 333 20224 83630 84070;EQDQ01  00002PRCP99
0189607640999992000052409004+33700+008970FM-12+004699999V0200501N005110600019N0120001N1+02931+01871101681ADDAA199000091GA1051+060009019GF105991001001999999001021MA1999999101191MD1810021+9999REMSYN076AAXX  24094 60764 32962 50510 10293 20187 30119 40168 58002 80002 333 85070;EQDQ01  00002PRCP99
0195607640999992000052412004+33700+008970FM-12+004699999V0202001N002110600019N0120001N1+03311+01651101611ADDAA199000091GA1061+060009019GF106991001001999999001021MA1999999101121MD1710071+9999REMSYN082AAXX  24124 60764 32962 62004 10331 20165 30112 40161 57007 80002 333 50911 86070;EQDQ01  00002PRCP99
0189607640999992000052415004+33700+008970FM-12+004699999V0202601N001010600019N0120001N1+03461+01801101381ADDAA199000091GA1061+060009019GF106991001001999999001021MA1999999100901MD1710221+9999REMSYN076AAXX  24154 60764 32962 62602 10346 20180 30090 40138 57022 80002 333 86070;EQDQ01  00002PRCP99
0208607640999992000052418004+33700+008970FM-12+004699999V0200501N006210600019N0100001N1+03131+01791101631ADDAA199000091GA1061+060009019GF106991001001999999001021KA1120M+03531MA1999999100851MD1710051+9999REMSYN082AAXX  24184 60764 32960 60512 10313 20179 30085 40163 57005 80002 333 10353 86070;EQDQ01  00002PRCP99
0214607640999992000052506004+33700+008970FM-12+004699999V0201201N00411090001CN0100001N1+02461+01871101191ADDAA199000091GA1041+009009069GF107991041051008001001021KA1120N+02181MA1999999100691MD1710041+9999REMSYN088AAXX  25064 60764 33560 71208 10246 20187 30069 40119 57004 84502 333 20218 84630 84070;EQDQ01  00002PRCP99
0193607640999992000052509004+33700+008970FM-12+004699999V0201101N00511012001CN0100001N1+02511+01941101441ADDAY161031AY221031GA1021+006909089GF107991071081008001999999MA1999999100941MD1110251+9999MW1031REMSYN088AAXX  25094 60764 41560 71110 10251 20194 30094 40144 51025 70362 878// 333 82823 86630;
0193607640999992000052515004+33700+008970FM-12+004699999V0202301N00211007501CN0080001N1+02271+01951101601ADDAY161031AY261031GA1031+006909089GF108991061051008001081999MA1999999101101MD1610181+9999MW1601REMSYN088AAXX  25154 60764 41558 82304 10227 20195 30110 40160 56018 76066 8658/ 333 83823 86630;
0229607640999992000052518004+33700+008970FM-12+004699999V0209999999999012001CN0080001N1+01991+01911101531ADDAA112011991AY161061AY261061GA1031+006909089GF108991081081008001999999KA1120M+02561MA1999999101271MD1710091+9999MW1601REMSYN100AAXX  25184 60764 11558 84004 10199 20191 30127 40153 57009 60122 76066 888// 333 10256 83823 86630;
0207607640999992000052606004+33700+008970FM-12+004699999V0201101N00311012001CN0100001N1+01811+01781101441ADDAA124019191GA1031+006909089GF107991061081008001001021KA1120N+01761MA1999999100931MD1210031+9999REMSYN100AAXX  26064 60764 13560 71106 10181 20178 30093 40144 52003 60194 86802 333 20176 70187 83823 84630;
0195607640999992000052609004+33700+008970FM-12+004699999V0200901N00211012001CN0100001N1+02181+01871101441ADDAA199000091GA1021+006909089GF106991061081008001001001MA1999999100931MD1410001+9999REMSYN082AAXX  26094 60764 32560 60904 10218 20187 30093 40144 54000 86800 333 82823 85630;EQDQ01  00002PRCP99
0195607640999992000052612004+33700+008970FM-12+004699999V0209999C000010090019N0150001N1+02411+01881101401ADDAA199000091GA1061+009009029GF106991061021008001001001MA1999999100901MD1810031+9999REMSYN082AAXX  26124 60764 32565 60000 10241 20188 30090 40140 58003 86200 333 50211 86830;EQDQ01  00002PRCP99
0189607640999992000052615004+33700+008970FM-12+004699999V0201001N002110090019N0150001N1+02541+01781101291ADDAA199000091GA1061+009009029GF106991061021008001001001MA1999999100791MD1610111+9999REMSYN076AAXX  26154 60764 32565 61004 10254 20178 30079 40129 56011 86200 333 86830;EQDQ01  00002PRCP99
0201607640999992000052706004+33700+008970FM-12+004699999V0200801N001010090019N0100001N1+01841+01571101561ADDAA124004191GA1051+009009059GF105991051051008001001001KA1120N+01751MA1999999101051MD1210031+9999REMSYN094AAXX  27064 60764 13560 50802 10184 20157 30105 40156 52003 60044 85500 333 20175 70036 85630;
0195607640999992000052709004+33700+008970FM-12+004699999V0200101N00211012001CN0120001N1+02221+01651101641ADDAA199000091GA1021+006909089GF106991061081008001001001MA1999999101141MD1210091+9999REMSYN082AAXX  27094 60764 32562 60104 10222 20165 30114 40164 52009 86800 333 82823 85630;EQDQ01  00002PRCP99
0201607640999992000052712004+33700+008970FM-12+004699999V0200201N00411012001CN0120001N1+02271+01661101641ADDAA199000091GA1031+006909089GF106991061081008001001001MA1999999101141MD1410001+9999REMSYN088AAXX  27124 60764 32562 60208 10227 20166 30114 40164 54000 86800 333 50121 83823 84630;EQDQ01  00002PRCP99
0196607640999992000052715004+33700+008970FM-12+004699999V0200201N00311012001CN0120001N1+02541+01711101541ADDAA199000091GA1021+006909089GF105991051081008001001001MD1710091+9999REMSYN082AAXX  27154 60764 32562 50206 10254 20171 30175 40154 57009 85800 333 82823 84630;EQDQ01+101753APOSP Q02  00002PRCP99
0208607640999992000052718004+33700+008970FM-12+004699999V0200301N003112200019N0120001N1+02541+01711101611ADDAA199000091GA1031+009009059GF103991031051008001001001KA1120M+02621MA1999999101111MD1210061+9999REMSYN082AAXX  27184 60764 32562 30306 10254 20171 30111 40161 52006 83500 333 10262 83630;EQDQ01  00002PRCP99
0189607640999992000052809004+33700+008970FM-12+004699999V0209999C000012200019N0120001N1+02411+01761102091ADDAA199000091GA1011+009009059GF101991011051008001001021MA1999999101591MD1210121+9999REMSYN076AAXX  28094 60764 32562 10000 10241 20176 30159 40209 52012 81502 333 81630;EQDQ01  00002PRCP99
0189607640999992000052815004+33700+008970FM-12+004699999V0202701N002112200019N0120001N1+03001+01711101831ADDAA199000091GA1031+009009059GF103991031051008001001001MA1999999101341MD1710151+9999REMSYN076AAXX  28154 60764 32562 32704 10300 20171 30134 40183 57015 83500 333 83630;EQDQ01  00002PRCP99
0224607640999992000052818004+33700+008970FM-12+004699999V0202701N003112200019N0100001N1+02941+01721101771ADDAA199000091GA1031+060009019GF103991031051008001001999KA1120M+03041MA1999999101281MD1710061+9999REMSYN082AAXX  28184 60764 32560 32706 10294 20172 30128 40177 57006 83500 333 10304 83070;EQDQ01+000002SCOHCGQ02  00002PRCP99
0196607640999992000052906004+33700+008970FM-12+004699999V0209999C000012200019N0100001N1+02201+01091102101ADDAA199000091GA1001+999999999GF100991001001999999001001KA1999N+01881MA1999999101591MD1210061+9999REMSYN070AAXX  29064 60764 33960 00000 10220 20109 30159 40210 52006 333 20188;EQDQ01  00002PRCP99
0189607640999992000052909004+33700+008970FM-12+004699999V0202101N001012200019N0150001N1+02691+01651102161ADDAA199000091GA1021+060009019GF102991001001999999001021MA1999999101661MD1110071+9999REMSYN076AAXX  29094 60764 32965 22102 10269 20165 30166 40216 51007 80002 333 82070;EQDQ01  00002PRCP99
0195607640999992000052912004+33700+008970FM-12+004699999V0202401N004112200019N0150001N1+03101+01631102071ADDAA199000091GA1011+009009029GF101991011021008001001001MA1999999101581MD1810081+9999REMSYN082AAXX  29124 60764 32565 12408 10310 20163 30158 40207 58008 81200 333 50661 81830;EQDQ01  00002PRCP99
0189607640999992000052915004+33700+008970FM-12+004699999V0202901N002112200019N0150001N1+03371+01501101861ADDAA199000091GA1021+009009029GF102991021021008001001001MA1999999101371MD1710211+9999REMSYN076AAXX  29154 60764 32565 22904 10337 20150 30137 40186 57021 82200 333 82830;EQDQ01  00002PRCP99
0208607640999992000052918004+33700+008970FM-12+004699999V0202901N001012200019N0100001N1+03341+01571101821ADDAA199000091GA1021+009009029GF102991021021008001001001KA1120M+03401MA1999999101331MD1710041+9999REMSYN082AAXX  29184 60764 32560 22902 10334 20157 30133 40182 57004 82200 333 10340 82830;EQDQ01  00002PRCP99
0196607640999992000053006004+33700+008970FM-12+004699999V0200301N007212200019N0080001N1+02291+01831102141ADDAA199000091GA1001+999999999GF100991001001999999001001KA1999N+02181MA1999999101641MD1210141+9999REMSYN070AAXX  30064 60764 33958 00314 10229 20183 30164 40214 52014 333 20218;EQDQ01  00002PRCP99
0173607640999992000053009004+33700+008970FM-12+004699999V0200501N001012200019N0120001N1+02931+01741102201ADDAA199000091GA1001+999999999GF100991001001999999001001MA1999999101711MD1110071+9999REMSYN060AAXX  30094 60764 32962 00502 10293 20174 30171 40220 51007;EQDQ01  00002PRCP99
0173607640999992000053015004+33700+008970FM-12+004699999V0201201N002112200019N0150001N1+03521+01731101901ADDAA199000091GA1001+999999999GF100991001001999999001001MA1999999101421MD1710191+9999REMSYN060AAXX  30154 60764 32965 01204 10352 20173 30142 40190 57019;EQDQ01  00002PRCP99
0196607640999992000053018004+33700+008970FM-12+004699999V0200401N002112200019N0100001N1+03421+01761101841ADDAA199000091GA1001+999999999GF100991001001999999001001KA1999M+03601MA1999999101351MD1710071+9999REMSYN070AAXX  30184 60764 32960 00404 10342 20176 30135 40184 57007 333 10360;EQDQ01  00002PRCP99
0189607640999992000053109004+33700+008970FM-12+004699999V0200901N003110600019N0150001N1+03071+01781102121ADDAA199000091GA1051+060009019GF105991001001999999001021MA1999999101631MD1110071+9999REMSYN076AAXX  31094 60764 32965 50906 10307 20178 30163 40212 51007 80002 333 85070;EQDQ01  00002PRCP99
0195607640999992000053112004+33700+008970FM-12+004699999V0200601N003110600019N0150001N1+03291+01911102051ADDAA199000091GA1061+060009019GF106991001001999999001021MA1999999101561MD1810071+9999REMSYN082AAXX  31124 60764 32965 60606 10329 20191 30156 40205 58007 80002 333 51111 86070;EQDQ01  00002PRCP99
0208607640999992000053118004+33700+008970FM-12+004699999V0201901N002110600019N0120001N1+03391+01981101771ADDAA199000091GA1061+060009019GF106991001001999999001021KA1120M+03541MA1999999101281MD1710051+9999REMSYN082AAXX  31184 60764 32962 61904 10339 20198 30128 40177 57005 80002 333 10354 86070;EQDQ01  00002PRCP99
0208607640999992000060106004+33700+008970FM-12+004699999V0200401N007210600019N0100001N1+02441+02181102081ADDAA199000091GA1061+060009019GF106991001001999999001021KA1120N+02301MA1999999101581MD1210061+9999REMSYN082AAXX  01064 60764 32960 60414 10244 20218 30158 40208 52006 80002 333 20230 86070;EQDQ01  00002PRCP99
0195607640999992000060112004+33700+008970FM-12+004699999V0200701N005112200019N0150001N1+03341+01941102091ADDAA199000091GA1031+060009019GF103991001001999999001021MA1999999101601MD1810051+9999REMSYN082AAXX  01124 60764 32965 30710 10334 20194 30160 40209 58005 80002 333 51071 83070;EQDQ01  00002PRCP99
0189607640999992000060115004+33700+008970FM-12+004699999V0200601N004112200019N0150001N1+03431+01671101931ADDAA199000091GA1011+009009029GF102991011021008001001021MA1999999101441MD1710161+9999REMSYN076AAXX  01154 60764 32565 20608 10343 20167 30144 40193 57016 81202 333 81830;EQDQ01  00002PRCP99
0208607640999992000060118004+33700+008970FM-12+004699999V0201201N005112200019N0120001N1+03271+01621101861ADDAA199000091GA1011+009009029GF102991011021008001001021KA1120M+03471MA1999999101671MD1710071+9999REMSYN082AAXX  01184 60764 32562 21210 10327 20162 30167 40186 57007 81202 333 10347 81830;EQDQ01  00002PRCP99
0196607640999992000060206004+33700+008970FM-12+004699999V0200801N003112200019N0100001N1+02271+01851102111ADDAA199000091GA1001+999999999GF100991001001999999001001KA1999N+02121MA1999999101611MD1210051+9999REMSYN070AAXX  02064 60764 32960 00806 10227 20185 30161 40211 52005 333 20212;EQDQ01  00002PRCP99
0173607640999992000060209004+33700+008970FM-12+004699999V0200501N005112200019N0150001N1+02831+01751102091ADDAA199000091GA1001+999999999GF100991001001999999001001MA1999999101591MD1610021+9999REMSYN060AAXX  02094 60764 32965 00510 10283 20175 30159 40209 56002;EQDQ01  00002PRCP99
0183607640999992000060212004+33700+008970FM-12+004699999V0200401N004112200019N0150001N1+03121+01661101971ADDAA199000091GA1001+999999999GF100991001001999999001001MA1999999101481MD1710111+9999REMSYN070AAXX  02124 60764 32965 00408 10312 20166 30148 40197 57011 333 51391;EQDQ01  00002PRCP99
0189607640999992000060215004+33700+008970FM-12+004699999V0200501N003112200019N0150001N1+03291+01621101781ADDAA199000091GA1021+009009029GF102991021021008001001001MA1999999101291MD1710191+9999REMSYN076AAXX  02154 60764 32565 20506 10329 20162 30129 40178 57019 82200 333 82830;EQDQ01  00002PRCP99
0208607640999992000060218004+33700+008970FM-12+004699999V0200901N006212200019N0100001N1+03131+01691101711ADDAA199000091GA1021+009009029GF102991021021008001001001KA1120M+03361MA1999999101221MD1710071+9999REMSYN082AAXX  02184 60764 32560 20912 10313 20169 30122 40171 57007 82200 333 10336 82830;EQDQ01  00002PRCP99
0196607640999992000060306004+33700+008970FM-12+004699999V0200401N008712200019N0100001N1+02121+01891101961ADDAA199000091GA1001+999999999GF100991001001999999001001KA1999N+01971MA1999999101451MD1210101+9999REMSYN070AAXX  03064 60764 33960 00417 10212 20189 30145 40196 52010 333 20197;EQDQ01  00002PRCP99
0173607640999992000060309004+33700+008970FM-12+004699999V0200601N008212200019N0120001N1+02721+01741101991ADDAA199000091GA1001+999999999GF100991001001999999001001MA1999999101491MD1210041+9999REMSYN060AAXX  03094 60764 32962 00616 10272 20174 30149 40199 52004;EQDQ01  00002PRCP99
0183607640999992000060312004+33700+008970FM-12+004699999V0200401N006212200019N0150001N1+03111+01601101911ADDAA199000091GA1001+999999999GF100991001001999999001001MA1999999101421MD1710071+9999REMSYN070AAXX  03124 60764 32965 00412 10311 20160 30142 40191 57007 333 50581;EQDQ01  00002PRCP99
0189607640999992000060315004+33700+008970FM-12+004699999V0200401N006212200019N0150001N1+03131+01991101731ADDAA199000091GA1021+060009019GF102991001001999999001021MA1999999101241MD1710181+9999REMSYN076AAXX  03154 60764 32965 20412 10313 20199 30124 40173 57018 80002 333 82070;EQDQ01  00002PRCP99
0208607640999992000060318004+33700+008970FM-12+004699999V0200401N008712200019N0100001N1+02721+01951101731ADDAA199000091GA1021+060009019GF102991001001999999001021KA1120M+03271MA1999999101231MD1710011+9999REMSYN082AAXX  03184 60764 32960 20417 10272 20195 30123 40173 57001 80002 333 10327 82070;EQDQ01  00002PRCP99
0196607640999992000060406004+33700+008970FM-12+004699999V0200201N007212200019N0100001N1+02021+01781101931ADDAA199000091GA1001+999999999GF100991001001999999001001KA1999N+01831MA1999999101431MD1210041+9999REMSYN070AAXX  04064 60764 33960 00214 10202 20178 30143 40193 52004 333 20183;EQDQ01  00002PRCP99
0189607640999992000060409004+33700+008970FM-12+004699999V0200401N004112200019N0120001N1+02591+02041102011ADDAA199000091GA1021+060009019GF102991001001999999001021MA1999999101511MD1210081+9999REMSYN076AAXX  04094 60764 32962 20408 10259 20204 30151 40201 52008 80002 333 82070;EQDQ01  00002PRCP99
0189607640999992000060415004+33700+008970FM-12+004699999V0200801N003112200019N0150001N1+03241+02051101691ADDAA199000091GA1021+060009019GF102991001001999999001021MA1999999101201MD1710161+9999REMSYN076AAXX  04154 60764 32965 20806 10324 20205 30120 40169 57016 80002 333 82070;EQDQ01  00002PRCP99
0208607640999992000060418004+33700+008970FM-12+004699999V0200401N003112200019N0120001N1+03121+01981101591ADDAA199000091GA1021+060009019GF102991001001999999001021KA1120M+03311MA1999999101101MD1710101+9999REMSYN082AAXX  04184 60764 32962 20406 10312 20198 30110 40159 57010 80002 333 10331 82070;EQDQ01  00002PRCP99
0196607640999992000060506004+33700+008970FM-12+004699999V0200301N008212200019N0100001N1+02121+01971101851ADDAA199000091GA1001+999999999GF100991001001999999001001KA1999N+02011MA1999999101341MD1210031+9999REMSYN070AAXX  05064 60764 33960 00316 10212 20197 30134 40185 52003 333 20201;EQDQ01  00002PRCP99
0173607640999992000060509004+33700+008970FM-12+004699999V0200901N005112200019N0100001N1+02761+01641101931ADDAA199000091GA1001+999999999GF100991001001999999001001MA1999999101431MD1110091+9999REMSYN060AAXX  05094 60764 32960 00910 10276 20164 30143 40193 51009;EQDQ01  00002PRCP99
0153607640999992000060512004+33700+008970FM-12+004699999V0200701N002112200019N0150001N1+03241+99999999999ADDAA199000091GA1001+999999999GF100991001001999999001001REMSYN069AAXX  05124 60764 32965 00704 10324 0147 30129 40178 58014 333 50741;EQDQ01  00002PRCP99
0173607640999992000060515004+33700+008970FM-12+004699999V0200801N003112200019N0150001N1+03421+01381101621ADDAA199000091GA1001+999999999GF100991001001999999001001MA1999999101141MD1710151+9999REMSYN060AAXX  05154 60764 32965 00806 10342 20138 30114 40162 57015;EQDQ01  00002PRCP99
0196607640999992000060606004+33700+008970FM-12+004699999V0200301N007212200019N0100001N1+02121+01871101581ADDAA199000091GA1001+999999999GF100991001001999999001001KA1999N+02021MA1999999101071MD1210021+9999REMSYN070AAXX  06064 60764 32960 00314 10212 20187 30107 40158 52002 333 20202;EQDQ01  00002PRCP99
0183607640999992000060612004+33700+008970FM-12+004699999V0202101N002112200019N0120001N1+03351+01541101531ADDAA199000091GA1001+999999999GF100991001001999999001001MA1999999101051MD1810081+9999REMSYN070AAXX  06124 60764 32962 02104 10335 20154 30105 40153 58008 333 51001;EQDQ01  00002PRCP99
0189607640999992000060615004+33700+008970FM-12+004699999V0202501N002112200019N0120001N1+03701+01251101301ADDAA199000091GA1021+060009019GF102991001001999999001021MA1999999100821MD1710231+9999REMSYN076AAXX  06154 60764 32962 22504 10370 20125 30082 40130 57023 80002 333 82070;EQDQ01  00002PRCP99
0208607640999992000060618004+33700+008970FM-12+004699999V0201701N001012200019N0100001N1+03521+01151101211ADDAA199000091GA1021+060009019GF102991001001999999001021KA1120M+03741MA1999999100731MD1710091+9999REMSYN082AAXX  06184 60764 32960 21702 10352 20115 30073 40121 57009 80002 333 10374 82070;EQDQ01  00002PRCP99
0207607640999992000060706004+33700+008970FM-12+004699999V0200401N011812200019N0060001N1+02341+01911101561ADDAA199000091GA1021+009009059GF102991021051008001001001KA1120N+02111MA1999999101061MD1210031+9999REMSYN081AAXX  07064 60764 33556 20423 10234 20191 30106 4015652003 82500 333 20211 82630;EQDQ01  00002PRCP99
0217607640999992000060709004+33700+008970FM-12+004699999V0200501N012912200019N0030001N1+02651+01841101691ADDAA199000091AY101031AY201031GA1031+009009059GF104991031051008001001021MA1999999101191MD1110131+9999MW1071REMSYN082AAXX  07094 60764 31530 40525 10265 20184 30119 40169 51013 70700 83502 333 83630;EQDQ01  00002PRCP99
0229607640999992000060712004+33700+008970FM-12+004699999V0200401N012912200019N0020001N1+02971+01521101661ADDAA199000091AY101061AY201061GA1021+009909069GF104991021051008001001021MA1999999101171MD1810021+9999MW1071REMSYN094AAXX  07124 60764 31520 40425 10297 20152 30117 40166 58002 70700 82502 333 51251 82633 83070;EQDQ01  00002PRCP99
0189607640999992000060715004+33700+008970FM-12+004699999V0200601N009812200019N0050001N1+02931+01601101581ADDAA199000091GA1021+009009059GF102991021051008001001001MA1999999101091MD1610081+9999REMSYN076AAXX  07154 60764 32550 20619 10293 20160 30109 40158 56008 82500 333 82630;EQDQ01  00002PRCP99
0208607640999992000060718004+33700+008970FM-12+004699999V0200701N008212200019N0080001N1+02741+01511101541ADDAA199000091GA1021+009009059GF102991021051008001001001KA1120M+03031MA1999999101041MD1710051+9999REMSYN082AAXX  07184 60764 32558 20716 10274 20151 30104 40154 57005 82500 333 10303 82630;EQDQ01  00002PRCP99
0208607640999992000060806004+33700+008970FM-12+004699999V0200701N004112200019N0100001N1+02221+01481101871ADDAA199000091GA1021+009009059GF102991021051008001001001KA1120N+01981MA1999999101361MD1210021+9999REMSYN082AAXX  08064 60764 33560 20708 10222 20148 30136 40187 52002 82500 333 20198 82630;EQDQ01  00002PRCP99
0189607640999992000060809004+33700+008970FM-12+004699999V0200501N007212200019N0120001N1+02601+01111101891ADDAA199000091GA1021+009009059GF102991021051008001001001MA1999999101391MD1110031+9999REMSYN076AAXX  08094 60764 32562 20514 10260 20111 30139 40189 51003 82500 333 82630;EQDQ01  00002PRCP99
0195607640999992000060812004+33700+008970FM-12+004699999V0200601N005112200019N0150001N1+02921+01251101761ADDAA199000091GA1021+009009059GF102991021051008001001001MA1999999101271MD1710121+9999REMSYN082AAXX  08124 60764 32565 20610 10292 20125 30127 40176 57012 82500 333 51301 82630;EQDQ01  00002PRCP99
0189607640999992000060815004+33700+008970FM-12+004699999V0203601N002112200019N0150001N1+03031+01321101631ADDAA199000091GA1021+009009059GF102991021051008001001001MA1999999101141MD1710131+9999REMSYN076AAXX  08154 60764 32565 23604 10303 20132 30114 40163 57013 82500 333 82630;EQDQ01  00002PRCP99
0208607640999992000060818004+33700+008970FM-12+004699999V0209999C000012200019N0100001N1+02981+01341101561ADDAA199000091GA1021+009009059GF102991021051008001001001KA1120M+03161MA1999999101071MD1710071+9999REMSYN082AAXX  08184 60764 32560 20000 10298 20134 30107 40156 57007 82500 333 10316 82630;EQDQ01  00002PRCP99
0196607640999992000060906004+33700+008970FM-12+004699999V0200401N006212200019N0100001N1+02141+01611101871ADDAA199000091GA1001+999999999GF100991001001999999001001KA1999N+02021MA1999999101361MD1210071+9999REMSYN070AAXX  09064 60764 33960 00412 10214 20161 30136 40187 52007 333 20202;EQDQ01  00002PRCP99
0173607640999992000060909004+33700+008970FM-12+004699999V0200701N002112200019N0150001N1+02761+01481101891ADDAA199000091GA1001+999999999GF100991001001999999001001MA1999999101391MD1110031+9999REMSYN060AAXX  09094 60764 32965 00704 10276 20148 30139 40189 51003;EQDQ01  00002PRCP99
0173607640999992000060915004+33700+008970FM-12+004699999V0202201N003112200019N0150001N1+03501+01631101541ADDAA199000091GA1001+999999999GF100991001001999999001001MA1999999101061MD1710221+9999REMSYN060AAXX  09154 60764 32965 02206 10350 20163 30106 40154 57022;EQDQ01  00002PRCP99
0196607640999992000060918004+33700+008970FM-12+004699999V0202201N003112200019N0120001N1+03421+01761101451ADDAA199000091GA1001+999999999GF100991001001999999001001KA1999M+03531MA1999999100971MD1710091+9999REMSYN070AAXX  09184 60764 32962 02206 10342 20176 30097 40145 57009 333 10353;EQDQ01  00002PRCP99
0208607640999992000061006004+33700+008970FM-12+004699999V0201201N004112200019N0100001N1+02721+01681101351ADDAA199000091GA1011+009009059GF101991011051008001001001KA1120N+02471MA1999999100851MD1710061+9999REMSYN082AAXX  10064 60764 33560 11208 10272 20168 30085 40135 57006 81500 333 20247 81630;EQDQ01  00002PRCP99
0195607640999992000061012004+33700+008970FM-12+004699999V0201801N007210090019N0100001N1+03991+01511101171ADDAA199000091GA1061+009009059GF106991061051008001001001MA1999999100701MD1710161+9999REMSYN082AAXX  10124 60764 32560 61814 10399 20151 30070 40117 57016 86500 333 51041 86630;EQDQ01  00002PRCP99
0214607640999992000061018004+33700+008970FM-12+004699999V0201801N00511090001CN0100001N1+04011+01941100701ADDAA199000091GA1021+009009069GF107991021051008001001021KA1120M+04241MA1999999100231MD1710141+9999REMSYN088AAXX  10184 60764 32560 71810 10401 20194 30023 40070 57014 82502 333 10424 82630 86070;EQDQ01  00002PRCP99
0208607640999992000061106004+33700+008970FM-12+004699999V0200601N009812200019N0120001N1+02161+01531101631ADDAA199000091GA1031+009009059GF103991031051008001001001KA1120N+02061MA1999999101131MD1210111+9999REMSYN082AAXX  11064 60764 32562 30619 10216 20153 30113 40163 52011 83500 333 20206 83630;EQDQ01  00002PRCP99
0173607640999992000061109004+33700+008970FM-12+004699999V0200501N005112200019N0150001N1+02621+01001101741ADDAA199000091GA1001+999999999GF100991001001999999001001MA1999999101241MD1710111+9999REMSYN060AAXX  11094 60764 32965 00510 10262 20100 30124 40174 57011;EQDQ01  00002PRCP99
0195607640999992000061112004+33700+008970FM-12+004699999V0200801N002112200019N0150001N1+02981+01031101671ADDAA199000091GA1021+009009059GF102991021051008001001001MA1999999101181MD1710061+9999REMSYN082AAXX  11124 60764 32565 20804 10298 20103 30118 40167 57006 82500 333 51861 82630;EQDQ01  00002PRCP99
0189607640999992000061115004+33700+008970FM-12+004699999V0202501N001012200019N0150001N1+03161+01121101591ADDAA199000091GA1041+009009059GF104991041051008001001001MA1999999101101MD1710081+9999REMSYN076AAXX  11154 60764 32565 42502 10316 20112 30110 40159 57008 84500 333 84630;EQDQ01  00002PRCP99
0196607640999992000061206004+33700+008970FM-12+004699999V0200601N005112200019N0100001N1+02141+01571102091ADDAA199000091GA1001+999999999GF100991001001999999001001KA1999N+02021MA1999999101581MD1210041+9999REMSYN070AAXX  12064 60764 33960 00610 10214 20157 30158 40209 52004 333 20202;EQDQ01  00002PRCP99
0195607640999992000061212004+33700+008970FM-12+004699999V0201201N005112200019N0150001N1+02951+01401102081ADDAA199000091GA1041+009009029GF104991041021008001001001MA1999999101591MD1810091+9999REMSYN082AAXX  12124 60764 32565 41210 10295 20140 30159 40208 58009 84200 333 51031 84830;EQDQ01  00002PRCP99
0189607640999992000061215004+33700+008970FM-12+004699999V0200301N008712200019N0150001N1+02981+01481101941ADDAA199000091GA1041+009009029GF104991041021008001001001MA1999999101451MD1710141+9999REMSYN076AAXX  12154 60764 32565 40317 10298 20148 30145 40194 57014 84200 333 84830;EQDQ01  00002PRCP99
0208607640999992000061218004+33700+008970FM-12+004699999V0200601N009812200019N0100001N1+02641+01541101981ADDAA199000091GA1021+009009029GF102991021021008001001001KA1120M+03091MA1999999101481MD1210031+9999REMSYN082AAXX  12184 60764 32560 20619 10264 20154 30148 40198 52003 82200 333 10309 82830;EQDQ01  00002PRCP99
0208607640999992000061306004+33700+008970FM-12+004699999V0200401N008712200019N0100001N1+02071+01861102211ADDAA199000091GA1021+009009059GF102991021051008001001001KA1120N+01951MA1999999101701MD1210111+9999REMSYN082AAXX  13064 60764 33560 20417 10207 20186 30170 40221 52011 82500 333 20195 82630;EQDQ01  00002PRCP99
0195607640999992000061312004+33700+008970FM-12+004699999V0200601N008712200019N0100001N1+02941+01721102161ADDAA199000091GA1021+060009019GF102991001001999999001021MA1999999101671MD1810071+9999REMSYN082AAXX  13124 60764 32960 20617 10294 20172 30167 40216 58007 80002 333 51341 82070;EQDQ01  00002PRCP99
0173607640999992000061315004+33700+008970FM-12+004699999V0200501N008712200019N0100001N1+03061+01531102011ADDAA199000091GA1001+999999999GF100991001001999999001001MA1999999101521MD1710151+9999REMSYN060AAXX  13154 60764 32960 00517 10306 20153 30152 40201 57015;EQDQ01  00002PRCP99
0175607640999992000061318004+33700+008970FM-12+004699999V0200701N008212200019N0100001N1+02831+01521102011ADDAA199000091GA1001+999999999GF100991001001999999001001KA1999M+03151MD1710011+9999REMSYN064AAXX  13184 60764 32960 00716 10283 20152 40201 57001 333 10315;EQDQ01  00002PRCP99
0196607640999992000061406004+33690+008970FM-12+004699999V0200301N005112200019N0120001N1+02121+01871102181ADDAA199000091GA1001+999999999GF100991001001999999001001KA1999N+01981MA1999999101681MD1210161+9999REMSYN070AAXX  14064 60764 32962 00310 10212 20187 30168 40218 52016 333 20198;EQDQ01  00002PRCP99
0183607640999992000061412004+33690+008970FM-12+004699999V0200401N007212200019N0120001N1+03071+01811102061ADDAA199000091GA1001+999999999GF100991001001999999001001MA1999999101571MD1710081+9999REMSYN070AAXX  14124 60764 32962 00414 10307 20181 30157 40206 57008 333 51171;EQDQ01  00002PRCP99
0189607640999992000061415004+33690+008970FM-12+004699999V0200601N007212200019N0120001N1+03201+01891101911ADDAA199000091GA1011+009009059GF101991011051008001001001MA1999999101421MD1710151+9999REMSYN076AAXX  14154 60764 32562 10614 10320 20189 30142 40191 57015 81500 333 81630;EQDQ01  00002PRCP99
0196607640999992000061418004+33690+008970FM-12+004699999V0200701N008212200019N0100001N1+03001+01881101871ADDAA199000091GA1001+999999999GF100991001001999999001001KA1999M+03301MA1999999101381MD1710041+9999REMSYN070AAXX  14184 60764 32960 00716 10300 20188 30138 40187 57004 333 10330;EQDQ01  00002PRCP99
0196607640999992000061506004+33690+008970FM-12+004699999V0200501N006212200019N0100001N1+02121+01771102121ADDAA199000091GA1001+999999999GF100991001001999999001001KA1999N+02021MA1999999101611MD1210111+9999REMSYN070AAXX  15064 60764 33960 00512 10212 20177 30161 40212 52011 333 20202;EQDQ01  00002PRCP99
0183607640999992000061509004+33690+008970FM-12+004699999V0200501N009812200019N0100001N1+99999+99999102141ADDAA199000091GA1021+060009019GF102991001001999999001021MA1999999101641MD1110031+9999REMSYN070AAXX  15094 60764 32960 20519 20184 30164 40214 51003 80002 333 82070;EQDQ01  00002PRCP99
0196607640999992000061518004+33690+008970FM-12+004699999V0200601N006212200019N0120001N1+02941+01771101731ADDAA199000091GA1001+999999999GF100991001001999999001001KA1999M+03311MA1999999101241MD1710021+9999REMSYN070AAXX  15184 60764 32962 00612 10294 20177 30124 40173 57002 333 10331;EQDQ01  00002PRCP99
0196607640999992000061606004+33690+008970FM-12+004699999V0200501N006212200019N0100001N1+02221+01571101991ADDAA199000091GA1001+999999999GF100991001001999999001001KA1999N+02081MA1999999101481MD1210081+9999REMSYN070AAXX  16064 60764 33960 00512 10222 20157 30148 40199 52008 333 20208;EQDQ01  00002PRCP99
0189607640999992000061609004+33690+008970FM-12+004699999V0200601N005112200019N0150001N1+02721+01571102041ADDAA199000091GA1021+009009059GF102991021051008001001001MA1999999101541MD1110061+9999REMSYN076AAXX  16094 60764 32565 20610 10272 20157 30154 40204 51006 82500 333 82630;EQDQ01  00002PRCP99
0195607640999992000061612004+33690+008970FM-12+004699999V0200301N004112200019N0150001N1+03041+01401101911ADDAA199000091GA1021+009009059GF102991021051012501001001MA1999999101421MD1810121+9999REMSYN082AAXX  16124 60764 32665 20308 10304 20140 30142 40191 58012 82500 333 51241 82630;EQDQ01  00002PRCP99
0189607640999992000061615004+33690+008970FM-12+004699999V0200101N002110090019N0150001N1+03231+01201101701ADDAA199000091GA1051+009009029GF105991051021008001001001MA1999999101211MD1710211+9999REMSYN076AAXX  16154 60764 32565 50104 10323 20120 30121 40170 57021 85200 333 85830;EQDQ01  00002PRCP99
0208607640999992000061618004+33690+008970FM-12+004699999V0203001N002110090019N0100001N1+03221+01211101641ADDAA199000091GA1051+009009029GF105991051021008001001001KA1120M+03391MA1999999101141MD1710071+9999REMSYN082AAXX  16184 60764 32560 53004 10322 20121 30114 40164 57007 85200 333 10339 85830;EQDQ01  00002PRCP99
0196607640999992000061706004+33690+008970FM-12+004699999V0200501N002112200019N0120001N1+02371+01571102091ADDAA199000091GA1001+999999999GF100991001001999999001001KA1999N+02021MA1999999101591MD1210081+9999REMSYN070AAXX  17064 60764 33962 00504 10237 20157 30159 40209 52008 333 20202;EQDQ01  00002PRCP99
0173607640999992000061709004+33690+008970FM-12+004699999V0209999C000012200019N0150001N1+02821+01711102181ADDAA199000091GA1001+999999999GF100991001001999999001001MA1999999101681MD1210091+9999REMSYN060AAXX  17094 60764 32965 00000 10282 20171 30168 40218 52009;EQDQ01  00002PRCP99
0211607640999992000061712004+33690+008970FM-12+004699999V0203501N002119999999N0150001N1+03141+01521102141ADDAA199000091GA1021+009009029GF105991999021008001001001MA1999999101651MD1710041+9999REMSYN082AAXX  17124 60764 32565 53504 10314 20152 30165 40214 57004 82200 333 51071 82830;EQDQ01+000022SCOTLCQ02  00002PRCP99
0196607640999992000061806004+33690+008970FM-12+004699999V0200401N002112200019N0120001N1+02321+02081102391ADDAA199000091GA1001+999999999GF100991001001999999001001KA1999N+02171MA1999999101881MD1210191+9999REMSYN070AAXX  18064 60764 33962 00404 10232 20208 30188 40239 52019 333 20217;EQDQ01  00002PRCP99
0173607640999992000061809004+33690+008970FM-12+004699999V0200501N005112200019N0150001N1+02881+01871102441ADDAA199000091GA1001+999999999GF100991001001999999001001MA1999999101941MD1210061+9999REMSYN060AAXX  18094 60764 32965 00510 10288 20187 30194 40244 52006;EQDQ01  00002PRCP99
0173607640999992000061815004+33690+008970FM-12+004699999V0200601N004112200019N0150001N1+03401+01831102131ADDAA199000091GA1001+999999999GF100991001001999999001001MA1999999101641MD1710141+9999REMSYN060AAXX  18154 60764 32965 00608 10340 20183 30164 40213 57014;EQDQ01  00002PRCP99
0196607640999992000061818004+33690+008970FM-12+004699999V0201201N005112200019N0100001N1+03281+01651102031ADDAA199000091GA1001+999999999GF100991001001999999001001KA1999M+03451MA1999999101541MD1710101+9999REMSYN070AAXX  18184 60764 32960 01210 10328 20165 30154 40203 57010 333 10345;EQDQ01  00002PRCP99
0208607640999992000061906004+33690+008970FM-12+004699999V0200501N007212200019N0100001N1+02211+02131102201ADDAA199000091GA1031+060009019GF103991001001999999001021KA1120N+02111MA1999999101691MD1210051+9999REMSYN082AAXX  19064 60764 33960 30514 10221 20213 30169 40220 52005 80002 333 20211 83070;EQDQ01  00002PRCP99
0195607640999992000061909004+33690+008970FM-12+004699999V0200501N006212200019N0100001N1+02701+01931102221ADDAA199000091GA1011+030009039GF103991011001999999081021MA1999999101721MD1110031+9999REMSYN082AAXX  19094 60764 32960 30512 10270 20193 30172 40222 51003 81082 333 81360 83070;EQDQ01  00002PRCP99
0195607640999992000061912004+33690+008970FM-12+004699999V0201201N003112200019N0150001N1+03251+01671102041ADDAA199000091GA1011+030009079GF101991011001999999081001MA1999999101571MD1710171+9999REMSYN082AAXX  19124 60764 32965 11206 10325 20167 30157 40204 57017 81080 333 51121 81360;EQDQ01  00002PRCP99
0189607640999992000061915004+33690+008970FM-12+004699999V0209999C000012200019N0150001N1+03511+01531101841ADDAA199000091GA1021+030009079GF102991021001999999081001MA1999999101361MD1710191+9999REMSYN076AAXX  19154 60764 32965 20000 10351 20153 30136 40184 57019 82080 333 82360;EQDQ01  00002PRCP99
0208607640999992000061918004+33690+008970FM-12+004699999V0200401N007212200019N0100001N1+03141+01931101811ADDAA199000091GA1021+030009079GF103991021001999999081021KA1120M+03571MA1999999101321MD1710041+9999REMSYN082AAXX  19184 60764 32960 30414 10314 20193 30132 40181 57004 82082 333 10357 82360;EQDQ01  00002PRCP99
0208607640999992000062006004+33690+008970FM-12+004699999V0200501N010812200019N0100001N1+02281+01941101991ADDAA199000091GA1031+009009029GF103991031021008001001001KA1120N+02191MA1999999101491MD1210041+9999REMSYN082AAXX  20064 60764 33560 30521 10228 20194 30149 40199 52004 83200 333 20219 83830;EQDQ01  00002PRCP99
0189607640999992000062009004+33690+008970FM-12+004699999V0200501N008712200019N0100001N1+02751+01741102081ADDAA199000091GA1041+009009029GF104991041021008001001001MA1999999101581MD1110091+9999REMSYN076AAXX  20094 60764 32560 40517 10275 20174 30158 40208 51009 84200 333 84830;EQDQ01  00002PRCP99
0201607640999992000062012004+33690+008970FM-12+004699999V0201001N004112200019N0120001N1+03191+01571101961ADDAA199000091GA1021+009009089GF104991041081008001001001MA1999999101471MD1810111+9999REMSYN088AAXX  20124 60764 32562 41008 10319 20157 30147 40196 58011 84800 333 51101 82830 83633;EQDQ01  00002PRCP99
0189607640999992000062015004+33690+008970FM-12+004699999V0200601N008712200019N0120001N1+03301+01731101791ADDAA199000091GA1031+009909059GF103991031051008001001001MA1999999101301MD1610171+9999REMSYN076AAXX  20154 60764 32562 30617 10330 20173 30130 40179 56017 83500 333 83633;EQDQ01  00002PRCP99
0208607640999992000062018004+33690+008970FM-12+004699999V0200401N011812200019N0060001N1+02941+01811101721ADDAA199000091GA1031+009909059GF103991031051008001001001KA1120M+03531MA1999999101231MD1710071+9999REMSYN082AAXX  20184 60764 32556 30423 10294 20181 30123 40172 57007 83500 333 10353 83633;EQDQ01  00002PRCP99
0208607640999992000062106004+33690+008970FM-12+004699999V0200501N008712200019N0100001N1+02221+02041101951ADDAA199000091GA1021+009009059GF102991021051008001001001KA1120N+02081MA1999999101441MD1210041+9999REMSYN082AAXX  21064 60764 32560 20517 10222 20204 30144 40195 52004 82500 333 20208 82630;EQDQ01  00002PRCP99
0189607640999992000062109004+33690+008970FM-12+004699999V0200601N007212200019N0100001N1+02731+01931102091ADDAA199000091GA1021+009009059GF102991021051008001001001MA1999999101591MD1110151+9999REMSYN076AAXX  21094 60764 32560 20614 10273 20193 30159 40209 51015 82500 333 82630;EQDQ01  00002PRCP99
0183607640999992000062112004+33690+008970FM-12+004699999V0200901N006212200019N0100001N1+03261+01561102001ADDAA199000091GA1001+999999999GF100991001001999999001001MA1999999101511MD1810081+9999REMSYN070AAXX  21124 60764 32960 00912 10326 20156 30151 40200 58008 333 51231;EQDQ01  00002PRCP99
0189607640999992000062115004+33690+008970FM-12+004699999V0200501N006212200019N0150001N1+03411+01771101821ADDAA199000091GA1021+060009019GF102991001001999999001021MA1999999101331MD1710181+9999REMSYN076AAXX  21154 60764 32965 20512 10341 20177 30133 40182 57018 80002 333 82070;EQDQ01  00002PRCP99
0240607640999992000062118004+33690+008970FM-12+004699999V0200501N009812200019N0120001N1+03041+01881101751ADDAA199000091GA1041+060009019GF104991001001999999001021KA1120M+03511MA1999999999999MD1710071+9999REMSYN082AAXX  21184 60764 32962 40519 10304 20188 39126 40175 57007 80002 333 10351 84070;EQDQ01+091263APOSP Q02  00002PRCP99Q03 091263APOSP 
0208607640999992000062206004+33690+008970FM-12+004699999V0200401N005112200019N0100001N1+02121+02031102141ADDAA199000091GA1021+009009059GF102991021051999999001001KA1120N+02031MA1999999101631MD1210091+9999REMSYN082AAXX  22064 60764 33960 20410 10212 20203 30163 40214 52009 82500 333 20203 82630;EQDQ01  00002PRCP99
0173607640999992000062209004+33690+008970FM-12+004699999V0200601N006212200019N0100001N1+02681+01871102231ADDAA199000091GA1001+999999999GF100991001001999999001001MA1999999101731MD1110101+9999REMSYN060AAXX  22094 60764 32960 00612 10268 20187 30173 40223 51010;EQDQ01  00002PRCP99
0184607640999992000062212004+33690+008970FM-12+004699999V0201101N007212200019N0100001N1+03191+01631101741ADDAA199000091GA1001+999999999GF100991001001999999001001MD1810121+9999REMSYN070AAXX  22124 60764 32960 01114 10319 20163 30070 40174 58012 333 51851;EQDQ01+100703APOSP Q02  00002PRCP99
0173607640999992000062215004+33690+008970FM-12+004699999V0200501N006212200019N0150001N1+03401+01571101951ADDAA199000091GA1001+999999999GF100991001001999999001001MA1999999101461MD1610181+9999REMSYN060AAXX  22154 60764 32965 00512 10340 20157 30146 40195 56018;EQDQ01  00002PRCP99
0196607640999992000062218004+33690+008970FM-12+004699999V0200501N007212200019N0120001N1+02971+01811101921ADDAA199000091GA1001+999999999GF100991001001999999001001KA1999M+03441MA1999999101431MD1710031+9999REMSYN070AAXX  22184 60764 32962 00514 10297 20181 30143 40192 57003 333 10344;EQDQ01  00002PRCP99
0196607640999992000062306004+33690+008970FM-12+004699999V0200301N007212200019N0100001N1+01981+01791102101ADDAA199000091GA1001+999999999GF100991001001999999001001KA1999N+01941MA1999999101591MD1110041+9999REMSYN070AAXX  23064 60764 33960 00314 10198 20179 30159 40210 51004 333 20194;EQDQ01  00002PRCP99
0173607640999992000062309004+33690+008970FM-12+004699999V0200501N006212200019N0100001N1+02651+01681102171ADDAA199000091GA1001+999999999GF100991001001999999001001MA1999999101671MD1110081+9999REMSYN060AAXX  23094 60764 32960 00512 10265 20168 30167 40217 51008;EQDQ01  00002PRCP99
0195607640999992000062312004+33690+008970FM-12+004699999V0200401N006212200019N0150001N1+03221+01151102061ADDAA199000091GA1021+060009019GF102991001001999999001021MA1999999101571MD1810101+9999REMSYN082AAXX  23124 60764 32965 20412 10322 20115 30157 40206 58010 80002 333 51191 82070;EQDQ01  00002PRCP99
0189607640999992000062315004+33690+008970FM-12+004699999V0200501N005112200019N0150001N1+03501+00701101881ADDAA199000091GA1021+060009019GF102991001001999999001021MA1999999101401MD1710111+9999REMSYN076AAXX  23154 60764 32965 20510 10350 20070 30140 40188 57011 80002 333 82070;EQDQ01  00002PRCP99
0196607640999992000062406004+33690+008970FM-12+004699999V0200501N005112200019N0120001N1+02231+01621101951ADDAA199000091GA1001+999999999GF100991001001999999001001KA1999N+02071MA1999999101441MD1210111+9999REMSYN070AAXX  24064 60764 33962 00510 10223 20162 30144 40195 52011 333 20207;EQDQ01  00002PRCP99
0173607640999992000062409004+33690+008970FM-12+004699999V0200301N005112200019N0150001N1+02721+01731102001ADDAA199000091GA1001+999999999GF100991001001999999001001MA1999999101501MD1210061+9999REMSYN060AAXX  24094 60764 32965 00310 10272 20173 30150 40200 52006;EQDQ01  00002PRCP99
0183607640999992000062412004+33690+008970FM-12+004699999V0200601N005112200019N0150001N1+03391+01251101831ADDAA199000091GA1001+999999999GF100991001001999999001001MA1999999101341MD1710161+9999REMSYN070AAXX  24124 60764 32965 00610 10339 20125 30134 40183 57016 333 51261;EQDQ01  00002PRCP99
0152607640999992000062415004+33690+008970FM-12+004699999V0200901N005112200019N0150001N1+03621+01311101681ADDAA199000091GA1001+999999999GF100991001001999999001001MD1710141+9999REMSYN054AAXX  24154 60764 32965 00910 10362 20131 40168 57014;EQDQ01  00002PRCP99
0196607640999992000062418004+33690+008970FM-12+004699999V0200601N005112200019N0100001N1+03441+01481101611ADDAA199000091GA1001+999999999GF100991001001999999001001KA1999M+03661MA1999999101131MD1710071+9999REMSYN070AAXX  24184 60764 32960 00610 10344 20148 30113 40161 57007 333 10366;EQDQ01  00002PRCP99
0196607640999992000062506004+33690+008970FM-12+004699999V0200401N003112200019N0100001N1+02401+01691101791ADDAA199000091GA1001+999999999GF100991001001999999001001KA1999N+02161MA1999999101291MD1210041+9999REMSYN070AAXX  25064 60764 32960 00406 10240 20169 30129 40179 52004 333 20216;EQDQ01  00002PRCP99
0173607640999992000062509004+33690+008970FM-12+004699999V0200301N005112200019N0120001N1+03001+01831101831ADDAA199000091GA1001+999999999GF100991001001999999001001MA1999999101341MD1210051+9999REMSYN060AAXX  25094 60764 32962 00310 10300 20183 30134 40183 52005;EQDQ01  00002PRCP99
0173607640999992000062515004+33690+008970FM-12+004699999V0203001N002112200019N0150001N1+03881+02001101581ADDAA199000091GA1001+999999999GF100991001001999999001001MA1999999101101MD1710101+9999REMSYN060AAXX  25154 60764 32965 03004 10388 20200 30110 40158 57010;EQDQ01  00002PRCP99
0212607640999992000062518004+33690+008970FM-12+004699999V0202601N001012200019N0100001N1+03741+00902101521ADDAA199000091GA1001+999999999GF100991001001999999001001KA1999M+03961MA1999999101041MD1710061+9999REMSYN070AAXX  25184 60764 32960 02602 10374 20090 30104 40152 57006 333 10396;EQDQ01+000903ATOD  Q02  00002PRCP99
0196607640999992000062606004+33690+008970FM-12+004699999V0200501N008212200019N0100001N1+02491+01991101821ADDAA199000091GA1001+999999999GF100991001001999999001001KA1999N+02371MA1999999101321MD1210041+9999REMSYN070AAXX  26064 60764 32960 00516 10249 20199 30132 40182 52004 333 20237;EQDQ01  00002PRCP99
0173607640999992000062609004+33690+008970FM-12+004699999V0200501N008212200019N0100001N1+03061+01461101701ADDAA199000091GA1001+999999999GF100991001001999999001001MA1999999101211MD1110091+9999REMSYN060AAXX  26094 60764 32960 00516 10306 20146 30121 40170 51009;EQDQ01  00002PRCP99
0183607640999992000062612004+33690+008970FM-12+004699999V0200401N003112200019N0150001N1+03621+01191101651ADDAA199000091GA1001+999999999GF100991001001999999001001MA1999999101171MD1810041+9999REMSYN070AAXX  26124 60764 32965 00406 10362 20119 30117 40165 58004 333 51171;EQDQ01  00002PRCP99
0173607640999992000062615004+33690+008970FM-12+004699999V0202901N002112200019N0150001N1+03911+00941101491ADDAA199000091GA1001+999999999GF100991001001999999001001MA1999999101011MD1710161+9999REMSYN060AAXX  26154 60764 32965 02904 10391 20094 30101 40149 57016;EQDQ01  00002PRCP99
0196607640999992000062618004+33690+008970FM-12+004699999V0201601N002112200019N0100001N1+03841+01181101641ADDAA199000091GA1001+999999999GF100991001001999999001001KA1999M+04061MA1999999101161MD1210151+9999REMSYN070AAXX  26184 60764 32960 01604 10384 20118 30116 40164 52015 333 10406;EQDQ01  00002PRCP99
0196607640999992000062706004+33690+008970FM-12+004699999V0200401N008212200019N0100001N1+02471+01931101721ADDAA199000091GA1001+999999999GF100991001001999999001001KA1999N+02341MA1999999101211MD1210041+9999REMSYN070AAXX  27064 60764 33960 00416 10247 20193 30121 40172 52004 333 20234;EQDQ01  00002PRCP99
0173607640999992000062709004+33690+008970FM-12+004699999V0200601N003112200019N0120001N1+03191+01871101791ADDAA199000091GA1001+999999999GF100991001001999999001001MA1999999101301MD1110081+9999REMSYN060AAXX  27094 60764 32962 00606 10319 20187 30130 40179 51008;EQDQ01  00002PRCP99
0183607640999992000062712004+33690+008970FM-12+004699999V0202501N001012200019N0150001N1+03791+01421101681ADDAA199000091GA1001+999999999GF100991001001999999001001MA1999999101201MD1810101+9999REMSYN070AAXX  27124 60764 32965 02502 10379 20142 30120 40168 58010 333 51361;EQDQ01  00002PRCP99
0196607640999992000062718004+33690+008970FM-12+004699999V0209999C000012200019N0100001N1+03961+01181101451ADDAA199000091GA1001+999999999GF100991001001999999001001KA1999M+04121MA1999999100981MD1710051+9999REMSYN070AAXX  27184 60764 32960 00000 10396 20118 30098 40145 57005 333 10412;EQDQ01  00002PRCP99
0196607640999992000062806004+33690+008970FM-12+004699999V0209999C000012200019N0100001N1+02861+01851101601ADDAA199000091GA1001+999999999GF100991001001999999001001KA1999N+02611MA1999999101111MD1110031+9999REMSYN070AAXX  28064 60764 33960 00000 10286 20185 30111 40160 51003 333 20261;EQDQ01  00002PRCP99
0173607640999992000062809004+33690+008970FM-12+004699999V0201801N002112200019N0100001N1+03381+01541101631ADDAA199000091GA1001+999999999GF100991001001999999001001MA1999999101151MD1510041+9999REMSYN060AAXX  28094 60764 32960 01804 10338 20154 30115 40163 55004;EQDQ01  00002PRCP99
0183607640999992000062812004+33690+008970FM-12+004699999V0202501N003112200019N0150001N1+03891+00931101471ADDAA199000091GA1001+999999999GF100991001001999999001001MA1999999100991MD1810161+9999REMSYN070AAXX  28124 60764 32965 02506 10389 20093 30099 40147 58016 333 51181;EQDQ01  00002PRCP99
0189607640999992000062815004+33690+008970FM-12+004699999V0202201N020612200019N0150001N1+04281+00441101231ADDAA199000091GA1021+030009079GF102991021001999999081001MA1999999100761MD1710231+9999REMSYN076AAXX  28154 60764 32965 22240 10428 20044 30076 40123 57023 82080 333 82360;EQDQ01  00002PRCP99
0208607640999992000062818004+33690+008970FM-12+004699999V0202701N001012200019N0100001N1+04191+00491101161ADDAA199000091GA1031+009009059GF104991031051008001081001KA1120M+04311MA1999999100691MD1710071+9999REMSYN082AAXX  28184 60764 32560 42702 10419 20049 30069 40116 57007 83580 333 10431 83630;EQDQ01  00002PRCP99
0185607640999992000062906004+33690+008970FM-12+004699999V0209999C000012200019N0100001N1+02731+01601101321ADDAA199000091GF101991001001999999001021IA1259MA1999999100821MD1110041+9999REMSYN082AAXX  29064 60764 32960 10000 10273 20160 30082 40132 51004 80002 333 32025 41070;EQDQ01  00002PRCP99
0173607640999992000062909004+33690+008970FM-12+004699999V0201001N004112200019N0100001N1+03671+01301101391ADDAA199000091GA1001+999999999GF100991001001999999001001MA1999999100911MD1110081+9999REMSYN060AAXX  29094 60764 32960 01008 10367 20130 30091 40139 51008;EQDQ01  00002PRCP99
0173607640999992000062915004+33690+008970FM-12+004699999V0200501N004112200019N0150001N1+04161+01381101071ADDAA199000091GA1001+999999999GF100991001001999999001001MA1999999100601MD1710201+9999REMSYN060AAXX  29154 60764 32965 00508 10416 20138 30060 40107 57020;EQDQ01  00002PRCP99
0208607640999992000062918004+33690+008970FM-12+004699999V0203401N008212200019N0100001N1+03411+01501101261ADDAA199000091GA1041+009009059GF104991041051008001001001KA1120M+04241MA1999999100781MD1210181+9999REMSYN082AAXX  29184 60764 32560 43416 10341 20150 30078 40126 52018 84500 333 10424 84630;EQDQ01  00002PRCP99
0196607640999992000063006004+33690+008970FM-12+004699999V0200501N006212200019N0100001N1+02701+01771101361ADDAA199000091GA1001+999999999GF100991001001999999001001KA1999N+02531MA1999999100861MD1210081+9999REMSYN070AAXX  30064 60764 33960 00512 10270 20177 30086 40136 52008 333 20253;EQDQ01  00002PRCP99
0173607640999992000063009004+33690+008970FM-12+004699999V0200601N005112200019N0120001N1+03271+01781101461ADDAA199000091GA1001+999999999GF100991001001999999001001MA1999999100971MD1210111+9999REMSYN060AAXX  30094 60764 32962 00610 10327 20178 30097 40146 52011;EQDQ01  00002PRCP99
0183607640999992000063012004+33690+008970FM-12+004699999V0201101N003112200019N0150001N1+03781+01681101371ADDAA199000091GA1001+999999999GF100991001001999999001001MA1999999100891MD1710081+9999REMSYN070AAXX  30124 60764 32965 01106 10378 20168 30089 40137 57008 333 51681;EQDQ01  00002PRCP99
0173607640999992000063015004+33690+008970FM-12+004699999V0202301N001012200019N0150001N1+03911+01231101151ADDAA199000091GA1001+999999999GF100991001001999999001001MA1999999100681MD1710211+9999REMSYN060AAXX  30154 60764 32965 02302 10391 20123 30068 40115 57021;EQDQ01  00002PRCP99
0196607640999992000063018004+33690+008970FM-12+004699999V0200501N009812200019N0100001N1+03471+01691101171ADDAA199000091GA1001+999999999GF100991001001999999001001KA1999M+04011MA1999999100591MD1110011+9999REMSYN070AAXX  30184 60764 32960 00519 10347 20169 30059 40117 51001 333 10401;EQDQ01  00002PRCP99
0196607640999992000070106004+33690+008970FM-12+004699999V0200401N007212200019N0100001N1+02401+02121101471ADDAA199000091GA1001+999999999GF100991001001999999001001KA1999N+02311MA1999999100971MD1110031+9999REMSYN070AAXX  01064 60764 33960 00414 10240 20212 30097 40147 51003 333 20231;EQDQ01  00002PRCP99
0173607640999992000070109004+33690+008970FM-12+004699999V0200501N007212200019N0100001N1+03051+01911101581ADDAA199000091GA1001+999999999GF100991001001999999001001MA1999999101091MD1210131+9999REMSYN060AAXX  01094 60764 32960 00514 10305 20191 30109 40158 52013;EQDQ01  00002PRCP99
0183607640999992000070112004+33690+008970FM-12+004699999V0200501N004112200019N0150001N1+03701+01371101511ADDAA199000091GA1001+999999999GF100991001001999999001001MA1999999101031MD1810061+9999REMSYN070AAXX  01124 60764 32965 00508 10370 20137 30103 40151 58006 333 51351;EQDQ01  00002PRCP99
0173607640999992000070115004+33690+008970FM-12+004699999V0200601N002112200019N0150001N1+04001+01101101301ADDAA199000091GA1001+999999999GF100991001001999999001001MA1999999100831MD1710201+9999REMSYN060AAXX  01154 60764 32965 00604 10400 20110 30083 40130 57020;EQDQ01  00002PRCP99
0196607640999992000070118004+33690+008970FM-12+004699999V0200601N003112200019N0100001N1+03881+01431101241ADDAA199000091GA1001+999999999GF100991001001999999001001KA1999M+04041MA1999999100761MD1710071+9999REMSYN070AAXX  01184 60764 32960 00606 10388 20143 30076 40124 57007 333 10404;EQDQ01  00002PRCP99
0196607640999992000070206004+33690+008970FM-12+004699999V0200401N008712200019N0100001N1+02411+02091101631ADDAA199000091GA1001+999999999GF100991001001999999001001KA1999N+02341MA1999999101131MD1210091+9999REMSYN070AAXX  02064 60764 33960 00417 10241 20209 30113 40163 52009 333 20234;EQDQ01  00002PRCP99
0173607640999992000070209004+33690+008970FM-12+004699999V0200401N006212200019N0120001N1+03101+01861101761ADDAA199000091GA1001+999999999GF100991001001999999001001MA1999999101261MD1210141+9999REMSYN060AAXX  02094 60764 32962 00412 10310 20186 30126 40176 52014;EQDQ01  00002PRCP99
0183607640999992000070212004+33690+008970FM-12+004699999V0200501N001012200019N0150001N1+03701+01571101701ADDAA199000091GA1001+999999999GF100991001001999999001001MA1999999101221MD1710071+9999REMSYN070AAXX  02124 60764 32965 00502 10370 20157 30122 40170 57007 333 51301;EQDQ01  00002PRCP99
0173607640999992000070215004+33690+008970FM-12+004699999V0200901N002112200019N0150001N1+04001+01191101481ADDAA199000091GA1001+999999999GF100991001001999999001001MA1999999101011MD1710211+9999REMSYN060AAXX  02154 60764 32965 00904 10400 20119 30101 40148 57021;EQDQ01  00002PRCP99
0196607640999992000070218004+33690+008970FM-12+004699999V0200601N008212200019N0100001N1+03681+01531101451ADDAA199000091GA1001+999999999GF100991001001999999001001KA1999M+04051MA1999999100961MD1710051+9999REMSYN070AAXX  02184 60764 32960 00616 10368 20153 30096 40145 57005 333 10405;EQDQ01  00002PRCP99
0196607640999992000070306004+33690+008970FM-12+004699999V0200501N006212200019N0100001N1+02461+01541101681ADDAA199000091GA1001+999999999GF100991001001999999001001KA1999N+02281MA1999999101181MD1110041+9999REMSYN070AAXX  03064 60764 33960 00512 10246 20154 30118 40168 51004 333 20228;EQDQ01  00002PRCP99
0173607640999992000070309004+33690+008970FM-12+004699999V0201201N004112200019N0120001N1+03281+01021101701ADDAA199000091GA1001+999999999GF100991001001999999001001MA1999999101211MD1210031+9999REMSYN060AAXX  03094 60764 32962 01208 10328 20102 30121 40170 52003;EQDQ01  00002PRCP99
0183607640999992000070312004+33690+008970FM-12+004699999V0201601N001012200019N0150001N1+03701+00881101541ADDAA199000091GA1001+999999999GF100991001001999999001001MA1999999101061MD1710151+9999REMSYN070AAXX  03124 60764 32965 01602 10370 20088 30106 40154 57015 333 51581;EQDQ01  00002PRCP99
0173607640999992000070315004+33690+008970FM-12+004699999V0201201N002112200019N0150001N1+03891+01241101331ADDAA199000091GA1001+999999999GF100991001001999999001001MA1999999100851MD1710211+9999REMSYN060AAXX  03154 60764 32965 01204 10389 20124 30085 40133 57021;EQDQ01  00002PRCP99
0196607640999992000070406004+33690+008970FM-12+004699999V0200301N006212200019N0100001N1+02361+01691101411ADDAA199000091GA1001+999999999GF100991001001999999001001KA1999N+02211MA1999999100911MD1110021+9999REMSYN070AAXX  04064 60764 33960 00312 10236 20169 30091 40141 51002 333 20221;EQDQ01  00002PRCP99
0173607640999992000070409004+33690+008970FM-12+004699999V0200301N004112200019N0120001N1+03011+01361101441ADDAA199000091GA1001+999999999GF100991001001999999001001MA1999999100961MD1210051+9999REMSYN060AAXX  04094 60764 32962 00308 10301 20136 30096 40144 52005;EQDQ01  00002PRCP99
0183607640999992000070412004+33690+008970FM-12+004699999V0200301N001012200019N0150001N1+03591+00991101351ADDAA199000091GA1001+999999999GF100991001001999999001001MA1999999100871MD1710091+9999REMSYN070AAXX  04124 60764 32965 00302 10359 20099 30087 40135 57009 333 51441;EQDQ01  00002PRCP99
0196607640999992000070506004+33690+008970FM-12+004699999V0200501N006212200019N0100001N1+02371+02051101491ADDAA199000091GA1001+999999999GF100991001001999999001001KA1999N+02261MA1999999100991MD1110021+9999REMSYN070AAXX  05064 60764 33960 00512 10237 20205 30099 40149 51002 333 20226;EQDQ01  00002PRCP99
0173607640999992000070509004+33690+008970FM-12+004699999V0200501N008712200019N0120001N1+03021+01821101581ADDAA199000091GA1001+999999999GF100991001001999999001001MA1999999101091MD1210101+9999REMSYN060AAXX  05094 60764 32962 00517 10302 20182 30109 40158 52010;EQDQ01  00002PRCP99
0183607640999992000070512004+33690+008970FM-12+004699999V0200501N007212200019N0150001N1+03581+01421101501ADDAA199000091GA1001+999999999GF100991001001999999001001MA1999999101021MD1710071+9999REMSYN070AAXX  05124 60764 32965 00514 10358 20142 30102 40150 57007 333 51261;EQDQ01  00002PRCP99
0173607640999992000070515004+33690+008970FM-12+004699999V0200501N006212200019N0150001N1+03761+01421101351ADDAA199000091GA1001+999999999GF100991001001999999001001MA1999999100871MD1710151+9999REMSYN060AAXX  05154 60764 32965 00512 10376 20142 30087 40135 57015;EQDQ01  00002PRCP99
0173607640999992000070609004+33690+008970FM-12+004699999V0200401N006212200019N0100001N1+03101+01811101831ADDAA199000091GA1001+999999999GF100991001001999999001001MA1999999101341MD1210121+9999REMSYN060AAXX  06094 60764 32960 00412 10310 20181 30134 40183 52012;EQDQ01  00002PRCP99
0183607640999992000070612004+33690+008970FM-12+004699999V0201801N001012200019N0150001N1+03821+01171101731ADDAA199000091GA1001+999999999GF100991001001999999001001MA1999999101251MD1710091+9999REMSYN070AAXX  06124 60764 32965 01802 10382 20117 30125 40173 57009 333 51471;EQDQ01  00002PRCP99
0173607640999992000070615004+33690+008970FM-12+004699999V0201301N002112200019N0150001N1+04021+00481101531ADDAA199000091GA1001+999999999GF100991001001999999001001MA1999999101061MD1710191+9999REMSYN060AAXX  06154 60764 32965 01304 10402 20048 30106 40153 57019;EQDQ01  00002PRCP99
0196607640999992000070618004+33690+008970FM-12+004699999V0201601N001012200019N0100001N1+03991+00981101401ADDAA199000091GA1001+999999999GF100991001001999999001001KA1999M+04111MA1999999100961MD1710131+9999REMSYN070AAXX  06184 60764 32960 01602 10399 20098 30096 40140 57013 333 10411;EQDQ01  00002PRCP99
0196607640999992000070706004+33690+008970FM-12+004699999V0209999C000012200019N0100001N1+02691+01281101601ADDAA199000091GA1001+999999999GF100991001001999999001001KA1999N+02541MA1999999101101MD1210071+9999REMSYN070AAXX  07064 60764 33960 00000 10269 20128 30110 40160 52007 333 20254;EQDQ01  00002PRCP99
0173607640999992000070709004+33690+008970FM-12+004699999V0200801N004112200019N0120001N1+03601+00901101621ADDAA199000091GA1001+999999999GF100991001001999999001001MA1999999101141MD1210041+9999REMSYN060AAXX  07094 60764 32962 00808 10360 20090 30114 40162 52004;EQDQ01  00002PRCP99
0183607640999992000070712004+33690+008970FM-12+004699999V0201801N002112200019N0150001N1+04091+00891101541ADDAA199000091GA1001+999999999GF100991001001999999001001MA1999999101071MD1710071+9999REMSYN070AAXX  07124 60764 32965 01804 10409 20089 30107 40154 57007 333 51271;EQDQ01  00002PRCP99
0173607640999992000070715004+33690+008970FM-12+004699999V0202701N001012200019N0150001N1+04301+00581101351ADDAA199000091GA1001+999999999GF100991001001999999001001MA1999999100881MD1710191+9999REMSYN060AAXX  07154 60764 32965 02702 10430 20058 30088 40135 57019;EQDQ01  00002PRCP99
0196607640999992000070718004+33690+008970FM-12+004699999V0202601N001012200019N0100001N1+04121+00381101251ADDAA199000091GA1001+999999999GF100991001001999999001001KA1999M+04331MA1999999100781MD1710101+9999REMSYN070AAXX  07184 60764 32960 02602 10412 20038 30078 40125 57010 333 10433;EQDQ01  00002PRCP99
0196607640999992000070806004+33690+008970FM-12+004699999V0209999C000012200019N0100001N1+02661+00931101141ADDAA199000091GA1001+999999999GF100991001001999999001001KA1999N+02421MA1999999100651MD1410001+9999REMSYN070AAXX  08064 60764 33960 00000 10266 20093 30065 40114 54000 333 20242;EQDQ01  00002PRCP99
0173607640999992000070809004+33690+008970FM-12+004699999V0202401N001012200019N0120001N1+03581+00691101231ADDAA199000091GA1001+999999999GF100991001001999999001001MA1999999100751MD1210101+9999REMSYN060AAXX  08094 60764 32962 02402 10358 20069 30075 40123 52010;EQDQ01  00002PRCP99
0183607640999992000070812004+33690+008970FM-12+004699999V0202301N004112200019N0150001N1+04081+00331101131ADDAA199000091GA1001+999999999GF100991001001999999001001MA1999999100661MD1710091+9999REMSYN070AAXX  08124 60764 32965 02308 10408 20033 30066 40113 57009 333 51401;EQDQ01  00002PRCP99
0173607640999992000070815004+33690+008970FM-12+004699999V0202501N004112200019N0150001N1+04321+00631100971ADDAA199000091GA1001+999999999GF100991001001999999001001MA1999999100501MD1710161+9999REMSYN060AAXX  08154 60764 32965 02508 10432 20063 30050 40097 57016;EQDQ01  00002PRCP99
0196607640999992000070818004+33690+008970FM-12+004699999V0202401N002112200019N0100001N1+04211+00981100881ADDAA199000091GA1001+999999999GF100991001001999999001001KA1999M+04401MA1999999100481MD1710091+9999REMSYN070AAXX  08184 60764 32960 02404 10421 20098 30048 40088 57009 333 10440;EQDQ01  00002PRCP99
0196607640999992000070906004+33690+008970FM-12+004699999V0200501N013912200019N0060001N1+02671+02061101221ADDAA199000091GA1001+999999999GF100991001001999999001001KA1999N+02581MA1999999100731MD1110041+9999REMSYN070AAXX  09064 60764 33956 00527 10267 20206 30073 40122 51004 333 20258;EQDQ01  00002PRCP99
0173607640999992000070915004+33690+008970FM-12+004699999V0200501N010812200019N0100001N1+03501+01151101171ADDAA199000091GA1001+999999999GF100991001001999999001001MA1999999100691MD1710141+9999REMSYN060AAXX  09154 60764 32960 00521 10350 20115 30069 40117 57014;EQDQ01  00002PRCP99
0196607640999992000071006004+33690+008970FM-12+004699999V0200401N007212200019N0100001N1+02461+00651101151ADDAA199000091GA1001+999999999GF100991001001999999001001KA1999N+02291MA1999999100651MD1210041+9999REMSYN070AAXX  10064 60764 33960 00414 10246 20065 30065 40115 52004 333 20229;EQDQ01  00002PRCP99
0178607640999992000071018004+33690+008970FM-12+004699999V0200401N004112200019N0100001N1+03921+01331100441ADDAA199000091GF103991001001999999001021MA1999999099971MD1710091+9999REMSYN081AAXX  10184 60764 32960 30408 10392 20133 39997 40044 57009 80002 333 1440 83070;EQDQ01  00002PRCP99
0196607640999992000071106004+33690+008970FM-12+004699999V0209999C000012200019N0100001N1+02791+00301100431ADDAA199000091GA1001+999999999GF100991001001999999001001KA1999N+02691MA1999999099941MD1110021+9999REMSYN070AAXX  11064 60764 33960 01100 10279 20030 39994 40043 51002 333 20269;EQDQ01  00002PRCP99
0173607640999992000071109004+33690+008970FM-12+004699999V0201601N004112200019N0100001N1+03701-00021100531ADDAA199000091GA1001+999999999GF100991001001999999001001MA1999999100061MD1210121+9999REMSYN060AAXX  11094 60764 32960 01608 10370 21002 30006 40053 52012;EQDQ01  00002PRCP99
0173607640999992000071115004+33690+008970FM-12+004699999V0202101N002112200019N0120001N1+04531+00501100231ADDAA199000091GA1001+999999999GF100991001001999999001001MA1999999099761MD1710131+9999REMSYN060AAXX  11154 60764 32962 02104 10453 20050 39976 40023 57013;EQDQ01  00002PRCP99
0240607640999992000071118004+33690+008970FM-12+004699999V0200301N009812200019N0020001N1+03691+01922100301ADDAA199000091AY101061AY201061GA1001+999999999GF100991001001999999001001KA1999M+04571MA1999999099831MD1210061+9999MW1071REMSYN076AAXX  11184 60764 31920 00319 10369 20192 39983 40030 52006 70700 333 10457;EQDQ01+001923ATOD  Q02  00002PRCP99
0208607640999992000071206004+33690+008970FM-12+004699999V0200401N014912200019N0020001N1+02471+00791100951ADDAA199000091GA1001+999999999GF100991001001999999001001KA1999N+02241MA1999999100451MD1210221+9999MW1071REMSYN076AAXX  12064 60764 31920 00429 10247 20079 30045 40095 52022 707// 333 20224;EQDQ01  00002PRCP99
0201607640999992000071209004+33690+008970FM-12+004699999V0200401N008712200019N0020001N1+02911+00831101121ADDAA199000091AY101031AY201031GA1001+999999999GF100991001001999999001001MA1999999100631MD1210181+9999MW1071REMSYN066AAXX  12094 60764 31920 00417 10291 20083 30063 40112 52018 70700;EQDQ01  00002PRCP99
0173607640999992000071215004+33690+008970FM-12+004699999V0200701N007212200019N0080001N1+03471+01091101111ADDAA199000091GA1001+999999999GF100991001001999999001001MA1999999100631MD1710091+9999REMSYN060AAXX  12154 60764 32958 00714 10347 20109 30063 40111 57009;EQDQ01  00002PRCP99
0173607640999992000071309004+33690+008970FM-12+004699999V0200601N008212200019N0100001N1+02581+01061101961ADDAA199000091GA1001+999999999GF100991001001999999001001MA1999999101461MD1210201+9999REMSYN060AAXX  13094 60764 32960 00616 10258 20106 30146 40196 52020;EQDQ01  00002PRCP99
0183607640999992000071312004+33690+008970FM-12+004699999V0200501N006212200019N0120001N1+03061+00851101811ADDAA199000091GA1001+999999999GF100991001001999999001001MA1999999101321MD1710141+9999REMSYN070AAXX  13124 60764 32962 00512 10306 20085 30132 40181 57014 333 51441;EQDQ01  00002PRCP99
0173607640999992000071315004+33690+008970FM-12+004699999V0200501N004112200019N0120001N1+03211+00911101621ADDAA199000091GA1001+999999999GF100991001001999999001001MA1999999101131MD1710191+9999REMSYN060AAXX  13154 60764 32962 00508 10321 20091 30113 40162 57019;EQDQ01  00002PRCP99
0196607640999992000071406004+33690+008970FM-12+004699999V0200401N005112200019N0100001N1+02161+01491101571ADDAA199000091GA1001+999999999GF100991001001999999001001KA1999N+02011MA1999999101071MD1710141+9999REMSYN070AAXX  14064 60764 33960 00410 10216 20149 30107 40157 57014 333 20201;EQDQ01  00002PRCP99
0173607640999992000071409004+33690+008970FM-12+004699999V0200601N002112200019N0120001N1+02721+01431101631ADDAA199000091GA1001+999999999GF100991001001999999001001MA1999999101131MD1210061+9999REMSYN060AAXX  14094 60764 32962 00604 10272 20143 30113 40163 52006;EQDQ01  00002PRCP99
0183607640999992000071412004+33690+008970FM-12+004699999V0201601N001012200019N0150001N1+03191+01221101501ADDAA199000091GA1001+999999999GF100991001001999999001001MA1999999101011MD1710121+9999REMSYN070AAXX  14124 60764 32965 01602 10319 20122 30101 40150 57012 333 51111;EQDQ01  00002PRCP99
0173607640999992000071415004+33690+008970FM-12+004699999V0209999C000012200019N0100001N1+03421+01281101211ADDAA199000091GA1001+999999999GF100991001001999999001001MA1999999100731MD1710181+9999REMSYN060AAXX  14154 60764 32960 00000 10342 20128 30073 40121 57018;EQDQ01  00002PRCP99
0196607640999992000071506004+33690+008970FM-12+004699999V0200401N006212200019N0100001N1+02411+01651101101ADDAA199000091GA1001+999999999GF100991001001999999001001KA1999N+02271MA1999999100611MD1510041+9999REMSYN070AAXX  15064 60764 33960 00412 10241 20165 30061 40110 55004 333 20227;EQDQ01  00002PRCP99
0173607640999992000071509004+33690+008970FM-12+004699999V0200501N006212200019N0100001N1+02981+01571101121ADDAA199000091GA1001+999999999GF100991001001999999001001MA1999999100681MD1310021+9999REMSYN060AAXX  15094 60764 32960 00512 10298 20157 30068 40112 53002;EQDQ01  00002PRCP99
0183607640999992000071512004+33690+008970FM-12+004699999V0200401N002112200019N0150001N1+03421+01701100991ADDAA199000091GA1001+999999999GF100991001001999999001001MA1999999100511MD1810121+9999REMSYN070AAXX  15124 60764 32965 00404 10342 20170 30051 40099 58012 333 51221;EQDQ01  00002PRCP99
0196607640999992000071606004+33690+008970FM-12+004699999V0200501N008712200019N0180001N1+02481+02351101111ADDAA199000091GA1001+999999999GF100991001001999999001001KA1999N+02371MA1999999100611MD1210101+9999REMSYN070AAXX  16064 60764 32968 00517 10248 20235 30061 40111 52010 333 20237;EQDQ01  00002PRCP99
0183607640999992000071612004+33690+008970FM-12+004699999V0200901N008212200019N0120001N1+03491+01581101141ADDAA199000091GA1001+999999999GF100991001001999999001001MA1999999100661MD1210031+9999REMSYN070AAXX  16124 60764 32962 00916 10349 20158 30066 40114 52003 333 50971;EQDQ01  00002PRCP99
0196607640999992000071706004+33690+008970FM-12+004699999V0200401N009812200019N0080001N1+02411+02121101381ADDAA199000091GA1001+999999999GF100991001001999999001001KA1999N+02271MA1999999100881MD1310091+9999REMSYN070AAXX  17064 60764 33958 00419 10241 20212 30088 40138 53009 333 20227;EQDQ01  00002PRCP99
0183607640999992000071712004+33690+008970FM-12+004699999V0200601N004112200019N0150001N1+03671+02181101411ADDAA199000091GA1001+999999999GF100991001001999999001001MA1999999100931MD1810051+9999REMSYN070AAXX  17124 60764 32965 00608 10367 20218 30093 40141 58005 333 51311;EQDQ01  00002PRCP99
0208607640999992000071806004+33690+008970FM-12+004699999V0201101N003112200019N0100001N1+02851+01911101211ADDAA199000091GA1021+030009079GF102991021001999999081001KA1120N+02561MA1999999100721MD1610071+9999REMSYN082AAXX  18064 60764 33960 21106 10285 20191 30072 40121 56007 82080 333 20256 82360;EQDQ01  00002PRCP99
0189607640999992000071809004+33690+008970FM-12+004699999V0202001N004112200019N0080001N1+03661+01331101181ADDAA199000091GA1021+060009019GF102991001001999999001021MA1999999100701MD1810021+9999REMSYN076AAXX  18094 60764 32958 22008 10366 20133 30070 40118 58002 80002 333 82070;EQDQ01  00002PRCP99
0201607640999992000071812004+33690+008970FM-12+004699999V0202201N004119999999N0070001N1+04361+00621101031ADDAA199000091GA1021+030009039GF105991021001999999081021MA1999999100561MD1710141+9999REMSYN088AAXX  18124 60764 32957 52208 10436 20062 30056 40103 57014 82082 333 51291 82360 84070;EQDQ01  00002PRCP99
0189607640999992000071815004+33690+008970FM-12+004699999V0202701N005112200019N0100001N1+04551+00731100871ADDAA199000091GA1031+060009019GF103991001001999999001021MA1999999100371MD1710191+9999REMSYN076AAXX  18154 60764 32960 32710 10455 20073 30037 40087 57019 80002 333 83070;EQDQ01  00002PRCP99
0224607640999992000071906004+33690+008970FM-12+004699999V0200501N017012200019N0020001N1+02541+02341101061ADDAA199000091AY111061AY211061GA1001+999999999GF100991001001999999001001KA1999N+02331MA1999999100561MD1310101+9999MW1071REMSYN076AAXX  19064 60764 31920 00533 10254 20234 30056 40106 53010 70711 333 20233;EQDQ01  00002PRCP99
0217607640999992000071909004+33690+008970FM-12+004699999V0200501N015912200019N0020001N1+02921+02201101241ADDAA199000091AY101031AY201031GA1021+060009019GF102991001001999999001021MA1999999100751MD1210191+9999MW1071REMSYN082AAXX  19094 60764 31920 20531 10292 20220 30075 40124 52019 70700 80002 333 82070;EQDQ01  00002PRCP99
0189607640999992000071912004+33690+008970FM-12+004699999V0200601N010812200019N0060001N1+03351+02011101211ADDAA199000091GA1031+060009019GF103991999999999999999999MA1999999100731MD1510021+9999REMSYN076AAXX  19124 60764 32956 30621 10335 20201 30073 40121 55002 333 51821 83070;EQDQ01  00002PRCP99
0173607640999992000071915004+33690+008970FM-12+004699999V0200601N011812200019N0080001N1+03451+01711101121ADDAA199000091GA1001+999999999GF100991001001999999001001MA1999999100641MD1710091+9999REMSYN060AAXX  19154 60764 32958 00623 10345 20171 30064 40112 57009;EQDQ01  00002PRCP99
0173607640999992000072009004+33690+008970FM-12+004699999V0200601N007212200019N0120001N1+02951+01981101471ADDAA199000091GA1001+999999999GF100991001001999999001001MA1999999100981MD1210051+9999REMSYN060AAXX  20094 60764 32962 00614 10295 20198 30098 40147 52005;EQDQ01  00002PRCP99
0183607640999992000072112004+33690+008970FM-12+004699999V0201501N002112200019N0150001N1+03721+01591101291ADDAA199000091GA1001+999999999GF100991001001999999001001MA1999999100811MD1810091+9999REMSYN070AAXX  21124 60764 32965 01504 10372 20159 30081 40129 58009 333 51401;EQDQ01  00002PRCP99
0173607640999992000072115004+33690+008970FM-12+004699999V0202401N002112200019N0150001N1+03901+01111101111ADDAA199000091GA1001+999999999GF100991001001999999001001MA1999999100641MD1710171+9999REMSYN060AAXX  21154 60764 32965 02404 10390 20111 30064 40111 57017;EQDQ01  00002PRCP99
0196607640999992000072206004+33690+008970FM-12+004699999V0200401N011812200019N0150001N1+02511+02211101411ADDAA199000091GA1001+999999999GF100991001001999999001001KA1999N+02421MA1999999100911MD1210121+9999REMSYN070AAXX  22064 60764 33965 00423 10251 20221 30091 40141 52012 333 20242;EQDQ01  00002PRCP99
0173607640999992000072209004+33690+008970FM-12+004699999V0200501N009812200019N0100001N1+02971+02011101561ADDAA199000091GA1001+999999999GF100991001001999999001001MA1999999101071MD1210161+9999REMSYN060AAXX  22094 60764 32960 00519 10297 20201 30107 40156 52016;EQDQ01  00002PRCP99
0195607640999992000072212004+33690+008970FM-12+004699999V0200501N008212200019N0120001N1+03471+01551101491ADDAA199000091GA1021+060009019GF102991001001999999001021MA1999999101011MD1810061+9999REMSYN082AAXX  22124 60764 32962 20516 10347 20155 30101 40149 58006 80002 333 51251 82070;EQDQ01  00002PRCP99
0189607640999992000072215004+33690+008970FM-12+004699999V0200601N007212200019N0150001N1+03621+01361101381ADDAA199000091GA1021+060009019GF102991001001999999001021MA1999999100901MD1710111+9999REMSYN076AAXX  22154 60764 32965 20614 10362 20136 30090 40138 57011 80002 333 82070;EQDQ01  00002PRCP99
0173607640999992000072309004+33690+008970FM-12+004699999V0200601N006212200019N0120001N1+03011+01761101761ADDAA199000091GA1001+999999999GF100991001001999999001001MA1999999101271MD1110031+9999REMSYN060AAXX  23094 60764 32962 00612 10301 20176 30127 40176 51003;EQDQ01  00002PRCP99
0183607640999992000072312004+33690+008970FM-12+004699999V0200601N005112200019N0150001N1+03481+01421101691ADDAA199000091GA1001+999999999GF100991001001999999001001MA1999999101211MD1810061+9999REMSYN070AAXX  23124 60764 32965 00610 10348 20142 30121 40169 58006 333 51441;EQDQ01  00002PRCP99
0196607640999992000072406004+33690+008970FM-12+004699999V0200401N008712200019N0070001N1+02281+02181101591ADDAA199000091GA1001+999999999GF100991001001999999001001KA1999N+02161MA1999999101091MD1310081+9999REMSYN070AAXX  24064 60764 33957 00417 10228 20218 30109 40159 53008 333 20216;EQDQ01  00002PRCP99
0173607640999992000072409004+33690+008970FM-12+004699999V0200501N008712200019N0100001N1+02941+01951101511ADDAA199000091GA1001+999999999GF100991001001999999001001MA1999999101021MD1510071+9999REMSYN060AAXX  24094 60764 32960 00517 10294 20195 30102 40151 55007;EQDQ01  00002PRCP99
0183607640999992000072412004+33690+008970FM-12+004699999V0201101N003112200019N0150001N1+03671+01541101281ADDAA199000091GA1001+999999999GF100991001001999999001001MA1999999100801MD1810221+9999REMSYN070AAXX  24124 60764 32965 01106 10367 20154 30080 40128 58022 333 51401;EQDQ01  00002PRCP99
0173607640999992000072415004+33690+008970FM-12+004699999V0201101N005112200019N0150001N1+03971+01601101001ADDAA199000091GA1001+999999999GF100991001001999999001001MA1999999100531MD1710271+9999REMSYN060AAXX  24154 60764 32965 01110 10397 20160 30053 40100 57027;EQDQ01  00002PRCP99
0173607640999992000072509004+33690+008970FM-12+004699999V0200501N006212200019N0100001N1+03141+02281101251ADDAA199000091GA1001+999999999GF100991001001999999001001MA1999999100761MD1110051+9999REMSYN060AAXX  25094 60764 32960 00512 10314 20228 30076 40125 51005;EQDQ01  00002PRCP99
0183607640999992000072512004+33690+008970FM-12+004699999V0200601N004112200019N0100001N1+03831+01861101441ADDAA199000091GA1001+999999999GF100991001001999999001001MA1999999100661MD1810101+9999REMSYN070AAXX  25124 60764 32960 00608 10383 20186 30066 40144 58010 333 51071;EQDQ01  00002PRCP99
0196607640999992000072606004+33690+008970FM-12+004699999V0200401N005112200019N0100001N1+02521+02211101221ADDAA199000091GA1001+999999999GF100991001001999999001001KA1999N+02411MA1999999100721MD1310131+9999REMSYN070AAXX  26064 60764 32960 00410 10252 20221 30072 40122 53013 333 20241;EQDQ01  00002PRCP99
0183607640999992000072612004+33690+008970FM-12+004699999V0203301N001012200019N0150001N1+03991+01671101231ADDAA199000091GA1001+999999999GF100991001001999999001001MA1999999100761MD1810071+9999REMSYN070AAXX  26124 60764 32965 03302 10399 20167 30076 40123 58007 333 51531;EQDQ01  00002PRCP99
0173607640999992000072615004+33690+008970FM-12+004699999V0200601N001012200019N0150001N1+04161+01431101091ADDAA199000091GA1001+999999999GF100991001001999999001001MA1999999100621MD1710141+9999REMSYN060AAXX  26154 60764 32965 00602 10416 20143 30062 40109 57014;EQDQ01  00002PRCP99
0196607640999992000072706004+33690+008970FM-12+004699999V0200501N006212200019N0080001N1+02641+02231101441ADDAA199000091GA1001+999999999GF100991001001999999001001KA1999N+02541MA1999999100941MD1310101+9999REMSYN070AAXX  27064 60764 33958 00512 10264 20223 30094 40144 53010 333 20254;EQDQ01  00002PRCP99
0173607640999992000072709004+33690+008970FM-12+004699999V0200401N002112200019N0080001N1+03371+01891101531ADDAA199000091GA1001+999999999GF100991001001999999001001MA1999999101051MD1110111+9999REMSYN060AAXX  27094 60764 32958 00404 10337 20189 30105 40153 51011;EQDQ01  00002PRCP99
0183607640999992000072712004+33690+008970FM-12+004699999V0201401N001012200019N0150001N1+03971+01451101431ADDAA199000091GA1001+999999999GF100991001001999999001001MA1999999100961MD1810071+9999REMSYN070AAXX  27124 60764 32965 01402 10397 20145 30096 40143 58007 333 51391;EQDQ01  00002PRCP99
0173607640999992000072715004+33690+008970FM-12+004699999V0201701N002112200019N0150001N1+04151+01121101231ADDAA199000091GA1001+999999999GF100991001001999999001001MA1999999100761MD1710201+9999REMSYN060AAXX  27154 60764 32965 01704 10415 20112 30076 40123 57020;EQDQ01  00002PRCP99
0196607640999992000072806004+33690+008970FM-12+004699999V0200801N002112200019N0100001N1+02901+02181101291ADDAA199000091GA1001+999999999GF100991001001999999001001KA1999N+02691MA1999999100801MD1310081+9999REMSYN070AAXX  28064 60764 33960 00804 10290 20218 30080 40129 53008 333 20269;EQDQ01  00002PRCP99
0173607640999992000072809004+33690+008970FM-12+004699999V0201401N002112200019N0120001N1+03571+01671101321ADDAA199000091GA1001+999999999GF100991001001999999001001MA1999999100841MD1310041+9999REMSYN060AAXX  28094 60764 32962 01404 10357 20167 30084 40132 53004;EQDQ01  00002PRCP99
0183607640999992000072812004+33690+008970FM-12+004699999V0200701N001012200019N0150001N1+03991+01651101201ADDAA199000091GA1001+999999999GF100991001001999999001001MA1999999100731MD1810111+9999REMSYN070AAXX  28124 60764 32965 00702 10399 20165 30073 40120 58011 333 51551;EQDQ01  00002PRCP99
0208607640999992000072906004+33690+008970FM-12+004699999V0200701N010812200019N0080001N1+02871+02121101231ADDAA199000091GA1021+030009079GF102991021001999999031001KA1120N+02711MA1999999100541MD1210131+9999REMSYN082AAXX  29064 60764 33958 20721 10287 20212 30054 40123 52013 82030 333 20271 82360;EQDQ01  00002PRCP99
0201607640999992000072909004+33690+008970FM-12+004699999V0200401N011812200019N0030001N1+03261+02131101381ADDAA199000091AY101031AY201031GA1001+999999999GF100991001001999999001001MA1999999100891MD1110151+9999MW1071REMSYN066AAXX  29094 60764 31930 00423 10326 20213 30089 40138 51015 70700;EQDQ01  00002PRCP99
0211607640999992000072912004+33690+008970FM-12+004699999V0200501N011812200019N0030001N1+03801+01851101351ADDAA199000091AY101061AY201061GA1001+999999999GF100991001001999999001001MA1999999100871MD1810021+9999MW1071REMSYN076AAXX  29124 60764 31930 00523 10380 20185 30087 40135 58002 70700 333 51581;EQDQ01  00002PRCP99
0196607640999992000073006004+33690+008970FM-12+004699999V0200801N003112200019N0100001N1+02661+01691101721ADDAA199000091GA1001+999999999GF100991001001999999001001KA1999N+02461MA1999999101221MD1310071+9999REMSYN070AAXX  30064 60764 33960 00806 10266 20169 30122 40172 53007 333 20246;EQDQ01  00002PRCP99
0173607640999992000073009004+33690+008970FM-12+004699999V0200701N005112200019N0150001N1+03021+01331101841ADDAA199000091GA1001+999999999GF100991001001999999001001MA1999999101351MD1210231+9999REMSYN060AAXX  30094 60764 32965 00710 10302 20133 30135 40184 52023;EQDQ01  00002PRCP99
0183607640999992000073012004+33690+008970FM-12+004699999V0200701N003112200019N0150001N1+03351+01211101831ADDAA199000091GA1001+999999999GF100991001001999999001001MA1999999101351MD1410001+9999REMSYN070AAXX  30124 60764 32965 00706 10335 20121 30135 40183 54000 333 51841;EQDQ01  00002PRCP99
0173607640999992000073015004+33690+008970FM-12+004699999V0200601N001012200019N0150001N1+03691+01351101621ADDAA199000091GA1001+999999999GF100991001001999999001001MA1999999101141MD1710211+9999REMSYN060AAXX  30154 60764 32965 00602 10369 20135 30114 40162 57021;EQDQ01  00002PRCP99
0173607640999992000073109004+33690+008970FM-12+004699999V0201201N001012200019N0150001N1+02911+01911102031ADDAA199000091GA1001+999999999GF100991001001999999001001MA1999999101541MD1110051+9999REMSYN060AAXX  31094 60764 32965 01202 10291 20191 30154 40203 51005;EQDQ01  00002PRCP99
0183607640999992000073112004+33690+008970FM-12+004699999V0200601N001012200019N0150001N1+03331+01971101931ADDAA199000091GA1001+999999999GF100991001001999999001001MA1999999101451MD1810091+9999REMSYN070AAXX  31124 60764 32965 00602 10333 20197 30145 40193 58009 333 51241;EQDQ01  00002PRCP99
0189607640999992000073115004+33690+008970FM-12+004699999V0202401N001012200019N0150001N1+03531+02011101701ADDAA199000091GA1011+009909059GF101991011051008001001001MA1999999101221MD1710231+9999REMSYN076AAXX  31154 60764 32565 12402 10353 20201 30122 40170 57023 81500 333 81633;EQDQ01  00002PRCP99
0196607640999992000080106004+33690+008970FM-12+004699999V0200701N004112200019N0070001N1+02311+02051102121ADDAA199000091GA1001+999999999GF100991001001999999001001KA1999N+02221MA1999999101621MD1310151+9999REMSYN070AAXX  01064 60764 33957 00708 10231 20205 30162 40212 53015 333 20222;EQDQ01  00002PRCP99
0173607640999992000080109004+33690+008970FM-12+004699999V0200601N006212200019N0100001N1+02841+01791102181ADDAA199000091GA1001+999999999GF100991001001999999001001MA1999999101681MD1110061+9999REMSYN060AAXX  01094 60764 32960 00612 10284 20179 30168 40218 51006;EQDQ01  00002PRCP99
0183607640999992000080112004+33690+008970FM-12+004699999V0200601N006212200019N0150001N1+03331+01481102061ADDAA199000091GA1001+999999999GF100991001001999999001001MA1999999101571MD1810111+9999REMSYN070AAXX  01124 60764 32965 00612 10333 20148 30157 40206 58011 333 51011;EQDQ01  00002PRCP99
0208607640999992000080206004+33690+008970FM-12+004699999V0200501N007212200019N0060001N1+02311+02161102121ADDAA199000091GA1021+060009019GF102991001001999999001021KA1120N+02201MA1999999101621MD1310091+9999REMSYN082AAXX  02064 60764 33956 20514 10231 20216 30162 40212 53009 80002 333 20220 82070;EQDQ01  00002PRCP99
0183607640999992000080212004+33690+008970FM-12+004699999V0200801N003112200019N0150001N1+03281+01751102071ADDAA199000091GA1001+999999999GF100991001001999999001001MA1999999101581MD1810121+9999REMSYN070AAXX  02124 60764 32965 00806 10328 20175 30158 40207 58012 333 51171;EQDQ01  00002PRCP99
0196607640999992000080306004+33690+008970FM-12+004699999V0200401N005112200019N0080001N1+02311+02021101911ADDAA199000091GA1001+999999999GF100991001001999999001001KA1999N+02191MA1999999101411MD1310051+9999REMSYN070AAXX  03064 60764 33958 00410 10231 20202 30141 40191 53005 333 20219;EQDQ01  00002PRCP99
0173607640999992000080309004+33690+008970FM-12+004699999V0200301N001012200019N0100001N1+02851+01831101991ADDAA199000091GA1001+999999999GF100991001001999999001001MA1999999101491MD1210081+9999REMSYN060AAXX  03094 60764 32960 00302 10285 20183 30149 40199 52008;EQDQ01  00002PRCP99
0182607640999992000080312004+33690+008970FM-12+004699999V0201101N001012200019N0150001N1+03381+01641101841ADDAA199000091GA1001+999999999GF100991001001999999001001MA1999999101351MD1810141+9999REMSYN069AAXX  03124 60764 32965 01102 1033820164 30135 40184 58014 333 51041;EQDQ01  00002PRCP99
0196607640999992000080406004+33690+008970FM-12+004699999V0200501N006212200019N0100001N1+02371+01921101531ADDAA199000091GA1001+999999999GF100991001001999999001001KA1999N+02211MA1999999101031MD1310041+9999REMSYN070AAXX  04064 60764 33960 00512 10237 20192 30103 40153 53004 333 20221;EQDQ01  00002PRCP99
0173607640999992000080409004+33690+008970FM-12+004699999V0200301N005112200019N0120001N1+02891+01891101601ADDAA199000091GA1001+999999999GF100991001001999999001001MA1999999101101MD1110071+9999REMSYN060AAXX  04094 60764 32962 00310 10289 20189 30110 40160 51007;EQDQ01  00002PRCP99
0183607640999992000080412004+33690+008970FM-12+004699999V0201601N002112200019N0150001N1+03541+01721101391ADDAA199000091GA1001+999999999GF100991001001999999001001MA1999999100911MD1810191+9999REMSYN070AAXX  04124 60764 32965 01604 10354 20172 30091 40139 58019 333 50931;EQDQ01  00002PRCP99
0189607640999992000080509004+33690+008970FM-12+004699999V0200501N008712200019N0100001N1+02871+02181101601ADDAA199000091GA1011+009009029GF102991011021008001001021MA1999999101111MD1210101+9999REMSYN076AAXX  05094 60764 32560 20517 10287 20218 30111 40160 52010 81202 333 81830;EQDQ01  00002PRCP99
0195607640999992000080512004+33690+008970FM-12+004699999V0200601N009812200019N0100001N1+03291+02331101511ADDAA199000091GA1021+009009029GF102991021021008001001001MA1999999101021MD1810091+9999REMSYN082AAXX  05124 60764 32560 20619 10329 20233 30102 40151 58009 82200 333 50981 82830;EQDQ01  00002PRCP99
0214607640999992000080606004+33690+008970FM-12+004699999V0200501N006212200019N0080001N1+02311+01961101821ADDAA199000091GA1011+009909069GF103991011051008001081001KA1120N+02271MA1999999101321MD1310161+9999REMSYN088AAXX  06064 60764 33558 30512 10231 20196 30132 40182 53016 81580 333 20227 81633 83360;EQDQ01  00002PRCP99
0217607640999992000080609004+33690+008970FM-12+004699999V0200601N011812200019N0020001N1+02801+02111101861ADDAA199000091AY101031AY201031GA1031+030009079GF104991031001999999081021MA1999999101361MD1110041+9999MW1071REMSYN082AAXX  06094 60764 31920 40623 10280 20211 30136 40186 51004 70700 83082 333 83360;EQDQ01  00002PRCP99
0195607640999992000080612004+33690+008970FM-12+004699999V0200601N003112200019N0070001N1+03181+02421101751ADDAA199000091GA1011+030009079GF102991011001999999081021MA1999999101261MD1810101+9999REMSYN082AAXX  06124 60764 32957 20606 10318 20242 30126 40175 58010 81082 333 51091 81360;EQDQ01  00002PRCP99
0214607640999992000080706004+33690+008970FM-12+004699999V0200601N00871036001CN0100001N1+02361+02061101851ADDAA199000091GA1021+009909069GF105991021051008001081001KA1120N+02291MA1999999101351MD1310121+9999REMSYN088AAXX  07064 60764 33560 50617 10236 20206 30135 40185 53012 82580 333 20229 82633 84360;EQDQ01  00002PRCP99
0189607640999992000080709004+33690+008970FM-12+004699999V0200701N010812200019N0100001N1+02831+01671101921ADDAA199000091GA1021+030009079GF102991021001999999081001MA1999999101421MD1110071+9999REMSYN076AAXX  07094 60764 32960 20721 10283 20167 30142 40192 51007 82080 333 82360;EQDQ01  00002PRCP99
0195607640999992000080712004+33690+008970FM-12+004699999V0200601N008712200019N0120001N1+03211+01831101791ADDAA199000091GA1021+030009079GF102991021001999999081001MA1999999101301MD1810121+9999REMSYN082AAXX  07124 60764 32962 20617 10321 20183 30130 40179 58012 82080 333 51361 82360;EQDQ01  00002PRCP99
0208607640999992000080806004+33690+008970FM-12+004699999V0200801N004112200019N0080001N1+02281+02021101891ADDAA199000091GA1031+060009019GF103991001001999999001021KA1120N+02231MA1999999101391MD1310111+9999REMSYN082AAXX  08064 60764 33958 30808 10228 20202 30139 40189 53011 80002 333 20223 83070;EQDQ01  00002PRCP99
0189607640999992000080809004+33690+008970FM-12+004699999V0200801N008212200019N0100001N1+02981+01931101931ADDAA199000091GA1021+060009019GF102991001001999999001021MA1999999101441MD1110051+9999REMSYN076AAXX  08094 60764 32960 20816 10298 20193 30144 40193 51005 80002 333 82070;EQDQ01  00002PRCP99
0183607640999992000080812004+33690+008970FM-12+004699999V0201101N005112200019N0100001N1+03331+01971101781ADDAA199000091GA1001+999999999GF100991001001999999001001MA1999999101291MD1810151+9999REMSYN070AAXX  08124 60764 32960 01110 10333 20197 30129 40178 58015 333 51221;EQDQ01  00002PRCP99
0196607640999992000080906004+33690+008970FM-12+004699999V0200501N008212200019N0070001N1+02451+02131101711ADDAA199000091GA1001+999999999GF100991001001999999001001KA1999N+02371MA1999999101211MD1310081+9999REMSYN070AAXX  09064 60764 33957 00516 10245 20213 30121 40171 53008 333 20237;EQDQ01  00002PRCP99
0173607640999992000080909004+33690+008970FM-12+004699999V0200601N005112200019N0080001N1+03031+02021101811ADDAA199000091GA1001+999999999GF100991001001999999001001MA1999999101321MD1210111+9999REMSYN060AAXX  09094 60764 32958 00610 10303 20202 30132 40181 52011;EQDQ01  00002PRCP99
0195607640999992000080912004+33690+008970FM-12+004699999V0201801N002112200019N0150001N1+03621+01901101631ADDAA199000091GA1021+060009019GF102991001001999999001021MA1999999101151MD1810171+9999REMSYN082AAXX  09124 60764 32965 21804 10362 20190 30115 40163 58017 80002 333 51151 82070;EQDQ01  00002PRCP99
0208607640999992000081006004+33690+008970FM-12+004699999V0200601N010812200019N0070001N1+02501+02371101521ADDAA199000091GA1021+009909059GF102991021051008001001001KA1120N+02451MA1999999101021MD1310061+9999REMSYN082AAXX  10064 60764 33557 20621 10250 20237 30102 40152 53006 82500 333 20245 82633;EQDQ01  00002PRCP99
0217607640999992000081009004+33690+008970FM-12+004699999V0200601N012912200019N0030001N1+02921+02501101581ADDAA199000091AY101031AY201031GA1011+009909059GF101991011051008001001001MA1999999101091MD1110071+9999MW1071REMSYN082AAXX  10094 60764 31530 10625 10292 20250 30109 40158 51007 70700 81500 333 81633;EQDQ01  00002PRCP99
0195607640999992000081012004+33690+008970FM-12+004699999V0200801N008712200019N0080001N1+03351+01731101571ADDAA199000091GA1021+060009019GF102991001001999999001021MA1999999101091MD1410001+9999REMSYN082AAXX  10124 60764 32958 20817 10335 20173 30109 40157 54000 80002 333 51091 82070;EQDQ01  00002PRCP99
0208607640999992000081106004+33690+008970FM-12+004699999V0200601N005112200019N0100001N1+02371+02221101651ADDAA199000091GA1021+069009019GF102991001001999999001021KA1120N+02251MA1999999101151MD1310091+9999REMSYN082AAXX  11064 60764 33960 20610 10237 20222 30115 40165 53009 80002 333 20225 82073;EQDQ01  00002PRCP99
0183607640999992000081112004+33690+008970FM-12+004699999V0200701N005112200019N0150001N1+03381+01451101561ADDAA199000091GA1001+999999999GF100991001001999999001001MA1999999101081MD1810131+9999REMSYN070AAXX  11124 60764 32965 00710 10338 20145 30108 40156 58013 333 51271;EQDQ01  00002PRCP99
0173607640999992000081209004+33690+008970FM-12+004699999V0201601N002112200019N0100001N1+02901+01621101531ADDAA199000091GA1001+999999999GF100991001001999999001001MA1999999101041MD1110061+9999REMSYN060AAXX  12094 60764 32960 01604 10290 20162 30104 40153 51006;EQDQ01  00002PRCP99
0183607640999992000081212004+33690+008970FM-12+004699999V0201501N002112200019N0150001N1+03411+01651101401ADDAA199000091GA1001+999999999GF100991001001999999001001MA1999999100921MD1810121+9999REMSYN070AAXX  12124 60764 32965 01504 10341 20165 30092 40140 58012 333 51181;EQDQ01  00002PRCP99
0196607640999992000081306004+33690+008970FM-12+004699999V0200601N003112200019N0100001N1+02601+01821101531ADDAA199000091GA1001+999999999GF100991001001999999001001KA1999N+02281MA1999999101031MD1310111+9999REMSYN070AAXX  13064 60764 33960 00606 10260 20182 30103 40153 53011 333 20228;EQDQ01  00002PRCP99
0173607640999992000081309004+33690+008970FM-12+004699999V0200801N001012200019N0120001N1+03201+01951101681ADDAA199000091GA1001+999999999GF100991001001999999001001MA1999999101191MD1210161+9999REMSYN060AAXX  13094 60764 32962 00802 10320 20195 30119 40168 52016;EQDQ01  00002PRCP99
0196607640999992000081406004+33690+008970FM-12+004699999V0200501N010812200019N0070001N1+02501+02331101741ADDAA199000091GA1001+999999999GF100991001001999999001001KA1999N+02311MA1999999101241MD1310151+9999REMSYN070AAXX  14064 60764 33957 00521 10250 20233 30124 40174 53015 333 20231;EQDQ01  00002PRCP99
0183607640999992000081412004+33690+008970FM-12+004699999V0200501N007212200019N0100001N1+03501+01731101811ADDAA199000091GA1001+999999999GF100991001001999999001001MA1999999101331MD1810081+9999REMSYN070AAXX  14124 60764 32960 00514 10350 20173 30133 40181 58008 333 51071;EQDQ01  00002PRCP99
0208607640999992000081506004+33690+008970FM-12+004699999V0201101N004112200019N0080001N1+02491+02221101861ADDAA199000091GA1021+060009019GF102991001001999999001021KA1120N+02381MA1999999101361MD1310101+9999REMSYN082AAXX  15064 60764 33958 21108 10249 20222 30136 40186 53010 80002 333 20238 82070;EQDQ01  00002PRCP99
0183607640999992000081512004+33690+008970FM-12+004699999V0200801N002112200019N0150001N1+03381+01771101761ADDAA199000091GA1001+999999999GF100991001001999999001001MA1999999101281MD1810151+9999REMSYN070AAXX  15124 60764 32965 00804 10338 20177 30128 40176 58015 333 51311;EQDQ01  00002PRCP99
0196607640999992000081606004+33690+008970FM-12+004699999V0200601N002112200019N0080001N1+02541+02151101681ADDAA199000091GA1001+999999999GF100991001001999999001001KA1999N+02421MA1999999101181MD1310051+9999REMSYN070AAXX  16064 60764 32958 00604 10254 20215 30118 40168 53005 333 20242;EQDQ01  00002PRCP99
0173607640999992000081609004+33690+008970FM-12+004699999V0200401N002112200019N0120001N1+03071+01781101781ADDAA199000091GA1001+999999999GF100991001001999999001001MA1999999101281MD1210201+9999REMSYN060AAXX  16094 60764 32962 00404 10307 20178 30128 40178 52020;EQDQ01  00002PRCP99
0195607640999992000081612004+33690+008970FM-12+004699999V0200701N006212200019N0150001N1+03391+01841101571ADDAA199000091GA1021+009909059GF102991021051008001001001MA1999999101091MD1710191+9999REMSYN082AAXX  16124 60764 32565 20712 10339 20184 30109 40157 57019 82500 333 51021 82633;EQDQ01  00002PRCP99
0208607640999992000081706004+33690+008970FM-12+004699999V0200901N002112200019N0080001N1+02481+02291101651ADDAA199000091GA1021+060009019GF103991001001999999001021KA1120N+02401MA1999999101151MD1310141+9999REMSYN082AAXX  17064 60764 32958 30904 10248 20229 30115 40165 53014 80002 333 20240 82070;EQDQ01  00002PRCP99
0168607640999992000081712004+33690+008970FM-12+004699999V0201801N003112200019N0100001N1+03401+01451101531ADDAA199000091GF102991999999008001999999MD1810081+9999REMSYN070AAXX  17124 60764 32560 21806 10340 20145 39807 40153 58008 333 51101;EQDQ01+098073APOSP Q02  00002PRCP99
0189607640999992000081715004+33690+008970FM-12+004699999V0201001N002112200019N0150001N1+03621+01461101441ADDAA199000091GA1021+009909059GF102991021051008001001001MA1999999100961MD1710191+9999REMSYN076AAXX  17154 60764 32565 21004 10362 20146 30096 40144 57019 82500 333 82633;EQDQ01  00002PRCP99
0173607640999992000081809004+33690+008970FM-12+004699999V0201601N003112200019N0120001N1+03151+01661101741ADDAA199000091GA1001+999999999GF100991001001999999001001MA1999999101251MD1210121+9999REMSYN060AAXX  18094 60764 32962 01606 10315 20166 30125 40174 52012;EQDQ01  00002PRCP99
0183607640999992000081812004+33690+008970FM-12+004699999V0201501N001012200019N0150001N1+03611+01461101611ADDAA199000091GA1001+999999999GF100991001001999999001001MA1999999101131MD1810121+9999REMSYN070AAXX  18124 60764 32965 01502 10361 20146 30113 40161 58012 333 51061;EQDQ01  00002PRCP99
0173607640999992000081815004+33690+008970FM-12+004699999V0201601N001012200019N0150001N1+03801+01201101401ADDAA199000091GA1001+999999999GF100991001001999999001001MA1999999100921MD1710211+9999REMSYN060AAXX  18154 60764 32965 01602 10380 20120 30092 40140 57021;EQDQ01  00002PRCP99
0196607640999992000081906004+33690+008970FM-12+004699999V0209999C000012200019N0100001N1+02421+01531101751ADDAA199000091GA1001+999999999GF100991001001999999001001KA1999N+02251MA1999999101251MD1310121+9999REMSYN070AAXX  19064 60764 33960 00000 10242 20153 30125 40175 53012 333 20225;EQDQ01  00002PRCP99
0173607640999992000081909004+33690+008970FM-12+004699999V0201601N002112200019N0150001N1+03281+01191101851ADDAA199000091GA1001+999999999GF100991001001999999001001MA1999999101361MD1210111+9999REMSYN060AAXX  19094 60764 32965 01604 10328 20119 30136 40185 52011;EQDQ01  00002PRCP99
0183607640999992000081912004+33690+008970FM-12+004699999V0202601N002112200019N0150001N1+03871+01101101761ADDAA199000091GA1001+999999999GF100991001001999999001001MA1999999101281MD1810081+9999REMSYN070AAXX  19124 60764 32965 02604 10387 20110 30128 40176 58008 333 50981;EQDQ01  00002PRCP99
0173607640999992000081915004+33690+008970FM-12+004699999V0202801N001012200019N0150001N1+04001+00681101561ADDAA199000091GA1001+999999999GF100991001001999999001001MA1999999101081MD1710201+9999REMSYN060AAXX  19154 60764 32965 02802 10400 20068 30108 40156 57020;EQDQ01  00002PRCP99
0196607640999992000082006004+33690+008970FM-12+004699999V0209999C000012200019N0100001N1+02341+01291101691ADDAA199000091GA1001+999999999GF100991001001999999001001KA1999N+02301MA1999999101191MD1510041+9999REMSYN070AAXX  20064 60764 33960 00000 10234 20129 30119 40169 55004 333 20230;EQDQ01  00002PRCP99
0173607640999992000082009004+33690+008970FM-12+004699999V0202101N001012200019N0120001N1+03321+01591101751ADDAA199000091GA1001+999999999GF100991001001999999001001MA1999999101261MD1110071+9999REMSYN060AAXX  20094 60764 32962 02102 10332 20159 30126 40175 51007;EQDQ01  00002PRCP99
0196607640999992000082106004+33690+008970FM-12+004699999V0200401N007212200019N0080001N1+02781+02061101431ADDAA199000091GA1001+999999999GF100991001001999999001001KA1999N+02611MA1999999100931MD1510051+9999REMSYN070AAXX  21064 60764 33958 00414 10278 20206 30093 40143 55005 333 20261;EQDQ01  00002PRCP99
0189607640999992000082109004+33690+008970FM-12+004699999V0200501N003112200019N0100001N1+03371+01241101531ADDAA199000091GA1001+999999999GF100991001001999999001001MA1999999098052MD1210061+9999REMSYN060AAXX  21094 60764 32960 00506 10337 20124 39805 40153 52006;EQDQ01+098053APOSP Q02  00002PRCP99
0196607640999992000082206004+33690+008970FM-12+004699999V0201701N001012200019N0100001N1+02251+01541101601ADDAA199000091GA1001+999999999GF100991001001999999001001KA1999N+02161MA1999999101101MD1310121+9999REMSYN070AAXX  22064 60764 33960 01702 10225 20154 30110 40160 53012 333 20216;EQDQ01  00002PRCP99
0173607640999992000082209004+33690+008970FM-12+004699999V0201501N001012200019N0120001N1+03201+01621101671ADDAA199000091GA1001+999999999GF100991001001999999001001MA1999999101181MD1210081+9999REMSYN060AAXX  22094 60764 32962 01502 10320 20162 30118 40167 52008;EQDQ01  00002PRCP99
0183607640999992000082212004+33690+008970FM-12+004699999V0209999C000012200019N0150001N1+03721+01501101581ADDAA199000091GA1001+999999999GF100991001001999999001001MA1999999101101MD1810081+9999REMSYN070AAXX  22124 60764 32965 00000 10372 20150 30110 40158 58008 333 51641;EQDQ01  00002PRCP99
0173607640999992000082215004+33690+008970FM-12+004699999V0202401N001012200019N0150001N1+03941+01141101401ADDAA199000091GA1001+999999999GF100991001001999999001001MA1999999100921MD1110081+9999REMSYN060AAXX  22154 60764 32965 02402 10394 20114 30092 40140 51008;EQDQ01  00002PRCP99
0196607640999992000082306004+33690+008970FM-12+004699999V0209999C000012200019N0070001N1+02201+01401101751ADDAA199000091GA1001+999999999GF100991001001999999001001KA1999N+02081MA1999999101251MD1310161+9999REMSYN070AAXX  23064 60764 33957 00000 10220 20140 30125 40175 53016 333 20208;EQDQ01  00002PRCP99
0173607640999992000082309004+33690+008970FM-12+004699999V0202301N001012200019N0100001N1+03251+01411101841ADDAA199000091GA1001+999999999GF100991001001999999001001MA1999999101351MD1110101+9999REMSYN060AAXX  23094 60764 32960 02302 10325 20141 30135 40184 51010;EQDQ01  00002PRCP99
0183607640999992000082312004+33690+008970FM-12+004699999V0202801N003112200019N0150001N1+03751+01301101781ADDAA199000091GA1001+999999999GF100991001001999999001001MA1999999101301MD1810051+9999REMSYN070AAXX  23124 60764 32965 02806 10375 20130 30130 40178 58005 333 50971;EQDQ01  00002PRCP99
0173607640999992000082315004+33690+008970FM-12+004699999V0201901N002112200019N0150001N1+04031+01001101691ADDAA199000091GA1001+999999999GF100991001001999999001001MA1999999101141MD1710161+9999REMSYN060AAXX  23154 60764 32965 01904 10403 20100 30114 40169 57016;EQDQ01  00002PRCP99
0196607640999992000082318004+33690+008970FM-12+004699999V0202501N002112200019N0120001N1+03971+00761101561ADDAA199000091GA1001+999999999GF100991001001999999001001KA1999M+04061MA1999999101091MD1610051+9999REMSYN070AAXX  23184 60764 32962 02504 10397 20076 30109 40156 56005 333 10406;EQDQ01  00002PRCP99
0196607640999992000082406004+33690+008970FM-12+004699999V0201001N001012200019N0080001N1+02251+01281101941ADDAA199000091GA1001+999999999GF100991001001999999001001KA1999N+02141MA1999999101441MD1310121+9999REMSYN070AAXX  24064 60764 33958 01002 10225 20128 30144 40194 53012 333 20214;EQDQ01  00002PRCP99
0173607640999992000082409004+33690+008970FM-12+004699999V0201401N001012200019N0100001N1+03301+01351102061ADDAA199000091GA1001+999999999GF100991001001999999001001MA1999999101571MD1210131+9999REMSYN060AAXX  24094 60764 32960 01402 10330 20135 30157 40206 52013;EQDQ01  00002PRCP99
0183607640999992000082412004+33690+008970FM-12+004699999V0202501N001012200019N0150001N1+03931+01041101961ADDAA199000091GA1001+999999999GF100991001001999999001001MA1999999101481MD1810091+9999REMSYN070AAXX  24124 60764 32965 02502 10393 20104 30148 40196 58009 333 51051;EQDQ01  00002PRCP99
0196607640999992000082506004+33690+008970FM-12+004699999V0209999C000012200019N0070001N1+02401+01731101711ADDAA199000091GA1001+999999999GF100991001001999999001001KA1999N+02161MA1999999101211MD1310051+9999REMSYN070AAXX  25064 60764 33957 00000 10240 20173 30121 40171 53005 333 20216;EQDQ01  00002PRCP99
0173607640999992000082509004+33690+008970FM-12+004699999V0202401N001012200019N0080001N1+03401+01281101761ADDAA199000091GA1001+999999999GF100991001001999999001001MA1999999101281MD1210091+9999REMSYN060AAXX  25094 60764 32958 02402 10340 20128 30128 40176 52009;EQDQ01  00002PRCP99
0183607640999992000082512004+33690+008970FM-12+004699999V0202701N002112200019N0150001N1+03981+01021101611ADDAA199000091GA1001+999999999GF100991001001999999001001MA1999999101141MD1810141+9999REMSYN070AAXX  25124 60764 32965 02704 10398 20102 30114 40161 58014 333 51311;EQDQ01  00002PRCP99
0173607640999992000082515004+33690+008970FM-12+004699999V0202801N003112200019N0150001N1+04171+00591101391ADDAA199000091GA1001+999999999GF100991001001999999001001MA1999999100931MD1710211+9999REMSYN060AAXX  25154 60764 32965 02806 10417 20059 30093 40139 57021;EQDQ01  00002PRCP99
0196607640999992000082518004+33690+008970FM-12+004699999V0202701N003112200019N0120001N1+04001+00271101341ADDAA199000091GA1001+999999999GF100991001001999999001001KA1999M+04241MA1999999100881MD1610051+9999REMSYN070AAXX  25184 60764 32962 02706 10400 20027 30088 40134 56005 333 10424;EQDQ01  00002PRCP99
0196607640999992000082606004+33690+008970FM-12+004699999V0201201N001012200019N0070001N1+02391+01201101371ADDAA199000091GA1001+999999999GF100991001001999999001001KA1999N+02291MA1999999100871MD1310061+9999REMSYN070AAXX  26064 60764 33957 01202 10239 20120 30087 40137 53006 333 20229;EQDQ01  00002PRCP99
0173607640999992000082609004+33690+008970FM-12+004699999V0201801N001012200019N0080001N1+03391+01751101441ADDAA199000091GA1001+999999999GF100991001001999999001001MA1999999100961MD1210091+9999REMSYN060AAXX  26094 60764 32958 01802 10339 20175 30096 40144 52009;EQDQ01  00002PRCP99
0183607640999992000082612004+33690+008970FM-12+004699999V0202401N003112200019N0150001N1+04121+00651101341ADDAA199000091GA1001+999999999GF100991001001999999001001MA1999999100871MD1810091+9999REMSYN070AAXX  26124 60764 32965 02406 10412 20065 30087 40134 58009 333 51091;EQDQ01  00002PRCP99
0173607640999992000082615004+33690+008970FM-12+004699999V0202801N004112200019N0150001N1+04351+00171101151ADDAA199000091GA1001+999999999GF100991001001999999001001MA1999999100691MD1710181+9999REMSYN060AAXX  26154 60764 32965 02808 10435 20017 30069 40115 57018;EQDQ01  00002PRCP99
0196607640999992000082618004+33690+008970FM-12+004699999V0202701N003112200019N0120001N1+04121+00081101101ADDAA199000091GA1001+999999999GF100991001001999999001001KA1999M+04381MA1999999100641MD1610051+9999REMSYN070AAXX  26184 60764 32962 02706 10412 20008 30064 40110 56005 333 10438;EQDQ01  00002PRCP99
0196607640999992000082706004+33690+008970FM-12+004699999V0201301N002112200019N0100001N1+02511+01841101361ADDAA199000091GA1001+999999999GF100991001001999999001001KA1999N+02311MA1999999100861MD1310101+9999REMSYN070AAXX  27064 60764 33960 01304 10251 20184 30086 40136 53010 333 20231;EQDQ01  00002PRCP99
0173607640999992000082709004+33690+008970FM-12+004699999V0201401N001012200019N0120001N1+03641+01001101491ADDAA199000091GA1001+999999999GF100991001001999999001001MA1999999101011MD1210151+9999REMSYN060AAXX  27094 60764 32962 01402 10364 20100 30101 40149 52015;EQDQ01  00002PRCP99
0183607640999992000082712004+33690+008970FM-12+004699999V0202001N003112200019N0150001N1+04251+00331101421ADDAA199000091GA1001+999999999GF100991001001999999001001MA1999999100961MD1810051+9999REMSYN070AAXX  27124 60764 32965 02006 10425 20033 30096 40142 58005 333 51421;EQDQ01  00002PRCP99
0196607640999992000082718004+33690+008970FM-12+004699999V0202701N003112200019N0100001N1+04151+00031101181ADDAA199000091GA1001+999999999GF100991001001999999001001KA1999M+04451MA1999999100721MD1610061+9999REMSYN070AAXX  27184 60764 32960 02706 10415 20003 30072 40118 56006 333 10445;EQDQ01  00002PRCP99
0196607640999992000082806004+33690+008970FM-12+004699999V0200501N006212200019N0080001N1+02951+01541101571ADDAA199000091GA1001+999999999GF100991001001999999001001KA1999N+02571MA1999999101071MD1310161+9999REMSYN070AAXX  28064 60764 33958 00512 10295 20154 30107 40157 53016 333 20257;EQDQ01  00002PRCP99
0173607640999992000082809004+33690+008970FM-12+004699999V0200601N005112200019N0100001N1+03471+01871101721ADDAA199000091GA1001+999999999GF100991001001999999001001MA1999999101241MD1210171+9999REMSYN060AAXX  28094 60764 32960 00610 10347 20187 30124 40172 52017;EQDQ01  00002PRCP99
0183607640999992000082812004+33690+008970FM-12+004699999V0202201N002112200019N0100001N1+04161+01191101601ADDAA199000091GA1001+999999999GF100991001001999999001001MA1999999101141MD1810101+9999REMSYN070AAXX  28124 60764 32960 02204 10416 20119 30114 40160 58010 333 51731;EQDQ01  00002PRCP99
0173607640999992000082815004+33690+008970FM-12+004699999V0202301N002112200019N0150001N1+04331+00301101411ADDAA199000091GA1001+999999999GF100991001001999999001001MA1999999100951MD1710191+9999REMSYN060AAXX  28154 60764 32965 02304 10433 20030 30095 40141 57019;EQDQ01  00002PRCP99
0196607640999992000082818004+33690+008970FM-12+004699999V0202701N002112200019N0150001N1+04111+00131101351ADDAA199000091GA1001+999999999GF100991001001999999001001KA1999M+04361MA1999999100891MD1610061+9999REMSYN070AAXX  28184 60764 32965 02704 10411 20013 30089 40135 56006 333 10436;EQDQ01  00002PRCP99
0173607640999992000082909004+33690+008970FM-12+004699999V0200401N006212200019N0080001N1+03211+02261101801ADDAA199000091GA1001+999999999GF100991001001999999001001MA1999999101311MD1210061+9999REMSYN060AAXX  29094 60764 32958 00412 10321 20226 30131 40180 52006;EQDQ01  00002PRCP99
0183607640999992000082912004+33690+008970FM-12+004699999V0202701N003112200019N0120001N1+02981+00931101691ADDAA199000091GA1001+999999999GF100991001001999999001001MA1999999101221MD1810091+9999REMSYN070AAXX  29124 60764 32962 02706 10298 20093 30122 40169 58009 333 51691;EQDQ01  00002PRCP99
0173607640999992000082915004+33690+008970FM-12+004699999V0202901N003112200019N0120001N1+04172+00181101481ADDAA199000091GA1001+999999999GF100991001001999999001001MA1999999101021MD1710201+9999REMSYN060AAXX  29154 60764 32962 02906 10417 20018 30102 40148 57020;EQDQ01  00002PRCP99
0196607640999992000082918004+33690+008970FM-12+004699999V0202701N001012200019N0120001N1+04041+00211101411ADDAA199000091GA1001+999999999GF100991001001999999001001KA1999M+04241MA1999999100951MD1610071+9999REMSYN070AAXX  29184 60764 32962 02702 10404 20021 30095 40141 56007 333 10424;EQDQ01  00002PRCP99
0196607640999992000083006004+33690+008970FM-12+004699999V0200601N003112200019N0080001N1+02781+02411101531ADDAA199000091GA1001+999999999GF100991001001999999001001KA1999N+02611MA1999999101031MD1310061+9999REMSYN070AAXX  30064 60764 33958 00606 10278 20241 30103 40153 53006 333 20261;EQDQ01  00002PRCP99
0173607640999992000083009004+33690+008970FM-12+004699999V0200401N006212200019N0080001N1+03251+02461101601ADDAA199000091GA1001+999999999GF100991001001999999001001MA1999999101111MD1210081+9999REMSYN060AAXX  30094 60764 32958 00412 10325 20246 30111 40160 52008;EQDQ01  00002PRCP99
0199607640999992000083012004+33690+008970FM-12+004699999V0201401N003112200019N0120001N1+04051+00712101421ADDAA199000091GA1001+999999999GF100991001001999999001001MA1999999100951MD1810161+9999REMSYN070AAXX  30124 60764 32962 01406 10405 20071 30095 40142 58016 333 51501;EQDQ01+000713ATOD  Q02  00002PRCP99
0195607640999992000083109004+33690+008970FM-12+004699999V0201301N003112200019N0100001N1+03551+00691101281ADDAA199000091GA1021+030009039GF104991021001999999081021MA1999999100801MD1210101+9999REMSYN082AAXX  31094 60764 32960 41306 10355 20069 30080 40128 52010 82082 333 82360 83070;EQDQ01  00002PRCP99
0173607640999992000090109004+33690+008970FM-12+004699999V0201601N003112200019N0100001N1+03471+00931101011ADDAA199000091GA1001+999999999GF100991001001999999001001MA1999999100531MD1210091+9999REMSYN060AAXX  01094 60764 32960 01606 10347 20093 30053 40101 52009;EQDQ01  00002PRCP99
0173607640999992000090115004+33690+008970FM-12+004699999V0201601N001012200019N0150001N1+04361+00041100791ADDAA199000091GA1001+999999999GF100991001001999999001001MA1999999100331MD1710151+9999REMSYN060AAXX  01154 60764 32965 01602 10436 20004 30033 40079 57015;EQDQ01  00002PRCP99
0196607640999992000090118004+33690+008970FM-12+004699999V0209999C000012200019N0120001N1+04131+00061100731ADDAA199000091GA1001+999999999GF100991001001999999001001KA1999M+04561MA1999999100271MD1610061+9999REMSYN070AAXX  01184 60764 32962 00000 10413 20006 30027 40073 56006 333 10456;EQDQ01  00002PRCP99
0196607640999992000090206004+33690+008970FM-12+004699999V0200401N011812200019N0070001N1+02501+02251100961ADDAA199000091GA1001+999999999GF100991001001999999001001KA1999N+02421MA1999999100461MD1610041+9999REMSYN070AAXX  02064 60764 33957 00423 10250 20225 30046 40096 56004 333 20242;EQDQ01  00002PRCP99
0173607640999992000090209004+33690+008970FM-12+004699999V0200401N008712200019N0100001N1+03081+02431101051ADDAA199000091GA1001+999999999GF100991001001999999001001MA1999999100561MD1310101+9999REMSYN060AAXX  02094 60764 32960 00417 10308 20243 30056 40105 53010;EQDQ01  00002PRCP99
0183607640999992000090212004+33690+008970FM-12+004699999V0200501N007212200019N0120001N1+03791+02041100931ADDAA199000091GA1001+999999999GF100991001001999999001001MA1999999100451MD1810111+9999REMSYN070AAXX  02124 60764 32962 00514 10379 20204 30045 40093 58011 333 51711;EQDQ01  00002PRCP99
0173607640999992000090215004+33690+008970FM-12+004699999V0200401N008712200019N0100001N1+03811+02321100781ADDAA199000091GA1001+999999999GF100991001001999999001001MA1999999100301MD1710151+9999REMSYN060AAXX  02154 60764 32960 00417 10381 20232 30030 40078 57015;EQDQ01  00002PRCP99
0196607640999992000090218004+33690+008970FM-12+004699999V0200501N009812200019N0100001N1+03541+02351100811ADDAA199000091GA1001+999999999GF100991001001999999001001KA1999M+03991MA1999999100331MD1310031+9999REMSYN070AAXX  02184 60764 32960 00519 10354 20235 30033 40081 53003 333 10399;EQDQ01  00002PRCP99
0214607640999992000090306004+33690+008970FM-12+004699999V0200201N006212200019N0060001N1+02661+01751100941ADDAA199000091GA1011+009009069GF103991011051008001001021KA1120N+02531MA1999999100451MD1510071+9999REMSYN088AAXX  03064 60764 33556 30212 10266 20175 30045 40094 55007 81502 333 20253 81630 83070;EQDQ01  00002PRCP99
0217607640999992000090309004+33690+008970FM-12+004699999V0200501N012912200019N0020001N1+03181+01981101151ADDAA199000091AY101031AY201031GA1031+060009019GF103991001001999999001021MA1999999100671MD1210221+9999MW1071REMSYN082AAXX  03094 60764 31920 30525 10318 20198 30067 40115 52022 70700 80002 333 83070;EQDQ01  00002PRCP99
0183607640999992000090312004+33690+008970FM-12+004699999V0200601N008712200019N0080001N1+03551+01441101181ADDAA199000091GA1001+999999999GF100991001001999999001001MA1999999100701MD1110031+9999REMSYN070AAXX  03124 60764 32958 00617 10355 20144 30070 40118 51003 333 51631;EQDQ01  00002PRCP99
0189607640999992000090315004+33690+008970FM-12+004699999V0200401N008212200019N0100001N1+03591+01761101031ADDAA199000091GA1021+009009029GF103991021021008001001021MA1999999100551MD1610151+9999REMSYN076AAXX  03154 60764 32560 30416 10359 20176 30055 40103 56015 82202 333 82830;EQDQ01  00002PRCP99
0214607640999992000090318004+33690+008970FM-12+004699999V0200601N008712200019N0080001N1+03371+02101100991ADDAA199000091GA1021+009009089GF104991021021008001001021KA1120M+03681MA1999999100511MD1510041+9999REMSYN088AAXX  03184 60764 32558 40617 10337 20210 30051 40099 55004 82202 333 10368 82830 83070;EQDQ01  00002PRCP99
0208607640999992000090406004+33690+008970FM-12+004699999V0200401N007212200019N0080001N1+02491+02321101251ADDAA199000091GA1021+009009059GF102991021051008001001001KA1120N+02411MA1999999100751MD1310161+9999REMSYN082AAXX  04064 60764 33558 20414 10249 20232 30075 40125 53016 82500 333 20241 82630;EQDQ01  00002PRCP99
0189607640999992000090409004+33690+008970FM-12+004699999V0200501N011812200019N0070001N1+02881+02111101241ADDAA199000091GA1011+009009059GF102991011051008001001021MA1999999100751MD1410001+9999REMSYN076AAXX  04094 60764 32557 20523 10288 20211 30075 40124 54000 81502 333 81630;EQDQ01  00002PRCP99
0189607640999992000090415004+33690+008970FM-12+004699999V0200401N011812200019N0080001N1+03341+02281100941ADDAA199000091GA1041+009009059GF104991041051008001001001MA1999999100461MD1710211+9999REMSYN076AAXX  04154 60764 32558 40423 10334 20228 30046 40094 57021 84500 333 84630;EQDQ01  00002PRCP99
0236607640999992000090418004+33690+008970FM-12+004699999V0200401N012912200019N0030001N1+03481+02351100841ADDAA199000091AY101061AY201061GA1031+009009059GF103991031051008001001001KA1120M+03491MA1999999100361MD1610101+9999MW1071REMSYN088AAXX  04184 60764 31530 30425 10348 20235 30036 40084 56010 70700 83500 333 10349 83630;EQDQ01  00002PRCP99
0208607640999992000090506004+33690+008970FM-12+004699999V0200301N013912200019N0100001N1+02421+02131101361ADDAA199000091GA1011+030009079GF101991011001999999081001KA1120N+02281MA1999999100861MD1110111+9999REMSYN082AAXX  05064 60764 33960 10327 10242 20213 30086 40136 51011 81080 333 20228 81360;EQDQ01  00002PRCP99
0217607640999992000090509004+33690+008970FM-12+004699999V0200401N015912200019N0020001N1+02791+02191101521ADDAA199000091AY101031AY201031GA1011+030009079GF102991011001999999081021MA1999999101031MD1210171+9999MW1071REMSYN082AAXX  05094 60764 31920 20431 10279 20219 30103 40152 52017 70700 81082 333 81360;EQDQ01  00002PRCP99
0229607640999992000090512004+33690+008970FM-12+004699999V0200501N011812200019N0030001N1+03191+02251101521ADDAA199000091AY101061AY201061GA1021+030009039GF104991021001999999081021MA1999999101031MD1410001+9999MW1071REMSYN094AAXX  05124 60764 31930 40523 10319 20225 30103 40152 54000 70700 82082 333 51421 82360 83070;EQDQ01  00002PRCP99
0189607640999992000090515004+33690+008970FM-12+004699999V0200501N008712200019N0070001N1+03251+02141101501ADDAA199000091GA1031+030009079GF104991031001012501081021MA1999999101011MD1610021+9999REMSYN076AAXX  05154 60764 32657 40517 10325 20214 30101 40150 56002 83082 333 83360;EQDQ01  00002PRCP99
0208607640999992000090518004+33690+008970FM-12+004699999V0200601N008212200019N0080001N1+02971+02131101541ADDAA199000091GA1011+030009079GF102991011001999999081021KA1120M+03331MA1999999101051MD1310041+9999REMSYN082AAXX  05184 60764 32958 20616 10297 20213 30105 40154 53004 81082 333 10333 81360;EQDQ01  00002PRCP99
0208607640999992000090606004+33690+008970FM-12+004699999V0200601N007212200019N0100001N1+02161+01641101941ADDAA199000091GA1021+009909059GF102991021051008001001001KA1120N+02101MA1999999101441MD1210181+9999REMSYN082AAXX  06064 60764 33560 20614 10216 20164 30144 40194 52018 82500 333 20210 82633;EQDQ01  00002PRCP99
0189607640999992000090609004+33690+008970FM-12+004699999V0200501N007212200019N0120001N1+02591+01401101981ADDAA199000091GA1021+060009019GF102991001001999999001021MA1999999101481MD1110041+9999REMSYN076AAXX  06094 60764 32962 20514 10259 20140 30148 40198 51004 80002 333 82070;EQDQ01  00002PRCP99
0195607640999992000090612004+33690+008970FM-12+004699999V0200401N005112200019N0150001N1+03001+01251101831ADDAA199000091GA1021+060009019GF102991001001999999001021MA1999999101341MD1810141+9999REMSYN082AAXX  06124 60764 32965 20410 10300 20125 30134 40183 58014 80002 333 51381 82070;EQDQ01  00002PRCP99
0189607640999992000090615004+33690+008970FM-12+004699999V0200301N003112200019N0150001N1+03101+01241101641ADDAA199000091GA1021+060009019GF102991001001999999001021MA1999999101151MD1710191+9999REMSYN076AAXX  06154 60764 32965 20306 10310 20124 30115 40164 57019 80002 333 82070;EQDQ01  00002PRCP99
0208607640999992000090618004+33690+008970FM-12+004699999V0200401N003112200019N0120001N1+02791+01521101661ADDAA199000091GA1021+060009019GF102991001001999999001021KA1120M+03191MA1999999101171MD1310021+9999REMSYN082AAXX  06184 60764 32962 20406 10279 20152 30117 40166 53002 80002 333 10319 82070;EQDQ01  00002PRCP99
0196607640999992000090706004+33690+008970FM-12+004699999V0200501N005112200019N0120001N1+02251+01671101621ADDAA199000091GA1001+999999999GF100991001001999999001001KA1999N+01831MA1999999101121MD1310051+9999REMSYN070AAXX  07064 60764 33962 00510 10225 20167 30112 40162 53005 333 20183;EQDQ01  00002PRCP99
0189607640999992000090709004+33690+008970FM-12+004699999V0201001N003112200019N0120001N1+02691+01741101661ADDAA199000091GA1031+060009019GF103991001001999999001021MA1999999101161MD1110041+9999REMSYN076AAXX  07094 60764 32962 31006 10269 20174 30116 40166 51004 80002 333 83070;EQDQ01  00002PRCP99
0196607640999992000090712004+33690+008970FM-12+004699999V0202401N002110600019N0150001N1+03111+01621101511ADDAA199000091GA1061+060009019GF106991001001999999001021MD1810141+9999REMSYN082AAXX  07124 60764 32965 62404 10311 20162 39102 40151 58014 80002 333 50861 86070;EQDQ01+091023APOSP Q02  00002PRCP99
0189607640999992000090715004+33690+008970FM-12+004699999V0202101N002110600019N0150001N1+03181+01651101271ADDAA199000091GA1051+060009019GF105991001001999999001021MA1999999100781MD1710241+9999REMSYN076AAXX  07154 60764 32965 52104 10318 20165 30078 40127 57024 80002 333 85070;EQDQ01  00002PRCP99
0208607640999992000090718004+33690+008970FM-12+004699999V0202501N003110600019N0120001N1+02841+01461101201ADDAA199000091GA1051+060009019GF105991001001999999001021KA1120M+03261MA1999999100711MD1610071+9999REMSYN082AAXX  07184 60764 32962 52506 10284 20146 30071 40120 56007 80002 333 10326 85070;EQDQ01  00002PRCP99
0214607640999992000090806004+33690+008970FM-12+004699999V0201401N002112200019N0080001N1+02071+01611101001ADDAA199000091GA1011+009909069GF103991011051012501001021KA1120N+01971MA1999999100501MD1510021+9999REMSYN088AAXX  08064 60764 33658 31404 10207 20161 30050 40100 55002 81502 333 20197 81633 83070;EQDQ01  00002PRCP99
0189607640999992000090809004+33690+008970FM-12+004699999V0200601N003112200019N0100001N1+02951+01591101091ADDAA199000091GA1031+060009019GF103991001001999999001021MA1999999100601MD1310101+9999REMSYN076AAXX  08094 60764 32960 30606 10295 20159 30060 40109 53010 80002 333 83070;EQDQ01  00002PRCP99
0195607640999992000090812004+33690+008970FM-12+004699999V0203401N002112200019N0150001N1+03261+01611100891ADDAA199000091GA1021+060009019GF102991001001999999001021MA1999999100411MD1810191+9999REMSYN082AAXX  08124 60764 32965 23404 10326 20161 30041 40089 58019 80002 333 50721 82070;EQDQ01  00002PRCP99
0189607640999992000090815004+33690+008970FM-12+004699999V0203101N001010099019N0150001N1+03301+01611100781ADDAA199000091GA1051+009909059GF106991051051008001081001MA1999999100301MD1710171+9999REMSYN076AAXX  08154 60764 32565 63102 10330 20161 30030 40078 57017 85580 333 85633;EQDQ01  00002PRCP99
0214607640999992000090818004+33690+008970FM-12+004699999V0202901N00211036001CN0120001N1+02951+01501100751ADDAA199000091GA1041+009909069GF106991041051008001081001KA1120M+03411MA1999999100171MD1610031+9999REMSYN088AAXX  08184 60764 32562 62904 10295 20150 30017 40075 56003 84580 333 10341 84633 83360;EQDQ01  00002PRCP99
0208607640999992000090906004+33690+008970FM-12+004699999V0200701N002112200019N0080001N1+02211+01711101521ADDAA199000091GA1021+009009029GF102991021021008001001001KA1120N+02161MA1999999101021MD1310101+9999REMSYN082AAXX  09064 60764 33558 20704 10221 20171 30102 40152 53010 82200 333 20216 82830;EQDQ01  00002PRCP99
0189607640999992000090909004+33690+008970FM-12+004699999V0200201N005112200019N0100001N1+02681+01731101621ADDAA199000091GA1011+009009029GF101991011021008001001001MA1999999101121MD1210101+9999REMSYN076AAXX  09094 60764 32560 10210 10268 20173 30112 40162 52010 81200 333 81830;EQDQ01  00002PRCP99
0189607640999992000090915004+33690+008970FM-12+004699999V0203201N003110090019N0150001N1+03181+01911101461ADDAA199000091GA1051+009009029GF105991051021008001001001MA1999999100971MD1710121+9999REMSYN076AAXX  09154 60764 32565 53206 10318 20191 30097 40146 57012 85200 333 85830;EQDQ01  00002PRCP99
0208607640999992000090918004+33690+008970FM-12+004699999V0203401N002110090019N0120001N1+02831+01671101531ADDAA199000091GA1051+009009029GF105991051021008001001001KA1120M+03251MA1999999101041MD1310071+9999REMSYN082AAXX  09184 60764 32562 53404 10283 20167 30104 40153 53007 85200 333 10325 85830;EQDQ01  00002PRCP99
0208607640999992000091006004+33690+008970FM-12+004699999V0200901N001012200019N0100001N1+02001+01441101841ADDAA199000091GA1021+060009019GF102991001001999999001021KA1120N+01951MA1999999101341MD1310121+9999REMSYN082AAXX  10064 60764 33960 20902 10200 20144 30134 40184 53012 80002 333 20195 82070;EQDQ01  00002PRCP99
0189607640999992000091009004+33690+008970FM-12+004699999V0200401N002112200019N0150001N1+02671+01461102011ADDAA199000091GA1021+060009019GF102991001001999999001021MA1999999101511MD1210171+9999REMSYN076AAXX  10094 60764 32965 20404 10267 20146 30151 40201 52017 80002 333 82070;EQDQ01  00002PRCP99
0195607640999992000091012004+33690+008970FM-12+004699999V0202101N002112200019N0150001N1+02931+01521101851ADDAA199000091GA1021+009009029GF102991021021008001001001MA1999999101361MD1810151+9999REMSYN082AAXX  10124 60764 32565 22104 10293 20152 30136 40185 58015 82200 333 50921 82830;EQDQ01  00002PRCP99
0189607640999992000091015004+33690+008970FM-12+004699999V0203401N003112200019N0150001N1+03101+01441101651ADDAA199000091GA1011+009009029GF101991011021008001001001MA1999999101161MD1710201+9999REMSYN076AAXX  10154 60764 32565 13406 10310 20144 30116 40165 57020 81200 333 81830;EQDQ01  00002PRCP99
0208607640999992000091018004+33690+008970FM-12+004699999V0203201N002112200019N0120001N1+02851+01721101571ADDAA199000091GA1011+009009029GF101991011021008001001001KA1120M+03131MA1999999101081MD1610081+9999REMSYN082AAXX  10184 60764 32562 13204 10285 20172 30108 40157 56008 81200 333 10313 81830;EQDQ01  00002PRCP99
0196607640999992000091106004+33690+008970FM-12+004699999V0209999C000012200019N0080001N1+01841+01451101701ADDAA199000091GA1001+999999999GF100991001001999999001001KA1999N+01771MA1999999101191MD1310081+9999REMSYN070AAXX  11064 60764 33958 00000 10184 20145 30119 40170 53008 333 20177;EQDQ01  00002PRCP99
0173607640999992000091109004+33690+008970FM-12+004699999V0201501N002112200019N0100001N1+02651+01801101831ADDAA199000091GA1001+999999999GF100991001001999999001001MA1999999101331MD1210141+9999REMSYN060AAXX  11094 60764 32960 01504 10265 20180 30133 40183 52014;EQDQ01  00002PRCP99
0183607640999992000091112004+33690+008970FM-12+004699999V0201601N001012200019N0150001N1+03121+01871101651ADDAA199000091GA1001+999999999GF100991001001999999001001MA1999999101161MD1810171+9999REMSYN070AAXX  11124 60764 32965 01602 10312 20187 30116 40165 58017 333 50771;EQDQ01  00002PRCP99
0173607640999992000091115004+33690+008970FM-12+004699999V0202901N003112200019N0150001N1+03241+01721101351ADDAA199000091GA1001+999999999GF100991001001999999001001MA1999999100861MD1710301+9999REMSYN060AAXX  11154 60764 32965 02906 10324 20172 30086 40135 57030;EQDQ01  00002PRCP99
0196607640999992000091206004+33690+008970FM-12+004699999V0209999C000012200019N0080001N1+02091+01601101481ADDAA199000091GA1001+999999999GF100991001001999999001001KA1999N+01941MA1999999100971MD1210071+9999REMSYN070AAXX  12064 60764 33958 00000 10209 20160 30097 40148 52007 333 20194;EQDQ01  00002PRCP99
0173607640999992000091209004+33690+008970FM-12+004699999V0201501N002112200019N0120001N1+02811+01571101551ADDAA199000091GA1001+999999999GF100991001001999999001001MA1999999101061MD1110091+9999REMSYN060AAXX  12094 60764 32962 01504 10281 20157 30106 40155 51009;EQDQ01  00002PRCP99
0183607640999992000091212004+33690+008970FM-12+004699999V0203301N001012200019N0150001N1+03321+01631101441ADDAA199000091GA1001+999999999GF100991001001999999001001MA1999999100951MD1810111+9999REMSYN070AAXX  12124 60764 32965 03302 10332 20163 30095 40144 58011 333 50641;EQDQ01  00002PRCP99
0208607640999992000091306004+33690+008970FM-12+004699999V0200401N005112200019N0100001N1+02381+02061101401ADDAA199000091GA1021+060009019GF102991001001999999001021KA1120N+02181MA1999999100901MD1310091+9999REMSYN082AAXX  13064 60764 32960 20410 10238 20206 30090 40140 53009 80002 333 20218 82070;EQDQ01  00002PRCP99
0189607640999992000091309004+33690+008970FM-12+004699999V0201501N002112200019N0100001N1+03011+01571101511ADDAA199000091GA1021+060009019GF102991001001999999001021MA1999999101021MD1210121+9999REMSYN076AAXX  13094 60764 32960 21504 10301 20157 30102 40151 52012 80002 333 82070;EQDQ01  00002PRCP99
0183607640999992000091312004+33690+008970FM-12+004699999V0202001N002112200019N0150001N1+03481+01421101391ADDAA199000091GA1001+999999999GF100991001001999999001001MA1999999100911MD1810111+9999REMSYN070AAXX  13124 60764 32965 02004 10348 20142 30091 40139 58011 333 50701;EQDQ01  00002PRCP99
0208607640999992000091318004+33690+008970FM-12+004699999V0201701N001012200019N0120001N1+03251+01121101151ADDAA199000091GA1011+009009029GF102991011021008001001021KA1120M+03671MA1999999100671MD1610051+9999REMSYN082AAXX  13184 60764 32562 21702 10325 20112 30067 40115 56005 81202 333 10367 81830;EQDQ01  00002PRCP99
0208607640999992000091406004+33690+008970FM-12+004699999V0200301N007212200019N0080001N1+02401+02241101541ADDAA199000091GA1041+009909059GF104991041051008001001001KA1120N+02291MA1999999101041MD1310161+9999REMSYN082AAXX  14064 60764 33558 40314 10240 20224 30104 40154 53016 84500 333 20229 84633;EQDQ01  00002PRCP99
0189607640999992000091409004+33690+008970FM-12+004699999V0200401N005112200019N0100001N1+02891+02091101661ADDAA199000091GA1021+009909059GF103991021051008001081001MA1999999101171MD1110131+9999REMSYN076AAXX  14094 60764 32560 30410 10289 20209 30117 40166 51013 82580 333 82633;EQDQ01  00002PRCP99
0195607640999992000091412004+33690+008970FM-12+004699999V0201301N001012200019N0150001N1+03381+01731101591ADDAA199000091GA1021+030009079GF102991021001999999081001MA1999999101111MD1810061+9999REMSYN082AAXX  14124 60764 32965 21302 10338 20173 30111 40159 58006 82080 333 50661 82360;EQDQ01  00002PRCP99
0195607640999992000091415004+33690+008970FM-12+004699999V0202401N001012200019N0150001N1+03511+01451101401ADDAA199000091GA1011+009009089GF103991011021008001001021MA1999999100921MD1710191+9999REMSYN082AAXX  14154 60764 32565 32402 10351 20145 30092 40140 57019 81202 333 81830 83070;EQDQ01  00002PRCP99
0214607640999992000091418004+33690+008970FM-12+004699999V0200401N006212200019N0100001N1+03221+01631101351ADDAA199000091GA1011+009009089GF104991011021008001001021KA1120M+03631MA1999999100871MD1610051+9999REMSYN088AAXX  14184 60764 32560 40412 10322 20163 30087 40135 56005 81202 333 10363 81830 84070;EQDQ01  00002PRCP99
0196607640999992000091506004+33690+008970FM-12+004699999V0200301N008212200019N0150001N1+02331+02161101651ADDAA199000091GA1001+999999999GF100991001001999999001001KA1999N+02251MA1999999101151MD1310121+9999REMSYN070AAXX  15064 60764 33965 00316 10233 20216 30115 40165 53012 333 20225;EQDQ01  00002PRCP99
0189607640999992000091509004+33690+008970FM-12+004699999V0200401N007212200019N0100001N1+02871+02161101801ADDAA199000091GA1021+060009019GF102991001001999999001021MA1999999101311MD1210161+9999REMSYN076AAXX  15094 60764 32960 20414 10287 20216 30131 40180 52016 80002 333 82070;EQDQ01  00002PRCP99
0189607640999992000091515004+33690+008970FM-12+004699999V0200501N003112200019N0150001N1+03561+01751101511ADDAA199000091GA1011+009009029GF101991011021008001001001MA1999999101031MD1710181+9999REMSYN076AAXX  15154 60764 32565 10506 10356 20175 30103 40151 57018 81200 333 81830;EQDQ01  00002PRCP99
0208607640999992000091518004+33690+008970FM-12+004699999V0200501N004112200019N0120001N1+03201+01821101541ADDAA199000091GA1011+009009029GF101991011021008001001001KA1120M+03581MA1999999101061MD1310031+9999REMSYN082AAXX  15184 60764 32562 10508 10320 20182 30106 40154 53003 81200 333 10358 81830;EQDQ01  00002PRCP99
0196607640999992000091606004+33690+008970FM-12+004699999V0200301N002112200019N0070001N1+02421+02101101741ADDAA199000091GA1001+999999999GF100991001001999999001001KA1999N+02331MA1999999101241MD1410001+9999REMSYN070AAXX  16064 60764 33957 00304 10242 20210 30124 40174 54000 333 20233;EQDQ01  00002PRCP99
0173607640999992000091609004+33690+008970FM-12+004699999V0209999C000012200019N0080001N1+03031+01951101841ADDAA199000091GA1001+999999999GF100991001001999999001001MA1999999101351MD1210111+9999REMSYN060AAXX  16094 60764 32958 00000 10303 20195 30135 40184 52011;EQDQ01  00002PRCP99
0183607640999992000091612004+33690+008970FM-12+004699999V0202401N002112200019N0150001N1+03431+01531101691ADDAA199000091GA1001+999999999GF100991001001999999001001MA1999999101211MD1810141+9999REMSYN070AAXX  16124 60764 32965 02404 10343 20153 30121 40169 58014 333 50911;EQDQ01  00002PRCP99
0173607640999992000091615004+33690+008970FM-12+004699999V0202701N004112200019N0150001N1+03591+01141101461ADDAA199000091GA1001+999999999GF100991001001999999001001MA1999999100981MD1710231+9999REMSYN060AAXX  16154 60764 32965 02708 10359 20114 30098 40146 57023;EQDQ01  00002PRCP99
0196607640999992000091618004+33690+008970FM-12+004699999V0202401N003112200019N0120001N1+03241+01611101401ADDAA199000091GA1001+999999999GF100991001001999999001001KA1999M+03621MA1999999100921MD1610061+9999REMSYN070AAXX  16184 60764 32962 02406 10324 20161 30092 40140 56006 333 10362;EQDQ01  00002PRCP99
0196607640999992000091706004+33690+008970FM-12+004699999V0209999C000012200019N0100001N1+02191+01671101501ADDAA199000091GA1001+999999999GF100991001001999999001001KA1999N+02121MA1999999101001MD1310061+9999REMSYN070AAXX  17064 60764 32960 00000 10219 20167 30100 40150 53006 333 20212;EQDQ01  00002PRCP99
0173607640999992000091709004+33690+008970FM-12+004699999V0202001N001012200019N0150001N1+02951+01781101591ADDAA199000091GA1001+999999999GF100991001001999999001001MA1999999101101MD1210101+9999REMSYN060AAXX  17094 60764 32965 02002 10295 20178 30110 40159 52010;EQDQ01  00002PRCP99
0183607640999992000091712004+33690+008970FM-12+004699999V0202301N004112200019N0150001N1+03531+01241101421ADDAA199000091GA1001+999999999GF100991001001999999001001MA1999999100941MD1810161+9999REMSYN070AAXX  17124 60764 32965 02308 10353 20124 30094 40142 58016 333 50831;EQDQ01  00002PRCP99
0189607640999992000091715004+33690+008970FM-12+004699999V0202601N006212200019N0150001N1+03791+00801101151ADDAA199000091GA1011+009009029GF101991011021008001001001MA1999999100671MD1710271+9999REMSYN076AAXX  17154 60764 32565 12612 10379 20080 30067 40115 57027 81200 333 81830;EQDQ01  00002PRCP99
0208607640999992000091718004+33690+008970FM-12+004699999V0202501N004112200019N0120001N1+03441+00781101061ADDAA199000091GA1011+009009029GF101991011021008001001001KA1120M+03881MA1999999100581MD1610091+9999REMSYN082AAXX  17184 60764 32562 12508 10344 20078 30058 40106 56009 81200 333 10388 81830;EQDQ01  00002PRCP99
0196607640999992000091806004+33690+008970FM-12+004699999V0201401N001012200019N0080001N1+02101+01461101311ADDAA199000091GA1001+999999999GF100991001001999999001001KA1999N+01771MA1999999100801MD1510041+9999REMSYN070AAXX  18064 60764 33958 01402 10210 20146 30080 40131 55004 333 20177;EQDQ01  00002PRCP99
0189607640999992000091809004+33690+008970FM-12+004699999V0202301N002112200019N0100001N1+03141+01111101401ADDAA199000091GA1031+060009019GF103991001001999999001021MA1999999100911MD1210111+9999REMSYN076AAXX  18094 60764 32960 32304 10314 20111 30091 40140 52011 80002 333 83070;EQDQ01  00002PRCP99
0195607640999992000091812004+33690+008970FM-12+004699999V0202201N005112200019N0150001N1+03771+00661101241ADDAA199000091GA1021+060009019GF102991001001999999021999MA1999999100761MD1810151+9999REMSYN082AAXX  18124 60764 32965 22210 10377 20066 30076 40124 58015 8002/ 333 50981 82070;EQDQ01  00002PRCP99
0189607640999992000091815004+33690+008970FM-12+004699999V0202001N005112200019N0120001N1+04001+00331100961ADDAA199000091GA1021+060009019GF102991001001999999001021MA1999999100491MD1710271+9999REMSYN076AAXX  18154 60764 32962 22010 10400 20033 30049 40096 57027 80002 333 82070;EQDQ01  00002PRCP99
0208607640999992000091818004+33690+008970FM-12+004699999V0201901N003112200019N0080001N1+03551+00131100861ADDAA199000091GA1021+060009019GF102991001001999999001021KA1120M+04081MA1999999100381MD1610111+9999REMSYN082AAXX  18184 60764 32958 21906 10355 20013 30038 40086 56011 80002 333 10408 82070;EQDQ01  00002PRCP99
0208607640999992000091906004+33690+008970FM-12+004699999V0201201N005112200019N0100001N1+02401+01031101061ADDAA199000091GA1021+060009019GF102991001001999999001021KA1120N+02161MA1999999100561MD1310071+9999REMSYN082AAXX  19064 60764 33960 21210 10240 20103 30056 40106 53007 80002 333 20216 82070;EQDQ01  00002PRCP99
0173607640999992000091909004+33690+008970FM-12+004699999V0201401N004112200019N0100001N1+03401+01151101151ADDAA199000091GA1001+999999999GF100991001001999999001001MA1999999100671MD1210111+9999REMSYN060AAXX  19094 60764 32960 01408 10340 20115 30067 40115 52011;EQDQ01  00002PRCP99
0183607640999992000091912004+33690+008970FM-12+004699999V0201801N008212200019N0080001N1+03971+00371100991ADDAA199000091GA1001+999999999GF100991001001999999001001MA1999999100521MD1810151+9999REMSYN070AAXX  19124 60764 32958 01816 10397 20037 30052 40099 58015 333 51051;EQDQ01  00002PRCP99
0189607640999992000091915004+33690+008970FM-12+004699999V0201501N008712200019N0060001N1+04011+00271100791ADDAA199000091GA1011+030009079GF101991011001999999081001MA1999999100321MD1710201+9999REMSYN076AAXX  19154 60764 32956 11517 10401 20027 30032 40079 57020 81080 333 81360;EQDQ01  00002PRCP99
0224607640999992000091918004+33690+008970FM-12+004699999V0201401N006212200019N0060001N1+03601+02052100751ADDAA199000091GA1011+030009079GF101991011001999999081001KA1120M+04151MA1999999100271MD1610051+9999REMSYN082AAXX  19184 60764 32956 11412 10360 20205 30027 40075 56005 81080 333 10415 81360;EQDQ01+002053ATOD  Q02  00002PRCP99
0214607640999992000092006004+33690+008970FM-12+004699999V0201201N006212200019N0070001N1+02711+01481100801ADDAA199000091GA1011+009909069GF103991011051012501081001KA1120N+02501MA1999999100311MD1310071+9999REMSYN088AAXX  20064 60764 33657 31212 10271 20148 30031 40080 53007 81580 333 20250 81633 83360;EQDQ01  00002PRCP99
0195607640999992000092009004+33690+008970FM-12+004699999V0201401N00721036001CN0080001N1+03291+01081100821ADDAA199000091GA1021+009909069GF106991021051012501081001MA1999999100341MD1110031+9999REMSYN082AAXX  20094 60764 32658 61414 10329 20108 30034 40082 51003 82580 333 82633 85360;EQDQ01  00002PRCP99
0201607640999992000092012004+33690+008970FM-12+004699999V0201601N004119999999N0100001N1+03941+00251100761ADDAA199000091GA1021+030009039GF105991021001999999081021MA1999999100291MD1610051+9999REMSYN088AAXX  20124 60764 32960 51608 10394 20025 30029 40076 56005 82082 333 51611 82360 84070;EQDQ01  00002PRCP99
0195607640999992000092015004+33690+008970FM-12+004699999V0201801N007219999999N0080001N1+04251+99999100561ADDAA199000091GA1031+030009039GF106991031001999999081021MA1999999100091MD1710201+9999REMSYN082AAXX  20154 60764 32958 61814 10425 2//// 30009 40056 57020 83082 333 83360 84070;EQDQ01  00002PRCP99
0214607640999992000092018004+33690+008970FM-12+004699999V0201901N003119999999N0060001N1+03861+00061100521ADDAA199000091GA1021+030009039GF105991021001999999081021KA1120M+04271MA1999999100051MD1610041+9999REMSYN088AAXX  20184 60764 32956 51906 10386 20006 30005 40052 56004 82082 333 10427 82360 84070;EQDQ01  00002PRCP99
0208607640999992000092106004+33690+008970FM-12+004699999V0200401N014912200019N0010001N1+02401+02241101451ADDAA199000091GA1001+999999999GF100991001001999999001001KA1999N+02261MA1999999100951MD1210301+9999MW1071REMSYN076AAXX  21064 60764 31910 00429 10240 20224 30095 40145 52030 707// 333 20226;EQDQ01  00002PRCP99
0173607640999992000092109004+33690+008970FM-12+004699999V0200501N015912200019N0020001N1+02751+01971101651ADDAA199000091GA1001+999999999GF100991001001999999001001MA1999999101161MD1210211+9999REMSYN060AAXX  21094 60764 31920 00531 10275 20197 30116 40165 52021;EQDQ01  00002PRCP99
0183607640999992000092112004+33690+008970FM-12+004699999V0200601N008712200019N0070001N1+03131+01881101651ADDAA199000091GA1001+999999999GF100991001001999999001001MA1999999101161MD1410001+9999REMSYN070AAXX  21124 60764 32957 00617 10313 20188 30116 40165 54000 333 51541;EQDQ01  00002PRCP99
0173607640999992000092115004+33690+008970FM-12+004699999V0200501N005112200019N0150001N1+03241+01871101551ADDAA199000091GA1001+999999999GF100991001001999999001001MA1999999101061MD1810101+9999REMSYN060AAXX  21154 60764 32965 00510 10324 20187 30106 40155 58010;EQDQ01  00002PRCP99
0196607640999992000092118004+33690+008970FM-12+004699999V0200901N006212200019N0120001N1+02921+01821101581ADDAA199000091GA1001+999999999GF100991001001999999001001KA1999M+03321MA1999999101091MD1310031+9999REMSYN070AAXX  21184 60764 32962 00912 10292 20182 30109 40158 53003 333 10332;EQDQ01  00002PRCP99
0196607640999992000092206004+33690+008970FM-12+004699999V0200401N007212200019N0100001N1+02201+02011101901ADDAA199000091GA1001+999999999GF100991001001999999001001KA1999N+02091MA1999999101401MD1210121+9999REMSYN070AAXX  22064 60764 33960 00414 10220 20201 30140 40190 52012 333 20209;EQDQ01  00002PRCP99
0173607640999992000092209004+33690+008970FM-12+004699999V0200501N005112200019N0120001N1+02601+01821102031ADDAA199000091GA1001+999999999GF100991001001999999001001MA1999999101531MD1110131+9999REMSYN060AAXX  22094 60764 32962 00510 10260 20182 30153 40203 51013;EQDQ01  00002PRCP99
0183607640999992000092212004+33690+008970FM-12+004699999V0202601N001012200019N0150001N1+03041+01991101841ADDAA199000091GA1001+999999999GF100991001001999999001001MA1999999101351MD1810181+9999REMSYN070AAXX  22124 60764 32965 02602 10304 20199 30135 40184 58018 333 51081;EQDQ01  00002PRCP99
0173607640999992000092215004+33690+008970FM-12+004699999V0202401N002112200019N0150001N1+03251+01961101671ADDAA199000091GA1001+999999999GF100991001001999999001001MA1999999101181MD1710171+9999REMSYN060AAXX  22154 60764 32965 02404 10325 20196 30118 40167 57017;EQDQ01  00002PRCP99
0196607640999992000092218004+33690+008970FM-12+004699999V0202201N001012200019N0100001N1+02901+01891101731ADDAA199000091GA1001+999999999GF100991001001999999001001KA1999M+03331MA1999999101241MD1310061+9999REMSYN070AAXX  22184 60764 32960 02202 10290 20189 30124 40173 53006 333 10333;EQDQ01  00002PRCP99
0196607640999992000092306004+33690+008970FM-12+004699999V0200501N005112200019N0080001N1+02131+01941101751ADDAA199000091GA1001+999999999GF100991001001999999001001KA1999N+02061MA1999999101251MD1310071+9999REMSYN070AAXX  23064 60764 33958 00510 10213 20194 30125 40175 53007 333 20206;EQDQ01  00002PRCP99
0173607640999992000092309004+33690+008970FM-12+004699999V0200801N004112200019N0120001N1+02641+01731101831ADDAA199000091GA1001+999999999GF100991001001999999001001MA1999999101331MD1110081+9999REMSYN060AAXX  23094 60764 32962 00808 10264 20173 30133 40183 51008;EQDQ01  00002PRCP99
0183607640999992000092312004+33690+008970FM-12+004699999V0201801N001012200019N0150001N1+03201+01701101691ADDAA199000091GA1001+999999999GF100991001001999999001001MA1999999101201MD1810131+9999REMSYN070AAXX  23124 60764 32965 01802 10320 20170 30120 40169 58013 333 50671;EQDQ01  00002PRCP99
0208607640999992000092406004+33690+008970FM-12+004699999V0200501N006212200019N0070001N1+02281+02021101691ADDAA199000091GA1021+060009019GF102991001001999999001021KA1120N+02251MA1999999101191MD1310141+9999REMSYN082AAXX  24064 60764 33957 20512 10228 20202 30119 40169 53014 80002 333 20225 82070;EQDQ01  00002PRCP99
0189607640999992000092409004+33690+008970FM-12+004699999V0200401N005112200019N0120001N1+02701+01921101871ADDAA199000091GA1031+060009019GF103991001001999999001021MA1999999101371MD1210181+9999REMSYN076AAXX  24094 60764 32962 30410 10270 20192 30137 40187 52018 80002 333 83070;EQDQ01  00002PRCP99
0195607640999992000092412004+33690+008970FM-12+004699999V0201201N002112200019N0150001N1+03311+01891101761ADDAA199000091GA1031+060009019GF103991001001999999001021MA1999999101271MD1810101+9999REMSYN082AAXX  24124 60764 32965 31204 10331 20189 30127 40176 58010 80002 333 50761 83070;EQDQ01  00002PRCP99
0195607640999992000092415004+33690+008970FM-12+004699999V0200801N00211036001CN0150001N1+03501+01821101591ADDAA199000091GA1021+009909069GF105991021051012501081001MA1999999101111MD1710161+9999REMSYN082AAXX  24154 60764 32665 50804 10350 20182 30111 40159 57016 82580 333 82633 84360;EQDQ01  00002PRCP99
0214607640999992000092418004+33690+008970FM-12+004699999V0200501N00311036001CN0100001N1+03261+01701101651ADDAA199000091GA1031+009909069GF105991031051012501081001KA1120M+03591MA1999999101161MD1310051+9999REMSYN088AAXX  24184 60764 32660 50506 10326 20170 30116 40165 53005 83580 333 10359 83633 83360;EQDQ01  00002PRCP99
0208607640999992000092506004+33690+008970FM-12+004699999V0200401N007212200019N0100001N1+02301+02111101891ADDAA199000091GA1021+009009059GF103991021051008001081001KA1120N+02271MA1999999101391MD1310101+9999REMSYN082AAXX  25064 60764 33560 30414 10230 20211 30139 40189 53010 82580 333 20227 82630;EQDQ01  00002PRCP99
0189607640999992000092515004+33690+008970FM-12+004699999V0203201N001010090019N0120001N1+03531+01731101651ADDAA199000091GA1051+009009059GF105991051051008001001001MA1999999101171MD1710191+9999REMSYN076AAXX  25154 60764 32562 53202 10353 20173 30117 40165 57019 85500 333 85630;EQDQ01  00002PRCP99
0214607640999992000092518004+33690+008970FM-12+004699999V0203401N00211090001CN0060001N1+03291+01821101771ADDAA199000091GA1031+009009069GF105991031051012501001021KA1120M+03611MA1999999101291MD1310121+9999REMSYN088AAXX  25184 60764 32656 53404 10329 20182 30129 40177 53012 83502 333 10361 83630 83070;EQDQ01  00002PRCP99
0214607640999992000092606004+33690+008970FM-12+004699999V0200301N011812200019N0060001N1+02141+02001101941ADDAA199000091GA1021+009009069GF104991021051008001001021KA1120N+02101MA1999999101431MD1310061+9999REMSYN088AAXX  26064 60764 33556 40323 10214 20200 30143 40194 53006 82502 333 20210 82630 83070;EQDQ01  00002PRCP99
0195607640999992000092609004+33690+008970FM-12+004699999V0200601N008712200019N0080001N1+02621+02081102121ADDAA199000091GA1011+009009089GF103991011021008001001021MA1999999101621MD1210191+9999REMSYN082AAXX  26094 60764 32558 30617 10262 20208 30162 40212 52019 81202 333 81830 83070;EQDQ01  00002PRCP99
0195607640999992000092612004+33690+008970FM-12+004699999V0200501N008212200019N0100001N1+02991+02001101961ADDAA199000091GA1021+009009029GF103991021021008001001021MA1999999101471MD1810151+9999REMSYN082AAXX  26124 60764 32560 30516 10299 20200 30147 40196 58015 82202 333 50871 82830;EQDQ01  00002PRCP99
0208607640999992000092706004+33690+008970FM-12+004699999V0201001N002112200019N0080001N1+02071+01751101921ADDAA199000091GA1031+060009019GF103991001001999999001021KA1120N+02021MA1999999101421MD1210111+9999REMSYN082AAXX  27064 60764 33958 31004 10207 20175 30142 40192 52011 80002 333 20202 83070;EQDQ01  00002PRCP99
0201607640999992000092712004+33690+008970FM-12+004699999V0200901N005112200019N0150001N1+03001+01971101811ADDAA199000091GA1011+009009089GF103991011021008001081001MA1999999101321MD1810181+9999REMSYN088AAXX  27124 60764 32565 30910 10300 20197 30132 40181 58018 81280 333 50921 81830 83360;EQDQ01  00002PRCP99
0195607640999992000092715004+33690+008970FM-12+004699999V0201501N002112200019N0150001N1+03161+01861101671ADDAA199000091GA1011+009009089GF104991011021008001081001MA1999999101191MD1710141+9999REMSYN082AAXX  27154 60764 32565 41504 10316 20186 30119 40167 57014 81280 333 81830 84360;EQDQ01  00002PRCP99
0214607640999992000092718004+33690+008970FM-12+004699999V0201201N001012200019N0100001N1+02881+01741101631ADDAA199000091GA1021+009009089GF104991021021008001081001KA1120M+03181MA1999999101141MD1610031+9999REMSYN088AAXX  27184 60764 32560 41202 10288 20174 30114 40163 56003 82280 333 10318 82830 83360;EQDQ01  00002PRCP99
0208607640999992000092806004+33690+008970FM-12+004699999V0201101N001010090019N0100001N1+02081+01731101701ADDAA199000091GA1051+009009059GF105991051051012501001001KA1120N+01971MA1999999101191MD1310051+9999REMSYN082AAXX  28064 60764 33660 51102 10208 20173 30119 40170 53005 85500 333 20197 85630;EQDQ01  00002PRCP99
0189607640999992000092809004+33690+008970FM-12+004699999V0200601N002110099019N0120001N1+02601+01741101771ADDAA199000091GA1051+009909059GF105991051051012501001001MA1999999101291MD1210101+9999REMSYN076AAXX  28094 60764 32662 50604 10260 20174 30129 40177 52010 85500 333 85633;EQDQ01  00002PRCP99
0200607640999992000092812004+33690+008970FM-12+004699999V0200901N00311012001CN0120001N1+02881+01741101561ADDAA199000091GA1021+009009089GF107991071081008001999999MA1999999101071MD1710221+9999REMSYN087AAXX  28124 60764 3256270906 10288 20174 30107 40156 57022 878// 333 50711 82830 86633;EQDQ01  00002PRCP99
0208607640999992000092906004+33690+008970FM-12+004699999V0200401N008210099019N0080001N1+02061+01811100731ADDAA199000091GA1051+009909059GF106991051051012501001021KA1120N+01991MA1999999100231MD1710141+9999REMSYN082AAXX  29064 60764 33658 60416 10206 20181 30023 40073 57014 85502 333 20199 85633;EQDQ01  00002PRCP99
0195607640999992000092909004+33690+008970FM-12+004699999V0201001N008712200019N0100001N1+02831+01291100721ADDAA199000091GA1011+009909069GF104991011051012501001021MA1999999100231MD1410001+9999REMSYN082AAXX  29094 60764 32660 41017 10283 20129 30023 40072 54000 81502 333 81633 84070;EQDQ01  00002PRCP99
0195607640999992000092912004+33690+008970FM-12+004699999V0201101N007212200019N0150001N1+03241+01541100521ADDAA199000091GA1031+060009019GF103991001001999999001021MA1999999100041MD1810191+9999REMSYN082AAXX  29124 60764 32965 31114 10324 20154 30004 40052 58019 80002 333 50661 83070;EQDQ01  00002PRCP99
0189607640999992000092915004+33690+008970FM-12+004699999V0202201N004110090019N0120001N1+03351+01301100331ADDAA199000091GA1051+009009059GF105991051051012501001001MA1999999099851MD1710191+9999REMSYN076AAXX  29154 60764 32662 52208 10335 20130 39985 40033 57019 85500 333 85630;EQDQ01  00002PRCP99
0214607640999992000093006004+33690+008970FM-12+004699999V0209999C000012200019N0100001N1+01981+01581100551ADDAA199000091GA1021+009009069GF104991021051008001081001KA1120N+01901MA1999999100051MD1410001+9999REMSYN088AAXX  30064 60764 33560 40000 10198 20158 30005 40055 54000 82580 333 20190 82630 83360;EQDQ01  00002PRCP99
0189607640999992000093009004+33690+008970FM-12+004699999V0203001N001012200019N0120001N1+02651+01681100731ADDAA199000091GA1041+030009079GF104991041001999999081021MA1999999100241MD1210191+9999REMSYN076AAXX  30094 60764 32962 43002 10265 20168 30024 40073 52019 84082 333 84360;EQDQ01  00002PRCP99
0208607640999992000100106004+33690+008970FM-12+004699999V0202101N001010900019N0100001N1+01881+01471101021ADDAA199000091GA1041+009009059GF105991041051008001001021KA1120N+01831MA1999999100511MD1110081+9999REMSYN082AAXX  01064 60764 33560 52102 10188 20147 30051 40102 51008 84502 333 20183 84630;EQDQ01  00002PRCP99
0195607640999992000100109004+33690+008970FM-12+004699999V0202601N005112200019N0120001N1+02261+01511101171ADDAA199000091GA1011+007809089GF103991031081008001001021MA1999999100671MD1210161+9999REMSYN082AAXX  01094 60764 32562 32610 10226 20151 30067 40117 52016 83802 333 81826 83630;EQDQ01  00002PRCP99
0195607640999992000100112004+33690+008970FM-12+004699999V0202501N007212200019N0120001N1+02731+01511101121ADDAA199000091GA1031+009009059GF103991031051008001001021MA1999999100631MD1810041+9999REMSYN082AAXX  01124 60764 32562 32514 10273 20151 30063 40112 58004 83502 333 50801 83630;EQDQ01  00002PRCP99
0208607640999992000100206004+33690+008970FM-12+004699999V0200801N001012200019N0080001N1+01371+00791101421ADDAA199000091GA1021+060009019GF102991001001999999001021KA1120N+01301MA1999999100911MD1310101+9999REMSYN082AAXX  02064 60764 33958 20802 10137 20079 30091 40142 53010 80002 333 20130 82070;EQDQ01  00002PRCP99
0189607640999992000100209004+33690+008970FM-12+004699999V0202601N006212200019N0080001N1+02111+01231101481ADDAA199000091GA1021+060009019GF102991001001999999001021MA1999999100971MD1810021+9999REMSYN076AAXX  02094 60764 32958 22612 10211 20123 30097 40148 58002 80002 333 82070;EQDQ01  00002PRCP99
0195607640999992000100212004+33690+008970FM-12+004699999V0203001N008212200019N0120001N1+02541+01291101441ADDAA199000091GA1011+009009029GF101991011021008001001001MA1999999100941MD1810031+9999REMSYN082AAXX  02124 60764 32562 13016 10254 20129 30094 40144 58003 81200 333 50771 81830;EQDQ01  00002PRCP99
0189607640999992000100215004+33690+008970FM-12+004699999V0202601N007212200019N0120001N1+02671+01321101351ADDAA199000091GA1021+009009029GF102991021021008001001001MA1999999100351MD1710091+9999REMSYN076AAXX  02154 60764 32562 22614 10267 20132 30035 40135 57009 82200 333 82830;EQDQ01  00002PRCP99
0189607640999992000100309004+33690+008970FM-12+004699999V0203101N001012200019N0150001N1+02301+01051101651ADDAA199000091GA1021+009009059GF102991021051008001001001MA1999999101151MD1210091+9999REMSYN076AAXX  03094 60764 32565 23102 10230 20105 30115 40165 52009 82500 333 82630;EQDQ01  00002PRCP99
0195607640999992000100312004+33690+008970FM-12+004699999V0203201N002112200019N0150001N1+02611+00901101501ADDAA199000091GA1041+009009029GF104991041021008001001001MA1999999101001MD1810151+9999REMSYN082AAXX  03124 60764 32565 43204 10261 20090 30100 40150 58015 84200 333 50791 84830;EQDQ01  00002PRCP99
0189607640999992000100315004+33690+008970FM-12+004699999V0202901N004110090019N0150001N1+02711+00981101301ADDAA199000091GA1061+009009059GF106991061051008001001001MA1999999100801MD1710201+9999REMSYN076AAXX  03154 60764 32565 62908 10271 20098 30080 40130 57020 86500 333 86630;EQDQ01  00002PRCP99
0208607640999992000100406004+33690+008970FM-12+004699999V0203201N001012200019N0080001N1+01691+00971101431ADDAA199000091GA1021+009009059GF102991021051008001001001KA1120N+01671MA1999999100921MD1210021+9999REMSYN082AAXX  04064 60764 33558 23202 10169 20097 30092 40143 52002 82500 333 20167 82630;EQDQ01  00002PRCP99
0189607640999992000100409004+33690+008970FM-12+004699999V0202701N003112200019N0100001N1+02281+01211101521ADDAA199000091GA1011+009009059GF101991011051008001001001MA1999999101021MD1110101+9999REMSYN076AAXX  04094 60764 32560 12706 10228 20121 30102 40152 51010 81500 333 81630;EQDQ01  00002PRCP99
0195607640999992000100412004+33690+008970FM-12+004699999V0202601N002112200019N0150001N1+02611+01331101411ADDAA199000091GA1021+009009059GF102991021051008001001001MA1999999100911MD1810111+9999REMSYN082AAXX  04124 60764 32565 22604 10261 20133 30091 40141 58011 82500 333 50881 82630;EQDQ01  00002PRCP99
0189607640999992000100415004+33690+008970FM-12+004699999V0202401N002112200019N0150001N1+02801+01441101261ADDAA199000091GA1031+009009059GF103991031051008001001001MA1999999100771MD1710141+9999REMSYN076AAXX  04154 60764 32565 32404 10280 20144 30077 40126 57014 83500 333 83630;EQDQ01  00002PRCP99
0208607640999992000100506004+33690+008970FM-12+004699999V0209999C000012200019N0100001N1+01461+00891101491ADDAA199000091GA1021+009009059GF102991021051008001001001KA1120N+01321MA1999999100971MD1310111+9999REMSYN082AAXX  05064 60764 33560 20000 10146 20089 30097 40149 53011 82500 333 20132 82630;EQDQ01  00002PRCP99
0189607640999992000100509004+33690+008970FM-12+004699999V0203001N001012200019N0120001N1+02301+01241101591ADDAA199000091GA1021+009009059GF102991021051008001001001MA1999999101091MD1210121+9999REMSYN076AAXX  05094 60764 32562 23002 10230 20124 30109 40159 52012 82500 333 82630;EQDQ01  00002PRCP99
0195607640999992000100512004+33690+008970FM-12+004699999V0203101N005112200019N0150001N1+02731+01421101521ADDAA199000091GA1011+009009059GF101991011051008001001001MA1999999101021MD1810071+9999REMSYN082AAXX  05124 60764 32565 13110 10273 20142 30102 40152 58007 81500 333 50621 81630;EQDQ01  00002PRCP99
0189607640999992000100515004+33690+008970FM-12+004699999V0203201N004112200019N0150001N1+02821+01331101361ADDAA199000091GA1031+009009059GF103991031051008001001001MA1999999100871MD1710151+9999REMSYN076AAXX  05154 60764 32565 33208 10282 20133 30087 40136 57015 83500 333 83630;EQDQ01  00002PRCP99
0208607640999992000100606004+33690+008970FM-12+004699999V0209999C000012200019N0100001N1+01501+01251101791ADDAA199000091GA1031+060009019GF103991001001999999001021KA1120N+01471MA1999999101271MD1210081+9999REMSYN082AAXX  06064 60764 33960 30000 10150 20125 30127 40179 52008 80002 333 20147 83070;EQDQ01  00002PRCP99
0189607640999992000100609004+33690+008970FM-12+004699999V0201701N001012200019N0150001N1+02411+01461101851ADDAA199000091GA1031+060009019GF103991001001999999001021MA1999999101351MD1110081+9999REMSYN076AAXX  06094 60764 32965 31702 10241 20146 30135 40185 51008 80002 333 83070;EQDQ01  00002PRCP99
0195607640999992000100612004+33690+008970FM-12+004699999V0203001N002112200019N0150001N1+02731+01501101751ADDAA199000091GA1021+009009029GF103991021021008001001021MA1999999101251MD1810101+9999REMSYN082AAXX  06124 60764 32565 33004 10273 20150 30125 40175 58010 82202 333 50731 82830;EQDQ01  00002PRCP99
0208607640999992000100706004+33690+008970FM-12+004699999V0201601N001012200019N0080001N1+01651+01341101811ADDAA199000091GA1041+060009019GF104991001001999999001021KA1120N+01591MA1999999101291MD1310131+9999REMSYN082AAXX  07064 60764 33958 41602 10165 20134 30129 40181 53013 80002 333 20159 84070;EQDQ01  00002PRCP99
0189607640999992000100709004+33690+008970FM-12+004699999V0202201N001010600019N0100001N1+02401+01601101931ADDAA199000091GA1051+060009019GF105991001001999999001021MA1999999101431MD1210141+9999REMSYN076AAXX  07094 60764 32960 52202 10240 20160 30143 40193 52014 80002 333 85070;EQDQ01  00002PRCP99
0208607640999992000100806004+33690+008970FM-12+004699999V0200401N008212200019N0100001N1+01951+01601101881ADDAA199000091GA1021+060009019GF102991001001999999001021KA1120N+01771MA1999999101371MD1310131+9999REMSYN082AAXX  08064 60764 33960 20416 10195 20160 30137 40188 53013 80002 333 20177 82070;EQDQ01  00002PRCP99
0189607640999992000100809004+33690+008970FM-12+004699999V0200501N005112200019N0100001N1+02371+01441101961ADDAA199000091GA1021+060009019GF102991001001999999001021MA1999999101461MD1110091+9999REMSYN076AAXX  08094 60764 32960 20510 10237 20144 30146 40196 51009 80002 333 82070;EQDQ01  00002PRCP99
0195607640999992000100812004+33690+008970FM-12+004699999V0200601N004112200019N0120001N1+02831+01471101841ADDAA199000091GA1031+060009019GF103991001001999999001021MA1999999101351MD1810111+9999REMSYN082AAXX  08124 60764 32962 30608 10283 20147 30135 40184 58011 80002 333 50661 83070;EQDQ01  00002PRCP99
0208607640999992000100906004+33690+008970FM-12+004699999V0209999C000012200019N0120001N1+01451+01161101781ADDAA199000091GA1021+060009019GF102991001001999999001021KA1120N+01401MA1999999101261MD1310071+9999REMSYN082AAXX  09064 60764 33962 20000 10145 20116 30126 40178 53007 80002 333 20140 82070;EQDQ01  00002PRCP99
0173607640999992000100909004+33690+008970FM-12+004699999V0201001N001012200019N0120001N1+02401+01171101861ADDAA199000091GA1001+999999999GF100991001001999999001001MA1999999101361MD1110101+9999REMSYN060AAXX  09094 60764 32962 01002 10240 20117 30136 40186 51010;EQDQ01  00002PRCP99
0183607640999992000100912004+33690+008970FM-12+004699999V0202101N002112200019N0150001N1+02741+01051101751ADDAA199000091GA1001+999999999GF100991001001999999001001MA1999999101251MD1810111+9999REMSYN070AAXX  09124 60764 32965 02104 10274 20105 30125 40175 58011 333 50591;EQDQ01  00002PRCP99
0189607640999992000100915004+33690+008970FM-12+004699999V0203101N003112200019N0150001N1+02801+01071101521ADDAA199000091GA1021+060009019GF102991001001999999001021MA1999999101031MD1610221+9999REMSYN076AAXX  09154 60764 32965 23106 10280 20107 30103 40152 56022 80002 333 82070;EQDQ01  00002PRCP99
0208607640999992000100918004+33690+008970FM-12+004699999V0202601N001012200019N0120001N1+02501+01261101571ADDAA199000091GA1021+060009019GF102991001001999999001021KA1120M+02921MA1999999101071MD1310041+9999REMSYN082AAXX  09184 60764 32962 22602 10250 20126 30107 40157 53004 80002 333 10292 82070;EQDQ01  00002PRCP99
0208607640999992000101006004+33690+008970FM-12+004699999V0201201N004110600019N0080001N1+01641+01311101351ADDAA199000091GA1051+060009019GF105991001001999999001021KA1120N+01531MA1999999100841MD1610091+9999REMSYN082AAXX  10064 60764 33958 51208 10164 20131 30084 40135 56009 80002 333 20153 85070;EQDQ01  00002PRCP99
0189607640999992000101009004+33690+008970FM-12+004699999V0201601N002110600019N0120001N1+02381+01361101321ADDAA199000091GA1061+060009019GF106991001001999999001021MA1999999100821MD1810021+9999REMSYN076AAXX  10094 60764 32962 61604 10238 20136 30082 40132 58002 80002 333 86070;EQDQ01  00002PRCP99
0195607640999992000101012004+33690+008970FM-12+004699999V0202101N005110600019N0100001N1+03001+01341101111ADDAA199000091GA1061+060009019GF106991001001999999001021MA1999999100621MD1710201+9999REMSYN082AAXX  10124 60764 32960 62110 10300 20134 30062 40111 57020 80002 333 50491 86070;EQDQ01  00002PRCP99
0195607640999992000101015004+33690+008970FM-12+004699999V0202401N007219999999N0080001N1+03171+01421100841ADDAA199000091GA1021+030009039GF107991021001999999081021MA1999999100361MD1710261+9999REMSYN082AAXX  10154 60764 32958 72414 10317 20142 30036 40084 57026 82082 333 82360 86070;EQDQ01  00002PRCP99
0214607640999992000101018004+33690+008970FM-12+004699999V0202101N005119999999N0070001N1+02861+01321100751ADDAA199000091GA1031+030009039GF107991031001999999081021KA1120M+03211MA1999999100261MD1610101+9999REMSYN088AAXX  10184 60764 32957 72110 10286 20132 30026 40075 56010 83082 333 10321 83360 85070;EQDQ01  00002PRCP99
0208607640999992000101106004+33690+008970FM-12+004699999V0201201N001010099019N0080001N1+01811+00971100941ADDAA199000091GA1051+009909059GF105991051051012501001001KA1120N+01761MA1999999100431MD1110061+9999REMSYN082AAXX  11064 60764 33658 51202 10181 20097 30043 40094 51006 85500 333 20176 85633;EQDQ01  00002PRCP99
0195607640999992000101109004+33690+008970FM-12+004699999V0202701N001012200019N0070001N1+02581+01201101071ADDAA199000091GA1011+009909069GF103991011051012501001021MA1999999100581MD1210151+9999REMSYN082AAXX  11094 60764 32657 32702 10258 20120 30058 40107 52015 81502 333 81633 83070;EQDQ01  00002PRCP99
0201607640999992000101112004+33690+008970FM-12+004699999V0202801N005112200019N0100001N1+03041+01401101001ADDAA199000091GA1021+030009039GF104991021001999999081021MA1999999100511MD1810071+9999REMSYN088AAXX  11124 60764 32960 42810 10304 20140 30051 40100 58007 82082 333 50851 82360 83070;EQDQ01  00002PRCP99
0195607640999992000101115004+33690+008970FM-12+004699999V0202601N003119999999N0100001N1+03101+01271100851ADDAA199000091GA1011+030009039GF105991011001999999081021MA1999999100361MD1710151+9999REMSYN082AAXX  11154 60764 32960 52606 10310 20127 30036 40085 57015 81082 333 81360 85070;EQDQ01  00002PRCP99
0208607640999992000101118004+33690+008970FM-12+004699999V0202701N002112200019N0080001N1+02711+01161100811ADDAA199000091GA1031+060009019GF103991001001999999001021KA1120M+03231MA1999999100321MD1510041+9999REMSYN082AAXX  11184 60764 32958 32704 10271 20116 30032 40081 55004 80002 333 10323 83070;EQDQ01  00002PRCP99
0208607640999992000101206004+33690+008970FM-12+004699999V0201001N005119999999N0080001N1+02021+01031100891ADDAA199000091GA1041+030009079GF105991041001999999081021KA1120N+01501MA1999999100391MD1310081+9999REMSYN082AAXX  12064 60764 33958 51010 10202 20103 30039 40089 53008 84082 333 20150 84360;EQDQ01  00002PRCP99
0195607640999992000101209004+33690+008970FM-12+004699999V0201201N004119999999N0080001N1+02831+00341100981ADDAA199000091GA1031+030009039GF105991031001999999081021MA1999999100491MD1110101+9999REMSYN082AAXX  12094 60764 32958 51208 10283 20034 30049 40098 51010 83082 333 83360 83070;EQDQ01  00002PRCP99
0229607640999992000101212004+33690+008970FM-12+004699999V0202101N008212200019N0030001N1+03601+00861100791ADDAA199000091AY111061AY211061GA1011+030009039GF103991011001999999081021MA1999999100311MD1810181+9999MW1071REMSYN094AAXX  12124 60764 31930 32116 10360 20086 30031 40079 58018 70711 81082 333 50721 81360 83070;EQDQ01  00002PRCP99
0217607640999992000101215004+33690+008970FM-12+004699999V0201601N007212200019N0030001N1+03611+00911100601ADDAA199000091AY101031AY201031GA1031+060009019GF103991001001999999001021MA1999999100121MD1610191+9999MW1071REMSYN082AAXX  12154 60764 31930 31614 10361 20091 30012 40060 56019 70700 80002 333 83070;EQDQ01  00002PRCP99
0208607640999992000101218004+33690+008970FM-12+004699999V0201901N003112200019N0060001N1+03231+01161100641ADDAA199000091GA1031+060009019GF103991001001999999001021KA1120M+03721MA1999999100161MD1310041+9999REMSYN082AAXX  12184 60764 32956 31906 10323 20116 30016 40064 53004 80002 333 10372 83070;EQDQ01  00002PRCP99
0208607640999992000101306004+33690+008970FM-12+004699999V0201201N005119999999N0070001N1+02341+00941100581ADDAA199000091GA1041+030009079GF105991041001999999081021KA1120N+02261MA1999999100081MD1310031+9999REMSYN082AAXX  13064 60764 33957 51210 10234 20094 30008 40058 53003 84082 333 20226 84360;EQDQ01  00002PRCP99
0223607640999992000101309004+33690+008970FM-12+004699999V0202001N00821036001CN0030001N1+03171+01461100731ADDAA199000091AY121031AY221031GA1021+009909069GF106991021051012501081001MA1999999100251MD1210171+9999MW1071REMSYN088AAXX  13094 60764 31630 62016 10317 20146 30025 40073 52017 70722 82580 333 82633 85360;EQDQ01  00002PRCP99
0229607640999992000101312004+33690+008970FM-12+004699999V0202101N00821036001CN0020001N1+03631+00801100611ADDAA199000091AY121061AY221061GA1041+009909069GF107991041051012501081999MA1999999100131MD1810121+9999MW1071REMSYN094AAXX  13124 60764 31620 72116 10363 20080 30013 40061 58012 70722 8458/ 333 51361 84633 84360;EQDQ01  00002PRCP99
0214607640999992000101406004+33690+008970FM-12+004699999V0202201N002112200019N0060001N1+01941+01271100681ADDAA199000091GA1021+030009039GF104991021001999999081021KA1120N+01921MA1999999100181MD1310131+9999REMSYN088AAXX  14064 60764 33956 42204 10194 20127 30018 40068 53013 82082 333 20192 82360 83070;EQDQ01  00002PRCP99
0195607640999992000101409004+33690+008970FM-12+004699999V0202201N00411036001CN0070001N1+02101+00851100891ADDAA199000091GA1021+009909069GF106991021051008001081001MA1999999100391MD1210211+9999REMSYN082AAXX  14094 60764 32557 62208 10210 20085 30039 40089 52021 82580 333 82633 85360;EQDQ01  00002PRCP99
0201607640999992000101412004+33690+008970FM-12+004699999V0202501N00621036001CN0080001N1+02481+00791100941ADDAA199000091GA1021+009909069GF105991021051012501081001MA1999999100441MD1110051+9999REMSYN088AAXX  14124 60764 32658 52512 10248 20079 30044 40094 51005 82580 333 51481 82633 84360;EQDQ01  00002PRCP99
0189607640999992000101415004+33690+008970FM-12+004699999V0202601N006210360019N0080001N1+02491+00691100891ADDAA199000091GA1041+009909059GF105991041051012501081001MA1999999100391MD1610051+9999REMSYN076AAXX  14154 60764 32658 52612 10249 20069 30039 40089 56005 84580 333 84633;EQDQ01  00002PRCP99
0214607640999992000101418004+33690+008970FM-12+004699999V0202601N00411036001CN0070001N1+02221+01121101001ADDAA199000091GA1031+009909069GF105991031051012501081001KA1120M+02561MA1999999100501MD1310111+9999REMSYN088AAXX  14184 60764 32657 52608 10222 20112 30050 40100 53011 83580 333 10256 83633 83360;EQDQ01  00002PRCP99
0208607640999992000101506004+33690+008970FM-12+004699999V0209999C000012200019N0080001N1+00911+00311101581ADDAA199000091GA1031+060009019GF103991001001999999001021KA1120N+00861MA1999999101051MD1210141+9999REMSYN082AAXX  15064 60764 33958 30000 10091 20031 30105 40158 52014 80002 333 20086 83070;EQDQ01  00002PRCP99
0189607640999992000101509004+33690+008970FM-12+004699999V0202401N003110600019N0100001N1+01811+00801101661ADDAA199000091GA1051+060009019GF105991001001999999001021MA1999999101151MD1110101+9999REMSYN076AAXX  15094 60764 32960 52406 10181 20080 30115 40166 51010 80002 333 85070;EQDQ01  00002PRCP99
0195607640999992000101512004+33690+008970FM-12+004699999V0202601N004110600019N0150001N1+02261+00511101691ADDAA199000091GA1051+060009019GF105991001001999999001021MA1999999101191MD1010041+9999REMSYN082AAXX  15124 60764 32965 52608 10226 20051 30119 40169 50004 80002 333 50701 85070;EQDQ01  00002PRCP99
0208607640999992000101606004+33690+008970FM-12+004699999V0201201N003112200019N0100001N1+01301+00501101971ADDAA199000091GA1031+009909059GF104991031051012501081001KA1120N+01101MA1999999101451MD1310091+9999REMSYN082AAXX  16064 60764 33660 41206 10130 20050 30145 40197 53009 83580 333 20110 83633;EQDQ01  00002PRCP99
0189607640999992000101609004+33690+008970FM-12+004699999V0201501N002112200019N0120001N1+01871+00241102181ADDAA199000091GA1021+030009079GF102991021001999999081001MA1999999101671MD1210221+9999REMSYN076AAXX  16094 60764 32962 21504 10187 20024 30167 40218 52022 82080 333 82360;EQDQ01  00002PRCP99
0195607640999992000101612004+33690+008970FM-12+004699999V0202201N004112200019N0150001N1+02491+00301102061ADDAA199000091GA1021+060009019GF102991001001999999001021MA1999999101561MD1810111+9999REMSYN082AAXX  16124 60764 32965 22208 10249 20030 30156 40206 58011 80002 333 50521 82070;EQDQ01  00002PRCP99
0214607640999992000101618004+33690+008970FM-12+004699999V0201801N002112200019N0120001N1+02301+00501102121ADDAA199000091GA1011+030009039GF103991011001999999081021KA1120M+02671MA1999999101611MD1310121+9999REMSYN088AAXX  16184 60764 32962 31804 10230 20050 30161 40212 53012 81082 333 10267 81360 83070;EQDQ01  00002PRCP99
0208607640999992000101706004+33690+008970FM-12+004699999V0201401N001012200019N0120001N1+01211+00331102371ADDAA199000091GA1041+060009019GF104991001001999999001021KA1120N+01161MA1999999101841MD1210081+9999REMSYN082AAXX  17064 60764 33962 41402 10121 20033 30184 40237 52008 80002 333 20116 84070;EQDQ01  00002PRCP99
0195607640999992000101709004+33690+008970FM-12+004699999V0200601N007219999999N0120001N1+02211+00981102501ADDAA199000091GA1031+030009039GF106991031001999999081021MA1999999101991MD1210151+9999REMSYN082AAXX  17094 60764 32962 60614 10221 20098 30199 40250 52015 83082 333 83360 84070;EQDQ01  00002PRCP99
0201607640999992000101712004+33690+008970FM-12+004699999V0200501N007219999999N0120001N1+02471+01351102371ADDAA199000091GA1041+030009039GF106991041001999999081021MA1999999101871MD1810121+9999REMSYN088AAXX  17124 60764 32962 60514 10247 20135 30187 40237 58012 84082 333 50471 84360 83070;EQDQ01  00002PRCP99
0195607640999992000101715004+33690+008970FM-12+004699999V0200401N00511036001CN0120001N1+02501+01411102281ADDAA199000091GA1021+009909069GF106991021051012501081001MA1999999101781MD1810091+9999REMSYN082AAXX  17154 60764 32662 60410 10250 20141 30178 40228 58009 82580 333 82633 85360;EQDQ01  00002PRCP99
0214607640999992000101718004+33690+008970FM-12+004699999V0200401N006219999999N0080001N1+02231+01381102361ADDAA199000091GA1031+009909069GF106991031051999999081001KA1120M+02541MA1999999101851MD1310071+9999REMSYN088AAXX  17184 60764 32958 60412 10223 20138 30185 40236 53007 83580 333 10254 83633 84360;EQDQ01  00002PRCP99
0208607640999992000101806004+33690+008970FM-12+004699999V0200401N005112200019N0100001N1+01801+01651102411ADDAA199000091GA1031+030009079GF104991021021008001081001KA1120N+01781MA1999999101891MD1210131+9999REMSYN082AAXX  18064 60764 33560 40410 10180 20165 30189 40241 52013 82280 333 20178 83360;EQDQ01  00002PRCP99
0189607640999992000101809004+33690+008970FM-12+004699999V0200401N009812200019N0100001N1+02181+01661102501ADDAA199000091GA1011+009009029GF102991011021008001081001MA1999999101991MD1210101+9999REMSYN076AAXX  18094 60764 32560 20419 10218 20166 30199 40250 52010 81280 333 81830;EQDQ01  00002PRCP99
0195607640999992000101812004+33690+008970FM-12+004699999V0200501N010812200019N0060001N1+02491+01591102411ADDAA199000091GA1031+009009029GF103991031021008001001001MA1999999101911MD1810081+9999REMSYN082AAXX  18124 60764 32556 30521 10249 20159 30191 40241 58008 83200 333 50551 83830;EQDQ01  00002PRCP99
0189607640999992000101815004+33690+008970FM-12+004699999V0200401N007212200019N0120001N1+02501+01511102271ADDAA199000091GA1021+009009029GF102991021021008001001001MA1999999101771MD1710141+9999REMSYN076AAXX  18154 60764 32562 20414 10250 20151 30177 40227 57014 82200 333 82830;EQDQ01  00002PRCP99
0208607640999992000101818004+33690+008970FM-12+004699999V0200801N006212200019N0100001N1+02201+01531102251ADDAA199000091GA1021+009009029GF102991021021008001001001KA1120M+02611MA1999999101741MD1610031+9999REMSYN082AAXX  18184 60764 32560 20812 10220 20153 30174 40225 56003 82200 333 10261 82830;EQDQ01  00002PRCP99
0208607640999992000101906004+33690+008970FM-12+004699999V0200401N006212200019N0100001N1+01631+01371102291ADDAA199000091GA1031+060009019GF103991001001999999001021KA1120N+01611MA1999999101771MD1610031+9999REMSYN082AAXX  19064 60764 33960 30412 10163 20137 30177 40229 56003 80002 333 20161 83070;EQDQ01  00002PRCP99
0195607640999992000101909004+33690+008970FM-12+004699999V0200301N009812200019N0100001N1+02061+01101102421ADDAA199000091GA1011+009009089GF104991011021008001001021MA1999999101901MD1210131+9999REMSYN082AAXX  19094 60764 32560 40319 10206 20110 30190 40242 52013 81202 333 81830 84070;EQDQ01  00002PRCP99
0201607640999992000101912004+33690+008970FM-12+004699999V0200501N006212200019N0150001N1+02401+01081102261ADDAA199000091GA1011+009009089GF103991011021008001001021MA1999999101751MD1810151+9999REMSYN088AAXX  19124 60764 32565 30512 10240 20108 30175 40226 58015 81202 333 50571 81830 83070;EQDQ01  00002PRCP99
0230607640999992000101918004+33690+008970FM-12+004699999V0200701N006219999999N0100001N1+02141+01591102201ADDAA199000091GA1011+009009089GF105991011999008001081021KA1120M+02531MA1999999101691MD1310141+9999REMSYN088AAXX  19184 60764 32560 50712 10214 20159 30169 40220 53014 81082 333 10253 81830 83360;EQDQ01+000002SCOLCGQ02  00002PRCP99
0214607640999992000102006004+33690+008970FM-12+004699999V0200501N00821036001CN0080001N1+01721+01451102131ADDAA199000091GA1021+009909069GF106991021051012501081001KA1120N+01651MA1999999101611MD1610051+9999REMSYN088AAXX  20064 60764 32658 60516 10172 20145 30161 40213 56005 82580 333 20165 82633 85360;EQDQ01  00002PRCP99
0195607640999992000102009004+33690+008970FM-12+004699999V0200401N00981036001CN0100001N1+01961+01491102211ADDAA199000091GA1031+009909069GF105991031051012501081001MA1999999101701MD1110091+9999REMSYN082AAXX  20094 60764 32660 50419 10196 20149 30170 40221 51009 83580 333 83633 83360;EQDQ01  00002PRCP99
0201607640999992000102012004+33690+008970FM-12+004699999V0200501N00871036001CN0100001N1+02211+01611102071ADDAA199000091GA1041+009909069GF107991041051012501081999MA1999999101561MD1810141+9999REMSYN088AAXX  20124 60764 32660 70517 10221 20161 30156 40207 58014 8458/ 333 50691 84633 84360;EQDQ01  00002PRCP99
0195607640999992000102015004+33690+008970FM-12+004699999V0200301N00621012001CN0120001N1+02381+01691101871ADDAA199000091GA1031+009009089GF107991071081008001999999MA1999999101371MD1710191+9999REMSYN082AAXX  20154 60764 32562 70312 10238 20169 30137 40187 57019 878// 333 83830 85633;EQDQ01  00002PRCP99
0214607640999992000102018004+33690+008970FM-12+004699999V0200401N00721012001CN0100001N1+02031+01621101971ADDAA199000091GA1021+009009089GF107991071081008001999999KA1120M+02401MA1999999101461MD1310091+9999REMSYN088AAXX  20184 60764 32560 70414 10203 20162 30146 40197 53009 878// 333 10240 82830 86633;EQDQ01  00002PRCP99
0214607640999992000102106004+33690+008970FM-12+004699999V0200401N008712200019N0080001N1+01991+01861101751ADDAA199000091GA1021+009909069GF104991021051012501001021KA1120N+01821MA1999999101241MD1510061+9999REMSYN088AAXX  21064 60764 33658 40417 10199 20186 30124 40175 55006 82502 333 20182 82633 83070;EQDQ01  00002PRCP99
0195607640999992000102109004+33690+008970FM-12+004699999V0200801N00511036001CN0100001N1+02281+01701101861ADDAA199000091GA1041+009909069GF107991041051012501081999MA1999999101361MD1210121+9999REMSYN082AAXX  21094 60764 32660 70810 10228 20170 30136 40186 52012 8458/ 333 84633 84360;EQDQ01  00002PRCP99
0208607640999992000102206004+33690+008970FM-12+004699999V0200401N010810099019N0170001N1+02251+02101101741ADDAA199000091GA1051+009909059GF105991051051008001001001KA1120N+02071MA1999999101241MD1310111+9999REMSYN082AAXX  22064 60764 33567 50421 10225 20210 30124 40174 53011 85500 333 20207 85633;EQDQ01  00002PRCP99
0189607640999992000102209004+33690+008970FM-12+004699999V0200301N010812200019N0080001N1+02511+02041101861ADDAA199000091GA1031+009909059GF104991031051012501001021MA1999999101361MD1110121+9999REMSYN076AAXX  22094 60764 32658 40321 10251 20204 30136 40186 51012 83502 333 83633;EQDQ01  00002PRCP99
0214607640999992000102306004+33690+008970FM-12+004699999V0200401N006212200019N0070001N1+02101+02011101901ADDAA199000091GA1011+009009089GF104991011021008001001021KA1120N+02021MA1999999101391MD1310031+9999REMSYN088AAXX  23064 60764 33557 40412 10210 20201 30139 40190 53003 81202 333 20202 81830 84070;EQDQ01  00002PRCP99
0195607640999992000102309004+33690+008970FM-12+004699999V0200601N00871090001CN0080001N1+02441+01741101961ADDAA199000091GA1011+009009089GF105991011021008001001021MA1999999101461MD1110071+9999REMSYN082AAXX  23094 60764 32558 50617 10244 20174 30146 40196 51007 81202 333 81830 85070;EQDQ01  00002PRCP99
0201607640999992000102312004+33690+008970FM-12+004699999V0200801N009819999999N0060001N1+02851+01581101821ADDAA199000091GA1031+030009039GF107991031001999999081021MA1999999101331MD1810131+9999REMSYN088AAXX  23124 60764 32956 70819 10285 20158 30133 40182 58013 83082 333 50731 83360 85070;EQDQ01  00002PRCP99
0223607640999992000102315004+33690+008970FM-12+004699999V0200501N012912200019N0020001N1+02731+01721101701ADDAA199000091AY111031AY211031GA1011+030009039GF104991011001999999081021MA1999999101201MD1610171+9999MW1071REMSYN088AAXX  23154 60764 31920 40525 10273 20172 30120 40170 56017 70711 81082 333 81360 84070;EQDQ01  00002PRCP99
0242607640999992000102318004+33690+008970FM-12+004699999V0200301N013919999999N0020001N1+02351+02111101911ADDAA199000091AY111061AY211061GA1021+030009039GF106991021001999999081021KA1120M+02911MA1999999101391MD1310191+9999MW1071REMSYN094AAXX  23184 60764 31920 60327 10235 20211 30139 40191 53019 70711 82082 333 10291 82360 85070;EQDQ01  00002PRCP99
0208607640999992000102406004+33690+008970FM-12+004699999V0200601N006210360019N0080001N1+02071+01591101961ADDAA199000091GA1041+009909059GF105991041051012501081001KA1120N+02041MA1999999101451MD1310081+9999REMSYN082AAXX  24064 60764 33658 50612 10207 20159 30145 40196 53008 84580 333 20204 84633;EQDQ01  00002PRCP99
0189607640999992000102409004+33690+008970FM-12+004699999V0200201N009812200019N0070001N1+02391+01551102021ADDAA199000091GA1031+009909059GF104991031051012501081001MA1999999101521MD1110071+9999REMSYN076AAXX  24094 60764 32657 40219 10239 20155 30152 40202 51007 83580 333 83633;EQDQ01  00002PRCP99
0195607640999992000102412004+33690+008970FM-12+004699999V0200701N010812200019N0100001N1+02691+01551102001ADDAA199000091GA1041+009909059GF104991041051012501001001MA1999999101501MD1810021+9999REMSYN082AAXX  24124 60764 32660 40721 10269 20155 30150 40200 58002 84500 333 50701 84633;EQDQ01  00002PRCP99
0223607640999992000102415004+33690+008970FM-12+004699999V0200301N01391036001CN0020001N1+02501+01621101931ADDAA199000091AY111031AY211031GA1041+009909069GF106991041051012501081001MA1999999101431MD1710071+9999MW1071REMSYN088AAXX  24154 60764 31620 60327 10250 20162 30143 40193 57007 70711 84580 333 84633 83360;EQDQ01  00002PRCP99
0236607640999992000102418004+33690+008970FM-12+004699999V0200401N010810360019N0020001N1+02221+01961101991ADDAA199000091AY111061AY211061GA1041+009909059GF105991041051012501081001KA1120M+02741MA1999999101491MD1310061+9999MW1071REMSYN088AAXX  24184 60764 31620 50421 10222 20196 30149 40199 53006 70711 84580 333 10274 84633;EQDQ01  00002PRCP99
0214607640999992000102506004+33690+008970FM-12+004699999V0200501N006219999999N0100001N1+02071+01821102071ADDAA199000091GA1021+009009089GF107991021081008001999999KA1120N+01961MA1999999101561MD1610041+9999REMSYN088AAXX  25064 60764 33560 70512 10207 20182 30156 40207 56004 828// 333 20196 82830 86633;EQDQ01  00002PRCP99
0193607640999992000102509004+33690+008970FM-12+004699999V0200301N00721012001CN0080001N1+02111+01891102341ADDAY161031AY221031GA1031+009009089GF107991071081008001999999MA1999999101831MD1210271+9999MW1031REMSYN088AAXX  25094 60764 41558 70314 10211 20189 30183 40234 52027 70362 878// 333 83830 85633;
0216607640999992000102512004+33690+008970FM-12+004699999V0200201N00511012001CN0080001N1+02121+01951102241ADDAA106002091AY161061AY221061GA1031+009009089GF108991081081008001999999MA1999999101731MD1810101+9999MW1601REMSYN100AAXX  25124 60764 11558 80210 10212 20195 30173 40224 58010 60021 76062 888// 333 50611 83830 86633;
0176607640999992000102515004+33690+008970FM-12+004699999V0202601N00211012001CN0100001N1+02191+01771102181ADDAA199000021GA1021+009009089GF107991071081008001999999MA1999999101671MD1510061+9999REMSYN082AAXX  25154 60764 32560 72604 10219 20177 30167 40218 55006 878// 333 82830 86633;
0229607640999992000102518004+33690+008970FM-12+004699999V0200401N00211012001CN0070001N1+01941+01761102331ADDAA112003091AY161061AY221061GA1041+009009089GF108991081081008001999999KA1120M+02261MA1999999101811MD1210141+9999MW1601REMSYN100AAXX  25184 60764 11557 80404 10194 20176 30181 40233 52014 60032 76062 888// 333 10226 84830 85630;
0201607640999992000102606004+33690+008970FM-12+004699999V0209999C000010900019N0060001N1+01521+01451102011ADDAA124003091GA1041+009909059GF105991041051012501001021KA1120N+01501MA1999999101491MD1310091+9999REMSYN094AAXX  26064 60764 13656 50000 10152 20145 30149 40201 53009 60034 84502 333 20150 70028 84633;
0195607640999992000102609004+33690+008970FM-12+004699999V0209999C00001012001CN0080001N1+01861+01701102031ADDAA199000091GA1041+009909069GF106991051051012501081001MA1999999101521MD1110031+9999REMSYN082AAXX  26094 60764 32658 60000 10186 20170 30152 40203 51003 85580 333 84633 83070;EQDQ01  00002PRCP99
0201607640999992000102612004+33690+008970FM-12+004699999V0202501N004112200019N0120001N1+02511+01621101911ADDAA199000091GA1021+030009039GF104991021001999999081021MA1999999101411MD1810111+9999REMSYN088AAXX  26124 60764 32962 42508 10251 20162 30141 40191 58011 82082 333 50231 82360 83070;EQDQ01  00002PRCP99
0195607640999992000102615004+33690+008970FM-12+004699999V0202801N00311036001CN0100001N1+02531+01551101771ADDAA199000091GA1031+009909069GF107991031051012501081999MA1999999101271MD1610141+9999REMSYN082AAXX  26154 60764 32660 72806 10253 20155 30127 40177 56014 8358/ 333 83633 85460;EQDQ01  00002PRCP99
0214607640999992000102706004+33690+008970FM-12+004699999V0201501N001012200019N0080001N1+01551+01411101861ADDAA199000091GA1021+009909069GF104991021051012501001021KA1120N+01531MA1999999101341MD1310031+9999REMSYN088AAXX  27064 60764 33658 41502 10155 20141 30134 40186 53003 82502 333 20153 82633 83070;EQDQ01  00002PRCP99
0189607640999992000102709004+33690+008970FM-12+004699999V0201601N002112200019N0120001N1+02001+01551101981ADDAA199000091GA1021+009909059GF103991021051008001001021MA1999999101471MD1210131+9999REMSYN076AAXX  27094 60764 32562 31604 10200 20155 30147 40198 52013 82502 333 82633;EQDQ01  00002PRCP99
0195607640999992000102712004+33690+008970FM-12+004699999V0202501N002112200019N0150001N1+02351+01501101911ADDAA199000091GA1021+009009029GF102991021021008001001001MA1999999101411MD1810061+9999REMSYN082AAXX  27124 60764 32565 22504 10235 20150 30141 40191 58006 82200 333 50241 82830;EQDQ01  00002PRCP99
0189607640999992000102715004+33690+008970FM-12+004699999V0209999C000012200019N0150001N1+02551+01461101751ADDAA199000091GA1031+009009029GF103991031021008001001001MA1999999101251MD1710161+9999REMSYN076AAXX  27154 60764 32565 30000 10255 20146 30125 40175 57016 83200 333 83830;EQDQ01  00002PRCP99
0214607640999992000102806004+33690+008970FM-12+004699999V0200201N007212200019N0080001N1+01731+01561102051ADDAA199000091GA1011+009009089GF103991011021008001001021KA1120N+01701MA1999999101531MD1610061+9999REMSYN088AAXX  28064 60764 33558 30214 10173 20156 30153 40205 56006 81202 333 20170 81830 83070;EQDQ01  00002PRCP99
0189607640999992000102809004+33690+008970FM-12+004699999V0200301N009812200019N0080001N1+02041+01601102211ADDAA199000091GA1021+060009019GF102991001001999999001021MA1999999101701MD1210171+9999REMSYN076AAXX  28094 60764 32958 20319 10204 20160 30170 40221 52017 80002 333 82070;EQDQ01  00002PRCP99
0195607640999992000102812004+33690+008970FM-12+004699999V0200401N008712200019N0120001N1+02361+01431102111ADDAA199000091GA1021+009009029GF102991021021008001001001MA1999999101611MD1810091+9999REMSYN082AAXX  28124 60764 32562 20417 10236 20143 30161 40211 58009 82200 333 50391 82830;EQDQ01  00002PRCP99
0208607640999992000102906004+33690+008970FM-12+004699999V0200401N008212200019N0080001N1+01661+01561102111ADDAA199000091GA1011+009009029GF102991011021008001001021KA1120N+01621MA1999999101591MD1310071+9999REMSYN082AAXX  29064 60764 33558 20416 10166 20156 30159 40211 53007 81202 333 20162 81830;EQDQ01  00002PRCP99
0189607640999992000102909004+33690+008970FM-12+004699999V0200201N008712200019N0100001N1+02051+01661102281ADDAA199000091GA1021+009009029GF102991021021008001001001MA1999999101771MD1210181+9999REMSYN076AAXX  29094 60764 32560 20217 10205 20166 30177 40228 52018 82200 333 82830;EQDQ01  00002PRCP99
0195607640999992000102912004+33690+008970FM-12+004699999V0200401N008212200019N0100001N1+02391+01471102231ADDAA199000091GA1021+009009029GF102991021021008001001001MA1999999101731MD1810041+9999REMSYN082AAXX  29124 60764 32560 20416 10239 20147 30173 40223 58004 82200 333 50501 82830;EQDQ01  00002PRCP99
0173607640999992000103009004+33690+008970FM-12+004699999V0200401N008212200019N0100001N1+02151+01581102111ADDAA199000091GA1001+999999999GF100991001001999999001001MA1999999101601MD1210091+9999REMSYN060AAXX  30094 60764 32960 00416 10215 20158 30160 40211 52009;EQDQ01  00002PRCP99
0195607640999992000103012004+33690+008970FM-12+004699999V0200501N003112200019N0150001N1+02431+01711101971ADDAA199000091GA1021+009009029GF102991021021008001001001MA1999999101471MD1810131+9999REMSYN082AAXX  30124 60764 32565 20506 10243 20171 30147 40197 58013 82200 333 50461 82830;EQDQ01  00002PRCP99
0189607640999992000103015004+33690+008970FM-12+004699999V0200301N001012200019N0150001N1+02561+01601101801ADDAA199000091GA1041+009009029GF104991041021008001001001MA1999999101301MD1710171+9999REMSYN076AAXX  30154 60764 32565 40302 10256 20160 30130 40180 57017 84200 333 84830;EQDQ01  00002PRCP99
0208607640999992000103018004+33690+008970FM-12+004699999V0200401N003112200019N0100001N1+02301+01671101751ADDAA199000091GA1011+009009029GF101991011021008001001001KA1120M+02631MA1999999101251MD1610051+9999REMSYN082AAXX  30184 60764 32560 10406 10230 20167 30125 40175 56005 81200 333 10263 81830;EQDQ01  00002PRCP99
0208607640999992000103106004+33690+008970FM-12+004699999V0200901N001012200019N0070001N1+01111+00951101731ADDAA199000091GA1021+060009019GF102991001001999999001021KA1120N+01061MA1999999101211MD1610071+9999REMSYN082AAXX  31064 60764 33957 20902 10111 20095 30121 40173 56007 80002 333 20106 82070;EQDQ01  00002PRCP99
0189607640999992000103109004+33690+008970FM-12+004699999V0209999C000012200019N0100001N1+02061+01511101771ADDAA199000091GA1021+060009019GF102991001001999999001021MA1999999101261MD1310051+9999REMSYN076AAXX  31094 60764 32960 20000 10206 20151 30126 40177 53005 80002 333 82070;EQDQ01  00002PRCP99
0183607640999992000103112004+33690+008970FM-12+004699999V0202101N002112200019N0150001N1+02561+01391101631ADDAA199000091GA1001+999999999GF100991001001999999001001MA1999999101131MD1810131+9999REMSYN070AAXX  31124 60764 32965 02104 10256 20139 30113 40163 58013 333 50381;EQDQ01  00002PRCP99
0189607640999992000110109004+33690+008970FM-12+004699999V0201301N003112200019N0100001N1+02071+01281101751ADDAA199000091GA1021+060009019GF102991001001999999001021MA1999999101241MD1210161+9999REMSYN076AAXX  01094 60764 32960 21306 10207 20128 30124 40175 52016 80002 333 82070;EQDQ01  00002PRCP99
0195607640999992000110112004+33690+008970FM-12+004699999V0203101N001012200019N0150001N1+02641+01341101601ADDAA199000091GA1031+060009019GF103991001001999999001021MA1999999101101MD1810141+9999REMSYN082AAXX  01124 60764 32965 33102 10264 20134 30110 40160 58014 80002 333 50361 83070;EQDQ01  00002PRCP99
0208607640999992000110118004+33690+008970FM-12+004699999V0202401N001012200019N0120001N1+02341+01311101591ADDAA199000091GA1041+060009019GF104991001001999999001021KA1120M+02881MA1999999101091MD1310131+9999REMSYN082AAXX  01184 60764 32962 42402 10234 20131 30109 40159 53013 80002 333 10288 84070;EQDQ01  00002PRCP99
0208607640999992000110206004+33690+008970FM-12+004699999V0201301N001012200019N0070001N1+01341+01251101841ADDAA199000091GA1021+060009019GF102991001001999999001021KA1120N+01161MA1999999101291MD1310041+9999REMSYN082AAXX  02064 60764 33957 21302 10134 20125 30129 40184 53004 80002 333 20116 82070;EQDQ01  00002PRCP99
0189607640999992000110209004+33690+008970FM-12+004699999V0200901N001012200019N0100001N1+02091+01581101881ADDAA199000091GA1011+009909059GF101991011051012501001001MA1999999101371MD1110081+9999REMSYN076AAXX  02094 60764 32660 10902 10209 20158 30137 40188 51008 81500 333 81633;EQDQ01  00002PRCP99
0183607640999992000110212004+33690+008970FM-12+004699999V0202601N002112200019N0150001N1+02641+01361101761ADDAA199000091GA1001+999999999GF100991001001999999001001MA1999999101261MD1810111+9999REMSYN070AAXX  02124 60764 32965 02604 10264 20136 30126 40176 58011 333 50291;EQDQ01  00002PRCP99
0173607640999992000110215004+33690+008970FM-12+004699999V0202001N004112200019N0150001N1+02731+01241101671ADDAA199000091GA1001+999999999GF100991001001999999001001MA1999999101171MD1610091+9999REMSYN060AAXX  02154 60764 32965 02008 10273 20124 30117 40167 56009;EQDQ01  00002PRCP99
0196607640999992000110218004+33690+008970FM-12+004699999V0202201N001012200019N0120001N1+02371+01311101741ADDAA199000091GA1001+999999999GF100991001001999999001001KA1999M+02791MA1999999101241MD1310071+9999REMSYN070AAXX  02184 60764 32962 02202 10237 20131 30124 40174 53007 333 10279;EQDQ01  00002PRCP99
0196607640999992000110306004+33690+008970FM-12+004699999V0201001N002112200019N0100001N1+01311+00831101631ADDAA199000091GA1001+999999999GF100991001001999999001001KA1999N+01011MA1999999101111MD1610081+9999REMSYN070AAXX  03064 60764 33960 01004 10131 20083 30111 40163 56008 333 20101;EQDQ01  00002PRCP99
0173607640999992000110309004+33690+008970FM-12+004699999V0201201N003112200019N0100001N1+02211+01181101731ADDAA199000091GA1001+999999999GF100991001001999999001001MA1999999101221MD1210111+9999REMSYN060AAXX  03094 60764 32960 01206 10221 20118 30122 40173 52011;EQDQ01  00002PRCP99
0183607640999992000110312004+33690+008970FM-12+004699999V0201501N003112200019N0150001N1+02701+01411101551ADDAA199000091GA1001+999999999GF100991001001999999001001MA1999999101051MD1810171+9999REMSYN070AAXX  03124 60764 32965 01506 10270 20141 30105 40155 58017 333 50381;EQDQ01  00002PRCP99
0173607640999992000110315004+33690+008970FM-12+004699999V0201801N003112200019N0120001N1+03011+01271101331ADDAA199000091GA1001+999999999GF100991001001999999001001MA1999999100841MD1710211+9999REMSYN060AAXX  03154 60764 32962 01806 10301 20127 30084 40133 57021;EQDQ01  00002PRCP99
0208607640999992000110406004+33690+008970FM-12+004699999V0201201N001012200019N0100001N1+01371+00761101361ADDAA199000091GA1041+060009019GF104991001001999999001021KA1120N+01351MA1999999100841MD1310111+9999REMSYN082AAXX  04064 60764 33960 41202 10137 20076 30084 40136 53011 80002 333 20135 84070;EQDQ01  00002PRCP99
0189607640999992000110409004+33690+008970FM-12+004699999V0201301N003112200019N0080001N1+02131+01011101601ADDAA199000091GA1021+060009019GF102991001001999999001021MA1999999101091MD1210251+9999REMSYN076AAXX  04094 60764 32958 21306 10213 20101 30109 40160 52025 80002 333 82070;EQDQ01  00002PRCP99
0195607640999992000110412004+33690+008970FM-12+004699999V0200601N008212200019N0100001N1+02591+01711101611ADDAA199000091GA1041+060009019GF104991001001999999001021MA1999999101111MD1010021+9999REMSYN082AAXX  04124 60764 32960 40616 10259 20171 30111 40161 50002 80002 333 50551 84070;EQDQ01  00002PRCP99
0189607640999992000110415004+33690+008970FM-12+004699999V0200501N006210600019N0100001N1+02651+01731101651ADDAA199000091GA1051+060009019GF105991001001999999001021MA1999999101151MD1210041+9999REMSYN076AAXX  04154 60764 32960 50512 10265 20173 30115 40165 52004 80002 333 85070;EQDQ01  00002PRCP99
0214607640999992000110506004+33690+008970FM-12+004699999V0200501N00511036001CN0100001N1+01731+01401102071ADDAA199000091GA1021+009909069GF105991021051012501081001KA1120N+01611MA1999999101551MD1310051+9999REMSYN088AAXX  05064 60764 33660 50510 10173 20140 30155 40207 53005 82580 333 20161 82633 84360;EQDQ01  00002PRCP99
0189607640999992000110509004+33690+008970FM-12+004699999V0200401N006210300019N0100001N1+02061+01281102101ADDAA199000091GA1051+030009079GF106991051001999999081021MA1999999101591MD1110041+9999REMSYN076AAXX  05094 60764 32960 60412 10206 20128 30159 40210 51004 85082 333 85360;EQDQ01  00002PRCP99
0195607640999992000110512004+33690+008970FM-12+004699999V0200601N005119999999N0120001N1+02511+01381102011ADDAA199000091GA1031+030009039GF105991031001999999081021MA1999999101511MD1810081+9999REMSYN082AAXX  05124 60764 32962 50610 10251 20138 30151 40201 58008 83082 333 83360 83070;EQDQ01  00002PRCP99
0208607640999992000110606004+33690+008970FM-12+004699999V0200401N001010600019N0120001N1+01041+00811101581ADDAA199000091GA1051+060009019GF105991001001999999001021KA1120N+00901MA1999999101051MD1610121+9999REMSYN082AAXX  06064 60764 33962 50402 10104 20081 30105 40158 56012 80002 333 20090 85070;EQDQ01  00002PRCP99
0189607640999992000110609004+33690+008970FM-12+004699999V0200901N002110600019N0120001N1+01801+00961101591ADDAA199000091GA1051+060009019GF105991001001999999001021MA1999999101081MD1310031+9999REMSYN076AAXX  06094 60764 32962 50904 10180 20096 30108 40159 53003 80002 333 85070;EQDQ01  00002PRCP99
0195607640999992000110612004+33690+008970FM-12+004699999V0202201N003112200019N0150001N1+02451+01181101321ADDAA199000091GA1031+060009019GF103991001001999999001021MA1999999100821MD1810261+9999REMSYN082AAXX  06124 60764 32965 32206 10245 20118 30082 40132 58026 80002 333 50261 83070;EQDQ01  00002PRCP99
0189607640999992000110615004+33690+008970FM-12+004699999V0202201N005112200019N0120001N1+02631+01221101041ADDAA199000091GA1031+060009019GF103991001001999999001021MA1999999100551MD1710271+9999REMSYN076AAXX  06154 60764 32962 32210 10263 20122 30055 40104 57027 80002 333 83070;EQDQ01  00002PRCP99
0208607640999992000110618004+33690+008970FM-12+004699999V0202301N002112200019N0080001N1+02211+01531100991ADDAA199000091GA1021+060009019GF102991001001999999001021KA1120M+02691MA1999999100491MD1610061+9999REMSYN082AAXX  06184 60764 32958 22304 10221 20153 30049 40099 56006 80002 333 10269 82070;EQDQ01  00002PRCP99
0208607640999992000110706004+33690+008970FM-12+004699999V0202101N002112200019N0100001N1+01571+00801100791ADDAA199000091GA1031+060009019GF103991001001999999001021KA1120N+01221MA1999999100281MD1310061+9999REMSYN082AAXX  07064 60764 33960 32104 10157 20080 30028 40079 53006 80002 333 20122 83070;EQDQ01  00002PRCP99
0189607640999992000110709004+33690+008970FM-12+004699999V0202401N004112200019N0100001N1+02011+00881100961ADDAA199000091GA1021+060009019GF102991001001999999001021MA1999999100451MD1210171+9999REMSYN076AAXX  07094 60764 32960 22408 10201 20088 30045 40096 52017 80002 333 82070;EQDQ01  00002PRCP99
0183607640999992000110712004+33690+008970FM-12+004699999V0202601N003112200019N0100001N1+02471+01101100831ADDAA199000091GA1001+999999999GF100991001001999999001001MA1999999100331MD1810121+9999REMSYN070AAXX  07124 60764 32960 02606 10247 20110 30033 40083 58012 333 50441;EQDQ01  00002PRCP99
0173607640999992000110715004+33690+008970FM-12+004699999V0202701N005112200019N0080001N1+02541+01101100761ADDAA199000091GA1001+999999999GF100991001001999999001001MA1999999100261MD1610071+9999REMSYN060AAXX  07154 60764 32958 02710 10254 20110 30026 40076 56007;EQDQ01  00002PRCP99
0196607640999992000110718004+33690+008970FM-12+004699999V0202601N003112200019N0060001N1+02191+01271100851ADDAA199000091GA1001+999999999GF100991001001999999001001KA1999M+02641MA1999999100351MD1310091+9999REMSYN070AAXX  07184 60764 32956 02606 10219 20127 30035 40085 53009 333 10264;EQDQ01  00002PRCP99
0208607640999992000110806004+33690+008970FM-12+004699999V0201801N002112200019N0060001N1+00691+00371101251ADDAA199000091GA1041+060009019GF104991001001999999001021KA1120N+00651MA1999999100721MD1310081+9999REMSYN082AAXX  08064 60764 33956 41804 10069 20037 30072 40125 53008 80002 333 20065 84070;EQDQ01  00002PRCP99
0189607640999992000110809004+33690+008970FM-12+004699999V0201301N003112200019N0050001N1+01411+00681101391ADDAA199000091GA1031+060009019GF103991001001999999001021MA1999999100871MD1210151+9999REMSYN076AAXX  08094 60764 32950 31306 10141 20068 30087 40139 52015 80002 333 83070;EQDQ01  00002PRCP99
0195607640999992000110812004+33690+008970FM-12+004699999V0201901N004112200019N0070001N1+02141+01111101281ADDAA199000091GA1041+060009019GF104991001001999999001021MA1999999100771MD1810101+9999REMSYN082AAXX  08124 60764 32957 41908 10214 20111 30077 40128 58010 80002 333 50531 84070;EQDQ01  00002PRCP99
0208607640999992000110818004+33690+008970FM-12+004699999V0201601N001010600019N0100001N1+01981+01121101261ADDAA199000091GA1051+060009019GF105991001001999999001021KA1120M+02341MA1999999100751MD1310081+9999REMSYN082AAXX  08184 60764 32960 51602 10198 20112 30075 40126 53008 80002 333 10234 85070;EQDQ01  00002PRCP99
0195607640999992000110909004+33690+008970FM-12+004699999V0200601N007219999999N0080001N1+01941+01271101731ADDAA199000091GA1011+030009039GF105991011001999999081021MA1999999101221MD1210131+9999REMSYN082AAXX  09094 60764 32958 50614 10194 20127 30122 40173 52013 81082 333 81360 85070;EQDQ01  00002PRCP99
0195607640999992000110912004+33690+008970FM-12+004699999V0200201N021619999999N0100001N1+02361+01571999999ADDAA199000091GA1021+030009039GF105991021001999999081021MA1999999101141MD1810081+9999REMSYN082AAXX  09124 60764 32960 50242 10236 20157 30114 58008 82082 333 50321 82360 84070;EQDQ01  00002PRCP99
0195607640999992000110915004+33690+008970FM-12+004699999V0200501N007219999999N0080001N1+02401+01521101591ADDAA199000091GA1041+030009039GF106991041001999999081021MA1999999101091MD1610051+9999REMSYN082AAXX  09154 60764 32958 60514 10240 20152 30109 40159 56005 84082 333 84360 83070;EQDQ01  00002PRCP99
0214607640999992000110918004+33690+008970FM-12+004699999V0200401N006219999999N0060001N1+02011+01451101691ADDAA199000091GA1031+030009039GF106991031001999999081021KA1120M+02451MA1999999101181MD1310091+9999REMSYN088AAXX  09184 60764 32956 60412 10201 20145 30118 40169 53009 83082 333 10245 83360 84070;EQDQ01  00002PRCP99
0195607640999992000111009004+33690+008970FM-12+004699999V0200401N011812200019N0060001N1+02081+01811102011ADDAA199000091GA1021+009909069GF104991021051012501081001MA1999999101501MD1210191+9999REMSYN082AAXX  10094 60764 32656 40423 10208 20181 30150 40201 52019 82580 333 82633 83360;EQDQ01  00002PRCP99
0201607640999992000111012004+33690+008970FM-12+004699999V0200501N008712200019N0080001N1+02461+01991101931ADDAA199000091GA1011+030009039GF103991011001999999081021MA1999999101431MD1810071+9999REMSYN088AAXX  10124 60764 32958 30517 10246 20199 30143 40193 58007 81082 333 50481 81360 83070;EQDQ01  00002PRCP99
0173607640999992000111109004+33690+008970FM-12+004699999V0200401N011812200019N0060001N1+01881+01611102331ADDAA199000091GA1001+999999999GF100991001001999999001001MA1999999101821MD1210201+9999REMSYN060AAXX  11094 60764 32956 00423 10188 20161 30182 40233 52020;EQDQ01  00002PRCP99
0195607640999992000111112004+33690+008970FM-12+004699999V0200501N008712200019N0100001N1+02401+01561102281ADDAA199000091GA1021+060009019GF102991001001999999001021MA1999999101781MD1810041+9999REMSYN082AAXX  11124 60764 32960 20517 10240 20156 30178 40228 58004 80002 333 50421 82070;EQDQ01  00002PRCP99
0173607640999992000111209004+33690+008970FM-12+004699999V0201101N004112200019N0100001N1+02251+01201102411ADDAA199000091GA1001+999999999GF100991001001999999001001MA1999999101901MD1210041+9999REMSYN060AAXX  12094 60764 32960 01108 10225 20120 30190 40241 52004;EQDQ01  00002PRCP99
0183607640999992000111212004+33690+008970FM-12+004699999V0201301N004112200019N0150001N1+02561+01101102341ADDAA199000091GA1001+999999999GF100991001001999999001001MA1999999101841MD1810061+9999REMSYN070AAXX  12124 60764 32965 01308 10256 20110 30184 40234 58006 333 50331;EQDQ01  00002PRCP99
0208607640999992000111306004+33690+008970FM-12+004699999V0201201N003110600019N0100001N1+01501+00901102041ADDAA199000091GA1051+060009019GF105991001001999999001021KA1120N+01311MA1999999101521MD1410001+9999REMSYN082AAXX  13064 60764 33960 51206 10150 20090 30152 40204 54000 80002 333 20131 85070;EQDQ01  00002PRCP99
0189607640999992000111309004+33690+008970FM-12+004699999V0201301N007210600019N0100001N1+02041+00871102101ADDAA199000091GA1061+060009019GF106991001001999999001021MA1999999101591MD1310071+9999REMSYN076AAXX  13094 60764 32960 61314 10204 20087 30159 40210 53007 80002 333 86070;EQDQ01  00002PRCP99
0208607640999992000111318004+33690+008970FM-12+004699999V0201601N001012200019N0100001N1+02241+01091101731ADDAA199000091GA1031+060009019GF103991001001999999001021KA1120M+02741MA1999999101231MD1310051+9999REMSYN082AAXX  13184 60764 32960 31602 10224 20109 30123 40173 53005 80002 333 10274 83070;EQDQ01  00002PRCP99
0189607640999992000111409004+33690+008970FM-12+004699999V0201301N007210600019N0100001N1+02071+00881101721ADDAA199000091GA1051+060009019GF105991001001999999001021MA1999999101211MD1210041+9999REMSYN076AAXX  14094 60764 32960 51314 10207 20088 30121 40172 52004 80002 333 85070;EQDQ01  00002PRCP99
0195607640999992000111412004+33690+008970FM-12+004699999V0201501N002112200019N0120001N1+02641+00981101571ADDAA199000091GA1031+060009019GF103991001001999999001021MA1999999101071MD1810151+9999REMSYN082AAXX  14124 60764 32962 31504 10264 20098 30107 40157 58015 80002 333 50861 83070;EQDQ01  00002PRCP99
0208607640999992000111418004+33690+008970FM-12+004699999V0209999C000012200019N0080001N1+02281+01071101521ADDAA199000091GA1021+060009019GF102991001001999999001021KA1120M+02851MA1999999101021MD1310091+9999REMSYN082AAXX  14184 60764 32958 20000 10228 20107 30102 40152 53009 80002 333 10285 82070;EQDQ01  00002PRCP99
0183607640999992000111512004+33690+008970FM-12+004699999V0201701N002112200019N0080001N1+02621+01071101531ADDAA199000091GA1001+999999999GF100991001001999999001001MA1999999101031MD1810141+9999REMSYN070AAXX  15124 60764 32958 01704 10262 20107 30103 40153 58014 333 50531;EQDQ01  00002PRCP99
0189607640999992000111515004+33690+008970FM-12+004699999V0201501N005112200019N0080001N1+02871+01111101351ADDAA199000091GA1021+060009019GF102991001001999999001021MA1999999100861MD1610171+9999REMSYN076AAXX  15154 60764 32958 21510 10287 20111 30086 40135 56017 80002 333 82070;EQDQ01  00002PRCP99
0208607640999992000111606004+33690+008970FM-12+004699999V0201201N007210300019N0080001N1+01931+01031101191ADDAA199000091GA1051+030009079GF105991051001999999081001KA1120N+01771MA1999999100681MD1610101+9999REMSYN082AAXX  16064 60764 33958 51214 10193 20103 30068 40119 56010 85080 333 20177 85360;EQDQ01  00002PRCP99
0195607640999992000111609004+33690+008970FM-12+004699999V0201101N00621036001CN0070001N1+02291+00781101251ADDAA199000091GA1021+009909069GF105991021051012501081001MA1999999100751MD1310071+9999REMSYN082AAXX  16094 60764 32657 51112 10229 20078 30075 40125 53007 82580 333 82633 84360;EQDQ01  00002PRCP99
0201607640999992000111612004+33690+008970FM-12+004699999V0201701N005112200019N0070001N1+02881+00691100921ADDAA199000091GA1011+030009039GF103991011001999999081021MA1999999100431MD1810321+9999REMSYN088AAXX  16124 60764 32957 31710 10288 20069 30043 40092 58032 81082 333 50811 81360 83070;EQDQ01  00002PRCP99
0189607640999992000111615004+33690+008970FM-12+004699999V0202301N004112200019N0060001N1+02901+00631100821ADDAA199000091GA1031+030009079GF104991031001999999081001MA1999999100331MD1710101+9999REMSYN076AAXX  16154 60764 32956 42308 10290 20063 30033 40082 57010 83080 333 83360;EQDQ01  00002PRCP99
0208607640999992000111706004+33690+008970FM-12+004699999V0201401N002112200019N0080001N1+00721+00541101561ADDAA199000091GA1021+060009019GF104991001001999999001021KA1120N+00661MA1999999101031MD1210161+9999REMSYN082AAXX  17064 60764 33958 41404 10072 20054 30103 40156 52016 80002 333 20066 82070;EQDQ01  00002PRCP99
0173607640999992000111709004+33690+008970FM-12+004699999V0201301N004112200019N0100001N1+01251+00521101711ADDAA199000091GA1001+999999999GF100991001001999999001001MA1999999101191MD1210161+9999REMSYN060AAXX  17094 60764 32960 01308 10125 20052 30119 40171 52016;EQDQ01  00002PRCP99
0183607640999992000111712004+33690+008970FM-12+004699999V0201401N005112200019N0120001N1+01671+00841101581ADDAA199000091GA1001+999999999GF100991001001999999001001MA1999999101071MD1810121+9999REMSYN070AAXX  17124 60764 32962 01410 10167 20084 30107 40158 58012 333 50841;EQDQ01  00002PRCP99
0202607640999992000111806004+33690+008970FM-12+004699999V0201501N002112200019N0080001N1+00551+99999101491ADDAA199000091GA1021+009909059GF103991021051012501081001KA1120N+00441MA1999999100961MD1310061+9999REMSYN076AAXX  18064 60764 33658 31504 10055 30096 40149 53006 82580 333 20044 82633;EQDQ01  00002PRCP99
0189607640999992000111809004+33690+008970FM-12+004699999V0201501N003112200019N0100001N1+01131+00411101591ADDAA199000091GA1021+009909059GF103991021051012501081001MA1999999101071MD1310111+9999REMSYN076AAXX  18094 60764 32660 31506 10113 20041 30107 40159 53011 82580 333 82633;EQDQ01  00002PRCP99
0195607640999992000111812004+33690+008970FM-12+004699999V0201201N002112200019N0120001N1+01611+00641101551ADDAA199000091GA1021+030009079GF102991021001999999081001MA1999999101031MD1810041+9999REMSYN082AAXX  18124 60764 32962 21204 10161 20064 30103 40155 58004 82080 333 50321 82360;EQDQ01  00002PRCP99
0208607640999992000111906004+33690+008970FM-12+004699999V0202001N005112200019N0100001N1+00561+00221102031ADDAA199000091GA1021+009009029GF102991021021999999001001KA1120N+00501MA1999999101371MD1310051+9999REMSYN082AAXX  19064 60764 33960 22010 10056 20022 30137 40203 53005 82200 333 20050 82830;EQDQ01  00002PRCP99
0189607640999992000111909004+33690+008970FM-12+004699999V0201101N002112200019N0080001N1+01381+00361101981ADDAA199000091GA1021+009009059GF102991021051008001001001MA1999999100951MD1310091+9999REMSYN076AAXX  19094 60764 32558 21104 10138 20036 30095 40198 53009 82500 333 82630;EQDQ01  00002PRCP99
0196607640999992000112006004+33690+008970FM-12+004699999V0201801N001012200019N0080001N1+00231+00151102031ADDAA199000091GA1001+999999999GF100991001001999999001001KA1999N+00151MA1999999101491MD1310101+9999REMSYN070AAXX  20064 60764 33958 01802 10023 20015 30149 40203 53010 333 20015;EQDQ01  00002PRCP99
0173607640999992000112009004+33690+008970FM-12+004699999V0201401N002112200019N0120001N1+01001+00291102101ADDAA199000091GA1001+999999999GF100991001001999999001001MA1999999101571MD1210081+9999REMSYN060AAXX  20094 60764 32962 01404 10100 20029 30157 40210 52008;EQDQ01  00002PRCP99
0195607640999992000112012004+33690+008970FM-12+004699999V0202301N003112200019N0150001N1+01641+00491101951ADDAA199000091GA1021+060009019GF102991001001999999001021MA1999999101431MD1810141+9999REMSYN082AAXX  20124 60764 32965 22306 10164 20049 30143 40195 58014 80002 333 50241 82070;EQDQ01  00002PRCP99
0173607640999992000112015004+33690+008970FM-12+004699999V0202601N004112200019N0150001N1+01851+00401101731ADDAA199000091GA1001+999999999GF100991001001999999001001MA1999999101221MD1610211+9999REMSYN060AAXX  20154 60764 32965 02608 10185 20040 30122 40173 56021;EQDQ01  00002PRCP99
0208607640999992000112106004+33690+008970FM-12+004699999V0201301N002112200019N0100001N1+00481+00101101741ADDAA199000091GA1041+060009019GF104991001001999999001021KA1120N+00301MA1999999101211MD1310071+9999REMSYN082AAXX  21064 60764 33960 41304 10048 20010 30121 40174 53007 80002 333 20030 84070;EQDQ01  00002PRCP99
0189607640999992000112109004+33690+008970FM-12+004699999V0201601N003110600019N0100001N1+01091+00261101841ADDAA199000091GA1051+060009019GF105991001001999999001021MA1999999101311MD1110101+9999REMSYN076AAXX  21094 60764 32960 51606 10109 20026 30131 40184 51010 80002 333 85070;EQDQ01  00002PRCP99
0195607640999992000112112004+33690+008970FM-12+004699999V0202301N003112200019N0150001N1+01721+00431101691ADDAA199000091GA1021+060009019GF102991001001999999001021MA1999999101181MD1810131+9999REMSYN082AAXX  21124 60764 32965 22306 10172 20043 30118 40169 58013 80002 333 50261 82070;EQDQ01  00002PRCP99
0173607640999992000112115004+33690+008970FM-12+004699999V0202601N005112200019N0150001N1+01961+00651101641ADDAA199000091GA1001+999999999GF100991001001999999001001MA1999999101131MD1610051+9999REMSYN060AAXX  21154 60764 32965 02610 10196 20065 30113 40164 56005;EQDQ01  00002PRCP99
0208607640999992000112206004+33690+008970FM-12+004699999V0201001N002112200019N0100001N1+00671+00401102151ADDAA199000091GA1021+060009019GF102991001001999999001021KA1120N+00341MA1999999101621MD1210131+9999REMSYN082AAXX  22064 60764 33960 21004 10067 20040 30162 40215 52013 80002 333 20034 82070;EQDQ01  00002PRCP99
0173607640999992000112209004+33690+008970FM-12+004699999V0201201N004112200019N0150001N1+01281+00421102281ADDAA199000091GA1001+999999999GF100991001001999999001001MA1999999101761MD1210141+9999REMSYN060AAXX  22094 60764 32965 01208 10128 20042 30176 40228 52014;EQDQ01  00002PRCP99
0183607640999992000112212004+33690+008970FM-12+004699999V0201701N002112200019N0150001N1+01921+00571102231ADDAA199000091GA1001+999999999GF100991001001999999001001MA1999999101721MD1810041+9999REMSYN070AAXX  22124 60764 32965 01704 10192 20057 30172 40223 58004 333 50291;EQDQ01  00002PRCP99
0173607640999992000112215004+33690+008970FM-12+004699999V0202201N002112200019N0150001N1+02061+00671102071ADDAA199000091GA1001+999999999GF100991001001999999001001MA1999999101561MD1710161+9999REMSYN060AAXX  22154 60764 32965 02204 10206 20067 30156 40207 57016;EQDQ01  00002PRCP99
0173607640999992000112309004+33690+008970FM-12+004699999V0201301N003112200019N0150001N1+01271+00401102191ADDAA199000091GA1001+999999999GF100991001001999999001001MA1999999101671MD1310051+9999REMSYN060AAXX  23094 60764 32965 01306 10127 20040 30167 40219 53005;EQDQ01  00002PRCP99
0195607640999992000112312004+33690+008970FM-12+004699999V0202401N003112200019N0150001N1+01851+00541101981ADDAA199000091GA1021+060009019GF102991001001999999001021MA1999999101471MD1810201+9999REMSYN082AAXX  23124 60764 32965 22406 10185 20054 30147 40198 58020 80002 333 50231 82070;EQDQ01  00002PRCP99
0189607640999992000112315004+33690+008970FM-12+004699999V0202301N004112200019N0150001N1+02031+00581101741ADDAA199000091GA1031+060009019GF103991001001999999001021MA1999999101231MD1710241+9999REMSYN076AAXX  23154 60764 32965 32308 10203 20058 30123 40174 57024 80002 333 83070;EQDQ01  00002PRCP99
0208607640999992000112406004+33690+008970FM-12+004699999V0201201N001010600019N0100001N1+00701+00321101651ADDAA199000091GA1061+060009019GF106991001001999999001021KA1120N+00501MA1999999101121MD1610071+9999REMSYN082AAXX  24064 60764 33960 61202 10070 20032 30112 40165 56007 80002 333 20050 86070;EQDQ01  00002PRCP99
0195607640999992000112409004+33690+008970FM-12+004699999V0201701N003119999999N0100001N1+01291+00451101641ADDAA199000091GA1021+030009039GF106991021001999999081021MA1999999101121MD1410001+9999REMSYN082AAXX  24094 60764 32960 61706 10129 20045 30112 40164 54000 82082 333 82360 85070;EQDQ01  00002PRCP99
0201607640999992000112412004+33690+008970FM-12+004699999V0202201N00411036001CN0120001N1+01811+00621101501ADDAA199000091GA1031+009909069GF105991031051012501081001MA1999999100991MD1810131+9999REMSYN088AAXX  24124 60764 32662 52208 10181 20062 30099 40150 58013 83580 333 50251 83633 83360;EQDQ01  00002PRCP99
0189607640999992000112415004+33690+008970FM-12+004699999V0202901N007210360019N0120001N1+01881+00691101431ADDAA199000091GA1041+009909059GF105991041051012501081001MA1999999100921MD1610071+9999REMSYN076AAXX  24154 60764 32662 52914 10188 20069 30092 40143 56007 84580 333 84633;EQDQ01  00002PRCP99
0208607640999992000112506004+33690+008970FM-12+004699999V0200801N001010099019N0100001N1+00671+00341101821ADDAA199000091GA1051+009909059GF106991021051012501081021KA1120N+00301MA1999999101291MD1310031+9999REMSYN082AAXX  25064 60764 33660 60802 10067 20034 30129 40182 53003 82582 333 20030 85633;EQDQ01  00002PRCP99
0195607640999992000112509004+33690+008970FM-12+004699999V0201201N00311036001CN0100001N1+01081+00361101941ADDAA199000091GA1031+009909089GF105991031021012501081001MA1999999101411MD1110121+9999REMSYN082AAXX  25094 60764 32660 51206 10108 20036 30141 40194 51012 83280 333 83833 83360;EQDQ01  00002PRCP99
0195607640999992000112512004+33690+008970FM-12+004699999V0202301N002112200019N0150001N1+01691+00391101861ADDAA199000091GA1021+030009079GF102991021001999999081001MA1999999101341MD1810071+9999REMSYN082AAXX  25124 60764 32965 22304 10169 20039 30134 40186 58007 82080 333 50331 82360;EQDQ01  00002PRCP99
0189607640999992000112515004+33690+008970FM-12+004699999V0202601N005112200019N0150001N1+01881+00531101761ADDAA199000091GA1011+030009079GF101991011001999999081001MA1999999101251MD1610091+9999REMSYN076AAXX  25154 60764 32965 12610 10188 20053 30125 40176 56009 81080 333 81360;EQDQ01  00002PRCP99
0208607640999992000112606004+33690+008970FM-12+004699999V0201801N001012200019N0100001N1+00391+00141102301ADDAA199000091GA1031+060009019GF103991001001999999001021KA1120N+00151MA1999999101771MD1310141+9999REMSYN082AAXX  26064 60764 33960 31802 10039 20014 30177 40230 53014 80002 333 20015 83070;EQDQ01  00002PRCP99
0189607640999992000112609004+33690+008970FM-12+004699999V0201401N002112200019N0150001N1+01131+00491102451ADDAA199000091GA1031+060009019GF103991001001999999001021MA1999999101921MD1210151+9999REMSYN076AAXX  26094 60764 32965 31404 10113 20049 30192 40245 52015 80002 333 83070;EQDQ01  00002PRCP99
0195607640999992000112612004+33690+008970FM-12+004699999V02099999999992200019N0150001N1+01721+00341102401ADDAA199000091GA1021+060009019GF102991001001999999001021MA1999999101881MD1810041+9999REMSYN082AAXX  26124 60764 32965 2//06 10172 20034 30188 40240 58004 80002 333 50271 82070;EQDQ01  00002PRCP99
0208607640999992000112706004+33690+008970FM-12+004699999V0200901N002112200019N0100001N1+00721+00631102421ADDAA199000091GA1021+060009019GF102991001001999999001021KA1120N+00621MA1999999101891MD1310061+9999REMSYN082AAXX  27064 60764 33960 20904 10072 20063 30189 40242 53006 80002 333 20062 82070;EQDQ01  00002PRCP99
0189607640999992000112709004+33690+008970FM-12+004699999V0201301N002112200019N0150001N1+01411+00901102531ADDAA199000091GA1021+060009019GF102991001001999999001021MA1999999102011MD1210121+9999REMSYN076AAXX  27094 60764 32965 21304 10141 20090 30201 40253 52012 80002 333 82070;EQDQ01  00002PRCP99
0195607640999992000112712004+33690+008970FM-12+004699999V0202201N003112200019N0150001N1+02051+01091102361ADDAA199000091GA1031+060009019GF103991001001999999001021MA1999999101851MD1810161+9999REMSYN082AAXX  27124 60764 32965 32206 10205 20109 30185 40236 58016 80002 333 50271 83070;EQDQ01  00002PRCP99
0189607640999992000112715004+33690+008970FM-12+004699999V0202601N006212200019N0150001N1+02391+01201102111ADDAA199000091GA1031+060009019GF103991001001999999001021MA1999999101681MD1710171+9999REMSYN076AAXX  27154 60764 32965 32612 10239 20120 30168 40211 57017 80002 333 83070;EQDQ01  00002PRCP99
0208607640999992000112806004+33690+008970FM-12+004699999V0200901N002112200019N0120001N1+00861+00731102421ADDAA199000091GA1031+060009019GF103991001001999999001021KA1120N+00771MA1999999101891MD1310051+9999REMSYN082AAXX  28064 60764 33962 30904 10086 20073 30189 40242 53005 80002 333 20077 83070;EQDQ01  00002PRCP99
0189607640999992000112809004+33690+008970FM-12+004699999V0201201N003110600019N0150001N1+01471+00991102511ADDAA199000091GA1051+060009019GF105991001001999999001021MA1999999101991MD1210101+9999REMSYN076AAXX  28094 60764 32965 51206 10147 20099 30199 40251 52010 80002 333 85070;EQDQ01  00002PRCP99
0195607640999992000112812004+33690+008970FM-12+004699999V0201401N002112200019N0150001N1+02131+01251102331ADDAA199000091GA1021+060009019GF102991001001999999001021MA1999999101821MD1810171+9999REMSYN082AAXX  28124 60764 32965 21404 10213 20125 30182 40233 58017 80002 333 50311 82070;EQDQ01  00002PRCP99
0196607640999992000112906004+33690+008970FM-12+004699999V0201901N002112200019N0100001N1+00951+00871102281ADDAA199000091GA1001+999999999GF100991001001999999001001KA1999N+00891MA1999999101751MD1310021+9999REMSYN070AAXX  29064 60764 33960 01904 10095 20087 30175 40228 53002 333 20089;EQDQ01  00002PRCP99
0173607640999992000112909004+33690+008970FM-12+004699999V0201301N004112200019N0120001N1+01561+01201102321ADDAA199000091GA1001+999999999GF100991001001999999001001MA1999999101801MD1210051+9999REMSYN060AAXX  29094 60764 32962 01308 10156 20120 30180 40232 52005;EQDQ01  00002PRCP99
0195607640999992000112912004+33690+008970FM-12+004699999V0202101N002112200019N0150001N1+02161+01141102171ADDAA199000091GA1031+060009019GF103991001001999999001021MA1999999101661MD1810141+9999REMSYN082AAXX  29124 60764 32965 32104 10216 20114 30166 40217 58014 80002 333 50201 83070;EQDQ01  00002PRCP99
0194607640999992000113006004+33690+008970FM-12+004699999V0201401N001019999999N0080001N1+00881+00671102101ADDAA199000091GA1021+030009039GF106991021001999999081021KA1120N+00841MA1999999101571REMSYN082AAXX  30064 60764 33958 61402 10088 20067 30157 40210 82082 333 20084 82360 85070;EQDQ01  00002PRCP99
0195607640999992000113012004+33690+008970FM-12+004699999V0202301N001012200019N0150001N1+02201+01021102111ADDAA199000091GA1021+060009019GF102991001001999999001021MA1999999101601MD1810121+9999REMSYN082AAXX  30124 60764 32965 22302 10220 20102 30160 40211 58012 80002 333 50261 82070;EQDQ01  00002PRCP99
0189607640999992000113015004+33690+008970FM-12+004699999V0200601N001012200019N0150001N1+02281+00681102031ADDAA199000091GA1021+060009019GF102991001001999999001021MA1999999101531MD1710071+9999REMSYN076AAXX  30154 60764 32965 20602 10228 20068 30153 40203 57007 80002 333 82070;EQDQ01  00002PRCP99
0208607640999992000120106004+33690+008970FM-12+004699999V0209999C000012200019N0060001N1+00731+00601102321ADDAA199000091GA1011+030009079GF102991011001999999081021KA1120N+00701MA1999999101791MD1310071+9999REMSYN082AAXX  01064 60764 33956 20000 10073 20060 30179 40232 53007 81082 333 20070 81360;EQDQ01  00002PRCP99
0189607640999992000120109004+33690+008970FM-12+004699999V0200901N001012200019N0070001N1+01311+01011102411ADDAA199000091GA1011+009909059GF101991011051012501001001MA1999999101891MD1210141+9999REMSYN076AAXX  01094 60764 32657 10902 10131 20101 30189 40241 52014 81500 333 81633;EQDQ01  00002PRCP99
0195607640999992000120112004+33690+008970FM-12+004699999V0201001N003112200019N0120001N1+02141+01201102351ADDAA199000091GA1021+060009019GF102991001001999999001021MA1999999101831MD1810061+9999REMSYN082AAXX  01124 60764 32962 21006 10214 20120 30183 40235 58006 80002 333 50231 82070;EQDQ01  00002PRCP99
0208607640999992000120206004+33690+008970FM-12+004699999V0201701N002112200019N0080001N1+00741+00441102301ADDAA199000091GA1021+060009019GF102991001001999999001021KA1120N+00661MA1999999101771MD1310041+9999REMSYN082AAXX  02064 60764 33958 21704 10074 20044 30177 40230 53004 80002 333 20066 82070;EQDQ01  00002PRCP99
0183607640999992000120212004+33690+008970FM-12+004699999V0201301N004112200019N0150001N1+02231+01101102331ADDAA199000091GA1001+999999999GF100991001001999999001001MA1999999101821MD1810051+9999REMSYN070AAXX  02124 60764 32965 01308 10223 20110 30182 40233 58005 333 50171;EQDQ01  00002PRCP99
0208607640999992000120306004+33690+008970FM-12+004699999V0201101N002112200019N0080001N1+00681+00481102031ADDAA199000091GA1021+009909029GF102991021021012501001001KA1120N+00621MA1999999101501MD1510041+9999REMSYN082AAXX  03064 60764 33658 21104 10068 20048 30150 40203 55004 82200 333 20062 82833;EQDQ01  00002PRCP99
0195607640999992000120309004+33690+008970FM-12+004699999V0202001N003112200019N0100001N1+01151+00581102071ADDAA199000091GA1021+009909089GF104991021021012501001021MA1999999101551MD1210051+9999REMSYN082AAXX  03094 60764 32660 42006 10115 20058 30155 40207 52005 82202 333 82833 83070;EQDQ01  00002PRCP99
0201607640999992000120312004+33690+008970FM-12+004699999V0202101N002112200019N0120001N1+01861+00891102101ADDAA199000091GA1011+030009039GF103991011001999999081021MA1999999101581MD1010031+9999REMSYN088AAXX  03124 60764 32962 32104 10186 20089 30158 40210 50003 81082 333 50271 81360 83070;EQDQ01  00002PRCP99
0208607640999992000120406004+33690+008970FM-12+004699999V0201001N001012200019N0070001N1+00451+00141102241ADDAA199000091GA1021+060009019GF102991001001999999001021KA1120N+00341MA1999999101701MD1310101+9999REMSYN082AAXX  04064 60764 33957 21002 10045 20014 30170 40224 53010 80002 333 20034 82070;EQDQ01  00002PRCP99
0189607640999992000120409004+33690+008970FM-12+004699999V0201201N001012200019N0100001N1+01061+00431102361ADDAA199000091GA1031+060009019GF103991001001999999001021MA1999999101831MD1110131+9999REMSYN076AAXX  04094 60764 32960 31202 10106 20043 30183 40236 51013 80002 333 83070;EQDQ01  00002PRCP99
0195607640999992000120412004+33690+008970FM-12+004699999V0202701N001012200019N0150001N1+01841+00791102161ADDAA199000091GA1021+060009019GF102991001001999999001021MA1999999101641MD1810191+9999REMSYN082AAXX  04124 60764 32965 22702 10184 20079 30164 40216 58019 80002 333 50361 82070;EQDQ01  00002PRCP99
0208607640999992000120506004+33690+008970FM-12+004699999V0201501N001010600019N0100001N1+00261-00011102461ADDAA199000091GA1051+060009019GF105991001001999999001021KA1120N+00231MA1999999101921MD1310111+9999REMSYN082AAXX  05064 60764 33960 51502 10026 21001 30192 40246 53011 80002 333 20023 85070;EQDQ01  00002PRCP99
0189607640999992000120509004+33690+008970FM-12+004699999V0201201N003112200019N0100001N1+01031+00281102561ADDAA199000091GA1041+060009019GF104991001001999999001021MA1999999102031MD1210111+9999REMSYN076AAXX  05094 60764 32960 41206 10103 20028 30203 40256 52011 80002 333 84070;EQDQ01  00002PRCP99
0195607640999992000120512004+33690+008970FM-12+004699999V0201501N003112200019N0150001N1+01821+00681102481ADDAA199000091GA1031+060009019GF103991001001999999001021MA1999999101961MD1810071+9999REMSYN082AAXX  05124 60764 32965 31506 10182 20068 30196 40248 58007 80002 333 50251 83070;EQDQ01  00002PRCP99
0208607640999992000120606004+33690+008970FM-12+004699999V0201801N001012200019N0080001N1+00291+00001102481ADDAA199000091GA1031+060009019GF103991001001999999001021KA1120N+00151MA1999999101941MD1310041+9999REMSYN082AAXX  06064 60764 33958 31802 10029 20000 30194 40248 53004 80002 333 20015 83070;EQDQ01  00002PRCP99
0214607640999992000120706004+33690+008970FM-12+004699999V0201201N002119999999N0080001N1+00501+00151102501ADDAA199000091GA1011+030009039GF105991011001999999081021KA1120N+00321MA1999999101961MD1610071+9999REMSYN088AAXX  07064 60764 33958 51204 10050 20015 30196 40250 56007 81082 333 20032 81360 85070;EQDQ01  00002PRCP99
0189607640999992000120709004+33690+008970FM-12+004699999V0201201N002112200019N0120001N1+01031+00421102581ADDAA199000091GA1031+060009019GF103991001001999999001021MA1999999102051MD1210091+9999REMSYN076AAXX  07094 60764 32962 31204 10103 20042 30205 40258 52009 80002 333 83070;EQDQ01  00002PRCP99
0195607640999992000120712004+33690+008970FM-12+004699999V0202001N003112200019N0150001N1+01811+00511102381ADDAA199000091GA1031+060009019GF103991001001999999001021MA1999999101861MD1810131+9999REMSYN082AAXX  07124 60764 32965 32006 10181 20051 30186 40238 58013 80002 333 50211 83070;EQDQ01  00002PRCP99
0214607640999992000120806004+33690+008970FM-12+004699999V0201001N00311036001CN0100001N1+00641+00201102291ADDAA199000091GA1021+009909069GF106991021051012501081001KA1120N+00571MA1999999101751MD1310031+9999REMSYN088AAXX  08064 60764 32660 61006 10064 20020 30175 40229 53003 82580 333 20057 82633 85360;EQDQ01  00002PRCP99
0189607640999992000120809004+33690+008970FM-12+004699999V0201401N002112200019N0100001N1+01331+00321102371ADDAA199000091GA1031+030009079GF103991031001999999081001MA1999999101851MD1210101+9999REMSYN076AAXX  08094 60764 32960 31404 10133 20032 30185 40237 52010 83080 333 83360;EQDQ01  00002PRCP99
0195607640999992000120812004+33690+008970FM-12+004699999V0202101N005112200019N0150001N1+02021+00521102191ADDAA199000091GA1021+030009079GF103991021001999999081021MA1999999101681MD1810171+9999REMSYN082AAXX  08124 60764 32965 32110 10202 20052 30168 40219 58017 82082 333 50301 82360;EQDQ01  00002PRCP99
0208607640999992000120906004+33690+008970FM-12+004699999V0201501N002112200019N0100001N1+00571+00091102381ADDAA199000091GA1021+060009019GF102991001001999999001021KA1120N+00361MA1999999101841MD1310121+9999REMSYN082AAXX  09064 60764 33960 21504 10057 20009 30184 40238 53012 80002 333 20036 82070;EQDQ01  00002PRCP99
0189607640999992000120909004+33690+008970FM-12+004699999V0201201N004112200019N0150001N1+01431+00491102511ADDAA199000091GA1031+060009019GF103991001001999999001021MA1999999101991MD1210151+9999REMSYN076AAXX  09094 60764 32965 31208 10143 20049 30199 40251 52015 80002 333 83070;EQDQ01  00002PRCP99
0217607640999992000121009004+33690+008970FM-12+004699999V0200401N012919999999N0020001N1+01721+01351102741ADDAA199000091AY121031AY221031GA1041+030009079GF105991041001999999081021MA1999999102221MD1210171+9999MW1071REMSYN082AAXX  10094 60764 31920 50425 10172 20135 30222 40274 52017 70722 84082 333 84360;EQDQ01  00002PRCP99
0229607640999992000121012004+33690+008970FM-12+004699999V0200301N01291036001CN0020001N1+02011+01321102831ADDAA199000091AY121061AY221061GA1021+009909069GF106991021051012501081001MA1999999102321MD1210101+9999MW1071REMSYN094AAXX  10124 60764 31620 60325 10201 20132 30232 40283 52010 70722 82580 333 50411 82633 85360;EQDQ01  00002PRCP99
0208607640999992000121106004+33690+008970FM-12+004699999V0200501N005110099019N0080001N1+01301+01091103161ADDAA199000091GA1061+009909059GF106991061051012501001001KA1120N+01261MA1999999102631MD1310131+9999REMSYN082AAXX  11064 60764 33658 60510 10130 20109 30263 40316 53013 86500 333 20126 86633;EQDQ01  00002PRCP99
0195607640999992000121109004+33690+008970FM-12+004699999V0200501N00721090001CN0100001N1+01531+00921103331ADDAA199000091GA1041+000609059GF106991041051012501001021MA1999999102801MD1210171+9999REMSYN082AAXX  11094 60764 32660 60514 10153 20092 30280 40333 52017 84502 333 84633 83070;EQDQ01  00002PRCP99
0201607640999992000121112004+33690+008970FM-12+004699999V0200401N00821090001CN0120001N1+01921+01201103231ADDAA199000091GA1031+009909069GF106991031051012501001021MA1999999102711MD1810091+9999REMSYN088AAXX  11124 60764 32662 60416 10192 20120 30271 40323 58009 83502 333 50331 83633 84070;EQDQ01  00002PRCP99
0208607640999992000121206004+33690+008970FM-12+004699999V0209999C000012200019N0100001N1+00771+00661103241ADDAA199000091GA1021+009909059GF103991021051012501001021KA1120N+00521MA1999999102701MD1810091+9999REMSYN082AAXX  12064 60764 33660 30000 10077 20066 30270 40324 58009 82502 333 20052 82633;EQDQ01  00002PRCP99
0189607640999992000121209004+33690+008970FM-12+004699999V0209999C000012200019N0100001N1+01471+00961103411ADDAA199000091GA1021+060009019GF102991001001999999001021MA1999999102881MD1210181+9999REMSYN076AAXX  12094 60764 32960 20000 10147 20096 30288 40341 52018 80002 333 82070;EQDQ01  00002PRCP99
0195607640999992000121212004+33690+008970FM-12+004699999V0200301N001012200019N0120001N1+01901+01181103361ADDAA199000091GA1021+060009019GF102991001001999999001021MA1999999102841MD1810071+9999REMSYN082AAXX  12124 60764 32962 20302 10190 20118 30284 40336 58007 80002 333 50261 82070;EQDQ01  00002PRCP99
0208607640999992000121306004+33690+008970FM-12+004699999V0209999C000012200019N0080001N1+00171+00031103301ADDAA199000091GA1021+060009019GF102991001001999999001021KA1120N+00091MA1999999102751MD1410001+9999REMSYN082AAXX  13064 60764 33958 20000 10017 20003 30275 40330 54000 80002 333 20009 82070;EQDQ01  00002PRCP99
0189607640999992000121309004+33690+008970FM-12+004699999V0209999C000012200019N0100001N1+01091+00611103391ADDAA199000091GA1021+060009019GF102991001001999999001021MA1999999102861MD1210111+9999REMSYN076AAXX  13094 60764 32960 20000 10109 20061 30286 40339 52011 80002 333 82070;EQDQ01  00002PRCP99
0195607640999992000121312004+33690+008970FM-12+004699999V0202401N003112200019N0150001N1+01741+00891103161ADDAA199000091GA1031+060009019GF103991001001999999001021MA1999999102641MD1810221+9999REMSYN082AAXX  13124 60764 32965 32406 10174 20089 30264 40316 58022 80002 333 50311 83070;EQDQ01  00002PRCP99
0196607640999992000121406004+33690+008970FM-12+004699999V0201201N002112200019N0070001N1+00211+00161102961ADDAA199000091GA1001+999999999GF100991001001999999001001KA1999N+00131MA1999999102411MD1310031+9999REMSYN070AAXX  14064 60764 33957 01204 10021 20016 30241 40296 53003 333 20013;EQDQ01  00002PRCP99
0174607640999992000121409004+33690+008970FM-12+004699999V0201201N002112200019N0080001N1+00881+00481102941ADDAA199000091GA1001+999999999GF100991001001999999001001MD1410001+9999REMSYN060AAXX  14094 60764 32958 01204 10088 20048 39241 40294 54000;EQDQ01+092413APOSP Q02  00002PRCP99
0183607640999992000121412004+33690+008970FM-12+004699999V0202201N004112200019N0120001N1+01681+00701102721ADDAA199000091GA1001+999999999GF100991001001999999001001MA1999999102201MD1810211+9999REMSYN070AAXX  14124 60764 32962 02208 10168 20070 30220 40272 58021 333 50191;EQDQ01  00002PRCP99
0208607640999992000121506004+33690+008970FM-12+004699999V0201601N001012200019N0060001N1+00181+00101102331ADDAA199000091GA1021+060009019GF102991001001999999001021KA1120N+00101MA1999999101781MD1610081+9999REMSYN082AAXX  15064 60764 33956 21602 10018 20010 30178 40233 56008 80002 333 20010 82070;EQDQ01  00002PRCP99
0173607640999992000121509004+33690+008970FM-12+004699999V0201701N001012200019N0080001N1+00931+00491102331ADDAA199000091GA1001+999999999GF100991001001999999001001MA1999999101801MD1310021+9999REMSYN060AAXX  15094 60764 32958 01702 10093 20049 30180 40233 53002;EQDQ01  00002PRCP99
0195607640999992000121512004+33690+008970FM-12+004699999V0202101N003112200019N0100001N1+01591+00751102081ADDAA199000091GA1041+060009019GF104991001001999999001021MA1999999101561MD1710241+9999REMSYN082AAXX  15124 60764 32960 42106 10159 20075 30156 40208 57024 80002 333 50221 84070;EQDQ01  00002PRCP99
0196607640999992000121606004+33690+008970FM-12+004699999V0201801N002112200019N0070001N1+00031-00051101931ADDAA199000091GA1001+999999999GF100991001001999999001001KA1999N-00111MA1999999101381MD1310061+9999REMSYN070AAXX  16064 60764 33957 01804 10003 21005 30138 40193 53006 333 21011;EQDQ01  00002PRCP99
0183607640999992000121612004+33690+008970FM-12+004699999V0202101N002112200019N0150001N1+01541+00911102131ADDAA199000091GA1001+999999999GF100991001001999999001001MA1999999101611MD1110031+9999REMSYN070AAXX  16124 60764 32965 02104 10154 20091 30161 40213 51003 333 50161;EQDQ01  00002PRCP99
0208607640999992000121706004+33690+008970FM-12+004699999V0200301N006212200019N0060001N1+01151+00931102091ADDAA199000091GA1031+060009019GF103991001001999999001021KA1120N+00851MA1999999101571MD1310101+9999REMSYN082AAXX  17064 60764 33956 30312 10115 20093 30157 40209 53010 80002 333 20085 83070;EQDQ01  00002PRCP99
0189607640999992000121709004+33690+008970FM-12+004699999V0200301N007212200019N0100001N1+01431+00911102281ADDAA199000091GA1011+009909059GF101991011051012501001001MA1999999101761MD1210191+9999REMSYN076AAXX  17094 60764 32660 10314 10143 20091 30176 40228 52019 81500 333 81633;EQDQ01  00002PRCP99
0195607640999992000121712004+33690+008970FM-12+004699999V0200401N008212200019N0120001N1+01631+00771102131ADDAA199000091GA1011+009909059GF101991011051012501001001MA1999999101621MD1810141+9999REMSYN082AAXX  17124 60764 32662 10416 10163 20077 30162 40213 58014 81500 333 50211 81633;EQDQ01  00002PRCP99
0208607640999992000121806004+33690+008970FM-12+004699999V0200801N001012200019N0012001N1+00461+00441102551ADDAA199000091GA1001+999999999GF100991001001999999001001KA1999N+00291MA1999999102011MD1310141+9999MW1101REMSYN076AAXX  18064 60764 31912 00802 10046 20044 30201 40255 53014 710// 333 20029;EQDQ01  00002PRCP99
0195607640999992000121812004+33690+008970FM-12+004699999V0209999C000012200019N0150001N1+01701+01021102561ADDAA199000091GA1011+009009029GF101991011021999999001001MA1999999102041MD1810151+9999REMSYN082AAXX  18124 60764 32965 10000 10170 20102 30204 40256 58015 81200 333 50221 81830;EQDQ01  00002PRCP99
0196607640999992000121906004+33690+008970FM-12+004699999V0209999C000012200019N0080001N1+00221+00171102641ADDAA199000091GA1001+999999999GF100991001001999999001001KA1999N+00151MA1999999102091MD1510031+9999REMSYN070AAXX  19064 60764 33958 00000 10022 20017 30209 40264 55003 333 20015;EQDQ01  00002PRCP99
0173607640999992000121909004+33690+008970FM-12+004699999V0201901N001012200019N0100001N1+01001+00571102721ADDAA199000091GA1001+999999999GF100991001001999999001001MA1999999102191MD1210101+9999REMSYN060AAXX  19094 60764 32960 01902 10100 20057 30219 40272 52010;EQDQ01  00002PRCP99
0183607640999992000121912004+33690+008970FM-12+004699999V0209999C000012200019N0100001N1+01771+00791102451ADDAA199000091GA1001+999999999GF100991001001999999001001MA1999999101931MD1810171+9999REMSYN070AAXX  19124 60764 32960 00000 10177 20079 30193 40245 58017 333 50091;EQDQ01  00002PRCP99
0189607640999992000122009004+33690+008970FM-12+004699999V0200701N003112200019N0120001N1+01601+00761101911ADDAA199000091GA1011+030009079GF102991011001999999081021MA1999999101391MD1310041+9999REMSYN076AAXX  20094 60764 32962 20706 10160 20076 30139 40191 53004 81082 333 81360;EQDQ01  00002PRCP99
0195607640999992000122012004+33690+008970FM-12+004699999V0201101N003112200019N0150001N1+01741+00751101641ADDAA199000091GA1031+030009079GF104991021001999999081021MA1999999101151MD1810241+9999REMSYN082AAXX  20124 60764 32965 41106 10174 20075 30115 40164 58024 82082 333 50151 83360;EQDQ01  00002PRCP99
0224607640999992000122106004+33690+008970FM-12+004699999V0201001N006212200019N0080001N1+01281+00541101061ADDAA199000091GA1021+030009079GF102991999001999999081001KA1120N+01241MA1999999100541MD1610121+9999REMSYN082AAXX  21064 60764 32958 21012 10128 20054 30054 40106 56012 80080 333 20124 82360;EQDQ01+000002SCOTLCQ02  00002PRCP99
0189607640999992000122109004+33690+008970FM-12+004699999V0201201N007212200019N0100001N1+01541+00741101111ADDAA199000091GA1031+030009079GF104991031001999999081021MA1999999100601MD1310061+9999REMSYN076AAXX  21094 60764 32960 41214 10154 20074 30060 40111 53006 83082 333 83360;EQDQ01  00002PRCP99
0201607640999992000122112004+33690+008970FM-12+004699999V0201101N007212200019N0100001N1+01721+00681101131ADDAA199000091GA1021+030009039GF104991021001999999081021MA1999999100631MD1710031+9999REMSYN088AAXX  21124 60764 32960 41114 10172 20068 30063 40113 57003 82082 333 50441 82360 83070;EQDQ01  00002PRCP99
0208607640999992000122206004+33690+008970FM-12+004699999V0201801N001012200019N0060001N1+00151+00071101421ADDAA199000091GA1031+060009019GF103991001001999999001021KA1120N+00091MA1999999100881MD1210121+9999REMSYN082AAXX  22064 60764 33956 31802 10015 20007 30088 40142 52012 80002 333 20009 83070;EQDQ01  00002PRCP99
0173607640999992000122209004+33690+008970FM-12+004699999V0209999C000012200019N0080001N1+00821+00311101581ADDAA199000091GA1001+999999999GF100991001001999999001001MA1999999101051MD1210171+9999REMSYN060AAXX  22094 60764 32958 00000 10082 20031 30105 40158 52017;EQDQ01  00002PRCP99
0195607640999992000122212004+33690+008970FM-12+004699999V0202201N001012200019N0120001N1+01431+00631101421ADDAA199000091GA1041+060009019GF104991001001999999001021MA1999999100901MD1810151+9999REMSYN082AAXX  22124 60764 32962 42202 10143 20063 30090 40142 58015 80002 333 50321 84070;EQDQ01  00002PRCP99
0214607640999992000122306004+33690+008970FM-12+004699999V0200501N00411036001CN0070001N1+00971+00491101391ADDAA199000091GA1041+009909069GF106991041051012501081001KA1120N+00711MA1999999100861MD1610061+9999REMSYN088AAXX  23064 60764 33657 60508 10097 20049 30086 40139 56006 84580 333 20071 84633 83360;EQDQ01  00002PRCP99
0189607640999992000122309004+33690+008970FM-12+004699999V0201601N005110099019N0080001N1+01241+00461101501ADDAA199000091GA1051+009909059GF106991051051012501081001MA1999999100981MD1310121+9999REMSYN076AAXX  23094 60764 32658 61610 10124 20046 30098 40150 53012 85580 333 85633;EQDQ01  00002PRCP99
0201607640999992000122312004+33690+008970FM-12+004699999V0202801N00211036001CN0100001N1+01621+00651101381ADDAA199000091GA1041+009909069GF107991041051012501081999MA1999999100871MD1810111+9999REMSYN088AAXX  23124 60764 32660 72804 10162 20065 30087 40138 58011 8458/ 333 50191 84633 84360;EQDQ01  00002PRCP99
0196607640999992000122406004+33690+008970FM-12+004699999V0201901N002112200019N0080001N1+00321+00111101741ADDAA199000091GA1001+999999999GF100991001001999999001001KA1999N+00101MA1999999101201MD1310031+9999REMSYN070AAXX  24064 60764 33958 01904 10032 20011 30120 40174 53003 333 20010;EQDQ01  00002PRCP99
0189607640999992000122409004+33690+008970FM-12+004699999V0201701N003112200019N0100001N1+00981+00341101811ADDAA199000091GA1021+060009019GF102991001001999999001021MA1999999101281MD1210041+9999REMSYN076AAXX  24094 60764 32960 21706 10098 20034 30128 40181 52004 80002 333 82070;EQDQ01  00002PRCP99
0195607640999992000122412004+33690+008970FM-12+004699999V0201801N003112200019N0120001N1+01541+00631101731ADDAA199000091GA1021+060009019GF102991001001999999001021MA1999999101211MD1810071+9999REMSYN082AAXX  24124 60764 32962 21806 10154 20063 30121 40173 58007 80002 333 50201 82070;EQDQ01  00002PRCP99
0208607640999992000122506004+33690+008970FM-12+004699999V0201201N001012200019N0070001N1+00611+00401101181ADDAA199000091GA1041+060009019GF104991001001999999001021KA1120N+00591MA1999999100651MD1610071+9999REMSYN082AAXX  25064 60764 33957 41202 10061 20040 30065 40118 56007 80002 333 20059 84070;EQDQ01  00002PRCP99
0195607640999992000122509004+33690+008970FM-12+004699999V0202101N001012200019N0080001N1+01291+00391101171ADDAA199000091GA1011+030009039GF103991011001999999081021MA1999999100651MD1410001+9999REMSYN082AAXX  25094 60764 32958 32102 10129 20039 30065 40117 54000 81082 333 81360 83070;EQDQ01  00002PRCP99
0228607640999992000122512004+33690+008970FM-12+004699999V0202301N007219999999N0020001N1+02021+00901100811ADDAA199000091AY111061AY211061GA1021+030009039GF105991021001999999081021MA1999999100301MD1810351+9999MW1071REMSYN093AAXX  25124 60764 3192052314 10202 20090 30030 40081 58035 70711 82082 333 50181 82360 84070;EQDQ01  00002PRCP99
0201607640999992000122606004+33690+008970FM-12+004699999V0201101N002112200019N0060001N1+00551+00471101311ADDAA124000891GA1031+060009019GF103991001001999999001021KA1120N+00451MA1999999100781MD1310101+9999REMSYN094AAXX  26064 60764 13956 31104 10055 20047 30078 40131 53010 69974 80002 333 20045 70007 83070;
0195607640999992000122609004+33690+008970FM-12+004699999V0201301N003112200019N0050001N1+01161+00821101451ADDAA199000091GA1021+030009039GF104991021001999999081021MA1999999100931MD1210151+9999REMSYN082AAXX  26094 60764 32950 41306 10116 20082 30093 40145 52015 82082 333 82360 83070;EQDQ01  00002PRCP99
0201607640999992000122612004+33690+008970FM-12+004699999V0201701N004112200019N0070001N1+01821+00771101181ADDAA199000091GA1011+030009039GF104991011001999999081021MA1999999100671MD1810261+9999REMSYN088AAXX  26124 60764 32957 41708 10182 20077 30067 40118 58026 81082 333 50151 81360 84070;EQDQ01  00002PRCP99
0208607640999992000122706004+33690+008970FM-12+004699999V0202001N006219999999N0060001N1+01771+00851100281ADDAA199000091GA1041+030009079GF105991041001999999081021KA1120N+01411MA1999999099771MD1710141+9999REMSYN082AAXX  27064 60764 33956 52012 10177 20085 39977 40028 57014 84082 333 20141 84360;EQDQ01  00002PRCP99
0195607640999992000122709004+33690+008970FM-12+004699999V0202101N005110099019N0050001N1+01821+00871100341ADDAA199000091GA1051+009909069GF107991051051012501081999MA1999999099831MD1310061+9999REMSYN082AAXX  27094 60764 32650 72110 10182 20087 39983 40034 53006 8558/ 333 85633 83360;EQDQ01  00002PRCP99
0201607640999992000122712004+33690+008970FM-12+004699999V0202201N007210099019N0050001N1+01911+00891100271ADDAA199000091GA1061+009909069GF108991061051012501081011MA1999999099761MD1810071+9999REMSYN088AAXX  27124 60764 32650 82214 10191 20089 39976 40027 58007 86581 333 50491 86633 83360;EQDQ01  00002PRCP99
0208607640999992000122806004+33690+008970FM-12+004699999V0202601N002112200019N0070001N1+00821+00511100811ADDAA199000091GA1041+009909059GF104991041051012501001001KA1120N+00781MA1999999100281MD1310071+9999REMSYN082AAXX  28064 60764 33657 42604 10082 20051 30028 40081 53007 84500 333 20078 84633;EQDQ01  00002PRCP99
0189607640999992000122809004+33690+008970FM-12+004699999V0202601N004112200019N0100001N1+01121+00491101051ADDAA199000091GA1021+009909059GF102991021051012501001001MA1999999100531MD1210251+9999REMSYN076AAXX  28094 60764 32660 22608 10112 20049 30053 40105 52025 82500 333 82633;EQDQ01  00002PRCP99
0195607640999992000122812004+33690+008970FM-12+004699999V0202801N008212200019N0100001N1+01571+00711101131ADDAA199000091GA1021+009909059GF102991021051012501001001MA1999999100621MD1110091+9999REMSYN082AAXX  28124 60764 32660 22816 10157 20071 30062 40113 51009 82500 333 50411 82633;EQDQ01  00002PRCP99
0189607640999992000122815004+33690+008970FM-12+004699999V0202901N008712200019N0060001N1+01771+00781101251ADDAA199000091GA1031+009909059GF104991031051012501001021MA1999999100741MD1310121+9999REMSYN076AAXX  28154 60764 32656 42917 10177 20078 30074 40125 53012 83502 333 83633;EQDQ01  00002PRCP99
0208607640999992000122818004+33690+008970FM-12+004699999V0202601N005112200019N0070001N1+01551+00871101411ADDAA199000091GA1021+009909059GF102991021051012501001001KA1120M+01801MA1999999100901MD1110161+9999REMSYN082AAXX  28184 60764 32657 22610 10155 20087 30090 40141 51016 82500 333 10180 82633;EQDQ01  00002PRCP99
0189607640999992000122909004+33690+008970FM-12+004699999V0202601N005110099019N0050001N1+01441+00511100971ADDAA199000091GA1051+009909059GF105991051051012501001001MA1999999100451MD1610041+9999REMSYN076AAXX  29094 60764 32650 52610 10144 20051 30045 40097 56004 85500 333 85633;EQDQ01  00002PRCP99
0223607640999992000122912004+33690+008970FM-12+004699999V0202801N012912200019N0020001N1+01951+00801100761ADDAA199000091AY111061AY211061GA1021+009909059GF103991021051008001001021MA1999999100261MD1810191+9999MW1071REMSYN088AAXX  29124 60764 31520 32825 10195 20080 30026 40076 58019 70711 82502 333 50611 82633;EQDQ01  00002PRCP99
0223607640999992000122915004+33690+008970FM-12+004699999V0202701N01391036001CN0012001N1+02001+00771100761ADDAA199000091AY111031AY211031GA1031+009909069GF107991031051012501081999MA1999999100261MD1410001+9999MW1071REMSYN088AAXX  29154 60764 31612 72727 10200 20077 30026 40076 54000 70711 8358/ 333 83633 85360;EQDQ01  00002PRCP99
0242607640999992000122918004+33690+008970FM-12+004699999V0202801N01081036001CN0010001N1+01811+00951101051ADDAA199000091AY111061AY211061GA1021+009909069GF107991021051012501081999KA1120M+02071MA1999999100561MD1310301+9999MW1071REMSYN094AAXX  29184 60764 31610 72821 10181 20095 30056 40105 53030 70711 8258/ 333 10207 82633 83360;EQDQ01  00002PRCP99
0208607640999992000123006004+33690+008970FM-12+004699999V0201201N001010600019N0070001N1+00501+00281101461ADDAA199000091GA1051+060009019GF105991001001999999001021KA1120N+00371MA1999999100931MD1310031+9999REMSYN082AAXX  30064 60764 33957 51202 10050 20028 30093 40146 53003 80002 333 20037 85070;EQDQ01  00002PRCP99
0189607640999992000123009004+33690+008970FM-12+004699999V0202001N002112200019N0070001N1+01091+00431101501ADDAA199000091GA1041+060009019GF104991001001999999001021MA1999999100981MD1210051+9999REMSYN076AAXX  30094 60764 32957 42004 10109 20043 30098 40150 52005 80002 333 84070;EQDQ01  00002PRCP99
0195607640999992000123012004+33690+008970FM-12+004699999V0202501N006212200019N0080001N1+01801+00721101201ADDAA199000091GA1031+060009019GF103991001001999999001021MA1999999100691MD1810191+9999REMSYN082AAXX  30124 60764 32958 32512 10180 20072 30069 40120 58019 80002 333 50791 83070;EQDQ01  00002PRCP99
0217607640999992000123015004+33690+008970FM-12+004699999V0202301N010810600019N0020001N1+01971+00801100791ADDAA199000091AY111031AY211031GA1051+060009019GF105991001001999999001021MA1999999100291MD1710401+9999MW1071REMSYN082AAXX  30154 60764 31920 52321 10197 20080 30029 40079 57040 70711 80002 333 85070;EQDQ01  00002PRCP99
0220607640999992000123106004+33690+008970FM-12+004699999V0202801N010812200019N0030001N1+01181+00681100891ADDAA199000091GA1021+009909059GF103991021051012501001021KA1120N+01141MA1999999100371MD1310091+9999MW1071REMSYN088AAXX  31064 60764 32630 32821 10118 20068 30037 40089 53009 707// 82502 333 20114 82633;EQDQ01  00002PRCP99
0223607640999992000123109004+33690+008970FM-12+004699999V0202801N009812200019N0018001N1+01191+00311101111ADDAA199000091AY101031AY201031GA1011+030009039GF104991011001999999081021MA1999999100591MD1210221+9999MW1071REMSYN088AAXX  31094 60764 31918 42819 10119 20031 30059 40111 52022 70700 81082 333 81360 84070;EQDQ01  00002PRCP99
0244607640999992000123112004+33690+008970FM-12+004699999V0203001N011810900019N0012001N1+01631+00561101021ADDAA199000091AY111061AY211061GA1021+030009039GA2041+999999009GF105991021001999999081021MA1999999100511MD1810081+9999MW1071REMSYN093AAXX  31124 60764 31912 53023 10163 20056 30051 40102 58008 70711 82082 333 50841 82360 8400;EQDQ01  00002PRCP99
