0195655180999992000010100004+11150-001150FM-12+0322DFCP V0209999C000010780019N0150001N1+02271+00641100721ADDAA106000091GA1071+078009019GF107991001001999999001021MA1999999097141MD1999999-0081REMSYN082AAXX  01004 65518 32965 70000 10227 20064 39714 40072 80002 333 0//00 59008 87076;EQDQ01  00002PRCP06
0232655180999992000010106004+11150-001150FM-12+0322DFCP V0209999C000010780019N0200001N1+02141+00761100711ADDAA106000091GA1071+078009019GF107991001001999999001021IA2240+01509KA1120N+02081MA1999999097101MD1999999+0021REMSYN094AAXX  01064 65518 32970 70000 10214 20076 39710 40071 80002 333 01500 20208 50614 58002 87076;EQDQ01  00002PRCP06
0223655180999992000010112004+11150-001150FM-12+0322DFCP V0200801N001010780019N0080001N1+03251+00741100661ADDAA106000091AY121061AY221061GA1071+078009019GF107991001001999999001021MA1999999097081MD1999999-0011MW1061REMSYN088AAXX  01124 65518 31958 70802 10325 20074 39708 40066 70622 80002 333 0//00 59001 87076;EQDQ01  00002PRCP06
0230655180999992000010118004+11150-001150FM-12+0322DFCP V0209999C000010780019N0060001N1+02961+99999100511ADDAA106000091AY121061AY221061GA1071+078009019GF107991001001999999001021KA1120M+03501MA1999999096911MD1999999-0011MW1061REMSYN082AAXX  01184 65518 31956 70000 10296 39691 40051 70622 80002 333 10350 59001 87076;EQDQ01  00002PRCP06
0266655180999992000010206004+11150-001150FM-12+0322DFCP V0209999C000019999999N0060001N1+02251+01061100691ADDAA106000091AY121061AY221061GA1011+039009039GF107991011001999999031021IA2240+01809KA1120N+02221MA1999999097101MD1999999+0001MW1061REMSYN106AAXX  02064 65518 31956 70000 10225 20106 39710 40069 70622 81032 333 01800 20222 50544 58000 81363 87076;EQDQ01  00002PRCP06
0216655180999992000010212004+11150-001150FM-12+0322DFCP V0200801N002119999999N0060001N1+02871+01471100811ADDAA106001091AY161061AY261061GA1031+039009039GF107991031001999999031021MA1999999097221MD1999999+0141MW1061REMSYN100AAXX  02124 65518 11956 70804 10287 20147 39722 40081 69991 70666 83032 333 0//00 58014 83363 86076;
0195655180999992000010218004+11150-001150FM-12+0322DFCP V0203601N003110390019N0150001N1+02811+00581100691ADDAA112000191GA1071+039009079GF107991071001999999071999KA1120M+03281MA1999999097091MD1999999+0181REMSYN088AAXX  02184 65518 12965 73606 10281 20058 39709 40069 69912 8707/ 333 10328 58018 87363;
0195655180999992000010300004+11150-001150FM-12+0322DFCP V0203601N002110390019N0150001N1+02411+00871100981ADDAA106000091GA1071+039009079GF107991071001999999071999MA1999999097311MD1999999+0241REMSYN082AAXX  03004 65518 32965 73604 10241 20087 39731 40098 8707/ 333 0//00 58024 87363;EQDQ01  00002PRCP06
0260655180999992000010306004+11150-001150FM-12+0322DFCP V0203601N004110780019N0040001N1+02181+00671100881ADDAA106000091AY121061AY221061GA1071+078009019GF107991001001999999001021IA2240+02009KA1120N+02151MA1999999097271MD1999999+0171MW1061REMSYN100AAXX  03064 65518 31940 73608 10218 20067 39727 40088 70622 80002 333 02000 20215 50844 58017 87076;EQDQ01  00002PRCP06
0223655180999992000010312004+11150-001150FM-12+0322DFCP V0200401N005110780019N0020001N1+02901+00991100891ADDAA106000091AY121061AY221061GA1071+078009019GF107991001001999999001021MA1999999097301MD1999999+0081MW1061REMSYN088AAXX  03124 65518 31920 70410 10290 20099 39730 40089 70622 80002 333 0//00 58008 87076;EQDQ01  00002PRCP06
0208655180999992000010318004+11150-001150FM-12+0322DFCP V0200401N001010390019N0100001N1+02841+00811100731ADDAA106000091GA1081+039009079GF108991081001999999071999KA1120M+03101MA1999999097121MD1999999+0031REMSYN082AAXX  03184 65518 32960 80402 10284 20081 39712 40073 8807/ 333 10310 58003 88363;EQDQ01  00002PRCP06
0195655180999992000010403004+11150-001150FM-12+0322DFCP V0200201N002110780019N0150001N1+02321+00801100881ADDAA106000091GA1071+078009019GF107991001001999999001021MA1999999097281MD1999999-0031REMSYN082AAXX  04034 65518 32965 70204 10232 20080 39728 40088 80002 333 0//00 59003 87076;EQDQ01  00002PRCP06
0232655180999992000010406004+11150-001150FM-12+0322DFCP V0203601N001010780019N0150001N1+01911+00741100811ADDAA106000091GA1071+078009019GF107991001001999999001021IA2240+02109KA1120N+01861MA1999999097181MD1999999-0091REMSYN094AAXX  04064 65518 32965 73602 10191 20074 39718 40081 80002 333 02100 20186 50924 59009 87076;EQDQ01  00002PRCP06
0195655180999992000010412004+11150-001150FM-12+0322DFCP V0200401N004110780019N0150001N1+03001+01091100771ADDAA106000091GA1071+078009019GF107991001001999999001021MA1999999097191MD1999999-0111REMSYN082AAXX  04124 65518 32965 70408 10300 20109 39719 40077 80002 333 0//00 59011 87076;EQDQ01  00002PRCP06
0208655180999992000010418004+11150-001150FM-12+0322DFCP V0209999C000010780019N0100001N1+02931+00681100601ADDAA106000091GA1071+078009019GF107991001001999999001021KA1120M+03271MA1999999096991MD1999999-0131REMSYN082AAXX  04184 65518 32960 70000 10293 20068 39699 40060 80002 333 10327 59013 87076;EQDQ01  00002PRCP06
0143655180999992000010506004+11150-001150FM-12+0322DFCP V0200201N002119999999N0150001N1+02071+00501100741ADDAA106000091GF107991001001999999001021MA1999999097131REMSYN060AAXX  05064 65518 32965 70204 10207 20050 39713 40074 80002;EQDQ01  00002PRCP06
0195655180999992000010512004+11150-001150FM-12+0322DFCP V0200201N005110780019N0150001N1+02921+00481100821ADDAA106000091GA1071+078009019GF107991001001999999001021MA1999999097241MD1999999+0051REMSYN082AAXX  05124 65518 32965 70210 10292 20048 39724 40082 80002 333 0//00 58005 87076;EQDQ01  00002PRCP06
0232655180999992000010606004+11150-001150FM-12+0322DFCP V0209999C000010780019N0150001N1+01801+00881100791ADDAA106000091GA1071+078009019GF107991001001999999001021IA2240+01909KA1120N+01801MA1999999097171MD1999999+0041REMSYN094AAXX  06064 65518 32965 70000 10180 20088 39717 40079 80002 333 01900 20180 51024 58004 87076;EQDQ01  00002PRCP06
0195655180999992000010612004+11150-001150FM-12+0322DFCP V0200601N004110780019N0150001N1+02951+00411100801ADDAA106000091GA1071+078009019GF107991001001999999001021MA1999999097211MD1999999-0031REMSYN082AAXX  06124 65518 32965 70608 10295 20041 39721 40080 80002 333 0//00 59003 87076;EQDQ01  00002PRCP06
0232655180999992000010706004+11150-001150FM-12+0322DFCP V0209999C000010780019N0150001N1+01941+00631100881ADDAA106000091GA1071+078009019GF107991001001999999001021IA2240+01609KA1120N+01851MA1999999097261MD1999999+0091REMSYN094AAXX  07064 65518 32965 70000 10194 20063 39726 40088 80002 333 01600 20185 50684 58009 87076;EQDQ01  00002PRCP06
0195655180999992000010712004+11150-001150FM-12+0322DFCP V0200601N003110780019N0150001N1+03091+00591100821ADDAA106000091GA1071+078009019GF107991001001999999001021MA1999999097231MD1999999+0021REMSYN082AAXX  07124 65518 32965 70606 10309 20059 39723 40082 80002 333 0//00 58002 87076;EQDQ01  00002PRCP06
0208655180999992000010718004+11150-001150FM-12+0322DFCP V0200201N001010780019N0150001N1+03061+00771100631ADDAA106000091GA1071+078009019GF107991001001999999001021KA1120M+03331MA1999999097031MD1999999-0061REMSYN082AAXX  07184 65518 32965 70202 10306 20077 39703 40063 80002 333 10333 59006 87076;EQDQ01  00002PRCP06
0195655180999992000010800004+11150-001150FM-12+0322DFCP V0209999C000010780019N0150001N1+02311+01051100981ADDAA106000091GA1071+078009019GF107991001001999999001021MA1999999097391MD1999999+0001REMSYN082AAXX  08004 65518 32965 70000 10231 20105 39739 40098 80002 333 0//00 58000 87076;EQDQ01  00002PRCP06
0232655180999992000010806004+11150-001150FM-12+0322DFCP V0200801N002110780019N0150001N1+02191+00601101011ADDAA106000091GA1071+078009019GF107991001001999999001021IA2240+01609KA1120N+02151MA1999999097411MD1999999-0011REMSYN094AAXX  08064 65518 32965 70804 10219 20060 39741 40101 80002 333 01600 20215 50894 59001 87076;EQDQ01  00002PRCP06
0195655180999992000010812004+11150-001150FM-12+0322DFCP V0200801N004110780019N0150001N1+03151+00791100911ADDAA106000091GA1071+078009019GF107991001001999999001021MA1999999097321MD1999999+0091REMSYN082AAXX  08124 65518 32965 70808 10315 20079 39732 40091 80002 333 0//00 58009 87076;EQDQ01  00002PRCP06
0208655180999992000010818004+11150-001150FM-12+0322DFCP V0209999C000010780019N0150001N1+02941+01421100711ADDAA106000091GA1071+078009019GF107991001001999999001021KA1120M+03371MA1999999097111MD1999999+0081REMSYN082AAXX  08184 65518 32965 70000 10294 20142 39711 40071 80002 333 10337 58008 87076;EQDQ01  00002PRCP06
0195655180999992000010900004+11150-001150FM-12+0322DFCP V0209999C000010780019N0150001N1+02241+01051100901ADDAA106000091GA1071+078009019GF107991001001999999001021MA1999999097311MD1999999-0081REMSYN082AAXX  09004 65518 32965 70000 10224 20105 39731 40090 80002 333 0//00 59008 87076;EQDQ01  00002PRCP06
0232655180999992000010906004+11150-001150FM-12+0322DFCP V0209999C000010780019N0150001N1+02081+00751100791ADDAA106000091GA1071+078009019GF107991001001999999001021IA2240+01909KA1120N+01971MA1999999097191MD1999999-0061REMSYN094AAXX  09064 65518 32965 70000 10208 20075 39719 40079 80002 333 01900 20197 50734 59006 87076;EQDQ01  00002PRCP06
0174655180999992000010912004+11150-001150FM-12+0322DFCP V0200801N003110780019N0150001N1+03101+00841100901ADDAA106000091GA1071+078009019GF107991001001999999001021MD1999999-0021REMSYN076AAXX  09124 65518 32965 70806 10310 20084 40090 80002 333 0/900 59002 87076;EQDQ01  00002PRCP06
0159655180999992000010915004+11150-001150FM-12+0322DFCP V0209999C000010780019N0150001N1+03331+00941100561ADDGA1071+078009019GF107991001001999999001021MA1999999096991MD1999999-0071REMSYN076AAXX  09154 65518 42965 70000 10333 20094 39699 40056 80002 333 59007 87076;
0194655180999992000010918004+11150-001150FM-12+0322DFCP V0209999C000010780019N0150001N1+03011+01471100691ADDAA106000091GA1071+078009019GF107991001001999999001021KA1120M+03341MA1999999097091REMSYN082AAXX  09184 65518 32965 70000 10301 20147 39709 40069 80002 333 10334 39002 87076;EQDQ01  00002PRCP06
0195655180999992000011000004+11150-001150FM-12+0322DFCP V0209999C000010780019N0150001N1+02401+00971100861ADDAA106000091GA1071+078009019GF107991001001999999001021MA1999999097281MD1999999-0031REMSYN082AAXX  10004 65518 32965 70000 10240 20097 39728 40086 80002 333 0//00 59003 87076;EQDQ01  00002PRCP06
0159655180999992000011003004+11150-001150FM-12+0322DFCP V0209999C000010780019N0150001N1+02151+00921100721ADDGA1071+078009019GF107991001001999999001999MA1999999097101MD1999999-0091REMSYN076AAXX  10034 65518 42965 70000 10215 20092 3971/ 40072 8000/ 333 59009 87076;
0232655180999992000011006004+11150-001150FM-12+0322DFCP V0200401N001010780019N0150001N1+02101+00781100771ADDAA106000091GA1071+078009019GF107991001001999999001021IA2240+01709KA1120N+02021MA1999999097171MD1999999-0021REMSYN094AAXX  10064 65518 32965 70402 10210 20078 39717 40077 80002 333 01700 20202 50794 59002 87076;EQDQ01  00002PRCP06
0159655180999992000011009004+11150-001150FM-12+0322DFCP V0200601N002110780019N0150001N1+02611+00641100921ADDGA1071+078009019GF107991001001999999001021MA1999999097321MD1999999-0061REMSYN076AAXX  10094 65518 42965 70604 10261 20064 39732 40092 80002 333 59006 87076;
0195655180999992000011012004+11150-001150FM-12+0322DFCP V0200801N002110780019N0150001N1+03161+00971100791ADDAA106000091GA1071+078009019GF107991001001999999001021MA1999999097221MD1999999-0081REMSYN082AAXX  10124 65518 32965 70804 10316 20097 39722 40079 80002 333 0//00 59008 87076;EQDQ01  00002PRCP06
0159655180999992000011015004+11150-001150FM-12+0322DFCP V0203601N001010780019N0150001N1+03401+01141100501ADDGA1071+078009019GF107991001001999999001021MA1999999096931MD1999999-0061REMSYN076AAXX  10154 65518 42965 73602 10340 20114 39693 40050 80002 333 59006 87076;
0169655180999992000011018004+11150-001150FM-12+0322DFCP V0209999C00001078001CN0150001N1+03011+01511100581ADDAA106000091GA1071+078009019MA1999999096981MD1999999-0111REMSYN082AAXX  10184 65518 32965 /0000 10301 20151 39698 40058 80002 333 10/45 59011 87076;EQDQ01  00002PRCP06
0195655180999992000011100004+11150-001150FM-12+0322DFCP V0209999C000010780019N0150001N1+02401+01171100811ADDAA106000091GA1071+078009019GF107991001001999999001021MA1999999097241MD1999999-0041REMSYN082AAXX  11004 65518 32965 70000 10240 20117 39724 40081 80002 333 0//00 59004 87076;EQDQ01  00002PRCP06
0159655180999992000011103004+11150-001150FM-12+0322DFCP V0200201N002110780019N0150001N1+02201+00971100711ADDGA1071+078009019GF107991001001999999001021MA1999999097141MD1999999+0001REMSYN076AAXX  11034 65518 42965 70204 10220 20097 39714 40071 80002 333 58000 87076;
0232655180999992000011106004+11150-001150FM-12+0322DFCP V0209999C000010780019N0150001N1+02081+00801100751ADDAA106000091GA1071+078009019GF107991001001999999001021IA2240+01809KA1120N+02051MA1999999097151MD1999999-0021REMSYN094AAXX  11064 65518 32965 70000 10208 20080 39715 40075 80002 333 01800 20205 50714 59002 87076;EQDQ01  00002PRCP06
0159655180999992000011109004+11150-001150FM-12+0322DFCP V0200801N003110780019N0150001N1+02901+00771100971ADDGA1071+078009019GF107991001001999999001021MA1999999097361MD1999999+0041REMSYN076AAXX  11094 65518 42965 70806 10290 20077 39736 40097 80002 333 58004 87076;
0195655180999992000011112004+11150-001150FM-12+0322DFCP V0200801N005110780019N0100001N1+03121+01041100821ADDAA106000091GA1071+078009019GF107991001001999999001021MA1999999097241MD1999999+0021REMSYN082AAXX  11124 65518 32960 70810 10312 20104 39724 40082 80002 333 0//00 58002 87076;EQDQ01  00002PRCP06
0159655180999992000011115004+11150-001150FM-12+0322DFCP V0200801N001010780019N0100001N1+03321+01061100541ADDGA1071+078009019GF107991001001999999001021MA1999999096971MD1999999+0041REMSYN076AAXX  11154 65518 42960 70802 10332 20106 39697 40054 80002 333 58004 87076;
0236655180999992000011118004+11150-001150FM-12+0322DFCP V0209999C000010780019N0080001N1+03031+01461100621ADDAA106000091AY121061AY221061GA1071+078009019GF107991001001999999001021KA1120M+03371MA1999999097021MD1999999+0041MW1061REMSYN088AAXX  11184 65518 31958 70000 10303 20146 39702 40062 70622 80002 333 10337 58004 87076;EQDQ01  00002PRCP06
0113655180999992000011121004+11150-001150FM-12+0322DFCP V0209999C000019999999N0100001N1+02621+01101100831ADDGF107991001001999999001021MA1999999097231REMSYN060AAXX  11214 65518 42960 70000 10262 2011/ 39723 40083 80002;
0195655180999992000011200004+11150-001150FM-12+0322DFCP V0209999C000010780019N0100001N1+02521+00901100811ADDAA106000091GA1071+078009019GF107991001001999999001021MA1999999097231MD1999999-0011REMSYN082AAXX  12004 65518 32960 70000 10252 20090 39723 40081 80002 333 0//00 59001 87076;EQDQ01  00002PRCP06
0260655180999992000011206004+11150-001150FM-12+0322DFCP V0209999C000010780019N0060001N1+02141+00981100701ADDAA106000091AY121061AY221061GA1071+078009019GF107991001001999999001021IA2240+01909KA1120N+02111MA1999999097111MD1999999-0041MW1061REMSYN100AAXX  12064 65518 31956 70000 10214 20098 39711 40070 70622 80002 333 01900 20211 50924 59004 87076;EQDQ01  00002PRCP06
0181655180999992000011209004+11150-001150FM-12+0322DFCP V0200801N002110780019N0060001N1+99999+99999100931ADDAY121031AY221031GA1071+078009019GF107991001001999999001021MA1999999097331MD1999999-0031MW1061REMSYN076AAXX  12094 65518 41956 70804 20087 39733 40093 70622 80002 333 59003 87076;
0223655180999992000011212004+11150-001150FM-12+0322DFCP V0200401N002110780019N0060001N1+03401+01171100821ADDAA106000091AY121061AY221061GA1071+078009019GF107991001001999999001021MA1999999097261MD1999999+0021MW1061REMSYN088AAXX  12124 65518 31956 70404 10340 20117 39726 40082 70622 80002 333 0//00 58002 87076;EQDQ01  00002PRCP06
0153655180999992000011215004+11150-001150FM-12+0322DFCP V0209999C000010780019N0100001N1+03541+01071100521ADDGA1071+078009019GF107991999999999999999999MA1999999096971MD1999999+0001REMSYN070AAXX  12154 65518 42960 70000 10354 20107 39697 40052 333 58000 87076;
0208655180999992000011218004+11150-001150FM-12+0322DFCP V0209999C000010780019N0100001N1+03181+01431100631ADDAA106000091GA1071+078009019GF107991001001999999001021KA1120M+03541MA1999999097041MD1999999+0021REMSYN082AAXX  12184 65518 32960 70000 10318 20143 39704 40063 80002 333 10354 58002 87076;EQDQ01  00002PRCP06
0195655180999992000011300004+11150-001150FM-12+0322DFCP V0209999C000010780019N0100001N1+02501+01221100741ADDAA106000091GA1071+078009019GF107991001001999999001021MA1999999097191MD1999999-0041REMSYN082AAXX  13004 65518 32960 70000 10250 20122 39719 40074 80002 333 0//00 59004 87076;EQDQ01  00002PRCP06
0153655180999992000011303004+11150-001150FM-12+0322DFCP V0209999C000010780019N0150001N1+02321+01091100571ADDGA1071+078009019GF107991999999999999999999MA1999999097021MD1999999-0131REMSYN070AAXX  13034 65518 42965 70000 10232 20109 39702 40057 333 59013 87076;
0232655180999992000011306004+11150-001150FM-12+0322DFCP V0209999C000010780019N0150001N1+02121+01041100711ADDAA106000091GA1071+078009019GF107991001001999999001021IA2240+02009KA1120N+02101MA1999999097131MD1999999+0021REMSYN094AAXX  13064 65518 32965 70000 10212 20104 39713 40071 80002 333 02000 20210 50694 58002 87076;EQDQ01  00002PRCP06
0165655180999992000011309004+11150-001150FM-12+0322DFCP V0209999C000010390019N0100001N1+02751+00931100881ADDGA1051+039009039GF107991051001999999031021MA1999999097281MD1999999-0051REMSYN082AAXX  13094 65518 42960 70000 10275 20093 39728 40088 85032 333 59005 85363 85076;
0195655180999992000011312004+11150-001150FM-12+0322DFCP V0200801N002110780019N0100001N1+03321+01141100721ADDAA106000091GA1071+078009019GF107991001001999999001021MA1999999097171MD1999999-0091REMSYN082AAXX  13124 65518 32960 70804 10332 20114 39717 40072 80002 333 0//00 59009 87076;EQDQ01  00002PRCP06
0159655180999992000011315004+11150-001150FM-12+0322DFCP V0209999C000010780019N0150001N1+03581+01361100431ADDGA1071+078009019GF107991001001999999001021MA1999999096891MD1999999-0081REMSYN076AAXX  13154 65518 42965 70000 10358 20136 39689 40043 80002 333 59008 87076;
0208655180999992000011318004+11150-001150FM-12+0322DFCP V0209999C000010780019N0150001N1+03201+01651100491ADDAA106000091GA1071+078009019GF107991001001999999001021KA1120M+03601MA1999999096911MD1999999-0131REMSYN082AAXX  13184 65518 32965 70000 10320 20165 39691 40049 80002 333 10360 59013 87076;EQDQ01  00002PRCP06
0157655180999992000011321004+11150-001150FM-12+032299999V0209999C00001078001CN0150001N1+02681+01291100711ADDGA1071+078009019GF107991999999999999999999MA1999999097131MD1999999-0061REMSYN074    AAXX  13214 65518 42965 70000 10268 20129 39713 40071 333 59006 87076;
0199655180999992000011400004+11150-001150FM-12+032299999V0203601N00211078001CN0150001N1+02611+01061100691ADDAA199000091GA1071+078009019GF107991001001999999001021MA1999999097141MD1999999-0051REMSYN086    AAXX  14004 65518 32965 73604 10261 20106 39714 40069 80002 333 0//00 59005 87076;EQDQ01  00002PRCP99
0157655180999992000011403004+11150-001150FM-12+032299999V0200201N00211078001CN0150001N1+02361+99999100611ADDGA1071+078009019GF107991001001999999001021MA1999999097061MD1999999+0041REMSYN074    AAXX  14034 65518 42965 70204 10236 39706 40061 80002 333 58004 87076;
0236655180999992000011406004+11150-001150FM-12+032299999V0203601N00211078001CN0150001N1+02131+00751100671ADDAA199000091GA1071+078009019GF107991001001999999001021IA2240+01909KA1120N+02101MA1999999097091MD1999999-0041REMSYN098    AAXX  14064 65518 32965 73604 10213 20075 39709 40067 80002 333 01900 20210 50944 59004 87076;EQDQ01  00002PRCP99
0163655180999992000011409004+11150-001150FM-12+032299999V0203601N00311078001CN0150001N1+02421+00801100871ADDGA1071+078009019GF107991001001999999001021MA1999999097261MD1999999-0061REMSYN080    AAXX  14094 65518 42965 73606 10242 20080 39726 40087 80002 333 59006 87076;
0199655180999992000011412004+11150-001150FM-12+032299999V0200601N00311078001CN0150001N1+03001+01071100701ADDAA199000091GA1071+078009019GF107991001001999999001021MA1999999097131MD1999999-0041REMSYN086    AAXX  14124 65518 32965 70606 10300 20107 39713 40070 80002 333 0//00 59004 87076;EQDQ01  00002PRCP99
0212655180999992000011418004+11150-001150FM-12+032299999V0209999C00001078001CN0150001N1+02971+01331100481ADDAA199000091GA1071+078009019GF107991001001999999001021KA1120M+03341MA1999999096891MD1999999-0021REMSYN086    AAXX  14184 65518 32965 70000 10297 20133 39689 40048 80002 333 10334 59002 87076;EQDQ01  00002PRCP99
0199655180999992000011500004+11150-001150FM-12+032299999V0203601N00101078001CN0150001N1+02381+01101100741ADDAA199000091GA1071+078009019GF107991001001999999001021MA1999999097161MD1999999+0021REMSYN086    AAXX  15004 65518 32965 73602 10238 20110 39716 40074 80002 333 0//00 58002 87076;EQDQ01  00002PRCP99
0236655180999992000011506004+11150-001150FM-12+032299999V0203601N00101078001CN0100001N1+02181+00941100651ADDAA199000091GA1071+078009019GF107991001001999999001021IA2240+02009KA1120N+01231MA1999999097071MD1999999-0021REMSYN098    AAXX  15064 65518 32960 73602 10218 20094 39707 40065 80002 333 02000 20123 51114 59002 87076;EQDQ01  00002PRCP99
0163655180999992000011509004+11150-001150FM-12+032299999V0203601N00211078001CN0150001N1+02641+00981100911ADDGA1071+078009019GF107991001001999999001021MA1999999097311MD1999999+0051REMSYN080    AAXX  15094 65518 42965 73604 10264 20098 39731 40091 80002 333 58005 87076;
0199655180999992000011512004+11150-001150FM-12+032299999V0200801N00411078001CN0150001N1+03261+01231100821ADDAA199000091GA1071+078009019GF107991001001999999001021MA1999999097251MD1999999+0121REMSYN086    AAXX  15124 65518 32965 70808 10326 20123 39725 40082 80002 333 0//00 58012 87076;EQDQ01  00002PRCP99
0212655180999992000011518004+11150-001150FM-12+032299999V0209999C00001078001CN0150001N1+03181+01481100581ADDAA199000091GA1071+078009019GF107991001001999999001021KA1120M+03591MA1999999097011MD1999999+0121REMSYN086    AAXX  15184 65518 32965 70000 10318 20148 39701 40058 80002 333 10359 58012 87076;EQDQ01  00002PRCP99
0167655180999992000011521004+11150-001150FM-12+032299999V0209999C00001078001CN0150001N1+99999+99999999999ADDGA1071+078009019GF107991001001999999001021MD1999999+0041REMSYN080    AAXX  15214 65518 42965 70000 102/8 20140 3919/ 40//7 80002 333 58004 87076;EQDQ01+091903APOSP 
0199655180999992000011600004+11150-001150FM-12+032299999V0209999C00001078001CN0150001N1+02521+01311100821ADDAA199000091GA1071+078009019GF107991001001999999001021MA1999999097261MD1999999+0101REMSYN086    AAXX  16004 65518 32965 70000 10252 20131 39726 40082 80002 333 0//00 58010 87076;EQDQ01  00002PRCP99
0236655180999992000011606004+11150-001150FM-12+032299999V0209999C00001078001CN0150001N1+02261+01181100721ADDAA199000091GA1071+078009019GF107991001001999999001021IA2240+01909KA1120N+02231MA1999999097141MD1999999+0071REMSYN098    AAXX  16064 65518 32965 70000 10226 20118 39714 40072 80002 333 01900 20223 50854 58007 87076;EQDQ01  00002PRCP99
0163655180999992000011609004+11150-001150FM-12+032299999V0200401N00311078001CN0150001N1+02781+01261101011ADDGA1071+078009019GF107991001001999999001021MA1999999097421MD1999999+0111REMSYN080    AAXX  16094 65518 42965 70406 10278 20126 39742 40101 80002 333 58011 87076;
0199655180999992000011612004+11150-001150FM-12+032299999V0200801N00411078001CN0150001N1+03371+01491100921ADDAA199000091GA1071+078009019GF107991001001999999001021MA1999999097361MD1999999+0111REMSYN086    AAXX  16124 65518 32965 70808 10337 20149 39736 40092 80002 333 0//00 58011 87076;EQDQ01  00002PRCP99
0163655180999992000011615004+11150-001150FM-12+032299999V0200401N00311078001CN0150001N1+03561+01531999999ADDGA1071+078009019GF107991001001999999001021MA1999999097091MD1999999+0121REMSYN080    AAXX  16154 65518 42965 70406 10356 20153 39709 4/064 80002 333 58012 87076;
0212655180999992000011618004+11150-001150FM-12+032299999V0209999C00001078001CN0150001N1+03341+01541100751ADDAA199000091GA1071+078009019GF107991001001999999001021KA1120M+03571MA1999999097181MD1999999+0171REMSYN086    AAXX  16184 65518 32965 70000 10334 20154 39718 40075 80002 333 10357 58017 87076;EQDQ01  00002PRCP99
0163655180999992000011621004+11150-001150FM-12+032299999V0209999C00001078001CN0150001N1+02751+01491100961ADDGA1071+078009019GF108991001001999999001021MA1999999097381MD1999999+0191REMSYN080    AAXX  16214 65518 42965 80000 10275 20149 39738 40096 80002 333 58019 87076;
0199655180999992000011700004+11150-001150FM-12+032299999V0209999C00001078001CN0150001N1+02601+01461100951ADDAA199000091GA1071+078009019GF107991001001999999001021MA1999999097401MD1999999+0141REMSYN086    AAXX  17004 65518 32965 70000 10260 20146 39740 40095 80002 333 0//00 58014 87076;EQDQ01  00002PRCP99
0163655180999992000011709004+11150-001150FM-12+032299999V0200601N00211078001CN0150001N1+02851+00691100991ADDGA1071+078009019GF107991001001999999999021MA1999999097411MD1999999-0011REMSYN080    AAXX  17094 65518 42965 70604 10285 20069 39741 40099 800/2 333 59001 87076;
0215655180999992000011712004+11150-001150FM-12+032299999V0200801N00511078001CN0150001N1+03461+00421100831ADDAA199000091GA1071+078009019GF199999001001999999001021MA1999999097291MD1999999-0071REMSYN086    AAXX  17124 65518 32965 50810 10346 20042 39729 40083 80002 333 0//00 59007 87076;EQDQ01+000052SCOTCVQ02  00002PRCP99
0163655180999992000011715004+11150-001150FM-12+032299999V0200601N00311999999CN0150001N1+03561+00891100561ADDGA1011+078009019GF105991001001999999001021MA1999999097021MD1999999-0071REMSYN080    AAXX  17154 65518 42965 50606 10356 20089 39702 40056 80002 333 59007 81076;
0212655180999992000011718004+11150-001150FM-12+032299999V0209999C00001078001CN0150001N1+02372+00921100641ADDAA199000091GA1071+078009019GF107991001001999999001021KA1120M+03611MA1999999097061MD1999999-0121REMSYN086    AAXX  17184 65518 32965 70000 10237 20092 39706 40064 80002 333 10361 59012 87076;EQDQ01  00002PRCP99
0199655180999992000011800004+11150-001150FM-12+032299999V0209999C00001078001CN0150001N1+02651+00941100891ADDAA199000091GA1071+078009019GF107991001001999999001021MA1999999097341MD1999999-0061REMSYN086    AAXX  18004 65518 32965 70000 10265 20094 39734 40089 80002 333 0//00 59006 87076;EQDQ01  00002PRCP99
0236655180999992000011803004+11150-001150FM-12+032299999V0209999C00001078001CN0150001N1+02191+01001100771ADDAA199000091GA1071+078009019GF107991001001999999001021IA2240+01909KA1120N+02191MA1999999097191MD1999999-0071REMSYN098    AAXX  18034 65518 32965 70000 10219 20100 39719 40077 80002 333 01900 20219 50974 59007 87076;EQDQ01  00002PRCP99
0163655180999992000011809004+11150-001150FM-12+032299999V0200201N00211078001CN0150001N1+02841+00781101031ADDGA1071+078009019GF107991001001999999001021MA1999999097421MD1999999+0041REMSYN080    AAXX  18094 65518 42965 70204 10284 20078 39742 40103 80002 333 58004 87076;
0199655180999992000011812004+11150-001150FM-12+032299999V0200601N00311078001CN0150001N1+03551+00481100841ADDAA199000091GA1071+078009019GF107991001001999999001021MA1999999097301MD1999999+0011REMSYN086    AAXX  18124 65518 32965 70606 10355 20048 39730 40084 80002 333 0//00 58001 87076;EQDQ01  00002PRCP99
0163655180999992000011815004+11150-001150FM-12+032299999V0209999C00001078001CN0150001N1+03701+00981100581ADDGA1071+078009019GF107991001001999999001021MA1999999097041MD1999999+0021REMSYN080    AAXX  18154 65518 42965 70000 10370 20098 39704 40058 80002 333 58002 87076;
0212655180999992000011818004+11150-001150FM-12+032299999V0209999C00001078001CN0150001N1+03401+00701100631ADDAA199000091GA1071+078009019GF107991001001999999001021KA1120M+03701MA1999999097061MD1999999+0001REMSYN086    AAXX  18184 65518 32965 70000 10340 20070 39706 40063 80002 333 10370 58000 87076;EQDQ01  00002PRCP99
0236655180999992000011906004+11150-001150FM-12+032299999V0209999C00001078001CN0150001N1+02151+00731100701ADDAA199000091GA1071+078009019GF107991001001999999001021IA2240+01909KA1120N+02121MA1999999097121MD1999999-0071REMSYN098    AAXX  19064 65518 32965 70000 10215 20073 39712 40070 80002 333 01900 20212 50804 59007 87076;EQDQ01  00002PRCP99
0163655180999992000011909004+11150-001150FM-12+032299999V0200801N00411078001CN0150001N1+02901+00501100981ADDGA1051+078009019GF105991001001999999001021MA1999999097401MD1999999-0051REMSYN080    AAXX  19094 65518 42965 50808 10290 20050 39740 40098 80002 333 59005 85076;
0199655180999992000011912004+11150-001150FM-12+032299999V0201201N00511220001CN0150001N1+03451+00171100811ADDAA199000091GA1031+078009019GF103991001001999999001021MA1999999097261MD1999999-0041REMSYN086    AAXX  19124 65518 32965 31210 10345 20017 39726 40081 80002 333 0//00 59004 83076;EQDQ01  00002PRCP99
0163655180999992000011915004+11150-001150FM-12+032299999V0200801N00311220001CN0150001N1+03671+00861100461ADDGA1031+078009019GF103991001001999999001021MA1999999096921MD1999999-0121REMSYN080    AAXX  19154 65518 42965 30806 10367 20086 39692 40046 80002 333 59012 83076;
0208655180999992000011918004+11150-001150FM-12+0322DFCP V0209999C000010780019N0150001N1+03301+01131100561ADDAA199000091GA1051+078009019GF105991001001999999001021KA1120M+03751MA1999999096991MD1999999-0071REMSYN082AAXX  19184 65518 32965 50000 10330 20113 39699 40056 80002 333 10375 59007 85076;EQDQ01  00002PRCP99
0201655180999992000012000004+11150-001150FM-12+0322DFCP V02099999999999999999N0150001N1+02541+00931100791ADDAA199000091GA1011+039009039GF107991011001999999031021MA1999999097241MD1999999+0001REMSYN088AAXX  20004 65518 32965 7000/ 10254 20093 39724 40079 81032 333 0//00 58000 81363 87076;EQDQ01  00002PRCP99
0151655180999992000012009004+11150-001150FM-12+0322DFCP V0201801N002119999999N0150001N1+02841+01761101011ADDGA1021+039009039GF107991021001999999031021MA1999999097401REMSYN082AAXX  20094 65518 42965 71804 10284 20176 3974/ 40101 82032 333 51003 82363 87076;
0201655180999992000012100004+11150-001150FM-12+0322DFCP V0209999C000019999999N0150001N1+02781+01721100811ADDAA199000091GA1031+039009039GF107991031001999999031021MA1999999097261MD1999999+0021REMSYN088AAXX  21004 65518 32965 70000 10278 20172 39726 40081 83032 333 0//00 58002 83363 86076;EQDQ01  00002PRCP99
0201655180999992000012112004+11150-001150FM-12+0322DFCP V0209999C000010390019N0150001N1+03141+01721100891ADDAA199000091GA1051+039009039GF107991051001999999031021MA1999999097331MD1999999+0041REMSYN088AAXX  21124 65518 32965 70000 10314 20172 39733 40089 85032 333 0//00 58004 85363 83076;EQDQ01  00002PRCP99
0159655180999992000012115004+11150-001150FM-12+0322DFCP V02099999999990390019N0150001N1+99999+99999100671ADDGA1081+039009079GF108991081001999999071999MA1999999097111MD1999999+0071REMSYN076AAXX  21154 65518 42965 800/0 10/20 20165 39711 40067 8807/ 333 58007 88363;
0208655180999992000012118004+11150-001150FM-12+0322DFCP V0209999C000010390019N0150001N1+03041+01821100761ADDAA199000091GA1081+039009079GF108991081001999999071999KA1120M+03341MA1999999097181MD1999999+0091REMSYN082AAXX  21184 65518 32965 80000 10304 20182 39718 40076 8807/ 333 10334 58009 88363;EQDQ01  00002PRCP99
0165655180999992000012209004+11150-001150FM-12+0322DFCP V0203201N002119999999N0150001N1+02891+01691100951ADDGA1011+039009039GF105991011001999999031021MA1999999097381MD1999999-0091REMSYN082AAXX  22094 65518 42965 53204 10289 20169 39738 40095 81032 333 59009 81363 85076;
0195655180999992000012212004+11150-001150FM-12+0322DFCP V0200201N002112200019N0150001N1+03531+00671100731ADDAA199000091GA1031+078009019GF103991001001999999001021MA1999999097191MD1999999-0141REMSYN082AAXX  22124 65518 32965 30204 10353 20067 39719 40073 80002 333 0//00 59014 83076;EQDQ01  00002PRCP99
0159655180999992000012215004+11150-001150FM-12+0322DFCP V0200401N002112200019N0150001N1+03731+01001100471ADDGA1031+078009019GF103991001001999999001021MA1999999096951MD1999999-0161REMSYN076AAXX  22154 65518 42965 30404 10373 20100 39695 40047 80002 333 59016 83076;
0137655180999992000012218004+11150-001150FM-12+0322DFCP V0209999C000019999999N0150001N1+03321+99999100541ADDAA199000091GF107991001001999999001021MA1999999096981REMSYN054AAXX  22184 65518 32965 70000 10332 39698 40054 80002;EQDQ01  00002PRCP99
0195655180999992000012300004+11150-001150FM-12+0322DFCP V0203401N001010780019N0150001N1+02631+00791100681ADDAA199000091GA1071+078009019GF107991001001999999001021MA1999999097151MD1999999-0181REMSYN082AAXX  23004 65518 32965 73402 10263 20079 39715 40068 80002 333 0//00 59018 87076;EQDQ01  00002PRCP99
0232655180999992000012306004+11150-001150FM-12+0322DFCP V0203601N001010780019N0150001N1+02301+00431100631ADDAA199000091GA1071+078009019GF107991001001999999001021IA2240+02009KA1120N+02271MA1999999097071MD1999999-0141REMSYN094AAXX  23064 65518 32965 73602 10230 20043 39707 40063 80002 333 02000 20227 50894 59014 87076;EQDQ01  00002PRCP99
0159655180999992000012309004+11150-001150FM-12+0322DFCP V0203601N002110780019N0150001N1+02941-00031100851ADDGA1071+078009019GF107991001001999999001021MA1999999097291MD1999999-0091REMSYN076AAXX  23094 65518 42965 73604 10294 21003 39729 40085 80002 333 59009 87076;
0195655180999992000012312004+11150-001150FM-12+0322DFCP V0200601N003110780019N0150001N1+03601-00081100691ADDAA199000091GA1071+078009019GF107991001001999999001021MA1999999097151MD1999999-0041REMSYN082AAXX  23124 65518 32965 70606 10360 21008 39715 40069 80002 333 0//00 59004 87076;EQDQ01  00002PRCP99
0208655180999992000012318004+11150-001150FM-12+0322DFCP V0209999C000010780019N0150001N1+03451+00881100491ADDAA199000091GA1071+078009019GF107991001001999999001021KA1120M+03781MA1999999096941MD1999999-0041REMSYN082AAXX  23184 65518 32965 70000 10345 20088 39694 40049 80002 333 10378 59004 87076;EQDQ01  00002PRCP99
0232655180999992000012406004+11150-001150FM-12+0322DFCP V0209999C000010780019N0150001N1+02171+00421100651ADDAA199000091GA1071+078009019GF107991001001999999001021IA2240+02109KA1120N+02161MA1999999097091MD1999999+0021REMSYN094AAXX  24064 65518 32965 70000 10217 20042 39709 40065 80002 333 02100 20216 51034 58002 87076;EQDQ01  00002PRCP99
0159655180999992000012409004+11150-001150FM-12+0322DFCP V0209999C000010780019N0150001N1+02701+00471100901ADDGA1071+078009019GF107991001001999999001021MA1999999097321MD1999999+0031REMSYN076AAXX  24094 65518 42965 70000 10270 20047 39732 40090 80002 333 58003 87076;
0181655180999992000012412004+11150-001150FM-12+0322DFCP V0209999C000010780019N0150001N1+03431+99999100741ADDAA199000091GA1071+078009019GF107991001001999999001021MA1999999097191REMSYN082AAXX  24124 65518 32965 70000 10343 200/4 39719 40074 80002 333 0//00 5800/ 87076;EQDQ01  00002PRCP99
0159655180999992000012415004+11150-001150FM-12+0322DFCP V0209999C000010780019N0150001N1+03601+01441100511ADDGA1071+078009019GF107991001001999999001021MA1999999096971MD1999999+0041REMSYN076AAXX  24154 65518 42965 70000 10360 20144 39697 40051 80002 333 58004 87076;
0165655180999992000012418004+11150-001150FM-12+0322DFCP V0209999C000019999999N0150001N1+99999+99999999999ADDAA199000091GF107991001001999999061011KA1120M+03711MD1999999+0101REMSYN070AAXX  24184 65518 32965 70000 10/01 80061 80002 333 10371 58010 87076;EQDQ01  00002PRCP99
0195655180999992000012500004+11150-001150FM-12+0322DFCP V0201801N001010780019N0150001N1+02711+01481100901ADDAA199000091GA1071+078009019GF107991001001999999001021MA1999999097351MD1999999+0191REMSYN082AAXX  25004 65518 32965 71802 10271 20148 39735 40090 80002 333 0//00 58019 87076;EQDQ01  00002PRCP99
0159655180999992000012503004+11150-001150FM-12+0322DFCP V0201801N001010780019N0150001N1+02611+01621100821ADDGA1071+078009019GF107991001001999999001021MA1999999097281MD1999999+0191REMSYN076AAXX  25034 65518 42965 71802 10261 20162 39728 40082 80002 333 58019 87076;
0221655180999992000012506004+11150-001150FM-12+0322DFCP V0209999C000010780019N0150001N1+02231+01941100841ADDGA1071+078009019GF199999001001999999001021IA2240+01809KA1120N+02201MA1999999097261MD1999999+0171REMSYN094AAXX  25064 65518 43965 50000 10223 20194 39726 40084 80002 333 01800 20220 50654 58017 87076;EQDQ01+000052SCOTCV
0159655180999992000012509004+11150-001150FM-12+0322DFCP V0202601N002112200019N0150001N1+02811+02021101051ADDGA1031+078009019GF103991001001999999001021MA1999999097461MD1999999+0141REMSYN076AAXX  25094 65518 42965 32604 10281 20202 39746 40105 80002 333 58014 83076;
0195655180999992000012512004+11150-001150FM-12+0322DFCP V0203401N001010780019N0150001N1+03451+01791100901ADDAA199000091GA1051+078009019GF105991001001999999001021MA1999999097361MD1999999+0171REMSYN082AAXX  25124 65518 32965 53402 10345 20179 39736 40090 80002 333 0//00 58017 85076;EQDQ01  00002PRCP99
0159655180999992000012515004+11150-001150FM-12+0322DFCP V0200401N003110780019N0150001N1+03651+01281100571ADDGA1071+078009019GF107991001001999999001021MA1999999097051MD1999999+0081REMSYN076AAXX  25154 65518 42965 70406 10365 20128 39705 40057 80002 333 58008 87076;
0208655180999992000012518004+11150-001150FM-12+0322DFCP V0209999C000010780019N0150001N1+03401+01331100681ADDAA199000091GA1071+078009019GF107991001001999999001021KA1120M+03701MA1999999097111MD1999999+0071REMSYN082AAXX  25184 65518 32965 70000 10340 20133 39711 40068 80002 333 10370 58007 87076;EQDQ01  00002PRCP99
0159655180999992000012521004+11150-001150FM-12+0322DFCP V0209999C000010780019N0150001N1+02901+01491100881ADDGA1071+078009019GF107991001001999999021999MA1999999097311MD1999999+0051REMSYN076AAXX  25214 65518 4/965 70000 10290 20149 39731 40088 8002/ 333 58005 87076;
0201655180999992000012600004+11150-001150FM-12+0322DFCP V0209999C000019999999N0150001N1+02731+01321100861ADDAA199000091GA1011+039009039GF107991011001999999031021MA1999999097321MD1999999-0031REMSYN088AAXX  26004 65518 32965 70000 10273 20132 39732 40086 81032 333 0//00 59003 81363 87076;EQDQ01  00002PRCP99
0159655180999992000012603004+11150-001150FM-12+0322DFCP V0209999C000010780019N0150001N1+02511+00981100781ADDGA1071+078009019GF107991001001999999001021MA1999999097241MD1999999-0041REMSYN076AAXX  26034 65518 42965 70000 10251 20098 39724 40078 80002 333 59004 87076;
0232655180999992000012606004+11150-001150FM-12+0322DFCP V0209999C000010780019N0150001N1+02271+00881100831ADDAA199000091GA1071+078009019GF107991001001999999001021IA2240+02009KA1120N+02271MA1999999097261MD1999999+0001REMSYN094AAXX  26064 65518 32965 70000 10227 20088 39726 40083 80002 333 02000 20227 50864 58000 87076;EQDQ01  00002PRCP99
0159655180999992000012609004+11150-001150FM-12+0322DFCP V0200801N002110780019N0150001N1+03061+00321101051ADDGA1071+078009019GF107991001001999999001021MA1999999097501MD1999999+0041REMSYN076AAXX  26094 65518 42965 70804 10306 20032 39750 40105 80002 333 58004 87076;
0195655180999992000012612004+11150-001150FM-12+0322DFCP V0200801N003110780019N0150001N1+03651-00461100921ADDAA199000091GA1071+078009019GF107991001001999999001021MA1999999097391MD1999999+0031REMSYN082AAXX  26124 65518 32965 70806 10365 21046 39739 40092 80002 333 0//00 58003 87076;EQDQ01  00002PRCP99
0178655180999992000012615004+11150-001150FM-12+0322DFCP V0200801N003110780019N0150001N1+03861+01342100671ADDGA1071+078009019GF107991001001999999001021MA1999999097141MD1999999+0091REMSYN076AAXX  26154 65518 42965 70806 10386 20134 39714 40067 80002 333 58009 87076;EQDQ01+001343ATOD  
0208655180999992000012618004+11150-001150FM-12+0322DFCP V0209999C000010780019N0150001N1+03521+00341100731ADDAA199000091GA1071+078009019GF107991001001999999001021KA1120M+03871MA1999999097171MD1999999+0061REMSYN082AAXX  26184 65518 32965 70000 10352 20034 39717 40073 80002 333 10387 58006 87076;EQDQ01  00002PRCP99
0195655180999992000012700004+11150-001150FM-12+0322DFCP V0209999C000010780019N0150001N1+02561+00591100901ADDAA199000091GA1071+078009019GF107991001001999999001021MA1999999097731MD1999999+0041REMSYN082AAXX  27004 65518 32965 70000 10256 20059 39773 40090 80002 333 0//00 58004 87076;EQDQ01  00002PRCP99
0153655180999992000012703004+11150-001150FM-12+0322DFCP V0200601N001010780019N0150001N1+02351+00461999999ADDGA1071+078009019GF107991001001999999001021MA1999999097291MD1999999+0051REMSYN070AAXX  27034 65518 42965 70602 10235 20046 39729 80002 333 58005 87076;
0159655180999992000012709004+11150-001150FM-12+0322DFCP V0200801N005110780019N0150001N1+02881-00011101141ADDGA1071+078009019GF107991001001999999001021MA1999999097561MD1999999+0061REMSYN076AAXX  27094 65518 42965 70810 10288 21001 39756 40114 80002 333 58006 87076;
0159655180999992000012721004+11150-001150FM-12+0322DFCP V0209999C000010780019N0150001N1+02781+00561100861ADDGA1071+078009019GF107991001001999999001021MA1999999097291MD1999999-0021REMSYN076AAXX  27214 65518 42965 70000 10278 20056 39729 40086 80002 333 59002 87076;
0195655180999992000012800004+11150-001150FM-12+0322DFCP V0209999C000010780019N0150001N1+02551+00541100761ADDAA199000091GA1071+078009019GF107991001001999999001021MA1999999097231MD1999999-0131REMSYN082AAXX  28004 65518 32965 70000 10255 20054 39723 40076 80002 333 0//00 59013 87076;EQDQ01  00002PRCP99
0208655180999992000012818004+11150-001150FM-12+0322DFCP V0209999C000010780019N0150001N1+03451+00541100631ADDAA199000091GA1071+078009019GF107991001001999999001021KA1120M+03781MA1999999097071MD1999999-0101REMSYN082AAXX  28184 65518 32965 70000 10345 20054 39707 40063 80002 333 10378 59010 87076;EQDQ01  00002PRCP99
0223655180999992000013112004+11150-001150FM-12+0322DFCP V0200801N006210780019N0040001N1+03201-00251101311ADDAA199000091AY121061AY221061GA1051+078009019GF105991001001999999001021MA1999999097721MD1999999+0021MW1061REMSYN088AAXX  31124 65518 31940 50812 10320 21025 39772 40131 70622 80002 333 0//00 58002 85076;EQDQ01  00002PRCP99
0223655180999992000020112004+11150-001150FM-12+0322DFCP V0200401N005110780019N0060001N1+02761-00661101591ADDAA199000091AY121061AY221061GA1071+078009019GF107991001001999999001021MA1999999097971MD1999999+0251MW1061REMSYN088AAXX  01124 65518 31956 70410 10276 21066 39797 40159 70622 80002 333 0//00 58025 87076;EQDQ01  00002PRCP99
0159655180999992000020115004+11150-001150FM-12+0322DFCP V0200401N003110780019N0100001N1+02921-00791101301ADDGA1071+078009019GF107991001001999999001021MA1999999097681MD1999999+0201REMSYN076AAXX  01154 65518 42960 70406 10292 21079 39768 40130 80002 333 58020 87076;
0208655180999992000020118004+11150-001150FM-12+0322DFCP V0200401N003110780019N0100001N1+02721-00501101341ADDAA199000091GA1071+078009019GF107991001001999999001021KA1120M+02931MA1999999097711MD1999999+0211REMSYN082AAXX  01184 65518 32960 70406 10272 21050 39771 40134 80002 333 10293 58021 87076;EQDQ01  00002PRCP99
0195655180999992000020200004+11150-001150FM-12+0322DFCP V0209999C000010780019N0150001N1+02061-00251101631ADDAA199000091GA1071+078009019GF107991001001999999001021MA1999999097981MD1999999+0181REMSYN082AAXX  02004 65518 32965 70000 10206 21025 39798 40163 80002 333 0//00 58018 87076;EQDQ01  00002PRCP99
0159655180999992000020203004+11150-001150FM-12+0322DFCP V0200201N002110780019N0100001N1+01901-00271101481ADDGA1071+078009019GF107991001001999999001021MA1999999097841MD1999999+0121REMSYN076AAXX  02034 65518 42960 70204 10190 21027 39784 40148 80002 333 58012 87076;
0232655180999992000020206004+11150-001150FM-12+0322DFCP V0203601N002110780019N0100001N1+01761-00361101501ADDAA199000091GA1071+078009019GF107991001001999999001021IA2240+02009KA1120N+01741MA1999999097831MD1999999+0081REMSYN094AAXX  02064 65518 32960 73604 10176 21036 39783 40150 80002 333 02000 20174 51484 58008 87076;EQDQ01  00002PRCP99
0159655180999992000020209004+11150-001150FM-12+0322DFCP V0200801N007210780019N0100001N1+02251-00951101631ADDGA1071+078009019GF107991001001999999001021MA1999999097971MD1999999-0031REMSYN076AAXX  02094 65518 42960 70814 10225 21095 39797 40163 80002 333 59003 87076;
0195655180999992000020212004+11150-001150FM-12+0322DFCP V0200401N005110780019N0100001N1+02741-00861101511ADDAA199000091GA1071+078009019GF107991001001999999001021MA1999999097861MD1999999-0111REMSYN082AAXX  02124 65518 32960 70410 10274 21086 39786 40151 80002 333 0//00 59011 87076;EQDQ01  00002PRCP99
0159655180999992000020215004+11150-001150FM-12+0322DFCP V0200201N003110780019N0100001N1+02941-00531101151ADDGA1071+078009019GF107991001001999999001021MA1999999097521MD1999999-0161REMSYN076AAXX  02154 65518 42960 70206 10294 21053 39752 40115 80002 333 59016 87076;
0208655180999992000020218004+11150-001150FM-12+0322DFCP V0200401N003110780019N0100001N1+02751-00411101211ADDAA199000091GA1071+078009019GF107991001001999999001021KA1120M+02951MA1999999097561MD1999999-0151REMSYN082AAXX  02184 65518 32960 70406 10275 21041 39756 40121 80002 333 10295 59015 87076;EQDQ01  00002PRCP99
0195655180999992000020300004+11150-001150FM-12+0322DFCP V0200401N002110780019N0100001N1+02171-00831101471ADDAA199000091GA1071+078009019GF107991001001999999001021MA1999999097831MD1999999-0151REMSYN082AAXX  03004 65518 32960 70404 10217 21083 39783 40147 80002 333 0//00 59015 87076;EQDQ01  00002PRCP99
0232655180999992000020306004+11150-001150FM-12+0322DFCP V0203601N002110780019N0100001N1+01701-00751101321ADDAA199000091GA1071+078009019GF107991001001999999001021IA2240+01609KA1120N+01681MA1999999097661MD1999999-0171REMSYN094AAXX  03064 65518 32960 73604 10170 21075 39766 40132 80002 333 01600 20168 51214 59017 87076;EQDQ01  00002PRCP99
0159655180999992000020309004+11150-001150FM-12+0322DFCP V0200801N005110780019N0100001N1+02181-00571101511ADDGA1071+078009019GF107991001001999999001021MA1999999097841MD1999999-0071REMSYN076AAXX  03094 65518 42960 70810 10218 21057 39784 40151 80002 333 59007 87076;
0195655180999992000020312004+11150-001150FM-12+0322DFCP V0200801N005110780019N0100001N1+02721-00871101381ADDAA199000091GA1071+078009019GF107991001001999999001021MA1999999097751MD1999999-0111REMSYN082AAXX  03124 65518 32960 70810 10272 21087 39775 40138 80002 333 0//00 59011 87076;EQDQ01  00002PRCP99
0187655180999992000020409004+11150-001150FM-12+0322DFCP V0200201N003110780019N0080001N1+02241-00561101481ADDAY121031AY221031GA1071+078009019GF107991001001999999001021MA1999999097821MD1999999-0021MW1061REMSYN082AAXX  04094 65518 41958 70206 10224 21056 39782 40148 70622 80002 333 59002 87076;
0208655180999992000020418004+11150-001150FM-12+0322DFCP V0200601N002110780019N0100001N1+02831-00441101121ADDAA199000091GA1071+078009019GF107991001001999999001021KA1120M+03081MA1999999097471MD1999999+0011REMSYN082AAXX  04184 65518 32960 70604 10283 21044 39747 40112 80002 333 10308 58001 87076;EQDQ01  00002PRCP99
0159655180999992000020715004+11150-001150FM-12+0322DFCP V0200801N003110780019N0150001N1+03191-00901101061ADDGA1071+078009019GF107991001001999999001021MA1999999097451MD1999999+0061REMSYN076AAXX  07154 65518 42965 70806 10319 21090 39745 40106 80002 333 58006 87076;
0110655180999992000020718004+11150-001150FM-12+0322DFCP V0200401N004119999999N0150001N1+02931-00751999999ADDAA199000091GF107991999999999999999999REMSYN042AAXX  07184 65518 32965 70408 10293 21075;EQDQ01  00002PRCP99
0195655180999992000020800004+11150-001150FM-12+0322DFCP V0200401N001010780019N0150001N1+02141-00531101381ADDAA199000091GA1071+078009019GF107991001001999999001021MA1999999097761MD1999999+0051REMSYN082AAXX  08004 65518 32965 70402 10214 21053 39776 40138 80002 333 0//00 58005 87076;EQDQ01  00002PRCP99
0232655180999992000020806004+11150-001150FM-12+0322DFCP V0200201N004110780019N0150001N1+01851-00521101371ADDAA199000091GA1071+078009019GF107991001001999999001021IA2240+01309KA1120N+01851MA1999999097731MD1999999+0121REMSYN094AAXX  08064 65518 32965 70208 10185 21052 39773 40137 80002 333 01300 20185 51164 58012 87076;EQDQ01  00002PRCP99
0154655180999992000020809004+11150-001150FM-12+0322DFCP V0200401N005119999999N0150001N1+02251-00391101521ADDAA124999999GF107991001001999999001021MA1999999097871MD1999999+0091REMSYN076AAXX  08094 65518 42965 70410 10225 21039 39787 40152 80002 333 58009 7076/;
0195655180999992000020900004+11150-001150FM-12+0322DFCP V0200401N002110780019N0150001N1+02181-00331101471ADDAA199000091GA1071+078009019GF107991001001999999001021MA1999999097831MD1999999+0071REMSYN082AAXX  09004 65518 32965 70404 10218 21033 39783 40147 80002 333 0//00 58007 87076;EQDQ01  00002PRCP99
0195655180999992000021000004+11150-001150FM-12+0322DFCP V0200201N002110780019N0150001N1+02141-00331101361ADDAA199000091GA1071+078009019GF107991001001999999001021MA1999999097761MD1999999-0101REMSYN082AAXX  10004 65518 32965 70204 10214 21033 39776 40136 80002 333 0//00 59010 87076;EQDQ01  00002PRCP99
0159655180999992000021003004+11150-001150FM-12+0322DFCP V0200401N003110780019N0150001N1+01901-00351101241ADDGA1071+078009019GF107991001001999999001021MA1999999097621MD1999999-0131REMSYN076AAXX  10034 65518 42965 70406 10190 21035 39762 40124 80002 333 59013 87076;
0232655180999992000021006004+11150-001150FM-12+0322DFCP V0200201N002110780019N0150001N1+01651-00211101211ADDAA199000091GA1071+078009019GF107991001001999999001021IA2240+01609KA1120N+01631MA1999999097561MD1999999-0181REMSYN094AAXX  10064 65518 32965 70204 10165 21021 39756 40121 80002 333 01600 20163 51084 59018 87076;EQDQ01  00002PRCP99
0159655180999992000021009004+11150-001150FM-12+0322DFCP V0200401N003112200019N0150001N1+02381-00591101291ADDGA1031+078009019GF103991001001999999001021MA1999999097641MD1999999-0191REMSYN076AAXX  10094 65518 42965 30406 10238 21059 39764 40129 80002 333 59019 83076;
0195655180999992000021012004+11150-001150FM-12+0322DFCP V0200401N004112200019N0150001N1+02901-00441101191ADDAA199000091GA1031+078009019GF103991001001999999001021MA1999999097571MD1999999-0131REMSYN082AAXX  10124 65518 32965 30408 10290 21044 39757 40119 80002 333 0//00 59013 83076;EQDQ01  00002PRCP99
0159655180999992000021015004+11150-001150FM-12+0322DFCP V0200201N003112200019N0150001N1+03131-00421100911ADDGA1031+078009019GF103991001001999999001021MA1999999097301MD1999999-0121REMSYN076AAXX  10154 65518 42965 30206 10313 21042 39730 40091 80002 333 59012 83076;
0208655180999992000021018004+11150-001150FM-12+0322DFCP V0200201N001010780019N0150001N1+02901-00551101011ADDAA199000091GA1051+078009019GF105991001001999999001021KA1120M+03131MA1999999097361MD1999999-0091REMSYN082AAXX  10184 65518 32965 50202 10290 21055 39736 40101 80002 333 10313 59009 85076;EQDQ01  00002PRCP99
0195655180999992000021100004+11150-001150FM-12+0322DFCP V0209999C000010780019N0150001N1+02011-00241101261ADDAA199000091GA1051+078009019GF105991001001999999001021MA1999999097631MD1999999-0101REMSYN082AAXX  11004 65518 32965 50000 10201 21024 39763 40126 80002 333 0//00 59010 85076;EQDQ01  00002PRCP99
0232655180999992000021106004+11150-001150FM-12+0322DFCP V0200201N001010780019N0100001N1+01651-00421101231ADDAA199000091GA1051+078009019GF105991001001999999001021IA2240+01409KA1120N+01651MA1999999097581MD1999999+0021REMSYN094AAXX  11064 65518 32960 50202 10165 21042 39758 40123 80002 333 01400 20165 51064 58002 85076;EQDQ01  00002PRCP99
0159655180999992000021109004+11150-001150FM-12+0322DFCP V0200401N004110780019N0150001N1+02301-00611101361ADDGA1051+078009019GF105991001001999999001021MA1999999097721MD1999999+0081REMSYN076AAXX  11094 65518 42965 50408 10230 21061 39772 40136 80002 333 58008 85076;
0195655180999992000021112004+11150-001150FM-12+0322DFCP V0200801N005110780019N0150001N1+02971-01021101231ADDAA199000091GA1051+078009019GF105991001001999999001021MA1999999097611MD1999999+0041REMSYN082AAXX  11124 65518 32965 50810 10297 21102 39761 40123 80002 333 0//00 58004 85076;EQDQ01  00002PRCP99
0159655180999992000021115004+11150-001150FM-12+0322DFCP V0203601N003110780019N0150001N1+03181-00421100911ADDGA1051+078009019GF105991001001999999001021MA1999999097301MD1999999+0001REMSYN076AAXX  11154 65518 42965 53606 10318 21042 39730 40091 80002 333 58000 85076;
0208655180999992000021118004+11150-001150FM-12+0322DFCP V0200401N002110780019N0150001N1+02911-00701100961ADDAA199000091GA1051+078009019GF105991001001999999001021KA1120M+03191MA1999999097321MD1999999-0041REMSYN082AAXX  11184 65518 32965 50404 10291 21070 39732 40096 80002 333 10319 59004 85076;EQDQ01  00002PRCP99
0195655180999992000021200004+11150-001150FM-12+0322DFCP V0200201N002110780019N0150001N1+02161-00521101221ADDAA199000091GA1071+078009019GF107991001001999999001021MA1999999097601MD1999999-0031REMSYN082AAXX  12004 65518 32965 70204 10216 21052 39760 40122 80002 333 0//00 59003 87076;EQDQ01  00002PRCP99
0159655180999992000021209004+11150-001150FM-12+0322DFCP V0200401N002110780019N0150001N1+02261-00791101271ADDGA1071+078009019GF107991001001999999001021MA1999999097631MD1999999-0091REMSYN076AAXX  12094 65518 42965 70404 10226 21079 39763 40127 80002 333 59009 87076;
0195655180999992000021212004+11150-001150FM-12+0322DFCP V0200801N004110780019N0150001N1+02931-00751101161ADDAA199000091GA1071+078009019GF107991001001999999001021MA1999999097541MD1999999-0071REMSYN082AAXX  12124 65518 32965 70808 10293 21075 39754 40116 80002 333 0//00 59007 87076;EQDQ01  00002PRCP99
0159655180999992000021215004+11150-001150FM-12+0322DFCP V0200801N002110780019N0150001N1+03141-00441100881ADDGA1071+078009019GF107991001001999999001021MA1999999097271MD1999999-0271REMSYN076AAXX  12154 65518 42965 70804 10314 21044 39727 40088 80002 333 59027 87076;
0224655180999992000021218004+11150-001150FM-12+0322DFCP V0209999C000010780019N0150001N1+02901-00381100951ADDAA199000091GA1071+078009019GF107991001999999999001021KA1120M+03151MA1999999097301MD1999999-0021REMSYN082AAXX  12184 65518 32965 70000 10290 21038 39730 40095 80802 333 10315 59002 87076;EQDQ01+000082SCOLCGQ02  00002PRCP99
0159655180999992000021221004+11150-001150FM-12+0322DFCP V0209999C000010780019N0150001N1+02371-00141101171ADDGA1071+078009019GF107991001001999999001021MA1999999097521MD1999999-0011REMSYN076AAXX  12214 65518 42965 70000 10237 21014 39752 40117 80002 333 59001 87076;
0195655180999992000021300004+11150-001150FM-12+0322DFCP V0200401N001010780019N0150001N1+02201-00521101151ADDAA199000091GA1071+078009019GF107991001001999999001021MA1999999097531MD1999999-0071REMSYN082AAXX  13004 65518 32965 70402 10220 21052 39753 40115 80002 333 0//00 59007 87076;EQDQ01  00002PRCP99
0232655180999992000021306004+11150-001150FM-12+0322DFCP V0209999C000010780019N0150001N1+01761-00451101111ADDAA199000091GA1071+078009019GF107991001001999999001021IA2240+01409KA1120N+01671MA1999999097481MD1999999-0051REMSYN094AAXX  13064 65518 32965 70000 10176 21045 39748 40111 80002 333 01400 20167 51234 59005 87076;EQDQ01  00002PRCP99
0159655180999992000021309004+11150-001150FM-12+0322DFCP V0200801N003110780019N0150001N1+02341-00551101281ADDGA1051+078009019GF105991001001999999001021MA1999999097641MD1999999+0011REMSYN076AAXX  13094 65518 42965 50806 10234 21055 39764 40128 80002 333 58001 85076;
0195655180999992000021312004+11150-001150FM-12+0322DFCP V0200401N004110780019N0150001N1+02921-00791101161ADDAA199000091GA1051+078009019GF105991001001999999001021MA1999999097541MD1999999+0001REMSYN082AAXX  13124 65518 32965 50408 10292 21079 39754 40116 80002 333 0//00 58000 85076;EQDQ01  00002PRCP99
0208655180999992000021318004+11150-001150FM-12+0322DFCP V0200401N002110780019N0150001N1+02971-00621100921ADDAA199000091GA1071+078009019GF107991001001999999001021KA1120M+03231MA1999999097291MD1999999-0011REMSYN082AAXX  13184 65518 32965 70404 10297 21062 39729 40092 80002 333 10323 59001 87076;EQDQ01  00002PRCP99
0159655180999992000021409004+11150-001150FM-12+0322DFCP V0200801N004110780019N0150001N1+02341-01381101291ADDGA1071+078009019GF107991001001999999001021MA1999999097651MD1999999+0011REMSYN076AAXX  14094 65518 42965 70808 10234 21138 39765 40129 80002 333 58001 87076;
0195655180999992000021412004+11150-001150FM-12+0322DFCP V0200401N004110780019N0150001N1+02921-01171101291ADDAA199000091GA1071+078009019GF107991001001999999001021MA1999999097581MD1999999+0041REMSYN082AAXX  14124 65518 32965 70408 10292 21117 39758 40129 80002 333 0//00 58004 87076;EQDQ01  00002PRCP99
0194655180999992000021415004+11150-001150FM-12+0322DFCP V0200601N004110780019N0150001N1+03191-01671999999ADDGA1071+078009029GF107991001001999999001021MA1999999097281MD1999999+0011REMSYN076AAXX  14154 65518 42965 70608 10319 21167 39728 4088/ 80002 333 58001 87576;EQDQ01+108803APOSLPQ02 108803APOSLP
0224655180999992000021418004+11150-001150FM-12+0322DFCP V0200401N003110780019N0150001N1+02981-01231100902ADDAA199000091GA1071+078009019GF107991001001999999001021KA1120M+03241MA1999999097291MD1999999+0001REMSYN082AAXX  14184 65518 32965 70406 10298 21123 39729 40090 80002 333 10324 58000 87076;EQDQ01+100903APOSLPQ02  00002PRCP99
0195655180999992000021500004+11150-001150FM-12+0322DFCP V0203601N002110780019N0150001N1+02201-00931101201ADDAA199000091GA1071+078009019GF107991001001999999001021MA1999999097581MD1999999+0021REMSYN082AAXX  15004 65518 32965 73604 10220 21093 39758 40120 80002 333 0//00 58002 87076;EQDQ01  00002PRCP99
0232655180999992000021506004+11150-001150FM-12+0322DFCP V0203601N002110780019N0150001N1+01801-00931101121ADDAA199000091GA1071+078009019GF107991001001999999001021IA2240+01709KA1120N+01801MA1999999097491MD1999999+0001REMSYN094AAXX  15064 65518 32965 73604 10180 21093 39749 40112 80002 333 01700 20180 51034 58000 87076;EQDQ01  00002PRCP99
0159655180999992000021509004+11150-001150FM-12+0322DFCP V0200201N003110780019N0150001N1+02471-00911101221ADDGA1071+078009019GF107991001001999999001021MA1999999097591MD1999999-0061REMSYN076AAXX  15094 65518 42965 70206 10247 21091 39759 40122 80002 333 59006 87076;
0208655180999992000021518004+11150-001150FM-12+0322DFCP V0209999C000010780019N0150001N1+03141-00751100831ADDAA199000091GA1071+078009019GF107991001001999999001021KA1120M+03371MA1999999097211MD1999999-0081REMSYN082AAXX  15184 65518 32965 70000 10314 21075 39721 40083 80002 333 10337 59008 87076;EQDQ01  00002PRCP99
0195655180999992000021600004+11150-001150FM-12+0322DFCP V0200401N001010780019N0150001N1+02341-00721101091ADDAA199000091GA1051+078009019GF105991001001999999001021MA1999999097491MD1999999-0091REMSYN082AAXX  16004 65518 32965 50402 10234 21072 39749 40109 80002 333 0//00 59009 85076;EQDQ01  00002PRCP99
0159655180999992000021603004+11150-001150FM-12+0322DFCP V0209999C000010780019N0150001N1+02061-00531101011ADDGA1051+078009019GF105991001001999999001021MA1999999097421MD1999999-0101REMSYN076AAXX  16034 65518 42965 50000 10206 21053 39742 40101 80002 333 59010 85076;
0232655180999992000021606004+11150-001150FM-12+0322DFCP V0200201N002110780019N0150001N1+01901-00651101101ADDAA199000091GA1071+078009019GF107991001001999999001021IA2240+01509KA1120N+01891MA1999999097481MD1999999-0011REMSYN094AAXX  16064 65518 32965 70204 10190 21065 39748 40110 80002 333 01500 20189 51304 59001 87076;EQDQ01  00002PRCP99
0195655180999992000021612004+11150-001150FM-12+0322DFCP V0200801N005112200019N0150001N1+03071-01321101181ADDAA199000091GA1031+078009019GF103991001001999999001021MA1999999097581MD1999999-0071REMSYN082AAXX  16124 65518 32965 30810 10307 21132 39758 40118 80002 333 0//00 59007 83076;EQDQ01  00002PRCP99
0159655180999992000021615004+11150-001150FM-12+0322DFCP V0200801N002112200019N0150001N1+03351-00531100851ADDGA1031+078009019GF103991001001999999001021MA1999999097261MD1999999+0041REMSYN076AAXX  16154 65518 42965 30804 10335 21053 39726 40085 80002 333 58004 83076;
0189655180999992000021618004+11150-001150FM-12+0322DFCP V0209999C000010780019N0150001N1+03101-00521100901ADDAA199000091GA1051+078009019GF105991001001999999001021MA1999999097291MD1999999+0081REMSYN076AAXX  16184 65518 32965 50000 10310 21052 39729 40090 80002 333 58008 85076;EQDQ01  00002PRCP99
0153655180999992000021621004+11150-001150FM-12+0322DFCP V0200401N001010780019N0150001N1+02521-00131101281ADDGA1071+078009019GF107991999999999999999999MA1999999097811MD1999999+0071REMSYN070AAXX  16214 65518 42965 70402 10252 21013 39781 40128 333 58007 87076;
0232655180999992000021706004+11150-001150FM-12+0322DFCP V0200201N001010780019N0150001N1+01951-00911101051ADDAA199000091GA1071+078009019GF107991001001999999001021IA2240+01609KA1120N+01951MA1999999097441MD1999999-0041REMSYN094AAXX  17064 65518 32965 70202 10195 21091 39744 40105 80002 333 01600 20195 51154 59004 87076;EQDQ01  00002PRCP99
0113655180999992000021709004+11150-001150FM-12+0322DFCP V0200401N005119999999N0100001N1+02551-01371101211ADDGF107991001001999999001021MA1999999097501REMSYN060AAXX  17094 65518 42960 70410 10255 21137 39750 40121 80002;
0208655180999992000021718004+11150-001150FM-12+0322DFCP V0209999C000010108019N0150001N1+03141-00751100901ADDAA199000091GA1071+010809019GF107991001001999999001021KA1120M+03401MA1999999097291MD1999999+0001REMSYN082AAXX  17184 65518 32965 70000 10314 21075 39729 40090 80002 333 10340 58000 87036;EQDQ01  00002PRCP99
0195655180999992000021800004+11150-001150FM-12+0322DFCP V0209999C000010780019N0150001N1+02321-00661101111ADDAA199000091GA1071+078009019GF107991001001999999001021MA1999999097521MD1999999-0031REMSYN082AAXX  18004 65518 32965 70000 10232 21066 39752 40111 80002 333 0//00 59003 87076;EQDQ01  00002PRCP99
0159655180999992000021809004+11150-001150FM-12+0322DFCP V0200401N003110780019N0150001N1+02601-00841101161ADDGA1071+078009019GF107991001001999999001021MA1999999097541MD1999999-0051REMSYN076AAXX  18094 65518 42965 70406 10260 21084 39754 40116 80002 333 59005 87076;
0208655180999992000021818004+11150-001150FM-12+0322DFCP V0209999C000010780019N0150001N1+03201-00471100871ADDAA199000091GA1071+078009019GF107991001001999999001021KA1120M+03451MA1999999097261MD1999999-0031REMSYN082AAXX  18184 65518 32965 70000 10320 21047 39726 40087 80002 333 10345 59003 87076;EQDQ01  00002PRCP99
0232655180999992000021906004+11150-001150FM-12+0322DFCP V0200401N002110780019N0150001N1+02071-00561101051ADDAA199000091GA1071+078009019GF107991001001999999001021IA2240+01509KA1120N+02041MA1999999097461MD1999999+0081REMSYN094AAXX  19064 65518 32965 70404 10207 21056 39746 40105 80002 333 01500 20204 51034 58008 87076;EQDQ01  00002PRCP99
0145655180999992000021909004+11150-001150FM-12+0322DFCP V0200401N003112200019N0150001N1+02601-00841101241ADDGA1031+078009019GF103991001001999999001021MA1999999097621REMSYN076AAXX  19094 65518 42965 30406 10260 21084 39762 40124 80002 333 57008 83076;
0195655180999992000021912004+11150-001150FM-12+0322DFCP V0200601N004112200019N0150001N1+03251-00941101091ADDAA199000091GA1031+078009019GF103991001001999999001021MA1999999097511MD1999999+0041REMSYN082AAXX  19124 65518 32965 30608 10325 21094 39751 40109 80002 333 0//00 58004 83076;EQDQ01  00002PRCP99
0159655180999992000021915004+11150-001150FM-12+0322DFCP V0209999C000012200019N0150001N1+03501-00661100761ADDGA1031+078009019GF103991001001999999001021MA1999999097191MD1999999-0041REMSYN076AAXX  19154 65518 42965 30000 10350 21066 39719 40076 80002 333 59004 83076;
0208655180999992000021918004+11150-001150FM-12+0322DFCP V0209999C000010780019N0150001N1+03251-00411100771ADDAA199000091GA1051+078009019GF105991001001999999001021KA1120M+03551MA1999999097181MD1999999-0081REMSYN082AAXX  19184 65518 32965 50000 10325 21041 39718 40077 80002 333 10355 59008 85076;EQDQ01  00002PRCP99
0195655180999992000022000004+11150-001150FM-12+0322DFCP V0209999C000010780019N0150001N1+02491-00291101011ADDAA199000091GA1051+078009019GF105991001001999999001021MA1999999097431MD1999999-0111REMSYN082AAXX  20004 65518 32965 50000 10249 21029 39743 40101 80002 333 0//00 59011 85076;EQDQ01  00002PRCP99
0232655180999992000022006004+11150-001150FM-12+0322DFCP V0209999C000010780019N0150001N1+01981-00181100911ADDAA199000091GA1051+078009019GF105991001001999999001021IA2240+01709KA1120N+01981MA1999999097311MD1999999-0141REMSYN094AAXX  20064 65518 32965 50000 10198 21018 39731 40091 80002 333 01700 20198 51034 59014 85076;EQDQ01  00002PRCP99
0178655180999992000022009004+11150-001150FM-12+0322DFCP V0200401N002110780019N0150001N1+02701-00511999999ADDGA1071+078009019GF107991001001999999001021MA1999999097491MD1999999-0131REMSYN076AAXX  20094 65518 42965 70404 10270 21051 39749 40189 80002 333 59013 87076;EQDQ01+101893APOSLP
0195655180999992000022012004+11150-001150FM-12+0322DFCP V0200401N004110780019N0150001N1+03441-00571100981ADDAA199000091GA1071+078009019GF107991001001999999001021MA1999999097411MD1999999-0101REMSYN082AAXX  20124 65518 32965 70408 10344 21057 39741 40098 80002 333 0//00 59010 87076;EQDQ01  00002PRCP99
0159655180999992000022015004+11150-001150FM-12+0322DFCP V0200801N001010780019N0150001N1+03691-00261100661ADDGA1071+078009019GF107991001001999999001021MA1999999097111MD1999999-0081REMSYN076AAXX  20154 65518 42965 70802 10369 21026 39711 40066 80002 333 59008 87076;
0208655180999992000022018004+11150-001150FM-12+0322DFCP V0209999C000010780019N0150001N1+03401-00201100701ADDAA199000091GA1071+078009019GF107991001001999999001021KA1120M+03691MA1999999097121MD1999999-0061REMSYN082AAXX  20184 65518 32965 70000 10340 21020 39712 40070 80002 333 10369 59006 87076;EQDQ01  00002PRCP99
0195655180999992000022100004+11150-001150FM-12+0322DFCP V0200201N001010780019N9999999N1+02601-00491100941ADDAA199000091GA1071+078009019GF107991001001999999001021MA1999999097391MD1999999-0041REMSYN082AAXX  21004 65518 3296/ 70202 10260 21049 39739 40094 80002 333 0//00 59004 87076;EQDQ01  00002PRCP99
0232655180999992000022106004+11150-001150FM-12+0322DFCP V0203601N001010780019N0150001N1+02021-00261100911ADDAA199000091GA1071+078009019GF107991001001999999001021IA2240+01809KA1120N+02011MA1999999097321MD1999999+0011REMSYN094AAXX  21064 65518 32965 73602 10202 21026 39732 40091 80002 333 01800 20201 51044 58001 87076;EQDQ01  00002PRCP99
0159655180999992000022109004+11150-001150FM-12+0322DFCP V0200801N003112200019N0150001N1+02861-00821101061ADDGA1031+078009019GF103991001001999999001021MA1999999097491MD1999999+0001REMSYN076AAXX  21094 65518 42965 30806 10286 21082 39749 40106 80002 333 58000 83076;
0159655180999992000022115004+11150-001150FM-12+0322DFCP V0200801N002110780019N0150001N1+03651-00131100711ADDGA1051+078009019GF105991001001999999001021MA1999999097151MD1999999+0041REMSYN076AAXX  21154 65518 42965 50804 10365 21013 39715 40071 80002 333 58004 85076;
0208655180999992000022118004+11150-001150FM-12+0322DFCP V0209999C000010780019N0150001N1+03401+00501100761ADDAA199000091GA1071+078009019GF107991001001999999001021KA1120M+03701MA1999999097171MD1999999+0051REMSYN082AAXX  21184 65518 32965 70000 10340 20050 39717 40076 80002 333 10370 58005 87076;EQDQ01  00002PRCP99
0195655180999992000022200004+11150-001150FM-12+0322DFCP V0209999C000010780019N0150001N1+02481+00441101041ADDAA199000091GA1071+078009019GF107991001001999999001021MA1999999097481MD1999999+0091REMSYN082AAXX  22004 65518 32965 70000 10248 20044 39748 40104 80002 333 0//00 58009 87076;EQDQ01  00002PRCP99
0232655180999992000022206004+11150-001150FM-12+0322DFCP V0209999C000010780019N0150001N1+02231+00281100931ADDAA199000091GA1071+078009019GF107991001001999999001021IA2240+01709KA1120N+02201MA1999999097351MD1999999+0031REMSYN094AAXX  22064 65518 32965 70000 10223 20028 39735 40093 80002 333 01700 20220 50974 58003 87076;EQDQ01  00002PRCP99
0195655180999992000022212004+11150-001150FM-12+0322DFCP V0200801N002110780019N0100001N1+03821-00391101011ADDAA199000091GA1071+078009019GF107991001001999999001011MA1999999097461MD1999999+0811REMSYN082AAXX  22124 65518 32960 70804 10382 21039 39746 40101 80001 333 0//0/ 58081 87076;EQDQ01  00002PRCP99
0208655180999992000022218004+11150-001150FM-12+0322DFCP V0209999C000010780019N0100001N1+03601+00841100661ADDAA199000091GA1071+078009019GF107991001001999999001021KA1120M+03871MA1999999097101MD1999999-0071REMSYN082AAXX  22184 65518 32960 70000 10360 20084 39710 40066 80002 333 10387 59007 87076;EQDQ01  00002PRCP99
0159655180999992000022306004+11150-001150FM-12+0322DFCP V0200801N003110780019N0150001N1+02951-00101101001ADDGA1071+078009019GF107991001001999999001021MA1999999097441MD1999999-0101REMSYN076AAXX  23064 65518 42965 70806 10295 21010 39744 40100 80002 333 59010 87076;
0195655180999992000022312004+11150-001150FM-12+0322DFCP V0200801N005110780019N0150001N1+03621-00121100841ADDAA199000091GA1071+078009019GF107991001001999999001021MA1999999097301MD1999999-0161REMSYN082AAXX  23124 65518 32965 70810 10362 21012 39730 40084 80002 333 0//00 59016 87076;EQDQ01  00002PRCP99
0159655180999992000022315004+11150-001150FM-12+0322DFCP V0200801N002110780019N0150001N1+03861-00021100491ADDGA1071+078009019GF107991001001999999001021MA1999999096971MD1999999-0131REMSYN076AAXX  23154 65518 42965 70804 10386 21002 39697 40049 80002 333 59013 87076;
0208655180999992000022318004+11150-001150FM-12+0322DFCP V0209999C000010780019N0150001N1+03551+00481100541ADDAA199000091GA1071+078009019GF107991001001999999001021KA1120M+03901MA1999999096991MD1999999-0111REMSYN082AAXX  23184 65518 32965 70000 10355 20048 39699 40054 80002 333 10390 59011 87076;EQDQ01  00002PRCP99
0159655180999992000022321004+11150-001150FM-12+0322DFCP V0209999C000010780019N0150001N1+02961+00431100741ADDGA1071+078009019GF107991001001999999001021MA1999999097191MD1999999-0081REMSYN076AAXX  23214 65518 42965 70000 10296 20043 39719 40074 80002 333 59008 87076;
0195655180999992000022400004+11150-001150FM-12+0322DFCP V0209999C000010780019N0150001N1+02731+00301100771ADDAA199000091GA1071+078009019GF107991001001999999001021MA1999999097231MD1999999-0101REMSYN082AAXX  24004 65518 32965 70000 10273 20030 39723 40077 80002 333 0//00 59010 87076;EQDQ01  00002PRCP99
0159655180999992000022409004+11150-001150FM-12+0322DFCP V0200801N003110780019N0150001N1+02921-00371101001ADDGA1051+078009019GF105991001001999999001021MA1999999097441MD1999999+0001REMSYN076AAXX  24094 65518 42965 50806 10292 21037 39744 40100 80002 333 58000 85076;
0159655180999992000022415004+11150-001150FM-12+0322DFCP V0200601N002110780019N0150001N1+03751+00031100521ADDGA1051+078009019GF105991001001999999001021MA1999999097001MD1999999+0031REMSYN076AAXX  24154 65518 42965 50604 10375 20003 39700 40052 80002 333 58003 85076;
0208655180999992000022418004+11150-001150FM-12+0322DFCP V0200601N002110780019N0150001N1+03501-00411100571ADDAA199000091GA1071+078009019GF107991001001999999001021KA1120M+03801MA1999999097031MD1999999+0041REMSYN082AAXX  24184 65518 32965 70604 10350 21041 39703 40057 80002 333 10380 58004 87076;EQDQ01  00002PRCP99
0195655180999992000022500004+11150-001150FM-12+0322DFCP V0209999C000010780019N0150001N1+02631+00091100811ADDAA199000091GA1071+078009019GF107991001001999999001021MA1999999097271MD1999999+0041REMSYN082AAXX  25004 65518 31965 70000 10263 20009 39727 40081 80002 333 0//00 58004 87076;EQDQ01  00002PRCP99
0232655180999992000022506004+11150-001150FM-12+0322DFCP V0209999C000010780019N0150001N1+02151+00131100731ADDAA199000091GA1071+078009019GF107991001001999999001021IA2240+01909KA1120N+02151MA1999999097171MD1999999+0071REMSYN094AAXX  25064 65518 32965 70000 10215 20013 39717 40073 80002 333 01900 20215 51014 58007 87076;EQDQ01  00002PRCP99
0159655180999992000022509004+11150-001150FM-12+0322DFCP V0200801N002110780019N0150001N1+02941-00371101001ADDGA1051+078009019GF105991001001999999001021MA1999999097431MD1999999-0011REMSYN076AAXX  25094 65518 42965 50804 10294 21037 39743 40100 80002 333 59001 85076;
0195655180999992000022512004+11150-001150FM-12+0322DFCP V0200801N004110780019N0150001N1+03631-00971100811ADDAA199000091GA1071+078009019GF107991001001999999001021MA1999999097271MD1999999-0021REMSYN082AAXX  25124 65518 32965 70808 10363 21097 39727 40081 80002 333 0//00 59002 87076;EQDQ01  00002PRCP99
0159655180999992000022515004+11150-001150FM-12+0322DFCP V0200801N002110780019N0150001N1+03881-00571100561ADDGA1071+078009019GF107991001001999999001021MA1999999097031MD1999999+0031REMSYN076AAXX  25154 65518 42965 70804 10388 21057 39703 40056 80002 333 58003 87076;
0208655180999992000022518004+11150-001150FM-12+0322DFCP V0200601N002110780019N0150001N1+03571-00451100621ADDAA199000091GA1071+078009019GF107991001001999999001021KA1120M+03901MA1999999097061MD1999999+0031REMSYN082AAXX  25184 65518 32965 70604 10357 21045 39706 40062 80002 333 10390 58003 87076;EQDQ01  00002PRCP99
0195655180999992000022600004+11150-001150FM-12+0322DFCP V0209999C000010780019N0150001N1+02601-00061100861ADDAA199000091GA1071+078009019GF107991001001999999001021MA1999999097321MD1999999+0051REMSYN082AAXX  26004 65518 32965 70000 10260 21006 39732 40086 80002 333 0//00 58005 87076;EQDQ01  00002PRCP99
0159655180999992000022609004+11150-001150FM-12+0322DFCP V0200801N007210780019N0150001N1+02901-00611101061ADDGA1051+078009019GF105991001001999999001021MA1999999097491MD1999999+0061REMSYN076AAXX  26094 65518 42965 50814 10290 21061 39749 40106 80002 333 58006 85076;
0195655180999992000022612004+11150-001150FM-12+0322DFCP V0200801N005110780019N0100001N1+03381-00741101051ADDAA199000091GA1051+078009019GF105991001001999999001021MA1999999097491MD1999999+0221REMSYN082AAXX  26124 65518 32960 50810 10338 21074 39749 40105 80002 333 0//00 58022 85076;EQDQ01  00002PRCP99
0143655180999992000022615004+11150-001150FM-12+0322DFCP V0209999C000019999999N0150001N1+03581-00741100761ADDGF105991001001999999001021MA1999999097201MD1999999+0171REMSYN076AAXX  26154 65518 42965 50000 10358 21074 39720 40076 80002 333 58017 8506/;
0208655180999992000022618004+11150-001150FM-12+0322DFCP V0200601N002110780019N0100001N1+03351-00661100791ADDAA199000091GA1071+078009019GF107991001001999999001021KA1120M+03651MA1999999097211MD1999999+0151REMSYN082AAXX  26184 65518 32960 70604 10335 21066 39721 40079 80002 333 10365 58015 87076;EQDQ01  00002PRCP99
0195655180999992000022700004+11150-001150FM-12+0322DFCP V0200401N003110780019N0100001N1+02701-00251100971ADDAA199000091GA1071+078009019GF107991001001999999001021MA1999999097421MD1999999+0101REMSYN082AAXX  27004 65518 32960 70406 10270 21025 39742 40097 80002 333 0//00 58010 87076;EQDQ01  00002PRCP99
0159655180999992000022703004+11150-001150FM-12+0322DFCP V0200401N002110780019N0100001N1+02531-00381100891ADDGA1071+078009019GF107991001001999999001021MA1999999097341MD1999999+0111REMSYN076AAXX  27034 65518 42960 70404 10253 21038 39734 40089 80002 333 58011 87076;
0260655180999992000022706004+11150-001150FM-12+0322DFCP V0200801N002110780019N0060001N1+02271-00291100941ADDAA199000091AY121061AY221061GA1071+078009019GF107991001001999999001021IA2240+01709KA1120N+02271MA1999999097371MD1999999+0111MW1061REMSYN100AAXX  27064 65518 31956 70804 10227 21029 39737 40094 70622 80002 333 01700 20227 51604 58011 87076;EQDQ01  00002PRCP99
0187655180999992000022709004+11150-001150FM-12+0322DFCP V0200801N005110780019N0040001N1+02531-00641101141ADDAY121031AY221031GA1071+078009019GF107991001001999999001021MA1999999097541MD1999999+0051MW1061REMSYN082AAXX  27094 65518 41940 70810 10253 21064 39754 40114 70622 80002 333 58005 87076;
0223655180999992000022712004+11150-001150FM-12+0322DFCP V0200401N006210780019N0040001N1+03081-00711101061ADDAA199000091AY121061AY221061GA1071+078009019GF107991001001999999001021MA1999999097491MD1999999+0001MW1061REMSYN088AAXX  27124 65518 31940 70412 10308 21071 39749 40106 70622 80002 333 0//00 58000 87076;EQDQ01  00002PRCP99
0187655180999992000022715004+11150-001150FM-12+0322DFCP V0200801N003110780019N0040001N1+03311-00681100761ADDAY121031AY221031GA1071+078009019GF107991001001999999001021MA1999999097201MD1999999+0001MW1061REMSYN082AAXX  27154 65518 41940 70806 10331 21068 39720 40076 70622 80002 333 58000 87076;
0236655180999992000022718004+11150-001150FM-12+0322DFCP V0200401N002110780019N0040001N1+03051-00691100831ADDAA199000091AY121061AY221061GA1071+078009019GF107991001001999999001021KA1120M+03331MA1999999097241MD1999999+0031MW1061REMSYN088AAXX  27184 65518 31940 70404 10305 21069 39724 40083 70622 80002 333 10333 58003 87076;EQDQ01  00002PRCP99
0187655180999992000022809004+11150-001150FM-12+0322DFCP V0200601N006210780019N0004001N1+02351-00231101151ADDAY141031AY221031GA1071+078009019GF107991001001999999001021MA1999999097531MD1999999-0011MW1061REMSYN082AAXX  28094 65518 41904 70612 10235 21023 39753 40115 70642 80002 333 59001 87076;
0223655180999992000022812004+11150-001150FM-12+0322DFCP V0200401N004110780019N0004001N1+02901-00091101061ADDAA199000091AY141061AY221061GA1071+078009019GF107991001001999999001021MA1999999097471MD1999999-0021MW1061REMSYN088AAXX  28124 65518 31904 70408 10290 21009 39747 40106 70642 80002 333 0//00 59002 87076;EQDQ01  00002PRCP99
0187655180999992000022815004+11150-001150FM-12+0322DFCP V0200801N002110780019N0004001N1+03221+00301100801ADDAY141031AY241031GA1071+078009019GF107991001001999999001021MA1999999097211MD1999999+0011MW1061REMSYN082AAXX  28154 65518 41904 70804 10322 2003/ 39721 40080 70644 80002 333 58001 87076;
0236655180999992000022818004+11150-001150FM-12+0322DFCP V0209999C000010780019N0004001N1+03051+00071100871ADDAA199000091AY141061AY241061GA1071+078009019GF107991001001999999001021KA1120M+03221MA1999999097271MD1999999+0031MW1061REMSYN088AAXX  28184 65518 31904 70000 10305 20007 39727 40087 70644 80002 333 10322 58003 87076;EQDQ01  00002PRCP99
0187655180999992000022909004+11150-001150FM-12+0322DFCP V0200601N004110780019N0004001N1+02451-00661101331ADDAY141031AY241031GA1071+078009019GF107991001001999999001021MA1999999097711MD1999999+0181MW1061REMSYN082AAXX  29094 65518 41904 70608 10245 21066 39771 40133 70644 80002 333 58018 87076;
0187655180999992000022915004+11150-001150FM-12+0322DFCP V0209999C000010780019N0003001N1+03351+00201100921ADDAY121031AY221031GA1071+078009019GF107991001001999999001021MA1999999097341MD1999999+0131MW1061REMSYN082AAXX  29154 65518 41903 70000 10335 20020 39734 40092 70622 80002 333 58013 87076;
0236655180999992000022918004+11150-001150FM-12+0322DFCP V0209999C000010780019N0003001N1+03181+00151100951ADDAA199000091AY121061AY221061GA1071+078009019GF107991001001999999001021KA1120M+03371MA1999999097361MD1999999+0091MW1061REMSYN088AAXX  29184 65518 31903 70000 10318 20015 39736 40095 70622 80002 333 10337 58009 87076;EQDQ01  00002PRCP99
0217655180999992000030109004+11150-001150FM-12+0322DFCP V0200601N004110780019N0003001N1+02561-00201101321ADDAA199000091AY141031AY241031GA1071+078009019GF107991001001999999001021MA1999999097721MD1999999+0011MW1061REMSYN082AAXX  01094 65518 31903 70608 10256 21020 39772 40132 70644 80002 333 58001 87076;EQDQ01  00002PRCP99
0223655180999992000030112004+11150-001150FM-12+0322DFCP V0200801N001010780019N0006001N1+03161+00011101181ADDAA199000091AY141061AY241061GA1071+078009019GF107991001001999999001021MA1999999097601MD1999999-0061MW1061REMSYN088AAXX  01124 65518 31906 70802 10316 20001 39760 40118 70644 80002 333 0//00 59006 87076;EQDQ01  00002PRCP99
0236655180999992000030118004+11150-001150FM-12+0322DFCP V0200401N001010780019N0012001N1+03251-00061100861ADDAA199000091AY121061AY221061GA1071+078009019GF107991001001999999001021KA1120M+03471MA1999999097281MD1999999-0081MW1061REMSYN088AAXX  01184 65518 31912 70402 10325 21006 39728 40086 70622 80002 333 10347 59008 87076;EQDQ01  00002PRCP99
0223655180999992000030200004+11150-001150FM-12+0322DFCP V0209999C000010780019N0040001N1+02571+00111101191ADDAA199000091AY121061AY221061GA1071+078009019GF107991001001999999001021MA1999999097581MD1999999-0091MW1061REMSYN088AAXX  02004 65518 31940 70000 10257 20011 39758 40119 70622 80002 333 0//00 59009 87076;EQDQ01  00002PRCP99
0261655180999992000030206004+11150-001150FM-12+0322DFCP V0209999C000019999999N0040001N1+02231-00341101031ADDAA199000091AY121061AY221061GF107991001001999999001021IA2240+02109KA1120N+02211MA1999999097441MD1999999-0131MW1061OA150600151REMSYN106AAXX  02064 65518 31940 70000 10223 21034 39744 40103 70622 80002 333 02100 20221 51004 55036 59013 87076;EQDQ01  00002PRCP99
0187655180999992000030209004+11150-001150FM-12+0322DFCP V0200401N004110780019N0040001N1+02721-00401101191ADDAY121031AY221031GA1071+078009019GF107991001001999999001021MA1999999097591MD1999999-0131MW1061REMSYN082AAXX  02094 65518 41940 70408 10272 21040 39759 40119 70622 80002 333 59013 87076;
0223655180999992000030212004+11150-001150FM-12+0322DFCP V0200801N004110780019N0040001N1+03311-00551101031ADDAA199000091AY121061AY221061GA1071+078009019GF107991001001999999001021MA1999999097471MD1999999-0131MW1061REMSYN088AAXX  02124 65518 31940 70808 10331 21055 39747 40103 70622 80002 333 0//00 59013 87076;EQDQ01  00002PRCP99
0187655180999992000030215004+11150-001150FM-12+0322DFCP V0200601N004110780019N0040001N1+03611-00101100661ADDAY121031AY221031GA1071+078009019GF107991001001999999001021MA1999999097101MD1999999-0191MW1061REMSYN082AAXX  02154 65518 41940 70608 10361 21010 39710 40066 70622 80002 333 59019 87076;
0236655180999992000030218004+11150-001150FM-12+0322DFCP V0200801N002110780019N0040001N1+03351-00661100731ADDAA199000091AY121061AY221061GA1071+078009019GF107991001001999999001021KA1120M+03611MA1999999097161MD1999999-0121MW1061REMSYN088AAXX  02184 65518 31940 70804 10335 21066 39716 40073 70622 80002 333 10361 59012 87076;EQDQ01  00002PRCP99
0223655180999992000030300004+11150-001150FM-12+0322DFCP V0209999C000010780019N0060001N1+02581+00051100971ADDAA199000091AY121061AY221061GA1071+078009019GF107991001001999999001021MA1999999097411MD1999999-0171MW1061REMSYN088AAXX  03004 65518 31956 70000 10258 20005 39741 40097 70622 80002 333 0//00 59017 87076;EQDQ01  00002PRCP99
0261655180999992000030306004+11150-001150FM-12+0322DFCP V0200401N003119999999N0060001N1+02281-00361100881ADDAA199000091AY121061AY221061GF107991001001999999001021IA2240+01909KA1120N+02221MA1999999097301MD1999999-0141MW1061OA150600361REMSYN106AAXX  03064 65518 31956 70406 10228 21036 39730 40088 70622 80002 333 01900 20222 51204 55076 59014 87076;EQDQ01  00002PRCP99
0187655180999992000030309004+11150-001150FM-12+0322DFCP V0200801N004110780019N0010001N1+02801-00771101141ADDAY121031AY221031GA1071+078009019GF107991001001999999001021MA1999999097551MD1999999-0041MW1061REMSYN082AAXX  03094 65518 41910 70808 10280 21077 39755 40114 70622 80002 333 59004 87076;
0223655180999992000030312004+11150-001150FM-12+0322DFCP V0200401N003110780019N0037001N1+03361-00171101021ADDAA199000091AY121061AY221061GA1071+078009019GF107991001001999999001021MA1999999097461MD1999999-0011MW1061REMSYN088AAXX  03124 65518 31937 70406 10336 21017 39746 40102 70622 80002 333 0//00 59001 87076;EQDQ01  00002PRCP99
0187655180999992000030315004+11150-001150FM-12+0322DFCP V0200801N002110780019N0025001N1+03651+99999100701ADDAY121031AY221031GA1071+078009019GF107991001001999999001021MA1999999097161MD1999999+0061MW1061REMSYN082AAXX  03154 65518 41925 70804 10365 28027 39716 40070 70622 80002 333 58006 87076;
0236655180999992000030318004+11150-001150FM-12+0322DFCP V0209999C000010780019N0025001N1+03401+00761100751ADDAA199000091AY121061AY221061GA1071+078009019GF107991001001999999001021KA1120M+03701MA1999999097181MD1999999+0021MW1061REMSYN088AAXX  03184 65518 31925 70000 10340 20076 39718 40075 70622 80002 333 10370 58002 87076;EQDQ01  00002PRCP99
0223655180999992000030400004+11150-001150FM-12+0322DFCP V0209999C000010780019N0060001N1+02651+00281101011ADDAA199000091AY121061AY221061GA1071+078009019GF107991001001999999001021MA1999999097451MD1999999+0041MW1061REMSYN088AAXX  04004 65518 31956 70000 10265 20028 39745 40101 70622 80002 333 0//00 58004 87076;EQDQ01  00002PRCP99
0187655180999992000030409004+11150-001150FM-12+0322DFCP V0200401N003110780019N0060001N1+02841-00411101071ADDAY121031AY221031GA1071+078009019GF107991001001999999001021MA1999999097491MD1999999-0061MW1061REMSYN082AAXX  04094 65518 41956 70406 10284 21041 39749 40107 70622 80002 333 59006 87076;
0187655180999992000030415004+11150-001150FM-12+0322DFCP V0200401N002110780019N0060001N1+03811-00231100621ADDAY121031AY221031GA1071+078009019GF107991001001999999001021MA1999999097091MD1999999-0071MW1061REMSYN082AAXX  04154 65518 41956 70404 10381 21023 39709 40062 70622 80002 333 59007 87076;
0236655180999992000030418004+11150-001150FM-12+0322DFCP V0209999C000010780019N0060001N1+03501+00091100681ADDAA199000091AY121061AY221061GA1071+078009019GF107991001001999999001021KA1120M+03911MA1999999097131MD1999999-0051MW1061REMSYN088AAXX  04184 65518 31956 70000 10350 20009 39713 40068 70622 80002 333 10391 59005 87076;EQDQ01  00002PRCP99
0223655180999992000030500004+11150-001150FM-12+0322DFCP V0209999C000010780019N0060001N1+02661+00551100891ADDAA199000091AY121061AY221061GA1071+078009019GF107991001001999999001021MA1999999097351MD1999999-0101MW1061REMSYN088AAXX  05004 65518 31956 70000 10266 20055 39735 40089 70622 80002 333 0//00 59010 87076;EQDQ01  00002PRCP99
0187655180999992000030503004+11150-001150FM-12+0322DFCP V0209999C000010780019N0060001N1+02451+00511100781ADDAY121031AY221031GA1071+078009019GF107991001001999999001021MA1999999097251MD1999999-0091MW1061REMSYN082AAXX  05034 65518 41956 70000 10245 20051 39725 40078 70622 80002 333 59009 87076;
0261655180999992000030506004+11150-001150FM-12+0322DFCP V0200401N001019999999N0060001N1+02341-00041100851ADDAA199000091AY121061AY221061GF107991001001999999001021IA2240+01909KA1120N+02301MA1999999097291MD1999999-0031MW1061OA150600361REMSYN106AAXX  05064 65518 31956 70402 10234 21004 39729 40085 70622 80002 333 01900 20230 51064 55076 59003 87076;EQDQ01  00002PRCP99
0187655180999992000030509004+11150-001150FM-12+0322DFCP V0200801N003110780019N0060001N1+03151-00781101041ADDAY121031AY221031GA1071+078009019GF107991001001999999001021MA1999999097491MD1999999+0001MW1061REMSYN082AAXX  05094 65518 41956 70806 10315 21078 39749 40104 70622 80002 333 58000 87076;
0223655180999992000030512004+11150-001150FM-12+0322DFCP V0200801N004110780019N0060001N1+03731-00341100921ADDAA199000091AY121061AY221061GA1071+078009019GF107991001001999999001021MA1999999097391MD1999999+0001MW1061REMSYN088AAXX  05124 65518 31956 70808 10373 21034 39739 40092 70622 80002 333 0//00 58000 87076;EQDQ01  00002PRCP99
0195655180999992000030600004+11150-001150FM-12+0322DFCP V0200401N002110780019N0100001N1+02901-00561100981ADDAA199000091GA1071+078009019GF107991001001999999001021MA1999999097461MD1999999+0011REMSYN082AAXX  06004 65518 32960 70404 10290 21056 39746 40098 80002 333 0//00 58001 87076;EQDQ01  00002PRCP99
0187655180999992000030609004+11150-001150FM-12+0322DFCP V0200801N004110780019N0060001N1+02991-01011101121ADDAY121031AY221031GA1071+078009019GF107991001001999999001021MA1999999097561MD1999999+0071MW1061REMSYN082AAXX  06094 65518 41956 70808 10299 21101 39756 40112 70622 80002 333 58007 87076;
0223655180999992000030612004+11150-001150FM-12+0322DFCP V0200801N005110780019N0060001N1+03541-00841101031ADDAA199000091AY121061AY221061GA1071+078009019GF107991001001999999001021MA1999999097491MD1999999+0101MW1061REMSYN088AAXX  06124 65518 31956 70810 10354 21084 39749 40103 70622 80002 333 0//00 58010 87076;EQDQ01  00002PRCP99
0208655180999992000030618004+11150-001150FM-12+0322DFCP V0209999C000010780019N0100001N1+03481+00671100671ADDAA199000091GA1071+078009019GF107991001001999999001021KA1120M+03821MA1999999097121MD1999999-0031REMSYN082AAXX  06184 65518 32/60 70000 10348 20067 39712 40067 80002 333 10382 59003 87076;EQDQ01  00002PRCP99
0195655180999992000030700004+11150-001150FM-12+0322DFCP V0209999C000010780019N0100001N1+02601-00241100921ADDAA199000091GA1071+078009019GF107991001001999999001021MA1999999097371MD1999999-0091REMSYN082AAXX  07004 65518 32960 70000 10260 21024 39737 40092 80002 333 0//00 59009 87076;EQDQ01  00002PRCP99
0233655180999992000030706004+11150-001150FM-12+0322DFCP V0200401N003119999999N0100001N1+02411-00511100861ADDAA199000091GF107991001001999999001021IA2240+02309KA1120N+02301MA1999999097311MD1999999-0031OA150600411REMSYN100AAXX  07064 65518 32960 70406 10241 21051 39731 40086 80002 333 02300 20230 51374 55088 59003 87076;EQDQ01  00002PRCP99
0223655180999992000030712004+11150-001150FM-12+0322DFCP V0200801N004110780019N0080001N1+03581-00891100971ADDAA199000091AY121061AY221061GA1071+078009019GF107991001001999999001021MA1999999097431MD1999999-0061MW1061REMSYN088AAXX  07124 65518 31958 70808 10358 21089 39743 40097 70622 80002 333 0//00 59006 87076;EQDQ01  00002PRCP99
0208655180999992000030718004+11150-001150FM-12+0322DFCP V0200801N002110780019N0100001N1+03551-00661100701ADDAA199000091GA1071+078009019GF107991001001999999001021KA1120M+03801MA1999999097151MD1999999+0031REMSYN082AAXX  07184 65518 32960 70804 10355 21066 39715 40070 80002 333 10380 58003 87076;EQDQ01  00002PRCP99
0195655180999992000030800004+11150-001150FM-12+0322DFCP V0200401N002110780019N0100001N1+02691-00331100901ADDAA199000091GA1071+078009019GF107991001001999999001021MA1999999097361MD1999999-0011REMSYN082AAXX  08004 65518 32960 70404 10269 21033 39736 40090 80002 333 0//00 59001 87076;EQDQ01  00002PRCP99
0233655180999992000030806004+11150-001150FM-12+0322DFCP V0209999C000019999999N0100001N1+02401-00291100861ADDAA199000091GF107991001001999999001021IA2240+01909KA1120N+02401MA1999999097301MD1999999-0011OA150600411REMSYN100AAXX  08064 65518 32960 70000 10240 21029 39730 40086 80002 333 01900 20240 51364 55081 59001 87076;EQDQ01  00002PRCP99
0159655180999992000030809004+11150-001150FM-12+0322DFCP V0200801N005110780019N0100001N1+03031-00771101081ADDGA1071+078009019GF107991001001999999001021MA1999999097511MD1999999-0011REMSYN076AAXX  08094 65518 42960 70810 10303 21077 39751 40108 80002 333 59001 87076;
0195655180999992000030812004+11150-001150FM-12+0322DFCP V0200801N006210780019N0100001N1+03591-00921101041ADDAA199000091GA1071+078009019GF107991001001999999001021MA1999999097501MD1999999+0071REMSYN082AAXX  08124 65518 32960 70812 10359 21092 39750 40104 80002 333 0//00 58007 87076;EQDQ01  00002PRCP99
0159655180999992000030815004+11150-001150FM-12+0322DFCP V0200801N002110780019N0100001N1+03801-00211100721ADDGA1071+078009019GF107991001001999999001021MA1999999097201MD1999999+0071REMSYN076AAXX  08154 65518 42960 70804 10380 21021 39720 40072 80002 333 58007 87076;
0208655180999992000030818004+11150-001150FM-12+0322DFCP V0200401N003110780019N0100001N1+03501-00731100801ADDAA199000091GA1071+078009019GF107991001001999999001021KA1120M+03801MA1999999097251MD1999999+0101REMSYN082AAXX  08184 65518 32960 70406 10350 21073 39725 40080 80002 333 10380 58010 87076;EQDQ01  00002PRCP99
0195655180999992000030900004+11150-001150FM-12+0322DFCP V0200401N004110780019N0100001N1+02801-00371101091ADDAA199000091GA1071+078009019GF107991001001999999001021MA1999999097561MD1999999+0201REMSYN082AAXX  09004 65518 32960 70408 10280 21037 39756 40109 80002 333 0//00 58020 87076;EQDQ01  00002PRCP99
0181655180999992000030909004+11150-001150FM-12+0322DFCP V02099999999990780019N0006001N1+02911-00571101241ADDAY141031AY241031GA1071+078009019GF107991999999999999999999MA1999999097661MD1999999+0151MW1061REMSYN076AAXX  09094 65518 41906 70/00 10291 21057 39766 40124 70644 333 58015 87076;
0223655180999992000030912004+11150-001150FM-12+0322DFCP V0200801N006210780019N0006001N1+03371-00521101151ADDAA199000091AY141061AY241061GA1071+078009019GF107991001001999999001021MA1999999097601MD1999999+0101MW1061REMSYN088AAXX  09124 65518 31906 70812 10337 21052 39760 40115 70644 80002 333 0//00 58010 87076;EQDQ01  00002PRCP99
0181655180999992000030915004+11150-001150FM-12+0322DFCP V0203601N002110780019N0060001N1+03621-00281999999ADDAY141031AY221031GA1071+078009019GF107991001001999999001021MA1999999097261MD1999999+0061MW1061REMSYN076AAXX  09154 65518 41956 73604 10362 21028 39726 70642 80002 333 58006 87076;
0236655180999992000030918004+11150-001150FM-12+0322DFCP V0200401N001010780019N0060001N1+03361-00491100791ADDAA199000091AY121061AY221061GA1071+078009019GF107991001001999999001021KA1120M+03641MA1999999097231MD1999999-0021MW1061REMSYN088AAXX  09184 65518 31956 70402 10336 21049 39723 40079 70622 80002 333 10364 59002 87076;EQDQ01  00002PRCP99
0187655180999992000031009004+11150-001150FM-12+0322DFCP V0200401N005110780019N0040001N1+02801-00471101111ADDAY121031AY221031GA1071+078009019GF107991001001999999001021MA1999999097531MD1999999-0131MW1061REMSYN082AAXX  10094 65518 41940 70410 10280 21047 39753 40111 70622 80002 333 59013 87076;
0223655180999992000031012004+11150-001150FM-12+0322DFCP V0200601N007210780019N0040001N1+03311-00551101011ADDAA199000091AY121061AY221061GA1071+078009019GF107991001001999999001021MA1999999097451MD1999999-0151MW1061REMSYN088AAXX  10124 65518 31940 70614 10331 21055 39745 40101 70622 80002 333 0//00 59015 87076;EQDQ01  00002PRCP99
0208655180999992000031018004+11150-001150FM-12+0322DFCP V0200401N002110780019N0100001N1+03381-00421100731ADDAA199000091GA1071+078009019GF107991001001999999001021KA1120M+03601MA1999999097161MD1999999-0071REMSYN082AAXX  10184 65518 32960 70404 10338 21042 39716 40073 80002 333 10360 59007 87076;EQDQ01  00002PRCP99
0144655180999992000031021004+11150-001150FM-12+0322DFCP V02099999999990780019N9999999N1+02751-00121100951ADDGA1071+078009019GF107991001001999999001021MD1999999-0181REMSYN076AAXX  10214 65518 429/0 7/080 10275 21012 39/// 40095 80002 333 59018 87076;
0195655180999992000031100004+11150-001150FM-12+0322DFCP V0200201N002110780019N0100001N1+02451-00211100981ADDAA199000091GA1071+078009019GF107991001001999999001021MA1999999097411MD1999999-0101REMSYN082AAXX  11004 65518 32960 70204 10245 21021 39741 40098 80002 333 0//00 59010 87076;EQDQ01  00002PRCP99
0187655180999992000031109004+11150-001150FM-12+0322DFCP V0200401N002110780019N0060001N1+02831-00731100991ADDAY121031AY221031GA1071+078009019GF107991001001999999001021MA1999999097411MD1999999-0121MW1071REMSYN082AAXX  11094 65518 41956 70404 10283 21073 39741 40099 70722 80002 333 59012 87076;
0223655180999992000031112004+11150-001150FM-12+0322DFCP V0200401N004110780019N0080001N1+03351-00471100971ADDAA199000091AY121061AY221061GA1071+078009019GF107991001001999999001021MA1999999097401MD1999999-0051MW1061REMSYN088AAXX  11124 65518 31958 70408 10335 21047 39740 40097 70622 80002 333 0//00 59005 87076;EQDQ01  00002PRCP99
0159655180999992000031215004+11150-001150FM-12+0322DFCP V0200801N001010780019N0100001N1+03631-00141100561ADDGA1071+078009019GF107991001001999999001021MA1999999097091MD1999999-0051REMSYN076AAXX  12154 65518 42960 70802 10363 21014 39709 40056 80002 333 59005 87076;
0195655180999992000031300004+11150-001150FM-12+0322DFCP V0209999C000010780019N0100001N1+02641-00471100891ADDAA199000091GA1071+078009019GF107991001001999999001021MA1999999097341MD1999999-0041REMSYN082AAXX  13004 65518 32960 70000 10264 21047 39734 40089 80002 333 0//00 59004 87076;EQDQ01  00002PRCP99
0233655180999992000031306004+11150-001150FM-12+0322DFCP V0203601N001019999999N0100001N1+02201-00371100861ADDAA199000091GF107991001001999999001021IA2240+01809KA1120N+02181MA1999999097291MD1999999+0011OA150600411REMSYN100AAXX  13064 65518 32960 73602 10220 21037 39729 40086 80002 333 01800 20218 51154 55089 58001 87076;EQDQ01  00002PRCP99
0159655180999992000031309004+11150-001150FM-12+0322DFCP V0200401N004110780019N0100001N1+02771-00961101071ADDGA1071+078009019GF107991001001999999001021MA1999999097491MD1999999+0051REMSYN076AAXX  13094 65518 42960 70408 10277 21096 39749 40107 80002 333 58005 87076;
0195655180999992000031312004+11150-001150FM-12+0322DFCP V0200401N003110780019N0100001N1+03421-00941100961ADDAA199000091GA1071+078009019GF107991001001999999001021MA1999999097411MD1999999+0061REMSYN082AAXX  13124 65518 32960 70406 10342 21094 39741 40096 80002 333 0//00 58006 87076;EQDQ01  00002PRCP99
0153655180999992000031315004+11150-001150FM-12+0322DFCP V0203601N003110780019N0100001N1+03701-00581100641ADDGA1071+078009019GF107991999999999999999999MA1999999097101MD1999999+0011REMSYN070AAXX  13154 65518 42960 73606 10370 21058 39710 40064 333 58001 87076;
0208655180999992000031318004+11150-001150FM-12+0322DFCP V0200401N002110780019N0100001N1+03441-00921100731ADDAA199000091GA1071+078009019GF107991001001999999001021KA1120M+03701MA1999999097161MD1999999+0051REMSYN082AAXX  13184 65518 32960 70404 10344 21092 39716 40073 80002 333 10370 58005 87076;EQDQ01  00002PRCP99
0195655180999992000031400004+11150-001150FM-12+0322DFCP V0203601N001010780019N0100001N1+02681+00081100921ADDAA199000091GA1071+078009019GF107991001001999999001021MA1999999097371MD1999999+0031REMSYN082AAXX  14004 65518 32960 73602 10268 20008 39737 40092 80002 333 0//00 58003 87076;EQDQ01  00002PRCP99
0137655180999992000031406004+11150-001150FM-12+0322DFCP V0203601N002119999999N0100001N1+02301-00911100851ADDAA199000091GF107991999999999999999999MA1999999097281REMSYN054AAXX  14064 65518 32960 73604 10230 21091 39728 40085;EQDQ01  00002PRCP99
0159655180999992000031409004+11150-001150FM-12+0322DFCP V0200401N004110780019N0100001N1+02881-01381101051ADDGA1071+078009019GF107991001001999999001021MA1999999097471MD1999999-0021REMSYN076AAXX  14094 65518 42960 70408 10288 21138 39747 40105 80002 333 59002 87076;
0195655180999992000031412004+11150-001150FM-12+0322DFCP V0200801N004110780019N0100001N1+03521-01021100861ADDAA199000091GA1071+078009019GF107991001001999999001021MA1999999097311MD1999999-0101REMSYN082AAXX  14124 65518 32960 70808 10352 21102 39731 40086 80002 333 0//00 59010 87076;EQDQ01  00002PRCP99
0159655180999992000031415004+11150-001150FM-12+0322DFCP V0200401N003110780019N0100001N1+03791-01391100521ADDGA1071+078009019GF107991001001999999001021MA1999999097001MD1999999-0101REMSYN076AAXX  14154 65518 42960 70406 10379 21139 39700 40052 80002 333 59010 87076;
0208655180999992000031418004+11150-001150FM-12+0322DFCP V0209999C000010780019N0100001N1+03411-00491100621ADDAA199000091GA1071+078009019GF107991001001999999001021KA1120M+03791MA1999999097061MD1999999-0101REMSYN082AAXX  14184 65518 32960 70000 10341 21049 39706 40062 80002 333 10379 59010 87076;EQDQ01  00002PRCP99
0195655180999992000031500004+11150-001150FM-12+0322DFCP V0203601N001010780019N0100001N1+02621+00001100801ADDAA199000091GA1071+078009019GF107991001001999999001021MA1999999097261MD1999999-0111REMSYN082AAXX  15004 65518 32960 73602 10262 2100/ 39726 40080 80002 333 0//00 59011 87076;EQDQ01  00002PRCP99
0227655180999992000031506004+11150-001150FM-12+0322DFCP V0200601N002119999999N0100001N1+02281-00181100801ADDAA199000091GF107991999999999999999999IA2240+01909KA1120N+02261MA1999999097181MD1999999-0101OA150600461REMSYN094AAXX  15064 65518 32960 70604 10228 21018 39718 40080 333 01900 20226 51444 55096 59010 87076;EQDQ01  00002PRCP99
0159655180999992000031509004+11150-001150FM-12+0322DFCP V0200401N003110780019N0100001N1+03031-00771100831ADDGA1071+078009019GF107991001001999999001021MA1999999097271MD1999999-0201REMSYN076AAXX  15094 65518 42960 70406 10303 21077 39727 40083 80002 333 59020 87076;
0195655180999992000031512004+11150-001150FM-12+0322DFCP V0200801N002110780019N0100001N1+03601-00801100711ADDAA199000091GA1071+078009019GF107991001001999999001021MA1999999097181MD1999999-0131REMSYN082AAXX  15124 65518 32960 70804 10360 21080 39718 40071 80002 333 0//00 59013 87076;EQDQ01  00002PRCP99
0159655180999992000031515004+11150-001150FM-12+0322DFCP V0200401N001010780019N0100001N1+03861-00121100391ADDGA1071+078009019GF107991001001999999001021MA1999999096871MD1999999-0131REMSYN076AAXX  15154 65518 42960 70402 10386 21012 39687 40039 80002 333 59013 87076;
0208655180999992000031518004+11150-001150FM-12+0322DFCP V0209999C000010780019N0100001N1+03601-00351100451ADDAA199000091GA1071+078009019GF107991001001999999001021KA1120M+03901MA1999999096901MD1999999-0161REMSYN082AAXX  15184 65518 32960 70000 10360 21035 39690 40045 80002 333 10390 59016 87076;EQDQ01  00002PRCP99
0195655180999992000031600004+11150-001150FM-12+0322DFCP V0209999C000010780019N0150001N1+02681+00231100701ADDAA199000091GA1071+078009019GF107991001001999999001021MA1999999097171MD1999999-0091REMSYN082AAXX  16004 65518 32965 70000 10268 20023 39717 40070 80002 333 0//00 59009 87076;EQDQ01  00002PRCP99
0153655180999992000031603004+11150-001150FM-12+0322DFCP V0209999C000019999999N0150001N1+02681+00231999999ADDAA199000091GF107991001001999999001021MA1999999097171REMSYN070AAXX  16034 65518 32965 70000 10268 20023 39717 80002 333 0//00 00870;EQDQ01  00002PRCP99
0187655180999992000031609004+11150-001150FM-12+0322DFCP V0200801N002110780019N0080001N1+03111-00371100811ADDAY121031AY221031GA1071+078009019GF107991001001999999001021MA1999999097261MD1999999-0011MW1061REMSYN082AAXX  16094 65518 41958 70804 10311 21037 39726 40081 70622 80002 333 59001 87076;
0223655180999992000031612004+11150-001150FM-12+0322DFCP V0200801N002110780019N0040001N1+03741-00421100631ADDAA199000091AY121061AY221061GA1071+078009019GF107991001001999999001021MA1999999097111MD1999999-0071MW1061REMSYN088AAXX  16124 65518 31940 70804 10374 21042 39711 40063 70622 80002 333 0//00 59007 87076;EQDQ01  00002PRCP99
0187655180999992000031615004+11150-001150FM-12+0322DFCP V0200801N002110780019N0040001N1+03951+00061100311ADDAY121031AY221031GA1071+078009019GF107991001001999999001021MA1999999096801MD1999999-0071MW1061REMSYN082AAXX  16154 65518 41940 70804 10395 20006 39680 40031 70622 80002 333 59007 87076;
0208655180999992000031618004+11150-001150FM-12+0322DFCP V0209999C000010780019N0100001N1+03651-00281100371ADDAA199000091GA1071+078009019GF107991001001999999001021KA1120M+03961MA1999999096831MD1999999-0071REMSYN082AAXX  16184 65518 32960 70000 10365 21028 39683 40037 80002 333 10396 59007 87076;EQDQ01  00002PRCP99
0166655180999992000031709004+11150-001150FM-12+0322DFCP V0200801N001010780019N0040001N1+03201+00341100661ADDAY121031AY221031GA1071+078009019GF107991001001999999001021MD1999999-0131MW1061REMSYN076AAXX  17094 65518 41940 70802 10320 20034 40066 70622 80002 333 59013 87076;
0223655180999992000031712004+11150-001150FM-12+0322DFCP V0200801N001010780019N0060001N1+03791-00041100481ADDAA199000091AY121061AY221061GA1071+078009019GF107991001001999999001021MA1999999096981MD1999999-0131MW1061REMSYN088AAXX  17124 65518 31956 70802 10379 21004 39698 40048 70622 80002 333 0//00 59013 87076;EQDQ01  00002PRCP99
0187655180999992000031715004+11150-001150FM-12+0322DFCP V0203601N002110780019N0060001N1+03921-00751100231ADDAY121031AY221031GA1071+078009019GF107991001001999999001021MA1999999096731MD1999999-0071MW1061REMSYN082AAXX  17154 65518 41956 73604 10392 21075 39673 40023 70622 80002 333 59007 87076;
0223655180999992000031800004+11150-001150FM-12+0322DFCP V0209999C000010780019N0080001N1+02841+00781100541ADDAA199000091AY121061AY221061GA1071+078009019GF107991001001999999001021MA1999999097031MD1999999+0121MW1061REMSYN088AAXX  18004 65518 31958 70000 10284 20078 39703 40054 70622 80002 333 0//00 58012 87076;EQDQ01  00002PRCP99
0187655180999992000031803004+11150-001150FM-12+0322DFCP V0209999C000010780019N0080001N1+02661+00671100391ADDAY121031AY221031GA1071+078009019GF107991001001999999001021MA1999999096891MD1999999-0151MW1061REMSYN082AAXX  18034 65518 41958 70000 10266 20067 39689 40039 70622 80002 333 59015 87076;
0261655180999992000031806004+11150-001150FM-12+0322DFCP V0209999C000019999999N0032001N1+02431+00681100461ADDAA199000091AY121061AY221061GF107991001001999999001021IA2240+01709KA1120N+02431MA1999999096931MD1999999-0041MW1061OA150600211REMSYN106AAXX  18064 65518 31932 70000 10243 20068 39693 40046 70622 80002 333 01700 20243 50974 55049 59004 87076;EQDQ01  00002PRCP99
0187655180999992000031809004+11150-001150FM-12+0322DFCP V0201801N002110780019N0032001N1+02971+00921100691ADDAY121031AY221031GA1071+078009019GF107991001001999999001021MA1999999097151MD1999999+0021MW1061REMSYN082AAXX  18094 65518 41932 71804 10297 20092 39715 40069 70622 80002 333 58002 87076;
0223655180999992000031812004+11150-001150FM-12+0322DFCP V0202201N002110780019N0032001N1+03651+01081100571ADDAA199000091AY121061AY221061GA1071+078009019GF107991001001999999001021MA1999999097051MD1999999+0071MW1061REMSYN088AAXX  18124 65518 31932 72204 10365 20108 39705 40057 70622 80002 333 0//00 58007 87076;EQDQ01  00002PRCP99
0139655180999992000031815004+11150-001150FM-12+0322DFCP V0200801N002110780019N0100001N1+03901+00311100191ADDGA1071+078009019GF107991001001999999001021MA1999999096691REMSYN070AAXX  18154 65518 42960 70804 10390 20031 39669 40019 80002 333 87076;
0208655180999992000031818004+11150-001150FM-12+0322DFCP V0209999C000010780019N0100001N1+03621+01211100281ADDAA199000091GA1071+078009019GF107991001001999999001021KA1120M+03991MA1999999096761MD1999999-0021REMSYN082AAXX  18184 65518 32960 70000 10362 20121 39676 40028 80002 333 10399 59002 87076;EQDQ01  00002PRCP99
0195655180999992000031900004+11150-001150FM-12+0322DFCP V02099999999990780019N0100001N1+02961+00821100521ADDAA199000091GA1071+078009019GF107991001001999999001021MA1999999097821MD1999999-0011REMSYN082AAXX  19004 65518 32960 70/00 10296 20082 39782 40052 80002 333 0//00 59001 87076;EQDQ01  00002PRCP99
0159655180999992000031909004+11150-001150FM-12+0322DFCP V0203201N001010780019N0100001N1+03181+01661100691ADDGA1071+078009019GF107991001001999999001021MA1999999097161MD1999999+0011REMSYN076AAXX  19094 65518 42960 73202 10318 20166 39716 40069 80002 333 58001 87076;
0195655180999992000031912004+11150-001150FM-12+0322DFCP V0203201N002110780019N0100001N1+03661+01551100571ADDAA199000091GA1071+078009019GF107991001001999999001021MA1999999097071MD1999999+0021REMSYN082AAXX  19124 65518 32960 73204 10366 20155 39707 40057 80002 333 0//00 58002 87076;EQDQ01  00002PRCP99
0163655180999992000031915004+11150-001150FM-12+0322DFCP V0200201N003110780019N0100001N1+03881+01141100211ADDGA1071+078009019GF107991001001999999999021MD1999999+0021REMSYN076AAXX  19154 65518 42960 70206 10388 20114 39767 40021 800/2 333 58002 87076;EQDQ01+097673APOSP 
0214655180999992000031918004+11150-001150FM-12+0322DFCP V0203601N002119999999N0100001N1+03611+00611100191ADDAA199000091GA1011+039009039GF107991011001999999031021KA1120M+03881MA1999999096681MD1999999-0081REMSYN088AAXX  19184 65518 32960 73604 10361 20061 39668 40019 81032 333 10388 59008 81363 87076;EQDQ01  00002PRCP99
0201655180999992000032000004+11150-001150FM-12+0322DFCP V0203601N001010390019N0100001N1+02991+00531100471ADDAA199000091GA1051+039009039GF107991051001999999031021MA1999999096971MD1999999-0051REMSYN088AAXX  20004 65518 32960 73602 10299 20053 39697 40047 85032 333 0//00 59005 85363 83076;EQDQ01  00002PRCP99
0249655180999992000032006004+11150-001150FM-12+0322DFCP V0201801N001019999999N0150001N1+02611+01821100671ADDAA199000091GF107991999001999999071999IA2240+02309KA1120N+02591MA1999999097141MD1999999+0201OA150600361REMSYN100AAXX  20064 65518 32965 71802 10261 20182 39714 40067 8807/ 333 02300 20259 51094 55078 58020 88464;EQDQ01+000082SCOTLCQ02  00002PRCP99
0159655180999992000032009004+11150-001150FM-12+0322DFCP V0202201N002110780019N0100001N1+02801+01961100901ADDGA1071+078009019GF107991001001999999001021MA1999999097341MD1999999+0191REMSYN076AAXX  20094 65518 42960 72204 10280 20196 39734 40090 80002 333 58019 87076;
0201655180999992000032012004+11150-001150FM-12+0322DFCP V0201801N002119999999N0100001N1+03401+01511100741ADDAA199000091GA1021+039009039GF107991021001999999031021MA1999999097211MD1999999+0141REMSYN088AAXX  20124 65518 32960 71804 10340 20151 39721 40074 82032 333 0//00 58014 82363 87076;EQDQ01  00002PRCP99
0165655180999992000032015004+11150-001150FM-12+0322DFCP V0209999C000019999999N0100001N1+03661+01201100451ADDGA1031+039009039GF107991031001999999031021MA1999999096941MD1999999+0221REMSYN082AAXX  20154 65518 42960 70000 10366 20120 39694 40045 83032 333 58022 83363 85076;
0214655180999992000032018004+11150-001150FM-12+0322DFCP V0201801N002119999999N9999999N1+03301+01251100471ADDAA199000091GA1031+039009039GF107991031001012501071021KA1120M+03701MA1999999096931MD1999999+0091REMSYN088AAXX  20184 65518 3/65/ 71804 10330 20125 39693 40047 83072 333 10370 58009 83363 86076;EQDQ01  00002PRCP99
0201655180999992000032100004+11150-001150FM-12+0322DFCP V0209999C000010390019N0150001N1+02641+01621100621ADDAA199000091GA1051+039009039GF107991051001999999071021MA1999999097081MD1999999+0111REMSYN088AAXX  21004 65518 32965 70000 10264 20162 39708 40062 85072 333 0//00 58011 85363 83076;EQDQ01  00002PRCP99
0255655180999992000032106004+11150-001150FM-12+0322DFCP V0209999C000019999999N0150001N1+02101+01681100631ADDAA199000091GA1011+039009039GF107991011001999999081021IA2240+02409KA1120N+02101MA1999999097051MD1999999-0091OA150600261REMSYN106AAXX  21064 65518 32965 70000 10210 20168 39705 40063 81082 333 02400 20210 50924 55054 59009 81363 87076;EQDQ01  00002PRCP99
0165655180999992000032109004+11150-001150FM-12+0322DFCP V0203601N002119999999N0100001N1+02951+00801100831ADDGA1011+039009039GF107991011001999999031021MA1999999097261MD1999999-0081REMSYN082AAXX  21094 65518 42960 73604 10295 20080 39726 40083 81032 333 59008 81363 87076;
0211655180999992000032112004+11150-001150FM-12+0322DFCP V0200801N003110780019N0150001N1+03501-00412100721ADDAA199000091GA1071+078009019GF107991001001999999001021MA1999999097181MD1999999-0041REMSYN082AAXX  21124 65518 32965 70806 10350 21041 39718 40072 80002 333 0//00 59004 87076;EQDQ01-000413ATOD  Q02  00002PRCP99
0138655180999992000032115004+11150-001150FM-12+0322DFCP V0200801N001010780019N0150001N1+99999+99999999999ADDGA1071+078009019GF107991001001999999001999MD1999999-0051REMSYN070AAXX  21154 65518 42965 70802 21011 39//9 4/042 8000/ 333 59005 87076;
0211655180999992000032118004+11150-001150FM-12+0322DFCP V0209999C000010780019N0150001N1+99999+99999999999ADDAA199000091GA1071+078009019GF107991021001999999031021KA1120M+03801MA1999999096901MD1999999-0831ME1210469REMSYN076AAXX  21184 65518 32965 70000 21018 39690 42046 82032 333 10380 59083 87076;EQDQ01  00002PRCP99
0233655180999992000032206004+11150-001150FM-12+0322DFCP V0209999C000019999999N0150001N1+02241+00131100641ADDAA199000091GF107991001001999999001021IA2240+02009KA1120N+02201MA1999999097091MD1999999+0041OA150600461REMSYN100AAXX  22064 65518 32965 70000 10224 20013 39709 40064 80002 333 02000 20220 51034 55093 58004 87076;EQDQ01  00002PRCP99
0165655180999992000032209004+11150-001150FM-12+0322DFCP V0209999C000019999999N0150001N1+03121-01062100821ADDGA1011+039009039GF107991011001999999031021MA1999999097271MD1999999+0121REMSYN082AAXX  22094 65518 42965 70000 10312 21106 39727 40082 81032 333 58012 81363 87076;
0195655180999992000032212004+11150-001150FM-12+0322DFCP V0200201N002110780019N0150001N1+03681-00531100541ADDAA199000091GA1071+078009019GF107991001001999999001021MA1999999097111MD1999999-0071REMSYN082AAXX  22124 65518 32965 70204 10368 21053 39711 40054 80002 333 0//00 59007 87076;EQDQ01  00002PRCP99
0214655180999992000032218004+11150-001150FM-12+0322DFCP V0209999C000019999999N0150001N1+03661-00421100481ADDAA199000091GA1011+039009039GF107991011001999999031021KA1120M+03901MA1999999096941MD1999999+0041REMSYN088AAXX  22184 65518 32965 70000 10366 21042 39694 40048 81032 333 10390 58004 81363 87076;EQDQ01  00002PRCP99
0159655180999992000032309004+11150-001150FM-12+0322DFCP V0200401N002110780019N0150001N1+03171-01071100791ADDGA1051+078009019GF105991001001999999001021MA1999999097251MD1999999-0021REMSYN076AAXX  23094 65518 42965 50404 10317 21107 39725 40079 80002 333 59002 85076;
0201655180999992000032400004+11150-001150FM-12+0322DFCP V0203401N001019999999N0150001N1+02751-00211100581ADDAA199000091GA1011+039009039GF105991011001999999031021MA1999999097061MD1999999-0101REMSYN088AAXX  24004 65518 32965 53402 10275 21021 39706 40058 81032 333 0//00 59010 81363 85076;EQDQ01  00002PRCP99
0159655180999992000032409004+11150-001150FM-12+0322DFCP V0201801N002110780019N0200001N1+03121+01501100791ADDGA1071+078009019GF107991001001999999001021MA1999999097241MD1999999-0011REMSYN076AAXX  24094 65518 42970 71804 10312 20150 39724 40079 80002 333 59001 87076;
0195655180999992000032412004+11150-001150FM-12+0322DFCP V0200401N002110780019N0200001N1+03801+00631100641ADDAA199000091GA1071+078009019GF107991001001999999001021MA1999999097131MD1999999-0011REMSYN082AAXX  24124 65518 32970 70404 10380 20063 39713 40064 80002 333 0//00 59001 87076;EQDQ01  00002PRCP99
0233655180999992000032506004+11150-001150FM-12+0322DFCP V0209999C000019999999N0200001N1+02511+00131100511ADDAA199000091GF107991001001999999001021IA2240+01809KA1120N+02451MA1999999096991MD1999999-0131OA150600511REMSYN100AAXX  25064 65518 32970 70000 10251 20013 39699 40051 80002 333 01800 20245 51104 55104 59013 87076;EQDQ01  00002PRCP99
0113655180999992000032509004+11150-001150FM-12+0322DFCP V0201201N002119999999N0150001N1+99999+99999999999ADDGF107991999999999999999999REMSYN075AAXX  25094 65518 42965 71204 1330 21065 39719 40071 80002 333 59005 87076;
0159655180999992000032515004+11150-001150FM-12+0322DFCP V0200801N002110780019N0150001N1+04081-00911100271ADDGA1071+078009019GF107991001001999999001021MA1999999097591MD1999999-0021REMSYN076AAXX  25154 65518 42965 70804 10408 21091 39759 40027 80002 333 59002 87076;
0218655180999992000032518004+11150-001150FM-12+0322DFCP V0200801N001010780019N0150001N1+03801+00171999999ADDAA199000091GA1071+078009019GF107991001001999999001021KA1120M+04181MA1999999096812MD1999999-0061REMSYN076AAXX  25184 65518 32965 70802 10380 20017 39681 80002 333 10418 59006 87076;EQDQ01+096813APOSP Q02  00002PRCP99
0159655180999992000032609004+11150-001150FM-12+0322DFCP V0202201N002110780019N0150001N1+03431+01841100721ADDGA1071+078009019GF107991001001999999001021MA1999999097211MD1999999+0021REMSYN076AAXX  26094 65518 42965 72204 10343 20184 39721 40072 80002 333 58002 87076;
0212655180999992000032615004+11150-001150FM-12+0322DFCP V0202201N002110780019N0150001N1+03801+01671100291ADDGA1021+007809089GA2071+078009009GF107991021999008001021021MA1999999096801MD1999999+0011REMSYN094AAXX  26154 65518 42565 72204 10380 20167 39680 40029 82022 333 58001 82826 87076 94929 95836;EQDQ01+000002SCOLCG
0258655180999992000032618004+11150-001150FM-12+0322DFCP V0200401N002110780019N0100001N1+03551+01411100301ADDAA199000091GA1011+009009099GA2071+078009009GF107991011091008001071021KA1120M+03901MA1999999097792MD1999999-0021REMSYN100AAXX  26184 65518 32560 70404 10355 20141 39779 40030 81972 333 10390 59002 81930 87076 94943 95813;EQDQ01+097793APOSP Q02  00002PRCP99
0159655180999992000032709004+11150-001150FM-12+0322DFCP V0201801N002110780019N0150001N1+02801+01911100821ADDGA1071+078009019GF107991001001999999001021MA1999999097281MD1999999+0071REMSYN076AAXX  27094 65518 42965 71804 10280 20191 39728 40082 80002 333 58007 87076;
0159655180999992000032815004+11150-001150FM-12+0322DFCP V0209999C000010390019N0150001N1+03731+01411100291ADDGA1061+039009079GF107991061001999999071021MA1999999096801MD1999999-0051REMSYN076AAXX  28154 65518 42965 70000 10373 20141 39680 40029 86072 333 59005 86363;
0208655180999992000032818004+11150-001150FM-12+0322DFCP V0209999C000010390019N0150001N1+03601+01531100311ADDAA199000091GA1061+039009079GF107991061001999999071021KA1120M+03751MA1999999096801MD1999999-0121REMSYN082AAXX  28184 65518 32965 70000 10360 20153 39680 40031 86072 333 10375 59012 86363;EQDQ01  00002PRCP99
0229655180999992000032912004+11150-001150FM-12+0322DFCP V02099999999999999999N0080001N1+03851+00951100511ADDAA199000091AY121061AY221061GA1011+039009039GF107991011001999999031021MA1999999097021MD1999999-0051MW1061REMSYN094AAXX  29124 65518 31958 78806 10385 20095 39702 40051 70622 81032 333 0//00 59005 81363 87076;EQDQ01  00002PRCP99
0159655180999992000032915004+11150-001150FM-12+0322DFCP V0200801N002110780019N0100001N1+03971+00801100261ADDGA1071+078009019GF107991001001999999001021MA1999999096771MD1999999-0031REMSYN076AAXX  29154 65518 42960 70804 10397 20080 39677 40026 80002 333 59003 87076;
0208655180999992000032918004+11150-001150FM-12+0322DFCP V0200801N002110780019N0100001N1+03811+00841100261ADDAA199000091GA1071+078009019GF107991001001999999001021KA1120M+04051MA1999999096761MD1999999-0041REMSYN082AAXX  29184 65518 32960 70804 10381 20084 39676 40026 80002 333 10405 59004 87076;EQDQ01  00002PRCP99
0195655180999992000033000004+11150-001150FM-12+0322DFCP V0209999C000010780019N0100001N1+03101+01451100431ADDAA199000091GA1071+078009019GF107991001001999999001021MA1999999096951MD1999999-0031REMSYN082AAXX  30004 65518 32960 70000 10310 20145 39695 40043 80002 333 0//00 59003 87076;EQDQ01  00002PRCP99
0165655180999992000033015004+11150-001150FM-12+0322DFCP V0209999C00001105001CN0100001N1+04101+01381100251ADDGA1031+006009069GF107991031051008001001021MA1999999096771MD1999999+0001REMSYN082AAXX  30154 65518 42560 70000 10410 20138 39677 40025 83502 333 58000 83620 86076;
0214655180999992000033018004+11150-001150FM-12+0322DFCP V0200801N00211105001CN0100001N1+03881+01251100211ADDAA199000091GA1011+006009069GF107991011051008001001021KA1120M+04121MA1999999096711MD1999999-0051REMSYN088AAXX  30184 65518 32560 70804 10388 20125 39671 40021 81502 333 10412 59005 81620 87076;EQDQ01  00002PRCP99
0195655180999992000033100004+11150-001150FM-12+0322DFCP V0209999C000010780019N0150001N1+03001+01681100501ADDAA199000091GA1071+078009019GF107991001001999999001021MA1999999097011MD1999999+0061REMSYN082AAXX  31004 65518 32965 70000 10300 20168 39701 40050 80002 333 0//00 58006 87076;EQDQ01  00002PRCP99
0159655180999992000033103004+11150-001150FM-12+0322DFCP V0201801N001010780019N0150001N1+02901+01741100401ADDGA1071+078009019GF107991001001999999001021MA1999999096921MD1999999-0011REMSYN076AAXX  31034 65518 42965 71802 10290 20174 39692 40040 80002 333 59001 87076;
0201655180999992000033112004+11150-001150FM-12+0322DFCP V0203401N00211105001CN0150001N1+03731+01721100481ADDAA199000091GA1011+007809069GF107991011051008001001021MA1999999096981MD1999999-0081REMSYN088AAXX  31124 65518 32565 73404 10373 20172 39698 40048 81502 333 0//00 59008 81626 87076;EQDQ01  00002PRCP99
0195655180999992000040100004+11150-001150FM-12+0322DFCP V0209999C000010780019N0150001N1+03141+01721100421ADDAA199000091GA1071+078009019GF107991001001999999001021MA1999999096941MD1999999-0071REMSYN082AAXX  01004 65518 32965 70000 10314 20172 39694 40042 80002 333 0//00 59007 87076;EQDQ01  00002PRCP99
0233655180999992000040106004+11150-001150FM-12+0322DFCP V0209999C000019999999N0150001N1+02801+01981100341ADDAA199000091GF107991001001999999001021IA2240+02709KA1120N+02801MA1999999096831MD1999999-0161OA150600411REMSYN100AAXX  01064 65518 32965 70000 10280 20198 39683 40034 80002 333 02700 20280 51144 55088 59016 87076;EQDQ01  00002PRCP99
0178655180999992000040109004+11150-001150FM-12+0322DFCP V0202601N002110780019N0150001N1+03201+02021100521ADDGA1071+078009019GF107991001001999999001021MA1999999097011MD1999999-0141REMSYN076AAXX  01094 65518 42565 72604 10320 20202 39701 40052 80002 333 59014 87076;EQDQ01+008002SCOLCB
0201655180999992000040112004+11150-001150FM-12+0322DFCP V0202201N00311105001CN0150001N1+03871+01781100401ADDAA199000091GA1011+006009069GF107991011051008001001021MA1999999096921MD1999999-0061REMSYN088AAXX  01124 65518 32565 72206 10387 20178 39692 40040 81502 333 0//00 59006 81620 87076;EQDQ01  00002PRCP99
0165655180999992000040115004+11150-001150FM-12+0322DFCP V0209999C00001105001CN9999999N1+04101+01171999999ADDGA1041+006009069GF107991041051008001001021MA1999999096641MD1999999-0071REMSYN082AAXX  01154 65518 425/5 70000 10410 20117 39664 4//12 84502 333 59007 84620 85076;
0195655180999992000040200004+11150-001150FM-12+0322DFCP V0209999C000010780019N0150001N1+03131+01401100361ADDAA199000091GA1071+078009019GF107991001001999999001021MA1999999096881MD1999999-0061REMSYN082AAXX  02004 65518 32965 70000 10313 20140 39688 40036 80002 333 0//00 59006 87076;EQDQ01  00002PRCP99
0255655180999992000040206004+11150-001150FM-12+0322DFCP V0209999C000011050019N0150001N1+02801+01801100361ADDAA199000091GA1011+006009069GF107991011051008001001021IA2240+02609KA1120N+02801MA1999999096861MD1999999+0131OA150600461REMSYN106AAXX  02064 65518 32565 70000 10280 20180 39686 40036 81502 333 02600 20280 51094 55091 58013 81620 87076;EQDQ01  00002PRCP99
0211655180999992000040212004+11150-001150FM-12+0322DFCP V0201801N003110780019N0150001N1+03651+01961100461ADDAA199000091GA1071+078009089GF107991999001999999001061MA1999999096961MD1999999+0041REMSYN082AAXX  02124 65518 32965 71806 10365 20196 39696 40046 80006 333 0//00 58004 87276;EQDQ01+000002SCOTLCQ02  00002PRCP99
0193655180999992000040215004+11150-001150FM-12+0322DFCP V0201801N002110780019N0150001N1+03821+01771100211ADDGA1011+009009089GA2071+078009009GF107991011021008001001021MA1999999096731MD1999999+0091REMSYN094AAXX  02154 65518 42565 71804 10382 20177 39673 40021 81202 333 58009 81830 87076 94928 95838;
0242655180999992000040218004+11150-001150FM-12+0322DFCP V0201801N002110780019N0150001N1+03701+01521100251ADDAA199000091GA1011+009009009GA2071+078009009GF107991011021008001001021KA1120M+03941MA1999999096751MD1999999+0111REMSYN100AAXX  02184 65518 32565 71804 10370 20152 39675 40025 81202 333 10394 58011 81030 87076 94926 95836;EQDQ01  00002PRCP99
0195655180999992000040300004+11150-001150FM-12+0322DFCP V0202201N002110780019N0150001N1+03151+01891100561ADDAA199000091GA1071+078009019GF107991001001999999001021MA1999999097071MD1999999+0191REMSYN082AAXX  03004 65518 32965 72204 10315 20189 39707 40056 80002 333 0//00 58019 87076;EQDQ01  00002PRCP99
0159655180999992000040309004+11150-001150FM-12+0322DFCP V0202201N002110780019N0150001N1+03191+01791100831ADDGA1071+078009019GF107991001001999999001021MA1999999097301MD1999999+0271REMSYN076AAXX  03094 65518 42965 72204 10319 20179 39730 40083 80002 333 58027 87076;
0201655180999992000040312004+11150-001150FM-12+0322DFCP V0200201N00411105001CN0150001N1+03671+01841100661ADDAA199000091GA1011+006009069GF107991011051008001001021MA1999999097161MD1999999+0201REMSYN088AAXX  03124 65518 32565 70208 10367 20184 39716 40066 81502 333 0//00 58020 81620 87076;EQDQ01  00002PRCP99
0215655180999992000040315004+11150-001150FM-12+0322DFCP V0201401N002110780019N0150001N1+03821+01731100441ADDGA1011+006009069GA2031+007809089GA3051+078009009GF107991031081008001001021MA1999999096911MD1999999+0181REMSYN100AAXX  03154 65518 42565 71404 10382 20173 39691 40044 83802 333 58018 81620 83826 85076 94939 95838;
0195655180999992000040400004+11150-001150FM-12+0322DFCP V0209999C000010780019N0150001N1+03001+01901100781ADDAA199000091GA1071+078009019GF107991001001999999001021MA1999999097271MD1999999+0201REMSYN082AAXX  04004 65518 32965 70000 10300 20190 39727 40078 80002 333 0//00 58020 87076;EQDQ01  00002PRCP99
0333655180999992000040406004+11150-001150FM-12+0322DFCP V0203201N00311078001CN0150001N1+02731+01861100881ADDAA199000091AY191061AY291061GA1021+006009069GA2021+009909099GA3051+078009009GF107991031091008001001021IA2240+02809KA1120N+02731MA1999999097351MD1999999+0261MW1171OA150600361REMSYN130AAXX  04064 65518 31565 73206 10273 20186 39735 40088 71799 83902 333 02800 20273 51004 55079 58026 82620 82933 85076 94948 95878;EQDQ01  00002PRCP99
0229655180999992000040412004+11150-001150FM-12+0322DFCP V0203001N002119999999N0150001N1+03451+01831100881ADDAA199000091AY191061AY221061GA1011+039009039GF107991011001999999031021MA1999999097361MD1999999+0201MW1021REMSYN094AAXX  04124 65518 31965 73004 10345 20183 39736 40088 70292 81032 333 0//00 58020 81363 87076;EQDQ01  00002PRCP99
0195655180999992000040512004+11150-001150FM-12+0322DFCP V0202601N001010780019N0150001N1+03751+01511100701ADDAA199000091GA1071+078009019GF107991001001999999001021MA1999999097191MD1999999-0171REMSYN082AAXX  05124 65518 32965 72602 10375 20151 39719 40070 80002 333 0//00 59017 87076;EQDQ01  00002PRCP99
0214655180999992000040518004+11150-001150FM-12+0322DFCP V0202601N003119999999N0150001N1+03741+01131100351ADDAA199000091GA1031+039009039GF107991031001999999071021KA1120M+04051MA1999999096841MD1999999-0021REMSYN088AAXX  05184 65518 32965 72606 10374 20113 39684 40035 83072 333 10405 59002 83363 87076;EQDQ01  00002PRCP99
0214655180999992000040618004+11150-001150FM-12+0322DFCP V0200801N00211045001CN0150001N1+03891+01131100231ADDAA199000091GA1021+006009069GF107991021051008001031021KA1120M+04191MA1999999096741MD1999999-0101REMSYN088AAXX  06184 65518 32565 70804 10389 20113 39674 40023 82532 333 10419 59010 82620 87076;EQDQ01  00002PRCP99
0201655180999992000040712004+11150-001150FM-12+0322DFCP V0202601N002112200019N0150001N1+03821+01911100571ADDAA199000091GA1011+007809069GF103991011051008001001021MA1999999097091MD1999999+0051REMSYN088AAXX  07124 65518 32565 32604 10382 20191 39709 40057 81502 333 0//00 58005 81626 83076;EQDQ01  00002PRCP99
0214655180999992000040718004+11150-001150FM-12+0322DFCP V0209999C000019999999N0150001N1+03771+01431100231ADDAA199000091GA1011+039009039GF107991011001999999031021KA1120M+04071MA1999999096731MD1999999-0011REMSYN088AAXX  07184 65518 32965 70000 10377 20143 39673 40023 81032 333 10407 59001 81363 87076;EQDQ01  00002PRCP99
0233655180999992000040806004+11150-001150FM-12+0322DFCP V0201801N002119999999N0150001N1+02851+01951100581ADDAA199000091GF107991001001999999001021IA2240+02809KA1120N+02851MA1999999097071MD1999999+0071OA150600511REMSYN100AAXX  08064 65518 32965 71804 10285 20195 39707 40058 80002 333 02800 20285 51304 55100 58007 87076;EQDQ01  00002PRCP99
0201655180999992000040812004+11150-001150FM-12+0322DFCP V0202001N00101105001CN0200001N1+03801+01881100531ADDAA199000091GA1011+006009069GF107991011051008001001021MA1999999097051MD1999999-0041REMSYN088AAXX  08124 65518 32570 72002 10380 20188 39705 40053 81502 333 0//00 59004 81620 87076;EQDQ01  00002PRCP99
0195655180999992000040900004+11150-001150FM-12+0322DFCP V0201801N002110780019N0150001N1+03311+01471100491ADDAA199000091GA1071+078009019GF107991001001999999001021MA1999999097011MD1999999+0011REMSYN082AAXX  09004 65518 32965 71804 10331 20147 39701 40049 80002 333 0//00 58001 87076;EQDQ01  00002PRCP99
0195655180999992000040912004+11150-001150FM-12+0322DFCP V0201601N002110780019N0150001N1+03771+02031100481ADDAA199000091GA1071+078009019GF107991001001999999001021MA1999999097001MD1999999-0051REMSYN082AAXX  09124 65518 32965 71604 10377 20203 39700 40048 80002 333 0//00 59005 87076;EQDQ01  00002PRCP99
0214655180999992000040918004+11150-001150FM-12+0322DFCP V0209999C00001105001CN0150001N1+03871+01401100121ADDAA199000091GA1011+000609069GF107991011051008001001021KA1120M+04111MA1999999096641MD1999999-0061REMSYN088AAXX  09184 65518 32565 70000 10387 20140 39664 40012 81502 333 10411 59006 81602 87076;EQDQ01  00002PRCP99
0257655180999992000041000004+11150-001150FM-12+0322DFCP V0201801N004110780019N0150001N1+03281+01751100361ADDAA199000091AY121061AY221061GA1011+009909099GA2071+078009009GF107991011091012501001021MA1999999096891MD1999999-0121MW1131REMSYN106AAXX  10004 65518 31665 71808 10328 20175 39689 40036 71322 81902 333 0//00 59012 81933 87076 94945 95836;EQDQ01  00002PRCP99
0233655180999992000041006004+11150-001150FM-12+0322DFCP V0209999C000019999999N0150001N1+02801+01981100401ADDAA199000091GF107991001001999999001021IA2240+02809KA1120N+02801MA1999999096901MD1999999-0091OA150600511REMSYN100AAXX  10064 65518 32965 70000 10280 20198 39690 40040 80002 333 02800 20280 51214 55101 59009 87076;EQDQ01  00002PRCP99
0201655180999992000041012004+11150-001150FM-12+0322DFCP V0202201N003119999999N0150001N1+03721+02041100441ADDAA199000091GA1021+039009039GF107991021001999999031021MA1999999096961MD1999999-0041REMSYN088AAXX  10124 65518 32965 72206 10372 20204 39696 40044 82032 333 0//00 59004 82363 87076;EQDQ01  00002PRCP99
0195655180999992000041112004+11150-001150FM-12+0322DFCP V0203001N002110780019N0150001N1+03501+01971100541ADDAA199000091GA1071+078009019GF107991001001999999001021MA1999999097011MD1999999+0051REMSYN082AAXX  11124 65518 32965 73004 10350 20197 39701 40054 80002 333 0//00 58005 87076;EQDQ01  00002PRCP99
0242655180999992000041118004+11150-001150FM-12+0322DFCP V0209999C000010780019N0150001N1+03561+01721100361ADDAA199000091GA1011+009009099GA2071+078009009GF107991011091008001001021KA1120M+03871MA1999999096831MD1999999-0091REMSYN100AAXX  11184 65518 32565 70000 10356 20172 39683 40036 81902 333 10387 59009 81930 87076 94945 95835;EQDQ01  00002PRCP99
0233655180999992000041206004+11150-001150FM-12+0322DFCP V0201801N002119999999N0150001N1+02541+02031100591ADDAA199000091GF107991001001999999001021IA2240+02009KA1120N+02541MA1999999097061MD1999999+0031OA150600361REMSYN100AAXX  12064 65518 32965 71804 10254 20203 39706 40059 80002 333 02000 20254 50864 55078 58003 87076;EQDQ01  00002PRCP99
0195655180999992000041212004+11150-001150FM-12+0322DFCP V0202201N003110780019N0150001N1+03461+01821100591ADDAA199000091GA1071+078009019GF107991001001999999001021MA1999999097071MD1999999+0061REMSYN082AAXX  12124 65518 32965 72206 10346 20182 39707 40059 80002 333 0//00 58006 87076;EQDQ01  00002PRCP99
0214655180999992000041218004+11150-001150FM-12+0322DFCP V0209999C00001105001CN0150001N1+03661+01841100311ADDAA199000091GA1011+006009069GF107991011051008001001021KA1120M+03871MA1999999096791MD1999999-0041REMSYN088AAXX  12184 65518 32565 70000 10366 20184 39679 40031 81502 333 10387 59004 81620 87076;EQDQ01  00002PRCP99
0195655180999992000041300004+11150-001150FM-12+0322DFCP V0202001N003110780019N0150001N1+03071+01971100541ADDAA199000091GA1071+078009019GF107991001001999999001021MA1999999097031MD1999999-0121REMSYN082AAXX  13004 65518 32965 72006 10307 20197 39703 40054 80002 333 0//00 59012 87076;EQDQ01  00002PRCP99
0233655180999992000041306004+11150-001150FM-12+0322DFCP V0209999C000019999999N0150001N1+02761+02021100501ADDAA199000091GF107991001001999999001021IA2240+02409KA1120N+02751MA1999999096981MD1999999-1041OA150600511REMSYN100AAXX  13064 65518 32965 70000 10276 20202 39698 40050 80002 333 02400 20275 59104 55102 59008 87076;EQDQ01  00002PRCP99
0201655180999992000041312004+11150-001150FM-12+0322DFCP V0202601N00211105001CN0150001N1+03621+02071100601ADDAA199000091GA1011+006009069GF107991011051008001001021MA1999999097091MD1999999+0021REMSYN088AAXX  13124 65518 32565 72604 10362 20207 39709 40060 81502 333 0//00 58002 81620 87076;EQDQ01  00002PRCP99
0292655180999992000041318004+11150-001150FM-12+0322DFCP V0209999C000010780019N0150001N1+03641+01871100191ADDAA199000091AY191061AY221061GA1021+006009069GA2011+009009099GA3071+078009009GF107991021091008001001021KA1120M+04021MA1999999096681MD1999999-0111MW1171REMSYN112AAXX  13184 65518 31565 70000 10364 20187 39668 40019 71792 82902 333 10402 59011 82620 81930 87076 94942 95832;EQDQ01  00002PRCP99
0257655180999992000041400004+11150-001150FM-12+0322DFCP V0201801N003110390019N0150001N1+02801+02121100551ADDAA199000091AY191061AY221061GA1011+009009099GA2071+039009039GF107991011091008001071999MA1999999097041MD1999999+0011MW1131REMSYN106AAXX  14004 65518 31565 71806 10280 20212 39704 40055 71392 8197/ 333 0//00 58001 81930 87363 94944 95834;EQDQ01  00002PRCP99
0242655180999992000041418004+11150-001150FM-12+0322DFCP V0201801N002110780019N0150001N1+03401+01951100461ADDAA199000091GA1011+009009099GA2071+078009009GF107991011091008001001021KA1120M+03731MA1999999096921MD1999999+0241REMSYN100AAXX  14184 65518 32565 71804 10340 20195 39692 40046 81902 333 10373 58024 81930 87076 94948 95818;EQDQ01  00002PRCP99
0195655180999992000041500004+11150-001150FM-12+0322DFCP V0201801N001010780019N0150001N1+02971+02051100571ADDAA199000091GA1051+078009019GF105991001001999999001021MA1999999097051MD1999999+0011REMSYN082AAXX  15004 65518 32965 51802 10297 20205 39705 40057 80002 333 0//00 58001 85076;EQDQ01  00002PRCP99
0195655180999992000041512004+11150-001150FM-12+0322DFCP V0209999C000010780019N0150001N1+03811+01871100511ADDAA199000091GA1071+078009019GF107991001001999999001021MA1999999097011MD1999999-0121REMSYN082AAXX  15124 65518 32965 70000 10381 20187 39701 40051 80002 333 0//00 59012 87076;EQDQ01  00002PRCP99
0270655180999992000041518004+11150-001150FM-12+0322DFCP V0201801N002110780019N0150001N1+03771+01781100221ADDAA199000091GA1011+006009069GA2021+009909099GA3061+078009009GF107991021091008001031021KA1120M+04031MA1999999096711MD1999999-0211REMSYN112AAXX  15184 65518 32565 71804 10377 20178 39671 40022 82932 333 10403 59021 81620 82933 86076 94942 94948 95832;EQDQ01  00002PRCP99
0199655180999992000041600004+11150-001150FM-12+0322DFCP V0202001N001010300019N0150001N1+02681+02281100721ADDAC13C9AY191061AY261061GA1081+030009019GF108991081001999999071999MA1999999097201MD1999999+0151MW1011REMSYN088AAXX  16004 65518 11965 82002 10268 20228 39720 40072 70196 8807/ 333 0//63 58015 88460;
0226655180999992000041606004+11150-001150FM-12+0322DFCP V0202201N002119999999N0150001N1+02611+02091100541ADDAA124005191AC13I9GF107991001001999999001021IA2240+02509KA1120N+02491MA1999999097021MD1999999+0091OA150600511REMSYN106AAXX  16064 65518 12965 72204 10261 20209 39702 40054 60054 80002 333 02568 20249 51234 55109 58009 87076;
0195655180999992000041612004+11150-001150FM-12+0322DFCP V0202201N002110780019N0150001N1+03571+02181100631ADDAA199000091GA1071+078009019GF107991001001999999001021MA1999999097111MD1999999+0101REMSYN082AAXX  16124 65518 32965 72204 10357 20218 39711 40063 80002 333 0//00 58010 87076;EQDQ01  00002PRCP99
0270655180999992000041618004+11150-001150FM-12+0322DFCP V0209999C000010780019N0150001N1+03701+01931100261ADDAA199000091AY191061AY221061GA1011+009009099GA2071+078009009GF107991011091008001001021KA1120M+03921MA1999999096751MD1999999+0041MW1171REMSYN106AAXX  16184 65518 31565 70000 10370 20193 39675 40026 71792 81902 333 10392 58004 81930 87076 94941 95831;EQDQ01  00002PRCP99
0226655180999992000041706004+11150-001150FM-12+0322DFCP V0209999C000019999999N0150001N1+02551+01891100561ADDAA124000591AC13I9GF107991001001999999001021IA2240+02409KA1120N+02461MA1999999097031MD1999999+0011OA150600511REMSYN106AAXX  17064 65518 12965 70000 10255 20189 39703 40056 69964 80002 333 02458 20246 50844 55104 58001 87076;
0211655180999992000041712004+11150-001150FM-12+0322DFCP V0202601N002110780019N0150001N1+03531+01661100711ADDAA199000091GA1071+078009089GF107991999001999999001061MA1999999097191MD1999999+0081REMSYN082AAXX  17124 65518 32965 72604 10353 20166 39719 40071 80006 333 0//00 58008 87276;EQDQ01+000002SCOTLCQ02  00002PRCP99
0208655180999992000041718004+11150-001150FM-12+0322DFCP V0209999C000010780019N0150001N1+03611+01791100341ADDAA199000091GA1071+078009019GF107991001001999999001021KA1120M+03901MA1999999096821MD1999999+0071REMSYN082AAXX  17184 65518 32965 70000 10361 20179 39682 40034 80002 333 10390 58007 87076;EQDQ01  00002PRCP99
0195655180999992000041800004+11150-001150FM-12+0322DFCP V0201801N001010780019N0150001N1+02901+02091100531ADDAA199000091GA1071+078009019GF107991001001999999001031MA1999999097011MD1999999-0021REMSYN082AAXX  18004 65518 32965 71802 10290 20209 39701 40053 80003 333 0//00 59002 87076;EQDQ01  00002PRCP99
0195655180999992000041812004+11150-001150FM-12+0322DFCP V0202601N003110780019N0150001N1+03531+01741100801ADDAA199000091GA1071+078009019GF107991001001999999001021MA1999999097281MD1999999+0091REMSYN082AAXX  18124 65518 32965 72606 10353 20174 39728 40080 80002 333 0//00 58009 87076;EQDQ01  00002PRCP99
0233655180999992000041906004+11150-001150FM-12+0322DFCP V0209999C000019999999N0150001N1+02761+02131100741ADDAA199000091GF107991001001999999001021IA2240+02109KA1120N+02761MA1999999097221MD1999999+0091OA150600511REMSYN100AAXX  19064 65518 32965 70000 10276 20213 39722 40074 80002 333 02100 20276 51094 55100 58009 87076;EQDQ01  00002PRCP99
0195655180999992000041912004+11150-001150FM-12+0322DFCP V0203601N004110780019N0150001N1+03751+01371100691ADDAA199000091GA1071+078009019GF107991001001999999001021MA1999999097201MD1999999-0081REMSYN082AAXX  19124 65518 32965 73608 10375 20137 39720 40069 80002 333 0//00 59008 87076;EQDQ01  00002PRCP99
0208655180999992000041918004+11150-001150FM-12+0322DFCP V0209999C000010780019N0150001N1+03881+00341100331ADDAA199000091GA1071+078009019GF107991001001999999001021KA1120M+04101MA1999999096831MD1999999-0091REMSYN082AAXX  19184 65518 32965 70000 10388 20034 39683 40033 80002 333 10410 59009 87076;EQDQ01  00002PRCP99
0211655180999992000042000004+11150-001150FM-12+0322DFCP V0201801N002110780019N0150001N1+03121+02102100581ADDAA199000091GA1071+078009019GF107991001001999999001021MA1999999097091MD1999999-0011REMSYN082AAXX  20004 65518 32965 71804 10312 20210 39709 40058 80002 333 0//00 59001 87076;EQDQ01+002103ATOD  Q02  00002PRCP99
0195655180999992000042012004+11150-001150FM-12+0322DFCP V0200801N002110780019N0150001N1+03701-00121100551ADDAA199000091GA1071+078009019GF107991001001999999001021MA1999999097061MD1999999-0141REMSYN082AAXX  20124 65518 32965 70804 10370 21012 39706 40055 80002 333 0//00 59014 87076;EQDQ01  00002PRCP99
0233655180999992000042106004+11150-001150FM-12+0322DFCP V0209999C000019999999N0150001N1+02821+02261100651ADDAA199000091GF107991001001999999001021IA2240+02609KA1120N+02821MA1999999097131MD1999999+0021OA150600511REMSYN100AAXX  21064 65518 32965 70000 10282 20226 39713 40065 80002 333 02600 20282 51084 55105 58002 87076;EQDQ01  00002PRCP99
0264655180999992000042118004+11150-001150FM-12+0322DFCP V0209999C000010780019N0150001N1+03611+01931100441ADDAA199000091GA1011+006009069GA2021+009909099GA3051+078009009GF107991031091008001001021KA1120M+04061MA1999999096931MD1999999+0161REMSYN106AAXX  21184 65518 32565 70000 10361 20193 39693 40044 83902 333 10406 58016 81620 82933 85076 94949 95835;EQDQ01  00002PRCP99
0195655180999992000042200004+11150-001150FM-12+0322DFCP V0201801N003110390019N0150001N1+03141+02051100761ADDAA199000091GA1071+039009079GF107991071001999999071999MA1999999097261MD1999999+0171REMSYN082AAXX  22004 65518 32965 71806 10314 20205 39726 40076 8707/ 333 0//00 58017 87363;EQDQ01  00002PRCP99
0214655180999992000042218004+11150-001150FM-12+0322DFCP V0201801N002119999999N0150001N1+03111+01611100791ADDAA199000091GA1031+039009039GF107991031001999999031021KA1120M+03401MA1999999097211MD1999999+0281REMSYN088AAXX  22184 65518 32965 71804 10311 20161 39721 40079 83032 333 10340 58028 83363 85076;EQDQ01  00002PRCP99
0222655180999992000042300004+11150-001150FM-12+0322DFCP V0200401N00311045001CN0100001N1+02471+01731101331ADDAA106000791AC11C9AY121061AY221061GA1011+006009069GF108991011051008001071999MA1999999097741MD1999999+0481MW1611REMSYN100AAXX  23004 65518 11560 80406 10247 20173 39774 40133 69901 76122 8157/ 333 0//51 58048 81620 88463;
0182655180999992000042312004+11150-001150FM-12+0322DFCP V0209999C000019999999N0150001N1+03321+01821100851ADDAA199000021GA1031+039009039GF107991031001999999031021MA1999999097291MD1999999-0141REMSYN088AAXX  23124 65518 32965 70000 10332 20182 39729 40085 83032 333 0//00 59014 83363 85076;
0195655180999992000042400004+11150-001150FM-12+0322DFCP V0209999C000010780019N0150001N1+02941+01921100711ADDAA199000091GA1071+078009019GF107991001001999999001021MA1999999097181MD1999999-0561REMSYN082AAXX  24004 65518 32965 70000 10294 20192 39718 40071 80002 333 0//00 59056 87076;EQDQ01  00002PRCP99
0208655180999992000042418004+11150-001150FM-12+0322DFCP V0200801N002110780019N0150001N1+03751+00681100351ADDAA199000091GA1071+078009019GF107991001001999999001021KA1120M+03961MA1999999096841MD1999999-0191REMSYN082AAXX  24184 65518 32965 70804 10375 20068 39684 40035 80002 333 10396 59019 87076;EQDQ01  00002PRCP99
0195655180999992000042500004+11150-001150FM-12+0322DFCP V0202401N003110780019N0150001N1+03091+00911100571ADDAA199000091GA1071+078009019GF107991001001999999001021MA1999999097071MD1999999-0111REMSYN082AAXX  25004 65518 32965 72406 10309 20091 39707 40057 80002 333 0//00 59011 87076;EQDQ01  00002PRCP99
0233655180999992000042506004+11150-001150FM-12+0322DFCP V0202201N002119999999N0150001N1+02771+02071100571ADDAA199000091GF107991001001999999001021IA2240+02609KA1120N+02771MA1999999097061MD1999999-0091OA150600361REMSYN100AAXX  25064 65518 32965 72204 10277 20207 39706 40057 80002 333 02600 20277 51104 55077 59009 87076;EQDQ01  00002PRCP99
0251655180999992000042512004+11150-001150FM-12+0322DFCP V0202201N00211007801CN0150001N1+03631+01991100681ADDAA199000091GA1021+006009069GA2031+007809089GA3051+078009009GF107991041081008001001021MA1999999097171MD1999999-0011REMSYN106AAXX  25124 65518 32565 72204 10363 20199 39717 40068 84802 333 0//00 59001 82620 83826 85076 94939 95838;EQDQ01  00002PRCP99
0195655180999992000042600004+11150-001150FM-12+0322DFCP V0202001N003110780019N0150001N1+03121+02101100611ADDAA199000091GA1071+078009019GF107991001001999999001021MA1999999097111MD1999999+0041REMSYN082AAXX  26004 65518 32965 72006 10312 20210 39711 40061 80002 333 0//00 58004 87076;EQDQ01  00002PRCP99
0233655180999992000042606004+11150-001150FM-12+0322DFCP V0202201N001019999999N0150001N1+02781+02151100681ADDAA199000091GF107991001001999999001021IA2240+02709KA1120N+02781MA1999999097161MD1999999+0101OA150600461REMSYN100AAXX  26064 65518 32965 72202 10278 20215 39716 40068 80002 333 02700 20278 51214 55096 58010 87076;EQDQ01  00002PRCP99
0201655180999992000042612004+11150-001150FM-12+0322DFCP V0202001N00211105001CN0150001N1+03681+01771100661ADDAA199000091GA1011+006009069GF107991011051008001001021MA1999999097161MD1999999-0011REMSYN088AAXX  26124 65518 32565 72004 10368 20177 39716 40066 81502 333 0//00 59001 81620 87076;EQDQ01  00002PRCP99
0214655180999992000042618004+11150-001150FM-12+0322DFCP V0209999C000019999999N0150001N1+03721+01621100391ADDAA199000091GA1011+039009039GF107991011001999999031021KA1120M+03901MA1999999096881MD1999999+0031REMSYN088AAXX  26184 65518 32965 70000 10372 20162 39688 40039 81032 333 10390 58003 81363 87076;EQDQ01  00002PRCP99
0195655180999992000042700004+11150-001150FM-12+0322DFCP V0202201N001010780019N0150001N1+03141+01681100561ADDAA199000091GA1071+078009019GF107991001001999999001021MA1999999097061MD1999999-0051REMSYN082AAXX  27004 65518 32965 72202 10314 20168 39706 40056 80002 333 0//00 59005 87076;EQDQ01  00002PRCP99
0195655180999992000042712004+11150-001150FM-12+0322DFCP V0201801N004110780019N0150001N1+03701+02031100641ADDAA199000091GA1071+078009019GF107991001001999999001021MA1999999097141MD1999999-0021REMSYN082AAXX  27124 65518 32965 71808 10370 20203 39714 40064 80002 333 0//00 59002 87076;EQDQ01  00002PRCP99
0214655180999992000042718004+11150-001150FM-12+0322DFCP V0209999C00001105001CN0150001N1+03901+01231100301ADDAA199000091GA1011+006009069GF107991011051008001001021KA1120M+04091MA1999999096811MD1999999-0071REMSYN088AAXX  27184 65518 32565 70000 10390 20123 39681 40030 81502 333 10409 59007 81620 87076;EQDQ01  00002PRCP99
0195655180999992000042800004+11150-001150FM-12+0322DFCP V0201801N003110780019N0150001N1+03301+01701100561ADDAA199000091GA1071+078009019GF107991001001999999001021MA1999999097081MD1999999+0021REMSYN082AAXX  28004 65518 32965 71806 10330 20170 39708 40056 80002 333 0//00 58002 87076;EQDQ01  00002PRCP99
0255655180999992000042806004+11150-001150FM-12+0322DFCP V0202201N003119999999N0150001N1+02871+02271100571ADDAA199000091GA1011+039009039GF107991011001999999071021IA2240+02809KA1120N+02851MA1999999097071MD1999999-0071OA150600511REMSYN106AAXX  28064 65518 32965 72206 10287 20227 39707 40057 81072 333 02800 20285 51134 55107 59007 81363 87076;EQDQ01  00002PRCP99
0201655180999992000042812004+11150-001150FM-12+0322DFCP V0202201N00101105001CN0150001N1+03681+02091100621ADDAA199000091GA1021+006009069GF107991021051008001001021MA1999999097141MD1999999+0001REMSYN088AAXX  28124 65518 32565 72202 10368 20209 39714 40062 82502 333 0//00 58000 82620 87076;EQDQ01  00002PRCP99
0223655180999992000042900004+11150-001150FM-12+0322DFCP V0202201N003110390019N0150001N1+02801+01891100671ADDAA199000091AY191061AY291061GA1071+039009079GF107991071001999999071999MA1999999097151MD1999999+0071MW1011REMSYN088AAXX  29004 65518 31965 72206 10280 20189 39715 40067 70199 8707/ 333 0//00 58007 87363;EQDQ01  00002PRCP99
0233655180999992000042906004+11150-001150FM-12+0322DFCP V0201801N002119999999N0150001N1+02501+02001100711ADDAA199000091GF107991001001999999001021IA2240+02809KA1120N+02501MA1999999097181MD1999999+0111OA150600511REMSYN100AAXX  29064 65518 32965 71804 10250 20200 39718 40071 80002 333 02800 20250 51194 55106 58011 87076;EQDQ01  00002PRCP99
0211655180999992000042912004+11150-001150FM-12+0322DFCP V0202201N003110780019N0150001N1+03351+01851100861ADDAA199000091GA1081+078009089GF108991999001999999001071MA1999999097311MD1999999+0171REMSYN082AAXX  29124 65518 32965 82206 10335 20185 39731 40086 80007 333 0//00 58017 88276;EQDQ01+000002SCOTLCQ02  00002PRCP99
0208655180999992000042918004+11150-001150FM-12+0322DFCP V0202601N002110780019N0150001N1+03431+01721100591ADDAA199000091GA1071+078009019GF107991001001999999001021KA1120M+03651MA1999999097041MD1999999+0281REMSYN082AAXX  29184 65518 32965 72604 10343 20172 39704 40059 80002 333 10365 58028 87076;EQDQ01  00002PRCP99
0211655180999992000043012004+11150-001150FM-12+0322DFCP V0202201N002110780019N0150001N1+03451+01981100801ADDAA199000091GA1071+078009089GF107991999001000251001061MA1999999097271MD1999999-0041REMSYN082AAXX  30124 65518 32065 72204 10345 20198 39727 40080 80006 333 0//00 59004 87276;EQDQ01+000002SCOTLCQ02  00002PRCP99
0214655180999992000043018004+11150-001150FM-12+0322DFCP V0209999C00001045001CN0150001N1+03461+01951100531ADDAA199000091GA1011+006009069GF107991011051008001031021KA1120M+03801MA1999999097001MD1999999-0041REMSYN088AAXX  30184 65518 32565 70000 10346 20195 39700 40053 81532 333 10380 59004 81620 87076;EQDQ01  00002PRCP99
0195655180999992000050100004+11150-001150FM-12+0322DFCP V0201801N002110780019N0150001N1+03041+01971100781ADDAA199000091GA1051+078009019GF105991001001999999001021MA1999999097261MD1999999-0081REMSYN082AAXX  01004 65518 32965 51804 10304 20197 39726 40078 80002 333 0//00 59008 85076;EQDQ01  00002PRCP99
0355655180999992000050106004+11150-001150FM-12+0322DFCP V0209999C00001078001CN0150001N1+02701+02011100811ADDAA199000091AY191061AY221061GA1011+006009069GA2011+009009099GA3031+039009039GA4051+078009009GF107991011091008001071021IA2240+02709KA1120N+02701MA1999999097271MD1999999-0161MW1171OA150600151REMSYN136AAXX  01064 65518 31565 70000 10270 20201 39727 40081 71792 81972 333 02700 20270 50744 55032 59016 81620 81930 83363 85076 94947 95837;EQDQ01  00002PRCP99
0229655180999992000050112004+11150-001150FM-12+0322DFCP V0202201N00311105001CN0150001N1+03481+02051100851ADDAA199000091AY191061AY221061GA1031+006009069GF107991031051008001001021MA1999999097321MD1999999+0051MW1031REMSYN094AAXX  01124 65518 31565 72206 10348 20205 39732 40085 70392 83502 333 0//00 58005 83620 87076;EQDQ01  00002PRCP99
0292655180999992000050118004+11150-001150FM-12+0322DFCP V0203201N002110390019N0150001N1+02961+02041100681ADDAA199000091AY191061AY221061GA1021+006009069GA2011+009009099GA3071+039009039GF107991021091008001071999KA1120M+03601MA1999999097121MD1999999+0121MW1171REMSYN112AAXX  01184 65518 31565 73204 10296 20204 39712 40068 71792 8297/ 333 10360 58012 82620 81930 87363 94946 95836;EQDQ01  00002PRCP99
0223655180999992000050200004+11150-001150FM-12+0322DFCP V0209999C000010780019N0150001N1+02811+02071100681ADDAA199000091AY191061AY221061GA1071+078009019GF107991001001999999001021MA1999999097151MD1999999-0111MW1011REMSYN088AAXX  02004 65518 31965 70000 10281 20207 39715 40068 70192 80002 333 0//00 59011 87076;EQDQ01  00002PRCP99
0255655180999992000050206004+11150-001150FM-12+0322DFCP V0202001N002119999999N0150001N1+02601+02061100731ADDAA199000091GA1011+039009039GF107991011001999999031021IA2240+02709KA1120N+02601MA1999999097161MD1999999-0111OA150600311REMSYN106AAXX  02064 65518 32965 72004 10260 20206 39716 40073 81032 333 02700 20260 50944 55066 59011 81363 87076;EQDQ01  00002PRCP99
0195655180999992000050212004+11150-001150FM-12+0322DFCP V0201801N003110780019N0150001N1+03601+01931100751ADDAA199000091GA1071+078009019GF107991001001999999001021MA1999999097221MD1999999-0101REMSYN082AAXX  02124 65518 32965 71806 10360 20193 39722 40075 80002 333 0//00 59010 87076;EQDQ01  00002PRCP99
0265655180999992000050218004+11150-001150FM-12+0322DFCP V0202201N001010780019N0150001N1+03721+01641100431ADDAA199000091GA1021+006009069GA2011+009009099GA3051+078009009GF107991041091008001001021KA1120M+03911MD1999999-0211REMSYN106AAXX  02184 65518 32565 72202 10372 20164 39631 40043 84902 333 10391 59021 82620 81930 85076 94948 95838;EQDQ01+096313APOSP Q02  00002PRCP99
0279655180999992000050300004+11150-001150FM-12+0322DFCP V0203201N00211009001CN0150001N1+02751+02001100811ADDAA199000091AY191061AY291061GA1021+006009069GA2031+009009099GA3051+078009009GF107991041091008001021021MA1999999097271MD1999999+0121MW1171REMSYN112AAXX  03004 65518 31565 73204 10275 20200 39727 40081 71799 84922 333 0//00 58012 82620 83930 85076 94959 95876;EQDQ01  00002PRCP99
0285655180999992000050312004+11150-001150FM-12+0322DFCP V0202601N002110390019N0150001N1+03001+01971100921ADDAA199000091AC13C9AY191061AY261061GA1011+006009069GA2011+009909099GA3051+039009039GF107991021091008001071021MA1999999097351MD1999999+0131MW1291REMSYN112AAXX  03124 65518 31565 72604 10300 20197 39735 40092 72996 82972 333 0//13 58013 81620 81933 85363 94946 95836;EQDQ01  00002PRCP99
0251655180999992000050318004+11150-001150FM-12+0322DFCP V0209999C000010780019N0150001N1+03201+02001100671ADDAA112007191GA1011+006009069GA2011+009909099GA3071+078009009GF107991011091008001001021KA1120M+03271MA1999999097071MD1999999+0161REMSYN112AAXX  03184 65518 12565 70000 10320 20200 39707 40067 60072 81902 333 10327 58016 81620 81933 87076 94941 95831;
0195655180999992000050412004+11150-001150FM-12+0322DFCP V0202601N002110780019N0150001N1+03251+02131100881ADDAA199000091GA1071+078009019GF107991001001999999001021MA1999999097321MD1999999-0031REMSYN082AAXX  04124 65518 32965 72604 10325 20213 39732 40088 80002 333 0//00 59003 87076;EQDQ01  00002PRCP99
0214655180999992000050418004+11150-001150FM-12+0322DFCP V0209999C000019999999N0150001N1+03341+02121100601ADDAA199000091GA1021+039009039GF107991021001999999031021KA1120M+03551MA1999999097041MD1999999-0031REMSYN088AAXX  04184 65518 32965 70000 10334 20212 39704 40060 82032 333 10355 59003 82363 87076;EQDQ01  00002PRCP99
0195655180999992000050500004+11150-001150FM-12+0322DFCP V0209999C000010780019N0150001N1+02931+02241100671ADDAA199000091GA1071+078009019GF107991001001999999001021MA1999999097131MD1999999-0271REMSYN082AAXX  05004 65518 32965 70000 10293 20224 39713 40067 80002 333 0//00 59027 87076;EQDQ01  00002PRCP99
0255655180999992000050506004+11150-001150FM-12+0322DFCP V0209999C000019999999N0150001N1+02621+02411100571ADDAA199000091GA1011+039009039GF107991011001999999031021IA2240+02409KA1120N+02621MA1999999097021MD1999999-0321OA150600361REMSYN106AAXX  05064 65518 32965 70000 10262 20241 39702 40057 81032 333 02400 20262 50634 55077 59032 81363 87076;EQDQ01  00002PRCP99
0195655180999992000050512004+11150-001150FM-12+0322DFCP V0202201N002110780019N0150001N1+03711+02111100521ADDAA199000091GA1071+078009019GF107991001001999999001021MA1999999097011MD1999999-0311REMSYN082AAXX  05124 65518 32965 72204 10371 20211 39701 40052 80002 333 0//00 59031 87076;EQDQ01  00002PRCP99
0214655180999992000050518004+11150-001150FM-12+0322DFCP V0209999C00001105001CN0150001N1+03841+01991100231ADDAA199000091GA1011+006009069GF107991011051008001001021KA1120M+04061MA1999999096731MD1999999-0311REMSYN088AAXX  05184 65518 32565 70000 10384 20199 39673 40023 81502 333 10406 59031 81620 87076;EQDQ01  00002PRCP99
0195655180999992000050600004+11150-001150FM-12+0322DFCP V0202001N001010780019N0150001N1+03251+02121100491ADDAA199000091GA1071+078009019GF107991001001999999001021MA1999999097011MD1999999-0121REMSYN082AAXX  06004 65518 32965 72002 10325 20212 39701 40049 80002 333 0//00 59012 87076;EQDQ01  00002PRCP99
0255655180999992000050606004+11150-001150FM-12+0322DFCP V0209999C000019999999N0150001N1+02841+02281100501ADDAA199000091GA1011+039009039GF107991011001999999031021IA2240+02609KA1120N+02801MA1999999097001MD1999999-0021OA150600511REMSYN106AAXX  06064 65518 32965 70000 10284 20228 39700 40050 81032 333 02600 20280 51124 55107 59002 81363 87076;EQDQ01  00002PRCP99
0201655180999992000050612004+11150-001150FM-12+0322DFCP V0209999C00001105001CN0150001N1+03711+02021100461ADDAA199000091GA1021+006009069GF107991021051008001001021MA1999999096971MD1999999-0041REMSYN088AAXX  06124 65518 32565 70000 10371 20202 39697 40046 82502 333 0//00 59004 82620 87076;EQDQ01  00002PRCP99
0201655180999992000050712004+11150-001150FM-12+0322DFCP V0200601N002119999999N0150001N1+03651+01891100591ADDAA199000091GA1021+039009039GF107991021001999999031021MA1999999097081MD1999999+0111REMSYN088AAXX  07124 65518 32965 70604 10365 20189 39708 40059 82032 333 0//00 58011 82363 87076;EQDQ01  00002PRCP99
0195655180999992000050800004+11150-001150FM-12+0322DFCP V0201801N002610780019N0150001N1+03101+02141100671ADDAA199000091GA1051+078009019GF105991001001999999001021MA1999999097161MD1999999+0181REMSYN082AAXX  08004 65518 32965 51805 10310 20214 39716 40067 80002 333 0//00 58018 85076;EQDQ01  00002PRCP99
0201655180999992000050812004+11150-001150FM-12+0322DFCP V0202201N00211105001CN0150001N1+03601+02081100841ADDAA199000091GA1041+006009069GF107991041051008001001021MA1999999097331MD1999999+0251REMSYN088AAXX  08124 65518 32565 72204 10360 20208 39733 40084 84502 333 0//00 58025 84620 87076;EQDQ01  00002PRCP99
0195655180999992000050900004+11150-001150FM-12+0322DFCP V0202201N001010780019N0150001N1+03111+02101100731ADDAA199000091GA1071+078009019GF107991001001999999001021MA1999999097221MD1999999+0061REMSYN082AAXX  09004 65518 32965 72202 10311 20210 39722 40073 80002 333 0//00 58006 87076;EQDQ01  00002PRCP99
0201655180999992000050912004+11150-001150FM-12+0322DFCP V0209999C00001105001CN0150001N1+03701+02121100721ADDAA199000091GA1011+006009069GF107991011051008001001021MA1999999097211MD1999999-0121REMSYN088AAXX  09124 65518 32565 70000 10370 20212 39721 40072 81502 333 0//00 59012 81620 87076;EQDQ01  00002PRCP99
0251655180999992000051000004+11150-001150FM-12+0322DFCP V0202001N002110780019N0150001N1+03141+01801100551ADDAA199000091GA1011+006009069GA2011+009009099GA3061+078009009GF107991011091008001001021MA1999999097051MD1999999-0171REMSYN106AAXX  10004 65518 31565 72004 10314 20180 39705 40055 81902 333 0//00 59017 81620 81930 86076 94946 95816;EQDQ01  00002PRCP99
0332655180999992000051006004+11150-001150FM-12+0322DFCP V0201801N00311078001CN0150001N1+02741+02021100771ADDAA124000791AC13C9AY191061AY261061GA1011+006009069GA2021+009009099GA3061+078009009GF107991021091008001031021IA2240+02709KA1120N+02741MA1999999097231MD1999999+0041MW1171OA150600511REMSYN142AAXX  10064 65518 11565 71806 10274 20202 39723 40077 69904 71796 82932 333 02713 20274 51104 55106 58004 81620 82930 86076 94942 94946 95872;
0216655180999992000051012004+11150-001150FM-12+0322DFCP V0201801N003119999999N0150001N1+03251+02061999999ADDAA106000591AC12I9AY191061AY261061GA1021+039009049GF107991021001999999011061MA1999999097291MD1999999+0081MW1011REMSYN094AAXX  10124 65518 11965 71806 10325 20206 39729 69941 70196 82016 333 0//56 58008 82463 86276;
0195655180999992000051100004+11150-001150FM-12+0322DFCP V0209999C000010780019N0150001N1+02961+02221100811ADDAA199000091GA1071+078009019GF107991001001999999001021MA1999999097271MD1999999+0221REMSYN082AAXX  11004 65518 32965 70000 10296 20222 39727 40081 80002 333 0//00 58022 87076;EQDQ01  00002PRCP99
0211655180999992000051112004+11150-001150FM-12+0322DFCP V0202201N003110780019N0150001N1+03601+01991100771ADDAA199000091GA1071+078009089GF107991999001999999001061MA1999999097261MD1999999-0031REMSYN082AAXX  11124 65518 32965 72206 10360 20199 39726 40077 80006 333 0//00 59003 87276;EQDQ01+000002SCOTLCQ02  00002PRCP99
0208655180999992000051118004+11150-001150FM-12+0322DFCP V0209999C000010780019N0150001N1+03651+01961100521ADDAA199000091GA1071+078009019GF107991001001999999001021KA1120M+03911MA1999999096991MD1999999-0041REMSYN082AAXX  11184 65518 32965 70000 10365 20196 39699 40052 80002 333 10391 59004 87076;EQDQ01  00002PRCP99
0233655180999992000051206004+11150-001150FM-12+0322DFCP V0202201N003119999999N0150001N1+02701+01911100781ADDAA199000091GF107991001001999999001021IA2240+02609KA1120N+02681MA1999999097251MD1999999+0001OA150600461REMSYN100AAXX  12064 65518 32965 72206 10270 20191 39725 40078 80002 333 02600 20268 50964 55098 58000 87076;EQDQ01  00002PRCP99
0227655180999992000051212004+11150-001150FM-12+0322DFCP V0202201N002110780019N0150001N1+03491+01841100801ADDAA199000091GA1081+078009089GF199999999001999999001061MA1999999097291MD1999999+0031REMSYN082AAXX  12124 65518 32965 72204 10349 20184 39729 40080 80006 333 0//00 58003 88276;EQDQ01+000072SCOTCVQ02+000002SCOTLCQ03  00002PRCP99
0214655180999992000051218004+11150-001150FM-12+0322DFCP V0202201N001019999999N0150001N1+03501+01781100571ADDAA199000091GA1011+039009039GF107991011001999999031021KA1120M+03651MA1999999097041MD1999999+0051REMSYN088AAXX  12184 65518 32965 72202 10350 20178 39704 40057 81032 333 10365 58005 81363 87076;EQDQ01  00002PRCP99
0242655180999992000051718004+11150-001150FM-12+0322DFCP V0209999C000010780019N0150001N1+03701+02051100521ADDAA199000091GA1011+009009099GA2071+078009009GF107991011091008001001021KA1120M+03911MA1999999097001MD1999999-0151REMSYN100AAXX  17184 65518 32565 70000 10370 20205 39700 40052 81902 333 10391 59015 81930 87076 94941 95831;EQDQ01  00002PRCP99
0195655180999992000051812004+11150-001150FM-12+0322DFCP V0209999C000010780019N0150001N1+03541+02141100741ADDAA199000091GA1071+078009019GF107991001001999999001021MA1999999097231MD1999999-0111REMSYN082AAXX  18124 65518 32965 70000 10354 20214 39723 40074 80002 333 0//00 59011 87076;EQDQ01  00002PRCP99
0292655180999992000051818004+11150-001150FM-12+0322DFCP V0209999C000010780019N0150001N1+03561+02051100521ADDAA199000091AY191061AY291061GA1011+006009069GA2011+009909099GA3071+078009009GF107991011091008001001021KA1120M+03981MA1999999096991MD1999999-0011MW1171REMSYN112AAXX  18184 65518 31565 70000 10356 20205 39699 40052 71799 81902 333 10398 59001 81620 81933 87076 94941 95831;EQDQ01  00002PRCP99
0217655180999992000051900004+11150-001150FM-12+0322DFCP V0209999C000010780019N0150001N1+03051+02101100681ADDAA199000091AY191061AY221061GA1071+078009019GF107991999999999999999999MA1999999097171MD1999999-0051MW1011REMSYN082AAXX  19004 65518 31965 70000 10305 20210 39717 40068 70192 333 0//00 59005 87076;EQDQ01  00002PRCP99
0236655180999992000051906004+11150-001150FM-12+0322DFCP V0201801N003119999999N0150001N1+02801+02171100751ADDAA199000091GA1011+039009039GF105991011001999999031021IA2240+02609MA1999999097231MD1999999+0021OA150600511REMSYN100AAXX  19064 65518 32965 51806 10280 20217 39723 40075 81032 333 02600 50964 55101 58002 81363 87076;EQDQ01  00002PRCP99
0201655180999992000051912004+11150-001150FM-12+0322DFCP V0202201N001012200019N0150001N1+03601+02171100731ADDAA199000091GA1011+007809069GF103991011051008001001021MA1999999097221MD1999999-0011REMSYN088AAXX  19124 65518 32565 32202 10360 20217 39722 40073 81502 333 0//00 59001 81626 83076;EQDQ01  00002PRCP99
0248655180999992000051918004+11150-001150FM-12+0322DFCP V0201801N001010780019N0150001N1+03581+02001100441ADDAA199000091GA1011+009009099GA2051+078009009GF105991011091008001001021KA1120M+03801MA1999999096921MD1999999-0071REMSYN106AAXX  19184 65518 32565 51802 10358 20200 39692 40044 81902 333 10380 59007 81930 85076 94941 94942 95812;EQDQ01  00002PRCP99
0214655180999992000052018004+11150-001150FM-12+0322DFCP V0209999C00001105001CN0150001N1+03451+02151100541ADDAA199000091GA1011+006009069GF107991011051008001001021KA1120M+03701MA1999999097001MD1999999+0081REMSYN088AAXX  20184 65518 32565 70000 10345 20215 39700 40054 81502 333 10370 58008 81620 87076;EQDQ01  00002PRCP99
0257655180999992000052100004+11150-001150FM-12+0322DFCP V0202201N003110390019N0150001N1+02651+02131100761ADDAA199000091AY191061AY221061GA1011+012009099GA2051+039009039GF107991011091008001071021MA1999999097221MD1999999+0101MW1171REMSYN106AAXX  21004 65518 31565 72206 10265 20213 39722 40076 71792 81972 333 0//00 58010 81940 85363 94948 95838;EQDQ01  00002PRCP99
0272655180999992000052112004+11150-001150FM-12+0322DFCP V0209999C000010390019N0150001N1+03131+02011100871ADDAA106000791AC13C9AY191061AY261061GA1011+006009069GA2021+009009099GA3061+039009039GF107991021091008001071021MA1999999097301MD1999999+0061MW1011REMSYN118AAXX  21124 65518 11565 70000 10313 20201 39730 40087 69901 70196 82972 333 0//53 58006 81620 82930 86363 94955 95875;
0279655180999992000052118004+11150-001150FM-12+0322DFCP V0209999C000010780019N0150001N1+02951+02241100671ADDAA112000791AY191061AY291061GA1011+006009069GA2021+009009099GA3061+078009009GF107991021091008001001021KA1120M+03201MA1999999097111MD1999999+0111MW1171REMSYN118AAXX  21184 65518 11565 70000 10295 20224 39711 40067 69902 71799 82902 333 10320 58011 81620 82930 86076 94948 95838;
0311655180999992000052206004+11150-001150FM-12+0322DFCP V0201401N00311039001CN0150001N1+02431+02131101221ADDAA124000791GA1011+006009069GA2021+009009099GA3061+039009039GF107991021091999999071021IA2240+02409KA1120N+02401MA1999999097621MD1999999+0411OA150699999REMSYN130AAXX  22064 65518 12965 71406 10243 20213 39762 40122 69904 82972 333 02459 20240 51394 55003 58041 81620 82930 86363 94943 95833;EQDQ01  00002WGOSPD
0222655180999992000052212004+11150-001150FM-12+0322DFCP V0203201N003119999999N0150001N1+02921+02061101111ADDAA106003091AC12I9AY161061AY221061GA1041+039009039GF107991041001999999031021MA1999999097521MD1999999+0221MW1011REMSYN100AAXX  22124 65518 11965 73206 10292 20206 39752 40111 60031 70162 84032 333 0//56 58022 84363 85076;
0201655180999992000052218004+11150-001150FM-12+0322DFCP V0201801N002119999999N0150001N1+03181+02031100881ADDAA112003091GA1011+039009039GF107991011001999999031021KA1120M+03451MA1999999097301MD1999999+0191REMSYN094AAXX  22184 65518 12965 71804 10318 20203 39730 40088 60032 81032 333 10345 58019 81363 87076;
0201655180999992000052300004+11150-001150FM-12+0322DFCP V0209999C000019999999N0150001N1+02651+02171101201ADDAA199000091GA1011+039009039GF107991011001999999031021MA1999999097611MD1999999+0151REMSYN088AAXX  23004 65518 32965 70000 10265 20217 39761 40120 81032 333 0//00 58015 81363 87076;EQDQ01  00002PRCP99
0201655180999992000052312004+11150-001150FM-12+0322DFCP V0203201N00311105001CN0150001N1+03451+02081101081ADDAA199000091GA1011+006009069GF107991011051008001001021MA1999999097531MD1999999+0011REMSYN088AAXX  23124 65518 32565 73206 10345 20208 39753 40108 81502 333 0//00 58001 81620 87076;EQDQ01  00002PRCP99
0208655180999992000052318004+11150-001150FM-12+0322DFCP V0202201N001010780019N0150001N1+99999+99999100741ADDAA199000091GA1071+078009019GF107991001001999999001021KA1120M+03661MA1999999097181MD1999999-0121REMSYN082AAXX  23184 65518 32965 72202 10342 21515 39718 40074 80002 333 10366 59012 87076;EQDQ01  00002PRCP99
0204655180999992000052412004+11150-001150FM-12+0322DFCP V0209999999999039001CN0200001N1+02761+02051101121ADDAA106000191AC10I9AY191061AY261061GA1011+009009099GA2081+039009039MA1999999097551MW1171REMSYN106AAXX  24124 65518 11970 ///// 10276 20205 39755 40112 69921 71796 8197/ 333 0//54 81930 88363 94946 95836;
0229655180999992000052418004+11150-001150FM-12+0322DFCP V0201801N001010390019N0150001N1+02831+02351100961ADDAA112000191AY191061AY291061GA1061+039009039GF107991061001999999031021KA1120M+03061MA1999999097351MD1999999+0171MW1031REMSYN100AAXX  24184 65518 11965 71802 10283 20235 39735 40096 69922 70399 86032 333 10306 58017 86363 83076;
0195655180999992000052500004+11150-001150FM-12+0322DFCP V0209999C000010390019N0150001N1+02491+02291101251ADDAA199000091GA1071+039009079GF107991071001999999071999MA1999999097641MD1999999+0241REMSYN082AAXX  25004 65518 32965 70000 10249 20229 39764 40125 8707/ 333 0//00 58024 87363;EQDQ01  00002PRCP99
0261655180999992000052506004+11150-001150FM-12+0322DFCP V0202001N001019999999N0150001N1+02311+02241101101ADDAA124000191GA1011+039009039GF107991011001999999031021IA2240+02109KA1120N+02301MA1999999097491MD1999999-0011OA150699999REMSYN112AAXX  25064 65518 12965 72002 10231 20224 39749 40110 69924 81032 333 02159 20230 50494 55000 59001 81363 87076;EQDQ01  00002WGOSPD
0201655180999992000052512004+11150-001150FM-12+0322DFCP V0201801N001010390019N0150001N1+03171+01981101131ADDAA199000091GA1051+039009039GF107991051001999999031021MA1999999097551MD1999999+0001REMSYN088AAXX  25124 65518 32965 71802 10317 20198 39755 40113 85032 333 0//00 58000 85363 83076;EQDQ01  00002PRCP99
0208655180999992000052518004+11150-001150FM-12+0322DFCP V0209999C000010780019N0150001N1+03231+02061100871ADDAA199000091GA1071+078009019GF107991001001999999001021KA1120M+03451MA1999999097291MD1999999-0061REMSYN082AAXX  25184 65518 32965 70000 10323 20206 39729 40087 80002 333 10345 59006 87076;EQDQ01  00002PRCP99
0227655180999992000052600004+11150-001150FM-12+0322DFCP V0209999C000010780019N0150001N1+02771+02281101041ADDAA199000091GA1071+078009019GF107991001001999999001021MA1999999999999MD1999999-0161REMSYN082AAXX  26004 65518 32965 70000 10277 20228 38748 40104 80002 333 0//00 59016 87076;EQDQ01+087483APOSP Q02  00002PRCP99Q03 087483APOSP 
0201655180999992000052612004+11150-001150FM-12+0322DFCP V0202601N00311105001CN0150001N1+03441+02211100871ADDAA199000091GA1011+006009069GF107991011051008001001021MA1999999097331MD1999999-0221REMSYN088AAXX  26124 65518 32565 72606 10344 20221 39733 40087 81502 333 0//00 59022 81620 87076;EQDQ01  00002PRCP99
0257655180999992000052618004+11150-001150FM-12+0322DFCP V0202601N001010330019N0150001N1+02201+02111100901ADDAA112019191AY191061AY261061GA1011+009009099GA2081+033009049GF108991011091008001071999KA1120M+03611MA1999999097281MD1999999-0011MW1171REMSYN112AAXX  26184 65518 11565 82602 10220 20211 39728 40090 60192 71796 8197/ 333 10361 59001 81930 88461 94945 95875;
0210655180999992000052700004+11150-001150FM-12+0322DFCP V0209999C000010780019N0150001N1+02321+02251100911ADDAA106000591AY191061AY261061GA1071+078009019GF107991001001999999001021MA1999999097341MD1999999-0141MW1011REMSYN094AAXX  27004 65518 11965 70000 10232 20225 39734 40091 69941 70196 80002 333 0//00 59014 87076;
0220655180999992000052706004+11150-001150FM-12+0322DFCP V0202201N002119999999N0150001N1+02371+02121100961ADDAA124020191GF107991061001999999031021IA2240+02209KA1120N+02161MA1999999097321MD1999999-0071OA150600311REMSYN106AAXX  27064 65518 12965 72204 10237 20212 39732 40096 60204 86032 333 02259 20216 50974 55067 59007 86363;
0279655180999992000052718004+11150-001150FM-12+0322DFCP V0209999C000010390019N0150001N1+02671+02281100891ADDAA112001091AY191061AY261061GA1011+006009069GA2011+009009099GA3071+039009039GF107991021091008001071999KA1120M+03051MA1999999097281MD1999999+0001MW1171REMSYN118AAXX  27184 65518 11565 70000 10267 20228 39728 40089 60012 71796 8297/ 333 10305 58000 81620 81930 87363 94945 95835;
0195655180999992000052800004+11150-001150FM-12+0322DFCP V0202201N001019999999N0150001N1+02591+02261101001ADDAA199000091GA1011+039009079GF108991081001999999071999MA1999999097421MD1999999+0081REMSYN082AAXX  28004 65518 32965 82202 10259 20226 39742 40100 8807/ 333 0//00 58008 81363;EQDQ01  00002PRCP99
0201655180999992000052812004+11150-001150FM-12+0322DFCP V0202001N002119999999N0150001N1+03251+02131100931ADDAA199000091GA1031+039009039GF105991031001999999031021MA1999999097361MD1999999+0051REMSYN088AAXX  28124 65518 32965 52004 10325 20213 39736 40093 83032 333 0//00 58005 83363 83076;EQDQ01  00002PRCP99
0208655180999992000052818004+11150-001150FM-12+0322DFCP V0202001N001010780019N0150001N1+03241+02101100741ADDAA199000091GA1071+078009019GF107991001001999999001021KA1120M+03451MA1999999097171MD1999999-0091REMSYN082AAXX  28184 65518 32965 72002 10324 20210 39717 40074 80002 333 10345 59009 87076;EQDQ01  00002PRCP99
0255655180999992000052906004+11150-001150FM-12+0322DFCP V0202201N002119999999N0150001N1+02571+02171100801ADDAA199000091GA1021+039009039GF107991021001999999031021IA2240+02309KA1120N+02551MA1999999097241MD1999999-0161OA150600461REMSYN106AAXX  29064 65518 32965 72204 10257 20217 39724 40080 82032 333 02300 20255 50814 55090 59016 82363 87076;EQDQ01  00002PRCP99
0222655180999992000052912004+11150-001150FM-12+0322DFCP V0200801N00511045001CN0150001N1+02861+02221101071ADDAA106000791AC11C9AY161061AY221061GA1021+006009069GF107991021051008001071999MA1999999097491MD1999999+0131MW1211REMSYN100AAXX  29124 65518 11565 70810 10286 20222 39749 40107 69901 72162 8257/ 333 0//51 58013 82620 87363;
0201655180999992000052918004+11150-001150FM-12+0322DFCP V0209999C000019999999N0150001N1+03211+02271100611ADDAA112000791GA1031+039009039GF107991031001999999031021KA1120M+03381MA1999999097061MD1999999-0111REMSYN094AAXX  29184 65518 12965 70000 10321 20227 39706 40061 69902 83032 333 10338 59011 83363 85076;
0220655180999992000053006004+11150-001150FM-12+0322DFCP V0209999C000019999999N0150001N1+02501+02211100761ADDAA124000791GF107991001001999999001021IA2240+02509KA1120N+02471MA1999999097191MD1999999-0051OA150600411REMSYN106AAXX  30064 65518 12965 70000 10250 20221 39719 40076 69904 80002 333 02559 20247 50504 55080 59005 87076;
0201655180999992000053012004+11150-001150FM-12+0322DFCP V0202201N00211105001CN0150001N1+03341+02221100771ADDAA199000091GA1021+006009069GF107991021051008001001021MA1999999097231MD1999999-0261REMSYN088AAXX  30124 65518 32565 72204 10334 20222 39723 40077 82502 333 0//00 59026 82620 87076;EQDQ01  00002PRCP99
0208655180999992000053018004+11150-001150FM-12+0322DFCP V0202201N002110780019N0150001N1+03451+02121100511ADDAA199000091GA1071+078009019GF107991001001999999001021KA1120M+03671MA1999999096971MD1999999-0091REMSYN082AAXX  30184 65518 32965 72204 10345 20212 39697 40051 80002 333 10367 59009 87076;EQDQ01  00002PRCP99
0326655180999992000053106004+11150-001150FM-12+0322DFCP V0200801N00311009001CN0100001N1+02261+02191100951ADDAA124010991AC11C9AY191061AY261061GA1031+006009069GA2031+009009099GA3081+039009039GF108991051091008001071999IA2240+02409KA1120N+02241MA1999999097381MD1999999+0191MW1951OA150600511REMSYN136AAXX  31064 65518 11560 80806 10226 20219 39738 40095 60114 79596 8597/ 333 02451 20224 51214 55109 58019 83620 83930 88363 94949 95836;
0235655180999992000053112004+11150-001150FM-12+0322DFCP V0202201N002110390019N0150001N1+02721+02231101041ADDAA106001091AC10I9AY191061AY261061GA1081+039009079GF199999081001999999071999MA1999999097431MD1999999+0091MW1011REMSYN094AAXX  31124 65518 11965 72204 10272 20223 39743 40104 60011 70196 8807/ 333 0//54 58009 88363;EQDQ01+000072SCOTCV
0201655180999992000053118004+11150-001150FM-12+0322DFCP V0209999C000019999999N0150001N1+02871+02121100731ADDAA112001091GA1011+039009039GF107991011001999999031021KA1120M+03001MA1999999097131MD1999999+0161REMSYN094AAXX  31184 65518 12965 70000 10287 20212 39713 40073 60012 81032 333 10300 58016 81363 87076;
0195655180999992000060100004+11150-001150FM-12+0322DFCP V0209999C000010780019N0150001N1+02371+02191101051ADDAA199000091GA1051+078009019GF105991001001999999001021MA1999999097441MD1999999+0281REMSYN082AAXX  01004 65518 32965 50000 10237 20219 39744 40105 80002 333 0//00 58028 85076;EQDQ01  00002PRCP99
0261655180999992000060106004+11150-001150FM-12+0322DFCP V0200801N002111050019N0150001N1+02301+02111101181ADDAA124001091GA1021+006009069GF105991021051008001001021IA2240+02109KA1120N+02241MA1999999097571MD1999999+0191OA150699999REMSYN112AAXX  01064 65518 12565 50804 10230 20211 39757 40118 60014 82502 333 02159 20224 50334 55034 58019 82620 85076;EQDQ01  00152WGOSPD
0201655180999992000060112004+11150-001150FM-12+0322DFCP V0202201N00211045001CN0150001N1+03161+02291101011ADDAA199000091GA1011+006009069GF107991021051008001031021MA1999999097421MD1999999-0011REMSYN088AAXX  01124 65518 32565 72204 10316 20229 39742 40101 82532 333 0//00 59001 81620 85363;EQDQ01  00002PRCP99
0195655180999992000060200004+11150-001150FM-12+0322DFCP V0209999C000010780019N0150001N1+02601+02421100971ADDAA199000091GA1071+078009019GF107991001001999999001021MA1999999097401MD1999999-0041REMSYN082AAXX  02004 65518 32965 70000 10260 20242 39740 40097 80002 333 0//00 59004 87076;EQDQ01  00002PRCP99
0201655180999992000060212004+11150-001150FM-12+0322DFCP V0202201N00211105001CN0150001N1+03331+02251101021ADDAA199000091GA1021+000609059GF107991021051008001001021MA1999999097461MD1999999+0041REMSYN088AAXX  02124 65518 32565 72204 10333 20225 39746 40102 82502 333 0//00 58004 82620 87076;EQDQ01  00002PRCP99
0195655180999992000060300004+11150-001150FM-12+0322DFCP V0209999C000010780019N0150001N1+02831+02221100801ADDAA199000091GA1071+078009019GF107991001001999999001021MA1999999097261MD1999999-0141REMSYN082AAXX  03004 65518 32965 70000 10283 20222 39726 40080 80002 333 0//00 59014 87076;EQDQ01  00002PRCP99
0201655180999992000060312004+11150-001150FM-12+0322DFCP V0202001N00311105001CN0150001N1+03371+02111100811ADDAA199000091GA1011+006009069GF105991011051008001001021MA1999999097271MD1999999-0191REMSYN088AAXX  03124 65518 32565 52006 10337 20211 39727 40081 81502 333 0//00 59019 81620 85076;EQDQ01  00002PRCP99
0257655180999992000060400004+11150-001150FM-12+0322DFCP V0201801N003110780019N0150001N1+02851+02311100781ADDAA199000091AY121061AY221061GA1011+009009099GA2071+078009009GF107991011091008001001021MA1999999097241MD1999999-0021MW1131REMSYN106AAXX  04004 65518 31565 71806 10285 20231 39724 40078 71322 81902 333 0//00 59002 81930 87076 94946 95816;EQDQ01  00002PRCP99
0201655180999992000060412004+11150-001150FM-12+0322DFCP V0202201N00211105001CN0150001N1+03391+02011100871ADDAA199000091GA1011+006009069GF107991011051008001001021MA1999999097331MD1999999+0061REMSYN088AAXX  04124 65518 32565 72204 10339 20201 39733 40087 81502 333 0//00 58006 81620 87076;EQDQ01  00002PRCP99
0195655180999992000060500004+11150-001150FM-12+0322DFCP V0202001N001010780019N0150001N1+02801+02281100951ADDAA199000091GA1071+078009019GF107991001001999999001021MA1999999097401MD1999999+0161REMSYN082AAXX  05004 65518 32965 72002 10280 20228 39740 40095 80002 333 0//00 58016 87076;EQDQ01  00002PRCP99
0233655180999992000060506004+11150-001150FM-12+0322DFCP V0202201N002119999999N0150001N1+02581+02281100971ADDAA199000091GF107991001001999999001021IA2240+02609KA1120N+02561MA1999999097411MD1999999+0231OA150600511REMSYN100AAXX  05064 65518 32965 72204 10258 20228 39741 40097 80002 333 02600 20256 50474 55107 58023 87076;EQDQ01  00002PRCP99
0220655180999992000060606004+11150-001150FM-12+0322DFCP V0201801N002110042019N0150001N1+02241+02141101111ADDAA124048091GF108991081061004501999999IA2240+02209KA1120N+02221MA1999999097461MD1999999+0051OA150600461REMSYN106AAXX  06064 65518 12465 81804 10224 20214 39746 40111 60484 886// 333 02259 20222 51324 55091 58005 88710;
0201655180999992000060612004+11150-001150FM-12+0322DFCP V0201801N00211045001CN0150001N1+02671+02161101291ADDAA199000091GA1011+006009069GF107991011051008001071021MA1999999097701MD1999999+0191REMSYN088AAXX  06124 65518 32565 71804 10267 20216 39770 40129 81572 333 0//00 58019 81620 86363;EQDQ01  00002PRCP99
0208655180999992000060618004+11150-001150FM-12+0322DFCP V0209999C000010390019N0150001N1+02801+02171101091ADDAA199000091GA1051+039009079GF106991051001999999031021KA1120M+02901MA1999999097471MD1999999-0271REMSYN082AAXX  06184 65518 32965 60000 10280 20217 39747 40109 85032 333 10290 59027 85363;EQDQ01  00002PRCP99
0257655180999992000060700004+11150-001150FM-12+0322DFCP V0201801N001012200019N0150001N1+02481+02281101261ADDAA199000091AY121061AY221061GA1011+009009099GA2031+078009009GF103991011091008001001021MA1999999097651MD1999999+0141MW1131REMSYN106AAXX  07004 65518 31565 31802 10248 20228 39765 40126 71322 81902 333 0//00 58014 81930 83076 94946 95816;EQDQ01  00002PRCP99
0255655180999992000060706004+11150-001150FM-12+0322DFCP V0201801N00101003901CN0150001N1+02401+02281101191ADDAA199000091GA1051+003909079GF107991051061004501031021IA2240+02209KA1120N+02351MA1999999097581MD1999999+0121OA150600211REMSYN106AAXX  07064 65518 32465 71802 10240 20228 39758 40119 85632 333 02200 20235 50324 55041 58012 85713 85076;EQDQ01  00002PRCP99
0201655180999992000060712004+11150-001150FM-12+0322DFCP V0200201N00101045001CN0150001N1+03001+02271101191ADDAA199000091GA1021+006009069GF107991021051008001031021MA1999999097591MD1999999-0071REMSYN088AAXX  07124 65518 32565 70202 10300 20227 39759 40119 82532 333 0//00 59007 82620 85363;EQDQ01  00002PRCP99
0214655180999992000060718004+11150-001150FM-12+0322DFCP V0209999C00001105001CN0150001N1+03041+02101100931ADDAA199000091GA1011+006009069GF107991011051008001001021KA1120M+03241MA1999999097341MD1999999-0131REMSYN088AAXX  07184 65518 32565 70000 10304 20210 39734 40093 81502 333 10324 59013 81620 87076;EQDQ01  00002PRCP99
0201655180999992000060800004+11150-001150FM-12+0322DFCP V0201801N002110390019N0150001N1+02641+02251101181ADDAA199000091GA1051+039009039GF107991051001999999071021MA1999999097591MD1999999-0061REMSYN088AAXX  08004 65518 32965 71804 10264 20225 39759 40118 85072 333 0//00 59006 85363 83076;EQDQ01  00002PRCP99
0255655180999992000060806004+11150-001150FM-12+0322DFCP V0201801N002119999999N0150001N1+02441+02311101191ADDAA199000091GA1011+039009039GF107991011001999999071021IA2240+02409KA1120N+02411MA1999999097601MD1999999+0021OA150600361REMSYN106AAXX  08064 65518 32965 71804 10244 20231 39760 40119 81072 333 02400 20241 50544 55079 58002 81363 87076;EQDQ01  00002PRCP99
0251655180999992000060812004+11150-001150FM-12+0322DFCP V0202001N00211007801CN0150001N1+03141+02141101221ADDAA199000091GA1021+006009069GA2031+007809089GA3051+078009009GF107991041081008001001021MA1999999097651MD1999999+0061REMSYN106AAXX  08124 65518 32565 72004 10314 20214 39765 40122 84802 333 0//00 58006 82620 83826 85076 94919 95836;EQDQ01  00002PRCP99
0242655180999992000060818004+11150-001150FM-12+0322DFCP V0209999C000010780019N0150001N1+03271+02171100951ADDAA199000091GA1011+006009069GA2071+078009009GF107991011081008001031021KA1120M+03441MA1999999097381MD1999999+0081REMSYN100AAXX  08184 65518 32565 70000 10327 20217 39738 40095 81832 333 10344 58008 81620 87076 94906 95836;EQDQ01  00002PRCP99
0195655180999992000060900004+11150-001150FM-12+0322DFCP V0209999C000010780019N0150001N1+02761+02211101181ADDAA199000091GA1051+078009019GF105991001001999999001021MA1999999097611MD1999999+0021REMSYN082AAXX  09004 65518 32965 50000 10276 20221 39761 40118 80002 333 0//00 58002 85076;EQDQ01  00002PRCP99
0233655180999992000060906004+11150-001150FM-12+0322DFCP V0209999C000019999999N0150001N1+02501+02251101151ADDAA199000091GF107991001001999999001021IA2240+02409KA1120N+02481MA1999999097581MD1999999-0021OA150600461REMSYN100AAXX  09064 65518 32965 70000 10250 20225 39758 40115 80002 333 02400 20248 50724 55093 59002 87076;EQDQ01  00002PRCP99
0201655180999992000060912004+11150-001150FM-12+0322DFCP V0203201N002112200019N0150001N1+03401+02181101121ADDAA199000091GA1011+006009069GF103991011051008001001021MA1999999097571MD1999999-0081REMSYN088AAXX  09124 65518 32565 33204 10340 20218 39757 40112 81502 333 0//00 59008 81620 83076;EQDQ01  00002PRCP99
0235655180999992000060918004+11150-001150FM-12+0322DFCP V0201801N002110450019N0150001N1+02601+02081100971ADDAA112001091AY191061AY261061GA1011+009009099GF107991011091008001071021KA1120M+03641MA1999999097361MD1999999-0021MW1171REMSYN106AAXX  09184 65518 11565 71804 10260 20208 39736 40097 60012 71796 81972 333 10364 59002 81930 94946 95836;
0229655180999992000061000004+11150-001150FM-12+0322DFCP V0202001N001019999999N0150001N1+02391+02151101161ADDAA199000091AY191061AY221061GA1031+039009039GF107991031001999999071021MA1999999097581MD1999999-0031MW1011REMSYN094AAXX  10004 65518 31965 72002 10239 20215 39758 40116 70192 83072 333 0//00 59003 83363 85076;EQDQ01  00002PRCP99
0195655180999992000061012004+11150-001150FM-12+0322DFCP V0201801N003110780019N0150001N1+03351+02121101051ADDAA199000091GA1071+078009019GF107991001001999999001021MA1999999097471MD1999999-0101REMSYN082AAXX  10124 65518 32965 71806 10335 20212 39747 40105 80002 333 0//00 59010 87076;EQDQ01  00002PRCP99
0208655180999992000061018004+11150-001150FM-12+0322DFCP V0201801N002110780019N0150001N1+03191+02281100901ADDAA199000091GA1071+078009019GF107991001001999999001021KA1120M+03491MA1999999097311MD1999999-0051REMSYN082AAXX  10184 65518 32965 71804 10319 20228 39731 40090 80002 333 10349 59005 87076;EQDQ01  00002PRCP99
0195655180999992000061100004+11150-001150FM-12+0322DFCP V0202001N002110780019N0150001N1+02771+02391101101ADDAA199000091GA1071+078009019GF107991001001999999001021MA1999999097551MD1999999-0031REMSYN082AAXX  11004 65518 32965 72004 10277 20239 39755 40110 80002 333 0//00 59003 87076;EQDQ01  00002PRCP99
0233655180999992000061106004+11150-001150FM-12+0322DFCP V0201801N003119999999N0150001N1+02511+02291101101ADDAA199000091GF107991001001999999001021IA2240+02209KA1120N+02501MA1999999097521MD1999999+0031OA150600511REMSYN100AAXX  11064 65518 32965 71806 10251 20229 39752 40110 80002 333 02200 20250 50664 55109 58003 87076;EQDQ01  00002PRCP99
0272655180999992000061112004+11150-001150FM-12+0322DFCP V0202601N002110390019N0150001N1+02361+02011101221ADDAA106001091AC13C9AY191061AY261061GA1011+006009069GA2011+009009099GA3071+039009039GF107991011091008001071999MA1999999097611MD1999999+0141MW1171REMSYN118AAXX  11124 65518 11565 72604 10236 20201 39761 40122 60011 71796 8197/ 333 0//13 58014 81620 81930 87363 94946 95816;
0195655180999992000061118004+11150-001150FM-12+0322DFCP V0209999C000010780019N0150001N1+02661+02181100931ADDAA112001091GA1071+078009019GF107991001001999999001021KA1120M+02771MA1999999097331MD1999999+0021REMSYN088AAXX  11184 65518 11965 70000 10266 20218 39733 40093 60012 80002 333 10277 58002 87076;
0220655180999992000061206004+11150-001150FM-12+0322DFCP V0209999C000019999999N0150001N1+02261+02111101171ADDAA124001091GF107991001001999999001021IA2240+02109KA1120N+02231MA1999999095541MD1999999+0021OA150600001REMSYN106AAXX  12064 65518 12965 70000 10226 20211 39554 40117 60014 80002 333 02119 20223 50234 55008 58002 87076;
0245655180999992000061212004+11150-001150FM-12+0322DFCP V0201801N004110780019N0150001N1+03101+02241101141ADDAA199000091GA1011+006009069GA2071+078009009GF107991011081008001001021MA1999999097542MD1999999-0071REMSYN100AAXX  12124 65518 32565 71808 10310 20224 39754 40114 81802 333 0//00 59007 81620 87076 94904 95814;EQDQ01+097543APOSP Q02  00002PRCP99
0214655180999992000061218004+11150-001150FM-12+0322DFCP V0209999C00001105001CN0150001N1+03001+02251100951ADDAA199000091GA1011+006009069GF107991011051008001001021KA1120M+03301MA1999999097361MD1999999+0031REMSYN088AAXX  12184 65518 32565 70000 10300 20225 39736 40095 81502 333 10330 58003 81620 87076;EQDQ01  00002PRCP99
0257655180999992000061300004+11150-001150FM-12+0322DFCP V0209999C000010390019N0150001N1+02431+01811101271ADDAA199000091AY191061AY221061GA1011+009009099GA2071+039009039GF107991011091008001071999MA1999999097681MD1999999+0011MW1171REMSYN106AAXX  13004 65518 31565 70000 10243 20181 39768 40127 71792 8197/ 333 0//00 58001 81930 87363 94943 95813;EQDQ01  00002PRCP99
0283655180999992000061306004+11150-001150FM-12+0322DFCP V0202201N002119999999N0150001N1+02521+02121100951ADDAA199000091AY191061AY221061GA1031+039009039GF107991031001999999071021IA2240+02109KA1120N+02381MA1999999097361MD1999999-0161MW1021OA150600511REMSYN112AAXX  13064 65518 31965 72204 10252 20212 39736 40095 70292 83072 333 02100 20238 50674 55107 59016 83363 85076;EQDQ01  00002PRCP99
0195655180999992000061312004+11150-001150FM-12+0322DFCP V0202201N002110780019N0150001N1+03281+01981101031ADDAA199000091GA1071+078009019GF107991001001999999001021MA1999999097451MD1999999-0091REMSYN082AAXX  13124 65518 32965 72204 10328 20198 39745 40103 80002 333 0//00 59009 87076;EQDQ01  00002PRCP99
0208655180999992000061318004+11150-001150FM-12+0322DFCP V0209999C000010780019N0150001N1+03351+02031100781ADDAA199000091GA1071+078009019GF107991001001999999001021KA1120M+03601MA1999999097231MD1999999-0131REMSYN082AAXX  13184 65518 32965 70000 10335 20203 39723 40078 80002 333 10360 59013 87076;EQDQ01  00002PRCP99
0257655180999992000061400004+11140-001150FM-12+0322DFCP V0209999C000010780019N0150001N1+02811+02371101011ADDAA199000091AY121061AY221061GA1011+009009099GA2071+078009009GF107991011091008001031021MA1999999097461MD1999999-0221MW1131REMSYN106AAXX  14004 65518 31565 70000 10281 20237 39746 40101 71322 81932 333 0//00 59022 81930 87076 94941 95831;EQDQ01  00002PRCP99
0255655180999992000061406004+11140-001150FM-12+0322DFCP V0202201N002119999999N0150001N1+02541+02011100871ADDAA199000091GA1021+039009039GF107991021001999999071021IA2240+02209KA1120N+02491MA1999999097311MD1999999-0051OA150600511REMSYN106AAXX  14064 65518 32965 72204 10254 20201 39731 40087 82072 333 02200 20249 50824 55108 59005 82363 86076;EQDQ01  00002PRCP99
0272655180999992000061412004+11140-001150FM-12+0322DFCP V0200401N00211009001CN0150001N1+02151+02101101271ADDAA106022191AC12C9AY191061AY261061GA1021+006009069GA2031+009009099GA3081+039009039GF108991041091008001081999MA1999999097651MD1999999+0201MW1951REMSYN118AAXX  14124 65518 11565 80404 10215 20210 39765 40127 60221 79596 8498/ 333 0//32 58020 82620 83930 88363 94959 95870;
0201655180999992000061512004+11140-001150FM-12+0322DFCP V0201801N003112200019N0150001N1+02971+02191100911ADDAA199000091GA1011+039009039GF103991011001999999031021MA1999999097311MD1999999-0341REMSYN088AAXX  15124 65518 32965 31806 10297 20219 39731 40091 81032 333 0//00 59034 81363 83076;EQDQ01  00002PRCP99
0242655180999992000061518004+11140-001150FM-12+0322DFCP V0202001N002110780019N0150001N1+03051+02281100691ADDAA199000091GA1011+007809089GA2051+078009009GF105991011011008001001021KA1120M+03261MA1999999097101MD1999999-0271REMSYN100AAXX  15184 65518 32565 52004 10305 20228 39710 40069 81102 333 10326 59027 81826 85076 94908 95818;EQDQ01  00002PRCP99
0195655180999992000061600004+11140-001150FM-12+0322DFCP V0209999C000010780019N0150001N1+02591+02351100951ADDAA199000091GA1071+078009019GF107991001001999999001021MA1999999097371MD1999999+0041REMSYN082AAXX  16004 65518 32965 70000 10259 20235 39737 40095 80002 333 0//00 58004 87076;EQDQ01  00002PRCP99
0201655180999992000061612004+11140-001150FM-12+0322DFCP V0201801N00211105001CN0150001N1+03251+02281100761ADDAA199000091GA1021+006009069GF107991021051008001001021MA1999999097201MD1999999-0111REMSYN088AAXX  16124 65518 32565 71804 10325 20228 39720 40076 82502 333 0//00 59011 82620 87076;EQDQ01  00002PRCP99
0242655180999992000061618004+11140-001150FM-12+0322DFCP V0201801N001010780019N0150001N1+03191+02311100541ADDAA199000091GA1011+009009099GA2071+078009009GF107991011091008001001021KA1120M+03501MA1999999096981MD1999999-0121REMSYN100AAXX  16184 65518 32565 71802 10319 20231 39698 40054 81902 333 10350 59012 81930 87076 94946 95836;EQDQ01  00002PRCP99
0255655180999992000061806004+11140-001150FM-12+0322DFCP V0209999C00001039001CN0150001N1+02421+02351101081ADDAA199000091GA1051+039009039GF107991051001999999071021IA2240+02009KA1120N+02421MA1999999097481MD1999999+0231OA150600211REMSYN106AAXX  18064 65518 32965 70000 10242 20235 39748 40108 85072 333 02000 20242 50324 55042 58023 85363 83076;EQDQ01  00002PRCP99
0229655180999992000061812004+11140-001150FM-12+0322DFCP V0201801N00101007801CN0150001N1+03081+02401101131ADDAA199000091GA1021+006009069GA2031+007809089GF107991041081008001031021MA1999999097551MD1999999+0131REMSYN100AAXX  18124 65518 32565 71802 10308 20240 39755 40113 84832 333 0//00 58013 82620 83826 94919 95834;EQDQ01  00002PRCP99
0276655180999992000061906004+11140-001150FM-12+0322DFCP V0209999C00001039001CN0150001N1+02171+02061101011ADDAA124013091AC10I9AY161061AY221061GA1051+039009039GF107991051001999999071021IA2240+02409KA1120N+02151MA1999999097401MD1999999+0081MW1011OA150600461REMSYN118AAXX  19064 65518 11965 70000 10217 20206 39740 40101 60134 70162 85072 333 02454 20215 50684 55095 58008 85363 83076;
0201655180999992000061912004+11140-001150FM-12+0322DFCP V0209999C000010390019N0150001N1+02901+02171100951ADDAA199000091GA1051+039009039GF107991051001999999071021MA1999999097341MD1999999-0211REMSYN088AAXX  19124 65518 32965 70000 10290 20217 39734 40095 85072 333 0//00 59021 85363 83076;EQDQ01  00002PRCP99
0195655180999992000062000004+11140-001150FM-12+0322DFCP V0209999C000010390019N0150001N1+02621+02421101081ADDAA199000091GA1051+039009079GF107991051001999999071021MA1999999097491MD1999999-0251REMSYN082AAXX  20004 65518 32965 70000 10262 20242 39749 40108 85072 333 0//00 59025 85363;EQDQ01  00002PRCP99
0234655180999992000062006004+11140-001150FM-12+0322DFCP V0209999C000019999999N0150001N1+02411+02321101011ADDAA199000091GA1011+039009039GF107991011001999999071021IA2240+02109KA1120N+02391MD1999999+0021OA150600411REMSYN100AAXX  20064 65518 32965 70000 10241 20232 40101 81072 333 02100 20239 50414 55081 58002 81363 87076;EQDQ01  00002PRCP99
0229655180999992000062012004+11140-001150FM-12+0322DFCP V0202201N001010078019N0150001N1+03051+02261101041ADDAA199000091GA1031+006009069GA2031+007809089GF105991051081008001001021MA1999999097461MD1999999+0121REMSYN100AAXX  20124 65518 32565 52202 10305 20226 39746 40104 85802 333 0//00 58012 83620 83826 94919 95870;EQDQ01  00002PRCP99
0270655180999992000062018004+11140-001150FM-12+0322DFCP V0209999C000010780019N0150001N1+03151+02211100801ADDAA199000091AY191061AY211061GA1011+009009099GA2051+078009009GF105991011091008001001021KA1120M+03301MA1999999097221MD1999999+0011MW1171REMSYN106AAXX  20184 65518 32565 50000 10315 20221 39722 40080 71791 81902 333 10330 58001 81930 85076 94942 95832;EQDQ01  00002PRCP99
0254655180999992000062106004+11140-001150FM-12+0322DFCP V0201801N002119999999N0150001N1+02201+01921100981ADDAA124037191AC13C9AY191061AY261061GF108991081001999999071999IA2240+02409KA1120N+02071MA1999999097391MD1999999-0031MW1011OA150600571REMSYN112AAXX  21064 65518 11965 81804 10220 20192 39739 40098 60374 70196 8807/ 333 02453 20207 50954 55112 59003 88360;
0201655180999992000062112004+11140-001150FM-12+0322DFCP V0209999C000019999999N0150001N1+02921+02081101091ADDAA199000091GA1031+039009039GF107991031001999999071021MA1999999097491MD1999999+0031REMSYN088AAXX  21124 65518 32965 70000 10292 20208 39749 40109 83072 333 0//00 58003 83363 85076;EQDQ01  00002PRCP99
0208655180999992000062118004+11140-001150FM-12+0322DFCP V0209999C000010780019N0150001N1+03011+02131100791ADDAA199000091GA1071+078009019GF107991001001999999001021KA1120M+03201MA1999999097201MD1999999-0021REMSYN082AAXX  21184 65518 32965 70000 10301 20213 39720 40079 80002 333 10320 59002 87076;EQDQ01  00002PRCP99
0195655180999992000062200004+11140-001150FM-12+0322DFCP V0209999C000010390019N0150001N1+02511+02351101081ADDAA199000091GA1081+039009079GF108991081001999999071999MA1999999097481MD1999999-0241REMSYN082AAXX  22004 65518 32965 80000 10251 20235 39748 40108 8807/ 333 0//00 59024 88363;EQDQ01  00002PRCP99
0255655180999992000062206004+11140-001150FM-12+0322DFCP V0209999C000019999999N0150001N1+02341+01971101111ADDAA199000091GA1011+039009039GF107991011001999999071021IA2240+02109KA1120N+02311MA1999999097501MD1999999+0121OA150600361REMSYN106AAXX  22064 65518 32965 70000 10234 20197 39750 40111 81072 333 02100 20231 50424 55074 58012 81363 87076;EQDQ01  00002PRCP99
0195655180999992000062212004+11140-001150FM-12+0322DFCP V0202201N002110390019N0150001N1+02571+02101101281ADDAA199000091GA1081+039009079GF108991081001999999071999MA1999999097661MD1999999+0191REMSYN082AAXX  22124 65518 32965 82204 10257 20210 39766 40128 8807/ 333 0//00 58019 88363;EQDQ01  00002PRCP99
0214655180999992000062218004+11140-001150FM-12+0322DFCP V0209999C000019999999N0150001N1+02671+02121101041ADDAA199000091GA1021+039009039GF107991021001999999031021KA1120M+02821MA1999999097421MD1999999+0221REMSYN088AAXX  22184 65518 32965 70000 10267 20212 39742 40104 82032 333 10282 58022 82363 86076;EQDQ01  00002PRCP99
0216655180999992000062312004+11140-001150FM-12+0322DFCP V0209999C000010300019N0150001N1+02321+01991101481ADDAA106003091AC12C9AY161061AY221061GA1081+030009019GF108991081001999999071999MA1999999097831MD1999999+0171MW1211REMSYN094AAXX  23124 65518 11965 80000 10232 20199 39783 40148 60031 72162 8807/ 333 0//52 58017 88460;
0201655180999992000062318004+11140-001150FM-12+0322DFCP V0209999C00001045001CN0150001N1+02601+02271101131ADDAA112003091GA1011+006009069GF108991011051008001071999KA1120M+02661MA1999999097491MD1999999+0071REMSYN094AAXX  23184 65518 12565 80000 10260 20227 39749 40113 60032 8157/ 333 10266 58007 81620 88463;
0176655180999992000062400004+11140-001150FM-12+0322DFCP V0201801N002110780019N0150001N1+02261+02171101231ADDAA199000021GA1071+078009019GF107991001001999999001021MA1999999097581MD1999999-0221REMSYN082AAXX  24004 65518 32965 71804 10226 20217 39758 40123 80002 333 0//00 59022 87076;
0201655180999992000062412004+11140-001150FM-12+0322DFCP V0201801N00211105001CN0150001N1+02901+02251101201ADDAA199000091GA1011+006009069GF105991011051008001031021MA1999999097591MD1999999-0231REMSYN088AAXX  24124 65518 32565 51804 10290 20225 39759 40120 81532 333 0//00 59023 81620 85076;EQDQ01  00002PRCP99
0271655180999992000062506004+11140-001150FM-12+0322DFCP V0209999C000019999999N0150001N1+02351+02201101091ADDAA199000091GA1011+039009039GF107991011001999999031021IA2240+02009KA1120N+99999MA1999999097491MD1999999-0071OA150600511REMSYN106AAXX  25064 65518 32965 70000 10235 20220 39749 40109 81032 333 02000 20245 50534 55103 59007 81363 87076;EQDQ01  00002PRCP99Q02 +02452ATMN  
0229655180999992000062512004+11140-001150FM-12+0322DFCP V0202601N002110078019N0150001N1+03131+02221101091ADDAA199000091GA1021+006009069GA2041+007809089GF106991051081008001001021MA1999999097511MD1999999-0081REMSYN100AAXX  25124 65518 32565 62604 10313 20222 39751 40109 85802 333 0//00 59008 82620 84826 94919 95832;EQDQ01  00002PRCP99
0264655180999992000062518004+11140-001150FM-12+0322DFCP V0209999C000010780019N0150001N1+03111+02271100781ADDAA199000091GA1011+006009069GA2011+009009099GA3051+078009009GF107991011091008001031021KA1120M+03381MA1999999097201MD1999999-0141REMSYN106AAXX  25184 65518 32565 70000 10311 20227 39720 40078 81932 333 10338 59014 81620 81930 85076 94947 95817;EQDQ01  00002PRCP99
0254655180999992000062606004+11140-001150FM-12+0322DFCP V0209999C000019999999N0150001N1+02051+01941101161ADDAA124004191AC13C9AY191061AY261061GF108991081001999999071999IA2240+02309KA1120N+02031MA1999999097551MD1999999+0061MW1011OA150600511REMSYN112AAXX  26064 65518 11965 80000 10205 20194 39755 40116 60044 70196 8807/ 333 02353 20203 50854 55102 58006 88463;
0195655180999992000062612004+11140-001150FM-12+0322DFCP V0209999C000010390019N0150001N1+02571+02061101391ADDAA199000091GA1061+039009079GF107991061001999999071999MA1999999097741MD1999999+0231REMSYN082AAXX  26124 65518 32965 70000 10257 20206 39774 40139 8607/ 333 0//00 58023 86363;EQDQ01  00002PRCP99
0214655180999992000062618004+11140-001150FM-12+0322DFCP V0209999C000019999999N0150001N1+02701+02241101111ADDAA199000091GA1011+039009039GF105991011001999999031021KA1120M+02781MA1999999097481MD1999999+0281REMSYN088AAXX  26184 65518 32965 50000 10270 20224 39748 40111 81032 333 10278 58028 81363 85076;EQDQ01  00002PRCP99
0201655180999992000062712004+11140-001150FM-12+0322DFCP V0201801N00101105001CN0150001N1+03051+02231101231ADDAA199000091GA1031+006009069GF107991031051008001001021MA1999999097621MD1999999-0121REMSYN088AAXX  27124 65518 32565 71802 10305 20223 39762 40123 83502 333 0//00 59012 83620 85076;EQDQ01  00002PRCP99
0248655180999992000062806004+11140-001150FM-12+0322DFCP V0202601N003119999999N0150001N1+02281+02121100991ADDAA124003091AC10I9GA1011+039009039GF107991011001999999071021IA2240+02109KA1120N+02221MA1999999097391MD1999999-0161OA150600571REMSYN112AAXX  28064 65518 12965 72606 10228 20212 39739 40099 60034 81072 333 02154 20222 50584 55112 59016 81363 87076;
0201655180999992000062812004+11140-001150FM-12+0322DFCP V0202601N00101105001CN0150001N1+03211+02251101081ADDAA199000091GA1011+006009069GF107991011051008001001021MA1999999097491MD1999999-0131REMSYN088AAXX  28124 65518 32565 72602 10321 20225 39749 40108 81502 333 0//00 59013 81620 87076;EQDQ01  00002PRCP99
0195655180999992000062900004+11140-001150FM-12+0322DFCP V0202201N002110780019N0150001N1+02601+02311100991ADDAA199000091GA1071+078009019GF107991001001999999001021MA1999999097431MD1999999-0171REMSYN082AAXX  29004 65518 32965 72204 10260 20231 39743 40099 80002 333 0//00 59017 87076;EQDQ01  00002PRCP99
0255655180999992000062906004+11140-001150FM-12+0322DFCP V0209999C000019999999N0150001N1+02441+02081100891ADDAA199000091GA1031+039009039GF107991031001999999071021IA2240+02209KA1120N+02411MA1999999097311MD1999999-0081OA150600511REMSYN106AAXX  29064 65518 32965 70000 10244 20208 39731 40089 83072 333 02200 20241 50714 55109 59008 83363 85076;EQDQ01  00002PRCP99
0201655180999992000062912004+11140-001150FM-12+0322DFCP V0202201N002119999999N0150001N1+03221+02251100961ADDAA199000091GA1011+006009069GF107991011051999999001021MA1999999097391MD1999999-0101REMSYN088AAXX  29124 65518 32965 72204 10322 20225 39739 40096 81502 333 0//00 59010 81620 87076;EQDQ01  00002PRCP99
0208655180999992000062918004+11140-001150FM-12+0322DFCP V0209999C000010780019N0150001N1+03141+02381100731ADDAA199000091GA1071+078009019GF107991001001999999001021KA1120M+03381MA1999999097161MD1999999-0121REMSYN082AAXX  29184 65518 32965 70000 10314 20238 39716 40073 80002 333 10338 59012 87076;EQDQ01  00002PRCP99
0195655180999992000063000004+11140-001150FM-12+0322DFCP V0202001N002110780019N0150001N1+02651+02291100911ADDAA199000091GA1071+078009019GF107991001001999999001021MA1999999097351MD1999999-0081REMSYN082AAXX  30004 65518 32965 72004 10265 20229 39735 40091 80002 333 0//00 59008 87076;EQDQ01  00002PRCP99
0222655180999992000063012004+11140-001150FM-12+0322DFCP V0200201N006210048019N0150001N1+02221+01961101201ADDAA106001091AC12C9AY191061AY261061GA1051+004809069GF108991051051004501071999MA1999999097571MD1999999+0181MW1031REMSYN100AAXX  30124 65518 11465 80212 10222 20196 39757 40120 60011 70396 8557/ 333 0//52 58018 85616 88463;
0223655180999992000063018004+11140-001150FM-12+0322DFCP V0201801N002110108019N0150001N1+02371+02021100711ADDAA112001091AY161061AY221061GA1081+010809019GF108991081001999999071999KA1120M+02521MA1999999097091MD1999999-0071MW1021REMSYN094AAXX  30184 65518 11965 81804 10237 20202 39709 40071 60012 70262 8807/ 333 10252 59007 88436;
0195655180999992000070100004+11140-001150FM-12+0322DFCP V0209999C000012200019N0150001N1+02131+02081101051ADDAA199000091GA1031+078009019GF103991001001999999001021MA1999999097391MD1999999+0041REMSYN082AAXX  01004 65518 32965 30000 10213 20208 39739 40105 80002 333 0//00 58004 83076;EQDQ01  00002PRCP99
0242655180999992000070106004+11140-001150FM-12+0322DFCP V0209999C000019999999N0150001N1+02171+02111100951ADDAA124001091GA1031+039009039GF107991031001999999031021IA2240+02109KA1120N+02101MA1999999097301MD1999999-0051OA150600001REMSYN112AAXX  01064 65518 12965 70000 10217 20211 39730 40095 60014 83032 333 02159 20210 50164 55000 59005 83363 85076;
0229655180999992000070112004+11140-001150FM-12+0322DFCP V0202001N003110078019N0150001N1+02821+02131101031ADDAA199000091GA1021+006009069GA2051+007809089GF106991051081008001001021MA1999999097411MD1999999-0161REMSYN100AAXX  01124 65518 32565 62006 10282 20213 39741 40103 85802 333 0//00 59016 82620 85826 94919 95834;EQDQ01  00002PRCP99
0208655180999992000070118004+11140-001150FM-12+0322DFCP V0201801N001010780019N0150001N1+02761+02241100861ADDAA199000091GA1051+078009019GF105991001001999999001021KA1120M+03041MA1999999097241MD1999999+0151REMSYN082AAXX  01184 65518 32965 51802 10276 20224 39724 40086 80002 333 10304 58015 85076;EQDQ01  00002PRCP99
0195655180999992000070200004+11140-001150FM-12+0322DFCP V0209999C000010780019N0150001N1+02331+02131101071ADDAA199000091GA1051+078009019GF105991001001999999001021MA1999999097461MD1999999+0071REMSYN082AAXX  02004 65518 32965 50000 10233 20213 39746 40107 80002 333 0//00 58007 85076;EQDQ01  00002PRCP99
0233655180999992000070206004+11140-001150FM-12+0322DFCP V0209999C000019999999N0150001N1+02241+02141100951ADDAA199000091GF107991001001999999001021IA2240+02109KA1120N+02241MA1999999097341MD1999999+0071OA150600411REMSYN100AAXX  02064 65518 32965 70000 10224 20214 39734 40095 80002 333 02100 20224 50424 55082 58007 87076;EQDQ01  00002PRCP99
0229655180999992000070212004+11140-001150FM-12+0322DFCP V0202201N003110078019N0150001N1+03101+02161101071ADDAA199000091GA1031+006009069GA2041+007809089GF106991051081008001001021MA1999999097471MD1999999+0061REMSYN100AAXX  02124 65518 32565 62206 10310 20216 39747 40107 85802 333 0//00 58006 83620 84826 94969 95838;EQDQ01  00002PRCP99
0214655180999992000070218004+11140-001150FM-12+0322DFCP V0209999C00001105001CN0150001N1+03051+02101100801ADDAA199000091GA1011+006009069GF106991011051008001001021KA1120M+03251MA1999999097211MD1999999-0031REMSYN088AAXX  02184 65518 32565 60000 10305 20210 39721 40080 81502 333 10325 59003 81620 87076;EQDQ01  00002PRCP99
0195655180999992000070300004+11140-001150FM-12+0322DFCP V0201801N001010780019N0150001N1+02541+02261101001ADDAA199000091GA1071+078009019GF107991001001999999001021MA1999999097421MD1999999-0041REMSYN082AAXX  03004 65518 32965 71802 10254 20226 39742 40100 80002 333 0//00 59004 87076;EQDQ01  00002PRCP99
0255655180999992000070306004+11140-001150FM-12+0322DFCP V0209999C000019999999N0150001N1+03361+02171100861ADDAA199000091GA1031+039009039GF107991031001999999071021IA2240+02209KA1120N+02361MA1999999097271MD1999999-0071OA150600511REMSYN106AAXX  03064 65518 32965 70000 10336 20217 39727 40086 83072 333 02200 20236 50564 55103 59007 83363 85076;EQDQ01  00002PRCP99
0201655180999992000070312004+11140-001150FM-12+0322DFCP V0202201N00211045001CN0150001N1+03111+02141100861ADDAA199000091GA1011+006009069GF107991011051008001031021MA1999999097291MD1999999-0181REMSYN088AAXX  03124 65518 32565 72204 10311 20214 39729 40086 81532 333 0//00 59018 81620 87076;EQDQ01  00002PRCP99
0214655180999992000070318004+11140-001150FM-12+0322DFCP V0209999C00001045001CN0150001N1+03061+02291100691ADDAA199000091GA1011+006009069GF108991011051008001071999KA1120M+03311MA1999999097111MD1999999-0101REMSYN088AAXX  03184 65518 32565 80000 10306 20229 39711 40069 8157/ 333 10331 59010 81620 88363;EQDQ01  00002PRCP99
0195655180999992000070400004+11140-001150FM-12+0322DFCP V0201801N004110390019N0150001N1+02621+02361100891ADDAA199000091GA1081+039009079GF108991081001999999071999MA1999999097321MD1999999-0101REMSYN082AAXX  04004 65518 32965 81808 10262 20236 39732 40089 8807/ 333 0//00 59010 88363;EQDQ01  00002PRCP99
0345655180999992000070406004+11140-001150FM-12+0322DFCP V0201801N00411039001CN0150001N1+02441+02311100871ADDAA124000791AC12C9AY191061AY261061GA1031+004809069GA2011+009009099GA3081+039009039GF108991031091004501071999IA2240+02309KA1120N+02401MA1999999097291MD1999999+0021MW1171OA150699999REMSYN136AAXX  04064 65518 11465 81808 10244 20231 39729 40087 69904 71796 8397/ 333 02312 20240 50484 55044 58002 83616 81930 88363 94946 95876;EQDQ01  00212WGOSPD
0245655180999992000070412004+11140-001150FM-12+0322DFCP V0209999C000010390019N0150001N1+02951+01841100931ADDAA199000091GA1011+007809089GA2061+039009039GF107991011011008001999021MA1999999097361MD1999999+0071REMSYN100AAXX  04124 65518 32565 70000 10295 20184 39736 40093 81102 333 0//00 58007 81826 86363 94903 95813;EQDQ01+000002SCOMCGQ02  00002PRCP99
0214655180999992000070418004+11140-001150FM-12+0322DFCP V0202201N001019999999N0150001N1+02881+02021100681ADDAA199000091GA1021+039009039GF107991021001999999031021KA1120M+03121MA1999999097101MD1999999-0011REMSYN088AAXX  04184 65518 32965 72202 10288 20202 39710 40068 82032 333 10312 59001 82363 86076;EQDQ01  00002PRCP99
0257655180999992000070506004+11140-001150FM-12+0322DFCP V0209999C000010027019N0150001N1+02241+02141100991ADDAA199000091GA1051+002709009GA2031+039009039GF107991031001999999071021IA2240+02309KA1120N+02241MA1999999097381OA150600211REMSYN106AAXX  05064 65518 32965 70000 10224 20214 39738 40099 83072 333 02300 20224 50544 55044 85009 83363 85076;EQDQ01  00002PRCP99
0229655180999992000070512004+11140-001150FM-12+0322DFCP V0200801N004110060019N0150001N1+02821+02081101291ADDAA199000091GA1071+006009069GA2021+009009099GF108991081091008001999999MA1999999097681MD1999999+0321REMSYN100AAXX  05124 65518 32565 80808 10282 20208 39768 40129 889// 333 0//00 58032 87620 82930 94941 95871;EQDQ01  00002PRCP99
0220655180999992000070606004+11140-001150FM-12+0322DFCP V0209999C000019999999N0150001N1+02101+02071101251ADDAA124003091GF107991071001999999071999IA2240+02009KA1120N+02041MA1999999097591MD1999999+0211OA150600151REMSYN106AAXX  06064 65518 12965 70000 10210 20207 39759 40125 60034 8707/ 333 02059 20204 50344 55039 58021 87363;
0229655180999992000070612004+11140-001150FM-12+0322DFCP V0201801N002110780019N0150001N1+02971+02191101201ADDAA199000091GA1021+007809089GA2051+078009009GF106991031081008001001021MA1999999097581MD1999999-0101REMSYN100AAXX  06124 65518 32565 61804 10297 20219 39758 40120 83802 333 0//00 59010 82826 85076 94909 95836;EQDQ01  00002PRCP99
0242655180999992000070618004+11140-001150FM-12+0322DFCP V0209999C000010390019N0150001N1+03051+02101101011ADDAA199000091GA1021+007809089GA2031+039009039GF107991021021008001081021KA1120M+03051MA1999999097401MD1999999+0151REMSYN100AAXX  06184 65518 32565 70000 10305 20210 39740 40101 82282 333 10305 58015 82826 83363 94919 95816;EQDQ01  00002PRCP99
0250655180999992000070700004+11140-001150FM-12+0322DFCP V0200801N001010300019N0150001N1+02101+01951101301ADDAA106003091AC11C9AY191061AY261061GA1011+009009099GA2081+030009049GF108991011091008001021999MA1999999097681MD1999999+0141MW1291REMSYN112AAXX  07004 65518 11565 80802 10210 20195 39768 40130 60031 72996 8192/ 333 0//51 58014 81930 88460 94946 95816;
0201655180999992000070712004+11140-001150FM-12+0322DFCP V0202201N00101045001CN0150001N1+02901+02121101271ADDAA199000091GA1011+006009069GF107991011051008001071021MA1999999097651MD1999999+0071REMSYN088AAXX  07124 65518 32565 72202 10290 20212 39765 40127 81572 333 0//00 58007 81620 86363;EQDQ01  00002PRCP99
0208655180999992000070718004+11140-001150FM-12+0322DFCP V0209999C000010390019N0150001N1+02801+02141101051ADDAA199000091GA1061+039009079GF107991061001999999071021KA1120M+03021MA1999999097741MD1999999+0031REMSYN082AAXX  07184 65518 32965 70000 10280 20214 39774 40105 86072 333 10302 58003 86363;EQDQ01  00002PRCP99
0195655180999992000070800004+11140-001150FM-12+0322DFCP V0209999C000010780019N0150001N1+02441+02311101141ADDAA199000091GA1071+078009019GF107991001001999999001021MA1999999097541MD1999999-0141REMSYN082AAXX  08004 65518 32965 70000 10244 20231 39754 40114 80002 333 0//00 59014 87076;EQDQ01  00002PRCP99
0233655180999992000070806004+11140-001150FM-12+0322DFCP V0209999C000019999999N0150001N1+02291+02191101111ADDAA199000091GF107991001001999999001021IA2240+02009KA1120N+02251MA1999999097491MD1999999-0051OA150600311REMSYN100AAXX  08064 65518 32965 70000 10229 20219 39749 40111 80002 333 02000 20225 50334 55060 59005 87076;EQDQ01  00002PRCP99
0201655180999992000070812004+11140-001150FM-12+0322DFCP V0202201N003112200019N0150001N1+03131+02141101001ADDAA199000091GA1011+006009069GF103991011051008001001021MA1999999097421MD1999999-0231REMSYN088AAXX  08124 65518 32565 32206 10313 20214 39742 40100 81502 333 0//00 59023 81620 83076;EQDQ01  00002PRCP99
0214655180999992000070818004+11140-001150FM-12+0322DFCP V0202201N00211105001CN0150001N1+03041+02151100881ADDAA199000091GA1011+006009069GF105991011051008001001021KA1120M+03301MA1999999097291MD1999999-0141REMSYN088AAXX  08184 65518 32565 52204 10304 20215 39729 40088 81502 333 10330 59014 81620 85076;EQDQ01  00002PRCP99
0195655180999992000070900004+11140-001150FM-12+0322DFCP V0202001N001010780019N0150001N1+02601+02251101121ADDAA199000091GA1051+078009019GF105991001001999999001021MA1999999097541MD1999999+0001REMSYN082AAXX  09004 65518 32965 52002 10260 20225 39754 40112 80002 333 0//00 58000 85076;EQDQ01  00002PRCP99
0223655180999992000070912004+11140-001150FM-12+0322DFCP V0202201N004110060019N0150001N1+03281+02241101031ADDAA199000091AY191061AY221061GA1061+006009059GF107991061071008001001021MA1999999097471MD1999999+0051MW1031REMSYN088AAXX  09124 65518 31565 72208 10328 20224 39747 40103 70392 86702 333 0//00 58005 86620;EQDQ01  00002PRCP99
0257655180999992000070918004+11140-001150FM-12+0322DFCP V0202001N001010390019N0150001N1+02541+02291100911ADDAA112017091AY191061AY261061GA1011+009009099GA2081+039009049GF108991011091008001071999KA1120M+03321MA1999999097291MD1999999+0001MW1171REMSYN112AAXX  09184 65518 11565 82002 10254 20229 39729 40091 60172 71796 8197/ 333 10332 58000 81930 88463 94944 95874;
0195655180999992000071000004+11140-001150FM-12+0322DFCP V0209999C000010780019N0150001N1+02321+02201100981ADDAA199000091GA1071+078009019GF107991001001999999001021MA1999999097401MD1999999-0141REMSYN082AAXX  10004 65518 32965 70000 10232 20220 39740 40098 80002 333 0//00 59014 87076;EQDQ01  00002PRCP99
0220655180999992000071006004+11140-001150FM-12+0322DFCP V0209999C000019999999N0150001N1+02351+02231100991ADDAA124017091GF107991071001999999071999IA2240+02409KA1120N+02281MA1999999097371MD1999999-0091OA150600361REMSYN106AAXX  10064 65518 12965 70000 10235 20223 39737 40099 60174 8707/ 333 02459 20228 50544 55076 59009 87363;
0250655180999992000071012004+11140-001150FM-12+0322DFCP V0200801N001010390019N0150001N1+02301+02151101221ADDAA106000191AC11C9AY191061AY261061GA1011+009009099GA2051+039009049GF107991011091008001021021MA1999999097571MD1999999+0101MW1171REMSYN112AAXX  10124 65518 11565 70802 10230 20215 39757 40122 69921 71796 81922 333 0//51 58010 81930 85463 94945 95835;
0223655180999992000071018004+11140-001150FM-12+0322DFCP V0209999C000010390019N0150001N1+02531+02191100941ADDAA112001091AY191061AY261061GA1081+039009079GF108991081001999999071999KA1120M+02781MA1999999097321MD1999999+0031MW1021REMSYN094AAXX  10184 65518 11965 80000 10253 20219 39732 40094 60012 70296 8807/ 333 10278 58003 88363;
0195655180999992000071100004+11140-001150FM-12+0322DFCP V0209999C000010780019N0150001N1+02351+02131101131ADDAA199000091GA1071+078009019GF107991001001999999001021MA1999999097491MD1999999-0091REMSYN082AAXX  11004 65518 32965 70000 10235 20213 39749 40113 80002 333 0//00 59009 87076;EQDQ01  00002PRCP99
0242655180999992000071106004+11140-001150FM-12+0322DFCP V0209999C000019999999N0150001N1+02251+02191100991ADDAA124001091GA1021+039009039GF107991021001999999071021IA2240+02309KA1120N+02251MA1999999097361MD1999999-0011OA150600001REMSYN112AAXX  11064 65518 12965 70000 10225 20219 39736 40099 60014 82072 333 02359 20225 50334 55000 59001 82363 87076;
0242655180999992000071118004+11140-001150FM-12+0322DFCP V0201801N002111050019N0150001N1+02941+02331100841ADDAA199000091GA1031+006009069GA2011+009009099GF107991031091008001001021KA1120M+03141MA1999999097251MD1999999-0071REMSYN100AAXX  11184 65518 32565 71804 10294 20233 39725 40084 83902 333 10314 59007 83620 81930 94941 95871;EQDQ01  00002PRCP99
0229655180999992000071212004+11140-001150FM-12+0322DFCP V0202201N00101007801CN0150001N1+03081+02331101181ADDAA199000091GA1021+006009069GA2031+007809089GF105991041081008001001021MA1999999097591MD1999999+0141REMSYN100AAXX  12124 65518 32565 52202 10308 20233 39759 40118 84802 333 0//00 58014 82620 83826 94919 95838;EQDQ01  00002PRCP99
0242655180999992000071218004+11140-001150FM-12+0322DFCP V0209999C000010780019N0150001N1+03101+02241100901ADDAA199000091GA1011+007809089GA2071+078009009GF107991011011008001001021KA1120M+03321MA1999999097311MD1999999+0061REMSYN100AAXX  12184 65518 32565 70000 10310 20224 39731 40090 81102 333 10332 58006 81826 87076 94908 95838;EQDQ01  00002PRCP99
0195655180999992000071300004+11140-001150FM-12+0322DFCP V0209999C000010390019N0150001N1+02671+02331101031ADDAA199000091GA1061+039009079GF107991061001999999031021MA1999999097451MD1999999-0071REMSYN082AAXX  13004 65518 32965 70000 10267 20233 39745 40103 86032 333 0//00 59007 86363;EQDQ01  00002PRCP99
0229655180999992000071312004+11140-001150FM-12+0322DFCP V0209999C000010780019N0150001N1+03201+02221101041ADDAA199000091GA1031+006009069GA2071+078009009GF107991051081008001001021MA1999999097471MD1999999-0121REMSYN100AAXX  13124 65518 32565 70000 10320 20222 39747 40104 85802 333 0//00 59012 83620 87076 94919 95839;EQDQ01  00002PRCP99
0229655180999992000071318004+11140-001150FM-12+0322DFCP V0202201N002111050019N0150001N1+03251+02271100721ADDAA199000091GA1011+006009069GA2071+999999009GF107991011051008001001021KA1120M+03501MA1999999097161MD1999999-0151REMSYN087AAXX  13184 65518 32565 72204 10325 20227 39716 40072 81502 333 10350 59015 81620 8707;EQDQ01  00002PRCP99
0195655180999992000071400004+11140-001150FM-12+0322DFCP V0202201N001010780019N0150001N1+02581+02171100991ADDAA199000091GA1071+078009019GF107991001001999999001021MA1999999097421MD1999999-0031REMSYN082AAXX  14004 65518 32965 72202 10258 20217 39742 40099 80002 333 0//00 59003 87076;EQDQ01  00002PRCP99
0304655180999992000071406004+11140-001150FM-12+0322DFCP V0200801N00411030001CN0100001N1+02121+02041101271ADDAA124006191AC12C9AY191061AY261061GA1011+009009099GA2081+030009049GF108991011091008001071999IA2240+02309KA1120N+02081MA1999999097671MD1999999+0251MW1951OA150600511REMSYN130AAXX  14064 65518 11560 80808 10212 20204 39767 40127 60064 79596 8197/ 333 02352 20208 50694 55101 58025 81930 88460 94946 95876;
0205655180999992000071412004+11140-001150FM-12+0322DFCP V0201801N001019999999N0040001N1+03031+02401100911ADDAC11I9AY191061AY261061GA1011+039009039GF107991011001008001031021MA1999999097341MD1999999-0131MW1011REMSYN094AAXX  14124 65518 11596 71802 10303 20240 39734 40091 70196 81032 333 0//55 59013 81363 87076;
0201655180999992000071418004+11140-001150FM-12+0322DFCP V0201801N002119999999N0150001N1+02781+02231100841ADDAA112000191GA1031+039009039GF107991031001999999031021KA1120M+03151MA1999999097221MD1999999+0061REMSYN094AAXX  14184 65518 12965 71804 10278 20223 39722 40084 69912 83032 333 10315 58006 83363 85076;
0195655180999992000071500004+11140-001150FM-12+0322DFCP V0209999C000010780019N0150001N1+02331+02201100981ADDAA199000091GA1071+078009019GF107991001001999999001021MA1999999097391MD1999999-0031REMSYN082AAXX  15004 65518 32965 70000 10233 20220 39739 40098 80002 333 0//00 59003 87076;EQDQ01  00002PRCP99
0242655180999992000071506004+11140-001150FM-12+0322DFCP V0209999C000010450019N0150001N1+02281+02161101031ADDAA124000191GA1011+009009079GF107991011061004501071999IA2240+02109KA1120N+02281MA1999999097421MD1999999-0251OA150600311REMSYN112AAXX  15064 65518 12465 70000 10228 20216 39742 40103 69914 8167/ 333 02159 20228 50154 55060 59025 81730 87363;
0195655180999992000071512004+11140-001150FM-12+0322DFCP V0201801N004110048019N0150001N1+02751+02181101141ADDAA199000091GA1071+004809059GF107991071051004501999999MA1999999097531MD1999999+0191REMSYN082AAXX  15124 65518 32465 71808 10275 20218 39753 40114 875// 333 0//00 58019 87616;EQDQ01  00002PRCP99
0214655180999992000071518004+11140-001150FM-12+0322DFCP V0209999C00001105001CN0150001N1+02701+02171100851ADDAA199000091GA1011+006009069GF107991011051008001001021KA1120M+02881MA1999999097241MD1999999+0021REMSYN088AAXX  15184 65518 32565 70000 10270 20217 39724 40085 81502 333 10288 58002 81620 87076;EQDQ01  00002PRCP99
0195655180999992000071600004+11140-001150FM-12+0322DFCP V0209999C000010780019N0150001N1+02411+02261101041ADDAA199000091GA1071+078009019GF107991001001999999001021MA1999999097441MD1999999+0051REMSYN082AAXX  16004 65518 32965 70000 10241 20226 39744 40104 80002 333 0//00 58005 87076;EQDQ01  00002PRCP99
0233655180999992000071606004+11140-001150FM-12+0322DFCP V0209999C000019999999N0150001N1+02351+02201101061ADDAA199000091GF107991061001999999071021IA2240+02209KA1120N+02301MA1999999097461MD1999999+0031OA150600151REMSYN100AAXX  16064 65518 32965 70000 10235 20220 39746 40106 86072 333 02200 20230 50254 55035 58003 86363;EQDQ01  00002PRCP99
0251655180999992000071612004+11140-001150FM-12+0322DFCP V0202201N004110078019N0150001N1+02951+02151101131ADDAA199000091GA1031+006009069GA2031+007809089GA3071+078009009GF107991051081008001001021MA1999999097631MD1999999+0001REMSYN106AAXX  16124 65518 32565 72208 10295 20215 39763 40113 85802 333 0//00 58000 83620 83826 87076 94919 95936;EQDQ01  00002PRCP99
0236655180999992000071618004+11140-001150FM-12+0322DFCP V0202201N002110390019N0150001N1+02881+02171100911ADDAA199000091GA1011+006009069GA2051+039009039GF107991011051008001031021KA1120M+03121MA1999999097311MD1999999+0071REMSYN094AAXX  16184 65518 32565 72204 10288 20217 39731 40091 81532 333 10312 58007 81620 85363 87076;EQDQ01  00002PRCP99
0201655180999992000071700004+11140-001150FM-12+0322DFCP V0202201N003119999999N0150001N1+02521+02231101021ADDAA199000091GA1021+039009039GF107991021001999999031021MA1999999097431MD1999999-0011REMSYN088AAXX  17004 65518 32965 72206 10252 20223 39743 40102 82032 333 0//00 59001 82363 87076;EQDQ01  00002PRCP99
0305655180999992000071706004+11140-001150FM-12+0322DFCP V0209999C00001039001CN0150001N1+02311+02181101081ADDAA199000091GA1011+009009099GA2051+039009039GA3051+078009009GF107991011091008001071021IA2240+02309KA1120N+02311MA1999999097471MD1999999-0121OA150600411REMSYN124AAXX  17064 65518 32565 70000 10231 20218 39747 40108 81972 333 02300 20231 50634 55081 59012 81930 85363 85076 94942 95812;EQDQ01  00002PRCP99
0222655180999992000071712004+11140-001150FM-12+0322DFCP V0209999C00001045001CN0150001N1+02651+02131101161ADDAA106016091AC13C9AY161061AY221061GA1021+006009069GF107991021051008001031021MA1999999097551MD1999999+0021MW1011REMSYN100AAXX  17124 65518 11565 70000 10265 20213 39755 40116 60161 70162 82532 333 0//53 58002 82620 86363;
0201655180999992000071718004+11140-001150FM-12+0322DFCP V0200401N00211045001CN0150001N1+02591+02081101041ADDAA106016091GA1011+006009069GF107991011051008001071999KA1120M+02801MA1999999097421MD1999999+0111REMSYN094AAXX  17184 65518 12565 70404 10259 20208 39742 40104 60161 8157/ 333 10280 58011 81620 87363;
0201655180999992000071800004+11140-001150FM-12+0322DFCP V0209999C000019999999N0150001N1+02341+02241101241ADDAA199000091GA1011+039009039GF107991011001999999031021MA1999999097621MD1999999+0191REMSYN088AAXX  18004 65518 32965 70000 10234 20224 39762 40124 81032 333 0//00 58019 81363 87076;EQDQ01  00002PRCP99
0220655180999992000071806004+11140-001150FM-12+0322DFCP V0209999C000019999999N0150001N1+02271+02181101161ADDAA124016091GF107991071001999999071999IA2240+02009KA1120N+02221MA1999999097531MD1999999+0061OA150600101REMSYN106AAXX  18064 65518 12965 70000 10227 20218 39753 40116 60164 8707/ 333 02059 20222 50514 55028 58006 87363;
0251655180999992000071812004+11140-001150FM-12+0322DFCP V0202201N00211007801CN0150001N1+02781+02251101261ADDAA199000091GA1021+006009069GA2031+007809089GA3051+039009039GF107991041081008001031021MA1999999097651MD1999999+0101REMSYN106AAXX  18124 65518 32565 72204 10278 20225 39765 40126 84832 333 0//00 58010 82620 83826 85363 94919 95836;EQDQ01  00002PRCP99
0292655180999992000071818004+11140-001150FM-12+0322DFCP V0209999C000010780019N0150001N1+02601+02191101061ADDAA199000091AY191061AY221061GA1031+006009069GA2011+009009099GA3061+078009009GF107991031091008001001021KA1120M+02881MA1999999097441MD1999999+0021MW1171REMSYN112AAXX  18184 65518 31565 70000 10260 20219 39744 40106 71792 83902 333 10288 58002 83620 81930 86076 94947 95837;EQDQ01  00002PRCP99
0216655180999992000071900004+11140-001150FM-12+0322DFCP V0209999C000010030019N0150001N1+02251+02181101151ADDAA106032091AC10I9AY191061AY261061GA1071+003009069GF107991071051004501999999MA1999999097531MD1999999-0091MW1031REMSYN094AAXX  19004 65518 11465 70000 10225 20218 39753 40115 60321 70396 875// 333 0//64 59009 87710;
0272655180999992000071912004+11140-001150FM-12+0322DFCP V0200801N002110390019N0100001N1+02321+02141101121ADDAA106002091AC11C9AY191061AY261061GA1031+006009069GA2011+009009099GA3071+039009039GF107991031091008001071999MA1999999097481MD1999999-0171MW1171REMSYN118AAXX  19124 65518 11560 70804 10232 20214 39748 40112 60021 71796 8397/ 333 0//51 59017 83620 81930 87363 94946 95876;
0223655180999992000071918004+11140-001150FM-12+0322DFCP V0209999C000010390019N0150001N1+02661+02401100791ADDAA112002091AY191061AY221061GA1071+039009079GF107991071001999999071999KA1120M+02701MA1999999097191MD1999999-0251MW1021REMSYN094AAXX  19184 65518 11965 70000 10266 20240 39719 40079 60022 70292 8707/ 333 10270 59025 87363;
0220655180999992000072006004+11140-001150FM-12+0322DFCP V0209999C000019999999N0150001N1+02281+02241101031ADDAA124002091GF108991081001999999071999IA2240+02209KA1120N+02241MA1999999097411MD1999999-0091OA150600001REMSYN106AAXX  20064 65518 12965 80000 10228 20224 39741 40103 60024 8807/ 333 02259 20224 50184 55006 59009 88363;
0201655180999992000072012004+11140-001150FM-12+0322DFCP V0202201N00211045001CN0150001N1+02861+02271100951ADDAA199000091GA1021+006009069GF106991021081008001031021MA1999999097351MD1999999-0161REMSYN088AAXX  20124 65518 32565 62204 10286 20227 39735 40095 82832 333 0//00 59016 82620 85076;EQDQ01  00002PRCP99
0292655180999992000072018004+11140-001150FM-12+0322DFCP V0209999C000010780019N0150001N1+02851+02231100811ADDAA199000091AY191061AY221061GA1011+007809089GA2011+009009099GA3051+078009009GF107991011091008001031021KA1120M+03011MA1999999097201MD1999999+0011MW1171REMSYN112AAXX  20184 65518 31565 70000 10285 20223 39720 40081 71792 81932 333 10301 58001 81826 81930 85076 94948 95838;EQDQ01  00002PRCP99
0233655180999992000072106004+11140-001150FM-12+0322DFCP V0209999C000019999999N0150001N1+02281+02121100911ADDAA199000091GF107991061001999999071021IA2240+02209KA1120N+02221MA1999999097311MD1999999-0101OA150600311REMSYN100AAXX  21064 65518 32965 70000 10228 20212 39731 40091 86072 333 02200 20222 50434 55060 59010 86363;EQDQ01  00002PRCP99
0201655180999992000072112004+11140-001150FM-12+0322DFCP V0202201N00311045001CN0150001N1+02921+02161100991ADDAA199000091GA1031+006009069GF107991031051008001031021MA1999999097401MD1999999+0051REMSYN088AAXX  21124 65518 32565 72206 10292 20216 39740 40099 83532 333 0//00 58005 83620 86363;EQDQ01  00002PRCP99
0211655180999992000072200004+11140-001150FM-12+0322DFCP V0209999C000010390019N0150001N1+99999+99999101011ADDAA199000091GA1061+039009079GF107991061001999999071021MA1999999097401MD1999999+0111REMSYN082AAXX  22004 65518 32965 70000 11021 20207 39740 40101 86072 333 0//00 58011 86363;EQDQ01  00002PRCP99Q02 -00213ATOT  
0229655180999992000072212004+11140-001150FM-12+0322DFCP V0202001N002110078019N0150001N1+02801+02251101051ADDAA199000091GA1031+006009069GA2041+007809089GF106991061081999999001021MA1999999097431MD1999999+0031REMSYN100AAXX  22124 65518 32965 62004 10280 20225 39743 40105 86802 333 0//00 58003 83620 84826 94919 95836;EQDQ01  00002PRCP99
0285655180999992000072218004+11140-001150FM-12+0322DFCP V0201801N001010390019N0150001N1+02601+02271100921ADDAA112000791AY191061AY261061GA1011+007809089GA2021+009009099GA3061+039009039GF107991021091008001071021KA1120M+03031MA1999999097291MD1999999+0041MW1951REMSYN124AAXX  22184 65518 11565 71802 10260 20227 39729 40092 69902 79596 82972 333 10303 58004 81826 82930 86363 94942 94947 95837;
0216655180999992000072300004+11140-001150FM-12+0322DFCP V0209999C000012200019N0150001N1+02351+02251101041ADDAA106000191AC12I9AY191061AY261061GA1031+078009019GF103991001001999999001021MA1999999097431MD1999999+0031MW1011REMSYN094AAXX  23004 65518 11965 30000 10235 20225 39743 40104 69911 70196 80002 333 0//56 58003 83076;
0242655180999992000072306004+11140-001150FM-12+0322DFCP V0209999C000019999999N0100001N1+02231+02191101031ADDAA124000191GA1011+039009039GF105991011001999999031021IA2240+02109KA1120N+02231MA1999999097411MD1999999+0011OA150600311REMSYN112AAXX  23064 65518 12960 50000 10223 20219 39741 40103 69914 81032 333 02159 20223 50454 55067 58001 81363 85076;
0229655180999992000072312004+11140-001150FM-12+0322DFCP V0202601N002110078019N0150001N1+02931+02161101071ADDAA199000091GA1031+006009069GA2031+007809089GF107991051081008001001021MA1999999097471MD1999999+0041REMSYN100AAXX  23124 65518 32565 72604 10293 20216 39747 40107 85802 333 0//00 58004 83620 83826 94919 95839;EQDQ01  00002PRCP99
0214655180999992000072318004+11140-001150FM-12+0322DFCP V0201801N00211105001CN0150001N1+02841+02141100841ADDAA199000091GA1011+006009069GF107991011051008001001021KA1120M+03051MA1999999097281MD1999999-0011REMSYN088AAXX  23184 65518 32565 71804 10284 20214 39728 40084 81502 333 10305 59001 81620 87076;EQDQ01  00002PRCP99
0195655180999992000072400004+11140-001150FM-12+0322DFCP V0202001N002110780019N0150001N1+02411+02221101021ADDAA199000091GA1071+078009019GF107991001001999999001021MA1999999097421MD1999999-0011REMSYN082AAXX  24004 65518 32965 72004 10241 20222 39742 40102 80002 333 0//00 59001 87076;EQDQ01  00002PRCP99
0233655180999992000072406004+11140-001150FM-12+0322DFCP V0202201N002119999999N0150001N1+02281+02131101031ADDAA199000091GF108991081001999999071999IA2240+02209KA1120N+02221MA1999999097421MD1999999+0011OA150600511REMSYN100AAXX  24064 65518 32965 82204 10228 20213 39742 40103 8807/ 333 02200 20222 50484 55101 58001 88363;EQDQ01  00002PRCP99
0229655180999992000072412004+11140-001150FM-12+0322DFCP V0202001N002110078019N0150001N1+02941+02071101171ADDAA199000091GA1021+006009069GA2031+007809089GF106991051081008001031021MA1999999097561MD1999999+0091REMSYN100AAXX  24124 65518 32565 62004 10294 20207 39756 40117 85832 333 0//00 58009 82620 83826 94919 95832;EQDQ01  00002PRCP99
0214655180999992000072418004+11140-001150FM-12+0322DFCP V0202201N00101105001CN0150001N1+02871+02021100791ADDAA199000091GA1011+006009069GF105991011051008001001021KA1120M+03101MA1999999097191MD1999999-0091REMSYN088AAXX  24184 65518 32565 52202 10287 20202 39719 40079 81502 333 10310 59009 81620 85076;EQDQ01  00002PRCP99
0249655180999992000072506004+11140-001150FM-12+0322DFCP V0209999C000019999999N0150001N1+02331+02171100991ADDAA199000091GF107991999001999999071999IA2240+02209KA1120N+02331MA1999999097381MD1999999-0041OA150600461REMSYN100AAXX  25064 65518 32965 70000 10233 20217 39738 40099 8807/ 333 02200 20233 50584 55095 59004 88363;EQDQ01+000082SCOTLCQ02  00002PRCP99
0251655180999992000072512004+11140-001150FM-12+0322DFCP V0202201N002110078019N0150001N1+02731+02111101121ADDAA199000091GA1021+006009069GA2031+007809089GA3051+039009039GF107991051081008001031021MA1999999097511MD1999999-0051REMSYN106AAXX  25124 65518 32565 72204 10273 20211 39751 40112 85832 333 0//00 59005 82620 83826 85363 94939 95832;EQDQ01  00002PRCP99
0279655180999992000072518004+11140-001150FM-12+0322DFCP V0209999C000010390019N0150001N1+02451+02121100991ADDAA112001091AY191061AY221061GA1031+007809089GA2011+009009099GA3051+039009039GF107991031091008001061021KA1120M+03021MA1999999097371MD1999999+0181MW1171REMSYN118AAXX  25184 65518 11565 70000 10245 20212 39737 40099 69992 71792 83962 333 10302 58018 83826 81930 85363 94969 95833;
0222655180999992000072600004+11140-001150FM-12+0322DFCP V0209999C000019999999N0150001N1+02251+02191101171ADDAA106001091AC13C9AY191061AY261061GA1021+039009039GF105991021001999999071021MA1999999097571MD1999999+0161MW1011REMSYN100AAXX  26004 65518 11965 50000 10225 20219 39757 40117 60011 70196 82072 333 0//53 58016 82363 85076;
0220655180999992000072606004+11140-001150FM-12+0322DFCP V0209999C000019999999N0150001N1+02251+02181101171ADDAA124001091GF107991061001999999071021IA2240+02309KA1120N+02201MA1999999097531MD1999999+0151OA150600101REMSYN106AAXX  26064 65518 12965 70000 10225 20218 39753 40117 60014 86072 333 02359 20220 50354 55026 58015 86363;
0201655180999992000072612004+11140-001150FM-12+0322DFCP V0202201N00211045001CN0150001N1+03001+02041101141ADDAA199000091GA1021+006009069GF107991021051008001031021MA1999999097531MD1999999+0091REMSYN088AAXX  26124 65518 32565 72204 10300 20204 39753 40114 82532 333 0//00 58009 82620 86076;EQDQ01  00002PRCP99
0279655180999992000072618004+11140-001150FM-12+0322DFCP V0202601N002110060019N0150001N1+02451+02141100981ADDAA112013091AY191061AY261061GA1051+006009069GA2011+009009099GA3081+039009039GF108991051091008001071999KA1120M+03111MA1999999097351MD1999999-0021MW1171REMSYN118AAXX  26184 65518 11565 82604 10245 20214 39735 40098 60132 71796 8597/ 333 10311 59002 85620 81930 88363 94946 95876;
0216655180999992000072700004+11140-001150FM-12+0322DFCP V0202201N002119999999N0150001N1+02301+02131101121ADDAA106004191AC10I9AY191061AY261061GA1031+039009039GF107991999999999999999999MA1999999097521MD1999999-0031MW1011REMSYN094AAXX  27004 65518 11965 72204 10230 20213 39752 40112 60041 70196 333 0//54 59003 83363 85076;
0242655180999992000072706004+11140-001150FM-12+0322DFCP V0209999C000019999999N0150001N1+02201+02111101061ADDAA124017091GA1031+039009039GF107991031001999999071021IA2240+02209KA1120N+02141MA1999999097431MD1999999-0101OA150600101REMSYN112AAXX  27064 65518 12965 70000 10220 20211 39743 40106 60174 83072 333 02259 20214 50474 55024 59010 83363 85076;
0214655180999992000072718004+11140-001150FM-12+0322DFCP V0209999C00001105001CN0150001N1+03031+02191100791ADDAA199000091GA1011+006009069GF105991011051008001001021KA1120M+03201MA1999999097201MD1999999-0151REMSYN088AAXX  27184 65518 32565 50000 10303 20219 39720 40079 81502 333 10320 59015 81620 85076;EQDQ01  00002PRCP99
0195655180999992000072800004+11140-001150FM-12+0322DFCP V0209999C000012200019N0150001N1+02601+02241100981ADDAA199000091GA1031+078009019GF103991001001999999001021MA1999999097401MD1999999-0121REMSYN082AAXX  28004 65518 32965 30000 10260 20224 39740 40098 80002 333 0//00 59012 83076;EQDQ01  00002PRCP99
0229655180999992000072812004+11140-001150FM-12+0322DFCP V0203001N002110780019N0150001N1+03171+02271100831ADDAA199000091GA1041+006009069GA2031+078009009GF107991051081008001001021MA1999999097271MD1999999-0231REMSYN100AAXX  28124 65518 32565 73004 10317 20227 39727 40083 85802 333 0//00 59023 84620 83076 94901 95831;EQDQ01  00002PRCP99
0286655180999992000072818004+11140-001150FM-12+0322DFCP V0203601N002110390019N0150001N1+02651+02041100591ADDAA199000091AY191061AY221061GA1011+009009099GA2081+039009039GF108991999091008001071999KA1120M+03361MA1999999096991MD1999999-0211MW1171REMSYN106AAXX  28184 65518 31565 83604 10265 20204 39699 40059 71792 8897/ 333 10336 59021 81930 88363 94948 95838;EQDQ01+000082SCOTLCQ02  00002PRCP99
0285655180999992000072900004+11140-001150FM-12+0322DFCP V0202001N002110099019N0150001N1+02201+02131100901ADDAA106007991AC11C9AY191061AY261061GA1011+009009099GA2081+009909039GF108991011091008001071999MA1999999999999MD1999999-0191MW1171REMSYN112AAXX  29004 65518 11565 82004 10220 20213 39431 40090 60081 71796 8197/ 333 0//51 59019 81930 88333 94941 95831;EQDQ01+094313APOSP Q02 094313APOSP 
0222655180999992000072912004+11140-001150FM-12+0322DFCP V0209999C00001045001CN0150001N1+02521+02171100951ADDAA106001091AC13C9AY161061AY221061GA1011+006009069GF108991011051008001071999MA1999999097311MD1999999+0041MW1031REMSYN100AAXX  29124 65518 11565 80000 10252 20217 39731 40095 60011 70362 8157/ 333 0//53 58004 81620 88363;
0201655180999992000072918004+11140-001150FM-12+0322DFCP V0209999C00001045001CN0150001N1+02571+02171100681ADDAA112001091GA1021+006009069GF107991021051008001031021KA1120M+02651MA1999999097061MD1999999+0071REMSYN094AAXX  29184 65518 12565 70000 10257 20217 39706 40068 60012 82532 333 10265 58007 82620 86363;
0195655180999992000073000004+11140-001150FM-12+0322DFCP V0201801N003110390019N0150001N1+02381+02161100981ADDAA199000091GA1071+039009079GF107991071001999999071999MA1999999097361MD1999999+0051REMSYN082AAXX  30004 65518 32965 71806 10238 20216 39736 40098 8707/ 333 0//00 58005 87363;EQDQ01  00002PRCP99
0239655180999992000073006004+11140-001150FM-12+0322DFCP V0201801N002110042019N0150001N1+02241+02091100961ADDAA124001091GF108991081061004501999999IA2240+02109KA1120N+02201MA1999999097341MD1999999+0311OA150699999REMSYN106AAXX  30064 65518 12465 81804 10224 20209 39734 40096 60014 886// 333 02159 20220 50484 55014 58031 88713;EQDQ01  00052WGOSPD
0216655180999992000073012004+11140-001150FM-12+0322DFCP V0202001N002110048019N0150001N1+02651+02201101111ADDAA106000591AC12C9AY161061AY221061GA1081+004809059GF108991081051004501999999MA1999999097491MD1999999+0181MW1011REMSYN094AAXX  30124 65518 11465 82004 10265 20220 39749 40111 69941 70162 885// 333 0//52 58018 88616;
0229655180999992000073018004+11140-001150FM-12+0322DFCP V0209999C00001045001CN0100001N1+02281+02161101031ADDAA112004191AY161061AY221061GA1041+006009069GF108991041051008001021999KA1120M+02651MA1999999097381MD1999999+0321MW1611REMSYN100AAXX  30184 65518 11560 80000 10228 20216 39738 40103 60042 76162 8452/ 333 10265 58032 84620 88460;
0222655180999992000073100004+11140-001150FM-12+0322DFCP V0209999C00001045001CN0150001N1+02201+02171101281ADDAA106007991AC12C9AY161061AY221061GA1031+004809069GF108991031051004501071999MA1999999097651MD1999999+0291MW1011REMSYN100AAXX  31004 65518 11465 80000 10220 20217 39765 40128 60081 70162 8357/ 333 0//52 58029 83616 88463;
0229655180999992000073112004+11140-001150FM-12+0322DFCP V0209999C000010078019N0150001N1+02851+02181101201ADDAA199000091GA1031+006009069GA2031+007809089GF106991051081008001031021MA1999999097591MD1999999+0101REMSYN100AAXX  31124 65518 32565 60000 10285 20218 39759 40120 85832 333 0//00 58010 83620 83826 94919 95832;EQDQ01  00002PRCP99
0257655180999992000073118004+11140-001150FM-12+0322DFCP V0209999C000010780019N0150001N1+02801+02301100921ADDAA112000191AY161061AY221061GA1021+007809089GA2061+078009009GF107991021021008001001021KA1120M+03051MA1999999097311MD1999999-0071MW1211REMSYN112AAXX  31184 65518 11565 70000 10280 20230 39731 40092 69912 72162 82202 333 10305 59007 82826 86076 94914 95834;
0176655180999992000080100004+11140-001150FM-12+0322DFCP V0209999C000012200019N0150001N1+02371+02271101121ADDAA199000021GA1031+078009019GF103991001001999999001021MA1999999097511MD1999999-0141REMSYN082AAXX  01004 65518 32965 30000 10237 20227 39751 40112 80002 333 0//00 59014 83076;
0220655180999992000080106004+11140-001150FM-12+0322DFCP V0209999C000019999999N0150001N1+02341+02131100931ADDAA124000191GF107991001001999999001021IA2240+02109KA1120N+02341MA1999999097321MD1999999-0221OA150600411REMSYN106AAXX  01064 65518 12965 70000 10234 20213 39732 40093 69914 80002 333 02159 20234 50424 55086 59022 87076;
0201655180999992000080112004+11140-001150FM-12+0322DFCP V0203201N00101045001CN0150001N1+02971+02221100891ADDAA199000091GA1031+006009069GF107991031051008001031021MA1999999097301MD1999999-0291REMSYN088AAXX  01124 65518 32565 73202 10297 20222 39730 40089 83532 333 0//00 59029 83620 85076;EQDQ01  00002PRCP99
0216655180999992000080200004+11140-001150FM-12+0322DFCP V0202001N002110030019N0150001N1+02071+01991101011ADDAA106019191AC12I9AY191061AY261061GA1081+003009069GF108991081061004501999999MA1999999097391MD1999999-0121MW1011REMSYN094AAXX  02004 65518 11465 82004 10207 20199 39739 40101 60191 70196 886// 333 0//66 59012 88710;
0242655180999992000080206004+11140-001150FM-12+0322DFCP V0201801N002110450019N0150001N1+02071+02021100941ADDAA124019191GA1021+003009079GF107991021061004501071021IA2240+02309KA1120N+02051MA1999999097301MD1999999-0021OA150600261REMSYN112AAXX  02064 65518 12465 71804 10207 20202 39730 40094 60194 82672 333 02369 20205 50454 55059 59002 82710 86363;
0229655180999992000080212004+11140-001150FM-12+0322DFCP V0201801N004110078019N0150001N1+02761+02161101101ADDAA199000091GA1041+006009069GA2031+007809089GF107991061081008001001021MA1999999097471MD1999999+0171REMSYN100AAXX  02124 65518 32565 71808 10276 20216 39747 40110 86802 333 0//00 58017 84620 83826 94919 95839;EQDQ01  00002PRCP99
0208655180999992000080218004+11140-001150FM-12+0322DFCP V0201801N002110390019N0150001N1+02641+02141101131ADDAA199000091GA1071+039009079GF107991071001999999071999KA1120M+02821MA1999999097491MD1999999+0271REMSYN082AAXX  02184 65518 32965 71804 10264 20214 39749 40113 8707/ 333 10282 58027 87363;EQDQ01  00002PRCP99
0195655180999992000080300004+11140-001150FM-12+0322DFCP V0209999C000010780019N0150001N1+02281+02181101281ADDAA199000091GA1071+078009019GF107991001001999999001021MA1999999097651MD1999999+0261REMSYN082AAXX  03004 65518 32965 70000 10228 20218 39765 40128 80002 333 0//00 58026 87076;EQDQ01  00002PRCP99
0233655180999992000080306004+11140-001150FM-12+0322DFCP V0202201N002119999999N0150001N1+02151+02071101271ADDAA199000091GF107991071001999999071999IA2240+02009KA1120N+02121MA1999999097641MD1999999+0341OA150600361REMSYN100AAXX  03064 65518 32965 72204 10215 20207 39764 40127 8707/ 333 02000 20212 50244 55070 58034 87363;EQDQ01  00002PRCP99
0229655180999992000080312004+11140-001150FM-12+0322DFCP V0203201N002110060019N0150001N1+02641+02221101471ADDAA199000091GA1071+006009069GA2011+009009099GF108991081091008001999999MA1999999097831MD1999999+0361REMSYN100AAXX  03124 65518 32565 83204 10264 20222 39783 40147 889// 333 0//00 58036 87620 81930 94941 95831;EQDQ01  00002PRCP99
0222655180999992000080400004+11140-001150FM-12+0322DFCP V0201801N00211045001CN0150001N1+02221+02161101371ADDAA106001091AC10I9AY191061AY261061GA1031+004809069GF107991031051004501091021MA1999999097731MD1999999+0081MW1031REMSYN100AAXX  04004 65518 11465 71804 10222 20216 39773 40137 60011 70396 83592 333 0//54 58008 83616 85076;
0289655180999992000080406004+11140-001150FM-12+0322DFCP V0202001N002110450019N0150001N1+02241+02181101361ADDAA124002091AY161061AY221061GA1041+003009079GF108991041061004501071999IA2240+02109KA1120N+02181MA1999999097731MD1999999+0091MW1021OA150699999REMSYN118AAXX  04064 65518 11465 82004 10224 20218 39773 40136 60024 70262 8467/ 333 02119 20218 50254 55031 58009 84710 88363;EQDQ01  00152WGOSPD
0229655180999992000080412004+11140-001150FM-12+0322DFCP V0202601N001010078019N0150001N1+02771+02191101381ADDAA199000091GA1031+006009069GA2041+007809089GF107991061081008001031021MA1999999097771MD1999999-0061REMSYN100AAXX  04124 65518 32565 72602 10277 20219 39777 40138 86832 333 0//00 59006 83620 84826 94919 95874;EQDQ01  00002PRCP99
0208655180999992000080418004+11140-001150FM-12+0322DFCP V0209999C000010390019N0150001N1+02771+02191101131ADDAA199000091GA1061+039009079GF107991061001999999031021KA1120M+02961MA1999999097511MD1999999-0011REMSYN082AAXX  04184 65518 32965 70000 10277 20219 39751 40113 86032 333 10296 59001 86363;EQDQ01  00002PRCP99
0201655180999992000080500004+11140-001150FM-12+0322DFCP V0202001N00211105001CN0150001N1+02381+02261101381ADDAA199000091GA1031+003009079GF107991031061004501001021MA1999999097761MD1999999+0031REMSYN088AAXX  05004 65518 32465 72004 10238 20226 39776 40138 83602 333 0//00 58003 83710 87076;EQDQ01  00002PRCP99
0255655180999992000080506004+11140-001150FM-12+0322DFCP V0202401N001011050019N0150001N1+02221+02181101161ADDAA199000091GA1041+003009079GF107991041061004501001021IA2240+02209KA1120N+02201MA1999999097531MD1999999-0201OA150600261REMSYN106AAXX  05064 65518 32465 72402 10222 20218 39753 40116 84602 333 02200 20220 50354 55055 59020 84710 87076;EQDQ01  00002PRCP99
0229655180999992000080512004+11140-001150FM-12+0322DFCP V0201801N002110060019N0150001N1+03071+02331101171ADDAA199000091GA1071+006009069GA2031+007809089GF107991061081008001001021MA1999999097581MD1999999+0191REMSYN100AAXX  05124 65518 32565 71804 10307 20233 39758 40117 86802 333 0//00 58019 87620 83826 94919 95839;EQDQ01  00002PRCP99
0242655180999992000080518004+11140-001150FM-12+0322DFCP V0201801N002110780019N0150001N1+02851+02231100971ADDAA199000091GA1011+009009099GA2071+078009009GF107991011091008001001021KA1120M+03151MA1999999097351MD1999999-0161REMSYN100AAXX  05184 65518 32565 71804 10285 20223 39735 40097 81902 333 10315 59016 81930 87076 94941 95831;EQDQ01  00002PRCP99
0195655180999992000080600004+11140-001150FM-12+0322DFCP V0209999C000010780019N0150001N1+02441+02301101101ADDAA199000091GA1071+078009019GF107991001001999999001021MA1999999097511MD1999999-0251REMSYN082AAXX  06004 65518 32965 70000 10244 20230 39751 40110 80002 333 0//00 59025 87076;EQDQ01  00002PRCP99
0233655180999992000080606004+11140-001150FM-12+0322DFCP V0202201N002119999999N0150001N1+02301+02211101091ADDAA199000091GF108991081001999999071999IA2240+02209KA1120N+02271MA1999999097471MD1999999-0061OA150600461REMSYN100AAXX  06064 65518 32965 82204 10230 20221 39747 40109 8807/ 333 02200 20227 50414 55094 59006 88363;EQDQ01  00002PRCP99
0229655180999992000080612004+11140-001150FM-12+0322DFCP V0201801N00311045001CN0150001N1+02261+02221101111ADDAA199000091GA1021+006009069GA2031+078009009GF105991031081008001031021MA1999999097511MD1999999-0071REMSYN100AAXX  06124 65518 32565 51806 10226 20222 39751 40111 83832 333 0//00 59007 82620 83076 94904 95834;EQDQ01  00002PRCP99
0257655180999992000080618004+11140-001150FM-12+0322DFCP V0209999C000010780019N0150001N1+02541+02221100991ADDAA112000191AY191061AY261061GA1021+009009099GA2061+078009009GF107991021091008001071021KA1120M+03161MA1999999097371MD1999999+0011MW1171REMSYN112AAXX  06184 65518 11565 70000 10254 20222 39737 40099 69922 71796 82972 333 10316 58001 82930 86076 94959 95812;
0216655180999992000080700004+11140-001150FM-12+0322DFCP V0209999C000012200019N0150001N1+02301+02241101211ADDAA106001091AC13C9AY191061AY261061GA1031+078009019GF103991001001999999001021MA1999999097601MD1999999+0091MW1011REMSYN094AAXX  07004 65518 11965 30000 10230 20224 39760 40121 60011 70196 80002 333 0//53 58009 83076;
0248655180999992000080706004+11140-001150FM-12+0322DFCP V0209999C000010450019N0150001N1+02341+02281101191ADDAA124001091AC13I9GA1041+003009079GF107991041061004501071021IA2240+02309KA1120N+02251MA1999999097561MD1999999+0091OA150600361REMSYN112AAXX  07064 65518 12465 70000 10234 20228 39756 40119 60014 84672 333 02358 20225 50524 55071 58009 84710 86363;
0222655180999992000080712004+11140-001150FM-12+0322DFCP V0202201N00101105001CN0150001N1+02891+02331101191ADDAA106005191AC13C9AY191061AY261061GA1031+006009069GF107991031051008001001021MA1999999097581MD1999999+0071MW1011REMSYN100AAXX  07124 65518 11565 72202 10289 20233 39758 40119 60051 70196 83502 333 0//53 58007 83620 85076;
0223655180999992000080918004+11140-001150FM-12+0322DFCP V0209999C000010390019N0150001N1+02201+02111101111ADDAA112039991AY191061AY261061GA1081+039009019GF108991081001999999071999KA1120M+02641MA1999999097461MD1999999+0121MW1021REMSYN094AAXX  09184 65518 11965 80000 10220 20211 39746 40111 60402 70296 8807/ 333 10264 58012 88463;
0272655180999992000081112004+11140-001150FM-12+0322DFCP V0203601N002110048019N0100001N1+02051+02001101451ADDAA106001091AC11C9AY191061AY261061GA1051+004809069GA2011+009009099GA3081+030009049GF108991051091004501021999MA1999999097781MD1999999+0081MW1951REMSYN118AAXX  11124 65518 11460 83604 10205 20200 39778 40145 60011 79596 8592/ 333 0//51 58008 85616 81930 88460 94946 95871;
0229655180999992000081118004+11140-001150FM-12+0322DFCP V0200801N00211045001CN0150001N1+02401+02051101071ADDAA112031091AY191061AY261061GA1011+006009069GF107991011051008001071999KA1120M+02721MA1999999097441MD1999999-0101MW1011REMSYN100AAXX  11184 65518 11565 70804 10240 20205 39744 40107 60312 70196 8157/ 333 10272 59010 81620 87363;
0241655180999992000081206004+11140-001150FM-12+0322DFCP V0209999C000019999999N0150001N1+02061+02031101111ADDAA124032091GA1031+039009039GF107991031001999999071021IA2240+02009KA1120N+02011MA1999999097461MD1999999-0211OA150600051REMSYN111AAXX  12064 65518 1296570000 10206 20203 39746 40111 60324 83072 333 02059 20201 50174 55017 59021 83363 85076;
0207655180999992000081212004+11140-001150FM-12+0322DFCP V0209999C000012200019N0150001N1+02901+02251101141ADDAA199000091GA1021+006009069GF103991021081008001001021MA1999999097531MD1999999-0251REMSYN094AAXX  12124 65518 32565 30000 10290 20225 39753 40114 82802 333 0//00 59025 82620 94909 95832;EQDQ01  00002PRCP99
0223655180999992000081318004+11140-001150FM-12+0322DFCP V0201801N002110300019N0150001N1+02171+02091100931ADDAA112022191AY191061AY261061GA1071+030009019GF107991071001999999071021KA1120M+03001MA1999999097291MD1999999+0031MW1011REMSYN094AAXX  13184 65518 11965 71804 10217 20209 39729 40093 60222 70196 87072 333 10300 58003 87460;
0195655180999992000081400004+11140-001150FM-12+0322DFCP V0200801N001010390019N0150001N1+02221+02151101271ADDAA199000091GA1081+039009079GF108991081001999999071999MA1999999097661MD1999999+0231REMSYN082AAXX  14004 65518 32965 80802 10222 20215 39766 40127 8807/ 333 0//00 58023 88363;EQDQ01  00002PRCP99
0220655180999992000081406004+11140-001150FM-12+0322DFCP V0209999C000019999999N0150001N1+02151+02071101251ADDAA124022191GF108991081001999999071999IA2240+02009KA1120N+02151MA1999999097581MD1999999+0201OA150600211REMSYN106AAXX  14064 65518 32965 80000 10215 20207 39758 40125 60224 8807/ 333 02069 20215 50294 55042 58020 88363;
0201655180999992000081412004+11140-001150FM-12+0322DFCP V0209999C000010060019N0150001N1+02901+02361101151ADDAA199000091GA1051+006009069GF107991051051008001001021MA1999999097541MD1999999+0021REMSYN088AAXX  14124 65518 32565 70000 10290 20236 39754 40115 85502 333 0//00 58002 85620 83076;EQDQ01  00002PRCP99
0250655180999992000081500004+11140-001150FM-12+0322DFCP V0201801N001010300019N0100001N1+02411+02341101281ADDAA106001091AC11C9AY191061AY261061GA1011+009009099GA2081+030009049GF108991011091008001021999MA1999999097671MD1999999+0011MW1951REMSYN112AAXX  15004 65518 11560 81802 10241 20234 39767 40128 60011 79596 8192/ 333 0//51 58001 81930 88460 94946 95876;
0254655180999992000081506004+11140-001150FM-12+0322DFCP V0209999C000019999999N0150001N1+02161+02101101231ADDAA124013091AC13C9AY191061AY261061GF108991081001999999071999IA2240+02109KA1120N+02081MA1999999097601MD1999999+0021MW1021OA150600361REMSYN112AAXX  15064 65518 11965 80000 10216 20210 39760 40123 60134 70296 8807/ 333 02153 20208 50334 55070 58002 88363;
0182655180999992000081512004+11140-001150FM-12+0322DFCP V0201801N00101045001CN0150001N1+02851+02101101291ADDAA199000021GA1011+006009069GF107991011051008001031021MA1999999097691MD1999999+0151REMSYN088AAXX  15124 65518 32565 71802 10285 20210 39769 40129 81532 333 0//00 58015 81620 87076;
0214655180999992000081518004+11140-001150FM-12+0322DFCP V0209999C000019999999N0150001N1+02721+02181101111ADDAA199000091GA1011+039009039GF107991011001999999071021KA1120M+02941MA1999999097491MD1999999+0171REMSYN088AAXX  15184 65518 32965 70000 10272 20218 39749 40111 81072 333 10294 58017 81363 87076;EQDQ01  00002PRCP99
0201655180999992000081600004+11140-001150FM-12+0322DFCP V0209999C000019999999N0150001N1+02381+02191101351ADDAA199000091GA1011+039009039GF107991011001999999031021MA1999999097731MD1999999+0061REMSYN088AAXX  16004 65518 32965 70000 10238 20219 39773 40135 81032 333 0//00 58006 81363 87076;EQDQ01  00002PRCP99
0233655180999992000081606004+11140-001150FM-12+0322DFCP V0209999C000019999999N0150001N1+02551+02051101171ADDAA199000091GF107991071001999999071999IA2240+02109KA1120N+02071MA1999999097551MD1999999-0051OA150600461REMSYN100AAXX  16064 65518 32965 70000 10255 20205 39755 40117 8707/ 333 02100 20207 50414 55090 59005 87363;EQDQ01  00002PRCP99
0251655180999992000081612004+11140-001150FM-12+0322DFCP V0209999C00001007801CN0150001N1+02841+02171101391ADDAA199000091GA1021+006009069GA2031+007809089GA3051+039009039GF107991041081008001031021MA1999999097771MD1999999+0081REMSYN106AAXX  16124 65518 32565 70000 10284 20217 39777 40139 84832 333 0//00 58008 82620 83826 85363 94919 95833;EQDQ01  00002PRCP99
0229655180999992000081618004+11140-001150FM-12+0322DFCP V0209999C000019999999N0150001N1+02181+02041101061ADDAA112010991AY191061AY261061GA1011+039009039GF107991011001999999031021KA1120M+02841MA1999999097401MD1999999-0091MW1011REMSYN100AAXX  16184 65518 11965 70000 10218 20204 39740 40106 60112 70196 81032 333 10284 59009 81363 87076;
0195655180999992000081700004+11140-001150FM-12+0322DFCP V0209999C000010390019N0150001N1+02031+01981101081ADDAA199000091GA1071+039009079GF107991071001999999071999MA1999999097451MD1999999-0281REMSYN082AAXX  17004 65518 32965 70000 10203 20198 39745 40108 8707/ 333 0//00 59028 87363;EQDQ01  00002PRCP99
0242655180999992000081706004+11140-001150FM-12+0322DFCP V0209999C000010450019N0150001N1+02051+01991101141ADDAA124010991GA1041+003009079GF108991041061004501071999IA2240+02009KA1120N+01981MA1999999097471MD1999999-0081OA150600101REMSYN112AAXX  17064 65518 12465 80000 10205 20199 39747 40114 60114 8467/ 333 02059 20198 50434 55029 59008 84710 88363;
0201655180999992000081712004+11140-001150FM-12+0322DFCP V0201801N00211045001CN0150001N1+02761+02211101221ADDAA199000091GA1011+006009069GF107991011051008001071021MA1999999097581MD1999999-0191REMSYN088AAXX  17124 65518 32565 71804 10276 20221 39758 40122 81572 333 0//00 59019 81620 87363;EQDQ01  00002PRCP99
0214655180999992000081718004+11140-001150FM-12+0322DFCP V0201801N00101045001CN0150001N1+02651+02331101101ADDAA199000091GA1011+006009069GF107991011051008001031021KA1120M+02851MA1999999097421MD1999999+0021REMSYN088AAXX  17184 65518 32565 71802 10265 20233 39742 40110 81532 333 10285 58002 81620 86076;EQDQ01  00002PRCP99
0201655180999992000081800004+11140-001150FM-12+0322DFCP V0209999C000012200019N0150001N1+02311+02191101191ADDAA199000091GA1011+039009039GF103991011001999999031021MA1999999097581MD1999999+0131REMSYN088AAXX  18004 65518 32965 30000 10231 20219 39758 40119 81032 333 0//00 58013 81363 83076;EQDQ01  00002PRCP99
0255655180999992000081806004+11140-001150FM-12+0322DFCP V0209999C000019999999N0150001N1+02201+02141101171ADDAA199000091GA1021+039009039GF107991021001999999031021IA2240+02009KA1120N+02171MA1999999097541MD1999999+0071OA150600101REMSYN106AAXX  18064 65518 32965 70000 10220 20214 39754 40117 82032 333 02000 20217 50214 55029 58007 82363 86076;EQDQ01  00002PRCP99
0229655180999992000081812004+11140-001150FM-12+0322DFCP V0202201N002110078019N0150001N1+02911+02341101111ADDAA199000091GA1031+006009069GA2031+007809089GF107991051081008001001021MA1999999097501MD1999999-0081REMSYN100AAXX  18124 65518 32565 72204 10291 20234 39750 40111 85802 333 0//00 59008 83620 83826 94919 95839;EQDQ01  00002PRCP99
0292655180999992000081818004+11140-001150FM-12+0322DFCP V0202201N002110390019N0150001N1+02841+02311100871ADDAA199000091AY191061AY221061GA1031+006009069GA2011+009009099GA3081+039009039GF108991031091008001071999KA1120M+03121MA1999999097261MD1999999-0161MW1171REMSYN112AAXX  18184 65518 31565 82204 10284 20231 39726 40087 71792 8397/ 333 10312 59016 83620 81930 88363 94946 95876;EQDQ01  00002PRCP99
0254655180999992000081906004+11140-001150FM-12+0322DFCP V0201801N002119999999N0100001N1+02261+02231101191ADDAA124026991AC10I9AY161061AY221061GF108991081001999999021999IA2240+02109KA1120N+02091MA1999999097581MD1999999+0041MW1611OA150600511REMSYN112AAXX  19064 65518 11960 81804 10226 20223 39758 40119 60274 76162 8802/ 333 02154 20209 50374 55100 58004 88460;
0216655180999992000081912004+11140-001150FM-12+0322DFCP V0209999C000010048019N0150001N1+02551+02241101391ADDAA106010991AC10I9AY161061AY221061GA1081+004809059GF108991081051004501999999MA1999999097741MD1999999+0241MW1031REMSYN094AAXX  19124 65518 11465 80000 10255 20224 39774 40139 60111 70362 885// 333 0//54 58024 88616;
0223655180999992000081918004+11140-001150FM-12+0322DFCP V0209999C000010390019N0150001N1+02481+02291101371ADDAA112010991AY161061AY221061GA1081+039009079GF108991081001999999071999KA1120M+02841MA1999999097721MD1999999+0461MW1021REMSYN094AAXX  19184 65518 11965 80000 10248 20229 39772 40137 60112 70262 8807/ 333 10284 58046 88363;
0201655180999992000082000004+11140-001150FM-12+0322DFCP V0209999C000019999999N0150001N1+02231+02161101411ADDAA199000091GA1021+039009039GF105991021001999999031021MA1999999097771MD1999999+0191REMSYN088AAXX  20004 65518 32965 50000 10223 20216 39777 40141 82032 333 0//00 58019 82363 85076;EQDQ01  00002PRCP99
0220655180999992000082006004+11140-001150FM-12+0322DFCP V0209999C000019999999N0150001N1+02221+02191101401ADDAA124010991GF107991071001999999071999IA2240+02109KA1120N+02101MA1999999097751MD1999999+0171OA150600101REMSYN106AAXX  20064 65518 12965 70000 10222 20219 39775 40140 60114 8707/ 333 02159 20210 50234 55023 58017 87363;
0251655180999992000082012004+11140-001150FM-12+0322DFCP V0209999C000010078019N0150001N1+02831+02201101491ADDAA199000091GA1021+006009069GA2041+007809089GA3011+009009099GF107991051091008001031021MA1999999097861MD1999999+0121REMSYN106AAXX  20124 65518 32565 70000 10283 20220 39786 40149 85932 333 0//00 58012 82620 84826 81930 94979 95832;EQDQ01  00002PRCP99
0257655180999992000082018004+11140-001150FM-12+0322DFCP V0209999C000010390019N0150001N1+02461+02151101221ADDAA112010991AY161061AY221061GA1011+009009099GA2041+039009039GF106991011091008001031021KA1120M+02851MA1999999097581MD1999999-0141MW1031REMSYN112AAXX  20184 65518 11565 60000 10246 20215 39758 40122 60112 70362 81932 333 10285 59014 81930 84363 94942 95812;
0222655180999992000082100004+11140-001150FM-12+0322DFCP V0209999C000019999999N0150001N1+02181+02141101281ADDAA106003091AC10I9AY161061AY221061GA1031+039009039GF105991031001999999071021MA1999999097661MD1999999-0111MW1011REMSYN100AAXX  21004 65518 11965 50000 10218 20214 39766 40128 60031 70162 83072 333 0//54 59011 83363 83076;
0226655180999992000082106004+11140-001150FM-12+0322DFCP V0209999C000019999999N0150001N1+02081+02031101261ADDAA124013091AC13I9GF107991061001999999031021IA2240+02109KA1120N+02051MA1999999097601MD1999999-0151OA150600151REMSYN106AAXX  21064 65518 12965 70000 10208 20203 39760 40126 60134 86032 333 02158 20205 50354 55039 59015 86363;
0229655180999992000082112004+11140-001150FM-12+0322DFCP V0202601N001010078019N0150001N1+02981+02291101261ADDAA199000091GA1031+006009069GA2031+007809089GF107991051081008001001021MA1999999097651MD1999999-0211REMSYN100AAXX  21124 65518 32565 72602 10298 20229 39765 40126 85802 333 0//00 59021 83620 83826 94919 95839;EQDQ01  00002PRCP99
0214655180999992000082118004+11140-001150FM-12+0322DFCP V0209999C00001105001CN0150001N1+02901+02251101061ADDAA199000091GA1011+006009069GF107991011051008001001021KA1120M+03091MA1999999097441MD1999999-0141REMSYN088AAXX  21184 65518 32565 70000 10290 20225 39744 40106 81502 333 10309 59014 81620 87076;EQDQ01  00002PRCP99
0195655180999992000082200004+11140-001150FM-12+0322DFCP V0209999C000010780019N0150001N1+02441+02381101101ADDAA199000091GA1071+078009019GF107991001001999999001021MA1999999097511MD1999999-0151REMSYN082AAXX  22004 65518 32965 70000 10244 20238 39751 40110 80002 333 0//00 59015 87076;EQDQ01  00002PRCP99
0207655180999992000082212004+11140-001150FM-12+0322DFCP V0202401N003112200019N0150001N1+02951+02231101141ADDAA199000091GA1021+006009069GF103991021081008001001021MA1999999097541MD1999999-0111REMSYN094AAXX  22124 65518 32565 32406 10295 20223 39754 40114 82802 333 0//00 59011 82620 94909 95838;EQDQ01  00002PRCP99
0248655180999992000082218004+11140-001150FM-12+0322DFCP V0209999C000010780019N0150001N1+02801+02451100951ADDAA199000091AY191061AY221061GA1071+078009009GF107991011091008001001021KA1120M+03201MA1999999097341MD1999999-0101MW1171REMSYN100AAXX  22184 65518 31565 70000 10280 20245 39734 40095 71792 81902 333 10320 59010 87076 94947 95817;EQDQ01  00002PRCP99
0195655180999992000082300004+11140-001150FM-12+0322DFCP V0209999C000010390019N0150001N1+02371+02151101151ADDAA199000091GA1071+039009079GF107991071001999999071999MA1999999097541MD1999999+0031REMSYN082AAXX  23004 65518 32965 70000 10237 20215 39754 40115 8707/ 333 0//00 58003 87363;EQDQ01  00002PRCP99
0233655180999992000082306004+11140-001150FM-12+0322DFCP V0209999C000019999999N0150001N1+02281+02191101181ADDAA199000091GF107991071001999999071999IA2240+02209KA1120N+02281MA1999999097561MD1999999+0121OA150600461REMSYN100AAXX  23064 65518 32965 70000 10228 20219 39756 40118 8707/ 333 02200 20228 50544 55092 58012 87363;EQDQ01  00002PRCP99
0257655180999992000082312004+11140-001150FM-12+0322DFCP V0201801N002110078019N0150001N1+02801+02311101221ADDAA199000091AY191061AY221061GA1041+006009069GA2031+007809089GF107991061081008001001021MA1999999097611MD1999999+0071MW1031REMSYN106AAXX  23124 65518 31565 71804 10280 20231 39761 40122 70392 86802 333 0//00 58007 84620 83826 94919 95839;EQDQ01  00002PRCP99
0214655180999992000082318004+11140-001150FM-12+0322DFCP V0209999C00001105001CN0150001N1+02861+02351101011ADDAA199000091GA1021+006009069GF107991021051008001001021KA1120M+03041MA1999999097401MD1999999+0061REMSYN088AAXX  23184 65518 32565 70000 10286 20235 39740 40101 82502 333 10304 58006 82620 87076;EQDQ01  00002PRCP99
0195655180999992000082400004+11140-001150FM-12+0322DFCP V0201801N001010780019N0150001N1+02481+02311101291ADDAA199000091GA1071+078009019GF107991001001999999001021MA1999999097691MD1999999+0151REMSYN082AAXX  24004 65518 32965 71802 10248 20231 39769 40129 80002 333 0//00 58015 87076;EQDQ01  00002PRCP99
0233655180999992000082406004+11140-001150FM-12+0322DFCP V0209999C000019999999N0150001N1+02361+02271101241ADDAA199000091GF108991081001999999071999IA2240+02209KA1120N+02301MA1999999097631MD1999999+0071OA150600411REMSYN100AAXX  24064 65518 32965 80000 10236 20227 39763 40124 8807/ 333 02200 20230 50614 55082 58007 88363;EQDQ01  00002PRCP99
0229655180999992000082412004+11140-001150FM-12+0322DFCP V0202201N00311007801CN0150001N1+02921+02401101431ADDAA199000091GA1021+006009069GA2031+007809089GF107991041081008001031021MA1999999097821MD1999999+0211REMSYN100AAXX  24124 65518 32565 72206 10292 20240 39782 40143 84832 333 0//00 58021 82620 83826 94919 95836;EQDQ01  00002PRCP99
0270655180999992000082418004+11140-001150FM-12+0322DFCP V0209999C000010780019N0150001N1+02841+02421101151ADDAA199000091GA1011+007809089GA2011+009009099GA3071+078009009GF107991011091008001001021KA1120M+03141MA1999999097541MD1999999+0141REMSYN112AAXX  24184 65518 32565 70000 10284 20242 39754 40115 81902 333 10314 58014 81826 81930 87076 94941 94943 95813;EQDQ01  00002PRCP99
0195655180999992000082500004+11140-001150FM-12+0322DFCP V0209999C000010780019N0150001N1+02271+02121101291ADDAA199000091GA1051+078009019GF105991001001999999001021MA1999999097671MD1999999-0021REMSYN082AAXX  25004 65518 32965 50000 10227 20212 39767 40129 80002 333 0//00 59002 85076;EQDQ01  00002PRCP99
0257655180999992000082512004+11140-001150FM-12+0322DFCP V0209999C000010078019N0150001N1+03141+02221101141ADDAA199000091AY141061AY221061GA1031+006009069GA2031+007809089GF107991051081008001001021MA1999999097541MD1999999-0281MW1031REMSYN106AAXX  25124 65518 31565 70000 10314 20222 39754 40114 70342 85802 333 0//00 59028 83620 83826 94919 95839;EQDQ01  00002PRCP99
0264655180999992000082518004+11140-001150FM-12+0322DFCP V0209999C000010780019N0150001N1+03101+02371100861ADDAA199000091GA1011+006009069GA2011+009009099GA3071+078009009GF107991011091008001001021KA1120M+03291MA1999999097271MD1999999-0271REMSYN106AAXX  25184 65518 32565 70000 10310 20237 39727 40086 81902 333 10329 59027 81620 81930 87076 94943 95833;EQDQ01  00002PRCP99
0257655180999992000082600004+11140-001150FM-12+0322DFCP V0209999C000010780019N0150001N1+02471+02251101121ADDAA199000091AY191061AY221061GA1011+009009099GA2071+078009009GF107991011091008001071021MA1999999097441MD1999999-0231MW1171REMSYN106AAXX  26004 65518 31565 70000 10247 20225 39744 40112 71792 81972 333 0//00 59023 81930 87076 94941 95871;EQDQ01  00002PRCP99
0216655180999992000082612004+11140-001150FM-12+0322DFCP V0209999C000010390019N0150001N1+02631+02271101131ADDAA106002091AC13C9AY161061AY221061GA1061+039009079GF107991061001999999071021MA1999999097521MD1999999-0021MW1011REMSYN094AAXX  26124 65518 11965 70000 10263 20227 39752 40113 60021 70162 86072 333 0//53 59002 86363;
0235655180999992000082618004+11140-001150FM-12+0322DFCP V0209999C000010390019N0150001N1+02721+02261100841ADDAA112002091GA1011+009009099GA2061+039009039GF107991011091008001031021KA1120M+02891MA1999999097231MD1999999-0041REMSYN112AAXX  26184 65518 12565 70000 10272 20226 39723 40084 60022 81932 333 10289 59004 81930 86363 94943 94945 95833;
0242655180999992000082706004+11140-001150FM-12+0322DFCP V0209999C000010450019N0150001N1+02301+02271100971ADDAA124002091GA1031+003009079GF107991031061004501031021IA2240+02009KA1120N+02261MA1999999097361MD1999999+0021OA150600151REMSYN112AAXX  27064 65518 12465 70000 10230 20227 39736 40097 60024 83632 333 02059 20226 50284 55033 58002 83710 86076;
0201655180999992000082712004+11140-001150FM-12+0322DFCP V0201801N00211105001CN0150001N1+03041+02391101001ADDAA199000091GA1041+006009069GF107991041051008001001021MA1999999097411MD1999999-0111REMSYN088AAXX  27124 65518 32565 71804 10304 20239 39741 40100 84502 333 0//00 59011 84620 84076;EQDQ01  00002PRCP99
0242655180999992000082718004+11140-001150FM-12+0322DFCP V0209999C000010780019N0150001N1+03081+02331100791ADDAA199000091GA1011+009009099GA2071+078009009GF107991011091008001001021KA1120M+03201MA1999999097211MD1999999-0021REMSYN100AAXX  27184 65518 32565 70000 10308 20233 39721 40079 81902 333 10320 59002 81930 87076 94941 95831;EQDQ01  00002PRCP99
0255655180999992000082806004+11140-001150FM-12+0322DFCP V0209999C000019999999N0150001N1+02341+02251100931ADDAA199000091GA1011+039009039GF107991011001999999031021IA2240+02309KA1120N+02301MA1999999097331MD1999999-0021OA150600461REMSYN106AAXX  28064 65518 32965 70000 10234 20225 39733 40093 81032 333 02300 20230 50514 55098 59002 81363 87076;EQDQ01  00002PRCP99
0229655180999992000082812004+11140-001150FM-12+0322DFCP V0202201N001010060019N0150001N1+03061+02321101101ADDAA199000091GA1051+006009069GA2051+078009009GF107991051081008001001021MA1999999097421MD1999999+0011REMSYN100AAXX  28124 65518 32565 72202 10306 20232 39742 40110 85802 333 0//00 58001 85620 85076 94918 95838;EQDQ01  00002PRCP99
0248655180999992000082818004+11140-001150FM-12+0322DFCP V0209999C000010780019N0150001N1+02971+02641100761ADDAA199000091GA1011+009009099GA2071+078009009GF107991011091008001031021KA1120M+03321MA1999999097171MD1999999-0041REMSYN106AAXX  28184 65518 32565 70000 10297 20264 39717 40076 81932 333 10332 59004 81930 87076 94943 94946 95813;EQDQ01  00002PRCP99
0279655180999992000082900004+11140-001150FM-12+0322DFCP V0202001N001010780019N0150001N1+02521+02291100951ADDAA199000091AY121061AY221061GA1011+006009069GA2011+009009099GA3071+078009009GF107991021091008001001021MA1999999097371MD1999999-0051MW1131REMSYN112AAXX  29004 65518 31565 72002 10252 20229 39737 40095 71322 82902 333 0//00 59005 81620 81930 87076 94964 95834;EQDQ01  00002PRCP99
0255655180999992000082906004+11140-001150FM-12+0322DFCP V0209999C000019999999N0150001N1+02261+02171100961ADDAA199000091GA1021+039009039GF107991021001999999031021IA2240+02309KA1120N+02241MA1999999097361MD1999999+0021OA150600511REMSYN106AAXX  29064 65518 32965 70000 10226 20217 39736 40096 82032 333 02300 20224 50444 55108 58002 82363 87076;EQDQ01  00002PRCP99
0251655180999992000082912004+11140-001150FM-12+0322DFCP V0201801N001010390019N0150001N1+03051+02391101071ADDAA199000091GA1011+006009069GA2031+007809089GA3051+039009039GF107991031081008001031021MA1999999097491MD1999999+0071REMSYN106AAXX  29124 65518 32565 71802 10305 20239 39749 40107 83832 333 0//00 58007 81620 83826 85363 94919 95836;EQDQ01  00002PRCP99
0257655180999992000082918004+11140-001150FM-12+0322DFCP V0209999C000010390019N0150001N1+02291+02111100891ADDAA112004191AY191061AY261061GA1011+009009099GA2051+039009039GF107991011091008001071021KA1120M+03221MA1999999097251MD1999999+0081MW1291REMSYN112AAXX  29184 65518 11565 70000 10229 20211 39725 40089 60042 72996 81972 333 10322 58008 81930 85363 94945 95835;
0201655180999992000083000004+11140-001150FM-12+0322DFCP V0209999C000019999999N0150001N1+02201+02161101061ADDAA199000091GA1021+039009039GF107991021001999999031021MA1999999097461MD1999999+0091REMSYN088AAXX  30004 65518 32965 70000 10220 20216 39746 40106 82032 333 0//00 58009 82363 86076;EQDQ01  00002PRCP99
0242655180999992000083006004+11140-001150FM-12+0322DFCP V0209999C000019999999N0150001N1+02111+02061101021ADDAA124004191GA1021+039009039GF107991021001999999031021IA2240+02009KA1120N+02051MA1999999097361MD1999999+0001OA150600461REMSYN112AAXX  30064 65518 12965 70000 10211 20206 39736 40102 60044 82032 333 02059 20205 50554 55090 58000 82363 86076;
0201655180999992000083012004+11140-001150FM-12+0322DFCP V0201801N00101045001CN0150001N1+03051+02421101061ADDAA199000091GA1011+006009069GF107991011051008001031021MA1999999097461MD1999999-0031REMSYN088AAXX  30124 65518 32565 71802 10305 20242 39746 40106 81532 333 0//00 59003 81620 87076;EQDQ01  00002PRCP99
0214655180999992000083018004+11140-001150FM-12+0322DFCP V0209999C000010390019N0150001N1+02961+02531100671ADDAA199000091GA1051+039009039GF107991051001999999071021KA1120M+03251MA1999999097071MD1999999-0181REMSYN088AAXX  30184 65518 32965 70000 10296 20253 39707 40067 85072 333 10325 59018 85363 83076;EQDQ01  00002PRCP99
0195655180999992000083100004+11140-001150FM-12+0322DFCP V0209999C000010780019N0150001N1+02521+02411100931ADDAA199000091GA1071+078009019GF107991001001999999001021MA1999999097351MD1999999-0111REMSYN082AAXX  31004 65518 32965 70000 10252 20241 39735 40093 80002 333 0//00 59011 87076;EQDQ01  00002PRCP99
0233655180999992000083106004+11140-001150FM-12+0322DFCP V0209999C000019999999N0150001N1+02401+02331100921ADDAA199000091GF108991081001999999071999IA2240+02009KA1120N+02351MA1999999097331MD1999999-0031OA150600511REMSYN100AAXX  31064 65518 32965 80000 10240 20233 39733 40092 8807/ 333 02000 20235 50364 55100 59003 88463;EQDQ01  00002PRCP99
0216655180999992000083112004+11140-001150FM-12+0322DFCP V0209999C000010390019N0150001N1+02331+02011101071ADDAA106007991AC10I9AY191061AY261061GA1071+039009079GF107991071001999999071999MA1999999097451MD1999999-0011MW1011REMSYN094AAXX  31124 65518 11965 70000 10233 20201 39745 40107 60081 70196 8707/ 333 0//14 59001 87363;
0201655180999992000083118004+11140-001150FM-12+0322DFCP V0209999C00001105001CN0150001N1+02671+02281100691ADDAA112007991GA1011+006009069GF107991021081008001001021KA1120M+02871MA1999999097091MD1999999+0021REMSYN094AAXX  31184 65518 12565 70000 10267 20228 39709 40069 60082 82802 333 10287 58002 81620 87076;
0195655180999992000090100004+11140-001150FM-12+0322DFCP V0209999C000010390019N0150001N1+02271+02171100971ADDAA199000091GA1071+039009019GF107991071001999999071999MA1999999097331MD1999999-0021REMSYN082AAXX  01004 65518 32965 70000 10227 20217 39733 40097 8707/ 333 0//00 59002 87463;EQDQ01  00002PRCP99
0220655180999992000090106004+11140-001150FM-12+0322DFCP V0209999C000019999999N0150001N1+02231+02191100991ADDAA124007991GF108991081001999999071999IA2240+01909KA1120N+02161MA1999999097371MD1999999+0041OA150600151REMSYN106AAXX  01064 65518 12965 80000 10223 20219 39737 40099 60084 8807/ 333 01919 20216 50444 55035 58004 88363;
0229655180999992000090112004+11140-001150FM-12+0322DFCP V0201801N002110078019N0150001N1+02901+02301101061ADDAA199000091GA1031+006009069GA2031+007809089GF107991051081008001001021MA1999999097451MD1999999+0001REMSYN100AAXX  01124 65518 32565 71804 10290 20230 39745 40106 85802 333 0//00 58000 83620 83826 94919 95839;EQDQ01  00002PRCP99
0214655180999992000090118004+11140-001150FM-12+0322DFCP V0209999C000019999999N0150001N1+02901+02481100481ADDAA199000091GA1011+039009039GF107991011001999999031021KA1120M+03101MA1999999097271MD1999999+0181REMSYN088AAXX  01184 65518 32965 70000 10290 20248 39727 40048 81032 333 10310 58018 81363 87076;EQDQ01  00002PRCP99
0233655180999992000090206004+11140-001150FM-12+0322DFCP V0209999C000019999999N0150001N1+02361+02291101071ADDAA199000091GF107991061001999999071021IA2240+02209KA1120N+02311MA1999999097471MD1999999+0101OA150600361REMSYN100AAXX  02064 65518 32965 70000 10236 20229 39747 40107 86072 333 02200 20231 50304 55071 58010 86363;EQDQ01  00002PRCP99
0229655180999992000090212004+11140-001150FM-12+0322DFCP V0209999C00001045001CN0150001N1+02771+02401100981ADDAA199000091AY191061AY221061GA1011+006009069GF107991011051008001071021MA1999999097391MD1999999-0061MW1031REMSYN094AAXX  02124 65518 31565 70000 10277 20240 39739 40098 70392 81572 333 0//00 59006 81620 86363;EQDQ01  00002PRCP99
0214655180999992000090218004+11140-001150FM-12+0322DFCP V0209999C00001045001CN0150001N1+02971+02551100941ADDAA199000091GA1021+006009069GF106991021051008001031021KA1120M+03201MA1999999097351MD1999999+0081REMSYN088AAXX  02184 65518 32565 60000 10297 20255 39735 40094 82532 333 10320 58008 82620 85076;EQDQ01  00002PRCP99
0195655180999992000090300004+11140-001150FM-12+0322DFCP V0209999C000010780019N0150001N1+02501+02411100931ADDAA199000091GA1051+078009019GF105991001001999999001021MA1999999097341MD1999999-0151REMSYN082AAXX  03004 65518 32965 50000 10250 20241 39734 40093 80002 333 0//00 59015 85076;EQDQ01  00002PRCP99
0251655180999992000090312004+11140-001150FM-12+0322DFCP V0202601N00101007801CN0150001N1+03241+02331100881ADDAA199000091GA1021+006009069GA2031+007809089GA3051+078009009GF107991041081008001001021MA1999999097311MD1999999-0081REMSYN106AAXX  03124 65518 32565 72602 10324 20233 39731 40088 84802 333 0//00 59008 82620 83826 85076 94919 95839;EQDQ01  00002PRCP99
0208655180999992000090318004+11140-001150FM-12+0322DFCP V0209999C000010780019N0150001N1+03111+02361100661ADDAA199000091GA1071+078009019GF107991001001999999001021KA1120M+03561MA1999999097091MD1999999-0061REMSYN082AAXX  03184 65518 32965 70000 10311 20236 39709 40066 80002 333 10356 59006 87076;EQDQ01  00002PRCP99
0278655180999992000090400004+11140-001150FM-12+0322DFCP V0209999C000010780019N0150001N1+02131+01981100971ADDAA106000191AC11C9AY121061AY221061GA1021+006009069GA2021+009009099GA3061+078009009GF107991031091008001001021MA1999999097331MD1999999-0011MW1171REMSYN124AAXX  04004 65518 11565 70000 10213 20198 39733 40097 69921 71722 83902 333 0//11 59001 82620 82930 86076 94942 94946 95832;
0298655180999992000090406004+11140-001150FM-12+0322DFCP V0200401N00101078001CN0150001N1+02151+02071100801ADDAA124000191AY191061AY291061GA1011+009009099GA2071+078009009GF107991011091008001031021IA2240+02309KA1120N+02081MA1999999097211MD1999999-0051MW1171OA150600511REMSYN130AAXX  04064 65518 11565 70402 10215 20207 39721 40080 69924 71799 81932 333 02319 20208 50604 55104 59005 81930 87076 94946 95816;
0229655180999992000090412004+11140-001150FM-12+0322DFCP V0202001N00311105001CN0150001N1+03051+02361100831ADDAA199000091AY191061AY221061GA1011+006009069GF105991011051008001001021MA1999999097231MD1999999-0081MW1021REMSYN094AAXX  04124 65518 31565 52006 10305 20236 39723 40083 70292 81502 333 0//00 59008 81620 85076;EQDQ01  00002PRCP99
0242655180999992000090418004+11140-001150FM-12+0322DFCP V0209999C000010780019N0150001N1+03021+02431100671ADDAA199000091GA1011+007809089GA2051+078009009GF105991011011008001001021KA1120M+03271MA1999999097081MD1999999-0011REMSYN100AAXX  04184 65518 32565 50000 10302 20243 39708 40067 81102 333 10327 59001 81826 85076 94902 95812;EQDQ01  00002PRCP99
0255655180999992000090506004+11140-001150FM-12+0322DFCP V0209999C000019999999N0150001N1+02311+02251100901ADDAA199000091GA1011+039009039GF107991011001999999031021IA2240+02109KA1120N+02291MA1999999097311MD1999999+0101OA150600411REMSYN106AAXX  05064 65518 32965 70000 10231 20225 39731 40090 81032 333 02100 20229 50464 55089 58010 81363 87076;EQDQ01  00002PRCP99
0229655180999992000090512004+11140-001150FM-12+0322DFCP V0201801N002110780019N0150001N1+03161+02431100991ADDAA199000091GA1031+006009069GA2071+078009009GF107991041081008001001021MA1999999097411MD1999999+0181REMSYN100AAXX  05124 65518 32565 71804 10316 20243 39741 40099 84802 333 0//00 58018 83620 87076 94922 95832;EQDQ01  00002PRCP99
0242655180999992000090518004+11140-001150FM-12+0322DFCP V0209999C000010780019N0150001N1+03001+02471100961ADDAA199000091GA1011+009009099GA2071+078009009GF107991011091008001001021KA1120M+03251MA1999999097171MD1999999+0091REMSYN100AAXX  05184 65518 32565 70000 10300 20247 39717 40096 81902 333 10325 58009 81930 87076 94948 95838;EQDQ01  00002PRCP99
0254655180999992000090606004+11140-001150FM-12+0322DFCP V0209999C000019999999N0150001N1+02101+02041101001ADDAA124023991AC10I9AY191061AY261061GF108991081001999999071999IA2240+02309KA1120N+02001MA1999999097391MD1999999+0081MW1021OA150600461REMSYN112AAXX  06064 65518 11965 80000 10210 20204 39739 40100 60244 70296 8807/ 333 02354 20200 50684 55096 58008 88363;
0242655180999992000090618004+11140-001150FM-12+0322DFCP V0209999C000010780019N0150001N1+02701+02391100841ADDAA199000091GA1011+009009099GA2061+078009009GF106991011091008001031021KA1120M+02951MA1999999097221MD1999999+0051REMSYN100AAXX  06184 65518 32565 60000 10270 20239 39722 40084 81932 333 10295 58005 81930 86076 94941 95811;EQDQ01  00002PRCP99
0195655180999992000090700004+11140-001150FM-12+0322DFCP V0209999C000010390019N0150001N1+02341+02211101051ADDAA199000091GA1081+039009079GF108991081001999999071999MA1999999097441MD1999999-0111REMSYN082AAXX  07004 65518 32965 80000 10234 20221 39744 40105 8807/ 333 0//00 59011 88363;EQDQ01  00002PRCP99
0255655180999992000090706004+11140-001150FM-12+0322DFCP V0209999C00001039001CN0150001N1+02211+02041100901ADDAA199000091GA1051+039009039GF107991051001999999071021IA2240+02009KA1120N+02191MA1999999097291MD1999999-0101OA150600361REMSYN106AAXX  07064 65518 32965 70000 10221 20204 39729 40090 85072 333 02000 20219 50414 55078 59010 85363 83076;EQDQ01  00002PRCP99
0223655180999992000090712004+11140-001150FM-12+0322DFCP V0201801N002110390019N0150001N1+02861+02131101111ADDAA199000091GA1021+006009069GA2031+039009039GF107991021051008001031021MA1999999097501MD1999999+0061REMSYN094AAXX  07124 65518 32565 71804 10286 20213 39750 40111 82532 333 0//00 58006 82620 83363 86076;EQDQ01  00002PRCP99
0264655180999992000090718004+11140-001150FM-12+0322DFCP V0209999C000010780019N0150001N1+02851+02351100671ADDAA199000091GA1011+006009069GA2021+009009099GA3061+078009009GF107991021091008001001021KA1120M+03081MA1999999097071MD1999999-0151REMSYN106AAXX  07184 65518 32565 70000 10285 20235 39707 40067 82902 333 10308 59015 81620 82930 86076 94942 95812;EQDQ01  00002PRCP99
0276655180999992000090806004+11140-001150FM-12+0322DFCP V0202201N002110450019N0150001N1+02101+02051100731ADDAA124029091AC13I9AY191061AY261061GA1011+006009069GF107991011051008001071021IA2240+02209KA1120N+01971MA1999999097121MD1999999-0171MW1011OA150600411REMSYN118AAXX  08064 65518 11565 72204 10210 20205 39712 40073 60294 70196 81572 333 02268 20197 50594 55080 59017 81620 86363;
0201655180999992000090812004+11140-001150FM-12+0322DFCP V0202601N00211045001CN0150001N1+02901+02301100871ADDAA199000091GA1021+006009069GF107991021051008001071021MA1999999097251MD1999999-0251REMSYN088AAXX  08124 65518 32565 72604 10290 20230 39725 40087 82572 333 0//00 59025 82620 86363;EQDQ01  00002PRCP99
0214655180999992000090818004+11140-001150FM-12+0322DFCP V0209999C00001045001CN0150001N1+02701+02421100671ADDAA199000091GA1011+006009069GF107991011051008001071999KA1120M+03101MA1999999097051MD1999999-0021REMSYN088AAXX  08184 65518 32565 70000 10270 20242 39705 40067 8157/ 333 10310 59002 81620 87363;EQDQ01  00002PRCP99
0201655180999992000090900004+11140-001150FM-12+0322DFCP V0209999C000019999999N0150001N1+02371+02331100821ADDAA199000091GA1021+039009039GF107991021001999999071021MA1999999097231MD1999999-0141REMSYN088AAXX  09004 65518 32965 70000 10237 20233 39723 40082 82072 333 0//00 59014 82363 87076;EQDQ01  00002PRCP99
0233655180999992000090906004+11140-001150FM-12+0322DFCP V0209999C000019999999N0150001N1+02301+02261100911ADDAA199000091GF108991081001999999071999IA2240+02009KA1120N+02251MA1999999097291MD1999999+0171OA150600151REMSYN100AAXX  09064 65518 32965 80000 10230 20226 39729 40091 8807/ 333 02000 20225 50174 55038 58017 88363;EQDQ01  00002PRCP99
0229655180999992000090912004+11140-001150FM-12+0322DFCP V0202001N002110390019N0150001N1+02901+02331101031ADDAA199000091GA1021+006009069GA2061+039009039GF107991031081008001071021MA1999999097431MD1999999+0181REMSYN100AAXX  09124 65518 32565 72004 10290 20233 39743 40103 83872 333 0//00 58018 82620 86363 94909 95812;EQDQ01  00002PRCP99
0208655180999992000090918004+11140-001150FM-12+0322DFCP V0209999C000010390019N0150001N1+02741+02431100831ADDAA199000091GA1061+039009079GF107991061001999999071021KA1120M+03011MA1999999097221MD1999999+0171REMSYN082AAXX  09184 65518 32965 70000 10274 20243 39722 40083 86072 333 10301 58017 86363;EQDQ01  00002PRCP99
0201655180999992000091000004+11140-001150FM-12+0322DFCP V0209999C000010390019N0150001N1+02451+02351101051ADDAA199000091GA1051+039009039GF107991051001999999071021MA1999999097451MD1999999+0221REMSYN088AAXX  10004 65518 32965 70000 10245 20235 39745 40105 85072 333 0//00 58022 85363 83076;EQDQ01  00002PRCP99
0255655180999992000091006004+11140-001150FM-12+0322DFCP V0209999C000019999999N0150001N1+02301+02261100961ADDAA199000091GA1021+039009049GF107991021001999999021021IA2240+02309KA1120N+02261MA1999999097341MD1999999+0051OA150600101REMSYN106AAXX  10064 65518 32965 70000 10230 20226 39734 40096 82022 333 02300 20226 50344 55025 58005 82463 87076;EQDQ01  00002PRCP99
0229655180999992000091012004+11140-001150FM-12+0322DFCP V0209999C000010078019N0150001N1+03041+02391101131ADDAA199000091GA1031+006009069GA2051+007809089GF107991071081008001999999MA1999999097531MD1999999+0101REMSYN100AAXX  10124 65518 32565 70000 10304 20239 39753 40113 878// 333 0//00 58010 83620 85826 94939 95834;EQDQ01  00002PRCP99
0264655180999992000091018004+11140-001150FM-12+0322DFCP V0209999C000010780019N0150001N1+02881+02381100831ADDAA199000091GA1011+006009069GA2011+009009099GA3061+078009009GF107991011091008001031021KA1120M+03201MA1999999097241MD1999999+0021REMSYN106AAXX  10184 65518 32565 70000 10288 20238 39724 40083 81932 333 10320 58002 81620 81930 86076 94944 95834;EQDQ01  00002PRCP99
0195655180999992000091100004+11140-001150FM-12+0322DFCP V0209999C000010390019N0150001N1+02441+02341100901ADDAA199000091GA1071+039009079GF107991071001999999071999MA1999999097311MD1999999-0141REMSYN082AAXX  11004 65518 32965 70000 10244 20234 39731 40090 8707/ 333 0//00 59014 87363;EQDQ01  00002PRCP99
0255655180999992000091106004+11140-001150FM-12+0322DFCP V0202001N001010450019N0150001N1+02361+02331100761ADDAA199000091GA1031+003909079GF107991031061008001071999IA2240+02209KA1120N+02311MA1999999097161MD1999999-0181OA150600261REMSYN106AAXX  11064 65518 32565 72002 10236 20233 39716 40076 8367/ 333 02200 20231 50454 55054 59018 83713 87363;EQDQ01  00002PRCP99
0235655180999992000091112004+11140-001150FM-12+0322DFCP V0200801N003110060019N0150001N1+02751+02401101001ADDAA199000091GA1071+006009069GA2021+009009099GF108991081091008001999999MA1999999097401MD1999999-0131REMSYN106AAXX  11124 65518 32565 80806 10275 20240 39740 40100 889// 333 0//00 59013 87620 82930 94952 94951 95832;EQDQ01  00002PRCP99
0223655180999992000091118004+11140-001150FM-12+0322DFCP V0209999C000010390019N0150001N1+02221+02151100731ADDAA112000891AY191061AY261061GA1081+039009019GF108991081001999999071999KA1120M+02811MA1999999097101MD1999999-0141MW1021REMSYN094AAXX  11184 65518 11965 80000 10222 20215 39710 40073 69972 70296 8807/ 333 10281 59014 88463;
0220655180999992000091206004+11140-001150FM-12+0322DFCP V0209999C000019999999N0150001N1+02111+02021100831ADDAA124000891GF108991081001999999071999IA2240+02009KA1120N+01991MA1999999097181MD1999999+0021OA150600051REMSYN106AAXX  12064 65518 12965 80000 10211 20202 39718 40083 69974 8807/ 333 02059 20199 50144 55014 58002 88363;
0257655180999992000091212004+11140-001150FM-12+0322DFCP V0201801N004110078019N0150001N1+02701+02271101011ADDAA199000091AY141061AY221061GA1041+006009069GA2031+007809089GF107991061081008001031021MA1999999097381MD1999999-0021MW1031REMSYN106AAXX  12124 65518 31565 71808 10270 20227 39738 40101 70342 86832 333 0//00 59002 84620 83826 94919 95836;EQDQ01  00002PRCP99
0242655180999992000091218004+11140-001150FM-12+0322DFCP V0209999C000010390019N0150001N1+02621+02181100831ADDAA199000091GA1011+009009099GA2051+039009039GF107991011091008001031021KA1120M+02871MA1999999097201MD1999999+0101REMSYN100AAXX  12184 65518 32565 70000 10262 20218 39720 40083 81932 333 10287 58010 81930 85363 94942 95812;EQDQ01  00002PRCP99
0195655180999992000091300004+11140-001150FM-12+0322DFCP V0209999C000010390019N0150001N1+02401+02251101091ADDAA199000091GA1081+039009079GF108991081001999999071999MA1999999097481MD1999999+0341REMSYN082AAXX  13004 65518 32965 80000 10240 20225 39748 40109 8807/ 333 0//00 58034 88363;EQDQ01  00002PRCP99
0233655180999992000091306004+11140-001150FM-12+0322DFCP V0201801N003110042019N0150001N1+02311+02251101111ADDAA199000091GF108991081061004501999999IA2240+02009KA1120N+02271MA1999999097481MD1999999+0301OA150600311REMSYN100AAXX  13064 65518 32465 81806 10231 20225 39748 40111 886// 333 02000 20227 50404 55069 58030 88710;EQDQ01  00002PRCP99
0272655180999992000091312004+11140-001150FM-12+0322DFCP V0203201N00101007801CN0150001N1+02871+02271101211ADDAA106002091AC10I9AY191061AY261061GA1021+006009069GA2031+007809089GA3051+078009009GF107991041081008001031021MA1999999097601MD1999999+0221MW1031REMSYN118AAXX  13124 65518 11565 73202 10287 20227 39760 40121 60021 70396 84832 333 0//14 58022 82620 83826 85076 94919 95834;
0251655180999992000091318004+11140-001150FM-12+0322DFCP V0209999C000010780019N0150001N1+02741+02341100961ADDAA112002091GA1021+006009069GA2011+009009099GA3061+078009009GF107991031091008001031021KA1120M+03101MA1999999097351MD1999999+0151REMSYN112AAXX  13184 65518 12565 70000 10274 20234 39735 40096 60022 83932 333 10310 58015 82620 81930 86076 94912 95812;
0194655180999992000091400004+11140-001150FM-12+0322DFCP V0209999C000010390019N0150001N1+02371+02271101321ADDAA106002091AC13I9GA1061+039009039GF107991061001999999031021MA1999999097601MD1999999+0121REMSYN094AAXX  14004 65518 12965 70000 10237 20227 39760 40132 60021 86032 333 0//18 58012 86363 83076;
0242655180999992000091406004+11140-001150FM-12+0322DFCP V0209999C000019999999N0150001N1+02261+02191101081ADDAA124002091GA1021+039009039GF107991021001999999031021IA2240+02109KA1120N+02201MA1999999097461MD1999999-0021OA150600311REMSYN112AAXX  14064 65518 12965 70000 10226 20219 39746 40108 60024 82032 333 02119 20220 50494 55064 59002 82363 87076;
0229655180999992000091412004+11140-001150FM-12+0322DFCP V0202601N002110078019N0150001N1+03101+02241101161ADDAA199000091GA1031+006009069GA2031+007809089GF107991051081008001001021MA1999999097571MD1999999-0031REMSYN100AAXX  14124 65518 32565 72604 10310 20224 39757 40116 85802 333 0//00 59003 83620 83826 94919 95839;EQDQ01  00002PRCP99
0214655180999992000091418004+11140-001150FM-12+0322DFCP V0209999C000019999999N0150001N1+02851+02351100851ADDAA199000091GA1021+006009069GF107991021051999999001021KA1120M+03241MA1999999097251MD1999999-0051REMSYN088AAXX  14184 65518 32965 70000 10285 20235 39725 40085 82502 333 10324 59005 82620 87076;EQDQ01  00002PRCP99
0216655180999992000091500004+11140-001150FM-12+0322DFCP V0209999C000010390019N0150001N1+02061+01981101091ADDAA106025991AC11C9AY191061AY261061GA1071+039009079GF107991071001999999071999MA1999999097481MD1999999-0121MW1291REMSYN094AAXX  15004 65518 11965 70000 10206 20198 39748 40109 60261 72996 8707/ 333 0//51 59012 87363;
0226655180999992000091506004+11140-001150FM-12+0322DFCP V0209999C000019999999N0150001N1+02051+01971101021ADDAA124025991AC13I9GF108991081001999999071999IA2240+02209KA1120N+01991MA1999999097401MD1999999-0061OA150600411REMSYN106AAXX  15064 65518 12965 80000 10205 20197 39740 40102 60264 8807/ 333 02257 20199 50814 55085 59006 88363;
0201655180999992000091512004+11140-001150FM-12+0322DFCP V0201801N00211045001CN0150001N1+03852+02001101211ADDAA199000091GA1011+006009069GF107991011051008001071021MA1999999097581MD1999999+0011REMSYN088AAXX  15124 65518 32565 71804 10385 20200 39758 40121 81572 333 0//00 58001 81620 87363;EQDQ01  00002PRCP99
0248655180999992000091518004+11140-001150FM-12+0322DFCP V0209999C000010390019N0150001N1+02701+02371100931ADDAA199000091GA1011+009009099GA2051+039009039GF107991011091008001071021KA1120M+02931MA1999999097301MD1999999+0051REMSYN106AAXX  15184 65518 32565 70000 10270 20237 39730 40093 81972 333 10293 58005 81930 85363 94942 94943 95813;EQDQ01  00002PRCP99
0201655180999992000091600004+11140-001150FM-12+0322DFCP V0209999C000019999999N0150001N1+02341+02251101191ADDAA199000091GA1021+039009039GF105991021001999999031021MA1999999097581MD1999999+0101REMSYN088AAXX  16004 65518 32965 50000 10234 20225 39758 40119 82032 333 0//00 58010 82363 84076;EQDQ01  00002PRCP99
0233655180999992000091606004+11140-001150FM-12+0322DFCP V0201801N002110042019N0150001N1+02261+02191101131ADDAA199000091GF107991071061004501999999IA2240+02009KA1120N+02221MA1999999097511MD1999999+0111OA150600261REMSYN100AAXX  16064 65518 32465 71804 10226 20219 39751 40113 876// 333 02000 20222 50374 55053 58011 87710;EQDQ01  00002PRCP99
0251655180999992000091612004+11140-001150FM-12+0322DFCP V0201801N00311007801CN0150001N1+02911+02261101231ADDAA199000091GA1021+006009069GA2031+007809089GA3051+078009009GF107991041081008001001021MA1999999097621MD1999999+0041REMSYN106AAXX  16124 65518 32565 71806 10291 20226 39762 40123 84802 333 0//00 58004 82620 83826 85076 94919 95834;EQDQ01  00002PRCP99
0208655180999992000091618004+11140-001150FM-12+0322DFCP V0209999C000010780019N0150001N1+02811+02221100961ADDAA199000091GA1071+078009019GF107991001001999999001021KA1120M+03071MA1999999097361MD1999999+0061REMSYN082AAXX  16184 65518 32965 70000 10281 20222 39736 40096 80002 333 10307 58006 87076;EQDQ01  00002PRCP99
0279655180999992000091700004+11140-001150FM-12+0322DFCP V0209999C000010780019N0150001N1+02371+02291101221ADDAA199000091AY121061AY221061GA1011+006009069GA2021+009009099GA3061+078009009GF107991021091008001001021MA1999999097621MD1999999+0041MW1131REMSYN112AAXX  17004 65518 31565 70000 10237 20229 39762 40122 71322 82902 333 0//00 58004 81620 82930 86076 94942 95832;EQDQ01  00002PRCP99
0201655180999992000091712004+11140-001150FM-12+0322DFCP V0209999C00001105001CN0150001N1+02921+02161101111ADDAA199000091GA1041+006009069GF107991041051008001001021MA1999999097511MD1999999-0111REMSYN088AAXX  17124 65518 32565 70000 10292 20216 39751 40111 84502 333 0//00 59011 84620 84076;EQDQ01  00002PRCP99
0214655180999992000091718004+11140-001150FM-12+0322DFCP V0209999C00001045001CN0150001N1+02791+02361100861ADDAA199000091GA1011+006009069GF107991011051008001071999KA1120M+03151MA1999999097261MD1999999-0101REMSYN088AAXX  17184 65518 32565 70000 10279 20236 39726 40086 8157/ 333 10315 59010 81620 87363;EQDQ01  00002PRCP99
0201655180999992000091800004+11140-001150FM-12+0322DFCP V0202201N001019999999N0150001N1+02391+02261101071ADDAA199000091GA1021+039009039GF107991021001999999071021MA1999999097471MD1999999-0151REMSYN088AAXX  18004 65518 32965 72202 10239 20226 39747 40107 82072 333 0//00 59015 82363 87076;EQDQ01  00002PRCP99
0233655180999992000091806004+11140-001150FM-12+0322DFCP V0201801N002110042019N0150001N1+02321+02221101101ADDAA199000091GF108991081061004501999999IA2240+02209KA1120N+02261MA1999999097481MD1999999+0031OA150600361REMSYN100AAXX  18064 65518 32465 81804 10232 20222 39748 40110 886// 333 02200 20226 50394 55075 58003 88710;EQDQ01  00002PRCP99
0251655180999992000091812004+11140-001150FM-12+0322DFCP V0201801N00211007801CN0150001N1+02831+02211101141ADDAA199000091GA1021+006009069GA2031+007809089GA3051+039009039GF107991041081008001031021MA1999999097531MD1999999+0021REMSYN106AAXX  18124 65518 32565 71804 10283 20221 39753 40114 84832 333 0//00 58002 82620 83826 85363 94919 95837;EQDQ01  00002PRCP99
0292655180999992000091818004+11140-001150FM-12+0322DFCP V0209999C000010390019N0150001N1+02681+02351100991ADDAA199000091AY191061AY221061GA1031+006009069GA2011+009009099GA3081+039009039GF108991031091008001071999KA1120M+03001MA1999999097371MD1999999+0111MW1171REMSYN112AAXX  18184 65518 31565 80000 10268 20235 39737 40099 71792 8397/ 333 10300 58011 83620 81930 88363 94943 95833;EQDQ01  00002PRCP99
0229655180999992000091900004+11140-001150FM-12+0322DFCP V0209999C000019999999N0150001N1+02351+02261101121ADDAA199000091AY191061AY221061GA1011+039009039GF105991011001999999031021MA1999999097521MD1999999+0051MW1011REMSYN094AAXX  19004 65518 31965 50000 10235 20226 39752 40112 70192 81032 333 0//00 58005 81363 85076;EQDQ01  00002PRCP99
0251655180999992000091912004+11140-001150FM-12+0322DFCP V0201801N00211007801CN0150001N1+03041+02271101191ADDAA199000091GA1021+006009069GA2031+007809089GA3051+078009009GF107991041081008001001021MA1999999097591MD1999999+0061REMSYN106AAXX  19124 65518 32565 71804 10304 20227 39759 40119 84802 333 0//00 58006 82620 83826 85076 94919 95816;EQDQ01  00002PRCP99
0214655180999992000091918004+11140-001150FM-12+0322DFCP V0209999C00001105001CN0150001N1+02901+02211100881ADDAA199000091GA1021+006009069GF107991021051008001001021KA1120M+03151MA1999999097281MD1999999-0091REMSYN088AAXX  19184 65518 32565 70000 10290 20221 39728 40088 82502 333 10315 59009 82620 87076;EQDQ01  00002PRCP99
0195655180999992000092000004+11140-001150FM-12+0322DFCP V0209999C000010780019N0150001N1+02401+02181101091ADDAA199000091GA1051+078009019GF105991001001999999001021MA1999999097491MD1999999-0031REMSYN082AAXX  20004 65518 32965 50000 10240 20218 39749 40109 80002 333 0//00 59003 85076;EQDQ01  00002PRCP99
0320655180999992000092006004+11140-001150FM-12+0322DFCP V0200401N00311039001CN0100001N1+01971+99999101321ADDAA124013091AY191061AY261061GA1011+006009069GA2021+009009099GA3081+039009049GF108991021091008001071999IA2240+02209KA1120N+01911MA1999999097691MD1999999+0161MW1951OA150600511REMSYN136AAXX  20064 65518 11560 80406 10197 20216 39769 40132 60134 79596 8297/ 333 02200 20191 50524 55106 58016 81620 82930 88463 94946 95836;
0222655180999992000092012004+11140-001150FM-12+0322DFCP V0201801N00211045001CN0150001N1+02741+02171101131ADDAA106002091AC13C9AY191061AY261061GA1011+006009069GF107991011051008001071021MA1999999097521MD1999999-0071MW1031REMSYN100AAXX  20124 65518 11565 71804 10274 20217 39752 40113 60021 70396 81572 333 0//53 59007 81620 87363;
0195655180999992000092018004+11140-001150FM-12+0322DFCP V0209999C000010780019N0150001N1+02701+02271100961ADDAA112002091GA1071+078009019GF107991001001999999001021KA1120M+02991MA1999999097331MD1999999+0051REMSYN088AAXX  20184 65518 12965 70000 10270 20227 39733 40096 60022 80002 333 10299 58005 87076;
0201655180999992000092100004+11140-001150FM-12+0322DFCP V0209999C000019999999N0150001N1+02221+02191101201ADDAA199000091GA1011+039009039GF107991011001999999071021MA1999999097581MD1999999+0091REMSYN088AAXX  21004 65518 32965 70000 10222 20219 39758 40120 81072 333 0//00 58009 81363 87076;EQDQ01  00002PRCP99
0242655180999992000092106004+11140-001150FM-12+0322DFCP V0209999C000019999999N0150001N1+02121+02091101191ADDAA124002091GA1011+039009039GF107991011001999999071021IA2240+01909KA1120N+02061MA1999999097561MD1999999-0131OA150600311REMSYN112AAXX  21064 65518 12965 70000 10212 20209 39756 40119 60024 81072 333 01959 20206 50264 55067 59013 81363 87076;
0201655180999992000092112004+11140-001150FM-12+0322DFCP V0209999C000019999999N0150001N1+02801+02011101121ADDAA199000091GA1021+039009039GF107991021001999999031021MA1999999097501MD1999999-0021REMSYN088AAXX  21124 65518 32965 70000 10280 20201 39750 40112 82032 333 0//00 59002 82363 87076;EQDQ01  00002PRCP99
0214655180999992000092118004+11140-001150FM-12+0322DFCP V0209999C000010390019N0150001N1+02871+02391100971ADDAA199000091GA1061+039009039GF107991061001999999031021KA1120M+03101MA1999999097351MD1999999+0021REMSYN088AAXX  21184 65518 32965 70000 10287 20239 39735 40097 86032 333 10310 58002 86363 83076;EQDQ01  00002PRCP99
0195655180999992000092200004+11140-001150FM-12+0322DFCP V0209999C000010780019N0150001N1+02431+02261101081ADDAA199000091GA1051+078009019GF105991001001999999001021MA1999999097421MD1999999-0111REMSYN082AAXX  22004 65518 32965 50000 10243 20226 39742 40108 80002 333 0//00 59011 85076;EQDQ01  00002PRCP99
0255655180999992000092206004+11140-001150FM-12+0322DFCP V0209999C000019999999N0150001N1+02301+02151101041ADDAA199000091GA1011+039009039GF107991011001999999031021IA2240+02009KA1120N+02251MA1999999097431MD1999999-0131OA150600361REMSYN106AAXX  22064 65518 32965 70000 10230 20215 39743 40104 81032 333 02000 20225 50414 55077 59013 81363 87076;EQDQ01  00002PRCP99
0229655180999992000092212004+11140-001150FM-12+0322DFCP V0202201N002119999999N0150001N1+03231+02321100981ADDAA199000091GA1011+006009069GA2041+007809089GF105991041081999999001021MA1999999097411MD1999999-0091REMSYN100AAXX  22124 65518 32965 52204 10323 20232 39741 40098 84802 333 0//00 59009 81620 84826 94919 95836;EQDQ01  00002PRCP99
0242655180999992000092218004+11140-001150FM-12+0322DFCP V0209999C000010780019N0150001N1+03071+02651100751ADDAA199000091GA1011+009009099GA2051+078009009GF105991011091008001001021KA1120M+03451MA1999999097171MD1999999-0181REMSYN100AAXX  22184 65518 32565 50000 10307 20265 39717 40075 81902 333 10345 59018 81930 85076 94943 95813;EQDQ01  00002PRCP99
0233655180999992000092306004+11140-001150FM-12+0322DFCP V0202601N001019999999N0150001N1+02131+02011100841ADDAA199000091GF107991001001999999001021IA2240+02209KA1120N+02101MA1999999097241MD1999999-0191OA150600511REMSYN100AAXX  23064 65518 32965 72602 10213 20201 39724 40084 80002 333 02200 20210 50444 55103 59019 87076;EQDQ01  00002PRCP99
0195655180999992000092312004+11140-001150FM-12+0322DFCP V0202001N001010780019N0200001N1+03121+02151100911ADDAA199000091GA1071+078009019GF107991001001999999001021MA1999999097331MD1999999-0081REMSYN082AAXX  23124 65518 32970 72002 10312 20215 39733 40091 80002 333 0//00 59008 87076;EQDQ01  00002PRCP99
0214655180999992000092318004+11140-001150FM-12+0322DFCP V0201801N00101105001CN0150001N1+02961+02381100661ADDAA199000091GA1011+006009069GF107991011051008001001021KA1120M+03291MA1999999097061MD1999999-0111REMSYN088AAXX  23184 65518 32565 71802 10296 20238 39706 40066 81502 333 10329 59011 81620 87076;EQDQ01  00002PRCP99
0264655180999992000092406004+11140-001150FM-12+0322DFCP V0201801N001010390019N0150001N1+02111+02021100851ADDAA124027991AC12C9AY191061AY261061GA1081+039009079GF108991081001999999071999IA2240+02109KA1120N+02011MA1999999097241MD1999999+0001MW1021OA150600511REMSYN106AAXX  24064 65518 11965 81802 10211 20202 39724 40085 60284 70296 8807/ 333 02152 20201 55104 58000 88363;
0195655180999992000092412004+11140-001150FM-12+0322DFCP V0209999C000010390019N0150001N1+02781+02131101041ADDAA199000091GA1081+039009079GF108991081001999999071999MA1999999097441MD1999999+0111REMSYN082AAXX  24124 65518 32965 80000 10278 20213 39744 40104 8807/ 333 0//00 58011 88363;EQDQ01  00002PRCP99
0270655180999992000092418004+11140-001150FM-12+0322DFCP V0209999C000010780019N0150001N1+02741+02441100831ADDAA199000091AY191061AY221061GA1011+009009099GA2061+078009009GF107991011091008001071021KA1120M+02991MA1999999097211MD1999999+0151MW1171REMSYN106AAXX  24184 65518 31565 70000 10274 20244 39721 40083 71792 81972 333 10299 58015 81930 86076 94943 95833;EQDQ01  00002PRCP99
0159655180999992000092503004+11140-001150FM-12+0322DFCP V0209999C000010780019N0150001N1+02231+02141101001ADDGA1051+078009019GF105991001001999999001021MA1999999097391MD1999999-0051REMSYN076AAXX  25034 65518 42965 50000 10223 20214 39739 40100 80002 333 59005 85076;
0159655180999992000092506004+11140-001150FM-12+0322DFCP V0209999C000010780019N0150001N1+02231+02141101001ADDGA1051+078009019GF105991001001999999001021MA1999999097391MD1999999-0051REMSYN076AAXX  25064 65518 42965 50000 10223 20214 39739 40100 80002 333 59005 85076;
0222655180999992000092512004+11140-001150FM-12+0322DFCP V0209999C00001105001CN0150001N1+03001+02221101051ADDAA106005191AC10I9AY161061AY261061GA1021+006009069GF107991021051008001001021MA1999999097461MD1999999+0021MW1011REMSYN100AAXX  25124 65518 11565 70000 10300 20222 39746 40105 60051 70166 82502 333 0//54 58002 82620 87076;
0223655180999992000092518004+11140-001150FM-12+0322DFCP V0209999C00001045001CN0150001N1+02831+02451100941ADDAA112005191GA1011+006009069GA2031+039009039GF107991011051008001031021KA1120M+03101MA1999999097321MD1999999+0111REMSYN100AAXX  25184 65518 12565 70000 10283 20245 39732 40094 60052 81532 333 10310 58011 81620 83363 86076;
0195655180999992000092600004+11140-001150FM-12+0322DFCP V0209999C000010390019N0150001N1+02471+02401101221ADDAA199000091GA1071+039009079GF107991071001999999071999MA1999999097631MD1999999+0141REMSYN082AAXX  26004 65518 32965 70000 10247 20240 39763 40122 8707/ 333 0//00 58014 87363;EQDQ01  00002PRCP99
0239655180999992000092606004+11140-001150FM-12+0322DFCP V0209999C000019999999N0150001N1+02401+02301101081ADDAA124005191GF107991071001999999071999IA2240+02109KA1120N+99999MA1999999097481MD1999999+0041OA150600361REMSYN106AAXX  26064 65518 12965 70000 10240 20230 39748 40108 60054 8707/ 333 02159 20256 50344 55079 58004 87363;EQDQ01 +02562ATMN  
0201655180999992000092612004+11140-001150FM-12+0322DFCP V0209999C000012200019N0150001N1+03181+02391101031ADDAA199000091GA1011+006009069GF103991011051008001001021MA1999999097461MD1999999+0001REMSYN088AAXX  26124 65518 32565 30000 10318 20239 39746 40103 81502 333 0//00 58000 81620 83076;EQDQ01  00002PRCP99
0208655180999992000092618004+11140-001150FM-12+0322DFCP V0209999C000010780019N0150001N1+02971+02451100871ADDAA199000091GA1071+078009019GF107991001001999999001021KA1120M+03401MA1999999097281MD1999999+0041REMSYN082AAXX  26184 65518 32965 70000 10297 20245 39728 40087 80002 333 10340 58004 87076;EQDQ01  00002PRCP99
0255655180999992000092706004+11140-001150FM-12+0322DFCP V0201801N001019999999N0150001N1+02401+02221100941ADDAA199000091GA1011+039009039GF107991011001999999031021IA2240+02309KA1120N+02351MA1999999097351MD1999999-0131OA150600411REMSYN106AAXX  27064 65518 32965 71802 10240 20222 39735 40094 81032 333 02300 20235 50574 55086 59013 81363 87076;EQDQ01  00002PRCP99
0201655180999992000092712004+11140-001150FM-12+0322DFCP V0202601N00211105001CN0200001N1+03251+02411100991ADDAA199000091GA1041+006009069GF107991041051008001001021MA1999999097421MD1999999-0041REMSYN088AAXX  27124 65518 32570 72604 10325 20241 39742 40099 84502 333 0//00 59004 84620 87076;EQDQ01  00002PRCP99
0270655180999992000092718004+11140-001150FM-12+0322DFCP V0201801N003110390019N0150001N1+03061+02521100691ADDAA199000091AY191061AY221061GA1011+009009099GA2081+039009039GF108991011091008001071999KA1120M+03461MA1999999097121MD1999999-0161MW1171REMSYN106AAXX  27184 65518 31565 81806 10306 20252 39712 40069 71792 8197/ 333 10346 59016 81930 88363 94943 95873;EQDQ01  00002PRCP99
0257655180999992000092800004+11140-001150FM-12+0322DFCP V0209999C000010780019N0150001N1+02221+02041100961ADDAA199000091AY191061AY221061GA1011+009009099GA2071+078009009GF107991011091008001001021MA1999999097371MD1999999-0031MW1131REMSYN106AAXX  28004 65518 31565 70000 10222 20204 39737 40096 71392 81902 333 0//00 59003 81930 87076 94941 95831;EQDQ01  00002PRCP99
0254655180999992000092806004+11140-001150FM-12+0322DFCP V0202601N002119999999N0100001N1+02021+01961101111ADDAA124015091AC11C9AY191061AY261061GF108991081001999999071999IA2240+02309KA1120N+01941MA1999999097491MD1999999+0141MW1291OA150600461REMSYN112AAXX  28064 65518 11960 82604 10202 20196 39749 40111 60154 72996 8807/ 333 02351 20194 50644 55093 58014 88463;
0195655180999992000092812004+11140-001150FM-12+0322DFCP V0201801N002110390019N0150001N1+02521+02121101161ADDAA199000091GA1071+039009079GF107991071001999999071999MA1999999097521MD1999999+0101REMSYN082AAXX  28124 65518 32965 71804 10252 20212 39752 40116 8707/ 333 0//00 58010 87363;EQDQ01  00002PRCP99
0208655180999992000092818004+11140-001150FM-12+0322DFCP V0209999C000010390019N0150001N1+02521+02261100961ADDAA199000091GA1071+039009079GF107991071001999999071999KA1120M+02761MA1999999097321MD1999999+0201REMSYN082AAXX  28184 65518 32965 70000 10252 20226 39732 40096 8707/ 333 10276 58020 87363;EQDQ01  00002PRCP99
0195655180999992000092900004+11140-001150FM-12+0322DFCP V0209999C000010780019N0150001N1+02211+02181101141ADDAA199000091GA1071+078009019GF107991001001999999001021MA1999999097501MD1999999+0131REMSYN082AAXX  29004 65518 32965 70000 10221 20218 39750 40114 80002 333 0//00 58013 87076;EQDQ01  00002PRCP99
0229655180999992000092912004+11140-001150FM-12+0322DFCP V0200801N003110780019N0150001N1+02981+02201101101ADDAA199000091GA1041+006009069GA2051+078009009GF107991041081008001031021MA1999999097501MD1999999-0021REMSYN100AAXX  29124 65518 32565 70806 10298 20220 39750 40110 84832 333 0//00 59002 84620 85076 94908 95838;EQDQ01  00002PRCP99
0214655180999992000092918004+11140-001150FM-12+0322DFCP V0209999C00001105001CN0150001N1+02841+02401100871ADDAA199000091GA1011+006009069GF107991011051008001001021KA1120M+03141MA1999999097261MD1999999-0061REMSYN088AAXX  29184 65518 32565 70000 10284 20240 39726 40087 81502 333 10314 59006 81620 87076;EQDQ01  00002PRCP99
0201655180999992000093000004+11140-001150FM-12+0322DFCP V0209999C000019999999N0150001N1+02401+02281101171ADDAA199000091GA1021+039009039GF107991021001999999031021MA1999999097571MD1999999+0071REMSYN088AAXX  30004 65518 32965 70000 10240 20228 39757 40117 82032 333 0//00 58007 82363 87076;EQDQ01  00002PRCP99
0255655180999992000093006004+11140-001150FM-12+0322DFCP V0209999C00001039001CN0150001N1+02181+02121100991ADDAA199000091GA1061+039009039GF107991061001999999031021IA2240+02009KA1120N+02111MA1999999097381MD1999999-0031OA150600511REMSYN106AAXX  30064 65518 32965 70000 10218 20212 39738 40099 86032 333 02000 20211 50554 55107 59003 86363 83076;EQDQ01  00002PRCP99
0201655180999992000093012004+11140-001150FM-12+0322DFCP V0202001N00211045001CN0150001N1+03031+02291101161ADDAA199000091GA1031+006009069GF107991031051008001031021MA1999999097561MD1999999+0061REMSYN088AAXX  30124 65518 32565 72004 10303 20229 39756 40116 83532 333 0//00 58006 83620 86076;EQDQ01  00002PRCP99
0208655180999992000093018004+11140-001150FM-12+0322DFCP V0209999C000010780019N0150001N1+02851+02351100871ADDAA199000091GA1071+078009019GF107991001001999999001021KA1120M+03171MA1999999097261MD1999999+0001REMSYN082AAXX  30184 65518 32965 70000 10285 20235 39726 40087 80002 333 10317 58000 87076;EQDQ01  00002PRCP99
0195655180999992000100100004+11140-001150FM-12+0322DFCP V0209999C000010780019N0150001N1+02411+02261101161ADDAA199000091GA1051+078009019GF105991001001999999001021MA1999999097591MD1999999+0021REMSYN082AAXX  01004 65518 32965 50000 10241 20226 39759 40116 80002 333 0//00 58002 85076;EQDQ01  00002PRCP99
0233655180999992000100106004+11140-001150FM-12+0322DFCP V0209999C000019999999N0150001N1+02271+02181101141ADDAA199000091GF107991071001999999071999IA2240+02109KA1120N+02241MA1999999097521MD1999999+0141OA150600361REMSYN100AAXX  01064 65518 32965 70000 10227 20218 39752 40114 8707/ 333 02100 20224 50564 55078 58014 87460;EQDQ01  00002PRCP99
0201655180999992000100112004+11140-001150FM-12+0322DFCP V0202201N00211105001CN0150001N1+02941+02221101311ADDAA199000091GA1011+006009069GF107991011051008001001061MA1999999097701MD1999999+0161REMSYN088AAXX  01124 65518 32565 72204 10294 20222 39770 40131 81506 333 0//00 58016 81620 87276;EQDQ01  00002PRCP99
0248655180999992000100118004+11140-001150FM-12+0322DFCP V0209999C000010780019N0150001N1+02661+02281101061ADDAA199000091GA1011+009009099GA2071+078009009GF107991011091008001001021KA1120M+02961MA1999999097431MD1999999+0171REMSYN106AAXX  01184 65518 32565 70000 10266 20228 39743 40106 81902 333 10296 58017 81930 87076 94941 94947 95811;EQDQ01  00002PRCP99
0216655180999992000100200004+11140-001150FM-12+0322DFCP V0209999C000010390019N0150001N1+02221+02101101321ADDAA106000891AC13C9AY161061AY221061GA1081+039009079GF108991081001999999071999MA1999999097701MD1999999+0111MW1021REMSYN094AAXX  02004 65518 11965 80000 10222 20210 39770 40132 69981 70262 8807/ 333 0//53 58011 88363;
0226655180999992000100206004+11140-001150FM-12+0322DFCP V0209999C000019999999N0150001N1+02151+02041101181ADDAA124000891AC13I9GF107991061001999999071021IA2240+02209KA1120N+02111MA1999999097551MD1999999+0031OA150600411REMSYN106AAXX  02064 65518 12965 70000 10215 20204 39755 40118 69984 86072 333 02258 20211 50524 55080 58003 86363;
0201655180999992000100212004+11140-001150FM-12+0322DFCP V0209999C00001105001CN0150001N1+03101+02301101161ADDAA199000091GA1011+006009069GF107991011051008001001021MA1999999097561MD1999999-0141REMSYN088AAXX  02124 65518 32565 70000 10310 20230 39756 40116 81502 333 0//00 59014 81620 87076;EQDQ01  00002PRCP99
0255655180999992000100306004+11140-001150FM-12+0322DFCP V0209999C000019999999N0150001N1+02291+02161100981ADDAA199000091GA1031+039009039GF107991031001999999071021IA2240+02109KA1120N+02241MA1999999097381MD1999999-0171OA150600411REMSYN106AAXX  03064 65518 32965 70000 10229 20216 39738 40098 83072 333 02100 20224 50324 55085 59017 83363 85076;EQDQ01  00002PRCP99
0201655180999992000100312004+11140-001150FM-12+0322DFCP V0201401N00101105001CN0150001N1+03231+02311100911ADDAA199000091GA1021+006009069GF107991021051008001001021MA1999999097331MD1999999-0231REMSYN088AAXX  03124 65518 32565 71402 10323 20231 39733 40091 82502 333 0//00 59023 82620 87076;EQDQ01  00002PRCP99
0214655180999992000100318004+11140-001150FM-12+0322DFCP V0209999C00001105001CN0150001N1+03021+02551100661ADDAA199000091GA1011+006009069GF107991011051008001001021KA1120M+03021MA1999999097081MD1999999-0281REMSYN088AAXX  03184 65518 32565 70000 10302 20255 39708 40066 81502 333 10302 59028 81620 87076;EQDQ01  00002PRCP99
0195655180999992000100400004+11140-001150FM-12+0322DFCP V0209999C000010780019N0150001N1+02541+02381100811ADDAA199000091GA1051+078009019GF105991001001999999001021MA1999999097251MD1999999-0261REMSYN082AAXX  04004 65518 32965 50000 10254 20238 39725 40081 80002 333 0//00 59026 85076;EQDQ01  00002PRCP99
0233655180999992000100406004+11140-001150FM-12+0322DFCP V0202201N002119999999N0150001N1+02331+02231100851ADDAA199000091GF107991001001999999001021IA2240+02109KA1120N+02321MA1999999097251MD1999999-0131OA150600511REMSYN100AAXX  04064 65518 32965 72204 10233 20223 39725 40085 80002 333 02100 20232 50574 55100 59013 87076;EQDQ01  00002PRCP99
0215655180999992000100412004+11140-001150FM-12+0322DFCP V0202201N002110780019N0150001N1+03201+02191100851ADDAA199000091GA1021+006009069GA2031+078009009GF105991031081008001001021MA1999999097281REMSYN100AAXX  04124 65518 32565 52204 10320 20219 39728 40085 83802 333 0//00 59905 82620 83076 94909 95834;EQDQ01  00002PRCP99
0242655180999992000100418004+11140-001150FM-12+0322DFCP V0209999C000010780019N0150001N1+02961+02381100661ADDAA199000091GA1011+009009099GA2061+078009009GF106991011091008001001021KA1120M+03401MA1999999097081MD1999999+0001REMSYN100AAXX  04184 65518 32565 60000 10296 20238 39708 40066 81902 333 10340 58000 81930 86076 94945 95815;EQDQ01  00002PRCP99
0195655180999992000100500004+11140-001150FM-12+0322DFCP V0201801N002110780019N0150001N1+02431+02061100871ADDAA199000091GA1071+078009019GF107991001001999999001021MA1999999097301MD1999999+0051REMSYN082AAXX  05004 65518 32965 71804 10243 20206 39730 40087 80002 333 0//00 58005 87076;EQDQ01  00002PRCP99
0233655180999992000100506004+11140-001150FM-12+0322DFCP V0209999C000019999999N0150001N1+02221+02101100901ADDAA199000091GF107991001001999999001021IA2240+02309KA1120N+02221MA1999999097301MD1999999+0051OA150600511REMSYN100AAXX  05064 65518 32965 70000 10222 20210 39730 40090 80002 333 02300 20222 50504 55101 58005 87076;EQDQ01  00002PRCP99
0229655180999992000100512004+11140-001150FM-12+0322DFCP V0209999C000010078019N0150001N1+03221+02251100941ADDAA199000091GA1031+006009069GA2031+007809089GF107991051081008001001021MA1999999097361MD1999999+0081REMSYN100AAXX  05124 65518 32565 70000 10322 20225 39736 40094 85802 333 0//00 58008 83620 83826 94919 95839;EQDQ01  00002PRCP99
0242655180999992000100518004+11140-001150FM-12+0322DFCP V0209999C000010780019N0150001N1+03001+02471100761ADDAA199000091GA1011+009009099GA2071+078009009GF107991011091008001001021KA1120M+03521MA1999999097161MD1999999+0081REMSYN100AAXX  05184 65518 32565 70000 10300 20247 39716 40076 81902 333 10352 58008 81930 87076 94946 95836;EQDQ01  00002PRCP99
0233655180999992000100606004+11140-001150FM-12+0322DFCP V0209999C000019999999N0150001N1+02301+01921100901ADDAA199000091GF107991001001999999001021IA2240+02209KA1120N+02251MA1999999097301MD1999999+0001OA150600461REMSYN100AAXX  06064 65518 32965 70000 10230 20192 39730 40090 80002 333 02200 20225 50534 55098 58000 87076;EQDQ01  00002PRCP99
0251655180999992000100612004+11140-001150FM-12+0322DFCP V0209999C00001007801CN0150001N1+03181+02201101001ADDAA199000091GA1021+006009069GA2031+007809089GA3051+078009009GF107991041081008001001021MA1999999097431MD1999999+0071REMSYN106AAXX  06124 65518 32565 70000 10318 20220 39743 40100 84802 333 0//00 58007 82620 83826 85076 94919 95836;EQDQ01  00002PRCP99
0208655180999992000100618004+11140-001150FM-12+0322DFCP V0209999C000010780019N0150001N1+03071+02601100731ADDAA199000091GA1071+078009019GF107991001001999999001021KA1120M+03491MA1999999097151MD1999999-0011REMSYN082AAXX  06184 65518 32965 70000 10307 20260 39715 40073 80002 333 10349 59001 87076;EQDQ01  00002PRCP99
0195655180999992000100700004+11140-001150FM-12+0322DFCP V0201801N001010780019N0150001N1+02521+02261101001ADDAA199000091GA1071+078009019GF107991001001999999001021MA1999999097431MD1999999-0041REMSYN082AAXX  07004 65518 32965 71802 10252 20226 39743 40100 80002 333 0//00 59004 87076;EQDQ01  00002PRCP99
0255655180999992000100706004+11140-001150FM-12+0322DFCP V0209999C00001039001CN0150001N1+02201+02001100931ADDAA199000091GA1061+039009039GF107991061001999999031021IA2240+02209KA1120N+02171MA1999999097331MD1999999+0031OA150600461REMSYN106AAXX  07064 65518 32965 70000 10220 20200 39733 40093 86032 333 02200 20217 50514 55092 58003 86363 83076;EQDQ01  00002PRCP99
0195655180999992000100712004+11140-001150FM-12+0322DFCP V0201801N002112200019N0150001N1+03151+02051101011ADDAA199000091GA1031+078009019GF103991001001999999001021MA1999999097431MD1999999+0001REMSYN082AAXX  07124 65518 32965 31804 10315 20205 39743 40101 80002 333 0//00 58000 83076;EQDQ01  00002PRCP99
0248655180999992000100718004+11140-001150FM-12+0322DFCP V0209999C000010780019N0150001N1+03031+02431100781ADDAA199000091GA1011+009009099GA2061+078009009GF106991011091008001001021KA1120M+03461MA1999999097191MD1999999+0041REMSYN106AAXX  07184 65518 32565 60000 10303 20243 39719 40078 81902 333 10346 58004 81930 86076 94942 94944 95812;EQDQ01  00002PRCP99
0255655180999992000100806004+11140-001150FM-12+0322DFCP V0201801N001010450019N0150001N1+02251+02191101051ADDAA199000091GA1021+003009079GF107991021061004501031021IA2240+02209KA1120N+02251MA1999999097451MD1999999+0121OA150600461REMSYN106AAXX  08064 65518 32465 71802 10225 20219 39745 40105 82632 333 02200 20225 50544 55096 58012 82710 87076;EQDQ01  00002PRCP99
0195655180999992000100812004+11140-001150FM-12+0322DFCP V0201801N002110390019N0150001N1+03191+02201101061ADDAA199000091GA1061+039009079GF107991061001999999031021MA1999999097491MD1999999+0061REMSYN082AAXX  08124 65518 32965 71804 10319 20220 39749 40106 86032 333 0//00 58006 86363;EQDQ01  00002PRCP99
0208655180999992000100818004+11140-001150FM-12+0322DFCP V0209999C000010780019N0150001N1+02991+02411100791ADDAA199000091GA1071+078009019GF107991001001999999001021KA1120M+03421MA1999999097191MD1999999+0001REMSYN082AAXX  08184 65518 32965 70000 10299 20241 39719 40079 80002 333 10342 58000 87076;EQDQ01  00002PRCP99
0195655180999992000100900004+11140-001150FM-12+0322DFCP V0202201N001010780019N0150001N1+02461+02261101061ADDAA199000091GA1071+078009019GF107991001001999999001021MA1999999097491MD1999999+0001REMSYN082AAXX  09004 65518 32965 72202 10246 20226 39749 40106 80002 333 0//00 58000 87076;EQDQ01  00002PRCP99
0255655180999992000100906004+11140-001150FM-12+0322DFCP V0209999C000019999999N0150001N1+02241+02171101021ADDAA199000091GA1021+039009039GF107991021001999999071021IA2240+02209KA1120N+02241MA1999999097421MD1999999-0031OA150600361REMSYN106AAXX  09064 65518 32965 70000 10224 20217 39742 40102 82072 333 02200 20224 50534 55074 59003 82363 86076;EQDQ01  00002PRCP99
0201655180999992000100912004+11140-001150FM-12+0322DFCP V0209999C00001045001CN0150001N1+02881+02131101101ADDAA199000091GA1011+006009069GF107991011051008001031021MA1999999097501MD1999999+0011REMSYN088AAXX  09124 65518 32565 70000 10288 20213 39750 40110 81532 333 0//00 58001 81620 87076;EQDQ01  00002PRCP99
0250655180999992000101000004+11140-001150FM-12+0322DFCP V0209999C000010300019N0100001N1+02211+02171102081ADDAA106004191AC11C9AY191061AY261061GA1011+009009099GA2081+030009049GF108991011091008001021999MA1999999097471MD1999999-0021MW1911REMSYN112AAXX  10004 65518 11560 80000 10221 20217 39747 40208 60041 79196 8192/ 333 0//51 59002 81930 88460 94946 95816;
0276655180999992000101006004+11140-001150FM-12+0322DFCP V0209999C000010450019N0150001N1+02231+02191100931ADDAA124005191AC12I9AY161061AY261061GA1041+003009079GF107991041061004501031021IA2240+02209KA1120N+02161MA1999999097311MD1999999-0111MW1021OA150600261REMSYN118AAXX  10064 65518 12465 70000 10223 20219 39731 40093 60054 70266 84632 333 02256 20216 50414 55055 59011 84710 85076;
0272655180999992000101012004+11140-001150FM-12+0322DFCP V0209999C000010078019N0150001N1+02641+02291101031ADDAA106000591AC11C9AY161061AY221061GA1021+006009069GA2041+007809089GA3011+009009099GF107991051031008001031021MA1999999097411MD1999999-0091MW1211REMSYN118AAXX  10124 65518 11565 70000 10264 20229 39741 40103 69941 72162 85332 333 0//51 59009 82620 84826 81930 94948 95838;
0229655180999992000101018004+11140-001150FM-12+0322DFCP V0209999C000010390019N0150001N1+02321+02221100941ADDAA112008991AY191061AY221061GA1051+039009039GF107991051001999999071021KA1120M+02801MA1999999097301MD1999999-0031MW1011REMSYN100AAXX  10184 65518 11965 70000 10232 20222 39730 40094 60092 70192 85072 333 10280 59003 85363 83076;
0176655180999992000101100004+11140-001150FM-12+0322DFCP V0209999C000010390019N0150001N1+02231+02161101051ADDAA199000021GA1081+039009079GF108991081001999999071999MA1999999097431MD1999999-0041REMSYN082AAXX  11004 65518 32965 80000 10223 20216 39743 40105 8807/ 333 0//00 59004 88363;
0242655180999992000101106004+11140-001150FM-12+0322DFCP V0209999C000010450019N0150001N1+02201+02141101061ADDAA124008991GA1041+003009079GF107991041061004501031021IA2240+02209KA1120N+02181MA1999999097421MD1999999+0111OA150600151REMSYN112AAXX  11064 65518 12465 70000 10220 20214 39742 40106 60094 84632 333 02259 20218 50324 55037 58011 84710 86363;
0201655180999992000101112004+11140-001150FM-12+0322DFCP V0202201N00311105001CN0150001N1+02991+02291101081ADDAA199000091GA1041+006009069GF107991041051008001001021MA1999999097471MD1999999+0071REMSYN088AAXX  11124 65518 32565 72206 10299 20229 39747 40108 84502 333 0//00 58007 84620 84076;EQDQ01  00002PRCP99
0201655180999992000101212004+11140-001150FM-12+0322DFCP V0201801N00211105001CN0150001N1+03231+02211101141ADDAA199000091GA1011+006009069GF105991011081008001031021MA1999999097551MD1999999+0081REMSYN088AAXX  12124 65518 32565 51804 10323 20221 39755 40114 81832 333 0//00 58008 81620 83363;EQDQ01  00002PRCP99
0276655180999992000101218004+11140-001150FM-12+0322DFCP V0209999C000010780019N0150001N1+02901+02411100871ADDAA199000091AY191061AY221061GA1011+009009099GA2071+078009009GF107991011091008001001021KA1120M+03361MA1999999097271MD1999999-0011MW1171REMSYN112AAXX  12184 65518 31565 70000 10290 20241 39727 40087 71792 81902 333 10336 59001 81930 87076 94943 94948 95813;EQDQ01  00002PRCP99
0229655180999992000101300004+11140-001150FM-12+0322DFCP V0209999C000019999999N0150001N1+02281+02041101121ADDAA199000091AY191061AY221061GA1011+039009039GF105991011001999999031021MA1999999097531MD1999999+0011MW1011REMSYN094AAXX  13004 65518 31965 50000 10228 20204 39753 40112 70192 81032 333 0//00 58001 81363 85076;EQDQ01  00002PRCP99
0255655180999992000101306004+11140-001150FM-12+0322DFCP V0209999C000019999999N0150001N1+02251+02021101101ADDAA199000091GA1011+039009039GF107991011001999999031021IA2240+02209KA1120N+02211MA1999999097491MD1999999+0041OA150600461REMSYN106AAXX  13064 65518 32965 70000 10225 20202 39749 40110 81032 333 02200 20221 50554 55098 58004 81363 87076;EQDQ01  00002PRCP99
0201655180999992000101312004+11140-001150FM-12+0322DFCP V0209999C00001045001CN0150001N1+03351+02241101101ADDAA199000091GA1031+006009069GF107991031051008001031021MA1999999097521MD1999999-0031REMSYN088AAXX  13124 65518 32565 70000 10335 20224 39752 40110 83532 333 0//00 59003 83620 86076;EQDQ01  00002PRCP99
0264655180999992000101318004+11140-001150FM-12+0322DFCP V0209999C00001009001CN0150001N1+02721+01951100911ADDAA199000091GA1021+006009069GA2031+009009099GA3051+078009009GF107991041091008001001021KA1120M+03501MA1999999097301MD1999999+0031REMSYN106AAXX  13184 65518 31565 70000 10272 20195 39730 40091 84902 333 10350 58003 82620 83930 85076 94959 95871;EQDQ01  00002PRCP99
0255655180999992000101406004+11140-001150FM-12+0322DFCP V0209999C000019999999N0150001N1+02201+02001100981ADDAA199000091GA1011+039009039GF107991011001999999031021IA2240+02109KA1120N+02161MA1999999097361MD1999999-0131OA150600411REMSYN106AAXX  14064 65518 32965 70000 10220 20200 39736 40098 81032 333 02100 20216 50594 55088 59013 81363 87076;EQDQ01  00002PRCP99
0201655180999992000101412004+11140-001150FM-12+0322DFCP V0201801N00101105001CN0150001N1+03291+02111100951ADDAA199000091GA1011+006009069GF107991011051008001001021MA1999999097371MD1999999-0151REMSYN088AAXX  14124 65518 32565 71802 10329 20211 39737 40095 81502 333 0//00 59015 81620 87076;EQDQ01  00002PRCP99
0208655180999992000101418004+11140-001150FM-12+0322DFCP V0209999C000010780019N0150001N1+02991+02411100701ADDAA199000091GA1071+078009019GF107991001001999999001021KA1120M+03461MA1999999097101MD1999999-0201REMSYN082AAXX  14184 65518 32965 70000 10299 20241 39710 40070 80002 333 10346 59020 87076;EQDQ01  00002PRCP99
0195655180999992000101500004+11140-001150FM-12+0322DFCP V0209999C000010780019N0150001N1+02501+02361100941ADDAA199000091GA1071+078009019GF107991001001999999001021MA1999999097381MD1999999-0081REMSYN082AAXX  15004 65518 32965 70000 10250 20236 39738 40094 80002 333 0//00 59008 87076;EQDQ01  00002PRCP99
0251655180999992000101512004+11140-001150FM-12+0322DFCP V0202001N00211007801CN0150001N1+03261+02091101031ADDAA199000091GA1021+006009069GA2031+007809089GA3051+078009009GF107991041081008001001021MA1999999097461MD1999999+0091REMSYN106AAXX  15124 65518 32565 72004 10326 20209 39746 40103 84802 333 0//00 58009 82620 83826 85076 94919 95836;EQDQ01  00002PRCP99
0242655180999992000101518004+11140-001150FM-12+0322DFCP V0209999C000019999999N0018001N1+03011+02281100801ADDAA199000091AY121061AY221061GA1011+039009039GF107991011001999999031021KA1120M+03401MA1999999097211MD1999999+0111MW1161REMSYN094AAXX  15184 65518 31918 70000 10301 20228 39721 40080 71622 81032 333 10340 58011 81363 87076;EQDQ01  00002PRCP99
0233655180999992000101606004+11140-001150FM-12+0322DFCP V0209999C000019999999N0150001N1+02261+02171101091ADDAA199000091GF107991001001999999001021IA2240+02109KA1120N+02251MA1999999097491MD1999999+0171OA150600361REMSYN100AAXX  16064 65518 32965 70000 10226 20217 39749 40109 80002 333 02100 20225 50524 55075 58017 87076;EQDQ01  00002PRCP99
0223655180999992000101612004+11140-001150FM-12+0322DFCP V0203201N002110780019N0060001N1+03221+01831101131ADDAA199000091AY121061AY221061GA1071+078009019GF107991001001999999001021MA1999999097551MD1999999+0091MW1061REMSYN088AAXX  16124 65518 31956 73204 10322 20183 39755 40113 70622 80002 333 0//00 58009 87076;EQDQ01  00002PRCP99
0236655180999992000101618004+11140-001150FM-12+0322DFCP V0209999C000010780019N0060001N1+02961+02351101011ADDAA199000091AY121061AY221061GA1071+078009019GF107991001001999999001021KA1120M+03401MA1999999097401MD1999999+0191MW1061REMSYN088AAXX  16184 65518 31956 70000 10296 20235 39740 40101 70622 80002 333 10340 58019 87076;EQDQ01  00002PRCP99
0261655180999992000101706004+11140-001150FM-12+0322DFCP V0209999C000019999999N0030001N1+02251+02041101161ADDAA199000091AY121061AY221061GF107991001001999999001021IA2240+02209KA1120N+02201MA1999999097551MD1999999+0061MW1061OA150600411REMSYN106AAXX  17064 65518 31930 70000 10225 20204 39755 40116 70622 80002 333 02200 20220 50484 55089 58006 87076;EQDQ01  00002PRCP99
0195655180999992000101712004+11140-001150FM-12+0322DFCP V0201401N002110780019N0100001N1+03301+02231101191ADDAA199000091GA1071+078009019GF107991001001999999001021MA1999999097621MD1999999+0071REMSYN082AAXX  17124 65518 32960 71404 10330 20223 39762 40119 80002 333 0//00 58007 87076;EQDQ01  00002PRCP99
0270655180999992000101718004+11140-001150FM-12+0322DFCP V0209999C000010780019N0100001N1+02951+02161101091ADDAA199000091AY191061AY221061GA1011+009009099GA2071+078009009GF107991011091008001071021KA1120M+03501MA1999999097491MD1999999+0091MW1171REMSYN106AAXX  17184 65518 31560 70000 10295 20216 39749 40109 71792 81972 333 10350 58009 81930 87076 94941 95831;EQDQ01  00002PRCP99
0223655180999992000101800004+11140-001150FM-12+0322DFCP V0201801N001010780019N0150001N1+02211+01881101261ADDAA199000091AY191061AY221061GA1071+078009019GF107991001001999999001021MA1999999097661MD1999999+0061MW1011REMSYN088AAXX  18004 65518 31965 71802 10221 20188 39766 40126 70192 80002 333 0//00 58006 87076;EQDQ01  00002PRCP99
0233655180999992000101806004+11140-001150FM-12+0322DFCP V0201801N002119999999N0150001N1+02161+01991101171ADDAA199000091GF107991001001999999001021IA2240+02109KA1120N+02141MA1999999097561MD1999999+0011OA150600461REMSYN100AAXX  18064 65518 32965 71804 10216 20199 39756 40117 80002 333 02100 20214 50674 55097 58001 87076;EQDQ01  00002PRCP99
0201655180999992000101812004+11140-001150FM-12+0322DFCP V0201801N002119999999N0150001N1+03301+02041101171ADDAA199000091GA1011+039009039GF105991011001999999031021MA1999999097581MD1999999-0041REMSYN088AAXX  18124 65518 32965 51804 10330 20204 39758 40117 81032 333 0//00 59004 81363 85076;EQDQ01  00002PRCP99
0242655180999992000101818004+11140-001150FM-12+0322DFCP V0209999C000010780019N0150001N1+02951+02401100941ADDAA199000091GA1011+009009099GA2071+078009009GF107991011091008001001021KA1120M+03521MA1999999097331MD1999999-0161REMSYN100AAXX  18184 65518 32565 70000 10295 20240 39733 40094 81902 333 10352 59016 81930 87076 94942 95812;EQDQ01  00002PRCP99
0195655180999992000101900004+11140-001150FM-12+0322DFCP V0209999C000010780019N0150001N1+02501+02051101101ADDAA199000091GA1071+078009019GF107991001001999999001021MA1999999097531MD1999999-0131REMSYN082AAXX  19004 65518 32965 70000 10250 20205 39753 40110 80002 333 0//00 59013 87076;EQDQ01  00002PRCP99
0233655180999992000101906004+11140-001150FM-12+0322DFCP V0201801N001019999999N0150001N1+02281+02161101031ADDAA199000091GF107991001001999999001021IA2240+02109KA1120N+02281MA1999999097421MD1999999-0141OA150600461REMSYN100AAXX  19064 65518 32965 71802 10228 20216 39742 40103 80002 333 02100 20228 50544 55098 59014 87076;EQDQ01  00002PRCP99
0171655180999992000101912004+11140-001150FM-12+0322DFCP V0202201N00211105001CN0150001N1+03331+02131100971ADDGA1021+000609059GF107991021051008001001021MA1999999097401MD1999999-0181REMSYN088AAXX  19124 65518 42565 72204 10333 20213 39740 40097 82502 333 0//00 59018 82620 87076;
0264655180999992000101918004+11140-001150FM-12+0322DFCP V0209999C000010780019N0150001N1+03061+02351100821ADDAA199000091GA1011+006009069GA2011+009009099GA3071+078009009GF107991021091008001001021KA1120M+03461MA1999999097231MD1999999-0101REMSYN106AAXX  19184 65518 32565 70000 10306 20235 39723 40082 82902 333 10346 59010 81620 81930 87076 94945 95835;EQDQ01  00002PRCP99
0195655180999992000102000004+11140-001150FM-12+0322DFCP V0201801N002110780019N0150001N1+02501+02101101031ADDAA199000091GA1071+078009019GF107991001001999999001021MA1999999097461MD1999999-0071REMSYN082AAXX  20004 65518 32965 71804 10250 20210 39746 40103 80002 333 0//00 59007 87076;EQDQ01  00002PRCP99
0255655180999992000102006004+11140-001150FM-12+0322DFCP V0209999C000019999999N0150001N1+02301+02211100981ADDAA199000091GA1011+039009039GF107991011001999999031021IA2240+02209KA1120N+02261MA1999999097391MD1999999-0031OA150600311REMSYN106AAXX  20064 65518 32965 70000 10230 20221 39739 40098 81032 333 02200 20226 50574 55067 59003 81363 87076;EQDQ01  00002PRCP99
0229655180999992000102012004+11140-001150FM-12+0322DFCP V0209999C000010780019N0150001N1+03341+02191100921ADDAA199000091GA1021+006009069GA2061+078009009GF107991021081008001001021MA1999999097361MD1999999-0041REMSYN100AAXX  20124 65518 32565 70000 10334 20219 39736 40092 82802 333 0//00 59004 82620 86076 94924 95834;EQDQ01  00002PRCP99
0270655180999992000102018004+11140-001150FM-12+0322DFCP V0209999C000010780019N0150001N1+02821+02271100811ADDAA199000091AY191061AY221061GA1011+009009099GA2071+078009009GF107991011091008001071011KA1120M+03491MA1999999097211MD1999999-0021MW1171REMSYN106AAXX  20184 65518 31565 70000 10282 20227 39721 40081 71792 81971 333 10349 59002 81930 87076 94944 95834;EQDQ01  00002PRCP99
0223655180999992000102100004+11140-001150FM-12+0322DFCP V0209999C000010780019N0150001N1+02451+02151100911ADDAA199000091AY191061AY221061GA1071+078009019GF107991001001999999001021MA1999999097351MD1999999-0111MW1021REMSYN088AAXX  21004 65518 31965 70000 10245 20215 39735 40091 70292 80002 333 0//00 59011 87076;EQDQ01  00002PRCP99
0279655180999992000102112004+11140-001150FM-12+0322DFCP V0201801N002110078019N0150001N1+03221+02261101011ADDAA199000091AY191061AY221061GA1031+006009069GA2041+007809089GA3011+009009099GF107991061091008001001021MA1999999097431MD1999999+0081MW1171REMSYN112AAXX  21124 65518 31565 71804 10322 20226 39743 40101 71792 86902 333 0//00 58008 83620 84826 81930 94941 95831;EQDQ01  00002PRCP99
0229655180999992000102118004+11140-001150FM-12+0322DFCP V0209999C000010300019N0150001N1+02381+02261100961ADDAA112040991AY191061AY261061GA1051+030009049GF107991051001999999071021KA1120M+03411MA1999999097331MD1999999+0121MW1291REMSYN100AAXX  21184 65518 11965 70000 10238 20226 39733 40096 60412 72996 85072 333 10341 58012 85460 83076;
0220655180999992000102206004+11140-001150FM-12+0322DFCP V0209999C000019999999N0150001N1+02231+02161101001ADDAA124040991GF107991001001999999001021IA2240+02109KA1120N+02221MA1999999097361MD1999999-0051OA150600311REMSYN106AAXX  22064 65518 12965 70000 10223 20216 39736 40100 60414 80002 333 02169 20222 50584 55066 59005 87076;
0201655180999992000102212004+11140-001150FM-12+0322DFCP V0201801N001010060019N0150001N1+03141+02221101121ADDAA199000091GA1051+006009069GF107991051051008001001021MA1999999097531MD1999999+0101REMSYN088AAXX  22124 65518 32565 71802 10314 20222 39753 40112 85502 333 0//00 58010 85620 85076;EQDQ01  00002PRCP99
0201655180999992000102312004+11140-001150FM-12+0322DFCP V0209999C00001105001CN0150001N1+03251+01991100981ADDAA199000091GA1011+006009069GF107991011051008001001021MA1999999097401MD1999999-0131REMSYN088AAXX  23124 65518 32565 70000 10325 20199 39740 40098 81502 333 0//00 59013 81620 87076;EQDQ01  00002PRCP99
0208655180999992000102318004+11140-001150FM-12+0322DFCP V0209999C000010780019N0150001N1+02961+02141100831ADDAA199000091GA1071+078009019GF107991001001999999001021KA1120M+03391MA1999999097231MD1999999-0101REMSYN082AAXX  23184 65518 32965 70000 10296 20214 39723 40083 80002 333 10339 59010 87076;EQDQ01  00002PRCP99
0195655180999992000102400004+11140-001150FM-12+0322DFCP V0201801N001010780019N0150001N1+02411+02171100971ADDAA199000091GA1071+078009019GF107991001001999999001021MA1999999097401MD1999999-0091REMSYN082AAXX  24004 65518 32965 71802 10241 20217 39740 40097 80002 333 0//00 59009 87076;EQDQ01  00002PRCP99
0201655180999992000102412004+11140-001150FM-12+0322DFCP V0201801N00101105001CN0150001N1+03351+02031100851ADDAA199000091GA1011+006009069GF107991011051008001001021MA1999999097291MD1999999-0111REMSYN088AAXX  24124 65518 32565 71802 10335 20203 39729 40085 81502 333 0//00 59011 81620 87076;EQDQ01  00002PRCP99
0208655180999992000102418004+11140-001150FM-12+0322DFCP V0209999C000010780019N0150001N1+02891+02181100731ADDAA199000091GA1071+078009019GF107991001001999999001021KA1120M+03531MA1999999097131MD1999999-0101REMSYN082AAXX  24184 65518 32965 70000 10289 20218 39713 40073 80002 333 10353 59010 87076;EQDQ01  00002PRCP99
0195655180999992000102500004+11140-001150FM-12+0322DFCP V0209999C000010780019N0150001N1+02501+02311100871ADDAA199000091GA1051+078009019GF105991001001999999001021MA1999999097311MD1999999-0091REMSYN082AAXX  25004 65518 32965 50000 10250 20231 39731 40087 80002 333 0//00 59009 85076;EQDQ01  00002PRCP99
0233655180999992000102506004+11140-001150FM-12+0322DFCP V0209999C000019999999N0150001N1+02321+02171101871ADDAA199000091GF107991001001999999001021IA2240+02109KA1120N+02261MA1999999097271MD1999999-0021OA150600411REMSYN100AAXX  25064 65518 32965 70000 10232 20217 39727 40187 80002 333 02100 20226 50544 55089 59002 87076;EQDQ01  00002PRCP99
0201655180999992000102512004+11140-001150FM-12+0322DFCP V0209999C00001105001CN0150001N1+03421+02031100931ADDAA199000091GA1021+006009069GF107991021051008001001021MA1999999097371MD1999999+0081REMSYN088AAXX  25124 65518 32565 70000 10342 20203 39737 40093 82502 333 0//00 58008 82620 87076;EQDQ01  00002PRCP99
0214655180999992000102518004+11140-001150FM-12+0322DFCP V0209999C000019999999N0150001N1+02951+02241100801ADDAA199000091GA1011+039009039GF107991011001999999031021KA1120M+03551MA1999999097211MD1999999+0081REMSYN088AAXX  25184 65518 32965 70000 10295 20224 39721 40080 81032 333 10355 58008 81363 87076;EQDQ01  00002PRCP99
0195655180999992000102600004+11140-001150FM-12+0322DFCP V0209999C000010780019N0150001N1+02351+01851100941ADDAA199000091GA1071+078009019GF107991001001999999001021MA1999999097381MD1999999+0071REMSYN082AAXX  26004 65518 32965 70000 10235 20185 39738 40094 80002 333 0//00 58007 87076;EQDQ01  00002PRCP99
0195655180999992000102612004+11140-001150FM-12+0322DFCP V0200801N003110780019N0150001N1+03511+00631100891ADDAA199000091GA1071+078009019GF107991001001999999001021MA1999999097331MD1999999-0041REMSYN082AAXX  26124 65518 32965 70806 10351 20063 39733 40089 80002 333 0//00 59004 87076;EQDQ01  00002PRCP99
0208655180999992000102618004+11140-001150FM-12+0322DFCP V0209999C000010780019N0150001N1+02841+01571100871ADDAA199000091GA1071+078009019GF107991001001999999001021KA1120M+03611MA1999999097251MD1999999+0041REMSYN082AAXX  26184 65518 32965 70000 10284 20157 39725 40087 80002 333 10361 58004 87076;EQDQ01  00002PRCP99
0195655180999992000102700004+11140-001150FM-12+0322DFCP V0209999C000010780019N0150001N1+02311+01381100961ADDAA199000091GA1071+078009019GF107991001001999999001021MA1999999097391MD1999999+0011REMSYN082AAXX  27004 65518 32965 70000 10231 20138 39739 40096 80002 333 0//00 58001 87076;EQDQ01  00002PRCP99
0233655180999992000102706004+11140-001150FM-12+0322DFCP V0209999C000019999999N0100001N1+02091+01441100971ADDAA199000091GF107991001001999999001021IA2240+02009KA1120N+02091MA1999999097351MD1999999-0031OA150600511REMSYN100AAXX  27064 65518 32960 70000 10209 20144 39735 40097 80002 333 02000 20209 50534 55102 59003 87076;EQDQ01  00002PRCP99
0223655180999992000102712004+11140-001150FM-12+0322DFCP V0201401N004110780019N0080001N1+03531+00921100951ADDAA199000091AY121061AY221061GA1071+078009019GF107991001001999999001021MA1999999097391MD1999999+0061MW1061REMSYN088AAXX  27124 65518 31958 71408 10353 20092 39739 40095 70622 80002 333 0//00 58006 87076;EQDQ01  00002PRCP99
0236655180999992000102718004+11140-001150FM-12+0322DFCP V0209999C000010780019N0060001N1+02831+01821100901ADDAA199000091AY121061AY221061GA1071+078009019GF107991001001999999001021KA1120M+03611MA1999999097281MD1999999+0031MW1061REMSYN088AAXX  27184 65518 31956 70000 10283 20182 39728 40090 70622 80002 333 10361 58003 87076;EQDQ01  00002PRCP99
0195655180999992000102800004+11140-001150FM-12+0322DFCP V0209999C000010780019N0100001N1+02301+01871101021ADDAA199000091GA1071+078009019GF107991001001999999001021MA1999999097451MD1999999+0061REMSYN082AAXX  28004 65518 32960 70000 10230 20187 39745 40102 80002 333 0//00 58006 87076;EQDQ01  00002PRCP99
0233655180999992000102806004+11140-001150FM-12+0322DFCP V0209999C000019999999N0100001N1+02041+01791100981ADDAA199000091GF107991001001999999001021IA2240+01809KA1120N+02041MA1999999097361MD1999999+0011OA150600411REMSYN100AAXX  28064 65518 32960 70000 10204 20179 39736 40098 80002 333 01800 20204 50584 55086 58001 87076;EQDQ01  00002PRCP99
0223655180999992000102812004+11140-001150FM-12+0322DFCP V0202001N002110780019N0080001N1+03411+01711101011ADDAA199000091AY121061AY221061GA1071+078009019GF107991001001999999001021MA1999999097441MD1999999+0051MW1061REMSYN088AAXX  28124 65518 31958 72004 10341 20171 39744 40101 70622 80002 333 0//00 58005 87076;EQDQ01  00002PRCP99
0236655180999992000102818004+11140-001150FM-12+0322DFCP V0209999C000010780019N0080001N1+02931+01851100931ADDAA199000091AY121061AY221061GA1071+078009019GF107991001001999999001021KA1120M+03571MA1999999097321MD1999999+0041MW1061REMSYN088AAXX  28184 65518 31958 70000 10293 20185 39732 40093 70622 80002 333 10357 58004 87076;EQDQ01  00002PRCP99
0195655180999992000102900004+11140-001150FM-12+0322DFCP V0209999C000010780019N0100001N1+02461+01941101161ADDAA199000091GA1071+078009019GF107991001001999999001021MA1999999097531MD1999999+0081REMSYN082AAXX  29004 65518 32960 70000 10246 20194 39753 40116 80002 333 0//00 58008 87076;EQDQ01  00002PRCP99
0201655180999992000102912004+11140-001150FM-12+0322DFCP V0202201N00211105001CN0100001N1+03351+02121101001ADDAA199000091GA1011+006009069GF107991011051008001001021MA1999999097431MD1999999-0011REMSYN088AAXX  29124 65518 32560 72204 10335 20212 39743 40100 81502 333 0//00 59001 81620 87076;EQDQ01  00002PRCP99
0208655180999992000102918004+11140-001150FM-12+0322DFCP V0209999C000010780019N0100001N1+02811+02141100881ADDAA199000091GA1071+078009019GF107991001001999999001021KA1120M+03521MA1999999097271MD1999999-0051REMSYN082AAXX  29184 65518 32960 70000 10281 20214 39727 40088 80002 333 10352 59005 87076;EQDQ01  00002PRCP99
0195655180999992000103000004+11140-001150FM-12+0322DFCP V0209999C000010780019N0100001N1+02501+02211100961ADDAA199000091GA1071+078009019GF107991001001999999001021MA1999999097401MD1999999-0131REMSYN082AAXX  30004 65518 32960 70000 10250 20221 39740 40096 80002 333 0//00 59013 87076;EQDQ01  00002PRCP99
0233655180999992000103006004+11140-001150FM-12+0322DFCP V0209999C000019999999N0100001N1+02281+02221101001ADDAA199000091GF107991001001999999001021IA2240+02009KA1120N+02281MA1999999097391MD1999999-0041OA150600211REMSYN100AAXX  30064 65518 32960 70000 10228 20222 39739 40100 80002 333 02000 20228 50274 55044 59004 87076;EQDQ01  00002PRCP99
0201655180999992000103012004+11140-001150FM-12+0322DFCP V0201801N001019999999N0100001N1+03341+02041100981ADDAA199000091GA1021+006009069GF107991021051999999001021MA1999999097411MD1999999-0021REMSYN088AAXX  30124 65518 32960 71802 10334 20204 39741 40098 82502 333 0//00 59002 82620 87076;EQDQ01  00002PRCP99
0214655180999992000103018004+11140-001150FM-12+0322DFCP V0209999C000019999999N0100001N1+03011+02121100851ADDAA199000091GA1021+039009039GF107991021001999999071021KA1120M+03521MA1999999097261MD1999999-0011REMSYN088AAXX  30184 65518 32960 70000 10301 20212 39726 40085 82072 333 10352 59001 82363 86076;EQDQ01  00002PRCP99
0233655180999992000103106004+11140-001150FM-12+0322DFCP V0209999C000019999999N0100001N1+02171+02001100901ADDAA199000091GF107991001001999999001021IA2240+02209KA1120N+02151MA1999999097301MD1999999-0091OA150600361REMSYN100AAXX  31064 65518 32960 70000 10217 20200 39730 40090 80002 333 02200 20215 50604 55076 59009 87076;EQDQ01  00002PRCP99
0201655180999992000103112004+11140-001150FM-12+0322DFCP V0201801N00211105001CN0150001N1+03461+01921100971ADDAA199000091GA1021+006009069GF107991021051008001001021MA1999999097411MD1999999+0001REMSYN088AAXX  31124 65518 32565 71804 10346 20192 39741 40097 82502 333 0//00 58000 82620 87076;EQDQ01  00002PRCP99
0214655180999992000103118004+11140-001150FM-12+0322DFCP V0209999C000019999999N0150001N1+03011+02031100801ADDAA199000091GA1021+039009039GF107991021001999999031021KA1120M+03561MA1999999097211MD1999999-0051REMSYN088AAXX  31184 65518 32965 70000 10301 20203 39721 40080 82032 333 10356 59005 82363 87076;EQDQ01  00002PRCP99
0195655180999992000110100004+11140-001150FM-12+0322DFCP V0209999C000010780019N0150001N1+02471+01851100891ADDAA199000091GA1071+078009019GF107991001001999999001021MA1999999097331MD1999999-0101REMSYN082AAXX  01004 65518 32965 70000 10247 20185 39733 40089 80002 333 0//00 59010 87076;EQDQ01  00002PRCP99
0242655180999992000110118004+11140-001150FM-12+0322DFCP V0209999C000010390019N0100001N1+03101+01901100651ADDAA199000091GA1011+009009099GA2071+039009039GF107991011091008001071999KA1120M+03691MA1999999097071MD1999999-0141REMSYN100AAXX  01184 65518 32560 70000 10310 20190 39707 40065 8197/ 333 10369 59014 81930 87363 94946 95876;EQDQ01  00002PRCP99
0195655180999992000110212004+11140-001150FM-12+0322DFCP V0201801N001010780019N0150001N1+03501+01951100741ADDAA199000091GA1071+078009019GF107991001001999999001021MA1999999097191MD1999999-0041REMSYN082AAXX  02124 65518 32965 71802 10350 20195 39719 40074 80002 333 0//00 59004 87076;EQDQ01  00002PRCP99
0208655180999992000110218004+11140-001150FM-12+0322DFCP V0209999C000010780019N0150001N1+03061+01921100661ADDAA199000091GA1071+078009019GF107991001001999999001021KA1120M+03621MA1999999097081MD1999999+0011REMSYN082AAXX  02184 65518 32965 70000 10306 20192 39708 40066 80002 333 10362 58001 87076;EQDQ01  00002PRCP99
0195655180999992000110300004+11140-001150FM-12+0322DFCP V0209999C000010780019N0150001N1+02481+02001100771ADDAA199000091GA1071+078009019GF107991001001999999001021MA1999999097221MD1999999-0021REMSYN082AAXX  03004 65518 32965 70000 10248 20200 39722 40077 80002 333 0//00 59002 87076;EQDQ01  00002PRCP99
0229655180999992000110312004+11140-001150FM-12+0322DFCP V0209999C000010780019N0150001N1+03521+01841100671ADDAA199000091GA1011+007809089GA2071+078009009GF107991011011008001001021MA1999999097121MD1999999-0051REMSYN100AAXX  03124 65518 32565 70000 10352 20184 39712 40067 81102 333 0//00 59005 81826 87076 94901 95831;EQDQ01  00002PRCP99
0208655180999992000110318004+11140-001150FM-12+0322DFCP V0209999C000010780019N0150001N1+03041+01931100581ADDAA199000091GA1071+078009019GF107991001001999999001021KA1120M+03721MA1999999097001MD1999999-0081REMSYN082AAXX  03184 65518 32965 70000 10304 20193 39700 40058 80002 333 10372 59008 87076;EQDQ01  00002PRCP99
0195655180999992000110412004+11140-001150FM-12+0322DFCP V0200201N005112200019N0150001N1+03551+01111100761ADDAA199000091GA1031+078009019GF103991001001999999001021MA1999999097211MD1999999+0091REMSYN082AAXX  04124 65518 32965 30210 10355 20111 39721 40076 80002 333 0//00 58009 83076;EQDQ01  00002PRCP99
0214655180999992000110418004+11140-001150FM-12+0322DFCP V0209999C000019999999N0100001N1+02961+01481100761ADDAA199000091GA1011+039009039GF107991011001999999031021KA1120M+03801MA1999999097161MD1999999+0161REMSYN088AAXX  04184 65518 32960 70000 10296 20148 39716 40076 81032 333 10380 58016 81363 87076;EQDQ01  00002PRCP99
0255655180999992000110506004+11140-001150FM-12+0322DFCP V0209999C000019999999N0150001N1+02061+01161100891ADDAA199000091GA1011+039009039GF107991011001999999031021IA2240+01909KA1120N+02061MA1999999097281MD1999999+0121OA150600461REMSYN106AAXX  05064 65518 32965 70000 10206 20116 39728 40089 81032 333 01900 20206 50744 55099 58012 81363 87076;EQDQ01  00002PRCP99
0195655180999992000110512004+11140-001150FM-12+0322DFCP V0200801N002110780019N0150001N1+03641+01011100851ADDAA199000091GA1071+078009019GF107991001001999999001021MA1999999097301MD1999999+0091REMSYN082AAXX  05124 65518 32965 70804 10364 20101 39730 40085 80002 333 0//00 58009 87076;EQDQ01  00002PRCP99
0208655180999992000110518004+11140-001150FM-12+0322DFCP V0209999C000010780019N0150001N1+02931+01531100731ADDAA199000091GA1071+078009019GF107991001001999999001021KA1120M+03701MA1999999097131MD1999999-0031REMSYN082AAXX  05184 65518 32965 70000 10293 20153 39713 40073 80002 333 10370 59003 87076;EQDQ01  00002PRCP99
0195655180999992000110600004+11140-001150FM-12+0322DFCP V0209999C000010780019N0100001N1+02391+01251100891ADDAA199000091GA1071+078009019GF107991001001999999001021MA1999999097341MD1999999+0031REMSYN082AAXX  06004 65518 32960 70000 10239 20125 39734 40089 80002 333 0//00 58003 87076;EQDQ01  00002PRCP99
0261655180999992000110606004+11140-001150FM-12+0322DFCP V0209999C000019999999N0060001N1+01991+01121100831ADDAA199000091AY121061AY221061GF107991001001999999001021IA2240+01709KA1120N+01961MA1999999097221MD1999999-0061MW1061OA150600461REMSYN106AAXX  06064 65518 31956 70000 10199 20112 39722 40083 70622 80002 333 01700 20196 50724 55096 59006 87076;EQDQ01  00002PRCP99
0223655180999992000110612004+11140-001150FM-12+0322DFCP V0200801N003110780019N0060001N1+03421+01021100861ADDAA199000091AY121061AY221061GA1071+078009019GF107991001001999999001021MA1999999097301MD1999999+0001MW1061REMSYN088AAXX  06124 65518 31956 70806 10342 20102 39730 40086 70622 80002 333 0//00 58000 87076;EQDQ01  00002PRCP99
0236655180999992000110618004+11140-001150FM-12+0322DFCP V0209999C000010780019N0060001N1+02801+01411100731ADDAA199000091AY121061AY221061GA1071+078009019GF107991001001999999001021KA1120M+03541MA1999999097111MD1999999-0021MW1061REMSYN088AAXX  06184 65518 31956 70000 10280 20141 39711 40073 70622 80002 333 10354 59002 87076;EQDQ01  00002PRCP99
0223655180999992000110700004+11140-001150FM-12+0322DFCP V0209999C000010780019N0080001N1+02391+00981100731ADDAA199000091AY121061AY221061GA1071+078009019GF107991001001999999001021MA1999999097171MD1999999-0171MW1061REMSYN088AAXX  07004 65518 31958 70000 10239 29098 39717 40073 70622 80002 333 0//00 59017 87076;EQDQ01  00002PRCP99
0261655180999992000110706004+11140-001150FM-12+0322DFCP V0209999C000019999999N0060001N1+01941+01051100751ADDAA199000091AY121061AY221061GF107991001001999999001021IA2240+01709KA1120N+01941MA1999999097131MD1999999-0091MW1061OA150600311REMSYN106AAXX  07064 65518 31956 70000 10194 20105 39713 40075 70622 80002 333 01700 20194 50504 55067 59009 87076;EQDQ01  00002PRCP99
0223655180999992000110712004+11140-001150FM-12+0322DFCP V0200401N005110780019N0080001N1+03461+00421100631ADDAA199000091AY121061AY221061GA1071+078009019GF107991001001999999001021MA1999999097081MD1999999-0221MW1061REMSYN088AAXX  07124 65518 31958 70410 10346 20042 39708 40063 70622 80002 333 0//00 59022 87076;EQDQ01  00002PRCP99
0236655180999992000110718004+11140-001150FM-12+0322DFCP V0209999C000010780019N0080001N1+02811+01191100561ADDAA199000091AY121061AY221061GA1071+078009019GF107991001001999999001021KA1120M+03601MA1999999096941MD1999999-0171MW1061REMSYN088AAXX  07184 65518 31958 70000 10281 20119 39694 40056 70622 80002 333 10360 59017 87076;EQDQ01  00002PRCP99
0223655180999992000110800004+11140-001150FM-12+0322DFCP V0209999C000010780019N0080001N1+02361+01081100641ADDAA199000091AY121061AY221061GA1071+078009019GF107991001001999999001021MA1999999097091MD1999999-0081MW1061REMSYN088AAXX  08004 65518 31958 70000 10236 20108 39709 40064 70622 80002 333 0//00 59008 87076;EQDQ01  00002PRCP99
0261655180999992000110806004+11140-001150FM-12+0322DFCP V0209999C000019999999N0080001N1+01971+01031100561ADDAA199000091AY121061AY221061GF107991001001999999001021IA2240+01609KA1120N+01931MA1999999096951MD1999999-0181MW1061OA150600411REMSYN106AAXX  08064 65518 31958 70000 10197 20103 39695 40056 70622 80002 333 01600 20193 50904 55087 59018 87076;EQDQ01  00002PRCP99
0223655180999992000110812004+11140-001150FM-12+0322DFCP V0200801N002110780019N0060001N1+03461+00871100481ADDAA199000091AY121061AY221061GA1071+078009019GF107991001001999999001021MA1999999096931MD1999999-0151MW1061REMSYN088AAXX  08124 65518 31956 70804 10346 20087 39693 40048 70622 80002 333 0//00 59015 87076;EQDQ01  00002PRCP99
0236655180999992000110818004+11140-001150FM-12+0322DFCP V0209999C000010780019N0060001N1+02931+01251100431ADDAA199000091AY121061AY221061GA1071+078009019GF107991001001999999001021KA1120M+03601MA1999999096831MD1999999-0111MW1061REMSYN088AAXX  08184 65518 31956 70000 10293 20125 39683 40043 70622 80002 333 10360 59011 87076;EQDQ01  00002PRCP99
0261655180999992000110906004+11140-001150FM-12+0322DFCP V0209999C000019999999N0080001N1+02131+01541100641ADDAA199000091AY121061AY221061GF107991001001999999001021IA2240+01609KA1120N+02101MA1999999097041MD1999999+0091MW1061OA150600411REMSYN106AAXX  09064 65518 31958 70000 10213 20154 39704 40064 70622 80002 333 01600 20210 50584 55083 58009 87076;EQDQ01  00002PRCP99
0223655180999992000110912004+11140-001150FM-12+0322DFCP V0209999C000010780019N0080001N1+03581+01291100631ADDAA199000091AY111061AY221061GA1071+078009019GF107991001001999999001021MA1999999097081MD1999999+0151MW1061REMSYN088AAXX  09124 65518 31958 70000 10358 20129 39708 40063 70612 80002 333 0//00 58015 87076;EQDQ01  00002PRCP99
0236655180999992000110918004+11140-001150FM-12+0322DFCP V0209999C000010780019N0080001N1+03001+01681100581ADDAA199000091AY121061AY221061GA1071+078009019GF107991001001999999001021KA1120M+03651MA1999999096991MD1999999+0161MW1061REMSYN088AAXX  09184 65518 31958 70000 10300 20168 39699 40058 70622 80002 333 10365 58016 87076;EQDQ01  00002PRCP99
0195655180999992000111000004+11140-001150FM-12+0322DFCP V0209999C000010780019N0100001N1+02401+01521100711ADDAA199000091GA1071+078009019GF107991001001999999001021MA1999999097161MD1999999+0091REMSYN082AAXX  10004 65518 32960 70000 10240 20152 39716 40071 80002 333 0//00 58009 87076;EQDQ01  00002PRCP99
0195655180999992000111012004+11140-001150FM-12+0322DFCP V0201401N003110780019N0100001N1+03601+00901100611ADDAA199000091GA1051+078009019GF105991001001999999001021MA1999999097071MD1999999-0011REMSYN082AAXX  10124 65518 32960 51406 10360 20090 39707 40061 80002 333 0//00 59001 85076;EQDQ01  00002PRCP99
0236655180999992000111018004+11140-001150FM-12+0322DFCP V0209999C000010780019N0080001N1+02981+01391100541ADDAA199000091AY121061AY221061GA1071+078009019GF107991001001999999001021KA1120M+03701MA1999999096901MD1999999-0041MW1061REMSYN088AAXX  10184 65518 31958 70000 10298 20139 39690 40054 70622 80002 333 10370 59004 87076;EQDQ01  00002PRCP99
0195655180999992000111100004+11140-001150FM-12+0322DFCP V0209999C000010780019N0100001N1+02351+00901100701ADDAA199000091GA1071+078009019GF107991001001999999001021MA1999999097151MD1999999-0011REMSYN082AAXX  11004 65518 32960 70000 10235 20090 39715 40070 80002 333 0//00 59001 87076;EQDQ01  00002PRCP99
0195655180999992000111112004+11140-001150FM-12+0322DFCP V0201801N003110780019N0100001N1+03591+00731100731ADDAA199000091GA1071+078009019GF107991001001999999001021MA1999999097171MD1999999+0101REMSYN082AAXX  11124 65518 32960 71806 10359 20073 39717 40073 80002 333 0//00 58010 87076;EQDQ01  00002PRCP99
0208655180999992000111118004+11140-001150FM-12+0322DFCP V0209999C000010780019N0100001N1+02971+01351100611ADDAA199000091GA1071+078009019GF107991001001999999001021KA1120M+03761MA1999999097001MD1999999+0051REMSYN082AAXX  11184 65518 32960 70000 10297 20135 39700 40061 80002 333 10376 58005 87076;EQDQ01  00002PRCP99
0195655180999992000111200004+11140-001150FM-12+0322DFCP V0209999C000010780019N0100001N1+02331+00791100771ADDAA199000091GA1071+078009019GF107991001001999999001021MA1999999097221MD1999999+0071REMSYN082AAXX  12004 65518 32960 70000 10233 20079 39722 40077 80002 333 0//00 58007 87076;EQDQ01  00002PRCP99
0233655180999992000111206004+11140-001150FM-12+0322DFCP V0209999C000019999999N0100001N1+02011+01381100841ADDAA199000091GF107991001001999999001021IA2240+01609KA1120N+02001MA1999999097231MD1999999+0121OA150600511REMSYN100AAXX  12064 65518 32960 70000 10201 20138 39723 40084 80002 333 01600 20200 50674 55100 58012 87076;EQDQ01  00002PRCP99
0195655180999992000111212004+11140-001150FM-12+0322DFCP V0209999C000010780019N0100001N1+03381+01421100771ADDAA199000091GA1071+078009019GF107991001001999999001021MA1999999097201MD1999999+0031REMSYN082AAXX  12124 65518 32960 70000 10338 20142 39720 40077 80002 333 0//00 58003 87076;EQDQ01  00002PRCP99
0208655180999992000111218004+11140-001150FM-12+0322DFCP V0209999C000010780019N0100001N1+03071+01321100601ADDAA199000091GA1071+078009019GF107991001001999999001021KA1120M+03651MA1999999097011MD1999999+0011REMSYN082AAXX  12184 65518 32960 70000 10307 20132 39701 40060 80002 333 10365 58001 87076;EQDQ01  00002PRCP99
0195655180999992000111300004+11140-001150FM-12+0322DFCP V0209999C000010780019N0100001N1+02401+01591100761ADDAA199000091GA1071+078009019GF107991001001999999001021MA1999999097201MD1999999-0021REMSYN082AAXX  13004 65518 32960 70000 10240 20159 39720 40076 80002 333 0//00 59002 87076;EQDQ01  00002PRCP99
0233655180999992000111306004+11140-001150FM-12+0322DFCP V0209999C000019999999N0100001N1+02111+01051100781ADDAA199000091GF107991001001999999001021IA2240+01809KA1120N+02101MA1999999097181MD1999999-0051OA150600461REMSYN100AAXX  13064 65518 32960 70000 10211 20105 39718 40078 80002 333 01800 20210 50544 55098 59005 87076;EQDQ01  00002PRCP99
0195655180999992000111312004+11140-001150FM-12+0322DFCP V0201401N003110780019N0100001N1+03521+00621100661ADDAA199000091GA1071+078009019GF107991001001999999001021MA1999999097111MD1999999-0091REMSYN082AAXX  13124 65518 32960 71406 10352 20062 39711 40066 80002 333 0//00 59009 87076;EQDQ01  00002PRCP99
0195655180999992000111400004+11140-001150FM-12+0322DFCP V0209999C000010780019N0100001N1+02351+00821100701ADDAA199000091GA1071+078009019GF107991001001999999001021MA1999999097141MD1999999-0061REMSYN082AAXX  14004 65518 32960 70000 10235 20082 39714 40070 80002 333 0//00 59006 87076;EQDQ01  00002PRCP99
0233655180999992000111406004+11140-001150FM-12+0322DFCP V0209999C000019999999N0100001N1+02051+00831100741ADDAA199000091GF107991001001999999001021IA2240+01709KA1120N+01941MA1999999097131MD1999999-0051OA150600411REMSYN100AAXX  14064 65518 32960 70000 10205 20083 39713 40074 80002 333 01700 20194 50834 55088 59005 87076;EQDQ01  00002PRCP99
0195655180999992000111412004+11140-001150FM-12+0322DFCP V0200801N004110780019N0100001N1+03551+00341100711ADDAA199000091GA1071+078009019GF107991001001999999001021MA1999999097151MD1999999+0041REMSYN082AAXX  14124 65518 32960 70808 10355 20034 39715 40071 80002 333 0//00 58004 87076;EQDQ01  00002PRCP99
0208655180999992000111418004+11140-001150FM-12+0322DFCP V02099999999990780019N0100001N1+02851+01381100651ADDAA199000091GA1071+078009019GF107991001001999999001021KA1120M+03671MA1999999097041MD1999999+0091REMSYN082AAXX  14184 65518 32960 73804 10285 20138 39704 40065 80002 333 10367 58009 87076;EQDQ01  00002PRCP99
0195655180999992000111500004+11140-001150FM-12+0322DFCP V0209999C000010780019N0100001N1+02401+00521100851ADDAA199000091GA1071+078009019GF107991001001999999001021MA1999999097301MD1999999+0161REMSYN082AAXX  15004 65518 32960 70000 10240 20052 39730 40085 80002 333 0//00 58016 87076;EQDQ01  00002PRCP99
0195655180999992000111512004+11140-001150FM-12+0322DFCP V0209999C000010780019N0100001N1+03551+01171100761ADDAA199000091GA1071+078009019GF107991001001999999001021MA1999999097201MD1999999+0051REMSYN082AAXX  15124 65518 32960 70000 10355 20117 39720 40076 80002 333 0//00 58005 87076;EQDQ01  00002PRCP99
0208655180999992000111518004+11140-001150FM-12+0322DFCP V0209999C000010780019N0100001N1+03061+00591100721ADDAA199000091GA1071+078009019GF107991001001999999001021KA1120M+03801MA1999999097121MD1999999+0081REMSYN082AAXX  15184 65518 32960 70000 10306 20059 39712 40072 80002 333 10380 58008 87076;EQDQ01  00002PRCP99
0195655180999992000111600004+11140-001150FM-12+0322DFCP V0201401N002110780019N0150001N1+02571+01761100961ADDAA199000091GA1071+078009019GF107991001001999999001021MA1999999097411MD1999999+0111REMSYN082AAXX  16004 65518 32965 71404 10257 20176 39741 40096 80002 333 0//00 58011 87076;EQDQ01  00002PRCP99
0233655180999992000111606004+11140-001150FM-12+0322DFCP V0209999C000019999999N0150001N1+02201+01891101011ADDAA199000091GF107991001001999999001021IA2240+01609KA1120N+02141MA1999999097411MD1999999+0131OA150600461REMSYN100AAXX  16064 65518 32965 70000 10220 20189 39741 40101 80002 333 01600 20214 50584 55096 58013 87076;EQDQ01  00002PRCP99
0195655180999992000111612004+11140-001150FM-12+0322DFCP V0200801N003110780019N0150001N1+03421+01171100871ADDAA199000091GA1051+078009019GF105991001001999999001021MA1999999097311MD1999999+0111REMSYN082AAXX  16124 65518 32965 50806 10342 20117 39731 40087 80002 333 0//00 58011 85076;EQDQ01  00002PRCP99
0214655180999992000111618004+11140-001150FM-12+0322DFCP V0209999C000019999999N0100001N1+02951+01491100791ADDAA199000091GA1011+039009039GF107991011001999999031021KA1120M+03651MA1999999097191MD1999999+0071REMSYN088AAXX  16184 65518 32960 70000 10295 20149 39719 40079 81032 333 10365 58007 81363 87076;EQDQ01  00002PRCP99
0195655180999992000111700004+11140-001150FM-12+0322DFCP V0209999C000010780019N0150001N1+02241+00881101001ADDAA199000091GA1071+078009019GF107991001001999999001021MA1999999097431MD1999999+0021REMSYN082AAXX  17004 65518 32965 70000 10224 20088 39743 40100 80002 333 0//00 58002 87076;EQDQ01  00002PRCP99
0233655180999992000111706004+11140-001150FM-12+0322DFCP V0209999C000019999999N0150001N1+01961+00441100961ADDAA199000091GF107991001001999999001021IA2240+02009KA1120N+01961MA1999999097341MD1999999-0071OA150600411REMSYN100AAXX  17064 65518 32965 70000 10196 20044 39734 40096 80002 333 02000 20196 50704 55089 59007 87076;EQDQ01  00002PRCP99
0223655180999992000111712004+11140-001150FM-12+0322DFCP V0200801N004110780019N0080001N1+03531+00671100911ADDAA199000091AY121061AY221061GA1071+078009019GF107991001001999999001021MA1999999097341MD1999999+0031MW1061REMSYN088AAXX  17124 65518 31958 70808 10353 20067 39734 40091 70622 80002 333 0//00 58003 87076;EQDQ01  00002PRCP99
0236655180999992000111718004+11140-001150FM-12+0322DFCP V0209999C000010780019N0060001N1+02931+01201100771ADDAA199000091AY121061AY221061GA1071+078009019GF107991001001999999001021KA1120M+03621MA1999999097161MD1999999-0031MW1061REMSYN088AAXX  17184 65518 31956 70000 10293 20120 39716 40077 70622 80002 333 10362 59003 87076;EQDQ01  00002PRCP99
0195655180999992000111800004+11140-001150FM-12+0322DFCP V0209999C000010780019N0100001N1+02471+00631100901ADDAA199000091GA1071+078009019GF107991001001999999001021MA1999999097351MD1999999-0081REMSYN082AAXX  18004 65518 32960 70000 10247 20063 39735 40090 80002 333 0//00 59008 87076;EQDQ01  00002PRCP99
0255655180999992000111806004+11140-001150FM-12+0322DFCP V0203601N002119999999N0100001N1+02141+00631100841ADDAA199000091GA1011+039009039GF107991011001999999031021IA2240+01509KA1120N+02111MA1999999097241MD1999999-0101OA150600411REMSYN106AAXX  18064 65518 32960 73604 10214 20063 39724 40084 81032 333 01500 20211 50774 55084 59010 81363 87076;EQDQ01  00002PRCP99
0195655180999992000111812004+11140-001150FM-12+0322DFCP V0203601N002110780019N0100001N1+03501+00291100791ADDAA199000091GA1071+078009019GF107991001001999999001021MA1999999097241MD1999999-0101REMSYN082AAXX  18124 65518 32960 73604 10350 20029 39724 40079 80002 333 0//00 59010 87076;EQDQ01  00002PRCP99
0208655180999992000111818004+11140-001150FM-12+0322DFCP V0209999C000010780019N0100001N1+02811+01071100691ADDAA199000091GA1071+078009019GF107991001001999999001021KA1120M+03661MA1999999097081MD1999999-0081REMSYN082AAXX  18184 65518 32960 70000 10281 20107 39708 40069 80002 333 10366 59008 87076;EQDQ01  00002PRCP99
0195655180999992000111900004+11140-001150FM-12+0322DFCP V0209999C000010780019N0100001N1+02341+01071100811ADDAA199000091GA1071+078009019GF107991001001999999001021MA1999999097251MD1999999-0101REMSYN082AAXX  19004 65518 32960 70000 10234 20107 39725 40081 80002 333 0//00 59010 87076;EQDQ01  00002PRCP99
0233655180999992000111906004+11140-001150FM-12+0322DFCP V0203601N002119999999N0100001N1+02141+00861100841ADDAA199000091GF107991001001999999001021IA2240+01709KA1120N+02101MA1999999097231MD1999999-0011OA150600461REMSYN100AAXX  19064 65518 32960 73604 10214 20086 39723 40084 80002 333 01700 20210 50714 55090 59001 87076;EQDQ01  00002PRCP99
0229655180999992000111912004+11140-001150FM-12+0322DFCP V0202201N002110780019N0150001N1+03501+01701100821ADDAA199000091GA1011+009009089GA2071+078009009GF107991011011008001001021MA1999999097261MD1999999+0021REMSYN100AAXX  19124 65518 32565 72204 10350 20170 39726 40082 81102 333 0//00 58002 81830 87076 94905 95835;EQDQ01  00002PRCP99
0208655180999992000111918004+11140-001150FM-12+0322DFCP V0209999C000010780019N0150001N1+03041+01571100701ADDAA199000091GA1071+078009019GF107991001001999999001021KA1120M+03681MA1999999097111MD1999999+0031REMSYN082AAXX  19184 65518 32965 70000 10304 20157 39711 40070 80002 333 10368 58003 87076;EQDQ01  00002PRCP99
0233655180999992000112006004+11140-001150FM-12+0322DFCP V0209999C000019999999N0100001N1+02131+01681100961ADDAA199000091GF107991001001999999001021IA2240+01709KA1120N+02131MA1999999097361MD1999999+0131OA150600461REMSYN100AAXX  20064 65518 32960 70000 10213 20168 39736 40096 80002 333 01700 20213 50534 55092 58013 87076;EQDQ01  00002PRCP99
0229655180999992000112012004+11140-001150FM-12+0322DFCP V0209999C000010780019N0100001N1+03621+01581100911ADDAA199000091GA1021+007809069GA2061+078009009GF107991021081008001001021MA1999999097361MD1999999+0101REMSYN100AAXX  20124 65518 32560 70000 10362 20158 39736 40091 82802 333 0//00 58010 82626 86076 94904 95834;EQDQ01  00002PRCP99
0208655180999992000112018004+11140-001150FM-12+0322DFCP V0209999C000010780019N0100001N1+03191+01021100801ADDAA199000091GA1071+078009019GF107991001001999999001021KA1120M+03721MA1999999097211MD1999999+0101REMSYN082AAXX  20184 65518 32960 70000 10319 20102 39721 40080 80002 333 10372 58010 87076;EQDQ01  00002PRCP99
0195655180999992000112100004+11140-001150FM-12+0322DFCP V0209999C000010780019N0100001N1+02511+01101101021ADDAA199000091GA1071+078009019GF107991001001999999001021MA1999999097471MD1999999+0081REMSYN082AAXX  21004 65518 32960 70000 10251 20110 39747 40102 80002 333 0//00 58008 87076;EQDQ01  00002PRCP99
0233655180999992000112106004+11140-001150FM-12+0322DFCP V0209999C000019999999N0100001N1+02071+00741101011ADDAA199000091GF107991001001999999001021IA2240+01909KA1120N+02051MA1999999097421MD1999999+0061OA150600461REMSYN100AAXX  21064 65518 32960 70000 10207 20074 39742 40101 80002 333 01900 20205 50764 55093 58006 87076;EQDQ01  00002PRCP99
0195655180999992000112112004+11140-001150FM-12+0322DFCP V0200801N003110780019N0150001N1+03601+00301100981ADDAA199000091GA1071+078009019GF107991001001999999001021MA1999999097431MD1999999+0071REMSYN082AAXX  21124 65518 32965 70806 10360 20030 39743 40098 80002 333 0//00 58007 87076;EQDQ01  00002PRCP99
0208655180999992000112118004+11140-001150FM-12+0322DFCP V0209999C000010780019N0150001N1+03041+01161100861ADDAA199000091GA1071+078009019GF107991001001999999001021KA1120M+03741MA1999999097261MD1999999+0051REMSYN082AAXX  21184 65518 32965 70000 10304 20116 39726 40086 80002 333 10374 58005 87076;EQDQ01  00002PRCP99
0195655180999992000112200004+11140-001150FM-12+0322DFCP V0209999C000010780019N0150001N1+02341+00531100991ADDAA199000091GA1071+078009019GF107991001001999999001021MA1999999097431MD1999999-0041REMSYN082AAXX  22004 65518 32965 70000 10234 20053 39743 40099 80002 333 0//00 59004 87076;EQDQ01  00002PRCP99
0233655180999992000112206004+11140-001150FM-12+0322DFCP V0209999C000019999999N0150001N1+02061+00541100971ADDAA199000091GF107991001001999999001021IA2240+01509KA1120N+01991MA1999999097361MD1999999-0061OA150600511REMSYN100AAXX  22064 65518 32965 70000 10206 20054 39736 40097 80002 333 01500 20199 50964 55104 59006 87076;EQDQ01  00002PRCP99
0195655180999992000112212004+11140-001150FM-12+0322DFCP V0203201N002110780019N0150001N1+03351+00751101031ADDAA199000091GA1071+078009019GF107991001001999999001021MA1999999097451MD1999999+0021REMSYN082AAXX  22124 65518 32965 73204 10335 20075 39745 40103 80002 333 0//00 58002 87076;EQDQ01  00002PRCP99
0208655180999992000112218004+11140-001150FM-12+0322DFCP V0209999C000010780019N0150001N1+03001+01561100871ADDAA199000091GA1071+078009019GF107991001001999999001021KA1120M+03661MA1999999097271MD1999999+0011REMSYN082AAXX  22184 65518 32965 70000 10300 20156 39727 40087 80002 333 10366 58001 87076;EQDQ01  00002PRCP99
0195655180999992000112300004+11140-001150FM-12+0322DFCP V0209999C000010780019N0150001N1+02551+00971101051ADDAA199000091GA1071+078009019GF107991001001999999001021MA1999999097491MD1999999+0061REMSYN082AAXX  23004 65518 32965 70000 10255 20097 39749 40105 80002 333 0//00 58006 87076;EQDQ01  00002PRCP99
0233655180999992000112306004+11140-001150FM-12+0322DFCP V0203201N002119999999N0150001N1+02111+00841101061ADDAA199000091GF107991001001999999001021IA2240+01509KA1120N+02071MA1999999097441MD1999999+0081OA150600511REMSYN100AAXX  23064 65518 32965 73204 10211 20084 39744 40106 80002 333 01500 20207 50614 55102 58008 87076;EQDQ01  00002PRCP99
0195655180999992000112312004+11140-001150FM-12+0322DFCP V0200801N001010780019N0150001N1+03641+00541100991ADDAA199000091GA1071+078009019GF107991001001999999001021MA1999999097451MD1999999+0001REMSYN082AAXX  23124 65518 32965 70802 10364 20054 39745 40099 80002 333 0//00 58000 87076;EQDQ01  00002PRCP99
0208655180999992000112318004+11140-001150FM-12+0322DFCP V0209999C000010780019N0150001N1+03071+01011100861ADDAA199000091GA1071+078009019GF107991001001999999001021KA1120M+03731MA1999999097261MD1999999-0011REMSYN082AAXX  23184 65518 32965 70000 10307 20101 39726 40086 80002 333 10373 59001 87076;EQDQ01  00002PRCP99
0195655180999992000112400004+11140-001150FM-12+0322DFCP V0209999C000010780019N0150001N1+02471+00691101001ADDAA199000091GA1071+078009019GF107991001001999999001021MA1999999097451MD1999999-0041REMSYN082AAXX  24004 65518 32965 70000 10247 20069 39745 40100 80002 333 0//00 59004 87076;EQDQ01  00002PRCP99
0233655180999992000112406004+11140-001150FM-12+0322DFCP V0203601N002119999999N0150001N1+02131+00701100981ADDAA199000091GF107991001001999999001021IA2240+01609KA1120N+02131MA1999999097381MD1999999-0061OA150600511REMSYN100AAXX  24064 65518 32965 73604 10213 20070 39738 40098 80002 333 01600 20213 50864 55100 59006 87076;EQDQ01  00002PRCP99
0195655180999992000112412004+11140-001150FM-12+0322DFCP V0209999C000010780019N0150001N1+03561-00261100871ADDAA199000091GA1071+078009019GF107991001001999999001021MA1999999097311MD1999999-0141REMSYN082AAXX  24124 65518 32965 70000 10356 21026 39731 40087 80002 333 0//00 59014 87076;EQDQ01  00002PRCP99
0208655180999992000112418004+11140-001150FM-12+0322DFCP V0209999C000010780019N0150001N1+03001+01041100821ADDAA199000091GA1071+078009019GF107991001001999999001021KA1120M+03771MA1999999097221MD1999999-0041REMSYN082AAXX  24184 65518 32965 70000 10300 20104 39722 40082 80002 333 10377 59004 87076;EQDQ01  00002PRCP99
0195655180999992000112500004+11140-001150FM-12+0322DFCP V0209999C000010780019N0150001N1+02191+00631100981ADDAA199000091GA1071+078009019GF107991001001999999001021MA1999999097411MD1999999-0041REMSYN082AAXX  25004 65518 32965 70000 10219 20063 39741 40098 80002 333 0//00 59004 87076;EQDQ01  00002PRCP99
0211655180999992000112512004+11140-001150FM-12+0322DFCP V0200401N004110780019N0150001N1+03601-00081100951ADDAA199000091GA1051+078009019GF105991001001999999001021MA1999999999999MD1999999+0071REMSYN082AAXX  25124 65518 32965 50408 10360 21008 39538 40095 80002 333 0//00 58007 85076;EQDQ01  00002PRCP99Q02 095383APOSP 
0224655180999992000112518004+11140-001150FM-12+0322DFCP V0209999C000010780019N0150001N1+02981+00801100921ADDAA199000091GA1071+078009019GF107991001001999999001021KA1120M+03701MA1999999097312MD1999999+0091REMSYN082AAXX  25184 65518 32965 70000 10298 20080 39731 40092 80002 333 10370 58009 87076;EQDQ01+097313APOSP Q02  00002PRCP99
0195655180999992000112800004+11140-001150FM-12+0322DFCP V0209999C000010780019N0150001N1+02211+00521101211ADDAA199000091GA1071+078009019GF107991001001999999001021MA1999999097631MD1999999+0021REMSYN082AAXX  28004 65518 32965 70000 10221 20052 39763 40121 80002 333 0//00 58002 87076;EQDQ01  00002PRCP99
0233655180999992000112806004+11140-001150FM-12+0322DFCP V0200401N002119999999N0150001N1+02101+00341101211ADDAA199000091GF107991001001999999001021IA2240+01409KA1120N+02051MA1999999097601MD1999999+0051OA150600511REMSYN100AAXX  28064 65518 32965 70404 10210 20034 39760 40121 80002 333 01400 20205 50874 55104 58005 87076;EQDQ01  00002PRCP99
0233655180999992000112906004+11140-001150FM-12+0322DFCP V0209999C000019999999N0150001N1+01901+00401101181ADDAA199000091GF107991001001999999001021IA2240+01609KA1120N+01881MA1999999097551MD1999999-0051OA150600461REMSYN100AAXX  29064 65518 32965 70000 10190 20040 39755 40118 80002 333 01600 20188 51144 55099 59005 87076;EQDQ01  00002PRCP99
0208655180999992000112918004+11140-001150FM-12+0322DFCP V0209999C000010780019N0150001N1+02981+00401101021ADDAA199000091GA1071+078009019GF107991001001999999001021KA1120M+03531MA1999999097381MD1999999+0001REMSYN082AAXX  29184 65518 32965 70000 10298 20040 39738 40102 80002 333 10353 58000 87076;EQDQ01  00002PRCP99
0195655180999992000113000004+11140-001150FM-12+0322DFCP V0209999C000010780019N0150001N1+02171+00571101191ADDAA199000091GA1071+078009019GF107991001001999999001021MA1999999097601MD1999999-0031REMSYN082AAXX  30004 65518 32965 70000 10217 20057 39760 40119 80002 333 0//00 59003 87076;EQDQ01  00002PRCP99
0195655180999992000120412004+11140-001150FM-12+0322DFCP V0200401N003112200019N0150001N1+03261-00551101091ADDAA199000091GA1031+078009019GF103991001001999999001021MA1999999097491MD1999999-0061REMSYN082AAXX  04124 65518 32965 30406 10326 21055 39749 40109 80002 333 0//00 59006 83076;EQDQ01  00002PRCP99
0208655180999992000120418004+11140-001150FM-12+0322DFCP V0209999C000010780019N0150001N1+02841+00011100921ADDAA199000091GA1071+078009019GF107991001001999999001021KA1120M+03431MA1999999097281MD1999999-0081REMSYN082AAXX  04184 65518 32965 70000 10284 20001 39728 40092 80002 333 10343 59008 87076;EQDQ01  00002PRCP99
0195655180999992000120500004+11140-001150FM-12+0322DFCP V0209999C000010780019N0150001N1+02171+00331101121ADDAA199000091GA1071+078009019GF107991001001999999001021MA1999999097531MD1999999-0111REMSYN082AAXX  05004 65518 32965 70000 10217 20033 39753 40112 80002 333 0//00 59011 87076;EQDQ01  00002PRCP99
0233655180999992000120506004+11140-001150FM-12+0322DFCP V0209999C000019999999N0150001N1+01811+00161101101ADDAA199000091GF107991001001999999001021IA2240+01309KA1120N+01771MA1999999097471MD1999999-0101OA150600511REMSYN100AAXX  05064 65518 32965 70000 10181 20016 39747 40110 80002 333 01300 20177 50864 55101 59010 87076;EQDQ01  00002PRCP99
0195655180999992000120512004+11140-001150FM-12+0322DFCP V0200601N004110780019N0150001N1+03131-00651101121ADDAA199000091GA1071+078009019GF107991001001999999001021MA1999999097521MD1999999+0031REMSYN082AAXX  05124 65518 32965 70608 10313 21065 39752 40112 80002 333 0//00 58003 87076;EQDQ01  00002PRCP99
0208655180999992000120518004+11140-001150FM-12+0322DFCP V0209999C000010780019N0150001N1+02851+00391101001ADDAA199000091GA1071+078009019GF107991001001999999001021KA1120M+03551MA1999999097371MD1999999+0091REMSYN082AAXX  05184 65518 32965 70000 10285 20039 39737 40100 80002 333 10355 58009 87076;EQDQ01  00002PRCP99
0195655180999992000120600004+11140-001150FM-12+0322DFCP V0209999C000010780019N0150001N1+02141-00041101211ADDAA199000091GA1071+078009019GF107991001001999999001021MA1999999097601MD1999999+0071REMSYN082AAXX  06004 65518 32965 70000 10214 21004 39760 40121 80002 333 0//00 58007 87076;EQDQ01  00002PRCP99
0255655180999992000120606004+11140-001150FM-12+0322DFCP V0200201N002119999999N0150001N1+01921+00081101161ADDAA199000091GA1011+039009039GF107991011001999999031021IA2240+01309KA1120N+01811MA1999999097521MD1999999+0051OA150600511REMSYN106AAXX  06064 65518 32965 70204 10192 20008 39752 40116 81032 333 01300 20181 51124 55100 58005 81363 87076;EQDQ01  00002PRCP99
0195655180999992000120612004+11140-001150FM-12+0322DFCP V0200801N004110780019N0150001N1+02921-00221101161ADDAA199000091GA1071+078009019GF107991001001999999001021MA1999999097541MD1999999+0021REMSYN082AAXX  06124 65518 32965 70808 10292 21022 39754 40116 80002 333 0//00 58002 87076;EQDQ01  00002PRCP99
0208655180999992000120618004+11140-001150FM-12+0322DFCP V0209999C000010780019N0150001N1+02691-00011101101ADDAA199000091GA1071+078009019GF107991001001999999001021KA1120M+03141MA1999999097461MD1999999+0091REMSYN082AAXX  06184 65518 32965 70000 10269 21001 39746 40110 80002 333 10314 58009 87076;EQDQ01  00002PRCP99
0201655180999992000120700004+11140-001150FM-12+0322DFCP V0200401N001019999999N0150001N1+02181+00321101261ADDAA199000091GA1021+039009039GF107991021001999999071021MA1999999097641MD1999999+0041REMSYN088AAXX  07004 65518 32965 70402 10218 20032 39764 40126 82072 333 0//00 58004 82363 86076;EQDQ01  00002PRCP99
0249655180999992000120706004+11140-001150FM-12+0322DFCP V0203601N002119999999N0150001N1+01771+00051101301ADDAA199000091GF107991001001999999001021IA2240+01509KA1120N+01691MA1999999097641MD1999999+0121OA150699999REMSYN100AAXX  07064 65518 32965 73604 10177 20005 39764 40130 80002 333 01500 20169 50634 55021 58012 87076;EQDQ01  00002PRCP99Q02  00102WGOSPD
0195655180999992000120712004+11140-001150FM-12+0322DFCP V0200401N005110780019N0150001N1+03081-00211101211ADDAA199000091GA1071+078009019GF107991001001999999001021MA1999999097601MD1999999+0061REMSYN082AAXX  07124 65518 32965 70410 10308 21021 39760 40121 80002 333 0//00 58006 87076;EQDQ01  00002PRCP99
0195655180999992000120800004+11140-001150FM-12+0322DFCP V0200201N001010780019N0150001N1+02181+00001101241ADDAA199000091GA1071+078009019GF107991011001999999031021MA1999999097631MD1999999-0011REMSYN082AAXX  08004 65518 32965 70202 10218 21000 39763 40124 81032 333 0//00 59001 87076;EQDQ01  00002PRCP99
0255655180999992000120806004+11140-001150FM-12+0322DFCP V0200201N001019999999N0150001N1+01811+00121101231ADDAA199000091GA1021+039009039GF107991021001999999031021IA2240+01409KA1120N+01811MA1999999097581MD1999999-0061OA150600411REMSYN106AAXX  08064 65518 32965 70202 10181 20012 39758 40123 82032 333 01400 20181 50774 55089 59006 82363 87076;EQDQ01  00002PRCP99
0201655180999992000120812004+11140-001150FM-12+0322DFCP V0200801N003119999999N0150001N1+03091-00531101141ADDAA199000091GA1011+039009039GF107991011001999999031021MA1999999097541MD1999999-0061REMSYN088AAXX  08124 65518 32965 70806 10309 21053 39754 40114 81032 333 0//00 59006 81363 87076;EQDQ01  00002PRCP99
0214655180999992000120818004+11140-001150FM-12+0322DFCP V0209999C000019999999N0150001N1+02761+00071101031ADDAA199000091GA1031+039009039GF107991031001999999031021KA1120M+03181MA1999999097391MD1999999-0081REMSYN088AAXX  08184 65518 32965 70000 10276 20007 39739 40103 83032 333 10318 59008 83363 86076;EQDQ01  00002PRCP99
0195655180999992000120900004+11140-001150FM-12+0322DFCP V0209999C000010780019N0150001N1+02111+00381101191ADDAA199000091GA1071+078009019GF107991001001999999001021MA1999999097581MD1999999-0051REMSYN082AAXX  09004 65518 32965 70000 10211 20038 39758 40119 80002 333 0//00 59005 87076;EQDQ01  00002PRCP99
0255655180999992000120906004+11140-001150FM-12+0322DFCP V0200401N002119999999N0150001N1+02031-00191101121ADDAA199000091GA1011+039009039GF107991011001999999031021IA2240+01509KA1120N+01981MA1999999097491MD1999999-0091OA150600361REMSYN106AAXX  09064 65518 32965 70404 10203 21019 39749 40112 81032 333 01500 20198 50784 55076 59009 81363 87076;EQDQ01  00002PRCP99
0195655180999992000120912004+11140-001150FM-12+0322DFCP V0200801N003110780019N0150001N1+02991-00371101101ADDAA199000091GA1071+078009019GF107991001001999999001021MA1999999097491MD1999999-0051REMSYN082AAXX  09124 65518 32965 70806 10299 21037 39749 40110 80002 333 0//00 59005 87076;EQDQ01  00002PRCP99
0214655180999992000120918004+11140-001150FM-12+0322DFCP V0203601N001019999999N0150001N1+02701-00251101021ADDAA199000091GA1031+039009039GF107991031001999999071021KA1120M+03251MA1999999097381MD1999999-0011REMSYN088AAXX  09184 65518 32965 73602 10270 21025 39738 40102 83072 333 10325 59001 83363 85076;EQDQ01  00002PRCP99
0255655180999992000121006004+11140-001150FM-12+0322DFCP V0200401N002119999999N0150001N1+01791+00021101211ADDAA199000091GA1011+039009039GF107991011001999999031021IA2240+01709KA1120N+01741MA1999999097551MD1999999+0061OA150600411REMSYN106AAXX  10064 65518 32965 70404 10179 20002 39755 40121 81032 333 01700 20174 50784 55084 58006 81363 87076;EQDQ01  00002PRCP99
0223655180999992000121012004+11140-001150FM-12+0322DFCP V0200801N003110780019N0090001N1+02901-00181101171ADDAA199000091AY121061AY221061GA1071+078009019GF107991001001999999001021MA1999999097551MD1999999+0061MW1061REMSYN088AAXX  10124 65518 31959 70806 10290 21018 39755 40117 70622 80002 333 0//00 58006 87076;EQDQ01  00002PRCP99
0236655180999992000121018004+11140-001150FM-12+0322DFCP V0200601N002110780019N0060001N1+02701-00031101031ADDAA199000091AY121061AY221061GA1071+078009019GF107991001001999999001021KA1120M+03131MA1999999097381MD1999999+0001MW1061REMSYN088AAXX  10184 65518 31956 70604 10270 21003 39738 40103 70622 80002 333 10313 58000 87076;EQDQ01  00002PRCP99
0195655180999992000121100004+11140-001150FM-12+0322DFCP V0200401N002110780019N0100001N1+02121+00071101291ADDAA199000091GA1071+078009019GF107991001001999999001021MA1999999097661MD1999999+0041REMSYN082AAXX  11004 65518 32960 70404 10212 20007 39766 40129 80002 333 0//00 58004 87076;EQDQ01  00002PRCP99
0255655180999992000121106004+11140-001150FM-12+0322DFCP V0200201N002119999999N0100001N1+01951-00041101261ADDAA199000091GA1011+039009039GF107991011001999999031021IA2240+01309KA1120N+01871MA1999999097621MD1999999+0071OA150600361REMSYN106AAXX  11064 65518 32960 70204 10195 21004 39762 40126 81032 333 01300 20187 50784 55071 58007 81363 87076;EQDQ01  00002PRCP99
0229655180999992000121112004+11140-001150FM-12+0322DFCP V0200601N004119999999N0030001N1+02841+00421101231ADDAA199000091AY121061AY221061GA1031+039009039GF107991031001999999031021MA1999999097611MD1999999+0061MW1061REMSYN094AAXX  11124 65518 31930 70608 10284 20042 39761 40123 70622 83032 333 0//00 58006 83363 86076;EQDQ01  00002PRCP99
0236655180999992000121118004+11140-001150FM-12+0322DFCP V0209999C000010780019N0030001N1+02681+01111101151ADDAA199000091AY121061AY221061GA1071+078009019GF107991001001999999001021KA1120M+03001MA1999999097511MD1999999+0131MW1061REMSYN088AAXX  11184 65518 31930 70000 10268 20111 39751 40115 70622 80002 333 10300 58013 87076;EQDQ01  00002PRCP99
0195655180999992000121200004+11140-001150FM-12+0322DFCP V0200201N001010780019N0100001N1+02301+00551101301ADDAA199000091GA1071+078009019GF107991001001999999001021MA1999999097681MD1999999+0021REMSYN082AAXX  12004 65518 32960 70202 10230 20055 39768 40130 80002 333 0//00 58002 87076;EQDQ01  00002PRCP99
0244655180999992000121206004+11140-001150FM-12+0322DFCP V0200201N001019999999N0100001N1+01821+00481101311ADDAA199000091GA1021+039009039GF107991021001999999031021IA2240+01609KA1120N+01801MA1999999097651MD1999999+0031REMSYN106AAXX  12064 65518 32960 70202 10182 20048 39765 40131 82032 333 01600 20180 50734 50015 58003 82363 87076;EQDQ01  00002PRCP99
0229655180999992000121212004+11140-001150FM-12+0322DFCP V0200801N001019999999N0080001N1+02851-00321101131ADDAA199000091AY121061AY221061GA1021+039009039GF107991021001999999031021MA1999999097521MD1999999-0091MW1061REMSYN094AAXX  12124 65518 31958 70802 10285 21032 39752 40113 70622 82032 333 0//00 59009 82363 87076;EQDQ01  00002PRCP99
0236655180999992000121218004+11140-001150FM-12+0322DFCP V0209999C000010780019N0030001N1+02711+00491101051ADDAA199000091AY121061AY221061GA1071+078009019GF107991001001999999001021KA1120M+03141MA1999999097401MD1999999-0111MW1061REMSYN088AAXX  12184 65518 31930 70000 10271 20049 39740 40105 70622 80002 333 10314 59011 87076;EQDQ01  00002PRCP99
0233655180999992000121306004+11140-001150FM-12+0322DFCP V0200201N002119999999N0100001N1+01811-00051101201ADDAA199000091GF107991061001999999031021IA2240+01509KA1120N+01781MA1999999097541MD1999999-0111OA150600411REMSYN100AAXX  13064 65518 32960 70204 10181 21005 39754 40120 86032 333 01500 20178 50934 55086 59011 86363;EQDQ01  00002PRCP99
0201655180999992000121312004+11140-001150FM-12+0322DFCP V0200401N004119999999N0150001N1+02951-00561101051ADDAA199000091GA1021+039009039GF107991021001999999031021MA1999999097451MD1999999-0071REMSYN088AAXX  13124 65518 32965 70408 10295 21056 39745 40105 82032 333 0//00 59007 82363 84076;EQDQ01  00002PRCP99
0208655180999992000121318004+11140-001150FM-12+0322DFCP V0209999C000010390019N0100001N1+02761-00191100931ADDAA199000091GA1061+039009079GF107991061001999999071021KA1120M+03201MA1999999097291MD1999999-0111REMSYN082AAXX  13184 65518 32960 70000 10276 21019 39729 40093 86072 333 10320 59011 86363;EQDQ01  00002PRCP99
0195655180999992000121400004+11140-001150FM-12+0322DFCP V0200201N002110390019N0150001N1+02451-00381101051ADDAA199000091GA1071+039009079GF107991071001999999071021MA1999999097451MD1999999-0111REMSYN082AAXX  14004 65518 32965 70204 10245 21038 39745 40105 87072 333 0//00 59011 87363;EQDQ01  00002PRCP99
0255655180999992000121406004+11140-001150FM-12+0322DFCP V0209999C000019999999N0150001N1+01941-00261101091ADDAA199000091GA1011+039009039GF107991011001999999031021IA2240+01509KA1120N+01901MA1999999097451MD1999999-0091OA150600461REMSYN106AAXX  14064 65518 32965 70000 10194 21026 39745 40109 81032 333 01500 20190 51084 55093 59009 81363 87076;EQDQ01  00002PRCP99
0195655180999992000121412004+11140-001150FM-12+0322DFCP V0200801N003110780019N0150001N1+02931-00401101001ADDAA199000091GA1071+078009019GF107991001001999999001021MA1999999097401MD1999999-0051REMSYN082AAXX  14124 65518 32965 70806 10293 21040 39740 40100 80002 333 0//00 59005 87076;EQDQ01  00002PRCP99
0214655180999992000121418004+11140-001150FM-12+0322DFCP V0200201N001010390019N0150001N1+02731+00001100951ADDAA199000091GA1061+039009039GF107991061001999999031021KA1120M+03101MA1999999097321MD1999999+0031REMSYN088AAXX  14184 65518 32965 70202 10273 20000 39732 40095 86032 333 10310 58003 86363 83076;EQDQ01  00002PRCP99
0201655180999992000121500004+11140-001150FM-12+0322DFCP V0200401N003119999999N0150001N1+02051+00011101121ADDAA199000091GA1011+039009039GF107991011001999999031021MA1999999097501MD1999999+0051REMSYN088AAXX  15004 65518 32965 70406 10205 20001 39750 40112 81032 333 0//00 58005 81363 87076;EQDQ01  00002PRCP99
0261655180999992000121506004+11140-001150FM-12+0322DFCP V0200401N003119999999N0080001N1+01731+00121101081ADDAA199000091AY121061AY221061GF107991001001999999001021IA2240+01609KA1120N+01711MA1999999097441MD1999999-0011MW1061OA150600361REMSYN106AAXX  15064 65518 31958 70406 10173 20012 39744 40108 70622 80002 333 01600 20171 51024 55074 59001 87076;EQDQ01  00002PRCP99
0236655180999992000121518004+11140-001150FM-12+0322DFCP V0209999C000010780019N0040001N1+02601+00511100851ADDAA199000091AY121061AY221061GA1071+078009019GF107991001001999999001021KA1120M+03041MA1999999097201MD1999999-0121MW1061REMSYN088AAXX  15184 65518 31940 70000 10260 20051 39720 40085 70622 80002 333 10304 59012 87076;EQDQ01  00002PRCP99
0195655180999992000121600004+11140-001150FM-12+0322DFCP V0203601N001010780019N0100001N1+01911+00291100971ADDAA199000091GA1071+078009019GF107991001001999999001021MA1999999097341MD1999999-0111REMSYN082AAXX  16004 65518 32960 73602 10191 20029 39734 40097 80002 333 0//00 59011 87076;EQDQ01  00002PRCP99
0261655180999992000121606004+11140-001150FM-12+0322DFCP V0203601N001019999999N0060001N1+01741+00171101041ADDAA199000091AY121061AY221061GF107991001001999999001021IA2240+01409KA1120N+01681MA1999999097381MD1999999-0071MW1061OA150600211REMSYN106AAXX  16064 65518 31956 73602 10174 20017 39738 40104 70622 80002 333 01400 20168 50934 55049 59007 87076;EQDQ01  00002PRCP99
0223655180999992000121612004+11140-001150FM-12+0322DFCP V0200801N002110780019N0025001N1+02681+00201100981ADDAA199000091AY121061AY221061GA1071+078009019GF107991001001999999001021MA1999999097451MD1999999+0031MW1061REMSYN088AAXX  16124 65518 31925 70804 10268 20020 39745 40098 70622 80002 333 0//00 58003 87076;EQDQ01  00002PRCP99
0236655180999992000121618004+11140-001150FM-12+0322DFCP V0209999C000010780019N0025001N1+02621+00511100911ADDAA199000091AY121061AY221061GA1071+078009019GF107991001001999999001021KA1120M+03051MA1999999097261MD1999999+0061MW1061REMSYN088AAXX  16184 65518 31925 70000 10262 20051 39726 40091 70622 80002 333 10305 58006 87076;EQDQ01  00002PRCP99
0223655180999992000121700004+11140-001150FM-12+0322DFCP V0203601N001010780019N0060001N1+02171+00331100971ADDAA199000091AY121061AY221061GA1071+078009019GF107991001001999999001021MA1999999097351MD1999999+0011MW1061REMSYN088AAXX  17004 65518 31956 73602 10217 20033 39735 40097 70622 80002 333 0//00 58001 87076;EQDQ01  00002PRCP99
0223655180999992000121712004+11140-001150FM-12+0322DFCP V0200401N002110780019N0025001N1+02921+00001100991ADDAA199000091AY121061AY221061GA1071+078009019GF107991001001999999001021MA1999999097381MD1999999+0031MW1061REMSYN088AAXX  17124 65518 31925 70404 10292 20000 39738 40099 70622 80002 333 0//00 58003 87076;EQDQ01  00002PRCP99
0236655180999992000121718004+11140-001150FM-12+0322DFCP V0209999C000010780019N0025001N1+02821+00221100861ADDAA199000091AY121061AY221061GA1071+078009019GF107991001001999999001021KA1120M+03311MA1999999097221MD1999999-0041MW1061REMSYN088AAXX  17184 65518 31925 70000 10282 20022 39722 40086 70622 80002 333 10331 59004 87076;EQDQ01  00002PRCP99
0223655180999992000121800004+11140-001150FM-12+0322DFCP V0203601N001010780019N0080001N1+02241+00511100971ADDAA199000091AY121061AY221061GA1071+078009019GF107991001001999999001021MA1999999097381MD1999999+0021MW1061REMSYN088AAXX  18004 65518 31958 73602 10224 20051 39738 40097 70622 80002 333 0//00 58002 87076;EQDQ01  00002PRCP99
0261655180999992000121806004+11140-001150FM-12+0322DFCP V0200401N001019999999N0012001N1+01901+00281100991ADDAA199000091AY121061AY221061GF107991001001999999001021IA2240+01509KA1120N+01861MA1999999097361MD1999999+0031MW1061OA150600261REMSYN106AAXX  18064 65518 31912 70402 10190 20028 39736 40099 70622 80002 333 01500 20186 50724 55059 58003 87076;EQDQ01  00002PRCP99
0223655180999992000121812004+11140-001150FM-12+0322DFCP V0200201N003110780019N0020001N1+03191-00281100951ADDAA199000091AY121061AY221061GA1071+078009019GF107991001001999999001021MA1999999097361MD1999999-0021MW1061REMSYN088AAXX  18124 65518 31920 70206 10319 21028 39736 40095 70622 80002 333 0//00 59002 87076;EQDQ01  00002PRCP99
0208655180999992000121818004+11140-001150FM-12+0322DFCP V0203601N001010780019N0100001N1+02901+00861100791ADDAA199000091GA1071+078009019GF107991001001999999001021KA1120M+03501MA1999999097171MD1999999-0051REMSYN082AAXX  18184 65518 32960 73602 10290 20086 39717 40079 80002 333 10350 59005 87076;EQDQ01  00002PRCP99
0233655180999992000121906004+11140-001150FM-12+0322DFCP V0203601N002119999999N0100001N1+01921+00051101021ADDAA199000091GF107991001001999999001021IA2240+01709KA1120N+01901MA1999999097391MD1999999+0031OA150600411REMSYN100AAXX  19064 65518 32960 73604 10192 20005 39739 40102 80002 333 01700 20190 50974 55086 58003 87076;EQDQ01  00002PRCP99
0195655180999992000121912004+11140-001150FM-12+0322DFCP V0203601N002112200019N0150001N1+03331-00671101051ADDAA199000091GA1031+078009019GF103991001001999999001021MA1999999097461MD1999999+0101REMSYN082AAXX  19124 65518 32965 33604 10333 21067 39746 40105 80002 333 0//00 58010 83076;EQDQ01  00002PRCP99
0208655180999992000121918004+11140-001150FM-12+0322DFCP V0209999C000010780019N0150001N1+02951+00691100861ADDAA199000091GA1051+078009019GF105991001001999999001021KA1120M+03571MA1999999097241MD1999999+0071REMSYN082AAXX  19184 65518 32965 50000 10295 20069 39724 40086 80002 333 10357 58007 85076;EQDQ01  00002PRCP99
0195655180999992000122000004+11140-001150FM-12+0322DFCP V0203601N002110780019N0150001N1+02331+00011100921ADDAA199000091GA1051+078009019GF105991001001999999001021MA1999999097351MD1999999-0051REMSYN082AAXX  20004 65518 32965 53604 10233 20001 39735 40092 80002 333 0//00 59005 85076;EQDQ01  00002PRCP99
0233655180999992000122006004+11140-001150FM-12+0322DFCP V0209999C000019999999N0150001N1+01871+00321100891ADDAA199000091GF107991001001999999001021IA2240+01709KA1120N+01871MA1999999097271MD1999999-0121OA150600461REMSYN100AAXX  20064 65518 32965 70000 10187 20032 39727 40089 80002 333 01700 20187 50984 55095 59012 87076;EQDQ01  00002PRCP99
0195655180999992000122012004+11140-001150FM-12+0322DFCP V0200801N003110780019N0150001N1+03321-00931100891ADDAA199000091GA1071+078009019GF107991001001999999001021MA1999999097321MD1999999-0141REMSYN082AAXX  20124 65518 32965 70806 10332 21093 39732 40089 80002 333 0//00 59014 87076;EQDQ01  00002PRCP99
0208655180999992000122018004+11140-001150FM-12+0322DFCP V0209999C000010780019N0150001N1+03031+00601100741ADDAA199000091GA1071+078009019GF107991001001999999001021KA1120M+03561MA1999999097121MD1999999-0121REMSYN082AAXX  20184 65518 32965 70000 10303 20060 39712 40074 80002 333 10356 59012 87076;EQDQ01  00002PRCP99
0195655180999992000122100004+11140-001150FM-12+0322DFCP V0203601N001010780019N0150001N1+02381+00121100961ADDAA199000091GA1071+078009019GF107991001001999999001021MA1999999097381MD1999999+0041REMSYN082AAXX  21004 65518 32965 73602 10238 20012 39738 40096 80002 333 0//00 58004 87076;EQDQ01  00002PRCP99
0233655180999992000122106004+11140-001150FM-12+0322DFCP V0203601N002119999999N0150001N1+02001-00391100941ADDAA199000091GF107991001001999999001021IA2240+01409KA1120N+01901MA1999999097331MD1999999+0061OA150600511REMSYN100AAXX  21064 65518 32965 73604 10200 21039 39733 40094 80002 333 01400 20190 50834 55101 58006 87076;EQDQ01  00002PRCP99
0195655180999992000122112004+11140-001150FM-12+0322DFCP V0200401N002110780019N0150001N1+03351-00871100961ADDAA199000091GA1071+078009019GF107991001001999999001021MA1999999097381MD1999999+0061REMSYN082AAXX  21124 65518 32965 70404 10335 21087 39738 40096 80002 333 0//00 58006 87076;EQDQ01  00002PRCP99
0208655180999992000122118004+11140-001150FM-12+0322DFCP V0209999C000010780019N0150001N1+03011+00461100891ADDAA199000091GA1071+078009019GF107991001001999999001021KA1120M+03611MA1999999097281MD1999999+0161REMSYN082AAXX  21184 65518 32965 70000 10301 20046 39728 40089 80002 333 10361 58016 87076;EQDQ01  00002PRCP99
0195655180999992000122200004+11140-001150FM-12+0322DFCP V0203601N001010780019N0150001N1+02221+00091101071ADDAA199000091GA1071+078009019GF107991001001999999001021MA1999999097491MD1999999+0101REMSYN082AAXX  22004 65518 32965 73602 10222 20009 39749 40107 80002 333 0//00 58010 87076;EQDQ01  00002PRCP99
0233655180999992000122206004+11140-001150FM-12+0322DFCP V0203601N001019999999N0150001N1+03901-00181101081ADDAA199000091GF107991001001999999001021IA2240+01509KA1120N+01841MA1999999097461MD1999999+0131OA150600511REMSYN100AAXX  22064 65518 32965 73602 10390 21018 39746 40108 80002 333 01500 20184 50774 55100 58013 87076;EQDQ01  00002PRCP99
0195655180999992000122212004+11140-001150FM-12+0322DFCP V0203601N001012200019N0150001N1+03371-00521101021ADDAA199000091GA1031+078009019GF103991001001999999001021MA1999999097481MD1999999+0101REMSYN082AAXX  22124 65518 32965 33602 10337 21052 39748 40102 80002 333 0//00 58010 83076;EQDQ01  00002PRCP99
0208655180999992000122218004+11140-001150FM-12+0322DFCP V0209999C000010780019N0150001N1+03051+00371100891ADDAA199000091GA1051+078009019GF105991001001999999001021KA1120M+03641MA1999999097271MD1999999-0011REMSYN082AAXX  22184 65518 32965 50000 10305 20037 39727 40089 80002 333 10364 59001 85076;EQDQ01  00002PRCP99
0195655180999992000122300004+11140-001150FM-12+0322DFCP V0203601N001010780019N0150001N1+02351-00231101091ADDAA199000091GA1051+078009019GF105991001001999999001021MA1999999097511MD1999999+0021REMSYN082AAXX  23004 65518 32965 53602 10235 21023 39751 40109 80002 333 0//00 58002 85076;EQDQ01  00002PRCP99
0233655180999992000122306004+11140-001150FM-12+0322DFCP V0209999C000019999999N0150001N1+01941-00351101071ADDAA199000091GF107991001001999999001021IA2240+01409KA1120N+01921MA1999999097451MD1999999-0011OA150600511REMSYN100AAXX  23064 65518 32965 70000 10194 21035 39745 40107 80002 333 01400 20192 50864 55102 59001 87076;EQDQ01  00002PRCP99
0195655180999992000122312004+11140-001150FM-12+0322DFCP V0200401N003110780019N0150001N1+03401-01211101051ADDAA199000091GA1071+078009019GF107991001001999999001021MA1999999097471MD1999999-0011REMSYN082AAXX  23124 65518 32965 70406 10340 21121 39747 40105 80002 333 0//00 59001 87076;EQDQ01  00002PRCP99
0208655180999992000122318004+11140-001150FM-12+0322DFCP V0209999C000010780019N0150001N1+03081-00971100981ADDAA199000091GA1071+078009019GF107991001001999999001021KA1120M+03551MA1999999097361MD1999999+0091REMSYN082AAXX  23184 65518 32965 70000 10308 21097 39736 40098 80002 333 10355 58009 87076;EQDQ01  00002PRCP99
0195655180999992000122400004+11140-001150FM-12+0322DFCP V0203201N002110780019N0150001N1+02241-00321101171ADDAA199000091GA1071+078009019GF107991001001999999001021MA1999999097581MD1999999+0071REMSYN082AAXX  24004 65518 32965 73204 10224 21032 39758 40117 80002 333 0//00 58007 87076;EQDQ01  00002PRCP99
0233655180999992000122406004+11140-001150FM-12+0322DFCP V0203601N002119999999N0150001N1+01961-00641101061ADDAA199000091GF107991001001999999001021IA2240+01409KA1120N+01951MA1999999097441MD1999999-0011OA150600511REMSYN100AAXX  24064 65518 32965 73604 10196 21064 39744 40106 80002 333 01400 20195 51034 55100 59001 87076;EQDQ01  00002PRCP99
0196655180999992000122412004+11140-001150FM-12+0322DFCP V0203601N003110780019N0150001N1+03441-01381101091ADDAA199000091GA1071+078009019GF107991001001999999001021MD1999999+0041REMSYN082AAXX  24124 65518 32965 73606 10344 21138 39829 40109 80002 333 0//00 58004 87076;EQDQ01+098293APOSP Q02  00002PRCP99
0208655180999992000122418004+11140-001150FM-12+0322DFCP V0209999C000010780019N0150001N1+03121+00382100931ADDAA199000091GA1071+078009019GF107991001001999999001021KA1120M+03651MA1999999097321MD1999999-0041REMSYN082AAXX  24184 65518 32965 70000 10312 20038 39732 40093 80002 333 10365 59004 87076;EQDQ01  00002PRCP99
0195655180999992000122500004+11140-001150FM-12+0322DFCP V0209999C000010780019N0150001N1+02281-00181101081ADDAA199000091GA1071+078009019GF107991001001999999001021MA1999999097501MD1999999-0081REMSYN082AAXX  25004 65518 32965 70000 10228 21018 39750 40108 80002 333 0//00 59008 87076;EQDQ01  00002PRCP99
0233655180999992000122506004+11140-001150FM-12+0322DFCP V0203601N001019999999N0150001N1+01901-00311101101ADDAA199000091GF107991001001999999001021IA2240+01509KA1120N+01871MA1999999097481MD1999999+0041OA150600511REMSYN100AAXX  25064 65518 32965 73602 10190 21031 39748 40110 80002 333 01500 20187 50824 55104 58004 87076;EQDQ01  00002PRCP99
0195655180999992000122512004+11140-001150FM-12+0322DFCP V0200401N001010780019N0150001N1+03431-00891101061ADDAA199000091GA1051+078009019GF105991001001999999001021MA1999999097481MD1999999-0031REMSYN082AAXX  25124 65518 32965 50402 10343 21089 39748 40106 80002 333 0//00 59003 85076;EQDQ01  00002PRCP99
0208655180999992000122518004+11140-001150FM-12+0322DFCP V0209999C000010780019N0150001N1+03101+00401100961ADDAA199000091GA1071+078009019GF107991001001999999001021KA1120M+03681MA1999999097291MD1999999-0031REMSYN082AAXX  25184 65518 32965 70000 10310 20040 39729 40096 80002 333 10368 59003 87076;EQDQ01  00002PRCP99
0195655180999992000122600004+11140-001150FM-12+0322DFCP V0209999C000010780019N0150001N1+02301-00051101071ADDAA199000091GA1051+078009019GF105991001001999999001021MA1999999097501MD1999999+0001REMSYN082AAXX  26004 65518 32965 50000 10230 21005 39750 40107 80002 333 0//00 58000 85076;EQDQ01  00002PRCP99
0233655180999992000122606004+11140-001150FM-12+0322DFCP V0203601N001019999999N0150001N1+01861-00271101041ADDAA199000091GF107991001001999999001021IA2240+01809KA1120N+01831MA1999999097421MD1999999-0061OA150600511REMSYN100AAXX  26064 65518 32965 73602 10186 21027 39742 40104 80002 333 01800 20183 50954 55103 59006 87076;EQDQ01  00002PRCP99
0195655180999992000122612004+11140-001150FM-12+0322DFCP V0201201N003110780019N0150001N1+03411-00271101071ADDAA199000091GA1071+078009019GF107991001001999999001021MA1999999097491MD1999999+0011REMSYN082AAXX  26124 65518 32965 71206 10341 21027 39749 40107 80002 333 0//00 58001 87076;EQDQ01  00002PRCP99
0208655180999992000122618004+11140-001150FM-12+0322DFCP V0209999C000010780019N0150001N1+03031+00751100921ADDAA199000091GA1071+078009019GF107991001001999999001021KA1120M+03621MA1999999097301MD1999999+0011REMSYN082AAXX  26184 65518 32965 70000 10303 20075 39730 40092 80002 333 10362 58001 87076;EQDQ01  00002PRCP99
0195655180999992000122700004+11140-001150FM-12+0322DFCP V0200401N001010780019N0150001N1+02361+00481101011ADDAA199000091GA1071+078009019GF107991001001999999001021MA1999999097441MD1999999-0061REMSYN082AAXX  27004 65518 32965 70402 10236 20048 39744 40101 80002 333 0//00 59006 87076;EQDQ01  00002PRCP99
0233655180999992000122706004+11140-001150FM-12+0322DFCP V0200401N001019999999N0150001N1+02011+00311101051ADDAA199000091GF107991001001999999001021IA2240+01409KA1120N+02001MA1999999097431MD1999999+0011OA150600461REMSYN100AAXX  27064 65518 32965 70402 10201 20031 39743 40105 80002 333 01400 20200 50924 55099 58001 87076;EQDQ01  00002PRCP99
0195655180999992000122712004+11140-001150FM-12+0322DFCP V0200401N003110780019N0150001N1+03551-00241100991ADDAA199000091GA1071+078009019GF107991001001999999001021MA1999999097431MD1999999-0061REMSYN082AAXX  27124 65518 32965 70406 10355 21024 39743 40099 80002 333 0//00 59006 87076;EQDQ01  00002PRCP99
0208655180999992000122718004+11140-001150FM-12+0322DFCP V0209999C000010780019N0150001N1+03101+01792100911ADDAA199000091GA1071+078009019GF107991001001999999001021KA1120M+03741MA1999999097311MD1999999+0011REMSYN082AAXX  27184 65518 32965 70000 10310 20179 39731 40091 80002 333 10374 58001 87076;EQDQ01  00002PRCP99
0195655180999992000122800004+11140-001150FM-12+0322DFCP V0203601N001010780019N0150001N1+02421+00231101051ADDAA199000091GA1071+078009019GF107991001001999999001021MA1999999097501MD1999999+0061REMSYN082AAXX  28004 65518 32965 73602 10242 20023 39750 40105 80002 333 0//00 58006 87076;EQDQ01  00002PRCP99
0233655180999992000122806004+11140-001150FM-12+0322DFCP V0209999C000019999999N0150001N1+02121-00041101031ADDAA199000091GF107991001001999999001021IA2240+01409KA1120N+02021MA1999999097431MD1999999+0001OA150600511REMSYN100AAXX  28064 65518 32965 70000 10212 21004 39743 40103 80002 333 01400 20202 50824 55102 58000 87076;EQDQ01  00002PRCP99
0195655180999992000122812004+11140-001150FM-12+0322DFCP V0200801N004110780019N0150001N1+03351-00591101091ADDAA199000091GA1051+078009019GF105991001001999999001021MA1999999097521MD1999999+0091REMSYN082AAXX  28124 65518 32965 50808 10335 21059 39752 40109 80002 333 0//00 58009 85076;EQDQ01  00002PRCP99
0208655180999992000122818004+11140-001150FM-12+0322DFCP V0209999C000010780019N0150001N1+03051+00541100971ADDAA199000091GA1051+078009019GF105991001001999999001021KA1120M+03621MA1999999097371MD1999999+0061REMSYN082AAXX  28184 65518 32965 50000 10305 20054 39737 40097 80002 333 10362 58006 85076;EQDQ01  00002PRCP99
0195655180999992000122900004+11140-001150FM-12+0322DFCP V0209999C000010780019N0150001N1+02251+00381101121ADDAA199000091GA1051+078009019GF105991001001999999001021MA1999999097531MD1999999+0031REMSYN082AAXX  29004 65518 32965 50000 10225 20038 39753 40112 80002 333 0//00 58003 85076;EQDQ01  00002PRCP99
0233655180999992000122906004+11140-001150FM-12+0322DFCP V0203601N002119999999N0150001N1+01971-00161101051ADDAA199000091GF105991001001999999001021IA2240+01509KA1120N+01951MA1999999097431MD1999999+0001OA150600511REMSYN100AAXX  29064 65518 32965 53604 10197 21016 39743 40105 80002 333 01500 20195 50834 55100 58000 85076;EQDQ01  00002PRCP99
0195655180999992000122912004+11140-001150FM-12+0322DFCP V0200401N002110780019N0150001N1+03451-00591101091ADDAA199000091GA1071+078009019GF107991001001999999001021MA1999999097521MD1999999+0001REMSYN082AAXX  29124 65518 32965 70404 10345 21059 39752 40109 80002 333 0//00 58000 87076;EQDQ01  00002PRCP99
0208655180999992000122918004+11140-001150FM-12+0322DFCP V0209999C000010780019N0150001N1+03121-00291100841ADDAA199000091GA1071+078009019GF107991001001999999001021KA1120M+03621MA1999999097241MD1999999-0031REMSYN082AAXX  29184 65518 32965 70000 10312 21029 39724 40084 80002 333 10362 59003 87076;EQDQ01  00002PRCP99
0178655180999992000123000004+11140-001150FM-12+0322DFCP V0209999C000019999999N0150001N1+02271+00351101011ADDAA199000091GF107991001001999999001021MA1999999097441MD1999999-0091REMSYN081AAXX  30004 65518 32965 70000 10227 20035 39744 40101 80002 333 0//0 59009 87076;EQDQ01  00002PRCP99
0195655180999992000123012004+11140-001150FM-12+0322DFCP V0200401N003110780019N0150001N1+03451-00731100981ADDAA199000091GA1071+078009019GF107991001001999999001021MA1999999097401MD1999999-0121REMSYN082AAXX  30124 65518 32965 70406 10345 21073 39740 40098 80002 333 0//00 59012 87076;EQDQ01  00002PRCP99
0208655180999992000123018004+11140-001150FM-12+0322DFCP V0209999C000010780019N0150001N1+03001+00601100841ADDAA199000091GA1071+078009019GF107991001001999999001021KA1120M+03681MA1999999097221MD1999999-0021REMSYN082AAXX  30184 65518 32965 70000 10300 20060 39722 40084 80002 333 10368 59002 87076;EQDQ01  00002PRCP99
0233655180999992000123106004+11140-001150FM-12+0322DFCP V0209999C000019999999N0150001N1+01941-00441101021ADDAA199000091GF107991001001999999001021IA2240+01709KA1120N+01911MA1999999097401MD1999999+0051OA150600461REMSYN100AAXX  31064 65518 32965 70000 10194 21044 39740 40102 80002 333 01700 20191 50854 55098 58005 87076;EQDQ01  00002PRCP99
0195655180999992000123112004+11140-001150FM-12+0322DFCP V0200401N001012200019N0150001N1+03341-00841100981ADDAA199000091GA1031+078009019GF103991001001999999001021MA1999999097411MD1999999+0011REMSYN082AAXX  31124 65518 32965 30402 10334 21084 39741 40098 80002 333 0//00 58001 83076;EQDQ01  00002PRCP99
0208655180999992000123118004+11140-001150FM-12+0322DFCP V0209999C000010780019N0150001N1+03071-00391100791ADDAA199000091GA1051+078009019GF105991001001999999001021KA1120M+03651MA1999999097191MD1999999-0031REMSYN082AAXX  31184 65518 32965 50000 10307 21039 39719 40079 80002 333 10365 59003 85076;EQDQ01  00002PRCP99
