0187673230999992000010206004-23870+035380FM-12+0015FQIN V0203601N004110075019N0300001N1+02981+02491100891ADDAA106000091GF106991051091008001031001KA1120N+02571MD1010021+9999REMSYN092AAXX  02064 67323 32580 63608 10298 20249 40089 50002 85930 333 20257 50/// 55/// 94398 555;EQDQ01  00002PRCP06
0142673230999992000010207004-23870+035380FM-15+0015FQIN V0200401N007210060019N0112651N1+03101+02401999999ADDGA1071+006009029GF107991999999999999999999MA1100911999999MW1001REMMET048FQIN 020700Z 04014KT 9999 BKN020TCU 31/24 Q1009;EQDQ01+000000PRSWM2
0283673230999992000010212004-23870+035380SY-MT+0015FQIN V0200701N006712200019N0300001N1+03201+02531100751ADDAA106000091AY191061AY211061GA1021+007509099GF104991031091008001001031MA1100711999999MD1710141+9999MW1171REMSYN076AAXX  02124 67323 31580 40713 10320 20253 40075 57014 71791 83903 333 94390;MET050FQIN 021200Z 07013KT 9999 TS FEW025CB 32/25 Q1007;EQDQ01  00002PRCP06Q02    003PRSWM1
0173673230999992000010214004-23870+035380FM-15+0015FQIN V0200701N00411220001CN0112651N1+03101+02401999999ADDGA1021+007509099GA2071+007509999MA1100811999999MW1171REMMET057FQIN 021400Z 07008KT 9999 TS BKN025 FEW025CB 31/24 Q1008;EQDQ01+000022SCOTCVQ02+000003PRSWM1Q03    003PRSWM1
0302673230999992000010215004-23870+035380SY-MT+0015FQIN V0200801N00461006001CN0300001N1+03001+02461100721ADDAY191031AY291031GA1071+006009999GA2021+007509099GA3071+999999999GF107991051091008001001031MA1100711999999MD1810031+9999MW1171REMSYN076AAXX  02154 67323 41580 70809 10300 20246 40072 58003 71799 85903 333 94392;MET064FQIN 021500Z 08009KT 9999 TS BKN020 FEW025CB BKN/// 30/25 Q1007;EQDQ01    003PRSWM1
0367673230999992000010306004-23870+035380SY-MT+0015FQIN V0209999C00001009001CN0080001N1+02861+02531101301ADDAA106000021AY111061AY211061GA1021+006009999GA2021+007509099GA3071+009009999GF107991071091008001999999KA1120N+02501MA1101291999999MD1810171+9999MW1801REMSYN104AAXX  03064 67323 31558 70000 10286 20253 40130 58017 78011 879// 333 20250 50/// 55/// 555 94394 10000;MET061FQIN 030600Z 00000KT RASH SCT020 FEW025CB BKN030 29/25 Q1013;EQDQ01+000000PRSWM2Q02    003PRSWM1
0177673230999992000010307004-23870+035380FM-15+0015FQIN V0209999C00001220001CN0112651N1+02901+02601999999ADDGA1021+006009999GA2071+007509999GA3021+009009099MA1101291999999MW1001REMMET061FQIN 030700Z 00000KT 9999 SCT020 BKN025 FEW030CB 29/26 Q1013;EQDQ01+000022SCOTCVQ02+000000PRSWM2
0292673230999992000010309004-23870+035380SY-MT+0015FQIN V0201801N00211006001CN0200001N1+03121+02431101251ADDAY181031AY221031GA1071+006009999GA2021+007509099GF108991051091008001001001MA1101191999999MD1710051+9999MW1021REMSYN076AAXX  03094 67323 41570 81804 10312 20243 40125 57005 70282 85900 333 94390;MET054FQIN 030900Z 18004KT 9999 BKN020 FEW025CB 31/24 Q1012;EQDQ01+000000PRSWM2Q02    003PRSWM1
0167673230999992000010312004-23870+035380FM-12+0015FQIN V0201101N002610075019N0200001N1+03181+02531101051ADDAA106003091AY181061AY221061GF106991061091008001001001MD1710201+9999MW1251REMSYN082AAXX  03124 67323 11570 61105 10318 20253 40105 57020 60031 72582 86900 333 94392;
0154673230999992000010314004-23870+035380FM-15+0015FQIN V0201601N00411220001CN0112651N1+03101+02501999999ADDGA1071+006009999GA2021+007509099MA1101021999999MW1001REMMET054FQIN 031400Z 16008KT 9999 BKN020 FEW025CB 31/25 Q1010;EQDQ01+000022SCOTCVQ02+000000PRSWM2
0122673230999992000010315004-23870+035380FM-12+0015FQIN V0201601N005110075019N0200001N1+03031+02451100981ADDGF105991051091008001001001MD1610071+9999REMSYN070AAXX  03154 67323 42570 51610 10303 20245 40098 56007 85900 333 94390;
0152673230999992000010412004-23870+035380FM-12+0015FQIN V0201801N002610075019N0300001N1+03241+02251101101ADDAA106000091GF105991051021008001031001MD1710091+9999REMSYN070AAXX  04124 67323 32580 51805 10324 20225 40110 57009 85230 333 94320;EQDQ01  00002PRCP06
0139673230999992000010413004-23870+035380FM-15+0015FQIN V0201501N003110060019N0112651N1+03101+02301999999ADDGA1071+006009999GF107991999999999999999999MA1101081999999MW1001REMMET045FQIN 041300Z 15006KT 9999 BKN020 31/23 Q1011;EQDQ01+000000PRSWM2
0297673230999992000010506004-23870+035380SY-MT+0015FQIN V0209999C000012200019N0300001N1+02881+02501101151ADDAA106000091GA1021+006009999GF103991031021008001001001KA1120N+02351MA1101081999999MD1010061+9999MW1001REMSYN098AAXX  05064 67323 32580 30000 10288 20250 40115 50006 83200 333 20235 50/// 55/// 94320 555 10032;MET045FQIN 050600Z 00000KT 9999 SCT020 29/25 Q1011;EQDQ01+000000PRSWM2Q02  00002PRCP06
0162673230999992000010508004-23870+035380FM-15+0015FQIN V0209999C000010060019N0112651N1+02901+02401999999ADDGA1071+006009999GA2071+007509999GF107991999999999999999999MA1101191999999MW1001REMMET052FQIN 050800Z 00000KT 9999 BKN020 BKN025 29/24 Q1012;EQDQ01+000000PRSWM2
0162673230999992000010509004-23870+035380FM-15+0015FQIN V0209999C000010060019N0112651N1+03001+02301999999ADDGA1071+006009999GA2071+007509999GF107991999999999999999999MA1101191999999MW1001REMMET052FQIN 050900Z 00000KT 9999 BKN020 BKN025 30/23 Q1012;EQDQ01+000000PRSWM2
0307673230999992000010512004-23870+035380SY-MT+0015FQIN V0200501N00261006001CN0300001N1+03081+02311101051ADDAA106000191AY181061AY221061GA1071+006009999GA2071+007509999GF107991071081008001999999MA1101021999999MD1710141+9999MW1031REMSYN082AAXX  05124 67323 11580 70505 10308 20231 40105 57014 69911 70382 878// 333 94321;MET052FQIN 051200Z 05005KT 9999 BKN020 BKN025 31/23 Q1010;EQDQ01+000000PRSWM2Q02    003PRSWM1
0139673230999992000010513004-23870+035380FM-15+0015FQIN V0200901N003610060019N0112651N1+03001+02301999999ADDGA1071+006009999GF107991999999999999999999MA1101021999999MW1001REMMET045FQIN 051300Z 09007KT 9999 BKN020 30/23 Q1010;EQDQ01+000000PRSWM2
0122673230999992000010515004-23870+035380FM-12+0015FQIN V0200901N003610075019N0300001N1+02981+02201100981ADDGF106991061021008001001001MD1510071+9999REMSYN070AAXX  05154 67323 42580 60907 10298 20220 40098 55007 86200 333 94322;
0139673230999992000010608004-23870+035380FM-15+0015FQIN V0201001N004110060019N0112651N1+03101+02301999999ADDGA1071+006009999GF107991999999999999999999MA1101021999999MW1001REMMET045FQIN 060800Z 10008KT 9999 BKN020 31/23 Q1010;EQDQ01+000000PRSWM2
0245673230999992000010609004-23870+035380SY-MT+0015FQIN V0201001N00461006001CN0300001N1+03141+02121101001ADDGA1071+006009999GF199999051021008001001001MA1101021999999MD1610061+9999MW1001REMSYN070AAXX  06094 67323 42580 51009 10314 20212 40100 56006 85200 333 94322;MET045FQIN 060900Z 10009KT 9999 BKN020 31/21 Q1010;EQDQ01+000052SCOTCVQ02+000000PRSWM2
0139673230999992000010610004-23870+035380FM-15+0015FQIN V0201001N004610060019N0112651N1+03101+02301999999ADDGA1071+006009999GF107991999999999999999999MA1101021999999MW1001REMMET045FQIN 061000Z 10009KT 9999 BKN020 31/23 Q1010;EQDQ01+000000PRSWM2
0152673230999992000010612004-23870+035380FM-12+0015FQIN V0201001N005110075019N0300001N1+03221+02231100871ADDAA106000091GF106991061021008001001001MD1710131+9999REMSYN070AAXX  06124 67323 32580 61010 10322 20223 40087 57013 86200 333 94322;EQDQ01  00002PRCP06
0139673230999992000010613004-23870+035380FM-15+0015FQIN V0201001N004610060019N0112651N1+03101+02301999999ADDGA1071+006009999GF107991999999999999999999MA1100811999999MW1001REMMET045FQIN 061300Z 10009KT 9999 BKN020 31/23 Q1008;EQDQ01+000000PRSWM2
0122673230999992000010615004-23870+035380FM-12+0015FQIN V0200901N004110075019N0300001N1+03021+02311100751ADDGF105991051021008001001001MD1610121+9999REMSYN070AAXX  06154 67323 42580 50908 10302 20231 40075 56012 85200 333 94322;
0174673230999992000010706004-23870+035380FM-12+0015FQIN V0209999C000010075019N0300001N1+02941+02331100791ADDAA106000091GF105991051021008001001011MD1210091+9999REMSYN092AAXX  07064 67323 32580 50000 10294 20233 40079 52009 85201 333 50/// 55/// 94320 555 10001;EQDQ01  00002PRCP06
0139673230999992000010707004-23870+035380FM-15+0015FQIN V0209999C000010060019N0112651N1+03101+02301999999ADDGA1071+006009999GF107991999999999999999999MA1100711999999MW1001REMMET045FQIN 070700Z 00000KT 9999 BKN020 31/23 Q1007;EQDQ01+000000PRSWM2
0154673230999992000010708004-23870+035380FM-15+0015FQIN V0200701N00151220001CN0112651N1+03101+02301999999ADDGA1071+006009999GA2021+007509099MA1100711999999MW1001REMMET054FQIN 070800Z 07003KT 9999 BKN020 FEW025CB 31/23 Q1007;EQDQ01+000022SCOTCVQ02+000000PRSWM2
0141673230999992000010709004-23870+035380FM-12+0015FQIN V0203601N001519999999N0300001N1+03121+02291100721ADDGF106991999091008001999999MD1710071+9999REMSYN070AAXX  07094 67323 42580 63603 10312 20229 40072 57007 879// 333 94398;EQDQ01+000072SCOTLC
0309673230999992000010806004-23870+035380SY-MT+0015FQIN V0200601N00261006001CN0300001N1+03001+02481100481ADDAA124007191GA1071+006009999GF199999061021008001001091KA1120N+02331MA1100511999999MD1210091+9999MW1001REMSYN110AAXX  08064 67323 12580 60605 10300 20248 40048 52009 60074 86209 333 20233 50/// 55/// 94320 555 00073 10000;MET045FQIN 080600Z 05005KT 9999 BKN020 30/25 Q1005;EQDQ01+000062SCOTCVQ02+000000PRSWM2
0139673230999992000010807004-23870+035380FM-15+0015FQIN V0200601N001510060019N0112651N1+03101+02501999999ADDGA1071+006009999GF107991999999999999999999MA1100411999999MW1001REMMET045FQIN 080700Z 06003KT 9999 BKN020 31/25 Q1004;EQDQ01+000000PRSWM2
0177673230999992000010809004-23870+035380FM-15+0015FQIN V0209999C00001220001CN0112651N1+03201+02601999999ADDGA1071+006009999GA2071+007509999GA3021+009009099MA1100411999999MW1001REMMET061FQIN 080900Z 00000KT 9999 BKN020 BKN025 FEW030CB 32/26 Q1004;EQDQ01+000022SCOTCVQ02+000000PRSWM2
0214673230999992000010812004-23870+035380FM-15+0015FQIN V0203201N003110060019N0070001N1+02601+02501999999ADDGA1071+006009999GA2021+007509099GA3081+027009999GF108991999999999999999999MA1100411999999MW1811MW2951REMMET066FQIN 081200Z 32006KT 7000 TSRA BKN020 FEW025CB OVC090 26/25 Q1004;EQDQ01+000003PRSWM1Q02    003PRSWM1
0216673230999992000010813004-23870+035380FM-15+0015FQIN V0209999C000010060019N0070001N1+02601+02501999999ADDGA1071+006009999GA2021+007509099GA3081+027009999GF108991999999999999999999MA1100411999999MW1811MW2951REMMET068FQIN 081300Z 00000KT 7000 TSRA V BKN020 FEW025CB OVC090 26/25 Q1004;EQDQ01+000003PRSWM1Q02    003PRSWM1
0186673230999992000010907004-23870+035380FM-12+0015FQIN V0202501N001010075019N0300001N1+02601+02471100541ADDAA124035191GF106991051021008001031001KA1120N+02201MD1310031+9999REMSYN110AAXX  09074 67323 12580 62502 10260 20247 40054 53003 60354 85230 333 20220 50/// 55/// 94320 555 00347 10073;
0308673230999992000010909004-23870+035380SY-MT+0015FQIN V0201701N00101006001CN0200001N1+02721+02551100491ADDAY181031AY221031GA1071+006009999GA2021+009009099GF199999061091008001001001MA1100511999999MD1710051+9999MW1251REMSYN076AAXX  09094 67323 41570 61702 10272 20255 40049 57005 72582 86900 333 94390;MET054FQIN 090900Z 17002KT 9999 BKN020 FEW030CB 27/26 Q1005;EQDQ01+000062SCOTCVQ02+000000PRSWM2Q03    003PRSWM1
0167673230999992000010912004-23870+035380FM-12+0015FQIN V0202101N004110075019N0200001N1+02841+02511100401ADDAA106000891AY181061AY221061GF106991061091008001001001MD1710091+9999MW1021REMSYN082AAXX  09124 67323 11570 62108 10284 20251 40040 57009 69971 70282 86900 333 94390;
0154673230999992000010913004-23870+035380FM-15+0015FQIN V0201701N00261220001CN0112651N1+02901+02501999999ADDGA1071+006009999GA2021+009009099MA1100311999999MW1001REMMET054FQIN 091300Z 17005KT 9999 BKN020 FEW030CB 29/25 Q1003;EQDQ01+000022SCOTCVQ02+000000PRSWM2
0342673230999992000011006004-23870+035380SY-MT+0015FQIN V0202101N00101220001CN0070001N1+02521+02361100531ADDAA124015091AY191061AY291061GA1071+006009999GA2021+007509099GF107991061091008001071999KA1120N+02241MD1310081+9999MW1811MW2951REMSYN116AAXX  10064 67323 11557 72102 10252 20236 40053 53008 60154 79599 8697/ 333 20224 50/// 55/// 94395 555 00150 10347;MET065FQIN 100600Z 21002KT 7000 TSRA BKN020 FEW025CB BK100 25/24 Q1005;EQDQ01    003PRSWM1
0162673230999992000011008004-23870+035380FM-15+0015FQIN V0209999C000010060019N0112651N1+02701+02601999999ADDGA1071+006009999GA2071+030009999GF107991999999999999999999MA1100511999999MW1001REMMET052FQIN 100800Z 00000KT 9999 BKN020 BKN100 27/26 Q1005;EQDQ01+000000PRSWM2
0268673230999992000011009004-23870+035380SY-MT+0015FQIN V0201001N002610030019N0090001N1+02791+02551100481ADDAY191031AY221031GA1071+003009999GA2071+006009999GF108991081081004501999999MD1610051+9999MW1501MW2511REMSYN076AAXX  10094 67323 41459 81005 10279 20255 40048 56005 75092 888// 333 94322;MET055FQIN 100900Z 10005KT 9000 -DZ BKN010 BKN020 28/26 Q105;EQDQ01    003PRSWM1
0300673230999992000011012004-23870+035380SY-MT+0015FQIN V0200901N00311006001CN0300001N1+02981+02491100391ADDAA106001091AY191061AY251061GA1071+006009999GF199999061021008001001001MA1100311999999MD1710121+9999MW1021REMSYN082AAXX  10124 67323 11580 60906 10298 20249 40039 57012 60011 70295 86200 333 94322;MET045FQIN 101200Z 09006KT 9999 BKN020 30/25 Q1003;EQDQ01+000062SCOTCVQ02+000000PRSWM2Q03    003PRSWM1
0122673230999992000011015004-23870+035380FM-12+0015FQIN V0200901N003610075019N0300001N1+02821+02401100351ADDGF106991051021008001001021MD1510011+9999REMSYN070AAXX  10154 67323 42580 60907 10282 20240 40035 55001 85202 333 94322;
0256673230999992000011112004-23870+035380SY-MT+0015FQIN V0201201N005712200019N0300001N1+03091+02301100571ADDAA106000091GA1021+006009999GF104991041021008001001001MA1100511999999MD1710101+9999MW1001REMSYN070AAXX  11124 67323 32580 41211 10309 20230 40057 57010 84200 333 94322;MET045FQIN 111200Z 12011KT 9999 SCT020 31/23 Q1005;EQDQ01+000000PRSWM2Q02  00002PRCP06
0108673230999992000011203004-23870+035380FM-12+0015FQIN V0201701N004110075019N0090001N1+02581+02341100591ADDGF105991051021008001001001REMSYN070AAXX  12034 67323 41559 51708 10258 20234 40059 5//// 85200 333 94324;
0311673230999992000011206004-23870+035380SY-MT+0015FQIN V0201801N003612200019N0300001N1+02801+02381100601ADDAA124000191AY181061GA1021+006009999GF103991999999008001999999KA1120N+02401MA1100611999999MD1010011+9999MW1011REMSYN104AAXX  12064 67323 11580 31807 10280 20238 40060 50001 69914 7018/ 333 20240 50/// 55/// 94324 555 10020;MET045FQIN 120600Z 18007KT 9999 SCT020 28/24 Q1006;EQDQ01+000000PRSWM2Q02    003PRSWM1
0152673230999992000011207004-23870+035380FM-15+0015FQIN V0200801N00311220001CN0112651N1+02801+02301999999ADDGA1071+006009999GA2021+007509999MA1100611999999MW1001REMMET052FQIN 120700Z 08006KT 9999 BKN020 FEW025 28/23 Q1006;EQDQ01+000022SCOTCVQ02+000000PRSWM2
0245673230999992000011209004-23870+035380SY-MT+0015FQIN V0202001N00511006001CN0300001N1+02991+02461100541ADDGA1071+006009999GF199999061021008001001001MA1100511999999MD1810061+9999MW1001REMSYN070AAXX  12094 67323 42580 62010 10299 20246 40054 58006 86200 333 94324;MET045FQIN 120900Z 20010KT 9999 BKN020 30/25 Q1005;EQDQ01+000062SCOTCVQ02+000000PRSWM2
0256673230999992000011212004-23870+035380SY-MT+0015FQIN V0201801N005112200019N0300001N1+03201+02401100401ADDAA106000091GA1021+006009999GF102991021021008001001001MA1100411999999MD1710141+9999MW1001REMSYN070AAXX  12124 67323 32580 21810 10320 20240 40040 57014 82200 333 94324;MET045FQIN 121200Z 18010KT 9999 FEW020 32/24 Q1004;EQDQ01+000000PRSWM2Q02  00002PRCP06
0122673230999992000011215004-23870+035380FM-12+0015FQIN V0201801N004612200019N0300001N1+02981+02331100371ADDGF103991031021008001001001MD1610031+9999REMSYN070AAXX  12154 67323 42580 31809 10298 20233 40037 56003 83200 333 94324;
0186673230999992000011306004-23870+035380FM-12+0015FQIN V0201701N004610075019N0090001N1+02891+02211100791ADDAA106000021GF106991061021008001001001KA1120N+02381MD1210131+9999MW1801REMSYN104AAXX  13064 67323 31559 61709 10289 20221 40079 52013 780// 86200 333 20238 50/// 55/// 94324 555 10001;
0245673230999992000011309004-23870+035380SY-MT+0015FQIN V0201701N00721006001CN0300001N1+03101+02281100801ADDGA1071+006009999GF199999051021008001001001MA1100811999999MD1110011+9999MW1001REMSYN070AAXX  13094 67323 42580 51714 10310 20228 40080 51001 85200 333 94324;MET045FQIN 130900Z 17014KT 9999 BKN020 31/23 Q1008;EQDQ01+000052SCOTCVQ02+000000PRSWM2
0133673230999992000011312004-23870+035380FM-12+0015FQIN V0201801N007212200019N0300001N1+03201+02231100701ADDAA106000021GF104991041021008001001001MD1710101+9999REMSYN070AAXX  13124 67323 32580 41814 10320 20223 40070 57010 84200 333 94324;
0122673230999992000011315004-23870+035380FM-12+0015FQIN V0201801N006212200019N0300001N1+02921+02221100731ADDGF104991041021008001001001MD1210031+9999REMSYN070AAXX  13154 67323 42580 41812 10292 20222 40073 52003 84200 333 94324;
0338673230999992000011406004-23870+035380SY-MT+001599999V0202301N002110060019N0090001N1+02541+02351101001ADDAA124007191AY181061GA1071+006009999GA2081+030009999GF108991999999008001999999KA1120N+02201MA1101021999999MD1210101+9999MW1601MW2611REMSYN114    AAXX  14064 67323 11559 82304 10254 20235 40100 52010 60074 7608/ 333 20220 50/// 55/// 94325 555 00069 10000;MET056FQIN 140600Z 23004KT 9000 -RA BKN020 OVC100 25/24 Q1010;EQDQ01    003PRSWM1
0294673230999992000011409004-23870+035380SY-MT+001599999V0201801N00411006001CN0150001N1+02701+02311100981ADDAY161031AY261031GA1071+006009999GA2071+030009999GF107991051021008001071999MA1101021999999MD1810021+9999MW1211REMSYN080    AAXX  14094 67323 41565 71808 10270 20231 40098 58002 72166 8527/ 333 94324;MET052FQIN 140900Z 18008KT 9999 BKN020 BKN100 27/23 Q1010;EQDQ01+000000PRSWM2Q02    003PRSWM1
0304673230999992000011412004-23870+035380SY-MT+001599999V0201701N00411006001CN0150001N1+02581+02461100871ADDAA106011991AY161061AY261061GA1071+006009999GF199999061021008001001001MA1100811999999MD1710111+9999MW1211REMSYN086    AAXX  14124 67323 11565 61708 10258 20246 40087 57011 60121 72166 86200 333 94324;MET045FQIN 141200Z 17008KT 9999 BKN020 26/25 Q1008;EQDQ01+000062SCOTCVQ02+000000PRSWM2Q03    003PRSWM1
0271673230999992000011415004-23870+035380SY-MT+0015FQIN V0201801N002610060019N0150001N1+02481+02231100861ADDAY121031AY221031GA1071+006009999GF106991061021008001001001MA1100811999999MD1510011+9999MW1211REMSYN080    AAXX  14154 67323 41565 61805 10248 20223 40086 55001 72122 86200 333 94324;MET045FQIN 141500Z 18005KT 9999 BKN020 25/22 Q1008;EQDQ01+000000PRSWM2Q02    003PRSWM1
0297673230999992000011506004-23870+035380SY-MT+001599999V0201701N002612200019N0300001N1+02641+02311101091ADDAA124018091GA1021+006009999GF104991041021008001001001KA1120N+02171MA1101081999999MD1210061+9999MW1001REMSYN114    AAXX  15064 67323 12580 41705 10264 20231 40109 52006 60184 84200 333 20217 50/// 55/// 94324 555 00176 10069;MET045FQIN 150600Z 17005KT 9999 SCT020 26/23 Q1011;EQDQ01+000000PRSWM2
0237673230999992000011512004-23870+035380SY-MT+001599999V0201701N007710120019N0300001N1+02951+02341100951ADDAA199000091GF107991071081008001999999MD1710121+9999MW1001REMSYN074    AAXX  15124 67323 32580 71715 10295 20234 40095 57012 878// 333 94324;MET053FQIN 151200Z 17015KT 99999 BKN020 BKN025 EPXWE Q1009;EQDQ01+000000PRSWM2Q02  00002PRCP99
0112673230999992000011603004-23870+035380FM-12+001599999V0209999C000012200019N0300001N1+02381+02111100891ADDGF104991021021008001001021REMSYN074    AAXX  16034 67323 42580 40000 10238 20211 40089 5//// 82202 333 94320;
0197673230999992000011606004-23870+035380FM-12+001599999V0200901N002112200019N0300001N1+02801+02091100971ADDAA199000091GF104991041021008001001001KA1120N+02111MD1210081+9999REMSYN102    AAXX  16064 67323 32580 40904 10280 20209 40097 52008 84200 333 20211 50/// 55/// 94322 555 10176;EQDQ01  00002PRCP99
0126673230999992000011609004-23870+035380FM-12+001599999V0200901N002610075019N0300001N1+02961+02181100971ADDGF105991051021008001001001MD1010001+9999REMSYN074    AAXX  16094 67323 42580 50905 10296 20218 40097 50000 85200 333 94322;
0156673230999992000011612004-23870+035380FM-12+001599999V0200901N003610075019N0300001N1+02961+02051100841ADDAA199000091GF105991051021008001001001MD1710131+9999REMSYN074    AAXX  16124 67323 32580 50907 10296 20205 40084 57013 85200 333 94322;EQDQ01  00002PRCP99
0197673230999992000011706004-23870+035380FM-12+001599999V0201901N002610120019N0200001N1+02681+02301100921ADDAA199000091GF107991071081008001999999KA1120N+02301MD1210101+9999REMSYN102    AAXX  17064 67323 32570 71905 10268 20230 40092 52010 878// 333 20230 50/// 55/// 94324 555 10000;EQDQ01  00002PRCP99
0154673230999992000011709004-23870+035380FM-12+001599999V0201701N002610120019N0090001N1+02681+02441100901ADDAY121031AY221031GF107991071081008001999999MD1810021+9999MW1601REMSYN080    AAXX  17094 67323 41559 71705 10268 20244 40090 58002 76022 878// 333 94324;
0311673230999992000011712004-23870+035380SY-MT+0015FQIN V0201701N005110060019N0200001N1+02751+02421100731ADDAA106003091AY161061AY221061GA1071+006009999GA2071+007509999GF107991071081008001999999MA1100711999999MD1710171+9999MW1021REMSYN086    AAXX  17124 67323 11570 71710 10275 20242 40073 57017 60031 70262 878// 333 94324;MET052FQIN 171200Z 17010KT 9999 BKN020 BKN025 28/24 Q1007;EQDQ01+000000PRSWM2Q02    003PRSWM1
0256673230999992000011715004-23870+035380SY-MT+0015FQIN V0201201N005110060019N0200001N1+02731+02421100721ADDGA1071+006009999GA2071+007509999GF107991071081008001999999MA1100711999999MD1510011+9999MW1001REMSYN074    AAXX  17154 67323 42570 71210 10273 20242 40072 55001 878// 333 94324;MET052FQIN 171500Z 17010KT 9999 BKN020 BKN025 27/24 Q1007;EQDQ01+000000PRSWM2
0350673230999992000011806004-23870+035380SY-MT+001599999V0201801N00621006001CN0200001N1+02521+02211101181ADDAA124011991AY161061GA1071+006009999GA2081+030009999GF108991061021008001071999KA1120N+02001MA1101191999999MD1210141+9999MW1021REMSYN120    AAXX  18064 67323 11570 81812 10252 20221 40118 52014 60124 7026/ 8627/ 333 20200 50/// 55/// 94324 555 00120 10000;MET052FQIN 180600Z 18012KT 9999 BKN020 OVC100 25/22 Q1012;EQDQ01+000000PRSWM2Q02    003PRSWM1
0241673230999992000011809004-23870+035380SY-MT+001599999V0201801N00771030001CN0200001N1+02621+02041101231ADDGA1081+030009999GF108991061021008001071999MA1101191999999MD1010051+9999MW1001REMSYN074    AAXX  18094 67323 42570 81815 10262 20204 40123 50005 8627/ 333 94324;MET053FQIN 180900Z 18015KT 9999 BKJN020 OVC100 26/24 Q1012;EQDQ01+000000PRSWM2
0283673230999992000011812004-23870+035380SY-MT+001599999V0201801N00771006001CN0200001N1+02751+01981101211ADDAA199000091GA1071+006009999GA2081+030009999GF108991061021008001071999MA1101191999999MD1810021+9999MW1001REMSYN074    AAXX  18124 67323 32570 81815 10275 20198 40121 58002 8627/ 333 94324;MET052FQIN 181200Z 18015KT 9999 BKN020 OVC100 29/20 Q1012;EQDQ01+000000PRSWM2Q02  00002PRCP99
0112673230999992000011903004-23870+035380FM-12+001599999V0201901N004112200019N0300001N1+02301+02141101521ADDGF103991031021008001001001REMSYN074    AAXX  19034 67323 42580 31908 10230 20214 40152 5//// 83200 333 94324;
0307673230999992000011906004-23870+035380SY-MT+001599999V0201801N00571006001CN0300001N1+02641+01871101631ADDAA124002091GA1071+006009999GF199999051021008001001001KA1120N+02021MA1101591999999MD1210111+9999MW1001REMSYN108    AAXX  19064 67323 12580 51811 10264 20187 40163 52011 60024 85200 333 20202 50/// 94324 555 00023 10120;MET045FQIN 190700Z 19010KT 9999 BKN020 27/20 Q1016;EQDQ01+000052SCOTCVQ02+000000PRSWM2
0139673230999992000011907004-23870+035380FM-15+0015FQIN V0201901N005110060019N0112651N1+02701+02001999999ADDGA1071+006009999GF107991999999999999999999MA1101591999999MW1001REMMET045FQIN 190700Z 19010KT 9999 BKN020 27/20 Q1016;EQDQ01+000000PRSWM2
0139673230999992000011908004-23870+035380FM-15+0015FQIN V0201901N006710060019N0112651N1+02801+02001999999ADDGA1071+006009999GF107991999999999999999999MA1101591999999MW1001REMMET045FQIN 190800Z 19013KT 9999 BKN020 28/20 Q1016;EQDQ01+000000PRSWM2
0249673230999992000011909004-23870+035380SY-MT+001599999V0202001N00721006001CN0300001N1+02781+01951101681ADDGA1071+006009999GF199999051021008001001001MA1101691999999MD1310051+9999MW1001REMSYN074    AAXX  19094 67323 42580 52014 10278 20195 40168 53005 85200 333 94320;MET045FQIN 190900Z 20014KT 9999 BKN020 28/20 Q1017;EQDQ01+000052SCOTCVQ02+000000PRSWM2
0139673230999992000011910004-23870+035380FM-15+0015FQIN V0201901N006210060019N0112651N1+02901+01801999999ADDGA1071+006009999GF107991999999999999999999MA1101691999999MW1001REMMET045FQIN 191000Z 19012KT 9999 BKN020 29/18 Q1017;EQDQ01+000000PRSWM2
0156673230999992000011912004-23870+035380FM-12+001599999V0202301N007210075019N0300001N1+02701+01831101611ADDAA199000091GF105991051091008001001001MD1810071+9999REMSYN074    AAXX  19124 67323 32580 52314 10270 20183 40161 58007 85900 333 94327;EQDQ01  00002PRCP99
0150673230999992000011915004-23870+035380FM-12+0015FQIN V0201901N005710075019N0150001N1+02521+02181101601ADDAY181031AY221031GF105991051021008001001001MD1510011+9999MW1251REMSYN076AAXX  19154 67323 41565 51911 10252 20218 40160 55001 72582 85200 333 94324;
0316673230999992000012006004-23870+035380SY-MT+0015FQIN V0202401N00101006001CN0300001N1+02401+02111101891ADDAA124009991GA1071+006009999GA2071+007509999GF107991071081008001999999KA1120N+01991MA1101901999999MD1210121+9999MW1001REMSYN110AAXX  20064 67323 12580 72402 10240 20211 40189 52012 60104 878// 333 20199 50/// 55/// 94386 555 00098 10023;MET052FQIN 200600Z 24002KT 9999 BKN020 BKN025 24/21 Q1019;EQDQ01+000000PRSWM2
0162673230999992000012008004-23870+035380FM-15+0015FQIN V0201801N005110060019N0112651N1+02601+02001999999ADDGA1071+006009999GA2071+007509999GF107991999999999999999999MA1101801999999MW1001REMMET052FQIN 200800Z 18010KT 9999 BKN020 BKN025 26/20 Q1018;EQDQ01+000000PRSWM2
0122673230999992000012009004-23870+035380FM-12+0015FQIN V0201601N005110075019N0300001N1+02801+01951101821ADDGF105991051021008001001001MD1710071+9999REMSYN070AAXX  20094 67323 42580 51610 10280 20195 40182 57007 85200 333 94320;
0139673230999992000012013004-23870+035380FM-15+0015FQIN V0201801N005110060019N0112651N1+02801+02101999999ADDGA1071+006009999GF107991999999999999999999MA1101591999999MW1001REMMET045FQIN 201300Z 18010KT 9999 BKN020 28/21 Q1016;EQDQ01+000000PRSWM2
0139673230999992000012014004-23870+035380FM-15+0015FQIN V0201801N006210060019N0112651N1+02801+02001999999ADDGA1071+006009999GF107991999999999999999999MA1101591999999MW1001REMMET045FQIN 201400Z 18012KT 9999 BKN020 28/20 Q1016;EQDQ01+000000PRSWM2
0245673230999992000012015004-23870+035380SY-MT+0015FQIN V0201801N00411006001CN0300001N1+02701+01981101661ADDGA1071+006009999GF199999061021008001001001MA1101591999999MD1510041+9999MW1001REMSYN070AAXX  20154 67323 42580 61808 10270 20198 40166 55004 86200 333 94324;MET045FQIN 201500Z 18008KT 9999 BKN020 27/20 Q1016;EQDQ01+000062SCOTCVQ02+000000PRSWM2
0313673230999992000012106004-23870+035380SY-MT+0015FQIN V0201601N00511006001CN0300001N1+02511+01951101751ADDAA199000091GA1071+006009999GF199999051021008001001001KA1120N+02091MA1101691999999MD1210111+9999MW1001REMSYN098AAXX  21064 67323 32580 51610 10251 20195 40175 52011 85200 333 20209 50/// 55/// 94320 555 10098;MET045FQIN 210600Z 16010KT 9999 BKN020 25/20 Q1017;EQDQ01+000052SCOTCVQ02+000000PRSWM2Q03  00002PRCP99
0139673230999992000012107004-23870+035380FM-15+0015FQIN V0201601N005110060019N0112651N1+02801+01801999999ADDGA1071+006009999GF107991999999999999999999MA1101691999999MW1001REMMET045FQIN 210700Z 16010KT 9999 BKN020 28/18 Q1017;EQDQ01+000000PRSWM2
0204673230999992000012109004-23870+035380SY-MT+0015FQIN V0201601N005110075019N0300001N1+02801+01941101691ADDGF105991051021008001001001MD1710061+9999MW1001REMSYN070AAXX  21094 67323 42580 51610 10280 20194 40169 57006 85200 333 94324;MET051FQIN 0900Z 20900Z 16010KT 99999 BKN020 28/19 Q1017;EQDQ01+000000PRSWM2
0139673230999992000012112004-23870+035380FM-15+0015FQIN V0201001N004612200019N0112651N1+02901+01901999999ADDGA1021+006009999GF104991999999999999999999MA1101491999999MW1001REMMET045FQIN 211200Z 10009KT 9999 SCT020 29/19 Q1015;EQDQ01+000000PRSWM2
0139673230999992000012113004-23870+035380FM-15+0015FQIN V0201201N005112200019N0112651N1+02901+01901999999ADDGA1021+006009999GF104991999999999999999999MA1101391999999MW1001REMMET045FQIN 211300Z 12010KT 9999 SCT020 29/19 Q1014;EQDQ01+000000PRSWM2
0229673230999992000012115004-23870+035380SY-MT+0015FQIN V0201301N004112200019N0300001N1+02781+01971101461ADDGA1021+006009999GF102991021021008001001001MA1101391999999MD1510031+9999MW1001REMSYN070AAXX  21154 67323 42580 21308 10278 20197 40146 55003 82200 333 94320;MET045FQIN 211500Z 13008KT 9999 FEW020 28/20 Q1014;EQDQ01+000000PRSWM2
0284673230999992000012206004-23870+035380SY-MT+0015FQIN V0201201N004112200019N0300001N1+02761+02101101461ADDAA199000091GA1021+006009999GF102991021021008001001001MA1101391999999MD1210031+9999MW1001REMSYN098AAXX  22064 67323 32580 21208 10276 20210 40146 52003 82200 333 20/// 50/// 55/// 94320 555 10000;MET045FQIN 220600Z 12008KT 9999 FEW020 28/21 Q1014;EQDQ01+000000PRSWM2Q02  00002PRCP99
0140673230999992000012207004-23870+035380FM-15+0015FQIN V0200901N004112200019N0112651N1+02101+01701999999ADDGA1021+004509999GF104991999999999999999999MW1001REMMET045FQIN 220700Z 09008KT 9999 SCT015 21/17 Q1021;EQDQ01+102103APOA  Q02+000000PRSWM2
0139673230999992000012208004-23870+035380FM-15+0015FQIN V0201601N005112200019N0112651N1+03002+01901999999ADDGA1021+006009999GF104991999999999999999999MA1101391999999MW1001REMMET045FQIN 220800Z 16010KT 9999 SCT020 30/19 Q1014;EQDQ01+000000PRSWM2
0256673230999992000012212004-23870+035380SY-MT+0015FQIN V0201201N005112200019N0300001N1+02881+01901101321ADDAA199000091GA1021+006009999GF103991031021008001001001MA1101291999999MD1710101+9999MW1001REMSYN070AAXX  22124 67323 32580 31210 10288 20190 40132 57010 83200 333 94323;MET045FQIN 221200Z 12010KT 9999 SCT020 29/19 Q1013;EQDQ01+000000PRSWM2Q02  00002PRCP99
0139673230999992000012213004-23870+035380FM-15+0015FQIN V0201201N003112200019N0112651N1+02901+01901999999ADDGA1021+006009999GF104991999999999999999999MA1101291999999MW1001REMMET045FQIN 221300Z 12006KT 9999 SCT020 29/19 Q1013;EQDQ01+000000PRSWM2
0256673230999992000012312004-23870+035380SY-MT+0015FQIN V0201701N005112200019N0300001N1+03001+01861101331ADDAA199000091GA1021+006009999GF102991021011008001001001MA1101291999999MD1710101+9999MW1001REMSYN070AAXX  23124 67323 32580 21710 10300 20186 40133 57010 82100 333 94330;MET045FQIN 231300Z 17010KT 9999 FEW020 30/17 Q1013;EQDQ01+000000PRSWM2Q02  00002PRCP99
0139673230999992000012313004-23870+035380FM-15+0015FQIN V0201701N005112200019N0112651N1+03001+01701999999ADDGA1021+006009999GF102991999999999999999999MA1101291999999MW1001REMMET045FQIN 231300Z 17010KT 9999 FEW020 30/17 Q1013;EQDQ01+000000PRSWM2
0229673230999992000012315004-23870+035380SY-MT+0015FQIN V0201601N005112200019N0300001N1+02841+01911101301ADDGA1021+006009999GF102991021011008001001001MA1101291999999MD1510031+9999MW1001REMSYN070AAXX  23154 67323 42580 21610 10284 20191 40130 55003 82100 333 94310;MET045FQIN 231500Z 16010KT 9999 FEW020 28/19 Q1013;EQDQ01+000000PRSWM2
0193673230999992000012406004-23870+035380FM-12+0015FQIN V0201701N002610120019N0300001N1+02621+02031101461ADDAA199000091GF106991061081008001001001KA1120N+02001MD1210041+9999REMSYN098AAXX  24064 67323 32580 61705 10262 20203 40146 52004 86800 333 20200 50/// 55/// 94320 555 10000;EQDQ01  00002PRCP99
0268673230999992000012409004-23870+035380SY-MT+0015FQIN V0202001N00511007501CN0300001N1+02951+02201101391ADDGA1021+006009999GA2071+007509999GF199999061081008001001001MA1101391999999MD1810071+9999MW1001REMSYN070AAXX  24094 67323 42580 62010 10295 20220 40139 58007 86800 555 94324;MET052FQIN 240900Z 20010KT 9999 SCT020 BKN025 30/22 Q1014;EQDQ01+000062SCOTCVQ02+000000PRSWM2
0152673230999992000012412004-23870+035380FM-12+0015FQIN V0201701N005110075019N0300001N1+03001+02171101221ADDAA199000091GF105991051021008001001001MD1710171+9999REMSYN070AAXX  24124 67323 32580 51710 10300 20217 40122 57017 85200 333 94320;EQDQ01  00002PRCP99
0139673230999992000012413004-23870+035380FM-15+0015FQIN V0201901N006210060019N0112651N1+03001+02201999999ADDGA1071+006009999GF107991999999999999999999MA1101081999999MW1001REMMET045FQIN 241300Z 19012KT 9999 BKN020 30/22 Q1011;EQDQ01+000000PRSWM2
0139673230999992000012414004-23870+035380FM-15+0015FQIN V0201901N004112200019N0112651N1+03001+02301999999ADDGA1021+006009999GF104991999999999999999999MA1101081999999MW1001REMMET045FQIN 241400Z 19008KT 9999 SCT020 30/23 Q1011;EQDQ01+000000PRSWM2
0102673230999992000012415004-23870+035380FM-12+0015FQIN V0201801N005112200019N0300001N1+03001+02191101171ADDGF104991041021008001001001REMSYN064AAXX  24154 67323 42580 41810 10300 20219 40117 84200 333 94324;
0293673230999992000012506004-23870+035380SY-MT+0015FQIN V0209999C000012200019N0300001N1+02701+02461101311ADDAA124002091GA1021+006009999GF102991021011008001001001KA1120N+02251MA1101291999999MD1010051+9999MW1001REMSYN110AAXX  25064 67323 12580 20000 10270 20246 40131 50005 60024 82100 333 20225 50/// 55/// 94310 555 00010 10000;MET045FQIN 250600Z 00000KT 9999 FEW020 27/25 Q1013;EQDQ01+000000PRSWM2
0161673230999992000012508004-23870+035380FM-15+0015FQIN V0202601N002610060019N0090001N1+02801+02501999999ADDGA1071+006009999GF107991999999999999999999MA1101291999999MW1611REMMET051FQIN 250800Z 26005KT 9000 -RASH BKN020 28/25 Q1013;EQDQ01+000003PRSWM1Q02    003PRSWM1
0267673230999992000012509004-23870+035380SY-MT+0015FQIN V0209999C000010060019N0200001N1+02901+02491101251ADDAY181031AY211031GA1071+006009999GF106991061021008001001001MA1101191999999MD1810061+9999MW1251REMSYN076AAXX  25094 67323 41570 60000 10290 20249 40125 58006 72581 86200 333 94320;MET045FQIN 250900Z 00000KT 9999 BKN020 29/25 Q1012;EQDQ01+000000PRSWM2Q02    003PRSWM1
0278673230999992000012512004-23870+035380SY-MT+0015FQIN V0200401N004112200019N0300001N1+03161+02401101041ADDAA199000021AY181061AY211061GA1021+006009999GF104991041021008001001001MA1101021999999MD1710211+9999MW1011REMSYN076AAXX  25124 67323 31580 40408 10316 20240 40104 57021 70181 84200 333 94320;MET045FQIN 251200Z 04008KT 9999 SCT020 32/24 Q1010;EQDQ01+000000PRSWM2Q02    003PRSWM1
0139673230999992000012514004-23870+035380FM-15+0015FQIN V0201501N005110060019N0112651N1+03001+02301999999ADDGA1071+006009999GF107991999999999999999999MA1101021999999MW1001REMMET045FQIN 251400Z 15010KT 9999 BKN020 30/23 Q1010;EQDQ01+000000PRSWM2
0134673230999992000012515004-23870+035380FM-12+0015FQIN V0201501N005110075019N0300001N1+02921+02361101021ADDGF105991051021008001001001IA2999+04309MD1710021+9999REMSYN070AAXX  25154 67323 42580 51510 10292 20236 40102 57002 85200 333 04323;
0297673230999992000012606004-23870+035380SY-MT+0015FQIN V0201901N002112200019N0300001N1+02841+02531101091ADDAA199000091GA1021+006009999GF104991041021008001001001KA1120N+02221MA1101081999999MD1210041+9999MW1001REMSYN098AAXX  26064 67323 32580 41904 10284 20253 40109 52004 84200 333 20222 50/// 55/// 94320 555 10015;MET045FQIN 260600Z 19004KT 9999 SCT020 28/25 Q1011;EQDQ01+000000PRSWM2Q02  00002PRCP99
0245673230999992000012609004-23870+035380SY-MT+0015FQIN V0200901N00411006001CN0300001N1+03051+02581101071ADDGA1071+006009999GF199999061021008001001011MA1101021999999MD1810021+9999MW1001REMSYN070AAXX  26094 67323 42580 60908 10305 20258 40107 58002 86201 333 94320;MET045FQIN 260900Z 09008KT 9999 BKN020 31/26 Q1010;EQDQ01+000062SCOTCVQ02+000000PRSWM2
0297673230999992000012706004-23870+035380SY-MT+0015FQIN V0201601N003610060019N0300001N1+02901+02371101031ADDAA199000091GA1071+006009999GF106991061021008001001001KA1120N+02231MA1101021999999MD1210111+9999MW1001REMSYN098AAXX  27064 67323 32580 61607 10290 20237 40103 52011 86200 333 20223 50/// 55/// 94320 555 10000;MET045FQIN 270600Z 16007KT 9999 BKN020 29/24 Q1010;EQDQ01+000000PRSWM2Q02  00002PRCP99
0139673230999992000012708004-23870+035380FM-15+0015FQIN V0202701N001512200019N0112651N1+03001+02501999999ADDGA1021+006009999GF104991999999999999999999MA1100911999999MW1001REMMET045FQIN 270800Z 27003KT 9999 SCT020 30/25 Q1009;EQDQ01+000000PRSWM2
0245673230999992000012709004-23870+035380SY-MT+0015FQIN V0203101N00311006001CN0300001N1+03161+02541100941ADDGA1071+006009999GF199999051021008001001001MA1100911999999MD1710091+9999MW1001REMSYN070AAXX  27094 67323 42580 53106 10316 20254 40094 57009 85200 333 94320;MET045FQIN 270900Z 31006KT 9999 BKN020 32/25 Q1009;EQDQ01+000052SCOTCVQ02+000000PRSWM2
0279673230999992000012712004-23870+035380SY-MT+0015FQIN V0201601N00411030001CN0300001N1+03161+02421100781ADDAA199000091GA1021+006009999GA2071+030009999GF107991041021008001071999MA1100811999999MD1710161+9999MW1001REMSYN070AAXX  27124 67323 32580 71608 10316 20242 40078 57016 8427/ 333 94320;MET052FQIN 271200Z 16008KT 9999 SCT020 BKN100 32/24 Q1008;EQDQ01+000000PRSWM2Q02  00002PRCP99
0162673230999992000012713004-23870+035380FM-15+0015FQIN V0201601N004110300019N0112651N1+03101+02401999999ADDGA1021+006009999GA2071+030009999GF107991999999999999999999MA1100711999999MW1001REMMET052FQIN 271300Z 16008KT 9999 SCT020 BKN100 31/24 Q1007;EQDQ01+000000PRSWM2
0320673230999992000012806004-23870+035380SY-MT+0015FQIN V0203601N00261006001CN0300001N1+02901+02511100661ADDAA199000091GA1071+006009999GA2071+007509999GF107991071081008001999999KA1120N+02361MA1100611999999MD1110031+9999MW1001REMSYN098AAXX  28064 67323 32580 73605 10290 20251 40066 51003 878// 333 20236 50/// 55/// 94320 555 10000;MET052FQIN 280600Z 36005KT 9999 BKN020 BKN025 29/29 Q1006;EQDQ01+000000PRSWM2Q02  00002PRCP99
0162673230999992000012807004-23870+035380FM-15+0015FQIN V0209999C000010060019N0112651N1+03001+02501999999ADDGA1071+006009999GA2071+007509999GF107991999999999999999999MA1100611999999MW1001REMMET052FQIN 280700Z 00000KT 9999 BKN020 BKN025 30/25 Q1006;EQDQ01+000000PRSWM2
0252673230999992000012809004-23870+035380SY-MT+0015FQIN V0203601N00211006001CN0300001N1+03161+02541100571ADDGA1071+006009999GA2071+007509999GF107991071081008001999999MA1100511999999MD1710091+9999MW1001REMSYN070AAXX  28094 67323 42580 73604 10316 20254 40057 57009 878// 333 94380;MET052FQIN 280900Z 36004KT 9999 BKN020 BKN025 32/25 Q1005;EQDQ01+000000PRSWM2
0317673230999992000012812004-23870+035380SY-MT+0015FQIN V0200701N004110060019N0150001N1+03061+02591100341ADDAA199000091AY121061AY221061GA1071+006009999GA2071+007509999GF107991071081008001999999MA1100311999999MD1710231+9999MW1151REMSYN076AAXX  28124 67323 31565 70708 10306 20259 40034 57023 71522 878// 333 94380;MET052FQIN 281200Z 07003KT 9999 BKN020 BKN025 31/22 Q1003;EQDQ01+000000PRSWM2Q02  00002PRCP99Q03    003PRSWM1
0204673230999992000012813004-23870+035380FM-15+0015FQIN V0201601N00311220001CN0080001N1+03001+01602999999ADDGA1071+006009999GA2071+007509999GA3021+009009099MA1100311999999MW1811MW2951REMMET066FQIN 281300Z 16006KT 8000 TSRA BKN020 BKN025 FEW030CB 30/16 Q1003;EQDQ01+000022SCOTCVQ02+000003PRSWM1Q03    003PRSWM1
0214673230999992000012814004-23870+035380FM-15+0015FQIN V0200701N003110060019N0060001N1+02801+01701999999ADDGA1071+006009999GA2021+007509099GA3071+030009999GF107991999999999999999999MA1100201999999MW1811MW2951REMMET066FQIN 281400Z 07006KT 6000 TSRA BKN020 FEW025CB BKN100 28/17 Q1002;EQDQ01+000003PRSWM1Q02    003PRSWM1
0304673230999992000012815004-23870+035380SY-MT+0015FQIN V0200701N00511030001CN0060001N1+02601+02471100261ADDAY191031AY221031GA1021+007509099GA2071+007509999GA3071+030009999GF108991061091008001071999MA1100201999999MD1710161+9999MW1951REMSYN076AAXX  28154 67323 41556 80710 10260 20247 40026 57016 79592 8697/ 333 94392;MET066FQIN 281500Z 07010KT 6000 TSRA BKN025 FEW025CB BKN100 26/25 Q1002;EQDQ01    003PRSWM1
0150673230999992000012909004-23870+035380FM-12+0015FQIN V0202401N003110075019N0200001N1+02861+02501100561ADDAY181031AY221031GF108991061091008001071999MD1110061+9999MW1251REMSYN076AAXX  29094 67323 41570 82406 10286 20250 40056 51006 72582 8697/ 333 94390;
0167673230999992000012912004-23870+035380FM-12+0015FQIN V0202501N001510075019N0300001N1+03081+99999100481ADDAA106000191AY181061AY221061GF107991071091008001999999MD1710081+9999MW1021REMSYN082AAXX  29124 67323 11580 72503 10308 20363 40048 57008 69921 70282 879// 333 94390;
0177673230999992000012915004-23870+035380FM-15+0015FQIN V0202001N00211220001CN0112651N1+03101+02401999999ADDGA1021+006009999GA2071+007509999GA3021+009009099MA1100411999999MW1001REMMET061FQIN 291500Z 20004KT 9999 FEW020 BKN025 FEW030CB 31/24 Q1004;EQDQ01+000022SCOTCVQ02+000000PRSWM2
0180673230999992000013006004-23870+035380FM-12+0015FQIN V0202201N003112200019N0300001N1+02761+02421100991ADDAA124000191GF104991031021008001001011KA1120N+02331MD1210191+9999REMSYN104AAXX  30064 67323 12580 42206 10276 20242 40099 52019 69924 83201 333 20233 50/// 55/// 94320 555 10377;
0139673230999992000013007004-23870+035380FM-15+0015FQIN V0202101N005112200019N0112651N1+03001+02301999999ADDGA1021+006009999GF104991999999999999999999MA1101021999999MW1001REMMET045FQIN 300700Z 21010KT 9999 SCT020 30/23 Q1010;EQDQ01+000000PRSWM2
0245673230999992000013009004-23870+035380SY-MT+0015FQIN V0201901N00361006001CN0300001N1+03061+02291100991ADDGA1071+006009999GF199999051021008001001011MA1101021999999MD1010001+9999MW1001REMSYN070AAXX  30094 67323 42580 61907 10306 20229 40099 50000 85201 333 94320;MET045FQIN 300900Z 19007KT 9999 BKN020 31/23 Q1010;EQDQ01+000062SCOTCVQ02+000000PRSWM2
0323673230999992000013112004-23870+035380SY-MT+0015FQIN V0201501N005112200019N0300001N1+03061+02291101061ADDAA199000091GA1021+006009999GA2021+007509099GA3071+999999999GF199999031021008001001001MA1101021999999MD1810071+9999MW1001REMSYN070AAXX  31124 67323 32580 31510 10306 20229 40106 58007 83200 333 94320;MET064FQIN 311200Z 35006KT 9999 TS SCT020 SCT025CB BKN/// 27/23 Q1010;EQDQ01+000032SCOTCVQ02+000000PRSWM2Q03  00002PRCP99
0139673230999992000013113004-23870+035380FM-15+0015FQIN V0201601N005112200019N0112651N1+03101+02301999999ADDGA1021+006009999GF104991999999999999999999MA1101081999999MW1001REMMET045FQIN 311300Z 16010KT 9999 SCT020 31/23 Q1011;EQDQ01+000000PRSWM2
0139673230999992000013114004-23870+035380FM-15+0015FQIN V0201501N005112200019N0112651N1+03001+02301999999ADDGA1021+006009999GF102991999999999999999999MA1101021999999MW1001REMMET045FQIN 311400Z 15010KT 9999 FEW020 30/23 Q1010;EQDQ01+000000PRSWM2
0217673230999992000020206004-23870+035380FM-12+0015FQIN V0201701N004610120019N0200001N1+02831+02531101031ADDAA124006191AY191061GF106991061081008001001001KA1120N+02381MD1210061+9999MW1021OA150601201REMSYN116AAXX  02064 67323 11570 61709 10283 20253 40103 52006 60064 7029/ 86800 333 20238 50/// 55120 94320 555 00059 10000;
0150673230999992000020215004-23870+035380FM-12+0015FQIN V0201601N002610075019N0080001N1+02701+02571100931ADDAY191031AY261031GF108991061091008001071999MD1710011+9999MW1951REMSYN076AAXX  02154 67323 41558 81605 10270 20257 40093 57001 79596 8697/ 333 94321;
0213673230999992000020406004-23870+035380FM-15+0015FQIN V0201701N005110060019N0090001N1+02701+02501999999ADDGA1021+003009999GA2071+006009999GA3071+030009999GF107991999999999999999999MA1101191999999MW1511MW2611REMMET065FQIN 040600Z 17010KT 9000 -RADZ SCT010 BKN020 BKN100 27/25 Q1012;EQDQ01+000003PRSWM1Q02    003PRSWM1
0167673230999992000020412004-23870+035380FM-12+0015FQIN V0201501N006210042019N0090001N1+02581+02331101121ADDAA106004191AY191061AY261061GF108991051071004501071999MD1710131+9999MW1501REMSYN082AAXX  04124 67323 11459 81512 10258 20233 40112 57013 60041 75096 8577/ 333 94374;
0150673230999992000020415004-23870+035380FM-12+0015FQIN V0201301N009310075019N0040001N1+02361+02271101151ADDAY161031AY261031GF108991061021008001071999MD1310031+9999MW1631REMSYN076AAXX  04154 67323 41540 81318 10236 20227 40115 53003 76366 8627/ 333 94324;
0174673230999992000020506004-23870+035380FM-12+0015FQIN V0201301N004110075019N0300001N1+02781+02541101181ADDAA124063091GF106991051021008001031001KA1120N+02101MD1210101+9999REMSYN098AAXX  05064 67323 12580 61308 10278 20254 40118 52010 60634 85230 333 20210 94322 555 00625 10443;
0162673230999992000020513004-23870+035380FM-15+0015FQIN V0201301N003110060019N0112651N1+02701+02501999999ADDGA1071+006009999GA2071+030009999GF107991999999999999999999MA1101081999999MW1001REMMET052FQIN 051300Z 13006KT 9999 BKN020 BKN100 27/25 Q1011;EQDQ01+000000PRSWM2
0252673230999992000020515004-23870+035380SY-MT+0015FQIN V0200901N00511006001CN0200001N1+02721+02561101051ADDGA1071+006009999GA2071+030009999GF108991061021008001071999MA1101021999999MD1610061+9999MW1001REMSYN070AAXX  05154 67323 42570 80910 10272 20256 40105 56006 8627/ 333 94320;MET052FQIN 051500Z 09010KT 9999 BKN020 BKN100 27/26 Q1010;EQDQ01+000000PRSWM2
0216673230999992000020606004-23870+035380FM-12+0015FQIN V0200901N004110360019N0200001N1+02861+02641101241ADDAA124025991GF107991021051008001071999KA1120N+02251MD1210051+9999OA150699999REMSYN110AAXX  06064 67323 12570 70908 10286 20264 40124 52005 60264 8257/ 333 20225 50/// 55019 94320 555 00260 10625;EQDQ01  00102WGOSPD
0215673230999992000020609004-23870+035380FM-15+0015FQIN V0200901N002610060019N0090001N1+02701+02601999999ADDGA1071+006009999GA2021+007509099GA3071+030009999GF107991999999999999999999MA1101291999999MW1171MW2611REMMET067FQIN 060900Z 09005KT 9000 -RATS BKN020 SCT025CB BKN100 27/26 Q1013;EQDQ01+000003PRSWM1Q02    003PRSWM1
0157673230999992000020612004-23870+035380FM-12+0015FQIN V0200901N002110075019N0090001N1+02801+02541101211ADDAA106000891AY191061AY291061GF108991061021008001071999MD1710101+9999MW1601REMSYN072AAXX  06124 67323 11559 80904 10280 20254 40121 57010 69971 76099 8627/;
0162673230999992000020614004-23870+035380FM-15+0015FQIN V0200901N002610060019N0112651N1+02701+02601999999ADDGA1071+006009999GA2081+030009999GF108991999999999999999999MA1101191999999MW1001REMMET052FQIN 061400Z 09005KT 9999 BKN020 OVC100 27/26 Q1012;EQDQ01+000000PRSWM2
0256673230999992000020712004-23870+035380SY-MT+0015FQIN V0200501N003612200019N0300001N1+03141+02421101361ADDAA199000091GA1021+006009999GF104991041021008001001001MA1101291999999MD1510111+9999MW1001REMSYN070AAXX  07124 67323 32580 40507 10314 20242 40136 55011 84200 333 94320;MET045FQIN 071200Z 05005KT 9999 SCT020 31/24 Q1013;EQDQ01+000000PRSWM2Q02  00002PRCP99
0139673230999992000020713004-23870+035380FM-15+0015FQIN V0200901N002612200019N0112651N1+03101+02401999999ADDGA1021+006009999GF104991999999999999999999MA1101291999999MW1001REMMET045FQIN 071300Z 09005KT 9999 SCT020 31/24 Q1013;EQDQ01+000000PRSWM2
0229673230999992000020715004-23870+035380SY-MT+0015FQIN V0201301N005112200019N0300001N1+03021+02451101301ADDGA1021+006009999GF103991031021008001001011MA1101291999999MD1610061+9999MW1001REMSYN070AAXX  07154 67323 42580 31310 10302 20245 40130 56006 83201 333 94320;MET045FQIN 071500Z 13010KT 9999 SCT020 30/25 Q1013;EQDQ01+000000PRSWM2
0198673230999992000020806004-23870+035380FM-12+0015FQIN V0209999C000010075019N0300001N1+02791+02531101271ADDAA199000091GF107991051021008001051999KA1120N+02261MD1510001+9999OA150601101REMSYN092AAXX  08064 67323 32580 70000 10279 20253 40127 55000 8525/ 333 20226 50/// 55118 555 10044;EQDQ01  00002PRCP99
0122673230999992000020809004-23870+035380FM-12+0015FQIN V0203601N002110075019N0300001N1+02921+02501101241ADDGF106991061021008001001001MD1810031+9999REMSYN070AAXX  08094 67323 42580 63604 10292 20250 40124 58003 86200 333 94320;
0139673230999992000020810004-23870+035380FM-15+0015FQIN V0200301N002110060019N0112651N1+03001+02501999999ADDGA1071+006009999GF107991999999999999999999MA1101191999999MW1001REMMET045FQIN 081000Z 03004KT 9999 BKN020 30/25 Q1012;EQDQ01+000000PRSWM2
0152673230999992000020812004-23870+035380FM-12+0015FQIN V0200801N003610075019N0300001N1+03131+02551101101ADDAA199000091GF105991051021008001001001MD1710141+9999REMSYN070AAXX  08124 67323 32580 50807 10313 20255 40110 57014 85200 333 94320;EQDQ01  00002PRCP99
0139673230999992000020813004-23870+035380FM-15+0015FQIN V0201801N004612200019N0112651N1+03101+02601999999ADDGA1021+006009999GF104991999999999999999999MA1101021999999MW1001REMMET045FQIN 081300Z 18009KT 9999 SCT020 31/26 Q1010;EQDQ01+000000PRSWM2
0229673230999992000020815004-23870+035380SY-MT+0015FQIN V0201701N004612200019N0300001N1+02991+02461101021ADDGA1021+006009999GF102991021011008001001011MA1101021999999MD1710081+9999MW1001REMSYN070AAXX  08154 67323 42580 21709 10299 20246 40102 57008 82101 333 94310;MET045FQIN 081500Z 17009KT 9999 FEW020 30/25 Q1010;EQDQ01+000000PRSWM2
0302673230999992000020906004-23870+035380SY-MT+0015FQIN V0201801N002110060019N0300001N1+02781+02531101221ADDAA199000091GA1071+006009999GF105991051021008001001001KA1120N+02261MA1101191999999MD1210111+9999MW1001OA150600901REMSYN092AAXX  09064 67323 32580 51804 10278 20253 40122 52011 85200 333 20226 50/// 55098 555 10000;MET045FQIN 090600Z 18004KT 9999 BKN020 28/25 Q1012;EQDQ01+000000PRSWM2Q02  00002PRCP99
0139673230999992000020907004-23870+035380FM-15+0015FQIN V0202601N001510060019N0112651N1+02901+02501999999ADDGA1071+006009999GF107991999999999999999999MA1101191999999MW1001REMMET045FQIN 090700Z 26003KT 9999 BKN020 29/25 Q1012;EQDQ01+000000PRSWM2
0139673230999992000020908004-23870+035380FM-15+0015FQIN V0202801N001012200019N0112651N1+03001+02401999999ADDGA1021+006009999GF104991999999999999999999MA1101191999999MW1001REMMET045FQIN 090800Z 28002KT 9999 SCT020 30/24 Q1012;EQDQ01+000000PRSWM2
0139673230999992000020910004-23870+035380FM-15+0015FQIN V0200401N001012200019N0112651N1+03101+02601999999ADDGA1021+006009999GF104991999999999999999999MA1101081999999MW1001REMMET045FQIN 091000Z 04002KT 9999 SCT020 31/26 Q1011;EQDQ01+000000PRSWM2
0108673230999992000021003004-23870+035380FM-12+0015FQIN V0209999C000010360019N0300001N1+02561+02361101131ADDGF105991021021008001031001REMSYN070AAXX  10034 67323 42580 50000 10256 20236 40113 5//// 82230 333 94320;
0204673230999992000021006004-23870+035380FM-12+0015FQIN V0201201N001510075019N0300001N1+02921+02371101231ADDAA199000091GF105991051021008001001011KA1120N+02341MD1010101+9999OA150601001REMSYN098AAXX  10064 67323 32580 51203 10292 20237 40123 50010 85201 333 20234 50/// 55109 94320 555 10000;EQDQ01  00002PRCP99
0268673230999992000021009004-23870+035380SY-MT+0015FQIN V0200901N00211006001CN0300001N1+03061+02451101231ADDGA1071+006009999GA2071+007509999GF199999061081008001001001MA1101191999999MD1010001+9999MW1001REMSYN070AAXX  10094 67323 42580 60904 10306 20245 40123 50000 86800 333 94382;MET052FQIN 100900Z 09004KT 9999 BKN020 BKN025 31/25 Q1012;EQDQ01+000062SCOTCVQ02+000000PRSWM2
0272673230999992000021212004-23870+035380SY-MT+0015FQIN V0201201N00411006001CN0300001N1+03181+02531100841ADDAA199000091GA1071+006009999GF199999051021008001001011MA1100811999999MD1710231+9999MW1001REMSYN070AAXX  12124 67323 32580 51208 10318 20253 40084 57023 85201 333 94320;MET045FQIN 121200Z 12008KT 9999 BKN020 32/25 Q1008;EQDQ01+000052SCOTCVQ02+000000PRSWM2Q03  00002PRCP99
0139673230999992000021213004-23870+035380FM-15+0015FQIN V0201201N004610060019N0112651N1+03101+02401999999ADDGA1071+006009999GF107991999999999999999999MA1100811999999MW1001REMMET045FQIN 121300Z 12009KT 9999 BKN020 31/24 Q1008;EQDQ01+000000PRSWM2
0307673230999992000021312004-23870+035380SY-MT+0015FQIN V0201801N00151220001CN0300001N1+02941+02491100961ADDAA199000091AY191061AY221061GA1071+006009999GA2021+007509099GF106991061091008001001001MA1100811999999MD1710081+9999MW1171REMSYN076AAXX  13124 67323 31580 61803 10294 20249 40096 57008 71792 86900 333 94320;MET058FQIN 131200Z 18003KT 9999 -TS BKN020 SCT025CB 29/25 Q1008;EQDQ01  00002PRCP99Q02    003PRSWM1
0308673230999992000021406004-23870+035380SY-MT+0015FQIN V0209999C000012200019N0300001N1+02821+02531101041ADDAA199000091GA1021+006009999GF102991021021008001001011KA1120N+02301MA1101021999999MD1210071+9999MW1001OA150600401REMSYN098AAXX  14064 67323 32580 20000 10282 20253 40104 52007 82201 333 20230 50/// 55047 94320 555 10005;MET045FQIN 140600Z 00000KT 9999 FEW020 28/25 Q1010;EQDQ01+000000PRSWM2Q02  00002PRCP99
0139673230999992000021408004-23870+035380FM-15+0015FQIN V0202701N002112200019N0112651N1+03101+02601999999ADDGA1021+006009999GF104991999999999999999999MA1101021999999MW1001REMMET045FQIN 140800Z 27004KT 9999 SCT020 31/26 Q1010;EQDQ01+000000PRSWM2
0139673230999992000021412004-23870+035380FM-15+0015FQIN V0203601N004612200019N0112651N1+03301+02501999999ADDGA1021+006009999GF104991999999999999999999MA1100811999999MW1001REMMET045FQIN 141200Z 36009KT 9999 SCT020 33/25 Q1008;EQDQ01+000000PRSWM2
0184673230999992000021415004-23870+035380FM-15+0015FQIN V0200301N004612200019N0112651N1+03101+02401999999ADDGA1021+006009999GA2021+007509099GF104991999999999999999999MA1100711999999MW1171REMMET058FQIN 141500Z 03009KT 9999 -TS SCT020 SCT025CB 31/24 Q1007;EQDQ01+000003PRSWM1Q02    003PRSWM1
0308673230999992000021506004-23870+035380SY-MT+0015FQIN V0203601N001512200019N0300001N1+02921+02621100871ADDAA199000091GA1021+006009999GF103991031021008001001001KA1120N+02451MA1100811999999MD1210101+9999MW1001OA150601101REMSYN098AAXX  15064 67323 32580 33603 10292 20262 40087 52010 83200 333 20245 50/// 55110 94320 555 10000;MET045FQIN 150600Z 36003KT 9999 SCT020 29/26 Q1008;EQDQ01+000000PRSWM2Q02  00002PRCP99
0139673230999992000021509004-23870+035380FM-15+0015FQIN V0200601N005112200019N0112651N1+03201+02501999999ADDGA1021+006009999GF104991999999999999999999MA1100811999999MW1001REMMET045FQIN 150900Z 06010KT 9999 SCT020 32/25 Q1008;EQDQ01+000000PRSWM2
0302673230999992000021512004-23870+035380SY-MT+0015FQIN V0200601N00671006001CN0300001N1+03191+02551100691ADDAA199000091AY111061AY211061GA1071+006009999GA2021+007509099GF199999061091008001001001MA1100711999999MW1171REMSYN070AAXX  15124 67323 31580 60613 10319 20255 40069 71711 86900 333 94390;MET057FQIN 151200Z 06013KT 9999 TS BKN020 FEW025CB 32/26 Q1007;EQDQ01+000062SCOTCVQ02  00002PRCP99Q03    003PRSWM1
0154673230999992000021513004-23870+035380FM-15+0015FQIN V0200601N00771220001CN0112651N1+03201+02501999999ADDGA1071+006009999GA2021+007509099MA1100611999999MW1001REMMET054FQIN 151300Z 06015KT 9999 BKN020 FEW025CB 32/25 Q1006;EQDQ01+000022SCOTCVQ02+000000PRSWM2
0222673230999992000021515004-23870+035380SY-MT+0015FQIN V0200601N004112200019N0300001N1+03081+02451999999ADDGA1021+006009999GF103991031021008001001011MD1710241+9999MW1001REMSYN070AAXX  15154 67323 42580 30608 10308 20245 47/33 57024 83201 333 94320;MET053FQIN 151500Z 06008KT 9999 SCT020 31/1EEE 31/25 Q1004;EQDQ01+000000PRSWM2
0150673230999992000021615004-23870+035380FM-12+0015FQIN V0201601N005110360019N0300001N1+02731+02401101121ADDAY191031AY221031GF106991031021008001031041MD1510021+9999MW1011REMSYN076AAXX  16154 67323 41580 61610 10273 20240 40112 55002 70192 83234 333 94320;
0150673230999992000021709004-23870+035380FM-12+0015FQIN V0201801N007710075019N0200001N1+02801+02371101331ADDAY181031AY221031GF108991061021008001071999MD1810031+9999MW1021REMSYN076AAXX  17094 67323 41570 81815 10280 20237 40133 58003 70282 8627/ 333 94323;
0167673230999992000021712004-23870+035380FM-12+0015FQIN V0201801N005110075019N0090001N1+02561+02351101221ADDAA106002091AY161061AY281061GF108991061091008001071999MD1810051+9999MW1611REMSYN082AAXX  17124 67323 11559 81810 10256 20235 40122 58005 60021 76168 8697/ 333 94394;
0150673230999992000021715004-23870+035380FM-12+0015FQIN V0201801N006210075019N0080001N1+02541+02461101171ADDAY161031AY261031GF108991061091008001071999MD1710111+9999MW1611REMSYN076AAXX  17154 67323 41558 81812 10254 20246 40117 57011 76166 8697/ 333 94394;
0108673230999992000021803004-23870+035380FM-12+0015FQIN V0202101N002610120019N0300001N1+02481+02361101121ADDGF106991061081008001001001REMSYN070AAXX  18034 67323 42580 62105 10248 20236 40112 5//// 86800 333 94320;
0336673230999992000021806004-23870+035380SY-MT+0015FQIN V0201801N00511006001CN0300001N1+02761+02431101221ADDAA124020191GA1071+006009999GF199999051021008001031001KA1120N+02161MA1101191999999MD1210101+9999MW1001OA150699999REMSYN110AAXX  18064 67323 12580 61810 10276 20243 40122 52010 60204 85230 333 20216 50/// 55030 94320 555 00198 10219;MET045FQIN 180600Z 18010KT 9999 BKN020 28/24 Q1012;EQDQ01+000062SCOTCVQ02+000000PRSWM2Q03  00302WGOSPD
0152673230999992000021809004-23870+035380FM-15+0015FQIN V0201501N00461220001CN0112651N1+02801+02501999999ADDGA1071+006009999GA2021+030009999MA1101081999999MW1001REMMET052FQIN 180900Z 15009KT 9999 BKN020 SCT100 28/25 Q1011;EQDQ01+000042SCOTCVQ02+000000PRSWM2
0300673230999992000021812004-23870+035380SY-MT+0015FQIN V0201601N00671006001CN0200001N1+02951+02351101091ADDAA106001091AY161061AY221061GA1071+006009999GF199999061021008001001011MA1101081999999MD1710071+9999MW1021REMSYN082AAXX  18124 67323 11570 61613 10295 20235 40109 57007 60011 70262 86201 333 94324;MET045FQIN 181200Z 16013KT 9999 BKN020 30/24 Q1011;EQDQ01+000062SCOTCVQ02+000000PRSWM2Q03    003PRSWM1
0139673230999992000021813004-23870+035380FM-15+0015FQIN V0201601N006710060019N0112651N1+03001+02401999999ADDGA1071+006009999GF107991999999999999999999MA1101021999999MW1001REMMET045FQIN 181300Z 16013KT 9999 BKN020 30/24 Q1010;EQDQ01+000000PRSWM2
0245673230999992000021815004-23870+035380SY-MT+0015FQIN V0201701N00511006001CN0300001N1+02871+02371101051ADDGA1071+006009999GF199999051021008001001001MA1101021999999MD1510041+9999MW1001REMSYN070AAXX  18154 67323 42580 51710 10287 20237 40105 55004 85200 333 94320;MET045FQIN 181500Z 17010KT 9999 BKN020 29/24 Q1010;EQDQ01+000052SCOTCVQ02+000000PRSWM2
0351673230999992000021906004-23870+035380SY-MT+0015FQIN V0201701N00511006001CN0090001N1+02731+02551101051ADDAA124010991AY161061GA1071+006009999GA2071+007509999GF107991071081008001999999KA1120N+02241MA1101021999999MD1210051+9999MW1601MW2611OA150600801REMSYN116AAXX  19064 67323 11559 71710 10273 20255 40105 52005 60114 7606/ 878// 333 20224 50/// 55085 94320 555 00107 10198;MET056FQIN 190600Z 17010KT 9000 -RA BKN020 BKN025 27/26 Q1010;EQDQ01    003PRSWM1
0162673230999992000021907004-23870+035380FM-15+0015FQIN V0201801N006210060019N0112651N1+02801+02401999999ADDGA1071+006009999GA2071+007509999GF107991999999999999999999MA1101021999999MW1001REMMET052FQIN 190700Z 18012KT 9999 BKN020 BKN025 28/24 Q1010;EQDQ01+000000PRSWM2
0162673230999992000021908004-23870+035380FM-15+0015FQIN V0201801N005710060019N0112651N1+02901+02501999999ADDGA1071+006009999GA2071+007509999GF107991999999999999999999MA1101021999999MW1001REMMET052FQIN 190800Z 18011KT 9999 BKN020 BKN025 29/25 Q1010;EQDQ01+000000PRSWM2
0326673230999992000021912004-23870+035380SY-MT+0015FQIN V0201801N00511006001CN0090001N1+02801+02531100841ADDAA106016091AY191061AY261061GA1071+006009999GA2021+007509099GA3071+027009999GF107991061091008001071999MA1100811999999MD1710211+9999MW1601MW2611REMSYN082AAXX  19124 67323 11559 71810 10280 20253 40084 57021 60161 76096 8697/ 333 94394;MET065FQIN 191200Z 18010KT 9000 -RA BKN020 FEW025CB BKN090 28/25 Q1008;EQDQ01    003PRSWM1
0115673230999992000021913004-23870+035380FM-15+0015FQIN V0201701N006212200019N0112651N1+99999+99999999999ADDMW1001MW2631REMMET072FQIN 191300Z 17012KT 9999 RAEEE RERA BKN020 FEW025CB BKN090 28/25 Q1008;EQDQ01+000003PRSWM1
0336673230999992000022006004-23870+035380SY-MT+0015FQIN V0201801N00621006001CN0300001N1+02821+02401100771ADDAA124018091GA1071+006009999GF199999061021008001001001KA1120N+02231MA1100811999999MD1210051+9999MW1001OA150699999REMSYN110AAXX  20064 67323 12580 61812 10282 20240 40077 52005 60184 86200 333 20223 50/// 55049 94322 555 00180 10107;MET045FQIN 200700Z 18010KT 9999 BKN020 29/24 Q1008;EQDQ01+000062SCOTCVQ02+000000PRSWM2Q03  00402WGOSPD
0139673230999992000022007004-23870+035380FM-15+0015FQIN V0201801N005110060019N0112651N1+02901+02401999999ADDGA1071+006009999GF107991999999999999999999MA1100811999999MW1001REMMET045FQIN 200700Z 18010KT 9999 BKN020 29/24 Q1008;EQDQ01+000000PRSWM2
0139673230999992000022008004-23870+035380FM-15+0015FQIN V0201801N005710060019N0112651N1+03001+02301999999ADDGA1071+006009999GF107991999999999999999999MA1100811999999MW1001REMMET045FQIN 200800Z 18011KT 9999 BKN020 30/23 Q1008;EQDQ01+000000PRSWM2
0245673230999992000022009004-23870+035380SY-MT+0015FQIN V0201801N00621006001CN0300001N1+03021+02441100721ADDGA1071+006009999GF199999061021008001001001MA1100711999999MD1810051+9999MW1001REMSYN070AAXX  20094 67323 42580 61812 10302 20244 40072 58005 86200 333 94324;MET045FQIN 200900Z 18012KT 9999 BKN020 30/24 Q1007;EQDQ01+000062SCOTCVQ02+000000PRSWM2
0139673230999992000022010004-23870+035380FM-15+0015FQIN V0201801N007210060019N0112651N1+02901+02501999999ADDGA1071+006009999GF107991999999999999999999MA1100711999999MW1001REMMET045FQIN 201000Z 18014KT 9999 BKN020 29/25 Q1007;EQDQ01+000000PRSWM2
0287673230999992000022012004-23870+035380SY-MT+0015FQIN V0201801N00931006001CN0200001N1+02921+02481100551ADDAA106008991AY181061AY221061GA1071+006009999GA2071+007509999GF107991071081008001999999MA1100511999999MW1251REMSYN076AAXX  20124 67323 11570 71818 10292 20248 40055 60091 72582 878// 333 94324;MET052FQIN 201200Z 18018KT 9999 BKN020 BKN025 29/25 Q1005;EQDQ01+000000PRSWM2Q02    003PRSWM1
0101673230999992000022013004-23870+035380FM-15+0015FQIN V0201801N009312200019N0090001N1+99999+99999999999ADDMW1001REMMET064FQIN 201300Z 18018KT 9000 -T 9000 -RA BKN020 OVC025 29/24 Q1005;EQDQ01+000000PRSWM2
0290673230999992000022015004-23870+035380SY-MT+0015FQIN V0201801N00771006001CN0150001N1+02701+02421100471ADDAY161031AY261031GA1071+006009999GA2021+030009999GF107991051021008001031021MA1100411999999MD1710081+9999MW1211REMSYN076AAXX  20154 67323 41565 71815 10270 20242 40047 57008 72166 85232 333 94324;MET052FQIN 201500Z 18015KT 9999 BKN020 SCT100 27/24 Q1004;EQDQ01+000000PRSWM2Q02    003PRSWM1
0381673230999992000022106004-23870+035380SY-MT+0015FQIN V0201801N01031006001CN0200001N1+02821+02531100411ADDAA124029091AY161061AY261061GA1071+006009999GA2071+030009999GF107991051021008001071999KA1120N+02261MA1100411999999MD1210101+9999MW1021OA150699999REMSYN116AAXX  21064 67323 11570 71820 10282 20253 40041 52010 60294 70266 8527/ 333 20226 50/// 55069 94324 555 00287 10180;MET052FQIN 210600Z 18020KT 9999 BKN020 BKN100 28/25 Q1004;EQDQ01+000000PRSWM2Q02  00602WGOSPDQ03    003PRSWM1
0162673230999992000022107004-23870+035380FM-15+0015FQIN V0201801N010310060019N0112651N1+02801+02501999999ADDGA1071+006009999GA2071+030009999GF107991999999999999999999MA1100411999999MW1001REMMET052FQIN 210700Z 18020KT 9999 BKN020 BKN100 28/25 Q1004;EQDQ01+000000PRSWM2
0162673230999992000022108004-23870+035380FM-15+0015FQIN V0201801N008710060019N0112651N1+02901+02501999999ADDGA1071+006009999GA2071+030009999GF107991999999999999999999MA1100411999999MW1001REMMET052FQIN 210800Z 18017KT 9999 BKN020 BKN100 29/25 Q1004;EQDQ01+000000PRSWM2
0252673230999992000022109004-23870+035380SY-MT+0015FQIN V0201801N01031006001CN0200001N1+02921+02491100401ADDGA1071+006009999GA2071+030009999GF107991051021008001071999MA1100411999999MD1810011+9999MW1001REMSYN070AAXX  21094 67323 42570 71820 10292 20249 40040 58001 8527/ 333 94322;MET052FQIN 210900Z 18020KT 9999 BKN020 BKN100 29/25 Q1004;EQDQ01+000000PRSWM2
0208673230999992000022114004-23870+035380FM-15+0015FQIN V0201601N010310045019N0090001N1+02601+02501999999ADDGA1071+004509999GA2021+006009099GA3081+027009999GF108991999999999999999999MA1100201999999MW1811REMMET066FQIN 211400Z 16020KT 9000 SHRA BKN015 FEW020CB OVC090 26/25 Q1002;EQDQ01+000003PRSWM1Q02    003PRSWM1
0331673230999992000022115004-23870+035380SY-MT+0015FQIN V0201701N01031004501CN0200001N1+02691+02501100251ADDAY191031AY281031GA1071+004509999GA2021+007509099GA3081+027009999GF108991999091004501071999MA1100201999999MD1710061+9999MW1151REMSYN076AAXX  21154 67323 41470 81720 10269 20250 40025 57006 71598 8897/ 333 94392;MET061FQIN 211500Z 17020KT 9999 BKN015 FEW025CB OVC090 27/26 Q1002;EQDQ01+000082SCOTLCQ02+000000PRSWM2Q03    003PRSWM1
0208673230999992000022206004-23870+035380FM-12+0015FQIN V0201401N010310042019N0090001N1+02751+02431100541ADDAA124034091AY161061AY221061GF108991061091004501071999KA1120N+02271MD1210121+9999MW1601REMSYN110AAXX  22064 67323 11459 81420 10275 20243 40054 52012 60344 76062 8697/ 333 20227 50/// 94393 555 00337 10287;
0393673230999992000022208004-23870+035380SY-MT+0015FQIN V0201401N010310054019N0090001N1+02751+02431100541ADDAA124034091AY161021AY221021GA1071+005409999GA2021+007509099GA3081+027009999GF108991061091004501071999KA1120N+02271MA1100711999999MD1210121+9999MW1601MW2631OA159999999REMSYN110AAXX  22084 67323 11459 81420 10275 20243 40054 52012 60344 76062 8697/ 333 20227 55011 94393 555 00337 10287;MET064FQIN 220800Z 13015KT 5000 RA BKN018 SCT025CB OVC090 25/24 Q1007;EQDQ01  00102WGOSPDQ02    003PRSWM1
0307673230999992000022212004-23870+035380SY-MT+0015FQIN V0201001N005110060019N0100001N1+02421+02381100531ADDAA106116191AY161061AY261061GA1071+006009999GA2081+027009999GF108991061021008001071999MA1100511999999MD1710071+9999MW1211REMSYN082AAXX  22124 67323 11560 81010 10242 20238 40053 57007 61161 72166 8627/ 333 94320;MET052FQIN 221200Z 10010KT 9999 BKN020 OVC090 24/24 Q1005;EQDQ01+000000PRSWM2Q02    003PRSWM1
0162673230999992000022213004-23870+035380FM-15+0015FQIN V0201001N004610060019N0112651N1+02501+02401999999ADDGA1071+006009999GA2081+030009999GF108991999999999999999999MA1100511999999MW1001REMMET052FQIN 221300Z 10009KT 9999 BKN020 OVC100 25/24 Q1005;EQDQ01+000000PRSWM2
0290673230999992000022215004-23870+035380SY-MT+0015FQIN V0201001N00411006001CN0300001N1+02441+02391100471ADDAY161031AY261031GA1071+006009999GA2081+030009999GF108991061021008001071999MA1100411999999MD1610061+9999MW1211REMSYN076AAXX  22154 67323 41580 81008 10244 20239 40047 56006 72166 8627/ 333 94320;MET052FQIN 221500Z 10008KT 9999 BKN020 OVC100 24/24 Q1004;EQDQ01+000000PRSWM2Q02    003PRSWM1
0330673230999992000022306004-23870+035380SY-MT+0015FQIN V0200901N00671006001CN0200001N1+02781+02521100791ADDAA106119191GA1071+006009999GF199999061021008001001001KA1120N+02141MA1100811999999MD1210161+9999MW1001OA150699999REMSYN104AAXX  23064 67323 12570 60913 10278 20252 40079 52016 61191 86200 333 20214 50/// 55000 94322 555 10337;MET045FQIN 230600Z 09013KT 9999 BKN020 28/25 Q1008;EQDQ01+000062SCOTCVQ02+000000PRSWM2Q03  00002WGOSPD
0150673230999992000022309004-23870+035380FM-12+0015FQIN V0201201N007210075019N0090001N1+02821+02521100791ADDAY121031AY221031GF107991051091008001071999MD1010001+9999MW1601REMSYN076AAXX  23094 67323 41559 71214 10282 20252 40079 50000 76022 8597/ 333 94392;
0332673230999992000022312004-23870+035380SY-MT+0015FQIN V0201201N00821006001CN0200001N1+02861+02501100651ADDAA106002091AY181061AY261061GA1071+006009999GA2021+007509099GA3071+030009999GF107991061091008001051999MA1100611999999MD1710141+9999MW1031REMSYN082AAXX  23124 67323 12570 71216 10286 20250 40065 57014 60021 70386 8695/ 333 94393;MET061FQIN 231200Z 12016KT 9999 BKN020 FEW025CB BKN100 29/25 Q1006;EQDQ01+000000PRSWM2Q02    003PRSWM1
0154673230999992000022313004-23870+035380FM-15+0015FQIN V0201301N00821220001CN0112651N1+02901+02501999999ADDGA1071+006009999GA2021+007509099MA1100611999999MW1001REMMET054FQIN 231300Z 13016KT 9999 BKN020 FEW025CB 29/25 Q1006;EQDQ01+000022SCOTCVQ02+000000PRSWM2
0239673230999992000022315004-23870+035380SY-MT+0015FQIN V0201301N007712200019N0200001N1+02821+02401100701ADDGA1021+007509099GF107991061091008001051999MA1100711999999MD1310051+9999MW1001REMSYN070AAXX  23154 67323 42570 71315 10282 20240 40070 53005 8695/ 333 94390;MET055FQIN 231500Z 13015KT 9999 NBKN020 FEW025CB 28/24 Q1007;EQDQ01+000000PRSWM2
0320673230999992000022406004-23870+035380SY-MT+0015FQIN V0201201N008210900019N0300001N1+02821+02261101051ADDAA124002091GA1021+006009999GF105991031021008001001021KA1120N+02411MA1101021999999MD1210091+9999MW1001OA150699999REMSYN110AAXX  24064 67323 12580 51216 10282 20226 40105 52009 60024 83202 333 20241 50/// 55061 94322 555 00024 11188;MET045FQIN 240600Z 12016KT 9999 SCT020 28/23 Q1010;EQDQ01+000000PRSWM2Q02  00602WGOSPD
0245673230999992000022409004-23870+035380SY-MT+0015FQIN V0201101N00721006001CN0300001N1+02961+02341101081ADDGA1071+006009999GF199999061021008001001001MA1101081999999MD1010031+9999MW1001REMSYN070AAXX  24094 67323 42580 61114 10296 20234 40108 50003 86200 333 94320;MET045FQIN 240900Z 11014KT 9999 BKN020 30/23 Q1011;EQDQ01+000062SCOTCVQ02+000000PRSWM2
0298673230999992000022506004-23870+035380SY-MT+0015FQIN V0201001N004112200019N0300001N1+02781+02401101301ADDAA124000891GA1021+006009999GF104991041021008001001011KA1120N+02351MA1101291999999MD1210091+9999MW1001OA150600801REMSYN104AAXX  25064 67323 12580 41008 10278 20240 40130 52009 69984 84201 333 20235 50/// 55082 94320 555 10024;MET045FQIN 250600Z 10008KT 9999 SCT020 28/24 Q1013;EQDQ01+000000PRSWM2
0139673230999992000022508004-23870+035380FM-15+0015FQIN V0201201N006210060019N0112651N1+03001+02301999999ADDGA1071+006009999GF107991999999999999999999MA1101291999999MW1001REMMET045FQIN 250800Z 12012KT 9999 BKN020 30/23 Q1013;EQDQ01+000000PRSWM2
0229673230999992000022509004-23870+035380SY-MT+0015FQIN V0201101N005110060019N0300001N1+02981+02331101381ADDGA1071+006009999GF105991051021008001001001MA1101391999999MD1210081+9999MW1001REMSYN070AAXX  25094 67323 42580 51110 10298 20233 40138 52008 85200 333 94322;MET045FQIN 250900Z 11010KT 9999 BKN020 30/23 Q1014;EQDQ01+000000PRSWM2
0152673230999992000022512004-23870+035380FM-12+0015FQIN V0201001N005110075019N0300001N1+03091+02421101221ADDAA199000091GF106991061021008001001001MD1710161+9999REMSYN070AAXX  25124 67323 32580 61010 10309 20242 40122 57016 86200 333 94320;EQDQ01  00002PRCP99
0139673230999992000022513004-23870+035380FM-15+0015FQIN V0201101N004110060019N0112651N1+03001+02301999999ADDGA1071+006009999GF107991999999999999999999MA1101081999999MW1001REMMET045FQIN 251300Z 11008KT 9999 BKN020 30/23 Q1011;EQDQ01+000000PRSWM2
0139673230999992000022514004-23870+035380FM-15+0015FQIN V0201001N004110060019N0112651N1+03001+02401999999ADDGA1071+006009999GF107991999999999999999999MA1101191999999MW1001REMMET045FQIN 251400Z 10008KT 9999 BKN020 30/24 Q1012;EQDQ01+000000PRSWM2
0304673230999992000022606004-23870+035380SY-MT+0015FQIN V0201601N005112200019N0300001N1+02851+02371101331ADDAA124007191GA1021+006009999GF103991031021008001001011KA1120N+02271MA1101291999999MD1210081+9999MW1001OA150600901REMSYN110AAXX  26064 67323 12580 31610 10285 20237 40133 52008 60074 83201 333 20227 50/// 55096 94320 555 00070 10008;MET045FQIN 260600Z 16010KT 9999 SCT020 28/24 Q1013;EQDQ01+000000PRSWM2
0272673230999992000022612004-23870+035380SY-MT+0015FQIN V0201601N00721006001CN0300001N1+02961+02331101121ADDAA199000091GA1071+006009999GF199999051021008001001001MA1101081999999MD1710191+9999MW1001REMSYN070AAXX  26124 67323 32580 51614 10296 20233 40112 57019 85200 333 94320;MET045FQIN 261200Z 16014KT 9999 BKN020 30/23 Q1011;EQDQ01+000052SCOTCVQ02+000000PRSWM2Q03  00002PRCP99
0098673230999992000022613004-23870+035380FM-15+0015FQIN V0201601N008212200019N0112651N1+03001+02201999999ADDMA1101021999999MW1001REMMET046FQIN 261300Z 16016KT 9999 SBKN020 30/22 Q1010;EQDQ01+000000PRSWM2
0308673230999992000022706004-23870+035380SY-MT+0015FQIN V0201801N002112200019N0300001N1+02821+02251101171ADDAA199000091GA1021+006009999GF102991021021008001001001KA1120N+02201MA1101081999999MD1210071+9999MW1001OA150601101REMSYN098AAXX  27064 67323 32580 21804 10282 20225 40117 52007 82200 333 20220 50/// 55113 94320 555 10070;MET045FQIN 270600Z 18004KT 9999 FEW020 28/23 Q1011;EQDQ01+000000PRSWM2Q02  00002PRCP99
0139673230999992000022707004-23870+035380FM-15+0015FQIN V0201601N005112200019N0112651N1+02901+02201999999ADDGA1021+006009999GF104991999999999999999999MA1101081999999MW1001REMMET045FQIN 270700Z 16010KT 9999 SCT020 29/22 Q1011;EQDQ01+000000PRSWM2
0139673230999992000022708004-23870+035380FM-15+0015FQIN V0201701N003612200019N0112651N1+03001+02301999999ADDGA1021+006009999GF104991999999999999999999MA1101191999999MW1001REMMET045FQIN 270800Z 17007KT 9999 SCT020 30/23 Q1012;EQDQ01+000000PRSWM2
0256673230999992000022712004-23870+035380SY-MT+0015FQIN V0201801N006712200019N0300001N1+03131+02291101091ADDAA199000091GA1021+006009999GF103991031021008001001001MA1101081999999MD1710091+9999MW1001REMSYN070AAXX  27124 67323 32580 31813 10313 20229 40109 57009 83200 333 94320;MET045FQIN 271200Z 18013KT 9999 SCT020 31/23 Q1011;EQDQ01+000000PRSWM2Q02  00002PRCP99
0139673230999992000022713004-23870+035380FM-15+0015FQIN V0201801N001512200019N0112651N1+03101+02301999999ADDGA1021+007509999GF102991999999999999999999MA1101021999999MW1001REMMET045FQIN 271300Z 18003KT 9999 FEW025 31/23 Q1010;EQDQ01+000000PRSWM2
0139673230999992000022714004-23870+035380FM-15+0015FQIN V0201801N007212200019N0112651N1+03001+02201999999ADDGA1021+006009999GF102991999999999999999999MA1101021999999MW1001REMMET045FQIN 271400Z 18014KT 9999 FEW020 30/22 Q1010;EQDQ01+000000PRSWM2
0229673230999992000022715004-23870+035380SY-MT+0015FQIN V0201801N007212200019N0300001N1+02911+02081101071ADDGA1021+006009999GF102991021021008001001001MA1101021999999MD1510021+9999MW1001REMSYN070AAXX  27154 67323 42580 21814 10291 20208 40107 55002 82200 333 94320;MET045FQIN 271500Z 18014KT 9999 FEW020 29/21 Q1010;EQDQ01+000000PRSWM2
0139673230999992000022808004-23870+035380FM-15+0015FQIN V0201601N005110060019N0112651N1+02901+02401999999ADDGA1071+006009999GF107991999999999999999999MA1101391999999MW1001REMMET045FQIN 280800Z 16010KT 9999 BKN020 29/24 Q1014;EQDQ01+000000PRSWM2
0245673230999992000022809004-23870+035380SY-MT+0015FQIN V0201801N00621006001CN0300001N1+02981+02331101391ADDGA1071+006009999GF199999051021008001001001MA1101391999999MD1010011+9999MW1001REMSYN070AAXX  28094 67323 42580 51812 10298 20233 40139 50001 85200 333 94320;MET045FQIN 280900Z 18012KT 9999 BKN020 30/23 Q1014;EQDQ01+000052SCOTCVQ02+000000PRSWM2
0152673230999992000022812004-23870+035380FM-12+0015FQIN V0201601N005710075019N0300001N1+02981+02201101311ADDAA199000091GF105991051021008001001001MD1710081+9999REMSYN070AAXX  28124 67323 32580 51611 10298 20220 40131 57008 85200 333 94320;EQDQ01  00002PRCP99
0229673230999992000022815004-23870+035380SY-MT+0015FQIN V0201001N005112200019N0300001N1+02901+02231101271ADDGA1021+006009999GF102991021011008001001001MA1101191999999MD1510041+9999MW1001REMSYN070AAXX  28154 67323 42580 21010 10290 20223 40127 55004 82100 333 94310;MET045FQIN 281500Z 10010KT 9999 FEW020 29/22 Q1012;EQDQ01+000000PRSWM2
0318673230999992000022906004-23870+035380SY-MT+0015FQIN V0201801N00261006001CN0300001N1+02781+02401101441ADDAA199000091GA1071+006009999GF199999061021008001001001KA1120N+02291MA1101391999999MD1210111+9999MW1001OA150601101REMSYN092AAXX  29064 67323 32580 61805 10278 20240 40144 52011 86200 333 20229 50/// 55115 555 10039;MET045FQIN 290600Z 18005KT 9999 BKN020 28/24 Q1014;EQDQ01+000062SCOTCVQ02+000000PRSWM2Q03  00002PRCP99
0182673230999992000022907004-23870+035380FM-15+0015FQIN V0201501N005110060019N0080001N1+02801+02401999999ADDGA1021+003009999GA2071+006009999GF107991999999999999999999MA1101491999999MW1511REMMET056FQIN 290700Z 15010KT 8000 -DZ SCT010 BKN020 28/24 Q1015;EQDQ01+000003PRSWM1Q02    003PRSWM1
0306673230999992000022909004-23870+035380SY-MT+0015FQIN V0201301N00511007501CN0200001N1+02931+02361101471ADDAY151031AY221031GA1021+006009999GA2071+007509999GF199999061081008001001001MA1101391999999MD1010031+9999MW1021REMSYN076AAXX  29094 67323 41570 61310 10293 20236 40147 50003 70252 86800 333 94320;MET052FQIN 290900Z 13010KT 9999 SCT020 BKN025 29/24 Q1014;EQDQ01+000062SCOTCVQ02+000000PRSWM2Q03    003PRSWM1
0298673230999992000030106004-23870+035380SY-MT+0015FQIN V0200901N002610360019N0300001N1+02811+02371101261ADDAA124000191GA1021+006009999GF105991031021008001031001KA1120N+02301MA1101191999999MD1010081+9999MW1001OA150600701REMSYN104AAXX  01064 67323 12580 50905 10281 20237 40126 50008 69914 83230 333 20230 50/// 55073 94320 555 10000;MET045FQIN 010600Z 09005KT 9999 SCT020 28/24 Q1012;EQDQ01+000000PRSWM2
0252673230999992000030109004-23870+035380SY-MT+0015FQIN V0201801N002110360019N0200001N1+03121+02271101211ADDGA1021+006009999GA2021+030009999GF105991041021008001031001MA1101191999999MD1810051+9999MW1001REMSYN070AAXX  01094 67323 42570 51804 10312 20227 40121 58005 84230 333 94320;MET052FQIN 010900Z 18004KT 9999 SCT020 SCT100 31/23 Q1012;EQDQ01+000000PRSWM2
0256673230999992000030112004-23870+035380SY-MT+0015FQIN V0200901N002112200019N0300001N1+03101+02281100981ADDAA199000091GA1021+006009999GF104991041021008001001001MA1101021999999MD1710231+9999MW1001REMSYN070AAXX  01124 67323 32580 40904 10310 20228 40098 57023 84200 333 94320;MET045FQIN 011200Z 09004KT 9999 SCT020 31/23 Q1010;EQDQ01+000000PRSWM2Q02  00002PRCP99
0139673230999992000030113004-23870+035380FM-15+0015FQIN V0201601N002612200019N0112651N1+03101+02301999999ADDGA1021+006009999GF104991999999999999999999MA1100911999999MW1001REMMET045FQIN 011300Z 16005KT 9999 SCT020 31/23 Q1009;EQDQ01+000000PRSWM2
0308673230999992000030206004-23870+035380SY-MT+0015FQIN V0201901N001512200019N0300001N1+02751+02321101171ADDAA199000091GA1021+006009999GF104991041021008001001001KA1120N+02251MA1101081999999MD1210121+9999MW1001OA150601001REMSYN098AAXX  02064 67323 32580 41903 10275 20232 40117 52012 84200 333 20225 50/// 55107 94320 555 10001;MET045FQIN 020600Z 19003KT 9999 SCT020 28/23 Q1011;EQDQ01+000000PRSWM2Q02  00002PRCP99
0139673230999992000030207004-23870+035380FM-15+0015FQIN V0202201N001010060019N0112651N1+02901+02501999999ADDGA1071+006009999GF107991999999999999999999MA1101081999999MW1001REMMET045FQIN 020700Z 22002KT 9999 BKN020 29/25 Q1011;EQDQ01+000000PRSWM2
0139673230999992000030208004-23870+035380FM-15+0015FQIN V0209999C000010060019N0112651N1+02901+02501999999ADDGA1071+006009999GF107991999999999999999999MA1101191999999MW1001REMMET045FQIN 020800Z 00000KT 9999 BKN020 29/25 Q1012;EQDQ01+000000PRSWM2
0229673230999992000030209004-23870+035380SY-MT+0015FQIN V0209999C000010060019N0300001N1+02941+02551101171ADDGA1071+006009999GF105991051021008001001001MA1101081999999MD1010001+9999MW1001REMSYN070AAXX  02094 67323 42580 50000 10294 20255 40117 50000 85200 333 94320;MET045FQIN 020900Z 00000KT 9999 BKN020 29/26 Q1011;EQDQ01+000000PRSWM2
0139673230999992000030212004-23870+035380FM-15+0015FQIN V0201601N005112200019N0112651N1+03001+02301999999ADDGA1021+006009999GF104991999999999999999999MA1101021999999MW1001REMMET045FQIN 021200Z 16010KT 9999 SCT020 30/23 Q1010;EQDQ01+000000PRSWM2
0191673230999992000030306004-23870+035380FM-12+0015FQIN V0202201N001012200019N0300001N1+02741+02431101241ADDAA124000891GF104991041021008001001001KA1120N+02281MD1210141+9999OA150600901REMSYN104AAXX  03064 67323 12580 42202 10274 20243 40124 52014 69974 84200 333 20228 50/// 55099 94320 555 10000;
0139673230999992000030307004-23870+035380FM-15+0015FQIN V0201201N001012200019N0112651N1+02901+02401999999ADDGA1021+006009999GF104991999999999999999999MA1101191999999MW1001REMMET045FQIN 030700Z 12002KT 9999 SCT020 29/24 Q1012;EQDQ01+000000PRSWM2
0229673230999992000030309004-23870+035380SY-MT+0015FQIN V0201801N002112200019N0300001N1+03091+02291101251ADDGA1021+006009999GF104991041021008001001001MA1101191999999MD1010011+9999MW1001REMSYN070AAXX  03094 67323 42580 41804 10309 20229 40125 50001 84200 333 94320;MET045FQIN 030900Z 18004KT 9999 SCT020 31/23 Q1012;EQDQ01+000000PRSWM2
0308673230999992000030506004-23870+035380SY-MT+0015FQIN V0202201N002612200019N0300001N1+02741+02431101381ADDAA199000091GA1021+006009999GF103991031021008001001001KA1120N+02331MA1101391999999MD1210161+9999MW1001OA150601001REMSYN098AAXX  05064 67323 32580 32205 10274 20243 40138 52016 83200 333 20233 50/// 55108 94320 555 10000;MET045FQIN 050600Z 22005KT 9999 SCT020 27/24 Q1014;EQDQ01+000000PRSWM2Q02  00002PRCP99
0245673230999992000030509004-23870+035380SY-MT+0015FQIN V0209999C00001006001CN0300001N1+03131+02281101311ADDGA1071+006009999GF199999051021008001001001MA1101291999999MD1810071+9999MW1001REMSYN070AAXX  05094 67323 42580 50000 10313 20228 40131 58007 85200 333 94320;MET045FQIN 050900Z 00000KT 9999 BKN020 31/23 Q1013;EQDQ01+000052SCOTCVQ02+000000PRSWM2
0256673230999992000030512004-23870+035380SY-MT+0015FQIN V0200801N002612200019N0300001N1+03231+02381101071ADDAA199000091GA1021+006009999GF104991041021008001001001MA1101021999999MD1710241+9999MW1001REMSYN070AAXX  05124 67323 32580 40805 10323 20238 40107 57024 84200 333 94320;MET045FQIN 051200Z 08005KT 9999 SCT020 32/24 Q1010;EQDQ01+000000PRSWM2Q02  00002PRCP99
0139673230999992000030513004-23870+035380FM-15+0015FQIN V0200801N002612200019N0112651N1+03101+02301999999ADDGA1021+006009999GF102991999999999999999999MA1101021999999MW1001REMMET045FQIN 051300Z 08005KT 9999 FEW020 31/23 Q1010;EQDQ01+000000PRSWM2
0308673230999992000030606004-23870+035380SY-MT+0015FQIN V0201801N002112200019N0300001N1+02771+02421101181ADDAA199000091GA1021+006009999GF104991041021008001001001KA1120N+02301MA1101191999999MD1210121+9999MW1001OA150600901REMSYN098AAXX  06064 67323 32580 41804 10277 20242 40118 52012 84200 333 20230 50/// 55091 94320 555 10000;MET045FQIN 060600Z 18004KT 9999 SCT020 28/24 Q1012;EQDQ01+000000PRSWM2Q02  00002PRCP99
0254673230999992000030609004-23870+035380SY-MT+0015FQIN V0200901N00101220001CN0300001N1+02921+02351101141ADDGA1071+006009999GA2021+007509099GF106991061091008001001001MA1101081999999MD1810041+9999MW1001REMSYN070AAXX  06094 67323 42580 60902 10292 20235 40114 58004 86900 333 94390;MET054FQIN 060900Z 09002KT 9999 BKN020 FEW025CB 29/24 Q1011;EQDQ01+000000PRSWM2
0326673230999992000030612004-23870+035380SY-MT+0015FQIN V0202701N005110060019N0080001N1+02671+02451101061ADDAA106004191AY181061AY261061GA1071+006009999GA2021+007509099GA3071+030009999GF107991061091008001071999MA1101021999999MD1710081+9999MW1601MW2611REMSYN082AAXX  06124 67323 11558 72710 10267 20245 40106 57008 60041 76086 8697/ 333 94390;MET065FQIN 061200Z 27010KT 8000 -RA BKN020 FEW025CB BKN100 27/25 Q1010;EQDQ01    003PRSWM1
0187673230999992000030613004-23870+035380FM-15+0015FQIN V0200901N003110060019N0112651N1+02701+02501999999ADDGA1071+006009999GA2021+007509099GA3071+030009999GF107991999999999999999999MA1100911999999MW1001REMMET061FQIN 061300Z 09006KT 9999 BKN020 FEW025CB BKN100 27/25 Q1009;EQDQ01+000000PRSWM2
0139673230999992000030615004-23870+035380FM-15+0015FQIN V0201601N005112200019N0112651N1+02901+02501999999ADDGA1021+006009999GF104991999999999999999999MA1100911999999MW1001REMMET045FQIN 061500Z 16010KT 9999 SCT020 29/25 Q1009;EQDQ01+000000PRSWM2
0108673230999992000030703004-23870+035380FM-12+0015FQIN V0201801N004110075019N0300001N1+02381+02261101021ADDGF105991051051008001001001REMSYN070AAXX  07034 67323 42580 51808 10238 20226 40102 5//// 85500 333 94350;
0197673230999992000030706004-23870+035380FM-12+0015FQIN V0202301N002610075019N0300001N1+02581+02331101101ADDAA124004191GF106991061051008001001001KA1120N+02171MD1210081+9999OA150600501REMSYN110AAXX  07064 67323 12580 62305 10258 20233 40110 52008 60044 86500 333 20217 50/// 55056 94380 555 00038 10000;
0139673230999992000030708004-23870+035380FM-15+0015FQIN V0202701N002110075019N0112651N1+02901+02401999999ADDGA1071+007509999GF107991999999999999999999MA1101081999999MW1001REMMET045FQIN 070800Z 27004KT 9999 BKN025 29/24 Q1011;EQDQ01+000000PRSWM2
0245673230999992000030709004-23870+035380SY-MT+0015FQIN V0202401N00311006001CN0300001N1+03001+02471101131ADDGA1071+006009999GF199999061081008001001001MA1101081999999MD1010031+9999MW1001REMSYN070AAXX  07094 67323 42580 62406 10300 20247 40113 50003 86800 333 94380;MET045FQIN 070900Z 24006KT 9999 BKN020 30/25 Q1011;EQDQ01+000062SCOTCVQ02+000000PRSWM2
0161673230999992000030712004-23870+035380FM-12+0015FQIN V0201801N005110120019N0150001N1+02641+02161101041ADDAA106006191AY161061AY221061GF107991071081008001999999MD1710091+9999MW1211REMSYN076AAXX  07124 67323 11565 71810 10264 20216 40104 57009 60061 72162 878// 333;
0284673230999992000030713004-23870+035380SY-MT+0015FQIN V0201801N005110120019N0150001N1+02641+02161101041ADDAA106006191AY161011AY221011GA1021+006009999GF107991071081008001999999MA1101021999999MD1710091+9999MW1211REMSYN082AAXX  07134 67323 11565 71810 10264 20216 40104 57009 60061 72162 878// 333 94320;MET045FQIN 071300Z 18010KT 9999 SCT020 28/24 Q1010;EQDQ01+000000PRSWM2Q02    003PRSWM1
0122673230999992000030715004-23870+035380FM-12+0015FQIN V0201801N005110120019N0300001N1+02661+02301101001ADDGF107991071081008001999999MD1510041+9999REMSYN070AAXX  07154 67323 42580 71810 10266 20230 40100 55004 878// 333 94320;
0315673230999992000030815004-23870+035380SY-MT+0015FQIN V0201801N005110300019N0200001N1+02701+02311100911ADDAY161031AY211031GA1021+006009999GA2021+007509099GA3071+030009999GF106991031091008001051001MA1100911999999MD1710061+9999MW1021REMSYN076AAXX  08154 67323 41570 61810 10270 20231 40091 57006 70261 83950 333 94392;MET061FQIN 081500Z 18010KT 9999 SCT020 FEW025CB BKN100 27/23 Q1009;EQDQ01+000000PRSWM2Q02    003PRSWM1
0150673230999992000030821004-23870+035380FM-12+0015FQIN V0201801N005110360019N0200001N1+02701+02311100911ADDAY161031AY211031GF106991031091008001051001MD1710061+9999MW1021REMSYN076AAXX  08214 67323 41570 61810 10270 20231 40091 57006 70261 83950 333 94392;
0231673230999992000030906004-23870+035380SY-MT+0015FQIN V0203601N002610120019N0300001N1+02581+02341101011ADDAA124005191GF107991071081008001999999KA1120N+02151MD1310171+9999MW1001REMSYN098AAXX  09064 67323 12580 73605 10258 20234 40101 53017 60054 878// 333 20215 94384 555 00050 10057;MET026FQIN 090700Z 00000KT QTA/;EQDQ01+000000PRSWM2
0139673230999992000030907004-23870+035380FM-15+0015FQIN V0203601N002610060019N0112651N1+02701+02401999999ADDGA1071+006009999GF107991999999999999999999MA1101021999999MW1001REMMET045FQIN 090700Z 36005KT 9999 BKN020 27/24 Q1010;EQDQ01+000000PRSWM2
0063673230999992000030907004-23870+035380FM-16+0015FQIN V0209999C000012200019N0040001N1+99999+99999999999ADDMW1001REMMET026FQIN 090700Z 00000KT QTA/;EQDQ01+000000PRSWM2
0268673230999992000030909004-23870+035380SY-MT+0015FQIN V0200201N00511006001CN0300001N1+02821+02381101011ADDGA1071+006009999GA2021+030009999GF199999051021008001031001MA1101021999999MD1010001+9999MW1001REMSYN070AAXX  09094 67323 42580 60210 10282 20238 40101 50000 85230 333 94320;MET052FQIN 090900Z 02010KT 9999 BKN020 SCT100 28/24 Q1010;EQDQ01+000062SCOTCVQ02+000000PRSWM2
0279673230999992000030912004-23870+035380SY-MT+0015FQIN V0200301N006212200019N0300001N1+02981+02361100801ADDAA199000091GA1021+006009999GA2021+009009999GF105991051081008001001001MA1100811999999MD1710211+9999MW1001REMSYN070AAXX  09124 67323 32580 50312 10298 20236 40080 57021 85800 333 94320;MET052FQIN 091200Z 03012KT 9999 SCT020 SCT030 30/24 Q1008;EQDQ01+000000PRSWM2Q02  00002PRCP99
0193673230999992000030915004-23870+035380FM-15+0015FQIN V0200801N005110060019N0090001N1+02701+02401999999ADDGA1071+006009999GA2071+007509999GF107991999999999999999999MA1100811999999MW1171MW2611REMMET061FQIN 091500Z 08010KT 9000 -RATS BKN020 BKN025CNB 27/24 Q1008;EQDQ01+000003PRSWM1Q02    003PRSWM1
0217673230999992000031006004-23870+035380FM-12+0015FQIN V0203601N002110075019N0200001N1+02501+02361101001ADDAA124023191AY161061GF107991051021008001071999KA1120N+02201MD1210111+9999MW1021OA150600401REMSYN116AAXX  10064 67323 11570 73604 10250 20236 40100 52011 60234 7026/ 8527/ 333 20220 50/// 55049 94320 555 00227 10050;
0252673230999992000031009004-23870+035380SY-MT+0015FQIN V0200601N00411006001CN0200001N1+02781+02411101071ADDGA1071+006009999GA2071+027009999GF107991051021008001071999MA1101021999999MD1310071+9999MW1001REMSYN070AAXX  10094 67323 42570 70608 10278 20241 40107 53007 8527/ 333 94320;MET052FQIN 100900Z 06008KT 9999 BKN020 BKN090 28/24 Q1010;EQDQ01+000000PRSWM2
0320673230999992000031012004-23870+035380SY-MT+0015FQIN V0203601N00311006001CN0080001N1+02711+02421100851ADDAA106003091AY161061AY221061GA1071+006009999GA2021+007509099GA3071+027009999GF107991051091008001071999MA1100811999999MD1710221+9999MW1611REMSYN082AAXX  10124 67323 11558 73606 10271 20242 40085 57022 60031 76162 8597/ 333 94390;MET065FQIN 101200Z 36006KT 8000 -RA BKN020 FEW025CB BKN090 27/24 Q1008;EQDQ01    003PRSWM1
0187673230999992000031013004-23870+035380FM-15+0015FQIN V0200601N005110060019N0112651N1+02701+02401999999ADDGA1071+006009999GA2021+007509099GA3071+027009999GF107991999999999999999999MA1100811999999MW1001REMMET061FQIN 101300Z 06010KT 9999 BKN020 FEW025CB BKN090 27/24 Q1008;EQDQ01+000000PRSWM2
0167673230999992000031112004-23870+035380FM-12+0015FQIN V0201801N002610075019N0150001N1+02621+02451101161ADDAA106006191AY161061AY261061GF108991061021008001071999MD1710211+9999MW1211REMSYN082AAXX  11124 67323 11565 81805 10262 20245 40116 57021 60061 72166 8627/ 333 94320;
0343673230999992000031206004-23870+035380SY-MT+0015FQIN V0201701N00361006001CN0200001N1+02741+02681101461ADDAA124015091GA1071+006009999GA2071+030009999GF107991051021008001031011KA1120N+02151MA1101391999999MD1210091+9999MW1001OA150699999REMSYN110AAXX  12064 67323 12570 71707 10274 20268 40146 52009 60154 85231 333 20215 50/// 55000 94320 555 00153 10346;MET052FQIN 120600Z 17007KT 9999 BKN020 BKN100 27/27 Q1014;EQDQ01+000000PRSWM2Q02  00002WGOSPD
0162673230999992000031208004-23870+035380FM-15+0015FQIN V0201101N005110060019N0112651N1+02901+02501999999ADDGA1071+006009999GA2071+030009999GF107991999999999999999999MA1101491999999MW1001REMMET052FQIN 120800Z 11010KT 9999 BKN020 BKN100 29/25 Q1015;EQDQ01+000000PRSWM2
0139673230999992000031306004-23870+035380FM-15+0015FQIN V0201701N003110060019N0112651N1+02801+02401999999ADDGA1071+006009999GF107991999999999999999999MA1101291999999MW1001REMMET045FQIN 130600Z 17006KT 9999 BKN020 28/24 Q1013;EQDQ01+000000PRSWM2
0152673230999992000031312004-23870+035380FM-12+0015FQIN V0201601N005110075019N0300001N1+03031+02461101101ADDAA199000091GF106991061021008001001001MD1710151+9999REMSYN070AAXX  13124 67323 32580 61610 10303 20246 40110 57015 86200 333 94320;EQDQ01  00002PRCP99
0139673230999992000031313004-23870+035380FM-15+0015FQIN V0201601N004110060019N0112651N1+03001+02401999999ADDGA1071+006009999GF107991999999999999999999MA1101081999999MW1001REMMET045FQIN 131300Z 16008KT 9999 BKN020 30/24 Q1011;EQDQ01+000000PRSWM2
0361673230999992000031406004-23870+035380SY-MT+0015FQIN V0209999C000010060019N0090001N1+02501+02461101151ADDAA124001091AY191061AY211061GA1071+006009999GA2071+030009999GF107991051021008001031999KA1120N+02301MA1101081999999MD1210071+9999MW1611MW2801OA150600901REMSYN116AAXX  14064 67323 11559 70000 10250 20246 40115 52007 60014 78091 8523/ 333 20230 50/// 55099 94320 555 00010 10000;MET058FQIN 140600Z 00000KT 9000 -RASH BKN020 BKN100 25/25 Q1011;EQDQ01    003PRSWM1
0183673230999992000031407004-23870+035380FM-15+0015FQIN V0209999C000010060019N0090001N1+02601+02401999999ADDGA1071+006009999GA2071+030009999GF107991999999999999999999MA1101081999999MW1811REMMET057FQIN 140700Z 00000KT 9000 SHRA BKN020 BKN100 26/24 Q1011;EQDQ01+000003PRSWM1Q02    003PRSWM1
0315673230999992000031409004-23870+035380SY-MT+0015FQIN V0209999C00001006001CN0200001N1+02721+02421101071ADDAY181031AY211031GA1071+006009999GA2021+007509099GA3071+030009999GF107991051091008001051999MA1101021999999MD1710081+9999MW1021REMSYN076AAXX  14094 67323 41570 70000 10272 20242 40107 57008 70281 8595/ 333 94390;MET061FQIN 140900Z 00000KT 9999 BKN020 FEW025CB BKN100 27/24 Q1010;EQDQ01+000000PRSWM2Q02    003PRSWM1
0162673230999992000031412004-23870+035380FM-15+0015FQIN V0200801N002610060019N0112651N1+02801+02501999999ADDGA1021+003009999GA2071+006009999GF107991999999999999999999MA1100911999999MW1001REMMET052FQIN 141300Z 08005KT 9999 SCT010 BKN020 28/25 Q1009;EQDQ01+000000PRSWM2
0162673230999992000031413004-23870+035380FM-15+0015FQIN V0200801N002610060019N0112651N1+02801+02501999999ADDGA1021+003009999GA2071+006009999GF107991999999999999999999MA1100911999999MW1001REMMET052FQIN 141300Z 08005KT 9999 SCT010 BKN020 28/25 Q1009;EQDQ01+000000PRSWM2
0308673230999992000031415004-23870+035380SY-MT+0015FQIN V0200201N005110030019N0060001N1+02401+02261101011ADDAY151031AY221031GA1071+003009999GA2021+007509099GA3081+027009999GF108991061091004501071999MA1101021999999MD1310101+9999MW1611MW2631REMSYN076AAXX  14154 67323 41456 80210 10240 20226 40101 53010 76152 8697/ 333 94398;MET064FQIN 141500Z 02010KT 6000 RA BKN010 SCT025CB OVC090 24/23 Q1010;EQDQ01    003PRSWM1
0184673230999992000031506004-23870+035380FM-12+0015FQIN V0209999C000010075019N0300001N1+02701+02421101091ADDAA124014091GF107991051021008001071999MD1210051+9999OA150600001REMSYN110AAXX  15064 67323 12580 70000 10270 20242 40109 52005 60144 8527/ 333 20/// 50/// 55000 94320 555 00140 10010;
0328673230999992000031512004-23870+035380SY-MT+0015FQIN V0200601N00511220001CN0090001N1+02421+02391100991ADDAA106009991AY181061AY281061GA1071+003009999GA2081+006009999GA3021+007509099GF108991081091004501999999MA1101021999999MD1710131+9999MW1821MW2951REMSYN082AAXX  15124 67323 11459 80610 10242 20239 40099 57013 60101 79588 889// 333 94398;MET067FQIN 151200Z 36010KT 9000 +SHRA BKN010 OVC020 FEW025CB 24/24 Q1010;EQDQ01    003PRSWM1
0187673230999992000031513004-23870+035380FM-15+0015FQIN V0203601N00411007501CN0112651N1+02501+02401999999ADDGA1021+006009099GA2071+006009999GA3081+007509999GF108991999999999999999999MA1100911999999MW1001REMMET061FQIN 151300Z 36008KT 9999 BKN020 FEW020CB OVC025 25/24 Q1009;EQDQ01+000000PRSWM2
0252673230999992000031515004-23870+035380SY-MT+0015FQIN V0209999C00001006001CN0200001N1+02501+02371100971ADDGA1071+006009999GA2081+007509999GF108991081081008001999999MA1100911999999MD1510021+9999MW1001REMSYN070AAXX  15154 67323 42570 80000 10250 20237 40097 55002 888// 333 94380;MET052FQIN 151500Z 00000KT 9999 BKN020 OVC025 25/24 Q1009;EQDQ01+000000PRSWM2
0122673230999992000032009004-23870+035380FM-12+0015FQIN V0200301N000510075019N0300001N1+03141+02571101451ADDGF105991051021008001001001MD1010111+9999REMSYN070AAXX  20094 67323 42580 50301 10314 20257 40145 50011 85200 333 94382;
0197673230999992000032106004-23870+035380FM-12+0015FQIN V0201901N001512200019N0300001N1+02611+02331101621ADDAA124006191GF103991021011008001001011KA1120N+02191MD1210121+9999OA150600701REMSYN110AAXX  21064 67323 12580 31903 10261 20233 40162 52012 60064 82101 333 20219 50/// 55077 94310 555 00060 10000;
0139673230999992000032107004-23870+035380FM-15+0015FQIN V0201901N002112200019N0112651N1+02801+02401999999ADDGA1021+006009999GF104991999999999999999999MA1101591999999MW1001REMMET045FQIN 210700Z 19004KT 9999 SCT020 28/24 Q1016;EQDQ01+000000PRSWM2
0229673230999992000032109004-23870+035380SY-MT+0015FQIN V0202701N001512200019N0300001N1+02961+02481101581ADDGA1021+006009999GF103991031021008001001001MA1101591999999MD1710041+9999MW1001REMSYN070AAXX  21094 67323 42580 32703 10296 20248 40158 57004 83200 333 94320;MET045FQIN 210900Z 27008KT 9999 SCT020 32/25 Q1016;EQDQ01+000000PRSWM2
0256673230999992000032112004-23870+035380SY-MT+0015FQIN V0201801N002112200019N0300001N1+03091+02461101401ADDAA199000091GA1021+006009999GF104991041021008001001001MA1101391999999MD1710181+9999MW1001REMSYN070AAXX  21124 67323 32580 41804 10309 20246 40140 57018 84200 333 94320;MET045FQIN 211200Z 18004KT 9999 SCT020 31/25 Q1014;EQDQ01+000000PRSWM2Q02  00002PRCP99
0245673230999992000032115004-23870+035380SY-MT+0015FQIN V0201701N00261006001CN0300001N1+02841+02351101391ADDGA1071+006009999GF199999061021008001001011MA1101391999999MD1510011+9999MW1001REMSYN070AAXX  21154 67323 42580 61705 10284 20235 40139 55001 86201 333 94320;MET045FQIN 211500Z 17005KT 9999 BKN020 28/24 Q1014;EQDQ01+000062SCOTCVQ02+000000PRSWM2
0308673230999992000032206004-23870+035380SY-MT+0015FQIN V0201801N001512200019N0300001N1+02681+02441101661ADDAA199000091GA1021+006009999GF103991011011008001001021KA1120N+02301MA1101591999999MD1210141+9999MW1001OA150600801REMSYN098AAXX  22064 67323 32580 31803 10268 20244 40166 52014 81102 333 20230 50/// 55087 94310 555 10060;MET045FQIN 220600Z 18003KT 9999 FEW020 27/24 Q1016;EQDQ01+000000PRSWM2Q02  00002PRCP99
0162673230999992000032207004-23870+035380FM-15+0015FQIN V0201901N001519999999N0112651N1+02801+02501999999ADDGA1021+006009999GA2071+999999999GF107991999999999999999999MA1101591999999MW1001REMMET052FQIN 220700Z 19003KT 9999 FEW020 BKN/// 28/25 Q1016;EQDQ01+000000PRSWM2
0255673230999992000032209004-23870+035380SY-MT+0015FQIN V0209999C00001220001CN0300001N1+03021+02471101601ADDGA1071+006009999GA2021+007509029GF106991051031008001001021MA1101591999999MD1710061+9999MW1001REMSYN070AAXX  22094 67323 42580 60000 10302 20247 40160 57006 85302 333 94320;MET055FQIN 220900Z 00000KT 9999 BKN020 FEW025TCU 30/25 Q1016;EQDQ01+000000PRSWM2
0167673230999992000032212004-23870+035380FM-12+0015FQIN V0200801N002610075019N0300001N1+03061+02331101451ADDAA106000391AY181061AY211061GF106991051021008001001021MD1810151+9999MW1021REMSYN082AAXX  22124 67323 12580 60805 10306 20233 40145 58015 69931 70281 85202 333 94320;
0141673230999992000032215004-23870+035380FM-12+0015FQIN V0201601N003612200019N0300001N1+02261+02251101511ADDGF104991999021008001001001MD1210061+9999REMSYN070AAXX  22154 67323 42580 41607 10226 20225 40151 52006 82200 333 94320;EQDQ01+000022SCOTLC
0122673230999992000032309004-23870+035380FM-12+0015FQIN V0209999C000012200019N0300001N1+02911+02381101561ADDGF104991041021008001001011MD1810021+9999REMSYN070AAXX  23094 67323 42580 40000 10291 20238 40156 58002 84201 333 94320;
0152673230999992000032312004-23870+035380FM-12+0015FQIN V0201801N003610900019N0300001N1+03081+02311101381ADDAA199000091GF105991041021008001001021MD1710181+9999REMSYN070AAXX  23124 67323 32580 51807 10308 20231 40138 57018 84202 333 94320;EQDQ01  00002PRCP99
0122673230999992000032409004-23870+035380FM-12+0015FQIN V0201801N002610075019N0300001N1+03101+02311101431ADDGF105991051021008001001001MD1010001+9999REMSYN070AAXX  24094 67323 42580 51805 10310 20231 40143 50000 85200 333 94320;
0152673230999992000032412004-23870+035380FM-12+0015FQIN V0201601N002612200019N0300001N1+03091+02311101261ADDAA199000091GF104991041021008001001001MD1710171+9999REMSYN070AAXX  24124 67323 32580 41605 10309 20231 40126 57017 84200 333 94320;EQDQ01  00002PRCP99
0139673230999992000032413004-23870+035380FM-15+0015FQIN V0201701N002612200019N0112651N1+03001+02201999999ADDGA1021+006009999GF104991999999999999999999MA1101191999999MW1001REMMET045FQIN 241300Z 17005KT 9999 SCT020 30/22 Q1012;EQDQ01+000000PRSWM2
0318673230999992000032506004-23870+035380SY-MT+0015FQIN V0209999C000012200019N0300001N1+02661+02331101421ADDAA199000091GA1021+006009999GF199999011011008001001001KA1120N+02201MA1101391999999MD1110091+9999MW1001OA150601101REMSYN092AAXX  25064 67323 32580 10000 10266 20233 40142 51009 81100 333 20220 55111 94314 555 10000;MET045FQIN 250600Z 00000KT 9999 FEW020 27/23 Q1014;EQDQ01+000012SCOTCVQ02+000000PRSWM2Q03  00002PRCP99
0272673230999992000032512004-23870+035380SY-MT+0015FQIN V0201801N00261006001CN0300001N1+03261+02401101211ADDAA199000091GA1071+006009999GF199999051021008001001001MA1101191999999MD1710171+9999MW1001REMSYN070AAXX  25124 67323 32580 51805 10326 20240 40121 57017 85200 333 94320;MET045FQIN 251200Z 18005KT 9999 BKN020 33/24 Q1012;EQDQ01+000052SCOTCVQ02+000000PRSWM2Q03  00002PRCP99
0139673230999992000032513004-23870+035380FM-15+0015FQIN V0201001N002112200019N0112651N1+03101+02301999999ADDGA1021+006009999GF104991999999999999999999MA1101081999999MW1001REMMET045FQIN 251300Z 10004KT 9999 SCT020 31/23 Q1011;EQDQ01+000000PRSWM2
0149673230999992000032515004-23870+035380FM-12+0015FQIN V0201501N002610075019N0090001N1+02661+02461101281ADDAY121031AY211031GF106991061091008001001001MD1210071+9999MW1951REMSYN075AAXX  25154 67323 42559 61505 10266 20246 40128 52007 79521 86900 333 4320;
0197673230999992000032606004-23870+035380FM-12+0015FQIN V0209999C000012200019N0300001N1+02701+02441101301ADDAA124006191GF103991031021008001001001KA1120N+02241MD1210051+9999OA150600901REMSYN110AAXX  26064 67323 12580 30000 10270 20244 40130 52005 60064 83200 333 20224 50/// 55091 94320 555 00061 10000;
0139673230999992000032607004-23870+035380FM-15+0015FQIN V0203401N001512200019N0112651N1+02801+02501999999ADDGA1021+007509999GF104991999999999999999999MA1101291999999MW1001REMMET045FQIN 260700Z 34003KT 9999 SCT025 28/25 Q1013;EQDQ01+000000PRSWM2
0139673230999992000032608004-23870+035380FM-15+0015FQIN V0203401N001510075019N0112651N1+02901+02501999999ADDGA1071+007509999GF107991999999999999999999MA1101291999999MW1001REMMET045FQIN 260800Z 34003KT 9999 BKN025 29/25 Q1013;EQDQ01+000000PRSWM2
0152673230999992000032612004-23870+035380FM-12+0015FQIN V0203601N001510075019N0300001N1+03131+02441101121ADDAA199000091GF105991051091008001001001MD1710121+9999REMSYN070AAXX  26124 67323 32580 53603 10313 20244 40112 57012 85900 333 94390;EQDQ01  00002PRCP99
0308673230999992000032706004-23870+035380SY-MT+0015FQIN V0202201N001512200019N0300001N1+02561+02351101411ADDAA199000091GA1021+006009999GF103991031021008001001011KA1120N+02241MA1101391999999MD1210111+9999MW1001OA150600901REMSYN098AAXX  27064 67323 32580 32203 10256 20235 40141 52011 83201 333 20224 50/// 55094 94320 555 10061;MET045FQIN 270600Z 02003KT 9999 SCT020 26/24 Q1014;EQDQ01+000000PRSWM2Q02  00002PRCP99
0204673230999992000032709004-23870+035380FM-12+0015FQIN V0202201N001512200019N0300001N1+02561+02351101411ADDAA199000091GF103991031021008001001011KA1120N+02241MD1210111+9999OA150300901REMSYN098AAXX  27094 67323 32580 32203 10256 20235 40141 52011 83201 333 20224 50/// 55094 94320 555 10061;EQDQ01  00002PRCP99
0152673230999992000032712004-23870+035380FM-12+0015FQIN V0202401N002110075019N0300001N1+03201+02421101141ADDAA199000091GF106991061021008001001001MD1810261+9999REMSYN070AAXX  27124 67323 32580 62404 10320 20242 40114 58026 86200 333 94320;EQDQ01  00002PRCP99
0139673230999992000032714004-23870+035380FM-15+0015FQIN V0201601N002110060019N0112651N1+02901+02401999999ADDGA1071+006009999GF107991999999999999999999MA1101081999999MW1001REMMET045FQIN 271400Z 16004KT 9999 BKN020 29/24 Q1011;EQDQ01+000000PRSWM2
0191673230999992000032806004-23870+035380FM-12+0015FQIN V0202701N004110042019N0300001N1+02481+02361101321ADDAA124003091GF105991051021004501001001KA1120N+02101MD1210091+9999OA150600601REMSYN104AAXX  28064 67323 12480 52708 10248 20236 40132 52009 60034 85200 333 20210 55069 94326 555 00027 10000;
0139673230999992000032808004-23870+035380FM-15+0015FQIN V0202401N003112200019N0112651N1+02901+02501999999ADDGA1021+006009999GF104991999999999999999999MA1101291999999MW1001REMMET045FQIN 280800Z 24006KT 9999 SCT020 29/25 Q1013;EQDQ01+000000PRSWM2
0122673230999992000032809004-23870+035380FM-12+0015FQIN V0202701N003112200019N0300001N1+03011+02351101331ADDGF103991031021008001001001MD1010011+9999REMSYN070AAXX  28094 67323 42580 32706 10301 20235 40133 50001 83200 333 94320;
0292673230999992000032815004-23870+035380SY-MT+0015FQIN V0201501N003110075019N0200001N1+02741+02441101191ADDAY181031AY221031GA1021+006009999GA2021+007509099GF106991061091008001001001MA1101291999999MD1310051+9999MW1251REMSYN076AAXX  28154 67323 41570 61506 10274 20244 40119 53005 72582 86900 333 94390;MET054FQIN 281500Z 15006KT 9999 SCT020 FEW025CB 30/20 Q1013;EQDQ01+000000PRSWM2Q02    003PRSWM1
0368673230999992000032906004-23870+035380SY-MT+0015FQIN V0201801N00211006001CN0200001N1+02601+02471101551ADDAA124005191GA1071+006009999GA2071+007509999GA3021+009009099GF107991071091008001999999KA1120N+02221MA1101491999999MD1210171+9999MW1001OA150699999REMSYN110AAXX  29064 67323 11570 71804 10260 20247 40155 52017 60054 879// 333 20222 50/// 55026 94393 555 00051 10000;MET061FQIN 290600Z 18004KT 9999 BKN020 BKN025 FEW030CB 26/25 Q1015;EQDQ01+000000PRSWM2Q02  00202WGOSPD
0296673230999992000032909004-23870+035380SY-MT+0015FQIN V0200201N00151006001CN0090001N1+02451+02321101591ADDAY191031AY221031GA1071+006009999GA2021+007509099GF108991081091008001999999MA1101591999999MD1010041+9999MW1611MW2951REMSYN076AAXX  29094 67323 41559 80203 10245 20232 40159 50004 79592 889// 333 94398;MET068FQIN 290900Z 02003KT 9000 -RATS BKN020 SCT025CB 25/24 Q1016 CB TO S;EQDQ01    003PRSWM1
0167673230999992000032912004-23870+035380FM-12+0015FQIN V0201801N002110075019N0090001N1+02561+02471101451ADDAA106037191AY191061AY291061GF108991081091008001999999MD1710141+9999MW1951REMSYN082AAXX  29124 67323 11559 81804 10256 20247 40145 57014 60371 79599 889// 333 94398;
0162673230999992000032913004-23870+035380FM-15+0015FQIN V0201801N002110060019N0112651N1+02701+02401999999ADDGA1071+006009999GA2081+030009999GF108991999999999999999999MA1101391999999MW1001REMMET052FQIN 291300Z 18004KT 9999 BKN020 OVC100 27/24 Q1014;EQDQ01+000000PRSWM2
0321673230999992000033006004-23870+035380SY-MT+0015FQIN V0201401N002612200019N0300001N1+02791+02281101641ADDAA124037191GA1021+006009999GF104991041021008001001001KA1120N+02161MA1101591999999MD1210111+9999MW1001OA150699999REMSYN110AAXX  30064 67323 12580 41405 10279 20228 40164 52011 60374 84200 333 20216 50/// 55004 94320 555 00374 10051;MET046FQIN 300600Z 15005KT 9999 SCT020 28/235 Q1016;EQDQ01+000000PRSWM2Q02  00002WGOSPD
0139673230999992000033008004-23870+035380FM-15+0015FQIN V0200901N002112200019N0112651N1+02901+02101999999ADDGA1021+006009999GF104991999999999999999999MA1101591999999MW1001REMMET045FQIN 300800Z 09004KT 9999 SCT020 29/21 Q1016;EQDQ01+000000PRSWM2
0229673230999992000033009004-23870+035380SY-MT+0015FQIN V0201001N002612200019N0300001N1+02981+02101101601ADDGA1021+006009999GF104991041021008001001001MA1101591999999MD1810041+9999MW1001REMSYN070AAXX  30094 67323 42580 41005 10298 20210 40160 58004 84200 333 94320;MET045FQIN 300900Z 10005KT 9999 SCT020 29/21 Q1016;EQDQ01+000000PRSWM2
0139673230999992000033012004-23870+035380FM-15+0015FQIN V0200901N003110060019N0112651N1+02901+02501999999ADDGA1071+006009999GF107991999999999999999999MA1101391999999MW1001REMMET045FQIN 301200Z 09006KT 9999 BKN020 29/25 Q1014;EQDQ01+000000PRSWM2
0139673230999992000033013004-23870+035380FM-15+0015FQIN V0200901N004610060019N0112651N1+02801+02101999999ADDGA1071+006009999GF107991999999999999999999MA1101291999999MW1001REMMET045FQIN 301300Z 09009KT 9999 BKN020 28/21 Q1013;EQDQ01+000000PRSWM2
0245673230999992000033015004-23870+035380SY-MT+0015FQIN V0201101N002612200019N0300001N1+02761+02141101241ADDGA1021+006009999GF199999011011008001001001MA1101191999999MD1710161+9999MW1001REMSYN070AAXX  30154 67323 42580 11105 10276 20214 40124 57016 81100 333 94310;MET045FQIN 301500Z 11005KT 9999 FEW020 28/21 Q1012;EQDQ01+000012SCOTCVQ02+000000PRSWM2
0308673230999992000033106004-23870+035380SY-MT+0015FQIN V0209999C000012200019N0300001N1+02761+02411101301ADDAA199000091GA1021+006009999GF103991031021008001001001KA1120N+02151MA1101291999999MD1310131+9999MW1001OA150600801REMSYN098AAXX  31064 67323 32580 30000 10276 20241 40130 53013 83200 333 20215 50/// 55080 94320 555 10374;MET045FQIN 310600Z 00000KT 9999 SCT020 28/24 Q1013;EQDQ01+000000PRSWM2Q02  00002PRCP99
0252673230999992000033109004-23870+035380SY-MT+0015FQIN V0209999C000010360019N0300001N1+03071+02321101331ADDGA1021+006009999GA2021+030009999GF105991041021008001031001MA1101291999999MD1010031+9999MW1001REMSYN070AAXX  31094 67323 42580 50000 10307 20232 40133 50003 84230 333 94320;MET052FQIN 310900Z 00000KT 9999 SCT020 SCT100 31/23 Q1013;EQDQ01+000000PRSWM2
0225673230999992000033112004-23870+035380FM-15+0015FQIN V0201701N002610060019N0090001N1+02801+02001999999ADDGA1071+006009999GA2021+007509099GA3071+030009999GF107991999999999999999999MA1101391999999MW1171MW2611REMMET077FQIN 311200Z 17005KT 9000 -RATS BKN020 SCT025CB BKN100 28/20 Q1014 CB TO V/D;EQDQ01+000003PRSWM1Q02    003PRSWM1
0152673230999992000033113004-23870+035380FM-15+0015FQIN V0201701N00261220001CN0112651N1+02401+02301999999ADDGA1071+006009999GA2021+030009999MA1101291999999MW1001REMMET052FQIN 311300Z 17005KT 9999 BKN020 SCT100 24/23 Q1013;EQDQ01+000042SCOTCVQ02+000000PRSWM2
0306673230999992000033115004-23870+035380SY-MT+0015FQIN V0201701N00511006001CN0200001N1+02461+02111101311ADDAY191031AY221031GA1071+006009999GA2021+030009999GF199999051021008001031001MA1101291999999MD1610071+9999MW1021REMSYN076AAXX  31154 67323 41570 61710 10246 20211 40131 56007 70292 85230 333 94320;MET052FQIN 311500Z 17010KT 9999 BKN020 SCT100 25/21 Q1013;EQDQ01+000062SCOTCVQ02+000000PRSWM2Q03    003PRSWM1
0351673230999992000040106004-23870+035380SY-MT+0015FQIN V0201701N00151006001CN0200001N1+02421+02121101751ADDAA124006191AY151061GA1071+006009999GA2071+007509999GF107991071081008001999999KA1120N+02051MA1101691999999MD1210041+9999MW1031OA150600601REMSYN110AAXX  01064 67323 11570 71703 10242 20212 40175 52004 60064 7035/ 878// 333 20205 50/// 55066 555 00064 10000;MET052FQIN 010600Z 17003KT 9999 BKN020 BKN025 24/21 Q1017;EQDQ01+000000PRSWM2Q02    003PRSWM1
0144673230999992000040109004-23870+035380FM-12+0015FQIN V0201601N003110120019N0200001N1+02711+02161101741ADDAY181031AY221031GF106991061081008001001001MD1710011+9999MW1251REMSYN070AAXX  01094 67323 41570 61606 10271 20216 40174 57001 72582 86800 333;
0290673230999992000040112004-23870+035380SY-MT+0015FQIN V0201501N00211006001CN0200001N1+02761+02281101631ADDAA124004191AY181061AY221061GA1071+006009999GF199999061021008001001001MA1101591999999MD1710111+9999MW1021REMSYN072AAXX  01124 67323 11570 61504 10276 20228 40163 57011 60044 70282 86200;MET045FQIN 011200Z 15004KT 9999 BKN020 28/23 Q1016;EQDQ01+000062SCOTCVQ02+000000PRSWM2Q03    003PRSWM1
0139673230999992000040113004-23870+035380FM-15+0015FQIN V0201501N003110060019N0112651N1+02801+02101999999ADDGA1071+006009999GF107991999999999999999999MA1101591999999MW1001REMMET045FQIN 011300Z 15006KT 9999 BKN020 28/21 Q1016;EQDQ01+000000PRSWM2
0377673230999992000040206004-23870+035380SY-MT+0015FQIN V0201701N00211006001CN0200001N1+02501+02241101761ADDAA124005191AY151061AY221061GA1021+003009999GA2071+006009999GF199999061021004501001001KA1120N+02051MA1101691999999MD1210131+9999MW1201OA150600501REMSYN112AAXX  02064 67323 11470 61704 10250 20224 40176 52013 60054 72052 86200 333 20205 50/// 55051 555 00046 100064 ;MET052FQIN 020600Z 17004KT 9999 SCT010 BKN020 25/22 Q1017;EQDQ01+000062SCOTCVQ02+000000PRSWM2Q03    003PRSWM1
0067673230999992000040208004-23870+035380FM-15+0015FQIN V0201901N002112200019N0112651N1+99999+99999999999ADDMW1001REMMET030FQIN 020800Z 19004KT 9999 BKN;EQDQ01+000000PRSWM2
0112673230999992000040209004-23870+035380FM-12+0015FQIN V0201701N002610075019N0300001N1+02901+02221101761ADDGF106991061021008001001001MD1010001+9999REMSYN060AAXX  02094 67323 42580 61705 10290 20222 40176 50000 86200;
0250673230999992000040212004-23870+035380SY-MT+0015FQIN V0201601N00411006001CN0300001N1+02951+02201101601ADDAA199000021GA1071+006009999GF199999061021008001001001MA1101591999999MD1710161+9999MW1001REMSYN064AAXX  02124 67323 32580 61608 10295 20220 40160 57016 86200 333;MET045FQIN 021200Z 16008KT 9999 BKN020 30/22 Q1016;EQDQ01+000062SCOTCVQ02+000000PRSWM2
0302673230999992000040306004-23870+035380SY-MT+0015FQIN V0201801N001512200019N0300001N1+02621+02311101531ADDAA199000091GA1021+006009999GF103991031021008001001001KA1120N+02211MA1101491999999MD1210111+9999MW1001OA150600601REMSYN092AAXX  03064 67323 32580 31803 10262 20231 40153 52011 83200 333 20221 50/// 55064 555 10046;MET045FQIN 030600Z 18003KT 9999 SCT020 27/23 Q1015;EQDQ01+000000PRSWM2Q02  00002PRCP99
0219673230999992000040309004-23870+035380SY-MT+0015FQIN V0201801N002610060019N0300001N1+03011+02201101491ADDGA1071+006009999GF105991051021008001001001MA1101491999999MD1810041+9999MW1001REMSYN060AAXX  03094 67323 42580 51805 10301 20220 40149 58004 85200;MET045FQIN 030900Z 18005KT 9999 BKN020 30/22 Q1015;EQDQ01+000000PRSWM2
0139673230999992000040310004-23870+035380FM-15+0015FQIN V0201801N003110060019N0112651N1+03001+02201999999ADDGA1071+006009999GF107991999999999999999999MA1101391999999MW1001REMMET045FQIN 031000Z 18006KT 9999 BKN020 30/22 Q1014;EQDQ01+000000PRSWM2
0256673230999992000040312004-23870+035380SY-MT+0015FQIN V0201501N00311220001CN0300001N1+03021+02321101301ADDAA199000091GA1071+004509999GA2021+006009099GF105991051021008001001001MD1710191+9999MW1001REMSYN060AAXX  03124 67323 32580 51506 10302 20232 40130 57019 85200;MET054FQIN 031200Z 14013KT 9999 BKN015 FEW020CB 24/16 Q1020;EQDQ01+000000PRSWM2Q02  00002PRCP99
0139673230999992000040313004-23870+035380FM-15+0015FQIN V0201601N003112200019N0112651N1+03001+02301999999ADDGA1021+006009999GF104991999999999999999999MA1101191999999MW1001REMMET045FQIN 031300Z 16006KT 9999 SCT020 30/23 Q1012;EQDQ01+000000PRSWM2
0187673230999992000040315004-23870+035380FM-15+0015FQIN V0201801N003110300019N0112651N1+02701+02101999999ADDGA1021+006009999GA2021+007509099GA3071+030009999GF107991999999999999999999MA1101191999999MW1001REMMET061FQIN 031500Z 18006KT 9999 SCT020 FEW025CB BKN100 27/21 Q1012;EQDQ01+000000PRSWM2
0139673230999992000040406004-23870+035380FM-15+0015FQIN V0201801N001512200019N0112651N1+02801+02301999999ADDGA1021+006009999GF102991999999999999999999MA1101291999999MW1001REMMET045FQIN 040600Z 18003KT 9999 FEW020 28/23 Q1013;EQDQ01+000000PRSWM2
0098673230999992000040503004-23870+035380FM-12+0015FQIN V0202801N004110360019N0300001N1+02421+02381101311ADDGF105991031021008001031001REMSYN060AAXX  05034 67323 42580 52808 10242 20238 40131 5//// 83230;
0341673230999992000040506004-23870+035380SY-MT+0015FQIN V0202701N00411030001CN0300001N1+02521+02351101451ADDAA199000091GA1021+006009999GA2071+030009999GF199999031021008001031001KA1120N+02151MA1101391999999MD1210141+9999MW1001OA150601001REMSYN092AAXX  05064 67323 32580 52708 10252 20235 40145 52014 83230 333 20215 50/// 55109 555 10000;MET052FQIN 050600Z 27008KT 9999 SCT020 BKN100 25/24 Q1014;EQDQ01+000052SCOTCVQ02+000000PRSWM2Q03  00002PRCP99
0139673230999992000040507004-23870+035380FM-15+0015FQIN V0201801N003112200019N0112651N1+02601+02201999999ADDGA1021+006009999GF104991999999999999999999MA1101391999999MW1001REMMET045FQIN 050700Z 18006KT 9999 SCT020 26/22 Q1014;EQDQ01+000000PRSWM2
0271673230999992000040512004-23870+035380SY-MT+0015FQIN V0201801N00511220001CN0300001N1+02901+02241101291ADDAA199000091GA1071+006009999GA2021+009009099GF107991071091008001999999MA1101291999999MD1810071+9999MW1001REMSYN060AAXX  05124 67323 32580 71810 10290 20224 40129 58007 879//;MET054FQIN 051200Z 18010KT 9999 BKN020 FEW030CB 29/22 Q1013;EQDQ01+000000PRSWM2Q02  00002PRCP99
0154673230999992000040513004-23870+035380FM-15+0015FQIN V0201901N00311220001CN0112651N1+02701+02301999999ADDGA1071+006009999GA2021+009009099MA1101291999999MW1001REMMET054FQIN 051300Z 19006KT 9999 BKN020 FEW030CB 27/23 Q1013;EQDQ01+000022SCOTCVQ02+000000PRSWM2
0235673230999992000040515004-23870+035380SY-MT+0015FQIN V0202201N00411006001CN0300001N1+02581+02221101321ADDGA1071+006009999GF199999051021008001031001MA1101291999999MD1710031+9999MW1001REMSYN060AAXX  05154 67323 42580 52208 10258 20222 40132 57003 85230;MET045FQIN 051500Z 22008KT 0999 BKN020 26/22 Q1013;EQDQ01+000052SCOTCVQ02+000000PRSWM2
0298673230999992000040606004-23870+035380SY-MT+0015FQIN V0201901N006212200019N0300001N1+02501+02241101431ADDAA124005191GA1021+006009999GF102991021051008001001001KA1120N+01921MA1101391999999MD1210101+9999MW1001OA150600701REMSYN104AAXX  06064 67323 12580 21912 10250 20224 40143 52010 60054 82500 333 20192 50/// 55077 555 00045 10000;MET045FQIN 060600Z 19012KT 9999 FEW020 25/22 Q1014;EQDQ01+000000PRSWM2
0292673230999992000040609004-23870+035380SY-MT+0015FQIN V0201801N00461006001CN0090001N1+02681+02311101371ADDAY121031AY211031GA1021+003009999GA2071+006009999GF199999061021004501001001MA1101291999999MD1810061+9999MW1501MW2611REMSYN066AAXX  06094 67323 41459 61809 10268 20231 40137 58006 75021 86200;MET058FQIN 060900Z 18009KT 9000 -RADZ SCT010 BKN020 27/23 Q1013;EQDQ01+000062SCOTCVQ02    003PRSWM1
0219673230999992000040615004-23870+035380SY-MT+0015FQIN V0202301N006210060019N0300001N1+02401+02131101411ADDGA1081+006009999GF108991081051008001999999MA1101391999999MD1210091+9999MW1001REMSYN060AAXX  06154 67323 42580 82312 10240 20213 40141 52009 885//;MET045FQIN 061500Z 23012KT 9999 OVC020 24/21 Q1014;EQDQ01+000000PRSWM2
0198673230999992000040706004-23870+035380FM-12+0015FQIN V0202001N004112200019N0300001N1+02321+02031101511ADDAA199000091GF102991021021008001001001KA1120N+01871MD1010061+9999OA150600701REMSYN092AAXX  07064 67323 32580 22008 10232 20203 40151 50006 82200 333 20187 50/// 55076 555 10045;EQDQ01  00002PRCP99
0112673230999992000040709004-23870+035380FM-12+0015FQIN V0202001N006210075019N0300001N1+02751+02001101531ADDGF105991051021008001001001MD1010021+9999REMSYN060AAXX  07094 67323 42580 52012 10275 20200 40153 50002 85200;
0219673230999992000040715004-23870+035380SY-MT+0015FQIN V0202001N007712200019N0300001N1+02621+02051101471ADDGA1021+006009999GF102991021021008001001001MA1101391999999MD1310071+9999MW1001REMSYN060AAXX  07154 67323 42580 22015 10262 20205 40147 53007 82200;MET045FQIN 071500Z 20015KT 9999 FEW020 26/21 Q1014;EQDQ01+000000PRSWM2
0198673230999992000040806004-23870+035380FM-12+0015FQIN V0202301N002610075019N0300001N1+02381+02131101541ADDAA199000091GF105991051021008001001001KA1120N+02191MD1110091+9999OA150601101REMSYN092AAXX  08064 67323 32580 52305 10238 20213 40154 51009 85200 333 20219 50/// 55110 555 10000;EQDQ01  00002PRCP99
0142673230999992000040812004-23870+035380FM-12+0015FQIN V0202201N004110075019N0300001N1+02941+02221101311ADDAA199000091GF105991051021008001001001MD1710181+9999REMSYN060AAXX  08124 67323 32580 52208 10294 20222 40131 57018 85200;EQDQ01  00002PRCP99
0139673230999992000040813004-23870+035380FM-15+0015FQIN V0202001N004112200019N0112651N1+02901+02201999999ADDGA1021+006009999GF104991999999999999999999MA1101191999999MW1001REMMET045FQIN 081300Z 20008KT 9999 SCT020 29/22 Q1012;EQDQ01+000000PRSWM2
0112673230999992000040815004-23870+035380FM-12+0015FQIN V0201901N004112200019N0300001N1+02701+02151101291ADDGF104991041021008001001001MD1510021+9999REMSYN060AAXX  08154 67323 42580 41908 10270 20215 40129 55002 84200;
0281673230999992000040906004-23870+035380SY-MT+0015FQIN V0202001N003112200019N0300001N1+02521+02231101421ADDAA199000091GA1021+006009999GF103991031021008001001001KA1120N+02021MA1101391999999MD1210131+9999MW1001REMSYN082AAXX  09064 67323 32580 32006 10252 20223 40142 52013 83200 333 20202 50/// 55097;MET045FQIN 090600Z 20006KT 9999 SCT020 25/24 Q1014;EQDQ01+000000PRSWM2Q02  00002PRCP99
0219673230999992000040909004-23870+035380SY-MT+0015FQIN V0202101N004112200019N0300001N1+02921+02361101451ADDGA1021+006009999GF103991031021008001001001MA1101391999999MD1010031+9999MW1001REMSYN060AAXX  09094 67323 42580 32108 10292 20236 40145 50003 83200;MET045FQIN 090900Z 21008KT 9999 SCT020 29/24 Q1014;EQDQ01+000000PRSWM2
0246673230999992000040912004-23870+035380SY-MT+0015FQIN V0201801N004112200019N0300001N1+03121+02311101271ADDAA199000091GA1021+006009999GF103991031021008001001001MA1101191999999MD1710181+9999MW1001REMSYN060AAXX  09124 67323 32580 31808 10312 20231 40127 57018 83200;MET045FQIN 091200Z 18008KT 9999 SCT020 31/23 Q1012;EQDQ01+000000PRSWM2Q02  00002PRCP99
0139673230999992000040913004-23870+035380FM-15+0015FQIN V0201801N006212200019N0112651N1+03001+02301999999ADDGA1021+006009999GF104991999999999999999999MA1101191999999MW1001REMMET045FQIN 091300Z 18012KT 9999 SCT020 30/23 Q1012;EQDQ01+000000PRSWM2
0318673230999992000041006004-23870+035380SY-MT+0015FQIN V0202101N005112200019N0300001N1+02641+02331101461ADDAA199000091GA1021+006009999GF199999011011008001001001KA1120N+02161MA1101391999999MD1210071+9999MW1001OA150600801REMSYN092AAXX  10064 67323 32580 12110 10264 20233 40146 52007 81100 333 20216 50/// 55089 555 10000;MET045FQIN 100600Z 21010KT 9999 FEW020 26/23 Q1014;EQDQ01+000012SCOTCVQ02+000000PRSWM2Q03  00002PRCP99
0139673230999992000041007004-23870+035380FM-15+0015FQIN V0201801N004112200019N0112651N1+02701+02301999999ADDGA1021+006009999GF104991999999999999999999MA1101491999999MW1001REMMET045FQIN 100700Z 18008KT 9999 SCT020 27/23 Q1015;EQDQ01+000000PRSWM2
0138673230999992000041009004-23870+035380FM-15+0015FQIN V0201901N00511220001CN0112651N1+99999+99999999999ADDGA1071+006009999GA2021+007509099MW1001REMMET053FQIN 100900Z 19010KT 9999 BKN020 FEW025CB 2823 Q1014;EQDQ01+000022SCOTCVQ02+000000PRSWM2
0274673230999992000041012004-23870+035380SY-MT+0015FQIN V0201801N004112200019N0300001N1+03021+02191101281ADDAA106000591AY181061AY211061GA1021+006009999GF104991031021008001001091MA1101291999999MD1710191+9999MW1031REMSYN072AAXX  10124 67323 11580 41808 10302 20219 40128 57019 69951 70381 83209;MET045FQIN 101200Z 18008KT 9999 SCT020 30/22 Q1013;EQDQ01+000000PRSWM2Q02    003PRSWM1
0242673230999992000041015004-23870+035380SY-MT+0015FQIN V0201701N003112200019N0300001N1+02821+02241101351ADDGA1021+006009999GA2021+030009999GF104991021021008001031001MA1101291999999MD1210071+9999MW1001REMSYN060AAXX  10154 67323 42580 41706 10282 20224 40135 52007 82230;MET052FQIN 101500Z 17006KT 9999 FEW020 SCT100 28/22 Q1013;EQDQ01+000000PRSWM2
0219673230999992000041106004-23870+035380FM-12+0015FQIN V0201801N002610042019N0060001N1+02211+02071101411ADDAA124007991AY151061AY211061GF107991071091004501999999KA1120N+01981MD1010091+9999MW1511OA150601001REMSYN110AAXX  11064 67323 11456 71805 10221 20207 40141 50009 60084 75151 879// 333 20198 50/// 55106 555 00084 10000;
0139673230999992000041109004-23870+035380FM-15+0015FQIN V0201601N004110060019N0112651N1+02701+02301999999ADDGA1071+006009999GF107991999999999999999999MA1101391999999MW1001REMMET045FQIN 110900Z 16008KT 9999 BKN020 27/23 Q1014;EQDQ01+000000PRSWM2
0159673230999992000041112004-23870+035380FM-15+0015FQIN V0201801N006210045019N0090001N1+02601+02301999999ADDGA1081+004509999GF108991999999999999999999MA1101081999999MW1511REMMET049FQIN 111200Z 18012KT 9000 -DZ OVC015 26/23 Q1011;EQDQ01+000003PRSWM1Q02    003PRSWM1
0150673230999992000041113004-23870+035380FM-15+0015FQIN V0201801N008210060019N0112651N1+02501+02401999999ADDGA1071+006009999GA2071+027009999GF107991999999999999999999MW1001REMMET055FQIN 111300Z 18016KT 9999 BKN020 BKN090 25/24 Q0 Q1011;EQDQ01+000000PRSWM2
0242673230999992000041115004-23870+035380SY-MT+0015FQIN V0201901N01031006001CN0200001N1+02501+02101101201ADDGA1071+006009999GA2081+007509999GF108991081081008001999999MA1101191999999MD1310061+9999MW1001REMSYN060AAXX  11154 67323 42570 81920 10250 20210 40120 53006 888//;MET052FQIN 111500Z 19020KT 9999 BKN020 OVC025 25/21 Q1012;EQDQ01+000000PRSWM2
0218673230999992000041215004-23870+035380SY-MT+0015FQIN V0201901N008210042019N0080001N1+02301+02171100881ADDGF108991061091004501071999MA1100911999999MD1710031+9999MW1611REMSYN066AAXX  12154 67323 41458 81916 10230 20217 40088 57003 761// 8697/;MET054FQIN 121500Z 19016KT 8000 -RA ///// ///// 23/22 Q1009;EQDQ01    003PRSWM1
0375673230999992000041306004-23870+035380SY-MT+0015FQIN V0201901N007210060019N0200001N1+02341+02281101081ADDAA124073991AY161061AY251061GA1071+006009999GA2071+030009999GF107991051021008001071999KA1120N+01991MA1101081999999MD1210151+9999MW1201OA150699999REMSYN110AAXX  13064 67323 11570 71914 10234 20228 40108 52015 60744 72065 8527/ 333 20199 50/// 55000 555 00736 10561;MET052FQIN 130600Z 19014KT 9999 BKN020 BKN100 23/23 Q1011;EQDQ01+000000PRSWM2Q02  00002WGOSPDQ03    003PRSWM1
0162673230999992000041307004-23870+035380FM-15+0015FQIN V0202101N006210300019N0112651N1+02401+02301999999ADDGA1021+006009999GA2071+030009999GF107991999999999999999999MA1101081999999MW1001REMMET052FQIN 130700Z 21012KT 9999 SCT020 BKN100 24/23 Q1011;EQDQ01+000000PRSWM2
0273673230999992000041309004-23870+035380SY-MT+0015FQIN V0201601N00621006001CN0080001N1+02501+02361101141ADDAY121031AY221031GA1071+006009999GA2071+030009999GF107991051021008001071999MA1101081999999MD1010061+9999MW1611MW2631REMSYN066AAXX  13094 67323 42558 71612 10250 20236 40114 50006 76122 8527/;MET055FQIN 130900Z 16012KT 8000 RA BKN020 BKN100 25/24 Q1011;EQDQ01    003PRSWM1
0314673230999992000041406004-23870+035380SY-MT+0015FQIN V0202201N005112200019N0300001N1+02461+02251101481ADDAA124020191GA1021+006009999GF102991021021008001001001KA1120N+01821MA1101491999999MD1210171+9999MW1001OA150699999REMSYN104AAXX  14064 67323 12580 22210 10246 20225 40148 52017 60204 82200 333 20182 50/// 55033 555 00203 10736;MET045FQIN 140600Z 22010KT 9999 FEW020 25/23 Q1015;EQDQ01+000000PRSWM2Q02  00302WGOSPD
0273673230999992000041409004-23870+035380SY-MT+0015FQIN V0201801N005119999999N0300001N1+02701+02161101481ADDAY181031AY221031GA1071+006009999GF104991041021008001001001MA1101491999999MD1010001+9999MW1021REMSYN066AAXX  14094 67323 41580 41810 10270 20216 40148 50000 70282 84200;MET045FQIN 140900Z 18010KT 9999 BKN020 27/22 Q1015;EQDQ01+000000PRSWM2Q02 006003SCOCIGQ03    003PRSWM1
0142673230999992000041412004-23870+035380FM-12+0015FQIN V0201901N006210075019N0300001N1+02821+02151101271ADDAA199000091GF105991051021008001001001MD1710211+9999REMSYN060AAXX  14124 67323 32580 51912 10282 20215 40127 57021 85200;EQDQ01  00002PRCP99
0139673230999992000041413004-23870+035380FM-15+0015FQIN V0201801N006210060019N0112651N1+02801+02201999999ADDGA1071+006009999GF107991999999999999999999MA1101291999999MW1001REMMET045FQIN 141300Z 18012KT 9999 BKN020 28/22 Q1013;EQDQ01+000000PRSWM2
0139673230999992000041414004-23870+035380FM-15+0015FQIN V0201601N004112200019N0112651N1+02701+02201999999ADDGA1021+006009999GF104991999999999999999999MA1101291999999MW1001REMMET045FQIN 141400Z 16008KT 9999 SCT020 27/22 Q1013;EQDQ01+000000PRSWM2
0198673230999992000041506004-23870+035380FM-12+0015FQIN V0201901N003112200019N0300001N1+02421+02111101431ADDAA199000091GF102991021011008001001001KA1120N+01991MD1210071+9999OA150601001REMSYN092AAXX  15064 67323 32580 21906 10242 20211 40143 52007 82100 333 20199 50/// 55104 555 10203;EQDQ01  00002PRCP99
0139673230999992000041509004-23870+035380FM-15+0015FQIN V0201801N003112200019N0112651N1+02801+02201999999ADDGA1021+006009999GF104991999999999999999999MA1101391999999MW1001REMMET045FQIN 150900Z 18006KT 9999 SCT020 28/22 Q1014;EQDQ01+000000PRSWM2
0219673230999992000041609004-23870+035380SY-MT+0015FQIN V0202001N003112200019N0300001N1+02801+01991101661ADDGA1021+006009999GF103991031021008001001001MA1101591999999MD1010001+9999MW1001REMSYN060AAXX  16094 67323 42580 32006 10280 20199 40166 50000 83200;MET045FQIN 160900Z 20006KT 9999 SCT020 28/20 Q1016;EQDQ01+000000PRSWM2
0139673230999992000041706004-23870+035380FM-15+0015FQIN V0202101N001512200019N0112651N1+02401+02101999999ADDGA1021+006009999GF102991999999999999999999MA1101591999999MW1001REMMET045FQIN 170600Z 21003KT 9999 FEW020 24/21 Q1016;EQDQ01+000000PRSWM2
0219673230999992000041709004-23870+035380SY-MT+0015FQIN V0202301N003612200019N0300001N1+02841+02231101661ADDGA1021+006009999GF103991031021008001001001MA1101591999999MD1010011+9999MW1001REMSYN060AAXX  17094 67323 42580 32307 10284 20223 40166 50001 83200;MET045FQIN 170900Z 23007KT 9999 SCT020 28/22 Q1016;EQDQ01+000000PRSWM2
0198673230999992000041806004-23870+035380FM-12+0015FQIN V0201701N001512200019N0300001N1+02301+02031101761ADDAA199000091GF101991011011008001001001KA1120N+01911MD1210151+9999OA150600901REMSYN092AAXX  18064 67323 32580 11703 10230 20203 40176 52015 81100 333 20191 50/// 55092 555 10000;EQDQ01  00002PRCP99
0139673230999992000041808004-23870+035380FM-15+0015FQIN V0201901N002612200019N0112651N1+02701+02201999999ADDGA1021+006009999GF104991999999999999999999MA1101691999999MW1001REMMET045FQIN 180800Z 19005KT 9999 SCT020 27/22 Q1017;EQDQ01+000000PRSWM2
0273673230999992000041909004-23870+035380SY-MT+0015FQIN V0200901N00211006001CN0150001N1+02701+02161101491ADDAY181031AY211031GA1071+006009999GF199999061021008001001001MA1101901999999MD1010041+9999MW1251REMSYN066AAXX  19094 67323 41565 60904 10270 20216 40149 50004 72581 86200;MET045FQIN 190900Z 09004KT 9999 BKN020 27/22 Q1019;EQDQ01+000062SCOTCVQ02+000000PRSWM2Q03    003PRSWM1
0290673230999992000041912004-23870+035380SY-MT+0015FQIN V0201801N00261006001CN0200001N1+02711+02021101801ADDAA106001091AY181061AY211061GA1071+006009999GF199999051021008001001001MA1101801999999MD1710141+9999MW1021REMSYN072AAXX  19124 67323 11570 51805 10271 20202 40180 57014 60011 70281 85200;MET045FQIN 191200Z 18005KT 9999 BKN020 27/20 Q1018;EQDQ01+000052SCOTCVQ02+000000PRSWM2Q03    003PRSWM1
0139673230999992000041913004-23870+035380FM-15+0015FQIN V0201801N003612200019N0112651N1+02701+02201999999ADDGA1021+006009999GF104991999999999999999999MA1101801999999MW1001REMMET045FQIN 191300Z 18007KT 9999 SCT020 27/22 Q1018;EQDQ01+000000PRSWM2
0308673230999992000042006004-23870+035380SY-MT+0015FQIN V0201901N001512200019N0300001N1+02441+02111101931ADDAA124000891GA1021+006009999GF199999011011008001001001KA1120N+02001MA1101901999999MD1210111+9999MW1001OA150600901REMSYN098AAXX  20064 67323 12580 11903 10244 20211 40193 52011 69984 81100 333 20200 50/// 55090 555 10000;MET045FQIN 200600Z 19003KT 9999 FEW020 24/21 Q1019;EQDQ01+000012SCOTCVQ02+000000PRSWM2
0139673230999992000042007004-23870+035380FM-15+0015FQIN V0209999C000012200019N0112651N1+02601+02201999999ADDGA1021+006009999GF102991999999999999999999MA1101901999999MW1001REMMET045FQIN 200700Z 00000KT 9999 FEW020 26/22 Q1019;EQDQ01+000000PRSWM2
0142673230999992000042112004-23870+035380FM-12+0015FQIN V0201101N002112200019N0300001N1+02871+01961101671ADDAA199000091GF106991041021008001001041MD1710161+9999REMSYN060AAXX  21124 67323 32580 61104 10287 20196 40167 57016 84204;EQDQ01  00002PRCP99
0139673230999992000042113004-23870+035380FM-15+0015FQIN V0201101N002112200019N0112651N1+02901+02001999999ADDGA1021+006009999GF104991999999999999999999MA1101591999999MW1001REMMET045FQIN 211300Z 11004KT 9999 SCT020 29/20 Q1016;EQDQ01+000000PRSWM2
0198673230999992000042306004-23870+035380FM-12+0015FQIN V0209999C000012200019N0300001N1+02421+02131101501ADDAA199000091GF101991011011008001001001KA1120N+02001MD1310061+9999OA150600701REMSYN092AAXX  23064 67323 32580 10000 10242 20213 40150 53006 81100 333 20200 50/// 55079 555 10000;EQDQ01  00002PRCP99
0259673230999992000042406004-23870+035380SY-MT+0015FQIN V0203601N00211220001CN0300001N1+02501+02231101441ADDAA199000091GF100991001001999999001001KA1120N+01781MD1210121+9999MW1001OA150601001REMSYN086AAXX  24064 67323 32980 03604 10250 20223 40144 52012 333 20178 50/// 55104 555 10000;MET039FQIN 240600Z 36004KT CAVOK 25/22 A1014;EQDQ01+000000PRSWM2Q02  00002PRCP99
0122673230999992000042409004-23870+035380FM-12+0015FQIN V0200901N001012200019N0300001N1+02941+02221101411ADDGA1001+999999999GF100991001001999999001001MD1810031+9999REMSYN054AAXX  24094 67323 42980 00902 10294 20222 40141 58003;
0139673230999992000042410004-23870+035380FM-15+0015FQIN V0200901N001512200019N0112651N1+03001+02301999999ADDGA1021+006009999GF102991999999999999999999MA1101291999999MW1001REMMET045FQIN 241000Z 09003KT 9999 FEW020 30/23 Q1013;EQDQ01+000000PRSWM2
0181673230999992000042414004-23870+035380FM-15+0015FQIN V0203601N00311220001CN0080001N1+02801+02401999999ADDGA1071+006009999GA2021+007509099MA1101291999999MW1811MW2951REMMET059FQIN 241400Z 36006KT 8000 TSRA BKN020 SCT025CB 28/24 Q1013;EQDQ01+000042SCOTCVQ02+000003PRSWM1Q03    003PRSWM1
0140673230999992000042415004-23870+035380FM-12+0015FQIN V0202701N005110075019N0100001N1+02281+02051101411ADDAY191031AY211031GF108991061091008001051999MD1310121+9999MW1951REMSYN066AAXX  24154 67323 41560 82710 10228 20205 40141 53012 79591 8695/;
0298673230999992000042506004-23870+035380SY-MT+0015FQIN V0203601N001512200019N0300001N1+02411+02241101651ADDAA124010991GA1021+006009999GF102991021021008001001001KA1120N+01911MA1101591999999MD1210101+9999MW1001OA150600801REMSYN104AAXX  25064 67323 12580 23603 10241 20224 40165 52010 60114 82200 333 20191 50/// 55087 555 00112 10000;MET045FQIN 250600Z 36003KT 9999 FEW020 24/22 Q1016;EQDQ01+000000PRSWM2
0091673230999992000042507004-23870+035380FM-15+0015FQIN V0203601N00211220001CN0099001N1+02601+02201999999ADDMA1101691999999MW1001REMMET039FQIN 250700Z 36004KT CAVOK 26/22 Q1017;EQDQ01+000000PRSWM2
0139673230999992000042508004-23870+035380FM-15+0015FQIN V0203601N002112200019N0112651N1+02801+02301999999ADDGA1021+006009999GF102991999999999999999999MA1101591999999MW1001REMMET045FQIN 250800Z 36004KT 9999 FEW020 28/23 Q1016;EQDQ01+000000PRSWM2
0139673230999992000042509004-23870+035380FM-15+0015FQIN V0203601N002112200019N0112651N1+02901+02401999999ADDGA1021+006009999GF102991999999999999999999MA1101491999999MW1001REMMET045FQIN 250900Z 36004KT 9999 FEW020 29/24 Q1015;EQDQ01+000000PRSWM2
0139673230999992000042512004-23870+035380FM-15+0015FQIN V0200301N002112200019N0112651N1+03001+02401999999ADDGA1021+006009999GF102991999999999999999999MA1101291999999MW1001REMMET045FQIN 251200Z 03004KT 9999 FEW020 30/24 Q1013;EQDQ01+000000PRSWM2
0142673230999992000042712004-23870+035380FM-12+0015FQIN V0201801N001512200019N0300001N1+03081+02181101381ADDAA199000091GF102991021011008001001001MD1710141+9999REMSYN060AAXX  27124 67323 32580 21803 10308 20218 40138 57014 82100;EQDQ01  00002PRCP99
0191673230999992000042806004-23870+035380FM-12+0015FQIN V0201701N005710075019N0300001N1+02421+01821102361ADDAA124002091GF107991061021008001071999KA1120N+01951MD1210151+9999OA150600901REMSYN104AAXX  28064 67323 12580 71711 10242 20182 40236 52015 60024 8627/ 333 20195 50/// 55097 555 00023 10000;
0274673230999992000050206004-23870+035380SY-MT+0015FQIN V0209999C000012200019N0300001N1+02191+01931101761ADDAA199000091GF100991001001999999001001KA1120N+01771MA1101691999999MD1210041+9999MW1001OA150600901REMSYN086AAXX  02064 67323 32980 00000 10219 20193 40176 52004 333 20177 50/// 55094 555 10015;MET039FQIN 020600Z 00000KT CAVOK 22/19 Q1017;EQDQ01+000000PRSWM2Q02  00002PRCP99
0091673230999992000050207004-23870+035380FM-15+0015FQIN V0209999C00001220001CN0099001N1+02501+01901999999ADDMA1101801999999MW1001REMMET039FQIN 020700Z 00000KT CAVOK 25/19 Q1018;EQDQ01+000000PRSWM2
0139673230999992000050208004-23870+035380FM-15+0015FQIN V0203201N002112200019N0112651N1+02701+01901999999ADDGA1021+006009999GF102991999999999999999999MA1101691999999MW1001REMMET045FQIN 020800Z 32004KT 9999 FEW020 27/19 Q1017;EQDQ01+000000PRSWM2
0235673230999992000050209004-23870+035380SY-MT+0015FQIN V0203601N002612200019N0300001N1+02721+01971101771ADDGA1021+006009999GF103991999011008001001001MA1101691999999MD1010011+9999MW1001REMSYN060AAXX  02094 67323 42580 33605 10272 20197 40177 50001 82100;MET045FQIN 020900Z 36005KT 9999 FEW020 28/20 Q1017;EQDQ01+000022SCOTLCQ02+000000PRSWM2
0250673230999992000050212004-23870+035380SY-MT+0015FQIN V0200601N003112200019N0300001N1+02801+01671101531ADDAA199000091GA1021+006009999GF102991021011008001001001MA1101491999999MD1710241+9999MW1001REMSYN060AAXX  02124 67323 32580 20606 10280 20167 40153 57024 82100;MET049FQIN 021200Z 06006KT 9999 FEZ FEW020 28/17 Q1015;EQDQ01+000000PRSWM2Q02  00002PRCP99
0139673230999992000050214004-23870+035380FM-15+0015FQIN V0203601N004112200019N0112651N1+02601+01701999999ADDGA1021+006009999GF102991999999999999999999MA1101491999999MW1001REMMET045FQIN 021400Z 36008KT 9999 FEW020 26/17 Q1015;EQDQ01+000000PRSWM2
0198673230999992000050306004-23870+035380FM-12+0015FQIN V0209999C000012200019N0300001N1+02401+01991101801ADDAA199000091GF102991021011008001001001KA1120N+01881MD1010111+9999OA150601001REMSYN092AAXX  03064 67323 32580 20000 10240 20199 40180 50011 82100 333 20188 50/// 55104 555 10000;EQDQ01  00002PRCP99
0384673230999992000050506004-23870+035380SY-MT+0015FQIN V0201801N00771006001CN0150001N1+01961+01871101711ADDAA124066091AY191061AY291061GA1071+006009999GA2021+007509099GA3081+030009999GF108991061091008001071999KA1120N+01681MA1101691999999MD1210071+9999MW1291OA150601001REMSYN110AAXX  05064 67323 11565 81815 10196 20187 40171 52007 60664 72999 8697/ 333 20168 50/// 55103 555 00662 10000;MET061FQIN 050600Z 18012KT 9999 BKN020 FEW025CB OVC100 20/19 Q1017;EQDQ01+000000PRSWM2Q02    003PRSWM1
0261673230999992000050509004-23870+035380SY-MT+0015FQIN V0201001N00511003001CN0090001N1+02041+01971101751ADDAY151031AY251031GA1071+003009999GA2081+027009999GF108991071071004501071999MD1010041+9999MW1521MW2651REMSYN066AAXX  05094 67323 41459 81010 10204 20197 40175 50004 75255 8777/;MET058FQIN 050900Z 10010KT 9000 +RADZ BKN010 OVC090 20/20 Q1817;EQDQ01    003PRSWM1
0235673230999992000050615004-23870+035380SY-MT+0015FQIN V0202201N002610075019N0300001N1+02441+01961101491ADDGA1071+007509999GF199999061051008001001001MA1101591999999MD1710231+9999MW1001REMSYN060AAXX  06154 67323 42580 62205 10244 20196 40149 57023 86500;MET045FQIN 061500Z 22005KT 9999 BKN025 24/20 Q1016;EQDQ01+000062SCOTCVQ02+000000PRSWM2
0270673230999992000050706004-23870+035380SY-MT+0015FQIN V0201901N002112200019N0300001N1+02081+01821101881ADDAA124001091GF100991001001999999001001KA1120N+01651MA1101901999999MD1310061+9999MW1001OA150600501REMSYN098AAXX  07064 67323 12980 01904 10208 20182 40188 53006 60014 333 20165 50/// 55056 555 00010 10037;MET039FQIN 070600Z 19004KT CAVOK 21/18 Q1019;EQDQ01+000000PRSWM2
0219673230999992000050709004-23870+035380SY-MT+0015FQIN V0202001N004112200019N0300001N1+02521+01941101911ADDGA1021+006009999GF102991021011008001001001MA1101901999999MD1010031+9999MW1001REMSYN060AAXX  07094 67323 42580 22008 10252 20194 40191 50003 82100;MET045FQIN 070900Z 20008KT 9999 FEW020 25/19 Q1019;EQDQ01+000000PRSWM2
0308673230999992000050806004-23870+035380SY-MT+0015FQIN V0209999C000012200019N0300001N1+02101+01961101881ADDAA199000091GA1021+006009999GF103991031021008001001001KA1120N+01701MA1101901999999MD1210131+9999MW1001OA150600801REMSYN098AAXX  08064 67323 32580 30000 10210 20196 40188 52013 83200 333 20170 50/// 57033 55088 555 10010;MET045FQIN 080600Z 00000KT 9999 SCT020 21/20 Q1019;EQDQ01+000000PRSWM2Q02  00002PRCP99
0187673230999992000051006004-23870+035380SY-MT+0015FQIN V0201801N003112200019N0300001N1+02201+01901999999ADDGA1021+006009999GF105991999999008001999999MA1102101999999MW1001REMSYN042AAXX  10064 67323 12580 51806 10220 20190;MET045FQIN 100700Z 18003KT 9999 SCT020 24/17 Q1021;EQDQ01+000000PRSWM2
0139673230999992000051007004-23870+035380FM-15+0015FQIN V0201801N001512200019N0112651N1+02401+01701999999ADDGA1021+006009999GF104991999999999999999999MA1102101999999MW1001REMMET045FQIN 100700Z 18003KT 9999 SCT020 24/17 Q1021;EQDQ01+000000PRSWM2
0139673230999992000051009004-23870+035380FM-15+0015FQIN V0201801N004112200019N0112651N1+02601+01701999999ADDGA1021+006009999GF104991999999999999999999MA1102001999999MW1001REMMET045FQIN 100900Z 18008KT 9999 SCT020 26/17 Q1020;EQDQ01+000000PRSWM2
0142673230999992000051312004-23870+035380FM-12+0015FQIN V0201901N004610075019N0300001N1+02221+01601101891ADDAA199000091GF105991051021008001001001MD1710281+9999REMSYN060AAXX  13124 67323 32580 51909 10222 20160 40189 57028 85200;EQDQ01  00002PRCP99
0198673230999992000051506004-23870+035380FM-12+0015FQIN V0202201N004112200019N0300001N1+02021+01721102051ADDAA199000091GF104991031021008001031001KA1120N+01541MD1210161+9999OA150600601REMSYN092AAXX  15064 67323 32580 42208 10202 20172 40205 52016 83230 333 20154 50/// 55066 555 10009;EQDQ01  00002PRCP99
0139673230999992000051712004-23870+035380FM-15+0015FQIN V0201801N002610060019N0112651N1+02401+02001999999ADDGA1071+006009999GF107991999999999999999999MA1101901999999MW1001REMMET045FQIN 171200Z 18005KT 9999 BKN020 24/20 Q1019;EQDQ01+000000PRSWM2
0139673230999992000051806004-23870+035380FM-15+0015FQIN V0209999C000012200019N0112651N1+02001+01901999999ADDGA1021+006009999GF102991999999999999999999MA1102101999999MW1001REMMET045FQIN 180600Z 00000KT 9999 FEW020 20/19 Q1021;EQDQ01+000000PRSWM2
0139673230999992000051807004-23870+035380FM-15+0015FQIN V0201001N001512200019N0112651N1+02101+01901999999ADDGA1021+006009999GF102991999999999999999999MA1102001999999MW1001REMMET045FQIN 180700Z 10003KT 9999 FEW020 21/19 Q1020;EQDQ01+000000PRSWM2
0139673230999992000051808004-23870+035380FM-15+0015FQIN V0202001N002112200019N0112651N1+02301+02001999999ADDGA1021+006009999GF104991999999999999999999MA1102101999999MW1001REMMET045FQIN 180800Z 20004KT 9999 SCT020 23/20 Q1021;EQDQ01+000000PRSWM2
0302673230999992000051906004-23870+035380SY-MT+0015FQIN V0209999C000012200019N0300001N1+02001+01861102171ADDAA199000091GA1021+006009999GF104991041021008001001001KA1120N+01651MA1102101999999MD1210081+9999MW1001OA150600901REMSYN092AAXX  19064 67323 32580 40000 10200 20186 40217 52008 84200 333 20165 50/// 55092 555 10000;MET045FQIN 190600Z 00000KT 9999 SCT020 20/19 Q1021;EQDQ01+000000PRSWM2Q02  00002PRCP99
0139673230999992000051908004-23870+035380FM-15+0015FQIN V0209999C000012200019N0112651N1+02301+01901999999ADDGA1021+006009999GF104991999999999999999999MA1102301999999MW1001REMMET045FQIN 190800Z 00000KT 9999 SCT020 23/19 Q1023;EQDQ01+000000PRSWM2
0112673230999992000051909004-23870+035380FM-12+0015FQIN V0202101N002112200019N0300001N1+02401+01841102241ADDGF104991041021008001001001MD1010071+9999REMSYN060AAXX  19094 67323 42580 42104 10240 20184 40224 50007 84200;
0142673230999992000051912004-23870+035380FM-12+0015FQIN V0201701N001510075019N0200001N1+02481+01781102091ADDAA199000091GF105991051021008001001001MD1610151+9999REMSYN060AAXX  19124 67323 32570 51703 10248 20178 40209 56015 85200;EQDQ01  00002PRCP99
0139673230999992000051913004-23870+035380FM-15+0015FQIN V0201701N001510060019N0112651N1+02401+01701999999ADDGA1071+006009999GF107991999999999999999999MA1102001999999MW1001REMMET045FQIN 191300Z 17003KT 9999 BKN020 24/17 Q1020;EQDQ01+000000PRSWM2
0091673230999992000052206004-23870+035380FM-15+0015FQIN V0209999C00001220001CN0099001N1+02001+01901999999ADDMA1102101999999MW1001REMMET039FQIN 220600Z 00000KT CAVOK 20/19 Q1021;EQDQ01+000000PRSWM2
0139673230999992000052212004-23870+035380FM-15+0015FQIN V0203601N003112200019N0112651N1+02601+01701999999ADDGA1021+006009999GF102991999999999999999999MA1101801999999MW1001REMMET045FQIN 221200Z 36006KT 9999 FEW020 26/17 Q1018;EQDQ01+000000PRSWM2
0139673230999992000052213004-23870+035380FM-15+0015FQIN V0203601N002112200019N0112651N1+02501+01601999999ADDGA1021+006009999GF102991999999999999999999MA1101801999999MW1001REMMET045FQIN 221300Z 36004KT 9999 FEW020 25/16 Q1018;EQDQ01+000000PRSWM2
0280673230999992000052306004-23870+035380SY-MT+0015FQIN V0209999C000012200019N0300001N1+02141+01811101791ADDAA199000091GF103991001001999999001021KA1120N+01511MA1101801999999MD1310081+9999MW1001OA150601001REMSYN092AAXX  23064 67323 32980 30000 10214 20181 40179 53008 80002 333 20151 50/// 55101 555 10000;MET039FQIN 230600Z 00000KT CAVOK 21/18 Q1018;EQDQ01+000000PRSWM2Q02  00002PRCP99
0198673230999992000052307004-23870+035380FM-12+0015FQIN V0209999C000012200019N0300001N1+02141+01811101791ADDAA199000091GF103991001001999999001021KA1120N+01511MD1310081+9999OA159901001REMSYN092AAXX  23074 67323 32980 30000 10214 20181 40179 53008 80002 333 20151 50/// 55101 555 10000;EQDQ01  00002PRCP99
0246673230999992000052312004-23870+035380SY-MT+0015FQIN V0200201N003612200019N0300001N1+01711+01351101711ADDAA199000091GA1021+006009999GF102991021011008001001001MA1101691999999MD1710141+9999MW1001REMSYN060AAXX  23124 67323 32580 20207 10171 20135 40171 57014 82100;MET045FQIN 231200Z 03007KT 9999 FEW020 27/14 Q1017;EQDQ01+000000PRSWM2Q02  00002PRCP99
0325673230999992000052506004-23870+035380SY-MT+0015FQIN V0201701N004110075019N0300001N1+02121+01671101811ADDAA199000091GA1021+006009999GA2071+007509999GF106991061081008001001001KA1120N+01641MA1101801999999MD1210121+9999MW1001OA150600901REMSYN092AAXX  25064 67323 32580 61708 10212 20167 40181 52012 86800 333 20164 50/// 55090 555 10000;MET052FQIN 250600Z 17008KT 9999 SCT020 BKN025 21/17 Q1018;EQDQ01+000000PRSWM2Q02  00002PRCP99
0162673230999992000052612004-23870+035380FM-15+0015FQIN V0201601N003619999999N0112651N1+02601+01801999999ADDGA1021+006009999GA2071+999999999GF107991999999999999999999MA1101291999999MW1001REMMET052FQIN 261200Z 16007KT 9999 FEW020 BKN/// 26/18 Q1013;EQDQ01+000000PRSWM2
0198673230999992000052706004-23870+035380FM-12+0015FQIN V0209999C000012200019N0300001N1+02061+01821101441ADDAA199000091GF102991021011008001001001KA1120N+01701MD1210141+9999OA150600901REMSYN092AAXX  27064 67323 32580 20000 10206 20182 40144 52014 82100 333 20170 50/// 55095 555 10000;EQDQ01  00002PRCP99
0139673230999992000052707004-23870+035380FM-15+0015FQIN V0202701N001512200019N0112651N1+02201+01801999999ADDGA1021+006009999GF102991999999999999999999MA1101491999999MW1001REMMET045FQIN 270700Z 27003KT 9999 FEW020 22/18 Q1015;EQDQ01+000000PRSWM2
0142673230999992000052912004-23870+035380FM-12+0015FQIN V0200201N003612200019N0300001N1+02631+01721101721ADDAA199000091GF101991011011008001001001MD1710271+9999REMSYN060AAXX  29124 67323 32580 10207 10263 20172 40172 57027 81100;EQDQ01  00002PRCP99
0139673230999992000052913004-23870+035380FM-15+0015FQIN V0200301N004112200019N0112651N1+02601+01701999999ADDGA1021+006009999GF102991999999999999999999MA1101691999999MW1001REMMET045FQIN 291300Z 03008KT 9999 FEW020 26/17 Q1017;EQDQ01+000000PRSWM2
0197673230999992000053006004-23870+035380FM-12+0015FQIN V0203601N001012200019N0300001N1+02231+01741101881ADDAA199000091GA1001+999999999GF100991001001999999001001KA1120N+01661MD1210111+9999REMSYN086AAXX  30064 67323 32980 03602 10223 20174 40188 52011 333 20166 50/// 55/// 555 10000;EQDQ01  00002PRCP99
0122673230999992000053009004-23870+035380FM-12+0015FQIN V0203601N003112200019N0300001N1+02661+01711101771ADDGA1001+999999999GF100991001001999999001001MD1710111+9999REMSYN054AAXX  30094 67323 42980 03606 10266 20171 40177 57011;
0274673230999992000053106004-23870+035380SY-MT+0015FQIN V0209999C000012200019N0300001N1+02221+01911101821ADDAA199000091GF100991001001999999001001KA1120N+01701MA1101801999999MD1210191+9999MW1001OA150600901REMSYN086AAXX  31064 67323 32980 00000 10222 20191 40182 52019 333 20170 50/// 55093 555 10000;MET039FQIN 310600Z 00000KT CAVOK 22/19 Q1018;EQDQ01+000000PRSWM2Q02  00002PRCP99
0139673230999992000060109004-23870+035380FM-15+0015FQIN V0209999C000010060019N0112651N1+02401+01701999999ADDGA1071+006009999GF107991999999999999999999MA1102301999999MW1001REMMET045FQIN 010900Z 00000KT 9999 BKN020 24/17 Q1023;EQDQ01+000000PRSWM2
0290673230999992000060312004-23870+035380SY-MT+0015FQIN V0200801N00151006001CN0200001N1+02501+01941101961ADDAA106002091AY161061AY221061GA1071+006009999GF199999061021008001001001MA1101901999999MD1710131+9999MW1031REMSYN072AAXX  03124 67323 11570 60803 10250 20194 40196 57013 60021 70362 86200;MET045FQIN 031200Z 08003KT 9999 BKN020 21/19 Q1019;EQDQ01+000062SCOTCVQ02+000000PRSWM2Q03    003PRSWM1
0139673230999992000060612004-23870+035380FM-15+0015FQIN V0201601N005110060019N0112651N1+02401+01801999999ADDGA1071+006009999GF107991999999999999999999MA1102401999999MW1001REMMET045FQIN 061200Z 16010KT 9999 BKN020 24/18 Q1024;EQDQ01+000000PRSWM2
0184673230999992000060614004-23870+035380FM-15+0015FQIN V0201801N005110060019N0090001N1+02301+01901999999ADDGA1021+003009999GA2071+006009999GF107991999999999999999999MA1102401999999MW1531REMMET058FQIN 061400Z 18010KT 9000M - DZ SCT010 BKN020 23/19 Q1024;EQDQ01+000003PRSWM1Q02    003PRSWM1
0140673230999992000060615004-23870+035380FM-12+0015FQIN V0201801N005712200019N0550001N1+02161+01771102461ADDAY151031AY241031GF108991021021004501001011MD1310041+9999MW1201REMSYN066AAXX  06154 67323 41485 81811 10216 20177 40246 53004 72054 82201;
0158673230999992000060812004-23870+035380FM-12+0015FQIN V0201701N002112200019N0300001N1+02481+02111102081ADDAA199000091GF102991999021008001001001MD1710161+9999REMSYN060AAXX  08124 67323 32580 21704 10248 20211 40208 57016 86200;EQDQ01+000062SCOTLCQ02  00002PRCP99
0298673230999992000060906004-23870+035380SY-MT+0015FQIN V0209999C000012200019N0300001N1+01981+01881102321ADDAA124027991GA1021+006009999GF103991031021008001001001KA1120N+01661MA1102301999999MD1210071+9999MW1001OA150600001REMSYN104AAXX  09064 67323 12580 30000 10198 20188 40232 52007 60284 83200 333 20166 50/// 55000 555 00281 10179;MET045FQIN 090600Z 00000KT 9999 SCT020 20/19 Q1023;EQDQ01+000000PRSWM2
0142673230999992000061112004-23870+035380FM-12+0015FQIN V0209999C000012200019N0300001N1+02681+01861101911ADDAA199000091GF102991021011008001001001MD1710231+9999REMSYN060AAXX  11124 67323 32580 20000 10268 20186 40191 57023 82100;EQDQ01  00002PRCP99
0091673230999992000061115004-23870+035380FM-15+0015FQIN V0200901N00151220001CN0099001N1+02401+01801999999ADDMA1101901999999MW1001REMMET039FQIN 111500Z 09003KT CAVOK 24/18 Q1019;EQDQ01+000000PRSWM2
0208673230999992000061206004-23870+035380FM-12+0015FQIN V0209999C000012200019N0300001N1+01971+01861102251ADDAA199000091GA1001+999999999GF100991001001999999001001KA1120N+01561MD1210191+9999OA150600901REMSYN086AAXX  12064 67323 32980 00000 10197 20186 40225 52019 333 20156 50/// 55091 555 10000;EQDQ01  00002PRCP99
0198673230999992000061306004-23870+035380FM-12+0015FQIN V0201801N002612200019N0300001N1+01961+01861102571ADDAA199000091GF102991021021008001001001KA1120N+01661MD1210101+9999OA150600901REMSYN092AAXX  13064 67323 32580 21805 10196 20186 40257 52010 82200 333 20166 50/// 55096 555 10000;EQDQ01  00002PRCP99
0139673230999992000061312004-23870+035380FM-15+0015FQIN V0200901N002112200019N0112651N1+02601+01801999999ADDGA1021+006009999GF104991999999999999999999MA1102301999999MW1001REMMET045FQIN 131200Z 09004KT 9999 SCT020 26/18 Q1023;EQDQ01+000000PRSWM2
0139673230999992000061313004-23870+035380FM-15+0015FQIN V0200901N002112200019N0112651N1+02601+01801999999ADDGA1021+006009999GF102991999999999999999999MA1102201999999MW1001REMMET045FQIN 131300Z 09004KT 9999 FEW020 26/18 Q1022;EQDQ01+000000PRSWM2
0208673230999992000061406004-23860+035380FM-12+0015FQIN V0209999C000012200019N0300001N1+01921+01761102351ADDAA199000091GA1001+999999999GF100991001001999999001001KA1120N+01671MD1210111+9999OA150600901REMSYN086AAXX  14064 67323 32980 00000 10192 20176 40235 52011 333 20167 50/// 55092 555 10000;EQDQ01  00002PRCP99
0091673230999992000061407004-23860+035380FM-15+0015FQIN V0209999C00001220001CN0099001N1+02101+01401999999ADDMA1102401999999MW1001REMMET039FQIN 140700Z 00000KT CAVOK 21/14 Q1024;EQDQ01+000000PRSWM2
0139673230999992000061408004-23860+035380FM-15+0015FQIN V0201801N001012200019N0112651N1+02301+01901999999ADDGA1021+006009999GF102991999999999999999999MA1102401999999MW1001REMMET045FQIN 140800Z 18002KT 9999 FEW020 23/19 Q1024;EQDQ01+000000PRSWM2
0139673230999992000061409004-23860+035380FM-15+0015FQIN V0209999C000012200019N0112651N1+02601+02001999999ADDGA1021+006009999GF102991999999999999999999MA1102301999999MW1001REMMET045FQIN 140900Z 00000KT 9999 FEW020 26/20 Q1023;EQDQ01+000000PRSWM2
0142673230999992000061612004-23860+035380FM-12+0015FQIN V0200201N003112200019N0300001N1+02561+01781102021ADDAA199000091GF102991021021008001001001MD1710261+9999REMSYN060AAXX  16124 67323 32580 20206 10256 20178 40202 57026 82200;EQDQ01  00002PRCP99
0139673230999992000061613004-23860+035380FM-15+0015FQIN V0200201N003112200019N0112651N1+02501+01801999999ADDGA1021+006009999GF102991999999999999999999MA1102001999999MW1001REMMET045FQIN 161300Z 02006KT 9999 FEW020 25/18 Q1020;EQDQ01+000000PRSWM2
0112673230999992000061815004-23860+035380FM-12+0015FQIN V0209999C000012200019N0300001N1+02381+01981102361ADDGF101991011011008001001001MD1210061+9999REMSYN060AAXX  18154 67323 42580 10000 10238 20198 40236 52006 81100;
0198673230999992000061906004-23860+035380FM-12+0015FQIN V0209999C000010075019N0300001N1+02061+01961102631ADDAA199000091GF106991061021008001001001KA1120N+01601MD1210121+9999OA150600101REMSYN092AAXX  19064 67323 32580 60000 10206 20196 40263 52012 86200 333 20160 50/// 55013 555 10000;EQDQ01  00002PRCP99
0112673230999992000061909004-23860+035380FM-12+0015FQIN V0201001N004110120019N0300001N1+02461+01941102591ADDGF107991071081008001999999MD1710041+9999REMSYN060AAXX  19094 67323 42580 71008 10246 20194 40259 57004 878//;
0208673230999992000062206004-23860+035380FM-12+0015FQIN V0209999C000012200019N0300001N1+02061+01981101801ADDAA199000091GA1001+999999999GF100991001001999999001001KA1120N+01621MD1310101+9999OA150600601REMSYN086AAXX  22064 67323 32980 00000 10206 20198 40180 53010 333 20162 50/// 55066 555 10000;EQDQ01  00002PRCP99
0246673230999992000062312004-23860+035380SY-MT+0015FQIN V0200901N002112200019N0300001N1+02741+01991101641ADDAA199000091GA1021+006009999GF101991011011008001001001MA1101591999999MD1710171+9999MW1001REMSYN060AAXX  23124 67323 32580 10904 10274 20199 40164 57017 81100;MET045FQIN 231200Z 09004KT 9999 FEW020 27/20 Q1016;EQDQ01+000000PRSWM2Q02  00002PRCP99
0139673230999992000062313004-23860+035380FM-15+0015FQIN V0200301N002112200019N0112651N1+02701+02001999999ADDGA1021+006009999GF104991999999999999999999MA1101591999999MW1001REMMET045FQIN 231300Z 03004KT 9999 SCT020 27/20 Q1016;EQDQ01+000000PRSWM2
0235673230999992000062315004-23860+035380SY-MT+0015FQIN V0209999C000012200019N0300001N1+02481+02101101731ADDGA1021+006009999GF199999011011008001001001MA1101691999999MD1310091+9999MW1001REMSYN060AAXX  23154 67323 42580 10000 10248 20210 40173 53009 81100;MET045FQIN 231500Z 00000KT 9999 FEW020 25/21 Q1017;EQDQ01+000012SCOTCVQ02+000000PRSWM2
0198673230999992000062506004-23860+035380FM-12+0015FQIN V0209999C000012200019N0300001N1+01961+01751102161ADDAA199000091GF103991031021008001001001KA1120N+01671MD1310161+9999OA150600701REMSYN092AAXX  25064 67323 32580 30000 10196 20175 40216 53016 83200 333 20167 50/// 55073 555 10000;EQDQ01  00002PRCP99
0112673230999992000062609004-23860+035380FM-12+0015FQIN V0202401N002112200019N0300001N1+02381+01831102411ADDGF104991041021008001001001MD1010041+9999REMSYN060AAXX  26094 67323 42580 42404 10238 20183 40241 50004 84200;
0142673230999992000062612004-23860+035380FM-12+0015FQIN V0203501N001512200019N0300001N1+02601+01741102271ADDAA199000091GF104991041021008001001001MD1710141+9999REMSYN060AAXX  26124 67323 32580 43503 10260 20174 40227 57014 84200;EQDQ01  00002PRCP99
0112673230999992000062615004-23860+035380FM-12+0015FQIN V0202701N002612200019N0300001N1+02241+01611102301ADDGF102991021011008001001001MD1310031+9999REMSYN060AAXX  26154 67323 42580 22705 10224 20161 40230 53003 82100;
0216673230999992000062712004-23860+035380SY-MT+0015FQIN V0209999C000012200019N0300001N1+02561+01771102411ADDAA199000091GF104991041021008001001001MD1710171+9999MW1001REMSYN060AAXX  27124 67323 32580 40000 10256 20177 40241 57017 84200;MET046FQIN 271200Z 00000KT 99999 SCT020 26/18 Q1024;EQDQ01+000000PRSWM2Q02  00002PRCP99
0142673230999992000062812004-23860+035380FM-12+0015FQIN V0200901N001512200019N0300001N1+02501+01471102471ADDAA199000091GF102991021011008001001001MD1710201+9999REMSYN060AAXX  28124 67323 32580 20903 10250 20147 40247 57020 82100;EQDQ01  00002PRCP99
0298673230999992000062906004-23860+035380SY-MT+0015FQIN V0209999C000010060019N0200001N1+02041+01851102771ADDAA124003091GA1071+006009999GF105991051021008001001001KA1120N+01761MA1102711999999MD1210181+9999MW1001OA150601001REMSYN104AAXX  29064 67323 12570 50000 10204 20185 40277 52018 60034 85200 333 20176 50/// 55100 555 00030 10000;MET045FQIN 290600Z 00000KT 9999 BKN020 20/19 Q1027;EQDQ01+000000PRSWM2
0139673230999992000062907004-23860+035380FM-15+0015FQIN V0200901N002610060019N0112651N1+02301+01701999999ADDGA1071+006009999GF107991999999999999999999MA1102711999999MW1001REMMET045FQIN 290700Z 09005KT 9999 BKN020 23/17 Q1027;EQDQ01+000000PRSWM2
0157673230999992000063012004-23860+035380FM-12+0015FQIN V0201801N003110120019N0090001N1+02041+01821102491ADDAA106003091AY181061AY221061GF107991071081008001999999MD1710171+9999MW1801REMSYN072AAXX  30124 67323 11559 71806 10204 20182 40249 57017 60031 78082 878//;
0140673230999992000063015004-23860+035380FM-12+0015FQIN V0201701N003612200019N0200001N1+02161+01611102451ADDAY181031AY221031GF103991031021008001001001MD1710041+9999MW1021REMSYN066AAXX  30154 67323 41570 31707 10216 20161 40245 57004 70282 83200;
0174673230999992000070406004-23860+035380FM-12+0015FQIN V0201801N002112200019N0300001N1+02001+01711102541ADDGF104991041021008001001001KA1120N+01521MD1210071+9999OA150600901REMSYN098AAXX  04064 67323 12580 41804 10200 20171 40254 52007 84200 333 20152 50/// 55091 555 00051 10042;
0174673230999992000070408004-23860+035380FM-12+0015FQIN V0201801N002112200019N0200001N1+02001+01711102541ADDGF104991041021008001001001KA1120N+01521MD1210071+9999OA159900901REMSYN098AAXX  04084 67323 12570 41804 10200 20171 40254 52007 84200 333 20152 50/// 55091 555 00051 10042;
0162673230999992000070409004-23860+035380FM-15+0015FQIN V0201701N005112200019N0112651N1+02201+01801999999ADDGA1021+006009999GA2021+007509999GF104991999999999999999999MA1102511999999MW1001REMMET052FQIN 040900Z 17010KT 9999 SCT020 SCT025 22/18 Q1025;EQDQ01+000000PRSWM2
0142673230999992000070512004-23860+035380FM-12+0015FQIN V0201801N004112200019N0300001N1+02501+01461102431ADDAA199000091GF102991021021008001001001MD1610101+9999REMSYN060AAXX  05124 67323 32580 21808 10250 20146 40243 56010 82200;EQDQ01  00002PRCP99
0157673230999992000070812004-23860+035380FM-12+0015FQIN V0201601N006210075019N0200001N1+02381+01681102451ADDAA106000891AY181061AY211061GF105991051021008001001001MD1710171+9999MW1021REMSYN072AAXX  08124 67323 11570 51612 10238 20168 40245 57017 69981 70281 85200;
0139673230999992000070813004-23860+035380FM-15+0015FQIN V0201701N006212200019N0112651N1+02401+01701999999ADDGA1021+006009999GF104991999999999999999999MA1102401999999MW1001REMMET045FQIN 081300Z 17012KT 9999 SCT020 24/17 Q1024;EQDQ01+000000PRSWM2
0292673230999992000070906004-23860+035380SY-MT+0015FQIN V0201801N002112200019N0300001N1+02041+01841102311ADDAA124000891GA1021+006009999GF103991031021008001001001KA1120N+01621MA1102301999999MD1210081+9999MW1001OA150600901REMSYN098AAXX  09064 67323 12580 31804 10204 20184 40231 52008 69984 83200 333 20162 50/// 55091 555 10040;MET045FQIN 090600Z 18004KT 9999 SCT020 20/18 Q1023;EQDQ01+000000PRSWM2
0185673230999992000071006004-23860+035380FM-12+0015FQIN V0209999C000012200019N0300001N1+01881+01631102211ADDAA124000891GF103991021011008001001021KA1120N+01601MD1210131+9999OA150601001REMSYN098AAXX  10064 67323 12580 30000 10188 20163 40221 52013 69984 82102 333 20160 50/// 55108 555 10007;
0112673230999992000071009004-23860+035380FM-12+0015FQIN V0202001N002112200019N0300001N1+02401+02131102231ADDGF103991031021008001001001MD1210021+9999REMSYN060AAXX  10094 67323 42580 32004 10240 20213 40223 52002 83200;
0157673230999992000071012004-23860+035380FM-12+0015FQIN V0201801N001510075019N0060001N1+02031+01251102071ADDAA106011991AY191061AY211061GF107991071091008001999999MD1610161+9999MW1951REMSYN072AAXX  10124 67323 11556 71803 10203 20125 40207 56016 60121 79591 879//;
0298673230999992000071106004-23860+035380SY-MT+0015FQIN V0201801N001510360019N0300001N1+01901+01621102251ADDAA124011991GA1021+006009999GF105991031021008001031001KA1120N+01571MA1102201999999MD1010101+9999MW1001OA150600601REMSYN104AAXX  11064 67323 12580 51803 10190 20162 40225 50010 60124 83230 333 20157 50/// 55063 555 00124 10008;MET045FQIN 110600Z 18003KT 9999 SCT020 19/16 Q1022;EQDQ01+000000PRSWM2
0139673230999992000071112004-23860+035380FM-15+0015FQIN V0201501N003110060019N0112651N1+02501+01901999999ADDGA1071+006009999GF107991999999999999999999MA1102101999999MW1001REMMET045FQIN 111200Z 15006KT 9999 BKN020 25/19 Q1021;EQDQ01+000000PRSWM2
0139673230999992000071113004-23860+035380FM-15+0015FQIN V0201501N004112200019N0112651N1+02501+01901999999ADDGA1021+006009999GF104991999999999999999999MA1102101999999MW1001REMMET045FQIN 111300Z 15008KT 9999 SCT020 25/19 Q1021;EQDQ01+000000PRSWM2
0139673230999992000071114004-23860+035380FM-15+0015FQIN V0201501N004112200019N0112651N1+02501+02001999999ADDGA1021+006009999GF102991999999999999999999MA1102101999999MW1001REMMET045FQIN 111400Z 15008KT 9999 FEW020 25/20 Q1021;EQDQ01+000000PRSWM2
0246673230999992000071212004-23860+035380SY-MT+0015FQIN V0201001N002110060019N0300001N1+02401+02001102071ADDAA199000091GA1071+006009999GF106991061021008001001001MA1102001999999MD1710231+9999MW1001REMSYN060AAXX  12124 67323 32580 61004 10240 20200 40207 57023 86200;MET045FQIN 121200Z 10004KT 9999 BKN020 24/20 Q1020;EQDQ01+000000PRSWM2Q02  00002PRCP99
0198673230999992000071406004-23860+035380FM-12+0015FQIN V0209999C000012200019N0300001N1+02181+01931101871ADDAA199000091GF101991011011008001001001KA1120N+01701MD1210121+9999OA150600801REMSYN092AAXX  14064 67323 32580 10000 10218 20193 40187 52012 81100 333 20170 50/// 55083 555 10000;EQDQ01  00002PRCP99
0142673230999992000071512004-23860+035380FM-12+0015FQIN V0203601N004112200019N0300001N1+02821+02101101131ADDAA199000091GF102991021011008001001001MD1710271+9999REMSYN060AAXX  15124 67323 32580 23608 10282 20210 40113 57027 82100;EQDQ01  00002PRCP99
0091673230999992000071813004-23860+035380FM-15+0015FQIN V0200201N00411220001CN0099001N1+02301+01201999999ADDMA1101901999999MW1001REMMET039FQIN 181300Z 02008KT CAVOK 23/12 Q1019;EQDQ01+000000PRSWM2
0151673230999992000071815004-23860+035380SY-MT+0015FQIN V0200601N005119999999N0300001N1+02141+01331101881ADDMD1810021+9999MW1001REMSYN054AAXX  18154 67323 42980 /0610 10214 20133 40188 58002;MET040FQIN 181500Z OEYPQPKT CAVOK 21/13 Q1018;EQDQ01+000000PRSWM2
0208673230999992000071906004-23860+035380FM-12+0015FQIN V0203601N003112200019N0300001N1+01861+01471101561ADDAA199000091GA1001+999999999GF100991001001999999001001KA1120N+01301MD1010041+9999OA150601001REMSYN086AAXX  19064 67323 32980 03606 10186 20147 40156 50004 333 20130 50/// 55100 555 10000;EQDQ01  00002PRCP99
0197673230999992000071912004-23860+035380SY-MT+0015FQIN V0200201N999992200019N9999999N1+02801+01501101291ADDGF101991999999012501999999MA1101391999999MW1001REMSYN042AAXX  19124 67323 /3608 10275 20147 40129;MET039FQIN 191200Z 36008KT CAVOK 28/15 Q1014;EQDQ01+003863WOSPD Q02+008002VODIS Q03+000000PRSWM2
0091673230999992000071915004-23860+035380FM-15+0015FQIN V0203601N00211220001CN0099001N1+02501+01801999999ADDMA1101191999999MW1001REMMET039FQIN 191500Z 36004KT CAVOK 25/18 Q1012;EQDQ01+000000PRSWM2
0202673230999992000072006004-23860+035380FM-12+0015FQIN V0203601N003112200019N0300001N1+01901+99999101361ADDAA199000091GA1001+999999999GF100991001001999999001001KA1120N+01671MD1210101+9999OA150601001REMSYN080AAXX  20064 67323 32980 03606 10190 40136 52010 333 20167 50/// 55103 555 10000;EQDQ01  00002PRCP99
0091673230999992000072008004-23860+035380FM-15+0015FQIN V0203601N00461220001CN0099001N1+02301+01701999999ADDMA1101391999999MW1001REMMET039FQIN 200800Z 36009KT CAVOK 23/17 Q1014;EQDQ01+000000PRSWM2
0207673230999992000072009004-23860+035380SY-MT+0015FQIN V0203601N003112200019N9999999N1+02581+01761101341ADDGF100991001001999999001001MA1101291999999MD1810021+9999MW1001REMSYN054AAXX  20094 67323 42950 03606 10258 20176 40134 58002;MET039FQIN 200900Z 36006KT CAVOK 26/18 Q1013;EQDQ01+050002VODIS Q02+000000PRSWM2
0139673230999992000072114004-23860+035380FM-15+0015FQIN V0209999C000012200019N0112651N1+02101+01301999999ADDGA1021+006009999GF104991999999999999999999MA1102101999999MW1001REMMET045FQIN 211500Z 00000KT 9999 SCT020 21/13 Q1021;EQDQ01+000000PRSWM2
0139673230999992000072115004-23860+035380FM-15+0015FQIN V0209999C000012200019N0112651N1+02101+01301999999ADDGA1021+006009999GF104991999999999999999999MA1102101999999MW1001REMMET045FQIN 211500Z 00000KT 9999 SCT020 21/13 Q1021;EQDQ01+000000PRSWM2
0139673230999992000072206004-23860+035380FM-15+0015FQIN V0201601N001510060019N0112651N1+01801+01501999999ADDGA1071+006009999GF107991999999999999999999MA1102301999999MW1001REMMET045FQIN 220600Z 16003KT 9999 BKN020 18/15 Q1023;EQDQ01+000000PRSWM2
0242673230999992000072209004-23860+035380SY-MT+0015FQIN V0202001N002110300019N0300001N1+02241+01451102471ADDGA1021+006009999GA2071+030009999GF106991031021008001051081MA1102401999999MD1210131+9999MW1001REMSYN060AAXX  22094 67323 42580 62004 10224 20145 40247 52013 83258;MET052FQIN 220900Z 20004KT 9999 SCT020 BKN100 22/15 Q1024;EQDQ01+000000PRSWM2
0122673230999992000072215004-23860+035380FM-12+0015FQIN V0209999C000012200019N0300001N1+02041+01371102391ADDGA1001+999999999GF100991001001999999001001MD1210141+9999REMSYN054AAXX  22154 67323 42980 00000 10204 20137 40239 52014;
0302673230999992000072306004-23860+035380SY-MT+0015FQIN V0202201N002112200019N0300001N1+01781+01321102741ADDAA199000091GA1021+006009999GF102991021011008001001001KA1120N+01321MA1102201999999MD1210121+9999MW1001OA150600601REMSYN092AAXX  23064 67323 32580 22204 10178 20132 40274 52012 82100 333 20132 50/// 55064 555 10000;MET045FQIN 230700Z 18010KT 9999 SCT020 21/15 Q1022;EQDQ01+000000PRSWM2Q02  00002PRCP99
0139673230999992000072307004-23860+035380FM-15+0015FQIN V0201801N005112200019N0112651N1+02101+01501999999ADDGA1021+006009999GF104991999999999999999999MA1102201999999MW1001REMMET045FQIN 230700Z 18010KT 9999 SCT020 21/15 Q1022;EQDQ01+000000PRSWM2
0140673230999992000072309004-23860+035380FM-12+0015FQIN V0201801N005112200019N0300001N1+02081+01521102811ADDAY101031AY281031GF104991041021008001001001MD1010071+9999MW1251REMSYN066AAXX  23094 67323 41580 41810 10208 20152 40281 50007 72508 84200;
0139673230999992000072406004-23860+035380FM-15+0015FQIN V0202201N002612200019N0112651N1+01801+01501999999ADDGA1021+006009999GF102991999999999999999999MA1102511999999MW1001REMMET045FQIN 240600Z 22005KT 9999 FEW020 18/15 Q1025;EQDQ01+000000PRSWM2
0139673230999992000072408004-23860+035380FM-15+0015FQIN V0201901N005112200019N0112651N1+02101+01501999999ADDGA1021+006009999GF104991999999999999999999MA1102511999999MW1001REMMET045FQIN 240800Z 19010KT 9999 SCT020 21/15 Q1025;EQDQ01+000000PRSWM2
0112673230999992000072409004-23860+035380FM-12+0015FQIN V0201901N004112200019N0300001N1+02241+01261102541ADDGF102991021011008001001001MD1010011+9999REMSYN060AAXX  24094 67323 42580 21908 10224 20126 40254 50001 82100;
0139673230999992000072412004-23860+035380FM-15+0015FQIN V0201801N002112200019N0112651N1+02301+01301999999ADDGA1021+006009999GF102991999999999999999999MA1102301999999MW1001REMMET045FQIN 241200Z 18004KT 9999 FEW020 23/13 Q1023;EQDQ01+000000PRSWM2
0246673230999992000072413004-23860+035380SY-MT+0015FQIN V0201801N002112200019N0300001N1+02321+01371102361ADDAA199000091GA1021+006009999GF102991021011008001001001MA1102301999999MD1710181+9999MW1001REMSYN060AAXX  24134 67323 32580 21804 10232 20137 40236 57018 82100;MET045FQIN 241300Z 18008KT 9999 FEW020 23/12 Q1023;EQDQ01+000000PRSWM2Q02  00002PRCP99
0139673230999992000072414004-23860+035380FM-15+0015FQIN V0201801N002112200019N0112651N1+02201+01301999999ADDGA1021+006009999GF102991999999999999999999MA1102301999999MW1001REMMET045FQIN 241400Z 18004KT 9999 FEW020 22/13 Q1023;EQDQ01+000000PRSWM2
0139673230999992000072415004-23860+035380FM-15+0015FQIN V0201801N002112200019N0112651N1+02101+01401999999ADDGA1021+006009999GF102991999999999999999999MA1102301999999MW1001REMMET045FQIN 241500Z 18004KT 9999 FEW020 21/14 Q1023;EQDQ01+000000PRSWM2
0112673230999992000072506004-23860+035380FM-12+0015FQIN V0209999C000012200019N0300001N1+02141+01651102321ADDGF103991031021008001001001MD1010011+9999REMSYN060AAXX  25064 67323 42580 30000 10214 20165 40232 50001 83200;
0139673230999992000072507004-23860+035380FM-15+0015FQIN V0209999C000012200019N0112651N1+01901+01601999999ADDGA1021+006009999GF102991999999999999999999MA1102301999999MW1001REMMET045FQIN 250700Z 00000KT 9999 FEW020 19/16 Q1023;EQDQ01+000000PRSWM2
0139673230999992000072508004-23860+035380FM-15+0015FQIN V0209999C000012200019N0112651N1+02001+01701999999ADDGA1021+006009999GF102991999999999999999999MA1102301999999MW1001REMMET045FQIN 250800Z 00000KT 9999 FEW020 20/17 Q1023;EQDQ01+000000PRSWM2
0139673230999992000072510004-23860+035380FM-15+0015FQIN V0203501N001012200019N0112651N1+02301+01601999999ADDGA1021+006009999GF104991999999999999999999MA1102201999999MW1001REMMET045FQIN 251000Z 35002KT 9999 SCT020 23/16 Q1022;EQDQ01+000000PRSWM2
0283673230999992000072706004-23860+035380SY-MT+0015FQIN V0202401N004110060019N0200001N1+01841+01611102761ADDAA124000191GA1071+006009999GF105991051021008001001001KA1120N+01551MA1102711999999MD1210061+0931MW1001REMSYN098AAXX  27064 67323 12570 52408 10184 20161 40276 52006 69924 85200 333 20155 50/// 58093 555 10000;MET047FQIN 270600Z 24008KT 9999 N BKN020 19/16 Q1027;EQDQ01+000000PRSWM2
0140673230999992000072709004-23860+035380FM-15+0015FQIN V0202101N006210060019N0112651N1+02001+01701999999ADDGA1071+006009999GF107991999999999999999999MW1001REMMET045FQIN 270900Z 21012KT 9999 BKN020 20/17 Q1016;EQDQ01+101593APOA  Q02+000000PRSWM2
0157673230999992000072712004-23860+035380FM-12+0015FQIN V0201801N002610042019N0050001N1+01941+01581102421ADDAA106000891AY181061AY251061GF107991071071004501999999MD1810221+9999MW1501REMSYN072AAXX  27124 67323 11450 71805 10194 20158 40242 58022 69971 75085 877//;
0139673230999992000072713004-23860+035380FM-15+0015FQIN V0209999C000010060019N0112651N1+02001+01801999999ADDGA1071+006009999GF107991999999999999999999MA1102401999999MW1001REMMET045FQIN 271300Z 00000KT 9999 BKN020 20/18 Q1024;EQDQ01+000000PRSWM2
0139673230999992000072714004-23860+035380FM-15+0015FQIN V0201901N005112200019N0112651N1+02101+01701999999ADDGA1021+006009999GF104991999999999999999999MA1102401999999MW1001REMMET045FQIN 271400Z 19010KT 9999 SCT020 21/17 Q1024;EQDQ01+000000PRSWM2
0082673230999992000072806004-23860+035380FM-15+0015FQIN V0202301N001512200019N0112651N1+99999+99999999999ADDMW1001REMMET045FQIN 280600Z 23003KT 9999 ECT020 19/18 Q1023;EQDQ01+000000PRSWM2
0139673230999992000072807004-23860+035380FM-15+0015FQIN V0202301N002110060019N0112651N1+01901+01701999999ADDGA1071+006009999GF107991999999999999999999MA1102301999999MW1001REMMET045FQIN 280700Z 23004KT 9999 BKN020 19/17 Q1023;EQDQ01+000000PRSWM2
0273673230999992000072809004-23860+035380SY-MT+0015FQIN V0202501N00151006001CN0200001N1+02061+01841102341ADDAY151031AY211031GA1071+006009999GF199999051021008001001001MA1102301999999MD1010041+9999MW1201REMSYN066AAXX  28094 67323 41570 52503 10206 20184 40234 50004 72051 85200;MET045FQIN 280900Z 25003KT 9999 BKN020 21/18 Q1023;EQDQ01+000052SCOTCVQ02+000000PRSWM2Q03    003PRSWM1
0157673230999992000072812004-23860+035380FM-12+0015FQIN V0202301N001510075019N0200001N1+02081+01821102101ADDAA106000591AY151061AY221061GF106991061021008001001001MD1710241+9999MW1031REMSYN072AAXX  28124 67323 11570 62303 10208 20182 40210 57024 69941 70352 86200;
0275673230999992000072906004-23860+035380SY-MT+0015FQIN V0209999C000012200019N0300001N1+01821+01771102051ADDAA124001091GF102991021011008001001001KA1120N+01411MD1210141+9999MW1001OA150600501REMSYN104AAXX  29064 67323 12580 20000 10182 20177 40205 52014 60014 82100 333 20141 50/// 55053 555 00011 10000;MET053FQIN 290600 20600Z 00000 KT 9999 . 32020 18/18 Q1020;EQDQ01+000000PRSWM2
0112673230999992000072909004-23860+035380FM-12+0015FQIN V0209999C000010075019N0300001N1+02241+01901101961ADDGF105991051021008001001001MD1710091+9999REMSYN060AAXX  29094 67323 42580 50000 10224 20190 40196 57009 85200;
0142673230999992000072912004-23860+035380FM-12+0015FQIN V0202001N006710075019N0300001N1+02321+01861101751ADDAA199000091GF105991051021008001001001MD1810211+9999REMSYN060AAXX  29124 67323 32580 52013 10232 20186 40175 58021 85200;EQDQ01  00002PRCP99
0318673230999992000073006004-23860+035380SY-MT+0015FQIN V0209999C000010060019N0300001N1+01841+01651102061ADDAA199000091GA1071+006009999GF105991999051008001001001KA1120N+01491MA1102001999999MD1210231+9999MW1001OA150600601REMSYN092AAXX  30064 67323 32580 50000 10184 20165 40206 52023 82500 333 20149 50/// 55064 555 10000;MET045FQIN 300600Z 00000KT 9999 BKN020 18/18 Q1020;EQDQ01+000000PRSWM2Q02+000022SCOTLCQ03  00002PRCP99
0139673230999992000073008004-23860+035380FM-15+0015FQIN V0201801N002112200019N0112651N1+02201+01901999999ADDGA1021+006009999GF104991999999999999999999MA1102201999999MW1001REMMET045FQIN 300800Z 18004KT 9999 SCT020 22/19 Q1022;EQDQ01+000000PRSWM2
0246673230999992000073012004-23860+035380SY-MT+0015FQIN V0209999C000012200019N0300001N1+02601+01721101891ADDAA199000091GA1021+006009999GF103991031021008001001001MA1101901999999MD1710241+9999MW1001REMSYN060AAXX  30124 67323 32580 30000 10260 20172 40189 57024 83200;MET045FQIN 301200Z 00000KT 9999 SCT020 26/17 Q1019;EQDQ01+000000PRSWM2Q02  00002PRCP99
0308673230999992000073106004-23860+035380SY-MT+0015FQIN V0209999C000012200019N0300001N1+01861+01761102161ADDAA124000191GA1021+006009999GF199999011011008001001001KA1120N+01501MA1102101999999MD1210091+9999MW1001OA150600801REMSYN098AAXX  31064 67323 12580 10000 10186 20176 40216 52009 69924 81100 333 20150 50/// 55085 555 10000;MET045FQIN 310600Z 00000KT 9999 FEW020 19/18 Q1021;EQDQ01+000012SCOTCVQ02+000000PRSWM2
0139673230999992000080108004-23860+035380FM-15+0015FQIN V0201801N002612200019N0112651N1+02201+01801999999ADDGA1021+006009999GF104991999999999999999999MA1102401999999MW1001REMMET045FQIN 010800Z 18005KT 9999 SCT020 22/18 Q1024;EQDQ01+000000PRSWM2
0246673230999992000080112004-23860+035380SY-MT+0015FQIN V0201401N005112200019N0300001N1+02461+01481102241ADDAA199000091GA1021+006009999GF103991031021008001001001MA1102201999999MD1710111+9999MW1001REMSYN060AAXX  01124 67323 32580 31410 10246 20148 40224 57011 83200;MET045FQIN 011200Z 14010KT 9999 SCT020 25/15 Q1022;EQDQ01+000000PRSWM2Q02  00002PRCP99
0302673230999992000080206004-23860+035380SY-MT+0015FQIN V0201801N001512200019N0100001N1+01941+01601102451ADDAA199000091GA1021+006009999GF103991031021008001001001KA1120N+01501MA1102401999999MD1210141+9999MW1001OA150600901REMSYN092AAXX  02064 67323 32560 31803 10194 20160 40245 52014 83200 333 20150 50/// 55097 555 10000;MET045FQIN 020600Z 18003KT 9999 SCT020 19/16 Q1024;EQDQ01+000000PRSWM2Q02  00002PRCP99
0138673230999992000080207004-23860+035380FM-15+0015FQIN V02099999999992200019N0112651N1+02101+01701999999ADDGA1021+006009999GF104991999999999999999999MA1102401999999MW1001REMMET044FQIN 020700Z 00000K 9999 SCT020 21/17 Q1024;EQDQ01+000000PRSWM2
0122673230999992000080409004-23860+035380FM-12+0015FQIN V0209999C000012200019N0300001N1+02611+01911102951ADDGA1001+999999999GF100991001001999999001001MD1810011+9999REMSYN054AAXX  04094 67323 42980 00000 10261 20191 40295 58001;
0158673230999992000080412004-23860+035380FM-12+0015FQIN V0200901N004112200019N0300001N1+02621+01891101932ADDAA199000091GF101991011011008001001001MD1710221+9999REMSYN060AAXX  04124 67323 32580 10908 10262 20189 40193 57022 81100;EQDQ01+101933APOSLPQ02  00002PRCP99
0208673230999992000080506004-23860+035380FM-12+0015FQIN V0202201N001512200019N0300001N1+01941+01741102441ADDAA199000091GA1001+999999999GF100991001001999999001001KA1120N+01521MD1210071+9999OA150600901REMSYN086AAXX  05064 67323 32980 02203 10194 20174 40244 52007 333 20152 50/// 55097 555 10000;EQDQ01  00002PRCP99
0198673230999992000080706004-23860+035380FM-12+0015FQIN V0202201N002612200019N0300001N1+01941+01591102471ADDAA199000091GF103991031021008001001001KA1120N+01451MD1210151+9999OA150601001REMSYN092AAXX  07064 67323 32580 32205 10194 20159 40247 52015 83200 333 20145 50/// 55102 555 10042;EQDQ01  00002PRCP99
0112673230999992000080709004-23860+035380FM-12+0015FQIN V0201501N005110075019N0300001N1+02321+01681102571ADDGF106991061021008001001001MD1010101+9999REMSYN060AAXX  07094 67323 42580 61510 10232 20168 40257 50010 86200;
0123673230999992000080806004-23860+035380FM-15+0015FQIN V02099999999992200019N0300001N1+99999+99999999999ADDGA1021+000159999GF102991999999999999999999MW1001REMMET044FQIN 080600Z 00000T 9999 FEW0-0 19/16 Q1026;EQDQ01+000000PRSWM2
0089673230999992000080808004-23860+035380FM-15+0015FQIN V02099999999992200019N0112651N1+99999+99999999999ADDMW1001REMMET052FQIN 080800Z 08080ZZ 18010KT 9999 FEW020 2317 Q1026;EQDQ01+000000PRSWM2
0112673230999992000080809004-23860+035380FM-12+0015FQIN V0201801N005112200019N0300001N1+02441+01101102571ADDGF102991021021008001001001MD1810021+9999REMSYN060AAXX  08094 67323 42580 21810 10244 20110 40257 58002 82200;
0142673230999992000080812004-23860+035380FM-12+0015FQIN V0201801N005112200019N0300001N1+02361+01201102361ADDAA199000091GF103991031021008001001001MD1810211+9999REMSYN060AAXX  08124 67323 32580 31810 10236 20120 40236 58021 83200;EQDQ01  00002PRCP99
0139673230999992000081007004-23860+035380FM-15+0015FQIN V0209999C000012200019N0112651N1+02001+01701999999ADDGA1021+006009999GF102991999999999999999999MA1102101999999MW1001REMMET045FQIN 100700Z 00000KT 9999 FEW020 20/17 Q1021;EQDQ01+000000PRSWM2
0112673230999992000081009004-23860+035380FM-12+0015FQIN V0203401N002612200019N0300001N1+02361+01321102151ADDGF104991041021008001001001MD1510071+9999REMSYN060AAXX  10094 67323 42580 43405 10236 20132 40215 55007 84200;
0136673230999992000081012004-23860+035380FM-12+0015FQIN V0200901N005112200019N0300001N1+01651+99999101821ADDAA199000091GF103991031021008001001001MD1710331+9999REMSYN054AAXX  10124 67323 32580 30910 10165 40182 57033 83200;EQDQ01  00002PRCP99
0244673230999992000081112004-23860+035380SY-MT+0015FQIN V0209999C00001006001CN0300001N1+02321+01571101691ADDAA199000091GA1071+006009999GF199999061021008001001001MD1710241+9999MW1001REMSYN060AAXX  11124 67323 32580 60000 10232 20157 40169 57024 86200;MET042FQIN 111200Z 00000KT 99 BKN020 2316 Q1017;EQDQ01+000062SCOTCVQ02+000000PRSWM2Q03  00002PRCP99
0112673230999992000081115004-23860+035380FM-12+0015FQIN V0201801N001512200019N0300001N1+02301+01691101691ADDGF104991041021008001001001MD1510001+9999REMSYN060AAXX  11154 67323 42580 41803 10230 20169 40169 55000 84200;
0251673230999992000081209004-23860+035380SY-MT+0015FQIN V0201901N006212200019N0300001N1+02441+02191999999ADDAY121031AY201031GA1021+006009999GF104991041021008001001001MA1102201999999MD1210041+9999MW1021REMSYN060AAXX  12094 67323 41580 41912 10244 20219 52004 70220 84200;MET045FQIN 120900Z 19012KT 9999 SCT020 24/17 Q1022;EQDQ01+000000PRSWM2Q02    003PRSWM1
0219673230999992000081215004-23860+035380SY-MT+0015FQIN V0201901N004112200019N0300001N1+02281+01591102161ADDGA1021+006009999GF103991031021008001001001MA1102101999999MD1210061+9999MW1001REMSYN060AAXX  12154 67323 42580 31908 10228 20159 40216 52006 83200;MET045FQIN 121500Z 19008KT 9999 SCT020 23/16 Q1021;EQDQ01+000000PRSWM2
0099673230999992000081312004-23860+035380FM-15+0015FQIN V0201701N002112200019N0900001N1+99999+99999999999ADDMW1001REMMET062FQIN 131200Z 17004KT 900 -DZ SCT010 BKN020 BKN025 21/17 Q1024;EQDQ01+000000PRSWM2
0140673230999992000081409004-23860+035380FM-12+0015FQIN V0202401N005110075019N0080001N1+02001+01861102741ADDAY161031AY221031GF108991051021008001071999MD1610031+9999MW1611REMSYN066AAXX  14094 67323 41558 82410 10200 20186 40274 56003 76162 8527/;
0139673230999992000081507004-23860+035380FM-15+0015FQIN V0201801N003610060019N0112651N1+02101+01801999999ADDGA1071+006009999GF107991999999999999999999MA1102811999999MW1001REMMET045FQIN 150700Z 18007KT 9999 BKN020 21/18 Q1028;EQDQ01+000000PRSWM2
0198673230999992000081606004-23860+035380FM-12+0015FQIN V0201001N003610075019N0300001N1+02061+01371102611ADDAA199000091GF105991051021008001001001KA1120N+01611MD1210111+9999OA150600801REMSYN092AAXX  16064 67323 32580 51007 10206 20137 40261 52011 85200 333 20161 50/// 55083 555 10154;EQDQ01  00002PRCP99
0142673230999992000081712004-23860+035380FM-12+0015FQIN V0201601N002612200019N0300001N1+02401+01521102121ADDAA199000091GF103991031021008001001001MD1710221+9999REMSYN060AAXX  17124 67323 32580 31605 10240 20152 40212 57022 83200;EQDQ01  00002PRCP99
0112673230999992000081715004-23860+035380FM-12+0015FQIN V0209999C000012200019N0200001N1+02201+01601102141ADDGF101991011011008001001001MD1310021+9999REMSYN060AAXX  17154 67323 42570 10000 10220 20160 40214 53002 81100;
0224673230999992000081806004-23860+035380FM-12+0015FQIN V0209999C000012200019N0300001N1+01881+01751102331ADDAA199000091GA1001+999999999GF100991001001999999001001KA1120M+99999MD1210081+9999OA150601001REMSYN086AAXX  18064 67323 32980 00000 10188 20175 40233 52008 333 10134 50/// 55104 555 10000;EQDQ01  00002PRCP99Q02 +01342ATMX  
0246673230999992000081812004-23860+035380SY-MT+0015FQIN V0201101N003612200019N0300001N1+02641+01721102031ADDAA199000091GA1021+006009999GF102991021021008001001001MA1102001999999MD1710221+9999MW1001REMSYN060AAXX  18124 67323 32580 21107 10264 20172 40203 57022 82200;MET045FQIN 181200Z 11007KT 9999 FEW020 26/17 Q1020;EQDQ01+000000PRSWM2Q02  00002PRCP99
0139673230999992000081814004-23860+035380FM-15+0015FQIN V0201701N004112200019N0112651N1+02401+01501999999ADDGA1021+006009999GF102991999999999999999999MA1102001999999MW1001REMMET045FQIN 181400Z 17008KT 9999 FEW020 24/15 Q1020;EQDQ01+000000PRSWM2
0302673230999992000081906004-23860+035380SY-MT+0015FQIN V0202101N001512200019N0300001N1+02101+01681102551ADDAA199000091GA1021+006009999GF102991021011008001001001KA1120N+01411MA1102511999999MD1210181+9999MW1001OA150601001REMSYN092AAXX  19064 67323 32580 22103 10210 20168 40255 52018 82100 333 20141 50/// 55105 555 10000;MET045FQIN 190600Z 21003KT 9999 FEW020 21/17 Q1025;EQDQ01+000000PRSWM2Q02  00002PRCP99
0219673230999992000081909004-23860+035380SY-MT+0015FQIN V0201001N004112200019N0300001N1+02441+01481102641ADDGA1021+006009999GF104991041021008001001001MA1102611999999MD1010091+9999MW1001REMSYN060AAXX  19094 67323 42580 41008 10244 20148 40264 50009 84200;MET045FQIN 190900Z 10008KT 9999 SCT020 24/15 Q1026;EQDQ01+000000PRSWM2
0246673230999992000081912004-23860+035380SY-MT+0015FQIN V0201001N002612200019N0300001N1+02361+01831102451ADDAA199000091GA1021+006009999GF104991041021008001001001MA1102401999999MD1710191+9999MW1001REMSYN060AAXX  19124 67323 32580 41005 10236 20183 40245 57019 84200;MET045FQIN 191200Z 10005KT 9999 SCT020 24/18 Q1024;EQDQ01+000000PRSWM2Q02  00002PRCP99
0139673230999992000081913004-23860+035380FM-15+0015FQIN V0201001N002612200019N0112651N1+02401+01601999999ADDGA1021+006009999GF104991999999999999999999MA1102401999999MW1001REMMET045FQIN 191300Z 10005KT 9999 SCT020 24/16 Q1024;EQDQ01+000000PRSWM2
0139673230999992000082007004-23860+035380FM-15+0015FQIN V0209999C000012200019N0112651N1+02001+01701999999ADDGA1021+006009999GF102991999999999999999999MA1102711999999MW1001REMMET045FQIN 200700Z 00000KT 9999 FEW020 20/17 Q1027;EQDQ01+000000PRSWM2
0235673230999992000082009004-23860+035380SY-MT+0015FQIN V0200901N003610060019N0300001N1+02391+01721102751ADDGA1071+006009999GF199999021999008001999999MA1102711999999MD1010001+9999MW1001REMSYN060AAXX  20094 67323 42580 60907 10239 20172 40275 50000 82///;MET045FQIN 200900Z 09007KT 9999 BKN020 23/17 Q1027;EQDQ01+000062SCOTCVQ02+000000PRSWM2
0142673230999992000082012004-23860+035380FM-12+0015FQIN V0200301N004612200019N0300001N1+02461+01631102541ADDAA199000091GF103991031021008001001001MD1710211+9999REMSYN060AAXX  20124 67323 32580 30309 10246 20163 40254 57021 83200;EQDQ01  00002PRCP99
0317673230999992000082206004-23860+035380SY-MT+0015FQIN V0201801N001512200019N0300001N1+01821+01621102241ADDAA199000091GA1021+006009999GF199999011011008001001001KA1120N+01351MA1102201999999MD1210151+9999MW1001OA150600901REMSYN092AAXX  22064 67323 32580 11803 10182 20162 40224 52015 81100 333 20135 50/// 55093 555 10000;MET044FQIN 220600Z 18003KT 9999 FEW20 18/16 Q1022;EQDQ01+000012SCOTCVQ02+000000PRSWM2Q03  00002PRCP99
0198673230999992000082207004-23860+035380FM-12+0015FQIN V0201801N001512200019N0300001N1+01821+01621102241ADDAA199000091GF101991011011008001001001KA1120N+01351MD1210151+9999OA159900901REMSYN092AAXX  22074 67323 32580 11803 10182 20162 40224 52015 81100 333 20135 50/// 55093 555 10000;EQDQ01  00002PRCP99
0219673230999992000082209004-23860+035380SY-MT+0015FQIN V0203301N001512200019N0300001N1+02341+01721102141ADDGA1021+006009999GF103991031021008001001001MA1102101999999MD1710141+9999MW1001REMSYN060AAXX  22094 67323 42580 33303 10234 20172 40214 57014 83200;MET045FQIN 220900Z 34003KT 9999 SCT020 23/17 Q1021;EQDQ01+000000PRSWM2
0142673230999992000082212004-23860+035380FM-12+0015FQIN V0201501N003612200019N0300001N1+02541+01771101901ADDAA199000091GF103991031021008001001001MD1710241+9999REMSYN060AAXX  22124 67323 32580 31507 10254 20177 40190 57024 83200;EQDQ01  00002PRCP99
0112673230999992000082215004-23860+035380FM-12+0015FQIN V0201501N003612200019N0300001N1+02281+01721101871ADDGF102991021021008001001001MD1610031+9999REMSYN060AAXX  22154 67323 42580 21507 10228 20172 40187 56003 82200;
0198673230999992000082306004-23860+035380FM-12+0015FQIN V0202101N003112200019N0300001N1+01941+01741102351ADDAA199000091GF103991031021008001001001KA1120N+01501MD1210171+9999OA150601001REMSYN092AAXX  23064 67323 32580 32106 10194 20174 40235 52017 83200 333 20150 50/// 55102 555 10000;EQDQ01  00002PRCP99
0106673230999992000082309004-23860+035380FM-12+0015FQIN V0201801N006210075019N0300001N1+02521+99999102331ADDGF105991051021008001001001MD1810021+9999REMSYN054AAXX  23094 67323 42580 51812 10252 40233 58002 85200;
0158673230999992000082312004-23860+035380FM-12+0015FQIN V0201901N999990075019N0300001N1+02531+01771102171ADDAA199000091GF105991051021008001001001MD1710161+9999REMSYN060AAXX  23124 67323 32580 51981 10253 20177 40217 57016 85200;EQDQ01+004163WOSPD Q02  00002PRCP99
0139673230999992000082313004-23860+035380FM-15+0015FQIN V0201801N005112200019N0112651N1+02401+01801999999ADDGA1021+006009999GF104991999999999999999999MA1102201999999MW1001REMMET045FQIN 231300Z 18010KT 9999 SCT020 24/18 Q1022;EQDQ01+000000PRSWM2
0219673230999992000082315004-23860+035380SY-MT+0015FQIN V0201601N004112200019N0300001N1+02321+01731102271ADDGA1021+006009999GF103991031021008001001001MA1102201999999MD1210101+9999MW1001REMSYN060AAXX  23154 67323 42580 31608 10232 20173 40227 52010 83200;MET045FQIN 231500Z 16008KT 9999 SCT020 23/17 Q1022;EQDQ01+000000PRSWM2
0198673230999992000082406004-23860+035380FM-12+0015FQIN V0202201N001512200019N0300001N1+02111+01821102401ADDAA199000091GF103991031021008001001001KA1120N+01511MD1210191+9999OA150600901REMSYN092AAXX  24064 67323 32580 32203 10211 20182 40240 52019 83200 333 20151 50/// 55098 555 10000;EQDQ01  00002PRCP99
0096673230999992000082412004-23860+035380FM-15+0015FQIN V0201701N005712200019N0112651N1+02501+01901999999ADDMA1102201999999MW1001REMMET044FQIN 241200Z 17011KT 9999 SC020 25/19 Q1022;EQDQ01+000000PRSWM2
0139673230999992000082413004-23860+035380FM-15+0015FQIN V0201801N006212200019N0112651N1+02501+01701999999ADDGA1021+009009999GF104991999999999999999999MA1102201999999MW1001REMMET045FQIN 241300Z 18012KT 9999 SCT030 25/17 Q1022;EQDQ01+000000PRSWM2
0219673230999992000082415004-23860+035380SY-MT+0015FQIN V0201801N003612200019N0080001N1+02281+01591102201ADDGA1021+006009999GF103991031021008001001001MA1102201999999MD1210011+9999MW1001REMSYN060AAXX  24154 67323 42558 31807 10228 20159 40220 52001 83200;MET045FQIN 241500Z 18007KT 9999 SCT020 23/16 Q1022;EQDQ01+000000PRSWM2
0198673230999992000082506004-23860+035380FM-12+0015FQIN V0202101N002612200019N0300001N1+01901+01751102191ADDAA199000091GF102991021011008001001001KA1120N+01531MD1010011+9999OA150601001REMSYN092AAXX  25064 67323 32580 22105 10190 20175 40219 50001 82100 333 20153 50/// 55106 555 10000;EQDQ01  00002PRCP99
0139673230999992000082509004-23860+035380FM-12+0015FQIN V0201901N004112200019N0300001N1+02531+01961102431ADDAY111031AY201031GF103991999021008001001001MW1051REMSYN060AAXX  25094 67323 42580 31908 10253 20196 40243 70510 85200;EQDQ01+000052SCOTLC
0198673230999992000082706004-23860+035380FM-12+0015FQIN V0202201N001012200019N0300001N1+02021+01851102311ADDAA199000091GF103991031021008001001001KA1120N+01581MD1210131+9999OA150601001REMSYN092AAXX  27064 67323 32580 32202 10202 20185 40231 52013 83200 333 20158 50/// 55106 555 10000;EQDQ01  00002PRCP99
0139673230999992000082709004-23860+035380FM-15+0015FQIN V0201801N004112200019N0112651N1+02501+01801999999ADDGA1021+006009999GF104991999999999999999999MA1102301999999MW1001REMMET045FQIN 270900Z 18008KT 9999 SCT020 25/18 Q1023;EQDQ01+000000PRSWM2
0142673230999992000082712004-23860+035380FM-12+0015FQIN V0201801N002612200019N0300001N1+02601+01921102121ADDAA199000091GF102991021021008001001001MD1710331+9999REMSYN060AAXX  27124 67323 32580 21805 10260 20192 40212 57033 82200;EQDQ01  00002PRCP99
0142673230999992000082812004-23860+035380FM-12+0015FQIN V0201701N005112200019N0300001N1+02541+01631102081ADDAA199000091GF104991041021008001001001MD1710171+9999REMSYN060AAXX  28124 67323 32580 41710 10254 20163 40208 57017 84200;EQDQ01  00002PRCP99
0091673230999992000082906004-23860+035380FM-15+0015FQIN V0209999C00001220001CN0099001N1+02001+01901999999ADDMA1102001999999MW1001REMMET039FQIN 290600Z 00000KT CAVOK 20/19 Q1020;EQDQ01+000000PRSWM2
0139673230999992000082908004-23860+035380FM-15+0015FQIN V0200401N003112200019N0112651N1+02401+01801999999ADDGA1021+006009999GF102991999999999999999999MA1102001999999MW1001REMMET045FQIN 290800Z 04006KT 9999 FEW020 24/18 Q1020;EQDQ01+000000PRSWM2
0112673230999992000082909004-23860+035380FM-12+0015FQIN V0203601N002112200019N0300001N1+02541+01791102021ADDGF103991031021008001001001MD1710051+9999REMSYN060AAXX  29094 67323 42580 33604 10254 20179 40202 57005 83200;
0139673230999992000083007004-23860+035380FM-15+0015FQIN V0203601N003112200019N0112651N1+02301+01901999999ADDGA1021+006009999GF102991999999999999999999MA1101801999999MW1001REMMET045FQIN 300700Z 36006KT 9999 FEW020 23/19 Q1018;EQDQ01+000000PRSWM2
0139673230999992000083008004-23860+035380FM-15+0015FQIN V0200301N003612200019N0112651N1+02501+01901999999ADDGA1021+006009999GF102991999999999999999999MA1101691999999MW1001REMMET045FQIN 300800Z 03007KT 9999 FEW020 25/19 Q1017;EQDQ01+000000PRSWM2
0235673230999992000083009004-23860+035380SY-MT+0015FQIN V0203601N004112200019N0300001N1+02701+01851101661ADDGA1021+006009999GF199999011011008001001001MA1101591999999MD1810021+9999MW1001REMSYN060AAXX  30094 67323 42580 13608 10270 20185 40166 58002 81100;MET045FQIN 300900Z 36008KT 9999 FEW020 27/19 Q1016;EQDQ01+000012SCOTCVQ02+000000PRSWM2
0142673230999992000083012004-23860+035380FM-12+0015FQIN V0200301N006212200019N0300001N1+02581+01911101351ADDAA199000091GF101991011011008001001001MD1710311+9999REMSYN060AAXX  30124 67323 32580 10312 10258 20191 40135 57031 81100;EQDQ01  00002PRCP99
0075673230999992000083013004-23860+035380FM-15+0015FQIN V0200301N00721220001CN0099001N1+02501+01901999999ADDMW1001REMMET038FQIN 301300Z 03014KT CAVOK 25/19 Q113;EQDQ01+000000PRSWM2
0091673230999992000083106004-23860+035380FM-15+0015FQIN V0203601N00571220001CN0099001N1+99999+99999999999ADDMA1101491999999MW1001REMMET039FQIN 310600Z 36011KT CAVOK -3/19 Q1015;EQDQ01+000000PRSWM2
0091673230999992000083113004-23860+035380FM-15+0015FQIN V0200201N00981220001CN0099001N1+02601+02201999999ADDMA1101021999999MW1001REMMET039FQIN 311300Z 02019KT CAVOK 26/22 Q1010;EQDQ01+000000PRSWM2
0122673230999992000083115004-23860+035380FM-12+0015FQIN V0200101N008712200019N0200001N1+02441+02241100991ADDGA1001+999999999GF100991001001999999001001MD1610051+9999REMSYN054AAXX  31154 67323 42970 00117 10244 20224 40099 56005;
0273673230999992000090106004-23860+035380SY-MT+0015FQIN V0203601N004112200019N0300001N1+02301+02021101321ADDAA199000091GF100991001001999999001001KA1120N+01791MD1210181+9999MW1001OA150699999REMSYN086AAXX  01064 67323 32980 03608 10230 20202 40132 52018 333 20179 50/// 55001 555 10004;MET037FQIN 010600Z 36008KT CAVOK 230 Q1013;EQDQ01+000000PRSWM2Q02  00002PRCP99Q03  00002WGOSPD
0274673230999992000090107004-23860+035380SY-MT+0015FQIN V0203601N00411220001CN0300001N1+02301+02021101321ADDAA199000091GF100991001001999999001001KA1120N+01791MA1101391999999MD1210181+9999MW1001OA159901001REMSYN086AAXX  01074 67323 32980 03608 10230 20202 40132 52018 333 20179 50/// 55101 555 10000;MET039FQIN 010700Z 20003KT CAVOK 24/20 Q1014;EQDQ01+000000PRSWM2Q02  00002PRCP99
0218673230999992000090112004-23860+035380SY-MT+0015FQIN V0200601N005112200019N0300001N1+02741+02141101201ADDAA199000091GF100991001001999999001001MA1101191999999MD1710181+9999MW1001REMSYN054AAXX  01124 67323 32980 00610 10274 20214 40120 57018;MET039FQIN 011200Z 06010KT CAVOK 27/21 Q1012;EQDQ01+000000PRSWM2Q02  00002PRCP99
0091673230999992000090113004-23860+035380FM-15+0015FQIN V0200801N00511220001CN0099001N1+02701+02201999999ADDMA1101191999999MW1001REMMET039FQIN 011300Z 08010KT CAVOK 27/22 Q1012;EQDQ01+000000PRSWM2
0091673230999992000090114004-23860+035380FM-15+0015FQIN V0200901N00311220001CN0099001N1+02601+02201999999ADDMA1101191999999MW1001REMMET039FQIN 011400Z 09006KT CAVOK 26/22 Q1012;EQDQ01+000000PRSWM2
0232673230999992000090115004-23860+035380SY-MT+0015FQIN V0200901N00261220001CN0150001N1+02541+02211101301ADDAY101031AY201031GF100991001001999999001001MA1101291999999MD1210101+9999MW1051REMSYN060AAXX  01154 67323 41965 00905 10254 20221 40130 52010 70500;MET042FQIN 011500Z 09005KT CAVOK 25/22 Q1013 HZ;EQDQ01+000000PRSWM2Q02    003PRSWM1
0175673230999992000090209004-23860+035380SY-MT+0015FQIN V0200201N003112200019N0300001N1+02651+02161101691ADDGF100991001001999999001001MD1810031+9999MW1001REMSYN054AAXX  02094 67323 42980 00206 10265 20216 40169 58003;MET038FQIN 020900Z 02006KT CAVOK 2722 Q1015;EQDQ01+000000PRSWM2
0246673230999992000090212004-23860+035380SY-MT+0015FQIN V0200301N005112200019N0300001N1+02661+02181101461ADDAA199000091GA1021+006009999GF101991011011008001001001MA1101491999999MD1710331+9999MW1001REMSYN060AAXX  02124 67323 32580 10310 10266 20218 40146 57033 81100;MET045FQIN 021200Z 03010KT 9999 FEW020 27/22 Q1015;EQDQ01+000000PRSWM2Q02  00002PRCP99
0274673230999992000090306004-23860+035380SY-MT+0015FQIN V0203601N002612200019N0300001N1+02261+02021101341ADDAA199000091GF100991001001999999001001KA1120N+01751MA1101291999999MD1210091+9999MW1001OA150600901REMSYN086AAXX  03064 67323 32980 03605 10226 20202 40134 52009 333 20175 50/// 55092 555 10000;MET039FQIN 030600Z 36005KT CAVOK 23/20 Q1013;EQDQ01+000000PRSWM2Q02  00002PRCP99
0122673230999992000090309004-23860+035380FM-12+0015FQIN V0200401N006712200019N0300001N1+02701+02031101141ADDGA1001+999999999GF100991001001999999001001MD1710201+9999REMSYN054AAXX  03094 67323 42980 00413 10270 20203 40114 57020;
0106673230999992000090415004-23860+035380FM-12+0015FQIN V0200901N004119999999N0200001N1+02541+02221101371ADDGF107991999999999999999999MD1210161+9999REMSYN054AAXX  04154 67323 42970 70908 10254 20222 40137 52016;
0142673230999992000090512004-23860+035380FM-12+0015FQIN V0209999C000010075019N0200001N1+02821+02241101531ADDAA199000091GF105991051021008001001001MD1710311+9999REMSYN060AAXX  05124 67323 32570 50000 10282 20224 40153 57031 85200;EQDQ01  00002PRCP99
0162673230999992000090513004-23860+035380FM-15+0015FQIN V0201501N003619999999N0112651N1+02801+02101999999ADDGA1021+006009999GA2071+999999999GF107991999999999999999999MA1101491999999MW1001REMMET052FQIN 051300Z 15007KT 9999 SCT020 BKN/// 28/21 Q1015;EQDQ01+000000PRSWM2
0258673230999992000090515004-23860+035380SY-MT+0015FQIN V0200801N002110900019N0200001N1+02521+02101101631ADDGA1021+006009999GA2071+999999999GF199999031021008001001051MA1101591999999MD1310101+9999MW1001REMSYN060AAXX  05154 67323 42570 60804 10252 20210 40163 53010 83205;MET052FQIN 051500Z 08004KT 9999 SCT020 BKN/// 25/21 Q1016;EQDQ01+000062SCOTCVQ02+000000PRSWM2
0139673230999992000090606004-23860+035380FM-15+0015FQIN V0203601N004110060019N0112651N1+02301+02001999999ADDGA1071+006009999GF107991999999999999999999MA1101691999999MW1001REMMET045FQIN 060600Z 36008KT 9999 BKN020 23/20 Q1017;EQDQ01+000000PRSWM2
0191673230999992000090609004-23860+035380SY-MT+0015FQIN V0203601N00311220001CN0300001N1+02721+02141101581ADDGF100991001001999999001001MA1101591999999MD1810121+9999MW1001REMSYN054AAXX  06094 67323 42980 03606 10272 20214 40158 58012;MET039FQIN 060900Z 36006KT CAVOK 27/21 Q1016;EQDQ01+000000PRSWM2
0162673230999992000090615004-23860+035380FM-15+0015FQIN V0200301N004612200019N0112651N1+02401+02201999999ADDGA1021+006009999GA2021+999999999GF104991999999999999999999MA1101081999999MW1001REMMET052FQIN 061500Z 03009KT 9999 FEW020 SCT/// 24/22 Q1011;EQDQ01+000000PRSWM2
0274673230999992000090706004-23860+035380SY-MT+0015FQIN V0209999C000012200019N0200001N1+02231+02041101271ADDAA199000091GF100991001001999999001001KA1120N+01771MA1101191999999MD1210111+9999MW1001OA150600901REMSYN086AAXX  07064 67323 32970 00000 10223 20204 40127 52011 333 20177 50/// 55091 555 10000;MET039FQIN 070600Z 00000KT CAVOK 22/20 Q1012;EQDQ01+000000PRSWM2Q02  00002PRCP99
0091673230999992000090707004-23860+035380FM-15+0015FQIN V0200501N00211220001CN0099001N1+02401+02001999999ADDMA1101191999999MW1001REMMET039FQIN 070700Z 05004KT CAVOK 24/20 Q1012;EQDQ01+000000PRSWM2
0191673230999992000090709004-23860+035380SY-MT+0015FQIN V0200901N002612200019N0300001N1+02631+02051101191ADDGF100991001001999999001001MA1101191999999MD1710081+9999MW1001REMSYN054AAXX  07094 67323 42980 00905 10263 20205 40119 57008;MET039FQIN 070900Z 09005KT CAVOK 26/21 Q1012;EQDQ01+000000PRSWM2
0216673230999992000090712004-23860+035380SY-MT+0015FQIN V0200501N005112200019N0300001N1+02721+02141100991ADDAA199000091GF102991021011008001001001MD1710201+9999MW1001REMSYN060AAXX  07124 67323 32580 20510 10272 20214 40099 57020 82100;MET046FQIN 071200Z 05010KT 99999 FEW020 27/21 Q1010;EQDQ01+000000PRSWM2Q02  00002PRCP99
0083673230999992000090713004-23860+035380FM-15+0015FQIN V0200801N003612200019N0112651N1+99999+99999999999ADDMW1001REMMET046FQIN 071300Z 08007KT 99999 FEW020 26/22 Q1010;EQDQ01+000000PRSWM2
0214673230999992000090806004-23860+035380FM-12+0015FQIN V0201901N010312200019N0300001N1+02331+01321102111ADDAA199000091GF103991031021008001001001KA1120N+01711MD1210251+9999OA150699999REMSYN092AAXX  08064 67323 32580 31920 10233 20132 40211 52025 83200 333 20171 50/// 55089 555 10000;EQDQ01  00002PRCP99Q02  00802WGOSPD
0139673230999992000090808004-23860+035380FM-15+0015FQIN V0201801N010310060019N0112651N1+02401+01401999999ADDGA1071+006009999GF107991999999999999999999MA1102201999999MW1001REMMET045FQIN 080800Z 18020KT 9999 BKN020 24/14 Q1022;EQDQ01+000000PRSWM2
0112673230999992000090809004-23860+035380FM-12+0015FQIN V0201601N010310075019N0300001N1+02491+01441102441ADDGF105991051021008001001001MD1010131+9999REMSYN060AAXX  08094 67323 42580 51620 10249 20144 40244 50013 85200;
0112673230999992000090815004-23860+035380FM-12+0015FQIN V0201701N005112200019N0200001N1+02261+01571102231ADDGF103991031021008001001001MD1810081+9999REMSYN060AAXX  08154 67323 42570 31710 10226 20157 40223 58008 83200;
0142673230999992000090912004-23860+035380FM-12+0015FQIN V0200601N007712200019N0300001N1+02481+01631101911ADDAA199000091GF102991021011008001001001MD1010291+9999REMSYN060AAXX  09124 67323 32580 20615 10248 20163 40191 50029 82100;EQDQ01  00002PRCP99
0302673230999992000091106004-23860+035380SY-MT+0015FQIN V0201801N004112200019N0200001N1+02341+02151101861ADDAA199000091GA1021+006009999GF104991041021008001001001KA1120N+01731MA1101801999999MD1210201+9999MW1001OA150601001REMSYN092AAXX  11064 67323 32570 41808 10234 20215 40186 52020 84200 333 20173 50/// 55103 555 10000;MET045FQIN 110600Z 18008KT 9999 SCT020 23/22 Q1018;EQDQ01+000000PRSWM2Q02  00002PRCP99
0162673230999992000091109004-23860+035380FM-15+0015FQIN V0201901N010310030019N0112651N1+02101+01701999999ADDGA1071+003009999GA2081+006009999GF108991999999999999999999MA1102101999999MW1001REMMET052FQIN 110900Z 19020KT 9999 BKN010 OVC020 21/17 Q1021;EQDQ01+000000PRSWM2
0157673230999992000091112004-23860+035380FM-12+0015FQIN V0201901N011310042019N0200001N1+02091+01491102271ADDAA106001091AY151061AY221061GF108991081021004501999999MD1210101+9999MW1021REMSYN072AAXX  11124 67323 11470 81922 10209 20149 40227 52010 60011 70252 882//;
0131673230999992000091115004-23860+035380FM-12+0015FQIN V0201801N010310075019N0200001N1+02131+01471102271ADDGF108991061021008001071999MD1410001+9999REMSYN060AAXX  11154 67323 42570 81820 10213 20147 40227 58000 8627/;EQDQ01+000082APCTEN
0330673230999992000091206004-23860+035380SY-MT+0015FQIN V0201201N00671006001CN0300001N1+02511+01451102511ADDAA124001091GA1071+006009999GF199999061081008001001001KA1120N+01621MA1102511999999MD1210041+9999MW1001OA150699999REMSYN104AAXX  12064 67323 12580 61213 10251 20145 40251 52004 60014 86800 333 20162 50/77 55000 555 00006 10000;MET045FQIN 120600Z 12013KT 9999 BKN020 22/15 Q1025;EQDQ01+000062SCOTCVQ02+000000PRSWM2Q03  00002WGOSPD
0162673230999992000091207004-23860+035380FM-15+0015FQIN V0201401N006210060019N0112651N1+02201+01501999999ADDGA1071+006009999GA2071+007509999GF107991999999999999999999MA1102511999999MW1001REMMET052FQIN 120700Z 14012KT 9999 BKN020 BKN025 22/15 Q1025;EQDQ01+000000PRSWM2
0242673230999992000091209004-23860+035380SY-MT+0015FQIN V0201401N00511006001CN0300001N1+02221+01461102471ADDGA1071+006009999GA2071+007509999GF107991071081008001999999MA1102401999999MD1810141+9999MW1001REMSYN060AAXX  12094 67323 42580 71410 10222 20146 40247 58014 878//;MET052FQIN 120900Z 14010KT 9999 BKN020 BKN025 22/15 Q1024;EQDQ01+000000PRSWM2
0142673230999992000091212004-23860+035380FM-12+0015FQIN V0201001N004110120019N0300001N1+02261+01441102181ADDAA199000091GF107991071081008001999999MD1710291+9999REMSYN060AAXX  12124 67323 32580 71008 10226 20144 40218 57029 878//;EQDQ01  00002PRCP99
0161673230999992000091213004-23860+035380FM-15+0015FQIN V0201001N001510060019N0112651N1+02301+01601999999ADDGA1071+006009999GA2071+007509999GF107991999999999999999999MA1102101999999MW1001REMMET051FQIN 121300Z 10003KT9999 BKN020 BKN025 23/16 Q1021;EQDQ01+000000PRSWM2
0162673230999992000091215004-23860+035380FM-15+0015FQIN V0200301N002110060019N0112651N1+02201+01601999999ADDGA1071+006009999GA2071+007509999GF107991999999999999999999MA1102101999999MW1001REMMET052FQIN 121500Z 03004KT 9999 BKN020 BKN025 22/16 Q1021;EQDQ01+000000PRSWM2
0083673230999992000091309004-23860+035380FM-15+0015FQIN V0200201N008212200019N0112651N1+99999+99999999999ADDMW1001REMMET046FQIN 130900Z 02016KT 99999 SCT020 25/19 Q1017;EQDQ01+000000PRSWM2
0142673230999992000091312004-23860+035380FM-12+0015FQIN V0203601N010312200019N0300001N1+02541+01941101391ADDAA199000091GF102991021011008001001001MD1710301+9999REMSYN060AAXX  13124 67323 32580 23620 10254 20194 40139 57030 82100;EQDQ01  00002PRCP99
0075673230999992000091315004-23860+035380FM-15+0015FQIN V0200301N00821220001CN0099001N1+02401+02001999999ADDMW1001REMMET038FQIN 131500Z 03016KT CAVOK 24/20 Q103;EQDQ01+000000PRSWM2
0318673230999992000091406004-23860+035380SY-MT+0015FQIN V0200301N005110030019N0300001N1+02381+02121101521ADDAA199000091GA1071+003009999GF199999021051008001001001KA1120N+01841MA1101491999999MD1210191+9999MW1001OA150600901REMSYN092AAXX  14064 67323 32580 50310 10238 20212 40152 52019 82500 333 20184 50/// 55098 555 10000;MET045FQIN 140600Z 03010KT 9999 BKN010 24/21 Q1015;EQDQ01+000052SCOTCVQ02+000000PRSWM2Q03  00002PRCP99
0083673230999992000091408004-23860+035380FM-15+0015FQIN V0203601N004112200019N0112651N1+99999+99999999999ADDMW1001REMMET046FQIN 140800Z 36008KT 99999 FEW020 27/22 Q1015;EQDQ01+000000PRSWM2
0181673230999992000091514004-23860+035380FM-15+0015FQIN V0201801N007710030019N0070001N1+02001+01801999999ADDGA1071+003009999GA2081+006009999GF108991999999999999999999MA1102401999999MW1531REMMET055FQIN 151400Z 18015KT 7000 DZ BKN010 OVC020 20/18 Q1024;EQDQ01+000003PRSWM1Q02    003PRSWM1
0312673230999992000091706004-23860+035380SY-MT+0015FQIN V0200101N001512200019N0300001N1+02301+02001101751ADDAA199000091GA1021+006009999GF199999011011008001001001KA1120N+01751MA1101691999999MD1210081+9999MW1001OA150600701REMSYN086AAXX  17064 67323 32580 10103 10237 40175 52008 81100 333 20175 50/// 55071 555 10007;MET045FQIN 170600Z 01003KT 9999 FEW020 23/20 Q1017;EQDQ01+000012SCOTCVQ02+000000PRSWM2Q03  00002PRCP99
0139673230999992000091708004-23860+035380FM-15+0015FQIN V0200401N006212200019N0112651N1+02501+01901999999ADDGA1021+006009999GF104991999999999999999999MA1101691999999MW1001REMMET045FQIN 170800Z 04012KT 9999 SCT020 25/19 Q1017;EQDQ01+000000PRSWM2
0139673230999992000091710004-23860+035380FM-15+0015FQIN V0200101N009312200019N0112651N1+02701+01901999999ADDGA1021+006009999GF102991999999999999999999MA1101491999999MW1001REMMET045FQIN 171000Z 01018KT 9999 FEW020 27/19 Q1015;EQDQ01+000000PRSWM2
0091673230999992000091713004-23860+035380FM-15+0015FQIN V0200201N00821220001CN0099001N1+02601+02101999999ADDMA1101291999999MW1001REMMET039FQIN 171300Z 02016KT CAVOK 26/21 Q1013;EQDQ01+000000PRSWM2
0214673230999992000091806004-23860+035380FM-12+0015FQIN V0202101N001512200019N0300001N1+02281+02021101851ADDAA199000091GF102991999011008001001001KA1120N+01831MD1210111+9999OA150600901REMSYN092AAXX  18064 67323 32580 22103 10228 20202 40185 52011 81100 333 20183 50/// 55098 555 10000;EQDQ01+000012SCOTLCQ02  00002PRCP99
0091673230999992000091809004-23860+035380FM-15+0015FQIN V0201801N00361220001CN0099001N1+02801+02001999999ADDMA1101801999999MW1001REMMET039FQIN 180900Z 18007KT CAVOK 28/20 Q1018;EQDQ01+000000PRSWM2
0187673230999992000092106004-23860+035380FM-12+0015FQIN V0201601N006210075019N0300001N1+02401+01821102231ADDAA199000091GF106991061021008001001001KA1120N+01821MD1210121+9999REMSYN092AAXX  21064 67323 32580 61612 10240 20182 40223 52012 86200 333 20182 50/// 55/// 555 10000;EQDQ01  00002PRCP99
0139673230999992000092108004-23860+035380FM-15+0015FQIN V0201501N005112200019N0112651N1+02601+01801999999ADDGA1021+006009999GF104991999999999999999999MA1102201999999MW1001REMMET045FQIN 210800Z 15010KT 9999 SCT020 26/18 Q1022;EQDQ01+000000PRSWM2
0219673230999992000092109004-23860+035380SY-MT+0015FQIN V0201501N005112200019N0300001N1+02661+01721102181ADDGA1021+006009999GF104991041021008001001001MA1102201999999MD1810051+9999MW1001REMSYN060AAXX  21094 67323 42580 41510 10266 20172 40218 58005 84200;MET045FQIN 210900Z 15010KT 9999 SCT020 27/17 Q1022;EQDQ01+000000PRSWM2
0139673230999992000092209004-23860+035380FM-15+0015FQIN V0201501N009310060019N0112651N1+02601+01701999999ADDGA1071+006009999GF107991999999999999999999MA1102301999999MW1001REMMET045FQIN 220900Z 15018KT 9999 BKN020 26/17 Q1023;EQDQ01+000000PRSWM2
0170673230999992000092212004-23860+035380FM-12+0015FQIN V0201801N006210042019N0090001N1+02401+01851102131ADDAA199000021AY151061AY221061GF108991999021004501031999MD1610171+9999MW1501REMSYN066AAXX  22124 67323 31459 81812 10240 20185 40213 56017 75052 8823/;EQDQ01+000082SCOTLC
0139673230999992000092213004-23860+035380FM-15+0015FQIN V0201801N002110060019N0112651N1+02301+01901999999ADDGA1071+006009999GF107991999999999999999999MA1102101999999MW1001REMMET045FQIN 221300Z 18004KT 9999 BKN020 23/19 Q1021;EQDQ01+000000PRSWM2
0139673230999992000092214004-23860+035380FM-15+0015FQIN V0201801N004110060019N0112651N1+02501+01801999999ADDGA1071+006009999GF107991999999999999999999MA1102101999999MW1001REMMET045FQIN 221400Z 18008KT 9999 BKN020 25/18 Q1021;EQDQ01+000000PRSWM2
0213673230999992000092306004-23860+035380FM-12+0015FQIN V0201601N005110075019N0200001N1+02321+01861102211ADDAA124001091AY151061AY221061GF106991061021008001001001KA1120N+01661MD1210101+9999MW1021OA150600801REMSYN104AAXX  23064 67323 11570 61610 10232 20186 40221 52010 60014 70252 86200 333 20166 50/// 55089 555 10000;
0112673230999992000092309004-23860+035380FM-12+0015FQIN V0202401N004110075019N0300001N1+02641+01731102161ADDGF105991051021008001001001MD1810051+9999REMSYN060AAXX  23094 67323 42580 52408 10264 20173 40216 58005 85200;
0198673230999992000092606004-23860+035380FM-12+0015FQIN V0200301N004112200019N0300001N1+02501+02101101671ADDAA199000091GF103991031021008001001001KA1120N+01881MD1210111+9999OA150601001REMSYN092AAXX  26064 67323 32580 30308 10250 20210 40167 52011 83200 333 20188 50/// 55108 555 10000;EQDQ01  00002PRCP99
0146673230999992000092612004-23860+035380FM-12+0015FQIN V0200901N005112200019N0300001N1+02721+99999101391ADDAA199000091GA1001+999999999GF100991001001999999001001MD1710181+9999REMSYN048AAXX  26124 67323 32980 00910 10272 40139 57018;EQDQ01  00002PRCP99
0277673230999992000092706004-23860+035380SY-MT+0015FQIN V0201701N006212200019N0300001N1+02411+01981102131ADDAA124194191GA1021+006009999GF103991031021008001001001KA1120N+01901MD1010091+9999MW1001OA150601001REMSYN098AAXX  27064 67323 12580 31712 10241 20198 40213 50009 61944 83200 333 20190 50/// 55107 555 10000;MET045FQIN 270600Z 17012KT 9999 SCT020 24/20 Q101/;EQDQ01+000000PRSWM2
0139673230999992000092709004-23860+035380FM-15+0015FQIN V0201801N007710060019N0112651N1+02501+01801999999ADDGA1071+006009999GF107991999999999999999999MA1102201999999MW1001REMMET045FQIN 270900Z 18015KT 9999 BKN020 25/18 Q1022;EQDQ01+000000PRSWM2
0139673230999992000092710004-23860+035380FM-15+0015FQIN V0201701N007212200019N0112651N1+02401+01801999999ADDGA1021+006009999GF104991999999999999999999MA1102201999999MW1001REMMET045FQIN 271000Z 17014KT 9999 SCT020 24/18 Q1022;EQDQ01+000000PRSWM2
0139673230999992000092806004-23860+035380FM-15+0015FQIN V0200801N002112200019N0112651N1+02401+01801999999ADDGA1021+006009999GF102991999999999999999999MA1102001999999MW1001REMMET045FQIN 280600Z 08004KT 9999 FEW020 24/18 Q1020;EQDQ01+000000PRSWM2
0198673230999992000092807004-23860+035380FM-12+0015FQIN V0200801N002112200019N0300001N1+02391+01841102071ADDAA199000091GF102991021011008001001001KA1120N+01891MD1210061+9999OA159900501REMSYN092AAXX  28074 67323 32580 20804 10239 20184 40207 52006 82100 333 20189 50/// 55059 555 10000;EQDQ01  00002PRCP99
0138673230999992000092908004-23860+035380FM-15+0015FQIN V0200701N002112200019N0112651N1+02601+00101999999ADDGA1021+006009999GF102991999999999999999999MA1101901999999MW1001REMMET044FQIN 290800Z 07004KT 9999 FEW020 26/1 Q1019;EQDQ01+000000PRSWM2
0235673230999992000092909004-23860+035380SY-MT+0015FQIN V0200701N003112200019N0300001N1+02621+01882101911ADDGA1021+006009999GF102991021011008001001001MA1101901999999MD1810021+9999MW1001REMSYN060AAXX  29094 67323 42580 20706 10262 20188 40191 58002 82100;MET045FQIN 290900Z 07006KT 9999 FEW020 26/19 Q1019;EQDQ01+001883ATOD  Q02+000000PRSWM2
0139673230999992000093012004-23860+035380FM-15+0015FQIN V0200401N005112200019N0112651N1+02701+01901999999ADDGA1021+006009999GF102991999999999999999999MA1101591999999MW1001REMMET045FQIN 301200Z 04010KT 9999 FEW020 27/19 Q1016;EQDQ01+000000PRSWM2
0302673230999992000100106004-23860+035380SY-MT+0015FQIN V0209999C000012200019N0300001N1+02411+02131101701ADDAA199000091GA1021+006009999GF101991011011008001001001KA1120N+01801MA1101691999999MD1210091+9999MW1001OA150601101REMSYN092AAXX  01064 67323 32580 10000 10241 20213 40170 52009 81100 333 20180 50/// 55110 555 10000;MET045FQIN 010600Z 00000KT 9999 FEW020 24/21 Q1017;EQDQ01+000000PRSWM2Q02  00002PRCP99
0218673230999992000100112004-23860+035380SY-MT+0015FQIN V0200801N006712200019N0300001N1+02741+02141101411ADDAA199000091GF100991001001999999001001MA1101391999999MD1710241+9999MW1001REMSYN054AAXX  01124 67323 32980 00813 10274 20214 40141 57024;MET039FQIN 011200Z 08013KT CAVOK 27/21 Q1014;EQDQ01+000000PRSWM2Q02  00002PRCP99
0219673230999992000100115004-23860+035380SY-MT+0015FQIN V0200201N006212200019N0300001N1+02521+02081101431ADDGA1021+006009999GF101991011011008001001001MA1101391999999MD1310021+9999MW1001REMSYN060AAXX  01154 67323 42580 10212 10252 20208 40143 53002 81100;MET045FQIN 011500Z 06012KT 9999 FEW020 35/21 Q1014;EQDQ01+000000PRSWM2
0340673230999992000100206004-23860+035380SY-MT+0015FQIN V0202201N002112200019N0200001N1+02401+02251101971ADDAA199000091AY141061AY201061GA1021+006009999GF103991031021008001001001KA1120N+01751MA1101901999999MD1110131+9999MW1031OA150601101REMSYN098AAXX  02064 67323 31570 32204 10240 20225 40197 51013 70340 83200 333 20175 50/// 55110 555 10000;MET045FQIN 020600Z 22004KT 9999 SCT020 24/23 Q1019;EQDQ01+000000PRSWM2Q02  00002PRCP99Q03    003PRSWM1
0139673230999992000100207004-23860+035380FM-15+0015FQIN V0201901N002612200019N0112651N1+02601+02201999999ADDGA1021+006009999GF102991999999999999999999MA1102001999999MW1001REMMET045FQIN 020700Z 19005KT 9999 FEW020 26/22 Q1020;EQDQ01+000000PRSWM2
0218673230999992000100209004-23860+035380SY-MT+0015FQIN V0202101N002112200019N0300001N1+02861+02101101921ADDGA1021+006009999GF102991021011008001001001MA1101901999999MD1810051+9999MW1001REMSYN060AAXX  02094 67323 42580 22104 10286 20210 40192 58005 82100;MET044FQIN 020900Z 21004KT 9999FEW020 29/21 Q1019;EQDQ01+000000PRSWM2
0139673230999992000100212004-23860+035380FM-15+0015FQIN V0201901N005112200019N0112651N1+02901+02101999999ADDGA1021+006009999GF102991999999999999999999MA1101801999999MW1001REMMET045FQIN 021200Z 19010KT 9999 FEW020 29/21 Q1018;EQDQ01+000000PRSWM2
0075673230999992000100213004-23860+035380FM-15+0015FQIN V0201901N00461220001CN0099001N1+02801+02001999999ADDMW1001REMMET038FQIN 021300Z 19009KT CAVOK 28/20 Q108;EQDQ01+000000PRSWM2
0139673230999992000100214004-23860+035380FM-15+0015FQIN V0201801N006212200019N0112651N1+02701+02001999999ADDGA1021+006009999GF104991999999999999999999MA1101801999999MW1001REMMET045FQIN 021400Z 18012KT 9999 SCT020 27/20 Q1018;EQDQ01+000000PRSWM2
0242673230999992000100309004-23860+035380SY-MT+0015FQIN V0201801N002610060019N0300001N1+02511+01931101981ADDGA1071+006009999GA2071+007509999GF107991071081008001999999MA1101021999999MD1710061+9999MW1001REMSYN060AAXX  03094 67323 42580 71805 10251 20193 40198 57006 878//;MET052FQIN 030900Z 18005KT 9999 BKN020 BKN025 25/19 Q1010;EQDQ01+000000PRSWM2
0092673230999992000100615004-23860+035380FM-12+0015FQIN V0209999C000012200019N0300001N1+02581+02041101581ADDGF101991011011008001001001REMSYN054AAXX  06154 67323 42580 10000 10258 20204 40158 81100;
0198673230999992000100706004-23860+035380FM-12+0015FQIN V0201101N002610075019N0300001N1+02581+02191101951ADDAA199000091GF105991051021008001001001KA1120N+01901MD1210141+9999OA150600801REMSYN092AAXX  07064 67323 32580 51105 10258 20219 40195 52014 85200 333 20190 50/// 55083 555 10000;EQDQ01  00002PRCP99
0112673230999992000100709004-23860+035380FM-12+0015FQIN V0200901N006210075019N0300001N1+02821+02111101991ADDGF106991061021008001001001MD1010041+9999REMSYN060AAXX  07094 67323 42580 60912 10282 20211 40199 50004 86200;
0142673230999992000100712004-23860+035380FM-12+0015FQIN V0200901N005110075019N0300001N1+02821+02121101881ADDAA199000091GF106991061021008001001001MD1610111+9999REMSYN060AAXX  07124 67323 32580 60910 10282 20212 40188 56011 86200;EQDQ01  00002PRCP99
0152673230999992000101012004-23860+035380FM-12+0015FQIN V0200601N006212200019N0300001N1+02911+02231101211ADDAA199000091GA1001+999999999GF100991001001999999001001MD1710131+9999REMSYN054AAXX  10124 67323 32980 00612 10291 20223 40121 57013;EQDQ01  00002PRCP99
0141673230999992000101015004-23860+035380FM-12+0015FQIN V0200601N005112200019N0300001N1+02731+02161101211ADDGA1001+999999999GF100991001001999999001001MD1410001+9999REMSYN054AAXX  10154 67323 42980 00610 10273 20216 40121 53000;EQDQ01+000032APCTEN
0157673230999992000101206004-23860+035380FM-12+0015FQIN V0201701N006710042019N0200001N1+02201+01621102821ADDAA124000591AY151061AY221061GF107991071021004501999999MD1210171+9999MW1021REMSYN072AAXX  12064 67323 11470 71713 10220 20162 40282 52017 69954 70252 872//;
0112673230999992000101309004-23860+035380FM-12+0015FQIN V0201201N004110120019N0250001N1+02701+02071102371ADDGF107991071081008001999999MD1810061+9999REMSYN060AAXX  13094 67323 42575 71208 10270 20207 40237 58006 878//;
0198673230999992000101606004-23860+035380FM-12+0015FQIN V0201301N002112200019N0300001N1+02481+01821102041ADDAA199000091GF103991031021008001001001KA1120N+01741MD1210131+9999OA150600801REMSYN092AAXX  16064 67323 32580 31304 10248 20182 40204 52013 83200 333 20174 50/// 55086 555 10000;EQDQ01  00002PRCP99
0142673230999992000101612004-23860+035380FM-12+0015FQIN V0200801N004112200019N0300001N1+02831+01821101911ADDAA199000091GF101991011011008001001001MD1710171+9999REMSYN060AAXX  16124 67323 32580 10808 10283 20182 40191 57017 81100;EQDQ01  00002PRCP99
0112673230999992000101615004-23860+035380FM-12+0015FQIN V0200901N004112200019N0300001N1+02541+01791101871ADDGF101991011011008001001001MD1610041+9999REMSYN060AAXX  16154 67323 42580 10908 10254 20179 40187 56004 81100;
0142673230999992000101812004-23860+035380FM-12+0015FQIN V0200501N002612200019N0300001N1+02711+01861101511ADDAA199000091GF101991011011008001001001MD1710231+9999REMSYN060AAXX  18124 67323 32580 10505 10271 20186 40151 57023 81100;EQDQ01  00002PRCP99
0106673230999992000101815004-23860+035380FM-12+0015FQIN V0200901N002112200019N0300001N1+02511+01801101421ADDGF103991999999999999999999MD1710011+9999REMSYN054AAXX  18154 67323 42980 30904 10251 20180 40142 57001;
0092673230999992000102015004-23860+035380FM-12+0015FQIN V0201801N005112200019N0300001N1+02631+01881101871ADDGF102991021021008001001001REMSYN054AAXX  20154 67323 42580 21810 10263 20188 40187 82200;
0112673230999992000102209004-23860+035380FM-12+0015FQIN V0201801N006210075019N0300001N1+02641+01881102161ADDGF106991061021008001001001MD1810091+9999REMSYN060AAXX  22094 67323 42580 61812 10264 20188 40216 58009 86200;
0157673230999992000102212004-23860+035380FM-12+0015FQIN V0201701N004610120019N0200001N1+02251+01901101991ADDAA106000191AY151061AY221061GF107991071081008001999999MD1710171+9999MW1201REMSYN072AAXX  22124 67323 11570 71709 10225 20190 40199 57017 69921 72052 878//;
0214673230999992000102306004-23860+035380FM-12+0015FQIN V0201201N004612200019N0300001N1+02491+01651101991ADDAA199000091GF102991021081008001001001KA1120N+01851MD1210031+9999OA150699999REMSYN092AAXX  23064 67323 32580 21209 10249 20165 40199 52003 82800 333 20185 50/// 55031 555 10000;EQDQ01  00002PRCP99Q02  00302WGOSPD
0112673230999992000102309004-23860+035380FM-12+0015FQIN V0201401N003110075019N0300001N1+02611+01741101871ADDGF105991051021008001001001MD1710101+9999REMSYN060AAXX  23094 67323 42580 51406 10261 20174 40187 57010 85200;
0112673230999992000102315004-23860+035380FM-12+0015FQIN V0200901N002612200019N0300001N1+02441+01801101541ADDGF102991021011008001001001MD1510061+9999REMSYN060AAXX  23154 67323 42580 20905 10244 20180 40154 55006 82100;
0142673230999992000110112004-23860+035380FM-12+0015FQIN V0200601N005112200019N0300001N1+02661+01761101361ADDAA199000091GF101991011011008001001001MD1710151+9999REMSYN060AAXX  01124 67323 32580 10610 10266 20176 40136 57015 81100;EQDQ01  00002PRCP99
0112673230999992000110115004-23860+035380FM-12+0015FQIN V0200501N004112200019N0300001N1+02541+01641101311ADDGF101991011011008001001001MD1510051+9999REMSYN060AAXX  01154 67323 42580 10508 10254 20164 40131 55005 81100;
0185673230999992000110506004-23860+035380FM-12+0015FQIN V0203601N002610075019N0300001N1+02681+02451101661ADDAA124001091GF106991061021008001001001KA1120N+02121MD1210201+9999OA150600801REMSYN098AAXX  05064 67323 12580 63605 10268 20245 40166 52020 69994 86200 333 20212 50/// 55088 555 10112;
0142673230999992000110512004-23860+035380FM-12+0015FQIN V0200301N004612200019N0300001N1+02981+02481101441ADDAA199000091GF103991031021008001001001MD1710141+9999REMSYN060AAXX  05124 67323 32580 30309 10298 20248 40144 57014 83200;EQDQ01  00002PRCP99
0112673230999992000110515004-23860+035380FM-12+0015FQIN V0200501N002610075019N0300001N1+02811+02401101421ADDGF105991051021008001001001MD1610021+9999REMSYN060AAXX  05154 67323 42580 50505 10281 20240 40142 56002 85200;
0198673230999992000110606004-23860+035380FM-12+0015FQIN V0201501N002112200019N0300001N1+02741+02271101811ADDAA199000091GF104991041021008001001001KA1120N+02171MD1210091+9999OA150601001REMSYN092AAXX  06064 67323 32580 41504 10274 20227 40181 52009 84200 333 20217 50/// 55109 555 10009;EQDQ01  00002PRCP99
0142673230999992000110612004-23860+035380FM-12+0015FQIN V0201701N001512200019N0300001N1+03121+02161101511ADDAA199000091GF102991021011008001001001MD1010221+9999REMSYN060AAXX  06124 67323 32580 21703 10312 20216 40151 50022 82100;EQDQ01  00002PRCP99
0112673230999992000110810004-23860+035380FM-12+0015FQIN V0200601N001512200019N0300001N1+02821+02111101541ADDGF104991041041008001001001MD1810031+9999REMSYN060AAXX  08104 67323 42580 40603 10282 20211 40154 58003 84400;
0198673230999992000111006004-23860+035380FM-12+0015FQIN V0200501N005112200019N0300001N1+02541+02081101171ADDAA199000091GF102991021011008001001001KA1120N+01981MD1010071+9999OA150601001REMSYN092AAXX  10064 67323 32580 20510 10254 20208 40117 50007 82100 333 20198 50/// 55100 555 10000;EQDQ01  00002PRCP99
0112673230999992000111009004-23860+035380FM-12+0015FQIN V0200701N006212200019N0300001N1+02841+01951101091ADDGF101991011011008001001001MD1710081+9999REMSYN060AAXX  10094 67323 42580 10712 10284 20195 40109 57008 81100;
0112673230999992000111109004-23860+035380FM-12+0015FQIN V0200601N008210075019N0300001N1+02991+02381101211ADDGF106991061091008001041999MD1710021+9999REMSYN060AAXX  11094 67323 42580 60616 10299 20238 40121 57002 8694/;
0112673230999992000111115004-23860+035380FM-12+0015FQIN V0200401N010310075019N0300001N1+02561+02211101051ADDGF106991061091008001001001MD1810031+9999REMSYN060AAXX  11154 67323 42580 60420 10256 20221 40105 58003 86900;
0226673230999992000111506004-23860+035380FM-12+0015FQIN V0201801N003612200019N0300001N1+02571+02361101251ADDAA124002091GF103991999031004501001001KA1120N+02041MD1210091+9999OA150699999REMSYN104AAXX  15064 67323 12480 31807 10257 20236 40125 52009 60024 85300 333 20204 50/// 55000 555 00022 10009;EQDQ01+000052SCOTLCQ02  00002WGOSPD
0112673230999992000111509004-23860+035380FM-12+0015FQIN V0202601N001010075019N0300001N1+02781+02251101161ADDGF105991051021008001031001MD1710091+9999REMSYN060AAXX  15094 67323 42580 52602 10278 20225 40116 57009 85230;
0133673230999992000111615004-23860+035380FM-12+0015FQIN V0201801N006712200019N0300001N1+02721+02141101001ADDGF104991021021008001001091REMSYN060AAXX  16154 67323 42580 41813 10272 20214 40100 53000 82209;EQDQ01+000032APCTENQ02+000002APC3  
0191673230999992000111806004-23860+035380FM-12+0015FQIN V0201701N002112200019N0300001N1+02451+02241100871ADDAA124116191GF104991031021008001071001KA1120N+01961MD1710041+9999OA150600501REMSYN104AAXX  18064 67323 12580 41704 10245 20224 40087 57004 61164 83270 333 20196 50/// 55051 555 01156 10000;
0112673230999992000111809004-23860+035380FM-12+0015FQIN V0201401N005110075019N0300001N1+02701+02151100751ADDGF106991061021008001071001MD1710121+9999REMSYN060AAXX  18094 67323 42580 61410 10270 20215 40075 57012 86270;
0157673230999992000111912004-23860+035380FM-12+0015FQIN V0200201N003110075019N0200001N1+02741+02291100231ADDAA106001091AY191061AY261061GF107991051021008001051999MD1810111+9999MW1021REMSYN072AAXX  19124 67323 11570 70206 10274 20229 40023 58011 60011 70296 8525/;
0112673230999992000111915004-23860+035380FM-12+0015FQIN V0200901N002610075019N0200001N1+02641+02311100221ADDGF107991051091008001071999MD1810011+9999REMSYN060AAXX  19154 67323 42570 70905 10264 20231 40022 58001 8597/;
0210673230999992000112006004-23860+035380FM-12+0015FQIN V0202901N002612200019N0300001N1+02281+02021100791ADDAA124002091GF103991021011008001031001KA1120N+01691MD1210271+9999OA150699999REMSYN104AAXX  20064 67323 12580 32905 10228 20202 40079 52027 60024 82130 333 20169 50/// 55008 555 00021 10012;EQDQ01  00002WGOSPD
0140673230999992000112009004-23860+035380FM-12+0015FQIN V0209999C000010042019N0090001N1+02561+02211100751ADDAY121031AY211031GF107991061071004501021999MD1510041+9999MW1501REMSYN066AAXX  20094 67323 42459 70000 10256 20221 40075 55004 75021 8672/;
0112673230999992000112015004-23860+035380FM-12+0015FQIN V0201001N002110360019N0200001N1+02301+02151100651ADDGF105991041021008001071001MD1710011+9999REMSYN060AAXX  20154 67323 42570 51004 10230 20215 40065 57001 84270;
0112673230999992000112209004-23860+035380FM-12+0015FQIN V0202401N007210075019N0300001N1+02701+02161101281ADDGF106991061091008001001001MD1710021+9999REMSYN060AAXX  22094 67323 42580 62414 10270 20216 40128 57002 86900;
0129673230999992000112212004-23860+035380FM-12+0015FQIN V0202001N008210075019N0250001N1+02701+02171101141ADDAA106000591GF106991061091008001001001MD1710141+9999REMSYN066AAXX  22124 67323 12575 62016 10270 20217 40114 57014 69961 86900;
0112673230999992000112415004-23860+035380FM-12+0015FQIN V0200601N006712200019N0300001N1+02771+02291100961ADDGF101991011021008001001001MD1610021+9999REMSYN060AAXX  24154 67323 42580 10613 10277 20229 40096 56002 81200;
0198673230999992000112606004-23860+035380FM-12+0015FQIN V0201001N002612200019N0300001N1+02741+02131101771ADDAA199000091GF103991031021008001001001KA1120N+01991MD1010051+9999OA150601201REMSYN092AAXX  26064 67323 32580 31005 10274 20213 40177 50005 83200 333 20199 50/// 55121 555 10000;EQDQ01  00002PRCP99
0216673230999992000112706004-23860+035380FM-12+0015FQIN V0201601N004112200019N0300001N1+02781+02111101741ADDAA199000091GF104991041021008001001001KA1120N+02031OA150601001REMSYN092AAXX  27064 67323 32580 41608 10278 20211 40174 51000 84200 333 20203 50/// 55106 555 10000;EQDQ01+000012APCTENQ02+000002APC3  Q03  00002PRCP99
0112673230999992000112709004-23860+035380FM-12+0015FQIN V0200901N004110075019N0300001N1+02901+02081101761ADDGF106991061021008001001001MD1310021+9999REMSYN060AAXX  27094 67323 42580 60908 10290 20208 40176 53002 86200;
0142673230999992000112812004-23860+035380FM-12+0015FQIN V0200801N005112200019N0300001N1+99999+99999101471ADDAA199000091GF104991031021008001001021MD1010181+9999REMSYN060AAXX  28124 67323 32580 40810 19298 20204 40147 50018 83202;EQDQ01  00002PRCP99
0142673230999992000112912004-23860+035380FM-12+0015FQIN V0200601N006212200019N0300001N1+03021+02321101061ADDAA199000091GF103991021021008001021011MD1710141+9999REMSYN060AAXX  29124 67323 32580 30612 10302 20232 40106 57014 82221;EQDQ01  00002PRCP99
0112673230999992000113015004-23860+035380FM-12+0015FQIN V0201201N003110075019N0300001N1+02681+02191101441ADDGF106991051021008001061001MD1310031+9999REMSYN060AAXX  30154 67323 42580 61206 10268 20219 40144 53003 85260;
0142673230999992000120112004-23860+035380FM-12+0015FQIN V0201601N006212200019N0300001N1+02791+01841101781ADDAA199000091GF104991041021008001001011MD1710091+9999REMSYN060AAXX  01124 67323 32580 41612 10279 20184 40178 57009 84201;EQDQ01  00002PRCP99
0132673230999992000120215004-23860+035380FM-12+0015FQIN V0200801N003112200019N0300001N1+02681+01721101471ADDGA1001+999999999GF100991001001999999001001MD1510071+9999REMSYN064AAXX  02154 67323 42980 00806 10268 20172 40147 55007 333 94300;
0191673230999992000120506004-23860+035380FM-12+0015FQIN V0209999C000010120019N0300001N1+02621+02181101701ADDAA124000191GF105991051081008001001001KA1120N+02001MD1210141+9999OA150601201REMSYN104AAXX  05064 67323 12580 50000 10262 20218 40170 52014 69924 85800 333 20200 50/// 55123 94380 555 10000;
0122673230999992000120515004-23860+035380FM-12+0015FQIN V0201401N005110075019N0300001N1+02721+02301101451ADDGF107991051091008001001031MD1310011+9999REMSYN070AAXX  05154 67323 42580 71410 10272 20230 40145 53001 85903 333 94395;
0152673230999992000120612004-23860+035380FM-12+0015FQIN V0200601N006212200019N0300001N1+03011+02391101391ADDAA199000091GF103991031091008001001001MD1710141+9999REMSYN070AAXX  06124 67323 32580 30612 10301 20239 40139 57014 83900 333 94392;EQDQ01  00002PRCP99
0122673230999992000120615004-23860+035380FM-12+0015FQIN V0201001N003610900019N0300001N1+02931+02361101331ADDGF105991031021008001001021MD1510061+9999REMSYN070AAXX  06154 67323 42580 51007 10293 20236 40133 55006 83202 333 94322;
0122673230999992000120710004-23860+035380FM-12+0015FQIN V0200501N004612200019N0300001N1+03091+02321101411ADDGF103991031011008001001011MD1710121+9999REMSYN070AAXX  07104 67323 42580 30509 10309 20232 40141 57012 83101 333 94310;
0204673230999992000120806004-23860+035380FM-12+0015FQIN V0203601N006212200019N0300001N1+02861+02391101291ADDAA199000091GF104991041021008001001001KA1120N+02261MD1210091+9999OA150601101REMSYN098AAXX  08064 67323 32580 43612 10286 20239 40129 52009 84200 333 20226 50/// 55117 94328 555 10000;EQDQ01  00002PRCP99
0112673230999992000120809004-23860+035380FM-12+0015FQIN V0200701N006212200019N0300001N1+03181+02421101241ADDGF101991011011008001001001MD1810051+9999REMSYN060AAXX  08094 67323 42580 10712 10318 20242 40124 58005 81100;
0167673230999992000120912004-23860+035380FM-12+0015FQIN V0201801N002610075019N0300001N1+02881+02251101271ADDAA106002091AY181061AY221061GF106991061021008001001001MD1710131+9999MW1021REMSYN082AAXX  09124 67323 11580 61805 10288 20225 40127 57013 60021 70282 86200 333 94320;
0122673230999992000121212004-23860+035380FM-12+0015FQIN V0202201N010310075019N0200001N1+02751+01991100841ADDGF107991071021008001999999MD1210091+9999REMSYN070AAXX  12124 67323 12570 72220 10275 20199 40084 52009 872// 333 943//;
0204673230999992000121507004-23860+035380FM-12+0015FQIN V0201101N002612200019N0300001N1+02571+01261101831ADDAA199000091GF104991041021008001031001KA1120N+01831MD1210141+9999OA159900701REMSYN098AAXX  15074 67323 32580 41105 10257 20126 40183 52014 84230 333 20183 50/// 55076 94320 555 10000;EQDQ01  00002PRCP99
0141673230999992000121509004-23860+035380FM-12+0015FQIN V0201101N004119999999N0300001N1+02781+01701101771ADDGF105991999051008001001001MD1710051+9999REMSYN070AAXX  15094 67323 42580 51108 10278 20170 40177 57005 82500 333 94320;EQDQ01+000022SCOTLC
0152673230999992000121512004-23860+035380FM-12+0015FQIN V0200901N003612200019N0300001N1+02821+01811101721ADDAA199000091GF102991021011008001001001MD1710051+9999REMSYN070AAXX  15124 67323 32580 20907 10282 20181 40172 57005 82100 333 94310;EQDQ01  00002PRCP99
0122673230999992000121515004-23860+035380FM-12+0015FQIN V0201001N004112200019N0300001N1+02681+01861101711ADDGF102991021011008001001001MD1510011+9999REMSYN070AAXX  15154 67323 42580 21008 10268 20186 40171 55001 82100 333 94313;
0122673230999992000121609004-23860+035380FM-12+0015FQIN V0200801N003110075019N0300001N1+02801+02111101711ADDGF105991051021008001001001MD1710221+9999REMSYN070AAXX  16094 67323 42580 50806 10280 20211 40171 57022 85200 333 94320;
0118673230999992000121615004-23860+035380FM-12+0015FQIN V0200901N004112200019N0300001N1+02761+02001101461ADDGF103991031021008001001001MD1710121+9999REMSYN066AAXX  16154 67323 42580 30908 10276 20200 40146 57012 83200 94329;
0204673230999992000121706004-23860+035380FM-12+0015FQIN V0200101N003612200019N0300001N1+02641+02161101581ADDAA199000091GF104991041021008001001001KA1120N+01881MD1810011+9999OA150601001REMSYN098AAXX  17064 67323 32580 40107 10264 20216 40158 58001 84200 333 20188 50/// 55108 94322 555 10000;EQDQ01  00002PRCP99
0122673230999992000121709004-23860+035380FM-12+0015FQIN V0209999C000012200019N0300001N1+02901+02221101541ADDGF102991021011008001001001MD1810041+9999REMSYN070AAXX  17094 67323 42580 20000 10290 20222 40154 58004 82100 333 94310;
0122673230999992000121803004-23860+035380FM-12+0015FQIN V0201901N004110042019N0200001N1+02431+02291101181ADDGF108991081051004501999999MD1310131+9999REMSYN070AAXX  18034 67323 42470 81908 10243 20229 40118 53013 885// 333 94354;
0122673230999992000121809004-23860+035380FM-12+0015FQIN V0200601N005112200019N0300001N1+02921+02231101401ADDGF102991021021008001001001MD1810051+9999REMSYN070AAXX  18094 67323 42580 20610 10292 20223 40140 58005 82200 333 94301;
0152673230999992000122012004-23860+035380FM-12+0015FQIN V0200601N006212200019N0300001N1+03011+02361100971ADDAA199000091GF101991011011008001001001MD1710181+9999REMSYN070AAXX  20124 67323 32580 10612 10301 20236 40097 57018 81100 333 94310;EQDQ01  00002PRCP99
0204673230999992000122106004-23860+035380FM-12+0015FQIN V0209999C000010075019N0300001N1+02811+02531101361ADDAA199000091GF105991051021008001001011KA1120N+02261MD1210111+9999OA150601201REMSYN098AAXX  21064 67323 32580 50000 10281 20253 40136 52011 85201 333 20226 50/// 55124 94320 555 10000;EQDQ01  00002PRCP99
0122673230999992000122109004-23860+035380FM-12+0015FQIN V0209999C000010075019N0300001N1+03061+02471101261ADDGF105991051091008001001021MD1710101+9999REMSYN070AAXX  21094 67323 42580 50000 10306 20247 40126 57010 85902 333 94396;
0152673230999992000122112004-23860+035380FM-12+0015FQIN V0201401N005110075019N0300001N1+02961+02371101181ADDAA199000091GF107991061091008001001031MD1710081+9999REMSYN070AAXX  21124 67323 32580 71410 10296 20237 40118 57008 86903 333 94393;EQDQ01  00002PRCP99
0191673230999992000122206004-23860+035380FM-12+0015FQIN V0209999C000012200019N0300001N1+02901+02421101371ADDAA124003091GF104991041021008001001001KA1120N+02341MD1810031+9999OA150600501REMSYN104AAXX  22064 67323 12580 40000 10290 20242 40137 58003 60034 84200 333 20234 50/// 55055 94320 555 10000;
0150673230999992000122209004-23860+035380FM-12+0015FQIN V0209999C000010075019N0200001N1+02761+02441101351ADDAY191031AY221031GF106991061091008001031071MD1810021+9999MW1291REMSYN076AAXX  22094 67323 41570 60000 10276 20244 40135 58002 72992 86937 333 94320;
0150673230999992000122215004-23860+035380FM-12+0015FQIN V0201701N001510075019N0200001N1+02601+02341101071ADDAY191031AY221031GF107991051091008001051999MD1610101+9999MW1021REMSYN076AAXX  22154 67323 41570 71703 10260 20234 40107 56010 70292 8595/ 333 94390;
0197673230999992000122306004-23860+035380FM-12+0015FQIN V0209999C000012200019N0300001N1+02621+02461101261ADDAA124013091GF103991021021008001001021KA1120N+02151MD1010071+9999OA150600201REMSYN110AAXX  23064 67323 12580 31300 10262 20246 40126 50007 60134 82202 333 20215 50/// 55022 94323 555 00131 10031;
0122673230999992000122509004-23860+035380FM-12+0015FQIN V0209999C000012200019N0300001N1+03211+02271100651ADDGF103991031021008001001021MD1710121+9999REMSYN070AAXX  25094 67323 42580 30000 10321 20227 40065 57012 83202 333 94320;
0150673230999992000122515004-23860+035380FM-12+0015FQIN V0201101N001510075019N0300001N1+02751+02421100501ADDAY191031AY221031GF105991051021008001071999MD1710111+9999MW1021REMSYN076AAXX  25154 67323 41580 51103 10275 20242 40050 57011 70292 8527/ 333 94320;
0150673230999992000122609004-23860+035380FM-12+0015FQIN V0201801N007210075019N0080001N1+02401+02161101391ADDAY161031AY221031GF108991061091008001071999MD1210211+9999MW1501REMSYN076AAXX  26094 67323 42558 81814 10240 20216 40139 52021 75062 8697/ 333 94394;
0122673230999992000122615004-23860+035380FM-12+0015FQIN V0201801N007710075019N0250001N1+02601+02031101401ADDGF105991051021008001001001MD1310091+9999REMSYN070AAXX  26154 67323 42575 51815 10260 20203 40140 53009 85200 333 94320;
0222673230999992000122806004-23860+035380FM-12+0015FQIN V0201001N004112200019N0300001N1+02721+02001101521ADDAA199000091GF101991011011008001001001KA1120N+01861OA150601101REMSYN098AAXX  28064 67323 32580 11008 10272 20200 40152 53000 81100 333 20186 50/// 55119 94313 555 10007;EQDQ01+000032APCTENQ02+000002APC3  Q03  00002PRCP99
0122673230999992000122809004-23860+035380FM-12+0015FQIN V0200401N004112200019N0300001N1+02921+02081101441ADDGF102991021011008001001001MD1810081+9999REMSYN070AAXX  28094 67323 42580 20408 10292 20208 40144 58008 82100 333 94311;
0122673230999992000123115004-23860+035380FM-12+0015FQIN V0201101N005112200019N0300001N1+02981+02351100811ADDGF102991021011008001001011MD1710091+9999REMSYN070AAXX  31154 67323 42580 21110 10298 20235 40081 57009 82101 333 94312;
