0201010980999992000010100004+70370+031100FM-12+001599999V0202301N002110240019N0550001N1-00471+99999102001ADDAA106000091AY121061AY221061GF107991041051004501071001MA1999999101811MD1210131+9999MW1021REMSYN082AAXX  01004 01098 31485 72304 11047 21046 30181 40200 52013 70222 84570 333 91108;EQDQ01  00002PRCP06
0255010980999992000010106004+70370+031100FM-12+001599999V0201701N002610042019N9999999N1-00341-00391101841ADDAA112000791AJ199991999999999AY171061AY221061GF108991081051004501999999IA1299KA1120N-00511MA1999999101651MD1710081+9999MW1431REMSYN100AAXX  01064 01098 11480 81705 11034 21039 30165 40184 57008 69902 74372 885// 333 21051 49999 91107;EQDQ01  09962SNDP  
0161010980999992000010109004+70370+031100FM-12+001599999V0202001N003610042019N0300001N1-00491-00521101811ADDAY171031AY221031GF108991081051004501999999MA1999999101621MD1710031+9999MW1021REMSYN072AAXX  01094 01098 41480 82007 11049 21052 30162 40181 57003 70272 885//;
0188010980999992000010112004+70370+031100FM-12+001599999V0202201N004610042019N0050001N1-00621-00681101751ADDAA106000791AY171061AY231061GF107991061051004501071001MA1999999101561MD1710061+9999MW1381REMSYN088AAXX  01124 01098 11450 72209 11062 21068 30156 40175 57006 69901 73873 86570 333 91113;
0161010980999992000010115004+70370+031100FM-12+001599999V0202101N007210042019N0100001N1-00601-00671101531ADDAY121031AY221031GF108991081051004501999999MA1999999101341MD1710211+9999MW1021REMSYN072AAXX  01154 01098 41460 82114 11060 21067 30134 40153 57021 70222 885//;
0220010980999992000010118004+70370+031100FM-12+001599999V0202101N005710042019N0300001N1-00581-00761101501ADDAA106000091AY121061AY221061GF108991081051004501999999KA1120M-00351MA1999999101311MD1710041+9999MW1021REMSYN088AAXX  01184 01098 31480 82111 11058 21076 30131 40150 57004 70222 885// 333 11035 91119;EQDQ01  00002PRCP06
0161010980999992000010121004+70370+031100FM-12+001599999V0202001N007210042019N0100001N1-00681-00791101301ADDAY181031AY221031GF108991081051004501999999MA1999999101111MD1710201+9999MW1361REMSYN072AAXX  01214 01098 41460 82014 11068 21079 30111 40130 57020 73682 885//;
0188010980999992000010200004+70370+031100FM-12+001599999V0202101N008710042019N0100001N1-00631-00691101061ADDAA106000791AY131061AY221061GF108991081051004501999999MA1999999100861MD1710241+9999MW1361REMSYN088AAXX  02004 01098 11460 82117 11063 21069 30086 40106 57024 69901 73632 885// 333 91123;
0161010980999992000010203004+70370+031100FM-12+001599999V0202101N010810042019N0050001N1-00521-00571100681ADDAY131031AY221031GF108991081051004501999999MA1999999100491MD1710371+9999MW1381REMSYN072AAXX  02034 01098 41450 82121 11052 21057 30049 40068 57037 73832 885//;
0255010980999992000010206004+70370+031100FM-12+001599999V0202201N009310042019N0050001N1-00531-00621100431ADDAA112000791AJ199991999999999AY131061AY221061GF108991081051004501999999IA1299KA1120N-00681MA1999999100241MD1710251+9999MW1381REMSYN100AAXX  02064 01098 11450 82218 11053 21062 30024 40043 57025 69902 73832 885// 333 21068 49999 91128;EQDQ01  09962SNDP  
0161010980999992000010209004+70370+031100FM-12+001599999V0202201N009810042019N0030001N1-00471-00571100281ADDAY131031AY221031GF108991081051004501999999MA1999999100191MD1710151+9999MW1381REMSYN072AAXX  02094 01098 41430 82219 11047 21057 30019 40028 57015 73832 885//;
0201010980999992000010212004+70370+031100FM-12+001599999V0202101N010310042019N0050001N1-00491-00561100181ADDAA106000091AY121061AY221061GF106991061051004501999999MA1999999099991MD1710101+9999MW1011REMSYN082AAXX  02124 01098 31450 62120 11049 21056 39999 40018 57010 70122 865// 333 91126;EQDQ01  00002PRCP06
0161010980999992000010215004+70370+031100FM-12+001599999V0202101N008210042019N0300001N1-00471-00551100241ADDAY121031AY221031GF108991081051004501999999MA1999999100051MD1310061+9999MW1031REMSYN072AAXX  02154 01098 41480 82116 11047 21055 30005 40024 53006 70322 885//;
0220010980999992000010218004+70370+031100FM-12+001599999V0202101N008210042019N0300001N1-00371-00461100101ADDAA106000091AY121061AY221061GF108991081051004501999999KA1120M-00351MA1999999099811MD1810141+9999MW1021REMSYN088AAXX  02184 01098 31480 82116 11037 21046 39981 40010 58014 70222 885// 333 11035 91124;EQDQ01  00002PRCP06
0161010980999992000010221004+70370+031100FM-12+001599999V0202001N007210042019N0300001N1-00271-00361100091ADDAY121031AY221031GF108991081051004501999999MA1999999099901MD1610011+9999MW1021REMSYN072AAXX  02214 01098 41480 82014 11027 21036 39990 40009 56001 70222 885//;
0201010980999992000010300004+70370+031100FM-12+001599999V0202001N005710042019N0300001N1-00291-00371100061ADDAA106000091AY121061AY221061GF108991081051004501999999MA1999999099871MD1710031+9999MW1021REMSYN082AAXX  03004 01098 31480 82011 11029 21037 39987 40006 57003 70222 885// 333 91123;EQDQ01  00002PRCP06
0161010980999992000010303004+70370+031100FM-12+001599999V0202001N005110021019N0030001N1-00201-00291099971ADDAY181031AY221031GF108991081051002501999999MA1999999099781MD1710091+9999MW1361REMSYN072AAXX  03034 01098 41330 82010 11020 21029 39978 49997 57009 73682 885//;
0255010980999992000010306004+70370+031100FM-12+001599999V0202001N006710042019N0050001N1-00121-00271099731ADDAA112000191AJ199991999999999AY121061AY221061GF108991081051004501999999IA1299KA1120N-00291MA1999999099541MD1710241+9999MW1021REMSYN100AAXX  03064 01098 11450 82013 11012 21027 39954 49973 57024 69912 70222 885// 333 21029 49999 91117;EQDQ01  09962SNDP  
0161010980999992000010309004+70370+031100FM-12+001599999V0202001N007210042019N0020001N1-00201-00301099641ADDAY171031AY231031GF108991071071004501021999MA1999999099451MD1710091+9999MW1711REMSYN072AAXX  03094 01098 41420 82014 11020 21030 39945 49964 57009 77173 8772/;
0188010980999992000010312004+70370+031100FM-12+001599999V0202101N007210042019N0100001N1-00201-00271099531ADDAA106000191AY171061AY231061GF108991061071004501021999MA1999999099341MD1710111+9999MW1381REMSYN088AAXX  03124 01098 11460 82114 11020 21027 39934 49953 57011 69921 73873 8672/ 333 91121;
0161010980999992000010315004+70370+031100FM-12+001599999V0202101N007710042019N0100001N1-00151-00221099501ADDAY171031AY231031GF108991061071004501021999MA1999999099311MD1710031+9999MW1361REMSYN072AAXX  03154 01098 41460 82115 11015 21022 39931 49950 57003 73673 8672/;
0207010980999992000010318004+70370+031100FM-12+001599999V0202101N007710042019N0200001N1-00131-00201099371ADDAA112000191AY171061AY231061GF108991081071004501999999KA1120M-00101MA1999999099181MD1710131+9999MW1361REMSYN094AAXX  03184 01098 11470 82115 11013 21020 39918 49937 57013 69922 73673 887// 333 11010 91122;
0161010980999992000010321004+70370+031100FM-12+001599999V0202201N005710042019N0200001N1-00171-00231099461ADDAY131031AY221031GF108991081071004501999999MA1999999099271MD1310091+9999MW1361REMSYN072AAXX  03214 01098 41470 82211 11017 21023 39927 49946 53009 73632 887//;
0201010980999992000010400004+70370+031100FM-12+001599999V0202101N006710042019N0550001N1-00241-00341099391ADDAA106000091AY121061AY221061GF108991081071004501999999MA1999999099201MD1710071+9999MW1021REMSYN082AAXX  04004 01098 31485 82113 11024 21034 39920 49939 57007 70222 887// 333 91119;EQDQ01  00002PRCP06
0161010980999992000010403004+70370+031100FM-12+001599999V0202101N005710042019N0550001N1-00251-00361099391ADDAY121031AY221031GF108991081071004501999999MA1999999099201MD1410001+9999MW1021REMSYN072AAXX  04034 01098 41485 82111 11025 21036 39920 49939 54000 70222 887//;
0265010980999992000010406004+70370+031100FM-12+001599999V0202001N005110075019N0550001N1-00421-00471099321ADDAA106000091AJ199991999999999AY121061AY221061GF108991081071008001999999IA1299KA1120N-00421MA1999999099131MD1810071+9999MW1021REMSYN094AAXX  04064 01098 31585 82010 11042 21047 39913 49932 58007 70222 887// 333 21042 49999 91117;EQDQ01  00002PRCP06Q02  09962SNDP  
0161010980999992000010409004+70370+031100FM-12+001599999V0202101N003610240019N0550001N1-00461-00531099261ADDAY121031AY221031GF107991031071004501071081MA1999999099071MD1710061+9999MW1021REMSYN072AAXX  04094 01098 41485 72107 11046 21053 39907 49926 57006 70222 83778;
0201010980999992000010412004+70370+031100FM-12+001599999V0202101N004110042019N0550001N1-00421-00531099211ADDAA106000091AY121061AY221061GF108991051071004501071999MA1999999099021MD1710051+9999MW1021REMSYN082AAXX  04124 01098 31485 82108 11042 21053 39902 49921 57005 70222 8577/ 333 91114;EQDQ01  00002PRCP06
0161010980999992000010415004+70370+031100FM-12+001599999V0201701N004110042019N0550001N1-00351-00481099111ADDAY121031AY221031GF108991071071004501071999MA1999999098931MD1710091+9999MW1021REMSYN072AAXX  04154 01098 41485 81708 11035 21048 39893 49911 57009 70222 8777/;
0220010980999992000010418004+70370+031100FM-12+001599999V0201701N003110042019N0550001N1-00351-00601099111ADDAA106000091AY121061AY221061GF108991051071004501071999KA1120M-00311MA1999999098931MD1010001+9999MW1021REMSYN088AAXX  04184 01098 31485 81706 11035 21060 39893 49911 50000 70222 8577/ 333 11031 91111;EQDQ01  00002PRCP06
0161010980999992000010421004+70370+031100FM-12+001599999V0202001N004110042019N0550001N1-00431-00601099131ADDAY171031AY221031GF108991071071004501021999MA1999999098951MD1310021+9999MW1711REMSYN072AAXX  04214 01098 41485 82008 11043 21060 39895 49913 53002 77172 8772/;
0188010980999992000010500004+70370+031100FM-12+001599999V0201601N003610090019N0100001N1-00391-00461099151ADDAA106000191AY181061AY271061GF108991081081004501999999MA1999999098971MD1210021+9999MW1851REMSYN088AAXX  05004 01098 11460 81607 11039 21046 39897 49915 52002 69921 78587 888// 333 91110;
0161010980999992000010503004+70370+031100FM-12+001599999V0202001N004610090019N0300001N1-00371-00441099191ADDAY181031AY221031GF108991081081004501999999MA1999999099001MD1210031+9999MW1021REMSYN072AAXX  05034 01098 41480 82009 11037 21044 39900 49919 52003 70282 888//;
0255010980999992000010506004+70370+031100FM-12+001599999V0202101N004110090019N0300001N1-00501-00671099321ADDAA112000391AJ199991999999999AY181061AY221061GF107991071081004501001001IA1299KA1120N-00531MA1999999099131MD1210131+9999MW1021REMSYN100AAXX  05064 01098 11480 72108 11050 21067 39913 49932 52013 69932 70282 87800 333 21053 49999 91111;EQDQ01  09962SNDP  
0161010980999992000010509004+70370+031100FM-12+001599999V0202001N004110042019N0550001N1-00541-00711099341ADDAY121031AY221031GF108991081071004501999999MA1999999099251MD1210121+9999MW1021REMSYN072AAXX  05094 01098 41485 82008 11054 21071 39925 49934 52012 70222 887//;
0201010980999992000010512004+70370+031100FM-12+001599999V0202201N003610042019N0550001N1-00541-00611099591ADDAA106000091AY121061AY221061GF108991081071004501999999MA1999999099401MD1210151+9999MW1021REMSYN082AAXX  05124 01098 31485 82207 11054 21061 39940 49959 52015 70222 887// 333 91111;EQDQ01  00002PRCP06
0161010980999992000010515004+70370+031100FM-12+001599999V0202101N003610240019N0750001N1-00521-00611099781ADDAY121031AY221031GF108991031051004501051999MA1999999099591MD1210191+9999MW1021REMSYN072AAXX  05154 01098 41489 82107 11052 21061 39959 49978 52019 70222 8355/;
0161010980999992000010521004+70370+031100FM-12+001599999V0202001N003610042019N0750001N1-00461-00501100011ADDAY121031AY221031GF108991051051004501051999MA1999999099821MD1210141+9999MW1021REMSYN072AAXX  05214 01098 41489 82007 11046 21050 39982 40001 52014 70222 8555/;
0161010980999992000010603004+70370+031100FM-12+001599999V0202201N003110090019N0550001N1-00391-00431100251ADDAY181031AY221031GF108991081081004501999999MA1999999100061MD1210071+9999MW1021REMSYN072AAXX  06034 01098 41485 82206 11039 21043 30006 40025 52007 70282 888//;
0255010980999992000010606004+70370+031100FM-12+001599999V0201901N003110090019N0550001N1-00351-00381100261ADDAA112000591AJ199991999999999AY181061AY221061GF108991081081004501999999IA1249KA1120N-00551MA1999999100071MD1110011+9999MW1021REMSYN100AAXX  06064 01098 11485 81906 11035 21038 30007 40026 51001 69942 70282 888// 333 21055 48999 91110;EQDQ01  09962SNDP  
0161010980999992000010609004+70370+031100FM-12+001599999V0202001N003610042019N0550001N1-00231-00271100271ADDAY121031AY221031GF108991081051004501999999MA1999999100081MD1210011+9999MW1021REMSYN072AAXX  06094 01098 41485 82007 11023 21027 30008 40027 52001 70222 885//;
0201010980999992000010612004+70370+031100FM-12+001599999V0201901N003110042019N0550001N1-00351-00401100201ADDAA106000091AY121061AY221061GF108991081051004501999999MA1999999100011MD1810071+9999MW1021REMSYN082AAXX  06124 01098 31485 81906 11035 21040 30001 40020 58007 70222 885// 333 91111;EQDQ01  00002PRCP06
0161010980999992000010615004+70370+031100FM-12+001599999V0201601N004110042019N0550001N1-00381-00421099951ADDAY131031AY221031GF108991081051004501999999MA1999999099761MD1710251+9999MW1361REMSYN072AAXX  06154 01098 41485 81608 11038 21042 39976 49995 57025 73632 885//;
0161010980999992000010621004+70370+031100FM-12+001599999V0201801N007710021019N0004001N1-00391-00401099281ADDAY171031AY231031GF108991081071002501999999MA1999999099091MD1710311+9999MW1721REMSYN072AAXX  06214 01098 41304 81815 11039 21040 39909 49928 57031 77273 887//;
0188010980999992000010700004+70370+031100FM-12+001599999V0201701N006710240019N0002001N1-00361-00391098991ADDAA106008991AY171061AY231061GF108991031071002501021999MA1999999098811MD1710291+9999MW1751REMSYN088AAXX  07004 01098 11302 81713 11036 21039 39881 49899 57029 60091 77573 8372/ 333 91119;
0161010980999992000010703004+70370+031100FM-12+001599999V0201701N005110240019N0032001N1-00311-00341098761ADDAY171031AY231031GF108991031071004501021999MA1999999098581MD1710231+9999MW1731REMSYN072AAXX  07034 01098 41432 81710 11031 21034 39858 49876 57023 77373 8372/;
0255010980999992000010706004+70370+031100FM-12+001599999V0201801N004610042019N0750001N1-00241-00271098571ADDAA112005191AJ199991999999999AY171061AY231061GF108991051071004501021999IA1299KA1120N-00401MA1999999098391MD1710191+9999MW1021REMSYN100AAXX  07064 01098 11489 81809 11024 21027 39839 49857 57019 60052 70273 8572/ 333 21040 49999 91117;EQDQ01  09962SNDP  
0161010980999992000010709004+70370+031100FM-12+001599999V0201801N004610042019N0080001N1-00121-00151098481ADDAY171031AY231031GF108991071071004501021999MA1999999098301MD1610091+9999MW1701REMSYN072AAXX  07094 01098 41458 81809 11012 21015 39830 49848 56009 77073 8772/;
0188010980999992000010712004+70370+031100FM-12+001599999V0201901N003110042019N0050001N1-00061-00091098441ADDAA106000191AY171061AY231061GF108991071071004501021999MA1999999098261MD1610041+9999MW1161REMSYN088AAXX  07124 01098 11450 81906 11006 21009 39826 49844 56004 69911 71673 8772/ 333 91111;
0161010980999992000010715004+70370+031100FM-12+001599999V0201901N002610042019N0750001N1+00011+00001098441ADDAY121031AY221031GF108991081051004501999999MA1999999098261MD1410001+9999MW1011REMSYN072AAXX  07154 01098 41489 81905 10001 20000 39826 49844 54000 70122 885//;
0207010980999992000010718004+70370+031100FM-12+001599999V0202101N003110042019N0750001N1+00071+00051098441ADDAA112000391AY181061AY221061GF108991081051004501999999KA1120M+00111MA1999999098261MD1410001+9999MW1011REMSYN094AAXX  07184 01098 11489 82106 10007 20005 39826 49844 54000 69932 70182 885// 333 10011 91108;
0161010980999992000010721004+70370+031100FM-12+001599999V0202101N003610075019N0750001N1+00111+00091098481ADDAY121031AY211031GF106991061011008001001001MA1999999098301MD1310041+9999MW1011REMSYN072AAXX  07214 01098 41589 62107 10011 20009 39830 49848 53004 70121 86100;
0201010980999992000010800004+70370+031100FM-12+001599999V0201901N004110042019N0550001N1+00191+00161098441ADDAA106000091AY121061AY221061GF108991081051004501999999MA1999999098261MD1710041+9999MW1021REMSYN082AAXX  08004 01098 31485 81908 10019 20016 39826 49844 57004 70222 885// 333 91110;EQDQ01  00002PRCP06
0161010980999992000010803004+70370+031100FM-12+001599999V0202001N004610042019N0550001N1+00171+99999098331ADDAY121031AY221031GF108991081051004501999999MA1999999098151MD1710111+9999MW1021REMSYN072AAXX  08034 01098 41485 82009 10017 20020 39815 49833 57011 70222 885//;
0265010980999992000010806004+70370+031100FM-12+001599999V0201901N004610042019N0550001N1+00201+00021098131ADDAA106000091AJ199991999999999AY121061AY221061GF108991081051004501999999IA1299KA1120N+00041MA1999999097951MD1710201+9999MW1021REMSYN094AAXX  08064 01098 31485 81909 10020 20002 39795 49813 57020 70222 885// 333 20004 49999 91112;EQDQ01  00002PRCP06Q02  09962SNDP  
0161010980999992000010809004+70370+031100FM-12+001599999V0201901N005110042019N0750001N1+00121-00041098021ADDAY121031AY221031GF106991061031004501001001MA1999999097841MD1710111+9999MW1011REMSYN072AAXX  08094 01098 41489 61910 10012 21004 39784 49802 57011 70122 86300;
0198010980999992000010812004+70370+031100FM-12+001599999V0201601N004610003019N0002001N1+00041+00001097631ADDAA106000891AY181061AY221061GA1091+999999999GF109991091999999999999999MA1999999097461MD1810391+9999MW1841REMSYN082AAXX  08124 01098 11/02 91609 10004 20000 39746 49763 58039 69971 78482 333 91114;
0161010980999992000010815004+70370+031100FM-12+001599999V0201601N004610042019N0007001N1-00011-00041097171ADDAY171031AY231031GF108991081051004501999999MA1999999096991MD1710461+9999MW1731REMSYN072AAXX  08154 01098 41407 81609 11001 21004 39699 49717 57046 77373 885//;
0207010980999992000010818004+70370+031100FM-12+001599999V0201801N004110042019N0025001N1+00041+00011096801ADDAA112006191AY171061AY231061GF108991081071004501999999KA1120M+00211MA1999999096631MD1710371+9999MW1711REMSYN094AAXX  08184 01098 11425 81808 10004 20001 39663 49680 57037 60062 77173 887// 333 10021 91114;
0161010980999992000010821004+70370+031100FM-12+001599999V0202301N002610042019N0550001N1+00081+00031096701ADDAY171031AY221031GF108991081071004501999999MA1999999096531MD1110101+9999MW1021REMSYN072AAXX  08214 01098 41485 82305 10008 20003 39653 49670 51010 70272 887//;
0188010980999992000010900004+70370+031100FM-12+001599999V0202201N004610042019N0750001N1+00031-00041096721ADDAA106001091AY181061AY231061GF106991061051004501001001MA1999999096541MD1110021+9999MW1011REMSYN088AAXX  09004 01098 11489 62209 10003 21004 39654 49672 51002 60011 70183 86500 333 91111;
0171010980999992000010903004+70370+031100FM-12+001599999V0202201N005712200019N0750001N1-00131-00261096761ADDAY101031AY201031GA1001+999999999GF100991001001999999001001MA1999999096581MD1210041+9999MW1011REMSYN066AAXX  09034 01098 41989 02211 11013 21026 39658 49676 52004 70100;
0161010980999992000010909004+70370+031100FM-12+001599999V0202301N005110240019N0750001N1-00181-00281097061ADDAY121031AY221031GF106991011081004501051001MA1999999096881MD1210151+9999MW1021REMSYN072AAXX  09094 01098 41489 62310 11018 21028 39688 49706 52015 70222 81850;
0201010980999992000010912004+70370+031100FM-12+001599999V0202301N004610210019N0750001N1-00121-00251097271ADDAA106000091AY121061AY221061GF106991051001022501071091MA1999999097091MD1210211+9999MW1021REMSYN082AAXX  09124 01098 31889 62309 11012 21025 39709 49727 52021 70222 85079 333 91113;EQDQ01  00002PRCP06
0161010980999992000010915004+70370+031100FM-12+001599999V0202801N002610240019N0750001N1+00211-00031097581ADDAY121031AY221031GF106991031051004501071001MA1999999097411MD1310321+9999MW1021REMSYN072AAXX  09154 01098 41489 62805 10021 21003 39741 49758 53032 70222 83570;
0220010980999992000010918004+70370+031100FM-12+001599999V0202701N004610240019N0750001N1+00181+00031097771ADDAA106000091AY121061AY221061GF106991031051004501071001KA1120M+00301MA1999999097601MD1110191+9999MW1021REMSYN088AAXX  09184 01098 31489 62709 10018 20003 39760 49777 51019 70222 83570 333 10030 91113;EQDQ01  00002PRCP06
0161010980999992000010921004+70370+031100FM-12+001599999V0202401N004610240019N0750001N1+00231+00161098021ADDAY121031AY221031GF106991031051004501071001MA1999999097851MD1210251+9999MW1021REMSYN072AAXX  09214 01098 41489 62409 10023 20016 39785 49802 52025 70222 83570;
0201010980999992000011000004+70370+031100FM-12+001599999V0202401N005110240019N0750001N1-00211+99999098301ADDAA106000091AY121061AY221061GF106991031051004501071001MA1999999098121MD1210281+9999MW1021REMSYN082AAXX  10004 01098 31489 62410 11021 21005 39812 49830 52028 70222 83570 333 91114;EQDQ01  00002PRCP06
0161010980999992000011003004+70370+031100FM-12+001599999V0202801N004112200019N0750001N1-00091+99999098561ADDAY101031AY201031GF104991021051004501071001MA1999999098381MD1210261+9999MW1021REMSYN072AAXX  10034 01098 41489 42808 11009 20015 39838 49856 52026 70200 82570;
0246010980999992000011006004+70370+031100FM-12+001599999V0202901N005710042019N0750001N1+00121-00091098721ADDAA106000091AJ199991999999999AY121061AY221061GF107991071051004501999999IA1299MA1999999098541MD1110161+9999MW1021REMSYN088AAXX  10064 01098 31489 72911 10012 21009 39854 49872 51016 70222 875// 333 49999 91114;EQDQ01  00002PRCP06Q02  09962SNDP  
0161010980999992000011009004+70370+031100FM-12+001599999V0203001N006710042019N0550001N1+00131-00051099091ADDAY121031AY221031GF107991071051004501001001MA1999999098911MD1310371+9999MW1021REMSYN072AAXX  10094 01098 41485 73013 10013 21005 39891 49909 53037 70222 87500;
0188010980999992000011012004+70370+031100FM-12+001599999V0203101N006710042019N0550001N1+00101+00031099481ADDAA106000191AY181061AY221061GF107991071051004501001001MA1999999099301MD1210391+9999MW1021REMSYN088AAXX  10124 01098 11485 73113 10010 20003 39930 49948 52039 69921 70282 87500 333 91122;
0161010980999992000011015004+70370+031100FM-12+001599999V0203301N005110240019N0750001N1+00121-00331099851ADDAY121031AY221031GF107991031081004501051001MA1999999099671MD1210371+9999MW1021REMSYN072AAXX  10154 01098 41489 73310 10012 21033 39967 49985 52037 70222 83850;
0207010980999992000011018004+70370+031100FM-12+001599999V0203601N001510042019N0750001N1+00071-00391100151ADDAA112000191AY121061AY221061GF107991071051004501001001KA1120M+00221MA1999999099971MD1210301+9999MW1021REMSYN094AAXX  10184 01098 11489 73603 10007 21039 39997 40015 52030 69922 70222 87500 333 10022 91116;
0161010980999992000011021004+70370+031100FM-12+001599999V0202601N000510240019N0750001N1+00001-00301100291ADDAY121031AY221031GF107991021051004501051001MA1999999100111MD1210141+9999MW1021REMSYN072AAXX  10214 01098 41489 72601 10000 21030 30011 40029 52014 70222 82550;
0201010980999992000011100004+70370+031100FM-12+001599999V0201701N002110042019N0750001N1+00071-00251100291ADDAA106000091AY121061AY221061GF107991071051004501001001MA1999999100111MD1410001+9999MW1021REMSYN082AAXX  11004 01098 31489 71704 10007 21025 30011 40029 54000 70222 87500 333 91106;EQDQ01  00002PRCP06
0161010980999992000011103004+70370+031100FM-12+001599999V0202201N003112200019N0750001N1-00261-00311100271ADDAY121031AY201031GF104991041051004501001001MA1999999100081MD1710031+9999MW1011REMSYN072AAXX  11034 01098 41489 42206 11026 21031 30008 40027 57003 70120 84500;
0246010980999992000011106004+70370+031100FM-12+001599999V0201701N003110240019N0750001N1-00041-00181100091ADDAA106000091AJ199991999999999AY121061AY201061GF106991041051002501071001IA1299MA1999999099901MD1810181+9999MW1031REMSYN088AAXX  11064 01098 31389 61706 11004 21018 39990 40009 58018 70320 84570 333 49999 91109;EQDQ01  00002PRCP06Q02  09962SNDP  
0161010980999992000011109004+70370+031100FM-12+001599999V0201801N005110090019N0020001N1-00081-00141099881ADDAY181031AY221031GF108991081081004501999999MA1999999099691MD1710211+9999MW1851REMSYN072AAXX  11094 01098 41420 81810 11008 21014 39969 49988 57021 78582 888//;
0188010980999992000011112004+70370+031100FM-12+001599999V0202101N003110090019N0300001N1-00221-00271099771ADDAA106001091AY181061AY231061GF108991081081004501999999MA1999999099581MD1610111+9999MW1021REMSYN088AAXX  11124 01098 11480 82106 11022 21027 39958 49977 56011 60011 70283 888// 333 91112;
0161010980999992000011115004+70370+031100FM-12+001599999V0202201N002610090019N0200001N1-00291-00331099761ADDAY181031AY221031GF108991081081004501999999MA1999999099571MD1610011+9999MW1851REMSYN072AAXX  11154 01098 41470 82205 11029 21033 39957 49976 56001 78582 888//;
0207010980999992000011118004+70370+031100FM-12+001599999V0202501N000510042019N0750001N1-00091-00161099771ADDAA112001091AY181061AY221061GF106991061051004501001001KA1120M-00011MA1999999099581MD1310011+9999MW1011REMSYN094AAXX  11184 01098 11489 62501 11009 21016 39958 49977 53001 60012 70182 86500 333 11001 91111;
0171010980999992000011121004+70370+031100FM-12+001599999V0202401N004112200019N0750001N1-00181-00241099761ADDAY111031AY201031GA1001+999999999GF100991001001999999001001MA1999999099571MD1810011+9999MW1011REMSYN066AAXX  11214 01098 41989 02408 11018 21024 39957 49976 58001 70110;
0201010980999992000011200004+70370+031100FM-12+001599999V0202401N004110240019N0750001N1-00161-00201099761ADDAA106000091AY121061AY221061GF108991031051004501051999MA1999999099571MD1410001+9999MW1021REMSYN082AAXX  12004 01098 31489 82408 11016 21020 39957 49976 54000 70222 8355/ 333 91114;EQDQ01  00002PRCP06
0161010980999992000011203004+70370+031100FM-12+001599999V0202301N004610240019N0750001N1-00261-00311099701ADDAY121031AY221031GF108991011051004501071999MA1999999099511MD1710061+9999MW1021REMSYN072AAXX  12034 01098 41489 82309 11026 21031 39951 49970 57006 70222 8157/;
0246010980999992000011206004+70370+031100FM-12+001599999V0202301N004610240019N0750001N1-00421-00561099721ADDAA106000091AJ199991999999999AY121061AY221061GF106991011081004501071001IA1299MA1999999099531MD1310021+9999MW1021REMSYN088AAXX  12064 01098 31489 62309 11042 21056 39953 49972 53002 70222 81870 333 49999 91115;EQDQ01  00002PRCP06Q02  09962SNDP  
0161010980999992000011209004+70370+031100FM-12+001599999V0202201N003612200019N0550001N1-00361-00511099751ADDAY121031AY221031GF103991011081004501041051MA1999999099561MD1210031+9999MW1021REMSYN072AAXX  12094 01098 41485 32207 11036 21051 39956 49975 52003 70222 81845;
0201010980999992000011212004+70370+031100FM-12+001599999V0202501N003110240019N0550001N1-00181-00281099801ADDAA106000091AY121061AY221061GF106991031081004501041051MA1999999099611MD1210051+9999MW1021REMSYN082AAXX  12124 01098 31485 62506 11018 21028 39961 49980 52005 70222 83845 333 91116;EQDQ01  00002PRCP06
0161010980999992000011215004+70370+031100FM-12+001599999V0202401N004110600019N0300001N1-00281-00321099771ADDAY181031AY221031GF106991041081004501001051MA1999999099581MD1810031+9999MW1261REMSYN072AAXX  12154 01098 41480 62408 11028 21032 39958 49977 58003 72682 84805;
0207010980999992000011218004+70370+031100FM-12+001599999V0202201N003612200019N0550001N1-00441-00541099701ADDAA112000191AY181061AY221061GF104991041081004501001001KA1120M-00041MA1999999099511MD1710071+9999MW1011REMSYN094AAXX  12184 01098 11485 42207 11044 21054 39951 49970 57007 69912 70182 84800 333 11004 91114;
0161010980999992000011221004+70370+031100FM-12+001599999V0202401N003112200019N0550001N1-00251-00511099701ADDAY121031AY221031GF104991041081004501001001MA1999999099511MD1410001+9999MW1021REMSYN072AAXX  12214 01098 41485 42406 11025 21051 39951 49970 54000 70222 84800;
0201010980999992000011300004+70370+031100FM-12+001599999V0202101N001019999999N0750001N1-00201-00361099701ADDAA106000091AY121061AY221061GF106991061001012501051001MA1999999099511MD1410001+9999MW1021REMSYN082AAXX  13004 01098 31689 62102 11020 21036 39951 49970 54000 70222 86050 333 91107;EQDQ01  00002PRCP06
0161010980999992000011303004+70370+031100FM-12+001599999V0202801N000512200019N0750001N1-00201-00431099701ADDAY121031AY221031GF104991041001012501051001MA1999999099511MD1410001+9999MW1021REMSYN072AAXX  13034 01098 41689 42801 11020 21043 39951 49970 54000 70222 84050;
0246010980999992000011306004+70370+031100FM-12+001599999V0202401N004112200019N0750001N1-00381-00671099761ADDAA106000091AJ199991999999999AY121061AY221061GF104991041001012501051001IA1299MA1999999099571MD1310061+9999MW1021REMSYN088AAXX  13064 01098 31689 42408 11038 21067 39957 49976 53006 70222 84050 333 49999 91110;EQDQ01  00002PRCP06Q02  09962SNDP  
0161010980999992000011309004+70370+031100FM-12+001599999V0202901N004610240019N0300001N1+00011-00061099851ADDAY181031AY221031GF106991041081004501041081MA1999999099671MD1210101+9999MW1261REMSYN072AAXX  13094 01098 41480 62909 10001 21006 39967 49985 52010 72682 84848;
0188010980999992000011312004+70370+031100FM-12+001599999V0202801N004610240019N0300001N1-00041-00181100031ADDAA106000391AY181061AY221061GF106991021081004501041081MA1999999099841MD1210171+9999MW1261REMSYN088AAXX  13124 01098 11480 62809 11004 21018 39984 40003 52017 69931 72682 82848 333 91111;
0161010980999992000011315004+70370+031100FM-12+001599999V0202901N004610240019N0550001N1-00121-00221100121ADDAY121031AY221031GF106991011081004501051001MA1999999099931MD1210091+9999MW1011REMSYN072AAXX  13154 01098 41485 62909 11012 21022 39993 40012 52009 70122 81850;
0207010980999992000011318004+70370+031100FM-12+001599999V0202701N003112200019N0750001N1-00181-00281100301ADDAA112000591AY181061AY201061GF102991021001012501051001KA1120M+00101MA1999999100111MD1310181+9999MW1011REMSYN094AAXX  13184 01098 11689 22706 11018 21028 30011 40030 53018 69942 70180 82050 333 10010 91113;
0165010980999992000011321004+70370+031100FM-12+001599999V0202701N004112200019N0750001N1-00201-00301100431ADDAY111031AY201031GF104991041001012501051001MA1999999100261MD1110131+9999MW1021REMSYN076    AAXX  13214 01098 41689 42708 11020 21030 30026 40043 51013 70210 84050;
0186010980999992000011400004+70370+031100FM-12+001599999V0202701N002119999999N0750001N1-00191-00321100561ADDAA199000021AY121061AY211061GF108991081001012501051001MA1999999100371MD1210131+9999MW1031REMSYN086    AAXX  14004 01098 31689 82704 11019 21032 30037 40056 52013 70321 88050 333 91110;
0165010980999992000011403004+70370+031100FM-12+001599999V0202801N003619999999N0750001N1-00121-00351100641ADDAY121031AY221031GF108991081001012501051001MA1999999100451MD1210081+9999MW1021REMSYN076    AAXX  14034 01098 41689 82807 11012 21035 30045 40064 52008 70222 88050;
0250010980999992000011406004+70370+031100FM-12+001599999V0202601N002612200019N0750001N1-00411-00581100711ADDAA199000091AJ199991999999999AY121061AY221061GF104991041001012501051001IA1299MA1999999100521MD1210071+9999MW1011REMSYN092    AAXX  14064 01098 31689 42605 11041 21058 30052 40071 52007 70122 84050 333 49999 91110;EQDQ01  00002PRCP99Q02  09962SNDP  
0165010980999992000011409004+70370+031100FM-12+001599999V0202801N004112200019N0750001N1-00411-00521100681ADDAY121031AY211031GF104991011081004501041081MA1999999100491MD1810031+9999MW1021REMSYN076    AAXX  14094 01098 41489 42808 11041 21052 30049 40068 58003 70221 81848;
0205010980999992000011412004+70370+031100FM-12+001599999V0202401N005110240019N0750001N1-00481-00631100651ADDAA199000091AY131061AY211061GF106991031081004501041081MA1999999100461MD1710031+9999MW1361REMSYN086    AAXX  14124 01098 31489 62410 11048 21063 30046 40065 57003 73631 83848 333 91112;EQDQ01  00002PRCP99
0165010980999992000011415004+70370+031100FM-12+001599999V0202301N005710240019N0750001N1-00401-00581100541ADDAY131031AY221031GF107991011081004501071001MA1999999100351MD1810111+9999MW1361REMSYN076    AAXX  14154 01098 41489 72311 11040 21058 30035 40054 58011 73632 81870;
0224010980999992000011418004+70370+031100FM-12+001599999V0202201N005710210019N0750001N1-00481-00531100301ADDAA199000091AY131061AY221061GF107991071001022501071001KA1120M-00271MA1999999100111MD1710241+9999MW1361REMSYN092    AAXX  14184 01098 31889 72211 11048 21053 30011 40030 57024 73632 87070 333 11027 91114;EQDQ01  00002PRCP99
0165010980999992000011421004+70370+031100FM-12+001599999V0202301N004610210019N0750001N1-00491-00541100091ADDAY131031AY221031GF108991081001022501071999MA1999999099901MD1710211+9999MW1031REMSYN076    AAXX  14214 01098 41889 82309 11049 21054 39990 40009 57021 70332 8807/;
0215010980999992000011500004+70370+031100FM-12+001599999V0202501N003612200019N0750001N1-00381-00421099971ADDAA199000091AY101061AY201061GA1001+999999999GF100991001001999999001001MA1999999099781MD1710121+9999MW1011REMSYN080    AAXX  15004 01098 31989 02507 11038 21042 39978 49997 57012 70100 333 91114;EQDQ01  00002PRCP99
0175010980999992000011503004+70370+031100FM-12+001599999V0202901N004112200019N0750001N1-00081-00151099951ADDAY101031AY201031GA1001+999999999GF100991001001999999001001MA1999999099761MD1610021+9999MW1011REMSYN070    AAXX  15034 01098 41989 02908 11008 21015 39976 49995 56002 70100;
0260010980999992000011506004+70370+031100FM-12+001599999V0202901N004612200019N0750001N1-00151-00221099991ADDAA199000091AJ199991999999999AY101061AY201061GA1001+999999999GF100991001001999999001001IA1299MA1999999099801MD1310041+9999MW1011REMSYN086    AAXX  15064 01098 31989 02909 11015 21022 39980 49999 53004 70100 333 49999 91113;EQDQ01  00002PRCP99Q02  09962SNDP  
0165010980999992000011509004+70370+031100FM-12+001599999V0203101N004612200019N0750001N1-00081-00221100071ADDAY181031AY231031GF103991021091004501071001MA1999999099881MD1110081+9999MW1031REMSYN076    AAXX  15094 01098 41489 33109 11008 21022 39988 40007 51008 70383 82970;
0192010980999992000011512004+70370+031100FM-12+001599999V0203401N004110090019N0600001N1+00071-00251100161ADDAA106002091AY181061AY231061GF107991061081004501071001MA1999999099981MD1210101+9999MW1851REMSYN092    AAXX  15124 01098 11486 73408 10007 21025 39998 40016 52010 60021 78583 86870 333 91117;
0165010980999992000011515004+70370+031100FM-12+001599999V0203301N005710090019N0600001N1+00031-00161100261ADDAY181031AY231031GF105991051081004501001001MA1999999100081MD1210101+9999MW1361REMSYN076    AAXX  15154 01098 41486 53311 10003 21016 30008 40026 52010 73683 85800;
0211010980999992000011518004+70370+031100FM-12+001599999V0203401N004110090019N0600001N1+00101-00241100421ADDAA112003091AY181061AY231061GF105991051081004501001001KA1120M+00101MA1999999100241MD1210161+9999MW1361REMSYN098    AAXX  15184 01098 11486 53408 10010 21024 30024 40042 52016 60032 73683 85800 333 10010 91115;
0165010980999992000011521004+70370+031100FM-12+001599999V0203401N003610090019N0600001N1+00051-00201100591ADDAY131031AY221031GF106991061081004501001001MA1999999100411MD1210171+9999MW1031REMSYN076    AAXX  15214 01098 41486 63407 10005 21020 30041 40059 52017 70332 86800;
0192010980999992000011600004+70370+031100FM-12+001599999V0203101N001512200019N0750001N1-00131-00261100501ADDAA106000191AY181061AY231061GF102991021081004501001001MA1999999100311MD1810101+9999MW1011REMSYN092    AAXX  16004 01098 11489 23103 11013 21026 30031 40050 58010 69911 70183 82800 333 91116;
0175010980999992000011603004+70370+031100FM-12+001599999V0202501N002612200019N0750001N1-00401-00581100291ADDAY101031AY201031GA1001+999999999GF100991001001999999001001MA1999999100101MD1710211+9999MW1011REMSYN070    AAXX  16034 01098 41989 02505 11040 21058 30010 40029 57021 70100;
0240010980999992000011606004+70370+031100FM-12+001599999V0202301N002612200019N0750001N1-00421-00471099841ADDAA112000191AJ199991999999999AY101061AY201061GF103991031081004501001001IA1299MA1999999099651MD1710451+9999MW1031REMSYN098    AAXX  16064 01098 11489 32305 11042 21047 39965 49984 57045 69912 70300 83800 333 49999 91109;EQDQ01  09962SNDP  
0165010980999992000011609004+70370+031100FM-12+001599999V0201901N004610240019N0750001N1-00201-00271099151ADDAY121031AY201031GF106991031081004501021001MA1999999098961MD1710691+9999MW1031REMSYN076    AAXX  16094 01098 41489 61909 11020 21027 39896 49915 57069 70320 83820;
0205010980999992000011612004+70370+031100FM-12+001599999V0201801N005710240019N0100001N1-00301-00371098551ADDAA199000091AY181061AY231061GF108991031081004501021999MA1999999098371MD1710591+9999MW1361REMSYN086    AAXX  16124 01098 31460 81811 11030 21037 39837 49855 57059 73683 8382/ 333 91115;EQDQ01  00002PRCP99
0165010980999992000011615004+70370+031100FM-12+001599999V0201601N006210042019N0035001N1-00221-00261098011ADDAY171031AY231031GF108991051071004501021999MA1999999097831MD1710541+9999MW1731REMSYN076    AAXX  16154 01098 41435 81612 11022 21026 39783 49801 57054 77373 8572/;
0211010980999992000011618004+70370+031100FM-12+001599999V0201701N005110042019N0035001N1-00301-00341097851ADDAA112001091AY171061AY231061GF108991071071004501021999KA1120M-00161MA1999999097671MD1710161+9999MW1731REMSYN098    AAXX  16184 01098 11435 81710 11030 21034 39767 49785 57016 60012 77373 8772/ 333 11016 91116;
0165010980999992000011621004+70370+031100FM-12+001599999V0201701N004110240019N0035001N1-00341-00391097751ADDAY171031AY221031GF108991041071004501021999MA1999999097571MD1710101+9999MW1711REMSYN076    AAXX  16214 01098 41435 81708 11034 21039 39757 49775 57010 77172 8472/;
0192010980999992000011700004+70370+031100FM-12+001599999V0201401N003110240019N0600001N1-00301-00371097861ADDAA106000891AY171061AY221061GF108991041081004501021999MA1999999097691MD1310121+9999MW1021REMSYN092    AAXX  17004 01098 11486 81406 11030 21037 39769 49786 53012 69981 70272 8482/ 333 91112;
0165010980999992000011703004+70370+031100FM-12+001599999V0201401N003110240019N0100001N1-00201-00271097991ADDAY171031AY221031GF108991041071004501021999MA1999999097821MD1210131+9999MW1701REMSYN076    AAXX  17034 01098 41460 81406 11020 21027 39782 49799 52013 77072 8472/;
0240010980999992000011706004+70370+031100FM-12+001599999V0201201N004110240019N0600001N1-00051-00111098251ADDAA112001091AJ199991999999999AY171061AY221061GF108991041081004501021999IA1299MA1999999098081MD1210261+9999MW1021REMSYN098    AAXX  17064 01098 11486 81208 11005 21011 39808 49825 52026 60012 70272 8482/ 333 49999 91113;EQDQ01  09962SNDP  
0165010980999992000011709004+70370+031100FM-12+001599999V0201201N003110042019N0300001N1-00051-00121098581ADDAY171031AY221031GF108991071071004501021999MA1999999098401MD1210321+9999MW1221REMSYN076    AAXX  17094 01098 41480 81206 11005 21012 39840 49858 52032 72272 8772/;
0192010980999992000011712004+70370+031100FM-12+001599999V0201201N002610090019N0550001N1-00061-00221098901ADDAA106000191AY171061AY221061GF105991051081004501001001MA1999999098721MD1210321+9999MW1021REMSYN092    AAXX  17124 01098 11485 51205 11006 21022 39872 49890 52032 69911 70272 85800 333 91112;
0165010980999992000011715004+70370+031100FM-12+001599999V0200901N003610090019N0300001N1-00041-00311099271ADDAY181031AY221031GF106991061081004501001001MA1999999099081MD1210371+9999MW1871REMSYN076    AAXX  17154 01098 41480 60907 11004 21031 39908 49927 52037 78782 86800;
0211010980999992000011718004+70370+031100FM-12+001599999V0200701N003610240019N0750001N1-00081-00691099521ADDAA112001091AY181061AY221061GF105991021081004501051001KA1120M+00031MA1999999099331MD1210251+9999MW1861REMSYN098    AAXX  17184 01098 11489 50707 11008 21069 39933 49952 52025 60012 78682 82850 333 10003 91114;
0165010980999992000011721004+70370+031100FM-12+001599999V0200601N003610240019N0100001N1-00251-00441099781ADDAY171031AY221031GF106991031091001501051001MA1999999099591MD1210261+9999MW1861REMSYN076    AAXX  17214 01098 41260 60607 11025 21044 39959 49978 52026 78672 83950;
0192010980999992000011800004+70370+031100FM-12+001599999V0200301N001510240019N0300001N1-00241-00401099911ADDAA106000191AY181061AY231061GF106991041091004501061001MA1999999099721MD1210131+9999MW1261REMSYN092    AAXX  18004 01098 11480 60303 11024 21040 39972 49991 52013 69911 72683 84960 333 91109;
0174010980999992000011803004+70370+031100FM-12+001599999V0200501N001512200019N0750001N1-00181-00561999999ADDAY181031AY211031GF102991021021004501001001MA1999999099891MD1210171+9999ME1100089MW1011REMSYN076    AAXX  18034 01098 41489 20503 11018 21056 39989 41008 52017 70181 82200;
0259010980999992000011806004+70370+031100FM-12+001599999V0200601N001012200019N0750001N1-00241-00641100211ADDAA112000391AJ199991999999999AY181061AY211061GF103991021091004501061001IA1249KA1120N-00291MA1999999100021MD1210131+9999MW1021REMSYN104    AAXX  18064 01098 11489 30602 11024 21064 30002 40021 52013 69932 70281 82960 333 21029 48999 91109;EQDQ01  09962SNDP  
0165010980999992000011809004+70370+031100FM-12+001599999V0203501N001010090019N0300001N1-00221-00621100331ADDAY181031AY221031GF107991051081004501061081MA1999999100141MD1210121+9999MW1151REMSYN076    AAXX  18094 01098 41480 73502 11022 21062 30014 40033 52012 71582 85868;
0192010980999992000011812004+70370+031100FM-12+001599999V0202901N002110090019N0550001N1-00271-00381100341ADDAA106000191AY181061AY221061GF107991071081004501061001MA1999999100151MD1110011+9999MW1021REMSYN092    AAXX  18124 01098 11485 72904 11027 21038 30015 40034 51001 69911 70282 87860 333 91109;
0165010980999992000011815004+70370+031100FM-12+001599999V0202501N001510090019N0550001N1-00321-00391100341ADDAY121031AY221031GF106991051081004501071001MA1999999100151MD1410001+9999MW1021REMSYN076    AAXX  18154 01098 41485 62503 11032 21039 30015 40034 54000 70222 85870;
0211010980999992000011818004+70370+031100FM-12+001599999V0202301N002610240019N0550001N1-00381-00551100301ADDAA112000191AY121061AY221061GF105991031081004501071001KA1120M-00191MA1999999100111MD1810041+9999MW1021REMSYN098    AAXX  18184 01098 11485 52305 11038 21055 30011 40030 58004 69912 70222 83870 333 11019 91105;
0165010980999992000011821004+70370+031100FM-12+001599999V0202701N003110090019N0300001N1-00241-00281100171ADDAY181031AY221031GF108991081081004501999999MA1999999099981MD1710131+9999MW1851REMSYN076    AAXX  18214 01098 41480 82706 11024 21028 39998 40017 57013 78582 888//;
0192010980999992000011900004+70370+031100FM-12+001599999V0203501N003610240019N0300001N1-00151-00481100141ADDAA106000591AY181061AY221061GF107991031081004501051001MA1999999099951MD1710031+9999MW1361REMSYN092    AAXX  19004 01098 11480 73507 11015 21048 39995 40014 57003 69951 73682 83850 333 91112;
0165010980999992000011903004+70370+031100FM-12+001599999V0203301N004110060019N0050001N1-00261-00511100161ADDAY181031AY221031GF108991081081001501999999MA1999999099971MD1310021+9999MW1861REMSYN076    AAXX  19034 01098 41250 83308 11026 21051 39997 40016 53002 78682 888//;
0259010980999992000011906004+70370+031100FM-12+001599999V0203301N003112200019N0300001N1-00381-00811100151ADDAA112001091AJ199991999999999AY181061AY221061GF104991041081004501001001IA1299KA1120N-00441MA1999999099961MD1810011+9999MW1011REMSYN104    AAXX  19064 01098 11480 43306 11038 21081 39996 40015 58001 60012 70182 84800 333 21044 49999 91113;EQDQ01  09962SNDP  
0165010980999992000011909004+70370+031100FM-12+001599999V0202901N003110600019N0550001N1-00551-00611100141ADDAY181031AY221031GF105991021081004501061081MA1999999099951MD1710011+9999MW1021REMSYN076    AAXX  19094 01098 41485 52906 11055 21061 39995 40014 57001 70282 82868;
0192010980999992000011912004+70370+031100FM-12+001599999V0202901N003112200019N0750001N1-00591-00791100101ADDAA106000391AY181061AY221061GF104991031081004501061091MA1999999099911MD1710041+9999MW1021REMSYN092    AAXX  19124 01098 11489 42906 11059 21079 39991 40010 57004 69931 70282 83869 333 91113;
0165010980999992000011915004+70370+031100FM-12+001599999V0202701N002112200019N0750001N1-00481-00661100031ADDAY121031AY211031GF104991031081004501061091MA1999999099841MD1710071+9999MW1021REMSYN076    AAXX  19154 01098 41489 42704 11048 21066 39984 40003 57007 70221 83869;
0207010980999992000011918004+70370+031100FM-12+001599999V0202701N002112200019N0750001N1-00491-00721099911ADDAA112000391AY121061AY211061GF103991021081004501061091KA1120M-00331MA1999999099721MD1710121+9999MW1021REMSYN094AAXX  19184 01098 11489 32704 11049 21072 39972 49991 57012 69932 70221 82869 333 11033 91108;
0161010980999992000011921004+70370+031100FM-12+001599999V0202401N003112200019N0750001N1-00641-00981099781ADDAY111031AY211031GF103991011081004501061091MA1999999099591MD1710131+9999MW1011REMSYN072AAXX  19214 01098 41489 32406 11064 21098 39959 49978 57013 70111 81869;
0201010980999992000012000004+70370+031100FM-12+001599999V0202201N001512200019N0750001N1-00771-00861099761ADDAA199000091AY111061AY211061GF103991011081004501071001MA1999999099571MD1710021+9999MW1021REMSYN082AAXX  20004 01098 31489 32203 11077 21086 39957 49976 57002 70211 81870 333 91107;EQDQ01  00002PRCP99
0161010980999992000012003004+70370+031100FM-12+001599999V0202801N001012200019N0750001N1-00841-00971099701ADDAY111031AY201031GF103991011081004501071081MA1999999099511MD1710061+9999MW1021REMSYN072AAXX  20034 01098 41489 32802 11084 21097 39951 49970 57006 70210 81878;
0255010980999992000012006004+70370+031100FM-12+001599999V0200301N003110090019N0300001N1-00441-00871099701ADDAA112000891AJ199991999999999AY181061AY221061GF108991081081004501999999IA1299KA1120N-00981MA1999999099511MD1410001+9999MW1851REMSYN100AAXX  20064 01098 11480 80306 11044 21087 39951 49970 54000 69982 78582 888// 333 21098 49999 91112;EQDQ01  09962SNDP  
0161010980999992000012009004+70370+031100FM-12+001599999V0203601N003110090019N0300001N1-00431-01051099741ADDAY181031AY221031GF107991061081004501001081MA1999999099551MD1310041+9999MW1261REMSYN072AAXX  20094 01098 41480 73606 11043 21105 39955 49974 53004 72682 86808;
0188010980999992000012012004+70370+031100FM-12+001599999V0203301N003110090019N0550001N1-00481-01071099771ADDAA106000791AY181061AY221061GF107991061081004501001091MA1999999099581MD1210031+9999MW1021REMSYN088AAXX  20124 01098 11485 73306 11048 21107 39958 49977 52003 69901 70282 86809 333 91111;
0161010980999992000012015004+70370+031100FM-12+001599999V0202901N003610240019N0750001N1-00721-00941099811ADDAY121031AY221031GF106991041081004501071001MA1999999099621MD1210041+9999MW1011REMSYN072AAXX  20154 01098 41489 62907 11072 21094 39962 49981 52004 70122 84870;
0207010980999992000012018004+70370+031100FM-12+001599999V0202701N004110240019N0550001N1-00751-00811099881ADDAA112000191AY181061AY231061GF107991041081004501071041KA1120M-00401MA1999999099691MD1210071+9999MW1851REMSYN094AAXX  20184 01098 11485 72708 11075 21081 39969 49988 52007 69912 78583 84874 333 11040 91112;
0161010980999992000012021004+70370+031100FM-12+001599999V0202801N004110042019N0003001N1-00721-00751099871ADDAY181031AY231031GF108991081091004501999999MA1999999099681MD1610011+9999MW1861REMSYN072AAXX  20214 01098 41403 82808 11072 21075 39968 49987 56001 78683 889//;
0198010980999992000012100004+70370+031100FM-12+001599999V0203601N005710003019N0005001N1-00481-00491100091ADDAA106003091AY171061AY231061GA1091+999999999GF109991091999999999999999MA1999999099901MD1210221+9999MW1391REMSYN082AAXX  21004 01098 11/05 93611 11048 21049 39990 40009 52022 60031 73973 333 91120;
0161010980999992000012103004+70370+031100FM-12+001599999V0203501N004610021019N0100001N1-00531-01051100301ADDAY171031AY231031GF107991071071002501001001MA1999999100111MD1210211+9999MW1361REMSYN072AAXX  21034 01098 41360 73509 11053 21105 30011 40030 52021 73673 87700;
0255010980999992000012106004+70370+031100FM-12+001599999V0203601N003610021019N0200001N1-00461-01121100451ADDAA112004191AJ199991999999999AY171061AY221061GF108991081071002501999999IA1299KA1120N-00781MA1999999100261MD1210151+9999MW1361REMSYN100AAXX  21064 01098 31370 83607 11046 21112 30026 40045 52015 60042 73672 887// 333 21078 49999 91119;EQDQ01  09962SNDP  
0161010980999992000012109004+70370+031100FM-12+001599999V0203601N003110060019N0045001N1-00501-00701100541ADDAY181031AY231031GF107991071081002501001001MA1999999100351MD1210091+9999MW1851REMSYN072AAXX  21094 01098 41345 73606 11050 21070 30035 40054 52009 78583 87800;
0188010980999992000012112004+70370+031100FM-12+001599999V0200101N003110060019N0300001N1-00451-00711100541ADDAA106000591AY181061AY231061GF107991071081002501001001MA1999999100351MD1410001+9999MW1021REMSYN088AAXX  21124 01098 11380 70106 11045 21071 30035 40054 54000 69951 70283 87800 333 91116;
0161010980999992000012115004+70370+031100FM-12+001599999V0200401N002612200019N0750001N1-00481-00661100541ADDAY181031AY231031GF103991031031004501001001MA1999999100351MD1410001+9999MW1011REMSYN072AAXX  21154 01098 41489 30405 11048 21066 30035 40054 54000 70183 83300;
0207010980999992000012118004+70370+031100FM-12+001599999V0200301N004610042019N0550001N1-00501-00571100441ADDAA112001091AY181061AY231061GF106991061031004501001001KA1120M-00371MA1999999100251MD1810101+9999MW1361REMSYN094AAXX  21184 01098 11485 60309 11050 21057 30025 40044 58010 60012 73683 86300 333 11037 91115;
0161010980999992000012121004+70370+031100FM-12+001599999V0203401N002610042019N0060001N1-00521-00721100331ADDAY181031AY231031GF107991071091004501001001MA1999999100141MD1710111+9999MW1881REMSYN072AAXX  21214 01098 41456 73405 11052 21072 30014 40033 57011 78883 87900;
0188010980999992000012200004+70370+031100FM-12+001599999V0203001N005710042019N0100001N1-00601-00631100221ADDAA106000591AY181061AY231061GF106991061031004501001001MA1999999100031MD1710111+9999MW1391REMSYN088AAXX  22004 01098 11460 63011 11060 21063 30003 40022 57011 69951 73983 86300 333 91114;
0161010980999992000012203004+70370+031100FM-12+001599999V0203001N005710042019N0030001N1-00591-00631100041ADDAY181031AY231031GF108991081091004501999999MA1999999099851MD1710181+9999MW1861REMSYN072AAXX  22034 01098 41430 83011 11059 21063 39985 40004 57018 78683 889//;
0255010980999992000012206004+70370+031100FM-12+001599999V0202801N005110042019N0100001N1-00541-00601099841ADDAA112002091AJ199991999999999AY181061AY231061GF108991081091004501999999IA1299KA1120N-00651MA1999999099651MD1610201+9999MW1871REMSYN100AAXX  22064 01098 11460 82810 11054 21060 39965 49984 56020 60022 78783 889// 333 21065 49999 91115;EQDQ01  09962SNDP  
0161010980999992000012209004+70370+031100FM-12+001599999V0202501N004610042019N0750001N1-00601-00661099551ADDAY181031AY271031GF108991051071004501071071MA1999999099361MD1710291+9999MW1221REMSYN072AAXX  22094 01098 41489 82509 11060 21066 39936 49955 57029 72287 85777;
0188010980999992000012212004+70370+031100FM-12+001599999V0200801N002610240019N0100001N1-00481-00521099631ADDAA106000891AY181061AY271061GF107991031071002501021071MA1999999099441MD1310081+9999MW1221REMSYN088AAXX  22124 01098 11360 70805 11048 21052 39944 49963 53008 69981 72287 83727 333 91114;
0180010980999992000012215004+70370+031100FM-12+001599999V0200301N004112200019N0700001N1-00251-00981099761ADDAY181031AY221031GF103991999081004501001001MA1999999099571MD1210131+9999MW1021REMSYN072AAXX  22154 01098 41488 30308 11025 21098 39957 49976 52013 70282 86800;EQDQ01+000062SCOTLC
0207010980999992000012218004+70370+031100FM-12+001599999V0200401N005710090019N0750001N1-00151-00841099871ADDAA112001091AY181061AY231061GF106991061081004501001001KA1120M-00131MA1999999099681MD1210111+9999MW1381REMSYN094AAXX  22184 01098 11489 60411 11015 21084 39968 49987 52011 69992 73883 86800 333 11013 91118;
0161010980999992000012221004+70370+031100FM-12+001599999V0200401N005112200019N0750001N1-00201-01051100171ADDAY131031AY221031GF104991041081004501001001MA1999999099981MD1210301+9999MW1021REMSYN072AAXX  22214 01098 41489 40410 11020 21105 39998 40017 52030 70232 84800;
0188010980999992000012300004+70370+031100FM-12+001599999V0200301N005112200019N0750001N1-00241-01091100381ADDAA106000191AY181061AY231061GF103991031031004501001001MA1999999100191MD1210211+9999MW1381REMSYN088AAXX  23004 01098 11489 30310 11024 21109 30019 40038 52021 69911 73883 83300 333 91119;
0161010980999992000012303004+70370+031100FM-12+001599999V0200301N003612200019N0750001N1-00261-01081100551ADDAY181031AY231031GF103991031031004501001001MA1999999100361MD1110171+9999MW1361REMSYN072AAXX  23034 01098 41489 30307 11026 21108 30036 40055 51017 73683 83300;
0255010980999992000012306004+70370+031100FM-12+001599999V0200401N001512200019N0750001N1-00301-01141100621ADDAA112000191AJ199991999999999AY181061AY231061GF103991021031004501061001IA1249KA1120N-00311MA1999999100431MD1210071+9999MW1021REMSYN100AAXX  23064 01098 11489 30403 11030 21114 30043 40062 52007 69912 70283 82360 333 21031 48999 91114;EQDQ01  09962SNDP  
0161010980999992000012309004+70370+031100FM-12+001599999V0202601N002612200019N0750001N1-00561-00741100731ADDAY101031AY201031GF103991011031004501071061MA1999999100541MD1210111+9999MW1021REMSYN072AAXX  23094 01098 41489 32605 11056 21074 30054 40073 52011 70200 81376;
0161010980999992000012315004+70370+031100FM-12+001599999V0200201N003610240019N0300001N1-00251-00601100791ADDAY181031AY221031GF108991041081004501071999MA1999999100601MD1210111+9999MW1261REMSYN072AAXX  23154 01098 41480 80207 11025 21060 30060 40079 52011 72682 8487/;
0207010980999992000012318004+70370+031100FM-12+001599999V0200101N001510240019N0750001N1-00261-00591100981ADDAA112000591AY181061AY221061GF106991031081004501071001KA1120M-00201MA1999999100791MD1210191+9999MW1011REMSYN094AAXX  23184 01098 11489 60103 11026 21059 30079 40098 52019 69962 70182 83870 333 11020 91110;
0161010980999992000012321004+70370+031100FM-12+001599999V0202501N002112200019N0750001N1-00441-00551101051ADDAY121031AY211031GF103991011081004501071001MA1999999100861MD1210071+9999MW1011REMSYN072AAXX  23214 01098 41489 32504 11044 21055 30086 40105 52007 70121 81870;
0182010980999992000012400004+70370+031100FM-12+001599999V0202501N002612200019N0750001N1-00641-00821101111ADDAA199000021AY101061AY201061GF102991021001017501001061MA1999999100921MD1210061+9999MW1021REMSYN082AAXX  24004 01098 31789 22505 11064 21082 30092 40111 52006 70200 82006 333 91108;
0161010980999992000012403004+70370+031100FM-12+001599999V0202501N002612200019N0750001N1-00701-00811101171ADDAY101031AY201031GF102991011031004501001061MA1999999100981MD1210061+9999MW1021REMSYN072AAXX  24034 01098 41489 22505 11070 21081 30098 40117 52006 70200 81306;
0265010980999992000012406004+70370+031100FM-12+001599999V0202201N005112200019N0004001N1-00741-00771101201ADDAA199000091AJ199991999999999AY141061AY201061GF103991021061000251001061IA1299KA1120N-00771MA1999999101011MD1210031+9999MW1461REMSYN094AAXX  24064 01098 31004 32210 11074 21077 30101 40120 52003 74640 82606 333 21077 49999 91111;EQDQ01  00002PRCP99Q02  09962SNDP  
0161010980999992000012409004+70370+031100FM-12+001599999V0202301N003612200019N0750001N1-00731-00751101351ADDAY141031AY211031GF105991011021004501001061MA1999999101161MD1210151+9999MW1111REMSYN072AAXX  24094 01098 41489 52307 11073 21075 30116 40135 52015 71141 81206;
0201010980999992000012412004+70370+031100FM-12+001599999V0202301N003612200019N0040001N1-00791-00811101311ADDAA199000091AY141061AY211061GF104991031031004501001061MA1999999101121MD1810041+9999MW1461REMSYN082AAXX  24124 01098 31440 42307 11079 21081 30112 40131 58004 74641 83306 333 91111;EQDQ01  00002PRCP99
0161010980999992000012415004+70370+031100FM-12+001599999V0202301N003110600019N0040001N1-00831-00851101161ADDAY141031AY211031GF107991041031004501001061MA1999999100971MD1710151+9999MW1441REMSYN072AAXX  24154 01098 41440 72306 11083 21085 30097 40116 57015 74441 84306;
0220010980999992000012418004+70370+031100FM-12+001599999V0202101N005110042019N0040001N1-00801-00821100831ADDAA199000091AY141061AY221061GF108991061031004501001061KA1120M-00671MA1999999100641MD1810331+9999MW1441REMSYN088AAXX  24184 01098 31440 82110 11080 21082 30064 40083 58033 74442 86306 333 11067 91113;EQDQ01  00002PRCP99
0177010980999992000012421004+70370+031100FM-12+001599999V0202101N008710003019N0005001N1-00781-00801100181ADDAY131031AY221031GA1091+999999999GF109991091999999999999999MA1999999099991MD1810651+9999MW1391REMSYN072AAXX  24214 01098 41/05 92117 11078 21080 39999 40018 58065 73932 89///;
0204010980999992000012500004+70370+031100FM-12+001599999V0202201N008710006019N0010001N1-00701-00731099591ADDAA106001091AY181061AY231061GA1091+999999999GF109991091999999999999999MA1999999099401MD1710591+9999MW1391REMSYN088AAXX  25004 01098 31/10 92217 11070 21073 39940 49959 57059 60011 73983 89/// 333 91125;
0161010980999992000012503004+70370+031100FM-12+001599999V0202201N008210090019N0010001N1-00641-00681098771ADDAY181031AY231031GF108991081081004501999999MA1999999098591MD1710811+9999MW1391REMSYN072AAXX  25034 01098 41410 82216 11064 21068 39859 49877 57081 73983 888//;
0255010980999992000012506004+70370+031100FM-12+001599999V0202301N007710042019N0002001N1-00601-00631098391ADDAA112001091AJ199991999999999AY181061AY231061GF108991081091004501999999IA1299KA1120N-00801MA1999999098211MD1610381+9999MW1861REMSYN100AAXX  25064 01098 11402 82315 11060 21063 39821 49839 56038 60012 78683 889// 333 21080 49999 91124;EQDQ01  09962SNDP  
0161010980999992000012509004+70370+031100FM-12+001599999V0202401N004610042019N0050001N1-00471-00511098461ADDAY181031AY271031GF108991061071004501021999MA1999999098281MD1310071+9999MW1701REMSYN072AAXX  25094 01098 41450 82409 11047 21051 39828 49846 53007 77087 8672/;
0188010980999992000012512004+70370+031100FM-12+001599999V0202501N004110240019N0750001N1-00321-00391098601ADDAA106000791AY181061AY271061GF106991041081004501041001MA1999999098421MD1210141+9999MW1011REMSYN088AAXX  25124 01098 11489 62508 11032 21039 39842 49860 52014 69901 70187 84840 333 91117;
0161010980999992000012515004+70370+031100FM-12+001599999V0203101N005710240019N0750001N1+00081+00041098621ADDAY121031AY221031GF106991041081004501041001MA1999999098441MD1810021+9999MW1021REMSYN072AAXX  25154 01098 41489 63111 10008 20004 39844 49862 58002 70222 84840;
0207010980999992000012518004+70370+031100FM-12+001599999V0202701N004610240019N0750001N1+00101+00041098841ADDAA112000591AY121061AY221061GF106991041081004501041001KA1120M+00151MA1999999098661MD1310221+9999MW1021REMSYN094AAXX  25184 01098 11489 62709 10010 20004 39866 49884 53022 69962 70222 84840 333 10015 91117;
0161010980999992000012521004+70370+031100FM-12+001599999V0202301N003610240019N0600001N1-00031-00141098841ADDAY121031AY221031GF105991031081004501041001MA1999999098661MD1010001+9999MW1011REMSYN072AAXX  25214 01098 41486 52307 11003 21014 39866 49884 50000 70122 83840;
0188010980999992000012600004+70370+031100FM-12+001599999V0202301N005710060019N0030001N1-00011-00041098471ADDAA106000391AY171061AY231061GF108991081081002501999999MA1999999098291MD1810371+9999MW1731REMSYN088AAXX  26004 01098 11330 82311 11001 21004 39829 49847 58037 69931 77373 888// 333 91114;
0180010980999992000012603004+70370+031100FM-12+001599999V0202201N005710060019N0550001N1+00021-00011097951ADDAY171031AY221031GF108991081081002501999999MA1999999097781MD1710522+9999MW1851REMSYN072AAXX  26034 01098 41385 82211 10002 21001 39778 49795 57052 78572 888//;EQDQ01+000522APC3  
0255010980999992000012606004+70370+031100FM-12+001599999V0202401N004610060019N0550001N1+00091+00061097641ADDAA112000891AJ199991999999999AY171061AY221061GF108991081081002501999999IA1299KA1120N-00101MA1999999097471MD1710311+9999MW1021REMSYN100AAXX  26064 01098 11385 82409 10009 20006 39747 49764 57031 69982 70272 888// 333 21010 49999 91117;EQDQ01  09962SNDP  
0161010980999992000012609004+70370+031100FM-12+001599999V0202301N004610090019N0550001N1+00101+00041097421ADDAY121031AY221031GF106991061081004501001081MA1999999097251MD1710221+9999MW1011REMSYN072AAXX  26094 01098 41485 62309 10010 20004 39725 49742 57022 70122 86808;
0182010980999992000012612004+70370+031100FM-12+001599999V0202201N003110090019N0750001N1-00011-00171097201ADDAA199000021AY121061AY221061GF106991051081004501001081MA1999999097031MD1710221+9999MW1021REMSYN082AAXX  26124 01098 31489 62206 11001 21017 39703 49720 57022 70222 85808 333 91112;
0161010980999992000012615004+70370+031100FM-12+001599999V0202301N003610090019N0300001N1-00021-00181097091ADDAY121031AY221031GF107991071081004501001001MA1999999096911MD1610111+9999MW1021REMSYN072AAXX  26154 01098 41480 72307 11002 21018 39691 49709 56011 70222 87800;
0220010980999992000012618004+70370+031100FM-12+001599999V0202901N003110042019N0550001N1+00011-00091097061ADDAA199000091AY121061AY221061GF108991081071004501999999KA1120M+00181MA1999999096891MD1610031+9999MW1031REMSYN088AAXX  26184 01098 31485 82906 10001 21009 39689 49706 56003 70322 887// 333 10018 91110;EQDQ01  00002PRCP99
0161010980999992000012621004+70370+031100FM-12+001599999V0203301N007710042019N0100001N1-00031-00271097321ADDAY171031AY221031GF108991071071004501021999MA1999999097141MD1310261+9999MW1701REMSYN072AAXX  26214 01098 41460 83315 11003 21027 39714 49732 53026 77072 8772/;
0188010980999992000012700004+70370+031100FM-12+001599999V0203301N006710090019N0040001N1-00041-00381097521ADDAA106002091AY181061AY271061GF108991081081004501999999MA1999999097341MD1210201+9999MW1861REMSYN088AAXX  27004 01098 11440 83313 11004 21038 39734 49752 52020 60021 78687 888// 333 91124;
0161010980999992000012703004+70370+031100FM-12+001599999V0203201N004110090019N0300001N1+00011-00451097691ADDAY181031AY231031GF108991081081004501999999MA1999999097521MD1210181+9999MW1021REMSYN072AAXX  27034 01098 41480 83208 10001 21045 39752 49769 52018 70283 888//;
0255010980999992000012706004+70370+031100FM-12+001599999V0202701N004610090019N0300001N1-00301-00371097731ADDAA112003091AJ199991999999999AY181061AY231061GF107991071081004501001001IA1299KA1120N-00311MA1999999097551MD1110031+9999MW1011REMSYN100AAXX  27064 01098 11480 72709 11030 21037 39755 49773 51003 60032 70183 87800 333 21031 49999 91121;EQDQ01  09962SNDP  
0161010980999992000012709004+70370+031100FM-12+001599999V0202701N004110090019N0550001N1-00371-00481097701ADDAY121031AY221031GF106991061081004501001001MA1999999097521MD1810031+9999MW1011REMSYN072AAXX  27094 01098 41485 62708 11037 21048 39752 49770 58003 70122 86800;
0171010980999992000012712004+70370+031100FM-12+001599999V0202601N004110090019N0750001N1-00361-00501097631ADDAY121061AY221061GF105991051081004501001081MA1999999097451MD1710071+9999MW1011REMSYN082AAXX  27124 01098 41489 52608 11036 21050 39745 49763 57007 70122 85808 333 91112;
0161010980999992000012715004+70370+031100FM-12+001599999V0202601N003112200019N0750001N1-00461-00531097471ADDAY121031AY221031GF104991011031004501031001MA1999999097291MD1710161+9999MW1021REMSYN072AAXX  27154 01098 41489 42606 11046 21053 39729 49747 57016 70222 81330;
0220010980999992000012718004+70370+031100FM-12+001599999V0202901N005112200019N0750001N1-00471-00621097391ADDAA199000091AY131061AY211061GF101991011031004501001001KA1120M-00251MA1999999097211MD1710081+9999MW1381REMSYN088AAXX  27184 01098 31489 12910 11047 21062 39721 49739 57008 73831 81300 333 11025 91114;EQDQ01  00002PRCP99
0161010980999992000012721004+70370+031100FM-12+001599999V0202601N005110042019N0750001N1-00461-00611097331ADDAY131031AY211031GF108991081091004501999999MA1999999097151MD1710061+9999MW1031REMSYN072AAXX  27214 01098 41489 82610 11046 21061 39715 49733 57006 70331 889//;
0201010980999992000012800004+70370+031100FM-12+001599999V0202701N006210042019N0550001N1-00451-00571097101ADDAA199000091AY121061AY221061GF108991081071004501999999MA1999999096921MD1810231+9999MW1021REMSYN082AAXX  28004 01098 31485 82712 11045 21057 39692 49710 58023 70222 887// 333 91115;EQDQ01  00002PRCP99
0161010980999992000012803004+70370+031100FM-12+001599999V0202701N005710042019N0550001N1-00451-00571096991ADDAY121031AY211031GF106991061071004501001001MA1999999096811MD1610111+9999MW1011REMSYN072AAXX  28034 01098 41485 62711 11045 21057 39681 49699 56011 70121 86700;
0265010980999992000012806004+70370+031100FM-12+001599999V0202701N007710042019N0300001N1-00431-00481096931ADDAA199000091AJ199991999999999AY131061AY221061GF108991081071004501999999IA1299KA1120N-00501MA1999999096751MD1610061+9999MW1031REMSYN094AAXX  28064 01098 31480 82715 11043 21048 39675 49693 56006 70332 887// 333 21050 49999 91120;EQDQ01  00002PRCP99Q02  09962SNDP  
0161010980999992000012809004+70370+031100FM-12+001599999V0202901N005710090019N0040001N1-00321-00351097081ADDAY181031AY231031GF108991081081004501999999MA1999999096901MD1310151+9999MW1261REMSYN072AAXX  28094 01098 41440 82911 11032 21035 39690 49708 53015 72683 888//;
0188010980999992000012812004+70370+031100FM-12+001599999V0202801N005710090019N0005001N1-00351-00381097301ADDAA106002091AY121061AY221061GF108991081081004501999999MA1999999097121MD1210221+9999MW1281REMSYN088AAXX  28124 01098 11405 82811 11035 21038 39712 49730 52022 60021 72822 888// 333 91119;
0180010980999992000012815004+70370+031100FM-12+001599999V0202701N004619999999N0550001N1-00421-00651097471ADDAY181031AY231031GF107991999081004501999999MA1999999097291MD1210171+9999MW1021REMSYN072AAXX  28154 01098 41485 72709 11042 21065 39729 49747 52017 70283 888//;EQDQ01+000082SCOTLC
0207010980999992000012818004+70370+031100FM-12+001599999V0202601N005710090019N0300001N1-00511-00691097651ADDAA112002091AY181061AY231061GF105991051081004501001001KA1120M-00271MA1999999097471MD1210181+9999MW1381REMSYN094AAXX  28184 01098 11480 52611 11051 21069 39747 49765 52018 60022 73883 85800 333 11027 91114;
0161010980999992000012821004+70370+031100FM-12+001599999V0202501N004112200019N0550001N1-00691-00851097771ADDAY131031AY221031GF103991031081004501001001MA1999999097591MD1210121+9999MW1021REMSYN072AAXX  28214 01098 41485 32508 11069 21085 39759 49777 52012 70232 83800;
0211010980999992000012900004+70370+031100FM-12+001599999V0202601N004612200019N0750001N1-00591-00831097811ADDAA199000091AY131061AY211061GA1001+999999999GF100991001001999999001001MA1999999097631MD1210041+9999MW1361REMSYN076AAXX  29004 01098 31989 02609 11059 21083 39763 49781 52004 73631 333 91113;EQDQ01  00002PRCP99
0171010980999992000012903004+70370+031100FM-12+001599999V0202801N003612200019N0750001N1-00721-00941097881ADDAY131031AY201031GA1001+999999999GF100991001001999999001001MA1999999097701MD1210071+9999MW1021REMSYN066AAXX  29034 01098 41989 02807 11072 21094 39770 49788 52007 70230;
0265010980999992000012906004+70370+031100FM-12+001599999V0202301N004112200019N0750001N1-00681-00941097921ADDAA199000091AJ199991999999999AY131061AY201061GF101991011031002501031011IA1249KA1120N-00851MA1999999097741MD1110041+9999MW1021REMSYN094AAXX  29064 01098 31389 12308 11068 21094 39774 49792 51004 70230 81331 333 21085 48999 91113;EQDQ01  00002PRCP99Q02  09962SNDP  
0161010980999992000012909004+70370+031100FM-12+001599999V0202401N004610600019N0550001N1-00821-00861097931ADDAY131031AY211031GF105991011041004501001091MA1999999097751MD1110011+9999MW1361REMSYN072AAXX  29094 01098 41485 52409 11082 21086 39775 49793 51001 73631 81409;
0201010980999992000012912004+70370+031100FM-12+001599999V0202301N004110600019N0300001N1-00941-00981097991ADDAA199000091AY131061AY211061GF107991041081002501001091MA1999999097811MD1210061+9999MW1031REMSYN082AAXX  29124 01098 31380 72308 11094 21098 39781 49799 52006 70331 84809 333 91113;EQDQ01  00002PRCP99
0161010980999992000012915004+70370+031100FM-12+001599999V0202301N005712200019N0300001N1-01101-01131097931ADDAY131031AY211031GF103991021081004501001091MA1999999097751MD1810061+9999MW1011REMSYN072AAXX  29154 01098 41480 32311 11110 21113 39775 49793 58006 70131 82809;
0207010980999992000012918004+70370+031100FM-12+001599999V0202301N004610600019N0060001N1-01161-01201097921ADDAA112000191AY131061AY211061GF106991041081002501001091KA1120M-00701MA1999999097741MD1710011+9999MW1381REMSYN094AAXX  29184 01098 11356 62309 11116 21120 39774 49792 57001 69912 73831 84809 333 11070 91112;
0196010980999992000012921004+70370+031100FM-12+001599999V0202201N003110090019N9999999N1-01061-01101097881ADDAY141031AY221031GF106991999081004501001001MA1999999097701MD1710041+9999MW1481REMSYN072AAXX  29214 01098 41480 62206 11106 21110 39770 49788 57004 74842 85800;EQDQ01+000052SCOTLCQ02+300002VODIS 
0201010980999992000013000004+70370+031100FM-12+001599999V0201401N003110021019N0100001N1-00641-00671097681ADDAA199000091AY141061AY221061GF108991081061002501999999MA1999999097501MD1810201+9999MW1481REMSYN082AAXX  30004 01098 31360 81406 11064 21067 39750 49768 58020 74842 886// 333 91109;EQDQ01  00002PRCP99
0161010980999992000013003004+70370+031100FM-12+001599999V0201501N003110021019N0100001N1-00591-00651097361ADDAY141031AY221031GF108991081061002501999999MA1999999097181MD1810321+9999MW1491REMSYN072AAXX  30034 01098 41360 81506 11059 21065 39718 49736 58032 74942 886//;
0255010980999992000013006004+70370+031100FM-12+001599999V0201401N003610021019N0020001N1-00531-00571097051ADDAA112001091AJ199991999999999AY171061AY231061GF108991071071002501021999IA1299KA1120N-01121MA1999999096871MD1710311+9999MW1711REMSYN100AAXX  30064 01098 11320 81407 11053 21057 39687 49705 57031 60012 77173 8772/ 333 21112 49999 91114;EQDQ01  09962SNDP  
0161010980999992000013009004+70370+031100FM-12+001599999V0201601N005110021019N0025001N1-00461-00501096791ADDAY171031AY231031GF108991071071002501021999MA1999999096611MD1710261+9999MW1711REMSYN072AAXX  30094 01098 41325 81610 11046 21050 39661 49679 57026 77173 8772/;
0188010980999992000013012004+70370+031100FM-12+001599999V0201701N005110012019N0010001N1-00341-00391096631ADDAA106003091AY171061AY231061GF108991081071001501999999MA1999999096451MD1710161+9999MW1731REMSYN088AAXX  30124 01098 11210 81710 11034 21039 39645 49663 57016 60031 77373 887// 333 91115;
0161010980999992000013015004+70370+031100FM-12+001599999V0201801N005710060019N0020001N1-00191-00251096471ADDAY181031AY231031GF108991081081002501999999MA1999999096281MD1710171+9999MW1851REMSYN072AAXX  30154 01098 41320 81811 11019 21025 39628 49647 57017 78583 888//;
0207010980999992000013018004+70370+031100FM-12+001599999V0201901N006210060019N0030001N1-00071-00111096351ADDAA112005191AY181061AY231061GF107991071081002501001001KA1120M-00051MA1999999096171MD1710111+9999MW1391REMSYN094AAXX  30184 01098 11330 71912 11007 21011 39617 49635 57011 60052 73983 87800 333 11005 91117;
0161010980999992000013021004+70370+031100FM-12+001599999V0201901N004610060019N0050001N1+00061+00021096381ADDAY181031AY231031GF108991081081002501999999MA1999999096211MD1510031+9999MW1831REMSYN072AAXX  30214 01098 41350 81909 10006 20002 39621 49638 55003 78383 888//;
0188010980999992000013100004+70370+031100FM-12+001599999V0201801N005110090019N0300001N1+00371+00271096241ADDAA106000191AY181061AY231061GF108991081081004501999999MA1999999096271MD1210061+9999MW1221REMSYN088AAXX  31004 01098 11480 81810 10037 20027 39627 49624 52006 69911 72283 888// 333 91115;
0161010980999992000013103004+70370+031100FM-12+001599999V0203301N003110060019N0010001N1-00161-00201096541ADDAY121031AY221031GF108991081081002501999999MA1999999096361MD1210101+9999MW1721REMSYN072AAXX  31034 01098 41310 83306 11016 21020 39636 49654 52010 77222 888//;
0255010980999992000013106004+70370+031100FM-12+001599999V0203401N003610060019N0050001N1-00121-00191096561ADDAA112003091AJ199991999999999AY171061AY231061GF108991081081002501999999IA1299KA1120N-00161MA1999999096381MD1210021+9999MW1361REMSYN100AAXX  31064 01098 11350 83407 11012 21019 39638 49656 52002 60032 73673 888// 333 21016 49999 91110;EQDQ01  09962SNDP  
0161010980999992000013109004+70370+031100FM-12+001599999V0203501N005110060019N0050001N1-00121-00221096551ADDAY181031AY231031GF107991071081002501001001MA1999999096371MD1510011+9999MW1361REMSYN072AAXX  31094 01098 41350 73510 11012 21022 39637 49655 55001 73683 87800;
0188010980999992000013112004+70370+031100FM-12+001599999V0203501N005110060019N0030001N1-00141-00251096431ADDAA106000191AY121061AY201061GF108991081081002501999999MA1999999096251MD1810121+9999MW1351REMSYN088AAXX  31124 01098 11330 83510 11014 21025 39625 49643 58012 69911 73520 888// 333 91115;
0161010980999992000013115004+70370+031100FM-12+001599999V0203401N005110021019N0040001N1-00131-00161096381ADDAY121031AY221031GF108991081071002501999999MA1999999096201MD1710051+9999MW1011REMSYN072AAXX  31154 01098 41340 83410 11013 21016 39620 49638 57005 70122 887//;
0207010980999992000013118004+70370+031100FM-12+001599999V0203201N005710060019N0030001N1-00121-00151096321ADDAA112002091AY181061AY231061GF108991081081002501999999KA1120M-00061MA1999999096141MD1710061+9999MW1371REMSYN094AAXX  31184 01098 11330 83211 11012 21015 39614 49632 57006 60022 73783 888// 333 11006 91117;
0161010980999992000013121004+70370+031100FM-12+001599999V0203101N002610042019N0550001N1-00011-00041096341ADDAY121031AY221031GF108991081071004501999999MA1999999096161MD1310021+9999MW1011REMSYN072AAXX  31214 01098 41485 83105 11001 21004 39616 49634 53002 70122 887//;
0188010980999992000020100004+70370+031100FM-12+001599999V0203201N001510090019N0550001N1-00041-00111096411ADDAA106000891AY181061AY231061GF107991071081004501001001MA1999999096231MD1210071+9999MW1021REMSYN088AAXX  01004 01098 11485 73203 11004 21011 39623 49641 52007 69981 70283 87800 333 91117;
0161010980999992000020103004+70370+031100FM-12+001599999V0203301N002110090019N0550001N1+00041-00031096481ADDAY121031AY221031GF107991071081004501001001MA1999999096311MD1210071+9999MW1021REMSYN072AAXX  01034 01098 41485 73304 10004 21003 39631 49648 52007 70222 87800;
0255010980999992000020106004+70370+031100FM-12+001599999V0200301N003110090019N0550001N1+00081-00051096611ADDAA112000891AJ199991999999999AY121061AY221061GF107991071081004501001001IA1299KA1120N-00141MA1999999096441MD1210131+9999MW1021REMSYN100AAXX  01064 01098 11485 70306 10008 21005 39644 49661 52013 69982 70222 87800 333 21014 49999 91110;EQDQ01  09962SNDP  
0161010980999992000020109004+70370+031100FM-12+001599999V0203501N003610090019N0300001N1+00111-00071096721ADDAY181031AY221031GF107991071081004501001001MA1999999096551MD1210111+9999MW1161REMSYN072AAXX  01094 01098 41480 73507 10011 21007 39655 49672 52011 71682 87800;
0188010980999992000020112004+70370+031100FM-12+001599999V0200301N002610090019N0300001N1+00001-00271096981ADDAA106000891AY181061AY221061GF107991071081004501001001MA1999999096811MD1210261+9999MW1021REMSYN088AAXX  01124 01098 11480 70305 10000 21027 39681 49698 52026 69971 70282 87800 333 91113;
0161010980999992000020115004+70370+031100FM-12+001599999V0200201N003110090019N0300001N1+00061-00371097161ADDAY121031AY221031GF107991071081004501001001MA1999999096991MD1210181+9999MW1021REMSYN072AAXX  01154 01098 41480 70206 10006 21037 39699 49716 52018 70222 87800;
0207010980999992000020118004+70370+031100FM-12+001599999V0200301N003110090019N0300001N1+00011-00421097301ADDAA112000891AY121061AY221061GF107991071081004501001001KA1120M+00191MA1999999097131MD1210141+9999MW1021REMSYN094AAXX  01184 01098 11480 70306 10001 21042 39713 49730 52014 69972 70222 87800 333 10019 91110;
0161010980999992000020121004+70370+031100FM-12+001599999V0200301N003110090019N0300001N1+00011-00531097471ADDAY121031AY221031GF107991071081004501001001MA1999999097301MD1210171+9999MW1021REMSYN072AAXX  01214 01098 41480 70306 10001 21053 39730 49747 52017 70222 87800;
0201010980999992000020200004+70370+031100FM-12+001599999V0202701N002110042019N0750001N1-00151-00431097571ADDAA199000091AY121061AY211061GF106991061051004501001001MA1999999097391MD1210101+9999MW1011REMSYN082AAXX  02004 01098 31489 62704 11015 21043 39739 49757 52010 70121 86500 333 91109;EQDQ01  00002PRCP99
0171010980999992000020203004+70370+031100FM-12+001599999V0202501N001010024019N0030001N1-00181-00241097491ADDAY171031AY221031GA1091+999999999GF109991091999999999999999MA1999999097311MD1810081+9999MW1711REMSYN066AAXX  02034 01098 41/30 92502 11018 21024 39731 49749 58008 77172;
0236010980999992000020206004+70370+031100FM-12+001599999V0203101N005710042019N0010001N1-00051-00191097271ADDAA112005191AJ199991999999999AY171061AY231061GF108991081071004501999999IA1299MA1999999097091MD1810221+9999MW1361REMSYN094AAXX  02064 01098 11410 83111 11005 21019 39709 49727 58022 60052 73673 887// 333 49999 91115;EQDQ01  09962SNDP  
0161010980999992000020209004+70370+031100FM-12+001599999V0202801N004610090019N0550001N1-00041-00231097251ADDAY181031AY231031GF107991051081004501041081MA1999999097071MD1610021+9999MW1011REMSYN072AAXX  02094 01098 41485 72809 11004 21023 39707 49725 56002 70183 85848;
0188010980999992000020212004+70370+031100FM-12+001599999V0202701N005110240019N0550001N1-00211-00541097211ADDAA106000591AY181061AY231061GF105991031081004501041081MA1999999097031MD1710041+9999MW1011REMSYN088AAXX  02124 01098 11485 52710 11021 21054 39703 49721 57004 69951 70183 83848 333 91115;
0161010980999992000020215004+70370+031100FM-12+001599999V0202901N003110240019N0750001N1-00111-00271097211ADDAY121031AY221031GF105991031081004501071081MA1999999097031MD1410001+9999MW1021REMSYN072AAXX  02154 01098 41489 52906 11011 21027 39703 49721 54000 70222 83878;
0207010980999992000020218004+70370+031100FM-12+001599999V0203001N003610042019N0060001N1-00061-00201097251ADDAA112000591AY181061AY221061GF108991081091004501999999KA1120M+00021MA1999999097071MD1310041+9999MW1881REMSYN094AAXX  02184 01098 11456 83007 11006 21020 39707 49725 53004 69962 78882 889// 333 10002 91112;
0161010980999992000020221004+70370+031100FM-12+001599999V0203201N004110090019N0550001N1-00041-00081097311ADDAY181031AY231031GF106991061081004501001001MA1999999097131MD1310061+9999MW1851REMSYN072AAXX  02214 01098 41485 63208 11004 21008 39713 49731 53006 78583 86800;
0188010980999992000020300004+70370+031100FM-12+001599999V0203401N005110090019N0300001N1+00021-00151097451ADDAA106001091AY181061AY231061GF106991061081004501001001MA1999999097281MD1210141+9999MW1361REMSYN088AAXX  03004 01098 11480 63410 10002 21015 39728 49745 52014 60011 73683 86800 333 91114;
0161010980999992000020303004+70370+031100FM-12+001599999V0203101N005110090019N0300001N1-00031-00191097611ADDAY121031AY221031GF106991061081004501001001MA1999999097431MD1210161+9999MW1361REMSYN072AAXX  03034 01098 41480 63110 11003 21019 39743 49761 52016 73622 86800;
0255010980999992000020306004+70370+031100FM-12+001599999V0203301N006210090019N0200001N1-00021-00181097801ADDAA112002091AJ199991999999999AY181061AY231061GF106991061081004501001001IA1299KA1120N-00111MA1999999097621MD1210191+9999MW1361REMSYN100AAXX  03064 01098 11470 63312 11002 21018 39762 49780 52019 60022 73683 86800 333 21011 49999 91118;EQDQ01  09962SNDP  
0161010980999992000020309004+70370+031100FM-12+001599999V0203501N006210090019N0300001N1-00091-00331098091ADDAY181031AY231031GF108991061081004501001081MA1999999097911MD1210291+9999MW1361REMSYN072AAXX  03094 01098 41480 83512 11009 21033 39791 49809 52029 73683 86808;
0188010980999992000020312004+70370+031100FM-12+001599999V0203401N005110090019N0300001N1-00161-00331098501ADDAA106000591AY181061AY231061GF106991051081004501001081MA1999999098321MD1210411+9999MW1361REMSYN088AAXX  03124 01098 11480 63410 11016 21033 39832 49850 52041 69951 73683 85808 333 91119;
0161010980999992000020315004+70370+031100FM-12+001599999V0203301N004610090019N0300001N1-00131-00551098841ADDAY181031AY231031GF106991061081004501001001MA1999999098661MD1210341+9999MW1361REMSYN072AAXX  03154 01098 41480 63309 11013 21055 39866 49884 52034 73683 86800;
0207010980999992000020318004+70370+031100FM-12+001599999V0203301N003610090019N0300001N1-00261-00421099071ADDAA112000891AY181061AY231061GF106991061081004501001001KA1120M+00011MA1999999098891MD1210231+9999MW1361REMSYN094AAXX  03184 01098 11480 63307 11026 21042 39889 49907 52023 69972 73683 86800 333 10001 91118;
0161010980999992000020321004+70370+031100FM-12+001599999V0202901N003110090019N0300001N1-00501-00761099191ADDAY121031AY221031GF106991061081004501001001MA1999999099001MD1210121+9999MW1021REMSYN072AAXX  03214 01098 41480 62906 11050 21076 39900 49919 52012 70222 86800;
0188010980999992000020400004+70370+031100FM-12+001599999V0202801N004112200019N0750001N1-00431-00661099111ADDAA106001091AY181061AY231061GF102991021051002501001001MA1999999098931MD1810071+9999MW1011REMSYN088AAXX  04004 01098 11389 22808 11043 21066 39893 49911 58007 60011 70183 82500 333 91112;
0171010980999992000020403004+70370+031100FM-12+001599999V0202401N003612200019N0750001N1-00681-00811099001ADDAY101031AY201031GA1001+999999999GF100991001001999999001001MA1999999098821MD1710111+9999MW1011REMSYN066AAXX  04034 01098 41/89 02407 11068 21081 39882 49900 57011 70100;
0230010980999992000020406004+70370+031100FM-12+001599999V0202301N003610600019N0750001N1-00561-00741098841ADDAA112001091AJ100009199999999AY121061AY201061GF105991021081004501071081IA1299KA1120N-00701MA1999999098661MD1710161+9999MW1031REMSYN094AAXX  04064 01098 11489 52307 11056 21074 39866 49884 57016 60012 70320 82878 333 21070 49999;
0161010980999992000020409004+70370+031100FM-12+001599999V0202001N005110240019N0750001N1-00531-00641098681ADDAY121031AY211031GF107991011081004501071081MA1999999098501MD1710161+9999MW1031REMSYN072AAXX  04094 01098 41489 72010 11053 21064 39850 49868 57016 70321 81878;
0201010980999992000020412004+70370+031100FM-12+001599999V0202001N004610240019N0750001N1-00371-00541098541ADDAA199000091AY121061AY211061GF107991021021002501051081MA1999999098361MD1710141+9999MW1021REMSYN082AAXX  04124 01098 31389 72009 11037 21054 39836 49854 57014 70221 82258 333 91112;EQDQ01  00002PRCP99
0161010980999992000020415004+70370+031100FM-12+001599999V0201901N003110240019N0750001N1-00361-00751098471ADDAY121031AY221031GF107991031021004501071001MA1999999098291MD1710071+9999MW1021REMSYN072AAXX  04154 01098 41489 71906 11036 21075 39829 49847 57007 70222 83270;
0220010980999992000020418004+70370+031100FM-12+001599999V0201901N004610240019N0750001N1-00291-00691098431ADDAA199000091AY121061AY221061GF107991031021004501071001KA1120M-00271MA1999999098251MD1710041+9999MW1021REMSYN088AAXX  04184 01098 31489 71909 11029 21069 39825 49843 57004 70222 83270 333 11027 91112;EQDQ01  00002PRCP99
0161010980999992000020421004+70370+031100FM-12+001599999V0202201N004110240019N0750001N1-00361-00691098451ADDAY121031AY221031GF107991031021004501071001MA1999999098271MD1310021+9999MW1021REMSYN072AAXX  04214 01098 41489 72208 11036 21069 39827 49845 53002 70222 83270;
0188010980999992000020500004+70370+031100FM-12+001599999V0202201N003610090019N0060001N1-00551-00621098561ADDAA106000191AY121061AY221061GF108991081081004501999999MA1999999098381MD1310111+9999MW1851REMSYN088AAXX  05004 01098 11456 82207 11055 21062 39838 49856 53011 69911 78522 888// 333 91112;
0249010980999992000020501004+70370+031100FM-12+001599999V0202101N003119999999N0750001N1-00521-00591098811ADDAA112000191AJ199991999999999AY181999AY231999GF107991999999004501999999IA1299KA1120N-00601MA1999999098631MD1210141+9999MW1021REMSYN094AAXX  05014 01098 11489 72106 11052 21059 39863 49881 52014 69922 70283 333 21060 49999 91113;EQDQ01  09962SNDP  
0161010980999992000020503004+70370+031100FM-12+001599999V0202201N004110090019N0750001N1-00481-00551098671ADDAY181031AY231031GF108991081081004501999999MA1999999098491MD1110111+9999MW1021REMSYN072AAXX  05034 01098 41489 82208 11048 21055 39849 49867 51011 70283 888//;
0255010980999992000020506004+70370+031100FM-12+001599999V0202101N003110090019N0750001N1-00521-00591098811ADDAA112000191AJ199991999999999AY181061AY231061GF107991051081004501041001IA1299KA1120N-00601MA1999999098631MD1210141+9999MW1021REMSYN100AAXX  05064 01098 11489 72106 11052 21059 39863 49881 52014 69922 70283 85840 333 21060 49999 91113;EQDQ01  09962SNDP  
0161010980999992000020509004+70370+031100FM-12+001599999V0202001N003610240019N0750001N1-00581-00621099011ADDAY121031AY211031GF105991031081004501051001MA1999999098831MD1210201+9999MW1011REMSYN072AAXX  05094 01098 41489 52007 11058 21062 39883 49901 52020 70121 83850;
0188010980999992000020512004+70370+031100FM-12+001599999V0202701N003110090019N0550001N1-00331-00481099121ADDAA106000791AY181061AY221061GF107991071081004501001001MA1999999098941MD1210111+9999MW1851REMSYN088AAXX  05124 01098 11485 72706 11033 21048 39894 49912 52011 69901 78582 87800 333 91112;
0161010980999992000020515004+70370+031100FM-12+001599999V0203001N006210600019N0550001N1-00111-00211099221ADDAY181031AY231031GF106991041081004501001051MA1999999099041MD1210101+9999MW1361REMSYN072AAXX  05154 01098 41485 63012 11011 21021 39904 49922 52010 73683 84805;
0207010980999992000020518004+70370+031100FM-12+001599999V0202901N004610090019N0550001N1-00321-00571099441ADDAA112003091AY181061AY231061GF106991061081004501001001KA1120M-00071MA1999999099251MD1210221+9999MW1361REMSYN094AAXX  05184 01098 11485 62909 11032 21057 39925 49944 52022 60032 73683 86800 333 11007 91115;
0161010980999992000020521004+70370+031100FM-12+001599999V0202801N004110090019N0550001N1-00401-00761099511ADDAY131031AY221031GF106991061081004501001001MA1999999099321MD1210071+9999MW1021REMSYN072AAXX  05214 01098 41485 62808 11040 21076 39932 49951 52007 70232 86800;
0182010980999992000020600004+70370+031100FM-12+001599999V0202701N004610090019N0550001N1-00411-00791099481ADDAA199000021AY131061AY221061GF108991081081004501999999MA1999999099291MD1810031+9999MW1021REMSYN082AAXX  06004 01098 31485 82709 11041 21079 39929 49948 58003 70232 888// 333 91113;
0161010980999992000020603004+70370+031100FM-12+001599999V0202401N003610090019N0550001N1-00501-00821099411ADDAY121031AY221031GF105991051081004501001001MA1999999099221MD1710071+9999MW1011REMSYN072AAXX  06034 01098 41485 52407 11050 21082 39922 49941 57007 70122 85800;
0265010980999992000020606004+70370+031100FM-12+001599999V0202401N003612200019N0750001N1-00641-00801099271ADDAA199000091AJ199991999999999AY121061AY221061GF103991011081004501071001IA1299KA1120N-00641MA1999999099081MD1710141+9999MW1011REMSYN094AAXX  06064 01098 31489 32407 11064 21080 39908 49927 57014 70122 81870 333 21064 49999 91111;EQDQ01  00002PRCP99Q02  09962SNDP  
0161010980999992000020609004+70370+031100FM-12+001599999V0202201N003612200019N0750001N1-00481-00621099081ADDAY111031AY201031GF103991011081004501071051MA1999999098901MD1710191+9999MW1021REMSYN072AAXX  06094 01098 41489 32207 11048 21062 39890 49908 57019 70210 81875;
0201010980999992000020612004+70370+031100FM-12+001599999V0202101N005710090019N0750001N1-00471-00541098671ADDAA199000091AY131061AY221061GF107991071081004501001001MA1999999098491MD1810411+9999MW1361REMSYN082AAXX  06124 01098 31489 72111 11047 21054 39849 49867 58041 73632 87800 333 91113;EQDQ01  00002PRCP99
0161010980999992000020615004+70370+031100FM-12+001599999V0201801N004110090019N0550001N1-00261-00331098441ADDAY131031AY221031GF107991071081004501001001MA1999999098261MD1710231+9999MW1021REMSYN072AAXX  06154 01098 41485 71808 11026 21033 39826 49844 57023 70232 87800;
0207010980999992000020618004+70370+031100FM-12+001599999V0201901N004610090019N0050001N1-00181-00221098181ADDAA112000191AY181061AY231061GF108991081081004501999999KA1120M-00181MA1999999098001MD1710261+9999MW1861REMSYN094AAXX  06184 01098 11450 81909 11018 21022 39800 49818 57026 69912 78683 888// 333 11018 91113;
0161010980999992000020621004+70370+031100FM-12+001599999V0202101N002610090019N0030001N1-00281-00321098021ADDAY181031AY231031GF108991081081004501999999MA1999999097841MD1610161+9999MW1861REMSYN072AAXX  06214 01098 41430 82105 11028 21032 39784 49802 56016 78683 888//;
0188010980999992000020700004+70370+031100FM-12+001599999V0202401N002610060019N0030001N1-00361-00411097971ADDAA106002091AY171061AY231061GF108991081081002501999999MA1999999097791MD1710211+9999MW1731REMSYN088AAXX  07004 01098 11330 82405 11036 21041 39779 49797 57021 60021 77373 888// 333 91111;
0161010980999992000020703004+70370+031100FM-12+001599999V0202201N003610060019N0550001N1-00261-00421097891ADDAY171031AY231031GF108991081081002501999999MA1999999097711MD1610081+9999MW1361REMSYN072AAXX  07034 01098 41385 82207 11026 21042 39771 49789 56008 73673 888//;
0255010980999992000020706004+70370+031100FM-12+001599999V0202401N002110090019N0550001N1-00131-00331097911ADDAA112002091AJ199991999999999AY171061AY231061GF108991051081004501051999IA1299KA1120N-00361MA1999999097731MD1310021+9999MW1021REMSYN100AAXX  07064 01098 11485 82404 11013 21033 39773 49791 53002 60022 70273 8585/ 333 21036 49999 91110;EQDQ01  09962SNDP  
0161010980999992000020709004+70370+031100FM-12+001599999V0202301N003612200019N0750001N1-00091-00371097931ADDAY121031AY221031GF105991031051004501001081MA1999999097751MD1210021+9999MW1011REMSYN072AAXX  07094 01098 41489 52307 11009 21037 39775 49793 52002 70122 83508;
0182010980999992000020712004+70370+031100FM-12+001599999V0202401N003112200019N0750001N1-00111-00411098031ADDAA199000021AY121061AY211061GF104991041051004501001001MA1999999097851MD1210101+9999MW1011REMSYN082AAXX  07124 01098 31489 42406 11011 21041 39785 49803 52010 70121 84500 333 91110;
0161010980999992000020715004+70370+031100FM-12+001599999V0202301N002612200019N0750001N1-00141-00441098081ADDAY101031AY201031GF101991011041012501041001MA1999999097901MD1110051+9999MW1011REMSYN072AAXX  07154 01098 41689 12305 11014 21044 39790 49808 51005 70100 81440;
0230010980999992000020718004+70370+031100FM-12+001599999V0202201N005112200019N0550001N1-00281-00331098051ADDAA199000091AY131061AY201061GA1001+999999999GF100991001001999999001001KA1120M+00081MA1999999097871MD1710031+9999MW1361REMSYN082AAXX  07184 01098 31/85 02210 11028 21033 39787 49805 57003 73630 333 10008 91113;EQDQ01  00002PRCP99
0171010980999992000020721004+70370+031100FM-12+001599999V0201901N003112200019N0750001N1-00361-00411098031ADDAY131031AY201031GA1001+999999999GF100991001001999999001001MA1999999097851MD1710021+9999MW1021REMSYN066AAXX  07214 01098 41/89 01906 11036 21041 39785 49803 57002 70230;
0171010980999992000020800004+70370+031100FM-12+001599999V0202101N003110042019N0550001N1-00241-00291097941ADDAY131061AY211061GF107991071051004501001001MA1999999097761MD1710091+9999MW1031REMSYN082AAXX  08004 01098 11485 72106 11024 21029 39776 49794 57009 70331 87500 333 91112;
0161010980999992000020803004+70370+031100FM-12+001599999V0201701N002610042019N0550001N1-00201-00261097781ADDAY121031AY221031GF107991071051004501001001MA1999999097601MD1710161+9999MW1021REMSYN072AAXX  08034 01098 41485 71705 11020 21026 39760 49778 57016 70222 87500;
0265010980999992000020806004+70370+031100FM-12+001599999V0201501N002610042019N0550001N1+00121-00041097541ADDAA199000091AJ199991999999999AY121061AY221061GF107991071051004501001001IA1299KA1120N-00401MA1999999097371MD1710231+9999MW1021REMSYN094AAXX  08064 01098 31485 71505 10012 21004 39737 49754 57023 70222 87500 333 21040 49999 91110;EQDQ01  00002PRCP99Q02  09962SNDP  
0161010980999992000020809004+70370+031100FM-12+001599999V0201801N003610090019N0030001N1-00041-00081097371ADDAY181031AY221031GF108991081081004501999999MA1999999097191MD1710181+9999MW1851REMSYN072AAXX  08094 01098 41430 81807 11004 21008 39719 49737 57018 78582 888//;
0188010980999992000020812004+70370+031100FM-12+001599999V0202201N003110090019N0030001N1-00091-00131097251ADDAA106001091AY181061AY221061GF108991081081004501999999MA1999999097071MD1710121+9999MW1861REMSYN088AAXX  08124 01098 11430 82206 11009 21013 39707 49725 57012 60011 78682 888// 333 91111;
0161010980999992000020815004+70370+031100FM-12+001599999V0202201N002110090019N0300001N1-00101-00141097211ADDAY181031AY221031GF108991081081004501999999MA1999999097031MD1610041+9999MW1021REMSYN072AAXX  08154 01098 41480 82204 11010 21014 39703 49721 56004 70282 888//;
0207010980999992000020818004+70370+031100FM-12+001599999V0202201N002610090019N0550001N1-00181-00251097121ADDAA112002091AY121061AY221061GF108991081081004501999999KA1120M+00151MA1999999096971MD1710091+9999MW1021REMSYN094AAXX  08184 01098 11485 82205 11018 21025 39697 49712 57009 60022 70222 888// 333 10015 91108;
0161010980999992000020821004+70370+031100FM-12+001599999V0202301N003610090019N0750001N1-00261-00331097161ADDAY121031AY221031GF105991051081004501001001MA1999999096981MD1710021+9999MW1011REMSYN072AAXX  08214 01098 41489 52307 11026 21033 39698 49716 57002 70122 85800;
0182010980999992000020900004+70370+031100FM-12+001599999V0202501N003612200019N0750001N1-00221-00261097171ADDAA199000021AY121061AY201061GF101991011081004501001001MA1999999096991MD1310011+9999MW1011REMSYN082AAXX  09004 01098 31489 12507 11022 21026 39699 49717 53001 70120 81800 333 91109;
0161010980999992000020903004+70370+031100FM-12+001599999V0202501N002612200019N0750001N1-00221-00381097211ADDAY101031AY201031GF102991021081004501001001MA1999999097031MD1210041+9999MW1021REMSYN072AAXX  09034 01098 41489 22505 11022 21038 39703 49721 52004 70200 82800;
0265010980999992000020906004+70370+031100FM-12+001599999V0202301N004110240019N0750001N1-00191-00391097241ADDAA199000091AJ199991999999999AY121061AY201061GF106991041081004501041081IA1299KA1120N-00281MA1999999097061MD1210031+9999MW1031REMSYN094AAXX  09064 01098 31489 62308 11019 21039 39706 49724 52003 70320 84848 333 21028 49999 91110;EQDQ01  00002PRCP99Q02  09962SNDP  
0161010980999992000020909004+70370+031100FM-12+001599999V0202201N005112200019N0750001N1-00311-00381097311ADDAY111031AY201031GF102991011041004501041011MA1999999097131MD1210071+9999MW1021REMSYN072AAXX  09094 01098 41489 22210 11031 21038 39713 49731 52007 70210 81441;
0201010980999992000020912004+70370+031100FM-12+001599999V0202201N002612200019N0750001N1-00361-00421097461ADDAA199000091AY111061AY201061GF101991011021004501041011MA1999999097281MD1210131+9999MW1021REMSYN082AAXX  09124 01098 31489 12205 11036 21042 39728 49746 52013 70210 81241 333 91113;EQDQ01  00002PRCP99
0161010980999992000020915004+70370+031100FM-12+001599999V0202401N004610240019N0750001N1-00461-00511097471ADDAY121031AY211031GF106991031051004501041001MA1999999097291MD1110011+9999MW1031REMSYN072AAXX  09154 01098 41489 62409 11046 21051 39729 49747 51001 70321 83540;
0220010980999992000020918004+70370+031100FM-12+001599999V0202201N004112200019N0750001N1-00351-00401097531ADDAA199000091AY131061AY221061GF102991011051004501041001KA1120M-00181MA1999999097351MD1310061+9999MW1011REMSYN088AAXX  09184 01098 31489 22208 11035 21040 39735 49753 53006 70132 81540 333 11018 91114;EQDQ01  00002PRCP99
0161010980999992000020921004+70370+031100FM-12+001599999V0202301N005110090019N0150001N1-00171-00231097521ADDAY181031AY231031GF107991061081004501041001MA1999999097341MD1810011+9999MW1851REMSYN072AAXX  09214 01098 41465 72310 11017 21023 39734 49752 58001 78583 86840;
0188010980999992000021000004+70370+031100FM-12+001599999V0202401N006710090019N0750001N1+00181+00001097511ADDAA106000791AY181061AY221061GF108991081081004501999999MA1999999097351MD1710011+9999MW1021REMSYN088AAXX  10004 01098 11489 82413 10018 20000 39735 49751 57001 69901 70282 888// 333 91116;
0161010980999992000021003004+70370+031100FM-12+001599999V0202701N007710090019N0750001N1+00081-00021097531ADDAY181031AY221031GF108991081081004501999999MA1999999097361MD1310011+9999MW1021REMSYN072AAXX  10034 01098 41489 82715 10008 21002 39736 49753 53001 70282 888//;
0207010980999992000021006004+70370+031100FM-12+001599999V0202801N007210240019N0750001N1+00081-00061097771ADDAA112000791AY181061AY221061GF106991021081004501041001KA1120N-00351MA1999999097601MD1210241+9999MW1021REMSYN094AAXX  10064 01098 11489 62814 10008 21006 39760 49777 52024 69902 70282 82840 333 21035 91120;
0161010980999992000021009004+70370+031100FM-12+001599999V0202801N006210090019N0750001N1+00121-00121098081ADDAY121031AY221031GF106991051081004501041001MA1999999097911MD1210311+9999MW1021REMSYN072AAXX  10094 01098 41489 62812 10012 21012 39791 49808 52031 70222 85840;
0163010980999992000021012004+70370+031100FM-12+001599999V0202401N005112200019N0049001N1-00111-00381098381ADDAW1011AZ121061GF101991011081000751041001MA1999999098201MD1210301+9999REMSYN082AAXX  10124 01098 /4149 12410 11011 21038 39820 49838 52030 70121 81840 333 91118;
0161010980999992000021015004+70370+031100FM-12+001599999V0202201N003112200019N0750001N1-00411-00511098461ADDAY111031AY201031GF102991011081004501071001MA1999999098281MD1210081+9999MW1021REMSYN072AAXX  10154 01098 41489 22206 11041 21051 39828 49846 52008 70210 81870;
0220010980999992000021018004+70370+031100FM-12+001599999V0202101N003610240019N0750001N1-00281-00441098241ADDAA199000091AY121061AY211061GF105991031081004501071001KA1120M+00121MA1999999098061MD1810221+9999MW1031REMSYN088AAXX  10184 01098 31489 52107 11028 21044 39806 49824 58022 70321 83870 333 10012 91116;EQDQ01  00002PRCP99
0161010980999992000021021004+70370+031100FM-12+001599999V0202001N006710090019N0100001N1-00341-00471097921ADDAY131031AY221031GF106991061081004501001001MA1999999097741MD1710321+9999MW1381REMSYN072AAXX  10214 01098 41460 62013 11034 21047 39774 49792 57032 73832 86800;
0188010980999992000021100004+70370+031100FM-12+001599999V0202001N006210240019N0100001N1-00121-00191097561ADDAA106000191AY171061AY231061GF108991041071004501021999MA1999999097381MD1710361+9999MW1381REMSYN088AAXX  11004 01098 11460 82012 11012 21019 39738 49756 57036 69911 73873 8472/ 333 91117;
0161010980999992000021103004+70370+031100FM-12+001599999V0201901N006710021019N0025001N1-00081-00111097141ADDAY171031AY231031GF108991051071002501021999MA1999999096961MD1710421+9999MW1711REMSYN072AAXX  11034 01098 41325 81913 11008 21011 39696 49714 57042 77173 8572/;
0255010980999992000021106004+70370+031100FM-12+001599999V0201901N006210021019N0250001N1+00061+00031096721ADDAA112001091AJ199991999999999AY171061AY231061GF108991071071002501021999IA1289KA1120N-00391MA1999999096551MD1710411+9999MW1711REMSYN100AAXX  11064 01098 11375 81912 10006 20003 39655 49672 57041 60012 77173 8772/ 333 21039 44999 91117;EQDQ01  09962SNDP  
0161010980999992000021109004+70370+031100FM-12+001599999V0201901N007710042019N0300001N1+00211+00061096391ADDAY171031AY221031GF107991071071004501021001MA1999999096221MD1710331+9999MW1021REMSYN072AAXX  11094 01098 41480 71915 10021 20006 39622 49639 57033 70272 87720;
0188010980999992000021112004+70370+031100FM-12+001599999V0202001N008710042019N0300001N1+00241+00121096121ADDAA106000191AY171061AY231061GF105991051071004501001001MA1999999095951MD1710271+9999MW1021REMSYN088AAXX  11124 01098 11480 52017 10024 20012 39595 49612 57027 69911 70273 85700 333 91122;
0161010980999992000021115004+70370+031100FM-12+001599999V0202301N008710090019N0250001N1+00251-00041096231ADDAY181031AY221031GF107991071081004501001001MA1999999096061MD1310111+9999MW1031REMSYN072AAXX  11154 01098 41475 72317 10025 21004 39606 49623 53011 70382 87800;
0207010980999992000021118004+70370+031100FM-12+001599999V0202301N008210090019N0300001N1+00101-00221096451ADDAA112000591AY181061AY221061GF107991071081004501001001KA1120M+00261MA1999999096281MD1210221+9999MW1021REMSYN094AAXX  11184 01098 11480 72316 10010 21022 39628 49645 52022 69942 70282 87800 333 10026 91125;
0161010980999992000021121004+70370+031100FM-12+001599999V0202301N008210090019N0200001N1-00031-00101096631ADDAY181031AY221031GF107991071081004501001001MA1999999096451MD1210171+9999MW1851REMSYN072AAXX  11214 01098 41470 72316 11003 21010 39645 49663 52017 78582 87800;
0188010980999992000021200004+70370+031100FM-12+001599999V0202301N007210090019N0200001N1-00041-00101096771ADDAA106000791AY181061AY221061GF108991081081004501999999MA1999999096591MD1210141+9999MW1831REMSYN088AAXX  12004 01098 11470 82314 11004 21010 39659 49677 52014 69901 78382 888// 333 91123;
0161010980999992000021203004+70370+031100FM-12+001599999V0202901N005110090019N0550001N1+00201+00141097131ADDAY181031AY221031GF108991081081004501999999MA1999999096961MD1210361+9999MW1021REMSYN072AAXX  12034 01098 41485 82910 10020 20014 39696 49713 52036 70282 888//;
0255010980999992000021206004+70370+031100FM-12+001599999V0203001N006710090019N0550001N1+00171+00011097851ADDAA112000191AJ199991999999999AY181061AY221061GF106991051081004501071001IA1289KA1120N-00061MA1999999097681MD1210721+9999MW1021REMSYN100AAXX  12064 01098 11485 63013 10017 20001 39768 49785 52072 69922 70282 85870 333 21006 44999 91117;EQDQ01  09962SNDP  
0161010980999992000021209004+70370+031100FM-12+001599999V0203001N004610090019N0550001N1+00181-00091098431ADDAY181031AY221031GF107991051081004501071001MA1999999098261MD1210581+9999MW1031REMSYN072AAXX  12094 01098 41485 73009 10018 21009 39826 49843 52058 70382 85870;
0188010980999992000021212004+70370+031100FM-12+001599999V0202601N004110240019N0550001N1+00081-00311098941ADDAA106000591AY181061AY221061GF107991041081004501071001MA1999999098761MD1210501+9999MW1021REMSYN088AAXX  12124 01098 11485 72608 10008 21031 39876 49894 52050 69941 70282 84870 333 91117;
0161010980999992000021215004+70370+031100FM-12+001599999V0202601N005112200019N0750001N1+00031-00131099311ADDAY111031AY201031GF101991011011008001001001MA1999999099131MD1110371+9999MW1011REMSYN072AAXX  12154 01098 41589 12610 10003 21013 39913 49931 51037 70110 81100;
0207010980999992000021218004+70370+031100FM-12+001599999V0202201N003112200019N0750001N1-00181-00411099351ADDAA112000591AY181061AY201061GF103991031011008001001001KA1120M+00191MA1999999099171MD1110041+9999MW1011REMSYN094AAXX  12184 01098 11589 32206 11018 21041 39917 49935 51004 69942 70180 83100 333 10019 91113;
0161010980999992000021221004+70370+031100FM-12+001599999V0201901N003610075019N0750001N1-00041-00111099401ADDAY121031AY211031GF108991081051008001999999MA1999999099221MD1210051+9999MW1031REMSYN072AAXX  12214 01098 41589 81907 11004 21011 39922 49940 52005 70321 885//;
0171010980999992000021300004+70370+031100FM-12+001599999V0202101N005110075019N0550001N1-00011-00171099311ADDAY121061AY211061GF107991071051008001001001MA1999999099121MD1810101+9999MW1011REMSYN082AAXX  13004 01098 11585 72110 11001 21017 39912 49931 58010 70121 87500 333 91115;
0161010980999992000021303004+70370+031100FM-12+001599999V0202001N006210075019N0550001N1-00101-00201099211ADDAY121031AY221031GF107991071051008001001001MA1999999099021MD1710101+9999MW1021REMSYN072AAXX  13034 01098 41585 72012 11010 21020 39902 49921 57010 70222 87500;
0265010980999992000021306004+70370+031100FM-12+001599999V0202001N005710075019N0550001N1+00061-00041099221ADDAA199000091AJ199991999999999AY121061AY221061GF107991071051008001001001IA1289KA1120N-00241MA1999999099041MD1310021+9999MW1021REMSYN094AAXX  13064 01098 31585 72011 10006 21004 39904 49922 53002 70222 87500 333 21024 44999 91122;EQDQ01  00002PRCP99Q02  09962SNDP  
0161010980999992000021309004+70370+031100FM-12+001599999V0202101N006210240019N0750001N1+00171+00101099151ADDAY121031AY221031GF106991031011008001041061MA1999999098971MD1810071+9999MW1021REMSYN072AAXX  13094 01098 41589 62112 10017 20010 39897 49915 58007 70222 83146;
0201010980999992000021312004+70370+031100FM-12+001599999V0202001N004610042019N0300001N1+00191+00131099191ADDAA199000091AY121061AY221061GF108991061071004501021999MA1999999099011MD1310041+9999MW1031REMSYN082AAXX  13124 01098 31480 82009 10019 20013 39901 49919 53004 70322 8672/ 333 91117;EQDQ01  00002PRCP99
0161010980999992000021315004+70370+031100FM-12+001599999V0202001N004610042019N0200001N1+00161+00091099191ADDAY151031AY221031GF108991061071004501021999MA1999999099011MD1410001+9999MW1501REMSYN072AAXX  13154 01098 41470 82009 10016 20009 39901 49919 54000 75052 8672/;
0207010980999992000021318004+70370+031100FM-12+001599999V0202101N004610042019N0300001N1+00161+00091099181ADDAA112000791AY121061AY221061GF107991071071004501999999KA1120M+00201MA1999999099001MD1610011+9999MW1021REMSYN094AAXX  13184 01098 11480 72109 10016 20009 39900 49918 56001 69902 70222 877// 333 10020 91113;
0161010980999992000021321004+70370+031100FM-12+001599999V0201801N004610042019N0300001N1+00151+00081099191ADDAY121031AY221031GF107991071071004501999999MA1999999099011MD1310011+9999MW1021REMSYN072AAXX  13214 01098 41480 71809 10015 20008 39901 49919 53001 70222 877//;
0182010980999992000021400004+70370+031100FM-12+001599999V0201901N005710042019N0550001N1+00101-00011099201ADDAA199000021AY121061AY221061GF108991081071004501999999MA1999999099021MD1210011+9999MW1021REMSYN082AAXX  14004 01098 31485 81911 10010 21001 39902 49920 52001 70222 887// 333 91114;
0161010980999992000021403004+70370+031100FM-12+001599999V0201801N004110042019N0550001N1+00121-00011099261ADDAY121031AY221031GF108991081071004501999999MA1999999099081MD1310061+9999MW1021REMSYN072AAXX  14034 01098 41485 81808 10012 21001 39908 49926 53006 70222 887//;
0246010980999992000021406004+70370+031100FM-12+001599999V0201801N004610240019N0550001N1+00121-00061099291ADDAA199000091AJ199991999999999AY121061AY221061GF108991031071004501041061IA1299MA1999999099111MD1110031+9999MW1021REMSYN088AAXX  14064 01098 31485 81809 10012 21006 39911 49929 51003 70222 83746 333 49999 91114;EQDQ01  00002PRCP99Q02  09962SNDP  
0161010980999992000021409004+70370+031100FM-12+001599999V0201701N005110240019N0300001N1+00131-00051099361ADDAY121031AY221031GF106991021071004501041081MA1999999099181MD1210071+9999MW1021REMSYN072AAXX  14094 01098 41480 61710 10013 21005 39918 49936 52007 70222 82748;
0201010980999992000021412004+70370+031100FM-12+001599999V0201801N005112200019N0300001N1+00141-00011099521ADDAA199000091AY121061AY211061GF103991011081004501041081MA1999999099341MD1210161+9999MW1021REMSYN082AAXX  14124 01098 31480 31810 10014 21001 39934 49952 52016 70221 81848 333 91112;EQDQ01  00002PRCP99
0161010980999992000021415004+70370+031100FM-12+001599999V0201801N004610240019N0750001N1+00091-00071099451ADDAY121031AY211031GF106991031081004501051001MA1999999099261MD1210021+9999MW1031REMSYN072AAXX  14154 01098 41489 61809 10009 21007 39926 49945 52002 70321 83850;
0220010980999992000021418004+70370+031100FM-12+001599999V0201801N003610090019N0750001N1+00061-00131099491ADDAA199000091AY121061AY211061GF106991061081004501001001KA1120M+00161MA1999999099311MD1210051+9999MW1021REMSYN088AAXX  14184 01098 31489 61807 10006 21013 39931 49949 52005 70221 86800 333 10016 91112;EQDQ01  00002PRCP99
0161010980999992000021421004+70370+031100FM-12+001599999V0201901N003610090019N0750001N1+00041-00121099541ADDAY121031AY211031GF108991061081004501031999MA1999999099361MD1210051+9999MW1031REMSYN072AAXX  14214 01098 41489 81907 10004 21012 39936 49954 52005 70321 8683/;
0201010980999992000021500004+70370+031100FM-12+001599999V0201801N003610240019N0750001N1+00001-00061099591ADDAA199000091AY121061AY221061GF107991031071004501031999MA1999999099411MD1210051+9999MW1021REMSYN082AAXX  15004 01098 31489 71807 10000 21006 39941 49959 52005 70222 8373/ 333 91111;EQDQ01  00002PRCP99
0161010980999992000021503004+70370+031100FM-12+001599999V0202101N003610240019N0750001N1-00011-00201099621ADDAY121031AY221031GF108991041071004501031999MA1999999099431MD1210031+9999MW1021REMSYN072AAXX  15034 01098 41489 82107 11001 21020 39943 49962 52003 70222 8473/;
0255010980999992000021506004+70370+031100FM-12+001599999V0202201N004110042019N0750001N1-00021-00291099671ADDAA112000191AJ199991999999999AY171061AY221061GF108991061071004501021999IA1299KA1120N-00021MA1999999099481MD1210051+9999MW1021REMSYN100AAXX  15064 01098 11489 82208 11002 21029 39948 49967 52005 69912 70272 8672/ 333 21002 49999 91111;EQDQ01  09962SNDP  
0161010980999992000021509004+70370+031100FM-12+001599999V0201801N004110090019N0550001N1-00011-00381099731ADDAY121031AY221031GF107991071081004501001001MA1999999099541MD1210061+9999MW1021REMSYN072AAXX  15094 01098 41485 71808 11001 21038 39954 49973 52006 70222 87800;
0201010980999992000021512004+70370+031100FM-12+001599999V0201901N003610090019N0750001N1-00021-00231099731ADDAA199000091AY121061AY221061GF107991071081004501001001MA1999999099541MD1410001+9999MW1021REMSYN082AAXX  15124 01098 31489 71907 11002 21023 39954 49973 54000 70222 87800 333 91113;EQDQ01  00002PRCP99
0161010980999992000021515004+70370+031100FM-12+001599999V0202001N003110090019N0750001N1-00061-00181099751ADDAY121031AY221031GF107991071081004501001001MA1999999099561MD1310021+9999MW1021REMSYN072AAXX  15154 01098 41489 72006 11006 21018 39956 49975 53002 70222 87800;
0220010980999992000021518004+70370+031100FM-12+001599999V0202001N002110090019N0750001N1-00181-00271099781ADDAA199000091AY121061AY221061GF107991071081004501001001KA1120M+00021MA1999999099591MD1210031+9999MW1021REMSYN088AAXX  15184 01098 31489 72004 11018 21027 39959 49978 52003 70222 87800 333 10002 91108;EQDQ01  00002PRCP99
0161010980999992000021521004+70370+031100FM-12+001599999V0202201N003110042019N0750001N1-00201-00401099791ADDAY121031AY221031GF105991051051004501001001MA1999999099601MD1210011+9999MW1011REMSYN072AAXX  15214 01098 41489 52206 11020 21040 39960 49979 52001 70122 85500;
0201010980999992000021600004+70370+031100FM-12+001599999V0202201N003112200019N0750001N1-00221-00471099791ADDAA199000091AY121061AY211061GF104991041051004501001001MA1999999099601MD1010001+9999MW1021REMSYN082AAXX  16004 01098 31489 42206 11022 21047 39960 49979 50000 70221 84500 333 91108;EQDQ01  00002PRCP99
0161010980999992000021603004+70370+031100FM-12+001599999V0202201N003110075019N0750001N1-00241-00401099791ADDAY121031AY211031GF107991071051008001001001MA1999999099601MD1410001+9999MW1021REMSYN072AAXX  16034 01098 41589 72206 11024 21040 39960 49979 54000 70221 87500;
0161010980999992000021605004+70370+031100FM-12+001599999V0202201N003612200019N0550001N1-00301-00441099841ADDAY121999AY211999GF103991021081004501041001MA1999999099651MD1210031+9999MW1021REMSYN072AAXX  16054 01098 41485 32207 11030 21044 39965 49984 52003 70221 82840;
0220010980999992000021606004+70370+031100FM-12+001599999V0202401N002610090019N0750001N1-00391-00491099811ADDAA199000091AY121061AY211061GF107991071081004501001001KA1120N-00391MA1999999099621MD1310021+9999MW1021REMSYN088AAXX  16064 01098 31489 72405 11039 21049 39962 49981 53002 70221 87800 333 21039 91108;EQDQ01  00002PRCP99
0161010980999992000021609004+70370+031100FM-12+001599999V0202201N003612200019N0550001N1-00301-00441099841ADDAY121031AY211031GF103991021081004501041001MA1999999099651MD1210031+9999MW1021REMSYN072AAXX  16094 01098 41485 32207 11030 21044 39965 49984 52003 70221 82840;
0201010980999992000021612004+70370+031100FM-12+001599999V0202101N003110042019N0550001N1+00031-00031099891ADDAA199000091AY121061AY211061GF107991061061004501041001MA1999999099711MD1210051+9999MW1031REMSYN082AAXX  16124 01098 31485 72106 10003 21003 39971 49989 52005 70321 86640 333 91109;EQDQ01  00002PRCP99
0161010980999992000021615004+70370+031100FM-12+001599999V0202401N004612200019N0025001N1-00671-00711099881ADDAY121031AY211031GF103991021061000251041001MA1999999099691MD1810021+9999MW1101REMSYN072AAXX  16154 01098 41025 32409 11067 21071 39969 49988 58002 71021 82640;
0220010980999992000021618004+70370+031100FM-12+001599999V0202901N001512200019N0750001N1-00801-00961099971ADDAA199000091AY121061AY211061GF101991011011008001031001KA1120M+00031MA1999999099781MD1310081+9999MW1011REMSYN088AAXX  16184 01098 31589 12903 11080 21096 39978 49997 53008 70121 81130 333 10003 91113;EQDQ01  00002PRCP99
0161010980999992000021621004+70370+031100FM-12+001599999V0202301N005112200019N0750001N1-00771-00841100001ADDAY101031AY201031GF101991011011008001031001MA1999999099811MD1210031+9999MW1021REMSYN072AAXX  16214 01098 41589 12310 11077 21084 39981 40000 52003 70200 81130;
0201010980999992000021700004+70370+031100FM-12+001599999V0202301N006212200019N0750001N1-00751-00791100031ADDAA199000091AY101061AY201061GF101991011011008001001001MA1999999099841MD1210031+9999MW1021REMSYN082AAXX  17004 01098 31589 12312 11075 21079 39984 40003 52003 70200 81100 333 91114;EQDQ01  00002PRCP99
0161010980999992000021703004+70370+031100FM-12+001599999V0202301N005112200019N0750001N1-00751-00781100091ADDAY111031AY201031GF104991041051008001001001MA1999999099901MD1210061+9999MW1031REMSYN072AAXX  17034 01098 41589 42310 11075 21078 39990 40009 52006 70310 84500;
0265010980999992000021706004+70370+031100FM-12+001599999V0202201N004110003019N0020001N1-00781-00811100161ADDAA199000091AJ199991999999999AY111061AY201061GF106991061061000251001001IA1289KA1120N-00901MA1999999099971MD1210071+9999MW1031REMSYN094AAXX  17064 01098 31020 62208 11078 21081 39997 40016 52007 70310 86600 333 21090 44999 91115;EQDQ01  00002PRCP99Q02  09962SNDP  
0161010980999992000021709004+70370+031100FM-12+001599999V0202301N004112200019N0020001N1-00721-00751100181ADDAY121031AY211031GF103991031061000251001001MA1999999099991MD1310021+9999MW1101REMSYN072AAXX  17094 01098 41020 32308 11072 21075 39999 40018 53002 71021 83600;
0201010980999992000021712004+70370+031100FM-12+001599999V0202201N005112200019N0020001N1-00741-00771100231ADDAA199000091AY121061AY211061GF102991021061000251001001MA1999999100041MD1210051+9999MW1101REMSYN082AAXX  17124 01098 31020 22210 11074 21077 30004 40023 52005 71021 82600 333 91112;EQDQ01  00002PRCP99
0161010980999992000021715004+70370+031100FM-12+001599999V0202201N004612200019N0020001N1-00761-00791100311ADDAY101031AY201031GF102991021061000251001001MA1999999100121MD1210081+9999MW1101REMSYN072AAXX  17154 01098 41020 22209 11076 21079 30012 40031 52008 71000 82600;
0220010980999992000021718004+70370+031100FM-12+001599999V0202201N003612200019N0020001N1-00721-00751100411ADDAA199000091AY101061AY201061GF102991021061000251001001KA1120M-00621MA1999999100221MD1210101+9999MW1101REMSYN088AAXX  17184 01098 31020 22207 11072 21075 30022 40041 52010 71000 82600 333 11062 91113;EQDQ01  00002PRCP99
0161010980999992000021721004+70370+031100FM-12+001599999V0202201N002610003019N0040001N1-00671-00701100491ADDAY101031AY201031GF106991061061000251001001MA1999999100301MD1210081+9999MW1101REMSYN072AAXX  17214 01098 41040 62205 11067 21070 30030 40049 52008 71000 86600;
0201010980999992000021800004+70370+031100FM-12+001599999V0202201N002110003019N0040001N1-00731-00761100491ADDAA199000091AY111061AY221061GF106991061061000251001001MA1999999100301MD1410001+9999MW1101REMSYN082AAXX  18004 01098 31040 62204 11073 21076 30030 40049 54000 71012 86600 333 91109;EQDQ01  00002PRCP99
0161010980999992000021803004+70370+031100FM-12+001599999V0202101N003110003019N0040001N1-00681-00711100441ADDAY121031AY221031GF106991061061000251001001MA1999999100251MD1810051+9999MW1101REMSYN072AAXX  18034 01098 41040 62106 11068 21071 30025 40044 58005 71022 86600;
0265010980999992000021806004+70370+031100FM-12+001599999V0202301N002610240019N0200001N1-00761-00791100431ADDAA199000091AJ199991999999999AY121061AY221061GF107991031081000751041041IA1289KA1120N-00801MA1999999100241MD1710011+9999MW1021REMSYN094AAXX  18064 01098 31170 72305 11076 21079 30024 40043 57001 70222 83844 333 21080 44999 91109;EQDQ01  00002PRCP99Q02  09962SNDP  
0161010980999992000021809004+70370+031100FM-12+001599999V0202401N001510240019N0300001N1-00621-00651100441ADDAY121031AY221031GF107991021061000751071001MA1999999100251MD1310011+9999MW1011REMSYN072AAXX  18094 01098 41180 72403 11062 21065 30025 40044 53001 70122 82670;
0201010980999992000021812004+70370+031100FM-12+001599999V0202501N002110240019N0300001N1-00601-00661100381ADDAA199000091AY121061AY221061GF106991041081004501071001MA1999999100191MD1810061+9999MW1021REMSYN082AAXX  18124 01098 31480 62504 11060 21066 30019 40038 58006 70222 84870 333 91106;EQDQ01  00002PRCP99
0161010980999992000021815004+70370+031100FM-12+001599999V0202301N001512200019N0750001N1-00571-00661100331ADDAY101031AY201031GF102991011081004501071999MA1999999100141MD1710051+9999MW1011REMSYN072AAXX  18154 01098 41489 22303 11057 21066 30014 40033 57005 70100 8187/;
0207010980999992000021818004+70370+031100FM-12+001599999V0202401N001512200019N0750001N1-00501-00561100251ADDAA112000191AY171061AY221061GF104991041071004501999999KA1120M-00501MA1999999100061MD1710081+9999MW1021REMSYN094AAXX  18184 01098 11489 42403 11050 21056 30006 40025 57008 69912 70272 847// 333 11050 91105;
0161010980999992000021821004+70370+031100FM-12+001599999V0202801N001012200019N0750001N1-00581-00661100171ADDAY121031AY221031GF104991041071004501999999MA1999999099981MD1710081+9999MW1021REMSYN072AAXX  18214 01098 41489 42802 11058 21066 39998 40017 57008 70222 847//;
0201010980999992000021900004+70370+031100FM-12+001599999V0203101N001012200019N0550001N1-00531-00591100111ADDAA199000091AY121061AY211061GF102991021021004501001001MA1999999099921MD1710061+9999MW1011REMSYN082AAXX  19004 01098 31485 23102 11053 21059 39992 40011 57006 70121 82200 333 91103;EQDQ01  00002PRCP99
0161010980999992000021903004+70370+031100FM-12+001599999V0203001N002110240019N0200001N1-00401-00581100041ADDAY171031AY211031GF107991041071002501021001MA1999999099851MD1710071+9999MW1701REMSYN072AAXX  19034 01098 41370 73004 11040 21058 39985 40004 57007 77071 84720;
0255010980999992000021906004+70370+031100FM-12+001599999V0202901N002610042019N0550001N1-00421-00511100011ADDAA112000791AJ199991999999999AY171061AY211061GF107991051071004501021001IA1289KA1120N-00601MA1999999099821MD1710031+9999MW1021REMSYN100AAXX  19064 01098 11485 72905 11042 21051 39982 40001 57003 69902 70271 85720 333 21060 44999 91106;EQDQ01  09962SNDP  
0161010980999992000021909004+70370+031100FM-12+001599999V0202801N001512200019N0550001N1-00491-00731100011ADDAY121031AY221031GF105991011081004501031091MA1999999099821MD1410001+9999MW1021REMSYN072AAXX  19094 01098 41485 52803 11049 21073 39982 40001 54000 70222 81839;
0182010980999992000021912004+70370+031100FM-12+001599999V0203001N000512200019N0750001N1-00511-00741100091ADDAA199000021AY101061AY201061GF101991011071004501031081MA1999999099901MD1210081+9999MW1011REMSYN082AAXX  19124 01098 31489 13001 11051 21074 39990 40009 52008 70100 81738 333 91106;
0161010980999992000021915004+70370+031100FM-12+001599999V0202501N002112200019N0750001N1-00651-00831100151ADDAY101031AY201031GF101991011021008001041001MA1999999099961MD1210061+9999MW1021REMSYN072AAXX  19154 01098 41589 12504 11065 21083 39996 40015 52006 70200 81240;
0220010980999992000021918004+70370+031100FM-12+001599999V0202401N003112200019N0750001N1-00641-00911100211ADDAA199000091AY101061AY201061GF101991011011008001001001KA1120M-00401MA1999999100021MD1110061+9999MW1021REMSYN088AAXX  19184 01098 31589 12406 11064 21091 30002 40021 51006 70200 81100 333 11040 91107;EQDQ01  00002PRCP99
0161010980999992000021921004+70370+031100FM-12+001599999V0202401N004112200019N0750001N1-00821-00971100281ADDAY101031AY201031GF101991011011008001001001MA1999999100091MD1310071+9999MW1021REMSYN072AAXX  19214 01098 41589 12408 11082 21097 30009 40028 53007 70200 81100;
0201010980999992000022000004+70370+031100FM-12+001599999V0202401N004112200019N0750001N1-00881-01091100361ADDAA199000091AY101061AY201061GF101991011011008001001001MA1999999100171MD1210081+9999MW1021REMSYN082AAXX  20004 01098 31589 12408 11088 21109 30017 40036 52008 70200 81100 333 91112;EQDQ01  00002PRCP99
0161010980999992000022003004+70370+031100FM-12+001599999V0202301N003112200019N0750001N1-00981-01161100431ADDAY101031AY201031GF101991011011008001001001MA1999999100241MD1210071+9999MW1021REMSYN072AAXX  20034 01098 41589 12306 11098 21116 30024 40043 52007 70200 81100;
0265010980999992000022006004+70370+031100FM-12+001599999V0202401N002112200019N0750001N1-00951-01011100461ADDAA199000091AJ199991999999999AY101061AY201061GF101991011011008001001001IA1289KA1120N-01091MA1999999100271MD1210031+9999MW1021REMSYN094AAXX  20064 01098 31589 12404 11095 21101 30027 40046 52003 70200 81100 333 21109 44999 91112;EQDQ01  00002PRCP99Q02  09962SNDP  
0161010980999992000022009004+70370+031100FM-12+001599999V0202301N001512200019N0750001N1-00651-00691100581ADDAY101031AY201031GF104991031051004501041001MA1999999100391MD1210121+9999MW1031REMSYN072AAXX  20094 01098 41489 42303 11065 21069 30039 40058 52012 70300 83540;
0201010980999992000022012004+70370+031100FM-12+001599999V0202401N003612200019N0750001N1-00731-00951100641ADDAA199000091AY101061AY201061GF104991021081004501041001MA1999999100451MD1110061+9999MW1021REMSYN082AAXX  20124 01098 31489 42407 11073 21095 30045 40064 51006 70200 82840 333 91108;EQDQ01  00002PRCP99
0161010980999992000022015004+70370+031100FM-12+001599999V0202901N001510240019N0300001N1-00341-00481100731ADDAY121031AY221031GF106991041081001501041001MA1999999100541MD1210091+9999MW1031REMSYN072AAXX  20154 01098 41280 62903 11034 21048 30054 40073 52009 70322 84840;
0220010980999992000022018004+70370+031100FM-12+001599999V0200301N002610240019N0550001N1-00061-00331100861ADDAA199000091AY121061AY221061GF106991041081002501041001KA1120M-00011MA1999999100671MD1210131+9999MW1021REMSYN088AAXX  20184 01098 31385 60305 11006 21033 30067 40086 52013 70222 84840 333 11001 91109;EQDQ01  00002PRCP99
0161010980999992000022021004+70370+031100FM-12+001599999V0203601N001012200019N0750001N1-00121-00491100981ADDAY101031AY201031GF104991031081002501041001MA1999999100791MD1210121+9999MW1021REMSYN072AAXX  20214 01098 41389 43602 11012 21049 30079 40098 52012 70200 83840;
0188010980999992000022100004+70370+031100FM-12+001599999V0200201N003112200019N0750001N1-00101-00351101091ADDAA106000191AY181061AY221061GF103991031031004501001001MA1999999100901MD1210111+9999MW1021REMSYN088AAXX  21004 01098 11489 30206 11010 21035 30090 40109 52011 69911 70282 83300 333 91110;
0161010980999992000022103004+70370+031100FM-12+001599999V0203501N003110090019N0750001N1-00151-00251101161ADDAY181031AY231031GF106991061081004501001001MA1999999100971MD1110071+9999MW1361REMSYN072AAXX  21034 01098 41489 63506 11015 21025 30097 40116 51007 73683 86800;
0255010980999992000022106004+70370+031100FM-12+001599999V0200201N003110042019N0750001N1-00081-00241101241ADDAA112000191AJ199991999999999AY181061AY231061GF106991061031004501001001IA1289KA1120N-00251MA1999999101051MD1310081+9999MW1021REMSYN100AAXX  21064 01098 11489 60206 11008 21024 30105 40124 53008 69922 70283 86300 333 21025 44999 91111;EQDQ01  09962SNDP  
0161010980999992000022109004+70370+031100FM-12+001599999V0200201N001510090019N0150001N1-00161-00231101381ADDAY181031AY221031GF107991071081004501001001MA1999999101191MD1210141+9999MW1851REMSYN072AAXX  21094 01098 41465 70203 11016 21023 30119 40138 52014 78582 87800;
0188010980999992000022112004+70370+031100FM-12+001599999V0200501N003610090019N0300001N1-00111-00441101591ADDAA106000591AY181061AY221061GF107991051081004501001081MA1999999101401MD1210211+9999MW1021REMSYN088AAXX  21124 01098 11480 70507 11011 21044 30140 40159 52021 69941 70282 85808 333 91111;
0161010980999992000022115004+70370+031100FM-12+001599999V0203501N002110090019N0300001N1-00291-00411101731ADDAY181031AY221031GF107991051081004501001081MA1999999101541MD1210141+9999MW1021REMSYN072AAXX  21154 01098 41480 73504 11029 21041 30154 40173 52014 70282 85808;
0207010980999992000022118004+70370+031100FM-12+001599999V0200501N002610090019N0300001N1-00181-00581101851ADDAA112000591AY181061AY221061GF107991071081004501001001KA1120M-00051MA1999999101661MD1210121+9999MW1021REMSYN094AAXX  21184 01098 11480 70505 11018 21058 30166 40185 52012 69952 70282 87800 333 11005 91114;
0161010980999992000022121004+70370+031100FM-12+001599999V0200501N002612200019N0750001N1-00111-00721101961ADDAY181031AY211031GF104991041081004501001001MA1999999101771MD1210111+9999MW1011REMSYN072AAXX  21214 01098 41489 40505 11011 21072 30177 40196 52011 70181 84800;
0188010980999992000022200004+70370+031100FM-12+001599999V0200501N002112200019N0750001N1-00161-00691102051ADDAA106000191AY181061AY201061GF103991031081004501001001MA1999999101861MD1210091+9999MW1021REMSYN088AAXX  22004 01098 11489 30504 11016 21069 30186 40205 52009 69921 70280 83800 333 91110;
0161010980999992000022203004+70370+031100FM-12+001599999V0203201N001512200019N0750001N1-00241-00441102071ADDAY101031AY201031GF103991031081004501001001MA1999999101881MD1110021+9999MW1021REMSYN072AAXX  22034 01098 41489 33203 11024 21044 30188 40207 51002 70200 83800;
0255010980999992000022206004+70370+031100FM-12+001599999V0202601N002112200019N0550001N1-00351-00421102091ADDAA112001091AJ199991999999999AY181061AY201061GF104991031031004501041001IA1289KA1120N-00401MA1999999101901MD1210021+9999MW1261REMSYN100AAXX  22064 01098 11485 42604 11035 21042 30190 40209 52002 60012 72680 83340 333 21040 44999 91107;EQDQ01  09962SNDP  
0161010980999992000022209004+70370+031100FM-12+001599999V0202601N003112200019N0550001N1-00261-00611102111ADDAY121031AY211031GF101991011081004501041001MA1999999101921MD1210021+9999MW1021REMSYN072AAXX  22094 01098 41485 12606 11026 21061 30192 40211 52002 70221 81840;
0182010980999992000022212004+70370+031100FM-12+001599999V0202801N003612200019N0550001N1-00601-01001102131ADDAA199000021AY121061AY211061GF101991011081004501041001MA1999999101941MD1210021+9999MW1021REMSYN082AAXX  22124 01098 31485 12807 11060 21100 30194 40213 52002 70221 81840 333 91109;
0161010980999992000022215004+70370+031100FM-12+001599999V0202801N004112200019N0750001N1-00421-00861102111ADDAY101031AY201031GF101991011081004501001001MA1999999101921MD1810021+9999MW1021REMSYN072AAXX  22154 01098 41489 12808 11042 21086 30192 40211 58002 70200 81800;
0201010980999992000022218004+70370+031100FM-12+001599999V0202401N004612200019N0750001N1-00621-00921102121ADDAA199000021AY101061AY201061GF101991011081004501001001KA1120M-00261MA1999999101931MD1310011+9999MW1021REMSYN088AAXX  22184 01098 31489 12409 11062 21092 30193 40212 53001 70200 81800 333 11026 91110;
0161010980999992000022221004+70370+031100FM-12+001599999V0202601N003112200019N0750001N1-00541-00951102151ADDAY101031AY201031GF101991011081004501001001MA1999999101961MD1210031+9999MW1021REMSYN072AAXX  22214 01098 41489 12606 11054 21095 30196 40215 52003 70200 81800;
0201010980999992000022300004+70370+031100FM-12+001599999V0202901N001512200019N0750001N1-00541-01041102171ADDAA199000091AY101061AY201061GF102991011081004501071001MA1999999101981MD1210021+9999MW1021REMSYN082AAXX  23004 01098 31489 22903 11054 21104 30198 40217 52002 70200 81870 333 91111;EQDQ01  00002PRCP99
0161010980999992000022303004+70370+031100FM-12+001599999V0202301N002112200019N0750001N1-00561-00951102141ADDAY121031AY221031GF102991011081004501071001MA1999999101951MD1810031+9999MW1021REMSYN072AAXX  23034 01098 41489 22304 11056 21095 30195 40214 58003 70222 81870;
0265010980999992000022306004+70370+031100FM-12+001599999V0202301N002612200019N0750001N1-00761-00941102131ADDAA199000091AJ199991999999999AY101061AY201061GF102991011081004501001041IA1299KA1120N-00891MA1999999101941MD1710011+9999MW1021REMSYN094AAXX  23064 01098 31489 22305 11076 21094 30194 40213 57001 70200 81804 333 21089 49999 91107;EQDQ01  00002PRCP99Q02  09962SNDP  
0161010980999992000022309004+70370+031100FM-12+001599999V0202301N003112200019N0750001N1-00751-00881102161ADDAY101031AY201031GF102991011081004501001041MA1999999101971MD1310031+9999MW1021REMSYN072AAXX  23094 01098 41489 22306 11075 21088 30197 40216 53003 70200 81804;
0201010980999992000022312004+70370+031100FM-12+001599999V0202301N004612200019N0750001N1-00831-00881102121ADDAA199000091AY101061AY201061GF103991011081004501001041MA1999999101931MD1810041+9999MW1031REMSYN082AAXX  23124 01098 31489 32309 11083 21088 30193 40212 58004 70300 81804 333 91111;EQDQ01  00002PRCP99
0161010980999992000022315004+70370+031100FM-12+001599999V0202301N003612200019N0750001N1-00991-01141102091ADDAY101031AY201031GF102991011081004501071001MA1999999101901MD1710031+9999MW1021REMSYN072AAXX  23154 01098 41489 22307 11099 21114 30190 40209 57003 70200 81870;
0220010980999992000022318004+70370+031100FM-12+001599999V0202501N001512200019N0750001N1-00841-01031102111ADDAA199000091AY101061AY201061GF102991011081004501071001KA1120M-00691MA1999999101921MD1310021+9999MW1021REMSYN088AAXX  23184 01098 31489 22503 11084 21103 30192 40211 53002 70200 81870 333 11069 91113;EQDQ01  00002PRCP99
0161010980999992000022321004+70370+031100FM-12+001599999V0202301N003612200019N0750001N1-01061-01191102091ADDAY101031AY201031GF102991011081004501071001MA1999999101901MD1810021+9999MW1021REMSYN072AAXX  23214 01098 41489 22307 11106 21119 30190 40209 58002 70200 81870;
0201010980999992000022400004+70370+031100FM-12+001599999V0202401N006212200019N0023001N1-01061-01091101971ADDAA199000091AY141061AY231061GF102991011081004501071001MA1999999101781MD1710121+9999MW1381REMSYN082AAXX  24004 01098 31423 22412 11106 21109 30178 40197 57012 73843 81870 333 91115;EQDQ01  00002PRCP99
0161010980999992000022403004+70370+031100FM-12+001599999V0202301N004112200019N0050001N1-01241-01271101931ADDAY141031AY201031GF102991021061000251001001MA1999999101741MD1710041+9999MW1101REMSYN072AAXX  24034 01098 41050 22308 11124 21127 30174 40193 57004 71040 82600;
0265010980999992000022406004+70370+031100FM-12+001599999V0202101N004612200019N0750001N1-01211-01241101841ADDAA199000091AJ199991999999999AY141061AY231061GF102991021061001501001001IA1299KA1120N-01301MA1999999101651MD1710091+9999MW1381REMSYN094AAXX  24064 01098 31289 22109 11121 21124 30165 40184 57009 73843 82600 333 21130 49999 91117;EQDQ01  00002PRCP99Q02  09962SNDP  
0161010980999992000022409004+70370+031100FM-12+001599999V0202201N004110090019N0100001N1-00991-01021101751ADDAY181031AY231031GF107991071081004501001001MA1999999101561MD1710091+9999MW1851REMSYN072AAXX  24094 01098 41460 72208 11099 21102 30156 40175 57009 78583 87800;
0188010980999992000022412004+70370+031100FM-12+001599999V0202201N003610090019N0550001N1-00731-00771101691ADDAA106000391AY181061AY231061GF107991071081004501001001MA1999999101501MD1710061+9999MW1021REMSYN088AAXX  24124 01098 11485 72207 11073 21077 30150 40169 57006 69931 70283 87800 333 91115;
0161010980999992000022415004+70370+031100FM-12+001599999V0202101N004110090019N0550001N1-00691-00731101571ADDAY121031AY221031GF107991051081004501081001MA1999999101381MD1710121+9999MW1021REMSYN072AAXX  24154 01098 41485 72108 11069 21073 30138 40157 57012 70222 85880;
0207010980999992000022418004+70370+031100FM-12+001599999V0202001N003610090019N0550001N1-00691-00731101471ADDAA112000391AY181061AY221061GF106991061081004501001001KA1120M-00641MA1999999101281MD1710101+9999MW1021REMSYN094AAXX  24184 01098 11485 62007 11069 21073 30128 40147 57010 69932 70282 86800 333 11064 91110;
0161010980999992000022421004+70370+031100FM-12+001599999V0202101N004610090019N0550001N1-00601-00781101411ADDAY121031AY221031GF106991061081004501001001MA1999999101221MD1710061+9999MW1021REMSYN072AAXX  24214 01098 41485 62109 11060 21078 30122 40141 57006 70222 86800;
0201010980999992000022500004+70370+031100FM-12+001599999V0202001N004612200019N0550001N1-00601-00791101291ADDAA199000091AY121061AY221061GF104991041081004501001001MA1999999101101MD1710121+9999MW1021REMSYN082AAXX  25004 01098 31485 42009 11060 21079 30110 40129 57012 70222 84800 333 91111;EQDQ01  00002PRCP99
0161010980999992000022503004+70370+031100FM-12+001599999V0202301N003612200019N0550001N1-00711-00901101201ADDAY121031AY211031GF104991021081004501071001MA1999999101011MD1710091+9999MW1021REMSYN072AAXX  25034 01098 41485 42307 11071 21090 30101 40120 57009 70221 82870;
0265010980999992000022506004+70370+031100FM-12+001599999V0202101N004110600019N0550001N1-00691-00921101141ADDAA199000091AJ199991999999999AY121061AY211061GF105991021081004501031081IA1299KA1120N-00921MA1999999100951MD1710061+9999MW1021REMSYN094AAXX  25064 01098 31485 52108 11069 21092 30095 40114 57006 70221 82838 333 21092 49999 91112;EQDQ01  00002PRCP99Q02  09962SNDP  
0161010980999992000022509004+70370+031100FM-12+001599999V0202401N003110090019N0300001N1-00871-00911101131ADDAY121031AY211031GF106991061081004501001001MA1999999100941MD1610011+9999MW1161REMSYN072AAXX  25094 01098 41480 62406 11087 21091 30094 40113 56001 71621 86800;
0201010980999992000022512004+70370+031100FM-12+001599999V0202201N003610090019N0100001N1-00801-00851101131ADDAA199000091AY141061AY211061GF106991061081004501001001MA1999999100941MD1410001+9999MW1441REMSYN082AAXX  25124 01098 31460 62207 11080 21085 30094 40113 54000 74441 86800 333 91110;EQDQ01  00002PRCP99
0161010980999992000022515004+70370+031100FM-12+001599999V0201901N004610090019N0750001N1-00701-00821101121ADDAY141031AY221031GF107991071081004501041001MA1999999100931MD1810011+9999MW1021REMSYN072AAXX  25154 01098 41489 71909 11070 21082 30093 40112 58001 70242 87840;
0220010980999992000022518004+70370+031100FM-12+001599999V0202101N004612200019N0750001N1-00741-00961101161ADDAA199000091AY101061AY201061GF103991031081004501041001KA1120M-00651MA1999999100971MD1510041+9999MW1011REMSYN088AAXX  25184 01098 31489 32109 11074 21096 30097 40116 55004 70100 83840 333 11065 91113;EQDQ01  00002PRCP99
0161010980999992000022521004+70370+031100FM-12+001599999V0202201N003612200019N0750001N1-00721-01031101201ADDAY101031AY201031GF102991021081004501001001MA1999999101011MD1210041+9999MW1021REMSYN072AAXX  25214 01098 41489 22207 11072 21103 30101 40120 52004 70200 82800;
0201010980999992000022600004+70370+031100FM-12+001599999V0202301N003110090019N0300001N1-00911-01011101281ADDAA199000091AY121061AY221061GF106991061081004501001001MA1999999101091MD1110081+9999MW1031REMSYN082AAXX  26004 01098 31480 62306 11091 21101 30109 40128 51008 70322 86800 333 91111;EQDQ01  00002PRCP99
0161010980999992000022603004+70370+031100FM-12+001599999V0202101N003110090019N0300001N1-01051-01141101271ADDAY121031AY221031GF107991071081004501001001MA1999999101081MD1710011+9999MW1021REMSYN072AAXX  26034 01098 41480 72106 11105 21114 30108 40127 57001 70222 87800;
0265010980999992000022606004+70370+031100FM-12+001599999V0202201N003610240019N0300001N1-01151-01241101261ADDAA199000091AJ199991999999999AY121061AY221061GF106991021081004501071001IA1299KA1120N-01151MA1999999101071MD1710011+9999MW1021REMSYN094AAXX  26064 01098 31480 62207 11115 21124 30107 40126 57001 70222 82870 333 21115 49999 91108;EQDQ01  00002PRCP99Q02  09962SNDP  
0161010980999992000022609004+70370+031100FM-12+001599999V0202001N004612200019N0300001N1-00861-00971101201ADDAY121031AY221031GF106991031081001501001061MA1999999101011MD1810061+9999MW1021REMSYN072AAXX  26094 01098 41280 62009 11086 21097 30101 40120 58006 70222 83806;
0201010980999992000022612004+70370+031100FM-12+001599999V0202101N003610240019N0750001N1-00881-00971101211ADDAA199000091AY121061AY221061GF106991031081002501041081MA1999999101021MD1310011+9999MW1021REMSYN082AAXX  26124 01098 31389 62107 11088 21097 30102 40121 53001 70222 83848 333 91112;EQDQ01  00002PRCP99
0161010980999992000022615004+70370+031100FM-12+001599999V0202001N004110240019N0750001N1-00841-00931101131ADDAY121031AY221031GF107991041081004501041081MA1999999100941MD1810081+9999MW1021REMSYN072AAXX  26154 01098 41489 72008 11084 21093 30094 40113 58008 70222 84848;
0207010980999992000022618004+70370+031100FM-12+001599999V0202001N004110021019N0035001N1-00821-00861101021ADDAA112000191AY181061AY231061GF108991081031002501999999KA1120M-00811MA1999999100831MD1710111+9999MW1861REMSYN094AAXX  26184 01098 11335 82008 11082 21086 30083 40102 57011 69912 78683 883// 333 11081 91111;
0161010980999992000022621004+70370+031100FM-12+001599999V0201901N004110021019N0015001N1-00861-00901100911ADDAY181031AY221031GF108991081031002501999999MA1999999100721MD1710111+9999MW1861REMSYN072AAXX  26214 01098 41315 81908 11086 21090 30072 40091 57011 78682 883//;
0188010980999992000022700004+70370+031100FM-12+001599999V0201801N002610021019N0020001N1-00861-00921100781ADDAA106001091AY181061AY221061GF108991081031002501999999MA1999999100591MD1710131+9999MW1861REMSYN088AAXX  27004 01098 11320 81805 11086 21092 30059 40078 57013 69991 78682 883// 333 91111;
0161010980999992000022703004+70370+031100FM-12+001599999V0201801N002610021019N0020001N1-00821-00911100691ADDAY181031AY221031GF108991081031002501999999MA1999999100501MD1710091+9999MW1861REMSYN072AAXX  27034 01098 41320 81805 11082 21091 30050 40069 57009 78682 883//;
0255010980999992000022706004+70370+031100FM-12+001599999V0201801N002610021019N0020001N1-00731-00821100621ADDAA112003091AJ199991999999999AY181061AY271061GF108991081071002501999999IA1299KA1120N-00861MA1999999100431MD1710071+9999MW1731REMSYN100AAXX  27064 01098 11320 81805 11073 21082 30043 40062 57007 60032 77387 887// 333 21086 49999 91108;EQDQ01  09962SNDP  
0161010980999992000022709004+70370+031100FM-12+001599999V0201501N001510021019N0030001N1-00641-00691100601ADDAY171031AY221031GF108991071071002501021999MA1999999100411MD1710021+9999MW1731REMSYN072AAXX  27094 01098 41330 81503 11064 21069 30041 40060 57002 77372 8772/;
0188010980999992000022712004+70370+031100FM-12+001599999V0201301N002610240019N0150001N1-00571-00801100601ADDAA106000591AY171061AY221061GF108991041071002501021999MA1999999100411MD1510001+9999MW1711REMSYN088AAXX  27124 01098 11365 81305 11057 21080 30041 40060 55000 69941 77172 8472/ 333 91109;
0161010980999992000022715004+70370+031100FM-12+001599999V0201501N002610240019N0200001N1-00501-00701100531ADDAY171031AY221031GF108991041071002501021999MA1999999100341MD1810071+9999MW1021REMSYN072AAXX  27154 01098 41370 81505 11050 21070 30034 40053 58007 70272 8472/;
0207010980999992000022718004+70370+031100FM-12+001599999V0201501N002110240019N0150001N1-00451-00541100381ADDAA112000591AY171061AY221061GF108991041071002501021999KA1120M-00451MA1999999100191MD1710151+9999MW1701REMSYN094AAXX  27184 01098 11365 81504 11045 21054 30019 40038 57015 69942 77072 8472/ 333 11045 91109;
0161010980999992000022721004+70370+031100FM-12+001599999V0201501N003610240019N0150001N1-00401-00511100241ADDAY171031AY231031GF108991041071002501021999MA1999999100051MD1710141+9999MW1701REMSYN072AAXX  27214 01098 41365 81507 11040 21051 30005 40024 57014 77073 8472/;
0188010980999992000022800004+70370+031100FM-12+001599999V0201001N003610240019N0035001N1-00461-00601099991ADDAA106003091AY171061AY231061GF108991041071004501021999MA1999999099801MD1710251+9999MW1731REMSYN088AAXX  28004 01098 11435 81007 11046 21060 39980 49999 57025 60031 77373 8472/ 333 91115;
0161010980999992000022803004+70370+031100FM-12+001599999V0201101N004110240019N0120001N1-00461-00771099751ADDAY171031AY231031GF108991021071004501021999MA1999999099561MD1710241+9999MW1381REMSYN072AAXX  28034 01098 41462 81108 11046 21077 39956 49975 57024 73873 8272/;
0255010980999992000022806004+70370+031100FM-12+001599999V0201001N004110042019N0090001N1-00551-01071099501ADDAA112003091AJ199991999999999AY171061AY231061GF108991081091004501999999IA1299KA1120N-00611MA1999999099311MD1710251+9999MW1361REMSYN100AAXX  28064 01098 11459 81008 11055 21107 39931 49950 57025 60032 73673 889// 333 21061 49999 91115;EQDQ01  09962SNDP  
0161010980999992000022809004+70370+031100FM-12+001599999V0201001N004110090019N0020001N1-00601-00761099311ADDAY181031AY231031GF107991071081004501001001MA1999999099121MD1710191+9999MW1851REMSYN072AAXX  28094 01098 41420 71008 11060 21076 39912 49931 57019 78583 87800;
0188010980999992000022812004+70370+031100FM-12+001599999V0200901N004610090019N0100001N1-00541-00991099221ADDAA106000191AY181061AY231061GF107991071081004501001001MA1999999099031MD1710091+9999MW1361REMSYN088AAXX  28124 01098 11460 70909 11054 21099 39903 49922 57009 69921 73683 87800 333 91116;
0161010980999992000022815004+70370+031100FM-12+001599999V0200701N005110090019N0050001N1-00561-00801099071ADDAY181031AY231031GF108991081081004501999999MA1999999098891MD1710151+9999MW1851REMSYN072AAXX  28154 01098 41450 80710 11056 21080 39889 49907 57015 78583 888//;
0207010980999992000022818004+70370+031100FM-12+001599999V0200801N004610090019N0050001N1-00541-00841099041ADDAA112000891AY181061AY231061GF108991081081004501999999KA1120M-00481MA1999999098861MD1710031+9999MW1851REMSYN094AAXX  28184 01098 11450 80809 11054 21084 39886 49904 57003 69972 78583 888// 333 11048 91117;
0161010980999992000022821004+70370+031100FM-12+001599999V0200901N005110090019N0100001N1-00611-00981099061ADDAY181031AY231031GF108991081081004501999999MA1999999098881MD1310021+9999MW1381REMSYN072AAXX  28214 01098 41460 80910 11061 21098 39888 49906 53002 73883 888//;
0188010980999992000022900004+70370+031100FM-12+001599999V0200901N003110090019N0600001N1-00631-01231099051ADDAA106000791AY181061AY231061GF108991081081004501999999MA1999999098891MD1210011+9999MW1021REMSYN088AAXX  29004 01098 11486 80906 11063 21123 39889 49905 52001 69901 70283 888// 333 91115;
0161010980999992000022903004+70370+031100FM-12+001599999V0200901N002610090019N0600001N1-00651-01371099091ADDAY121031AY221031GF108991081081004501999999MA1999999098901MD1210011+9999MW1021REMSYN072AAXX  29034 01098 41486 80905 11065 21137 39890 49909 52001 70222 888//;
0255010980999992000022906004+70370+031100FM-12+001599999V0201101N002610042019N0600001N1-00651-01111099111ADDAA112000191AJ199991999999999AY181061AY221061GF106991061071004501001001IA1299KA1120N-00651MA1999999098921MD1210021+9999MW1011REMSYN100AAXX  29064 01098 11486 61105 11065 21111 39892 49911 52002 69912 70182 86700 333 21065 49999 91113;EQDQ01  09962SNDP  
0161010980999992000022909004+70370+031100FM-12+001599999V0201001N001012200019N0200001N1-00631-01491099211ADDAY121031AY211031GF102991021081004501001001MA1999999099021MD1210101+9999MW1151REMSYN072AAXX  29094 01098 41470 21002 11063 21149 39902 49921 52010 71521 82800;
0188010980999992000022912004+70370+031100FM-12+001599999V0202801N003610090019N0100001N1-00741-00871099281ADDAA106000191AY181061AY211061GF107991071081004501001001MA1999999099091MD1210071+9999MW1871REMSYN088AAXX  29124 01098 11460 72807 11074 21087 39909 49928 52007 69911 78781 87800 333 91110;
0161010980999992000022915004+70370+031100FM-12+001599999V0202801N002110060019N0005001N1-00321-00361099471ADDAY181031AY221031GF108991081081000751999999MA1999999099281MD1210191+9999MW1861REMSYN072AAXX  29154 01098 41105 82804 11032 21036 39928 49947 52019 78682 888//;
0207010980999992000022918004+70370+031100FM-12+001599999V0202701N003110090019N0300001N1-00821-01131099511ADDAA112004191AY181061AY221061GF106991061081004501001001KA1120M-00311MA1999999099321MD1210041+9999MW1011REMSYN094AAXX  29184 01098 11480 62706 11082 21113 39932 49951 52004 60042 70182 86800 333 11031 91109;
0161010980999992000022921004+70370+031100FM-12+001599999V0202601N003110090019N0300001N1-00951-01301099571ADDAY121031AY221031GF106991061081004501001001MA1999999099381MD1210061+9999MW1021REMSYN072AAXX  29214 01098 41480 62606 11095 21130 39938 49957 52006 70222 86800;
0182010980999992000030100004+70370+031100FM-12+001599999V0202601N003112200019N0550001N1-01121-01381099571ADDAA199000021AY121061AY221061GF103991031081004501001001MA1999999099381MD1410001+9999MW1011REMSYN082AAXX  01004 01098 31485 32606 11112 21138 39938 49957 54000 70122 83800 333 91109;
0161010980999992000030103004+70370+031100FM-12+001599999V0202601N002612200019N0550001N1-01101-01331099521ADDAY111031AY201031GF103991031081004501001001MA1999999099331MD1810051+9999MW1021REMSYN072AAXX  01034 01098 41485 32605 11110 21133 39933 49952 58005 70210 83800;
0265010980999992000030106004+70370+031100FM-12+001599999V0202401N003110600019N0550001N1-00891-01751099461ADDAA199000091AJ199991999999999AY111061AY201061GF105991011081004501071061IA1299KA1120N-01231MA1999999099271MD1710061+9999MW1021REMSYN094AAXX  01064 01098 31485 52406 11089 21175 39927 49946 57006 70210 81876 333 21123 49999 91109;EQDQ01  00002PRCP99Q02  09962SNDP  
0161010980999992000030109004+70370+031100FM-12+001599999V0202501N001510240019N0550001N1-00911-01141099441ADDAY121031AY211031GF107991011081004501071081MA1999999099251MD1710021+9999MW1021REMSYN072AAXX  01094 01098 41485 72503 11091 21114 39925 49944 57002 70221 81878;
0201010980999992000030112004+70370+031100FM-12+001599999V0203401N002610240019N0550001N1-00721-00881099371ADDAA199000091AY121061AY211061GF107991011081004501071081MA1999999099181MD1710071+9999MW1021REMSYN082AAXX  01124 01098 31485 73405 11072 21088 39918 49937 57007 70221 81878 333 91107;EQDQ01  00002PRCP99
0161010980999992000030115004+70370+031100FM-12+001599999V0200801N002110240019N0020001N1-00601-00891099291ADDAY181031AY221031GF107991031081002501071001MA1999999099101MD1710081+9999MW1161REMSYN072AAXX  01154 01098 41320 70804 11060 21089 39910 49929 57008 71682 83870;
0207010980999992000030118004+70370+031100FM-12+001599999V0201101N002610240019N0030001N1-00541-00801099201ADDAA112000891AY181061AY231061GF107991031081004501071001KA1120M-00541MA1999999099011MD1710091+9999MW1861REMSYN094AAXX  01184 01098 11430 71105 11054 21080 39901 49920 57009 69982 78683 83870 333 11054 91110;
0161010980999992000030121004+70370+031100FM-12+001599999V0201201N002110240019N0100001N1-00521-00681099121ADDAY181031AY231031GF107991031081004501071001MA1999999098941MD1710071+9999MW1851REMSYN072AAXX  01214 01098 41460 71204 11052 21068 39894 49912 57007 78583 83870;
0188010980999992000030200004+70370+031100FM-12+001599999V0201001N001510090019N0150001N1-00451-00761098981ADDAA106000891AY181061AY231061GF108991081081004501999999MA1999999098801MD1710141+9999MW1261REMSYN088AAXX  02004 01098 11465 81003 11045 21076 39880 49898 57014 69981 72683 888// 333 91110;
0161010980999992000030203004+70370+031100FM-12+001599999V0200901N003610060019N0060001N1-00401-00471098731ADDAY181031AY231031GF108991081081002501999999MA1999999098551MD1710251+9999MW1391REMSYN072AAXX  02034 01098 41356 80907 11040 21047 39855 49873 57025 73983 888//;
0255010980999992000030206004+70370+031100FM-12+001599999V0200901N004610060019N0010001N1-00381-00431098571ADDAA112005191AJ199991999999999AY181061AY231061GF108991081081002501999999IA1299KA1120N-00581MA1999999098391MD1710161+9999MW1861REMSYN100AAXX  02064 01098 11310 80909 11038 21043 39839 49857 57016 60052 78683 888// 333 21058 49999 91117;EQDQ01  09962SNDP  
0161010980999992000030209004+70370+031100FM-12+001599999V0200901N005710210019N0004001N1-00371-00401098461ADDAY181031AY221031GF108991081081022501999999MA1999999098281MD1710111+9999MW1851REMSYN072AAXX  02094 01098 41804 80911 11037 21040 39828 49846 57011 78582 888//;
0188010980999992000030212004+70370+031100FM-12+001599999V0200801N006210060019N0004001N1-00361-00401098381ADDAA106005191AY181061AY231061GF108991081081002501999999MA1999999098201MD1710081+9999MW1851REMSYN088AAXX  02124 01098 11304 80812 11036 21040 39820 49838 57008 60051 78583 888// 333 91121;
0161010980999992000030215004+70370+031100FM-12+001599999V0200701N005710060019N0004001N1-00341-00411098331ADDAY181031AY231031GF108991081081002501999999MA1999999098151MD1710051+9999MW1851REMSYN072AAXX  02154 01098 41304 80711 11034 21041 39815 49833 57005 78583 888//;
0207010980999992000030218004+70370+031100FM-12+001599999V0200701N005110060019N0004001N1-00321-00361098301ADDAA112007191AY181061AY231061GF108991081081002501999999KA1120M-00251MA1999999098121MD1710031+9999MW1851REMSYN094AAXX  02184 01098 11304 80710 11032 21036 39812 49830 57003 60072 78583 888// 333 11025 91112;
0161010980999992000030221004+70370+031100FM-12+001599999V0200601N005710060019N0004001N1-00381-00421098381ADDAY181031AY231031GF108991081081002501999999MA1999999098201MD1510081+9999MW1851REMSYN072AAXX  02214 01098 41304 80611 11038 21042 39820 49838 55008 78583 888//;
0188010980999992000030300004+70370+031100FM-12+001599999V0200601N005710060019N0005001N1-00481-00631098501ADDAA106003091AY181061AY231061GF108991081081002501999999MA1999999098321MD1210121+9999MW1851REMSYN088AAXX  03004 01098 11305 80611 11048 21063 39832 49850 52012 60031 78583 888// 333 91119;
0161010980999992000030303004+70370+031100FM-12+001599999V0200501N005710060019N0002001N1-00521-00641098521ADDAY181031AY231031GF108991081081002501999999MA1999999098341MD1210021+9999MW1861REMSYN072AAXX  03034 01098 41302 80511 11052 21064 39834 49852 52002 78683 888//;
0255010980999992000030306004+70370+031100FM-12+001599999V0200401N006210060019N0002001N1-00461-00501098581ADDAA112007191AJ199991999999999AY181061AY231061GF108991081081002501999999IA1299KA1120N-00521MA1999999098401MD1210061+9999MW1861REMSYN100AAXX  03064 01098 11302 80412 11046 21050 39840 49858 52006 60072 78683 888// 333 21052 49999 91121;EQDQ01  09962SNDP  
0161010980999992000030309004+70370+031100FM-12+001599999V0200401N006710060019N0005001N1-00421-00491098651ADDAY181031AY231031GF108991081081002501999999MA1999999098471MD1210071+9999MW1851REMSYN072AAXX  03094 01098 41305 80413 11042 21049 39847 49865 52007 78583 888//;
0188010980999992000030312004+70370+031100FM-12+001599999V0200501N006210060019N0006001N1-00441-00681098781ADDAA106002091AY181061AY231061GF108991081081002501999999MA1999999098601MD1210131+9999MW1851REMSYN088AAXX  03124 01098 11306 80512 11044 21068 39860 49878 52013 60021 78583 888// 333 91122;
0180010980999992000030315004+70370+031100FM-12+001599999V0200501N005710060019N0040001N1-00501-00561999999ADDAY181031AY231031GF108991081081002501999999MA1999999098741MD1210141+9999MW1851REMSYN072AAXX  03154 01098 41340 80511 11050 21056 39874 49592 52014 78583 888//;EQDQ01+095923APOSLP
0207010980999992000030318004+70370+031100FM-12+001599999V0200401N004610060019N0040001N1-00451-00631099041ADDAA112003091AY181061AY231061GF108991081081002501999999KA1120M-00401MA1999999098861MD1210121+9999MW1851REMSYN094AAXX  03184 01098 11340 80409 11045 21063 39886 49904 52012 60032 78583 888// 333 11040 91117;
0161010980999992000030321004+70370+031100FM-12+001599999V0200401N004110060019N0100001N1-00451-00771099161ADDAY181031AY231031GF108991081081002501999999MA1999999098981MD1210121+9999MW1851REMSYN072AAXX  03214 01098 41360 80408 11045 21077 39898 49916 52012 78583 888//;
0188010980999992000030400004+70370+031100FM-12+001599999V0200501N004610060019N0550001N1-00391-00821099161ADDAA106002091AY181061AY231061GF108991081081002501999999MA1999999098981MD1410001+9999MW1361REMSYN088AAXX  04004 01098 11385 80509 11039 21082 39898 49916 54000 60021 73683 888// 333 91116;
0161010980999992000030403004+70370+031100FM-12+001599999V0200501N005110060019N0550001N1-00481-00891099271ADDAY181031AY231031GF107991071081002501001001MA1999999099081MD1310111+9999MW1361REMSYN072AAXX  04034 01098 41385 70510 11048 21089 39908 49927 53011 73683 87800;
0255010980999992000030406004+70370+031100FM-12+001599999V0200501N005110060019N0020001N1-00551-00611099281ADDAA112002091AJ199991999999999AY181061AY231061GF106991061081002501001001IA1299KA1120N-00571MA1999999099091MD1110011+9999MW1851REMSYN100AAXX  04064 01098 11320 60510 11055 21061 39909 49928 51001 60022 78583 86800 333 21057 49999 91116;EQDQ01  09962SNDP  
0161010980999992000030409004+70370+031100FM-12+001599999V0200301N005710060019N0010001N1-00551-00621099291ADDAY181031AY231031GF108991081081002501999999MA1999999099101MD1210011+9999MW1851REMSYN072AAXX  04094 01098 41310 80311 11055 21062 39910 49929 52001 78583 888//;
0188010980999992000030412004+70370+031100FM-12+001599999V0200401N005110090019N0100001N1-00461-01051099301ADDAA106001091AY181061AY231061GF108991081081004501999999MA1999999099111MD1210011+9999MW1151REMSYN088AAXX  04124 01098 11460 80410 11046 21105 39911 49930 52001 60011 71583 888// 333 91119;
0171010980999992000030415004+70370+031100FM-12+001599999V0200301N006210001519N0001001N1-00591-00651099401ADDAY181031AY231031GA1091+999999999GF109991091999999999999999MA1999999099211MD1210101+9999MW1861REMSYN066AAXX  04154 01098 41/01 90312 11059 21065 39921 49940 52010 78683;
0207010980999992000030418004+70370+031100FM-12+001599999V0200301N006710090019N0040001N1-00541-00801099401ADDAA112002091AY181061AY231061GF108991081081004501999999KA1120M-00401MA1999999099211MD1410001+9999MW1381REMSYN094AAXX  04184 01098 11440 80313 11054 21080 39921 49940 54000 60022 73883 888// 333 11040 91121;
0161010980999992000030421004+70370+031100FM-12+001599999V0200201N006210090019N0050001N1-00451-00911099501ADDAY131031AY221031GF108991081081004501999999MA1999999099311MD1310101+9999MW1381REMSYN072AAXX  04214 01098 41450 80212 11045 21091 39931 49950 53010 73832 888//;
0188010980999992000030500004+70370+031100FM-12+001599999V0200301N005710060019N0020001N1-00551-00621099711ADDAA106000191AY181061AY231061GF108991081081002501999999MA1999999099521MD1210191+9999MW1851REMSYN088AAXX  05004 01098 11320 80311 11055 21062 39952 49971 52019 69921 78583 888// 333 91121;
0161010980999992000030503004+70370+031100FM-12+001599999V0200201N005110060019N0010001N1-00681-00721099991ADDAY181031AY231031GF108991081081002501999999MA1999999099801MD1210281+9999MW1851REMSYN072AAXX  05034 01098 41310 80210 11068 21072 39980 49999 52028 78583 888//;
0255010980999992000030506004+70370+031100FM-12+001599999V0200201N004110090019N0600001N1-00501-01231100271ADDAA112000891AJ199991999999999AY181061AY231061GF105991051081004501001001IA1299KA1120N-00701MA1999999100081MD1210281+9999MW1011REMSYN100AAXX  05064 01098 11486 50208 11050 21123 30008 40027 52028 69982 70183 85800 333 21070 49999 91120;EQDQ01  09962SNDP  
0161010980999992000030509004+70370+031100FM-12+001599999V0203601N002610090019N0600001N1-00491-01171100531ADDAY181031AY231031GF107991071081004501001001MA1999999100341MD1210261+9999MW1031REMSYN072AAXX  05094 01098 41486 73605 11049 21117 30034 40053 52026 70383 87800;
0188010980999992000030512004+70370+031100FM-12+001599999V0202801N001012200019N0750001N1-00421-01101100611ADDAA106000791AY181061AY231061GF104991021081004501051001MA1999999100431MD1210081+9999MW1011REMSYN088AAXX  05124 01098 11489 42802 11042 21110 30043 40061 52008 69901 70183 82850 333 91109;
0161010980999992000030515004+70370+031100FM-12+001599999V0202301N002619999999N0750001N1-00581-00901100671ADDAY121031AY221031GF107991071001012501051001MA1999999100481MD1210061+9999MW1021REMSYN072AAXX  05154 01098 41689 72305 11058 21090 30048 40067 52006 70222 87050;
0207010980999992000030518004+70370+031100FM-12+001599999V0202401N006219999999N0750001N1-00551-00711100491ADDAA112000791AY121061AY221061GF107991071001012501071001KA1120M-00411MA1999999100301MD1810181+9999MW1021REMSYN094AAXX  05184 01098 11689 72412 11055 21071 30030 40049 58018 69902 70222 87070 333 11041 91115;
0161010980999992000030521004+70370+031100FM-12+001599999V0202301N006212200019N0750001N1-00531-00851100341ADDAY111031AY201031GF103991031001012501071001MA1999999100151MD1710151+9999MW1021REMSYN072AAXX  05214 01098 41689 32312 11053 21085 30015 40034 57015 70210 83070;
0201010980999992000030600004+70370+031100FM-12+001599999V0202501N005110075019N0550001N1-00361-00731100301ADDAA199000091AY111061AY201061GF106991061031008001001001MA1999999100111MD1710041+9999MW1031REMSYN082AAXX  06004 01098 31585 62510 11036 21073 30011 40030 57004 70310 86300 333 91116;EQDQ01  00002PRCP99
0161010980999992000030603004+70370+031100FM-12+001599999V0202501N005110075019N0550001N1-00521-01041100191ADDAY121031AY221031GF105991051021008001001001MA1999999100001MD1710111+9999MW1011REMSYN072AAXX  06034 01098 41585 52510 11052 21104 30000 40019 57011 70122 85200;
0265010980999992000030606004+70370+031100FM-12+001599999V0202201N005712200019N0550001N1-00761-01011100011ADDAA199000091AJ199991999999999AY121061AY211061GF104991031041008001001091IA1299KA1120N-00841MA1999999099821MD1710181+9999MW1011REMSYN094AAXX  06064 01098 31585 42211 11076 21101 39982 40001 57018 70121 83409 333 21084 49999 91115;EQDQ01  00002PRCP99Q02  09962SNDP  
0161010980999992000030609004+70370+031100FM-12+001599999V0202401N005712200019N0550001N1-00781-00971099951ADDAY121031AY211031GF104991011081004501071091MA1999999099761MD1710061+9999MW1031REMSYN072AAXX  06094 01098 41485 42411 11078 21097 39976 49995 57006 70321 81879;
0201010980999992000030612004+70370+031100FM-12+001599999V0202101N002610240019N0750001N1-00741-00851099841ADDAA199000091AY121061AY211061GF106991011081004501071091MA1999999099651MD1710111+9999MW1021REMSYN082AAXX  06124 01098 31489 62105 11074 21085 39965 49984 57011 70221 81879 333 91114;EQDQ01  00002PRCP99
0161010980999992000030615004+70370+031100FM-12+001599999V0201801N004610240019N0550001N1-00421-00881099621ADDAY121031AY221031GF107991021051004501071091MA1999999099431MD1710221+9999MW1031REMSYN072AAXX  06154 01098 41485 71809 11042 21088 39943 49962 57022 70322 82579;
0220010980999992000030618004+70370+031100FM-12+001599999V0201701N004110042019N0550001N1-00511-00901099481ADDAA199000091AY121061AY221061GF107991071051004501001001KA1120M-00371MA1999999099291MD1710141+9999MW1021REMSYN088AAXX  06184 01098 31485 71708 11051 21090 39929 49948 57014 70222 87500 333 11037 91112;EQDQ01  00002PRCP99
0161010980999992000030621004+70370+031100FM-12+001599999V0201501N003610042019N0550001N1-00511-00811099161ADDAY121031AY221031GF107991071051004501001001MA1999999098981MD1710311+9999MW1021REMSYN072AAXX  06214 01098 41485 71507 11051 21081 39898 49916 57031 70222 87500;
0201010980999992000030700004+70370+031100FM-12+001599999V0201501N003610240019N0750001N1-00561-00741099011ADDAA199000091AY121061AY221061GF107991031081004501071001MA1999999098831MD1710151+9999MW1021REMSYN082AAXX  07004 01098 31489 71507 11056 21074 39883 49901 57015 70222 83870 333 91113;EQDQ01  00002PRCP99
0161010980999992000030703004+70370+031100FM-12+001599999V0201601N004110240019N0750001N1-00581-00741098841ADDAY121031AY221031GF107991041081004501071001MA1999999098661MD1710171+9999MW1021REMSYN072AAXX  07034 01098 41489 71608 11058 21074 39866 49884 57017 70222 84870;
0265010980999992000030706004+70370+031100FM-12+001599999V0201401N004110090019N0750001N1-00361-00591098751ADDAA199000091AJ199991999999999AY121061AY221061GF107991051081004501001051IA1299KA1120N-00631MA1999999098571MD1710091+9999MW1021REMSYN094AAXX  07064 01098 31489 71408 11036 21059 39857 49875 57009 70222 85805 333 21063 49999 91115;EQDQ01  00002PRCP99Q02  09962SNDP  
0140010980999992000030709004+70370+031100FM-12+001599999V0201401N003610090019N0080001N1-00331-00501098811ADDAY181031AY221031GF108991081081004501999999MD1310061+9999MW1851REMSYN066AAXX  07094 01098 41458 81407 11033 21050 49881 53006 78582 888//;
0188010980999992000030712004+70370+031100FM-12+001599999V0201401N003110090019N0750001N1-00221-00671098861ADDAA106000191AY181061AY221061GF106991061081004501001001MA1999999098681MD1210051+9999MW1011REMSYN088AAXX  07124 01098 11489 61406 11022 21067 39868 49886 52005 69911 70182 86800 333 91113;
0161010980999992000030715004+70370+031100FM-12+001599999V0201101N002110090019N0550001N1-00221-00641098881ADDAY171031AY221031GF108991081081004501999999MA1999999098701MD1210021+9999MW1701REMSYN072AAXX  07154 01098 41485 81104 11022 21064 39870 49888 52002 77072 888//;
0207010980999992000030718004+70370+031100FM-12+001599999V0200801N002610090019N0550001N1-00221-00351098921ADDAA112001091AY181061AY271061GF108991081081004501999999KA1120M-00201MA1999999098741MD1210041+9999MW1021REMSYN094AAXX  07184 01098 11485 80805 11022 21035 39874 49892 52004 69992 70287 888// 333 11020 91110;
0161010980999992000030721004+70370+031100FM-12+001599999V0200901N002610090019N0550001N1-00191-00561098931ADDAY181031AY221031GF105991051081004501001001MA1999999098751MD1210011+9999MW1021REMSYN072AAXX  07214 01098 41485 50905 11019 21056 39875 49893 52001 70282 85800;
0188010980999992000030800004+70370+031100FM-12+001599999V0200801N004110090019N0050001N1-00291-00331098911ADDAA106000591AY181061AY231061GF107991071081004501001001MA1999999098731MD1810021+9999MW1861REMSYN088AAXX  08004 01098 11450 70808 11029 21033 39873 49891 58002 69961 78683 87800 333 91115;
0161010980999992000030803004+70370+031100FM-12+001599999V0200801N004610090019N0030001N1-00201-00261098911ADDAY181031AY231031GF107991071081004501001001MA1999999098731MD1410001+9999MW1861REMSYN072AAXX  08034 01098 41430 70809 11020 21026 39873 49891 54000 78683 87800;
0255010980999992000030806004+70370+031100FM-12+001599999V0200701N005710060019N0030001N1-00201-00241098821ADDAA112002091AJ199991999999999AY181061AY231061GF108991081081002501999999IA1299KA1120N-00351MA1999999098641MD1810091+9999MW1371REMSYN100AAXX  08064 01098 11330 80711 11020 21024 39864 49882 58009 60022 73783 888// 333 21035 49999 91117;EQDQ01  09962SNDP  
0161010980999992000030809004+70370+031100FM-12+001599999V0200601N005110090019N0100001N1-00091-00231098751ADDAY181031AY231031GF108991081081004501999999MA1999999098571MD1710071+9999MW1361REMSYN072AAXX  08094 01098 41460 80610 11009 21023 39857 49875 57007 73683 888//;
0188010980999992000030812004+70370+031100FM-12+001599999V0200701N005710090019N0150001N1-00061-00341098711ADDAA106000591AY181061AY231061GF107991071081004501001001MA1999999098531MD1710041+9999MW1161REMSYN088AAXX  08124 01098 11465 70711 11006 21034 39853 49871 57004 69961 71683 87800 333 91118;
0161010980999992000030815004+70370+031100FM-12+001599999V0200601N005710090019N0030001N1-00201-00241098721ADDAY181031AY231031GF108991081081004501999999MA1999999098541MD1310011+9999MW1861REMSYN072AAXX  08154 01098 41430 80611 11020 21024 39854 49872 53001 78683 888//;
0207010980999992000030818004+70370+031100FM-12+001599999V0200501N006210090019N0040001N1-00121-00231098651ADDAA112001091AY181061AY231061GF108991081081004501999999KA1120M-00021MA1999999098471MD1810071+9999MW1861REMSYN094AAXX  08184 01098 11440 80512 11012 21023 39847 49865 58007 60012 78683 888// 333 11002 91119;
0161010980999992000030821004+70370+031100FM-12+001599999V0200501N006210090019N0200001N1-00111-00381098561ADDAY181031AY231031GF108991081081004501999999MA1999999098381MD1710091+9999MW1361REMSYN072AAXX  08214 01098 41470 80512 11011 21038 39838 49856 57009 73683 888//;
0188010980999992000030900004+70370+031100FM-12+001599999V0200501N006210060019N0020001N1-00181-00211098481ADDAA106000891AY171061AY231061GF108991081081002501999999MA1999999098301MD1710081+9999MW1201REMSYN088AAXX  09004 01098 11320 80512 11018 21021 39830 49848 57008 69971 72073 888// 333 91120;
0161010980999992000030903004+70370+031100FM-12+001599999V0200501N006210060019N0040001N1-00071-00231098441ADDAY181031AY231031GF108991081081002501999999MA1999999098261MD1710041+9999MW1721REMSYN072AAXX  09034 01098 41340 80512 11007 21023 39826 49844 57004 77283 888//;
0255010980999992000030906004+70370+031100FM-12+001599999V0200401N006710060019N0100001N1-00121-00221098431ADDAA112002091AJ199991999999999AY181061AY231061GF108991081081002501999999IA1299KA1120N-00201MA1999999098251MD1710011+9999MW1381REMSYN100AAXX  09064 01098 11360 80413 11012 21022 39825 49843 57001 60022 73883 888// 333 21020 49999 91121;EQDQ01  09962SNDP  
0161010980999992000030909004+70370+031100FM-12+001599999V0200301N006210060019N0060001N1-00071-00131098421ADDAY181031AY231031GF108991081081002501999999MA1999999098241MD1710011+9999MW1851REMSYN072AAXX  09094 01098 41356 80312 11007 21013 39824 49842 57001 78583 888//;
0188010980999992000030912004+70370+031100FM-12+001599999V0200301N006710060019N0050001N1-00041-00101098541ADDAA106000591AY181061AY231061GF108991081081002501999999MA1999999098361MD1310121+9999MW1851REMSYN088AAXX  09124 01098 11350 80313 11004 21010 39836 49854 53012 69941 78583 888// 333 91120;
0161010980999992000030915004+70370+031100FM-12+001599999V0200301N005710060019N0050001N1-00041-00111098771ADDAY181031AY231031GF108991081081002501999999MA1999999098591MD1210231+9999MW1851REMSYN072AAXX  09154 01098 41350 80311 11004 21011 39859 49877 52023 78583 888//;
0207010980999992000030918004+70370+031100FM-12+001599999V0200201N005110060019N0050001N1-00201-00261098961ADDAA112001091AY181061AY231061GF108991081081002501999999KA1120M+00001MA1999999098781MD1210191+9999MW1851REMSYN094AAXX  09184 01098 11350 80210 11020 21026 39878 49896 52019 60012 78583 888// 333 10000 91118;
0161010980999992000030921004+70370+031100FM-12+001599999V0200101N005110060019N0050001N1-00201-00261099081ADDAY181031AY231031GF108991081081002501999999MA1999999098901MD1210121+9999MW1851REMSYN072AAXX  09214 01098 41350 80110 11020 21026 39890 49908 52012 78583 888//;
0188010980999992000031000004+70370+031100FM-12+001599999V0200101N005710060019N0040001N1-00261-00301099321ADDAA106001091AY181061AY231061GF108991081081002501999999MA1999999099131MD1210241+9999MW1851REMSYN088AAXX  10004 01098 11340 80111 11026 21030 39913 49932 52024 60011 78583 888// 333 91117;
0161010980999992000031003004+70370+031100FM-12+001599999V0203501N005110060019N0050001N1-00201-00421099401ADDAY181031AY231031GF108991081081002501999999MA1999999099211MD1210081+9999MW1851REMSYN072AAXX  10034 01098 41350 83510 11020 21042 39921 49940 52008 78583 888//;
0255010980999992000031006004+70370+031100FM-12+001599999V0203501N005710060019N0050001N1-00281-00331099491ADDAA112001091AJ199991999999999AY181061AY231061GF108991081081002501999999IA1299KA1120N-00291MA1999999099301MD1210091+9999MW1851REMSYN100AAXX  10064 01098 11350 83511 11028 21033 39930 49949 52009 60012 78583 888// 333 21029 49999 91117;EQDQ01  09962SNDP  
0161010980999992000031009004+70370+031100FM-12+001599999V0203501N005110060019N0250001N1-00141-00241099571ADDAY181031AY231031GF108991081081002501999999MA1999999099381MD1210081+9999MW1261REMSYN072AAXX  10094 01098 41375 83510 11014 21024 39938 49957 52008 72683 888//;
0188010980999992000031012004+70370+031100FM-12+001599999V0203401N005110060019N0008001N1-00151-00191099641ADDAA106000391AY181061AY231061GF108991081081002501999999MA1999999099451MD1210071+9999MW1851REMSYN088AAXX  10124 01098 11308 83410 11015 21019 39945 49964 52007 69931 78583 888// 333 91116;
0161010980999992000031015004+70370+031100FM-12+001599999V0203601N000510090019N0750001N1-00141-00171099801ADDAY181031AY231031GF107991071081004501001001MA1999999099611MD1210161+9999MW1021REMSYN072AAXX  10154 01098 41489 73601 11014 21017 39961 49980 52016 70283 87800;
0207010980999992000031018004+70370+031100FM-12+001599999V0200801N001010090019N0750001N1-00191-00441099871ADDAA112001091AY181061AY231061GF107991071081004501001001KA1120M-00051MA1999999099661MD1210071+9999MW1021REMSYN094AAXX  10184 01098 11489 70802 11019 21044 39966 49987 52007 60012 70283 87800 333 11005 91118;
0161010980999992000031021004+70370+031100FM-12+001599999V0200601N001010090019N0750001N1-00121-00451099921ADDAY121031AY221031GF107991071081004501001001MA1999999099731MD1210051+9999MW1021REMSYN072AAXX  10214 01098 41489 70602 11012 21045 39973 49992 52005 70222 87800;
0188010980999992000031100004+70370+031100FM-12+001599999V0200301N002110090019N0600001N1-00051-00411099901ADDAA106000791AY181061AY221061GF107991071081004501001001MA1999999099711MD1810021+9999MW1021REMSYN088AAXX  11004 01098 11486 70304 11005 21041 39971 49990 58002 69901 70282 87800 333 91106;
0141010980999992000031101004+70370+031100FM-12+001599999V0200101N002610090019N0600001N1-00051-00321099921ADDAY181999AY221999GF106991061081004501001001MA1999999099701MW1011REMSYN066AAXX  11014 01098 41486 60105 11005 21032 3997/ 49992 70182 86800;
0161010980999992000031103004+70370+031100FM-12+001599999V0200101N002610090019N0600001N1-00051-00321099921ADDAY181031AY221031GF106991061081004501001001MA1999999099731MD1310021+9999MW1011REMSYN072AAXX  11034 01098 41486 60105 11005 21032 39973 49992 53002 70182 86800;
0255010980999992000031106004+70370+031100FM-12+001599999V0200201N003110090019N0030001N1-00231-00271099961ADDAA112001091AJ199991999999999AY181061AY221061GF108991081081004501999999IA1299KA1120N-00231MA1999999099771MD1210041+9999MW1861REMSYN100AAXX  11064 01098 11430 80206 11023 21027 39977 49996 52004 60012 78682 888// 333 21023 49999 91111;EQDQ01  09962SNDP  
0161010980999992000031109004+70370+031100FM-12+001599999V0203501N004110090019N0130001N1-00211-00411099961ADDAY181031AY231031GF105991051081004501001001MA1999999099771MD1410001+9999MW1381REMSYN072AAXX  11094 01098 41463 53508 11021 21041 39977 49996 54000 73883 85800;
0188010980999992000031112004+70370+031100FM-12+001599999V0203301N004110090019N0750001N1-00201-00301099911ADDAA106002091AY181061AY231061GF105991051081004501001001MA1999999099721MD1810051+9999MW1021REMSYN088AAXX  11124 01098 11489 53308 11020 21030 39972 49991 58005 60021 70283 85800 333 91113;
0161010980999992000031115004+70370+031100FM-12+001599999V0200301N004110090019N0050001N1-00211-00281099901ADDAY181031AY231031GF106991061081004501001001MA1999999099711MD1710011+9999MW1851REMSYN072AAXX  11154 01098 41450 60308 11021 21028 39971 49990 57001 78583 86800;
0207010980999992000031118004+70370+031100FM-12+001599999V0200301N004610090019N0100001N1-00201-00301099921ADDAA112003091AY181061AY231061GF107991071081004501001001KA1120M-00051MA1999999099731MD1310021+9999MW1851REMSYN094AAXX  11184 01098 11460 70309 11020 21030 39973 49992 53002 60032 78583 87800 333 11005 91115;
0161010980999992000031121004+70370+031100FM-12+001599999V0203601N005110090019N0040001N1-00261-00511099971ADDAY181031AY231031GF108991081081004501999999MA1999999099791MD1210061+9999MW1851REMSYN072AAXX  11214 01098 41440 83610 11026 21051 39979 49997 52006 78583 888//;
0188010980999992000031200004+70370+031100FM-12+001599999V0203601N005110090019N0180001N1-00401-00571099961ADDAA106000191AY181061AY231061GF107991071081004501001001MA1999999099771MD1810021+9999MW1381REMSYN088AAXX  12004 01098 11468 73610 11040 21057 39977 49996 58002 69921 73883 87800 333 91118;
0161010980999992000031203004+70370+031100FM-12+001599999V0203501N005110090019N0180001N1-00421-00471099871ADDAY131031AY231031GF107991071081004501001001MA1999999099681MD1710091+9999MW1381REMSYN072AAXX  12034 01098 41468 73510 11042 21047 39968 49987 57009 73833 87800;
0255010980999992000031206004+70370+031100FM-12+001599999V0203401N006710090019N0230001N1-00361-00511099791ADDAA112000591AJ199991999999999AY181061AY231061GF105991051081004501001001IA1299KA1120N-00461MA1999999099601MD1710081+9999MW1381REMSYN100AAXX  12064 01098 11473 53413 11036 21051 39960 49979 57008 69952 73883 85800 333 21046 49999 91120;EQDQ01  09962SNDP  
0161010980999992000031209004+70370+031100FM-12+001599999V0203301N006710090019N0100001N1-00311-00361099791ADDAY181031AY231031GF107991071081004501001001MA1999999099601MD1410001+9999MW1381REMSYN072AAXX  12094 01098 41460 73313 11031 21036 39960 49979 54000 73883 87800;
0188010980999992000031212004+70370+031100FM-12+001599999V0203301N007210090019N0200001N1-00271-00341099781ADDAA106000591AY181061AY231061GF106991051081004501001081MA1999999099591MD1810011+9999MW1381REMSYN088AAXX  12124 01098 11470 63314 11027 21034 39959 49978 58001 69941 73883 85808 333 91121;
0161010980999992000031215004+70370+031100FM-12+001599999V0203301N007210090019N0150001N1-00261-00491099831ADDAY181031AY231031GF107991061081004501001081MA1999999099641MD1310051+9999MW1381REMSYN072AAXX  12154 01098 41465 73314 11026 21049 39964 49983 53005 73883 86808;
0207010980999992000031218004+70370+031100FM-12+001599999V0203301N006210600019N0200001N1-00181-00621099741ADDAA112000591AY181061AY231061GF106991041081004501001081KA1120M-00151MA1999999099551MD1810091+9999MW1381REMSYN094AAXX  12184 01098 11470 63312 11018 21062 39955 49974 58009 69952 73883 84808 333 11015 91121;
0161010980999992000031221004+70370+031100FM-12+001599999V0203201N005110090019N0200001N1-00161-00631099581ADDAY131031AY221031GF108991061081004501001081MA1999999099391MD1710161+9999MW1361REMSYN072AAXX  12214 01098 41470 83210 11016 21063 39939 49958 57016 73632 86808;
0201010980999992000031300004+70370+031100FM-12+001599999V0202701N005110090019N0300001N1-00441-00581099431ADDAA199000091AY131061AY221061GF105991051081004501001001MA1999999099241MD1710151+9999MW1021REMSYN082AAXX  13004 01098 31480 52710 11044 21058 39924 49943 57015 70232 85800 333 91118;EQDQ01  00002PRCP99
0161010980999992000031303004+70370+031100FM-12+001599999V0202301N004612200019N0550001N1-00591-00731099051ADDAY111031AY201031GF102991011081004501071001MA1999999098871MD1710381+9999MW1011REMSYN072AAXX  13034 01098 41485 22309 11059 21073 39887 49905 57038 70110 81870;
0265010980999992000031306004+70370+031100FM-12+001599999V0202401N004612200019N0550001N1-00611-00671098791ADDAA199000091AJ199991999999999AY111061AY201061GF103991011081004501071081IA1299KA1120N-00661MA1999999098611MD1710261+9999MW1021REMSYN094AAXX  13064 01098 31485 32409 11061 21067 39861 49879 57026 70210 81878 333 21066 49999 91112;EQDQ01  00002PRCP99Q02  09962SNDP  
0161010980999992000031309004+70370+031100FM-12+001599999V0202201N005110240019N0550001N1-00431-00481098541ADDAY121031AY211031GF108991011081004501071081MA1999999098361MD1710251+9999MW1021REMSYN072AAXX  13094 01098 41485 82210 11043 21048 39836 49854 57025 70221 81878;
0201010980999992000031312004+70370+031100FM-12+001599999V0202901N005710240019N0550001N1-00271-00371098281ADDAA199000091AY121061AY211061GF108991041081004501071999MA1999999098101MD1710261+9999MW1021REMSYN082AAXX  13124 01098 31485 82911 11027 21037 39810 49828 57026 70221 8487/ 333 91116;EQDQ01  00002PRCP99
0161010980999992000031315004+70370+031100FM-12+001599999V0202001N007210240019N0040001N1-00261-00311097981ADDAY121031AY221031GF108991041081004501071999MA1999999097801MD1710301+9999MW1861REMSYN072AAXX  13154 01098 41440 82014 11026 21031 39780 49798 57030 78622 8487/;
0207010980999992000031318004+70370+031100FM-12+001599999V0202101N007210090019N0030001N1-00161-00201097681ADDAA112000591AY181061AY231061GF108991081081004501999999KA1120M-00141MA1999999097501MD1710301+9999MW1861REMSYN094AAXX  13184 01098 11430 82114 11016 21020 39750 49768 57030 69942 78683 888// 333 11014 91118;
0161010980999992000031321004+70370+031100FM-12+001599999V0202201N004110240019N0100001N1-00071-00111097621ADDAY181031AY231031GF108991041081004501071999MA1999999097441MD1610061+9999MW1851REMSYN072AAXX  13214 01098 41460 82208 11007 21011 39744 49762 56006 78583 8487/;
0188010980999992000031400004+70370+031100FM-12+001599999V0202201N004110240019N0200001N1+00021-00051097531ADDAA106000191AY181061AY231061GF105991041081004501071001MA1999999097361MD1710091+9999MW1011REMSYN088AAXX  14004 01098 11470 52208 10002 21005 39736 49753 57009 69911 70183 84870 333 91116;
0161010980999992000031403004+70370+031100FM-12+001599999V0202101N007710090019N0200001N1+00061-00211097431ADDAY121031AY221031GF107991051081004501071001MA1999999097261MD1710101+9999MW1031REMSYN072AAXX  14034 01098 41470 72115 10006 21021 39726 49743 57010 70322 85870;
0255010980999992000031406004+70370+031100FM-12+001599999V0202201N005710240019N0300001N1-00041-00201097691ADDAA112000191AJ199991999999999AY121061AY221061GF105991031041004501051081IA1299KA1120N-00151MA1999999097511MD1310241+9999MW1011REMSYN100AAXX  14064 01098 11480 52211 11004 21020 39751 49769 53024 69912 70122 83458 333 21015 49999 91119;EQDQ01  09962SNDP  
0161010980999992000031409004+70370+031100FM-12+001599999V0202701N005710240019N0550001N1-00061-00301097951ADDAY121031AY221031GF106991021081004501041081MA1999999097771MD1210261+9999MW1021REMSYN072AAXX  14094 01098 41485 62711 11006 21030 39777 49795 52026 70222 82848;
0201010980999992000031412004+70370+031100FM-12+001599999V0202401N004610240019N0550001N1-00131-00331098211ADDAA199000091AY121061AY221061GF107991011041004501071999MA1999999098031MD1210261+9999MW1021REMSYN082AAXX  14124 01098 31485 72409 11013 21033 39803 49821 52026 70222 8147/ 333 91114;EQDQ01  00002PRCP99
0161010980999992000031415004+70370+031100FM-12+001599999V0202201N004610042019N0750001N1-00061-00231098471ADDAY121031AY221031GF108991081011004501999999MA1999999098291MD1210261+9999MW1021REMSYN072AAXX  14154 01098 41489 82209 11006 21023 39829 49847 52026 70222 881//;
0220010980999992000031418004+70370+031100FM-12+001599999V0202501N002110042019N0750001N1-00191-00361098711ADDAA199000091AY121061AY211061GF106991061011004501001001KA1120M-00011MA1999999098531MD1210241+9999MW1011REMSYN088AAXX  14184 01098 31489 62504 11019 21036 39853 49871 52024 70121 86100 333 11001 91111;EQDQ01  00002PRCP99
0161010980999992000031421004+70370+031100FM-12+001599999V0202201N002610042019N0750001N1-00211-00291098931ADDAY111031AY201031GF105991051011004501001001MA1999999098751MD1210221+9999MW1011REMSYN072AAXX  14214 01098 41489 52205 11021 21029 39875 49893 52022 70110 85100;
0201010980999992000031500004+70370+031100FM-12+001599999V0202301N002610042019N0750001N1-00201-00451099011ADDAA199000091AY121061AY221061GF106991061011004501999999MA1999999098911MD1210081+9999MW1021REMSYN082AAXX  15004 01098 31489 62305 11020 21045 39891 49901 52008 70222 861// 333 91110;EQDQ01  00002PRCP99
0161010980999992000031503004+70370+031100FM-12+001599999V0202501N001510042019N0750001N1-00281-00421099311ADDAY121031AY221031GF106991061011004501999999MA1999999099121MD1210221+9999MW1021REMSYN072AAXX  15034 01098 41489 62503 11028 21042 39912 49931 52022 70222 861//;
0265010980999992000031506004+70370+031100FM-12+001599999V0201801N00051024001CN0750001N1-00281-00391099381ADDAA199000091AJ199991999999999AY121061AY221061GF106991011061004501071999IA1299KA1120N-00301MA1999999099191MD1210071+9999MW1021REMSYN094AAXX  15064 01098 31489 61801 11028 21039 39919 49938 52007 70222 8167/ 333 21030 49999 91107;EQDQ01  00002PRCP99Q02  09962SNDP  
0161010980999992000031509004+70370+031100FM-12+001599999V0203301N001510240019N0550001N1-00151-00281099431ADDAY121031AY221031GF107991011041004501071081MA1999999099241MD1210051+9999MW1021REMSYN072AAXX  15094 01098 41485 73303 11015 21028 39924 49943 52005 70222 81478;
0201010980999992000031512004+70370+031100FM-12+001599999V0203301N002110240019N0300001N1-00061-00191099461ADDAA199000091AY121061AY221061GF107991031041004501071081MA1999999099271MD1210031+9999MW1021REMSYN082AAXX  15124 01098 31480 73304 11006 21019 39927 49946 52003 70222 83478 333 91106;EQDQ01  00002PRCP99
0161010980999992000031515004+70370+031100FM-12+001599999V0203201N002610060019N0300001N1+00011-00091099521ADDAY121031AY221031GF107991051081002501071081MA1999999099341MD1210061+9999MW1021REMSYN072AAXX  15154 01098 41380 73205 10001 21009 39934 49952 52006 70222 85878;
0207010980999992000031518004+70370+031100FM-12+001599999V0202701N001510060019N0030001N1-00121-00181099701ADDAA112000591AY181061AY221061GF107991061081002501071081KA1120M+00051MA1999999099511MD1310201+9999MW1851REMSYN094AAXX  15184 01098 11330 72703 11012 21018 39951 49970 53020 69952 78582 86878 333 10005 91107;
0161010980999992000031521004+70370+031100FM-12+001599999V0202901N002110060019N0006001N1-00041-00101099951ADDAY181031AY221031GF108991081081002501999999MA1999999099761MD1210231+9999MW1861REMSYN072AAXX  15214 01098 41306 82904 11004 21010 39976 49995 52023 78682 888//;
0188010980999992000031600004+70370+031100FM-12+001599999V0202301N002610090019N0750001N1-00151-00261100201ADDAA106001091AY181061AY221061GF107991071081004501001001MA1999999100011MD1210251+9999MW1021REMSYN088AAXX  16004 01098 11489 72305 11015 21026 30001 40020 52025 60011 70282 87800 333 91107;
0161010980999992000031603004+70370+031100FM-12+001599999V0202301N002612200019N0750001N1-00351-00431100511ADDAY181031AY211031GF102991021021008001001001MA1999999100321MD1210311+9999MW1021REMSYN072AAXX  16034 01098 41589 22305 11035 21043 30032 40051 52031 70281 82200;
0255010980999992000031606004+70370+031100FM-12+001599999V0202401N002110075019N0006001N1-00461-00491100811ADDAA112002091AJ199991999999999AY181061AY241061GF106991061011008001001001IA1299KA1120N-00461MA1999999100621MD1210301+9999MW1461REMSYN100AAXX  16064 01098 11506 62404 11046 21049 30062 40081 52030 60022 74684 86100 333 21046 49999 91108;EQDQ01  09962SNDP  
0161010980999992000031609004+70370+031100FM-12+001599999V0202201N002610060019N0300001N1-00361-00391101071ADDAY181031AY241031GF107991071081002501001001MA1999999100881MD1210261+9999MW1261REMSYN072AAXX  16094 01098 41380 72205 11036 21039 30088 40107 52026 72684 87800;
0188010980999992000031612004+70370+031100FM-12+001599999V0202301N001512200019N0300001N1-00421-00461101281ADDAA106000791AY181061AY241061GF103991031021002501001001MA1999999101091MD1210211+9999MW1011REMSYN088AAXX  16124 01098 11380 32303 11042 21046 30109 40128 52021 69901 70184 83200 333 91108;
0161010980999992000031615004+70370+031100FM-12+001599999V0202301N002110021019N0750001N1-00301-00341101491ADDAY121031AY221031GF105991051051002501001001MA1999999101301MD1210211+9999MW1021REMSYN072AAXX  16154 01098 41389 52304 11030 21034 30130 40149 52021 70222 85500;
0207010980999992000031618004+70370+031100FM-12+001599999V0202201N003112200019N0750001N1-00511-00551101641ADDAA112000791AY111061AY201061GF101991011011004501001001KA1120M-00281MA1999999101451MD1210151+9999MW1021REMSYN094AAXX  16184 01098 11489 12206 11051 21055 30145 40164 52015 69902 70210 81100 333 11028 91107;
0161010980999992000031621004+70370+031100FM-12+001599999V0202401N001512200019N0750001N1-00681-00721101811ADDAY101031AY201031GF101991011011004501001001MA1999999101621MD1210171+9999MW1021REMSYN072AAXX  16214 01098 41489 12403 11068 21072 30162 40181 52017 70200 81100;
0201010980999992000031700004+70370+031100FM-12+001599999V0202701N001012200019N0750001N1-00521-00551102001ADDAA199000091AY101061AY201061GF101991011011004501001001MA1999999101811MD1210191+9999MW1021REMSYN082AAXX  17004 01098 31489 12702 11052 21055 30181 40200 52019 70200 81100 333 91109;EQDQ01  00002PRCP99
0161010980999992000031703004+70370+031100FM-12+001599999V02099999999992200019N0750001N1-00451-00491102151ADDAY101031AY201031GF102991021011004501001001MA1999999101961MD1210151+9999MW1021REMSYN072AAXX  17034 01098 41489 2//// 11045 21049 30196 40215 52015 70200 82100;
0265010980999992000031706004+70370+031100FM-12+001599999V0202301N001510240019N0750001N1-00371-00401102211ADDAA199000091AJ199991999999999AY121061AY221061GF106991021011004501071001IA1299KA1120N-00681MA1999999102021MD1110061+9999MW1031REMSYN094AAXX  17064 01098 31489 62303 11037 21040 30202 40221 51006 70322 82170 333 21068 49999 91104;EQDQ01  00002PRCP99Q02  09962SNDP  
0161010980999992000031709004+70370+031100FM-12+001599999V0202301N003112200019N0300001N1-00471-00511102211ADDAY111031AY201031GF101991011061000751001001MA1999999102021MD1010001+9999MW1021REMSYN072AAXX  17094 01098 41180 12306 11047 21051 30202 40221 50000 70210 81600;
0201010980999992000031712004+70370+031100FM-12+001599999V0202101N001010003019N0002001N1-00471-00501102151ADDAA199000091AY141061AY211061GF107991071061000251001001MA1999999101961MD1810061+9999MW1481REMSYN082AAXX  17124 01098 31002 72102 11047 21050 30196 40215 58006 74841 87600 333 91110;EQDQ01  00002PRCP99
0161010980999992000031715004+70370+031100FM-12+001599999V0202101N004110003019N0010001N1-00431-00461102051ADDAY141031AY221031GF107991071061000251001001MA1999999101861MD1710101+9999MW1481REMSYN072AAXX  17154 01098 41010 72108 11043 21046 30186 40205 57010 74842 87600;
0220010980999992000031718004+70370+031100FM-12+001599999V0201901N004610600019N0100001N1-00321-00461101781ADDAA199000091AY141061AY221061GF107991031061004501001061KA1120M-00281MA1999999101591MD1710271+9999MW1011REMSYN088AAXX  17184 01098 31460 71909 11032 21046 30159 40178 57027 70142 83606 333 11028 91111;EQDQ01  00002PRCP99
0161010980999992000031721004+70370+031100FM-12+001599999V0202001N005710600019N0200001N1-00141-00311101601ADDAY131031AY221031GF107991031061004501001061MA1999999101411MD1710181+9999MW1361REMSYN072AAXX  17214 01098 41470 72011 11014 21031 30141 40160 57018 73632 83606;
0201010980999992000031800004+70370+031100FM-12+001599999V0202201N005719999999N0200001N1-00231-00301101471ADDAA199000091AY131061AY221061GF108991081001012501071999MA1999999101281MD1710131+9999MW1381REMSYN082AAXX  18004 01098 31670 82211 11023 21030 30128 40147 57013 73832 8807/ 333 91116;EQDQ01  00002PRCP99
0161010980999992000031803004+70370+031100FM-12+001599999V0202201N005119999999N0750001N1-00251-00321101471ADDAY131031AY221031GF108991081001012501071999MA1999999101281MD1410001+9999MW1021REMSYN072AAXX  18034 01098 41689 82210 11025 21032 30128 40147 54000 70232 8807/;
0238010980999992000031806004+70370+031100FM-12+001599999V0202401N005710240019N0750001N1-00221-00291101551ADDAJ199991999999999AY131061AY221061GF108991011041002501071051IA1299KA1120N-00321MA1999999101361MD1310081+9999MW1021REMSYN094AAXX  18064 01098 41389 82411 11022 21029 30136 40155 53008 70232 81475 333 21032 49999 91117;EQDQ01  09962SNDP  
0161010980999992000031809004+70370+031100FM-12+001599999V0202301N003610240019N0750001N1-00121-00191101721ADDAY121031AY221031GF108991011041004501071051MA1999999101531MD1210171+9999MW1021REMSYN072AAXX  18094 01098 41489 82307 11012 21019 30153 40172 52017 70222 81475;
0201010980999992000031812004+70370+031100FM-12+001599999V0202301N004110240019N0750001N1-00081-00151101831ADDAA199000091AY121061AY221061GF108991011041004501051051MA1999999101641MD1210111+9999MW1021REMSYN082AAXX  18124 01098 31489 82308 11008 21015 30164 40183 52011 70222 81455 333 91111;EQDQ01  00002PRCP99
0161010980999992000031815004+70370+031100FM-12+001599999V0202201N003110240019N0550001N1-00041-00111101851ADDAY121031AY221031GF107991031051004501051001MA1999999101661MD1210021+9999MW1011REMSYN072AAXX  18154 01098 41485 72206 11004 21011 30166 40185 52002 70122 83550;
0220010980999992000031818004+70370+031100FM-12+001599999V0202301N004612200019N0550001N1-00111-00181101761ADDAA199000091AY121061AY211061GF104991041051004501001001KA1120M-00011MA1999999101571MD1810091+9999MW1011REMSYN088AAXX  18184 01098 31485 42309 11011 21018 30157 40176 58009 70121 84500 333 11001 91111;EQDQ01  00002PRCP99
0161010980999992000031821004+70370+031100FM-12+001599999V0202201N003112200019N0550001N1-00261-00331101661ADDAY111031AY201031GF103991031051004501001001MA1999999101471MD1710101+9999MW1011REMSYN072AAXX  18214 01098 41485 32206 11026 21033 30147 40166 57010 70110 83500;
0201010980999992000031900004+70370+031100FM-12+001599999V0202101N003612200019N0550001N1-00291-00341101421ADDAA199000091AY121061AY211061GF104991041051004501001001MA1999999101231MD1710241+9999MW1031REMSYN082AAXX  19004 01098 31485 42107 11029 21034 30123 40142 57024 70321 84500 333 91112;EQDQ01  00002PRCP99
0161010980999992000031903004+70370+031100FM-12+001599999V0202101N006210240019N0550001N1-00301-00351100971ADDAY131031AY221031GF105991031041004501071001MA1999999100781MD1710451+9999MW1361REMSYN072AAXX  19034 01098 41485 52112 11030 21035 30078 40097 57045 73632 83470;
0265010980999992000031906004+70370+031100FM-12+001599999V0202001N005110042019N0550001N1-00311-00361100541ADDAA199000091AJ199991999999999AY131061AY221061GF107991051071004501041001IA1299KA1120N-00351MA1999999100351MD1710431+9999MW1361REMSYN094AAXX  19064 01098 31485 72010 11031 21036 30035 40054 57043 73632 85740 333 21035 49999 91119;EQDQ01  00002PRCP99Q02  09962SNDP  
0161010980999992000031909004+70370+031100FM-12+001599999V0202001N007210240019N0300001N1-00131-00201100041ADDAY131031AY221031GF107991041051004501061091MA1999999099851MD1710501+9999MW1021REMSYN072AAXX  19094 01098 41480 72014 11013 21020 39985 40004 57050 70232 84569;
0217010980999992000031912004+70370+031100FM-12+001599999V0202101N008219999999N0300001N1+00011-00091099741ADDAA199000091AY131061AY221061GF107991999051004501999999MA1999999099561MD1710291+9999MW1031REMSYN082AAXX  19124 01098 31480 72116 10001 21009 39956 49974 57029 70332 885// 333 91122;EQDQ01+000082SCOTLCQ02  00002PRCP99
0161010980999992000031915004+70370+031100FM-12+001599999V0202101N008710042019N0550001N1+00071+00001099321ADDAY171031AY231031GF108991081051004501999999MA1999999099141MD1710421+9999MW1021REMSYN072AAXX  19154 01098 41485 82117 10007 20000 39914 49932 57042 70273 885//;
0207010980999992000031918004+70370+031100FM-12+001599999V0202201N007210240019N0550001N1+00101+00031099041ADDAA112000791AY171061AY231061GF105991031051004501031001KA1120M+00101MA1999999098861MD1710281+9999MW1011REMSYN094AAXX  19184 01098 11485 52214 10010 20003 39886 49904 57028 69902 70173 83530 333 10010 91120;
0180010980999992000031921004+70370+031100FM-12+001599999V0202101N006210042019N0550001N1+00161+99999098611ADDAY121031AY221031GF106991051051004501031001MA1999999098431MD1710431+9999MW1021REMSYN072AAXX  19214 01098 41485 62112 10016 21109 39843 49861 57043 70222 85530;EQDQ01-001093ATOD  
0188010980999992000032000004+70370+031100FM-12+001599999V0201801N005710021019N0050001N1+00101+00061097761ADDAA106002091AY181061AY221061GF108991081031002501999999MA1999999097591MD1710841+9999MW1801REMSYN088AAXX  20004 01098 11350 81811 10010 20006 39759 49776 57084 60021 78082 883// 333 91117;
0196010980999992000032003004+70370+031100FM-12+001599999V0202001N007210060019N0050001N1+00051+00011096862ADDAY181031AY221031GF108991081081002501999999MA1999999096692MD1710901+9999MW1801REMSYN072AAXX  20034 01098 41350 82014 10005 20001 39669 49686 57090 78082 888//;EQDQ01+096693APOSP Q02+096863APOSLP
0255010980999992000032006004+70370+031100FM-12+001599999V0202801N005710060019N0300001N1+00281+00161096351ADDAA112004191AJ199991999999999AY181061AY221061GF107991071081002501001001IA1289KA1120N+00051MA1999999096181MD1710511+9999MW1011REMSYN100AAXX  20064 01098 11380 72811 10028 20016 39618 49635 57051 60042 70182 87800 333 20005 44999 91122;EQDQ01  09962SNDP  
0161010980999992000032009004+70370+031100FM-12+001599999V0203001N008710060019N0300001N1+00181+00001097001ADDAY181031AY221031GF107991071081002501001001MA1999999096831MD1310651+9999MW1261REMSYN072AAXX  20094 01098 41380 73017 10018 20000 39683 49700 53065 72682 87800;
0188010980999992000032012004+70370+031100FM-12+001599999V0203501N006712200019N0300001N1+00061-00131097471ADDAA106000791AY181061AY221061GF102991011081002501001051MA1999999097301MD1210471+9999MW1011REMSYN088AAXX  20124 01098 11380 23513 10006 21013 39730 49747 52047 69901 70182 81805 333 91129;
0161010980999992000032015004+70370+031100FM-12+001599999V0202701N006710060019N0300001N1-00181-00241097551ADDAY181031AY221031GF106991061081002501001001MA1999999097371MD1110081+9999MW1851REMSYN072AAXX  20154 01098 41380 62713 11018 21024 39737 49755 51008 78582 86800;
0207010980999992000032018004+70370+031100FM-12+001599999V0202601N005712200019N0750001N1-00241-00401097581ADDAA112000191AY181061AY201061GF103991011081002501041081KA1120M+00301MA1999999097401MD1210031+9999MW1021REMSYN094AAXX  20184 01098 11389 32611 11024 21040 39740 49758 52003 69912 70280 81848 333 10030 91123;
0161010980999992000032021004+70370+031100FM-12+001599999V0202801N006212200019N0750001N1-00321-00431097561ADDAY101031AY201031GF101991011081002501041001MA1999999097381MD1010021+9999MW1021REMSYN072AAXX  20214 01098 41389 12812 11032 21043 39738 49756 50002 70200 81840;
0182010980999992000032100004+70370+031100FM-12+001599999V0202701N007212200019N0550001N1-00341-00451097681ADDAA199000021AY121061AY211061GF102991011021004501041001MA1999999097501MD1210121+9999MW1021REMSYN082AAXX  21004 01098 31485 22714 11034 21045 39750 49768 52012 70221 81240 333 91117;
0161010980999992000032103004+70370+031100FM-12+001599999V0202601N006710090019N0550001N1-00301-00411097781ADDAY121031AY211031GF107991071081004501001001MA1999999097601MD1210101+9999MW1021REMSYN072AAXX  21034 01098 41485 72613 11030 21041 39760 49778 52010 70221 87800;
0255010980999992000032106004+70370+031100FM-12+001599999V0202701N007710240019N0550001N1-00181-00241097821ADDAA112001091AJ199991999999999AY181061AY221061GF106991041081004501061041IA1299KA1120N-00351MA1999999097641MD1210041+9999MW1021REMSYN100AAXX  21064 01098 11485 62715 11018 21024 39764 49782 52004 69992 70282 84864 333 21035 49999 91120;EQDQ01  09962SNDP  
0161010980999992000032109004+70370+031100FM-12+001599999V0202401N005112200019N0550001N1-00181-00291098071ADDAY111031AY201031GF101991011081004501041081MA1999999097891MD1310251+9999MW1021REMSYN072AAXX  21094 01098 41485 12410 11018 21029 39789 49807 53025 70210 81848;
0201010980999992000032112004+70370+031100FM-12+001599999V0202301N005112200019N0550001N1-00161-00331098151ADDAA199000091AY111061AY201061GF103991021081004501041081MA1999999097971MD1110071+9999MW1021REMSYN082AAXX  21124 01098 31485 32310 11016 21033 39797 49815 51007 70210 82848 333 91116;EQDQ01  00002PRCP99
0161010980999992000032115004+70370+031100FM-12+001599999V0202401N006712200019N0750001N1-00261-00431098061ADDAY121031AY201031GF103991021081004501071081MA1999999097881MD1810091+9999MW1031REMSYN072AAXX  21154 01098 41489 32413 11026 21043 39788 49806 58009 70320 82878;
0220010980999992000032118004+70370+031100FM-12+001599999V0202301N007710240019N0750001N1-00161-00391097911ADDAA199000091AY121061AY201061GF107991041081004501071001KA1120M-00161MA1999999097731MD1710151+9999MW1031REMSYN088AAXX  21184 01098 31489 72315 11016 21039 39773 49791 57015 70320 84870 333 11016 91118;EQDQ01  00002PRCP99
0161010980999992000032121004+70370+031100FM-12+001599999V0202501N005710240019N0750001N1-00071-00201097941ADDAY121031AY221031GF108991041081004501071999MA1999999097761MD1310031+9999MW1021REMSYN072AAXX  21214 01098 41489 82511 11007 21020 39776 49794 53003 70222 8487/;
0201010980999992000032200004+70370+031100FM-12+001599999V0202301N006710240019N0750001N1-00081-00191098061ADDAA199000091AY121061AY221061GF106991041081004501071001MA1999999097881MD1210121+9999MW1021REMSYN082AAXX  22004 01098 31489 62313 11008 21019 39788 49806 52012 70222 84870 333 91119;EQDQ01  00002PRCP99
0161010980999992000032203004+70370+031100FM-12+001599999V0202301N007212200019N0750001N1-00221-00351097981ADDAY101031AY201031GF103991011081004501071081MA1999999097801MD1010081+9999MW1021REMSYN072AAXX  22034 01098 41489 32314 11022 21035 39780 49798 50008 70200 81878;
0265010980999992000032206004+70370+031100FM-12+001599999V0202301N006210600019N0750001N1-00281-00351097991ADDAA199000091AJ199991999999999AY121061AY221061GF105991011081002501071081IA1299KA1120N-00361MA1999999097811MD1010011+9999MW1031REMSYN094AAXX  22064 01098 31389 52312 11028 21035 39781 49799 50001 70322 81878 333 21036 49999 91118;EQDQ01  00002PRCP99Q02  09962SNDP  
0161010980999992000032209004+70370+031100FM-12+001599999V0202301N005110240019N0550001N1-00181-00291098041ADDAY121031AY211031GF108991011081004501071081MA1999999097861MD1210051+9999MW1031REMSYN072AAXX  22094 01098 41485 82310 11018 21029 39786 49804 52005 70321 81878;
0201010980999992000032212004+70370+031100FM-12+001599999V0202601N005110240019N0750001N1-00081-00211098171ADDAA199000091AY121061AY211061GF107991021081004501071081MA1999999097991MD1210131+9999MW1011REMSYN082AAXX  22124 01098 31489 72610 11008 21021 39799 49817 52013 70121 82878 333 91116;EQDQ01  00002PRCP99
0161010980999992000032215004+70370+031100FM-12+001599999V0202301N004110240019N0750001N1-00151-00241098251ADDAY121031AY221031GF106991021081004501041081MA1999999098071MD1210081+9999MW1011REMSYN072AAXX  22154 01098 41489 62308 11015 21024 39807 49825 52008 70122 82848;
0220010980999992000032218004+70370+031100FM-12+001599999V0202301N004110240019N0750001N1-00151-00261098181ADDAA199000091AY121061AY221061GF107991021081004501071081KA1120M+00001MA1999999098001MD1810071+9999MW1031REMSYN088AAXX  22184 01098 31489 72308 11015 21026 39800 49818 58007 70322 82878 333 10000 91111;EQDQ01  00002PRCP99
0161010980999992000032221004+70370+031100FM-12+001599999V0202001N003110240019N0750001N1-00201-00321098121ADDAY121031AY221031GF107991021081004501071081MA1999999097941MD1710061+9999MW1021REMSYN072AAXX  22214 01098 41489 72006 11020 21032 39794 49812 57006 70222 82878;
0188010980999992000032300004+70370+031100FM-12+001599999V0202201N005110240019N0550001N1-00111-00241097971ADDAA106000791AY121061AY221061GF107991041081004501071001MA1999999097791MD1610151+9999MW1851REMSYN088AAXX  23004 01098 11485 72210 11011 21024 39779 49797 56015 69901 78522 84870 333 91113;
0161010980999992000032303004+70370+031100FM-12+001599999V0202101N004110090019N0040001N1-00171-00231097861ADDAY181031AY221031GF108991051081004501071999MA1999999097681MD1710111+9999MW1851REMSYN072AAXX  23034 01098 41440 82108 11017 21023 39768 49786 57011 78582 8587/;
0255010980999992000032306004+70370+031100FM-12+001599999V0202001N002610090019N0100001N1-00101-00161097811ADDAA112000191AJ199991999999999AY181061AY221061GF107991061081004501061001IA1299KA1120N-00321MA1999999097631MD1610051+9999MW1851REMSYN100AAXX  23064 01098 11460 72005 11010 21016 39763 49781 56005 69912 78582 86860 333 21032 49999 91112;EQDQ01  09962SNDP  
0161010980999992000032309004+70370+031100FM-12+001599999V0200501N002110060019N0080001N1+00011-00061097911ADDAY181031AY221031GF108991081081002501999999MA1999999097741MD1310111+9999MW1851REMSYN072AAXX  23094 01098 41358 80504 10001 21006 39774 49791 53011 78582 888//;
0188010980999992000032312004+70370+031100FM-12+001599999V0200301N002110060019N0100001N1-00051-00121098161ADDAA106000191AY181061AY221061GF108991081081002501999999MA1999999097981MD1210251+9999MW1851REMSYN088AAXX  23124 01098 11360 80304 11005 21012 39798 49816 52025 69911 78582 888// 333 91106;
0161010980999992000032315004+70370+031100FM-12+001599999V0200201N002110090019N0300001N1-00021-00081098361ADDAY181031AY221031GF107991061081004501031001MA1999999098181MD1210201+9999MW1261REMSYN072AAXX  23154 01098 41480 70204 11002 21008 39818 49836 52020 72682 86830;
0187010980999992000032318004+70370+031100FM-12+001599999V0200201N002610090019N0300001N1+00021-00061098571ADDAA112000391AY181061AY221061GF107991051081004501031001KA1120M+00051MA1999999098391MW1221REMSYN088AAXX  23184 01098 11480 70205 10002 21006 39839 49857 69932 72282 85830 333 10005 91108;
0161010980999992000032321004+70370+031100FM-12+001599999V0200201N003610090019N0300001N1+00021-00091098731ADDAY121031AY221031GF107991071081004501001001MA1999999098551MD1210161+9999MW1021REMSYN072AAXX  23214 01098 41480 70207 10002 21009 39855 49873 52016 70222 87800;
0182010980999992000032400004+70370+031100FM-12+001599999V0200401N002610090019N0600001N1+00101-00501098981ADDAA199000021AY121061AY221061GF107991071081004501001001MA1999999098801MD1210251+9999MW1021REMSYN082AAXX  24004 01098 31486 70405 10010 21050 39880 49898 52025 70222 87800 333 91112;
0161010980999992000032403004+70370+031100FM-12+001599999V0200301N003112200019N0600001N1+00051-00301099181ADDAY121031AY221031GF104991041081004501001001MA1999999099001MD1210201+9999MW1011REMSYN072AAXX  24034 01098 41486 40306 10005 21030 39900 49918 52020 70122 84800;
0249010980999992000032406004+70370+031100FM-12+001599999V0200401N002112200019N0750001N1+00061-00251099411ADDAA199000021AJ199991999999999AY121061AY221061GF104991041031004501001001IA1299KA1120N-00051MA1999999099231MD1210231+9999MW1021REMSYN094AAXX  24064 01098 31489 40404 10006 21025 39923 49941 52023 70222 84300 333 21005 49999 91112;EQDQ01  09962SNDP  
0161010980999992000032409004+70370+031100FM-12+001599999V0200301N002112200019N0550001N1+00161-00201099661ADDAY181031AY211031GF104991031081004501041001MA1999999099481MD1210251+9999MW1161REMSYN072AAXX  24094 01098 41485 40304 10016 21020 39948 49966 52025 71681 83840;
0188010980999992000032412004+70370+031100FM-12+001599999V0200401N001012200019N0550001N1+00061+00001099871ADDAA106000191AY181061AY211061GF104991031081004501041001MA1999999099691MD1210211+9999MW1161REMSYN088AAXX  24124 01098 11485 40402 10006 20000 39969 49987 52021 69911 71681 83840 333 91109;
0161010980999992000032415004+70370+031100FM-12+001599999V0203001N002610240019N0020001N1-00041-00081100011ADDAY181031AY221031GF106991041081002501041001MA1999999099821MD1110141+9999MW1161REMSYN072AAXX  24154 01098 41320 63005 11004 21008 39982 40001 51014 71682 84840;
0161010980999992000032421004+70370+031100FM-12+001599999V0203001N000512200019N0750001N1-00191-00251100051ADDAY101031AY201031GF103991021081004501041001MA1999999099861MD1210021+9999MW1021REMSYN072AAXX  24214 01098 41489 33001 11019 21025 39986 40005 52002 70200 82840;
0191010980999992000032500004+70370+031100FM-12+001599999V0203001N001512200019N0750001N1-00171-00241100071ADDAA199000091AY101061AY201061GF103991021081004501041001MA1999999099881MD1210021+9999MW1021REMSYN072AAXX  25004 01098 31489 33003 11017 21024 39988 40007 52002 70200 82840;EQDQ01  00002PRCP99
0161010980999992000032503004+70370+031100FM-12+001599999V0202801N001012200019N0750001N1-00441-00511100111ADDAY101031AY201031GF103991031051004501001001MA1999999099921MD1210041+9999MW1021REMSYN072AAXX  25034 01098 41489 32802 11044 21051 39992 40011 52004 70200 83500;
0255010980999992000032506004+70370+031100FM-12+001599999V0203301N001510060019N0100001N1-00241-00311100201ADDAA112000791AJ199991999999999AY181061AY221061GF108991081081001501999999IA1299KA1120N-00481MA1999999100011MD1210091+9999MW1881REMSYN100AAXX  25064 01098 11260 83303 11024 21031 30001 40020 52009 69902 78882 888// 333 21048 49999 91105;EQDQ01  09962SNDP  
0161010980999992000032509004+70370+031100FM-12+001599999V0200201N002610060019N0006001N1-00211-00251100381ADDAY181031AY221031GF108991081081002501999999MA1999999100191MD1310181+9999MW1861REMSYN072AAXX  25094 01098 41306 80205 11021 21025 30019 40038 53018 78682 888//;
0188010980999992000032512004+70370+031100FM-12+001599999V0200301N002110600019N0550001N1-00041-00341100501ADDAA112005191AY181061AY221061GF106991041081002501001081MA1999999100311MD1210121+9999MW1151REMSYN088AAXX  25124 01098 11385 60304 11004 21034 30031 40050 52012 60052 71582 84808 333 91109;
0161010980999992000032515004+70370+031100FM-12+001599999V0200101N002612200019N0550001N1-00051-00451100611ADDAY111031AY211031GF104991021081002501001081MA1999999100411MD1210131+9999MW1011REMSYN072AAXX  25154 01098 41385 40105 11005 21045 30041 40061 52013 70111 82808;
0207010980999992000032518004+70370+031100FM-12+001599999V0200101N003110060019N0550001N1-00121-00631100741ADDAA112005191AY181061AY221061GF106991061081002501001001KA1120M-00011MA1999999100551MD1210111+9999MW1031REMSYN094AAXX  25184 01098 11385 60106 11012 21063 30055 40074 52011 60052 70382 86800 333 11001 91111;
0161010980999992000032521004+70370+031100FM-12+001599999V0203401N002110060019N0100001N1-00201-00501100851ADDAY181031AY221031GF108991081081002501999999MA1999999100661MD1210111+9999MW1851REMSYN072AAXX  25214 01098 41360 83404 11020 21050 30066 40085 52011 78582 888//;
0188010980999992000032600004+70370+031100FM-12+001599999V0203001N003110060019N0060001N1-00321-00371100921ADDAA106000191AY181061AY231061GF108991081081002501999999MA1999999100731MD1210071+9999MW1851REMSYN088AAXX  26004 01098 11356 83006 11032 21037 30073 40092 52007 69921 78583 888// 333 91111;
0161010980999992000032603004+70370+031100FM-12+001599999V0203301N003610060019N0100001N1-00241-00311100951ADDAY181031AY231031GF106991061081002501001001MA1999999100761MD1210031+9999MW1361REMSYN072AAXX  26034 01098 41360 63307 11024 21031 30076 40095 52003 73683 86800;
0255010980999992000032606004+70370+031100FM-12+001599999V0203401N003610090019N0750001N1-00231-00431100991ADDAA112001091AJ199991999999999AY181061AY231061GF105991051081004501001001IA1299KA1120N-00421MA1999999100801MD1210041+9999MW1011REMSYN100AAXX  26064 01098 11489 53407 11023 21043 30080 40099 52004 60012 70183 85800 333 21042 49999 91114;EQDQ01  09962SNDP  
0161010980999992000032609004+70370+031100FM-12+001599999V0203601N003110060019N0010001N1-00301-00371101151ADDAY181031AY231031GF108991081081001501999999MA1999999100961MD1210161+9999MW1861REMSYN072AAXX  26094 01098 41210 83606 11030 21037 30096 40115 52016 78683 888//;
0188010980999992000032612004+70370+031100FM-12+001599999V0203401N003112200019N0750001N1-00211-00571101291ADDAA106000591AY181061AY211061GF103991031021004501001001MA1999999101101MD1210141+9999MW1011REMSYN088AAXX  26124 01098 11489 33406 11021 21057 30110 40129 52014 69941 70181 83200 333 91111;
0161010980999992000032615004+70370+031100FM-12+001599999V0203301N003112200019N0046001N1-00271-00571101391ADDAY181031AY211031GF104991041021004501001001MA1999999101201MD1210101+9999MW1161REMSYN072AAXX  26154 01098 41446 43306 11027 21057 30120 40139 52010 71681 84200;
0207010980999992000032618004+70370+031100FM-12+001599999V0203601N003112200019N0550001N1-00331-00401101471ADDAA112000891AY181061AY211061GF104991041021004501001001KA1120M-00171MA1999999101281MD1110081+9999MW1011REMSYN094AAXX  26184 01098 11485 43606 11033 21040 30128 40147 51008 69982 70181 84200 333 11017 91111;
0161010980999992000032621004+70370+031100FM-12+001599999V0202801N004112200019N0550001N1-00491-00541101541ADDAY111031AY201031GF104991041021004501001001MA1999999101351MD1110071+9999MW1011REMSYN072AAXX  26214 01098 41485 42808 11049 21054 30135 40154 51007 70110 84200;
0188010980999992000032700004+70370+031100FM-12+001599999V0202901N004610042019N0300001N1-00531-00561101551ADDAA106000591AY181061AY231061GF106991061021004501001001MA1999999101361MD1210011+9999MW1851REMSYN088AAXX  27004 01098 11480 62909 11053 21056 30136 40155 52001 69961 78583 86200 333 91111;
0161010980999992000032703004+70370+031100FM-12+001599999V0202801N004612200019N0200001N1-00581-00661101521ADDAY181031AY231031GF103991031021004501001001MA1999999101331MD1810031+9999MW1011REMSYN072AAXX  27034 01098 41470 32809 11058 21066 30133 40152 58003 70183 83200;
0271010980999992000032706004+70370+031100FM-12+001599999V0202601N004610042019N0550001N1-00451-00591101451ADDAA112000891AJ199991999999999AY181061AY221061GF107991999071004501001001IA1299KA1120N-00601MA1999999101261MD1710071+9999MW1031REMSYN100AAXX  27064 01098 11485 72609 11045 21059 30126 40145 57007 69972 70382 86700 333 21060 49999 91112;EQDQ01+000062SCOTLCQ02  09962SNDP  
0161010980999992000032709004+70370+031100FM-12+001599999V0202301N006210090019N0060001N1-00481-00531101151ADDAY181031AY231031GF108991081081004501999999MA1999999100961MD1810301+9999MW1381REMSYN072AAXX  27094 01098 41456 82312 11048 21053 30096 40115 58030 73883 888//;
0188010980999992000032712004+70370+031100FM-12+001599999V0202601N007710090019N0060001N1-00241-00291100821ADDAA106000191AY181061AY231061GF107991061081004501071081MA1999999100631MD1710331+9999MW1381REMSYN088AAXX  27124 01098 11456 72615 11024 21029 30063 40082 57033 69911 73883 86878 333 91119;
0161010980999992000032715004+70370+031100FM-12+001599999V0202701N005110090019N0060001N1-00081-00141100831ADDAY181031AY231031GF108991081081004501999999MA1999999100641MD1610011+9999MW1851REMSYN072AAXX  27154 01098 41456 82710 11008 21014 30064 40083 56001 78583 888//;
0207010980999992000032718004+70370+031100FM-12+001599999V0202701N005710042019N0600001N1+00001-00071100591ADDAA112000591AY181061AY231061GF108991081051004501999999KA1120M+00001MA1999999100401MD1810241+9999MW1021REMSYN094AAXX  27184 01098 11486 82711 10000 21007 30040 40059 58024 69942 70283 885// 333 10000 91117;
0161010980999992000032721004+70370+031100FM-12+001599999V0202701N006710042019N0300001N1-00051-00111100521ADDAY121031AY221031GF108991081071004501999999MA1999999100331MD1610071+9999MW1021REMSYN072AAXX  27214 01098 41480 82713 11005 21011 30033 40052 56007 70222 887//;
0188010980999992000032800004+70370+031100FM-12+001599999V0202701N004610090019N0100001N1-00181-00241100481ADDAA106000591AY181061AY271061GF108991081081004501999999MA1999999100291MD1610041+9999MW1711REMSYN088AAXX  28004 01098 11460 82709 11018 21024 30029 40048 56004 69961 77187 888// 333 91116;
0161010980999992000032803004+70370+031100FM-12+001599999V0202801N006712200019N0550001N1-00351-00401100351ADDAY131031AY211031GF102991021071004501001001MA1999999100161MD1810131+9999MW1381REMSYN072AAXX  28034 01098 41485 22813 11035 21040 30016 40035 58013 73831 82700;
0255010980999992000032806004+70370+031100FM-12+001599999V0203001N007210090019N0200001N1-00351-00381100381ADDAA112003091AJ199991999999999AY181061AY231061GF106991061081004501001001IA1299KA1120N-00371MA1999999100191MD1310031+9999MW1381REMSYN100AAXX  28064 01098 11470 63014 11035 21038 30019 40038 53003 60032 73883 86800 333 21037 49999 91120;EQDQ01  09962SNDP  
0161010980999992000032809004+70370+031100FM-12+001599999V0203101N009310090019N0150001N1-00331-00481100551ADDAY181031AY231031GF106991061081004501001001MA1999999100361MD1210171+9999MW1381REMSYN072AAXX  28094 01098 41465 63118 11033 21048 30036 40055 52017 73883 86800;
0188010980999992000032812004+70370+031100FM-12+001599999V0203001N007710090019N0150001N1-00261-00681100941ADDAA106000591AY181061AY231061GF105991051081004501001001MA1999999100751MD1210391+9999MW1381REMSYN088AAXX  28124 01098 11465 53015 11026 21068 30075 40094 52039 69951 73883 85800 333 91126;
0161010980999992000032815004+70370+031100FM-12+001599999V0203101N006712200019N0190001N1-00281-00681101061ADDAY131031AY221031GF106991041081004501001041MA1999999100871MD1210121+9999MW1381REMSYN072AAXX  28154 01098 41469 63113 11028 21068 30087 40106 52012 73832 84804;
0207010980999992000032818004+70370+031100FM-12+001599999V0203101N005110042019N0750001N1-00331-00781101311ADDAA112000591AY131061AY221061GF106991051051004501051001KA1120M-00211MA1999999101121MD1210251+9999MW1021REMSYN094AAXX  28184 01098 11489 63110 11033 21078 30112 40131 52025 69952 70232 85550 333 11021 91121;
0161010980999992000032821004+70370+031100FM-12+001599999V0202501N003610042019N0750001N1-00501-00661101341ADDAY121031AY221031GF106991051051004501051001MA1999999101151MD1110031+9999MW1021REMSYN072AAXX  28214 01098 41489 62507 11050 21066 30115 40134 51003 70222 85550;
0201010980999992000032900004+70370+031100FM-12+001599999V0202801N003610042019N0750001N1-00501-00571101261ADDAA199000091AY121061AY221061GF106991061051004501001001MA1999999101071MD1810081+9999MW1021REMSYN082AAXX  29004 01098 31489 62807 11050 21057 30107 40126 58008 70222 86500 333 91112;EQDQ01  00002PRCP99
0161010980999992000032903004+70370+031100FM-12+001599999V0202801N002110042019N0750001N1-00461-00531101071ADDAY121031AY221031GF106991061051004501001001MA1999999100881MD1710191+9999MW1021REMSYN072AAXX  29034 01098 41489 62804 11046 21053 30088 40107 57019 70222 86500;
0255010980999992000032906004+70370+031100FM-12+001599999V0209999C000010042019N0600001N1-00401-00471100891ADDAA112000791AJ199991999999999AY181061AY221061GF106991061051004501001001IA1299KA1120N-00501MA1999999100701MD1710181+9999MW1021REMSYN100AAXX  29064 01098 31486 60000 11040 21047 30070 40089 57018 69902 70282 86500 333 21050 49999 91107;EQDQ01  09962SNDP  
0161010980999992000032909004+70370+031100FM-12+001599999V0201201N001510090019N0040001N1-00301-00401100741ADDAY181031AY221031GF107991071081004501001001MA1999999100551MD1710151+9999MW1851REMSYN072AAXX  29094 01098 41440 71203 11030 21040 30055 40074 57015 78582 87800;
0188010980999992000032912004+70370+031100FM-12+001599999V0201701N003110090019N0750001N1-00261-00311100461ADDAA106000591AY181061AY221061GF107991071081004501001001MA1999999100271MD1710261+9999MW1021REMSYN088AAXX  29124 01098 11489 71706 11026 21031 30027 40046 57026 69951 70282 87800 333 91108;
0161010980999992000032915004+70370+031100FM-12+001599999V0201501N003110240019N0060001N1-00261-00331100171ADDAY171031AY221031GF108991031071004501021999MA1999999100081MD1710291+9999MW1721REMSYN072AAXX  29154 01098 41456 81506 11026 21033 30008 40017 57029 77272 8372/;
0207010980999992000032918004+70370+031100FM-12+001599999V0201301N003610240019N0013001N1-00241-00311099901ADDAA112002091AY171061AY221061GF108991031071004501021999KA1120M-00201MA1999999099711MD1710271+9999MW1731REMSYN094AAXX  29184 01098 11413 81307 11024 21031 39971 49990 57027 60022 77372 8372/ 333 11020 91112;
0161010980999992000032921004+70370+031100FM-12+001599999V0201401N003110042019N0100001N1-00181-00221099621ADDAY171031AY221031GF108991051071004501021999MA1999999099431MD1710281+9999MW1711REMSYN072AAXX  29214 01098 41460 81406 11018 21022 39943 49962 57028 77172 8572/;
0188010980999992000033000004+70370+031100FM-12+001599999V0201201N001510042019N0100001N1-00101-00161099461ADDAA106001091AY171061AY221061GF108991051071004501021999MA1999999099271MD1610161+9999MW1711REMSYN088AAXX  30004 01098 11460 81203 11010 21016 39927 49946 56016 60011 77172 8572/ 333 91112;
0161010980999992000033003004+70370+031100FM-12+001599999V0201101N002110090019N0300001N1-00041-00101099371ADDAY171031AY221031GF108991061081004501021999MA1999999099181MD1710091+9999MW1711REMSYN072AAXX  30034 01098 41480 81104 11004 21010 39918 49937 57009 77172 8682/;
0255010980999992000033006004+70370+031100FM-12+001599999V0201101N002610060019N0060001N1-00031-00091099181ADDAA112002091AJ199991999999999AY181061AY271061GF107991071081002501001001IA1299KA1120N-00251MA1999999099001MD1810191+9999MW1151REMSYN100AAXX  30064 01098 11356 71105 11003 21009 39900 49918 58019 60022 71587 87800 333 21025 49999 91109;EQDQ01  09962SNDP  
0161010980999992000033009004+70370+031100FM-12+001599999V0201201N002610060019N0025001N1-00081-00141098931ADDAY181031AY221031GF108991081081002501999999MA1999999098751MD1710251+9999MW1851REMSYN072AAXX  30094 01098 41325 81205 11008 21014 39875 49893 57025 78582 888//;
0188010980999992000033012004+70370+031100FM-12+001599999V0201001N002110021019N0015001N1-00041-00101098741ADDAA106002091AY181061AY271061GF108991071071002501021999MA1999999098561MD1710191+9999MW1731REMSYN088AAXX  30124 01098 11315 81004 11004 21010 39856 49874 57019 60021 77387 8772/ 333 91109;
0161010980999992000033015004+70370+031100FM-12+001599999V0200801N004610021019N0005001N1-00091-00131098781ADDAY181031AY271031GF108991081071002501999999MA1999999098601MD1310041+9999MW1391REMSYN072AAXX  30154 01098 41305 80809 11009 21013 39860 49878 53004 73987 887//;
0207010980999992000033018004+70370+031100FM-12+001599999V0200601N003110021019N0100001N1-00141-00271099111ADDAA112006191AY181061AY221061GF108991081071002501999999KA1120M+00011MA1999999098931MD1210331+9999MW1151REMSYN094AAXX  30184 01098 11360 80606 11014 21027 39893 49911 52033 60062 71582 887// 333 10001 91116;
0161010980999992000033021004+70370+031100FM-12+001599999V0200301N004110060019N0200001N1-00151-00251099381ADDAY181031AY231031GF108991051081002501071999MA1999999099191MD1210271+9999MW1361REMSYN072AAXX  30214 01098 41370 80308 11015 21025 39919 49938 52027 73683 8587/;
0188010980999992000033100004+70370+031100FM-12+001599999V0203501N004110240019N0300001N1-00401-00471099731ADDAA106000891AY181061AY231061GF108991011081004501071999MA1999999099541MD1210351+9999MW1021REMSYN088AAXX  31004 01098 11480 83508 11040 21047 39954 49973 52035 69981 70283 8187/ 333 91116;
0161010980999992000033103004+70370+031100FM-12+001599999V0203401N004110240019N0100001N1-00511-00631099871ADDAY131031AY231031GF107991031081004501071001MA1999999099681MD1210141+9999MW1381REMSYN072AAXX  31034 01098 41460 73408 11051 21063 39968 49987 52014 73833 83870;
0255010980999992000033106004+70370+031100FM-12+001599999V0203201N005710090019N0100001N1-00681-00751099991ADDAA112001091AJ199991999999999AY181061AY231061GF105991051081004501001001IA1299KA1120N-00681MA1999999099801MD1210121+9999MW1381REMSYN100AAXX  31064 01098 11460 53211 11068 21075 39980 49999 52012 60012 73883 85800 333 21068 49999 91117;EQDQ01  09962SNDP  
0161010980999992000033109004+70370+031100FM-12+001599999V0202901N005110600019N0060001N1-00671-00781100191ADDAY181031AY231031GF106991041081004501001081MA1999999100001MD1210201+9999MW1851REMSYN072AAXX  31094 01098 41456 62910 11067 21078 30000 40019 52020 78583 84808;
0188010980999992000033112004+70370+031100FM-12+001599999V0202801N004610240019N0550001N1-00571-00811100351ADDAA106000591AY181061AY231061GF105991041081004501071081MA1999999100161MD1210161+9999MW1021REMSYN088AAXX  31124 01098 11485 52809 11057 21081 30016 40035 52016 69951 70283 84878 333 91116;
0161010980999992000033115004+70370+031100FM-12+001599999V0202501N004612200019N0750001N1-00151-00421100291ADDAY101031AY201031GF101991011011008001001001MA1999999100101MD1810061+9999MW1011REMSYN072AAXX  31154 01098 41589 12509 11015 21042 30010 40029 58006 70100 81100;
0207010980999992000033118004+70370+031100FM-12+001599999V0202401N005112200019N0750001N1-00961-01051100191ADDAA112000591AY181061AY201061GF101991011011008001001001KA1120M-00401MA1999999100001MD1810101+9999MW1021REMSYN094AAXX  31184 01098 11589 12410 11096 21105 30000 40019 58010 69952 70280 81100 333 11040 91113;
0161010980999992000033121004+70370+031100FM-12+001599999V0202801N006712200019N0050001N1-00701-00741099991ADDAY131031AY201031GF102991011011004501071001MA1999999099801MD1710201+9999MW1391REMSYN072AAXX  31214 01098 41450 22813 11070 21074 39980 49999 57020 73930 81170;
0197010980999992000040100004+70370+031100FM-12+001599999V0200501N004110060019N0550001N1-00201-00471999999ADDAA106002091AY181061AY221061GF107991061081002501071001MA1999999099861MD1310061+9999ME1100059MW1021REMSYN088AAXX  01004 01098 11385 70508 11020 21047 39986 41005 53006 60021 70282 86870 333 91118;
0170010980999992000040103004+70370+031100FM-12+001599999V0200501N004110060019N0550001N1-00271-00601999999ADDAY181031AY231031GF107991061081002501071001MA1999999100001MD1210141+9999ME1100199MW1021REMSYN072AAXX  01034 01098 41385 70508 11027 21060 30000 41019 52014 70283 86870;
0255010980999992000040106004+70370+031100FM-12+001599999V0200501N003110060019N0550001N1-00291-00791100251ADDAA112002091AJ199991999999999AY181061AY221061GF107991061081002501071001IA1299KA1120N-01001MA1999999100061MD1210061+9999MW1021REMSYN100AAXX  01064 01098 11385 70506 11029 21079 30006 40025 52006 60022 70282 86870 333 21100 49999 91114;EQDQ01  09962SNDP  
0161010980999992000040109004+70370+031100FM-12+001599999V0200501N002110042019N0750001N1-00241-00851100351ADDAY111031AY201031GF105991051031004501001001MA1999999100161MD1210101+9999MW1011REMSYN072AAXX  01094 01098 41489 50504 11024 21085 30016 40035 52010 70110 85300;
0188010980999992000040112004+70370+031100FM-12+001599999V0200801N002112200019N0050001N1-00311-00491100391ADDAA106000191AY181061AY211061GF102991021091002501001001MA1999999100201MD1110041+9999MW1271REMSYN088AAXX  01124 01098 11350 20804 11031 21049 30020 40039 51004 69911 72781 82900 333 91108;
0161010980999992000040115004+70370+031100FM-12+001599999V0200401N002110600019N0750001N1-00241-00791100311ADDAY181031AY221031GF106991031081002501001081MA1999999100121MD1810081+9999MW1151REMSYN072AAXX  01154 01098 41389 60404 11024 21079 30012 40031 58008 71582 83808;
0207010980999992000040118004+70370+031100FM-12+001599999V0200801N002610060019N0060001N1-00281-00591100271ADDAA112000191AY181061AY221061GF106991061081002501001001KA1120M-00201MA1999999100081MD1710041+9999MW1151REMSYN094AAXX  01184 01098 11356 60805 11028 21059 30008 40027 57004 69912 71582 86800 333 11020 91109;
0161010980999992000040121004+70370+031100FM-12+001599999V0200701N003112200019N0550001N1-00281-00791100281ADDAY181031AY211031GF104991041081002501001001MA1999999100091MD1510011+9999MW1021REMSYN072AAXX  01214 01098 41385 40706 11028 21079 30009 40028 55001 70281 84800;
0188010980999992000040200004+70370+031100FM-12+001599999V0200501N003612200019N0750001N1-00311-00931100301ADDAA106000191AY181061AY211061GF103991031031008001001001MA1999999100111MD1510021+9999MW1011REMSYN088AAXX  02004 01098 11589 30507 11031 21093 30011 40030 55002 69911 70181 83300 333 91111;
0161010980999992000040203004+70370+031100FM-12+001599999V0200601N003110042019N0750001N1-00331-00871100331ADDAY121031AY211031GF106991061071004501001001MA1999999100141MD1310031+9999MW1031REMSYN072AAXX  02034 01098 41489 60606 11033 21087 30014 40033 53003 70321 86700;
0255010980999992000040206004+70370+031100FM-12+001599999V0200501N003112200019N0750001N1-00311-00851100431ADDAA112000191AJ199991999999999AY181061AY211061GF104991041031004501001001IA1299KA1120N-00391MA1999999100241MD1310101+9999MW1011REMSYN100AAXX  02064 01098 11489 40506 11031 21085 30024 40043 53010 69912 70181 84300 333 21039 49999 91113;EQDQ01  09962SNDP  
0155010980999992000040209004+70370+031100FM-12+001599999V0200301N003610060019N0300001N1-00351-00521999999ADDAY181031AY211031GF106991061081002501001001MA1999999100411MD1210171+9999MW1151REMSYN066AAXX  02094 01098 41380 60307 11035 21052 30041 52017 71581 86800;
0201010980999992000040212004+70370+031100FM-12+001599999V0200301N003610600019N0550001N1-00321-00791100811ADDAA199000091AY181061AY211061GF106991031031004501001081MA1999999100621MD1310211+9999MW1151REMSYN082AAXX  02124 01098 31485 60307 11032 21079 30062 40081 53021 71581 83308 333 91111;EQDQ01  00002PRCP99
0161010980999992000040215004+70370+031100FM-12+001599999V0200401N001510090019N0040001N1-00431-00501100981ADDAY181031AY221031GF107991071081004501001001MA1999999100791MD1210171+9999MW1161REMSYN072AAXX  02154 01098 41440 70403 11043 21050 30079 40098 52017 71682 87800;
0207010980999992000040218004+70370+031100FM-12+001599999V0200401N002110090019N0550001N1-00401-00741101131ADDAA112001091AY181061AY221061GF107991071081004501001001KA1120M-00251MA1999999100941MD1210151+9999MW1021REMSYN094AAXX  02184 01098 11485 70404 11040 21074 30094 40113 52015 60012 70282 87800 333 11025 91111;
0161010980999992000040221004+70370+031100FM-12+001599999V0203001N002610090019N0200001N1-00561-00631101321ADDAY181031AY221031GF107991071081004501001001MA1999999101131MD1210191+9999MW1851REMSYN072AAXX  02214 01098 41470 73005 11056 21063 30113 40132 52019 78582 87800;
0188010980999992000040300004+70370+031100FM-12+001599999V0202801N001010090019N0550001N1-00591-00651101461ADDAA106000591AY181061AY221061GF108991081081004501999999MA1999999101271MD1210121+9999MW1021REMSYN088AAXX  03004 01098 11485 82802 11059 21065 30127 40146 52012 69961 70282 888// 333 91109;
0161010980999992000040303004+70370+031100FM-12+001599999V0202501N000512200019N0750001N1-00761-00801101551ADDAY101031AY201031GF102991011081004501001061MA1999999101361MD1210111+9999MW1011REMSYN072AAXX  03034 01098 41489 22501 11076 21080 30136 40155 52011 70100 81806;
0255010980999992000040306004+70370+031100FM-12+001599999V0202501N003112200019N0750001N1-00651-00731101571ADDAA112000591AJ199991999999999AY101061AY201061GF101991011081004501001001IA1299KA1120N-00901MA1999999101381MD1210021+9999MW1021REMSYN100AAXX  03064 01098 11489 12506 11065 21073 30138 40157 52002 69962 70200 81800 333 21090 49999 91108;EQDQ01  09962SNDP  
0161010980999992000040309004+70370+031100FM-12+001599999V0202601N004112200019N0300001N1-00571-00681101641ADDAY181031AY231031GF103991021081004501041001MA1999999101451MD1210071+9999MW1151REMSYN072AAXX  03094 01098 41480 32608 11057 21068 30145 40164 52007 71583 82840;
0188010980999992000040312004+70370+031100FM-12+001599999V0202801N003112200019N0300001N1-00501-00561101771ADDAA106001091AY181061AY231061GF104991041081004501041001MA1999999101581MD1210131+9999MW1151REMSYN088AAXX  03124 01098 11480 42806 11050 21056 30158 40177 52013 60011 71583 84840 333 91109;
0161010980999992000040315004+70370+031100FM-12+001599999V0203001N002110090019N0300001N1-00431-00501101801ADDAY181031AY221031GF105991051081004501001001MA1999999101611MD1210031+9999MW1261REMSYN072AAXX  03154 01098 41480 53004 11043 21050 30161 40180 52003 72682 85800;
0207010980999992000040318004+70370+031100FM-12+001599999V0202701N001512200019N0750001N1-00631-00691101821ADDAA112001091AY181061AY221061GF102991021081004501001001KA1120M-00391MA1999999101631MD1210021+9999MW1021REMSYN094AAXX  03184 01098 11489 22703 11063 21069 30163 40182 52002 60012 70282 82800 333 11039 91108;
0161010980999992000040321004+70370+031100FM-12+001599999V0202601N001512200019N0750001N1-00681-00771101861ADDAY101031AY201031GF102991021081004501001001MA1999999101671MD1210041+9999MW1021REMSYN072AAXX  03214 01098 41489 22603 11068 21077 30167 40186 52004 70200 82800;
0182010980999992000040400004+70370+031100FM-12+001599999V0202401N001512200019N0750001N1-00651-00771101871ADDAA199000021AY101061AY201061GF102991021081004501001001MA1999999101681MD1210011+9999MW1021REMSYN082AAXX  04004 01098 31489 22403 11065 21077 30168 40187 52001 70200 82800 333 91105;
0161010980999992000040403004+70370+031100FM-12+001599999V0203101N000512200019N0750001N1-00781-00861101791ADDAY101031AY201031GF102991021081004501001001MA1999999101601MD1710081+9999MW1021REMSYN072AAXX  04034 01098 41489 23101 11078 21086 30160 40179 57008 70200 82800;
0265010980999992000040406004+70370+031100FM-12+001599999V0202401N001010240019N0750001N1-00501-00541101741ADDAA199000091AJ199991999999999AY121061AY221061GF107991011081004501021001IA1299KA1120N-00851MA1999999101551MD1710051+9999MW1031REMSYN094AAXX  04064 01098 31489 72402 11050 21054 30155 40174 57005 70322 81820 333 21085 49999 91104;EQDQ01  00002PRCP99Q02  09962SNDP  
0161010980999992000040409004+70370+031100FM-12+001599999V0201401N002110600019N0750001N1-00251-00701101661ADDAY121031AY221031GF108991011011004501001081MA1999999101471MD1710081+9999MW1021REMSYN072AAXX  04094 01098 41489 81404 11025 21070 30147 40166 57008 70222 81108;
0201010980999992000040412004+70370+031100FM-12+001599999V0201401N003110240019N0750001N1-00211-00961101511ADDAA199000091AY121061AY221061GF108991011071004501011999MA1999999101321MD1710151+9999MW1031REMSYN082AAXX  04124 01098 31489 81406 11021 21096 30132 40151 57015 70322 8171/ 333 91109;EQDQ01  00002PRCP99
0161010980999992000040415004+70370+031100FM-12+001599999V0201201N003110042019N0750001N1-00221-00771101151ADDAY121031AY221031GF108991081071004501999999MA1999999100961MD1710361+9999MW1031REMSYN072AAXX  04154 01098 41489 81206 11022 21077 30096 40115 57036 70322 887//;
0207010980999992000040418004+70370+031100FM-12+001599999V0201301N004110021019N0010001N1-00361-00411100841ADDAA112001091AY171061AY231061GF108991081071002501999999KA1120M-00181MA1999999100651MD1710311+9999MW1731REMSYN094AAXX  04184 01098 11310 81308 11036 21041 30065 40084 57031 60012 77373 887// 333 11018 91113;
0161010980999992000040421004+70370+031100FM-12+001599999V0201401N004110240019N0030001N1-00271-00321100441ADDAY171031AY231031GF108991041071002501021999MA1999999100251MD1710401+9999MW1731REMSYN072AAXX  04214 01098 41330 81408 11027 21032 30025 40044 57040 77373 8472/;
0188010980999992000040500004+70370+031100FM-12+001599999V0201601N003110240019N0030001N1-00141-00211100241ADDAA106005191AY171061AY231061GF108991031071002501021999MA1999999100051MD1710201+9999MW1731REMSYN088AAXX  05004 01098 11330 81606 11014 21021 30005 40024 57020 60051 77373 8372/ 333 91114;
0161010980999992000040503004+70370+031100FM-12+001599999V0201701N003110021019N0100001N1-00081-00151099991ADDAY171031AY271031GF108991061071002501021999MA1999999099801MD1710251+9999MW1711REMSYN072AAXX  05034 01098 41360 81706 11008 21015 39980 49999 57025 77177 8672/;
0255010980999992000040506004+70370+031100FM-12+001599999V0201801N003610240019N0050001N1+00001-00071099891ADDAA112006191AJ199991999999999AY171061AY271061GF108991021071002501021999IA1299KA1120N-00401MA1999999099711MD1710101+9999MW1711REMSYN100AAXX  05064 01098 11350 81807 10000 21007 39971 49989 57010 60062 77177 8272/ 333 21040 49999 91109;EQDQ01  09962SNDP  
0161010980999992000040509004+70370+031100FM-12+001599999V0201601N003610021019N0010001N1+00001-00071099731ADDAY171031AY221031GF108991071071002501021999MA1999999099551MD1710161+9999MW1711REMSYN072AAXX  05094 01098 41310 81607 10000 21007 39955 49973 57016 77172 8772/;
0188010980999992000040512004+70370+031100FM-12+001599999V0201601N003610021019N0030001N1+00081+00021099531ADDAA106002091AY171061AY221061GF108991061071002501021999MA1999999099351MD1710201+9999MW1681REMSYN088AAXX  05124 01098 11330 81607 10008 20002 39935 49953 57020 60021 76872 8672/ 333 91110;
0161010980999992000040515004+70370+031100FM-12+001599999V0201601N003610021019N0030001N1+00061+00001099331ADDAY171031AY221031GF108991071071002501021999MA1999999099161MD1710201+9999MW1681REMSYN072AAXX  05154 01098 41330 81607 10006 20000 39916 49933 57020 76872 8772/;
0207010980999992000040518004+70370+031100FM-12+001599999V0201601N002610021019N0050001N1+00061+00001099141ADDAA112003091AY171061AY221061GF108991071071002501021999KA1120M+00101MA1999999098971MD1710191+9999MW1681REMSYN094AAXX  05184 01098 11350 81605 10006 20000 39897 49914 57019 60032 76872 8772/ 333 10010 91110;
0161010980999992000040521004+70370+031100FM-12+001599999V0201801N002110021019N0200001N1+00061+00001098961ADDAY171031AY221031GF108991071071002501021999MA1999999098791MD1710181+9999MW1021REMSYN072AAXX  05214 01098 41370 81804 10006 20000 39879 49896 57018 70272 8772/;
0188010980999992000040600004+70370+031100FM-12+001599999V0201601N000510021019N0200001N1+00041-00021098821ADDAA106000791AY171061AY221061GF108991071071002501021999MA1999999098641MD1710141+9999MW1021REMSYN088AAXX  06004 01098 11370 81601 10004 21002 39864 49882 57014 69901 70272 8772/ 333 91104;
0161010980999992000040603004+70370+031100FM-12+001599999V0201601N000510021019N0300001N1+00011-00051098761ADDAY121031AY221031GF108991081071002501999999MA1999999098581MD1710061+9999MW1021REMSYN072AAXX  06034 01098 41380 81601 10001 21005 39858 49876 57006 70222 887//;
0255010980999992000040606004+70370+031100FM-12+001599999V0209999C000010021019N0100001N1+00051-00011098761ADDAA101000391AJ199991999999999AY171061AY221061GF108991081071002501999999IA1299KA1120N+00011MA1999999098581MD1410001+9999MW1831REMSYN100AAXX  06064 01098 11360 80000 10005 21001 39858 49876 54000 69935 78372 887// 333 20001 49999 91108;EQDQ01  09962SNDP  
0161010980999992000040609004+70370+031100FM-12+001599999V0200801N001510021019N0030001N1+00101+00041098701ADDAY181031AY271031GF108991071071002501021999MA1999999098521MD1810061+9999MW1681REMSYN072AAXX  06094 01098 41330 80803 10010 20004 39852 49870 58006 76887 8772/;
0188010980999992000040612004+70370+031100FM-12+001599999V0202301N005110021019N0030001N1-00061-00231098641ADDAA106000591AY181061AY271061GF108991071071002501021999MA1999999098461MD1710061+9999MW1701REMSYN088AAXX  06124 01098 11330 82310 11006 21023 39846 49864 57006 69941 77087 8772/ 333 91112;
0171010980999992000040615004+70370+031100FM-12+001599999V0202401N005110003019N0002001N1-00321-00371098511ADDAY171031AY221031GA1091+999999999GF109991091999999999999999MA1999999098331MD1810131+9999MW1751REMSYN066AAXX  06154 01098 41/02 92410 11032 21037 39833 49851 58013 77572;
0207010980999992000040618004+70370+031100FM-12+001599999V0203601N004110012019N0007001N1+00091+00061098511ADDAA112003091AY171061AY261061GF108991081061001501999999KA1120M+00091MA1999999098331MD1410001+9999MW1631REMSYN094AAXX  06184 01098 11207 83608 10009 20006 39833 49851 54000 60032 76376 886// 333 10009 91113;
0161010980999992000040621004+70370+031100FM-12+001599999V0203501N006710012019N0015001N1-00021-00081098821ADDAY171031AY261031GF108991081061001501999999MA1999999098641MD1310311+9999MW1691REMSYN072AAXX  06214 01098 41215 83513 11002 21008 39864 49882 53031 76976 886//;
0188010980999992000040700004+70370+031100FM-12+001599999V0203501N008210012019N0015001N1-00081-00111099351ADDAA106001091AY171061AY261061GF108991081061001501999999MA1999999099161MD1210531+9999MW1391REMSYN088AAXX  07004 01098 11215 83516 11008 21011 39916 49935 52053 60011 73976 886// 333 91126;
0196010980999992000040703004+70370+031100FM-12+001599999V0203301N009310042019N0100001N1-00141-00521099972ADDAY171031AY231031GF108991061071004501021999MA1999999099792MD1210621+9999MW1381REMSYN072AAXX  07034 01098 41460 83318 11014 21052 39979 49997 52062 73873 8672/;EQDQ01+099793APOSP Q02+099973APOSLP
0271010980999992000040706004+70370+031100FM-12+001599999V0203501N007210042019N0300001N1-00121-00691100671ADDAA112002091AJ199991999999999AY171061AY231061GF108991061071004501021999IA1299KA1120N-00141MA1999999100481MD1210702+9999MW1381REMSYN100AAXX  07064 01098 11480 83514 11012 21069 30048 40067 52070 60022 73873 8672/ 333 21014 49999 91126;EQDQ01+000702APC3  Q02  09962SNDP  
0161010980999992000040709004+70370+031100FM-12+001599999V0203301N005110060019N0150001N1+00091-00451101131ADDAY181031AY231031GF107991071081002501001001MA1999999100951MD1210471+9999MW1161REMSYN072AAXX  07094 01098 41365 73310 10009 21045 30095 40113 52047 71683 87800;
0188010980999992000040712004+70370+031100FM-12+001599999V0202501N003610060019N0550001N1+00091-00201101391ADDAA106000791AY181061AY231061GF107991071081002501001001MA1999999101211MD1110261+9999MW1021REMSYN088AAXX  07124 01098 11385 72507 10009 21020 30121 40139 51026 69901 70283 87800 333 91120;
0161010980999992000040715004+70370+031100FM-12+001599999V0202901N003110090019N0600001N1+00171-00041101631ADDAY121031AY221031GF107991071081004501001001MA1999999101451MD1110241+9999MW1021REMSYN072AAXX  07154 01098 41486 72906 10017 21004 30145 40163 51024 70222 87800;
0207010980999992000040718004+70370+031100FM-12+001599999V0202901N003110090019N0030001N1+00121+00021101811ADDAA112000191AY121061AY221061GF108991081081004501999999KA1120M+00181MA1999999101631MD1710181+9999MW1851REMSYN094AAXX  07184 01098 11430 82906 10012 20002 30163 40181 57018 69912 78522 888// 333 10018 91112;
0161010980999992000040721004+70370+031100FM-12+001599999V0203001N002110042019N0750001N1+00021-00151101911ADDAY111031AY201031GF106991061031004501001001MA1999999101731MD1110101+9999MW1011REMSYN072AAXX  07214 01098 41489 63004 10002 21015 30173 40191 51010 70110 86300;
0182010980999992000040800004+70370+031100FM-12+001599999V0202501N004612200019N0750001N1+00031-00271102021ADDAA199000021AY111061AY201061GF103991031011008001001001MA1999999101841MD1210111+9999MW1011REMSYN082AAXX  08004 01098 31589 32509 10003 21027 30184 40202 52011 70110 83100 333 91114;
0161010980999992000040803004+70370+031100FM-12+001599999V0202201N002610600019N0750001N1-00081-00411102031ADDAY121031AY211031GF107991011011004501001061MA1999999101841MD1110011+9999MW1031REMSYN072AAXX  08034 01098 41489 72205 11008 21041 30184 40203 51001 70321 81106;
0249010980999992000040806004+70370+031100FM-12+001599999V0202501N001010021019N0750001N1-00081-00411101911ADDAA199000021AJ199991999999999AY121061AY221061GF108991081051002501999999IA1299KA1120N-00161MA1999999101721MD1810121+9999MW1031REMSYN094AAXX  08064 01098 31389 82502 11008 21041 30172 40191 58012 70322 885// 333 21016 49999 91111;EQDQ01  09962SNDP  
0161010980999992000040809004+70370+031100FM-12+001599999V0202201N006710090019N0750001N1-00021-00361101751ADDAY121031AY221031GF107991051081004501041001MA1999999101561MD1710161+9999MW1021REMSYN072AAXX  08094 01098 41489 72213 11002 21036 30156 40175 57016 70222 85840;
0188010980999992000040812004+70370+031100FM-12+001599999V0202301N006210090019N0600001N1+00081-00311101741ADDAA106000191AY121061AY221061GF107991051081004501041001MA1999999101561MD1510001+9999MW1801REMSYN088AAXX  08124 01098 11486 72312 10008 21031 30156 40174 55000 69911 78022 85840 333 91117;
0161010980999992000040815004+70370+031100FM-12+001599999V0202301N004110240019N0600001N1+00141-00241101771ADDAY181031AY221031GF106991041081004501041001MA1999999101591MD1210031+9999MW1011REMSYN072AAXX  08154 01098 41486 62308 10014 21024 30159 40177 52003 70182 84840;
0207010980999992000040818004+70370+031100FM-12+001599999V0202401N005712200019N0750001N1+00151-00261101691ADDAA112000191AY181061AY221061GF104991021051004501041001KA1120M+00151MA1999999101511MD1810081+9999MW1011REMSYN094AAXX  08184 01098 11489 42411 10015 21026 30151 40169 58008 69912 70182 82540 333 10015 91115;
0161010980999992000040821004+70370+031100FM-12+001599999V0202201N004612200019N0750001N1+00001-00331101581ADDAY121031AY211031GF104991021051004501041001MA1999999101401MD1710111+9999MW1021REMSYN072AAXX  08214 01098 41489 42209 10000 21033 30140 40158 57011 70221 82540;
0182010980999992000040900004+70370+031100FM-12+001599999V0202201N005710240019N0750001N1+00131-00321101381ADDAA199000021AY121061AY211061GF105991031051004501041001MA1999999101201MD1610201+9999MW1021REMSYN082AAXX  09004 01098 31489 52211 10013 21032 30120 40138 56020 70221 83540 333 91116;
0161010980999992000040903004+70370+031100FM-12+001599999V0202201N007710240019N0750001N1+00081-00311100911ADDAY121031AY221031GF107991041051004501041001MA1999999100731MD1810471+9999MW1031REMSYN072AAXX  09034 01098 41489 72215 10008 21031 30073 40091 58047 70322 84540;
0265010980999992000040906004+70370+031100FM-12+001599999V0202201N007710042019N0750001N1+00051-00311100711ADDAA199000091AJ199991999999999AY121061AY221061GF107991051051004501041001IA1299KA1120N+00031MA1999999100531MD1710201+9999MW1021REMSYN094AAXX  09064 01098 31489 72215 10005 21031 30053 40071 57020 70222 85540 333 20003 49999 91121;EQDQ01  00002PRCP99Q02  09962SNDP  
0161010980999992000040909004+70370+031100FM-12+001599999V0202301N007710042019N0750001N1+00101-00151100571ADDAY121031AY221031GF107991061051004501041001MA1999999100391MD1710141+9999MW1021REMSYN072AAXX  09094 01098 41489 72315 10010 21015 30039 40057 57014 70222 86540;
0201010980999992000040912004+70370+031100FM-12+001599999V0202101N006710042019N0750001N1+00201-00091100461ADDAA199000091AY121061AY221061GF107991061051004501041001MA1999999100281MD1710111+9999MW1021REMSYN082AAXX  09124 01098 31489 72113 10020 21009 30028 40046 57011 70222 86540 333 91119;EQDQ01  00002PRCP99
0161010980999992000040915004+70370+031100FM-12+001599999V0202101N006210042019N0750001N1+00291+00081100231ADDAY121031AY221031GF107991061051004501041001MA1999999100051MD1710231+9999MW1021REMSYN072AAXX  09154 01098 41489 72112 10029 20008 30005 40023 57023 70222 86540;
0220010980999992000040918004+70370+031100FM-12+001599999V0202201N005110042019N0750001N1+00381+00031099931ADDAA199000091AY121061AY221061GF107991051051004501041001KA1120M+00431MA1999999099751MD1710301+9999MW1021REMSYN088AAXX  09184 01098 31489 72210 10038 20003 39975 49993 57030 70222 85540 333 10043 91117;EQDQ01  00002PRCP99
0161010980999992000040921004+70370+031100FM-12+001599999V0202201N005710240019N0550001N1+00271+00141099591ADDAY161031AY221031GF108991041051004501021071MA1999999099411MD1710341+9999MW1601REMSYN072AAXX  09214 01098 41485 82211 10027 20014 39941 49959 57034 76062 84527;
0188010980999992000041000004+70370+031100FM-12+001599999V0202401N005110240019N0600001N1+00201+00141099321ADDAA106000391AY161061AY221061GF108991041071004501021999MA1999999099141MD1710271+9999MW1021REMSYN088AAXX  10004 01098 11486 82410 10020 20014 39914 49932 57027 69931 70262 8472/ 333 91119;
0161010980999992000041003004+70370+031100FM-12+001599999V0203101N003610240019N0600001N1+00201+00131099491ADDAY161031AY221031GF107991041071004501021999MA1999999099311MD1310171+9999MW1601REMSYN072AAXX  10034 01098 41486 73107 10020 20013 39931 49949 53017 76062 8472/;
0255010980999992000041006004+70370+031100FM-12+001599999V0202901N004112200019N0750001N1+00081-00191099781ADDAA112000391AJ199991999999999AY161061AY221061GF103991031031004501001001IA1299KA1120N+00051MA1999999099601MD1210291+9999MW1011REMSYN100AAXX  10064 01098 11489 32908 10008 21019 39960 49978 52029 69932 70162 83300 333 20005 49999 91113;EQDQ01  09962SNDP  
0161010980999992000041009004+70370+031100FM-12+001599999V0202801N005112200019N0750001N1+00021-00421099891ADDAY111031AY201031GF101991011081004501041001MA1999999099711MD1210111+9999MW1021REMSYN072AAXX  10094 01098 41489 12810 10002 21042 39971 49989 52011 70210 81840;
0182010980999992000041012004+70370+031100FM-12+001599999V0202601N004612200019N0750001N1+00051-00341100031ADDAA199000021AY111061AY201061GF101991011081004501041001MA1999999099851MD1210141+9999MW1021REMSYN082AAXX  10124 01098 31489 12609 10005 21034 39985 40003 52014 70210 81840 333 91114;
0161010980999992000041015004+70370+031100FM-12+001599999V0202601N005110090019N0750001N1+00021-00371100071ADDAY121031AY211031GF106991051081004501041001MA1999999099891MD1210041+9999MW1031REMSYN072AAXX  10154 01098 41489 62610 10002 21037 39989 40007 52004 70321 85840;
0220010980999992000041018004+70370+031100FM-12+001599999V0202601N005112200019N0750001N1-00171-00451100161ADDAA199000091AY121061AY211061GF102991011081004501041001KA1120M+00101MA1999999099971MD1210091+9999MW1011REMSYN088AAXX  10184 01098 31489 22610 11017 21045 39997 40016 52009 70121 81840 333 10010 91115;EQDQ01  00002PRCP99
0161010980999992000041021004+70370+031100FM-12+001599999V0202601N004612200019N0750001N1-00351-00581100221ADDAY121031AY221031GF102991011081004501041001MA1999999100031MD1210061+9999MW1021REMSYN072AAXX  10214 01098 41489 22609 11035 21058 30003 40022 52006 70222 81840;
0201010980999992000041100004+70370+031100FM-12+001599999V0202601N005112200019N0750001N1-00421-00591100331ADDAA199000091AY101061AY201061GF102991021081004501001001MA1999999100141MD1210111+9999MW1021REMSYN082AAXX  11004 01098 31489 22610 11042 21059 30014 40033 52011 70200 82800 333 91114;EQDQ01  00002PRCP99
0161010980999992000041103004+70370+031100FM-12+001599999V0202501N004612200019N0750001N1-00531-00731100371ADDAY101031AY201031GF101991011081004501001001MA1999999100181MD1210041+9999MW1021REMSYN072AAXX  11034 01098 41489 12509 11053 21073 30018 40037 52004 70200 81800;
0265010980999992000041106004+70370+031100FM-12+001599999V0202601N005112200019N0750001N1-00271-00551100401ADDAA199000091AJ199991999999999AY101061AY201061GF101991011081004501001001IA1299KA1120N-00551MA1999999100211MD1210031+9999MW1021REMSYN094AAXX  11064 01098 31489 12610 11027 21055 30021 40040 52003 70200 81800 333 21055 49999 91113;EQDQ01  00002PRCP99Q02  09962SNDP  
0161010980999992000041109004+70370+031100FM-12+001599999V0202801N003112200019N0750001N1-00061-00481100641ADDAY101031AY201031GF102991011081004501001041MA1999999100451MD1310241+9999MW1031REMSYN072AAXX  11094 01098 41489 22806 11006 21048 30045 40064 53024 70300 81804;
0201010980999992000041112004+70370+031100FM-12+001599999V0202401N003612200019N0750001N1-00141-00431100661ADDAA199000091AY101061AY201061GF104991031081004501041051MA1999999100471MD1210021+9999MW1021REMSYN082AAXX  11124 01098 31489 42407 11014 21043 30047 40066 52002 70200 83845 333 91112;EQDQ01  00002PRCP99
0161010980999992000041115004+70370+031100FM-12+001599999V0202201N002610090019N0750001N1-00111-00281100801ADDAY121031AY201031GF107991051081004501041001MA1999999100611MD1110141+9999MW1031REMSYN072AAXX  11154 01098 41489 72205 11011 21028 30061 40080 51014 70320 85840;
0220010980999992000041118004+70370+031100FM-12+001599999V0202101N000510090019N0750001N1-00091-00411100851ADDAA199000091AY121061AY201061GF107991071081004501001001KA1120M-00061MA1999999100661MD1210051+9999MW1021REMSYN088AAXX  11184 01098 31489 72101 11009 21041 30066 40085 52005 70220 87800 333 11006 91109;EQDQ01  00002PRCP99
0161010980999992000041121004+70370+031100FM-12+001599999V0200301N000510090019N0100001N1-00081-00381100881ADDAY171031AY221031GF108991081081004501999999MA1999999100691MD1210031+9999MW1711REMSYN072AAXX  11214 01098 41460 80301 11008 21038 30069 40088 52003 77172 888//;
0188010980999992000041200004+70370+031100FM-12+001599999V0200901N001510090019N0015001N1-00091-00151100811ADDAA106002091AY171061AY221061GF108991081081004501999999MA1999999100621MD1810071+9999MW1731REMSYN088AAXX  12004 01098 11415 80903 11009 21015 30062 40081 58007 60021 77372 888// 333 91106;
0161010980999992000041203004+70370+031100FM-12+001599999V0200501N002610090019N0030001N1-00021-00061100751ADDAY171031AY221031GF108991051081004501021999MA1999999100561MD1710061+9999MW1711REMSYN072AAXX  12034 01098 41430 80505 11002 21006 30056 40075 57006 77172 8582/;
0255010980999992000041206004+70370+031100FM-12+001599999V0200501N002610060019N0015001N1+00001-00041100761ADDAA112004191AJ199991999999999AY171061AY221061GF108991081081001501999999IA1299KA1120N-00151MA1999999100581MD1310011+9999MW1731REMSYN100AAXX  12064 01098 11215 80505 11000 21004 30058 40076 53001 60042 77372 888// 333 21015 49999 91108;EQDQ01  09962SNDP  
0161010980999992000041209004+70370+031100FM-12+001599999V0200501N003110060019N0080001N1+00031-00031100861ADDAY181031AY271031GF108991081081001501999999MA1999999100681MD1210101+9999MW1831REMSYN072AAXX  12094 01098 41258 80506 10003 21003 30068 40086 52010 78387 888//;
0188010980999992000041212004+70370+031100FM-12+001599999V0200501N002610240019N0300001N1+00081-00191100961ADDAA106000391AY181061AY271061GF106991041081004501071041MA1999999100781MD1210101+9999MW1011REMSYN088AAXX  12124 01098 11480 60505 10008 21019 30078 40096 52010 69931 70187 84874 333 91111;
0161010980999992000041215004+70370+031100FM-12+001599999V0200301N002610240019N0550001N1+00111-00491101011ADDAY121031AY221031GF106991041021004501031041MA1999999100831MD1210051+9999MW1021REMSYN072AAXX  12154 01098 41485 60305 10011 21049 30083 40101 52005 70222 84234;
0220010980999992000041218004+70370+031100FM-12+001599999V0200101N002610240019N0550001N1+00081-00191101061ADDAA112000391AY121061AY221061GF107991041081004501031041KA1120M+00151MA1999999100881MD1210051+9999REMSYN094AAXX  12184 01098 11485 70105 10008 21019 30088 40106 52005 69932 77822 84834 333 10015 91108;EQDQ01+000782PRSWM1
0161010980999992000041221004+70370+031100FM-12+001599999V0200401N002112200019N0750001N1+00011-00471101131ADDAY121031AY211031GF103991021081004501031001MA1999999100951MD1210071+9999MW1011REMSYN072AAXX  12214 01098 41489 30404 10001 21047 30095 40113 52007 70121 82830;
0201010980999992000041300004+70370+031100FM-12+001599999V0200501N002112200019N0750001N1-00081-00321101161ADDAA199000091AY121061AY211061GF103991031081004501041001MA1999999100971MD1210031+9999MW1021REMSYN082AAXX  13004 01098 31489 30504 11008 21032 30097 40116 52003 70221 83840 333 91108;EQDQ01  00002PRCP99
0161010980999992000041303004+70370+031100FM-12+001599999V0203601N001512200019N0750001N1-00121-00651101151ADDAY121031AY211031GF104991021011004501051091MA1999999100961MD1810011+9999MW1021REMSYN072AAXX  13034 01098 41489 43603 11012 21065 30096 40115 58001 70221 82159;
0265010980999992000041306004+70370+031100FM-12+001599999V0200101N001012200019N0750001N1+00001-00521101151ADDAA199000091AJ199991999999999AY121061AY211061GF104991021081004501051001IA1299KA1120N-00181MA1999999100961MD1410001+9999MW1021REMSYN094AAXX  13064 01098 31489 40102 11000 21052 30096 40115 54000 70221 82850 333 21018 49999 91106;EQDQ01  00002PRCP99Q02  09962SNDP  
0161010980999992000041309004+70370+031100FM-12+001599999V0203101N002112200019N0750001N1-00101-00341101131ADDAY111031AY201031GF103991021081004501001081MA1999999100941MD1710021+9999MW1021REMSYN072AAXX  13094 01098 41489 33104 11010 21034 30094 40113 57002 70210 82808;
0188010980999992000041312004+70370+031100FM-12+001599999V0203401N001012200019N0300001N1-00081-00251101111ADDAA106000391AY181061AY211061GF103991021031004501001081MA1999999100921MD1710021+9999MW1151REMSYN088AAXX  13124 01098 11480 33402 11008 21025 30092 40111 57002 69931 71581 82308 333 91106;
0161010980999992000041315004+70370+031100FM-12+001599999V0200601N001510042019N0750001N1-00081-00281101021ADDAY181031AY221031GF106991061031004501001001MA1999999100831MD1810091+9999MW1271REMSYN072AAXX  13154 01098 41489 60603 11008 21028 30083 40102 58009 72782 86300;
0207010980999992000041318004+70370+031100FM-12+001599999V0200801N001010042019N0750001N1-00121-00451100961ADDAA112000591AY181061AY221061GF105991051031004501001001KA1120M+00071MA1999999100771MD1710061+9999MW1021REMSYN094AAXX  13184 01098 11489 50802 11012 21045 30077 40096 57006 69942 70282 85300 333 10007 91106;
0161010980999992000041321004+70370+031100FM-12+001599999V0201101N000510090019N0750001N1-00101-00381100911ADDAY181031AY221031GF106991061081004501001001MA1999999100721MD1710051+9999MW1021REMSYN072AAXX  13214 01098 41489 61101 11010 21038 30072 40091 57005 70282 86800;
0188010980999992000041400004+70370+031100FM-12+001599999V0202401N000510090019N0550001N1-00171-00241100821ADDAA106001091AY181061AY221061GF106991061081004501001001MA1999999100631MD1710091+9999MW1021REMSYN088AAXX  14004 01098 11485 62401 11017 21024 30063 40082 57009 60011 70282 86800 333 91105;
0161010980999992000041403004+70370+031100FM-12+001599999V0201501N002110090019N0550001N1-00091-00161100701ADDAY121031AY221031GF108991081081004501999999MA1999999100511MD1710121+9999MW1021REMSYN072AAXX  14034 01098 41485 81504 11009 21016 30051 40070 57012 70222 888//;
0255010980999992000041406004+70370+031100FM-12+001599999V0201201N003110060019N0100001N1-00091-00161100591ADDAA112002091AJ199991999999999AY171061AY221061GF108991081081002501999999IA1299KA1120N-00201MA1999999100401MD1710111+9999MW1701REMSYN100AAXX  14064 01098 11360 81206 11009 21016 30040 40059 57011 60022 77072 888// 333 21020 49999 91110;EQDQ01  09962SNDP  
0161010980999992000041409004+70370+031100FM-12+001599999V0201201N003610021019N0008001N1-00091-00131100451ADDAY171031AY221031GF108991071071002501021999MA1999999100261MD1710141+9999MW1731REMSYN072AAXX  14094 01098 41308 81207 11009 21013 30026 40045 57014 77372 8772/;
0161010980999992000041415004+70370+031100FM-12+001599999V0201401N002610021019N0035001N1+00021-00021100281ADDAY171031AY221031GF108991071071002501021999MA1999999100091MD1710081+9999MW1731REMSYN072AAXX  14154 01098 41335 81405 10002 21002 30009 40028 57008 77372 8772/;
0207010980999992000041418004+70370+031100FM-12+001599999V0201401N002610021019N0050001N1+00021-00021100221ADDAA112004191AY171061AY221061GF108991071071002501021999KA1120M+00061MA1999999100041MD1710061+9999MW1731REMSYN094AAXX  14184 01098 11350 81405 10002 21002 30004 40022 57006 60042 77372 8772/ 333 10006 91108;
0161010980999992000041421004+70370+031100FM-12+001599999V0201401N003110021019N0300001N1+00011-00131100221ADDAY171031AY221031GF108991081071002501999999MA1999999100041MD1410001+9999MW1021REMSYN072AAXX  14214 01098 41380 81406 10001 21013 30004 40022 54000 70272 887//;
0188010980999992000041500004+70370+031100FM-12+001599999V0201401N003110021019N0200001N1+00021-00111100201ADDAA106000191AY171061AY221061GF108991071071002501021999MA1999999100021MD1810021+9999MW1701REMSYN088AAXX  15004 01098 11370 81406 10002 21011 30002 40020 58002 69911 77072 8772/ 333 91110;
0161010980999992000041503004+70370+031100FM-12+001599999V0201201N002610021019N0008001N1+00021-00041100101ADDAY171031AY221031GF108991071071002501021999MA1999999099921MD1810101+9999MW1721REMSYN072AAXX  15034 01098 41308 81205 10002 21004 39992 40010 58010 77272 8772/;
0255010980999992000041506004+70370+031100FM-12+001599999V0201201N002610021019N0040001N1+00021-00041100081ADDAA112002091AJ199991999999999AY171061AY221061GF108991071071002501021999IA1299KA1120N-00041MA1999999099901MD1610021+9999MW1701REMSYN100AAXX  15064 01098 11340 81205 10002 21004 39990 40008 56002 60022 77072 8772/ 333 21004 49999 91110;EQDQ01  09962SNDP  
0161010980999992000041509004+70370+031100FM-12+001599999V0201101N002610012019N0030001N1+00021-00041100081ADDAY171031AY221031GF108991071071001501021999MA1999999099901MD1410001+9999MW1711REMSYN072AAXX  15094 01098 41230 81105 10002 21004 39990 40008 54000 77172 8772/;
0188010980999992000041512004+70370+031100FM-12+001599999V0200901N002110012019N0030001N1+00031-00031100101ADDAA106002091AY171061AY221061GF108991071071001501021999MA1999999099921MD1310021+9999MW1711REMSYN088AAXX  15124 01098 11230 80904 10003 21003 39992 40010 53002 60021 77172 8772/ 333 91108;
0161010980999992000041515004+70370+031100FM-12+001599999V0200901N002110021019N0250001N1+00061+00001100171ADDAY171031AY271031GF108991061071002501021999MA1999999099991MD1210071+9999MW1681REMSYN072AAXX  15154 01098 41375 80904 10006 20000 39999 40017 52007 76877 8672/;
0207010980999992000041518004+70370+031100FM-12+001599999V0201001N001510240019N0023001N1+00021-00041100251ADDAA112003091AY171061AY271061GF108991031071002501021999KA1120M+00071MA1999999100071MD1210081+9999MW1731REMSYN094AAXX  15184 01098 11323 81003 10002 21004 30007 40025 52008 60032 77377 8372/ 333 10007 91108;
0161010980999992000041521004+70370+031100FM-12+001599999V0200901N002110240019N0040001N1+00061+00001100331ADDAY171031AY271031GF108991031071002501021999MA1999999100151MD1210081+9999MW1711REMSYN072AAXX  15214 01098 41340 80904 10006 20000 30015 40033 52008 77177 8372/;
0188010980999992000041600004+70370+031100FM-12+001599999V0201001N002110240019N0040001N1+00051-00011100321ADDAA106002091AY171061AY271061GF108991041071002501021999MA1999999100141MD1710011+9999MW1711REMSYN088AAXX  16004 01098 11340 81004 10005 21001 30014 40032 57001 60021 77177 8472/ 333 91108;
0161010980999992000041603004+70370+031100FM-12+001599999V0201001N002610240019N0030001N1+00041+00001100401ADDAY171031AY271031GF108991041071002501021999MA1999999100221MD1310081+9999MW1711REMSYN072AAXX  16034 01098 41330 81005 10004 21000 30022 40040 53008 77177 8472/;
0207010980999992000041606004+70370+031100FM-12+001599999V0201001N002610240019N0050001N1+00041+00001100501ADDAA112004191AY171061AY271061GF108991031071002501021999KA1120N+00001MA1999999100321MD1210101+9999MW1711REMSYN094AAXX  16064 01098 11350 81005 10004 21000 30032 40050 52010 60042 77177 8372/ 333 21000 91111;
0161010980999992000041609004+70370+031100FM-12+001599999V0201101N002110240019N0250001N1+00101+00031100561ADDAY171031AY271031GF108991041071002501021999MA1999999100381MD1210061+9999MW1711REMSYN072AAXX  16094 01098 41375 81104 10010 20003 30038 40056 52006 77177 8472/;
0188010980999992000041612004+70370+031100FM-12+001599999V0201301N001510021019N0550001N1+00141+00071100641ADDAA106000191AY171061AY221061GF107991051071002501021001MA1999999100461MD1210081+9999MW1021REMSYN088AAXX  16124 01098 11385 71303 10014 20007 30046 40064 52008 69911 70272 85720 333 91108;
0161010980999992000041615004+70370+031100FM-12+001599999V0201201N001512200019N0650001N1+00141+00071100711ADDAY171031AY211031GF103991021071002501051001MA1999999100531MD1210071+9999MW1011REMSYN072AAXX  16154 01098 41387 31203 10014 20007 30053 40071 52007 70171 82750;
0207010980999992000041618004+70370+031100FM-12+001599999V0201801N000510042019N0650001N1+00101+00031100781ADDAA112000191AY171061AY211061GF107991071071004501001001KA1120M+00161MA1999999100601MD1110071+9999MW1031REMSYN094AAXX  16184 01098 11487 71801 10010 20003 30060 40078 51007 69922 70371 87700 333 10016 91105;
0161010980999992000041621004+70370+031100FM-12+001599999V0202201N002112200019N0650001N1-00081-00151100911ADDAY111031AY211031GF103991031071004501001001MA1999999100721MD1210131+9999MW1011REMSYN072AAXX  16214 01098 41487 32204 11008 21015 30072 40091 52013 70111 83700;
0201010980999992000041700004+70370+031100FM-12+001599999V0202201N001012200019N0750001N1-00101-00171101011ADDAA199000091AY111061AY211061GF104991041001017501071001MA1999999100821MD1210101+9999MW1021REMSYN082AAXX  17004 01098 31789 42202 11010 21017 30082 40101 52010 70211 84070 333 91105;EQDQ01  00002PRCP99
0161010980999992000041703004+70370+031100FM-12+001599999V0202101N005110150019N0750001N1+00051-00081100931ADDAY121031AY211031GF107991071001017501011001MA1999999100751MD1810081+9999MW1021REMSYN072AAXX  17034 01098 41789 72110 10005 21008 30075 40093 58008 70221 87010;
0265010980999992000041706004+70370+031100FM-12+001599999V0202201N004610150019N0750001N1+00061-00071100981ADDAA199000091AJ199991999999999AY121061AY221061GF107991071001017501011001IA1289KA1120N-00171MA1999999100801MD1310051+9999MW1021REMSYN094AAXX  17064 01098 31789 72209 10006 21007 30080 40098 53005 70222 87010 333 21017 44999 91113;EQDQ01  00002PRCP99Q02  09962SNDP  
0161010980999992000041709004+70370+031100FM-12+001599999V0202201N005110240019N0550001N1+00091-00101101021ADDAY121031AY221031GF107991011021004501011081MA1999999100841MD1210041+9999MW1021REMSYN072AAXX  17094 01098 41485 72210 10009 21010 30084 40102 52004 70222 81218;
0201010980999992000041712004+70370+031100FM-12+001599999V0201801N001010240019N0550001N1+00221+00011101111ADDAA199000091AY121061AY221061GF107991011011004501071081MA1999999100931MD1210091+9999MW1021REMSYN082AAXX  17124 01098 31485 71802 10022 20001 30093 40111 52009 70222 81178 333 91114;EQDQ01  00002PRCP99
0161010980999992000041715004+70370+031100FM-12+001599999V0201901N002610240019N0750001N1+00251+00121100981ADDAY121031AY221031GF107991011011004501071001MA1999999100801MD1010131+9999MW1021REMSYN072AAXX  17154 01098 41489 71905 10025 20012 30080 40098 50013 70222 81170;
0220010980999992000041718004+70370+031100FM-12+001599999V0201301N002610210019N0750001N1+00211+00031100651ADDAA199000091AY121061AY221061GF108991081001022501071999KA1120M+00321MA1999999100471MD1710331+9999MW1021REMSYN088AAXX  17184 01098 31889 81305 10021 20003 30047 40065 57033 70222 8807/ 333 10032 91107;EQDQ01  00002PRCP99
0161010980999992000041721004+70370+031100FM-12+001599999V0201301N002610042019N0650001N1+00241+00121100281ADDAY121031AY221031GF107991061071004501071001MA1999999100101MD1710371+9999MW1021REMSYN072AAXX  17214 01098 41487 71305 10024 20012 30010 40028 57037 70222 86770;
0188010980999992000041800004+70370+031100FM-12+001599999V0201601N002610240019N0550001N1+00181+00121099871ADDAA106000191AY161061AY221061GF108991031071004501021999MA1999999099691MD1710411+9999MW1601REMSYN088AAXX  18004 01098 11485 81605 10018 20012 39969 49987 57041 69911 76062 8372/ 333 91111;
0161010980999992000041803004+70370+031100FM-12+001599999V0202201N003610042019N0700001N1+00131+00071099811ADDAY161031AY221031GF107991051071004501041001MA1999999099631MD1610061+9999MW1021REMSYN072AAXX  18034 01098 41488 72207 10013 20007 39963 49981 56006 70262 85740;
0255010980999992000041806004+70370+031100FM-12+001599999V0202801N004612200019N0750001N1+00221+00151100021ADDAA112000191AJ199991999999999AY161061AY211061GF102991021081004501001001IA1289KA1120N+00081MA1999999099841MD1310211+9999MW1021REMSYN100AAXX  18064 01098 11489 22809 10022 20015 39984 40002 53021 69912 70261 82800 333 20008 44999 91112;EQDQ01  09962SNDP  
0161010980999992000041809004+70370+031100FM-12+001599999V0202601N003612200019N0750001N1+00261+00101100441ADDAY101031AY201031GF101991011011004501041081MA1999999100261MD1210421+9999MW1021REMSYN072AAXX  18094 01098 41489 12607 10026 20010 30026 40044 52042 70200 81148;
0182010980999992000041812004+70370+031100FM-12+001599999V0202301N003610240019N0750001N1+00261+00141100641ADDAA199000021AY121061AY211061GF106991011041004501041081MA1999999100461MD1210201+9999MW1031REMSYN082AAXX  18124 01098 31489 62307 10026 20014 30046 40064 52020 70321 81448 333 91111;
0161010980999992000041815004+70370+031100FM-12+001599999V0202201N002610042019N0550001N1+00251+00091100671ADDAY121031AY221031GF107991071041004501001001MA1999999100491MD1210031+9999MW1031REMSYN072AAXX  18154 01098 41485 72205 10025 20009 30049 40067 52003 70322 87400;
0220010980999992000041818004+70370+031100FM-12+001599999V0201601N001510042019N0550001N1+00321+00221100591ADDAA199000091AY121061AY221061GF107991071051004501001001KA1120M+00321MA1999999100411MD1810081+9999MW1021REMSYN088AAXX  18184 01098 31485 71603 10032 20022 30041 40059 58008 70222 87500 333 10032 91108;EQDQ01  00002PRCP99
0161010980999992000041821004+70370+031100FM-12+001599999V0202001N003610042019N0550001N1+00321+00221100471ADDAY121031AY221031GF107991071051004501001001MA1999999100291MD1610121+9999MW1021REMSYN072AAXX  18214 01098 41485 72007 10032 20022 30029 40047 56012 70222 87500;
0201010980999992000041900004+70370+031100FM-12+001599999V0202201N003610042019N0300001N1+00291+00221100471ADDAA199000091AY121061AY221061GF108991081071004501999999MA1999999100291MD1510001+9999MW1021REMSYN082AAXX  19004 01098 31480 82207 10029 20022 30029 40047 55000 70222 887// 333 91113;EQDQ01  00002PRCP99
0161010980999992000041903004+70370+031100FM-12+001599999V0202101N002610240019N0550001N1+00251+00181100461ADDAY121031AY221031GF106991031071004501041081MA1999999100281MD1810011+9999MW1011REMSYN072AAXX  19034 01098 41485 62105 10025 20018 30028 40046 58001 70122 83748;
0265010980999992000041906004+70370+031100FM-12+001599999V0202201N003610240019N0550001N1+00281+00211100491ADDAA199000091AJ199991999999999AY121061AY221061GF105991031041004501041001IA1289KA1120N+00231MA1999999100311MD1110031+9999MW1021REMSYN094AAXX  19064 01098 31485 52207 10028 20021 30031 40049 51003 70222 83440 333 20023 44999 91113;EQDQ01  00002PRCP99Q02  09962SNDP  
0161010980999992000041909004+70370+031100FM-12+001599999V0202201N003610240019N0550001N1+00321+00251100571ADDAY121031AY221031GF106991011041004501071011MA1999999100391MD1210081+9999MW1021REMSYN072AAXX  19094 01098 41485 62207 10032 20025 30039 40057 52008 70222 81471;
0201010980999992000041912004+70370+031100FM-12+001599999V0202201N002110240019N0550001N1+00301+00181100651ADDAA199000091AY121061AY221061GF106991011041004501071091MA1999999100471MD1210081+9999MW1021REMSYN082AAXX  19124 01098 31485 62204 10030 20018 30047 40065 52008 70222 81479 333 91110;EQDQ01  00002PRCP99
0161010980999992000041915004+70370+031100FM-12+001599999V0202201N002610240019N0750001N1+00271+00151100681ADDAY121031AY211031GF107991031011004501041081MA1999999100501MD1110031+9999MW1031REMSYN072AAXX  19154 01098 41489 72205 10027 20015 30050 40068 51003 70321 83148;
0220010980999992000041918004+70370+031100FM-12+001599999V0202201N003110042019N0750001N1+00251+00191100631ADDAA199000091AY121061AY211061GF108991081061004501999999KA1120M+00361MA1999999100451MD1810051+9999MW1031REMSYN088AAXX  19184 01098 31489 82206 10025 20019 30045 40063 58005 70321 886// 333 10036 91108;EQDQ01  00002PRCP99
0161010980999992000041921004+70370+031100FM-12+001599999V0203301N002110090019N0600001N1+00101+00031100721ADDAY181031AY221031GF108991081081004501999999MA1999999100541MD1310091+9999MW1831REMSYN072AAXX  19214 01098 41486 83304 10010 20003 30054 40072 53009 78382 888//;
0188010980999992000042000004+70370+031100FM-12+001599999V0202901N003612200019N0750001N1+00101-00061100861ADDAA106001091AY181061AY211061GF104991031051004501051001MA1999999100681MD1210141+9999MW1011REMSYN088AAXX  20004 01098 11489 42907 10010 21006 30068 40086 52014 60011 70181 83550 333 91112;
0161010980999992000042003004+70370+031100FM-12+001599999V0202401N004112200019N0750001N1-00031-00161100881ADDAY101031AY201031GF102991011051004501041001MA1999999100701MD1110021+9999MW1011REMSYN072AAXX  20034 01098 41489 22408 11003 21016 30070 40088 51002 70100 81540;
0255010980999992000042006004+70370+031100FM-12+001599999V0202401N006212200019N0750001N1+00051-00361100841ADDAA112001091AJ199991999999999AY101061AY201061GF102991011011004501001021IA1289KA1120N-00051MA1999999100661MD1810041+9999MW1021REMSYN100AAXX  20064 01098 11489 22412 10005 21036 30066 40084 58004 60012 70200 81102 333 21005 44999 91115;EQDQ01  09962SNDP  
0161010980999992000042009004+70370+031100FM-12+001599999V0202401N006712200019N0750001N1+00131-00211100841ADDAY101031AY201031GF102991011011004501041091MA1999999100661MD1410001+9999MW1021REMSYN072AAXX  20094 01098 41489 22413 10013 21021 30066 40084 54000 70200 81149;
0201010980999992000042012004+70370+031100FM-12+001599999V0202301N003610240019N0750001N1+00161+00001100971ADDAA199000091AY121061AY211061GF106991011041004501041091MA1999999100791MD1310131+9999MW1031REMSYN082AAXX  20124 01098 31489 62307 10016 21000 30079 40097 53013 70321 81449 333 91116;EQDQ01  00002PRCP99
0161010980999992000042015004+70370+031100FM-12+001599999V0202301N002110240019N0750001N1+00171+00041100981ADDAY121031AY221031GF108991021021008001071001MA1999999100801MD1210011+9999MW1021REMSYN072AAXX  20154 01098 41589 82304 10017 20004 30080 40098 52001 70222 82270;
0220010980999992000042018004+70370+031100FM-12+001599999V0202601N002610240019N0750001N1+00141+00011101001ADDAA199000091AY121061AY221061GF106991011021008001071091KA1120M+00171MA1999999100821MD1210021+9999MW1021REMSYN088AAXX  20184 01098 31589 62605 10014 20001 30082 40100 52002 70222 81279 333 10017 91110;EQDQ01  00002PRCP99
0161010980999992000042021004+70370+031100FM-12+001599999V0202901N002612200019N0750001N1+00021-00151101091ADDAY111031AY201031GF103991031011008001001001MA1999999100911MD1310091+9999MW1011REMSYN072AAXX  20214 01098 41589 32905 10002 21015 30091 40109 53009 70110 83100;
0161010980999992000042103004+70370+031100FM-12+001599999V0202701N002612200019N0750001N1-00021-00151101241ADDAY111031AY201031GF103991031071008001001001MA1999999101051MD1210071+9999MW1031REMSYN072AAXX  21034 01098 41589 32705 11002 21015 30105 40124 52007 70310 83700;
0265010980999992000042106004+70370+031100FM-12+001599999V0202801N003110042019N0750001N1+00021-00191101361ADDAA199000091AJ199991999999999AY121061AY211061GF105991051071004501001001IA1229KA1120N-00131MA1999999101181MD1310121+9999MW1031REMSYN094AAXX  21064 01098 31489 52806 10002 21019 30118 40136 53012 70321 85700 333 21013 46999 91112;EQDQ01  00002PRCP99Q02  09962SNDP  
0161010980999992000042109004+70370+031100FM-12+001599999V0202801N003612200019N0750001N1+00101-00141101481ADDAY111031AY201031GF102991011081004501041081MA1999999101301MD1210121+9999MW1021REMSYN072AAXX  21094 01098 41489 22807 10010 21014 30130 40148 52012 70210 81848;
0201010980999992000042112004+70370+031100FM-12+001599999V0203201N000512200019N0750001N1+00221-00311101471ADDAA199000091AY111061AY201061GF102991011081004501041081MA1999999101291MD1710011+9999MW1021REMSYN082AAXX  21124 01098 31489 23201 10022 21031 30129 40147 57001 70210 81848 333 91108;EQDQ01  00002PRCP99
0161010980999992000042115004+70370+031100FM-12+001599999V0202101N002110042019N0750001N1+00141-00071101321ADDAY121031AY211031GF107991051051004501071001MA1999999101141MD1710151+9999MW1031REMSYN072AAXX  21154 01098 41489 72104 10014 21007 30114 40132 57015 70321 85570;
0207010980999992000042118004+70370+031100FM-12+001599999V0201801N003110240019N0045001N1+00131+00011101071ADDAA112000791AY171061AY221061GF108991021071002501021999KA1120M+00251MA1999999100891MD1710251+9999MW1731REMSYN094AAXX  21184 01098 11345 81806 10013 20001 30089 40107 57025 69902 77372 8272/ 333 10025 91109;
0161010980999992000042121004+70370+031100FM-12+001599999V0201401N002610240019N0050001N1+00061+00001100761ADDAY171031AY271031GF108991031071002501021999MA1999999100581MD1710311+9999MW1711REMSYN072AAXX  21214 01098 41350 81405 10006 20000 30058 40076 57031 77177 8372/;
0188010980999992000042200004+70370+031100FM-12+001599999V0203201N00151024001CN0100001N1+00071+00031100601ADDAA106004191AY171061AY271061GF106991021071002501021999MA1999999100421MD1710161+9999MW1701REMSYN088AAXX  22004 01098 11360 63203 10007 20003 30042 40060 57016 60041 77077 8272/ 333 91107;
0161010980999992000042203004+70370+031100FM-12+001599999V0203401N003110240019N0300001N1+00121+00051100581ADDAY121031AY221031GF105991021071004501021001MA1999999100401MD1710021+9999MW1021REMSYN072AAXX  22034 01098 41480 53406 10012 20005 30040 40058 57002 70222 82720;
0207010980999992000042206004+70370+031100FM-12+001599999V0203601N003110240019N0750001N1+00171-00141100621ADDAA112004191AY121061AY221061GF106991031071004501021001KA1120N+00041MA1999999100441MD1310041+9999MW1021REMSYN094AAXX  22064 01098 11489 63606 10017 21014 30044 40062 53004 60042 70222 83720 333 20004 91111;
0161010980999992000042209004+70370+031100FM-12+001599999V0200201N002610240019N0700001N1+00161-00221100601ADDAY121031AY221031GF108991031041004501051999MA1999999100421MD1710021+9999MW1021REMSYN072AAXX  22094 01098 41488 80205 10016 21022 30042 40060 57002 70222 8345/;
0161010980999992000042215004+70370+031100FM-12+001599999V0200301N002610240019N0750001N1+00101-00271100711ADDAY121031AY221031GF108991041051004501021999MA1999999100531MD1210101+9999MW1021REMSYN072AAXX  22154 01098 41489 80305 10010 21027 30053 40071 52010 70222 8452/;
0220010980999992000042218004+70370+031100FM-12+001599999V0200201N002110240019N0750001N1+00061-00481100791ADDAA199000091AY121061AY221061GF108991031051004501021999KA1120M+00221MA1999999100611MD1210081+9999MW1021REMSYN088AAXX  22184 01098 31489 80204 10006 21048 30061 40079 52008 70222 8352/ 333 10022 91109;EQDQ01  00002PRCP99
0161010980999992000042221004+70370+031100FM-12+001599999V0203601N002610240019N0750001N1+00061-00261100881ADDAY171031AY221031GF107991041071004501021001MA1999999100701MD1210091+9999MW1011REMSYN072AAXX  22214 01098 41489 73605 10006 21026 30070 40088 52009 70172 84720;
0188010980999992000042300004+70370+031100FM-12+001599999V0200101N004110240019N0700001N1+00011-00151101071ADDAA106000791AY171061AY221061GF107991021081004501071999MA1999999100891MD1210181+9999MW1021REMSYN088AAXX  23004 01098 11488 70108 10001 21015 30089 40107 52018 69901 70272 8287/ 333 91113;
0161010980999992000042303004+70370+031100FM-12+001599999V0203501N003110240019N0060001N1-00111-00211101331ADDAY181031AY221031GF107991041081004501071999MA1999999101141MD1210261+9999MW1851REMSYN072AAXX  23034 01098 41456 73506 11011 21021 30114 40133 52026 78582 8487/;
0255010980999992000042306004+70370+031100FM-12+001599999V0203501N002612200019N0150001N1-00081-00361101501ADDAA112000591AJ199991999999999AY181061AY211061GF104991031081004501001081IA1289KA1120N-00181MA1999999101311MD1110171+9999MW1151REMSYN100AAXX  23064 01098 11465 43505 11008 21036 30131 40150 51017 69942 71581 83808 333 21018 44999 91111;EQDQ01  09962SNDP  
0161010980999992000042309004+70370+031100FM-12+001599999V0202801N003112200019N0100001N1-00081-00221101721ADDAY181031AY211031GF104991031081002501001061MA1999999101531MD1210221+9999MW1151REMSYN072AAXX  23094 01098 41360 42806 11008 21022 30153 40172 52022 71581 83806;
0188010980999992000042312004+70370+031100FM-12+001599999V0202701N003112200019N0300001N1-00091-00391101841ADDAA106000591AY181061AY211061GF103991021081004501001061MA1999999101651MD1210121+9999MW1011REMSYN088AAXX  23124 01098 11480 32706 11009 21039 30165 40184 52012 69941 70181 82806 333 91109;
0161010980999992000042315004+70370+031100FM-12+001599999V0202501N001010042019N0300001N1-00061-00461101791ADDAY121031AY221031GF107991051051004501081081MA1999999101601MD1810051+9999MW1031REMSYN072AAXX  23154 01098 41480 72502 11006 21046 30160 40179 58005 70322 85588;
0220010980999992000042318004+70370+031100FM-12+001599999V0201201N000510042019N0550001N1-00151-00311101621ADDAA199000091AY121061AY221061GF107991051051004501081081KA1120M+00021MA1999999101431MD1710171+9999MW1021REMSYN088AAXX  23184 01098 31485 71201 11015 21031 30143 40162 57017 70222 85588 333 10002 91107;EQDQ01  00002PRCP99
0161010980999992000042321004+70370+031100FM-12+001599999V0201401N002110042019N0550001N1-00011-00281101411ADDAY121031AY221031GF107991071051004501999999MA1999999101221MD1710211+9999MW1021REMSYN072AAXX  23214 01098 41485 71404 11001 21028 30122 40141 57021 70222 875//;
0188010980999992000042400004+70370+031100FM-12+001599999V0201501N002110060019N0030001N1-00101-00161101101ADDAA106000891AY171061AY221061GF108991051081002501021999MA1999999100911MD1710311+9999MW1721REMSYN088AAXX  24004 01098 11330 81504 11010 21016 30091 40110 57031 69971 77272 8582/ 333 91108;
0161010980999992000042403004+70370+031100FM-12+001599999V0201101N003610060019N0015001N1-00081-00121100641ADDAY171031AY231031GF108991081081002501999999MA1999999100451MD1710461+9999MW1731REMSYN072AAXX  24034 01098 41315 81107 11008 21012 30045 40064 57046 77373 888//;
0255010980999992000042406004+70370+031100FM-12+001599999V0201001N004110060019N0010001N1-00061-00101100301ADDAA112007191AJ199991999999999AY171061AY231061GF108991081081002501999999IA1299KA1120N-00141MA1999999100111MD1710341+9999MW1731REMSYN100AAXX  24064 01098 11310 81008 11006 21010 30011 40030 57034 60072 77373 888// 333 21014 49999 91114;EQDQ01  09962SNDP  
0161010980999992000042409004+70370+031100FM-12+001599999V0200601N003610021019N0030001N1+00021-00061100221ADDAY171031AY231031GF108991061071002501021999MA1999999100041MD1710081+9999MW1701REMSYN072AAXX  24094 01098 41330 80607 10002 21006 30004 40022 57008 77073 8672/;
0161010980999992000042415004+70370+031100FM-12+001599999V0200401N003110090019N0300001N1+00101-00061100941ADDAY181031AY221031GF107991071081004501001001MA1999999100761MD1210371+9999MW1151REMSYN072AAXX  24154 01098 41480 70406 10010 21006 30076 40094 52037 71582 87800;
0207010980999992000042418004+70370+031100FM-12+001599999V0200401N002110090019N0550001N1+00001-00141101251ADDAA112003091AY181061AY221061GF107991071081004501001001KA1120M+00151MA1999999101071MD1210311+9999MW1021REMSYN094AAXX  24184 01098 11485 70404 10000 21014 30107 40125 52031 60032 70282 87800 333 10015 91111;
0161010980999992000042421004+70370+031100FM-12+001599999V0200301N001510090019N0550001N1-00041-00381101421ADDAY121031AY221031GF107991071081004501001001MA1999999101231MD1210161+9999MW1021REMSYN072AAXX  24214 01098 41485 70303 11004 21038 30123 40142 52016 70222 87800;
0201010980999992000042500004+70370+031100FM-12+001599999V0202601N001010090019N0200001N1-00131-00261101581ADDAA199000091AY121061AY221061GF107991071081004501001001MA1999999101391MD1110161+9999MW1021REMSYN082AAXX  25004 01098 31470 72602 11013 21026 30139 40158 51016 70222 87800 333 91106;EQDQ01  00002PRCP99
0161010980999992000042503004+70370+031100FM-12+001599999V0202101N001510090019N0550001N1-00151-00251101621ADDAY181031AY221031GF106991051081004501041001MA1999999101431MD1210041+9999MW1011REMSYN072AAXX  25034 01098 41485 62103 11015 21025 30143 40162 52004 70182 85840;
0255010980999992000042506004+70370+031100FM-12+001599999V0202901N001010240019N0550001N1-00081-00141101631ADDAA112000791AJ199991999999999AY181061AY221061GF106991041081004501041081IA1229KA1120N-00261MA1999999101441MD1210011+9999MW1021REMSYN100AAXX  25064 01098 11485 62902 11008 21014 30144 40163 52001 69902 70282 84848 333 21026 46999 91103;EQDQ01  09962SNDP  
0161010980999992000042509004+70370+031100FM-12+001599999V0202401N000512200019N0550001N1+00011-00151101601ADDAY121031AY221031GF105991011081004501041091MA1999999101421MD1810021+9999MW1021REMSYN072AAXX  25094 01098 41485 52401 10001 21015 30142 40160 58002 70222 81849;
0201010980999992000042512004+70370+031100FM-12+001599999V0200801N000510240019N0550001N1+00091-00151101461ADDAA199000091AY121061AY221061GF107991021081004501041091MA1999999101281MD1810141+9999MW1021REMSYN082AAXX  25124 01098 31485 70801 10009 21015 30128 40146 58014 70222 82849 333 91104;EQDQ01  00002PRCP99
0161010980999992000042515004+70370+031100FM-12+001599999V0201101N002110090019N0550001N1+00021-00081101231ADDAY121031AY221031GF108991081081004501999999MA1999999101051MD1710231+9999MW1021REMSYN072AAXX  25154 01098 41485 81104 10002 21008 30105 40123 57023 70222 888//;
0220010980999992000042518004+70370+031100FM-12+001599999V0201001N001510090019N0550001N1+00101+00001100921ADDAA199000091AY121061AY221061GF108991061081004501021999KA1120M+00141MA1999999100741MD1710311+9999MW1021REMSYN088AAXX  25184 01098 31485 81003 10010 21000 30074 40092 57031 70222 8682/ 333 10014 91107;EQDQ01  00002PRCP99
0161010980999992000042521004+70370+031100FM-12+001599999V0200901N001510042019N0030001N1-00011-00071100641ADDAY171031AY221031GF108991061071004501021999MA1999999100451MD1710291+9999MW1721REMSYN072AAXX  25214 01098 41430 80903 11001 21007 30045 40064 57029 77272 8672/;
0188010980999992000042600004+70370+031100FM-12+001599999V0201101N001510042019N0030001N1-00061-00121100571ADDAA106001091AY171061AY221061GF108991061071004501021999MA1999999100381MD1610071+9999MW1711REMSYN088AAXX  26004 01098 11430 81103 11006 21012 30038 40057 56007 60011 77172 8672/ 333 91107;
0161010980999992000042603004+70370+031100FM-12+001599999V0201101N002110012019N0020001N1-00081-00121100611ADDAY171031AY271031GF108991061071001501021999MA1999999100421MD1210041+9999MW1731REMSYN072AAXX  26034 01098 41220 81104 11008 21012 30042 40061 52004 77377 8672/;
0255010980999992000042606004+70370+031100FM-12+001599999V0201101N001510021019N0040001N1-00011-00051100731ADDAA112003091AJ199991999999999AY171061AY271061GF108991051071002501021999IA1289KA1120N-00101MA1999999100541MD1210121+9999MW1711REMSYN100AAXX  26064 01098 11340 81103 11001 21005 30054 40073 52012 60032 77177 8572/ 333 21010 44999 91107;EQDQ01  09962SNDP  
0161010980999992000042609004+70370+031100FM-12+001599999V0201401N001510012019N0030001N1-00011-00071100971ADDAY171031AY221031GF108991071071001501021999MA1999999100781MD1210241+9999MW1711REMSYN072AAXX  26094 01098 41230 81403 11001 21007 30078 40097 52024 77172 8772/;
0188010980999992000042612004+70370+031100FM-12+001599999V0202001N002110021019N0300001N1+00051-00011101191ADDAA106000591AY171061AY221061GF107991051071002501021001MA1999999101011MD1210221+9999MW1021REMSYN088AAXX  26124 01098 11380 72004 10005 21001 30101 40119 52022 69951 70272 85720 333 91106;
0161010980999992000042615004+70370+031100FM-12+001599999V0202801N003110090019N0040001N1+00021-00041101401ADDAY181031AY221031GF107991071081004501001001MA1999999101221MD1110211+9999MW1851REMSYN072AAXX  26154 01098 41440 72806 10002 21004 30122 40140 51021 78582 87800;
0207010980999992000042618004+70370+031100FM-12+001599999V0203301N003610240019N0550001N1+00061-00311101541ADDAA112000891AY181061AY231061GF105991041081004501041001KA1120M+00101MA1999999101361MD1210141+9999MW1361REMSYN094AAXX  26184 01098 11485 53307 10006 21031 30136 40154 52014 69982 73683 84840 333 10010 91111;
0161010980999992000042621004+70370+031100FM-12+001599999V0202801N002612200019N0750001N1-00241-00411101681ADDAY131031AY211031GF102991011081004501071001MA1999999101491MD1210141+9999MW1011REMSYN072AAXX  26214 01098 41489 22805 11024 21041 30149 40168 52014 70131 81870;
0182010980999992000042700004+70370+031100FM-12+001599999V0202701N003112200019N0550001N1-00221-00351101771ADDAA199000021AY111061AY201061GF103991011081004501071001MA1999999101581MD1210091+9999MW1031REMSYN082AAXX  27004 01098 31485 32706 11022 21035 30158 40177 52009 70310 81870 333 91110;
0161010980999992000042703004+70370+031100FM-12+001599999V0202901N004612200019N0550001N1-00121-00221101841ADDAY111031AY201031GF103991011081004501071001MA1999999101651MD1210071+9999MW1021REMSYN072AAXX  27034 01098 41485 32909 11012 21022 30165 40184 52007 70210 81870;
0265010980999992000042706004+70370+031100FM-12+001599999V0202901N004612200019N0550001N1-00021-00121101991ADDAA199000091AJ199991999999999AY111061AY201061GF103991011081004501071001IA1289KA1120N-00331MA1999999101801MD1210151+9999MW1021REMSYN094AAXX  27064 01098 31485 32909 11002 21012 30180 40199 52015 70210 81870 333 21033 44999 91111;EQDQ01  00002PRCP99Q02  09962SNDP  
0161010980999992000042709004+70370+031100FM-12+001599999V0202801N004110240019N0550001N1+00101-00051102161ADDAY121031AY211031GF106991011081004501071081MA1999999101981MD1210181+9999MW1021REMSYN072AAXX  27094 01098 41485 62808 10010 21005 30198 40216 52018 70221 81878;
0201010980999992000042712004+70370+031100FM-12+001599999V0201801N003612200019N0045001N1+00171-00021102291ADDAA199000091AY121061AY211061GF103991011081022501071081MA1999999102111MD1210131+9999MW1011REMSYN082AAXX  27124 01098 31845 31807 10017 21002 30211 40229 52013 70121 81878 333 91111;EQDQ01  00002PRCP99
0161010980999992000042715004+70370+031100FM-12+001599999V0202701N005112200019N0750001N1+00101-00061102291ADDAY121031AY211031GF104991021031004501041081MA1999999102111MD1010001+9999MW1021REMSYN072AAXX  27154 01098 41489 42710 10010 21006 30211 40229 50000 70221 82348;
0220010980999992000042718004+70370+031100FM-12+001599999V0202401N003112200019N0750001N1-00061-00191102341ADDAA199000091AY121061AY211061GF104991011041004501071081KA1120M+00191MA1999999102151MD1210051+9999MW1021REMSYN088AAXX  27184 01098 31489 42406 11006 21019 30215 40234 52005 70221 81478 333 10019 91112;EQDQ01  00002PRCP99
0161010980999992000042721004+70370+031100FM-12+001599999V0202501N003612200019N0750001N1-00111-00281102361ADDAY101031AY201031GF103991021041004501041001MA1999999102171MD1210021+9999MW1011REMSYN072AAXX  27214 01098 41489 32507 11011 21028 30217 40236 52002 70100 82440;
0201010980999992000042800004+70370+031100FM-12+001599999V0202701N004612200019N0750001N1-00091-00281102241ADDAA199000091AY101061AY201061GF102991011041004501041081MA1999999102051MD1810121+9999MW1011REMSYN082AAXX  28004 01098 31489 22709 11009 21028 30205 40224 58012 70100 81448 333 91112;EQDQ01  00002PRCP99
0161010980999992000042803004+70370+031100FM-12+001599999V0202401N004112200019N0750001N1-00091-00361102171ADDAY121031AY201031GF105991021001022501041081MA1999999101981MD1810071+9999MW1031REMSYN072AAXX  28034 01098 41889 52408 11009 21036 30198 40217 58007 70320 82048;
0265010980999992000042806004+70370+031100FM-12+001599999V0202401N004610240019N0750001N1-00031-00191102061ADDAA199000091AJ199991999999999AY121061AY201061GF107991021051004501041081IA1309KA1120N-00351MA1999999101871MD1710111+9999MW1031REMSYN094AAXX  28064 01098 31489 72409 11003 21019 30187 40206 57011 70320 82548 333 21035 42999 91112;EQDQ01  00002PRCP99Q02  09962SNDP  
0161010980999992000042809004+70370+031100FM-12+001599999V0202801N005710240019N0750001N1+00221+00091102001ADDAY121031AY221031GF107991031081004501071081MA1999999101821MD1610051+9999MW1021REMSYN072AAXX  28094 01098 41489 72811 10022 20009 30182 40200 56005 70222 83878;
0197010980999992000042812004+70370+031100FM-12+001599999V0202901N005710240019N0750001N1+00231+00131102081ADDAA199000091AY121061AY221061GF105991041081004501071091MA1999999101901MD1310081+9999MW1011REMSYN078AAXX  28124 01098 31489 52911 10023 20013 30190 40208 53008 70122 84879 91135;EQDQ01  00002PRCP99
0161010980999992000042815004+70370+031100FM-12+001599999V0203101N004119999999N0550001N1+00211+00141102151ADDAY121031AY221031GF108991081999004501999999MA1999999101971MD1210071+9999MW1031REMSYN072AAXX  28154 01098 41485 83108 10021 20014 30197 40215 52007 70322 88///;
0207010980999992000042818004+70370+031100FM-12+001599999V0202701N004610012019N0300001N1+00211+00111102051ADDAA112000791AY161061AY221061GF108991081061001501999999KA1120M+00261MA1999999101871MD1810101+9999MW1601REMSYN094AAXX  28184 01098 11280 82709 10021 20011 30187 40205 58010 69902 76062 886// 333 10026 91113;
0161010980999992000042821004+70370+031100FM-12+001599999V0202801N004110240019N0700001N1+00211+00111101851ADDAY161031AY221031GF108991031071004501021999MA1999999101671MD1710201+9999MW1021REMSYN072AAXX  28214 01098 41488 82808 10021 20011 30167 40185 57020 70262 8372/;
0188010980999992000042900004+70370+031100FM-12+001599999V0202701N005110042019N0700001N1+00181+00081101651ADDAA106000791AY161061AY221061GF108991081001004501021999MA1999999101471MD1710201+9999MW1021REMSYN088AAXX  29004 01098 11488 82710 10018 20008 30147 40165 57020 69901 70262 8802/ 333 91114;
0161010980999992000042903004+70370+031100FM-12+001599999V0202901N005710042019N0700001N1+00221+00121101371ADDAY121031AY221031GF107991051071004501071001MA1999999101191MD1710281+9999MW1021REMSYN072AAXX  29034 01098 41488 72911 10022 20012 30119 40137 57028 70222 85770;
0255010980999992000042906004+70370+031100FM-12+001599999V0200401N003610090019N0045001N1-00031-00091101851ADDAA106000891AJ199991999999999AY181061AY221061GF108991081081004501999999IA1309KA1120N-00071MA1999999101661MD1310481+9999MW1851REMSYN100AAXX  29064 01098 11445 80407 11003 21009 30166 40185 53048 69981 78582 888// 333 21007 42999 91116;EQDQ01  09962SNDP  
0161010980999992000042909004+70370+031100FM-12+001599999V0200201N004110090019N0550001N1+00031-00451102221ADDAY181031AY221031GF105991051081004501001001MA1999999102041MD1210371+9999MW1021REMSYN072AAXX  29094 01098 41485 50208 10003 21045 30204 40222 52037 70282 85800;
0188010980999992000042912004+70370+031100FM-12+001599999V0203601N003610090019N0550001N1+00051-00091102491ADDAA106000791AY181061AY221061GF106991061081004501001001MA1999999102311MD1210271+9999MW1021REMSYN088AAXX  29124 01098 11485 63607 10005 21009 30231 40249 52027 69901 70282 86800 333 91113;
0161010980999992000042915004+70370+031100FM-12+001599999V0200201N002610090019N0550001N1+00011-00061102721ADDAY181031AY221031GF106991061081004501001001MA1999999102541MD1210231+9999MW1021REMSYN072AAXX  29154 01098 41485 60205 10001 21006 30254 40272 52023 70282 86800;
0207010980999992000042918004+70370+031100FM-12+001599999V0200101N003610060019N0100001N1-00011-00111102951ADDAA112000391AY181061AY221061GF108991081081002501999999KA1120M+00101MA1999999102751MD1210221+9999MW1701REMSYN094AAXX  29184 01098 11360 80107 11001 21011 30275 40295 52022 69932 77082 888// 333 10010 91113;
0161010980999992000042921004+70370+031100FM-12+001599999V0200101N003610090019N0550001N1-00011-00381103041ADDAY181031AY221031GF108991081081004501999999MA1999999102851MD1210101+9999MW1021REMSYN072AAXX  29214 01098 41485 80107 11001 21038 30285 40304 52010 70282 888//;
0188010980999992000043000004+70370+031100FM-12+001599999V0200201N003110090019N0550001N1-00021-00261103151ADDAA106000191AY181061AY221061GF108991081081004501999999MA1999999102961MD1210111+9999MW1021REMSYN088AAXX  30004 01098 11485 80206 11002 21026 30296 40315 52011 69911 70282 888// 333 91111;
0161010980999992000043003004+70370+031100FM-12+001599999V0203501N003110090019N0550001N1-00081-00401103331ADDAY181031AY221031GF108991081081004501999999MA1999999103141MD1210181+9999MW1261REMSYN072AAXX  30034 01098 41485 83506 11008 21040 30314 40333 52018 72682 888//;
0161010980999992000043009004+70370+031100FM-12+001599999V0200201N002610090019N0550001N1-00051-00161103681ADDAY181031AY221031GF108991081081004501999999MA1999999103491MD1210221+9999MW1701REMSYN072AAXX  30094 01098 41485 80205 11005 21016 30349 40368 52022 77082 888//;
0188010980999992000043012004+70370+031100FM-12+001599999V0200501N001510090019N0750001N1+00031-00151103771ADDAA106000191AY181061AY221061GF108991081081004501999999MA1999999103581MD1110091+9999MW1021REMSYN088AAXX  30124 01098 11489 80503 10003 21015 30358 40377 51009 69911 70282 888// 333 91109;
0161010980999992000043015004+70370+031100FM-12+001599999V0201201N000510042019N0550001N1+00041-00601103821ADDAY121031AY221031GF107991071051004501001001MA1999999103671MD1210091+9999MW1011REMSYN072AAXX  30154 01098 41485 71201 10004 21060 30367 40382 52009 70122 87500;
0207010980999992000043018004+70370+031100FM-12+001599999V0201101N001010042019N0550001N1+00001-00251103851ADDAA112000191AY121061AY221061GF108991081051004501999999KA1120M+00061MA1999999103671MD1410001+9999MW1031REMSYN094AAXX  30184 01098 11485 81102 10000 21025 30367 40385 54000 69912 70322 885// 333 10006 91106;
0161010980999992000043021004+70370+031100FM-12+001599999V0201101N001010042019N0550001N1-00021-00461103901ADDAY121031AY221031GF108991081051004501999999MA1999999103711MD1310041+9999MW1021REMSYN072AAXX  30214 01098 41485 81102 11002 21046 30371 40390 53004 70222 885//;
0201010980999992000050100004+70370+031100FM-12+001599999V0201601N002110042019N0750001N1-00061-00391103831ADDAA199000091AY121061AY221061GF108991081051004501999999MA1999999103641MD1710071+9999MW1021REMSYN082AAXX  01004 01098 31489 81604 11006 21039 30364 40383 57007 70222 885// 333 91107;EQDQ01  00002PRCP99
0161010980999992000050103004+70370+031100FM-12+001599999V0202001N003610042019N0750001N1-00101-00351103781ADDAY121031AY221031GF108991081051004501999999MA1999999103591MD1710051+9999MW1021REMSYN072AAXX  01034 01098 41489 82007 11010 21035 30359 40378 57005 70222 885//;
0265010980999992000050106004+70370+031100FM-12+001599999V0201901N004610240019N0750001N1-00101-00351103661ADDAA199000091AJ199991999999999AY121061AY211061GF105991041021004501061001IA1289KA1120N-00161MA1999999103471MD1710121+9999MW1011REMSYN094AAXX  01064 01098 31489 51909 11010 21035 30347 40366 57012 70121 84260 333 21016 44999 91111;EQDQ01  00002PRCP99Q02  09962SNDP  
0161010980999992000050109004+70370+031100FM-12+001599999V0201901N005112200019N0550001N1-00041-00211103501ADDAY121031AY221031GF103991011021004501041081MA1999999103311MD1710161+9999MW1021REMSYN072AAXX  01094 01098 41485 31910 11004 21021 30331 40350 57016 70222 81248;
0201010980999992000050112004+70370+031100FM-12+001599999V0201901N006210600019N0550001N1+00071-00141103191ADDAA199000091AY121061AY211061GF105991011021004501041081MA1999999103011MD1710311+9999MW1031REMSYN082AAXX  01124 01098 31485 51912 10007 21014 30301 40319 57031 70321 81248 333 91114;EQDQ01  00002PRCP99
0161010980999992000050115004+70370+031100FM-12+001599999V0201901N004610600019N0550001N1+00181-00131102991ADDAY121031AY221031GF105991011021004501011081MA1999999102811MD1710201+9999MW1021REMSYN072AAXX  01154 01098 41485 51909 10018 21013 30281 40299 57020 70222 81218;
0220010980999992000050118004+70370+031100FM-12+001599999V0201901N003112200019N0550001N1+00231-00401102721ADDAA199000091AY121061AY221061GF105991021001022501071081KA1120M+00231MA1999999102541MD1710271+9999MW1021REMSYN088AAXX  01184 01098 31885 51906 10023 21040 30254 40272 57027 70222 82078 333 10023 91114;EQDQ01  00002PRCP99
0161010980999992000050121004+70370+031100FM-12+001599999V0202201N005110240019N0550001N1+00161+00011102451ADDAY121031AY221031GF106991041041008001031001MA1999999102271MD1710271+9999MW1031REMSYN072AAXX  01214 01098 41585 62210 10016 20001 30227 40245 57027 70322 84430;
0201010980999992000050200004+70370+031100FM-12+001599999V0202401N005110075019N0550001N1+00101-00031102211ADDAA199000091AY121061AY221061GF107991051041008001071001MA1999999102031MD1710241+9999MW1031REMSYN082AAXX  02004 01098 31585 72410 10010 21003 30203 40221 57024 70322 85470 333 91114;EQDQ01  00002PRCP99
0161010980999992000050203004+70370+031100FM-12+001599999V0202301N002610042019N0550001N1+00281+00161102151ADDAY121031AY221031GF107991071051004501001001MA1999999101971MD1710061+9999MW1021REMSYN072AAXX  02034 01098 41485 72305 10028 20016 30197 40215 57006 70222 87500;
0265010980999992000050206004+70370+031100FM-12+001599999V0202301N002610042019N0550001N1+00321+00251102081ADDAA199000091AJ199991999999999AY121061AY221061GF107991071051004501001001IA1309KA1120N+00061MA1999999101901MD1710071+9999MW1021REMSYN094AAXX  02064 01098 31485 72305 10032 20025 30190 40208 57007 70222 87500 333 20006 42999 91112;EQDQ01  00002PRCP99Q02  09962SNDP  
0161010980999992000050209004+70370+031100FM-12+001599999V0202201N002610042019N0550001N1+00291+00191102011ADDAY121031AY221031GF107991071051004501001001MA1999999101831MD1710071+9999MW1021REMSYN072AAXX  02094 01098 41485 72205 10029 20019 30183 40201 57007 70222 87500;
0201010980999992000050212004+70370+031100FM-12+001599999V0202401N003610042019N0550001N1+00271+00181101891ADDAA199000091AY121061AY221061GF107991061051004501071001MA1999999101711MD1710121+9999MW1021REMSYN082AAXX  02124 01098 31485 72407 10027 20018 30171 40189 57012 70222 86570 333 91109;EQDQ01  00002PRCP99
0161010980999992000050215004+70370+031100FM-12+001599999V0202401N003119999999N0550001N1+00321+00221101691ADDAY121031AY221031GF106991021001004501071081MA1999999101511MD1710201+9999MW1021REMSYN072AAXX  02154 01098 41485 62406 10032 20022 30151 40169 57020 70222 82078;
0220010980999992000050218004+70370+031100FM-12+001599999V0202401N002110210019N0750001N1+00291+00191101441ADDAA199000091AY121061AY221061GF106991051001022501071081KA1120M+00491MA1999999101261MD1810251+9999MW1021REMSYN088AAXX  02184 01098 31889 62404 10029 20019 30126 40144 58025 70222 85078 333 10049 91109;EQDQ01  00002PRCP99
0161010980999992000050221004+70370+031100FM-12+001599999V0202201N002110042019N0550001N1+00341+00221101191ADDAY121031AY221031GF107991051051004501071001MA1999999101011MD1710251+9999MW1031REMSYN072AAXX  02214 01098 41485 72204 10034 20022 30101 40119 57025 70322 85570;
0201010980999992000050300004+70370+031100FM-12+001599999V0202301N002610240019N0550001N1+00331+00211100941ADDAA199000091AY121061AY221061GF107991041051004501071001MA1999999100761MD1710251+9999MW1021REMSYN082AAXX  03004 01098 31485 72305 10033 20021 30076 40094 57025 70222 84570 333 91107;EQDQ01  00002PRCP99
0161010980999992000050303004+70370+031100FM-12+001599999V0202301N001510240019N0750001N1+00311+00191100731ADDAY121031AY221031GF107991031051004501071001MA1999999100551MD1710211+9999MW1021REMSYN072AAXX  03034 01098 41489 72303 10031 20019 30055 40073 57021 70222 83570;
0255010980999992000050306004+70370+031100FM-12+001599999V0202301N000510240019N0550001N1+00351+00251100611ADDAA112000191AJ199991999999999AY121061AY221061GF107991041071004501021001IA1309KA1120N+00261MA1999999100431MD1710121+9999MW1601REMSYN100AAXX  03064 01098 11485 72301 10035 20025 30043 40061 57012 69912 76022 84720 333 20026 42999 91107;EQDQ01  09962SNDP  
0161010980999992000050309004+70370+031100FM-12+001599999V0202201N001510240019N0550001N1+00361+00261100471ADDAY161031AY251031GF107991041071004501021001MA1999999100291MD1710141+9999MW1501REMSYN072AAXX  03094 01098 41485 72203 10036 20026 30029 40047 57014 75065 84720;
0188010980999992000050312004+70370+031100FM-12+001599999V0202801N002610042019N0200001N1+00391+00301100451ADDAA106000191AY161061AY251061GF108991061071004501021999MA1999999100271MD1610021+9999MW1511REMSYN088AAXX  03124 01098 11470 82805 10039 20030 30027 40045 56002 69921 75165 8672/ 333 91107;
0161010980999992000050315004+70370+031100FM-12+001599999V0202801N002610042019N0300001N1+00341+00271100461ADDAY151031AY221031GF108991081051004501999999MA1999999100281MD1210011+9999MW1021REMSYN072AAXX  03154 01098 41480 82805 10034 20027 30028 40046 52001 70252 885//;
0207010980999992000050318004+70370+031100FM-12+001599999V0203201N004610090019N0550001N1+00281+00181100491ADDAA112000391AY151061AY221061GF108991081081004501999999KA1120M+00471MA1999999100311MD1210031+9999MW1021REMSYN094AAXX  03184 01098 11485 83209 10028 20018 30031 40049 52003 69932 70252 888// 333 10047 91115;
0161010980999992000050321004+70370+031100FM-12+001599999V0203101N004610240019N0550001N1+00261+00141100571ADDAY121031AY221031GF107991031031004501041081MA1999999100391MD1210081+9999MW1021REMSYN072AAXX  03214 01098 41485 73109 10026 20014 30039 40057 52008 70222 83348;
0188010980999992000050400004+70370+031100FM-12+001599999V0203301N004610090019N0550001N1+00251-00011100661ADDAA106000791AY151061AY221061GF107991051081004501041001MA1999999100481MD1210091+9999MW1021REMSYN088AAXX  04004 01098 11485 73309 10025 21001 30048 40066 52009 69901 70252 85840 333 91115;
0161010980999992000050403004+70370+031100FM-12+001599999V0203201N005110090019N0750001N1+00221-00141100721ADDAY121031AY221031GF107991071081004501001001MA1999999100541MD1210061+9999MW1021REMSYN072AAXX  04034 01098 41489 73210 10022 21014 30054 40072 52006 70222 87800;
0255010980999992000050406004+70370+031100FM-12+001599999V0203301N004610240019N0750001N1+00181+00061100841ADDAA112000791AJ199991999999999AY121061AY221061GF105991041031004501041001IA1309KA1120N+00151MA1999999100661MD1210121+9999MW1011REMSYN100AAXX  04064 01098 11489 53309 10018 20006 30066 40084 52012 69902 70122 84340 333 20015 42999 91117;EQDQ01  09962SNDP  
0161010980999992000050409004+70370+031100FM-12+001599999V0203301N003610090019N0300001N1+00211+00021100931ADDAY181031AY221031GF107991071081004501001001MA1999999100751MD1210091+9999MW1831REMSYN072AAXX  04094 01098 41480 73307 10021 20002 30075 40093 52009 78382 87800;
0188010980999992000050412004+70370+031100FM-12+001599999V0202901N002110090019N0550001N1+00201+00101100961ADDAA106000791AY181061AY221061GF107991071081004501001001MA1999999100781MD1210031+9999MW1021REMSYN088AAXX  04124 01098 11485 72904 10020 20010 30078 40096 52003 69901 70282 87800 333 91115;
0161010980999992000050415004+70370+031100FM-12+001599999V0202901N001010240019N0550001N1+00201+00051100761ADDAY121031AY221031GF107991031081004501021011MA1999999100581MD1810201+9999MW1021REMSYN072AAXX  04154 01098 41485 72902 10020 20005 30058 40076 58020 70222 83821;
0207010980999992000050418004+70370+031100FM-12+001599999V0202201N002110240019N0550001N1+00181+00061100481ADDAA112000791AY121061AY221061GF108991031081004501071999KA1120M+00261MA1999999100301MD1710281+9999MW1021REMSYN094AAXX  04184 01098 11485 82204 10018 20006 30030 40048 57028 69902 70222 8387/ 333 10026 91106;
0161010980999992000050421004+70370+031100FM-12+001599999V0202201N004110042019N0550001N1+00141+00081100091ADDAY121031AY221031GF108991081071004501999999MA1999999099911MD1810391+9999MW1021REMSYN072AAXX  04214 01098 41485 82208 10014 20008 39991 40009 58039 70222 887//;
0188010980999992000050500004+70370+031100FM-12+001599999V0202101N003110042019N0300001N1+00141+00081099731ADDAA106000191AY151061AY221061GF108991081071004501999999MA1999999099551MD1710361+9999MW1021REMSYN088AAXX  05004 01098 11480 82106 10014 20008 39955 49973 57036 69911 70252 887// 333 91111;
0161010980999992000050503004+70370+031100FM-12+001599999V0202301N002610042019N0550001N1+00191+00131099531ADDAY171031AY261031GF107991051011004501061001MA1999999099351MD1610201+9999MW1011REMSYN072AAXX  05034 01098 41485 72305 10019 20013 39935 49953 56020 70176 85160;
0255010980999992000050506004+70370+031100FM-12+001599999V0202801N001510240019N0750001N1+00341+00241099491ADDAA112000891AJ199991999999999AY171061AY261061GF108991041051004501041999IA1309KA1120N+00121MA1999999099311MD1610041+9999MW1031REMSYN100AAXX  05064 01098 11489 82803 10034 20024 39931 49949 56004 69982 70376 8454/ 333 20012 42999 91110;EQDQ01  09962SNDP  
0161010980999992000050509004+70370+031100FM-12+001599999V0202401N001510240019N0750001N1+00341+00241099501ADDAY121031AY221031GF107991021041004501071001MA1999999099321MD1210011+9999MW1021REMSYN072AAXX  05094 01098 41489 72403 10034 20024 39932 49950 52001 70222 82470;
0188010980999992000050512004+70370+031100FM-12+001599999V0202701N001510240019N0750001N1+00461+00341099601ADDAA106000791AY181061AY221061GF106991041081004501071001MA1999999099421MD1210101+9999MW1011REMSYN088AAXX  05124 01098 11489 62703 10046 20034 39942 49960 52010 69901 70182 84870 333 91107;
0161010980999992000050515004+70370+031100FM-12+001599999V0202701N001510240019N0550001N1+00431+00311099671ADDAY121031AY221031GF107991041051004501061001MA1999999099491MD1210071+9999MW1031REMSYN072AAXX  05154 01098 41485 72703 10043 20031 39949 49967 52007 70322 84560;
0207010980999992000050518004+70370+031100FM-12+001599999V0202801N001510240019N0550001N1+00341+00221099721ADDAA112000791AY121061AY221061GF106991021041004501061091KA1120M+00471MA1999999099541MD1210051+9999MW1011REMSYN094AAXX  05184 01098 11485 62803 10034 20022 39954 49972 52005 69902 70122 82469 333 10047 91105;
0161010980999992000050521004+70370+031100FM-12+001599999V0203201N002110240019N0550001N1+00281+00151099861ADDAY121031AY221031GF108991021081004501071999MA1999999099681MD1210141+9999MW1031REMSYN072AAXX  05214 01098 41485 83204 10028 20015 39968 49986 52014 70322 8287/;
0188010980999992000050600004+70370+031100FM-12+001599999V0203201N002610090019N0300001N1+00301+00231100121ADDAA106000791AY181061AY221061GF108991081081004501999999MA1999999099941MD1210261+9999MW1801REMSYN088AAXX  06004 01098 11480 83205 10030 20023 39994 40012 52026 69901 78082 888// 333 91108;
0180010980999992000050603004+70370+031100FM-12+001599999V0203601N005110012019N0100001N1+00131+00061100661ADDAY181031AY221031GF108991081061001501999999MA1999999100481MD1210542+9999MW1831REMSYN072AAXX  06034 01098 41260 83610 10013 20006 30048 40066 52054 78382 886//;EQDQ01+000542APC3  
0255010980999992000050606004+70370+031100FM-12+001599999V0203501N005110060019N0300001N1+00021-00111101221ADDAA112000891AJ199991999999999AY181061AY221061GF108991081081002501999999IA1309KA1120N-00051MA1999999101041MD1210561+9999MW1021REMSYN100AAXX  06064 01098 11380 83510 10002 21011 30104 40122 52056 69972 70282 888// 333 21005 42999 91117;EQDQ01  09962SNDP  
0161010980999992000050609004+70370+031100FM-12+001599999V0203301N005110060019N0100001N1-00011-00281101601ADDAY181031AY221031GF108991081081002501999999MA1999999101411MD1110381+9999MW1161REMSYN072AAXX  06094 01098 41360 83310 11001 21028 30141 40160 51038 71682 888//;
0188010980999992000050612004+70370+031100FM-12+001599999V0203301N004610021019N0300001N1-00061-00311101891ADDAA106000791AY181061AY221061GF108991081051002501999999MA1999999101701MD1210291+9999MW1021REMSYN088AAXX  06124 01098 11380 83309 11006 21031 30170 40189 52029 69901 70282 885// 333 91116;
0161010980999992000050615004+70370+031100FM-12+001599999V0203301N004610042019N0290001N1-00021-00341102051ADDAY121031AY221031GF107991071071004501001001MA1999999101861MD1110161+9999MW1011REMSYN072AAXX  06154 01098 41479 73309 11002 21034 30186 40205 51016 70122 87700;
0207010980999992000050618004+70370+031100FM-12+001599999V0203301N004610090019N0550001N1+00011-00261102071ADDAA112000191AY181061AY221061GF107991071081004501001001KA1120M+00061MA1999999101891MD1110021+9999MW1261REMSYN094AAXX  06184 01098 11485 73309 10001 21026 30189 40207 51002 69912 72682 87800 333 10006 91114;
0161010980999992000050621004+70370+031100FM-12+001599999V0202701N002610090019N0300001N1-00091-00201102031ADDAY181031AY221031GF108991081081004501999999MA1999999101841MD1810041+9999MW1261REMSYN072AAXX  06214 01098 41480 82705 11009 21020 30184 40203 58004 72682 888//;
0188010980999992000050700004+70370+031100FM-12+001599999V0202801N002110090019N0550001N1-00051-00161101971ADDAA106001091AY181061AY221061GF107991071081004501001001MA1999999101781MD1710061+9999MW1011REMSYN088AAXX  07004 01098 11485 72804 11005 21016 30178 40197 57006 69991 70182 87800 333 91109;
0161010980999992000050703004+70370+031100FM-12+001599999V0202001N000510090019N0550001N1-00041-00101101891ADDAY181031AY221031GF107991071081004501001001MA1999999101701MD1710081+9999MW1021REMSYN072AAXX  07034 01098 41485 72001 11004 21010 30170 40189 57008 70282 87800;
0255010980999992000050706004+70370+031100FM-12+001599999V0202501N001510090019N0300001N1+00071-00041101801ADDAA112001091AJ199991999999999AY181061AY221061GF107991071081004501001001IA1309KA1120N-00101MA1999999101621MD1710081+9999MW1021REMSYN100AAXX  07064 01098 11480 72503 10007 21004 30162 40180 57008 69992 70282 87800 333 21010 42999 91105;EQDQ01  09962SNDP  
0161010980999992000050709004+70370+031100FM-12+001599999V0201901N001512200019N0550001N1+00171+00051101631ADDAY111031AY201031GF103991031001012501061001MA1999999101451MD1810171+9999MW1011REMSYN072AAXX  07094 01098 41685 31903 10017 20005 30145 40163 58017 70110 83060;
0201010980999992000050712004+70370+031100FM-12+001599999V0201701N002112200019N0550001N1+00321+00201101451ADDAA199000091AY111061AY201061GF103991031001022501001051MA1999999101271MD1710181+9999MW1011REMSYN082AAXX  07124 01098 31885 31704 10032 20020 30127 40145 57018 70110 83005 333 91106;EQDQ01  00002PRCP99
0161010980999992000050715004+70370+031100FM-12+001599999V0201601N002110600019N0750001N1+00371+00161101211ADDAY121031AY211031GF108991021001022501041051MA1999999101031MD1710241+9999MW1031REMSYN072AAXX  07154 01098 41889 81604 10037 20016 30103 40121 57024 70321 82045;
0220010980999992000050718004+70370+031100FM-12+001599999V0201901N001012200019N0750001N1+00311+00181100981ADDAA199000091AY121061AY211061GF106991031001022501071061KA1120M+00371MA1999999100801MD1710231+9999MW1021REMSYN088AAXX  07184 01098 31889 61902 10031 20018 30080 40098 57023 70221 83076 333 10037 91106;EQDQ01  00002PRCP99
0161010980999992000050721004+70370+031100FM-12+001599999V0202501N002110210019N0750001N1+00181+00051100771ADDAY121031AY221031GF108991051001022501071061MA1999999100591MD1710211+9999MW1021REMSYN072AAXX  07214 01098 41889 82504 10018 20005 30059 40077 57021 70222 85076;
0201010980999992000050800004+70370+031100FM-12+001599999V0202301N001510240019N0750001N1+00221+00061100581ADDAA199000091AY121061AY221061GF108991021011008001041061MA1999999100401MD1710191+9999MW1021REMSYN082AAXX  08004 01098 31589 82303 10022 20006 30040 40058 57019 70222 82146 333 91107;EQDQ01  00002PRCP99
0161010980999992000050803004+70370+031100FM-12+001599999V0202401N001010012019N0200001N1+00201+00101100461ADDAY151031AY221031GF108991081001001501021999MA1999999100281MD1610121+9999MW1611REMSYN072AAXX  08034 01098 41270 82402 10020 20010 30028 40046 56012 76152 8802/;
0255010980999992000050806004+70370+031100FM-12+001599999V0202901N001510240019N0300001N1+00351+00291100471ADDAA112000591AJ199991999999999AY151061AY221061GF105991031011002501041001IA1309KA1120N+00171MA1999999100291MD1310011+9999MW1011REMSYN100AAXX  08064 01098 11380 52903 10035 20029 30029 40047 53001 69942 70152 83140 333 20017 42999 91106;EQDQ01  09962SNDP  
0161010980999992000050809004+70370+031100FM-12+001599999V0203001N003612200019N0750001N1+00421+00301100591ADDAY121031AY221031GF104991011051004501041091MA1999999100411MD1210121+9999MW1011REMSYN072AAXX  08094 01098 41489 43007 10042 20030 30041 40059 52012 70122 81549;
0182010980999992000050812004+70370+031100FM-12+001599999V0203001N003110240019N0750001N1+00421+00291100771ADDAA199000021AY121061AY221061GF106991031051004501071091MA1999999100591MD1210181+9999MW1031REMSYN082AAXX  08124 01098 31489 63006 10042 20029 30059 40077 52018 70322 83579 333 91110;
0161010980999992000050815004+70370+031100FM-12+001599999V0203001N004112200019N0750001N1+00461+00211100911ADDAY121031AY211031GF103991011051004501071001MA1999999100731MD1210141+9999MW1011REMSYN072AAXX  08154 01098 41489 33008 10046 20021 30073 40091 52014 70121 81570;
0207010980999992000050818004+70370+031100FM-12+001599999V0202601N002610240019N0100001N1+00311+00211101051ADDAA112000791AY181061AY221061GF107991011091002501071051KA1120M+00501MA1999999100871MD1210141+9999MW1801REMSYN094AAXX  08184 01098 11360 72605 10031 20021 30087 40105 52014 69902 78082 81975 333 10050 91112;
0161010980999992000050821004+70370+031100FM-12+001599999V0202801N003110060019N0550001N1+00201+00101101141ADDAY181031AY221031GF107991061081002501071001MA1999999100961MD1210091+9999MW1021REMSYN072AAXX  08214 01098 41385 72806 10020 20010 30096 40114 52009 70282 86870;
0188010980999992000050900004+70370+031100FM-12+001599999V0202801N003610060019N0550001N1+00221+00091101201ADDAA106000791AY181061AY221061GF108991081081002501999999MA1999999101021MD1210061+9999MW1021REMSYN088AAXX  09004 01098 11385 82807 10022 20009 30102 40120 52006 69901 70282 888// 333 91111;
0161010980999992000050903004+70370+031100FM-12+001599999V0202701N002110060019N0550001N1+00221+00101101281ADDAY121031AY221031GF107991061081002501061999MA1999999101101MD1210081+9999MW1021REMSYN072AAXX  09034 01098 41385 72704 10022 20010 30110 40128 52008 70222 8686/;
0255010980999992000050906004+70370+031100FM-12+001599999V0202501N002110042019N0750001N1+00261+00161101291ADDAA112000791AJ199991999999999AY121061AY221061GF107991061051004501061001IA1309KA1120N+00201MA1999999101111MD1210011+9999MW1011REMSYN100AAXX  09064 01098 11489 72504 10026 20016 30111 40129 52001 69902 70122 86560 333 20020 42999 91109;EQDQ01  09962SNDP  
0161010980999992000050909004+70370+031100FM-12+001599999V0202101N003610042019N0550001N1+00341+00221101231ADDAY121031AY221031GF108991081051004501999999MA1999999101051MD1810061+9999MW1021REMSYN072AAXX  09094 01098 41485 82107 10034 20022 30105 40123 58006 70222 885//;
0188010980999992000050912004+70370+031100FM-12+001599999V0202201N003610042019N0750001N1+00361+00261101091ADDAA106000791AY161061AY221061GF107991061051004501071001MA1999999100911MD1710141+9999MW1211REMSYN088AAXX  09124 01098 11489 72207 10036 20026 30091 40109 57014 69901 72162 86570 333 91110;
0180010980999992000050915004+70370+031100FM-12+001599999V0201601N002119999999N0750001N1+00461+00351100881ADDAY161031AY221031GF107991999021004501071001MA1999999100701MD1710211+9999MW1021REMSYN072AAXX  09154 01098 41489 71604 10046 20035 30070 40088 57021 70262 88270;EQDQ01+000082SCOTLC
0207010980999992000050918004+70370+031100FM-12+001599999V0201401N001510240019N0750001N1+00551+00381100621ADDAA112000791AY161061AY221061GF106991021081004501071001KA1120M+00601MA1999999100441MD1710261+9999MW1021REMSYN094AAXX  09184 01098 11489 61403 10055 20038 30044 40062 57026 69902 70262 82870 333 10060 91109;
0165010980999992000050921004+70370+031100FM-12+001599999V0203201N001010042019N0550001N1+00551+00331100471ADDAY161031AY221031GF108991071071004501021999MD1710151+9999MW1031REMSYN072AAXX  09214 01098 41485 83202 10055 20033 30229 40047 57015 70362 8772/;EQDQ01+102293APOSP 
0188010980999992000051000004+70370+031100FM-12+001599999V0202701N000510042019N0550001N1+00421+00351100311ADDAA106002091AY161061AY221061GF107991051071004501021001MA1999999100131MD1710161+9999MW1011REMSYN088AAXX  10004 01098 11485 72701 10042 20035 30013 40031 57016 60021 70162 85720 333 91108;
0161010980999992000051003004+70370+031100FM-12+001599999V0201901N001510042019N0550001N1+00421+00351100241ADDAY161031AY221031GF107991051071004501021001MA1999999100061MD1710071+9999MW1021REMSYN072AAXX  10034 01098 41485 71903 10042 20035 30006 40024 57007 70262 85720;
0255010980999992000051006004+70370+031100FM-12+001599999V0202301N002110042019N0550001N1+00381+00281100161ADDAA112004191AJ199991999999999AY161061AY221061GF107991051071004501021001IA1309KA1120N+00311MA1999999099981MD1710081+9999MW1021REMSYN100AAXX  10064 01098 11485 72304 10038 20028 39998 40016 57008 60042 70262 85720 333 20031 42999 91106;EQDQ01  09962SNDP  
0161010980999992000051009004+70370+031100FM-12+001599999V0202601N002112200019N0550001N1+00501+00381100141ADDAY121031AY211031GF102991011021004501041001MA1999999099961MD1610021+9999MW1021REMSYN072AAXX  10094 01098 41485 22604 10050 20038 39996 40014 56002 70221 81240;
0201010980999992000051012004+70370+031100FM-12+001599999V0202601N004112200019N0750001N1+00391+00191100161ADDAA199000091AY121061AY211061GF103991021021004501041001MA1999999099981MD1310021+9999MW1021REMSYN082AAXX  10124 01098 31489 32608 10039 20019 39998 40016 53002 70221 82240 333 91111;EQDQ01  00002PRCP99
0161010980999992000051015004+70370+031100FM-12+001599999V0202701N005112200019N0750001N1+00401+00201100201ADDAY121031AY211031GF104991021021004501051001MA1999999100021MD1210041+9999MW1021REMSYN072AAXX  10154 01098 41489 42710 10040 20020 30002 40020 52004 70221 82250;
0220010980999992000051018004+70370+031100FM-12+001599999V0202701N004612200019N0750001N1+00271+00141100211ADDAA199000091AY121061AY211061GF103991021041004501041091KA1120M+00541MA1999999100031MD1210011+9999MW1021REMSYN088AAXX  10184 01098 31489 32709 10027 20014 30003 40021 52001 70221 82449 333 10054 91114;EQDQ01  00002PRCP99
0161010980999992000051021004+70370+031100FM-12+001599999V0202601N003610600019N0750001N1+00131+00001100211ADDAY121031AY211031GF106991021041004501041041MA1999999100031MD1410001+9999MW1031REMSYN072AAXX  10214 01098 41489 62607 10013 20000 30003 40021 54000 70321 82444;
0201010980999992000051100004+70370+031100FM-12+001599999V0202701N003612200019N0750001N1-00021-00141100211ADDAA199000091AY121061AY211061GF104991021041004501041041MA1999999100021MD1610011+9999MW1011REMSYN082AAXX  11004 01098 31489 42707 11002 21014 30002 40021 56001 70121 82444 333 91111;EQDQ01  00002PRCP99
0161010980999992000051103004+70370+031100FM-12+001599999V0202901N004610600019N0750001N1+00001-00121100191ADDAY121031AY211031GF106991021041004501041041MA1999999100011MD1710011+9999MW1031REMSYN072AAXX  11034 01098 41489 62909 10000 21012 30001 40019 57001 70321 82444;
0265010980999992000051106004+70370+031100FM-12+001599999V0203001N004610600019N0750001N1+00101-00031100231ADDAA199000091AJ199991999999999AY121061AY211061GF106991021041004501041041IA1309KA1120N-00021MA1999999100051MD1310041+9999MW1021REMSYN094AAXX  11064 01098 31489 63009 10010 21003 30005 40023 53004 70221 82444 333 21002 42999 91112;EQDQ01  00002PRCP99Q02  09962SNDP  
0161010980999992000051109004+70370+031100FM-12+001599999V0203401N005110090019N0250001N1+00081-00351100471ADDAY181031AY221031GF107991071081004501001001MA1999999100291MD1210241+9999MW1851REMSYN072AAXX  11094 01098 41475 73410 10008 21035 30029 40047 52024 78582 87800;
0188010980999992000051112004+70370+031100FM-12+001599999V0203201N004610090019N0550001N1+00161-00411100591ADDAA106000591AY181061AY221061GF106991061081004501001001MA1999999100411MD1210121+9999MW1021REMSYN088AAXX  11124 01098 11485 63209 10016 21041 30041 40059 52012 69941 70282 86800 333 91115;
0207010980999992000051118004+70370+031100FM-12+001599999V0203101N006210090019N0015001N1-00141-00331100931ADDAA112000591AY181061AY221061GF108991081081004501999999KA1120M+00191MA1999999100741MD1210131+9999MW1861REMSYN094AAXX  11184 01098 11415 83112 11014 21033 30074 40093 52013 69952 78682 888// 333 10019 91117;
0161010980999992000051121004+70370+031100FM-12+001599999V0203201N005712200019N0550001N1-00151-00421100981ADDAY181031AY221031GF104991041081004501001001MA1999999100791MD1110051+9999MW1271REMSYN072AAXX  11214 01098 41485 43211 11015 21042 30079 40098 51005 72782 84800;
0188010980999992000051200004+70370+031100FM-12+001599999V0203401N005112200019N0550001N1-00191-00801101091ADDAA106000591AY181061AY211061GF103991031081004501001001MA1999999100901MD1210111+9999MW1021REMSYN088AAXX  12004 01098 11485 33410 11019 21080 30090 40109 52011 69961 70281 83800 333 91119;
0161010980999992000051203004+70370+031100FM-12+001599999V0203301N004112200019N0550001N1-00201-00531101151ADDAY181031AY211031GF103991031081004501001001MA1999999100961MD1110061+9999MW1271REMSYN072AAXX  12034 01098 41485 33308 11020 21053 30096 40115 51006 72781 83800;
0255010980999992000051206004+70370+031100FM-12+001599999V0203301N003610090019N0040001N1-00171-00271101191ADDAA112002091AJ199991999999999AY181061AY211061GF105991051081004501001001IA1309KA1120N-00271MA1999999101001MD1210041+9999MW1271REMSYN100AAXX  12064 01098 11440 53307 11017 21027 30100 40119 52004 60022 72781 85800 333 21027 42999 91116;EQDQ01  09962SNDP  
0161010980999992000051209004+70370+031100FM-12+001599999V0203301N003112200019N0200001N1-00221-00261101271ADDAY181031AY211031GF103991031081004501001001MA1999999101081MD1310081+9999MW1261REMSYN072AAXX  12094 01098 41470 33306 11022 21026 30108 40127 53008 72681 83800;
0207010980999992000051212004+70370+031100FM-12+001599999V0203101N005110090019N0030001N1-00161-00221101271ADDAA106002091AY181061AY211061GF105991051081004501001001MA1999999101081MD1410001+9999MW1851REMSYN088AAXX  12124 01098 11430 53110 11016 21022 30108 40127 58000 60021 78581 85800 333 91117;EQDQ01+000082APCTEN
0161010980999992000051215004+70370+031100FM-12+001599999V0203101N003110042019N0600001N1-00081-00201101321ADDAY181031AY221031GF105991051031004501001001MA1999999101131MD1310051+9999MW1021REMSYN072AAXX  12154 01098 41486 53106 11008 21020 30113 40132 53005 70282 85300;
0207010980999992000051218004+70370+031100FM-12+001599999V0202801N003110042019N0600001N1-00121-00211101271ADDAA112002091AY181061AY221061GF106991061031004501001001KA1120M+00051MA1999999101081MD1810051+9999MW1031REMSYN094AAXX  12184 01098 11486 62806 11012 21021 30108 40127 58005 60022 70382 86300 333 10005 91112;
0161010980999992000051221004+70370+031100FM-12+001599999V0202601N002610090019N0550001N1-00201-00271101161ADDAY181031AY221031GF107991051081004501001091MA1999999100971MD1710111+9999MW1031REMSYN072AAXX  12214 01098 41485 72605 11020 21027 30097 40116 57011 70382 85809;
0188010980999992000051300004+70370+031100FM-12+001599999V0202901N002110090019N0550001N1-00261-00331101071ADDAA106000191AY181061AY221061GF107991051081004501071091MA1999999100881MD1710091+9999MW1021REMSYN088AAXX  13004 01098 11485 72904 11026 21033 30088 40107 57009 69911 70282 85879 333 91109;
0161010980999992000051303004+70370+031100FM-12+001599999V0202901N002110240019N0550001N1-00221-00291101061ADDAY121031AY221031GF106991031081004501071091MA1999999100871MD1710011+9999MW1011REMSYN072AAXX  13034 01098 41485 62904 11022 21029 30087 40106 57001 70122 83879;
0255010980999992000051306004+70370+031100FM-12+001599999V0203201N001510090019N0550001N1-00141-00201101111ADDAA112000891AJ199991999999999AY181061AY221061GF107991051081004501031001IA1309KA1120N-00261MA1999999100921MD1310051+9999MW1031REMSYN100AAXX  13064 01098 11485 73203 11014 21020 30092 40111 53005 69972 70382 85830 333 21026 42999 91107;EQDQ01  09962SNDP  
0171010980999992000051309004+70370+031100FM-12+001599999V0203301N003610001519N0001001N1-00181-00281101241ADDAY181031AY221031GA1091+999999999GF109991091999999999999999MA1999999101051MD1210141+9999MW1861REMSYN066AAXX  13094 01098 41/01 93307 11018 21028 30105 40124 52014 78682;
0188010980999992000051312004+70370+031100FM-12+001599999V0203601N002110042019N0130001N1-00041-00151101361ADDAA106000191AY181061AY221061GF106991061091004501001001MA1999999101171MD1210111+9999MW1851REMSYN088AAXX  13124 01098 11463 63604 11004 21015 30117 40136 52011 69911 78582 86900 333 91111;
0161010980999992000051315004+70370+031100FM-12+001599999V0203401N002610240019N0550001N1+00011-00131101401ADDAY181031AY221031GF105991041031004501041001MA1999999101221MD1110051+9999MW1261REMSYN072AAXX  13154 01098 41485 53405 10001 21013 30122 40140 51005 72682 84340;
0207010980999992000051318004+70370+031100FM-12+001599999V0203501N003110042019N0030001N1-00141-00241101521ADDAA112003091AY181061AY221061GF107991071091004501001001KA1120M+00111MA1999999101331MD1210111+9999MW1881REMSYN094AAXX  13184 01098 11430 73506 11014 21024 30133 40152 52011 60032 78882 87900 333 10011 91112;
0161010980999992000051321004+70370+031100FM-12+001599999V0203601N002610042019N0550001N1-00071-00271101601ADDAY181031AY221031GF106991061031004501001001MA1999999101411MD1110081+9999MW1011REMSYN072AAXX  13214 01098 41485 63605 11007 21027 30141 40160 51008 70182 86300;
0188010980999992000051400004+70370+031100FM-12+001599999V0203601N002610042019N0600001N1-00051-00341101651ADDAA106000791AY181061AY221061GF107991071071004501001001MA1999999101461MD1210051+9999MW1031REMSYN088AAXX  14004 01098 11486 73605 11005 21034 30146 40165 52005 69901 70382 87700 333 91109;
0161010980999992000051403004+70370+031100FM-12+001599999V0203501N002610042019N0600001N1-00051-00431101681ADDAY121031AY221031GF106991061071004501001001MA1999999101491MD1110051+9999MW1011REMSYN072AAXX  14034 01098 41486 63505 11005 21043 30149 40168 51005 70122 86700;
0255010980999992000051406004+70370+031100FM-12+001599999V0200201N002110042019N0600001N1+00001-00301101711ADDAA112000791AJ199991999999999AY181061AY221061GF108991081051004501999999IA1309KA1120N-00151MA1999999101521MD1210031+9999MW1031REMSYN100AAXX  14064 01098 11486 80204 10000 21030 30152 40171 52003 69902 70382 885// 333 21015 42999 91108;EQDQ01  09962SNDP  
0161010980999992000051409004+70370+031100FM-12+001599999V0203401N001510090019N0300001N1+00021-00151101701ADDAY181031AY221031GF108991081081004501999999MA1999999101521MD1410001+9999MW1851REMSYN072AAXX  14094 01098 41480 83403 10002 21015 30152 40170 54000 78582 888//;
0188010980999992000051412004+70370+031100FM-12+001599999V0202901N002110090019N0600001N1+00041-00091101631ADDAA106000791AY181061AY221061GF108991081081004501999999MA1999999101451MD1810071+9999MW1021REMSYN088AAXX  14124 01098 11486 82904 10004 21009 30145 40163 58007 69901 70282 888// 333 91106;
0161010980999992000051415004+70370+031100FM-12+001599999V0202901N001510090019N0750001N1+00021-00111101461ADDAY181031AY221031GF107991071081004501001001MA1999999101281MD1710171+9999MW1021REMSYN072AAXX  14154 01098 41489 72903 10002 21011 30128 40146 57017 70282 87800;
0207010980999992000051418004+70370+031100FM-12+001599999V0202801N001010090019N0750001N1+00021-00141101271ADDAA112000791AY121061AY221061GF107991071081004501001001KA1120M+00101MA1999999101091MD1710191+9999MW1021REMSYN094AAXX  14184 01098 11489 72802 10002 21014 30109 40127 57019 69902 70222 87800 333 10010 91104;
0161010980999992000051421004+70370+031100FM-12+001599999V0200201N001510060019N0040001N1+00021-00231101101ADDAY181031AY221031GF108991081081002501999999MA1999999100921MD1710171+9999MW1851REMSYN072AAXX  14214 01098 41340 80203 10002 21023 30092 40110 57017 78582 888//;
0188010980999992000051500004+70370+031100FM-12+001599999V0200201N003610042019N0200001N1-00041-00111101091ADDAA106000591AY181061AY221061GF106991051031004501001081MA1999999100901MD1710021+9999MW1851REMSYN088AAXX  15004 01098 11470 60207 11004 21011 30090 40109 57002 69941 78582 85308 333 91111;
0161010980999992000051503004+70370+031100FM-12+001599999V0203601N003610021019N0020001N1-00081-00151101181ADDAY181031AY231031GF108991081091002501999999MA1999999100991MD1310091+9999MW1861REMSYN072AAXX  15034 01098 41320 83607 11008 21015 30099 40118 53009 78683 889//;
0255010980999992000051506004+70370+031100FM-12+001599999V0203601N004610021019N0200001N1-00031-00171101251ADDAA112000891AJ199991999999999AY181061AY231061GF108991081031002501999999IA1309KA1120N-00111MA1999999101061MD1210071+9999MW1871REMSYN100AAXX  15064 01098 11370 83609 11003 21017 30106 40125 52007 69982 78783 883// 333 21011 42999 91114;EQDQ01  09962SNDP  
0161010980999992000051509004+70370+031100FM-12+001599999V0203501N004610090019N0300001N1-00031-00321101411ADDAY181031AY221031GF108991081081004501999999MA1999999101221MD1210161+9999MW1151REMSYN072AAXX  15094 01098 41480 83509 11003 21032 30122 40141 52016 71582 888//;
0188010980999992000051512004+70370+031100FM-12+001599999V0203501N004110090019N0550001N1+00051-00341101531ADDAA106000791AY181061AY221061GF107991071081004501001001MA1999999101351MD1210121+9999MW1021REMSYN088AAXX  15124 01098 11485 73508 10005 21034 30135 40153 52012 69901 70282 87800 333 91116;
0161010980999992000051515004+70370+031100FM-12+001599999V0203401N003610090019N0300001N1+00021-00191101701ADDAY121031AY221031GF108991081081004501999999MA1999999101521MD1210171+9999MW1151REMSYN072AAXX  15154 01098 41480 83407 10002 21019 30152 40170 52017 71522 888//;
0207010980999992000051518004+70370+031100FM-12+001599999V0203401N003610090019N0550001N1+00011-00201101761ADDAA112000791AY121061AY221061GF108991061081004501071999KA1120M+00071MA1999999101581MD1110071+9999MW1021REMSYN094AAXX  15184 01098 11485 83407 10001 21020 30158 40176 51007 69902 70222 8687/ 333 10007 91115;
0161010980999992000051521004+70370+031100FM-12+001599999V0200101N003610090019N0550001N1+00041-00481101831ADDAY121031AY221031GF108991081081004501999999MA1999999101651MD1210091+9999MW1021REMSYN072AAXX  15214 01098 41485 80107 10004 21048 30165 40183 52009 70222 888//;
0201010980999992000051600004+70370+031100FM-12+001599999V0203201N003110090019N0750001N1+00081-00191101821ADDAA199000091AY121061AY221061GF107991071081004501001001MA1999999101641MD1010011+9999MW1021REMSYN082AAXX  16004 01098 31489 73206 10008 21019 30164 40182 50001 70222 87800 333 91112;EQDQ01  00002PRCP99
0161010980999992000051603004+70370+031100FM-12+001599999V0202801N004110240019N0750001N1-00081-00191101801ADDAY121031AY221031GF105991021081004501041001MA1999999101611MD1710021+9999MW1011REMSYN072AAXX  16034 01098 41489 52808 11008 21019 30161 40180 57002 70122 82840;
0220010980999992000051606004+70370+031100FM-12+001599999V0202701N004610240019N0750001N1-00011-00181101721ADDAA199000091AY121061AY221061GF108991011081004501011999KA1120N-00131MA1999999101531MD1710081+9999MW1031REMSYN088AAXX  16064 01098 31489 82709 11001 21018 30153 40172 57008 70322 8181/ 333 21013 91111;EQDQ01  00002PRCP99
0161010980999992000051609004+70370+031100FM-12+001599999V0202901N003110090019N0070001N1+00061-00051101631ADDAY181031AY221031GF107991071081004501001001MA1999999101451MD1710081+9999MW1851REMSYN072AAXX  16094 01098 41457 72906 10006 21005 30145 40163 57008 78582 87800;
0188010980999992000051612004+70370+031100FM-12+001599999V0203501N003110090019N0300001N1+00101-00091101671ADDAA106000191AY181061AY221061GF107991071081004501001001MA1999999101491MD1310041+9999MW1021REMSYN088AAXX  16124 01098 11480 73506 10010 21009 30149 40167 53004 69911 70282 87800 333 91111;
0161010980999992000051615004+70370+031100FM-12+001599999V0203401N003110042019N0750001N1+00061-00331101761ADDAY121031AY221031GF105991051051004501001001MA1999999101581MD1210091+9999MW1021REMSYN072AAXX  16154 01098 41489 53406 10006 21033 30158 40176 52009 70222 85500;
0207010980999992000051618004+70370+031100FM-12+001599999V0203501N003110042019N0750001N1+00011-00331101791ADDAA112000191AY121061AY221061GF107991071051004501001001KA1120M+00131MA1999999101611MD1210031+9999MW1021REMSYN094AAXX  16184 01098 11489 73506 10001 21033 30161 40179 52003 69912 70222 87500 333 10013 91110;
0161010980999992000051621004+70370+031100FM-12+001599999V0200201N003110042019N0650001N1+00011-00341101781ADDAY121031AY221031GF107991071051004501999999MA1999999101601MD1710011+9999MW1021REMSYN072AAXX  16214 01098 41487 70206 10001 21034 30160 40178 57001 70222 875//;
0201010980999992000051700004+70370+031100FM-12+001599999V0200601N001010042019N0650001N1-00051-00451101851ADDAA199000091AY121061AY221061GF107991071051004501999999MA1999999101661MD1210071+9999MW1021REMSYN082AAXX  17004 01098 31487 70602 11005 21045 30166 40185 52007 70222 875// 333 91109;EQDQ01  00002PRCP99
0161010980999992000051703004+70370+031100FM-12+001599999V0201301N001010600019N0650001N1-00051-00631101871ADDAY121031AY221031GF106991021041004501061061MA1999999101681MD1110021+9999MW1011REMSYN072AAXX  17034 01098 41487 61302 11005 21063 30168 40187 51002 70122 82466;
0190010980999992000051706004+70370+031100FM-12+001599999V0201401N001510042019N0750001N1+00031-00511101871ADDAY121061AY221061GF107991051051004501061061KA1120N-00071MA1999999101701MD1210021+9999MW1021REMSYN088AAXX  17064 01098 11489 71403 10003 21051 30170 40187 52002 70222 85566 333 21007 91105;
0161010980999992000051709004+70370+031100FM-12+001599999V0201601N002610600019N0300001N1+00141-00381101901ADDAY121031AY221031GF105991021051004501031041MA1999999101721MD1210011+9999MW1021REMSYN072AAXX  17094 01098 41480 51605 10014 21038 30172 40190 52001 70222 82534;
0201010980999992000051712004+70370+031100FM-12+001599999V0201601N003610240019N0300001N1+00161-00231101851ADDAA199000091AY121061AY221061GF106991011011004501011001MA1999999101671MD1810051+9999MW1021REMSYN082AAXX  17124 01098 31480 61607 10016 21023 30167 40185 58005 70222 81110 333 91109;EQDQ01  00002PRCP99
0161010980999992000051715004+70370+031100FM-12+001599999V0201401N004110021019N0300001N1+00181+00021101751ADDAY121031AY221031GF108991081061002501999999MA1999999101571MD1710101+9999MW1031REMSYN072AAXX  17154 01098 41380 81408 10018 20002 30157 40175 57010 70322 886//;
0220010980999992000051718004+70370+031100FM-12+001599999V0201501N003610042019N0550001N1+00231+00101101671ADDAA199000091AY121061AY221061GF108991071051004501071999KA1120M+00231MA1999999101491MD1710081+9999MW1021REMSYN088AAXX  17184 01098 31485 81507 10023 20010 30149 40167 57008 70222 8757/ 333 10023 91112;EQDQ01  00002PRCP99
0161010980999992000051721004+70370+031100FM-12+001599999V0201601N003110240019N0750001N1+00241+00081101611ADDAY121031AY221031GF107991021051004501051001MA1999999101431MD1710061+9999MW1021REMSYN072AAXX  17214 01098 41489 71606 10024 20008 30143 40161 57006 70222 82550;
0171010980999992000051800004+70370+031100FM-12+001599999V0201501N003110240019N0750001N1+00221+00091101501ADDAY121061AY221061GF107991011051004501051001MA1999999101321MD1710111+9999MW1021REMSYN082AAXX  18004 01098 11489 71506 10022 20009 30132 40150 57011 70222 81550 333 91111;
0161010980999992000051803004+70370+031100FM-12+001599999V0201601N004110150019N0750001N1+00241+00141101371ADDAY121031AY221031GF107991071001017501071001MA1999999101191MD1710131+9999MW1021REMSYN072AAXX  18034 01098 41789 71608 10024 20014 30119 40137 57013 70222 87070;
0190010980999992000051806004+70370+031100FM-12+001599999V0201601N004110240019N0750001N1+00261+00161101231ADDAY121061AY221061GF107991011051004501051001KA1120N+00201MA1999999101051MD1710141+9999MW1021REMSYN088AAXX  18064 01098 11489 71608 10026 20016 30105 40123 57014 70222 81550 333 20020 91111;
0161010980999992000051809004+70370+031100FM-12+001599999V0201601N003619999999N0550001N1+00361+00261101151ADDAY121031AY221031GF106991031001008001071091MA1999999100971MD1710081+9999MW1021REMSYN072AAXX  18094 01098 41585 61607 10036 20026 30097 40115 57008 70222 83079;
0201010980999992000051812004+70370+031100FM-12+001599999V0201501N003610240019N0300001N1+00391+00301101081ADDAA199000091AY121061AY221061GF106991011081004501071091MA1999999100901MD1710071+9999MW1021REMSYN082AAXX  18124 01098 31480 61507 10039 20030 30090 40108 57007 70222 81879 333 91113;EQDQ01  00002PRCP99
0161010980999992000051815004+70370+031100FM-12+001599999V0201601N004110090019N0300001N1+00401+00301100941ADDAY121031AY221031GF108991051081004501071999MA1999999100761MD1810141+9999MW1021REMSYN072AAXX  18154 01098 41480 81608 10040 20030 30076 40094 58014 70222 8587/;
0220010980999992000051818004+70370+031100FM-12+001599999V0201501N002610600019N0750001N1+00481+00381100881ADDAA199000091AY121061AY221061GF106991021021004501041031KA1120M+00481MA1999999100701MD1610061+9999MW1021REMSYN088AAXX  18184 01098 31489 61505 10048 20038 30070 40088 56006 70222 82243 333 10048 91111;EQDQ01  00002PRCP99
0161010980999992000051821004+70370+031100FM-12+001599999V0201701N002610240019N0750001N1+00391+00271100891ADDAY121031AY211031GF105991011011004501071001MA1999999100711MD1310011+9999MW1021REMSYN072AAXX  18214 01098 41489 51705 10039 20027 30071 40089 53001 70221 81170;
0201010980999992000051900004+70370+031100FM-12+001599999V0201901N004110240019N0750001N1+00421+00351100831ADDAA199000091AY121061AY211061GF106991031051004501071001MA1999999100651MD1810061+9999MW1031REMSYN082AAXX  19004 01098 31489 61908 10042 20035 30065 40083 58006 70321 83570 333 91111;EQDQ01  00002PRCP99
0161010980999992000051903004+70370+031100FM-12+001599999V0202001N004610240019N0750001N1+00481+00411100861ADDAY121031AY211031GF106991031051004501071001MA1999999100681MD1310031+9999MW1031REMSYN072AAXX  19034 01098 41489 62009 10048 20041 30068 40086 53003 70321 83570;
0265010980999992000051906004+70370+031100FM-12+001599999V0202001N004612200019N0750001N1+00581+00461100851ADDAA199000091AJ199991999999999AY121061AY211061GF103991011001022501041081IA1259KA1120N+00321MA1999999100671MD1810011+9999MW1011REMSYN094AAXX  19064 01098 31889 32009 10058 20046 30067 40085 58001 70121 81048 333 20032 41999 91113;EQDQ01  00002PRCP99Q02  09962SNDP  
0161010980999992000051909004+70370+031100FM-12+001599999V0201901N003110240019N0550001N1+00641+00471100921ADDAY121031AY211031GF107991011011004501071001MA1999999100741MD1310071+9999MW1021REMSYN072AAXX  19094 01098 41485 71906 10064 20047 30074 40092 53007 70221 81170;
0201010980999992000051912004+70370+031100FM-12+001599999V0202001N002110240019N0550001N1+00851+00581100931ADDAA199000091AY121061AY211061GF106991011011004501071001MA1999999100751MD1210011+9999MW1021REMSYN082AAXX  19124 01098 31485 62004 10085 20058 30075 40093 52001 70221 81170 333 91110;EQDQ01  00002PRCP99
0161010980999992000051915004+70370+031100FM-12+001599999V0201401N001510600019N0750001N1+00761+00511100921ADDAY121031AY221031GF106991031001022501071081MA1999999100741MD1110011+9999MW1021REMSYN072AAXX  19154 01098 41889 61403 10076 20051 30074 40092 51001 70222 83078;
0220010980999992000051918004+70370+031100FM-12+001599999V0201701N001510210019N0750001N1+00701+00431100901ADDAA199000091AY121061AY221061GF106991051001022501071081KA1120M+00901MA1999999100721MD1810021+9999MW1021REMSYN088AAXX  19184 01098 31889 61703 10070 20043 30072 40090 58002 70222 85078 333 10090 91107;EQDQ01  00002PRCP99
0161010980999992000051921004+70370+031100FM-12+001599999V0201501N001010240019N0750001N1+00721+00581100961ADDAY121031AY221031GF106991011051004501071091MA1999999100781MD1310061+9999MW1021REMSYN072AAXX  19214 01098 41489 61502 10072 20058 30078 40096 53006 70222 81579;
0201010980999992000052000004+70370+031100FM-12+001599999V0201801N001510240019N0750001N1+00901+00611100981ADDAA199000091AY121061AY221061GF107991021071004501041031MA1999999100801MD1210021+9999MW1021REMSYN082AAXX  20004 01098 31489 71803 10090 20061 30080 40098 52002 70222 82743 333 91107;EQDQ01  00002PRCP99
0161010980999992000052003004+70370+031100FM-12+001599999V0202201N002610210019N0750001N1+00841+00591100921ADDAY121031AY221031GF107991071001022501071001MA1999999100741MD1810061+9999MW1021REMSYN072AAXX  20034 01098 41889 72205 10084 20059 30074 40092 58006 70222 87070;
0220010980999992000052006004+70370+031100FM-12+001599999V0201801N001512200019N0750001N1+00811+00641100911ADDAA199000091AY121061AY221061GF105991041001022501071011KA1120N+00621MA1999999100711MD1710011+9999MW1021REMSYN088AAXX  20064 01098 31889 51803 10081 20064 30071 40091 57001 70222 84071 333 20062 91108;EQDQ01  00002PRCP99
0161010980999992000052009004+70370+031100FM-12+001599999V0201801N002112200019N0750001N1+00981+00761100911ADDAY101031AY201031GF101991011001022501031001MA1999999100731MD1010001+9999MW1021REMSYN072AAXX  20094 01098 41889 11804 10098 20076 30073 40091 50000 70200 81030;
0201010980999992000052012004+70370+031100FM-12+001599999V0201401N001512200019N0750001N1+01061+00751100861ADDAA199000091AY101061AY201061GF101991011001022501041001MA1999999100681MD1810051+9999MW1021REMSYN082AAXX  20124 01098 31889 11403 10106 20075 30068 40086 58005 70200 81040 333 91110;EQDQ01  00002PRCP99
0161010980999992000052015004+70370+031100FM-12+001599999V0201701N001512200019N0750001N1+01081+00801100861ADDAY101031AY201031GF101991001001999999001081MA1999999100681MD1410001+9999MW1021REMSYN072AAXX  20154 01098 41989 11703 10108 20080 30068 40086 54000 70200 80008;
0220010980999992000052018004+70370+031100FM-12+001599999V0201601N000512200019N0750001N1+01081+00721100781ADDAA199000091AY101061AY201061GF101991001001999999001081KA1120M+01081MA1999999100601MD1810081+9999MW1021REMSYN088AAXX  20184 01098 31989 11601 10108 20072 30060 40078 58008 70200 80008 333 10108 91106;EQDQ01  00002PRCP99
0161010980999992000052021004+70370+031100FM-12+001599999V0201601N001512200019N0750001N1+00781+00631100761ADDAY101031AY201031GF101991001001999999001081MA1999999100581MD1710021+9999MW1021REMSYN072AAXX  20214 01098 41989 11603 10078 20063 30058 40076 57002 70200 80008;
0201010980999992000052100004+70370+031100FM-12+001599999V0201801N002112200019N0750001N1+00891+00691100731ADDAA199000091AY101061AY201061GF101991001001999999001081MA1999999100551MD1710031+9999MW1021REMSYN082AAXX  21004 01098 31989 11804 10089 20069 30055 40073 57003 70200 80008 333 91106;EQDQ01  00002PRCP99
0161010980999992000052103004+70370+031100FM-12+001599999V0202201N004112200019N0750001N1+00701+00551100661ADDAY101031AY201031GF101991001001999999001081MA1999999100481MD1710071+9999MW1021REMSYN072AAXX  21034 01098 41989 12208 10070 20055 30048 40066 57007 70200 80008;
0220010980999992000052106004+70370+031100FM-12+001599999V0202301N005712200019N0750001N1+00741+00551100621ADDAA199000091AY101061AY201061GF101991011001022501041081KA1120N+00651MA1999999100441MD1710041+9999MW1021REMSYN088AAXX  21064 01098 31889 12311 10074 20055 30044 40062 57004 70200 81048 333 20065 91113;EQDQ01  00002PRCP99
0161010980999992000052109004+70370+031100FM-12+001599999V0202201N002612200019N0750001N1+00981+00621100751ADDAY101031AY201031GF103991011001022501041081MA1999999100571MD1310131+9999MW1021REMSYN072AAXX  21094 01098 41889 32205 10098 20062 30057 40075 53013 70200 81048;
0201010980999992000052112004+70370+031100FM-12+001599999V0202101N002112200019N0750001N1+01021+00721100721ADDAA199000091AY101061AY201061GF103991011001022501031081MA1999999100541MD1810031+9999MW1021REMSYN082AAXX  21124 01098 31889 32104 10102 20072 30054 40072 58003 70200 81038 333 91114;EQDQ01  00002PRCP99
0161010980999992000052115004+70370+031100FM-12+001599999V0201901N002112200019N0750001N1+01381+00651100651ADDAY101031AY201031GF101991011001012501031001MA1999999100481MD1710061+9999MW1011REMSYN072AAXX  21154 01098 41689 11904 10138 20065 30048 40065 57006 70100 81030;
0220010980999992000052118004+70370+031100FM-12+001599999V0203301N000512200019N0750001N1+01031+00711100711ADDAA199000091AY101061AY201061GF103991011021004501031001KA1120M+01401MA1999999100531MD1310051+9999MW1031REMSYN088AAXX  21184 01098 31489 33301 10103 20071 30053 40071 53005 70300 81230 333 10140 91111;EQDQ01  00002PRCP99
0171010980999992000052121004+70370+031100FM-12+001599999V0203501N002110001519N0000001N1+00451+00391100751ADDAY141031AY241031GA1091+999999999GF109991091999999999999999MA1999999100571MD1210041+9999MW1471REMSYN066AAXX  21214 01098 41/00 93504 10045 20039 30057 40075 52004 74744;
0211010980999992000052200004+70370+031100FM-12+001599999V0203501N001010001519N0000001N1+00481+00461100731ADDAA199000091AY141061AY241061GA1091+999999999GF109991091999999999999999MA1999999100551MD1710021+9999MW1471REMSYN076AAXX  22004 01098 31/00 93502 10048 20046 30055 40073 57002 74744 333 91108;EQDQ01  00002PRCP99
0171010980999992000052203004+70370+031100FM-12+001599999V0203601N001010001519N0001001N1+00421+00381100591ADDAY141031AY241031GA1091+999999999GF109991091999999999999999MA1999999100411MD1710141+9999MW1471REMSYN066AAXX  22034 01098 41/01 93602 10042 20038 30041 40059 57014 74744;
0217010980999992000052206004+70370+031100FM-12+001599999V0200401N000510001519N0001001N1+00481+00441100531ADDAA112000791AY141061AY241061GA1091+999999999GF109991091999999999999999KA1120N+00421MA1999999100351MD1710061+9999MW1471REMSYN088AAXX  22064 01098 11/01 90401 10048 20044 30035 40053 57006 69902 74744 333 20042 91108;
0161010980999992000052209004+70370+031100FM-12+001599999V0203301N002610006019N0070001N1+00521+00481100561ADDAY141031AY221031GF108991081061000751999999MA1999999100381MD1310031+9999MW1101REMSYN072AAXX  22094 01098 41157 83305 10052 20048 30038 40056 53003 71042 886//;
0201010980999992000052212004+70370+031100FM-12+001599999V0203301N002610012019N0300001N1+00531+00411100781ADDAA199000091AY141061AY221061GF107991051061001501071001MA1999999100601MD1210221+9999MW1021REMSYN082AAXX  22124 01098 31280 73305 10053 20041 30060 40078 52022 70242 85670 333 91110;EQDQ01  00002PRCP99
0161010980999992000052215004+70370+031100FM-12+001599999V0202101N001510240019N0550001N1+00621+00421101001ADDAY161031AY221031GF106991041051004501051001MA1999999100821MD1210221+9999MW1011REMSYN072AAXX  22154 01098 41485 62103 10062 20042 30082 40100 52022 70162 84550;
0207010980999992000052218004+70370+031100FM-12+001599999V0202401N002112200019N0750001N1+00511+00251101141ADDAA112000191AY161061AY221061GF103991011041004501041011KA1120M+00631MA1999999100961MD1210141+9999MW1011REMSYN094AAXX  22184 01098 11489 32404 10051 20025 30096 40114 52014 69912 70162 81441 333 10063 91108;
0161010980999992000052221004+70370+031100FM-12+001599999V0202201N002612200019N0750001N1+00411+00201101281ADDAY101031AY201031GF102991011041004501041011MA1999999101101MD1210141+9999MW1011REMSYN072AAXX  22214 01098 41489 22205 10041 20020 30110 40128 52014 70100 81441;
0201010980999992000052300004+70370+031100FM-12+001599999V0202601N001012200019N0750001N1+00321+00141101361ADDAA199000091AY101061AY201061GF102991011041008001041081MA1999999101181MD1110081+9999MW1021REMSYN082AAXX  23004 01098 31589 22602 10032 20014 30118 40136 51008 70200 81448 333 91106;EQDQ01  00002PRCP99
0161010980999992000052303004+70370+031100FM-12+001599999V0202201N000512200019N0750001N1+00451+00171101451ADDAY101031AY201031GF103991011001022501041081MA1999999101271MD1210091+9999MW1031REMSYN072AAXX  23034 01098 41889 32201 10045 20017 30127 40145 52009 70300 81048;
0220010980999992000052306004+70370+031100FM-12+001599999V0201501N001012200019N0750001N1+00601+00381101501ADDAA199000091AY101061AY201061GF101991011001022501041081KA1120N+00261MA1999999101321MD1210051+9999MW1011REMSYN088AAXX  23064 01098 31889 11502 10060 20038 30132 40150 52005 70100 81048 333 20026 91105;EQDQ01  00002PRCP99
0161010980999992000052309004+70370+031100FM-12+001599999V0201501N001012200019N0550001N1+00721+00471101551ADDAY101031AY201031GF101991011041004501041081MA1999999101371MD1210051+9999MW1021REMSYN072AAXX  23094 01098 41485 11502 10072 20047 30137 40155 52005 70200 81448;
0201010980999992000052312004+70370+031100FM-12+001599999V0201401N001012200019N0550001N1+00721+00431101571ADDAA199000091AY101061AY201061GF103991021001022501031081MA1999999101391MD1210021+9999MW1021REMSYN082AAXX  23124 01098 31885 31402 10072 20043 30139 40157 52002 70200 82038 333 91105;EQDQ01  00002PRCP99
0161010980999992000052315004+70370+031100FM-12+001599999V0201201N002112200019N0550001N1+00661+00461101531ADDAY101031AY201031GF103991011001022501031081MA1999999101351MD1810041+9999MW1021REMSYN072AAXX  23154 01098 41885 31204 10066 20046 30135 40153 58004 70200 81038;
0220010980999992000052318004+70370+031100FM-12+001599999V0201201N001512200019N0550001N1+00551+00421101511ADDAA199000091AY101061AY201061GF102991011031008001051081KA1120M+00761MA1999999101331MD1710021+9999MW1021REMSYN088AAXX  23184 01098 31585 21203 10055 20042 30133 40151 57002 70200 81358 333 10076 91105;EQDQ01  00002PRCP99
0161010980999992000052321004+70370+031100FM-12+001599999V0201101N002110600019N0550001N1+00481+00381101421ADDAY111031AY201031GF105991011041008001071081MA1999999101241MD1710091+9999MW1031REMSYN072AAXX  23214 01098 41585 51104 10048 20038 30124 40142 57009 70310 81478;
0201010980999992000052400004+70370+031100FM-12+001599999V0201201N001510012019N0200001N1+00451+00381101371ADDAA199000091AY121061AY221061GF108991081061001501999999MA1999999101191MD1710051+9999MW1031REMSYN082AAXX  24004 01098 31270 81203 10045 20038 30119 40137 57005 70322 886// 333 91107;EQDQ01  00002PRCP99
0161010980999992000052403004+70370+031100FM-12+001599999V0201201N001510240019N0100001N1+00461+00401101241ADDAY151031AY221031GF106991031061001501031001MA1999999101061MD1710131+9999MW1201REMSYN072AAXX  24034 01098 41260 61203 10046 20040 30106 40124 57013 72052 83630;
0207010980999992000052406004+70370+031100FM-12+001599999V0200901N000510012019N0100001N1+00481+00381101171ADDAA112000791AY151061AY221061GF108991081061001501999999KA1120N+00421MA1999999100991MD1710071+9999MW1021REMSYN094AAXX  24064 01098 11260 80901 10048 20038 30099 40117 57007 69902 70252 886// 333 20042 91106;
0161010980999992000052409004+70370+031100FM-12+001599999V0201301N001010012019N0050001N1+00471+00411101151ADDAY161031AY251031GF108991071061001501021999MA1999999100971MD1710021+9999MW1611REMSYN072AAXX  24094 01098 41250 81302 10047 20041 30097 40115 57002 76165 8762/;
0188010980999992000052412004+70370+031100FM-12+001599999V0200401N001010012019N0050001N1+00511+00451101031ADDAA106002091AY161061AY251061GF108991071061001501021999MA1999999100851MD1810121+9999MW1611REMSYN088AAXX  24124 01098 11250 80402 10051 20045 30085 40103 58012 60021 76165 8762/ 333 91104;
0161010980999992000052415004+70370+031100FM-12+001599999V0200701N001010012019N0050001N1+00521+00461101001ADDAY161031AY221031GF108991071061001501021999MA1999999100821MD1710031+9999MW1021REMSYN072AAXX  24154 01098 41250 80702 10052 20046 30082 40100 57003 70262 8762/;
0207010980999992000052418004+70370+031100FM-12+001599999V0200201N001510012019N0050001N1+00471+00411100921ADDAA112002091AY161061AY221061GF108991081061001501999999KA1120M+00551MA1999999100741MD1710081+9999MW1101REMSYN094AAXX  24184 01098 11250 80203 10047 20041 30074 40092 57008 60022 71062 886// 333 10055 91104;
0161010980999992000052421004+70370+031100FM-12+001599999V0200301N001510012019N0100001N1+00441+00371100911ADDAY121031AY221031GF108991081061001501999999MA1999999100731MD1710011+9999MW1101REMSYN072AAXX  24214 01098 41260 80303 10044 20037 30073 40091 57001 71022 886//;
0182010980999992000052500004+70370+031100FM-12+001599999V0200101N001510021019N0100001N1+00431+00361100911ADDAA199000021AY121061AY221061GF108991081061002501999999MA1999999100731MD1410001+9999MW1101REMSYN082AAXX  25004 01098 31360 80103 10043 20036 30073 40091 54000 71022 886// 333 91105;
0161010980999992000052503004+70370+031100FM-12+001599999V0200201N002110240019N0060001N1+00401+00341100901ADDAY151031AY221031GF108991041061002501021999MA1999999100721MD1810011+9999MW1501REMSYN072AAXX  25034 01098 41356 80204 10040 20034 30072 40090 58001 75052 8462/;
0207010980999992000052506004+70370+031100FM-12+001599999V0200101N002610240019N0200001N1+00411+00351100931ADDAA112000791AY151061AY221061GF108991041061002501021999KA1120N+00391MA1999999100751MD1310031+9999MW1021REMSYN094AAXX  25064 01098 11370 80105 10041 20035 30075 40093 53003 69902 70252 8462/ 333 20039 91108;
0161010980999992000052509004+70370+031100FM-12+001599999V0200201N002610012019N0040001N1+00421+00361100981ADDAY121031AY221031GF108991081061001501999999MA1999999100801MD1210051+9999MW1101REMSYN072AAXX  25094 01098 41240 80205 10042 20036 30080 40098 52005 71022 886//;
0188010980999992000052512004+70370+031100FM-12+001599999V0200501N002110012019N0060001N1+00891+00831101091ADDAA106000791AY151061AY221061GF108991081061001501999999MA1999999100911MD1210111+9999MW1101REMSYN088AAXX  25124 01098 11256 80504 10089 20083 30091 40109 52011 69901 71052 886// 333 91108;
0155010980999992000052515004+70370+031100FM-12+001599999V0200601N002110012019N0060001N1+00391+99999101161ADDAY121031AY221031GF108991081061001501999999MA1999999100981MD1210071+9999MW1101REMSYN066AAXX  25154 01098 41256 80604 10039 30098 40116 52007 71022 886//;
0207010980999992000052518004+70370+031100FM-12+001599999V0200701N002610021019N0550001N1+00341+00281101201ADDAA112000791AY121061AY221061GF108991071071002501021001KA1120M+00451MA1999999101021MD1110041+9999MW1021REMSYN094AAXX  25184 01098 11385 80705 10034 20028 30102 40120 51004 69902 70222 87720 333 10045 91110;
0161010980999992000052521004+70370+031100FM-12+001599999V0200801N002110021019N0300001N1+00321+00251101241ADDAY151031AY221031GF108991071071002501021999MA1999999101061MD1210041+9999MW1501REMSYN072AAXX  25214 01098 41380 80804 10032 20025 30106 40124 52004 75052 8772/;
0188010980999992000052600004+70370+031100FM-12+001599999V0200901N003110021019N0300001N1+00321+00251101201ADDAA106000791AY151061AY221061GF108991071071002501021999MA1999999101021MD1810041+9999MW1021REMSYN088AAXX  26004 01098 11380 80906 10032 20025 30102 40120 58004 69901 70252 8772/ 333 91109;
0161010980999992000052603004+70370+031100FM-12+001599999V0200901N002110021019N0300001N1+00341+00271101171ADDAY151031AY221031GF108991071071002501021999MA1999999100991MD1710031+9999MW1501REMSYN072AAXX  26034 01098 41380 80904 10034 20027 30099 40117 57003 75052 8772/;
0207010980999992000052606004+70370+031100FM-12+001599999V0200901N002610021019N0300001N1+00341+00271101091ADDAA112000791AY151061AY221061GF108991071071002501021999KA1120N+00291MA1999999100911MD1710081+9999MW1021REMSYN094AAXX  26064 01098 11380 80905 10034 20027 30091 40109 57008 69902 70252 8772/ 333 20029 91109;
0161010980999992000052609004+70370+031100FM-12+001599999V0200901N002610021019N0250001N1+00311+00251101101ADDAY161031AY251031GF108991071071002501021999MA1999999100921MD1310011+9999MW1601REMSYN072AAXX  26094 01098 41375 80905 10031 20025 30092 40110 53001 76065 8772/;
0188010980999992000052612004+70370+031100FM-12+001599999V0200801N003110021019N0100001N1+00261+00201101051ADDAA106002091AY161061AY251061GF108991071071002501021999MA1999999100871MD1810261+9999MW1511REMSYN088AAXX  26124 01098 11360 80806 10026 20020 30087 40105 58026 60021 75165 8772/ 333 91111;
0161010980999992000052615004+70370+031100FM-12+001599999V0200901N003610012019N0100001N1+00281+00201101011ADDAY151031AY221031GF108991071071001501021999MA1999999100831MD1710041+9999MW1511REMSYN072AAXX  26154 01098 41260 80907 10028 20020 30083 40101 57004 75152 8772/;
0207010980999992000052618004+70370+031100FM-12+001599999V0200901N004110012019N0100001N1+00281+00201100931ADDAA112003091AY161061AY251061GF108991071071001501021999KA1120M+00371MA1999999100751MD1710081+9999MW1601REMSYN094AAXX  26184 01098 11260 80908 10028 20020 30075 40093 57008 60032 76065 8772/ 333 10037 91112;
0161010980999992000052621004+70370+031100FM-12+001599999V0200901N004110021019N0200001N1+00301+00231100801ADDAY161031AY221031GF108991071071002501021999MA1999999100621MD1710131+9999MW1501REMSYN072AAXX  26214 01098 41370 80908 10030 20023 30062 40080 57013 75062 8772/;
0188010980999992000052700004+70370+031100FM-12+001599999V0200801N004110021019N0200001N1+00291+00221100601ADDAA106000191AY161061AY221061GF108991071071002501021999MA1999999100411MD1710201+9999MW1601REMSYN088AAXX  27004 01098 11370 80808 10029 20022 30041 40060 57020 69921 76062 8772/ 333 91115;
0161010980999992000052703004+70370+031100FM-12+001599999V0200701N004110021019N0100001N1+00271+00201100451ADDAY161031AY221031GF108991071071002501021999MA1999999100271MD1710151+9999MW1621REMSYN072AAXX  27034 01098 41360 80708 10027 20020 30027 40045 57015 76262 8772/;
0207010980999992000052706004+70370+031100FM-12+001599999V0200701N004610021019N0100001N1+00251+00181100381ADDAA112006191AY171061AY261061GF108991071071002501021999KA1120N+00201MA1999999100201MD1710071+9999MW1691REMSYN094AAXX  27064 01098 11360 80709 10025 20018 30020 40038 57007 60062 76976 8772/ 333 20020 91117;
0161010980999992000052709004+70370+031100FM-12+001599999V0200701N004110012019N0060001N1+00221+00161100371ADDAY161031AY221031GF108991071071001501021999MA1999999100191MD1710011+9999MW1601REMSYN072AAXX  27094 01098 41256 80708 10022 20016 30019 40037 57001 76062 8772/;
0188010980999992000052712004+70370+031100FM-12+001599999V0200701N004610021019N0080001N1+00221+00161100511ADDAA106006191AY161061AY221061GF108991071071002501021999MA1999999100331MD1310141+9999MW1611REMSYN088AAXX  27124 01098 11358 80709 10022 20016 30033 40051 53014 60061 76162 8772/ 333 91116;
0161010980999992000052715004+70370+031100FM-12+001599999V0200701N004110060019N0150001N1+00201+00141100661ADDAY181031AY261031GF108991081081002501999999MA1999999100481MD1210151+9999MW1831REMSYN072AAXX  27154 01098 41365 80708 10020 20014 30048 40066 52015 78386 888//;
0207010980999992000052718004+70370+031100FM-12+001599999V0200701N003610021019N0150001N1+00231+00161100831ADDAA112009991AY181061AY261061GF108991061071002501021999KA1120M+00261MA1999999100651MD1210171+9999MW1611REMSYN094AAXX  27184 01098 11365 80707 10023 20016 30065 40083 52017 60102 76186 8672/ 333 10026 91114;
0161010980999992000052721004+70370+031100FM-12+001599999V0200701N003110021019N0150001N1+00251+00181100981ADDAY161031AY221031GF108991061071002501021999MA1999999100801MD1210151+9999MW1601REMSYN072AAXX  27214 01098 41365 80706 10025 20018 30080 40098 52015 76062 8672/;
0188010980999992000052800004+70370+031100FM-12+001599999V0200701N003110012019N0050001N1+00281+00211101181ADDAA106000191AY161061AY221061GF108991061061001501021999MA1999999101001MD1210201+9999MW1601REMSYN088AAXX  28004 01098 11250 80706 10028 20021 30100 40118 52020 69911 76062 8662/ 333 91112;
0161010980999992000052803004+70370+031100FM-12+001599999V0200801N002610012019N0050001N1+00281+00211101271ADDAY161031AY221031GF108991061061001501021999MA1999999101091MD1210091+9999MW1101REMSYN072AAXX  28034 01098 41250 80805 10028 20021 30109 40127 52009 71062 8662/;
0207010980999992000052806004+70370+031100FM-12+001599999V0201001N002610012019N0050001N1+00281+00211101301ADDAA112000191AY161061AY221061GF108991061061001501021999KA1120N+00211MA1999999101121MD1210031+9999MW1101REMSYN094AAXX  28064 01098 11250 81005 10028 20021 30112 40130 52003 69922 71062 8662/ 333 20021 91110;
0161010980999992000052809004+70370+031100FM-12+001599999V0201101N003110021019N0100001N1+00291+00221101301ADDAY121031AY221031GF108991081061002501999999MA1999999101121MD1410001+9999MW1101REMSYN072AAXX  28094 01098 41360 81106 10029 20022 30112 40130 54000 71022 886//;
0182010980999992000052812004+70370+031100FM-12+001599999V0201201N004110021019N0300001N1+00301+00231101211ADDAA199000021AY121061AY221061GF108991081061002501999999MA1999999101031MD1710091+9999MW1021REMSYN082AAXX  28124 01098 31380 81208 10030 20023 30103 40121 57009 70222 886// 333 91113;
0161010980999992000052815004+70370+031100FM-12+001599999V0201301N003610012019N0450001N1+00351+00281101071ADDAY121031AY221031GF108991061071001501021999MA1999999100891MD1710141+9999MW1021REMSYN072AAXX  28154 01098 41283 81307 10035 20028 30089 40107 57014 70222 8672/;
0207010980999992000052818004+70370+031100FM-12+001599999V0201301N003610240019N0300001N1+00361+00301100891ADDAA112000191AY161061AY221061GF108991041071001501021999KA1120M+00371MA1999999100711MD1710181+9999MW1611REMSYN094AAXX  28184 01098 11280 81307 10036 20030 30071 40089 57018 69912 76162 8472/ 333 10037 91114;
0161010980999992000052821004+70370+031100FM-12+001599999V0201301N003610240019N0600001N1+00391+00321100811ADDAY161031AY221031GF108991021071001501051999MA1999999100631MD1710081+9999MW1021REMSYN072AAXX  28214 01098 41286 81307 10039 20032 30063 40081 57008 70262 8275/;
0188010980999992000052900004+70370+031100FM-12+001599999V0201601N002110600019N0550001N1+00451+00381100771ADDAA106001091AY161061AY221061GF108991041041004501001091MA1999999100591MD1710041+9999MW1011REMSYN088AAXX  29004 01098 11485 81604 10045 20038 30059 40077 57004 60011 70162 84409 333 91112;
0161010980999992000052903004+70370+031100FM-12+001599999V0201601N002612200019N0550001N1+00601+00531100721ADDAY111031AY211031GF104991011041004501051041MA1999999100541MD1710051+9999MW1011REMSYN072AAXX  29034 01098 41485 41605 10060 20053 30054 40072 57005 70111 81454;
0207010980999992000052906004+70370+031100FM-12+001599999V0201801N003612200019N0550001N1+00651+00581100691ADDAA112001091AY111061AY211061GF101991011041004501041091KA1120N+00351MA1999999100511MD1710031+9999MW1011REMSYN094AAXX  29064 01098 11485 11807 10065 20058 30051 40069 57003 60012 70111 81449 333 20035 91110;
0161010980999992000052909004+70370+031100FM-12+001599999V0201701N002612200019N0550001N1+00901+00701100721ADDAY121031AY211031GF105991011041004501041091MA1999999100541MD1310031+9999MW1021REMSYN072AAXX  29094 01098 41485 51705 10090 20070 30054 40072 53003 70221 81449;
0201010980999992000052912004+70370+031100FM-12+001599999V0201701N002612200019N0550001N1+00801+00631100671ADDAA199000091AY121061AY211061GF105991011081004501041091MA1999999100491MD1810051+9999MW1021REMSYN082AAXX  29124 01098 31485 51705 10080 20063 30049 40067 58005 70221 81849 333 91111;EQDQ01  00002PRCP99
0161010980999992000052915004+70370+031100FM-12+001599999V0201601N002110240019N0550001N1+00931+00731100701ADDAY121031AY221031GF107991021051004501041091MA1999999100521MD1310031+9999MW1031REMSYN072AAXX  29154 01098 41485 71604 10093 20073 30052 40070 53003 70322 82549;
0220010980999992000052918004+70370+031100FM-12+001599999V0201701N002610240019N0550001N1+00881+00661100701ADDAA199000091AY121061AY221061GF107991021041008001051091KA1120M+01051MA1999999100521MD1410001+9999MW1021REMSYN088AAXX  29184 01098 31585 71705 10088 20066 30052 40070 54000 70222 82459 333 10105 91108;EQDQ01  00002PRCP99
0161010980999992000052921004+70370+031100FM-12+001599999V0201801N001519999999N0750001N1+00921+00651100711ADDAY121031AY221031GF107991041001012501051041MA1999999100531MD1310011+9999MW1021REMSYN072AAXX  29214 01098 41689 71803 10092 20065 30053 40071 53001 70222 84054;
0201010980999992000053000004+70370+031100FM-12+001599999V0201801N002119999999N0750001N1+01001+00781100691ADDAA199000091AY121061AY221061GF107991071001012501071001MA1999999100511MD1810021+9999MW1021REMSYN082AAXX  30004 01098 31689 71804 10100 20078 30051 40069 58002 70222 87070 333 91109;EQDQ01  00002PRCP99
0161010980999992000053003004+70370+031100FM-12+001599999V0201501N001019999999N0750001N1+00851+00731100631ADDAY121031AY221031GF107991071001012501071001MA1999999100451MD1710061+9999MW1021REMSYN072AAXX  30034 01098 41689 71502 10085 20073 30045 40063 57006 70222 87070;
0207010980999992000053006004+70370+031100FM-12+001599999V0201201N001019999999N0750001N1+00721+00611100541ADDAA112000191AY161061AY221061GF107991071001012501051001KA1120N+00681MA1999999100361MD1710091+9999MW1601REMSYN094AAXX  30064 01098 11689 71202 10072 20061 30036 40054 57009 69912 76062 87050 333 20068 91107;
0161010980999992000053009004+70370+031100FM-12+001599999V0201901N001510042019N0550001N1+00741+00681100351ADDAY161031AY221031GF107991061051004501051001MA1999999100171MD1810191+9999MW1021REMSYN072AAXX  30094 01098 41485 71903 10074 20068 30017 40035 58019 70262 86550;
0188010980999992000053012004+70370+031100FM-12+001599999V0201901N001519999999N0400001N1+01131+01061100301ADDAA106000791AY161061AY221061GF107991071001012501071001MA1999999100121MD1610051+9999MW1021REMSYN088AAXX  30124 01098 11682 71903 10113 20106 30012 40030 56005 69901 70262 87070 333 91105;
0161010980999992000053015004+70370+031100FM-12+001599999V0201601N001010042019N0200001N1+00941+00861100291ADDAY161031AY221031GF108991071071004501021999MA1999999100111MD1710011+9999MW1621REMSYN072AAXX  30154 01098 41470 81602 10094 20086 30011 40029 57001 76262 8772/;
0217010980999992000053018004+70370+031100FM-12+001599999V0201601N001010003019N0003001N1+00821+00761100231ADDAA112003091AY161061AY221061GA1091+999999999GF109991091999999999999999KA1120M+01161MA1999999100051MD1710061+9999MW1601REMSYN088AAXX  30184 01098 11/03 91602 10082 20076 30005 40023 57006 60032 76062 333 10116 91105;
0161010980999992000053021004+70370+031100FM-12+001599999V0202701N001510240019N0010001N1+00701+00631100211ADDAY161031AY221031GF107991041061000251021001MA1999999100031MD1710021+9999MW1101REMSYN072AAXX  30214 01098 41010 72703 10070 20063 30003 40021 57002 71062 84620;
0188010980999992000053100004+70370+031100FM-12+001599999V0202301N004112200019N0550001N1+00761+00691100301ADDAA106000191AY161061AY211061GF103991031041008001001001MA1999999100121MD1310091+9999MW1011REMSYN088AAXX  31004 01098 11585 32308 10076 20069 30012 40030 53009 69911 70161 83400 333 91109;
0161010980999992000053103004+70370+031100FM-12+001599999V0201701N001512200019N0050001N1+00811+00731100421ADDAY141031AY201031GF102991011061000751001091MA1999999100241MD1210121+9999MW1401REMSYN072AAXX  31034 01098 41150 21703 10081 20073 30024 40042 52012 74040 81609;
0207010980999992000053106004+70370+031100FM-12+001599999V0202301N003612200019N0550001N1+00941+00771100521ADDAA112000191AY141061AY201061GF102991011041008001001091KA1120N+00641MA1999999100341MD1210101+9999MW1021REMSYN094AAXX  31064 01098 11585 22307 10094 20077 30034 40052 52010 69912 70240 81409 333 20064 91109;
0161010980999992000053109004+70370+031100FM-12+001599999V0202201N002612200019N0550001N1+01221+00831100621ADDAY101031AY201031GF102991011041004501041011MA1999999100451MD1210111+9999MW1021REMSYN072AAXX  31094 01098 41485 22205 10122 20083 30045 40062 52011 70200 81441;
0201010980999992000053112004+70370+031100FM-12+001599999V0201601N001012200019N0550001N1+01201+00871100751ADDAA199000091AY101061AY201061GF102991011041004501041011MA1999999100581MD1210071+9999MW1021REMSYN082AAXX  31124 01098 31485 21602 10120 20087 30058 40075 52007 70200 81441 333 91109;EQDQ01  00002PRCP99
0161010980999992000053115004+70370+031100FM-12+001599999V0201501N001012200019N0750001N1+01021+00721100781ADDAY121031AY221031GF105991011021004501041091MA1999999100611MD1110031+9999MW1021REMSYN072AAXX  31154 01098 41489 51502 10102 20072 30061 40078 51003 70222 81249;
0207010980999992000053118004+70370+031100FM-12+001599999V0201201N000510240019N0200001N1+01011+00881100731ADDAA112000191AY161061AY221061GF107991031071004501021001KA1120M+01271MA1999999100561MD1810051+9999MW1611REMSYN094AAXX  31184 01098 11470 71201 10101 20088 30056 40073 58005 69922 76162 83720 333 10127 91104;
0161010980999992000053121004+70370+031100FM-12+001599999V0201201N000510021019N0200001N1+00821+00751100711ADDAY161031AY261031GF108991061071002501021001MA1999999100531MD1710021+9999MW1611REMSYN072AAXX  31214 01098 41370 81201 10082 20075 30053 40071 57002 76166 86720;
0188010980999992000060100004+70370+031100FM-12+001599999V0201701N001010021019N0200001N1+00701+00631100611ADDAA106003091AY161061AY261061GF108991061071002501021999MA1999999100431MD1810101+9999MW1631REMSYN088AAXX  01004 01098 11370 81702 10070 20063 30043 40061 58010 60031 76366 8672/ 333 91107;
0161010980999992000060103004+70370+031100FM-12+001599999V0201001N000510021019N0150001N1+00781+00721100581ADDAY161031AY261031GF108991081071002501999999MA1999999100401MD1710031+9999MW1631REMSYN072AAXX  01034 01098 41365 81001 10078 20072 30040 40058 57003 76366 887//;
0207010980999992000060106004+70370+031100FM-12+001599999V0201901N001510021019N0100001N1+00731+00661100561ADDAA112007191AY161061AY261061GF108991081071002501999999KA1120N+00681MA1999999100381MD1710021+9999MW1631REMSYN094AAXX  01064 01098 11360 81903 10073 20066 30038 40056 57002 60072 76366 887// 333 20068 91105;
0161010980999992000060109004+70370+031100FM-12+001599999V0202201N002610240019N0750001N1+00871+00811100661ADDAY161031AY221031GF106991041081002501071001MA1999999100481MD1310101+9999MW1011REMSYN072AAXX  01094 01098 41389 62205 10087 20081 30048 40066 53010 70162 84870;
0188010980999992000060112004+70370+031100FM-12+001599999V0202101N002112200019N0750001N1+01151+00801100751ADDAA106001091AY161061AY211061GF103991011021002501061001MA1999999100571MD1210091+9999MW1011REMSYN088AAXX  01124 01098 11389 32104 10115 20080 30057 40075 52009 60011 70161 81260 333 91107;
0161010980999992000060115004+70370+031100FM-12+001599999V0202401N002112200019N0750001N1+01151+00701100931ADDAY111031AY201031GF104991021021004501061001MA1999999100751MD1210181+9999MW1031REMSYN072AAXX  01154 01098 41489 42404 10115 20070 30075 40093 52018 70310 82260;
0207010980999992000060118004+70370+031100FM-12+001599999V0200101N002110240019N0750001N1+00781+00711101111ADDAA112001091AY161061AY211061GF105991031021004501061001KA1120M+01251MA1999999100921MD1210171+9999MW1031REMSYN094AAXX  01184 01098 11489 50104 10078 20071 30092 40111 52017 60012 70361 83260 333 10125 91109;
0161010980999992000060121004+70370+031100FM-12+001599999V0203301N001510090019N0300001N1+00611+00541101251ADDAY161031AY221031GF107991051081004501021001MA1999999101071MD1210151+9999MW1601REMSYN072AAXX  01214 01098 41480 73303 10061 20054 30107 40125 52015 76062 85820;
0188010980999992000060200004+70370+031100FM-12+001599999V0203101N000510042019N0750001N1+00541+00471101351ADDAA106000191AY161061AY221061GF106991051051004501041001MA1999999101171MD1110101+9999MW1021REMSYN088AAXX  02004 01098 11489 63101 10054 20047 30117 40135 51010 69921 70262 85540 333 91107;
0161010980999992000060203004+70370+031100FM-12+001599999V0202401N000512200019N0750001N1+00621+00501101381ADDAY111031AY211031GF103991021051004501031001MA1999999101201MD1210031+9999MW1021REMSYN072AAXX  02034 01098 41489 32401 10062 20050 30120 40138 52003 70211 82530;
0201010980999992000060206004+70370+031100FM-12+001599999V0201701N001512200019N0750001N1+00761+00611101361ADDAA199000021AY101061AY201061GF102991011011004501041001KA1120N+00461MA1999999101181MD1810021+9999MW1021REMSYN088AAXX  02064 01098 31489 21703 10076 20061 30118 40136 58002 70200 81140 333 20046 91105;
0161010980999992000060209004+70370+031100FM-12+001599999V0201701N001512200019N0550001N1+00831+00681101281ADDAY101031AY201031GF102991011011004501071001MA1999999101101MD1710081+9999MW1021REMSYN072AAXX  02094 01098 41485 21703 10083 20068 30110 40128 57008 70200 81170;
0201010980999992000060212004+70370+031100FM-12+001599999V0201301N002112200019N0600001N1+00771+00641101191ADDAA199000091AY101061AY201061GF102991011011004501071001MA1999999101011MD1810111+9999MW1021REMSYN082AAXX  02124 01098 31486 21304 10077 20064 30101 40119 58011 70200 81170 333 91107;EQDQ01  00002PRCP99
0161010980999992000060215004+70370+031100FM-12+001599999V0201301N001510600019N0750001N1+00721+00611101071ADDAY111031AY201031GF105991021021004501031021MA1999999100891MD1710121+9999MW1021REMSYN072AAXX  02154 01098 41489 51303 10072 20061 30089 40107 57012 70210 82232;
0220010980999992000060218004+70370+031100FM-12+001599999V0201501N002612200019N0750001N1+00761+00631100911ADDAA199000091AY111061AY201061GF103991011081004501031031KA1120M+00891MA1999999100731MD1710161+9999MW1021REMSYN088AAXX  02184 01098 31489 31505 10076 20063 30073 40091 57016 70210 81833 333 10089 91107;EQDQ01  00002PRCP99
0161010980999992000060221004+70370+031100FM-12+001599999V0201501N001512200019N0750001N1+00701+00591100821ADDAY101031AY201031GF103991011031004501031031MA1999999100641MD1710091+9999MW1021REMSYN072AAXX  02214 01098 41489 31503 10070 20059 30064 40082 57009 70200 81333;
0201010980999992000060300004+70370+031100FM-12+001599999V0201801N002112200019N0750001N1+00781+00551100711ADDAA199000091AY101061AY201061GF103991021011008001041001MA1999999100531MD1710111+9999MW1011REMSYN082AAXX  03004 01098 31589 31804 10078 20055 30053 40071 57011 70100 82140 333 91107;EQDQ01  00002PRCP99
0161010980999992000060303004+70370+031100FM-12+001599999V0201501N001012200019N0750001N1+00901+00621100621ADDAY101031AY201031GF101991011011008001001001MA1999999100441MD1610091+9999MW1011REMSYN072AAXX  03034 01098 41589 11502 10090 20062 30044 40062 56009 70100 81100;
0220010980999992000060306004+70370+031100FM-12+001599999V0201501N001012200019N0750001N1+00851+00681100551ADDAA199000091AY101061AY201061GF101991011011008001001001KA1120N+00701MA1999999100371MD1710071+9999MW1021REMSYN088AAXX  03064 01098 31589 11502 10085 20068 30037 40055 57007 70200 81100 333 20070 91105;EQDQ01  00002PRCP99
0161010980999992000060309004+70370+031100FM-12+001599999V0201301N001512200019N0600001N1+01081+00761100551ADDAY101031AY201031GF101991011021004501001001MA1999999100371MD1410001+9999MW1021REMSYN072AAXX  03094 01098 41486 11303 10108 20076 30037 40055 54000 70200 81200;
0201010980999992000060312004+70370+031100FM-12+001599999V0201401N001512200019N0600001N1+01061+00681100471ADDAA199000091AY101061AY201061GF101991011021004501001001MA1999999100291MD1810081+9999MW1021REMSYN082AAXX  03124 01098 31486 11403 10106 20068 30029 40047 58008 70200 81200 333 91106;EQDQ01  00002PRCP99
0161010980999992000060315004+70370+031100FM-12+001599999V0201101N001512200019N0750001N1+00991+00691100391ADDAY101031AY201031GF102991011021004501001011MA1999999100211MD1710081+9999MW1021REMSYN072AAXX  03154 01098 41489 21103 10099 20069 30021 40039 57008 70200 81201;
0220010980999992000060318004+70370+031100FM-12+001599999V0200701N002112200019N0750001N1+00981+00701100351ADDAA199000091AY101061AY201061GF102991011021004501001011KA1120M+01311MA1999999100171MD1710041+9999MW1021REMSYN088AAXX  03184 01098 31489 20704 10098 20070 30017 40035 57004 70200 81201 333 10131 91108;EQDQ01  00002PRCP99
0161010980999992000060321004+70370+031100FM-12+001599999V0200901N001012200019N0750001N1+00771+00631100381ADDAY101031AY201031GF102991011001004501071041MA1999999100201MD1310031+9999MW1021REMSYN072AAXX  03214 01098 41489 20902 10077 20063 30020 40038 53003 70200 81074;
0201010980999992000060400004+70370+031100FM-12+001599999V0200501N000510240019N0650001N1+00721+00611100381ADDAA199000091AY111061AY201061GF106991031011004501031061MA1999999100201MD1410001+9999MW1031REMSYN082AAXX  04004 01098 31487 60501 10072 20061 30020 40038 54000 70310 83136 333 91106;EQDQ01  00002PRCP99
0161010980999992000060403004+70370+031100FM-12+001599999V0200201N000510240019N0600001N1+00701+00591100431ADDAY121031AY221031GF107991011071004501071001MA1999999100251MD1310051+9999MW1021REMSYN072AAXX  04034 01098 41486 70201 10070 20059 30025 40043 53005 70222 81770;
0207010980999992000060406004+70370+031100FM-12+001599999V0200301N001010240019N0450001N1+00701+00631100481ADDAA112000791AY161061AY221061GF108991011071004501021999KA1120N+00671MA1999999100301MD1210051+9999MW1601REMSYN094AAXX  04064 01098 11483 80302 10070 20063 30030 40048 52005 69902 76062 8172/ 333 20067 91105;
0161010980999992000060409004+70370+031100FM-12+001599999V0200601N002610240019N0300001N1+00701+00631100581ADDAY161031AY221031GF108991041071004501021999MA1999999100401MD1210101+9999MW1021REMSYN072AAXX  04094 01098 41480 80605 10070 20063 30040 40058 52010 70262 8472/;
0188010980999992000060412004+70370+031100FM-12+001599999V0200601N002610042019N0300001N1+00631+00561100711ADDAA106002091AY161061AY221061GF108991071071004501021999MA1999999100531MD1210131+9999MW1621REMSYN088AAXX  04124 01098 11480 80605 10063 20056 30053 40071 52013 60021 76262 8772/ 333 91109;
0161010980999992000060415004+70370+031100FM-12+001599999V0200701N002110042019N0300001N1+00651+00591100931ADDAY121031AY221031GF108991051071004501021999MA1999999100751MD1210221+9999MW1021REMSYN072AAXX  04154 01098 41480 80704 10065 20059 30075 40093 52022 70222 8572/;
0207010980999992000060418004+70370+031100FM-12+001599999V0200701N002110042019N0200001N1+00601+00541101041ADDAA112002091AY121061AY221061GF108991061071004501021999KA1120M+00721MA1999999100861MD1210111+9999MW1021REMSYN094AAXX  04184 01098 31470 80704 10060 20054 30086 40104 52011 60022 70222 8672/ 333 10072 91108;
0161010980999992000060421004+70370+031100FM-12+001599999V0200601N002110240019N0200001N1+00581+00521101191ADDAY121031AY221031GF107991031071004501031061MA1999999101011MD1210151+9999MW1011REMSYN072AAXX  04214 01098 41470 70604 10058 20052 30101 40119 52015 70122 83736;
0188010980999992000060500004+70370+031100FM-12+001599999V0200501N002610042019N0300001N1+00511+00451101261ADDAA106000791AY151061AY221061GF108991071071004501021999MA1999999101081MD1210071+9999MW1501REMSYN088AAXX  05004 01098 11480 80505 10051 20045 30108 40126 52007 69901 75052 8772/ 333 91108;
0161010980999992000060503004+70370+031100FM-12+001599999V0200501N002110042019N0300001N1+00501+00441101351ADDAY151031AY221031GF108991071071004501021999MA1999999101171MD1210091+9999MW1021REMSYN072AAXX  05034 01098 41480 80504 10050 20044 30117 40135 52009 70252 8772/;
0207010980999992000060506004+70370+031100FM-12+001599999V0200301N002110042019N0300001N1+00481+00421101451ADDAA112000791AY151061AY221061GF108991071071004501021999KA1120N+00481MA1999999101271MD1210101+9999MW1021REMSYN094AAXX  05064 01098 11480 80304 10048 20042 30127 40145 52010 69902 70252 8772/ 333 20048 91108;
0161010980999992000060509004+70370+031100FM-12+001599999V0200101N002110042019N0300001N1+00501+00441101591ADDAY121031AY221031GF108991081051004501999999MA1999999101411MD1210141+9999MW1021REMSYN072AAXX  05094 01098 41480 80104 10050 20044 30141 40159 52014 70222 885//;
0182010980999992000060512004+70370+031100FM-12+001599999V0203501N002110042019N0400001N1+00621+00551101741ADDAA199000021AY121061AY221061GF108991081051004501999999MA1999999101561MD1210151+9999MW1021REMSYN082AAXX  05124 01098 31482 83504 10062 20055 30156 40174 52015 70222 885// 333 91107;
0161010980999992000060515004+70370+031100FM-12+001599999V0200201N001510042019N0550001N1+00681+00531101841ADDAY121031AY221031GF107991071051004501001001MA1999999101661MD1210101+9999MW1021REMSYN072AAXX  05154 01098 41485 70203 10068 20053 30166 40184 52010 70222 87500;
0220010980999992000060518004+70370+031100FM-12+001599999V0200301N001510042019N0750001N1+00581+00441101901ADDAA199000091AY121061AY221061GF107991071051004501001001KA1120M+00701MA1999999101721MD1110061+9999MW1021REMSYN088AAXX  05184 01098 31489 70303 10058 20044 30172 40190 51006 70222 87500 333 10070 91106;EQDQ01  00002PRCP99
0161010980999992000060521004+70370+031100FM-12+001599999V0203401N001012200019N0750001N1+00501+00381101971ADDAY111031AY201031GF103991011051004501041091MA1999999101791MD1210071+9999MW1011REMSYN072AAXX  05214 01098 41489 33402 10050 20038 30179 40197 52007 70110 81549;
0201010980999992000060600004+70370+031100FM-12+001599999V0203401N001510042019N0750001N1+00481+00421101991ADDAA199000091AY121061AY211061GF106991051051004501041091MA1999999101811MD1210021+9999MW1031REMSYN082AAXX  06004 01098 31489 63403 10048 20042 30181 40199 52002 70321 85549 333 91105;EQDQ01  00002PRCP99
0161010980999992000060603004+70370+031100FM-12+001599999V0202401N000510042019N0750001N1+00541+00431101991ADDAY121031AY221031GF107991071051004501001001MA1999999101811MD1410001+9999MW1031REMSYN072AAXX  06034 01098 41489 72401 10054 20043 30181 40199 54000 70322 87500;
0220010980999992000060606004+70370+031100FM-12+001599999V0203201N003610240019N0750001N1+00621+00521101981ADDAA199000091AY121061AY221061GF108991031071004501051999KA1120N+00401MA1999999101801MD1810011+9999MW1031REMSYN088AAXX  06064 01098 31489 83207 10062 20052 30180 40198 58001 70322 8375/ 333 20040 91107;EQDQ01  00002PRCP99
0161010980999992000060609004+70370+031100FM-12+001599999V0203301N002610090019N0550001N1+00661+00561102061ADDAY121031AY221031GF107991071081004501001001MA1999999101881MD1310081+9999MW1021REMSYN072AAXX  06094 01098 41485 73305 10066 20056 30188 40206 53008 70222 87800;
0201010980999992000060612004+70370+031100FM-12+001599999V0203301N001510240019N0550001N1+00711+00411102091ADDAA199000091AY121061AY221061GF106991031081004501041081MA1999999101911MD1110031+9999MW1011REMSYN082AAXX  06124 01098 31485 63303 10071 20041 30191 40209 51003 70122 83848 333 91109;EQDQ01  00002PRCP99
0161010980999992000060615004+70370+031100FM-12+001599999V0200301N001010600019N0550001N1+00671+00371102071ADDAY121031AY221031GF106991041051008001001081MA1999999101891MD1710021+9999MW1021REMSYN072AAXX  06154 01098 41585 60302 10067 20037 30189 40207 57002 70222 84508;
0220010980999992000060618004+70370+031100FM-12+001599999V0201801N001010600019N0550001N1+00651+00451101981ADDAA199000091AY121061AY221061GF106991031051008001001081KA1120M+00761MA1999999101801MD1710091+9999MW1021REMSYN088AAXX  06184 01098 31585 61802 10065 20045 30180 40198 57009 70222 83508 333 10076 91104;EQDQ01  00002PRCP99
0161010980999992000060621004+70370+031100FM-12+001599999V0202001N000512200019N0750001N1+00521+00431101881ADDAY121031AY221031GF105991041051008001001081MA1999999101701MD1710101+9999MW1021REMSYN072AAXX  06214 01098 41589 52001 10052 20043 30170 40188 57010 70222 84508;
0201010980999992000060700004+70370+031100FM-12+001599999V0201801N001510075019N0750001N1+00521+00421101731ADDAA199000091AY121061AY221061GF107991061051008001001081MA1999999101551MD1710151+9999MW1031REMSYN082AAXX  07004 01098 31589 71803 10052 20042 30155 40173 57015 70322 86508 333 91104;EQDQ01  00002PRCP99
0161010980999992000060703004+70370+031100FM-12+001599999V0201901N001010240019N0550001N1+00581+00481101631ADDAY151031AY221031GF108991031051004501021999MA1999999101431MD1710101+9999MW1501REMSYN072AAXX  07034 01098 41485 81902 10058 20048 30143 40163 57010 75052 8352/;
0207010980999992000060706004+70370+031100FM-12+001599999V0201601N001010042019N0550001N1+00631+00531101451ADDAA112000191AY151061AY221061GF108991051051004501021999KA1120N+00451MA1999999101271MD1710181+9999MW1501REMSYN094AAXX  07064 01098 11485 81602 10063 20053 30127 40145 57018 69912 75052 8552/ 333 20045 91104;
0161010980999992000060709004+70370+031100FM-12+001599999V0201401N000510240019N0750001N1+00711+00601101371ADDAY181031AY221031GF108991041081004501071999MA1999999101191MD1610081+9999MW1251REMSYN072AAXX  07094 01098 41489 81401 10071 20060 30119 40137 56008 72582 8487/;
0188010980999992000060712004+70370+031100FM-12+001599999V0203501N001510240019N0550001N1+00731+00621101361ADDAA106000591AY181061AY221061GF107991021081004501071001MA1999999101181MD1710011+9999MW1031REMSYN088AAXX  07124 01098 11485 73503 10073 20062 30118 40136 57001 69941 70382 82870 333 91106;
0161010980999992000060715004+70370+031100FM-12+001599999V0200101N001510240019N0750001N1+00691+00551101301ADDAY121031AY221031GF107991031081004501071001MA1999999101121MD1710061+9999MW1021REMSYN072AAXX  07154 01098 41489 70103 10069 20055 30112 40130 57006 70222 83870;
0207010980999992000060718004+70370+031100FM-12+001599999V0203601N001012200019N0750001N1+00661+00461101221ADDAA112000591AY101061AY201061GF102991011081004501071001KA1120M+00851MA1999999101301MD1710081+9999MW1011REMSYN094AAXX  07184 01098 11489 23602 10066 20046 30130 40122 57008 69942 70100 81870 333 10085 91105;
0161010980999992000060721004+70370+031100FM-12+001599999V0202201N000512200019N0700001N1+00531+00401101161ADDAY101031AY201031GF102991011041004501071091MA1999999100981MD1710061+9999MW1021REMSYN072AAXX  07214 01098 41488 22201 10053 20040 30098 40116 57006 70200 81479;
0201010980999992000060800004+70370+031100FM-12+001599999V0202801N000512200019N0700001N1+00311+00241101111ADDAA199000091AY101061AY201061GF103991011041004501051091MA1999999100931MD1710051+9999MW1021REMSYN082AAXX  08004 01098 31488 32801 10031 20024 30093 40111 57005 70200 81459 333 91102;EQDQ01  00002PRCP99
0161010980999992000060803004+70370+031100FM-12+001599999V0202501N002612200019N0750001N1+00521+00391101031ADDAY101031AY201031GF103991021051004501051081MA1999999100851MD1710081+9999MW1021REMSYN072AAXX  08034 01098 41489 32505 10052 20039 30085 40103 57008 70200 82558;
0220010980999992000060806004+70370+031100FM-12+001599999V0200301N001010240019N0750001N1+00791+00301101011ADDAA199000091AY111061AY211061GF106991041051004501051081KA1120N+00271MA1999999100831MD1710021+9999MW1031REMSYN088AAXX  08064 01098 31489 60302 10079 20030 30083 40101 57002 70311 84558 333 20027 91106;EQDQ01  00002PRCP99
0161010980999992000060809004+70370+031100FM-12+001599999V0200201N002110042019N0550001N1+00641+00541101051ADDAY121031AY211031GF107991071071004501001001MA1999999100871MD1310041+9999MW1031REMSYN072AAXX  08094 01098 41485 70204 10064 20054 30087 40105 53004 70321 87700;
0201010980999992000060812004+70370+031100FM-12+001599999V0200201N001510042019N0550001N1+00621+00401101091ADDAA199000091AY121061AY211061GF107991071051004501001001MA1999999100911MD1210041+9999MW1031REMSYN082AAXX  08124 01098 31485 70203 10062 20040 30091 40109 52004 70321 87500 333 91106;EQDQ01  00002PRCP99
0161010980999992000060815004+70370+031100FM-12+001599999V0200201N001510042019N0650001N1+00581+00281101091ADDAY121031AY221031GF107991051051004501051001MA1999999100911MD1410001+9999MW1021REMSYN072AAXX  08154 01098 41487 70203 10058 20028 30091 40109 54000 70222 85550;
0220010980999992000060818004+70370+031100FM-12+001599999V0200301N001010042019N0650001N1+00501+00151101091ADDAA199000091AY121061AY221061GF107991051051004501051001KA1120M+00791MA1999999100911MD1410001+9999MW1021REMSYN088AAXX  08184 01098 31487 70302 10050 20015 30091 40109 54000 70222 85550 333 10079 91105;EQDQ01  00002PRCP99
0161010980999992000060821004+70370+031100FM-12+001599999V0200301N001010240019N0750001N1+00441+00181101071ADDAY121031AY221031GF106991041051004501041001MA1999999100891MD1810021+9999MW1021REMSYN072AAXX  08214 01098 41489 60302 10044 20018 30089 40107 58002 70222 84540;
0201010980999992000060900004+70370+031100FM-12+001599999V0200701N000510090019N0750001N1+00421+00051101051ADDAA199000091AY121061AY221061GF107991051081004501041001MA1999999100871MD1710031+9999MW1021REMSYN082AAXX  09004 01098 31489 70701 10042 20005 30087 40105 57003 70222 85840 333 91103;EQDQ01  00002PRCP99
0161010980999992000060903004+70370+031100FM-12+001599999V0203201N000510240019N0750001N1+00521+00111101011ADDAY121031AY221031GF105991041081004501041001MA1999999100831MD1710041+9999MW1011REMSYN072AAXX  09034 01098 41489 53201 10052 20011 30083 40101 57004 70122 84840;
0220010980999992000060906004+70370+031100FM-12+001599999V0202601N001010240019N0750001N1+00591+00121100991ADDAA199000091AY121061AY221061GF105991031081004501041001KA1120N+00361MA1999999100811MD1710021+9999MW1021REMSYN088AAXX  09064 01098 31489 52602 10059 20012 30081 40099 57002 70222 83840 333 20036 91102;EQDQ01  00002PRCP99
0161010980999992000060909004+70370+031100FM-12+001599999V0203501N002110090019N0550001N1+00541+00361101061ADDAY181031AY221031GF107991071081004501001001MA1999999100881MD1310071+9999MW1021REMSYN072AAXX  09094 01098 41485 73504 10054 20036 30088 40106 53007 70282 87800;
0188010980999992000060912004+70370+031100FM-12+001599999V0203301N003110090019N0550001N1+00621+00301101111ADDAA106000191AY181061AY221061GF107991061081004501041001MA1999999100931MD1210051+9999MW1021REMSYN088AAXX  09124 01098 11485 73306 10062 20030 30093 40111 52005 69911 70282 86840 333 91109;
0161010980999992000060915004+70370+031100FM-12+001599999V0203301N002110090019N0550001N1+00561+00311101211ADDAY181031AY221031GF107991061081004501041001MA1999999101031MD1210101+9999MW1021REMSYN072AAXX  09154 01098 41485 73304 10056 20031 30103 40121 52010 70282 86840;
0207010980999992000060918004+70370+031100FM-12+001599999V0203301N001010090019N0550001N1+00431+00371101211ADDAA112000191AY181061AY221061GF107991071081004501001001KA1120M+00701MA1999999101031MD1410001+9999MW1021REMSYN094AAXX  09184 01098 11485 73302 10043 20037 30103 40121 54000 69912 70282 87800 333 10070 91110;
0161010980999992000060921004+70370+031100FM-12+001599999V0202701N003610090019N0750001N1+00501+00151101141ADDAY121031AY221031GF107991071081004501001001MA1999999100961MD1810071+9999MW1021REMSYN072AAXX  09214 01098 41489 72707 10050 20015 30096 40114 58007 70222 87800;
0188010980999992000061000004+70370+031100FM-12+001599999V0202801N002610240019N0750001N1+00401+00301101101ADDAA106000791AY181061AY221061GF105991031081004501051041MA1999999100921MD1710041+9999MW1021REMSYN088AAXX  10004 01098 11489 52805 10040 20030 30092 40110 57004 69901 70282 83854 333 91110;
0161010980999992000061003004+70370+031100FM-12+001599999V0202901N003112200019N0750001N1+00551+00231101121ADDAY121031AY211031GF104991021081004501041021MA1999999100941MD1310021+9999MW1021REMSYN072AAXX  10034 01098 41489 42906 10055 20023 30094 40112 53002 70221 82842;
0207010980999992000061006004+70370+031100FM-12+001599999V0203001N004112200019N0750001N1+00621+00151101171ADDAA112000791AY111061AY201061GF103991031081004501001001KA1120N+00351MA1999999100991MD1210051+9999MW1021REMSYN094AAXX  10064 01098 11489 33008 10062 20015 30099 40117 52005 69902 70210 83800 333 20035 91112;
0161010980999992000061009004+70370+031100FM-12+001599999V0203101N003110240019N0750001N1+00731+00261101251ADDAY121031AY211031GF105991041081004501041001MA1999999101071MD1210081+9999MW1031REMSYN072AAXX  10094 01098 41489 53106 10073 20026 30107 40125 52008 70321 84840;
0201010980999992000061012004+70370+031100FM-12+001599999V0203001N001010240019N0750001N1+00741+00541101281ADDAA199000091AY121061AY211061GF105991041081004501041011MA1999999101101MD1210031+9999MW1021REMSYN082AAXX  10124 01098 31489 53002 10074 20054 30110 40128 52003 70221 84841 333 91114;EQDQ01  00002PRCP99
0161010980999992000061015004+70370+031100FM-12+001599999V0201201N001510240019N0750001N1+00691+00521101151ADDAY121031AY221031GF106991011041004501051001MA1999999100971MD1810131+9999MW1021REMSYN072AAXX  10154 01098 41489 61203 10069 20052 30097 40115 58013 70222 81450;
0220010980999992000061018004+70370+031100FM-12+001599999V0201201N002619999999N0750001N1+00631+00511100841ADDAA199000091AY121061AY211061GF106991061001008001051001KA1120M+00821MA1999999100661MD1810311+9999MW1021REMSYN088AAXX  10184 01098 31589 61205 10063 20051 30066 40084 58031 70221 86050 333 10082 91108;EQDQ01  00002PRCP99
0161010980999992000061021004+70370+031100FM-12+001599999V0201701N001510021019N0300001N1+00741+00591100451ADDAY121031AY221031GF108991081061002501999999MA1999999100271MD1710391+9999MW1031REMSYN072AAXX  10214 01098 41380 81703 10074 20059 30027 40045 57039 70322 886//;
0188010980999992000061100004+70370+031100FM-12+001599999V0201501N002110240019N0550001N1+00701+00591099991ADDAA106002091AY161061AY221061GF108991041071004501021999MA1999999099811MD1710461+9999MW1621REMSYN088AAXX  11004 01098 11485 81504 10070 20059 39981 49999 57046 60021 76262 8472/ 333 91111;
0161010980999992000061103004+70370+031100FM-12+001599999V0201301N001510021019N0200001N1+00661+00601099571ADDAY161031AY221031GF108991051061002501021999MA1999999099391MD1710421+9999MW1621REMSYN072AAXX  11034 01098 41370 81303 10066 20060 39939 49957 57042 76262 8562/;
0207010980999992000061106004+70370+031100FM-12+001599999V0202101N000510042019N0300001N1+00731+00671099441ADDAA112003091AY161061AY221061GF108991051061004501021999KA1120N+00551MA1999999099261MD1710131+9999MW1611REMSYN094AAXX  11064 01098 11480 82101 10073 20067 39926 49944 57013 60032 76162 8562/ 333 20055 91107;
0161010980999992000061109004+70370+031100FM-12+001599999V0203001N004110240019N0550001N1+00961+00821099561ADDAY161031AY221031GF107991041071004501021001MA1999999099381MD1310121+9999MW1011REMSYN072AAXX  11094 01098 41485 73008 10096 20082 39938 49956 53012 70162 84720;
0188010980999992000061112004+70370+031100FM-12+001599999V0203101N004610240019N0550001N1+00841+00691099811ADDAA106000891AY161061AY221061GF107991041071004501021001MA1999999099631MD1210251+9999MW1021REMSYN088AAXX  11124 01098 11485 73109 10084 20069 39963 49981 52025 69981 70262 84720 333 91115;
0161010980999992000061115004+70370+031100FM-12+001599999V0203201N004110042019N0550001N1+00671+00571100021ADDAY121031AY221031GF108991081071004501999999MA1999999099841MD1210211+9999MW1021REMSYN072AAXX  11154 01098 41485 83208 10067 20057 39984 40002 52021 70222 887//;
0207010980999992000061118004+70370+031100FM-12+001599999V0203601N003610042019N0550001N1+00531+00461100161ADDAA112000891AY121061AY221061GF108991071071004501031999KA1120M+00981MA1999999100081MD1210141+9999MW1021REMSYN094AAXX  11184 01098 11485 83607 10053 20046 30008 40016 52014 69982 70222 8773/ 333 10098 91113;
0161010980999992000061121004+70370+031100FM-12+001599999V0200401N002110042019N0550001N1+00481+00281100421ADDAY121031AY221031GF108991081071004501999999MA1999999100241MD1210161+9999MW1021REMSYN072AAXX  11214 01098 41485 80404 10048 20028 30024 40042 52016 70222 887//;
0201010980999992000061200004+70370+031100FM-12+001599999V0200601N002110042019N0550001N1+00421+00221100461ADDAA199000091AY121061AY221061GF108991081071004501999999MA1999999100281MD1210041+9999MW1021REMSYN082AAXX  12004 01098 31485 80604 10042 20022 30028 40046 52004 70222 887// 333 91109;EQDQ01  00002PRCP99
0161010980999992000061203004+70370+031100FM-12+001599999V0200801N002110042019N0550001N1+00411+00161100471ADDAY121031AY221031GF108991081071004501999999MA1999999100291MD1210011+9999MW1021REMSYN072AAXX  12034 01098 41485 80804 10041 20016 30029 40047 52001 70222 887//;
0220010980999992000061206004+70370+031100FM-12+001599999V0201001N002110042019N0550001N1+00451+00101100421ADDAA199000091AY121061AY221061GF107991071051004501001001KA1120N+00401MA1999999100241MD1810051+9999MW1011REMSYN088AAXX  12064 01098 31485 71004 10045 20010 30024 40042 58005 70122 87500 333 20040 91108;EQDQ01  00002PRCP99
0161010980999992000061209004+70370+031100FM-12+001599999V0201101N002610042019N0550001N1+00431+00031100411ADDAY121031AY221031GF107991071051004501001001MA1999999100231MD1510011+9999MW1021REMSYN072AAXX  12094 01098 41485 71105 10043 20003 30023 40041 55001 70222 87500;
0201010980999992000061212004+70370+031100FM-12+001599999V0201101N002610042019N0550001N1+00461+00041100331ADDAA199000091AY121061AY221061GF107991071051004501001001MA1999999100151MD1810081+9999MW1021REMSYN082AAXX  12124 01098 31485 71105 10046 20004 30015 40033 58008 70222 87500 333 91110;EQDQ01  00002PRCP99
0161010980999992000061215004+70370+031100FM-12+001599999V0201101N002610042019N0550001N1+00461+00151100271ADDAY121031AY221031GF108991071051004501001081MA1999999100091MD1710061+9999MW1021REMSYN072AAXX  12154 01098 41485 81105 10046 20015 30009 40027 57006 70222 87508;
0220010980999992000061218004+70370+031100FM-12+001599999V0201101N002610042019N0550001N1+00441+00071100221ADDAA199000091AY121061AY221061GF108991081051004501999999KA1120M+00561MA1999999100041MD1710051+9999MW1021REMSYN088AAXX  12184 01098 31485 81105 10044 20007 30004 40022 57005 70222 885// 333 10056 91111;EQDQ01  00002PRCP99
0161010980999992000061221004+70370+031100FM-12+001599999V0201101N002610042019N0550001N1+00411-00011100221ADDAY121031AY221031GF108991081051004501999999MA1999999100041MD1410001+9999MW1021REMSYN072AAXX  12214 01098 41485 81105 10041 21001 30004 40022 54000 70222 885//;
0201010980999992000061300004+70370+031100FM-12+001599999V0200901N002610042019N0550001N1+00391+00021100231ADDAA199000091AY121061AY221061GF108991081051004501999999MA1999999100051MD1210011+9999MW1021REMSYN082AAXX  13004 01098 31485 80905 10039 20002 30005 40023 52001 70222 885// 333 91110;EQDQ01  00002PRCP99
0161010980999992000061303004+70370+031100FM-12+001599999V0200901N002110042019N0550001N1+00421-00061100291ADDAY121031AY221031GF107991071051004501001001MA1999999100111MD1210061+9999MW1021REMSYN072AAXX  13034 01098 41485 70904 10042 21006 30011 40029 52006 70222 87500;
0207010980999992000061306004+70370+031100FM-12+001599999V0201001N001510240019N0550001N1+00481+00201100421ADDAA112000191AY181061AY221061GF107991041071004501071001KA1120N+00361MA1999999100241MD1210131+9999MW1021REMSYN094AAXX  13064 01098 11485 71003 10048 20020 30024 40042 52013 69912 70282 84770 333 20036 91108;
0161010980999992000061309004+70370+031100FM-12+001599999V0200901N002110090019N0550001N1+00571+00271100491ADDAY121031AY221031GF107991071081004501001001MA1999999100311MD1210071+9999MW1021REMSYN072AAXX  13094 01098 41485 70904 10057 20027 30031 40049 52007 70222 87800;
0201010980999992000061312004+70370+031100FM-12+001599999V0201201N002110090019N0550001N1+00581+00211100601ADDAA199000091AY121061AY221061GF107991071081004501001001MA1999999100421MD1210111+9999MW1021REMSYN082AAXX  13124 01098 31485 71204 10058 20021 30042 40060 52011 70222 87800 333 91108;EQDQ01  00002PRCP99
0161010980999992000061315004+70370+031100FM-12+001599999V0201301N002110090019N0600001N1+00561+00191100601ADDAY121031AY221031GF107991071081004501001001MA1999999100421MD1410001+9999MW1021REMSYN072AAXX  13154 01098 41486 71304 10056 20019 30042 40060 54000 70222 87800;
0220010980999992000061318004+70370+031100FM-12+001599999V0201301N003110090019N0600001N1+00501+00221100421ADDAA199000091AY121061AY221061GF107991071081004501001001KA1120M+00631MA1999999100241MD1810181+9999MW1021REMSYN088AAXX  13184 01098 31486 71306 10050 20022 30024 40042 58018 70222 87800 333 10063 91110;EQDQ01  00002PRCP99
0161010980999992000061321004+70360+031090FM-12+001599999V0201301N003110090019N0750001N1+00461+00311100211ADDAY121031AY221031GF107991061081004501041001MA1999999100031MD1710211+9999MW1021REMSYN072AAXX  13214 01098 41489 71306 10046 20031 30003 40021 57021 70222 86840;
0201010980999992000061400004+70360+031090FM-12+001599999V0201201N003610090019N0750001N1+00411+00161099861ADDAA199000091AY121061AY221061GF108991081081004501999999MA1999999099681MD1810351+9999MW1021REMSYN082AAXX  14004 01098 31489 81207 10041 20016 39968 49986 58035 70222 888// 333 91111;EQDQ01  00002PRCP99
0161010980999992000061403004+70360+031090FM-12+001599999V0201201N003610021019N0550001N1+00391+00211099531ADDAY121031AY221031GF108991081071002501999999MA1999999099361MD1710331+9999MW1021REMSYN072AAXX  14034 01098 41385 81207 10039 20021 39936 49953 57033 70222 887//;
0220010980999992000061406004+70360+031090FM-12+001599999V0201001N004110042019N0550001N1+00481+00201099251ADDAA199000091AY121061AY221061GF107991071071004501001001KA1120N+00391MA1999999099071MD1710281+9999MW1021REMSYN088AAXX  14064 01098 31485 71008 10048 20020 39907 49925 57028 70222 87700 333 20039 91115;EQDQ01  00002PRCP99
0161010980999992000061409004+70360+031090FM-12+001599999V0201001N004110012019N0060001N1+00341+00281099011ADDAY161031AY251031GF108991061071001501021999MA1999999098861MD1610211+9999MW1601REMSYN072AAXX  14094 01098 41256 81008 10034 20028 39886 49901 56021 76065 8672/;
0188010980999992000061412004+70360+031090FM-12+001599999V0201101N004110021019N0080001N1+00351+00291098961ADDAA106001091AY161061AY251061GF108991061071002501021999MA1999999098781MD1610081+9999MW1601REMSYN088AAXX  14124 01098 11358 81108 10035 20029 39878 49896 56008 60011 76065 8672/ 333 91116;
0161010980999992000061415004+70360+031090FM-12+001599999V0200901N004610021019N0100001N1+00381+00321098921ADDAY161031AY221031GF108991061071002501021999MA1999999098741MD1710041+9999MW1601REMSYN072AAXX  14154 01098 41360 80909 10038 20032 39874 49892 57004 76062 8672/;
0207010980999992000061418004+70360+031090FM-12+001599999V0200901N004610021019N0100001N1+00401+00341098881ADDAA112002091AY161061AY221061GF108991061071002501021999KA1120M+00501MA1999999098701MD1710041+9999MW1601REMSYN094AAXX  14184 01098 11360 80909 10040 20034 39870 49888 57004 60022 76062 8672/ 333 10050 91115;
0161010980999992000061421004+70360+031090FM-12+001599999V0200901N005110021019N0100001N1+00431+00371098901ADDAY161031AY221031GF108991061071002501021999MA1999999098721MD1310021+9999MW1601REMSYN072AAXX  14214 01098 41360 80910 10043 20037 39872 49890 53002 76062 8672/;
0188010980999992000061500004+70360+031090FM-12+001599999V0200801N004610021019N0100001N1+00381+00321098981ADDAA106004191AY161061AY221061GF108991061071002501021999MA1999999098801MD1210081+9999MW1631REMSYN088AAXX  15004 01098 11360 80809 10038 20032 39880 49898 52008 60041 76362 8672/ 333 91117;
0161010980999992000061503004+70360+031090FM-12+001599999V0200701N003610021019N0100001N1+00391+00331099111ADDAY161031AY261031GF108991061071002501021999MA1999999098931MD1210131+9999MW1611REMSYN072AAXX  15034 01098 41360 80707 10039 20033 39893 49911 52013 76166 8672/;
0207010980999992000061506004+70360+031090FM-12+001599999V0200501N003610021019N0100001N1+00421+00361099301ADDAA112007991AY161061AY221061GF108991061071002501021999KA1120N+00341MA1999999099121MD1310191+9999MW1601REMSYN094AAXX  15064 01098 11360 80507 10042 20036 39912 49930 53019 60082 76062 8672/ 333 20034 91113;
0161010980999992000061509004+70360+031090FM-12+001599999V0200501N003610021019N0080001N1+00451+00401099481ADDAY171031AY261031GF108991061071002501021999MA1999999099301MD1210181+9999MW1681REMSYN072AAXX  15094 01098 41358 80507 10045 20040 39930 49948 52018 76876 8672/;
0188010980999992000061512004+70360+031090FM-12+001599999V0200401N004110060019N0300001N1+00441+00381099691ADDAA106000191AY171061AY261061GF108991081081002501999999MA1999999099511MD1210211+9999MW1021REMSYN088AAXX  15124 01098 11380 80408 10044 20038 39951 49969 52021 69911 70276 888// 333 91113;
0161010980999992000061515004+70360+031090FM-12+001599999V0200301N004110060019N0300001N1+00431+00331099871ADDAY181031AY221031GF108991051081002501021999MA1999999099691MD1210181+9999MW1021REMSYN072AAXX  15154 01098 41380 80308 10043 20033 39969 49987 52018 70282 8582/;
0207010980999992000061518004+70360+031090FM-12+001599999V0200301N004610060019N0300001N1+00381+00311100041ADDAA112000191AY181061AY221061GF108991051081002501021999KA1120M+00461MA1999999099861MD1210171+9999MW1601REMSYN094AAXX  15184 01098 11380 80309 10038 20031 39986 40004 52017 69912 76082 8582/ 333 10046 91114;
0161010980999992000061521004+70360+031090FM-12+001599999V0200201N004610021019N0300001N1+00321+00251100161ADDAY181031AY221031GF108991051071002501021999MA1999999099981MD1210121+9999MW1601REMSYN072AAXX  15214 01098 41380 80209 10032 20025 39998 40016 52012 76082 8572/;
0188010980999992000061600004+70360+031090FM-12+001599999V0200301N004110090019N0600001N1+00401+00281100251ADDAA106000791AY181061AY221061GF108991051081004501021999MA1999999100071MD1210091+9999MW1021REMSYN088AAXX  16004 01098 11486 80308 10040 20028 30007 40025 52009 69901 70282 8582/ 333 91113;
0161010980999992000061603004+70360+031090FM-12+001599999V0200201N004110042019N0600001N1+00301+00231100371ADDAY121031AY221031GF107991051031004501021001MA1999999100191MD1210121+9999MW1011REMSYN072AAXX  16034 01098 41486 70208 10030 20023 30019 40037 52012 70122 85320;
0207010980999992000061606004+70360+031090FM-12+001599999V0200101N003610090019N0600001N1+00351+00221100521ADDAA112000791AY121061AY221061GF106991051081004501001011KA1120N+00251MA1999999100341MD1210151+9999MW1011REMSYN094AAXX  16064 01098 11486 60107 10035 20022 30034 40052 52015 69902 70122 85801 333 20025 91113;
0161010980999992000061609004+70360+031090FM-12+001599999V0203601N003610090019N0300001N1+00341+00181100721ADDAY181031AY221031GF107991071081004501001001MA1999999100541MD1210201+9999MW1021REMSYN072AAXX  16094 01098 41480 73607 10034 20018 30054 40072 52020 70282 87800;
0188010980999992000061612004+70360+031090FM-12+001599999V0203501N003110090019N0100001N1+00441+00261100841ADDAA106000791AY181061AY221061GF107991071081004501001001MA1999999100661MD1110121+9999MW1801REMSYN088AAXX  16124 01098 11460 73506 10044 20026 30066 40084 51012 69901 78082 87800 333 91111;
0161010980999992000061615004+70360+031090FM-12+001599999V0203501N002110090019N0550001N1+00391+00211100941ADDAY181031AY221031GF108991081081004501999999MA1999999100801MD1210141+9999MW1021REMSYN072AAXX  16154 01098 41485 83504 10039 20021 30080 40094 52014 70282 888//;
0207010980999992000061618004+70360+031090FM-12+001599999V0203301N001510090019N0550001N1+00331+00211101061ADDAA112000791AY181061AY221061GF108991081081004501999999KA1120M+00481MA1999999100881MD1210081+9999MW1021REMSYN094AAXX  16184 01098 11485 83303 10033 20021 30088 40106 52008 69902 70282 888// 333 10048 91111;
0161010980999992000061621004+70360+031090FM-12+001599999V0203001N002110240019N0550001N1+00341+00161101091ADDAY121031AY221031GF107991031081004501051001MA1999999100911MD1210031+9999MW1021REMSYN072AAXX  16214 01098 41485 73004 10034 20016 30091 40109 52003 70222 83850;
0182010980999992000061700004+70360+031090FM-12+001599999V0202901N001510240019N0750001N1+00321+00141101081ADDAA199000021AY121061AY221061GF106991021081004501051001MA1999999100901MD1810011+9999MW1011REMSYN082AAXX  17004 01098 31489 62903 10032 20014 30090 40108 58001 70122 82850 333 91109;
0161010980999992000061703004+70360+031090FM-12+001599999V0202901N003112200019N0750001N1+00451+00191101051ADDAY121031AY211031GF103991011021004501051091MA1999999100871MD1710031+9999MW1011REMSYN072AAXX  17034 01098 41489 32906 10045 20019 30087 40105 57003 70121 81259;
0220010980999992000061706004+70360+031090FM-12+001599999V0203001N002112200019N0750001N1+00621+00191101021ADDAA199000091AY111061AY201061GF103991031031008001001001KA1120N+00251MA1999999100841MD1710031+9999MW1021REMSYN088AAXX  17064 01098 31589 33004 10062 20019 30084 40102 57003 70210 83300 333 20025 91108;EQDQ01  00002PRCP99
0161010980999992000061709004+70360+031090FM-12+001599999V0203201N002110240019N0550001N1+00711+00281101021ADDAY161031AY211031GF107991041031004501031001MA1999999100841MD1410001+9999MW1151REMSYN072AAXX  17094 01098 41485 73204 10071 20028 30084 40102 54000 71561 84330;
0188010980999992000061712004+70360+031090FM-12+001599999V0203301N003610240019N0550001N1+00781+00561101101ADDAA106000791AY181061AY211061GF105991021031004501031001MA1999999100921MD1310081+9999MW1151REMSYN088AAXX  17124 01098 11485 53307 10078 20056 30092 40110 53008 69901 71581 82330 333 91109;
0161010980999992000061715004+70360+031090FM-12+001599999V0203401N002610240019N0550001N1+00711+00461101221ADDAY181031AY221031GF106991021031004501031001MA1999999101041MD1710121+9999MW1141REMSYN072AAXX  17154 01098 41485 63405 10071 20046 30104 40122 57012 71482 82330;
0207010980999992000061718004+70360+031090FM-12+001599999V0203301N002610090019N0750001N1+00631+00431101301ADDAA112000791AY181061AY221061GF107991051081004501031001KA1120M+00821MA1999999101121MD1110081+9999MW1021REMSYN094AAXX  17184 01098 11489 73305 10063 20043 30112 40130 51008 69902 70282 85830 333 10082 91109;
0161010980999992000061721004+70360+031090FM-12+001599999V0203201N002110240019N0550001N1+00531+00411101391ADDAY121031AY221031GF106991021081004501051001MA1999999101211MD1710091+9999MW1021REMSYN072AAXX  17214 01098 41485 63204 10053 20041 30121 40139 57009 70222 82850;
0201010980999992000061800004+70360+031090FM-12+001599999V0202901N002110090019N0750001N1+00501+00381101451ADDAA199000091AY121061AY221061GF107991061081004501031001MA1999999101271MD1210061+9999MW1021REMSYN082AAXX  18004 01098 31489 72904 10050 20038 30127 40145 52006 70222 86830 333 91109;EQDQ01  00002PRCP99
0161010980999992000061803004+70360+031090FM-12+001599999V0203101N004110090019N0550001N1+00531+00411101471ADDAY121031AY221031GF107991071081004501001001MA1999999101291MD1210021+9999MW1021REMSYN072AAXX  18034 01098 41485 73108 10053 20041 30129 40147 52002 70222 87800;
0220010980999992000061806004+70360+031090FM-12+001599999V0203401N002112200019N0750001N1+00621+00421101591ADDAA199000091AY121061AY211061GF104991031021004501061031KA1120N+00471MA1999999101411MD1210121+9999MW1011REMSYN088AAXX  18064 01098 31489 43404 10062 20042 30141 40159 52012 70121 83263 333 20047 91112;EQDQ01  00002PRCP99
0161010980999992000061809004+70360+031090FM-12+001599999V0203301N001010240019N0550001N1+00681+00541101671ADDAY181031AY221031GF106991041081004501041001MA1999999101491MD1210081+9999MW1141REMSYN072AAXX  18094 01098 41485 63302 10068 20054 30149 40167 52008 71482 84840;
0188010980999992000061812004+70360+031090FM-12+001599999V0201401N001010240019N0750001N1+00611+00541101701ADDAA106000591AY181061AY221061GF106991041081004501041091MA1999999101521MD1110031+9999MW1251REMSYN088AAXX  18124 01098 11489 61402 10061 20054 30152 40170 51003 69951 72582 84849 333 91112;
0161010980999992000061815004+70360+031090FM-12+001599999V0201401N001012200019N0750001N1+00721+00481101701ADDAY111031AY201031GF103991031011008001001001MA1999999101521MD1410001+9999MW1011REMSYN072AAXX  18154 01098 41589 31402 10072 20048 30152 40170 54000 70110 83100;
0207010980999992000061818004+70360+031090FM-12+001599999V0201401N002619999999N0750001N1+00641+00341101611ADDAA112000591AY181061AY211061GF105991041001012501061051KA1120M+00791MA1999999101431MD1810091+9999MW1031REMSYN094AAXX  18184 01098 11689 51405 10064 20034 30143 40161 58009 69952 70381 84065 333 10079 91107;
0161010980999992000061821004+70360+031090FM-12+001599999V0201401N002612200019N0750001N1+00661+00561101441ADDAY111031AY201031GF104991021011008001041061MA1999999101261MD1810171+9999MW1011REMSYN072AAXX  18214 01098 41589 41405 10066 20056 30126 40144 58017 70110 82146;
0182010980999992000061900004+70360+031090FM-12+001599999V0201801N003110240019N0750001N1+00681+00611101231ADDAA199000021AY121061AY221061GF107991011011008001031001MA1999999101061MD1710211+9999MW1021REMSYN082AAXX  19004 01098 31589 71806 10068 20061 30106 40123 57021 70222 81130 333 91108;
0161010980999992000061903004+70360+031090FM-12+001599999V0201701N002612200019N0750001N1+00781+00661101121ADDAY121031AY221031GF105991031001022501041091MA1999999100941MD1610111+9999MW1011REMSYN072AAXX  19034 01098 41889 51705 10078 20066 30094 40112 56011 70122 83049;
0220010980999992000061906004+70360+031090FM-12+001599999V0201501N001512200019N0750001N1+00891+00701100991ADDAA199000091AY101061AY201061GF103991021001022501031011KA1120N+00621MA1999999100811MD1710131+9999MW1011REMSYN088AAXX  19064 01098 31889 31503 10089 20070 30081 40099 57013 70100 82031 333 20062 91109;EQDQ01  00002PRCP99
0161010980999992000061909004+70360+031090FM-12+001599999V0201901N004610240019N0550001N1+00931+00671100881ADDAY121031AY211031GF107991021081004501071091MA1999999100701MD1710111+9999MW1031REMSYN072AAXX  19094 01098 41485 71909 10093 20067 30070 40088 57011 70321 82879;
0201010980999992000061912004+70360+031090FM-12+001599999V0202001N004610090019N0550001N1+00901+00761100811ADDAA199000091AY121061AY211061GF107991061081004501071091MA1999999100631MD1710071+9999MW1021REMSYN082AAXX  19124 01098 31485 72009 10090 20076 30063 40081 57007 70221 86879 333 91112;EQDQ01  00002PRCP99
0161010980999992000061915004+70360+031090FM-12+001599999V0201901N002110042019N0750001N1+00941+00801100731ADDAY121031AY221031GF106991061031004501001001MA1999999100551MD1710081+9999MW1011REMSYN072AAXX  19154 01098 41489 61904 10094 20080 30055 40073 57008 70122 86300;
0220010980999992000061918004+70360+031090FM-12+001599999V0201901N001010042019N0750001N1+00901+00791100681ADDAA199000091AY121061AY221061GF106991061031004501001001KA1120M+01101MA1999999100501MD1710051+9999MW1021REMSYN088AAXX  19184 01098 31489 61902 10090 20079 30050 40068 57005 70222 86300 333 10110 91112;EQDQ01  00002PRCP99
0161010980999992000061921004+70360+031090FM-12+001599999V0202101N001510042019N0750001N1+00941+00831100561ADDAY121031AY211031GF106991061011004501001001MA1999999100381MD1810121+9999MW1011REMSYN072AAXX  19214 01098 41489 62103 10094 20083 30038 40056 58012 70121 86100;
0233010980999992000062000004+70360+031090FM-12+001599999V0201701N002610600019N0750001N1+00751+00661101432ADDAA199000091AY121061AY211061GF107991031011004501001061MA1999999101252MD1810131+9999MW1031REMSYN082AAXX  20004 01098 31489 71705 10075 20066 30125 40143 58013 70321 83106 333 91108;EQDQ01+101253APOSP Q02+101433APOSLPQ03  00002PRCP99
0161010980999992000062003004+70360+031090FM-12+001599999V0201701N001012200019N0750001N1+00801+00711101251ADDAY111031AY201031GF104991041001017501041001MA1999999101071MD1810181+9999MW1011REMSYN072AAXX  20034 01098 41789 41702 10080 20071 30107 40125 58018 70110 84040;
0220010980999992000062006004+70360+031090FM-12+001599999V0201601N002110240019N0750001N1+00821+00761100101ADDAA199000091AY121061AY211061GF106991041051008001041001KA1120N+00741MA1999999099921MD1710151+9999MW1031REMSYN088AAXX  20064 01098 31589 61604 10082 20076 39992 40010 57015 70321 84540 333 20074 91106;EQDQ01  00002PRCP99
0161010980999992000062009004+70360+031090FM-12+001599999V0201501N001010060019N0060001N1+00761+00721099971ADDAY181031AY221031GF108991081081001501999999MA1999999099791MD1710131+9999MW1801REMSYN072AAXX  20094 01098 41256 81502 10076 20072 39979 49997 57013 78082 888//;
0188010980999992000062012004+70360+031090FM-12+001599999V0201501N001010240019N0300001N1+00941+00881099841ADDAA106001091AY181061AY221061GF107991041081001501071001MA1999999099661MD1710131+9999MW1011REMSYN088AAXX  20124 01098 11280 71502 10094 20088 39966 49984 57013 60011 70182 84870 333 91106;
0161010980999992000062015004+70360+031090FM-12+001599999V0201601N001010240019N0200001N1+00921+00861099851ADDAY181031AY261031GF108991041071004501071001MA1999999099671MD1210011+9999MW1601REMSYN072AAXX  20154 01098 41470 81602 10092 20086 39967 49985 52001 76086 84770;
0207010980999992000062018004+70360+031090FM-12+001599999V0203001N004110042019N0100001N1+00871+00831100011ADDAA112008991AY181061AY261061GF108991051071004501021001KA1120M+01041MA1999999099831MD1310161+9999MW1501REMSYN094AAXX  20184 01098 11460 83008 10087 20083 39983 40001 53016 60092 75086 85720 333 10104 91111;
0161010980999992000062021004+70360+031090FM-12+001599999V0202901N003110042019N0100001N1+00751+00691100241ADDAY151031AY221031GF108991051071004501021999MA1999999100061MD1210231+9999MW1501REMSYN072AAXX  20214 01098 41460 82906 10075 20069 30006 40024 52023 75052 8572/;
0188010980999992000062100004+70360+031090FM-12+001599999V0203001N003110090019N0600001N1+00721+00661100421ADDAA106000191AY151061AY221061GF107991071081004501001001MA1999999100241MD1210181+9999MW1011REMSYN088AAXX  21004 01098 11486 73006 10072 20066 30024 40042 52018 69921 70152 87800 333 91110;
0161010980999992000062103004+70360+031090FM-12+001599999V0203101N003610042019N0600001N1+00701+00631100601ADDAY121031AY221031GF106991061071004501001001MA1999999100421MD1210181+9999MW1011REMSYN072AAXX  21034 01098 41486 63107 10070 20063 30042 40060 52018 70122 86700;
0207010980999992000062106004+70360+031090FM-12+001599999V0203201N002610042019N0600001N1+00701+00631100861ADDAA112000391AY161061AY221061GF108991061071004501021999KA1120N+00651MA1999999100681MD1210261+9999MW1031REMSYN094AAXX  21064 01098 11486 83205 10070 20063 30068 40086 52026 69932 70362 8672/ 333 20065 91113;
0161010980999992000062109004+70360+031090FM-12+001599999V0200501N000510090019N0550001N1+00691+00571101131ADDAY181031AY221031GF107991071081004501001001MA1999999100951MD1210271+9999MW1021REMSYN072AAXX  21094 01098 41485 70501 10069 20057 30095 40113 52027 70282 87800;
0188010980999992000062112004+70360+031090FM-12+001599999V0200401N000510090019N0750001N1+00781+00711101261ADDAA106000791AY181061AY221061GF107991071081004501001001MA1999999101081MD1110131+9999MW1021REMSYN088AAXX  21124 01098 11489 70401 10078 20071 30108 40126 51013 69901 70282 87800 333 91108;
0161010980999992000062115004+70360+031090FM-12+001599999V0200601N001010600019N0750001N1+00841+00781101281ADDAY121031AY221031GF105991021081004501041031MA1999999101101MD1210021+9999MW1021REMSYN072AAXX  21154 01098 41489 50602 10084 20078 30110 40128 52002 70222 82843;
0207010980999992000062118004+70360+031090FM-12+001599999V0200701N000510240019N0550001N1+00741+00621101281ADDAA112000791AY161061AY221061GF107991031031004501071001KA1120M+00921MA1999999101101MD1410001+9999MW1601REMSYN094AAXX  21184 01098 11485 70701 10074 20062 30110 40128 54000 69902 76062 83370 333 10092 91103;
0161010980999992000062121004+70360+031090FM-12+001599999V0200101N000510240019N0300001N1+00631+00561101361ADDAY161031AY251031GF108991041071004501041001MA1999999101181MD1310081+9999MW1501REMSYN072AAXX  21214 01098 41480 80101 10063 20056 30118 40136 53008 75065 84740;
0188010980999992000062200004+70360+031090FM-12+001599999V0200101N000510042019N0300001N1+00621+00551101361ADDAA106005191AY161061AY251061GF108991051071004501021001MA1999999101181MD1410001+9999MW1021REMSYN088AAXX  22004 01098 11480 80101 10062 20055 30118 40136 54000 60051 70265 85720 333 91102;
0161010980999992000062203004+70360+031090FM-12+001599999V0200101N001010240019N0300001N1+00631+00591101441ADDAY121031AY221031GF107991031051004501021001MA1999999101261MD1310081+9999MW1021REMSYN072AAXX  22034 01098 41480 70102 10063 20059 30126 40144 53008 70222 83520;
0207010980999992000062206004+70360+031090FM-12+001599999V0200201N001510240019N0300001N1+00741+00681101531ADDAA112005191AY121061AY221061GF107991041071004501021001KA1120N+00621MA1999999101351MD1310091+9999MW1021REMSYN094AAXX  22064 01098 11480 70203 10074 20068 30135 40153 53009 60052 70222 84720 333 20062 91105;
0161010980999992000062209004+70360+031090FM-12+001599999V0200701N001510240019N0300001N1+00731+00661101681ADDAY121031AY221031GF107991021041004501021001MA1999999101501MD1210151+9999MW1021REMSYN072AAXX  22094 01098 41480 70703 10073 20066 30150 40168 52015 70222 82420;
0201010980999992000062212004+70360+031090FM-12+001599999V0200901N001510240019N0300001N1+00721+00611101741ADDAA199000091AY121061AY221061GF107991041041004501021001MA1999999101561MD1110061+9999MW1021REMSYN082AAXX  22124 01098 31480 70903 10072 20061 30156 40174 51006 70222 84420 333 91105;EQDQ01  00002PRCP99
0161010980999992000062215004+70360+031090FM-12+001599999V0201101N002110042019N0550001N1+00641+00521101771ADDAY121031AY221031GF108991081051004501999999MA1999999101591MD1210031+9999MW1021REMSYN072AAXX  22154 01098 41485 81104 10064 20052 30159 40177 52003 70222 885//;
0220010980999992000062218004+70360+031090FM-12+001599999V0201201N002110042019N0550001N1+00621+00441101791ADDAA199000091AY121061AY221061GF108991081051004501999999KA1120M+00771MA1999999101611MD1210021+9999MW1021REMSYN088AAXX  22184 01098 31485 81204 10062 20044 30161 40179 52002 70222 885// 333 10077 91107;EQDQ01  00002PRCP99
0161010980999992000062221004+70360+031090FM-12+001599999V0201201N002610042019N0550001N1+00581+00461101761ADDAY121031AY221031GF108991081051004501999999MA1999999101581MD1810031+9999MW1021REMSYN072AAXX  22214 01098 41485 81205 10058 20046 30158 40176 58003 70222 885//;
0201010980999992000062300004+70360+031090FM-12+001599999V0201201N003112200019N0550001N1+00541+00471101701ADDAA199000091AY121061AY221061GF104991021051004501021999MA1999999101521MD1710061+9999MW1021REMSYN082AAXX  23004 01098 31485 41206 10054 20047 30152 40170 57006 70222 8252/ 333 91110;EQDQ01  00002PRCP99
0161010980999992000062303004+70360+031090FM-12+001599999V0201101N003110012019N0200001N1+00521+00421101571ADDAY121031AY221031GF108991081061001501999999MA1999999101391MD1810131+9999MW1021REMSYN072AAXX  23034 01098 41270 81106 10052 20042 30139 40157 58013 70222 886//;
0207010980999992000062306004+70360+031090FM-12+001599999V0201101N003110021019N0100001N1+00561+00491101321ADDAA112000591AY161061AY251061GF108991061071002501021999KA1120N+00521MA1999999101141MD1710251+9999MW1601REMSYN094AAXX  23064 01098 11360 81106 10056 20049 30114 40132 57025 69952 76065 8672/ 333 20052 91113;
0161010980999992000062309004+70360+031090FM-12+001599999V0201001N003610012019N0050001N1+00601+00541101021ADDAY161031AY221031GF108991061071001501021999MA1999999100841MD1710301+9999MW1611REMSYN072AAXX  23094 01098 41250 81007 10060 20054 30084 40102 57030 76162 8672/;
0188010980999992000062312004+70360+031090FM-12+001599999V0201101N003610012019N0050001N1+00621+00551100651ADDAA106008991AY161061AY221061GF108991071071001501021999MA1999999100471MD1710371+9999MW1611REMSYN088AAXX  23124 01098 11250 81107 10062 20055 30047 40065 57037 60091 76162 8772/ 333 91114;
0161010980999992000062315004+70360+031090FM-12+001599999V0201201N002610012019N0060001N1+00691+00651100341ADDAY161031AY221031GF108991071061001501021999MA1999999100161MD1710311+9999MW1211REMSYN072AAXX  23154 01098 41256 81205 10069 20065 30016 40034 57031 72162 8762/;
0207010980999992000062318004+70360+031090FM-12+001599999V0201801N000510240019N0550001N1+00791+00761100181ADDAA112010991AY161061AY211061GF105991031011004501091051KA1120M+00791MA1999999100011MD1610151+9999MW1011REMSYN094AAXX  23184 01098 11485 51801 10079 20076 30001 40018 56015 60112 70161 83195 333 10079 91111;
0161010980999992000062321004+70360+031090FM-12+001599999V0201601N001010090019N0550001N1+01041+00981100031ADDAY181031AY261031GF106991051081004501041001MA1999999099851MD1710161+9999MW1021REMSYN072AAXX  23214 01098 41485 61602 10104 20098 39985 40003 57016 70286 85840;
0188010980999992000062400004+70360+031090FM-12+001599999V0202101N002610240019N0750001N1+01031+00961100001ADDAA106003091AY181061AY221061GF106991041081004501041001MA1999999099821MD1610031+9999MW1021REMSYN088AAXX  24004 01098 11489 62105 10103 20096 39982 40000 56003 60031 70282 84840 333 91110;
0161010980999992000062403004+70360+031090FM-12+001599999V0200801N000510042019N0750001N1+01221+01111100031ADDAY121031AY221031GF107991051051004501021001MA1999999099851MD1310031+9999MW1021REMSYN072AAXX  24034 01098 41489 70801 10122 20111 39985 40003 53003 70222 85520;
0220010980999992000062406004+70360+031090FM-12+001599999V0200501N001010042019N0550001N1+01001+00911100131ADDAA199000091AY121061AY221061GF108991061071004501021999KA1120N+00401MA1999999099951MD1210101+9999MW1021REMSYN088AAXX  24064 01098 31485 80502 10100 20091 39995 40013 52010 70222 8672/ 333 20040 91107;EQDQ01  00002PRCP99
0161010980999992000062409004+70360+031090FM-12+001599999V0203001N000510021019N0300001N1+00961+00751100341ADDAY121031AY221031GF108991081061002501999999MA1999999100161MD1310211+9999MW1021REMSYN072AAXX  24094 01098 41380 83001 10096 20075 30016 40034 53021 70222 886//;
0201010980999992000062412004+70360+031090FM-12+001599999V0200801N001010042019N0750001N1+01111+01001100481ADDAA199000091AY121061AY221061GF106991061011004501001001MA1999999100301MD1110141+9999MW1011REMSYN082AAXX  24124 01098 31489 60802 10111 20100 30030 40048 51014 70122 86100 333 91103;EQDQ01  00002PRCP99
0161010980999992000062415004+70360+031090FM-12+001599999V0200601N001510012019N0550001N1+00901+00791100641ADDAY181031AY221031GF107991051061001501071001MA1999999100461MD1210161+9999MW1031REMSYN072AAXX  24154 01098 41285 70603 10090 20079 30046 40064 52016 70382 85670;
0207010980999992000062418004+70360+031090FM-12+001599999V0200701N001010042019N0550001N1+00781+00671100801ADDAA112000191AY181061AY221061GF107991071051004501001001KA1120M+01171MA1999999100621MD1210161+9999MW1021REMSYN094AAXX  24184 01098 11485 70702 10078 20067 30062 40080 52016 69912 70282 87500 333 10117 91105;
0161010980999992000062421004+70360+031090FM-12+001599999V0201101N000510042019N0550001N1+00821+00621100911ADDAY121031AY221031GF107991061051004501071001MA1999999100731MD1310111+9999MW1011REMSYN072AAXX  24214 01098 41485 71101 10082 20062 30073 40091 53011 70122 86570;
0201010980999992000062500004+70360+031090FM-12+001599999V0201001N001010042019N0750001N1+00771+00661100991ADDAA199000091AY121061AY221061GF107991071051004501001001MA1999999100811MD1210081+9999MW1011REMSYN082AAXX  25004 01098 31489 71002 10077 20066 30081 40099 52008 70122 87500 333 91106;EQDQ01  00002PRCP99
0161010980999992000062503004+70360+031090FM-12+001599999V0200701N001010042019N0750001N1+00781+00671101061ADDAY121031AY221031GF107991071051004501001001MA1999999100881MD1210071+9999MW1021REMSYN072AAXX  25034 01098 41489 70702 10078 20067 30088 40106 52007 70222 87500;
0220010980999992000062506004+70360+031090FM-12+001599999V0200401N001010042019N0750001N1+00771+00661101091ADDAA199000091AY121061AY221061GF107991071051004501001001KA1120N+00771MA1999999100911MD1110071+9999MW1031REMSYN088AAXX  25064 01098 31489 70402 10077 20066 30091 40109 51007 70322 87500 333 20077 91104;EQDQ01  00002PRCP99
0161010980999992000062509004+70360+031090FM-12+001599999V0203601N001010240019N0300001N1+00731+00661101201ADDAY161031AY251031GF108991041071004501021999MA1999999101021MD1210111+9999MW1501REMSYN072AAXX  25094 01098 41480 83602 10073 20066 30102 40120 52011 75065 8472/;
0188010980999992000062512004+70360+031090FM-12+001599999V0200101N002110240019N0250001N1+00741+00671101321ADDAA106000191AY161061AY251061GF108991041061001501021999MA1999999101141MD1210121+9999MW1501REMSYN088AAXX  25124 01098 11275 80104 10074 20067 30114 40132 52012 69911 75065 8462/ 333 91106;
0161010980999992000062515004+70360+031090FM-12+001599999V0203301N002612200019N0300001N1+00801+00741101421ADDAY151031AY221031GF107991041061002501001011MA1999999101241MD1210101+9999MW1021REMSYN072AAXX  25154 01098 41380 73305 10080 20074 30124 40142 52010 70252 84601;
0207010980999992000062518004+70360+031090FM-12+001599999V0203401N001510012019N0300001N1+00741+00671101521ADDAA112000191AY151061AY221061GF105991051061001501001001KA1120M+00851MA1999999101341MD1210101+9999MW1021REMSYN094AAXX  25184 01098 11280 53403 10074 20067 30134 40152 52010 69912 70252 85600 333 10085 91108;
0161010980999992000062521004+70360+031090FM-12+001599999V0203401N000512200019N0750001N1+00601+00501101641ADDAY111031AY211031GF102991011061002501041011MA1999999101461MD1210121+9999MW1011REMSYN072AAXX  25214 01098 41389 23401 10060 20050 30146 40164 52012 70111 81641;
0182010980999992000062600004+70360+031090FM-12+001599999V0203501N000512200019N0550001N1+00601+00501101741ADDAA199000021AY111061AY201061GF101991011041004501041081MA1999999101561MD1210101+9999MW1021REMSYN082AAXX  26004 01098 31485 13501 10060 20050 30156 40174 52010 70210 81448 333 91105;
0161010980999992000062603004+70360+031090FM-12+001599999V0200101N000512200019N0550001N1+00711+00651101821ADDAY111031AY201031GF104991011041004501041081MA1999999101641MD1210081+9999MW1021REMSYN072AAXX  26034 01098 41485 40101 10071 20065 30164 40182 52008 70210 81448;
0220010980999992000062606004+70360+031090FM-12+001599999V0200601N000510240019N0550001N1+00811+00751101871ADDAA199000091AY121061AY211061GF107991011041004501051001KA1120N+00581MA1999999101691MD1210051+9999MW1021REMSYN088AAXX  26064 01098 31485 70601 10081 20075 30169 40187 52005 70221 81450 333 20058 91104;EQDQ01  00002PRCP99
0161010980999992000062609004+70360+031090FM-12+001599999V0200801N001010240019N0550001N1+00951+00641101961ADDAY121031AY221031GF107991011041004501051001MA1999999101781MD1210091+9999MW1021REMSYN072AAXX  26094 01098 41485 70802 10095 20064 30178 40196 52009 70222 81450;
0201010980999992000062612004+70360+031090FM-12+001599999V0201001N001012200019N0300001N1+00921+00781102031ADDAA199000091AY121061AY211061GF103991021001017501071011MA1999999101851MD1210071+9999MW1011REMSYN082AAXX  26124 01098 31780 31002 10092 20078 30185 40203 52007 70121 82071 333 91105;EQDQ01  00002PRCP99
0161010980999992000062615004+70360+031090FM-12+001599999V0201001N001510240019N0300001N1+00831+00711102041ADDAY111031AY211031GF106991011061001501041011MA1999999101861MD1110011+9999MW1031REMSYN072AAXX  26154 01098 41280 61003 10083 20071 30186 40204 51001 70311 81641;
0220010980999992000062618004+70360+031090FM-12+001599999V0200901N001510012019N0100001N1+00781+00671102061ADDAA199000091AY121061AY221061GF107991061061001501041001KA1120M+00991MA1999999101881MD1210021+9999MW1021REMSYN088AAXX  26184 01098 31260 70903 10078 20067 30188 40206 52002 70222 86640 333 10099 91105;EQDQ01  00002PRCP99
0161010980999992000062621004+70360+031090FM-12+001599999V0200901N001010012019N0300001N1+00721+00611102161ADDAY121031AY221031GF107991071061001501001001MA1999999101981MD1210101+9999MW1021REMSYN072AAXX  26214 01098 41280 70902 10072 20061 30198 40216 52010 70222 87600;
0201010980999992000062700004+70360+031090FM-12+001599999V0200801N002110240019N0300001N1+00681+00571102161ADDAA199000091AY121061AY221061GF107991011061001501041001MA1999999101981MD1410001+9999MW1021REMSYN082AAXX  27004 01098 31280 70804 10068 20057 30198 40216 54000 70222 81640 333 91106;EQDQ01  00002PRCP99
0161010980999992000062703004+70360+031090FM-12+001599999V0200701N002110240019N0200001N1+00651+00551102101ADDAY121031AY221031GF107991031061001501041001MA1999999101921MD1710061+9999MW1021REMSYN072AAXX  27034 01098 41270 70704 10065 20055 30192 40210 57006 70222 83640;
0207010980999992000062706004+70360+031090FM-12+001599999V0200801N001510240019N0200001N1+00731+00621102041ADDAA112000791AY151061AY221061GF108991041061001501041001KA1120N+00651MA1999999101861MD1710061+9999MW1501REMSYN094AAXX  27064 01098 11270 80803 10073 20062 30186 40204 57006 69902 75052 84640 333 20065 91108;
0161010980999992000062709004+70360+031090FM-12+001599999V0200801N002610240019N0200001N1+00871+00761102021ADDAY161031AY251031GF106991031061001501021001MA1999999101841MD1710021+9999MW1211REMSYN072AAXX  27094 01098 41270 60805 10087 20076 30184 40202 57002 72165 83620;
0188010980999992000062712004+70360+031090FM-12+001599999V0200801N002110240019N0200001N1+00831+00691101971ADDAA106000791AY161061AY251061GF107991021061001501071001MA1999999101791MD1710051+9999MW1031REMSYN088AAXX  27124 01098 11270 70804 10083 20069 30179 40197 57005 69901 70365 82670 333 91108;
0161010980999992000062715004+70360+031090FM-12+001599999V0200901N002110240019N0750001N1+00881+00691101861ADDAY121031AY221031GF107991011021004501071001MA1999999101681MD1710111+9999MW1011REMSYN072AAXX  27154 01098 41489 70904 10088 20069 30168 40186 57011 70122 81270;
0207010980999992000062718004+70360+031090FM-12+001599999V0201101N001512200019N0750001N1+00891+00691101851ADDAA112000791AY121061AY221061GF103991021001022501071011KA1120M+00941MA1999999101671MD1610011+9999MW1011REMSYN094AAXX  27184 01098 11889 31103 10089 20069 30167 40185 56001 69902 70122 82071 333 10094 91107;
0161010980999992000062721004+70360+031090FM-12+001599999V0201201N002112200019N0750001N1+00831+00681101881ADDAY111031AY201031GF103991031001008001071011MA1999999101701MD1210031+9999MW1021REMSYN072AAXX  27214 01098 41589 31204 10083 20068 30170 40188 52003 70210 83071;
0201010980999992000062800004+70360+031090FM-12+001599999V0201201N002110240019N0550001N1+00831+00691101711ADDAA199000091AY121061AY211061GF106991021051004501071011MA1999999101631MD1810171+9999MW1031REMSYN082AAXX  28004 01098 31485 61204 10083 20069 30163 40171 58017 70321 82571 333 91108;EQDQ01  00002PRCP99
0161010980999992000062803004+70360+031090FM-12+001599999V0201101N002110042019N0550001N1+00831+00721101771ADDAY121031AY221031GF107991051051004501071001MA1999999101591MD1710041+9999MW1031REMSYN072AAXX  28034 01098 41485 71104 10083 20072 30159 40177 57004 70322 85570;
0220010980999992000062806004+70360+031090FM-12+001599999V0201201N002110042019N0550001N1+00901+00791101711ADDAA199000091AY121061AY221061GF107991071051004501001001KA1120N+00801MA1999999101531MD1710061+9999MW1021REMSYN088AAXX  28064 01098 31485 71204 10090 20079 30153 40171 57006 70222 87500 333 20080 91108;EQDQ01  00002PRCP99
0161010980999992000062809004+70360+031090FM-12+001599999V0201201N002110240019N0150001N1+00971+00851101701ADDAY121031AY221031GF106991011061002501071091MA1999999101521MD1710011+9999MW1021REMSYN072AAXX  28094 01098 41365 61204 10097 20085 30152 40170 57001 70222 81679;
0201010980999992000062812004+70360+031090FM-12+001599999V0201101N003112200019N0100001N1+00991+00851101631ADDAA199000091AY121061AY211061GF103991011061002501071091MA1999999101451MD1810071+9999MW1011REMSYN082AAXX  28124 01098 31360 31106 10099 20085 30145 40163 58007 70121 81679 333 91112;EQDQ01  00002PRCP99
0161010980999992000062815004+70360+031090FM-12+001599999V0201401N002612200019N0100001N1+00941+00831101561ADDAY111031AY201031GF104991021061002501031001MA1999999101381MD1710071+9999MW1031REMSYN072AAXX  28154 01098 41360 41405 10094 20083 30138 40156 57007 70310 82630;
0220010980999992000062818004+70360+031090FM-12+001599999V0201301N002612200019N0200001N1+00861+00751101481ADDAA199000091AY111061AY201061GF104991041051004501001001KA1120M+01061MA1999999101301MD1710081+9999MW1021REMSYN088AAXX  28184 01098 31470 41305 10086 20075 30130 40148 57008 70210 84500 333 10106 91112;EQDQ01  00002PRCP99
0161010980999992000062821004+70360+031090FM-12+001599999V0201601N001012200019N0550001N1+00861+00741101481ADDAY111031AY201031GF105991031001022501071091MA1999999101301MD1410001+9999MW1021REMSYN072AAXX  28214 01098 41885 51602 10086 20074 30130 40148 54000 70210 83079;
0201010980999992000062900004+70360+031090FM-12+001599999V0201601N000510240019N0550001N1+00841+00721101481ADDAA199000091AY121061AY211061GF107991011041004501071001MA1999999101301MD1410001+9999MW1031REMSYN082AAXX  29004 01098 31485 71601 10084 20072 30130 40148 54000 70321 81470 333 91107;EQDQ01  00002PRCP99
0161010980999992000062903004+70360+031090FM-12+001599999V0201501N001010240019N0550001N1+00961+00841101451ADDAY121031AY211031GF106991021051004501071001MA1999999101271MD1810031+9999MW1021REMSYN072AAXX  29034 01098 41485 61502 10096 20084 30127 40145 58003 70221 82570;
0220010980999992000062906004+70360+031090FM-12+001599999V0200201N000510600019N0550001N1+01981+01511101491ADDAA199000091AY121061AY211061GF105991021051004501071011KA1120N+00821MA1999999101321MD1310041+9999MW1021REMSYN088AAXX  29064 01098 31485 50201 10198 20151 30132 40149 53004 70221 82571 333 20082 91104;EQDQ01  00002PRCP99
0161010980999992000062909004+70360+031090FM-12+001599999V0203601N002610600019N0250001N1+01191+01051101711ADDAY121031AY211031GF105991011041004501071011MA1999999101531MD1210211+9999MW1031REMSYN072AAXX  29094 01098 41475 53605 10119 20105 30153 40171 52021 70321 81471;
0201010980999992000062912004+70360+031090FM-12+001599999V0203401N002110240019N0100001N1+01041+00961101841ADDAA199000091AY121061AY211061GF106991031041004501071011MA1999999101661MD1110131+9999MW1101REMSYN082AAXX  29124 01098 31460 63404 10104 20096 30166 40184 51013 71021 83471 333 91110;EQDQ01  00002PRCP99
0161010980999992000062915004+70360+031090FM-12+001599999V0203401N003610042019N0300001N1+00901+00791101901ADDAY121031AY221031GF108991081071004501999999MA1999999101721MD1110061+9999MW1031REMSYN072AAXX  29154 01098 41480 83407 10090 20079 30172 40190 51006 70322 887//;
0220010980999992000062918004+70360+031090FM-12+001599999V0203501N003110042019N0300001N1+00801+00691102021ADDAA199000091AY121061AY221061GF108991081071004501999999KA1120M+02001MA1999999101841MD1310121+9999MW1021REMSYN088AAXX  29184 01098 31480 83506 10080 20069 30184 40202 53012 70222 887// 333 10200 91111;EQDQ01  00002PRCP99
0161010980999992000062921004+70360+031090FM-12+001599999V0203401N003110240019N0300001N1+00761+00651102141ADDAY121031AY221031GF107991021071004501051001MA1999999101961MD1210121+9999MW1011REMSYN072AAXX  29214 01098 41480 73406 10076 20065 30196 40214 52012 70122 82750;
0188010980999992000063000004+70360+031090FM-12+001599999V0203401N003110240019N0200001N1+00681+00611102271ADDAA106000791AY161061AY221061GF108991041061002501021999MA1999999102091MD1210131+9999MW1601REMSYN088AAXX  30004 01098 11370 83406 10068 20061 30209 40227 52013 69901 76062 8462/ 333 91111;
0161010980999992000063003004+70360+031090FM-12+001599999V0203501N003610240019N0200001N1+00601+00531102371ADDAY151031AY221031GF108991041061002501021999MA1999999102191MD1210101+9999MW1501REMSYN072AAXX  30034 01098 41370 83507 10060 20053 30219 40237 52010 75052 8462/;
0207010980999992000063006004+70360+031090FM-12+001599999V0203501N003610600019N0250001N1+00551+00481102491ADDAA112000791AY151061AY221061GF107991041061002501001091KA1120N+00551MA1999999102311MD1210121+9999MW1011REMSYN094AAXX  30064 01098 11375 73507 10055 20048 30231 40249 52012 69902 70152 84609 333 20055 91112;
0161010980999992000063009004+70360+031090FM-12+001599999V0203501N003110021019N0250001N1+00581+00511102561ADDAY151031AY221031GF108991051061002501021999MA1999999102381MD1210071+9999MW1501REMSYN072AAXX  30094 01098 41375 83506 10058 20051 30238 40256 52007 75052 8562/;
0188010980999992000063012004+70360+031090FM-12+001599999V0200101N002610021019N0300001N1+00591+00521102591ADDAA106000791AY151061AY221061GF107991061061002501021001MA1999999102411MD1110031+9999MW1021REMSYN088AAXX  30124 01098 11380 70105 10059 20052 30241 40259 51003 69901 70252 86620 333 91110;
0161010980999992000063015004+70360+031090FM-12+001599999V0203601N002110042019N0300001N1+00621+00551102581ADDAY121031AY221031GF108991081051004501999999MA1999999102401MD1710011+9999MW1021REMSYN072AAXX  30154 01098 41480 83604 10062 20055 30240 40258 57001 70222 885//;
0207010980999992000063018004+70360+031090FM-12+001599999V0203601N001510042019N0550001N1+00601+00481102531ADDAA112000791AY121061AY221061GF108991081051004501999999KA1120M+00641MA1999999102361MD1710051+9999MW1021REMSYN094AAXX  30184 01098 11485 83603 10060 20048 30236 40253 57005 69902 70222 885// 333 10064 91108;
0161010980999992000063021004+70360+031090FM-12+001599999V0203601N001510042019N0550001N1+00551+00401102491ADDAY121031AY221031GF108991081051004501999999MA1999999102311MD1710041+9999MW1021REMSYN072AAXX  30214 01098 41485 83603 10055 20040 30231 40249 57004 70222 885//;
0201010980999992000070100004+70360+031090FM-12+001599999V0203001N001010042019N0550001N1+00511+00361102381ADDAA199000091AY121061AY221061GF108991081051004501999999MA1999999102201MD1710111+9999MW1021REMSYN082AAXX  01004 01098 31485 83002 10051 20036 30220 40238 57011 70222 885// 333 91105;EQDQ01  00002PRCP99
0161010980999992000070103004+70360+031090FM-12+001599999V0200301N000510042019N0550001N1+00501+00351102321ADDAY121031AY221031GF108991081051004501999999MA1999999102141MD1610061+9999MW1021REMSYN072AAXX  01034 01098 41485 80301 10050 20035 30214 40232 56006 70222 885//;
0220010980999992000070106004+70360+031090FM-12+001599999V0200101N001010042019N0550001N1+00531+00381102271ADDAA199000091AY121061AY221061GF108991081051004501999999KA1120N+00501MA1999999102091MD1710051+9999MW1021REMSYN088AAXX  01064 01098 31485 80102 10053 20038 30209 40227 57005 70222 885// 333 20050 91104;EQDQ01  00002PRCP99
0161010980999992000070109004+70360+031090FM-12+001599999V0203201N001010042019N0550001N1+00581+00431102261ADDAY121031AY221031GF108991081051004501999999MA1999999102081MD1710011+9999MW1021REMSYN072AAXX  01094 01098 41485 83202 10058 20043 30208 40226 57001 70222 885//;
0217010980999992000070112004+70360+031090FM-12+001599999V0200201N001519999999N0550001N1+00611+00441102241ADDAA199000091AY121061AY221061GF107991999081004501999999MA1999999102061MD1710021+9999MW1021REMSYN082AAXX  01124 01098 31485 70203 10061 20044 30206 40224 57002 70222 888// 333 91105;EQDQ01+000082SCOTLCQ02  00002PRCP99
0161010980999992000070115004+70360+031090FM-12+001599999V0200101N002110090019N0600001N1+00641+00511102231ADDAY121031AY221031GF105991051081004501001001MA1999999102051MD1610011+9999MW1011REMSYN072AAXX  01154 01098 41486 50104 10064 20051 30205 40223 56001 70122 85800;
0220010980999992000070118004+70360+031090FM-12+001599999V0200101N001010090019N0600001N1+00621+00491102231ADDAA199000091AY121061AY221061GF107991071081004501001001KA1120M+00701MA1999999102051MD1410001+9999MW1031REMSYN088AAXX  01184 01098 31486 70102 10062 20049 30205 40223 54000 70322 87800 333 10070 91106;EQDQ01  00002PRCP99
0161010980999992000070121004+70360+031090FM-12+001599999V0203501N001510240019N0100001N1+00561+00491102211ADDAY161031AY221031GF108991041071001501021999MA1999999102031MD1810021+9999MW1151REMSYN072AAXX  01214 01098 41260 83503 10056 20049 30203 40221 58002 71562 8472/;
0188010980999992000070200004+70360+031090FM-12+001599999V0200501N001010240019N0300001N1+00561+00491102221ADDAA106000191AY161061AY221061GF107991031071002501021001MA1999999102041MD1310011+9999MW1011REMSYN088AAXX  02004 01098 11380 70502 10056 20049 30204 40222 53001 69911 70162 83720 333 91104;
0161010980999992000070203004+70360+031090FM-12+001599999V0200301N002110021019N0300001N1+00561+00421102211ADDAY121031AY221031GF107991051071002501021001MA1999999102031MD1710011+9999MW1021REMSYN072AAXX  02034 01098 41380 70304 10056 20042 30203 40221 57001 70222 85720;
0207010980999992000070206004+70360+031090FM-12+001599999V0200501N001010240019N0550001N1+00581+00351102191ADDAA112000191AY121061AY221061GF107991041071004501021001KA1120N+00521MA1999999102011MD1710021+9999MW1021REMSYN094AAXX  02064 01098 11485 70502 10058 20035 30201 40219 57002 69912 70222 84720 333 20052 91106;
0161010980999992000070209004+70360+031090FM-12+001599999V0201001N001010240019N0600001N1+00601+00501102211ADDAY161031AY221031GF107991041071004501021001MA1999999102031MD1310021+9999MW1601REMSYN072AAXX  02094 01098 41486 71002 10060 20050 30203 40221 53002 76062 84720;
0188010980999992000070212004+70360+031090FM-12+001599999V0200901N002610042019N0600001N1+00581+00511102181ADDAA106000791AY161061AY221061GF107991071071004501001001MA1999999102001MD1710031+9999MW1021REMSYN088AAXX  02124 01098 11486 70905 10058 20051 30200 40218 57003 69901 70262 87700 333 91108;
0161010980999992000070215004+70360+031090FM-12+001599999V0201101N001510042019N0600001N1+00621+00501102081ADDAY121031AY221031GF108991081071004501001001MA1999999101901MD1710101+9999MW1021REMSYN072AAXX  02154 01098 41486 81103 10062 20050 30190 40208 57010 70222 88700;
0207010980999992000070218004+70360+031090FM-12+001599999V0201101N002110042019N0600001N1+00581+00461102041ADDAA112000791AY151061AY221061GF108991081071004501001001KA1120M+00681MA1999999101861MD1710041+9999MW1021REMSYN094AAXX  02184 01098 11486 81104 10058 20046 30186 40204 57004 69902 70252 88700 333 10068 91107;
0161010980999992000070221004+70360+031090FM-12+001599999V0201001N001510042019N0600001N1+00561+00361101961ADDAY121031AY221031GF107991071071004501001001MA1999999101781MD1710081+9999MW1021REMSYN072AAXX  02214 01098 41486 71003 10056 20036 30178 40196 57008 70222 87700;
0201010980999992000070300004+70360+031090FM-12+001599999V0201001N002110042019N0600001N1+00521+00321101881ADDAA199000091AY121061AY221061GF108991081051004501999999MA1999999101701MD1710081+9999MW1031REMSYN082AAXX  03004 01098 31486 81004 10052 20032 30170 40188 57008 70322 885// 333 91108;EQDQ01  00002PRCP99
0161010980999992000070303004+70360+031090FM-12+001599999V0201301N002110042019N0600001N1+00601+00471101751ADDAY121031AY221031GF108991081051004501999999MA1999999101571MD1710131+9999MW1021REMSYN072AAXX  03034 01098 41486 81304 10060 20047 30157 40175 57013 70222 885//;
0220010980999992000070306004+70360+031090FM-12+001599999V0201301N002110042019N0600001N1+00651+00511101721ADDAA199000091AY121061AY221061GF107991071051004501001001KA1120N+00551MA1999999101541MD1710031+9999MW1011REMSYN088AAXX  03064 01098 31486 71304 10065 20051 30154 40172 57003 70122 87500 333 20055 91107;EQDQ01  00002PRCP99
0161010980999992000070309004+70360+031090FM-12+001599999V0201101N002110240019N0750001N1+00691+00521101661ADDAY121031AY221031GF107991021051004501071001MA1999999101481MD1710061+9999MW1031REMSYN072AAXX  03094 01098 41489 71104 10069 20052 30148 40166 57006 70322 82570;
0201010980999992000070312004+70360+031090FM-12+001599999V0201101N002610240019N0750001N1+00681+00511101621ADDAA199000091AY121061AY221061GF106991031051004501031001MA1999999101441MD1710041+9999MW1021REMSYN082AAXX  03124 01098 31489 61105 10068 20051 30144 40162 57004 70222 83530 333 91109;EQDQ01  00002PRCP99
0161010980999992000070315004+70360+031090FM-12+001599999V0201201N002610042019N0750001N1+00731+00581101581ADDAY121031AY221031GF107991051051004501031001MA1999999101401MD1710041+9999MW1031REMSYN072AAXX  03154 01098 41489 71205 10073 20058 30140 40158 57004 70322 85530;
0220010980999992000070318004+70360+031090FM-12+001599999V0201201N002610042019N0750001N1+00681+00561101551ADDAA199000091AY121061AY221061GF106991051051004501031001KA1120M+00791MA1999999101371MD1710031+9999MW1021REMSYN088AAXX  03184 01098 31489 61205 10068 20056 30137 40155 57003 70222 85530 333 10079 91109;EQDQ01  00002PRCP99
0161010980999992000070321004+70360+031090FM-12+001599999V0201101N002110600019N0750001N1+00641+00521101521ADDAY121031AY221031GF105991021051004501031081MA1999999101341MD1710031+9999MW1021REMSYN072AAXX  03214 01098 41489 51104 10064 20052 30134 40152 57003 70222 82538;
0201010980999992000070400004+70360+031090FM-12+001599999V0201101N002112200019N0750001N1+00661+00541101481ADDAA199000091AY121061AY221061GF105991031051004501001081MA1999999101301MD1710041+9999MW1021REMSYN082AAXX  04004 01098 31489 51104 10066 20054 30130 40148 57004 70222 83508 333 91107;EQDQ01  00002PRCP99
0161010980999992000070403004+70360+031090FM-12+001599999V0201301N001012200019N0750001N1+00701+00631101441ADDAY121031AY221031GF104991041051004501001001MA1999999101261MD1710041+9999MW1011REMSYN072AAXX  04034 01098 41489 41302 10070 20063 30126 40144 57004 70122 84500;
0220010980999992000070406004+70360+031090FM-12+001599999V0201301N002110042019N0750001N1+00781+00711101401ADDAA199000091AY121061AY221061GF107991071051004501001001KA1120N+00641MA1999999101221MD1710041+9999MW1031REMSYN088AAXX  04064 01098 31489 71304 10078 20071 30122 40140 57004 70322 87500 333 20064 91106;EQDQ01  00002PRCP99
0161010980999992000070409004+70360+031090FM-12+001599999V0201201N002610240019N0550001N1+00811+00731101351ADDAY121031AY221031GF107991021051004501071081MA1999999101171MD1710051+9999MW1021REMSYN072AAXX  04094 01098 41485 71205 10081 20073 30117 40135 57005 70222 82578;
0201010980999992000070412004+70360+031090FM-12+001599999V0201201N003110240019N0250001N1+00801+00681101291ADDAA199000091AY121061AY221061GF106991031051004501071091MA1999999101111MD1710081+9999MW1031REMSYN082AAXX  04124 01098 31475 61206 10080 20068 30111 40129 57008 70322 83579 333 91111;EQDQ01  00002PRCP99
0161010980999992000070415004+70360+031090FM-12+001599999V0201101N003110240019N0550001N1+00741+00601101251ADDAY121031AY221031GF106991041051004501071001MA1999999101071MD1710041+9999MW1021REMSYN072AAXX  04154 01098 41485 61106 10074 20060 30107 40125 57004 70222 84570;
0207010980999992000070418004+70360+031090FM-12+001599999V0201101N003110042019N0550001N1+00701+00591101201ADDAA112000791AY161061AY221061GF108991071071004501021999KA1120M+00941MA1999999101021MD1710051+9999MW1601REMSYN094AAXX  04184 01098 11485 81106 10070 20059 30102 40120 57005 69902 76062 8772/ 333 10094 91112;
0188010980999992000070500004+70360+031090FM-12+001599999V0201101N002610240019N0300001N1+00651+00551101001ADDAA106000191AY161061AY221061GF108991041061004501021999MA1999999100821MD1710211+9999MW1601REMSYN088AAXX  05004 01098 11480 81105 10065 20055 30082 40100 57021 69921 76062 8462/ 333 91110;
0161010980999992000070503004+70360+031090FM-12+001599999V0201201N001510240019N0300001N1+00701+00591100851ADDAY161031AY221031GF108991031061004501021999MA1999999100671MD1710151+9999MW1601REMSYN072AAXX  05034 01098 41480 81203 10070 20059 30067 40085 57015 76062 8362/;
0207010980999992000070506004+70360+031090FM-12+001599999V0201201N002610006019N0035001N1+00741+00681100661ADDAA112004191AY161061AY221061GF108991071061000751021999KA1120N+00651MA1999999100481MD1710191+9999MW1631REMSYN094AAXX  05064 01098 11135 81205 10074 20068 30048 40066 57019 60042 76362 8762/ 333 20065 91109;
0161010980999992000070509004+70360+031090FM-12+001599999V0201201N003610240019N0150001N1+00751+00691100551ADDAY161031AY251031GF108991031061001501021999MA1999999100371MD1710111+9999MW1501REMSYN072AAXX  05094 01098 41265 81207 10075 20069 30037 40055 57011 75065 8362/;
0188010980999992000070512004+70360+031090FM-12+001599999V0201201N004110240019N0150001N1+00771+00711100461ADDAA106003091AY161061AY251061GF108991041061001501021999MA1999999100281MD1710091+9999MW1501REMSYN088AAXX  05124 01098 11265 81208 10077 20071 30028 40046 57009 60031 75065 8462/ 333 91113;
0161010980999992000070515004+70360+031090FM-12+001599999V0201201N002610240019N0200001N1+00791+00731100351ADDAY151031AY221031GF107991041081004501021001MA1999999100171MD1710111+9999MW1151REMSYN072AAXX  05154 01098 41470 71205 10079 20073 30017 40035 57011 71552 84820;
0207010980999992000070518004+70360+031090FM-12+001599999V0202401N001010240019N0550001N1+00991+00931100331ADDAA112003091AY151061AY221061GF107991041081004501021001KA1120M+00991MA1999999100151MD1610031+9999MW1021REMSYN094AAXX  05184 01098 11485 72402 10099 20093 30015 40033 56003 60032 70252 84820 333 10099 91111;
0161010980999992000070521004+70360+031090FM-12+001599999V0202501N000510240019N0550001N1+00911+00831100421ADDAY121031AY211031GF105991021081004501051001MA1999999100241MD1710091+9999MW1011REMSYN072AAXX  05214 01098 41485 52501 10091 20083 30024 40042 57009 70121 82850;
0182010980999992000070600004+70360+031090FM-12+001599999V0202401N002110090019N0550001N1+00781+00721100421ADDAA199000021AY121061AY221061GF107991071081004501001001MA1999999100241MD1410001+9999MW1031REMSYN082AAXX  06004 01098 31485 72404 10078 20072 30024 40042 54000 70322 87800 333 91107;
0161010980999992000070603004+70360+031090FM-12+001599999V0202501N002110090019N0550001N1+00811+00731100411ADDAY121031AY221031GF107991071081004501001001MA1999999100231MD1810011+9999MW1021REMSYN072AAXX  06034 01098 41485 72504 10081 20073 30023 40041 58001 70222 87800;
0220010980999992000070606004+70360+031090FM-12+001599999V0203201N000510090019N0550001N1+00931+00821100421ADDAA199000091AY121061AY221061GF108991081081004501999999KA1120N+00751MA1999999100241MD1310011+9999MW1021REMSYN088AAXX  06064 01098 31485 83201 10093 20082 30024 40042 53001 70222 888// 333 20075 91106;EQDQ01  00002PRCP99
0161010980999992000070609004+70360+031090FM-12+001599999V0203301N002610042019N0250001N1+00731+00621100521ADDAY161031AY251031GF108991061071004501021999MA1999999100341MD1210101+9999MW1601REMSYN072AAXX  06094 01098 41475 83305 10073 20062 30034 40052 52010 76065 8672/;
0188010980999992000070612004+70360+031090FM-12+001599999V0203201N002610042019N0250001N1+00781+00671100601ADDAA106000791AY161061AY251061GF108991061071004501021999MA1999999100421MD1110081+9999MW1021REMSYN088AAXX  06124 01098 31475 83205 10078 20067 30042 40060 51008 69901 70265 8672/ 333 91110;
0161010980999992000070615004+70360+031090FM-12+001599999V0203301N002110042019N0300001N1+00741+00631100771ADDAY161031AY251031GF107991061071004501021001MA1999999100591MD1210171+9999MW1501REMSYN072AAXX  06154 01098 41480 73304 10074 20063 30059 40077 52017 75065 86720;
0207010980999992000070618004+70360+031090FM-12+001599999V0203001N002610042019N0300001N1+00781+00671100721ADDAA112000791AY161061AY251061GF107991051071004501021001KA1120M+00951MA1999999100541MD1810051+9999MW1021REMSYN094AAXX  06184 01098 11480 73005 10078 20067 30054 40072 58005 69902 70265 85720 333 10095 91109;
0161010980999992000070621004+70360+031090FM-12+001599999V0203201N003110042019N0300001N1+00661+00561100731ADDAY161031AY221031GF107991061071004501041001MA1999999100551MD1210011+9999MW1211REMSYN072AAXX  06214 01098 41480 73206 10066 20056 30055 40073 52001 72162 86740;
0188010980999992000070700004+70360+031090FM-12+001599999V0203101N004110042019N0300001N1+00621+00521100791ADDAA106000791AY161061AY221061GF108991061071004501021999MA1999999100611MD1210061+9999MW1021REMSYN088AAXX  07004 01098 11480 83108 10062 20052 30061 40079 52006 69901 70262 8672/ 333 91113;
0161010980999992000070703004+70360+031090FM-12+001599999V0203201N004610042019N0200001N1+00601+00501100831ADDAY161031AY221031GF108991071071004501021999MA1999999100651MD1210041+9999MW1021REMSYN072AAXX  07034 01098 41470 83209 10060 20050 30065 40083 52004 70262 8772/;
0207010980999992000070706004+70360+031090FM-12+001599999V0203201N004610090019N0300001N1+00681+00571100951ADDAA112000191AY161061AY221061GF107991061081004501021999KA1120N+00591MA1999999100771MD1310121+9999MW1021REMSYN094AAXX  07064 01098 11480 73209 10068 20057 30077 40095 53012 69912 70262 8682/ 333 20059 91113;
0161010980999992000070709004+70360+031090FM-12+001599999V0203201N003110240019N0300001N1+00761+00511101061ADDAY121031AY221031GF105991031081004501021001MA1999999100881MD1210111+9999MW1021REMSYN072AAXX  07094 01098 41480 53206 10076 20051 30088 40106 52011 70222 83820;
0201010980999992000070712004+70360+031090FM-12+001599999V0203301N004110090019N0300001N1+00651+00591101091ADDAA199000091AY121061AY221061GF106991051081004501021001MA1999999100911MD1110031+9999MW1021REMSYN082AAXX  07124 01098 31480 63308 10065 20059 30091 40109 51003 70222 85820 333 91112;EQDQ01  00002PRCP99
0161010980999992000070715004+70360+031090FM-12+001599999V0203301N003610600019N0550001N1+00661+00411101121ADDAY121031AY221031GF106991041051004501001081MA1999999100941MD1110031+9999MW1021REMSYN072AAXX  07154 01098 41485 63307 10066 20041 30094 40112 51003 70222 84508;
0220010980999992000070718004+70360+031090FM-12+001599999V0203301N003610042019N0550001N1+00631+00381101141ADDAA199000091AY121061AY221061GF107991071051004501001001KA1120M+00841MA1999999100961MD1210021+9999MW1021REMSYN088AAXX  07184 01098 31485 73307 10063 20038 30096 40114 52002 70222 87500 333 10084 91111;EQDQ01  00002PRCP99
0161010980999992000070721004+70360+031090FM-12+001599999V0203301N002110042019N0750001N1+00591+00281101121ADDAY121031AY211031GF105991051051004501001001MA1999999100941MD1810021+9999MW1011REMSYN072AAXX  07214 01098 41489 53304 10059 20028 30094 40112 58002 70121 85500;
0201010980999992000070800004+70360+031090FM-12+001599999V0203001N002112200019N0750001N1+00481+00271101081ADDAA199000091AY111061AY211061GF104991041051008001001001MA1999999100901MD1810041+9999MW1011REMSYN082AAXX  08004 01098 31589 43004 10048 20027 30090 40108 58004 70111 84500 333 91109;EQDQ01  00002PRCP99
0161010980999992000070803004+70360+031090FM-12+001599999V0202701N002612200019N0750001N1+00561+00281101041ADDAY111031AY211031GF104991041051008001001001MA1999999100861MD1710041+9999MW1011REMSYN072AAXX  08034 01098 41589 42705 10056 20028 30086 40104 57004 70111 84500;
0220010980999992000070806004+70360+031090FM-12+001599999V0203001N001512200019N0750001N1+00721+00311101001ADDAA199000091AY111061AY201061GF103991031011008001001001KA1120N+00451MA1999999100821MD1710041+9999MW1011REMSYN088AAXX  08064 01098 31589 33003 10072 20031 30082 40100 57004 70110 83100 333 20045 91107;EQDQ01  00002PRCP99
0161010980999992000070809004+70360+031090FM-12+001599999V0200101N002112200019N0750001N1+00721+00581100961ADDAY111031AY201031GF102991021011008001001001MA1999999100781MD1710041+9999MW1011REMSYN072AAXX  08094 01098 41589 20104 10072 20058 30078 40096 57004 70110 82100;
0201010980999992000070812004+70360+031090FM-12+001599999V0200301N005110042019N0750001N1+00731+00431100971ADDAA199000091AY121061AY211061GF106991061011004501001001MA1999999100791MD1310011+9999MW1031REMSYN082AAXX  08124 01098 31489 60310 10073 20043 30079 40097 53001 70321 86100 333 91106;EQDQ01  00002PRCP99
0161010980999992000070815004+70360+031090FM-12+001599999V0200801N001512200019N0750001N1+00761+00491100911ADDAY111031AY211031GF102991011011004501041011MA1999999100731MD1810061+9999MW1011REMSYN072AAXX  08154 01098 41489 20803 10076 20049 30073 40091 58006 70111 81141;
0220010980999992000070818004+70360+031090FM-12+001599999V0201201N001512200019N0750001N1+00721+00551100831ADDAA199000091AY101061AY201061GF103991011011004501001041KA1120M+00801MA1999999100651MD1710081+9999MW1021REMSYN088AAXX  08184 01098 31489 31203 10072 20055 30065 40083 57008 70200 81104 333 10080 91105;EQDQ01  00002PRCP99
0161010980999992000070821004+70360+031090FM-12+001599999V0201201N001512200019N0750001N1+00641+00501100791ADDAY111031AY211031GF106991031051004501001041MA1999999100611MD1610041+9999MW1031REMSYN072AAXX  08214 01098 41489 61203 10064 20050 30061 40079 56004 70311 83504;
0201010980999992000070900004+70360+031090FM-12+001599999V0201101N002110042019N0750001N1+00621+00501100661ADDAA199000091AY121061AY211061GF107991051051004501001091MA1999999100481MD1710131+9999MW1031REMSYN082AAXX  09004 01098 31489 71104 10062 20050 30048 40066 57013 70321 85509 333 91106;EQDQ01  00002PRCP99
0161010980999992000070903004+70360+031090FM-12+001599999V0201001N002110042019N0750001N1+00661+00541100511ADDAY121031AY221031GF108991081051004501999999MA1999999100331MD1710151+9999MW1021REMSYN072AAXX  09034 01098 41489 81004 10066 20054 30033 40051 57015 70222 885//;
0207010980999992000070906004+70360+031090FM-12+001599999V0200901N003610240019N0300001N1+00641+00541100361ADDAA112000191AY161061AY221061GF108991041071004501021999KA1120N+00611MA1999999100181MD1710151+9999MW1601REMSYN094AAXX  09064 01098 11480 80907 10064 20054 30018 40036 57015 69912 76062 8472/ 333 20061 91112;
0161010980999992000070909004+70360+031090FM-12+001599999V0200901N003110042019N0200001N1+00681+00611100311ADDAY161031AY221031GF108991071071004501021999MA1999999100131MD1610051+9999MW1211REMSYN072AAXX  09094 01098 41470 80906 10068 20061 30013 40031 56005 72162 8772/;
0188010980999992000070912004+70360+031090FM-12+001599999V0201001N003110021019N0200001N1+00711+00641100261ADDAA106002091AY161061AY221061GF108991071071002501021999MA1999999100081MD1710051+9999MW1601REMSYN088AAXX  09124 01098 31370 81006 10071 20064 30008 40026 57005 60021 76062 8772/ 333 91111;
0161010980999992000070915004+70360+031090FM-12+001599999V0201001N003110012019N0060001N1+00711+00641100211ADDAY161031AY221031GF108991061061001501021999MA1999999100031MD1710051+9999MW1601REMSYN072AAXX  09154 01098 41256 81006 10071 20064 30003 40021 57005 76062 8662/;
0207010980999992000070918004+70360+031090FM-12+001599999V0201001N002110012019N0060001N1+00701+00641100231ADDAA100003091AY161061AY221061GF108991081061001501999999KA1120M+00801MA1999999100051MD1510021+9999MW1601REMSYN094AAXX  09184 01098 11256 81004 10070 20064 30005 40023 55002 60030 76062 886// 333 10080 91112;
0161010980999992000070921004+70360+031090FM-12+001599999V0201101N002610012019N0050001N1+00721+00661100161ADDAY161031AY221031GF108991081061001501999999MA1999999099981MD1810071+9999MW1601REMSYN072AAXX  09214 01098 41250 81105 10072 20066 39998 40016 58007 76062 886//;
0198010980999992000071000004+70360+031090FM-12+001599999V0201301N001510003019N0002001N1+00711+00651100281ADDAA106000191AY161061AY241061GA1091+999999999GF109991091999999999999999MA1999999100101MD1310121+9999MW1451REMSYN082AAXX  10004 01098 11/02 91303 10071 20065 30010 40028 53012 69911 74564 333 91111;
0171010980999992000071003004+70360+031090FM-12+001599999V0201401N000510003019N0002001N1+00721+00661100211ADDAY151031AY241031GA1091+999999999GF109991091999999999999999MA1999999100031MD1810071+9999MW1451REMSYN066AAXX  10034 01098 41/02 91401 10072 20066 30003 40021 58007 74554;
0217010980999992000071006004+70360+031090FM-12+001599999V0201201N001010003019N0002001N1+00761+00701100231ADDAA112000191AY151061AY241061GA1091+999999999GF109991091999999999999999KA1120N+00701MA1999999100051MD1310021+9999MW1451REMSYN088AAXX  10064 01098 11/02 91202 10076 20070 30005 40023 53002 69922 74554 333 20070 91106;
0161010980999992000071009004+70360+031090FM-12+001599999V0201201N001010003019N0008001N1+00821+00761100271ADDAY141031AY221031GF107991061061000251001091MA1999999100091MD1210041+9999MW1421REMSYN072AAXX  10094 01098 41008 71202 10082 20076 30009 40027 52004 74242 86609;
0201010980999992000071012004+70360+031090FM-12+001599999V0201301N000510003019N0008001N1+00881+00821100271ADDAA199000091AY141061AY221061GF107991071061000251001091MA1999999100091MD1410001+9999MW1441REMSYN082AAXX  10124 01098 31008 71301 10088 20082 30009 40027 54000 74442 87609 333 91104;EQDQ01  00002PRCP99
0171010980999992000071015004+70360+031090FM-12+001599999V0201001N000510006019N0006001N1+00781+00721100251ADDAY141031AY221031GA1091+999999999GF109991091999999999999999MA1999999100071MD1710021+9999MW1431REMSYN066AAXX  10154 01098 41/06 91001 10078 20072 30007 40025 57002 74342;
0230010980999992000071018004+70360+031090FM-12+001599999V0200401N001010003019N0004001N1+00811+00751100211ADDAA199000091AY141061AY221061GA1091+999999999GF109991091999999999999999KA1120M+00921MA1999999100031MD1710041+9999MW1451REMSYN082AAXX  10184 01098 31/04 90402 10081 20075 30003 40021 57004 74542 333 10092 91106;EQDQ01  00002PRCP99
0171010980999992000071021004+70360+031090FM-12+001599999V0200701N001010006019N0008001N1+00821+00761100161ADDAY151031AY241031GA1091+999999999GF109991091999999999999999MA1999999099981MD1710051+9999MW1501REMSYN066AAXX  10214 01098 41/08 90702 10082 20076 39998 40016 57005 75054;
0211010980999992000071100004+70360+031090FM-12+001599999V0200701N001010006019N0008001N1+00681+00621099971ADDAA106100191AY151061AY241061GA1091+999999999GF109991091999999999999999MA1999999099791MD1710191+9999REMSYN082AAXX  11004 01098 11/08 90702 10068 20062 39979 49997 57019 61001 75654 333 91104;EQDQ01+000562PRSWM1
0171010980999992000071103004+70360+031090FM-12+001599999V0203501N002610006019N0008001N1+00711+00651099811ADDAY161031AY241031GA1091+999999999GF109991091999999999999999MA1999999099631MD1710161+9999MW1631REMSYN066AAXX  11034 01098 41/08 93505 10071 20065 39963 49981 57016 76364;
0217010980999992000071106004+70360+031090FM-12+001599999V0203301N004110006019N0008001N1+00701+00641099761ADDAA106010991AY161061AY241061GA1091+999999999GF109991091999999999999999KA1120N+00681MA1999999099581MD1710051+9999MW1811REMSYN088AAXX  11064 01098 11/08 93308 10070 20064 39958 49976 57005 60111 78164 333 20068 91113;
0161010980999992000071109004+70360+031090FM-12+001599999V0203301N006210006019N0040001N1+00711+00651099971ADDAY161031AY251031GF108991071061000751021999MA1999999099791MD1310211+9999MW1601REMSYN072AAXX  11094 01098 41140 83312 10071 20065 39979 49997 53021 76065 8762/;
0188010980999992000071112004+70360+031090FM-12+001599999V0203401N006210012019N0550001N1+00801+00741100321ADDAA106003091AY161061AY221061GF107991051061001501061001MA1999999100141MD1210351+9999MW1011REMSYN088AAXX  11124 01098 11285 73412 10080 20074 30014 40032 52035 60031 70162 85660 333 91117;
0161010980999992000071115004+70360+031090FM-12+001599999V0203201N004110240019N0550001N1+00961+00631100671ADDAY121031AY221031GF107991031051002501061091MA1999999100491MD1210351+9999MW1021REMSYN072AAXX  11154 01098 41385 73208 10096 20063 30049 40067 52035 70222 83569;
0207010980999992000071118004+70360+031090FM-12+001599999V0203301N002610240019N0550001N1+00881+00661100961ADDAA112003091AY121061AY221061GF107991031041004501061091KA1120M+00991MA1999999100781MD1210291+9999MW1021REMSYN094AAXX  11184 01098 11485 73305 10088 20066 30078 40096 52029 60032 70222 83469 333 10099 91117;
0161010980999992000071121004+70360+031090FM-12+001599999V0200201N000512200019N0750001N1+00821+00671101151ADDAY111031AY201031GF101991011021004501001011MA1999999100971MD1210191+9999MW1011REMSYN072AAXX  11214 01098 41489 10201 10082 20067 30097 40115 52019 70110 81201;
0201010980999992000071200004+70360+031090FM-12+001599999V0201801N002112200019N0750001N1+00691+00571101231ADDAA199000091AY101061AY201061GF104991011021004501011041MA1999999101051MD1110081+9999MW1021REMSYN082AAXX  12004 01098 31489 41804 10069 20057 30105 40123 51008 70200 81214 333 91106;EQDQ01  00002PRCP99
0161010980999992000071203004+70360+031090FM-12+001599999V0201701N001510240019N0750001N1+00791+00601101261ADDAY121031AY211031GF106991011021004501011081MA1999999101081MD1110031+9999MW1031REMSYN072AAXX  12034 01098 41489 61703 10079 20060 30108 40126 51003 70321 81218;
0220010980999992000071206004+70360+031090FM-12+001599999V0201601N002110600019N0750001N1+00931+00821101231ADDAA199000091AY121061AY211061GF105991021021004501061041KA1120N+00671MA1999999101051MD1810031+9999MW1021REMSYN088AAXX  12064 01098 31489 51604 10093 20082 30105 40123 58003 70221 82264 333 20067 91106;EQDQ01  00002PRCP99
0161010980999992000071209004+70360+031090FM-12+001599999V0201601N002110240019N0300001N1+00941+00831101201ADDAY121031AY211031GF106991021021004501071081MA1999999101021MD1710031+9999MW1021REMSYN072AAXX  12094 01098 41480 61604 10094 20083 30102 40120 57003 70221 82278;
0201010980999992000071212004+70360+031090FM-12+001599999V0201401N001512200019N0300001N1+01281+00941101131ADDAA199000091AY121061AY211061GF104991011081004501071081MA1999999100961MD1710071+9999MW1021REMSYN082AAXX  12124 01098 31480 41403 10128 20094 30096 40113 57007 70221 81878 333 91106;EQDQ01  00002PRCP99
0180010980999992000071215004+70360+031090FM-12+001599999V0201401N001512200019N0750001N1+01181+01011101091ADDAY111031AY201031GF104991001001999999001041MA1999999100911MD1710041+9999MW1011REMSYN072AAXX  12154 01098 41789 41403 10118 20101 30091 40109 57004 70110 80004;EQDQ01+017502SCOLCB
0220010980999992000071218004+70360+031090FM-12+001599999V0201401N001510600019N0750001N1+01131+00921101101ADDAA199000091AY121061AY211061GF108991011021004501001061KA1120M+01331MA1999999100921MD1310011+9999MW1031REMSYN088AAXX  12184 01098 31489 81403 10113 20092 30092 40110 53001 70321 81206 333 10133 91106;EQDQ01  00002PRCP99
0161010980999992000071221004+70360+031090FM-12+001599999V0201501N001510240019N0550001N1+01211+00931101071ADDAY121031AY221031GF107991021041004501051091MA1999999100901MD1710021+9999MW1011REMSYN072AAXX  12214 01098 41485 71503 10121 20093 30090 40107 57002 70122 82459;
0201010980999992000071300004+70360+031090FM-12+001599999V0201501N001010240019N0550001N1+01311+00961101071ADDAA199000091AY121061AY221061GF107991021041004501071091MA1999999100901MD1410001+9999MW1021REMSYN082AAXX  13004 01098 31485 71502 10131 20096 30090 40107 54000 70222 82479 333 91107;EQDQ01  00002PRCP99
0161010980999992000071303004+70360+031090FM-12+001599999V0201401N001010240019N0550001N1+01181+00901101021ADDAY121031AY221031GF106991021041004501031091MA1999999100841MD1810061+9999MW1011REMSYN072AAXX  13034 01098 41485 61402 10118 20090 30084 40102 58006 70122 82439;
0220010980999992000071306004+70360+031090FM-12+001599999V0201901N001012200019N0550001N1+01181+01021100951ADDAA199000091AY121061AY221061GF105991011041004501031091KA1120N+01111MA1999999100771MD1710071+9999MW1011REMSYN088AAXX  13064 01098 31485 51902 10118 20102 30077 40095 57007 70122 81439 333 20111 91108;EQDQ01  00002PRCP99
0161010980999992000071309004+70360+031090FM-12+001599999V0201401N002112200019N0300001N1+01181+01051100841ADDAY111031AY201031GF102991011021004501041091MA1999999100661MD1710111+9999MW1021REMSYN072AAXX  13094 01098 41480 21404 10118 20105 30066 40084 57011 70210 81249;
0201010980999992000071312004+70360+031090FM-12+001599999V0201601N002112200019N0300001N1+01251+01121100771ADDAA199000091AY111061AY201061GF104991011021004501041081MA1999999100591MD1710071+9999MW1021REMSYN082AAXX  13124 01098 31480 41604 10125 20112 30059 40077 57007 70210 81248 333 91108;EQDQ01  00002PRCP99
0161010980999992000071315004+70360+031090FM-12+001599999V0201601N001519999999N0750001N1+01131+01021100671ADDAY111031AY201031GF106991031001012501051081MA1999999100491MD1710101+9999MW1021REMSYN072AAXX  13154 01098 41689 61603 10113 20102 30049 40067 57010 70210 83058;
0220010980999992000071318004+70360+031090FM-12+001599999V0201401N001012200019N0750001N1+01231+01121100551ADDAA199000091AY111061AY201061GF103991011001022501051081KA1120M+01221MA1999999100371MD1710121+9999MW1011REMSYN088AAXX  13184 01098 31889 31402 10123 20112 30037 40055 57012 70110 81058 333 10122 91107;EQDQ01  00002PRCP99
0161010980999992000071321004+70360+031090FM-12+001599999V0200401N001512200019N0750001N1+01081+01021100411ADDAY191031AY281031GF103991011001022501041091MA1999999100231MD1710141+9999MW1021REMSYN072AAXX  13214 01098 41889 30403 10108 20102 30023 40041 57014 70298 81049;
0188010980999992000071400004+70360+031090FM-12+001599999V0201501N000512200019N0750001N1+01141+01071100291ADDAA106002091AY191061AY281061GF101991001001999999001011MA1999999100111MD1710121+9999MW1011REMSYN088AAXX  14004 01098 11989 11501 10114 20107 30011 40029 57012 60021 70198 80001 333 91105;
0161010980999992000071403004+70360+031090FM-12+001599999V0201701N003110042019N0750001N1+01461+01371100271ADDAY121031AY211031GF106991061051004501001001MA1999999100091MD1610021+9999MW1011REMSYN072AAXX  14034 01098 41489 61706 10146 20137 30009 40027 56002 70121 86500;
0207010980999992000071406004+70360+031090FM-12+001599999V0201701N002112200019N0750001N1+01501+01371100291ADDAA112002091AY191061AY281061GF102991001001999999001011KA1120N+01021MA1999999100121MD1310021+9999MW1011REMSYN094AAXX  14064 01098 11989 21704 10150 20137 30012 40029 53002 60022 70198 80001 333 20102 91109;
0161010980999992000071409004+70360+031090FM-12+001599999V0201501N002112200019N0550001N1+01401+01211100331ADDAY101031AY201031GF103991011011004501041091MA1999999100161MD1210041+9999MW1021REMSYN072AAXX  14094 01098 41485 31504 10140 20121 30016 40033 52004 70200 81149;
0201010980999992000071412004+70360+031090FM-12+001599999V0201601N002110240019N0550001N1+01761+01311100341ADDAA199000091AY111061AY201061GF106991011031004501041091MA1999999100171MD1210011+9999MW1031REMSYN082AAXX  14124 01098 31485 61604 10176 20131 30017 40034 52001 70310 81349 333 91108;EQDQ01  00002PRCP99
0161010980999992000071415004+70360+031090FM-12+001599999V0201501N001012200019N0550001N1+01511+01271100361ADDAY111031AY201031GF103991021031004501041091MA1999999100181MD1210021+9999MW1011REMSYN072AAXX  14154 01098 41485 31502 10151 20127 30018 40036 52002 70110 82349;
0220010980999992000071418004+70360+031090FM-12+001599999V0201601N002112200019N0750001N1+01531+01231100411ADDAA199000091AY111061AY201061GF103991011021004501051011KA1120M+01531MA1999999100241MD1210051+9999MW1021REMSYN088AAXX  14184 01098 31489 31604 10153 20123 30024 40041 52005 70210 81251 333 10153 91106;EQDQ01  00002PRCP99
0161010980999992000071421004+70360+031090FM-12+001599999V0201801N002112200019N0750001N1+01621+01101100481ADDAY111031AY201031GF103991011021012501041091MA1999999100311MD1210071+9999MW1021REMSYN072AAXX  14214 01098 41689 31804 10162 20110 30031 40048 52007 70210 81249;
0201010980999992000071500004+70360+031090FM-12+001599999V0201801N002112200019N0750001N1+01401+01261100611ADDAA199000091AY111061AY201061GF103991011021012501051091MA1999999100441MD1210131+9999MW1021REMSYN082AAXX  15004 01098 31689 31804 10140 20126 30044 40061 52013 70210 81259 333 91106;EQDQ01  00002PRCP99
0161010980999992000071503004+70360+031090FM-12+001599999V0202201N002610600019N0750001N1+01421+01291100641ADDAY111031AY201031GF106991041001022501051091MA1999999100471MD1110031+9999MW1031REMSYN072AAXX  15034 01098 41889 62205 10142 20129 30047 40064 51003 70310 84059;
0220010980999992000071506004+70360+031090FM-12+001599999V0201801N001512200019N0750001N1+01521+01221100771ADDAA199000091AY111061AY201061GF101991011001022501051001KA1120N+01251MA1999999100601MD1110131+9999MW1011REMSYN088AAXX  15064 01098 31889 11803 10152 20122 30060 40077 51013 70110 81050 333 20125 91107;EQDQ01  00002PRCP99
0161010980999992000071509004+70360+031090FM-12+001599999V0201601N002112200019N0750001N1+01521+01221100781ADDAY111031AY201031GF102991011001022501051091MA1999999100611MD1110011+9999MW1021REMSYN072AAXX  15094 01098 41889 21604 10152 20122 30061 40078 51001 70210 81059;
0201010980999992000071512004+70360+031090FM-12+001599999V0201401N002112200019N0550001N1+01621+01141100801ADDAA199000091AY101061AY201061GF102991021001022501081091MA1999999100631MD1210021+9999MW1021REMSYN082AAXX  15124 01098 31885 21404 10162 20114 30063 40080 52002 70200 82089 333 91106;EQDQ01  00002PRCP99
0161010980999992000071515004+70360+031090FM-12+001599999V0201701N001012200019N0750001N1+01651+01151100861ADDAY101031AY201031GF103991021011008001081091MA1999999100691MD1210061+9999MW1031REMSYN072AAXX  15154 01098 41589 31702 10165 20115 30069 40086 52006 70300 82189;
0236010980999992000071518004+70360+031090FM-12+001599999V0201801N002612200019N0750001N1+01611+01091101001ADDAA199000091AY101061AY201061GF103991021001017501081091KA1120M+99999MA1999999100831MD1210141+9999MW1021REMSYN088AAXX  15184 01098 31789 31805 10161 20109 30083 40100 52014 70200 82089 333 10151 91107;EQDQ01  00002PRCP99Q02 +01512ATMX  
0201010980999992000071600004+70360+031090FM-12+001599999V0203501N001510240019N0750001N1+01481+00971101181ADDAA199000091AY121061AY211061GF106991041041012501071091MA1999999101011MD1210061+9999MW1021REMSYN082AAXX  16004 01098 31689 63503 10148 20097 30101 40118 52006 70221 84479 333 91107;EQDQ01  00002PRCP99
0161010980999992000071603004+70360+031090FM-12+001599999V0203401N001512200019N0750001N1+01271+01031101381ADDAY111031AY201031GF104991031041012501051091MA1999999101211MD1210201+9999MW1011REMSYN072AAXX  16034 01098 41689 43403 10127 20103 30121 40138 52020 70110 83459;
0220010980999992000071606004+70360+031090FM-12+001599999V0203501N002112200019N0750001N1+01301+01211101471ADDAA199000091AY111061AY201061GF103991031041008001031091KA1120N+01281MA1999999101301MD1210091+9999MW1011REMSYN088AAXX  16064 01098 31589 33504 10130 20121 30130 40147 52009 70110 83439 333 20128 91107;EQDQ01  00002PRCP99
0171010980999992000071609004+70360+031090FM-12+001599999V0203501N002610006019N0008001N1+00921+00861101631ADDAY141031AY221031GA1091+999999999GF109991091999999999999999MA1999999101451MD1210161+9999MW1471REMSYN066AAXX  16094 01098 41/08 93505 10092 20086 30145 40163 52016 74742;
0211010980999992000071612004+70360+031090FM-12+001599999V0203601N002110024019N0030001N1+00841+00781101761ADDAA199000091AY141061AY221061GA1091+999999999GF109991091999999999999999MA1999999101581MD1210131+9999MW1431REMSYN076AAXX  16124 01098 31/30 93604 10084 20078 30158 40176 52013 74342 333 91110;EQDQ01  00002PRCP99
0171010980999992000071615004+70360+031090FM-12+001599999V0203501N002610024019N0030001N1+00851+00791101771ADDAY141031AY221031GA1091+999999999GF109991091999999999999999MA1999999101591MD1210011+9999MW1431REMSYN066AAXX  16154 01098 41/30 93505 10085 20079 30159 40177 52001 74342;
0230010980999992000071618004+70360+031090FM-12+001599999V0203501N002110024019N0040001N1+00831+00771101781ADDAA199000091AY141061AY221061GA1091+999999999GF109991091999999999999999KA1120M+01301MA1999999101601MD1210011+9999MW1431REMSYN082AAXX  16184 01098 31/40 93504 10083 20077 30160 40178 52001 74342 333 10130 91110;EQDQ01  00002PRCP99
0171010980999992000071621004+70360+031090FM-12+001599999V0203401N002110024019N0045001N1+00891+00831101791ADDAY141031AY221031GA1091+999999999GF109991091999999999999999MA1999999101611MD1210011+9999MW1431REMSYN066AAXX  16214 01098 41/45 93404 10089 20083 30161 40179 52001 74342;
0201010980999992000071700004+70360+031090FM-12+001599999V0203601N001510006019N0050001N1+00841+00781101791ADDAA199000091AY141061AY221061GF108991081061000751999999MA1999999101611MD1410001+9999MW1011REMSYN082AAXX  17004 01098 31150 83603 10084 20078 30161 40179 54000 70142 886// 333 91107;EQDQ01  00002PRCP99
0171010980999992000071703004+70360+031090FM-12+001599999V0203501N002110006019N0008001N1+00781+00721101801ADDAY141031AY221031GA1091+999999999GF109991091999999999999999MA1999999101621MD1310011+9999MW1471REMSYN066AAXX  17034 01098 41/08 93504 10078 20072 30162 40180 53001 74742;
0230010980999992000071706004+70360+031090FM-12+001599999V0203601N001510003019N0005001N1+00801+00741101801ADDAA199000091AY141061AY221061GA1091+999999999GF109991091999999999999999KA1120N+00781MA1999999101621MD1410001+9999MW1471REMSYN082AAXX  17064 01098 31/05 93603 10080 20074 30162 40180 54000 74742 333 20078 91107;EQDQ01  00002PRCP99
0171010980999992000071709004+70360+031090FM-12+001599999V0200101N001510006019N0006001N1+00821+00761101811ADDAY141031AY221031GA1091+999999999GF109991091999999999999999MA1999999101631MD1210011+9999MW1451REMSYN066AAXX  17094 01098 41/06 90103 10082 20076 30163 40181 52001 74542;
0201010980999992000071712004+70360+031090FM-12+001599999V0200201N001010006019N0150001N1+00911+00851101831ADDAA199000091AY141061AY221061GF108991081061000751999999MA1999999101651MD1210021+9999MW1011REMSYN082AAXX  17124 01098 31165 80202 10091 20085 30165 40183 52002 70142 886// 333 91106;EQDQ01  00002PRCP99
0161010980999992000071715004+70360+031090FM-12+001599999V0200201N001010021019N0300001N1+00951+00891101831ADDAY121031AY221031GF108991081051002501999999MA1999999101651MD1410001+9999MW1011REMSYN072AAXX  17154 01098 41380 80202 10095 20089 30165 40183 54000 70122 885//;
0220010980999992000071718004+70360+031090FM-12+001599999V0201601N000510042019N0550001N1+00961+00901101791ADDAA199000091AY121061AY221061GF108991081051004501999999KA1120M+00991MA1999999101611MD1810041+9999MW1011REMSYN088AAXX  17184 01098 31485 81601 10096 20090 30161 40179 58004 70122 885// 333 10099 91103;EQDQ01  00002PRCP99
0161010980999992000071721004+70360+031090FM-12+001599999V0201601N000510021019N0300001N1+00981+00921101781ADDAY121031AY221031GF108991081061002501999999MA1999999101601MD1710011+9999MW1021REMSYN072AAXX  17214 01098 41380 81601 10098 20092 30160 40178 57001 70222 886//;
0201010980999992000071800004+70360+031090FM-12+001599999V0201601N001010240019N0550001N1+01001+00911101771ADDAA199000091AY121061AY221061GF108991041071004501071999MA1999999101591MD1710011+9999MW1021REMSYN082AAXX  18004 01098 31485 81602 10100 20091 30159 40177 57001 70222 8477/ 333 91103;EQDQ01  00002PRCP99
0161010980999992000071803004+70360+031090FM-12+001599999V0201701N001510240019N0550001N1+01021+00931101731ADDAY121031AY221031GF108991041071004501021999MA1999999101551MD1710041+9999MW1021REMSYN072AAXX  18034 01098 41485 81703 10102 20093 30155 40173 57004 70222 8472/;
0220010980999992000071806004+70360+031090FM-12+001599999V0201501N001510012019N0060001N1+01041+00951101731ADDAA199000091AY121061AY221061GF108991081061001501999999KA1120N+01041MA1999999101551MD1410001+9999MW1401REMSYN088AAXX  18064 01098 31256 81503 10104 20095 30155 40173 54000 74022 886// 333 20104 91105;EQDQ01  00002PRCP99
0161010980999992000071809004+70360+031090FM-12+001599999V0201601N002110240019N9999999N1+01181+01121101731ADDAY141031AY221031GF107991031061000751051001MA1999999101551MD1510001+9999MW1101REMSYN072AAXX  18094 01098 41155 71604 10118 20112 30155 40173 55000 71042 83650;
0201010980999992000071812004+70360+031090FM-12+001599999V0201601N001512200019N0150001N1+01271+01211101691ADDAA199000091AY141061AY211061GF104991011031002501041091MA1999999101521MD1710031+9999MW1021REMSYN082AAXX  18124 01098 31365 41603 10127 20121 30152 40169 57003 70241 81349 333 91106;EQDQ01  00002PRCP99
0161010980999992000071815004+70360+031090FM-12+001599999V0201301N001512200019N0750001N1+01321+01261101691ADDAY101031AY201031GF103991011001022501051091MA1999999101521MD1410001+9999MW1021REMSYN072AAXX  18154 01098 41889 31303 10132 20126 30152 40169 54000 70200 81059;
0220010980999992000071818004+70360+031090FM-12+001599999V0202301N000512200019N0750001N1+01271+01201101711ADDAA199000091AY101061AY201061GF103991031001022501051001KA1120M+01401MA1999999101541MD1210021+9999MW1021REMSYN088AAXX  18184 01098 31889 32301 10127 20120 30154 40171 52002 70200 83050 333 10140 91106;EQDQ01  00002PRCP99
0161010980999992000071821004+70360+031090FM-12+001599999V0201601N000519999999N0750001N1+01271+01211101671ADDAY111031AY201031GF105991051001012501051001MA1999999101501MD1810041+9999MW1031REMSYN072AAXX  18214 01098 41689 51601 10127 20121 30150 40167 58004 70310 85050;
0201010980999992000071900004+70360+031090FM-12+001599999V0201401N000519999999N0750001N1+01241+01201101591ADDAA199000091AY111061AY201061GF106991031001012501051081MA1999999101421MD1810081+9999MW1031REMSYN082AAXX  19004 01098 31689 61401 10124 20120 30142 40159 58008 70310 83058 333 91103;EQDQ01  00002PRCP99
0161010980999992000071903004+70360+031090FM-12+001599999V0200801N000510240019N0750001N1+01301+01241101531ADDAY111031AY201031GF105991031051008001051001MA1999999101361MD1710061+9999MW1031REMSYN072AAXX  19034 01098 41589 50801 10130 20124 30136 40153 57006 70310 83550;
0207010980999992000071906004+70360+031090FM-12+001599999V0200601N001010075019N0750001N1+01231+01171101471ADDAA112000191AY191061AY281061GF107991071031008001001001KA1120N+01181MA1999999101301MD1710061+9999MW1291REMSYN094AAXX  19064 01098 11589 70602 10123 20117 30130 40147 57006 69912 72998 87300 333 20118 91103;
0161010980999992000071909004+70360+031090FM-12+001599999V0201601N000510240019N0300001N1+01451+01321101381ADDAY121031AY221031GF107991011011004501071001MA1999999101211MD1710091+9999MW1021REMSYN072AAXX  19094 01098 41480 71601 10145 20132 30121 40138 57009 70222 81170;
0201010980999992000071912004+70360+031090FM-12+001599999V0201501N001012200019N0300001N1+01691+01451101271ADDAA199000091AY111061AY201061GF101991011011004501041011MA1999999101101MD1710111+9999MW1021REMSYN082AAXX  19124 01098 31480 11502 10169 20145 30110 40127 57011 70210 81141 333 91104;EQDQ01  00002PRCP99
0161010980999992000071915004+70360+031090FM-12+001599999V0201401N001512200019N0600001N1+01661+01401101211ADDAY101031AY201031GF102991011011004501041011MA1999999101041MD1710061+9999MW1031REMSYN072AAXX  19154 01098 41486 21403 10166 20140 30104 40121 57006 70300 81141;
0220010980999992000071918004+70360+031090FM-12+001599999V0201601N001012200019N0600001N1+01681+01391101191ADDAA199000091AY101061AY201061GF102991011011004501001011KA1120M+01901MA1999999101021MD1610021+9999MW1021REMSYN088AAXX  19184 01098 31486 21602 10168 20139 30102 40119 56002 70200 81101 333 10190 91108;EQDQ01  00002PRCP99
0161010980999992000071921004+70360+031090FM-12+001599999V0201601N001012200019N0600001N1+01601+01311101191ADDAY101031AY201031GF102991011091004501031021MA1999999101021MD1410001+9999MW1021REMSYN072AAXX  19214 01098 41486 21602 10160 20131 30102 40119 54000 70200 81932;
0201010980999992000072000004+70360+031090FM-12+001599999V0201601N002112200019N0600001N1+01601+01451101231ADDAA199000091AY101061AY201061GF101991011081004501051021MA1999999101061MD1210041+9999MW1011REMSYN082AAXX  20004 01098 31486 11604 10160 20145 30106 40123 52004 70100 81852 333 91105;EQDQ01  00002PRCP99
0161010980999992000072003004+70360+031090FM-12+001599999V0201601N001512200019N0600001N1+01791+01521101251ADDAY101031AY201031GF101991011001017501051001MA1999999101081MD1210021+9999MW1011REMSYN072AAXX  20034 01098 41786 11603 10179 20152 30108 40125 52002 70100 81050;
0220010980999992000072006004+70360+031090FM-12+001599999V0201501N001510042019N0600001N1+01631+01441101311ADDAA199000091AY121061AY221061GF106991051011004501051001KA1120N+01601MA1999999101141MD1210061+9999MW1031REMSYN088AAXX  20064 01098 31486 61503 10163 20144 30114 40131 52006 70322 85150 333 20160 91106;EQDQ01  00002PRCP99
0161010980999992000072009004+70360+031090FM-12+001599999V0201501N001012200019N0200001N1+01931+01641101301ADDAY111031AY201031GF101991011011004501001011MA1999999101131MD1710011+9999MW1021REMSYN072AAXX  20094 01098 41470 11502 10193 20164 30113 40130 57001 70210 81101;
0201010980999992000072012004+70360+031090FM-12+001599999V0201401N001512200019N0200001N1+02151+01531101331ADDAA199000091AY111061AY201061GF101991011011004501041011MA1999999101161MD1310031+9999MW1021REMSYN082AAXX  20124 01098 31470 11403 10215 20153 30116 40133 53003 70210 81141 333 91106;EQDQ01  00002PRCP99
0161010980999992000072015004+70360+031090FM-12+001599999V0201601N002112200019N0750001N1+02201+01521101361ADDAY111031AY211031GF104991021021004501041011MA1999999101191MD1210031+9999MW1031REMSYN072AAXX  20154 01098 41489 41604 10220 20152 30119 40136 52003 70311 82241;
0220010980999992000072018004+70360+031090FM-12+001599999V0201601N001010240019N0550001N1+01601+01381101471ADDAA199000091AY121061AY221061GF107991021021004501071021KA1120M+02201MA1999999101301MD1310111+9999MW1021REMSYN088AAXX  20184 01098 31485 71602 10160 20138 30130 40147 53011 70222 82272 333 10220 91106;EQDQ01  00002PRCP99
0161010980999992000072021004+70360+031090FM-12+001599999V0201801N001010240019N0550001N1+01691+01411101601ADDAY121031AY221031GF107991021021004501071021MA1999999101431MD1210131+9999MW1021REMSYN072AAXX  20214 01098 41485 71802 10169 20141 30143 40160 52013 70222 82272;
0201010980999992000072100004+70360+031090FM-12+001599999V0203501N002110240019N0550001N1+01501+01321101851ADDAA199000091AY121061AY221061GF107991021021004501051021MA1999999101681MD1210251+9999MW1021REMSYN082AAXX  21004 01098 31485 73504 10150 20132 30168 40185 52025 70222 82252 333 91107;EQDQ01  00002PRCP99
0177010980999992000072103004+70360+031090FM-12+001599999V0203301N003110003019N0005001N1+01011+00941102051ADDAY141031AY221031GA1091+999999999GF109991091999999999999999MA1999999101871MD1210201+9999MW1471REMSYN072AAXX  21034 01098 41/05 93306 10101 20094 30187 40205 52020 74742 89///;
0230010980999992000072106004+70360+031090FM-12+001599999V0203401N003110003019N0005001N1+01031+00931102221ADDAA199000091AY141061AY221061GA1091+999999999GF109991091999999999999999KA1120N+01011MA1999999102041MD1210171+9999MW1451REMSYN082AAXX  21064 01098 31/05 93406 10103 20093 30204 40222 52017 74542 333 20101 91109;EQDQ01  00002PRCP99
0171010980999992000072109004+70360+031090FM-12+001599999V0203501N002110006019N0007001N1+01091+01031102341ADDAY141031AY221031GA1091+999999999GF109991091999999999999999MA1999999102161MD1210121+9999MW1451REMSYN066AAXX  21094 01098 41/07 93504 10109 20103 30216 40234 52012 74542;
0211010980999992000072112004+70360+031090FM-12+001599999V0203501N002110003019N0003001N1+01061+01001102431ADDAA199000091AY141061AY221061GA1091+999999999GF109991091999999999999999MA1999999102251MD1210091+9999MW1451REMSYN076AAXX  21124 01098 31/03 93504 10106 20100 30225 40243 52009 74542 333 91109;EQDQ01  00002PRCP99
0171010980999992000072115004+70360+031090FM-12+001599999V0203601N001510003019N0003001N1+01001+00931102521ADDAY141031AY221031GA1091+999999999GF109991091999999999999999MA1999999102341MD1210091+9999MW1451REMSYN066AAXX  21154 01098 41/03 93603 10100 20093 30234 40252 52009 74542;
0230010980999992000072118004+70360+031090FM-12+001599999V0200101N001510003019N0003001N1+01001+00931102541ADDAA199000091AY141061AY221061GA1091+999999999GF109991091999999999999999KA1120M+01151MA1999999102361MD1110021+9999MW1451REMSYN082AAXX  21184 01098 31/03 90103 10100 20093 30236 40254 51002 74542 333 10115 91107;EQDQ01  00002PRCP99
0171010980999992000072121004+70360+031090FM-12+001599999V0203601N001510003019N0003001N1+00941+00861102621ADDAY141031AY221031GA1091+999999999GF109991091999999999999999MA1999999102461MD1210121+9999MW1451REMSYN066AAXX  21214 01098 41/03 93603 10094 20086 30246 40262 52012 74542;
0194010980999992000072200004+70360+031090FM-12+001599999V0203601N001510001519N0001001N1+00921+00861102591ADDAA106000791AY141061AY221061GA1091+999999999GF109991091999999999999999MA1999999102411MD1010031+9999MW1451REMSYN078AAXX  22004 01098 11/01 93603 10092 20086 30241 40259 50003 69901 74542 91109;
0171010980999992000072203004+70360+031090FM-12+001599999V0200101N001010001519N0001001N1+00931+00871102561ADDAY141031AY221031GA1091+999999999GF109991091999999999999999MA1999999102381MD1710031+9999MW1451REMSYN066AAXX  22034 01098 41/01 90102 10093 20087 30238 40256 57003 74542;
0217010980999992000072206004+70360+031090FM-12+001599999V0200101N001010001519N0001001N1+00981+00921102561ADDAA112000791AY141061AY221061GA1091+999999999GF109991091999999999999999KA1120N+00941MA1999999102381MD1410001+9999MW1451REMSYN088AAXX  22064 01098 11/01 90102 10098 20092 30238 40256 54000 69902 74542 333 20094 91105;
0171010980999992000072209004+70360+031090FM-12+001599999V0200101N001010003019N0003001N1+01041+00981102551ADDAY141031AY221031GA1091+999999999GF109991091999999999999999MA1999999102371MD1810011+9999MW1451REMSYN066AAXX  22094 01098 41/03 90102 10104 20098 30237 40255 58001 74542;
0201010980999992000072212004+70360+031090FM-12+001599999V0200301N000510012019N0015001N1+01161+01101102531ADDAA199000091AY141061AY221061GF107991071061001501001001MA1999999102351MD1710021+9999MW1011REMSYN082AAXX  22124 01098 31215 70301 10116 20110 30235 40253 57002 70142 87600 333 91104;EQDQ01  00002PRCP99
0161010980999992000072215004+70360+031090FM-12+001599999V0200501N001010012019N0030001N1+01261+01241102421ADDAY141031AY221031GF105991051061001501001001MA1999999102251MD1710111+9999MW1011REMSYN072AAXX  22154 01098 41230 50502 10126 20124 30225 40242 57011 70142 85600;
0220010980999992000072218004+70360+031090FM-12+001599999V0200101N000510012019N0005001N1+01101+01041102401ADDAA199000091AY141061AY221061GF107991071061001501001001KA1120M+01291MA1999999102231MD1710021+9999MW1031REMSYN088AAXX  22184 01098 31205 70101 10110 20104 30223 40240 57002 70342 87600 333 10129 91104;EQDQ01  00002PRCP99
0171010980999992000072221004+70360+031090FM-12+001599999V0203001N000510003019N0005001N1+00981+00921102391ADDAY141031AY221031GA1091+999999999GF109991091999999999999999MA1999999102211MD1710011+9999MW1461REMSYN066AAXX  22214 01098 41/05 93001 10098 20092 30221 40239 57001 74642;
0211010980999992000072300004+70360+031090FM-12+001599999V0200601N000510001519N0001001N1+01101+01041102301ADDAA199000091AY141061AY221061GA1091+999999999GF109991091999999999999999MA1999999102121MD1810091+9999MW1451REMSYN076AAXX  23004 01098 31/01 90601 10110 20104 30212 40230 58009 74542 333 91102;EQDQ01  00002PRCP99
0171010980999992000072303004+70360+031090FM-12+001599999V0200801N000510003019N0002001N1+01111+01051102191ADDAY141031AY241031GA1091+999999999GF109991091999999999999999MA1999999102011MD1710091+9999MW1451REMSYN066AAXX  23034 01098 41/02 90801 10111 20105 30201 40219 57009 74544;
0230010980999992000072306004+70360+031090FM-12+001599999V0200901N001010003019N0002001N1+01121+01061102091ADDAA199000091AY141061AY241061GA1091+999999999GF109991091999999999999999KA1120N+00961MA1999999101911MD1710101+9999MW1451REMSYN082AAXX  23064 01098 31/02 90902 10112 20106 30191 40209 57010 74544 333 20096 91104;EQDQ01  00002PRCP99
0171010980999992000072309004+70360+031090FM-12+001599999V0200501N000510006019N0010001N1+01221+01161102031ADDAY141031AY241031GA1091+999999999GF109991091999999999999999MA1999999101851MD1710061+9999MW1431REMSYN066AAXX  23094 01098 41/10 90501 10122 20116 30185 40203 57006 74344;
0201010980999992000072312004+70360+031090FM-12+001599999V0200301N000510240019N0050001N1+01391+01331101871ADDAA199000091AY141061AY221061GF105991011061001501031001MA1999999101691MD1810161+9999MW1411REMSYN082AAXX  23124 01098 31250 50301 10139 20133 30169 40187 58016 74142 81630 333 91103;EQDQ01  00002PRCP99
0201010980999992000072315004+70360+031090FM-12+001599999V0200301N000510240019N0050001N1+01391+01331101831ADDAA199000091AY141031AY221031GF105991011061001501031001MA1999999101651MD1810161+9999MW1411REMSYN082AAXX  23154 01098 31250 50301 10139 20133 30165 40183 58016 74142 81630 333 91103;EQDQ01  00002PRCP99
0230010980999992000072318004+70360+031090FM-12+001599999V0203501N003110006019N0010001N1+01031+00941101801ADDAA199000091AY141061AY221061GA1091+999999999GF109991091999999999999999KA1120M+01401MA1999999101631MD1710031+9999MW1471REMSYN082AAXX  23184 01098 31/10 93506 10103 20094 30163 40180 57003 74742 333 10140 91108;EQDQ01  00002PRCP99
0161010980999992000072321004+70360+031090FM-12+001599999V0203401N003610042019N0300001N1+01101+00931101781ADDAY141031AY221031GF108991081051004501001001MA1999999101611MD1710021+9999MW1021REMSYN072AAXX  23214 01098 41480 83407 10110 20093 30161 40178 57002 70242 88500;
0211010980999992000072400004+70360+031090FM-12+001599999V0203401N004110006019N0008001N1+01011+00951101631ADDAA199000091AY141061AY241061GA1091+999999999GF109991091999999999999999MA1999999101451MD1710151+9999MW1471REMSYN076AAXX  24004 01098 31/08 93408 10101 20095 30145 40163 57015 74744 333 91113;EQDQ01  00002PRCP99
0161010980999992000072403004+70360+031090FM-12+001599999V0203401N004610003019N0050001N1+00981+00921101671ADDAY151031AY241031GF108991081061000251999999MA1999999101491MD1310041+9999MW1511REMSYN072AAXX  24034 01098 41050 83409 10098 20092 30149 40167 53004 75154 886//;
0207010980999992000072406004+70360+031090FM-12+001599999V0203501N003610003019N0050001N1+00971+00911101721ADDAA112000791AY151061AY241061GF108991081061000251999999KA1120N+00971MA1999999101541MD1210051+9999MW1511REMSYN094AAXX  24064 01098 11050 83507 10097 20091 30154 40172 52005 69902 75154 886// 333 20097 91114;
0161010980999992000072409004+70360+031090FM-12+001599999V0203401N004110042019N0550001N1+00891+00581101921ADDAY151031AY221031GF108991081051004501999999MA1999999101741MD1310201+9999MW1021REMSYN072AAXX  24094 01098 41485 83408 10089 20058 30174 40192 53020 70252 885//;
0188010980999992000072412004+70360+031090FM-12+001599999V0203401N003610042019N0550001N1+00871+00451102131ADDAA106000791AY151061AY221061GF107991071051004501001001MA1999999101951MD1210211+9999MW1021REMSYN088AAXX  24124 01098 11485 73407 10087 20045 30195 40213 52021 69901 70252 87500 333 91114;
0161010980999992000072415004+70360+031090FM-12+001599999V0203301N004110042019N0550001N1+00911+00471102171ADDAY121031AY221031GF106991061051004501001001MA1999999101991MD1110041+9999MW1021REMSYN072AAXX  24154 01098 41485 63308 10091 20047 30199 40217 51004 70222 86500;
0207010980999992000072418004+70360+031090FM-12+001599999V0203301N004110042019N0550001N1+00891+00451102261ADDAA112000791AY121061AY221061GF106991061051004501001001KA1120M+01021MA1999999102081MD1210091+9999MW1021REMSYN094AAXX  24184 01098 11485 63308 10089 20045 30208 40226 52009 69902 70222 86500 333 10102 91115;
0161010980999992000072421004+70360+031090FM-12+001599999V0203401N003112200019N0550001N1+00751+00321102431ADDAY121031AY201031GF103991031051004501001001MA1999999102251MD1210171+9999MW1011REMSYN072AAXX  24214 01098 41485 33406 10075 20032 30225 40243 52017 70120 83500;
0201010980999992000072500004+70360+031090FM-12+001599999V0203401N002110042019N0550001N1+00811+00451102431ADDAA199000091AY121061AY201061GF107991071051004501001001MA1999999102251MD1410001+9999MW1031REMSYN082AAXX  25004 01098 31485 73404 10081 20045 30225 40243 54000 70320 87500 333 91113;EQDQ01  00002PRCP99
0161010980999992000072503004+70360+031090FM-12+001599999V0203201N002110042019N0550001N1+00851+00491102431ADDAY121031AY201031GF107991071051004501001001MA1999999102251MD1410001+9999MW1031REMSYN072AAXX  25034 01098 41485 73204 10085 20049 30225 40243 54000 70320 87500;
0220010980999992000072506004+70360+031090FM-12+001599999V0203301N003110042019N0550001N1+00881+00381102431ADDAA199000091AY121061AY221061GF105991051051004501001001KA1120N+00751MA1999999102251MD1410001+9999MW1011REMSYN088AAXX  25064 01098 31485 53306 10088 20038 30225 40243 54000 70122 85500 333 20075 91108;EQDQ01  00002PRCP99
0161010980999992000072509004+70360+031090FM-12+001599999V0203401N002112200019N0550001N1+00921+00441102361ADDAY111031AY201031GF103991031051004501001001MA1999999102181MD1810071+9999MW1011REMSYN072AAXX  25094 01098 41485 33404 10092 20044 30218 40236 58007 70110 83500;
0201010980999992000072512004+70360+031090FM-12+001599999V0203601N002112200019N0550001N1+00971+00531102291ADDAA199000091AY111061AY201061GF101991011021004501041011MA1999999102111MD1710071+9999MW1021REMSYN082AAXX  25124 01098 31485 13604 10097 20053 30211 40229 57007 70210 81241 333 91108;EQDQ01  00002PRCP99
0161010980999992000072515004+70360+031090FM-12+001599999V0200301N001512200019N0750001N1+01021+00621102211ADDAY101031AY201031GF101991001001999999001061MA1999999102031MD1710081+9999MW1021REMSYN072AAXX  25154 01098 41989 10303 10102 20062 30203 40221 57008 70200 80006;
0220010980999992000072518004+70360+031090FM-12+001599999V0201701N001012200019N0750001N1+00941+00651102061ADDAA199000091AY101061AY201061GF101991011001022501041061KA1120M+01061MA1999999101881MD1710151+9999MW1021REMSYN088AAXX  25184 01098 31889 11702 10094 20065 30188 40206 57015 70200 81046 333 10106 91107;EQDQ01  00002PRCP99
0161010980999992000072521004+70360+031090FM-12+001599999V0202601N000510600019N0750001N1+00821+00651101981ADDAY111031AY211031GF106991031001022501041081MA1999999101801MD1610081+9999MW1031REMSYN072AAXX  25214 01098 41889 62601 10082 20065 30180 40198 56008 70311 83048;
0201010980999992000072600004+70360+031090FM-12+001599999V0202401N001010600019N0750001N1+00781+00661101871ADDAA199000091AY121061AY221061GF106991041001022501031021MA1999999101691MD1710111+9999MW1021REMSYN082AAXX  26004 01098 31889 62402 10078 20066 30169 40187 57011 70222 84032 333 91103;EQDQ01  00002PRCP99
0161010980999992000072603004+70360+031090FM-12+001599999V0203501N001010240019N0750001N1+00921+00631101781ADDAY121031AY221031GF107991011011004501041031MA1999999101601MD1710091+9999MW1021REMSYN072AAXX  26034 01098 41489 73502 10092 20063 30160 40178 57009 70222 81143;
0220010980999992000072606004+70360+031090FM-12+001599999V0203301N002612200019N0750001N1+01101+00791101791ADDAA199000091AY111061AY211061GF102991011021004501041001KA1120N+00761MA1999999101611MD1310011+9999MW1021REMSYN088AAXX  26064 01098 31489 23305 10110 20079 30161 40179 53001 70211 81240 333 20076 91107;EQDQ01  00002PRCP99
0161010980999992000072609004+70360+031090FM-12+001599999V0203501N002110042019N0550001N1+01061+00741101881ADDAY111031AY201031GF106991061051004501001001MA1999999101701MD1210091+9999MW1031REMSYN072AAXX  26094 01098 41485 63504 10106 20074 30170 40188 52009 70310 86500;
0201010980999992000072612004+70360+031090FM-12+001599999V0203601N002610240019N0550001N1+01011+00571101941ADDAA199000091AY121061AY211061GF106991041051004501051001MA1999999101761MD1110061+9999MW1021REMSYN082AAXX  26124 01098 31485 63605 10101 20057 30176 40194 51006 70221 84550 333 91111;EQDQ01  00002PRCP99
0161010980999992000072615004+70360+031090FM-12+001599999V0203601N002612200019N0550001N1+00921+00481102011ADDAY121031AY211031GF103991011051004501051001MA1999999101831MD1210071+9999MW1021REMSYN072AAXX  26154 01098 41485 33605 10092 20048 30183 40201 52007 70221 81550;
0220010980999992000072618004+70360+031090FM-12+001599999V0203601N002612200019N0550001N1+00851+00581102091ADDAA199000091AY121061AY211061GF101991011051004501001001KA1120M+01151MA1999999101911MD1210071+9999MW1011REMSYN088AAXX  26184 01098 31485 13605 10085 20058 30191 40209 52007 70121 81500 333 10115 91108;EQDQ01  00002PRCP99
0161010980999992000072621004+70360+031090FM-12+001599999V0203601N001010042019N0550001N1+00811+00561102011ADDAY121031AY221031GF107991071051004501001001MA1999999101831MD1810081+9999MW1031REMSYN072AAXX  26214 01098 41485 73602 10081 20056 30183 40201 58008 70322 87500;
0201010980999992000072700004+70360+031090FM-12+001599999V0202601N001010042019N0550001N1+00801+00631101961ADDAA199000091AY121061AY221061GF107991071051004501001001MA1999999101781MD1710051+9999MW1021REMSYN082AAXX  27004 01098 31485 72602 10080 20063 30178 40196 57005 70222 87500 333 91103;EQDQ01  00002PRCP99
0161010980999992000072703004+70360+031090FM-12+001599999V0202201N001510042019N0550001N1+00831+00711101901ADDAY121031AY221031GF107991071051004501001001MA1999999101721MD1710061+9999MW1021REMSYN072AAXX  27034 01098 41485 72203 10083 20071 30172 40190 57006 70222 87500;
0220010980999992000072706004+70360+031090FM-12+001599999V0200301N001012200019N0550001N1+00981+00651101831ADDAA199000091AY111061AY201061GF103991031021004501001001KA1120N+00761MA1999999101651MD1710071+9999MW1011REMSYN088AAXX  27064 01098 31485 30302 10098 20065 30165 40183 57007 70110 83200 333 20076 91105;EQDQ01  00002PRCP99
0161010980999992000072709004+70360+031090FM-12+001599999V0200401N001010042019N0550001N1+01001+00621101801ADDAY121031AY211031GF106991061051004501001001MA1999999101621MD1710031+9999MW1021REMSYN072AAXX  27094 01098 41485 60402 10100 20062 30162 40180 57003 70221 86500;
0191010980999992000072712004+70360+031090FM-12+001599999V0200601N001012200019N0550001N1+01061+00721101711ADDAA199000091AY121061AY211061GF101991011021004501001001MA1999999101531MD1710091+9999MW1021REMSYN072AAXX  27124 01098 31485 10602 10106 20072 30153 40171 57009 70221 81200;EQDQ01  00002PRCP99
0161010980999992000072715004+70360+031090FM-12+001599999V0200601N001012200019N0750001N1+01041+00741101601ADDAY121031AY221031GF102991011011004501041021MA1999999101421MD1710111+9999MW1021REMSYN072AAXX  27154 01098 41489 20602 10104 20074 30142 40160 57011 70222 81142;
0220010980999992000072718004+70360+031090FM-12+001599999V0200601N000510600019N0750001N1+00961+00751101491ADDAA199000091AY111061AY211061GF105991041001022501031031KA1120M+01131MA1999999101311MD1710111+9999MW1031REMSYN088AAXX  27184 01098 31889 50601 10096 20075 30131 40149 57011 70311 84033 333 10113 91104;EQDQ01  00002PRCP99
0161010980999992000072721004+70360+031090FM-12+001599999V0201201N000512200019N0750001N1+00861+00741101361ADDAY111031AY201031GF103991031001022501031001MA1999999101181MD1710131+9999MW1021REMSYN072AAXX  27214 01098 41889 31201 10086 20074 30118 40136 57013 70210 83030;
0201010980999992000072800004+70360+031090FM-12+001599999V0209999C000012200019N0750001N1+00711+00651101211ADDAA199000091AY111061AY201061GF101991011001022501031001MA1999999101031MD1710151+9999MW1011REMSYN082AAXX  28004 01098 31889 12400 10071 20065 30103 40121 57015 70110 81030 333 91102;EQDQ01  00002PRCP99
0177010980999992000072803004+70360+031090FM-12+001599999V0203001N000512200019N0750001N1+01021+00901101021ADDAY101031AY201031GA1001+999999999GF100991001001999999001001MA1999999100841MD1710191+9999MW1021REMSYN072AAXX  28034 01098 41889 03001 10102 20090 30084 40102 57019 70200 80008;
0220010980999992000072806004+70360+031090FM-12+001599999V0203401N002612200019N0750001N1+01261+00851100991ADDAA199000091AY101061AY201061GF101991001001999999001081KA1120N+00691MA1999999100811MD1610031+9999MW1021REMSYN088AAXX  28064 01098 31989 13405 10126 20085 30081 40099 56003 70200 80008 333 20069 91107;EQDQ01  00002PRCP99
0161010980999992000072809004+70360+031090FM-12+001599999V0203401N002612200019N0550001N1+01301+00721101041ADDAY111031AY201031GF105991011011004501041091MA1999999100871MD1310061+9999MW1021REMSYN072AAXX  28094 01098 41485 53405 10130 20072 30087 40104 53006 70210 81149;
0201010980999992000072812004+70360+031090FM-12+001599999V0203301N003610042019N0300001N1+01091+00861101111ADDAA199000091AY121061AY211061GF107991051041004501001091MA1999999100931MD1210071+9999MW1021REMSYN082AAXX  28124 01098 31480 73307 10109 20086 30093 40111 52007 70221 85409 333 91112;EQDQ01  00002PRCP99
0161010980999992000072815004+70360+031090FM-12+001599999V0203301N003612200019N0550001N1+01001+00791101181ADDAY121031AY211031GF104991031041004501021001MA1999999101001MD1210071+9999MW1011REMSYN072AAXX  28154 01098 41485 43307 10100 20079 30100 40118 52007 70121 83420;
0220010980999992000072818004+70360+031090FM-12+001599999V0203401N001510042019N0550001N1+00971+00751101241ADDAA199000091AY121061AY211061GF107991071051004501001001KA1120M+01351MA1999999101061MD1210061+9999MW1031REMSYN088AAXX  28184 01098 31485 73403 10097 20075 30106 40124 52006 70321 87500 333 10135 91113;EQDQ01  00002PRCP99
0161010980999992000072821004+70360+031090FM-12+001599999V0203301N001510090019N0750001N1+00921+00801101231ADDAY121031AY221031GF107991071081004501001001MA1999999101051MD1810011+9999MW1021REMSYN072AAXX  28214 01098 41489 73303 10092 20080 30105 40123 58001 70222 87800;
0201010980999992000072900004+70360+031090FM-12+001599999V0202701N003110090019N0550001N1+00921+00441101231ADDAA199000091AY121061AY221061GF107991071081004501001001MA1999999101051MD1410001+9999MW1021REMSYN082AAXX  29004 01098 31485 72706 10092 20044 30105 40123 54000 70222 87800 333 91108;EQDQ01  00002PRCP99
0161010980999992000072903004+70360+031090FM-12+001599999V0202801N004612200019N0750001N1+01021+00531101201ADDAY111031AY211031GF101991011011004501041001MA1999999101021MD1810031+9999MW1021REMSYN072AAXX  29034 01098 41489 12809 10102 20053 30102 40120 58003 70211 81140;
0220010980999992000072906004+70360+031090FM-12+001599999V0202301N001512200019N0750001N1+01191+00681101271ADDAA199000091AY111061AY211061GF101991011011004501041011KA1120N+00921MA1999999101091MD1310071+9999MW1021REMSYN088AAXX  29064 01098 31489 12303 10119 20068 30109 40127 53007 70211 81141 333 20092 91111;EQDQ01  00002PRCP99
0161010980999992000072909004+70360+031090FM-12+001599999V0202101N001012200019N0750001N1+01301+00791101281ADDAY101031AY201031GF101991011011004501001001MA1999999101111MD1210011+9999MW1021REMSYN072AAXX  29094 01098 41489 12102 10130 20079 30111 40128 52001 70200 81100;
0201010980999992000072912004+70360+031090FM-12+001599999V0201501N002112200019N0750001N1+01301+00981101281ADDAA199000091AY101061AY201061GF101991011011004501021001MA1999999101111MD1410001+9999MW1021REMSYN082AAXX  29124 01098 31489 11504 10130 20098 30111 40128 54000 70200 81120 333 91110;EQDQ01  00002PRCP99
0161010980999992000072915004+70360+031090FM-12+001599999V0200201N002612200019N0550001N1+01151+00821101381ADDAY101031AY201031GF101991011011004501041011MA1999999101201MD1310091+9999MW1021REMSYN072AAXX  29154 01098 41485 10205 10115 20082 30120 40138 53009 70200 81141;
0220010980999992000072918004+70360+031090FM-12+001599999V0200101N001512200019N0750001N1+01051+00821101471ADDAA199000091AY101061AY201061GF101991011011008001001001KA1120M+01501MA1999999101291MD1210091+9999MW1021REMSYN088AAXX  29184 01098 31589 10103 10105 20082 30129 40147 52009 70200 81100 333 10150 91107;EQDQ01  00002PRCP99
0161010980999992000072921004+70360+031090FM-12+001599999V0200301N001012200019N0750001N1+00941+00801101531ADDAY101031AY201031GF102991021011008001001001MA1999999101351MD1210061+9999MW1031REMSYN072AAXX  29214 01098 41589 20302 10094 20080 30135 40153 52006 70300 82100;
0201010980999992000073000004+70360+031090FM-12+001599999V0200401N000512200019N0550001N1+00881+00771101611ADDAA199000091AY101061AY201061GF103991021051004501041001MA1999999101431MD1210081+9999MW1031REMSYN082AAXX  30004 01098 31485 30401 10088 20077 30143 40161 52008 70300 82540 333 91104;EQDQ01  00002PRCP99
0161010980999992000073003004+70360+031090FM-12+001599999V0202901N000512200019N0750001N1+00891+00861101611ADDAY101031AY201031GF103991021011004501031001MA1999999101431MD1410001+9999MW1021REMSYN072AAXX  30034 01098 41489 32901 10089 20086 30143 40161 54000 70200 82130;
0220010980999992000073006004+70360+031090FM-12+001599999V0201501N000510042019N0550001N1+00971+00931101661ADDAA199000091AY121061AY201061GF108991081051004501999999KA1120N+00851MA1999999101481MD1110051+9999MW1031REMSYN088AAXX  30064 01098 31485 81501 10097 20093 30148 40166 51005 70320 885// 333 20085 91102;EQDQ01  00002PRCP99
0161010980999992000073009004+70360+031090FM-12+001599999V0201401N000510042019N0550001N1+01011+00871101611ADDAY121031AY221031GF108991081051004501999999MA1999999101431MD1810051+9999MW1021REMSYN072AAXX  30094 01098 41485 81401 10101 20087 30143 40161 58005 70222 885//;
0201010980999992000073012004+70360+031090FM-12+001599999V0201301N001510042019N0550001N1+01091+00901101611ADDAA199000091AY121061AY221061GF108991081051004501999999MA1999999101431MD1410001+9999MW1021REMSYN082AAXX  30124 01098 31485 81303 10109 20090 30143 40161 54000 70222 885// 333 91104;EQDQ01  00002PRCP99
0161010980999992000073015004+70360+031090FM-12+001599999V0201201N001510042019N0550001N1+01011+00831101611ADDAY121031AY221031GF107991071051004501999999MA1999999101431MD1410001+9999MW1021REMSYN072AAXX  30154 01098 41485 71203 10101 20083 30143 40161 54000 70222 875//;
0220010980999992000073018004+70360+031090FM-12+001599999V0201201N001010042019N0550001N1+00971+00811101591ADDAA199000091AY121061AY221061GF107991071071004501999999KA1120M+01121MA1999999101411MD1710021+9999MW1021REMSYN088AAXX  30184 01098 31485 71202 10097 20081 30141 40159 57002 70222 877// 333 10112 91106;EQDQ01  00002PRCP99
0161010980999992000073021004+70360+031090FM-12+001599999V0201301N001010042019N0550001N1+00941+00791101621ADDAY121031AY221031GF107991051071004501051999MA1999999101441MD1210031+9999MW1021REMSYN072AAXX  30214 01098 41485 71302 10094 20079 30144 40162 52003 70222 8575/;
0167010980999992000073100004+70360+031090FM-12+001599999V0200901N001510240019N0100001N1+00871+00831101581ADDAA106004191AY181061AY261061GF108991041081002501021999MD1710041+9999MW1631REMSYN082AAXX  31004 01098 11360 80903 10087 20083 40158 57004 60041 76386 8482/ 333 91105;
0161010980999992000073103004+70360+031090FM-12+001599999V0200601N001010042019N0550001N1+00911+00871101611ADDAY121031AY221031GF107991071051004501001001MA1999999101431MD1310031+9999MW1011REMSYN072AAXX  31034 01098 41485 70602 10091 20087 30143 40161 53003 70122 87500;
0207010980999992000073106004+70360+031090FM-12+001599999V0200601N001010042019N0550001N1+00961+00921101661ADDAA112004191AY121061AY221061GF108991081051004501999999KA1120N+00871MA1999999101481MD1310051+9999MW1021REMSYN094AAXX  31064 01098 11485 80602 10096 20092 30148 40166 53005 60042 70222 885// 333 20087 91105;
0161010980999992000073109004+70360+031090FM-12+001599999V0200601N001510240019N0550001N1+01081+00891101681ADDAY121031AY221031GF107991041081004501051091MA1999999101501MD1210021+9999MW1011REMSYN072AAXX  31094 01098 41485 70603 10108 20089 30150 40168 52002 70122 84859;
0188010980999992000073112004+70360+031090FM-12+001599999V0200301N001010240019N0300001N1+00961+00831101611ADDAA106000591AY161061AY221061GF107991031051004501021091MA1999999101431MD1810071+9999MW1601REMSYN088AAXX  31124 01098 11480 70302 10096 20083 30143 40161 58007 69951 76062 83529 333 91104;
0161010980999992000073115004+70360+031090FM-12+001599999V0200101N001010042019N0300001N1+00901+00841101771ADDAY161031AY221031GF108991081071004501999999MA1999999101591MD1710161+9999MW1021REMSYN072AAXX  31154 01098 41480 80102 10090 20084 30159 40177 57016 70262 887//;
0207010980999992000073118004+70360+031090FM-12+001599999V0200301N002610021019N0030001N1+00801+00741101771ADDAA112000591AY161061AY251061GF108991081061002501999999KA1120M+01101MA1999999101591MD1410001+9999MW1501REMSYN094AAXX  31184 01098 11330 80305 10080 20074 30159 40177 54000 69962 75065 886// 333 10110 91107;
0161010980999992000073121004+70360+031090FM-12+001599999V0200601N000510021019N0100001N1+00801+00741101771ADDAY121031AY221031GF108991081061002501999999MA1999999101591MD1410001+9999MW1021REMSYN072AAXX  31214 01098 41360 80601 10080 20074 30159 40177 54000 70222 886//;
0182010980999992000080100004+70360+031090FM-12+001599999V0209999C000010042019N0200001N1+00791+00741101741ADDAA199000021AY121061AY221061GF107991071061004501999999MA1999999101561MD1710031+9999MW1021REMSYN082AAXX  01004 01098 31470 70000 10079 20074 30156 40174 57003 70222 876// 333 91107;
0161010980999992000080103004+70360+031090FM-12+001599999V0203301N000510042019N0200001N1+00811+00741101751ADDAY121031AY221031GF107991071061004501999999MA1999999101571MD1210011+9999MW1021REMSYN072AAXX  01034 01098 41470 73301 10081 20074 30157 40175 52001 70222 876//;
0201010980999992000080106004+70360+031090FM-12+001599999V0203501N001010042019N0300001N1+00871+00621101781ADDAA199000021AY121061AY221061GF108991081061004501999999KA1120N+00781MA1999999101601MD1210031+9999MW1021REMSYN088AAXX  01064 01098 31480 83502 10087 20062 30160 40178 52003 70222 886// 333 20078 91104;
0161010980999992000080109004+70360+031090FM-12+001599999V0200101N001010042019N0300001N1+00941+00611101831ADDAY121031AY221031GF108991081051004501999999MA1999999101651MD1210051+9999MW1021REMSYN072AAXX  01094 01098 41480 80102 10094 20061 30165 40183 52005 70222 885//;
0201010980999992000080112004+70360+031090FM-12+001599999V0200301N000510042019N0550001N1+00941+00481101891ADDAA199000091AY121061AY221061GF107991071051004501001001MA1999999101711MD1210061+9999MW1021REMSYN082AAXX  01124 01098 31485 70301 10094 20048 30171 40189 52006 70222 87500 333 91104;EQDQ01  00002PRCP99
0161010980999992000080115004+70360+031090FM-12+001599999V0200601N001010042019N0550001N1+00961+00541101921ADDAY121031AY221031GF107991071051004501001001MA1999999101741MD1210031+9999MW1021REMSYN072AAXX  01154 01098 41485 70602 10096 20054 30174 40192 52003 70222 87500;
0220010980999992000080118004+70360+031090FM-12+001599999V0200901N001010042019N0550001N1+00911+00581101951ADDAA199000091AY121061AY221061GF107991071051004501001001KA1120M+01001MA1999999101771MD1210031+9999MW1021REMSYN088AAXX  01184 01098 31485 70902 10091 20058 30177 40195 52003 70222 87500 333 10100 91103;EQDQ01  00002PRCP99
0161010980999992000080121004+70360+031090FM-12+001599999V0201201N000510075019N0550001N1+00901+00631101991ADDAY121031AY221031GF107991071051008001001001MA1999999101811MD1210041+9999MW1021REMSYN072AAXX  01214 01098 41585 71201 10090 20063 30181 40199 52004 70222 87500;
0201010980999992000080200004+70360+031090FM-12+001599999V0201301N001510042019N0300001N1+00931+00851101951ADDAA199000091AY121061AY221061GF107991071051004501001001MA1999999101771MD1810041+9999MW1021REMSYN082AAXX  02004 01098 31480 71303 10093 20085 30177 40195 58004 70222 87500 333 91105;EQDQ01  00002PRCP99
0161010980999992000080203004+70360+031090FM-12+001599999V0201401N002110240019N0550001N1+00971+00891101881ADDAY121031AY221031GF108991031011004501071001MA1999999101701MD1710071+9999MW1021REMSYN072AAXX  02034 01098 41485 81404 10097 20089 30170 40188 57007 70222 83170;
0214010980999992000080206004+70360+031090FM-12+001599999V0201501N001510240019N0550001N1+01001+00731999999ADDAA199000091AY121061AY221061GF108991011011004501071001KA1120N+00901MA1999999101701MD1410001+9999MW1021REMSYN082AAXX  02064 01098 31485 81503 10100 20073 30170 54000 70222 81170 333 20090 91108;EQDQ01  00002PRCP99
0161010980999992000080209004+70360+031090FM-12+001599999V0201301N002110042019N0200001N1+00961+00791101801ADDAY151031AY221031GF108991071051004501071999MA1999999101621MD1810081+9999MW1501REMSYN072AAXX  02094 01098 41470 81304 10096 20079 30162 40180 58008 75052 8757/;
0188010980999992000080212004+70360+031090FM-12+001599999V0201701N002610042019N0550001N1+01071+00961101741ADDAA106000191AY151061AY221061GF108991081051004501999999MA1999999101561MD1710061+9999MW1021REMSYN088AAXX  02124 01098 11485 81705 10107 20096 30156 40174 57006 69911 70252 885// 333 91109;
0161010980999992000080215004+70360+031090FM-12+001599999V0201601N002110042019N0700001N1+01101+00991101721ADDAY121031AY221031GF108991081051004501999999MA1999999101541MD1710021+9999MW1021REMSYN072AAXX  02154 01098 41488 81604 10110 20099 30154 40172 57002 70222 885//;
0207010980999992000080218004+70360+031090FM-12+001599999V0201401N001510042019N0750001N1+01051+00961101691ADDAA112000191AY121061AY221061GF107991051071004501071081KA1120M+01131MA1999999101511MD1710031+9999MW1021REMSYN094AAXX  02184 01098 11489 71403 10105 20096 30151 40169 57003 69912 70222 85778 333 10113 91107;
0161010980999992000080221004+70360+031090FM-12+001599999V0201701N001510042019N0750001N1+01051+00961101661ADDAY121031AY221031GF107991061071004501071999MA1999999101481MD1710031+9999MW1021REMSYN072AAXX  02214 01098 41489 71703 10105 20096 30148 40166 57003 70222 8677/;
0201010980999992000080300004+70360+031090FM-12+001599999V0201601N001510042019N0750001N1+01061+00971101621ADDAA199000091AY121061AY221061GF107991061071004501041999MA1999999101441MD1710041+9999MW1021REMSYN082AAXX  03004 01098 31489 71603 10106 20097 30144 40162 57004 70222 8674/ 333 91105;EQDQ01  00002PRCP99
0161010980999992000080303004+70360+031090FM-12+001599999V0201901N001010042019N0550001N1+01081+00991101561ADDAY121031AY221031GF107991051061004501051001MA1999999101381MD1710061+9999MW1021REMSYN072AAXX  03034 01098 41485 71902 10108 20099 30138 40156 57006 70222 85650;
0220010980999992000080306004+70360+031090FM-12+001599999V0201701N001010240019N0750001N1+01201+01141101541ADDAA199000091AY121061AY221061GF105991041061004501051001KA1120N+00931MA1999999101361MD1710021+9999MW1011REMSYN088AAXX  03064 01098 31489 51702 10120 20114 30136 40154 57002 70122 84650 333 20093 91104;EQDQ01  00002PRCP99
0161010980999992000080309004+70360+031090FM-12+001599999V0201501N001512200019N0550001N1+01291+01181101521ADDAY111031AY201031GF101991011021004501071091MA1999999101351MD1710021+9999MW1021REMSYN072AAXX  03094 01098 41485 11503 10129 20118 30135 40152 57002 70210 81279;
0201010980999992000080312004+70360+031090FM-12+001599999V0201301N001512200019N0300001N1+01311+01221101481ADDAA199000091AY111061AY201061GF101991011001022501071091MA1999999101311MD1710031+9999MW1021REMSYN082AAXX  03124 01098 31880 11303 10131 20122 30131 40148 57003 70210 81079 333 91106;EQDQ01  00002PRCP99
0161010980999992000080315004+70360+031090FM-12+001599999V0201601N001512200019N0550001N1+01221+01081101481ADDAY101031AY201031GF101991011021004501001001MA1999999101311MD1410001+9999MW1021REMSYN072AAXX  03154 01098 41485 11603 10122 20108 30131 40148 54000 70200 81200;
0220010980999992000080318004+70360+031090FM-12+001599999V0201701N001012200019N0550001N1+01111+00981101481ADDAA199000091AY101061AY201061GF101991011001022501031001KA1120M+01331MA1999999101301MD1410001+9999MW1021REMSYN088AAXX  03184 01098 31885 11702 10111 20098 30130 40148 54000 70200 81030 333 10133 91106;EQDQ01  00002PRCP99
0161010980999992000080321004+70360+031090FM-12+001599999V0201801N001012200019N0600001N1+00971+00861101401ADDAY101031AY201031GF102991011051008001031091MA1999999101221MD1710081+9999MW1021REMSYN072AAXX  03214 01098 41586 21802 10097 20086 30122 40140 57008 70200 81539;
0201010980999992000080400004+70360+031090FM-12+001599999V0201601N001012200019N0600001N1+01031+00941101371ADDAA199000091AY101061AY201061GF102991011041008001001061MA1999999101191MD1710031+9999MW1021REMSYN082AAXX  04004 01098 31586 21602 10103 20094 30119 40137 57003 70200 81406 333 91105;EQDQ01  00002PRCP99
0161010980999992000080403004+70360+031090FM-12+001599999V0201401N001012200019N0700001N1+01121+01011101371ADDAY101031AY201031GF102991011051008001001091MA1999999101191MD1410001+9999MW1021REMSYN072AAXX  04034 01098 41588 21402 10112 20101 30119 40137 54000 70200 81509;
0220010980999992000080406004+70360+031090FM-12+001599999V0201501N001012200019N0750001N1+01301+01191101371ADDAA199000091AY101061AY201061GF103991011001017501041091KA1120N+00971MA1999999101201MD1410001+9999MW1021REMSYN088AAXX  04064 01098 31789 31502 10130 20119 30120 40137 54000 70200 81049 333 20097 91104;EQDQ01  00002PRCP99
0161010980999992000080409004+70360+031090FM-12+001599999V0201401N002112200019N0300001N1+01241+01131101431ADDAY101031AY201031GF103991011021004501041091MA1999999101261MD1310061+9999MW1021REMSYN072AAXX  04094 01098 41480 31404 10124 20113 30126 40143 53006 70200 81249;
0201010980999992000080412004+70360+031090FM-12+001599999V0201401N001512200019N0200001N1+01281+01151101441ADDAA199000091AY101061AY201061GF104991011021004501041081MA1999999101271MD1210011+9999MW1031REMSYN082AAXX  04124 01098 31470 41403 10128 20115 30127 40144 52001 70300 81248 333 91105;EQDQ01  00002PRCP99
0161010980999992000080415004+70360+031090FM-12+001599999V0201501N001512200019N0300001N1+01281+01151101431ADDAY101031AY201031GF103991011021004501041061MA1999999101261MD1710011+9999MW1021REMSYN072AAXX  04154 01098 41480 31503 10128 20115 30126 40143 57001 70200 81246;
0220010980999992000080418004+70360+031090FM-12+001599999V0201601N001012200019N0750001N1+01181+01071101401ADDAA199000091AY101061AY201061GF101991011001017501041061KA1120M+01351MA1999999101261MD1410001+9999MW1011REMSYN088AAXX  04184 01098 31789 11602 10118 20107 30126 40140 54000 70100 81046 333 10135 91106;EQDQ01  00002PRCP99
0161010980999992000080421004+70360+031090FM-12+001599999V0200501N000512200019N0300001N1+01021+00891101471ADDAY101031AY201031GF101991011001008001041001MA1999999101291MD1310041+9999MW1021REMSYN072AAXX  04214 01098 41580 10501 10102 20089 30129 40147 53004 70200 81040;
0201010980999992000080500004+70360+031090FM-12+001599999V0203001N000512200019N0300001N1+00801+00731101441ADDAA199000091AY101061AY201061GF101991011001008001041001MA1999999101261MD1810031+9999MW1021REMSYN082AAXX  05004 01098 31580 13001 10080 20073 30126 40144 58003 70200 81040 333 91102;EQDQ01  00002PRCP99
0161010980999992000080503004+70360+031090FM-12+001599999V0201201N000512200019N0550001N1+01011+00941101351ADDAY101031AY201031GF101991011001008001041001MA1999999101171MD1710091+9999MW1021REMSYN072AAXX  05034 01098 41585 11201 10101 20094 30117 40135 57009 70200 81040;
0230010980999992000080506004+70360+031090FM-12+001599999V0201401N001012200019N0750001N1+01301+01231101291ADDAA199000091AY101061AY201061GA1001+999999999GF100991001001999999001001KA1120N+00781MA1999999101121MD1710061+9999MW1011REMSYN082AAXX  05064 01098 31089 01402 10130 20123 30112 40129 57006 70100 333 20078 91103;EQDQ01  00002PRCP99
0171010980999992000080509004+70360+031090FM-12+001599999V0201401N001512200019N0750001N1+01381+01221101231ADDAY101031AY201031GA1001+999999999GF100991001001999999001001MA1999999101061MD1710061+9999MW1011REMSYN066AAXX  05094 01098 41089 01403 10138 20122 30106 40123 57006 70100;
0201010980999992000080512004+70360+031090FM-12+001599999V0201301N001512200019N0750001N1+01311+01161101201ADDAA199000091AY101061AY201061GF101991011001008001001081MA1999999101031MD1710031+9999MW1021REMSYN082AAXX  05124 01098 31589 11303 10131 20116 30103 40120 57003 70200 81008 333 91106;EQDQ01  00002PRCP99
0161010980999992000080515004+70360+031090FM-12+001599999V0201301N001512200019N0550001N1+01221+01091101131ADDAY101031AY201031GF101991011001022501001081MA1999999100961MD1710071+9999MW1021REMSYN072AAXX  05154 01098 41885 11303 10122 20109 30096 40113 57007 70200 81008;
0220010980999992000080518004+70360+031090FM-12+001599999V0201301N001512200019N0550001N1+01061+00951101101ADDAA199000091AY101061AY201061GF101991011021004501041001KA1120M+01381MA1999999100921MD1710041+9999MW1021REMSYN088AAXX  05184 01098 31485 11303 10106 20095 30092 40110 57004 70200 81240 333 10138 91107;EQDQ01  00002PRCP99
0161010980999992000080521004+70360+031090FM-12+001599999V0201301N001012200019N0550001N1+00971+00891101081ADDAY101031AY201031GF101991011021004501041081MA1999999100901MD1610021+9999MW1021REMSYN072AAXX  05214 01098 41485 11302 10097 20089 30090 40108 56002 70200 81248;
0201010980999992000080600004+70360+031090FM-12+001599999V0201201N001512200019N0550001N1+00921+00841101061ADDAA199000091AY101061AY201061GF103991021021002501021001MA1999999100881MD1710021+9999MW1031REMSYN082AAXX  06004 01098 31385 31203 10092 20084 30088 40106 57002 70300 82220 333 91105;EQDQ01  00002PRCP99
0161010980999992000080603004+70360+031090FM-12+001599999V0201201N001510021019N0300001N1+00891+00811101001ADDAY121031AY221031GF107991061061002501021001MA1999999100821MD1710061+9999MW1031REMSYN072AAXX  06034 01098 41380 71203 10089 20081 30082 40100 57006 70322 86620;
0230010980999992000080606004+70360+031090FM-12+001599999V0201201N001510012019N0015001N1+00851+00771100951ADDAA199000091AY141061AY221061GA1091+999999999GF109991091999999999999999KA1120N+00851MA1999999100771MD1710051+9999MW1471REMSYN082AAXX  06064 01098 31/15 91203 10085 20077 30077 40095 57005 74742 333 20085 91106;EQDQ01  00002PRCP99
0161010980999992000080609004+70360+031090FM-12+001599999V0201201N001510012019N0100001N1+00911+00831100921ADDAY141031AY221031GF108991081061001501999999MA1999999100741MD1710031+9999MW1101REMSYN072AAXX  06094 01098 41260 81203 10091 20083 30074 40092 57003 71042 886//;
0201010980999992000080612004+70360+031090FM-12+001599999V0201101N001510006019N0030001N1+00941+00861100871ADDAA199000091AY141061AY221061GF108991081061000751999999MA1999999100691MD1710051+9999MW1101REMSYN082AAXX  06124 01098 31130 81103 10094 20086 30069 40087 57005 71042 886// 333 91106;EQDQ01  00002PRCP99
0161010980999992000080615004+70360+031090FM-12+001599999V0201101N002110006019N0030001N1+00921+00841100821ADDAY141031AY221031GF108991081061000751999999MA1999999100641MD1710051+9999MW1101REMSYN072AAXX  06154 01098 41130 81104 10092 20084 30064 40082 57005 71042 886//;
0220010980999992000080618004+70360+031090FM-12+001599999V0201201N001510012019N0100001N1+01001+00921100741ADDAA199000091AY141061AY221061GF108991081061001501999999KA1120M+01021MA1999999100561MD1710081+9999MW1101REMSYN088AAXX  06184 01098 31260 81203 10100 20092 30056 40074 57008 71042 886// 333 10102 91106;EQDQ01  00002PRCP99
0180010980999992000080621004+70360+031090FM-12+001599999V0201201N001510012019N0040001N1+00941+00881100741ADDAY141031AY221031GF108991081061001501999999MA1999999100561MD1410001+9999MW1101REMSYN072AAXX  06214 01098 41240 81203 10094 20088 30056 40074 56000 71042 886//;EQDQ01+000062APCTEN
0201010980999992000080700004+70360+031090FM-12+001599999V0201201N001510012019N0040001N1+00951+00871100621ADDAA199000091AY141061AY221061GF108991081061001501999999MA1999999100441MD1710061+9999MW1401REMSYN082AAXX  07004 01098 31240 81203 10095 20087 30044 40062 57006 74042 886// 333 91106;EQDQ01  00002PRCP99
0161010980999992000080703004+70360+031090FM-12+001599999V0201101N001010021019N0200001N1+01021+00951100551ADDAY141031AY221031GF108991081061002501999999MA1999999100371MD1710071+9999MW1021REMSYN072AAXX  07034 01098 41370 81102 10102 20095 30037 40055 57007 70242 886//;
0220010980999992000080706004+70360+031090FM-12+001599999V0201101N001010012019N0100001N1+01051+00981100511ADDAA199000091AY141061AY221061GF108991081061001501999999KA1120N+00911MA1999999100331MD1710041+9999MW1101REMSYN088AAXX  07064 01098 31260 81102 10105 20098 30033 40051 57004 71042 886// 333 20091 91105;EQDQ01  00002PRCP99
0161010980999992000080709004+70360+031090FM-12+001599999V0200901N001010012019N0100001N1+01031+00951100451ADDAY121031AY221031GF108991081061001501999999MA1999999100271MD1710061+9999MW1101REMSYN072AAXX  07094 01098 41260 80902 10103 20095 30027 40045 57006 71022 886//;
0191010980999992000080712004+70360+031090FM-12+001599999V0200801N001510012019N0050001N1+01011+00911100411ADDAA199000091AY121061AY221061GF108991081061001501999999MA1999999100231MD1710041+9999MW1101REMSYN072AAXX  07124 01098 31250 80803 10101 20091 30023 40041 57004 71022 886//;EQDQ01  00002PRCP99
0161010980999992000080715004+70360+031090FM-12+001599999V0200801N001010012019N0100001N1+01021+00931100301ADDAY161031AY221031GF108991081061001501999999MA1999999100121MD1710111+9999MW1601REMSYN072AAXX  07154 01098 41260 80802 10102 20093 30012 40030 57011 76062 886//;
0207010980999992000080718004+70360+031090FM-12+001599999V0200801N001010012019N0080001N1+01011+00931100211ADDAA112001091AY161061AY221061GF108991081061001501999999KA1120M+01061MA1999999100031MD1710091+9999MW1581REMSYN094AAXX  07184 01098 11258 80802 10101 20093 30003 40021 57009 60012 75862 886// 333 10106 91106;
0161010980999992000080721004+70360+031090FM-12+001599999V0201201N001510012019N0040001N1+01071+01001100161ADDAY161031AY251031GF108991081061001501999999MA1999999099981MD1710051+9999MW1101REMSYN072AAXX  07214 01098 41240 81203 10107 20100 39998 40016 57005 71065 886//;
0188010980999992000080800004+70360+031090FM-12+001599999V0201001N001010012019N0050001N1+01071+01001100091ADDAA106002091AY161061AY251061GF108991081061001501999999MA1999999099911MD1610071+9999MW1101REMSYN088AAXX  08004 01098 11250 81002 10107 20100 39991 40009 56007 60021 71065 886// 333 91106;
0161010980999992000080803004+70360+031090FM-12+001599999V0201101N000510012019N0050001N1+01111+01041100061ADDAY161031AY251031GF108991081061001501999999MA1999999099881MD1710031+9999MW1101REMSYN072AAXX  08034 01098 41250 81101 10111 20104 39988 40006 57003 71065 886//;
0207010980999992000080806004+70360+031090FM-12+001599999V0200801N000510012019N0050001N1+01161+01091099991ADDAA112002091AY161061AY251061GF108991081061001501999999KA1120N+01011MA1999999099811MD1810071+9999MW1101REMSYN094AAXX  08064 01098 11250 80801 10116 20109 39981 49999 58007 60022 71065 886// 333 20101 91105;
0161010980999992000080809004+70360+031090FM-12+001599999V0201501N001510006019N0070001N1+01211+01151099961ADDAY151031AY221031GF108991071061000751021999MA1999999099791MD1710031+9999MW1501REMSYN072AAXX  08094 01098 41157 81503 10121 20115 39979 49996 57003 75052 8762/;
0188010980999992000080812004+70360+031090FM-12+001599999V0202101N003112200019N0550001N1+01531+01231100101ADDAA106000791AY151061AY211061GF102991011021004501041081MA1999999099931MD1310141+9999MW1011REMSYN088AAXX  08124 01098 11485 22106 10153 20123 39993 40010 53014 69901 70151 81248 333 91110;
0161010980999992000080815004+70360+031090FM-12+001599999V0201601N002110240019N0550001N1+01381+01191100231ADDAY121031AY211031GF107991011021004501011011MA1999999100061MD1210131+9999MW1031REMSYN072AAXX  08154 01098 41485 71604 10138 20119 30006 40023 52013 70321 81211;
0207010980999992000080818004+70360+031090FM-12+001599999V0201201N001510240019N0600001N1+01321+01151100321ADDAA112000791AY121061AY221061GF107991011041004501071011KA1120M+01541MA1999999100151MD1210091+9999MW1021REMSYN094AAXX  08184 01098 11486 71203 10132 20115 30015 40032 52009 69902 70222 81471 333 10154 91109;
0161010980999992000080821004+70360+031090FM-12+001599999V0201301N001010600019N0650001N1+01211+01101100331ADDAY121031AY221031GF105991011011004501041081MA1999999100161MD1110011+9999MW1011REMSYN072AAXX  08214 01098 41487 51302 10121 20110 30016 40033 51001 70122 81148;
0201010980999992000080900004+70360+031090FM-12+001599999V0200201N001010240019N0600001N1+01091+00981100191ADDAA199000091AY121061AY221061GF107991011021004501071081MA1999999100011MD1810141+9999MW1031REMSYN082AAXX  09004 01098 31486 70202 10109 20098 30001 40019 58014 70322 81278 333 91104;EQDQ01  00002PRCP99
0161010980999992000080903004+70360+031090FM-12+001599999V0200201N002610012019N0030001N1+01101+01011099891ADDAY161031AY221031GF108991051071001501021999MA1999999099711MD1710301+9999MW1651REMSYN072AAXX  09034 01098 41230 80205 10110 20101 39971 49989 57030 76562 8572/;
0207010980999992000080906004+70360+031090FM-12+001599999V0200801N003110021019N0250001N1+01141+01051099501ADDAA112014091AY161061AY221061GF108991081071002501999999KA1120N+01041MA1999999099321MD1710391+9999MW1021REMSYN094AAXX  09064 01098 11375 80806 10114 20105 39932 49950 57039 60142 70262 887// 333 20104 91110;
0161010980999992000080909004+70360+031090FM-12+001599999V0201201N002110042019N0700001N1+01241+01151099411ADDAY181031AY221031GF107991051051004501051001MA1999999099241MD1710091+9999MW1021REMSYN072AAXX  09094 01098 41488 71204 10124 20115 39924 49941 57009 70282 85550;
0188010980999992000080912004+70360+031090FM-12+001599999V0202101N005710042019N0550001N1+01241+01171099491ADDAA106000791AY181061AY221061GF107991061051004501051001MA1999999099321MD1310081+9999MW1021REMSYN088AAXX  09124 01098 11485 72111 10124 20117 39932 49949 53008 69901 70282 86550 333 91115;
0161010980999992000080915004+70360+031090FM-12+001599999V0202101N005110090019N0750001N1+01321+01041099781ADDAY121031AY221031GF105991051081004501001001MA1999999099611MD1210291+9999MW1011REMSYN072AAXX  09154 01098 41489 52110 10132 20104 39961 49978 52029 70122 85800;
0207010980999992000080918004+70360+031090FM-12+001599999V0201801N002612200019N0550001N1+01181+01041099981ADDAA112000791AY121061AY201061GF101991011021004501041001KA1120M+01401MA1999999099801MD1110191+9999MW1011REMSYN094AAXX  09184 01098 11485 11805 10118 20104 39980 49998 51019 69902 70120 81240 333 10140 91117;
0161010980999992000080921004+70360+031090FM-12+001599999V0201701N001512200019N0750001N1+01101+00991100081ADDAY101031AY201031GF102991021051004501001001MA1999999099901MD1210101+9999MW1021REMSYN072AAXX  09214 01098 41489 21703 10110 20099 39990 40008 52010 70200 82500;
0201010980999992000081000004+70360+031090FM-12+001599999V0201701N001012200019N0750001N1+01041+00931100091ADDAA199000091AY101061AY201061GF101991011001022501001051MA1999999099911MD1210011+9999MW1021REMSYN082AAXX  10004 01098 31889 11702 10104 20093 39991 40009 52001 70200 81005 333 91106;EQDQ01  00002PRCP99
0161010980999992000081003004+70360+031090FM-12+001599999V0201701N001012200019N0750001N1+01081+01011100091ADDAY101031AY201031GF101991011001022501001051MA1999999099911MD1410001+9999MW1021REMSYN072AAXX  10034 01098 41889 11702 10108 20101 39991 40009 54000 70200 81005;
0236010980999992000081006004+70360+031090FM-12+001599999V0201501N001012200019N0750001N1+01271+01141100081ADDAA199000091AY101061AY201061GF101991001001999999001051KA1120N+00971MA1999999099911MD1810011+9999MW1021REMSYN088AAXX  10064 01098 31889 11502 10127 20114 39991 40008 58001 70200 80005 333 20097 91104;EQDQ01+022502SCOLCBQ02  00002PRCP99
0161010980999992000081009004+70360+031090FM-12+001599999V0201401N001012200019N0750001N1+01261+01131100111ADDAY101031AY201031GF101991011021004501041051MA1999999099941MD1310031+9999MW1031REMSYN072AAXX  10094 01098 41489 11402 10126 20113 39994 40011 53003 70300 81245;
0201010980999992000081012004+70360+031090FM-12+001599999V0201401N001512200019N0550001N1+01391+01091100111ADDAA199000091AY101061AY201061GF104991011021004501041051MA1999999099941MD1410001+9999MW1021REMSYN082AAXX  10124 01098 31485 41403 10139 20109 39994 40011 54000 70200 81245 333 91104;EQDQ01  00002PRCP99
0161010980999992000081015004+70360+031090FM-12+001599999V0201601N001012200019N0550001N1+01321+01171100101ADDAY121031AY221031GF104991011091004501031051MA1999999099931MD1710011+9999MW1161REMSYN072AAXX  10154 01098 41485 41602 10132 20117 39993 40010 57001 71622 81935;
0220010980999992000081018004+70360+031090FM-12+001599999V0203101N002610042019N0550001N1+01301+01071100171ADDAA199000091AY121061AY221061GF107991051051004501041051KA1120M+01451MA1999999100001MD1210071+9999MW1031REMSYN088AAXX  10184 01098 31485 73105 10130 20107 30000 40017 52007 70322 85545 333 10145 91109;EQDQ01  00002PRCP99
0161010980999992000081021004+70360+031090FM-12+001599999V0203401N003110240019N0550001N1+00981+00901100241ADDAY121031AY221031GF107991041081004501041051MA1999999100061MD1210061+9999MW1021REMSYN072AAXX  10214 01098 41485 73406 10098 20090 30006 40024 52006 70222 84845;
0201010980999992000081100004+70360+031090FM-12+001599999V0203401N002110090019N0550001N1+00981+00901100341ADDAA199000091AY121061AY221061GF107991051081004501071001MA1999999100161MD1210101+9999MW1021REMSYN082AAXX  11004 01098 31485 73404 10098 20090 30016 40034 52010 70222 85870 333 91109;EQDQ01  00002PRCP99
0161010980999992000081103004+70360+031090FM-12+001599999V0203501N002610090019N0550001N1+00971+00861100421ADDAY181031AY221031GF107991051081004501071001MA1999999100241MD1210081+9999MW1021REMSYN072AAXX  11034 01098 41485 73505 10097 20086 30024 40042 52008 70282 85870;
0207010980999992000081106004+70360+031090FM-12+001599999V0203301N001510090019N0550001N1+01061+00931100491ADDAA112000791AY181061AY221061GF107991051081004501071001KA1120N+00951MA1999999100311MD1110071+9999MW1021REMSYN094AAXX  11064 01098 11485 73303 10106 20093 30031 40049 51007 69902 70282 85870 333 20095 91109;
0161010980999992000081109004+70360+031090FM-12+001599999V0200301N000510090019N0550001N1+01031+00871100621ADDAY181031AY251031GF107991051081004501071001MA1999999100441MD1210131+9999MW1501REMSYN072AAXX  11094 01098 41485 70301 10103 20087 30044 40062 52013 75085 85870;
0188010980999992000081112004+70360+031090FM-12+001599999V0201001N001010090019N0550001N1+01041+00971100671ADDAA106000191AY181061AY251061GF107991051081004501041081MA1999999100491MD1210051+9999MW1151REMSYN088AAXX  11124 01098 11485 71002 10104 20097 30049 40067 52005 69921 71585 85848 333 91105;
0161010980999992000081115004+70360+031090FM-12+001599999V0201501N001010240019N0550001N1+01141+01071100711ADDAY181031AY221031GF107991031081004501071001MA1999999100531MD1210041+9999MW1021REMSYN072AAXX  11154 01098 41485 71502 10114 20107 30053 40071 52004 70282 83870;
0207010980999992000081118004+70360+031090FM-12+001599999V0201301N001510240019N0550001N1+01061+00991100741ADDAA112000191AY181061AY221061GF105991011081004501071051KA1120M+01201MA1999999100561MD1110031+9999MW1011REMSYN094AAXX  11184 01098 11485 51303 10106 20099 30056 40074 51003 69922 70182 81875 333 10120 91106;
0161010980999992000081121004+70360+031090FM-12+001599999V0201301N001510042019N0550001N1+01061+00991100751ADDAY121031AY221031GF108991061071004501071001MA1999999100571MD1210011+9999MW1031REMSYN072AAXX  11214 01098 41485 81303 10106 20099 30057 40075 52001 70322 86770;
0201010980999992000081200004+70360+031090FM-12+001599999V0201401N001010042019N0550001N1+01101+01031100761ADDAA199000091AY121061AY221061GF108991061071004501071001MA1999999100581MD1210011+9999MW1021REMSYN082AAXX  12004 01098 31485 81402 10110 20103 30058 40076 52001 70222 86770 333 91105;EQDQ01  00002PRCP99
0161010980999992000081203004+70360+031090FM-12+001599999V0201701N001510042019N0550001N1+01111+01041100751ADDAY121031AY221031GF107991061071004501071001MA1999999100571MD1710011+9999MW1021REMSYN072AAXX  12034 01098 41485 71703 10111 20104 30057 40075 57001 70222 86770;
0220010980999992000081206004+70360+031090FM-12+001599999V0203201N002110042019N0100001N1+01011+00941100821ADDAA199000091AY121061AY221061GF108991061061004501071001KA1120N+01011MA1999999100641MD1210071+9999MW1161REMSYN088AAXX  12064 01098 31460 83204 10101 20094 30064 40082 52007 71622 86670 333 20101 91107;EQDQ01  00002PRCP99
0161010980999992000081209004+70360+031090FM-12+001599999V0203401N002610060019N0100001N1+00871+00791100951ADDAY181031AY221031GF108991081081001501999999MA1999999100771MD1310131+9999MW1801REMSYN072AAXX  12094 01098 41260 83405 10087 20079 30077 40095 53013 78082 888//;
0188010980999992000081212004+70360+031090FM-12+001599999V0203501N002610060019N0550001N1+01001+00931101061ADDAA106002091AY181061AY221061GF108991071081002501041999MA1999999100881MD1210111+9999MW1021REMSYN088AAXX  12124 01098 11385 83505 10100 20093 30088 40106 52011 60021 70282 8784/ 333 91109;
0161010980999992000081215004+70360+031090FM-12+001599999V0203501N002110240019N0300001N1+00981+00901101171ADDAY181031AY221031GF105991021081004501031001MA1999999100991MD1210111+9999MW1021REMSYN072AAXX  12154 01098 41480 53504 10098 20090 30099 40117 52011 70282 82830;
0207010980999992000081218004+70360+031090FM-12+001599999V0203401N001012200019N0550001N1+00961+00791101251ADDAA112002091AY181061AY221061GF103991011051004501051011KA1120M+01071MA1999999101071MD1110081+9999MW1011REMSYN094AAXX  12184 01098 11485 33402 10096 20079 30107 40125 51008 60022 70182 81551 333 10107 91107;
0161010980999992000081221004+70360+031090FM-12+001599999V0203401N001512200019N0550001N1+00831+00751101251ADDAY101031AY201031GF102991011051004501001011MA1999999101071MD1410001+9999MW1021REMSYN072AAXX  12214 01098 41485 23403 10083 20075 30107 40125 54000 70200 81501;
0201010980999992000081300004+70360+031090FM-12+001599999V0203001N000512200019N0550001N1+00721+00651101311ADDAA199000091AY101061AY201061GF103991011081004501071081MA1999999101131MD1310061+9999MW1021REMSYN082AAXX  13004 01098 31485 33001 10072 20065 30113 40131 53006 70200 81878 333 91104;EQDQ01  00002PRCP99
0161010980999992000081303004+70360+031090FM-12+001599999V0203101N001012200019N0750001N1+00741+00671101331ADDAY111031AY201031GF104991011081004501071091MA1999999101151MD1210021+9999MW1021REMSYN072AAXX  13034 01098 41489 43102 10074 20067 30115 40133 52002 70210 81879;
0220010980999992000081306004+70360+031090FM-12+001599999V0203401N002110090019N0750001N1+00991+00911101351ADDAA199000091AY121061AY221061GF107991051081004501041081KA1120N+00671MA1999999101171MD1210021+9999MW1031REMSYN088AAXX  13064 01098 31489 73404 10099 20091 30117 40135 52002 70322 85848 333 20067 91105;EQDQ01  00002PRCP99
0161010980999992000081309004+70360+031090FM-12+001599999V0203301N001510090019N0750001N1+01081+00801101411ADDAY121031AY221031GF107991051081004501051081MA1999999101231MD1210061+9999MW1021REMSYN072AAXX  13094 01098 41489 73303 10108 20080 30123 40141 52006 70222 85858;
0191010980999992000081312004+70360+031090FM-12+001599999V0203301N002610240019N0300001N1+00961+00821101511ADDAA199000091AY121061AY221061GF108991031021004501071001MA1999999101331MD1210101+9999MW1021REMSYN072AAXX  13124 01098 31480 83305 10096 20082 30133 40151 52010 70222 83270;EQDQ01  00002PRCP99
0161010980999992000081315004+70360+031090FM-12+001599999V0203301N002610240019N0550001N1+00971+00881101551ADDAY121031AY221031GF105991031081004501071001MA1999999101361MD1210031+9999MW1031REMSYN072AAXX  13154 01098 41485 53305 10097 20088 30136 40155 52003 70322 83870;
0220010980999992000081318004+70360+031090FM-12+001599999V0203301N002110090019N0550001N1+00921+00761101581ADDAA199000091AY121061AY221061GF108991071081004501071001KA1120M+01131MA1999999101401MD1210041+9999MW1021REMSYN088AAXX  13184 01098 31485 83304 10092 20076 30140 40158 52004 70222 87870 333 10113 91108;EQDQ01  00002PRCP99
0161010980999992000081321004+70360+031090FM-12+001599999V0203301N002110240019N0100001N1+00891+00721101591ADDAY181031AY221031GF108991031081004501071001MA1999999101411MD1210011+9999MW1811REMSYN072AAXX  13214 01098 41460 83304 10089 20072 30141 40159 52001 78182 83870;
0188010980999992000081400004+70360+031090FM-12+001599999V0202801N002110600019N0300001N1+00721+00651101621ADDAA106000591AY181061AY221061GF105991021081004501051081MA1999999101441MD1110031+9999MW1011REMSYN088AAXX  14004 01098 11480 52804 10072 20065 30144 40162 51003 69951 70182 82858 333 91105;
0161010980999992000081403004+70360+031090FM-12+001599999V0203201N002610090019N0550001N1+00801+00721101611ADDAY121031AY221031GF105991051081004501001001MA1999999101431MD1710011+9999MW1021REMSYN072AAXX  14034 01098 41485 53205 10080 20072 30143 40161 57001 70222 85800;
0207010980999992000081406004+70360+031090FM-12+001599999V0203301N002612200019N0550001N1+00881+00691101631ADDAA112000591AY181061AY221061GF104991031081004501001081KA1120N+00681MA1999999101451MD1210021+9999MW1021REMSYN094AAXX  14064 01098 11485 43305 10088 20069 30145 40163 52002 69962 70282 83808 333 20068 91109;
0161010980999992000081409004+70360+031090FM-12+001599999V0203301N003610090019N0750001N1+00991+00831101671ADDAY151031AY211031GF106991061081004501071001MA1999999101491MD1210041+9999MW1161REMSYN072AAXX  14094 01098 41489 63307 10099 20083 30149 40167 52004 71651 86870;
0188010980999992000081412004+70360+031090FM-12+001599999V0203301N004110090019N0750001N1+00981+00841101671ADDAA106000791AY181061AY251061GF107991071081004501071081MA1999999101491MD1410001+9999MW1021REMSYN088AAXX  14124 01098 11489 73308 10098 20084 30149 40167 54000 69901 70285 87878 333 91112;
0161010980999992000081415004+70360+031090FM-12+001599999V0203201N005110012019N0050001N1+00881+00801101611ADDAY151031AY221031GF108991081061001501999999MA1999999101431MD1810061+9999MW1521REMSYN072AAXX  14154 01098 41250 83210 10088 20080 30143 40161 58006 75252 886//;
0207010980999992000081418004+70360+031090FM-12+001599999V0203301N004610012019N0050001N1+00851+00791101511ADDAA112000391AY151061AY221061GF108991081061001501999999KA1120M+01041MA1999999101331MD1710101+9999MW1501REMSYN094AAXX  14184 01098 11250 83309 10085 20079 30133 40151 57010 69932 75052 886// 333 10104 91114;
0188010980999992000081500004+70360+031090FM-12+001599999V0203301N004110012019N0050001N1+00841+00761101401ADDAA106000891AY151061AY221061GF108991081061001501999999MA1999999101221MD1710041+9999MW1531REMSYN088AAXX  15004 01098 11250 83308 10084 20076 30122 40140 57004 69981 75352 886// 333 91114;
0161010980999992000081503004+70360+031090FM-12+001599999V0203401N004610012019N0050001N1+00861+00781101321ADDAY151031AY221031GF108991081061001501999999MA1999999101141MD1710081+9999MW1511REMSYN072AAXX  15034 01098 41250 83409 10086 20078 30114 40132 57008 75152 886//;
0211010980999992000081506004+70360+031090FM-12+001599999V0203301N004610012019N0040001N1+00881+00801101261ADDAA112002091AY161061AY221061GF108991081091001501999999KA1120N+00851MD1710061+9999MW1621REMSYN094AAXX  15064 01098 11240 83309 10088 20080 30008 40126 57006 60022 76262 889// 333 20085 91114;EQDQ01+100083APOSP 
0161010980999992000081509004+70360+031090FM-12+001599999V0203501N004610021019N0050001N1+00931+00851101241ADDAY181031AY251031GF108991061071002501021999MA1999999101061MD1710021+9999MW1521REMSYN072AAXX  15094 01098 41350 83509 10093 20085 30106 40124 57002 75285 8672/;
0188010980999992000081512004+70360+031090FM-12+001599999V0203401N003110006019N0040001N1+00931+00851101241ADDAA106000791AY181061AY251061GF108991081061000751999999MA1999999101061MD1410001+9999MW1101REMSYN088AAXX  15124 01098 11140 83406 10093 20085 30106 40124 54000 69901 71085 886// 333 91114;
0161010980999992000081515004+70360+031090FM-12+001599999V0203401N002610006019N0030001N1+00921+00841101241ADDAY121031AY221031GF108991081061000751999999MA1999999101061MD1410001+9999MW1101REMSYN072AAXX  15154 01098 41130 83405 10092 20084 30106 40124 54000 71022 886//;
0207010980999992000081518004+70360+031090FM-12+001599999V0203301N002610006019N0030001N1+00921+00841101201ADDAA112000791AY121061AY221061GF108991081061000751999999KA1120M+00981MA1999999101021MD1810041+9999MW1101REMSYN094AAXX  15184 01098 11130 83305 10092 20084 30102 40120 58004 69902 71022 886// 333 10098 91111;
0161010980999992000081521004+70360+031090FM-12+001599999V0203401N002610006019N0012001N1+00911+00831101171ADDAY121031AY221031GF108991081061000751999999MA1999999100991MD1710031+9999MW1101REMSYN072AAXX  15214 01098 41112 83405 10091 20083 30099 40117 57003 71022 886//;
0198010980999992000081600004+70360+031090FM-12+001599999V0203301N003110003019N0005001N1+00921+00841101171ADDAA106000791AY151061AY231061GA1091+999999999GF109991091999999999999999MA1999999100991MD1410001+9999MW1501REMSYN082AAXX  16004 01098 11/05 93306 10092 20084 30099 40117 54000 69901 75053 333 91108;
0171010980999992000081603004+70360+031090FM-12+001599999V0203401N002610003019N0005001N1+00951+00871101131ADDAY151031AY231031GA1091+999999999GF109991091999999999999999MA1999999100951MD1810041+9999MW1511REMSYN066AAXX  16034 01098 41/05 93405 10095 20087 30095 40113 58004 75153;
0217010980999992000081606004+70360+031090FM-12+001599999V0203601N001510012019N0012001N1+00981+00901101141ADDAA112000791AY151061AY241061GA1091+999999999GF109991091999999999999999KA1120N+00911MA1999999100961MD1310011+9999MW1101REMSYN088AAXX  16064 01098 11112 93603 10098 20090 30096 40114 53001 69902 71054 333 20091 91108;
0161010980999992000081609004+70360+031090FM-12+001599999V0200401N001010006019N0040001N1+01011+00931101211ADDAY151031AY221031GF108991071061000751021999MA1999999101031MD1210071+9999MW1501REMSYN072AAXX  16094 01098 41140 80402 10101 20093 30103 40121 52007 75052 8762/;
0188010980999992000081612004+70360+031090FM-12+001599999V0200501N001510021019N0300001N1+01041+00971101251ADDAA106000791AY151061AY221061GF108991071061002501021999MA1999999101071MD1110041+9999MW1021REMSYN088AAXX  16124 01098 11380 80503 10104 20097 30107 40125 51004 69901 70252 8762/ 333 91106;
0161010980999992000081615004+70360+031090FM-12+001599999V0200401N001010240019N0300001N1+01061+00851101301ADDAY121031AY221031GF105991031061002501061001MA1999999101121MD1210051+9999MW1011REMSYN072AAXX  16154 01098 41380 50402 10106 20085 30112 40130 52005 70122 83660;
0201010980999992000081618004+70360+031090FM-12+001599999V0200701N001010021019N0300001N1+00981+00811101311ADDAA199000021AY121061AY221061GF108991051061002501021999KA1120M+01101MA1999999101131MD1110011+9999MW1031REMSYN088AAXX  16184 01098 31380 80702 10098 20081 30113 40131 51001 70322 8562/ 333 10110 91105;
0188010980999992000081700004+70360+031090FM-12+001599999V0200901N002110021019N0200001N1+00941+00801101301ADDAA106000191AY161061AY221061GF108991051061002501021999MA1999999101121MD1310041+9999MW1021REMSYN088AAXX  17004 01098 11370 80904 10094 20080 30112 40130 53004 69911 70262 8562/ 333 91107;
0161010980999992000081703004+70360+031090FM-12+001599999V0200901N002610042019N0300001N1+00891+00721101301ADDAY121031AY221031GF108991051061004501021999MA1999999101121MD1410001+9999MW1021REMSYN072AAXX  17034 01098 41480 80905 10089 20072 30112 40130 54000 70222 8562/;
0207010980999992000081706004+70360+031090FM-12+001599999V0201101N001510042019N0300001N1+00901+00661101291ADDAA112000191AY161061AY221061GF108991061071004501021999KA1120N+00861MA1999999101111MD1810011+9999MW1021REMSYN094AAXX  17064 01098 11480 81103 10090 20066 30111 40129 58001 69922 70262 8672/ 333 20086 91108;
0161010980999992000081709004+70360+031090FM-12+001599999V0200901N002110042019N0300001N1+00901+00541101311ADDAY121031AY221031GF108991061071004501021999MA1999999101131MD1310021+9999MW1021REMSYN072AAXX  17094 01098 41480 80904 10090 20054 30113 40131 53002 70222 8672/;
0201010980999992000081712004+70360+031090FM-12+001599999V0201101N002110042019N0550001N1+00881+00621101321ADDAA199000091AY121061AY221061GF107991071051004501001001MA1999999101141MD1210011+9999MW1021REMSYN082AAXX  17124 01098 31485 71104 10088 20062 30114 40132 52001 70222 87500 333 91108;EQDQ01  00002PRCP99
0161010980999992000081715004+70360+031090FM-12+001599999V0200901N001010090019N0550001N1+00881+00571101321ADDAY121031AY221031GF108991081081004501999999MA1999999101141MD1410001+9999MW1021REMSYN072AAXX  17154 01098 41485 80902 10088 20057 30114 40132 54000 70222 888//;
0161010980999992000081721004+70360+031090FM-12+001599999V0200901N001510021019N0010001N1+00751+00681101331ADDAY161031AY221031GF108991061061002501021999MA1999999101151MD1310031+9999MW1611REMSYN072AAXX  17214 01098 41310 80903 10075 20068 30115 40133 53003 76162 8662/;
0188010980999992000081800004+70360+031090FM-12+001599999V0201001N002110042019N0050001N1+00831+00431101331ADDAA106000591AY161061AY221061GF108991061061004501021999MA1999999101151MD1410001+9999MW1021REMSYN088AAXX  18004 01098 11450 81004 10083 20043 30115 40133 54000 69941 70262 8662/ 333 91108;
0161010980999992000081803004+70360+031090FM-12+001599999V0201001N001010021019N0300001N1+00821+00271101281ADDAY161031AY221031GF107991051061002501021001MA1999999101101MD1810051+9999MW1011REMSYN072AAXX  18034 01098 41380 71002 10082 20027 30110 40128 58005 70162 85620;
0207010980999992000081806004+70360+031090FM-12+001599999V0200301N001512200019N0750001N1+00821+00631101271ADDAA112000591AY161061AY221061GF104991021021002501061001KA1120N+00751MA1999999101091MD1610011+9999MW1011REMSYN094AAXX  18064 01098 11389 40303 10082 20063 30109 40127 56001 69942 70162 82260 333 20075 91107;
0161010980999992000081809004+70360+031090FM-12+001599999V0200701N001512200019N0550001N1+00891+00471101191ADDAY111031AY201031GF104991031021004501041001MA1999999101011MD1810081+9999MW1031REMSYN072AAXX  18094 01098 41485 40703 10089 20047 30101 40119 58008 70310 83240;
0195010980999992000081812004+70360+031090FM-12+001599999V0200101N001019999999N0550001N1+00921+00281101181ADDAA199000091AY121061AY211061GF107991999999004501999999MA1999999101001MD1710011+9999MW1021REMSYN076AAXX  18124 01098 31485 70102 10092 20028 30100 40118 57001 70221 333 91106;EQDQ01  00002PRCP99
0161010980999992000081815004+70360+031090FM-12+001599999V0200101N001510240019N0550001N1+00821+00401101141ADDAY111031AY201031GF105991031021004501041001MA1999999100961MD1710041+9999MW1011REMSYN072AAXX  18154 01098 41485 50103 10082 20040 30096 40114 57004 70110 83240;
0220010980999992000081818004+70360+031090FM-12+001599999V0203401N001010240019N0550001N1+00701+00431101081ADDAA199000091AY121061AY211061GF106991041021004501041001KA1120M+01031MA1999999100901MD1710061+9999MW1021REMSYN088AAXX  18184 01098 31485 63402 10070 20043 30090 40108 57006 70221 84240 333 10103 91105;EQDQ01  00002PRCP99
0161010980999992000081821004+70360+031090FM-12+001599999V0202801N000510240019N0550001N1+00661+00461101061ADDAY181031AY221031GF106991041081004501041001MA1999999100881MD1610021+9999MW1251REMSYN072AAXX  18214 01098 41485 62801 10066 20046 30088 40106 56002 72582 84840;
0188010980999992000081900004+70360+031090FM-12+001599999V0203001N001010240019N0550001N1+00571+00471101021ADDAA106000791AY181061AY221061GF106991041081004501041001MA1999999100841MD1810041+9999MW1801REMSYN088AAXX  19004 01098 11485 63002 10057 20047 30084 40102 58004 69901 78082 84840 333 91105;
0161010980999992000081903004+70360+031090FM-12+001599999V0203301N001010090019N0550001N1+00601+00501101001ADDAY181031AY221031GF107991061081004501041001MA1999999100821MD1710021+9999MW1801REMSYN072AAXX  19034 01098 41485 73302 10060 20050 30082 40100 57002 78082 86840;
0207010980999992000081906004+70360+031090FM-12+001599999V0203201N001510090019N0550001N1+00831+00771100971ADDAA112000191AY181061AY221061GF107991051081004501041081KA1120N+00501MA1999999100791MD1710031+9999MW1021REMSYN094AAXX  19064 01098 11485 73203 10083 20077 30079 40097 57003 69922 70282 85848 333 20050 91105;
0161010980999992000081909004+70360+031090FM-12+001599999V0203301N001010240019N0550001N1+00881+00461100991ADDAY111031AY201031GF105991031081004501041001MA1999999100811MD1210021+9999MW1021REMSYN072AAXX  19094 01098 41485 53302 10088 20046 30081 40099 52002 70210 83840;
0182010980999992000081912004+70360+031090FM-12+001599999V0203501N000510240019N0550001N1+00901+00501101001ADDAA199000021AY111061AY201061GF105991031081004501041081MA1999999100831MD1210021+9999MW1021REMSYN082AAXX  19124 01098 31485 53501 10090 20050 30083 40100 52002 70210 83848 333 911//;
0161010980999992000081915004+70360+031090FM-12+001599999V0203601N000510240019N0750001N1+00971+99999100971ADDAY121031AY221031GF107991041071004501051001MA1999999100791MD1810041+9999MW1021REMSYN072AAXX  19154 01098 41489 73601 10097 2//// 30079 40097 58004 70222 84750;
0201010980999992000081918004+70360+031090FM-12+001599999V0202101N001010240019N0750001N1+00851+00511100941ADDAA199000091AY121061AY221061GF107991031071004501051091MA1999999100761MD1710031+9999MW1021REMSYN082AAXX  19184 01098 31489 72102 10085 20051 30076 40094 57003 70222 83759 333 91104;EQDQ01  00002PRCP99
0161010980999992000081921004+70360+031090FM-12+001599999V0202201N001510042019N0750001N1+00781+00511100891ADDAY121031AY221031GF108991051071004501051999MA1999999100711MD1710051+9999MW1021REMSYN072AAXX  19214 01098 41489 82203 10078 20051 30071 40089 57005 70222 8575/;
0201010980999992000082000004+70360+031090FM-12+001599999V0202401N001510042019N0750001N1+00791+00551100841ADDAA199000091AY121061AY221061GF108991061071004501051999MA1999999100661MD1710051+9999MW1021REMSYN082AAXX  20004 01098 31489 82403 10079 20055 30066 40084 57005 70222 8675/ 333 91105;EQDQ01  00002PRCP99
0161010980999992000082003004+70360+031090FM-12+001599999V0202401N002610240019N0750001N1+00781+00611100781ADDAY151031AY221031GF108991031081004501071999MA1999999100601MD1710061+9999MW1501REMSYN072AAXX  20034 01098 41489 82405 10078 20061 30060 40078 57006 75052 8387/;
0188010980999992000082006004+70360+031090FM-12+001599999V0202801N002110240019N0750001N1+00921+00681100811ADDAA112000791AY151061AY221061GF108991031071004501051999MA1999999100631MD1510031+9999MW1021REMSYN088AAXX  20064 01098 11489 82804 10092 20068 30063 40081 55003 69902 70252 8375/ 333 91107;
0161010980999992000082009004+70360+031090FM-12+001599999V0202801N003110240019N0750001N1+00931+00471100881ADDAY121031AY221031GF108991031071004501071999MA1999999100701MD1210071+9999MW1021REMSYN072AAXX  20094 01098 41489 82806 10093 20047 30070 40088 52007 70222 8377/;
0182010980999992000082012004+70360+031090FM-12+001599999V0203101N002110042019N0750001N1+00921+00541100971ADDAA199000021AY121061AY221061GF107991051071004501071999MA1999999100791MD1110091+9999MW1021REMSYN082AAXX  20124 01098 31489 73104 10092 20054 30079 40097 51009 70222 8577/ 333 91108;
0161010980999992000082015004+70360+031090FM-12+001599999V0202901N002610042019N0750001N1+00881+00461101011ADDAY121031AY221031GF107991071051004501001001MA1999999100831MD1210041+9999MW1021REMSYN072AAXX  20154 01098 41489 72905 10088 20046 30083 40101 52004 70222 87500;
0201010980999992000082018004+70360+031090FM-12+001599999V0203001N002110042019N0750001N1+00801+00461101071ADDAA199000091AY121061AY221061GF107991071051004501001001MA1999999100891MD1210061+9999MW1021REMSYN082AAXX  20184 01098 31489 73004 10080 20046 30089 40107 52006 70222 87500 333 91108;EQDQ01  00002PRCP99
0161010980999992000082021004+70360+031090FM-12+001599999V0202501N001510042019N0750001N1+00761+00401101091ADDAY121031AY221031GF107991071051004501001001MA1999999100911MD1210021+9999MW1021REMSYN072AAXX  20214 01098 41489 72503 10076 20040 30091 40109 52002 70222 87500;
0201010980999992000082100004+70360+031090FM-12+001599999V0202701N002110600019N0750001N1+00671+00401101111ADDAA199000091AY121061AY221061GF106991031071004501001081MA1999999100931MD1210021+9999MW1021REMSYN082AAXX  21004 01098 31489 62704 10067 20040 30093 40111 52002 70222 83708 333 91106;EQDQ01  00002PRCP99
0161010980999992000082103004+70360+031090FM-12+001599999V0202501N002110600019N0750001N1+00581+00441101131ADDAY121031AY221031GF105991021051004501041081MA1999999100951MD1210021+9999MW1021REMSYN072AAXX  21034 01098 41489 52504 10058 20044 30095 40113 52002 70222 82548;
0220010980999992000082106004+70360+031090FM-12+001599999V0202201N002110042019N0750001N1+00701+00481101171ADDAA199000091AY121061AY221061GF107991061051004501051999KA1120N+00551MA1999999100991MD1210041+9999MW1021REMSYN088AAXX  21064 01098 31489 72204 10070 20048 30099 40117 52004 70222 8655/ 333 20055 91105;EQDQ01  00002PRCP99
0161010980999992000082109004+70360+031090FM-12+001599999V0203501N001010240019N0550001N1+00911+00431101231ADDAY121031AY221031GF106991041051004501041081MA1999999101051MD1210061+9999MW1021REMSYN072AAXX  21094 01098 41485 63502 10091 20043 30105 40123 52006 70222 84548;
0201010980999992000082112004+70360+031090FM-12+001599999V0203501N001010240019N0550001N1+00961+00541101231ADDAA199000091AY121061AY221061GF106991011011004501041081MA1999999101051MD1410001+9999MW1021REMSYN082AAXX  21124 01098 31485 63502 10096 20054 30105 40123 54000 70222 81148 333 91106;EQDQ01  00002PRCP99
0161010980999992000082115004+70360+031090FM-12+001599999V0200101N001010240019N0550001N1+00911+00531101251ADDAY121031AY221031GF107991021021004501081091MA1999999101071MD1210021+9999MW1031REMSYN072AAXX  21154 01098 41485 70102 10091 20053 30107 40125 52002 70322 82289;
0220010980999992000082118004+70360+031090FM-12+001599999V0200101N000510240019N0550001N1+00781+00531101241ADDAA199000091AY121061AY221061GF106991011021004501081091KA1120M+01001MA1999999101061MD1710011+9999MW1011REMSYN088AAXX  21184 01098 31485 60101 10078 20053 30106 40124 57001 70122 81289 333 10100 91103;EQDQ01  00002PRCP99
0161010980999992000082121004+70360+031090FM-12+001599999V0202801N000512200019N0750001N1+00501+00431101211ADDAY101031AY201031GF103991011041004501071041MA1999999101031MD1710031+9999MW1021REMSYN072AAXX  21214 01098 41489 32801 10050 20043 30103 40121 57003 70200 81474;
0201010980999992000082200004+70360+031090FM-12+001599999V0209999C000010240019N0750001N1+00611+00541101131ADDAA199000091AY121061AY201061GF107991011041004501071001MA1999999100951MD1710081+9999MW1021REMSYN082AAXX  22004 01098 31489 70000 10061 20054 30095 40113 57008 70220 81470 333 91102;EQDQ01  00002PRCP99
0161010980999992000082203004+70360+031090FM-12+001599999V0202701N000519999999N0750001N1+00821+00711101061ADDAY121031AY221031GF107991071001012501071001MA1999999100881MD1710071+9999MW1021REMSYN072AAXX  22034 01098 41689 72701 10082 20071 30088 40106 57007 70222 87070;
0207010980999992000082206004+70360+031090FM-12+001599999V0203501N000519999999N0750001N1+00921+00841100991ADDAA112000791AY181061AY221061GF107991071001012501071001KA1120N+00501MA1999999100811MD1710071+9999MW1021REMSYN094AAXX  22064 01098 11689 73501 10092 20084 30081 40099 57007 69902 70282 87070 333 20050 91103;
0161010980999992000082209004+70360+031090FM-12+001599999V0203201N002610240019N0550001N1+00981+00851101021ADDAY181031AY221031GF106991041081004501071001MA1999999100841MD1310031+9999MW1021REMSYN072AAXX  22094 01098 41485 63205 10098 20085 30084 40102 53003 70282 84870;
0188010980999992000082212004+70360+031090FM-12+001599999V0203401N002110240019N0550001N1+00901+00591101021ADDAA106000791AY181061AY221061GF107991011081008001071001MA1999999100841MD1010001+9999MW1021REMSYN088AAXX  22124 01098 11585 73404 10090 20059 30084 40102 50000 69901 70282 81870 333 91108;
0161010980999992000082215004+70360+031090FM-12+001599999V0203301N001510240019N0550001N1+00851+00541101041ADDAY151031AY221031GF108991031081004501021999MA1999999100861MD1310021+9999MW1511REMSYN072AAXX  22154 01098 41485 83303 10085 20054 30086 40104 53002 75152 8382/;
0207010980999992000082218004+70360+031090FM-12+001599999V0203201N000510240019N0550001N1+00811+00431101041ADDAA112000191AY151061AY221061GF107991031081004501071001KA1120M+01021MA1999999100861MD1410001+9999MW1011REMSYN094AAXX  22184 01098 31485 73201 10081 20043 30086 40104 54000 69912 70152 83870 333 10102 91105;
0161010980999992000082221004+70360+031090FM-12+001599999V0202001N002110042019N0550001N1+00711+00541100991ADDAY121031AY221031GF107991071051004501001001MA1999999100811MD1810051+9999MW1021REMSYN072AAXX  22214 01098 41485 72004 10071 20054 30081 40099 58005 70222 87500;
0182010980999992000082300004+70360+031090FM-12+001599999V0202201N001510042019N0550001N1+00691+00441100901ADDAA199000021AY121061AY221061GF107991071051004501001001MA1999999100721MD1710091+9999MW1021REMSYN082AAXX  23004 01098 31485 72203 10069 20044 30072 40090 57009 70222 87500 333 91105;
0161010980999992000082303004+70360+031090FM-12+001599999V0202401N001510240019N0550001N1+00711+00491100871ADDAY121031AY221031GF106991031051004501051001MA1999999100691MD1710031+9999MW1011REMSYN072AAXX  23034 01098 41485 62403 10071 20049 30069 40087 57003 70122 83550;
0220010980999992000082306004+70360+031090FM-12+001599999V0202401N001510240019N0550001N1+01071+00601100811ADDAA199000091AY121061AY221061GF107991031051004501051001KA1120N+00671MA1999999100631MD1710061+9999MW1031REMSYN088AAXX  23064 01098 31485 72403 10107 20060 30063 40081 57006 70322 83550 333 20067 91106;EQDQ01  00002PRCP99
0161010980999992000082309004+70360+031090FM-12+001599999V0202801N000510240019N0750001N1+01221+00561100761ADDAY121031AY221031GF107991021021004501071081MA1999999100591MD1710041+9999MW1021REMSYN072AAXX  23094 01098 41489 72801 10122 20056 30059 40076 57004 70222 82278;
0201010980999992000082312004+70360+031090FM-12+001599999V0201201N001010090019N0750001N1+01121+00791100731ADDAA199000091AY121061AY221061GF107991061081004501071001MA1999999100551MD1710031+9999MW1021REMSYN082AAXX  23124 01098 31489 71202 10112 20079 30055 40073 57003 70222 86870 333 91106;EQDQ01  00002PRCP99
0161010980999992000082315004+70360+031090FM-12+001599999V0200301N001010090019N0550001N1+01021+00861100701ADDAY121031AY221031GF107991061081004501041001MA1999999100521MD1610031+9999MW1021REMSYN072AAXX  23154 01098 41485 70302 10102 20086 30052 40070 56003 70222 86840;
0207010980999992000082318004+70360+031090FM-12+001599999V0200901N001010090019N0550001N1+00971+00861100641ADDAA112000191AY121061AY221061GF107991061081004501071001KA1120M+01291MA1999999100461MD1710061+9999MW1801REMSYN094AAXX  23184 01098 11485 70902 10097 20086 30046 40064 57006 69912 78022 86870 333 10129 91106;
0161010980999992000082321004+70360+031090FM-12+001599999V0201101N000510090019N0550001N1+00971+00811100611ADDAY181031AY221031GF108991051081004501071999MA1999999100431MD1710031+9999MW1021REMSYN072AAXX  23214 01098 41485 81101 10097 20081 30043 40061 57003 70282 8587/;
0188010980999992000082400004+70360+031090FM-12+001599999V0201401N001010090019N0550001N1+00991+00931100581ADDAA106000791AY181061AY221061GF108991061081004501071999MA1999999100401MD1710031+9999MW1021REMSYN088AAXX  24004 01098 11485 81402 10099 20093 30040 40058 57003 69901 70282 8687/ 333 91104;
0161010980999992000082403004+70360+031090FM-12+001599999V0201501N001010240019N0750001N1+00961+00901100511ADDAY121031AY221031GF105991031081008001031001MA1999999100331MD1710071+9999MW1011REMSYN072AAXX  24034 01098 41589 51502 10096 20090 30033 40051 57007 70122 83830;
0201010980999992000082406004+70360+031090FM-12+001599999V0201501N001012200019N0750001N1+01081+01021100481ADDAA199000021AY121061AY221061GF104991021031008001021091KA1120N+00851MA1999999100301MD1710031+9999MW1011REMSYN088AAXX  24064 01098 31589 41502 10108 20102 30030 40048 57003 70122 82329 333 20085 91104;
0161010980999992000082409004+70360+031090FM-12+001599999V0201301N001010240019N0550001N1+01131+01021100361ADDAY121031AY211031GF107991041081004501041081MA1999999100181MD1710121+9999MW1021REMSYN072AAXX  24094 01098 42485 71302 10113 20102 30018 40036 57012 70221 84848;
0201010980999992000082412004+70360+031090FM-12+001599999V0201201N001512200019N0550001N1+01221+01091100361ADDAA199000091AY121061AY211061GF104991021081004501041081MA1999999100181MD1410001+9999MW1021REMSYN082AAXX  24124 01098 31485 41203 10122 20109 30018 40036 54000 70221 82848 333 91105;EQDQ01  00002PRCP99
0161010980999992000082415004+70360+031090FM-12+001599999V0201501N000510240019N0550001N1+01221+01111100361ADDAY121031AY211031GF106991041081004501041081MA1999999100181MD1410001+9999MW1021REMSYN072AAXX  24154 01098 41485 61501 10122 20111 30018 40036 54000 70221 84848;
0220010980999992000082418004+70360+031090FM-12+001599999V0201201N001010240019N0550001N1+01101+01031100381ADDAA199000091AY121061AY221061GF107991041081004501041081KA1120M+01281MA1999999100201MD1210021+9999MW1031REMSYN088AAXX  24184 01098 31485 71202 10110 20103 30020 40038 52002 70322 84848 333 10128 91104;EQDQ01  00002PRCP99
0161010980999992000082421004+70360+031090FM-12+001599999V0200101N000512200019N0550001N1+00961+00881100421ADDAY101031AY201031GF102991011081004501041001MA1999999100241MD1210041+9999MW1011REMSYN072AAXX  24214 01098 41485 20101 10096 20088 30024 40042 52004 70100 81840;
0201010980999992000082500004+70360+031090FM-12+001599999V0202301N000512200019N0550001N1+00751+00681100461ADDAA199000091AY101061AY201061GF103991021081004501041081MA1999999100281MD1210041+9999MW1021REMSYN082AAXX  25004 01098 31485 32301 10075 20068 30028 40046 52004 70200 82848 333 91103;EQDQ01  00002PRCP99
0161010980999992000082503004+70360+031090FM-12+001599999V0202101N001010240019N0550001N1+00981+00901100511ADDAY111031AY211031GF105991041081004501041081MA1999999100331MD1210051+9999MW1031REMSYN072AAXX  25034 01098 41485 52102 10098 20090 30033 40051 52005 70311 84848;
0220010980999992000082506004+70360+031090FM-12+001599999V0203501N000512200019N0550001N1+00951+00521100621ADDAA199000091AY121061AY221061GF104991021081004501041081KA1120N+00751MA1999999100441MD1210111+9999MW1021REMSYN088AAXX  25064 01098 31485 43501 10095 20052 30044 40062 52011 70222 82848 333 20075 91103;EQDQ01  00002PRCP99
0161010980999992000082509004+70360+031090FM-12+001599999V0203201N002110240019N0750001N1+01101+00941100791ADDAY121031AY221031GF107991031081004501071001MA1999999100611MD1210171+9999MW1021REMSYN072AAXX  25094 01098 41489 73204 10110 20094 30061 40079 52017 70222 83870;
0201010980999992000082512004+70360+031090FM-12+001599999V0203401N001510240019N0550001N1+01111+00981100921ADDAA199000091AY121061AY221061GF107991031081004501071081MA1999999100741MD1210131+9999MW1021REMSYN082AAXX  25124 01098 31485 73403 10111 20098 30074 40092 52013 70222 83878 333 91107;EQDQ01  00002PRCP99
0161010980999992000082515004+70360+031090FM-12+001599999V0203501N001010240019N0750001N1+01051+00981101041ADDAY181031AY221031GF107991041091004501071001MA1999999100861MD1210121+9999MW1151REMSYN072AAXX  25154 01098 41489 73502 10105 20098 30086 40104 52012 71582 84970;
0207010980999992000082518004+70360+031090FM-12+001599999V0203001N000510240019N0750001N1+00991+00911101171ADDAA112000591AY181061AY221061GF107991031081004501071001KA1120M+01401MA1999999100991MD1210131+9999MW1251REMSYN094AAXX  25184 01098 11489 73001 10099 20091 30099 40117 52013 69952 72582 83870 333 10140 91106;
0161010980999992000082521004+70360+031090FM-12+001599999V0209999C000010090019N0750001N1+00961+00881101171ADDAY181031AY221031GF108991051081004501071001MA1999999100991MD1410001+9999MW1031REMSYN072AAXX  25214 01098 41489 80000 10096 20088 30099 40117 54000 70382 85870;
0182010980999992000082600004+70360+031090FM-12+001599999V0201201N001510090019N0750001N1+00961+00881101101ADDAA199000021AY121061AY221061GF108991061081004501071999MA1999999100921MD1710071+9999MW1021REMSYN082AAXX  26004 01098 31489 81203 10096 20088 30092 40110 57007 70222 8687/ 333 91105;
0161010980999992000082603004+70360+031090FM-12+001599999V0201601N002610090019N0750001N1+01031+00951100921ADDAY121031AY221031GF108991051081004501071001MA1999999100741MD1710181+9999MW1021REMSYN072AAXX  26034 01098 41489 81605 10103 20095 30074 40092 57018 70222 85870;
0201010980999992000082606004+70360+031090FM-12+001599999V0202301N001510090019N0750001N1+01091+01011100881ADDAA199000021AY121061AY221061GF108991051081004501071071KA1120N+00971MA1999999100701MD1710041+9999MW1021REMSYN088AAXX  26064 01098 31489 82303 10109 20101 30070 40088 57004 70222 85877 333 20097 91108;
0161010980999992000082609004+70360+031090FM-12+001599999V0201901N002110240019N0750001N1+01211+01041100981ADDAY121031AY221031GF107991011071004501071001MA1999999100801MD1310101+9999MW1021REMSYN072AAXX  26094 01098 41489 71904 10121 20104 30080 40098 53010 70222 81770;
0188010980999992000082612004+70360+031090FM-12+001599999V0202101N002610240019N0750001N1+01261+01091101091ADDAA106000791AY151061AY221061GF107991011071004501071001MA1999999100921MD1210111+9999MW1501REMSYN088AAXX  26124 01098 11489 72105 10126 20109 30092 40109 52011 69901 75052 81770 333 91107;
0161010980999992000082615004+70360+031090FM-12+001599999V0202701N003110240019N0550001N1+01341+00961101181ADDAY161031AY251031GF107991041071004501071001MA1999999101011MD1210091+9999MW1021REMSYN072AAXX  26154 01098 41485 72706 10134 20096 30101 40118 52009 70265 84770;
0207010980999992000082618004+70360+031090FM-12+001599999V0202001N001512200019N0750001N1+01191+01031101241ADDAA112000791AY161061AY251061GF104991031071004501001091KA1120M+01351MA1999999101061MD1210061+9999MW1011REMSYN094AAXX  26184 01098 11489 42003 10119 20103 30106 40124 52006 69902 70165 83709 333 10135 91110;
0161010980999992000082621004+70360+031090FM-12+001599999V0202301N003110240019N0550001N1+01041+00881101281ADDAY121031AY211031GF106991031071004501031001MA1999999101101MD1210041+9999MW1031REMSYN072AAXX  26214 01098 41485 62306 10104 20088 30110 40128 52004 70321 83730;
0182010980999992000082700004+70360+031090FM-12+001599999V0202401N002110240019N0750001N1+01141+00861101321ADDAA199000021AY121061AY221061GF107991021071004501071001MA1999999101141MD1210041+9999MW1021REMSYN082AAXX  27004 01098 31489 72404 10114 20086 30114 40132 52004 70222 82770 333 91109;
0161010980999992000082703004+70360+031090FM-12+001599999V0202501N003110240019N0750001N1+01041+00901101351ADDAY121031AY221031GF107991031081004501041051MA1999999101171MD1210031+9999MW1021REMSYN072AAXX  27034 01098 41489 72506 10104 20090 30117 40135 52003 70222 83845;
0207010980999992000082706004+70360+031090FM-12+001599999V0202301N001510240019N0600001N1+01061+00921101411ADDAA112000791AY181061AY221061GF107991031081004501071001KA1120N+01011MA1999999101231MD1210061+9999MW1801REMSYN094AAXX  27064 01098 11486 72303 10106 20092 30123 40141 52006 69902 78082 83870 333 20101 91108;
0161010980999992000082709004+70360+031090FM-12+001599999V0202501N001510240019N0550001N1+01191+01061101421ADDAY181031AY221031GF108991041071004501021999MA1999999101241MD1210011+9999MW1501REMSYN072AAXX  27094 01098 41485 82503 10119 20106 30124 40142 52001 75082 8472/;
0188010980999992000082712004+70360+031090FM-12+001599999V0203601N001010042019N0550001N1+01161+01031101451ADDAA106000191AY181061AY221061GF108991071071004501021999MA1999999101271MD1210031+9999MW1021REMSYN088AAXX  27124 01098 11485 83602 10116 20103 30127 40145 52003 69911 70282 8772/ 333 91111;
0161010980999992000082715004+70360+031090FM-12+001599999V0201501N000510021019N0200001N1+01031+00971101421ADDAY161031AY221031GF108991081071002501999999MA1999999101241MD1810031+9999MW1601REMSYN072AAXX  27154 01098 41370 81501 10103 20097 30124 40142 58003 76062 887//;
0207010980999992000082718004+70360+031090FM-12+001599999V0201201N001010012019N0050001N1+01101+01041101341ADDAA112005191AY161061AY221061GF108991081071001501999999KA1120M+01291MA1999999101161MD1710081+9999MW1631REMSYN094AAXX  27184 01098 11250 81202 10110 20104 30116 40134 57008 60052 76362 887// 333 10129 91104;
0161010980999992000082721004+70360+031090FM-12+001599999V0202801N001010240019N0300001N1+01211+01151101361ADDAY161031AY221031GF107991041081004501041031MA1999999101181MD1310021+9999MW1021REMSYN072AAXX  27214 01098 41480 72802 10121 20115 30118 40136 53002 70262 84843;
0188010980999992000082800004+70360+031090FM-12+001599999V0201801N001010042019N0300001N1+01101+01011101351ADDAA106001091AY161061AY221061GF108991071071004501021999MA1999999101171MD1810011+9999MW1621REMSYN088AAXX  28004 01098 11480 81802 10110 20101 30117 40135 58001 60011 76262 8772/ 333 91104;
0161010980999992000082803004+70360+031090FM-12+001599999V0201701N002610240019N0550001N1+01201+01011101241ADDAY161031AY221031GF108991041071004501071999MA1999999101061MD1710111+9999MW1021REMSYN072AAXX  28034 01098 41485 81705 10120 20101 30106 40124 57011 70262 8477/;
0207010980999992000082806004+70360+031090FM-12+001599999V0202001N002110240019N0550001N1+01191+01081101151ADDAA112001091AY161061AY221061GF108991031071004501071999KA1120N+01051MA1999999100971MD1710091+9999MW1021REMSYN094AAXX  28064 01098 11485 82004 10119 20108 30097 40115 57009 60012 70262 8377/ 333 20105 91108;
0161010980999992000082809004+70360+031090FM-12+001599999V0202601N000510240019N0550001N1+01601+01251101151ADDAY121031AY221031GF106991011011004501071081MA1999999100981MD1210011+9999MW1011REMSYN072AAXX  28094 01098 41485 62601 10160 20125 30098 40115 52001 70122 81178;
0182010980999992000082812004+70360+031090FM-12+001599999V0203501N001512200019N0550001N1+01561+01151101261ADDAA199000021AY121061AY211061GF103991011011004501071081MA1999999101091MD1210111+9999MW1011REMSYN082AAXX  28124 01098 31485 33503 10156 20115 30109 40126 52011 70121 81178 333 91110;
0161010980999992000082815004+70360+031090FM-12+001599999V0201601N001510042019N0550001N1+01351+01171101301ADDAY121031AY221031GF108991061071004501071999MA1999999101131MD1210041+9999MW1031REMSYN072AAXX  28154 01098 41485 81603 10135 20117 30113 40130 52004 70322 8677/;
0207010980999992000082818004+70360+031090FM-12+001599999V0201601N001010042019N0550001N1+01251+01151101301ADDAA112000191AY151061AY221061GF108991071071004501071999KA1120M+01751MA1999999101131MD1410001+9999MW1501REMSYN094AAXX  28184 01098 11485 81602 10125 20115 30113 40130 54000 69912 75052 8777/ 333 10175 91105;
0161010980999992000082821004+70360+031090FM-12+001599999V0202301N001010240019N0550001N1+01311+01181101271ADDAY151031AY221031GF107991041081004501041001MA1999999101101MD1810031+9999MW1021REMSYN072AAXX  28214 01098 41485 72302 10131 20118 30110 40127 58003 70252 84840;
0188010980999992000082900004+70360+031090FM-12+001599999V0200201N001010240019N0300001N1+01011+00951101471ADDAA106000791AY151061AY221061GF107991041061004501041001MA1999999101291MD1310191+9999MW1021REMSYN088AAXX  29004 01098 11480 70202 10101 20095 30129 40147 53019 69901 70252 84640 333 91109;
0161010980999992000082903004+70360+031090FM-12+001599999V0203601N000510240019N0300001N1+00981+00921101531ADDAY121031AY221031GF107991031071004501071001MA1999999101351MD1110061+9999MW1021REMSYN072AAXX  29034 01098 41480 73601 10098 20092 30135 40153 51006 70222 83770;
0207010980999992000082906004+70360+031090FM-12+001599999V0201301N000510021019N0200001N1+01001+00941101551ADDAA112000791AY151061AY221061GF108991081061002501999999KA1120N+00961MA1999999101371MD1210021+9999MW1511REMSYN094AAXX  29064 01098 11370 81301 10100 20094 30137 40155 52002 69902 75152 886// 333 20096 91104;
0161010980999992000082909004+70360+031090FM-12+001599999V0200901N001010240019N0060001N1+01011+00951101481ADDAY161031AY251031GF108991041071002501021999MA1999999101301MD1810071+9999MW1611REMSYN072AAXX  29094 01098 41356 80902 10101 20095 30130 40148 58007 76165 8472/;
0188010980999992000082912004+70360+031090FM-12+001599999V0200901N001010012019N0060001N1+01041+00991101381ADDAA106000591AY161061AY251061GF108991051071001501021999MA1999999101201MD1710101+9999MW1601REMSYN088AAXX  29124 01098 11256 80902 10104 20099 30120 40138 57010 69941 76065 8572/ 333 91106;
0161010980999992000082915004+70360+031090FM-12+001599999V0200501N001510240019N0300001N1+01031+00951101321ADDAY121031AY221031GF108991031071002501021999MA1999999101141MD1610061+9999MW1011REMSYN072AAXX  29154 01098 41380 80503 10103 20095 30114 40132 56006 70122 8372/;
0207010980999992000082918004+70360+031090FM-12+001599999V0203601N001010240019N0200001N1+00971+00921101381ADDAA112001091AY181061AY211061GF105991011061001501061001KA1120M+01081MA1999999101201MD1310061+9999MW1011REMSYN094AAXX  29184 01098 11270 53602 10097 20092 30120 40138 53006 60012 70181 81660 333 10108 91105;
0161010980999992000082921004+70360+031090FM-12+001599999V0202801N002110240019N0240001N1+00981+00921101401ADDAY121031AY221031GF107991021081002501061999MA1999999101221MD1210021+9999MW1021REMSYN072AAXX  29214 01098 41374 72804 10098 20092 30122 40140 52002 70222 8286/;
0188010980999992000083000004+70360+031090FM-12+001599999V0203001N001510060019N0200001N1+00881+00771101521ADDAA106000791AY151061AY221061GF107991061081002501061999MA1999999101341MD1210121+9999MW1501REMSYN088AAXX  30004 01098 11370 73003 10088 20077 30134 40152 52012 69901 75052 8686/ 333 91109;
0161010980999992000083003004+70360+031090FM-12+001599999V0202801N002112200019N0550001N1+00711+00461101561ADDAY101031AY201031GF103991021081002501061999MA1999999101381MD1210041+9999MW1011REMSYN072AAXX  30034 01098 41385 32804 10071 20046 30138 40156 52004 70100 8286/;
0201010980999992000083006004+70360+031090FM-12+001599999V0202801N002112200019N0550001N1+00911+00551101601ADDAA199000021AY121061AY221061GF104991021041004501041081KA1120N+00641MA1999999101421MD1210041+9999MW1021REMSYN088AAXX  30064 01098 31485 42804 10091 20055 30142 40160 52004 70222 82448 333 20064 91109;
0161010980999992000083009004+70360+031090FM-12+001599999V0203401N001010042019N0750001N1+00981+00601101681ADDAY121031AY211031GF107991061041004501071001MA1999999101501MD1210081+9999MW1021REMSYN072AAXX  30094 01098 41489 73402 10098 20060 30150 40168 52008 70221 86470;
0182010980999992000083012004+70360+031090FM-12+001599999V0201301N000510042019N0750001N1+00981+00671101691ADDAA199000021AY121061AY211061GF107991061041004501071001MA1999999101511MD1110011+9999MW1021REMSYN082AAXX  30124 01098 31489 71301 10098 20067 30151 40169 51001 70221 86470 333 91106;
0161010980999992000083015004+70360+031090FM-12+001599999V0201201N000510090019N0750001N1+01041+00621101621ADDAY121031AY221031GF107991071081004501001001MA1999999101441MD1810071+9999MW1021REMSYN072AAXX  30154 01098 41489 71201 10104 20062 30144 40162 58007 70222 87800;
0220010980999992000083018004+70360+031090FM-12+001599999V0201501N001010042019N0750001N1+00991+00551101551ADDAA199000091AY121061AY221061GF107991051051004501041001KA1120M+01081MA1999999101371MD1710071+9999MW1021REMSYN088AAXX  30184 01098 31489 71502 10099 20055 30137 40155 57007 70222 85540 333 10108 91104;EQDQ01  00002PRCP99
0161010980999992000083021004+70360+031090FM-12+001599999V0201901N002110240019N0550001N1+01011+00791101521ADDAY121031AY221031GF106991031051004501041001MA1999999101341MD1710031+9999MW1011REMSYN072AAXX  30214 01098 41485 61904 10101 20079 30134 40152 57003 70122 83540;
0201010980999992000083100004+70360+031090FM-12+001599999V0201601N002112200019N0550001N1+00981+00931101321ADDAA199000091AY101061AY201061GF103991021081004501061001MA1999999101141MD1810201+9999MW1011REMSYN082AAXX  31004 01098 31485 31604 10098 20093 30114 40132 58020 70100 82860 333 91106;EQDQ01  00002PRCP99
0161010980999992000083103004+70360+031090FM-12+001599999V0201601N001512200019N0550001N1+00981+00931101181ADDAY101031AY201031GF103991031081004501001001MA1999999101001MD1710141+9999MW1021REMSYN072AAXX  31034 01098 41485 31603 10098 20093 30100 40118 57014 70200 83800;
0207010980999992000083106004+70360+031090FM-12+001599999V0201001N001510042019N0100001N1+01001+00931101031ADDAA112000891AY161061AY221061GF108991061061004501021999KA1120N+00881MA1999999100851MD1710151+9999MW1601REMSYN094AAXX  31064 01098 11460 81003 10100 20093 30085 40103 57015 69982 76062 8662/ 333 20088 91105;
0161010980999992000083109004+70360+031090FM-12+001599999V0200601N004110006019N0040001N1+00941+00881100721ADDAY161031AY221031GF108991071061000751021999MA1999999100541MD1710311+9999MW1631REMSYN072AAXX  31094 01098 41140 80608 10094 20088 30054 40072 57031 76362 8762/;
0188010980999992000083112004+70360+031090FM-12+001599999V0200401N001010042019N0060001N1+01041+00981100491ADDAA106009991AY161061AY221061GF108991071061004501021999MA1999999100311MD1710231+9999MW1601REMSYN088AAXX  31124 01098 11456 80402 10104 20098 30031 40049 57023 60101 76062 8762/ 333 91112;
0161010980999992000083115004+70360+031090FM-12+001599999V0203101N001010240019N0180001N1+01021+00961100361ADDAY161031AY221031GF108991031061000751021999MA1999999100181MD1710131+9999MW1601REMSYN072AAXX  31154 01098 41168 83102 10102 20096 30018 40036 57013 76062 8362/;
0207010980999992000083118004+70360+031090FM-12+001599999V0203401N004610042019N0650001N1+00841+00621100721ADDAA112015091AY161061AY221061GF108991051071004501021999KA1120M+01101MA1999999100541MD1310361+9999MW1021REMSYN094AAXX  31184 01098 11487 83409 10084 20062 30054 40072 53036 60152 70262 8572/ 333 10110 91115;
0161010980999992000083121004+70360+031090FM-12+001599999V0203601N003110042019N0550001N1+00721+00531100991ADDAY121031AY221031GF106991051071004501041001MA1999999100811MD1210271+9999MW1021REMSYN072AAXX  31214 01098 41485 63606 10072 20053 30081 40099 52027 70222 85740;
0188010980999992000090100004+70360+031090FM-12+001599999V0203601N002110060019N0550001N1+00681+00561101201ADDAA106000791AY181061AY221061GF108991081081002501999999MA1999999101021MD1210211+9999MW1801REMSYN088AAXX  01004 01098 11385 83604 10068 20056 30102 40120 52021 69901 78082 888// 333 91114;
0161010980999992000090103004+70360+031090FM-12+001599999V0203601N001010060019N0550001N1+00621+00481101251ADDAY181031AY221031GF108991081081002501999999MA1999999101071MD1110051+9999MW1151REMSYN072AAXX  01034 01098 41385 83602 10062 20048 30107 40125 51005 71582 888//;
0207010980999992000090106004+70360+031090FM-12+001599999V0200401N001010060019N0550001N1+00651+00531101231ADDAA112000191AY181061AY221061GF108991071081002501021999KA1120N+00621MA1999999101051MD1810021+9999MW1021REMSYN094AAXX  01064 01098 11385 80402 10065 20053 30105 40123 58002 69912 70282 8782/ 333 20062 91107;
0161010980999992000090109004+70360+031090FM-12+001599999V0200801N002110090019N0550001N1+00721+00571101171ADDAY121031AY221031GF108991081081004501999999MA1999999100991MD1710061+9999MW1021REMSYN072AAXX  01094 01098 41485 80804 10072 20057 30099 40117 57006 70222 888//;
0182010980999992000090112004+70360+031090FM-12+001599999V0200901N002110090019N0550001N1+00791+00521101081ADDAA199000021AY121061AY221061GF108991081081004501999999MA1999999100901MD1710091+9999MW1021REMSYN082AAXX  01124 01098 31485 80904 10079 20052 30090 40108 57009 70222 888// 333 91108;
0161010980999992000090115004+70360+031090FM-12+001599999V0200901N002610090019N0100001N1+00781+00711100921ADDAY151031AY221031GF108991081081004501999999MA1999999100741MD1710161+9999MW1531REMSYN072AAXX  01154 01098 41460 80905 10078 20071 30074 40092 57016 75352 888//;
0226010980999992000090118004+70360+031090FM-12+001599999V0200801N002610042019N0050001N1+00801+00721100771ADDAA112000791AY151061AY221061GF108991999061004501081999KA1120M+00851MA1999999100591MD1710151+9999MW1531REMSYN094AAXX  01184 01098 11450 80805 10080 20072 30059 40077 57015 69902 75352 8868/ 333 10085 91109;EQDQ01+000082SCOTLC
0161010980999992000090121004+70360+031090FM-12+001599999V0200801N002110240019N0750001N1+00841+00761100611ADDAY181031AY221031GF108991021041004501071999MA1999999100431MD1710161+9999MW1021REMSYN072AAXX  01214 01098 41489 80804 10084 20076 30043 40061 57016 70282 8247/;
0188010980999992000090200004+70360+031090FM-12+001599999V0200701N002610240019N0750001N1+00841+00761100451ADDAA106000191AY181061AY221061GF108991011041004501071999MA1999999100271MD1710161+9999MW1021REMSYN088AAXX  02004 01098 11489 80705 10084 20076 30027 40045 57016 69921 70282 8147/ 333 91109;
0161010980999992000090203004+70360+031090FM-12+001599999V0200601N002110240019N0100001N1+00851+00771100341ADDAY151031AY221031GF108991041061000751021999MA1999999100161MD1710111+9999MW1511REMSYN072AAXX  02034 01098 41160 80604 10085 20077 30016 40034 57011 75152 8462/;
0207010980999992000090206004+70360+031090FM-12+001599999V0200601N002610240019N0060001N1+00861+00781100261ADDAA112000391AY151061AY221061GF108991041061000751021999KA1120N+00781MA1999999100081MD1710081+9999MW1511REMSYN094AAXX  02064 01098 11156 80605 10086 20078 30008 40026 57008 69932 75152 8462/ 333 20078 91109;
0161010980999992000090209004+70360+031090FM-12+001599999V0200501N002610021019N0300001N1+00901+00841100271ADDAY151031AY221031GF107991051071002501021001MA1999999100091MD1310011+9999MW1021REMSYN072AAXX  02094 01098 41380 70505 10090 20084 30009 40027 53001 70252 85720;
0188010980999992000090212004+70360+031090FM-12+001599999V0200401N002110021019N0550001N1+00871+00701100281ADDAA106000791AY151061AY221061GF108991081061002501999999MA1999999100101MD1210011+9999MW1021REMSYN088AAXX  02124 01098 11385 80404 10087 20070 30010 40028 52001 69901 70252 886// 333 91109;
0161010980999992000090215004+70360+031090FM-12+001599999V0200401N001010021019N0550001N1+00781+00671100301ADDAY121031AY221031GF108991081061002501999999MA1999999100121MD1210021+9999MW1021REMSYN072AAXX  02154 01098 41385 80402 10078 20067 30012 40030 52002 70222 886//;
0207010980999992000090218004+70360+031090FM-12+001599999V0200501N001510021019N0550001N1+00711+00641100311ADDAA112000791AY121061AY221061GF108991081061002501999999KA1120M+00921MA1999999100131MD1210011+9999MW1021REMSYN094AAXX  02184 01098 11385 80503 10071 20064 30013 40031 52001 69902 70222 886// 333 10092 91107;
0161010980999992000090221004+70360+031090FM-12+001599999V0200601N001010021019N0550001N1+00691+00581100311ADDAY151031AY221031GF108991081061002501999999MA1999999100131MD1410001+9999MW1511REMSYN072AAXX  02214 01098 41385 80602 10069 20058 30013 40031 54000 75152 886//;
0188010980999992000090300004+70360+031090FM-12+001599999V0200601N002110240019N0550001N1+00791+00651100221ADDAA106000191AY151061AY221061GF107991041051008001031001MA1999999100041MD1810091+9999MW1021REMSYN088AAXX  03004 01098 11585 70604 10079 20065 30004 40022 58009 69911 70252 84530 333 91107;
0161010980999992000090303004+70360+031090FM-12+001599999V0200601N002110042019N0300001N1+00701+00631100141ADDAY151031AY221031GF108991061071004501021999MA1999999099961MD1710081+9999MW1201REMSYN072AAXX  03034 01098 41480 80604 10070 20063 39996 40014 57008 72052 8672/;
0207010980999992000090306004+70360+031090FM-12+001599999V0200801N001510042019N0550001N1+00801+00691100051ADDAA112000191AY151061AY221061GF108991071071004501021999KA1120N+00641MA1999999099871MD1710091+9999MW1021REMSYN094AAXX  03064 01098 11485 80803 10080 20069 39987 40005 57009 69912 70252 8772/ 333 20064 91108;
0161010980999992000090309004+70360+031090FM-12+001599999V0201001N002610006019N0050001N1+00821+00761100001ADDAY161031AY221031GF108991071061000751021999MA1999999099821MD1710051+9999MW1621REMSYN072AAXX  03094 01098 41150 81005 10082 20076 39982 40000 57005 76262 8762/;
0188010980999992000090312004+70360+031090FM-12+001599999V0201901N003610042019N0200001N1+00861+00801100011ADDAA106007191AY161061AY221061GF107991061071004501021001MA1999999099831MD1210011+9999MW1601REMSYN088AAXX  03124 01098 11470 71907 10086 20080 39983 40001 52001 60071 76062 86720 333 91110;
0161010980999992000090315004+70360+031090FM-12+001599999V0201601N001512200019N0300001N1+01061+00751100021ADDAY161031AY211031GF102991021011004501001001MA1999999099841MD1210011+9999MW1011REMSYN072AAXX  03154 01098 41480 21603 10106 20075 39984 40002 52001 70161 82100;
0207010980999992000090318004+70360+031090FM-12+001599999V0202001N002612200019N0550001N1+00901+00691100031ADDAA112007191AY161061AY201061GF102991011091002501031001KA1120M+01091MA1999999099851MD1210011+9999MW1021REMSYN094AAXX  03184 01098 11385 22005 10090 20069 39985 40003 52001 60072 70260 81930 333 10109 91108;
0161010980999992000090321004+70360+031090FM-12+001599999V0202101N002112200019N0550001N1+00621+00521100071ADDAY101031AY201031GF102991011091004501031001MA1999999099891MD1210041+9999MW1011REMSYN072AAXX  03214 01098 41485 22104 10062 20052 39989 40007 52004 70100 81930;
0182010980999992000090400004+70360+031090FM-12+001599999V0202201N002112200019N0550001N1+00661+00561100071ADDAA199000021AY101061AY201061GF104991041021004501001001MA1999999099891MD1410001+9999MW1031REMSYN082AAXX  04004 01098 31485 42204 10066 20056 39989 40007 54000 70300 84200 333 91107;
0161010980999992000090403004+70360+031090FM-12+001599999V0202501N002110042019N0550001N1+00621+00551100111ADDAY121031AY211031GF107991071051004501001001MA1999999099931MD1310041+9999MW1031REMSYN072AAXX  04034 01098 41485 72504 10062 20055 39993 40011 53004 70321 87500;
0220010980999992000090406004+70360+031090FM-12+001599999V0202701N003610042019N0550001N1+00701+00581100141ADDAA199000091AY121061AY211061GF107991071051004501001001KA1120N+00511MA1999999099961MD1210031+9999MW1021REMSYN088AAXX  04064 01098 31485 72707 10070 20058 39996 40014 52003 70221 87500 333 20051 91109;EQDQ01  00002PRCP99
0161010980999992000090409004+70360+031090FM-12+001599999V0202901N003610090019N0250001N1+00871+00751100271ADDAY181031AY221031GF107991071081004501001001MA1999999100091MD1210131+9999MW1801REMSYN072AAXX  04094 01098 41475 72907 10087 20075 30009 40027 52013 78082 87800;
0188010980999992000090412004+70360+031090FM-12+001599999V0203201N004110090019N0150001N1+00761+00691100501ADDAA106000191AY181061AY221061GF107991071081004501001001MA1999999100321MD1210231+9999MW1801REMSYN088AAXX  04124 01098 11465 73208 10076 20069 30032 40050 52023 69921 78082 87800 333 91114;
0161010980999992000090415004+70360+031090FM-12+001599999V0203101N005110060019N0150001N1+00701+00631100711ADDAY181031AY221031GF106991061081002501001001MA1999999100531MD1210211+9999MW1801REMSYN072AAXX  04154 01098 41365 63110 10070 20063 30053 40071 52021 78082 86800;
0207010980999992000090418004+70360+031090FM-12+001599999V0203201N004610060019N0200001N1+00601+00531100901ADDAA112000891AY181061AY211061GF107991071081002501001001KA1120M+00961MA1999999100721MD1210191+9999MW1801REMSYN094AAXX  04184 01098 11370 73209 10060 20053 30072 40090 52019 69982 78081 87800 333 10096 91115;
0161010980999992000090421004+70360+031090FM-12+001599999V0203301N004110021019N0200001N1+00601+00421101041ADDAY181031AY221031GF107991051091002501041001MA1999999100861MD1210141+9999MW1801REMSYN072AAXX  04214 01098 41370 73308 10060 20042 30086 40104 52014 78082 85940;
0188010980999992000090500004+70360+031090FM-12+001599999V0203301N003110240019N0550001N1+00531+00331101181ADDAA106000591AY181061AY221061GF105991031031002501041001MA1999999101001MD1210141+9999MW1021REMSYN088AAXX  05004 01098 11385 53306 10053 20033 30100 40118 52014 69961 70282 83340 333 91114;
0161010980999992000090503004+70360+031090FM-12+001599999V0203101N004110240019N0550001N1+00371+00061101281ADDAY121031AY221031GF105991041031002501061001MA1999999101101MD1210101+9999MW1021REMSYN072AAXX  05034 01098 41385 53108 10037 20006 30110 40128 52010 70222 84360;
0207010980999992000090506004+70360+031090FM-12+001599999V0203201N004612200019N0550001N1+00531-00031101341ADDAA112000591AY121061AY221061GF104991041031002501061001KA1120N+00371MA1999999101161MD1210061+9999MW1011REMSYN094AAXX  05064 01098 11385 43209 10053 21003 30116 40134 52006 69962 70122 84360 333 20037 91112;
0161010980999992000090509004+70360+031090FM-12+001599999V0203301N003110060019N0550001N1+00561-00071101391ADDAY181031AY221031GF107991071081002501001001MA1999999101211MD1210051+9999MW1021REMSYN072AAXX  05094 01098 41385 73306 10056 21007 30121 40139 52005 70282 87800;
0188010980999992000090512004+70360+031090FM-12+001599999V0203501N001510090019N0550001N1+00631+00161101431ADDAA106000791AY181061AY221061GF106991051081004501041001MA1999999101251MD1210041+9999MW1021REMSYN088AAXX  05124 01098 11485 63503 10063 20016 30125 40143 52004 69901 70282 85840 333 91110;
0161010980999992000090515004+70360+031090FM-12+001599999V0203201N001012200019N0550001N1+00621+00091101461ADDAY121031AY211031GF103991021011004501041001MA1999999101281MD1210031+9999MW1011REMSYN072AAXX  05154 01098 41485 33202 10062 20009 30128 40146 52003 70121 82140;
0220010980999992000090518004+70360+031090FM-12+001599999V0202301N000512200019N0550001N1+00421+00141101461ADDAA199000091AY121061AY211061GF104991021081004501031001KA1120M+00751MA1999999101281MD1410001+9999MW1021REMSYN088AAXX  05184 01098 31485 42301 10042 20014 30128 40146 54000 70221 82830 333 10075 91105;EQDQ01  00002PRCP99
0161010980999992000090521004+70360+031090FM-12+001599999V0202501N001512200019N0750001N1+00351+00281101351ADDAY101031AY201031GF103991011081004501031001MA1999999101171MD1810111+9999MW1021REMSYN072AAXX  05214 01098 41489 32503 10035 20028 30117 40135 58011 70200 81830;
0201010980999992000090600004+70360+031090FM-12+001599999V0202701N000512200019N0750001N1+00351+00281101351ADDAA199000091AY101061AY201061GF103991011081004501041001MA1999999101171MD1410001+9999MW1021REMSYN082AAXX  06004 01098 31489 32701 10035 20028 30117 40135 54000 70200 81840 333 91105;EQDQ01  00002PRCP99
0161010980999992000090603004+70360+031090FM-12+001599999V0202401N002110240019N0750001N1+00491+00421101331ADDAY121031AY221031GF106991031081004501071001MA1999999101151MD1810021+9999MW1031REMSYN072AAXX  06034 01098 41489 62404 10049 20042 30115 40133 58002 70322 83870;
0220010980999992000090606004+70360+031090FM-12+001599999V0202501N001510240019N0750001N1+00681+00501101371ADDAA199000091AY121061AY221061GF106991031081004501071091KA1120N+00301MA1999999101191MD1510041+9999MW1021REMSYN088AAXX  06064 01098 31489 62503 10068 20050 30119 40137 55004 70222 83879 333 20030 91106;EQDQ01  00002PRCP99
0161010980999992000090609004+70360+031090FM-12+001599999V0203401N002110240019N0550001N1+00671+00551101431ADDAY121031AY211031GF105991041081004501041091MA1999999101251MD1210061+9999MW1021REMSYN072AAXX  06094 01098 41485 53404 10067 20055 30125 40143 52006 70221 84849;
0201010980999992000090612004+70360+031090FM-12+001599999V0200101N001012200019N0550001N1+00781+00381101461ADDAA199000091AY121061AY211061GF104991031081004501041091MA1999999101281MD1210031+9999MW1021REMSYN082AAXX  06124 01098 31485 40102 10078 20038 30128 40146 52003 70221 83849 333 91106;EQDQ01  00002PRCP99
0161010980999992000090615004+70360+031090FM-12+001599999V0200101N000512200019N0600001N1+00821+00241101481ADDAY111031AY201031GF103991031031004501001001MA1999999101301MD1210021+9999MW1011REMSYN072AAXX  06154 01098 41486 30101 10082 20024 30130 40148 52002 70110 83300;
0220010980999992000090618004+70360+031090FM-12+001599999V0200601N000512200019N0600001N1+00601+00241101531ADDAA199000091AY111061AY201061GF104991041031004501001001KA1120M+00901MA1999999101351MD1210051+9999MW1031REMSYN088AAXX  06184 01098 31486 40601 10060 20024 30135 40153 52005 70310 84300 333 10090 91104;EQDQ01  00002PRCP99
0161010980999992000090621004+70360+031090FM-12+001599999V0209999C000012200019N0600001N1+00481+00431101541ADDAY111031AY201031GF103991021081004501041001MA1999999101361MD1210011+9999MW1021REMSYN072AAXX  06214 01098 41486 30000 10048 20043 30136 40154 52001 70210 82840;
0201010980999992000090700004+70360+031090FM-12+001599999V0201401N001012200019N0550001N1+00681+00381101521ADDAA199000091AY111061AY201061GF103991031081004501001001MA1999999101341MD1010021+9999MW1021REMSYN082AAXX  07004 01098 31485 31402 10068 20038 30134 40152 50002 70210 83800 333 91103;EQDQ01  00002PRCP99
0161010980999992000090703004+70360+031090FM-12+001599999V0201401N001010090019N0550001N1+00701+00561101491ADDAY121031AY201031GF106991061081004501001001MA1999999101311MD1810031+9999MW1031REMSYN072AAXX  07034 01098 41485 61402 10070 20056 30131 40149 58003 70320 86800;
0220010980999992000090706004+70360+031090FM-12+001599999V0201901N001010090019N0550001N1+00801+00651101541ADDAA199000091AY121061AY201061GF107991071081004501001001KA1120N+00421MA1999999101361MD1310051+9999MW1021REMSYN088AAXX  07064 01098 31485 71902 10080 20065 30136 40154 53005 70220 87800 333 20042 91105;EQDQ01  00002PRCP99
0161010980999992000090709004+70360+031090FM-12+001599999V0201601N002112200019N0750001N1+01021+00601101551ADDAY101031AY201031GF101991011001999999031091MA1999999101371MD1210011+9999MW1021REMSYN072AAXX  07094 01098 41989 11604 10102 20060 30137 40155 52001 70200 81039;
0201010980999992000090712004+70360+031090FM-12+001599999V0201901N002612200019N0550001N1+01161+00581101571ADDAA199000091AY101061AY201061GF101991011021004501001081MA1999999101391MD1010021+9999MW1021REMSYN082AAXX  07124 01098 31485 11905 10116 20058 30139 40157 50002 70200 81208 333 91106;EQDQ01  00002PRCP99
0161010980999992000090715004+70360+031090FM-12+001599999V0201901N002612200019N0750001N1+01101+00371101571ADDAY101031AY201031GF101991011011004501001001MA1999999101391MD1410001+9999MW1021REMSYN072AAXX  07154 01098 41489 11905 10110 20037 30139 40157 54000 70200 81100;
0220010980999992000090718004+70360+031090FM-12+001599999V0201601N001512200019N0750001N1+00861+00711101571ADDAA199000091AY101061AY201061GF101991011001022501041001KA1120M+01161MA1999999101391MD1410001+9999MW1021REMSYN088AAXX  07184 01098 31889 11603 10086 20071 30139 40157 54000 70200 81040 333 10116 91108;EQDQ01  00002PRCP99
0161010980999992000090721004+70360+031090FM-12+001599999V0201601N001012200019N0750001N1+00701+00571101531ADDAY101031AY201031GF101991011001022501041001MA1999999101351MD1810041+9999MW1021REMSYN072AAXX  07214 01098 41889 11602 10070 20057 30135 40153 58004 70200 81040;
0201010980999992000090800004+70360+031090FM-12+001599999V0201901N002112200019N0750001N1+00701+00531101481ADDAA199000091AY101061AY201061GF101991011001022501041001MA1999999101301MD1710051+9999MW1021REMSYN082AAXX  08004 01098 31889 11904 10070 20053 30130 40148 57005 70200 81040 333 91106;EQDQ01  00002PRCP99
0171010980999992000090803004+70360+031090FM-12+001599999V0201801N002612200019N0600001N1+00661+00431101391ADDAY101031AY201031GA1001+999999999GF100991001001999999001001MA1999999101211MD1710091+9999MW1011REMSYN066AAXX  08034 01098 41986 01805 10066 20043 30121 40139 57009 70100;
0230010980999992000090806004+70360+031090FM-12+001599999V0201601N003612200019N0600001N1+00901+00411101251ADDAA199000091AY101061AY201061GA1001+999999999GF100991001001999999001001KA1120N+00651MA1999999101071MD1710141+9999MW1021REMSYN082AAXX  08064 01098 31986 01607 10090 20041 30107 40125 57014 70200 333 20065 91110;EQDQ01  00002PRCP99
0161010980999992000090809004+70360+031090FM-12+001599999V0201501N004112200019N0550001N1+00961+00481101071ADDAY101031AY201031GF101991011021004501041081MA1999999100891MD1710181+9999MW1021REMSYN072AAXX  08094 01098 41485 11508 10096 20048 30089 40107 57018 70200 81248;
0201010980999992000090812004+70360+031090FM-12+001599999V0201401N004612200019N0550001N1+01081+00661100891ADDAA199000091AY101061AY201061GF101991011041004501041081MA1999999100711MD1710181+9999MW1021REMSYN082AAXX  08124 01098 31485 11409 10108 20066 30071 40089 57018 70200 81448 333 91112;EQDQ01  00002PRCP99
0161010980999992000090815004+70360+031090FM-12+001599999V0201501N003112200019N0550001N1+01031+00711100751ADDAY111031AY201031GF104991021041004501031051MA1999999100571MD1710141+9999MW1031REMSYN072AAXX  08154 01098 41485 41506 10103 20071 30057 40075 57014 70310 82435;
0220010980999992000090818004+70360+031090FM-12+001599999V0201401N003610240019N0550001N1+00991+00721100631ADDAA199000091AY111061AY201061GF106991031051004501031081KA1120M+01111MA1999999100451MD1710121+9999MW1031REMSYN088AAXX  08184 01098 31485 61407 10099 20072 30045 40063 57012 70310 83538 333 10111 91111;EQDQ01  00002PRCP99
0161010980999992000090821004+70360+031090FM-12+001599999V0201501N003610090019N0550001N1+00901+00641100571ADDAY121031AY221031GF107991071081004501001001MA1999999100391MD1610061+9999MW1021REMSYN072AAXX  08214 01098 41485 71507 10090 20064 30039 40057 56006 70222 87800;
0201010980999992000090900004+70360+031090FM-12+001599999V0201401N004110240019N0550001N1+00881+00621100381ADDAA199000091AY121061AY221061GF105991031081004501041001MA1999999100171MD1810221+9999MW1021REMSYN082AAXX  09004 01098 31485 51408 10088 20062 30017 40038 58022 70222 83840 333 91113;EQDQ01  00002PRCP99
0161010980999992000090903004+70360+031090FM-12+001599999V0201401N004110240019N0550001N1+00891+00721100191ADDAY121031AY221031GF107991041051004501071001MA1999999100011MD1710161+9999MW1021REMSYN072AAXX  09034 01098 41485 71408 10089 20072 30001 40019 57016 70222 84570;
0220010980999992000090906004+70360+031090FM-12+001599999V0201401N003110240019N0550001N1+00911+00791100101ADDAA199000091AY121061AY221061GF107991031071004501071001KA1120N+00881MA1999999099921MD1610091+9999MW1021REMSYN088AAXX  09064 01098 31485 71406 10091 20079 39992 40010 56009 70222 83770 333 20088 91112;EQDQ01  00002PRCP99
0161010980999992000090909004+70360+031090FM-12+001599999V0201401N003110042019N0300001N1+00901+00781100021ADDAY151031AY221031GF108991051071004501021999MA1999999099841MD1710081+9999MW1501REMSYN072AAXX  09094 01098 41480 81406 10090 20078 39984 40002 57008 75052 8572/;
0188010980999992000090912004+70360+031090FM-12+001599999V0201201N002110042019N0550001N1+00941+00831099881ADDAA106000791AY151061AY221061GF108991061071004501071999MA1999999099701MD1710141+9999MW1021REMSYN088AAXX  09124 01098 11485 81204 10094 20083 39970 49988 57014 69901 70252 8677/ 333 91109;
0161010980999992000090915004+70360+031090FM-12+001599999V0201201N001510042019N0550001N1+00911+00851099781ADDAY151031AY221031GF108991051071004501061999MA1999999099601MD1710101+9999MW1021REMSYN072AAXX  09154 01098 41485 81203 10091 20085 39960 49978 57010 70252 8576/;
0207010980999992000090918004+70360+031090FM-12+001599999V0202001N000510042019N0550001N1+00821+00761099711ADDAA112000791AY151061AY221061GF108991051071004501061001KA1120M+00991MA1999999099531MD1710071+9999MW1021REMSYN094AAXX  09184 01098 11485 82001 10082 20076 39953 49971 57007 69902 70252 85760 333 10099 91107;
0161010980999992000090921004+70360+031090FM-12+001599999V0201301N000510042019N0550001N1+00831+00771099651ADDAY121031AY221031GF108991081071004501001001MA1999999099471MD1710071+9999MW1021REMSYN072AAXX  09214 01098 41485 81301 10083 20077 39947 49965 57007 70222 88700;
0188010980999992000091000004+70360+031090FM-12+001599999V0202001N001510042019N0550001N1+00781+00711099611ADDAA106000191AY151061AY221061GF107991061071004501061001MA1999999099431MD1710041+9999MW1021REMSYN088AAXX  10004 01098 11485 72003 10078 20071 39943 49961 57004 69911 70252 86760 333 91105;
0161010980999992000091003004+70360+031090FM-12+001599999V0201601N001510021019N0550001N1+00831+00771099591ADDAY151031AY221031GF108991081071002501999999MA1999999099411MD1710021+9999MW1021REMSYN072AAXX  10034 01098 41385 81603 10083 20077 39941 49959 57002 70252 887//;
0207010980999992000091006004+70360+031090FM-12+001599999V0201801N001510240019N0550001N1+00921+00861099591ADDAA112000191AY151061AY221061GF105991041051004501061081KA1120N+00771MA1999999099411MD1410001+9999MW1011REMSYN094AAXX  10064 01098 11485 51803 10092 20086 39941 49959 54000 69912 70152 84568 333 20077 91105;
0161010980999992000091009004+70360+031090FM-12+001599999V0201401N001512200019N0550001N1+01051+00981099591ADDAY101031AY201031GF103991011031004501071021MA1999999099411MD1410001+9999MW1011REMSYN072AAXX  10094 01098 41485 31403 10105 20098 39941 49959 54000 70100 81372;
0180010980999992000091012004+70360+031090FM-12+001599999V0201401N001012200019N0550001N1+01061+00951099671ADDAA199000091AY101061AY201061GF103991011031004501021081MD1310081+9999MW1021REMSYN076AAXX  10124 01098 31485 31402 10106 20095 49967 53008 70200 81328 333 91105;EQDQ01  00002PRCP99
0161010980999992000091015004+70360+031090FM-12+001599999V0202001N000512200019N0550001N1+01081+00921099731ADDAY101031AY201031GF102991011011004501021001MA1999999099551MD1210061+9999MW1011REMSYN072AAXX  10154 01098 41485 22001 10108 20092 39955 49973 52006 70100 81120;
0220010980999992000091018004+70360+031090FM-12+001599999V0202501N000512200019N0550001N1+00711+00591099791ADDAA199000091AY111061AY201061GF104991031081004501021001KA1120M+01101MA1999999099611MD1210061+9999MW1031REMSYN088AAXX  10184 01098 31485 42501 10071 20059 39961 49979 52006 70310 83820 333 10110 91104;EQDQ01  00002PRCP99
0161010980999992000091021004+70360+031090FM-12+001599999V0200301N000512200019N0550001N1+00771+00681099791ADDAY111031AY201031GF104991041081004501001001MA1999999099611MD1410001+9999MW1021REMSYN072AAXX  10214 01098 41485 40301 10077 20068 39961 49979 54000 70210 84800;
0201010980999992000091100004+70360+031090FM-12+001599999V0201001N001010090019N0200001N1+00821+00761099841ADDAA199000091AY121061AY221061GF108991081081004501999999MA1999999099661MD1210051+9999MW1031REMSYN082AAXX  11004 01098 31470 81002 10082 20076 39966 49984 52005 70322 888// 333 91105;EQDQ01  00002PRCP99
0161010980999992000091103004+70360+031090FM-12+001599999V0200901N001010090019N0100001N1+00821+00761099921ADDAY151031AY221031GF108991081081004501999999MA1999999099741MD1210081+9999MW1501REMSYN072AAXX  11034 01098 41460 80902 10082 20076 39974 49992 52008 75052 888//;
0207010980999992000091106004+70360+031090FM-12+001599999V0200401N000510090019N0200001N1+00901+00841100001ADDAA112000191AY151061AY221061GF108991081081004501999999KA1120N+00681MA1999999099981MD1210081+9999MW1021REMSYN094AAXX  11064 01098 11470 80401 10090 20084 39998 40000 52008 69912 70252 888// 333 20068 91105;
0161010980999992000091109004+70360+031090FM-12+001599999V0200801N001510006019N0045001N1+00881+00821100131ADDAY161031AY221031GF108991071061000751021999MA1999999099951MD1210131+9999MW1611REMSYN072AAXX  11094 01098 41145 80803 10088 20082 39995 40013 52013 76162 8762/;
0188010980999992000091112004+70360+031090FM-12+001599999V0200701N001510012019N0150001N1+00891+00831100301ADDAA106000591AY161061AY221061GF108991061061001501021999MA1999999100121MD1210171+9999MW1601REMSYN088AAXX  11124 01098 11265 80703 10089 20083 30012 40030 52017 69961 76062 8662/ 333 91106;
0161010980999992000091115004+70360+031090FM-12+001599999V0200701N001510240019N0150001N1+00841+00731100401ADDAY161031AY221031GF108991041071001501021999MA1999999100221MD1210101+9999MW1601REMSYN072AAXX  11154 01098 41265 80703 10084 20073 30022 40040 52010 76062 8472/;
0207010980999992000091118004+70360+031090FM-12+001599999V0200601N002110240019N0150001N1+00821+00751100481ADDAA112001091AY161061AY221061GF108991041071001501021999KA1120M+00921MA1999999100301MD1210081+9999MW1601REMSYN094AAXX  11184 01098 11265 80604 10082 20075 30030 40048 52008 60012 76062 8472/ 333 10092 91108;
0161010980999992000091121004+70360+031090FM-12+001599999V0200301N001010240019N0300001N1+00811+00731100531ADDAY161031AY221031GF105991031071004501041999MA1999999100351MD1110051+9999MW1021REMSYN072AAXX  11214 01098 41480 50302 10081 20073 30035 40053 51005 70262 8374/;
0188010980999992000091200004+70360+031090FM-12+001599999V0203601N001510240019N0300001N1+00811+00731100601ADDAA106000191AY161061AY221061GF107991041081004501041001MA1999999100421MD1210081+9999MW1021REMSYN088AAXX  12004 01098 11480 73603 10081 20073 30042 40060 52008 69911 70262 84840 333 91106;
0161010980999992000091203004+70360+031090FM-12+001599999V0203601N001510042019N0300001N1+00801+00741100661ADDAY161031AY221031GF108991081071004501001001MA1999999100481MD1210061+9999MW1021REMSYN072AAXX  12034 01098 41480 83603 10080 20074 30048 40066 52006 70262 88700;
0161010980999992000091209004+70360+031090FM-12+001599999V0203201N001510240019N0550001N1+00891+00831100831ADDAY161031AY221031GF105991041081004501061001MA1999999100651MD1210091+9999MW1021REMSYN072AAXX  12094 01098 41485 53203 10089 20083 30065 40083 52009 70262 84860;
0188010980999992000091212004+70360+031090FM-12+001599999V0203101N002110240019N0550001N1+00921+00801100981ADDAA106000791AY161061AY221061GF105991031081004501051091MA1999999100801MD1210151+9999MW1021REMSYN088AAXX  12124 01098 11485 53104 10092 20080 30080 40098 52015 69901 70262 83859 333 91107;
0161010980999992000091215004+70360+031090FM-12+001599999V0203101N002112200019N0550001N1+00881+00591101101ADDAY121031AY211031GF104991021081004501051091MA1999999100921MD1210111+9999MW1021REMSYN072AAXX  12154 01098 41485 43104 10088 20059 30092 40110 52011 70221 82859;
0207010980999992000091218004+70360+031090FM-12+001599999V0200601N001510021019N0050001N1+00841+00731101221ADDAA112000191AY161061AY211061GF108991071071002501021001KA1120M+00991MA1999999101041MD1210121+9999MW1601REMSYN094AAXX  12184 01098 11350 80603 10084 20073 30104 40122 52012 69912 76061 87720 333 10099 91107;
0161010980999992000091221004+70360+031090FM-12+001599999V0200601N000510240019N0100001N1+00681+00421101411ADDAY161031AY221031GF108991041071002501021999MA1999999101231MD1210191+9999MW1601REMSYN072AAXX  12214 01098 41360 80601 10068 20042 30123 40141 52019 76062 8472/;
0188010980999992000091300004+70360+031090FM-12+001599999V0200101N001510240019N0600001N1+00731+00471101571ADDAA106000891AY161061AY221061GF108991041071002501021999MA1999999101391MD1210161+9999MW1021REMSYN088AAXX  13004 01098 11386 80103 10073 20047 30139 40157 52016 69981 70262 8472/ 333 91106;
0161010980999992000091303004+70360+031090FM-12+001599999V0200101N002612200019N0600001N1+00651+00291101681ADDAY121031AY211031GF104991031021004501001041MA1999999101501MD1210111+9999MW1011REMSYN072AAXX  13034 01098 41486 40105 10065 20029 30150 40168 52011 70121 83204;
0207010980999992000091306004+70360+031090FM-12+001599999V0200101N001512200019N0600001N1+00721+00451101791ADDAA106000891AY121061AY211061GF105991031021004501001041KA1120N+00651MA1999999101611MD1210111+9999MW1031REMSYN094AAXX  13064 01098 11486 50103 10072 20045 30161 40179 52011 69981 70321 83204 333 20065 91108;
0161010980999992000091309004+70360+031090FM-12+001599999V0203401N001010240019N0750001N1+00781+00441101931ADDAY121031AY221031GF107991031081004501051011MA1999999101751MD1210141+9999MW1021REMSYN072AAXX  13094 01098 41489 73402 10078 20044 30175 40193 52014 70222 83851;
0188010980999992000091312004+70360+031090FM-12+001599999V0203101N001510240019N0750001N1+00841+00531102031ADDAA106000191AY181061AY221061GF107991041081004501051001MA1999999101851MD1210101+9999MW1251REMSYN088AAXX  13124 01098 11489 73103 10084 20053 30185 40203 52010 69911 72582 84850 333 91105;
0161010980999992000091315004+70360+031090FM-12+001599999V0203201N003110021019N0048001N1+00671+00601102051ADDAY181031AY221031GF107991071091002501001001MA1999999101871MD1210021+9999MW1811REMSYN072AAXX  13154 01098 41348 73206 10067 20060 30187 40205 52002 78182 87900;
0207010980999992000091318004+70360+031090FM-12+001599999V0203001N003610090019N0750001N1+00611+00471102141ADDAA112000591AY181061AY221061GF105991051081004501001001KA1120M+00841MA1999999101961MD1210091+9999MW1021REMSYN094AAXX  13184 01098 11489 53007 10061 20047 30196 40214 52009 69952 70282 85800 333 10084 91111;
0161010980999992000091321004+70360+031090FM-12+001599999V0203101N002610240019N0550001N1+00521+00341102201ADDAY121031AY221031GF105991041081004501021001MA1999999102021MD1210061+9999MW1021REMSYN072AAXX  13214 01098 41485 53105 10052 20034 30202 40220 52006 70222 84820;
0188010980999992000091400004+70360+031090FM-12+001599999V0203301N002110090019N0550001N1+00541+00211102241ADDAA106000791AY121061AY221061GF105991051081004501001001MA1999999102061MD1110041+9999MW1021REMSYN088AAXX  14004 01098 11485 53304 10054 20021 30206 40224 51004 69901 70222 85800 333 91112;
0161010980999992000091403004+70360+031090FM-12+001599999V0203501N002112200019N0550001N1+00521+00221102241ADDAY121031AY211031GF103991031081004501001001MA1999999102061MD1410001+9999MW1021REMSYN072AAXX  14034 01098 41485 33504 10052 20022 30206 40224 54000 70221 83800;
0207010980999992000091406004+70360+031090FM-12+001599999V0203301N001012200019N0550001N1+00581+00231102311ADDAA112000791AY121061AY211061GF103991031081004501001001KA1120N+00461MA1999999102131MD1310071+9999MW1021REMSYN094AAXX  14064 01098 11485 33302 10058 20023 30213 40231 53007 69902 70221 83800 333 20046 91107;
0161010980999992000091409004+70360+031090FM-12+001599999V0203101N001510090019N0750001N1+00691+00301102351ADDAY121031AY211031GF107991071081004501001001MA1999999102171MD1210061+9999MW1021REMSYN072AAXX  14094 01098 41489 73103 10069 20030 30217 40235 52006 70221 87800;
0201010980999992000091412004+70360+031090FM-12+001599999V0203201N001010090019N0750001N1+00631+00361102371ADDAA199000091AY121061AY211061GF107991061081004501051001MA1999999102191MD1010021+9999MW1021REMSYN082AAXX  14124 01098 31489 73202 10063 20036 30219 40237 50002 70221 86850 333 91105;EQDQ01  00002PRCP99
0161010980999992000091415004+70360+031090FM-12+001599999V0201601N001010090019N0550001N1+00591+00421102331ADDAY121031AY221031GF108991081081004501999999MA1999999102151MD1710041+9999MW1021REMSYN072AAXX  14154 01098 41485 81602 10059 20042 30215 40233 57004 70222 888//;
0220010980999992000091418004+70360+031090FM-12+001599999V0201601N001010042019N0550001N1+00641+00271102321ADDAA199000091AY121061AY221061GF107991061051004501031001KA1120M+00741MA1999999102141MD1710011+9999MW1011REMSYN088AAXX  14184 01098 31485 71602 10064 20027 30214 40232 57001 70122 86530 333 10074 91104;EQDQ01  00002PRCP99
0161010980999992000091421004+70360+031090FM-12+001599999V0201701N001512200019N0750001N1+00501+00241102291ADDAY111031AY201031GF103991021011004501031001MA1999999102111MD1710031+9999MW1011REMSYN072AAXX  14214 01098 41489 31703 10050 20024 30211 40229 57003 70110 82130;
0201010980999992000091500004+70360+031090FM-12+001599999V0202101N002112200019N0750001N1+00511+00311102181ADDAA199000091AY111061AY201061GF101991011011004501001001MA1999999102001MD1710111+9999MW1021REMSYN082AAXX  15004 01098 31489 12104 10051 20031 30200 40218 57011 70210 81100 333 91106;EQDQ01  00002PRCP99
0161010980999992000091503004+70360+031090FM-12+001599999V0201801N003112200019N0750001N1+00521+00401102081ADDAY101031AY201031GF101991011001022501001041MA1999999101901MD1710101+9999MW1021REMSYN072AAXX  15034 01098 41889 11806 10052 20040 30190 40208 57010 70200 81004;
0220010980999992000091506004+70360+031090FM-12+001599999V0201801N003112200019N0750001N1+00571+00471101991ADDAA199000091AY101061AY201061GF101991011011004501001051KA1120N+00471MA1999999101811MD1710091+9999MW1021REMSYN088AAXX  15064 01098 31489 11806 10057 20047 30181 40199 57009 70200 81105 333 20047 91109;EQDQ01  00002PRCP99
0161010980999992000091509004+70360+031090FM-12+001599999V0201801N004112200019N0600001N1+00741+00551101881ADDAY101031AY201031GF101991011011004501001081MA1999999101701MD1710111+9999MW1021REMSYN072AAXX  15094 01098 41486 11808 10074 20055 30170 40188 57011 70200 81108;
0201010980999992000091512004+70360+031090FM-12+001599999V0201701N003112200019N0550001N1+01011+00591101751ADDAA199000091AY101061AY201061GF102991011011004501001091MA1999999101571MD1710131+9999MW1021REMSYN082AAXX  15124 01098 31485 21706 10101 20059 30157 40175 57013 70200 81109 333 91111;EQDQ01  00002PRCP99
0161010980999992000091515004+70360+031090FM-12+001599999V0201501N002612200019N0600001N1+00981+00691101591ADDAY101031AY201031GF103991021041004501031091MA1999999101411MD1710161+9999MW1021REMSYN072AAXX  15154 01098 41486 31505 10098 20069 30141 40159 57016 70200 82439;
0220010980999992000091518004+70360+031090FM-12+001599999V0201801N005112200019N0550001N1+00941+00581101441ADDAA199000091AY101061AY201061GF103991011041008001071001KA1120M+01051MA1999999101261MD1710151+9999MW1021REMSYN088AAXX  15184 01098 31585 31810 10094 20058 30126 40144 57015 70200 81470 333 10105 91113;EQDQ01  00002PRCP99
0161010980999992000091521004+70360+031090FM-12+001599999V0201901N005712200019N0750001N1+00931+00491101281ADDAY101031AY201031GF102991011001008001071081MA1999999101101MD1710161+9999MW1021REMSYN072AAXX  15214 01098 41589 21911 10093 20049 30110 40128 57016 70200 81078;
0201010980999992000091600004+70360+031090FM-12+001599999V0202101N002619999999N0550001N1+00881+00691101221ADDAA199000091AY121061AY211061GF108991071001004501071081MA1999999101021MD1710061+9999MW1031REMSYN082AAXX  16004 01098 31485 82105 10088 20069 30102 40122 57006 70321 87078 333 91116;EQDQ01  00002PRCP99
0161010980999992000091603004+70360+031090FM-12+001599999V0201901N004110240019N0550001N1+00781+00641100971ADDAY121031AY211031GF108991031051004501071001MA1999999100791MD1810231+9999MW1021REMSYN072AAXX  16034 01098 41485 81908 10078 20064 30079 40097 58023 70221 83570;
0220010980999992000091606004+70360+031090FM-12+001599999V0201901N003610042019N0550001N1+00761+00611100851ADDAA199000091AY121061AY221061GF108991061051004501071999KA1120N+00761MA1999999100671MD1710121+9999MW1021REMSYN088AAXX  16064 01098 31485 81907 10076 20061 30067 40085 57012 70222 8657/ 333 20076 91116;EQDQ01  00002PRCP99
0161010980999992000091609004+70360+031090FM-12+001599999V0201901N005710240019N0550001N1+00811+00561100661ADDAY121031AY221031GF108991031051004501071999MA1999999100481MD1710191+9999MW1021REMSYN072AAXX  16094 01098 41485 81911 10081 20056 30048 40066 57019 70222 8357/;
0201010980999992000091612004+70360+031090FM-12+001599999V0202001N005710240019N0550001N1+01071+00701100501ADDAA199000091AY121061AY221061GF106991031011002501041001MA1999999100321MD1710161+9999MW1011REMSYN082AAXX  16124 01098 31385 62011 10107 20070 30032 40050 57016 70122 83140 333 91121;EQDQ01  00002PRCP99
0161010980999992000091615004+70360+031090FM-12+001599999V0202001N006710240019N0750001N1+01061+00721100341ADDAY121031AY221031GF107991011011004501041001MA1999999100161MD1710161+9999MW1021REMSYN072AAXX  16154 01098 41489 72013 10106 20072 30016 40034 57016 70222 81140;
0220010980999992000091618004+70360+031090FM-12+001599999V0202101N005719999999N0750001N1+01051+00791100301ADDAA199000091AY121061AY221061GF106991061001999999041001KA1120M+01121MA1999999100121MD1610041+9999MW1021REMSYN088AAXX  16184 01098 31989 62111 10105 20079 30012 40030 56004 70222 86040 333 10112 91118;EQDQ01  00002PRCP99
0161010980999992000091621004+70360+031090FM-12+001599999V0202101N005119999999N0750001N1+01001+00791100271ADDAY121031AY221031GF107991071001999999041001MA1999999100091MD1710031+9999MW1021REMSYN072AAXX  16214 01098 41989 72110 10100 20079 30009 40027 57003 70222 87040;
0201010980999992000091700004+70360+031090FM-12+001599999V0202001N005112200019N0550001N1+00981+00821100201ADDAA199000091AY121061AY211061GF104991041001999999041001MA1999999100021MD1710071+9999MW1011REMSYN082AAXX  17004 01098 31985 42010 10098 20082 30002 40020 57007 70121 84040 333 91115;EQDQ01  00002PRCP99
0180010980999992000091703004+70360+031090FM-12+001599999V0202201N003610240019N0550001N1+00891+00811100201ADDAY121031AY211031GF106991031051004501071001MA1999999100021MD1410001+9999MW1031REMSYN072AAXX  17034 01098 41485 62207 10089 20081 30002 40020 56000 70321 83570;EQDQ01+000062APCTEN
0220010980999992000091706004+70360+031090FM-12+001599999V0202101N003119999999N0750001N1+00911+00831100241ADDAA199000091AY121061AY221061GF105991031001004501071091KA1120N+00851MA1999999100061MD1310041+9999MW1021REMSYN088AAXX  17064 01098 31489 52106 10091 20083 30006 40024 53004 70222 83079 333 20085 91113;EQDQ01  00002PRCP99
0161010980999992000091709004+70360+031090FM-12+001599999V0200101N000510240019N0750001N1+01041+00871100191ADDAY121031AY221031GF107991011011008001071001MA1999999100011MD1010051+9999MW1021REMSYN072AAXX  17094 01098 41589 70101 10104 20087 30001 40019 50005 70222 81170;
0201010980999992000091712004+70360+031090FM-12+001599999V0201201N000510240019N0750001N1+01151+00921100281ADDAA199000091AY121061AY221061GF106991011011008001071091MA1999999100101MD1510091+9999MW1021REMSYN082AAXX  17124 01098 31589 61201 10115 20092 30010 40028 55009 70222 81179 333 91108;EQDQ01  00002PRCP99
0161010980999992000091715004+70360+031090FM-12+001599999V0203601N001010090019N0750001N1+00971+00891100391ADDAY121031AY221031GF106991051081004501041001MA1999999100211MD1210111+9999MW1021REMSYN072AAXX  17154 01098 41489 63602 10097 20089 30021 40039 52011 70222 85840;
0207010980999992000091718004+70360+031090FM-12+001599999V0203201N001510090019N0550001N1+00801+00741100571ADDAA112000191AY181061AY221061GF106991051081004501071001KA1120M+01201MA1999999100391MD1310181+9999MW1021REMSYN094AAXX  17184 01098 11485 63203 10080 20074 30039 40057 53018 69922 70282 85870 333 10120 91106;
0161010980999992000091721004+70360+031090FM-12+001599999V0202601N000512200019N0550001N1+00571+00511100711ADDAY121031AY201031GF103991031041004501001001MA1999999100531MD1210141+9999MW1011REMSYN072AAXX  17214 01098 41485 32601 10057 20051 30053 40071 52014 70120 83400;
0201010980999992000091800004+70360+031090FM-12+001599999V0202501N000510240019N0550001N1+00591+00531100791ADDAA199000091AY121061AY221061GF106991021081004501031001MA1999999100611MD1110081+9999MW1021REMSYN082AAXX  18004 01098 31485 62501 10059 20053 30061 40079 51008 70222 82830 333 91105;EQDQ01  00002PRCP99
0161010980999992000091803004+70360+031090FM-12+001599999V0201401N000510240019N0550001N1+00781+00721100831ADDAY121031AY221031GF106991021081004501071001MA1999999100651MD1210041+9999MW1021REMSYN072AAXX  18034 01098 41485 61401 10078 20072 30065 40083 52004 70222 82870;
0207010980999992000091806004+70360+031090FM-12+001599999V0201201N001510240019N0300001N1+00801+00741100871ADDAA112001091AY181061AY221061GF108991031081001501071999KA1120N+00541MA1999999100691MD1210041+9999MW1801REMSYN094AAXX  18064 01098 11280 81203 10080 20074 30069 40087 52004 60012 78082 8387/ 333 20054 91105;
0161010980999992000091809004+70360+031090FM-12+001599999V0201001N001510021019N0080001N1+00811+00751100851ADDAY181031AY261031GF108991051071002501021999MA1999999100671MD1810021+9999MW1611REMSYN072AAXX  18094 01098 41358 81003 10081 20075 30067 40085 58002 76186 8572/;
0188010980999992000091812004+70360+031090FM-12+001599999V0201001N002610012019N0060001N1+00781+00721100771ADDAA106004191AY181061AY261061GF108991071071001501021999MA1999999100591MD1710081+9999MW1611REMSYN088AAXX  18124 01098 11256 81005 10078 20072 30059 40077 57008 60041 76186 8772/ 333 91109;
0161010980999992000091815004+70360+031090FM-12+001599999V0200901N001510240019N0050001N1+00831+00751100661ADDAY161031AY261031GF108991041061000751021999MA1999999100481MD1710111+9999MW1611REMSYN072AAXX  18154 01098 41150 80903 10083 20075 30048 40066 57011 76166 8462/;
0207010980999992000091818004+70360+031090FM-12+001599999V0200301N000510240019N0050001N1+00851+00771100611ADDAA112008991AY161061AY261061GF108991041061000751021999KA1120M+00871MA1999999100431MD1710051+9999MW1611REMSYN094AAXX  18184 01098 11150 80301 10085 20077 30043 40061 57005 60092 76166 8462/ 333 10087 91109;
0161010980999992000091821004+70360+031090FM-12+001599999V0202901N001010240019N0050001N1+00821+00761100641ADDAY161031AY261031GF108991041061000751021999MA1999999100461MD1310031+9999MW1611REMSYN072AAXX  18214 01098 41150 82902 10082 20076 30046 40064 53003 76166 8462/;
0188010980999992000091900004+70360+031090FM-12+001599999V0203001N001010240019N0050001N1+00821+00761100701ADDAA106000191AY161061AY221061GF108991041061000751021999MA1999999100521MD1210061+9999MW1101REMSYN088AAXX  19004 01098 11150 83002 10082 20076 30052 40070 52006 69911 71062 8462/ 333 91103;
0161010980999992000091903004+70360+031090FM-12+001599999V0202801N001510240019N0550001N1+00851+00791100821ADDAY161031AY221031GF106991041071004501041001MA1999999100641MD1210121+9999MW1011REMSYN072AAXX  19034 01098 41485 62803 10085 20079 30064 40082 52012 70162 84740;
0207010980999992000091906004+70360+031090FM-12+001599999V0203501N001010240019N0600001N1+00921+00561100871ADDAA112000191AY161061AY221061GF106991041081004501041081KA1120N+00781MA1999999100691MD1210051+9999MW1021REMSYN094AAXX  19064 01098 11486 63502 10092 20056 30069 40087 52005 69922 70262 84848 333 20078 91111;
0161010980999992000091909004+70360+031090FM-12+001599999V0203001N004110021019N0600001N1+00761+00651100991ADDAY121031AY221031GF107991071061002501001001MA1999999100811MD1210121+9999MW1021REMSYN072AAXX  19094 01098 41386 73008 10076 20065 30081 40099 52012 70222 87600;
0164010980999992000091912004+70360+031090FM-12+001599999V0203001N002619999999N0300001N1+00671+00571999999ADDAA199000091GF108991999999001501999999MA1999999100891REMSYN081AAXX  19124 01098 31280 83005 10067 20057 30089 4010 51008 70222 886// 333 91113;EQDQ01  00002PRCP99
0161010980999992000091915004+70360+031090FM-12+001599999V0203201N003610012019N0050001N1+00531+00461101131ADDAY161031AY221031GF108991081061001501999999MA1999999100951MD1210061+9999MW1101REMSYN072AAXX  19154 01098 41250 83207 10053 20046 30095 40113 52006 71062 886//;
0207010980999992000091918004+70360+031090FM-12+001599999V0203201N005112200019N0300001N1+00521+00261101391ADDAA106003091AY161061AY221061GF104991041071002501001001KA1120M+00951MA1999999101211MD1210261+9999MW1011REMSYN094AAXX  19184 01098 11380 43210 10052 20026 30121 40139 52026 60031 70162 84700 333 10095 91114;
0161010980999992000091921004+70360+031090FM-12+001599999V0200101N005710090019N0750001N1+00521+00191101841ADDAY181031AY221031GF106991061081004501001001MA1999999101661MD1210451+9999MW1021REMSYN072AAXX  19214 01098 41489 60111 10052 20019 30166 40184 52045 70282 86800;
0188010980999992000092000004+70360+031090FM-12+001599999V0203501N003610090019N0750001N1+00501-00171102301ADDAA106000191AY181061AY221061GF105991051081004501001001MA1999999102121MD1210461+9999MW1021REMSYN088AAXX  20004 01098 11489 53507 10050 21017 30212 40230 52046 69921 70282 85800 333 91117;
0161010980999992000092003004+70360+031090FM-12+001599999V0203601N003112200019N0750001N1+00401-00241102511ADDAY111031AY201031GF103991031081004501001001MA1999999102331MD1210211+9999MW1021REMSYN072AAXX  20034 01098 41489 33606 10040 21024 30233 40251 52021 70210 83800;
0207010980999992000092006004+70360+031090FM-12+001599999V0200101N001010240019N0750001N1+00441-00221102741ADDAA112000191AY111061AY201061GF106991041081004501051001KA1120N+00371MA1999999102561MD1210231+9999MW1031REMSYN094AAXX  20064 01098 11489 60102 10044 21022 30256 40274 52023 69922 70310 84850 333 20037 91111;
0161010980999992000092009004+70360+031090FM-12+001599999V0201701N000510240019N0750001N1+00481-00231102831ADDAY121031AY221031GF107991021011004501051001MA1999999102651MD1110091+9999MW1021REMSYN072AAXX  20094 01098 41489 71701 10048 21023 30265 40283 51009 70222 82150;
0201010980999992000092012004+70360+031090FM-12+001599999V0201901N002110240019N0600001N1+00531-00011102801ADDAA199000091AY121061AY221061GF107991031041004501051081MA1999999102621MD1810031+9999MW1021REMSYN082AAXX  20124 01098 31486 71904 10053 21001 30262 40280 58003 70222 83458 333 91106;EQDQ01  00002PRCP99
0161010980999992000092015004+70360+031090FM-12+001599999V0201801N003610240019N0600001N1+00581-00021102651ADDAY121031AY221031GF107991011011004501031011MA1999999102471MD1710151+9999MW1021REMSYN072AAXX  20154 01098 41486 71807 10058 21002 30247 40265 57015 70222 81131;
0220010980999992000092018004+70360+031090FM-12+001599999V0201801N003610240019N0600001N1+00621-00191102501ADDAA199000091AY121061AY221061GF107991041051004501031001KA1120M+00621MA1999999102321MD1710151+9999MW1021REMSYN088AAXX  20184 01098 31486 71807 10062 21019 30232 40250 57015 70222 84530 333 10062 91110;EQDQ01  00002PRCP99
0161010980999992000092021004+70360+031090FM-12+001599999V0202001N003112200019N0600001N1+00521-00191102401ADDAY121031AY211031GF103991021011004501031001MA1999999102221MD1710101+9999MW1011REMSYN072AAXX  20214 01098 41486 32006 10052 21019 30222 40240 57010 70121 82130;
0201010980999992000092100004+70360+031090FM-12+001599999V0202001N003112200019N0600001N1+00571+00421102271ADDAA199000091AY121061AY211061GF103991011021004501031001MA1999999102091MD1710131+9999MW1021REMSYN082AAXX  21004 01098 31486 32006 10057 20042 30209 40227 57013 70221 81230 333 91110;EQDQ01  00002PRCP99
0161010980999992000092103004+70360+031090FM-12+001599999V0202001N000512200019N0600001N1+00561+00411102221ADDAY121031AY211031GF104991041081004501001001MA1999999102041MD1710051+9999MW1021REMSYN072AAXX  21034 01098 41486 42001 10056 20041 30204 40222 57005 70221 84800;
0207010980999992000092106004+70360+031090FM-12+001599999V0202101N001010240019N0300001N1+00741+00671102231ADDAA112000191AY161061AY221061GF108991041061004501071001KA1120N+00531MA1999999102051MD1210011+9999MW1601REMSYN094AAXX  21064 01098 11480 82102 10074 20067 30205 40223 52001 69912 76062 84670 333 20053 91108;
0161010980999992000092109004+70360+031090FM-12+001599999V0202801N001510090019N0550001N1+00901+00751102291ADDAY151031AY221031GF107991071081004501001001MA1999999102111MD1310061+9999MW1021REMSYN072AAXX  21094 01098 41485 72803 10090 20075 30211 40229 53006 70252 87800;
0188010980999992000092112004+70360+031090FM-12+001599999V0202901N004612200019N0750001N1+00991+00551102311ADDAA106000791AY151061AY221061GF103991021051004501001091MA1999999102131MD1210021+9999MW1021REMSYN088AAXX  21124 01098 11489 32909 10099 20055 30213 40231 52002 69901 70252 82509 333 91113;
0161010980999992000092115004+70360+031090FM-12+001599999V0203201N001510240019N0550001N1+00831+00751102381ADDAY121031AY221031GF107991031071004501071001MA1999999102201MD1210071+9999MW1031REMSYN072AAXX  21154 01098 41485 73203 10083 20075 30220 40238 52007 70322 83770;
0207010980999992000092118004+70360+031090FM-12+001599999V0202301N001010240019N0550001N1+00761+00701102351ADDAA112000791AY121061AY221061GF107991031081004501071001KA1120M+01021MA1999999102171MD1810031+9999MW1021REMSYN094AAXX  21184 01098 11485 72302 10076 20070 30217 40235 58003 69902 70222 83870 333 10102 91112;
0161010980999992000092121004+70360+031090FM-12+001599999V0202801N001510240019N0550001N1+00991+00701102341ADDAY121031AY221031GF107991031051004501031001MA1999999102161MD1710011+9999MW1021REMSYN072AAXX  21214 01098 41485 72803 10099 20070 30216 40234 57001 70222 83530;
0201010980999992000092200004+70360+031090FM-12+001599999V0202401N002112200019N0750001N1+00991+00821102391ADDAA199000091AY111061AY211061GF103991011011004501031001MA1999999102211MD1310051+9999MW1011REMSYN082AAXX  22004 01098 31489 32404 10099 20082 30221 40239 53005 70111 81130 333 91106;EQDQ01  00002PRCP99
0161010980999992000092203004+70360+031090FM-12+001599999V0202701N001510150019N0750001N1+00961+00791102401ADDAY111031AY211031GF107991071001017501031001MA1999999102221MD1210011+9999MW1021REMSYN072AAXX  22034 01098 41789 72703 10096 20079 30222 40240 52001 70211 87030;
0220010980999992000092206004+70360+031090FM-12+001599999V0201201N000510240019N0750001N1+01041+00761102451ADDAA199000091AY111061AY211061GF106991011011012501031011KA1120N+00661MA1999999102271MD1210051+9999MW1021REMSYN088AAXX  22064 01098 31689 61201 10104 20076 30227 40245 52005 70211 81131 333 20066 91107;EQDQ01  00002PRCP99
0161010980999992000092209004+70360+031090FM-12+001599999V0201801N000512200019N0600001N1+01211+00881102571ADDAY111031AY201031GF103991011011004501041091MA1999999102401MD1210131+9999MW1021REMSYN072AAXX  22094 01098 41486 31801 10121 20088 30240 40257 52013 70210 81149;
0201010980999992000092212004+70360+031090FM-12+001599999V0203601N001012200019N0600001N1+01081+00921102661ADDAA199000091AY111061AY201061GF104991011041004501041091MA1999999102481MD1210081+9999MW1021REMSYN082AAXX  22124 01098 31486 43602 10108 20092 30248 40266 52008 70210 81449 333 91104;EQDQ01  00002PRCP99
0171010980999992000092215004+70360+031090FM-12+001599999V0200601N000510001519N0000001N1+00701+00661102711ADDAY141031AY201031GA1091+999999999GF109991091999999999999999MA1999999102531MD1210051+9999MW1451REMSYN066AAXX  22154 01098 41/00 90601 10070 20066 30253 40271 52005 74540;
0230010980999992000092218004+70360+031090FM-12+001599999V0201501N001010001519N0000001N1+00601+00541102651ADDAA199000091AY141061AY201061GA1091+999999999GF109991091999999999999999KA1120M+01231MA1999999102471MD1810061+9999MW1451REMSYN082AAXX  22184 01098 31/00 91502 10060 20054 30247 40265 58006 74540 333 10123 91103;EQDQ01  00002PRCP99
0171010980999992000092221004+70360+031090FM-12+001599999V0201501N001510003019N0004001N1+00591+00551102571ADDAY141031AY241031GA1091+999999999GF109991091999999999999999MA1999999102391MD1710081+9999MW1451REMSYN066AAXX  22214 01098 41/04 91503 10059 20055 30239 40257 57008 74544;
0188010980999992000092300004+70360+031090FM-12+001599999V0201501N002112200019N0300001N1+00861+00821102421ADDAA106000791AY141061AY241061GF101991011011004501001001MA1999999102241MD1810151+9999MW1011REMSYN088AAXX  23004 01098 11480 11504 10086 20082 30224 40242 58015 69901 70144 81100 333 91106;
0161010980999992000092303004+70360+031090FM-12+001599999V0201801N003610042019N0200001N1+00721+00681102281ADDAY121031AY211031GF107991071071004501001001MA1999999102101MD1710141+9999MW1031REMSYN072AAXX  23034 01098 41470 71807 10072 20068 30210 40228 57014 70321 87700;
0207010980999992000092306004+70360+031090FM-12+001599999V0201401N001510600019N0300001N1+00651+00531102121ADDAA112000791AY121061AY221061GF106991041061004501001081KA1120N+00551MA1999999101941MD1710161+9999MW1021REMSYN094AAXX  23064 01098 11480 61403 10065 20053 30194 40212 57016 69902 70222 84608 333 20055 91112;
0161010980999992000092309004+70360+031090FM-12+001599999V0201601N002612200019N0750001N1+00821+00501101921ADDAY121031AY201031GF104991021021004501041091MA1999999101741MD1710201+9999MW1011REMSYN072AAXX  23094 01098 41489 41605 10082 20050 30174 40192 57020 70120 82249;
0201010980999992000092312004+70360+031090FM-12+001599999V0202301N002112200019N0750001N1+01001+00541101701ADDAA199000091AY121061AY201061GF105991011021004501041091MA1999999101521MD1610221+9999MW1031REMSYN082AAXX  23124 01098 31489 52304 10100 20054 30152 40170 56022 70320 81249 333 91118;EQDQ01  00002PRCP99
0161010980999992000092315004+70360+031090FM-12+001599999V0202401N003110240019N0750001N1+01061+00441101741ADDAY121031AY221031GF105991031081004501041011MA1999999101561MD1310041+9999MW1021REMSYN072AAXX  23154 01098 41489 52406 10106 20044 30156 40174 53004 70222 83841;
0220010980999992000092318004+70360+031090FM-12+001599999V0202101N004110240019N0750001N1+00851+00641101731ADDAA199000091AY121061AY221061GF105991031081004501041011KA1120M+01251MA1999999101551MD1810011+9999MW1021REMSYN088AAXX  23184 01098 31489 52108 10085 20064 30155 40173 58001 70222 83841 333 10125 91110;EQDQ01  00002PRCP99
0161010980999992000092321004+70360+031090FM-12+001599999V0202001N005112200019N0750001N1+00851+00621101641ADDAY121031AY211031GF104991031081004501001011MA1999999101461MD1710091+9999MW1011REMSYN072AAXX  23214 01098 41489 42010 10085 20062 30146 40164 57009 70121 83801;
0201010980999992000092400004+70360+031090FM-12+001599999V0201901N003112200019N0750001N1+00801+00551101571ADDAA199000091AY121061AY211061GF105991041081004501001011MA1999999101391MD1610071+9999MW1021REMSYN082AAXX  24004 01098 31489 51906 10080 20055 30139 40157 56007 70221 84801 333 91113;EQDQ01  00002PRCP99
0161010980999992000092403004+70360+031090FM-12+001599999V0202001N002610240019N0750001N1+00801+00551101481ADDAY121031AY221031GF106991041081004501041001MA1999999101301MD1710091+9999MW1021REMSYN072AAXX  24034 01098 41489 62005 10080 20055 30130 40148 57009 70222 84840;
0220010980999992000092406004+70360+031090FM-12+001599999V0202101N003610240019N0750001N1+00861+00661101421ADDAA199000091AY121061AY221061GF106991041081004501041081KA1120N+00731MA1999999101241MD1710061+9999MW1021REMSYN088AAXX  24064 01098 31489 62107 10086 20066 30124 40142 57006 70222 84848 333 20073 91109;EQDQ01  00002PRCP99
0161010980999992000092409004+70360+031090FM-12+001599999V0202201N004110240019N0750001N1+01041+00701101351ADDAY121031AY221031GF107991031081004501021001MA1999999101171MD1710071+9999MW1031REMSYN072AAXX  24094 01098 41489 72208 10104 20070 30117 40135 57007 70322 83820;
0201010980999992000092412004+70360+031090FM-12+001599999V0202701N006210240019N0750001N1+01201+00471101271ADDAA199000091AY121061AY221061GF105991031081004501041001MA1999999101091MD1710081+9999MW1011REMSYN082AAXX  24124 01098 31489 52712 10120 20047 30109 40127 57008 70122 83840 333 91118;EQDQ01  00002PRCP99
0161010980999992000092415004+70360+031090FM-12+001599999V0202601N004610240019N0750001N1+01061+00531101271ADDAY121031AY221031GF105991041021004501071081MA1999999101041MD1710051+9999MW1021REMSYN072AAXX  24154 01098 41489 52609 10106 20053 30104 40127 57005 70222 84278;
0220010980999992000092418004+70360+031090FM-12+001599999V0202501N005110240019N0300001N1+00911+00511101061ADDAA199000091AY121061AY221061GF108991041021004501071001KA1120M+01251MA1999999100881MD1810161+9999MW1021REMSYN088AAXX  24184 01098 31480 82510 10091 20051 30088 40106 58016 70222 84270 333 10125 91117;EQDQ01  00002PRCP99
0161010980999992000092421004+70360+031090FM-12+001599999V0202801N006710240019N0300001N1+00721+00401100981ADDAY121031AY221031GF108991041021004501071001MA1999999100801MD1710081+9999MW1021REMSYN072AAXX  24214 01098 41480 82813 10072 20040 30080 40098 57008 70222 84270;
0188010980999992000092500004+70360+031090FM-12+001599999V0202901N005710240019N0600001N1+00551+00411101231ADDAA106000891AY161061AY221061GF108991041071004501021999MA1999999101051MD1310251+9999MW1021REMSYN088AAXX  25004 01098 11486 82911 10055 20041 30105 40123 53025 69981 70262 8472/ 333 91119;
0161010980999992000092503004+70360+031090FM-12+001599999V0202701N004110042019N0600001N1+00501+00321101331ADDAY161031AY221031GF107991071071004501001001MA1999999101151MD1210101+9999MW1011REMSYN072AAXX  25034 01098 41486 72708 10050 20032 30115 40133 52010 70162 87700;
0207010980999992000092506004+70360+031090FM-12+001599999V0203101N006710042019N0600001N1+00551-00161101381ADDAA112001091AY161061AY221061GF108991081071004501999999KA1120N+00501MA1999999101201MD1210051+9999MW1031REMSYN094AAXX  25064 01098 11486 83113 10055 21016 30120 40138 52005 60012 70362 887// 333 20050 91122;
0161010980999992000092509004+70360+031090FM-12+001599999V0203001N006210042019N0300001N1+00541-00221101631ADDAY121031AY221031GF107991071071004501001001MA1999999101451MD1310251+9999MW1021REMSYN072AAXX  25094 01098 41480 73012 10054 21022 30145 40163 53025 70222 87700;
0201010980999992000092512004+70360+031090FM-12+001599999V0203101N006210042019N0300001N1+00461-00101101921ADDAA199000091AY121061AY221061GF107991071071004501001001MA1999999101741MD1210291+9999MW1021REMSYN082AAXX  25124 01098 31480 73112 10046 21010 30174 40192 52029 70222 87700 333 91124;EQDQ01  00002PRCP99
0161010980999992000092515004+70360+031090FM-12+001599999V0203101N005710042019N0300001N1+00391-00171102131ADDAY121031AY221031GF105991051071004501001001MA1999999101951MD1210211+9999MW1021REMSYN072AAXX  25154 01098 41480 53111 10039 21017 30195 40213 52021 70222 85700;
0220010980999992000092518004+70360+031090FM-12+001599999V0203201N004610042019N0300001N1+00391-00171102331ADDAA199000091AY121061AY221061GF107991071071004501001001KA1120M+00561MA1999999102151MD1210201+9999MW1021REMSYN088AAXX  25184 01098 31480 73209 10039 21017 30215 40233 52020 70222 87700 333 10056 91120;EQDQ01  00002PRCP99
0161010980999992000092521004+70360+031090FM-12+001599999V0203101N003112200019N0300001N1+00411-00151102461ADDAY121031AY211031GF103991031021004501001001MA1999999102281MD1110131+9999MW1021REMSYN072AAXX  25214 01098 41480 33106 10041 21015 30228 40246 51013 70221 83200;
0201010980999992000092600004+70360+031090FM-12+001599999V0203101N003610042019N0300001N1+00421-00161102431ADDAA199000091AY121061AY211061GF108991081051004501999999MA1999999102251MD1810031+9999MW1031REMSYN082AAXX  26004 01098 31480 83107 10042 21016 30225 40243 58003 70321 885// 333 91115;EQDQ01  00002PRCP99
0161010980999992000092603004+70360+031090FM-12+001599999V0202601N002110090019N0300001N1+00461+00111102481ADDAY121031AY221031GF108991051081004501021001MA1999999102301MD1310051+9999MW1021REMSYN072AAXX  26034 01098 41480 82604 10046 20011 30230 40248 53005 70222 85820;
0220010980999992000092606004+70360+031090FM-12+001599999V0202301N003610240019N0300001N1+00281+00121102421ADDAA199000091AY121061AY221061GF106991041081004501051001KA1120N+00211MA1999999102241MD1810061+9999MW1021REMSYN088AAXX  26064 01098 31480 62307 10028 20012 30224 40242 58006 70222 84850 333 20021 91108;EQDQ01  00002PRCP99
0161010980999992000092609004+70360+031090FM-12+001599999V0202401N002110240019N0300001N1+00581+00521102251ADDAY181031AY221031GF107991041081004501051001MA1999999102071MD1710171+9999MW1801REMSYN072AAXX  26094 01098 41480 72404 10058 20052 30207 40225 57017 78082 84850;
0188010980999992000092612004+70360+031090FM-12+001599999V0202401N003610006019N0200001N1+00651+00591102181ADDAA106000791AY181061AY221061GF108991061061000751051999MA1999999102001MD1710071+9999MW1021REMSYN088AAXX  26124 01098 11170 82407 10065 20059 30200 40218 57007 69901 70282 8665/ 333 91109;
0161010980999992000092615004+70360+031090FM-12+001599999V0203101N002110006019N0020001N1+00711+00671101991ADDAY151031AY221031GF108991081061000751999999MA1999999101811MD1710191+9999MW1531REMSYN072AAXX  26154 01098 41120 83104 10071 20067 30181 40199 57019 75352 886//;
0207010980999992000092618004+70360+031090FM-12+001599999V0202601N001510006019N0030001N1+00711+00651102021ADDAA112003091AY151061AY221061GF108991081061000751999999KA1120M+00821MA1999999101841MD1310031+9999MW1531REMSYN094AAXX  26184 01098 11130 82603 10071 20065 30184 40202 53003 60032 75352 886// 333 10082 91108;
0161010980999992000092621004+70360+031090FM-12+001599999V0203001N003110006019N0030001N1+00751+00691102011ADDAY151031AY221031GF108991081061000751999999MA1999999101831MD1310011+9999MW1531REMSYN072AAXX  26214 01098 41130 83006 10075 20069 30183 40201 53001 75352 886//;
0188010980999992000092700004+70360+031090FM-12+001599999V0202701N002610006019N0050001N1+00731+00671101991ADDAA106000591AY151061AY221061GF108991081061000751999999MA1999999101811MD1710021+9999MW1531REMSYN088AAXX  27004 01098 11150 82705 10073 20067 30181 40199 57002 69951 75352 886// 333 91112;
0161010980999992000092703004+70360+031090FM-12+001599999V0202401N002110012019N0100001N1+00691+00631101891ADDAY151031AY221031GF108991081061001501999999MA1999999101711MD1710101+9999MW1531REMSYN072AAXX  27034 01098 41260 82404 10069 20063 30171 40189 57010 75352 886//;
0207010980999992000092706004+70360+031090FM-12+001599999V0202401N002110042019N0200001N1+00701+00561101811ADDAA112000591AY121061AY221061GF108991081071004501999999KA1120N+00691MA1999999101631MD1710081+9999MW1021REMSYN094AAXX  27064 01098 11470 82404 10070 20056 30163 40181 57008 69952 70222 887// 333 20069 91108;
0161010980999992000092709004+70360+031090FM-12+001599999V0202601N003110021019N0200001N1+00811+00731101681ADDAY151031AY221031GF108991081071002501999999MA1999999101501MD1710131+9999MW1021REMSYN072AAXX  27094 01098 41370 82606 10081 20073 30150 40168 57013 70252 887//;
0188010980999992000092712004+70360+031090FM-12+001599999V0202901N003610090019N0200001N1+00901+00641101621ADDAA106000791AY151061AY221061GF107991051081004501071001MA1999999101441MD1610061+9999MW1021REMSYN088AAXX  27124 01098 11470 72907 10090 20064 30144 40162 56006 69901 70252 85870 333 91111;
0161010980999992000092715004+70360+031090FM-12+001599999V0202901N002110240019N0550001N1+00821+00501101571ADDAY121031AY221031GF107991031051004501041091MA1999999101391MD1710051+9999MW1021REMSYN072AAXX  27154 01098 41485 72904 10082 20050 30139 40157 57005 70222 83549;
0207010980999992000092718004+70360+031090FM-12+001599999V0202701N001510042019N0550001N1+00761+00611101551ADDAA112000791AY121061AY221061GF108991081051004501999999KA1120M+00961MA1999999101371MD1710021+9999MW1021REMSYN094AAXX  27184 01098 31485 82703 10076 20061 30137 40155 57002 69902 70222 885// 333 10096 91112;
0161010980999992000092721004+70360+031090FM-12+001599999V0202301N002110042019N0300001N1+00701+00581101461ADDAY151031AY221031GF108991081051004501999999MA1999999101281MD1710091+9999MW1501REMSYN072AAXX  27214 01098 41480 82304 10070 20058 30128 40146 57009 75052 885//;
0188010980999992000092800004+70360+031090FM-12+001599999V0202601N001510042019N0300001N1+00731+00561101391ADDAA106000791AY151061AY221061GF108991081051004501999999MA1999999101211MD1710071+9999MW1021REMSYN088AAXX  28004 01098 11480 82603 10073 20056 30121 40139 57007 69901 70252 885// 333 91107;
0161010980999992000092803004+70360+031090FM-12+001599999V0202701N002610042019N0300001N1+00741+00631101311ADDAY121031AY221031GF108991081051004501999999MA1999999101131MD1710081+9999MW1021REMSYN072AAXX  28034 01098 41480 82705 10074 20063 30113 40131 57008 70222 885//;
0207010980999992000092806004+70360+031090FM-12+001599999V0202801N002110042019N0200001N1+00721+00661101291ADDAA112000791AY151061AY221061GF108991081061004501999999KA1120N+00701MA1999999101111MD1710021+9999MW1201REMSYN094AAXX  28064 01098 11470 82804 10072 20066 30111 40129 57002 69902 72052 886// 333 20070 91107;
0161010980999992000092809004+70360+031090FM-12+001599999V0202901N002112200019N0550001N1+00841+00571101251ADDAY121031AY221031GF104991041051004501001001MA1999999101071MD1710041+9999MW1011REMSYN072AAXX  28094 01098 41485 42904 10084 20057 30107 40125 57004 70122 84500;
0182010980999992000092812004+70360+031090FM-12+001599999V0203101N001512200019N0550001N1+00861+00611101191ADDAA199000021AY121061AY211061GF103991031051004501001001MA1999999101011MD1710061+9999MW1021REMSYN082AAXX  28124 01098 31485 33103 10086 20061 30101 40119 57006 70221 83500 333 91107;
0161010980999992000092815004+70360+031090FM-12+001599999V0209999C000010240019N0600001N1+00821+00571101121ADDAY121031AY221031GF105991041051004501041001MA1999999100941MD1710071+9999MW1031REMSYN072AAXX  28154 01098 41486 53600 10082 20057 30094 40112 57007 70322 84540;
0201010980999992000092818004+70360+031090FM-12+001599999V0202201N003610240019N0600001N1+00601+00531101061ADDAA199000021AY121061AY221061GF105991031041004501051001KA1120M+00881MA1999999100881MD1710061+9999MW1021REMSYN088AAXX  28184 01098 31486 52207 10060 20053 30088 40106 57006 70222 83450 333 10088 91109;
0161010980999992000092821004+70360+031090FM-12+001599999V0202201N003610042019N0550001N1+00421+00351100921ADDAY121031AY221031GF107991071051004501001001MA1999999100741MD1710141+9999MW1021REMSYN072AAXX  28214 01098 41485 72207 10042 20035 30074 40092 57014 70222 87500;
0201010980999992000092900004+70360+031090FM-12+001599999V0202601N001512200019N0550001N1+00331+00271100911ADDAA199000091AY121061AY221061GF104991041051004501001001MA1999999100731MD1610011+9999MW1011REMSYN082AAXX  29004 01098 31485 42603 10033 20027 30073 40091 56001 70122 84500 333 91113;EQDQ01  00002PRCP99
0161010980999992000092903004+70360+031090FM-12+001599999V0203101N001010240019N0550001N1+00481+00421100871ADDAY121031AY221031GF106991041051004501051001MA1999999100691MD1710041+9999MW1021REMSYN072AAXX  29034 01098 41485 63102 10048 20042 30069 40087 57004 70222 84550;
0220010980999992000092906004+70360+031090FM-12+001599999V0203501N001010042019N0550001N1+00701+00641100871ADDAA199000091AY121061AY221061GF108991081071004501999999KA1120N+00301MA1999999100691MD1410001+9999MW1021REMSYN088AAXX  29064 01098 31485 83502 10070 20064 30069 40087 54000 70222 887// 333 20030 91104;EQDQ01  00002PRCP99
0161010980999992000092909004+70360+031090FM-12+001599999V0200601N001010042019N0300001N1+00731+00691100891ADDAY151031AY221031GF108991071071004501021999MA1999999100711MD1310021+9999MW1501REMSYN072AAXX  29094 01098 41480 80602 10073 20069 30071 40089 53002 75052 8772/;
0188010980999992000092912004+70360+031090FM-12+001599999V0200501N002110042019N0300001N1+00701+00641100871ADDAA106000791AY151061AY221061GF108991061071004501021999MA1999999100691MD1810021+9999MW1021REMSYN088AAXX  29124 01098 11480 80504 10070 20064 30069 40087 58002 69901 70252 8672/ 333 91107;
0161010980999992000092915004+70360+031090FM-12+001599999V0201101N001010042019N0300001N1+00701+00641100871ADDAY121031AY221031GF108991061071004501021999MA1999999100691MD1410001+9999MW1021REMSYN072AAXX  29154 01098 41480 81102 10070 20064 30069 40087 54000 70222 8672/;
0207010980999992000092918004+70360+031090FM-12+001599999V0201101N001510042019N0200001N1+00781+00721100821ADDAA112000791AY121061AY221061GF108991081061004501999999KA1120M+00791MA1999999100641MD1810051+9999MW1021REMSYN094AAXX  29184 01098 11470 81103 10078 20072 30064 40082 58005 69902 70222 886// 333 10079 91107;
0161010980999992000092921004+70360+031090FM-12+001599999V0200901N002110042019N0200001N1+00751+00691100821ADDAY151031AY221031GF108991081061004501999999MA1999999100641MD1410001+9999MW1501REMSYN072AAXX  29214 01098 41470 80904 10075 20069 30064 40082 54000 75052 886//;
0188010980999992000093000004+70360+031090FM-12+001599999V0201101N000510042019N0200001N1+00771+00711100871ADDAA106000591AY151061AY221061GF108991061061004501021999MA1999999100691MD1310051+9999MW1501REMSYN088AAXX  30004 01098 11470 81101 10077 20071 30069 40087 53005 69961 75052 8662/ 333 91107;
0161010980999992000093003004+70360+031090FM-12+001599999V0203001N001010042019N0300001N1+00741+00681100951ADDAY151031AY221031GF108991081071004501999999MA1999999100771MD1210081+9999MW1021REMSYN072AAXX  30034 01098 41480 83002 10074 20068 30077 40095 52008 70252 887//;
0207010980999992000093006004+70360+031090FM-12+001599999V0202901N000510090019N0550001N1+00751+00691101051ADDAA112000591AY151061AY221061GF107991051081004501041001KA1120N+00711MA1999999100871MD1210101+9999MW1021REMSYN094AAXX  30064 01098 11485 72901 10075 20069 30087 40105 52010 69962 70252 85840 333 20071 91104;
0161010980999992000093009004+70360+031090FM-12+001599999V0201801N000510042019N0550001N1+00951+00891101161ADDAY121031AY221031GF107991061051004501001081MA1999999100981MD1210111+9999MW1021REMSYN072AAXX  30094 01098 41485 71801 10095 20089 30098 40116 52011 70222 86508;
0188010980999992000093012004+70360+031090FM-12+001599999V0202001N002110042019N0200001N1+00961+00901101251ADDAA106000191AY151061AY221061GF108991051051004501071001MA1999999101071MD1210091+9999MW1501REMSYN088AAXX  30124 01098 11470 82004 10096 20090 30107 40125 52009 69911 75052 85570 333 91106;
0161010980999992000093015004+70360+031090FM-12+001599999V0201501N001010240019N0750001N1+00861+00741101261ADDAY181031AY221031GF106991031051004501071001MA1999999101081MD1210011+9999MW1021REMSYN072AAXX  30154 01098 41489 61502 10086 20074 30108 40126 52001 70282 83570;
0207010980999992000093018004+70360+031090FM-12+001599999V0201901N001010240019N0750001N1+00821+00741101211ADDAA112000191AY181061AY221061GF107991031051004501071001KA1120M+01021MA1999999101031MD1710051+9999MW1021REMSYN094AAXX  30184 01098 11489 71902 10082 20074 30103 40121 57005 69912 70282 83570 333 10102 91107;
0161010980999992000093021004+70360+031090FM-12+001599999V0202201N002610240019N0750001N1+00801+00721101141ADDAY121031AY221031GF107991041051004501071001MA1999999100961MD1710071+9999MW1021REMSYN072AAXX  30214 01098 41489 72205 10080 20072 30096 40114 57007 70222 84570;
0188010980999992000100100004+70360+031090FM-12+001599999V0202101N004610042019N0250001N1+00791+00731101111ADDAA106000791AY151061AY221061GF106991061051004501999999MA1999999100931MD1710031+9999MW1501REMSYN088AAXX  01004 01098 11475 62109 10079 20073 30093 40111 57003 69901 75052 865// 333 91111;
0161010980999992000100103004+70360+031090FM-12+001599999V0202301N002110042019N0300001N1+00801+00681101201ADDAY151031AY221031GF106991061051004501999999MA1999999101021MD1310091+9999MW1021REMSYN072AAXX  01034 01098 41480 62304 10080 20068 30102 40120 53009 70252 865//;
0207010980999992000100106004+70360+031090FM-12+001599999V0201901N001012200019N0300001N1+00821+00621101291ADDAA112000791AY151061AY221061GF105991041051004501001081KA1120N+00721MA1999999101111MD1210091+9999MW1021REMSYN094AAXX  01064 01098 11480 51902 10082 20062 30111 40129 52009 69902 70252 84508 333 20072 91109;
0161010980999992000100109004+70360+031090FM-12+001599999V0202101N002110600019N0750001N1+00901+00781101451ADDAY121031AY221031GF106991021081004501051041MA1999999101271MD1210161+9999MW1021REMSYN072AAXX  01094 01098 41489 62104 10090 20078 30127 40145 52016 70222 82854;
0182010980999992000100112004+70360+031090FM-12+001599999V0202101N002110240019N0750001N1+01081+00851101501ADDAA199000021AY121061AY221061GF105991031081004501051041MA1999999101321MD1210051+9999MW1021REMSYN082AAXX  01124 01098 31489 52104 10108 20085 30132 40150 52005 70222 83854 333 91108;
0161010980999992000100115004+70360+031090FM-12+001599999V0202101N000510600019N0750001N1+00901+00751101491ADDAY121031AY221031GF106991021081004501041041MA1999999101311MD1810011+9999MW1021REMSYN072AAXX  01154 01098 41489 62101 10090 20075 30131 40149 58001 70222 82844;
0220010980999992000100118004+70360+031090FM-12+001599999V0201901N001010600019N0550001N1+00741+00631101431ADDAA199000091AY121061AY221061GF107991021081004501001051KA1120M+01081MA1999999101251MD1710061+9999MW1021REMSYN088AAXX  01184 01098 31485 71902 10074 20063 30125 40143 57006 70222 82805 333 10108 91105;EQDQ01  00002PRCP99
0161010980999992000100121004+70360+031090FM-12+001599999V0201301N001010240019N0550001N1+00781+00711101341ADDAY121031AY221031GF107991011081004501011001MA1999999101161MD1710091+9999MW1021REMSYN072AAXX  01214 01098 41485 71302 10078 20071 30116 40134 57009 70222 81810;
0188010980999992000100200004+70360+031090FM-12+001599999V0201301N001010240019N0300001N1+00811+00701101201ADDAA106000591AY181061AY221061GF108991031061001501071999MA1999999101021MD1710141+9999MW1021REMSYN088AAXX  02004 01098 11280 81302 10081 20070 30102 40120 57014 69951 70282 8367/ 333 91104;
0161010980999992000100203004+70360+031090FM-12+001599999V0202201N002110240019N0280001N1+00891+00811101061ADDAY161031AY221031GF108991031071004501071999MA1999999100881MD1710141+9999MW1611REMSYN072AAXX  02034 01098 41478 82204 10089 20081 30088 40106 57014 76162 8377/;
0207010980999992000100206004+70360+031090FM-12+001599999V0203001N003110240019N0220001N1+00821+00741101211ADDAA112001091AY161061AY221061GF108991031061000751021999KA1120N+00721MA1999999101031MD1310151+9999MW1611REMSYN094AAXX  02064 01098 11172 83006 10082 20074 30103 40121 53015 60012 76162 8362/ 333 20072 91111;
0161010980999992000100209004+70360+031090FM-12+001599999V0203401N002610012019N0300001N1+00781+00711101511ADDAY161031AY221031GF108991071061001501021999MA1999999101331MD1210301+9999MW1021REMSYN072AAXX  02094 01098 41280 83405 10078 20071 30133 40151 52030 70262 8762/;
0188010980999992000100212004+70360+031090FM-12+001599999V0203601N002110042019N0300001N1+00761+00541101741ADDAA106000791AY161061AY221061GF107991061041004501021001MA1999999101561MD1210231+9999MW1021REMSYN088AAXX  02124 01098 11480 73604 10076 20054 30156 40174 52023 69901 70262 86420 333 91110;
0161010980999992000100215004+70360+031090FM-12+001599999V0203301N001010240019N0300001N1+00661+00491101841ADDAY121031AY221031GF108991031071004501021999MA1999999101661MD1110101+9999MW1021REMSYN072AAXX  02154 01098 41480 83302 10066 20049 30166 40184 51010 70222 8372/;
0207010980999992000100218004+70360+031090FM-12+001599999V0200101N000510021019N0250001N1+00621+00521101931ADDAA112000791AY151061AY221061GF108991081061002501999999KA1120M+00821MA1999999101751MD1210091+9999MW1501REMSYN094AAXX  02184 01098 11375 80101 10062 20052 30175 40193 52009 69902 75052 886// 333 10082 91105;
0161010980999992000100221004+70360+031090FM-12+001599999V0201101N001010021019N0300001N1+00591+00521101971ADDAY151031AY221031GF108991081061002501999999MA1999999101791MD1110041+9999MW1201REMSYN072AAXX  02214 01098 41380 81102 10059 20052 30179 40197 51004 72052 886//;
0188010980999992000100300004+70360+031090FM-12+001599999V0201201N002110021019N0550001N1+00591+00521101961ADDAA106000791AY151061AY221061GF108991081061002501999999MA1999999101781MD1810011+9999MW1021REMSYN088AAXX  03004 01098 11385 81204 10059 20052 30178 40196 58001 69901 70252 886// 333 91107;
0161010980999992000100303004+70360+031090FM-12+001599999V0201201N002610021019N0550001N1+00651+00581101871ADDAY121031AY221031GF108991081061002501999999MA1999999101691MD1710091+9999MW1021REMSYN072AAXX  03034 01098 41385 81205 10065 20058 30169 40187 57009 70222 886//;
0207010980999992000100306004+70360+031090FM-12+001599999V0201201N002610021019N0550001N1+00721+00651101811ADDAA112000791AY121061AY221061GF108991071061002501021999KA1120N+00561MA1999999101631MD1710061+9999MW1021REMSYN094AAXX  03064 01098 11385 81205 10072 20065 30163 40181 57006 69902 70222 8762/ 333 20056 91108;
0161010980999992000100309004+70360+031090FM-12+001599999V0201301N001510012019N0300001N1+00791+00711101751ADDAY121031AY221031GF108991051061001501021999MA1999999101571MD1710061+9999MW1021REMSYN072AAXX  03094 01098 41280 81303 10079 20071 30157 40175 57006 70222 8562/;
0201010980999992000100312004+70360+031090FM-12+001599999V0201401N001510021019N0300001N1+00831+00751101731ADDAA199000091AY121061AY221061GF108991051061002501021999MA1999999101551MD1710021+9999MW1021REMSYN082AAXX  03124 01098 31380 81403 10083 20075 30155 40173 57002 70222 8562/ 333 91108;EQDQ01  00002PRCP99
0161010980999992000100315004+70360+031090FM-12+001599999V0201401N002110012019N0050001N1+00861+00751101651ADDAY121031AY221031GF108991081061001501999999MA1999999101471MD1710081+9999MW1101REMSYN072AAXX  03154 01098 41250 81404 10086 20075 30147 40165 57008 71022 886//;
0220010980999992000100318004+70360+031090FM-12+001599999V0201401N001510012019N0050001N1+00841+00731101651ADDAA199000091AY121061AY221061GF108991081061001501999999KA1120M+00901MA1999999101471MD1410001+9999MW1101REMSYN088AAXX  03184 01098 31250 81403 10084 20073 30147 40165 54000 71022 886// 333 10090 91106;EQDQ01  00002PRCP99
0161010980999992000100321004+70360+031090FM-12+001599999V0201601N002110021019N0550001N1+00821+00741101671ADDAY121031AY221031GF108991081061002501999999MA1999999101491MD1210021+9999MW1021REMSYN072AAXX  03214 01098 41385 81604 10082 20074 30149 40167 52002 70222 886//;
0201010980999992000100400004+70360+031090FM-12+001599999V0201701N002110021019N0300001N1+00831+00751101711ADDAA199000091AY121061AY221061GF108991081061002501999999MA1999999101531MD1210041+9999MW1021REMSYN082AAXX  04004 01098 31380 81704 10083 20075 30153 40171 52004 70222 886// 333 91106;EQDQ01  00002PRCP99
0161010980999992000100403004+70360+031090FM-12+001599999V0201801N002110021019N0550001N1+00861+00781101771ADDAY121031AY221031GF107991071061002501001001MA1999999101591MD1210061+9999MW1021REMSYN072AAXX  04034 01098 41385 71804 10086 20078 30159 40177 52006 70222 87600;
0220010980999992000100406004+70360+031090FM-12+001599999V0202001N001510021019N0300001N1+00911+00831101801ADDAA199000091AY121061AY221061GF107991051061002501051091KA1120N+00801MA1999999101621MD1210031+9999MW1021REMSYN088AAXX  04064 01098 31380 72003 10091 20083 30162 40180 52003 70222 85659 333 20080 91106;EQDQ01  00002PRCP99
0161010980999992000100409004+70360+031090FM-12+001599999V0201901N001512200019N0080001N1+01071+01001101861ADDAY121031AY211031GF104991021061002501051081MA1999999101681MD1210061+9999MW1101REMSYN072AAXX  04094 01098 41358 41903 10107 20100 30168 40186 52006 71021 82658;
0201010980999992000100412004+70360+031090FM-12+001599999V0201701N002610240019N0080001N1+00981+00901101901ADDAA199000091AY121061AY211061GF106991041061002501051091MA1999999101721MD1210041+9999MW1111REMSYN082AAXX  04124 01098 31358 61705 10098 20090 30172 40190 52004 71121 84659 333 91108;EQDQ01  00002PRCP99
0161010980999992000100415004+70360+031090FM-12+001599999V0201601N002119999999N0300001N1+00971+00921101891ADDAY121031AY211031GF106991061001012501041001MA1999999101711MD1810011+9999MW1411REMSYN072AAXX  04154 01098 41680 61604 10097 20092 30171 40189 58001 74121 86040;
0220010980999992000100418004+70360+031090FM-12+001599999V0201801N001519999999N0550001N1+00901+00851101861ADDAA199000091AY121061AY211061GF105991051001012501051001KA1120M+01101MA1999999101681MD1810031+9999MW1021REMSYN088AAXX  04184 01098 31685 51803 10090 20085 30168 40186 58003 70221 85050 333 10110 91106;EQDQ01  00002PRCP99
0161010980999992000100421004+70360+031090FM-12+001599999V0201701N001512200019N0550001N1+00811+00701101841ADDAY121031AY211031GF102991021011004501001001MA1999999101661MD1710021+9999MW1021REMSYN072AAXX  04214 01098 41485 21703 10081 20070 30166 40184 57002 70221 82100;
0201010980999992000100500004+70360+031090FM-12+001599999V0201701N002112200019N0300001N1+00801+00691101801ADDAA199000091AY121061AY211061GF102991021021004501001001MA1999999101621MD1710041+9999MW1021REMSYN082AAXX  05004 01098 31480 21704 10080 20069 30162 40180 57004 70221 82200 333 91108;EQDQ01  00002PRCP99
0161010980999992000100503004+70360+031090FM-12+001599999V0201601N002112200019N0300001N1+00801+00691101741ADDAY101031AY201031GF103991031021004501001001MA1999999101561MD1710061+9999MW1031REMSYN072AAXX  05034 01098 41480 31604 10080 20069 30156 40174 57006 70300 83200;
0220010980999992000100506004+70360+031090FM-12+001599999V0201901N003110012019N0100001N1+00851+00741101681ADDAA199000091AY121061AY211061GF108991081061001501999999KA1120N+00761MA1999999101501MD1710061+9999MW1101REMSYN088AAXX  05064 01098 31260 81906 10085 20074 30150 40168 57006 71021 886// 333 20076 91109;EQDQ01  00002PRCP99
0161010980999992000100509004+70360+031090FM-12+001599999V0201601N003110012019N0200001N1+00891+00811101641ADDAY121031AY221031GF107991051061001501051001MA1999999101461MD1710041+9999MW1021REMSYN072AAXX  05094 01098 41270 71606 10089 20081 30146 40164 57004 70222 85650;
0201010980999992000100512004+70360+031090FM-12+001599999V0201901N004110240019N0400001N1+00991+00851101591ADDAA199000091AY121061AY221061GF107991021061002501051001MA1999999101411MD1710051+9999MW1021REMSYN082AAXX  05124 01098 31382 71908 10099 20085 30141 40159 57005 70222 82650 333 91111;EQDQ01  00002PRCP99
0161010980999992000100515004+70360+031090FM-12+001599999V0201901N004110240019N0300001N1+00951+00811101601ADDAY121031AY221031GF107991031061004501051001MA1999999101421MD1210011+9999MW1021REMSYN072AAXX  05154 01098 41480 71908 10095 20081 30142 40160 52001 70222 83650;
0220010980999992000100518004+70360+031090FM-12+001599999V0201801N003610042019N0300001N1+00931+00741101601ADDAA199000091AY121061AY221061GF108991081061004501001001KA1120M+01001MA1999999101421MD1410001+9999MW1021REMSYN088AAXX  05184 01098 31480 81807 10093 20074 30142 40160 54000 70222 88600 333 10100 91113;EQDQ01  00002PRCP99
0161010980999992000100521004+70360+031090FM-12+001599999V0201701N002610042019N0550001N1+00951+00901101651ADDAY121031AY221031GF108991081061004501999999MA1999999101471MD1310051+9999MW1021REMSYN072AAXX  05214 01098 41485 81705 10095 20090 30147 40165 53005 70222 886//;
0217010980999992000100600004+70360+031090FM-12+001599999V0202101N001519999999N0750001N1+00831+00751101661ADDAA199000091AY121061AY221061GF108991999061012501001001MA1999999101481MD1110011+9999MW1011REMSYN082AAXX  06004 01098 31689 82103 10083 20075 30148 40166 51001 70122 80600 333 91113;EQDQ01+000002SCOTLCQ02  00002PRCP99
0180010980999992000100603004+70360+031090FM-12+001599999V0202101N003119999999N0750001N1+00831+00751101631ADDAY121031AY221031GF108991999061012501999999MA1999999101451MD1810031+9999MW1021REMSYN072AAXX  06034 01098 41689 82106 10083 20075 30145 40163 58003 70222 806//;EQDQ01+000002SCOTLC
0220010980999992000100606004+70360+031090FM-12+001599999V0201901N002119999999N0750001N1+00861+00781101671ADDAA199000091AY121061AY221061GF108991081001012501041061KA1120N+00831MA1999999101491MD1310041+9999MW1021REMSYN088AAXX  06064 01098 31689 81904 10086 20078 30149 40167 53004 70222 88046 333 20083 91108;EQDQ01  00002PRCP99
0161010980999992000100609004+70360+031090FM-12+001599999V0201901N001510012019N0300001N1+00931+00851101731ADDAY121031AY221031GF107991051061001501051001MA1999999101551MD1210061+9999MW1021REMSYN072AAXX  06094 01098 41280 71903 10093 20085 30155 40173 52006 70222 85650;
0201010980999992000100612004+70360+031090FM-12+001599999V0201901N002110021019N0550001N1+00961+00881101771ADDAA199000091AY121061AY221061GF107991061061002501051001MA1999999101591MD1210041+9999MW1021REMSYN082AAXX  06124 01098 31385 71904 10096 20088 30159 40177 52004 70222 86650 333 91108;EQDQ01  00002PRCP99
0161010980999992000100615004+70360+031090FM-12+001599999V0201901N004110021019N0550001N1+01021+00941101701ADDAY121031AY221031GF107991061061002501051091MA1999999101521MD1810071+9999MW1021REMSYN072AAXX  06154 01098 41385 71908 10102 20094 30152 40170 58007 70222 86659;
0220010980999992000100618004+70360+031090FM-12+001599999V0202101N005110021019N0550001N1+00961+00841101651ADDAA199000091AY121061AY221061GF108991071061002501051999KA1120M+01051MA1999999101471MD1710051+9999MW1021REMSYN088AAXX  06184 01098 31385 82110 10096 20084 30147 40165 57005 70222 8765/ 333 10105 91113;EQDQ01  00002PRCP99
0161010980999992000100621004+70360+031090FM-12+001599999V0202201N002610240019N0550001N1+01021+00921101691ADDAY121031AY221031GF107991011061004501031001MA1999999101511MD1310041+9999MW1021REMSYN072AAXX  06214 01098 41485 72205 10102 20092 30151 40169 53004 70222 81630;
0201010980999992000100700004+70360+031090FM-12+001599999V0203201N001510240019N0550001N1+00941+00831101881ADDAA199000091AY121061AY221061GF107991031061002501031001MA1999999101701MD1210191+9999MW1021REMSYN082AAXX  07004 01098 31385 73203 10094 20083 30170 40188 52019 70222 83630 333 91112;EQDQ01  00002PRCP99
0161010980999992000100703004+70360+031090FM-12+001599999V0202701N002610021019N0300001N1+00861+00711102031ADDAY161031AY221031GF108991081071002501999999MA1999999101851MD1210151+9999MW1601REMSYN072AAXX  07034 01098 41380 82705 10086 20071 30185 40203 52015 76062 887//;
0207010980999992000100706004+70360+031090FM-12+001599999V0202201N001512200019N0750001N1+00711+00601102321ADDAA112000191AY161061AY211061GF101991011081004501041001KA1120N+00681MA1999999102141MD1310291+9999MW1021REMSYN094AAXX  07064 01098 11489 12203 10071 20060 30214 40232 53029 69912 70261 81840 333 20068 91109;
0161010980999992000100709004+70360+031090FM-12+001599999V0202301N003112200019N0600001N1+00921+00721102531ADDAY111031AY201031GF103991011041004501051091MA1999999102351MD1210211+9999MW1021REMSYN072AAXX  07094 01098 41486 32306 10092 20072 30235 40253 52021 70210 81459;
0182010980999992000100712004+70360+031090FM-12+001599999V0202401N001512200019N0750001N1+00901+00681102691ADDAA199000021AY111061AY201061GF104991011041004501041091MA1999999102511MD1210161+9999MW1021REMSYN082AAXX  07124 01098 31489 42403 10090 20068 30251 40269 52016 70210 81449 333 91109;
0161010980999992000100715004+70360+031090FM-12+001599999V0202101N001512200019N0750001N1+00701+00581102721ADDAY111031AY201031GF103991011081004501031091MA1999999102541MD1110031+9999MW1021REMSYN072AAXX  07154 01098 41489 32103 10070 20058 30254 40272 51003 70210 81839;
0220010980999992000100718004+70360+031090FM-12+001599999V0201401N001512200019N0750001N1+00761+00651102681ADDAA199000091AY111061AY201061GF104991021081004501031091KA1120M+01001MA1999999102501MD1710041+9999MW1021REMSYN088AAXX  07184 01098 31489 41403 10076 20065 30250 40268 57004 70210 82839 333 10100 91106;EQDQ01  00002PRCP99
0161010980999992000100721004+70360+031090FM-12+001599999V0201501N002112200019N0750001N1+00791+00701102511ADDAY111031AY201031GF102991011081004501031001MA1999999102331MD1810171+9999MW1021REMSYN072AAXX  07214 01098 41489 21504 10079 20070 30233 40251 58017 70210 81830;
0201010980999992000100800004+70360+031090FM-12+001599999V0201901N007212200019N0750001N1+00821+00711102251ADDAA199000091AY111061AY201061GF101991011081004501001001MA1999999102071MD1710261+9999MW1021REMSYN082AAXX  08004 01098 31489 11914 10082 20071 30207 40225 57026 70210 81800 333 91117;EQDQ01  00002PRCP99
0161010980999992000100803004+70360+031090FM-12+001599999V0201901N004612200019N0750001N1+00911+00801102251ADDAY111031AY201031GF104991011081004501031001MA1999999102071MD1410001+9999MW1021REMSYN072AAXX  08034 01098 41489 41909 10091 20080 30207 40225 54000 70210 81830;
0220010980999992000100806004+70360+031090FM-12+001599999V0201901N006210090019N0750001N1+01061+00951102171ADDAA199000091AY121061AY211061GF108991051081004501031001KA1120N+00761MA1999999101991MD1810081+9999MW1031REMSYN088AAXX  08064 01098 31489 81912 10106 20095 30199 40217 58008 70321 85830 333 20076 91115;EQDQ01  00002PRCP99
0161010980999992000100809004+70360+031090FM-12+001599999V0201901N004610240019N0750001N1+01141+01071102171ADDAY121031AY221031GF107991021081004501041081MA1999999101991MD1510001+9999MW1021REMSYN072AAXX  08094 01098 41489 71909 10114 20107 30199 40217 55000 70222 82848;
0201010980999992000100812004+70360+031090FM-12+001599999V0201901N006710240019N0750001N1+01201+01011102071ADDAA199000091AY121061AY221061GF106991011021004501041091MA1999999101891MD1810101+9999MW1021REMSYN082AAXX  08124 01098 31489 61913 10120 20101 30189 40207 58010 70222 81249 333 91116;EQDQ01  00002PRCP99
0161010980999992000100815004+70360+031090FM-12+001599999V0201901N007210042019N0750001N1+01141+00841102021ADDAY121031AY221031GF107991071051004501001001MA1999999101841MD1710051+9999MW1031REMSYN072AAXX  08154 01098 41489 71914 10114 20084 30184 40202 57005 70322 87500;
0220010980999992000100818004+70360+031090FM-12+001599999V0201901N008710042019N0750001N1+00951+00671101941ADDAA199000091AY121061AY221061GF107991071071004501001001KA1120M+01301MA1999999101761MD1710081+9999MW1021REMSYN088AAXX  08184 01098 31489 71917 10095 20067 30176 40194 57008 70222 87700 333 10130 91122;EQDQ01  00002PRCP99
0161010980999992000100821004+70360+031090FM-12+001599999V0201801N005710042019N0750001N1+00981+00701101961ADDAY121031AY221031GF108991081071004501999999MA1999999101781MD1310021+9999MW1031REMSYN072AAXX  08214 01098 41489 81811 10098 20070 30178 40196 53002 70322 887//;
0201010980999992000100900004+70360+031090FM-12+001599999V0201701N006212200019N0750001N1+00941+00771101761ADDAA199000091AY111061AY211061GF103991011081004501031001MA1999999101581MD1810201+9999MW1011REMSYN082AAXX  09004 01098 31489 31712 10094 20077 30158 40176 58020 70111 81830 333 91121;EQDQ01  00002PRCP99
0161010980999992000100903004+70360+031090FM-12+001599999V0201801N004612200019N0750001N1+00941+00781101691ADDAY121031AY221031GF103991011081004501031011MA1999999101511MD1610071+9999MW1021REMSYN072AAXX  09034 01098 41489 31809 10094 20078 30151 40169 56007 70222 81831;
0220010980999992000100906004+70360+031090FM-12+001599999V0201701N005110240019N0750001N1+00981+00821101661ADDAA199000091AY111061AY211061GF105991031081004501041021KA1120N+00931MA1999999101481MD1710031+9999MW1021REMSYN088AAXX  09064 01098 31489 51710 10098 20082 30148 40166 57003 70211 83842 333 20093 91118;EQDQ01  00002PRCP99
0161010980999992000100909004+70360+031090FM-12+001599999V0201901N005112200019N0250001N1+01071+00861101651ADDAY121031AY211031GF104991021061001501071091MA1999999101471MD1610011+9999MW1021REMSYN072AAXX  09094 01098 41275 41910 10107 20086 30147 40165 56001 70221 82679;
0217010980999992000100912004+70360+031090FM-12+001599999V0203101N999990240019N0300001N1+01061+00891101661ADDAA199000091AY121061AY211061GF105991031041004501071091MA1999999101481MD1310011+9999MW1021REMSYN082AAXX  09124 01098 31480 58111 10106 20089 30148 40166 53001 70221 83479 333 91119;EQDQ01+005713WOSPD Q02  00002PRCP99
0161010980999992000100915004+70360+031090FM-12+001599999V0201901N003110240019N0300001N1+01081+00871101741ADDAY121031AY221031GF107991041071004501071001MA1999999101561MD1310081+9999MW1031REMSYN072AAXX  09154 01098 41480 71906 10108 20087 30156 40174 53008 70322 84770;
0220010980999992000100918004+70360+031090FM-12+001599999V0201901N006210042019N0550001N1+01051+00881101661ADDAA199000091AY121061AY221061GF108991081071004501999999KA1120M+01121MA1999999101481MD1810081+9999MW1031REMSYN088AAXX  09184 01098 31485 81912 10105 20088 30148 40166 58008 70322 887// 333 10112 91117;EQDQ01  00002PRCP99
0161010980999992000100921004+70360+031090FM-12+001599999V0201901N005710090019N0550001N1+01121+00961101691ADDAY121031AY221031GF106991051081004501001011MA1999999101511MD1310031+9999MW1011REMSYN072AAXX  09214 01098 41485 61911 10112 20096 30151 40169 53003 70122 85801;
0201010980999992000101000004+70360+031090FM-12+001599999V0201901N003610042019N0550001N1+01151+01011101781ADDAA199000091AY121061AY221061GF108991081051004501999999MA1999999101601MD1210091+9999MW1031REMSYN082AAXX  10004 01098 31485 81907 10115 20101 30160 40178 52009 70322 885// 333 91116;EQDQ01  00002PRCP99
0161010980999992000101003004+70360+031090FM-12+001599999V0201901N003610042019N0550001N1+01131+00871101791ADDAY121031AY221031GF105991051051004501001001MA1999999101611MD1110011+9999MW1011REMSYN072AAXX  10034 01098 41485 51907 10113 20087 30161 40179 51001 70122 85500;
0220010980999992000101006004+70360+031090FM-12+001599999V0201901N008210240019N0300001N1+01061+00901101791ADDAA199000091AY121061AY221061GF106991021081004501041091KA1120N+01041MA1999999101611MD1410001+9999MW1031REMSYN088AAXX  10064 01098 31480 61916 10106 20090 30161 40179 54000 70322 82849 333 20104 91121;EQDQ01  00002PRCP99
0161010980999992000101009004+70360+031090FM-12+001599999V0201801N005712200019N0250001N1+01091+00901101981ADDAY121031AY211031GF103991011011004501041091MA1999999101801MD1310191+9999MW1021REMSYN072AAXX  10094 01098 41475 31811 10109 20090 30180 40198 53019 70221 81149;
0201010980999992000101012004+70360+031090FM-12+001599999V0201801N004612200019N0200001N1+01101+00001102041ADDAA199000091AY121061AY211061GF104991011011004501041091MA1999999101861MD1210061+9999MW1021REMSYN082AAXX  10124 01098 31470 41809 10110 20000 30186 40204 52006 70221 81149 333 91122;EQDQ01  00002PRCP99
0161010980999992000101015004+70360+031090FM-12+001599999V0201901N005712200019N0550001N1+00981+00541102141ADDAY121031AY221031GF104991021081004501041011MA1999999101961MD1210101+9999MW1021REMSYN072AAXX  10154 01098 41485 41911 10098 20054 30196 40214 52010 70222 82841;
0220010980999992000101018004+70360+031090FM-12+001599999V0201401N001512200019N0550001N1+00891+00721102211ADDAA199000091AY101061AY201061GF102991011081004501071011KA1120M+01171MA1999999102031MD1210071+9999MW1021REMSYN088AAXX  10184 01098 31485 21403 10089 20072 30203 40221 52007 70200 81871 333 10117 91116;EQDQ01  00002PRCP99
0180010980999992000101021004+70360+031090FM-12+001599999V0201901N005712200019N0750001N1+00831+00681102191ADDAY101031AY201031GF101991001001999999001061MA1999999102011MD1810021+9999MW1011REMSYN072AAXX  10214 01098 41889 11911 10083 20068 30201 40219 58002 70100 80006;EQDQ01+022502SCOLCB
0217010980999992000101100004+70360+031090FM-12+001599999V0201801N004612200019N0750001N1+00721+00581102261ADDAA199000091AY101061AY201061GF101991001001999999001061MA1999999102081MD1310071+9999MW1011REMSYN082AAXX  11004 01098 31889 11809 10072 20058 30208 40226 53007 70100 80006 333 91115;EQDQ01+022502SCOLCBQ02  00002PRCP99
0161010980999992000101103004+70360+031090FM-12+001599999V0201801N004612200019N0750001N1+00681+00321102261ADDAY111031AY201031GF103991021001012501071061MA1999999102081MD1410001+9999MW1031REMSYN072AAXX  11034 01098 41689 31809 10068 20032 30208 40226 54000 70310 82076;
0220010980999992000101106004+70360+031090FM-12+001599999V0201501N005719999999N0750001N1+00671+00501102261ADDAA199000091AY111061AY201061GF105991051001012501051001KA1120N+00671MA1999999102081MD1410001+9999MW1031REMSYN088AAXX  11064 01098 31689 51511 10067 20050 30208 40226 54000 70310 85050 333 20067 91114;EQDQ01  00002PRCP99
0161010980999992000101109004+70360+031090FM-12+001599999V0201401N004612200019N0250001N1+00721+00551102341ADDAY111031AY201031GF101991011011004501041081MA1999999102161MD1310081+9999MW1021REMSYN072AAXX  11094 01098 41475 11409 10072 20055 30216 40234 53008 70210 81148;
0201010980999992000101112004+70360+031090FM-12+001599999V0201401N004610240019N0200001N1+00791+00651102281ADDAA199000091AY121061AY211061GF106991041051004501071091MA1999999102101MD1810061+9999MW1031REMSYN082AAXX  11124 01098 31470 61409 10079 20065 30210 40228 58006 70321 84579 333 91114;EQDQ01  00002PRCP99
0161010980999992000101115004+70360+031090FM-12+001599999V0201601N003610090019N0550001N1+00851+00631102301ADDAY121031AY221031GF107991061081004501071001MA1999999102121MD1310021+9999MW1031REMSYN072AAXX  11154 01098 41485 71607 10085 20063 30212 40230 53002 70322 86870;
0220010980999992000101118004+70360+031090FM-12+001599999V0201401N002610042019N0550001N1+00801+00651102381ADDAA199000091AY121061AY221061GF108991081051004501999999KA1120M+00851MA1999999102201MD1210081+9999MW1031REMSYN088AAXX  11184 01098 31485 81405 10080 20065 30220 40238 52008 70322 885// 333 10085 91112;EQDQ01  00002PRCP99
0161010980999992000101121004+70360+031090FM-12+001599999V0201701N003610042019N0550001N1+00771+00631102351ADDAY121031AY221031GF105991051051004501001001MA1999999102171MD1710031+9999MW1021REMSYN072AAXX  11214 01098 41485 51707 10077 20063 30217 40235 57003 70222 85500;
0201010980999992000101200004+70360+031090FM-12+001599999V0201901N003612200019N0550001N1+00741+00571102371ADDAA199000091AY121061AY211061GF103991031051004501001001MA1999999102191MD1210021+9999MW1021REMSYN082AAXX  12004 01098 31485 31907 10074 20057 30219 40237 52002 70221 83500 333 91110;EQDQ01  00002PRCP99
0161010980999992000101203004+70360+031090FM-12+001599999V0201601N003610042019N0550001N1+00721+00551102341ADDAY121031AY211031GF106991061051004501001001MA1999999102161MD1710031+9999MW1021REMSYN072AAXX  12034 01098 41485 61607 10072 20055 30216 40234 57003 70221 86500;
0220010980999992000101206004+70360+031090FM-12+001599999V0201601N004110042019N0550001N1+00761+00621102341ADDAA199000091AY121061AY211061GF107991071051004501001001KA1120N+00701MA1999999102151MD1710011+9999MW1021REMSYN088AAXX  12064 01098 31485 71608 10076 20062 30215 40234 57001 70221 87500 333 20070 91110;EQDQ01  00002PRCP99
0161010980999992000101209004+70360+031090FM-12+001599999V0201701N004110240019N0300001N1+00781+00631102291ADDAY121031AY221031GF106991011041004501051091MA1999999102111MD1710041+9999MW1021REMSYN072AAXX  12094 01098 41480 61708 10078 20063 30211 40229 57004 70222 81459;
0201010980999992000101212004+70360+031090FM-12+001599999V0201701N004112200019N0250001N1+00841+00651102251ADDAA199000091AY121061AY221061GF105991021041004501051091MA1999999102071MD1710041+9999MW1021REMSYN082AAXX  12124 01098 31475 51708 10084 20065 30207 40225 57004 70222 82459 333 91111;EQDQ01  00002PRCP99
0161010980999992000101215004+70360+031090FM-12+001599999V0201801N005712200019N0550001N1+00691+00511102281ADDAY121031AY211031GF103991021041004501031091MA1999999102101MD1310031+9999MW1011REMSYN072AAXX  12154 01098 41485 31811 10069 20051 30210 40228 53003 70121 82439;
0220010980999992000101218004+70360+031090FM-12+001599999V0201801N005712200019N0550001N1+00581+00411102321ADDAA199000091AY121061AY211061GF102991021041004501001001KA1120M+00851MA1999999102141MD1210041+9999MW1021REMSYN088AAXX  12184 01098 31485 21811 10058 20041 30214 40232 52004 70221 82400 333 10085 91115;EQDQ01  00002PRCP99
0171010980999992000101221004+70360+031090FM-12+001599999V0201901N003112200019N0550001N1+00481+00311102271ADDAY101031AY201031GA1001+999999999GF100991001001999999001001MA1999999102091MD1810051+9999MW1011REMSYN066AAXX  12214 01098 41985 01906 10048 20031 30209 40227 58005 70100;
0201010980999992000101300004+70360+031090FM-12+001599999V0201801N003112200019N0550001N1+00441+00341102201ADDAA199000091AY101061AY201061GF101991011041004501001001MA1999999102021MD1710071+9999MW1031REMSYN082AAXX  13004 01098 31485 11806 10044 20034 30202 40220 57007 70300 81400 333 91112;EQDQ01  00002PRCP99
0161010980999992000101303004+70360+031090FM-12+001599999V0201801N002112200019N0550001N1+00461+00361102101ADDAY101031AY201031GF101991011041004501001001MA1999999101921MD1710101+9999MW1021REMSYN072AAXX  13034 01098 41485 11804 10046 20036 30192 40210 57010 70200 81400;
0220010980999992000101306004+70360+031090FM-12+001599999V0201501N003112200019N0550001N1+00631+00561101931ADDAA199000091AY101061AY201061GF104991021041004501041081KA1120N+00431MA1999999101751MD1710171+9999MW1031REMSYN088AAXX  13064 01098 31485 41506 10063 20056 30175 40193 57017 70300 82448 333 20043 91110;EQDQ01  00002PRCP99
0161010980999992000101309004+70360+031090FM-12+001599999V0201501N003610240019N0550001N1+00661+00521101771ADDAY121031AY211031GF107991041051004501071001MA1999999101591MD1710161+9999MW1021REMSYN072AAXX  13094 01098 41485 71507 10066 20052 30159 40177 57016 70221 84570;
0201010980999992000101312004+70360+031090FM-12+001599999V0201301N002610042019N0550001N1+00731+00591101551ADDAA199000091AY121061AY211061GF108991061051004501071999MA1999999101371MD1710221+9999MW1021REMSYN082AAXX  13124 01098 31485 81305 10073 20059 30137 40155 57022 70221 8657/ 333 91111;EQDQ01  00002PRCP99
0161010980999992000101315004+70360+031090FM-12+001599999V0201201N003110042019N0550001N1+00821+00651101311ADDAY121031AY221031GF108991081051004501999999MA1999999101131MD1710241+9999MW1021REMSYN072AAXX  13154 01098 41485 81206 10082 20065 30113 40131 57024 70222 885//;
0207010980999992000101318004+70360+031090FM-12+001599999V0201501N003110042019N0550001N1+00801+00691101141ADDAA112000791AY161061AY221061GF108991071071004501021999KA1120M+00831MA1999999100961MD1710171+9999MW1021REMSYN094AAXX  13184 01098 11485 81506 10080 20069 30096 40114 57017 69902 70262 8772/ 333 10083 91110;
0161010980999992000101321004+70360+031090FM-12+001599999V0201501N003110042019N0300001N1+00741+00711101081ADDAY161031AY221031GF107991061071004501021001MA1999999100901MD1710061+9999MW1021REMSYN072AAXX  13214 01098 41480 71506 10074 20071 30090 40108 57006 70262 86720;
0201010980999992000101400004+70360+031090FM-12+001599999V0201501N002610240019N0300001N1+00721+00661100851ADDAA199000091AY121061AY221061GF105991031071004501021001MA1999999100651MD1710231+9999MW1011REMSYN082AAXX  14004 01098 31480 51505 10072 20066 30065 40085 57023 70122 83720 333 91109;EQDQ01  00002PRCP99
0161010980999992000101403004+70360+031090FM-12+001599999V0201501N002110240019N0300001N1+00721+00651100681ADDAY121031AY221031GF105991041071004501021001MA1999999100501MD1710151+9999MW1021REMSYN072AAXX  14034 01098 41480 51504 10072 20065 30050 40068 57015 70222 84720;
0207010980999992000101406004+70360+031090FM-12+001599999V0201401N002110240019N0100001N1+00781+00711100471ADDAA112000191AY161061AY221061GF108991041071002501021999KA1120N+00721MA1999999100291MD1710211+9999MW1611REMSYN094AAXX  14064 01098 11360 81404 10078 20071 30029 40047 57021 69922 76162 8472/ 333 20072 91109;
0161010980999992000101409004+70360+031090FM-12+001599999V0201401N002110042019N0300001N1+00771+00711100271ADDAY161031AY221031GF108991071071004501021999MA1999999100091MD1710201+9999MW1601REMSYN072AAXX  14094 01098 41480 81404 10077 20071 30009 40027 57020 76062 8772/;
0188010980999992000101412004+70360+031090FM-12+001599999V0201401N001010012019N0100001N1+00771+00711100191ADDAA106001091AY161061AY221061GF108991081061001501999999MA1999999100011MD1710081+9999MW1611REMSYN088AAXX  14124 01098 11260 81402 10077 20071 30001 40019 57008 60011 76162 886// 333 91107;
0161010980999992000101415004+70360+031090FM-12+001599999V0203101N002610012019N0100001N1+00741+00681100221ADDAY161031AY221031GF108991071071001501021999MA1999999100041MD1310031+9999MW1611REMSYN072AAXX  14154 01098 41260 83105 10074 20068 30004 40022 53003 76162 8772/;
0207010980999992000101418004+70360+031090FM-12+001599999V0203101N003110012019N0100001N1+00741+00681100311ADDAA112003091AY161061AY221061GF108991071071001501021999KA1120M+00801MA1999999100131MD1210021+9999MW1611REMSYN094AAXX  14184 01098 11260 83106 10074 20068 30013 40031 52002 60032 76162 8772/ 333 10080 91109;
0161010980999992000101421004+70360+031090FM-12+001599999V0203101N002610012019N0100001N1+00771+00711100481ADDAY161031AY221031GF108991081071001501999999MA1999999100301MD1210171+9999MW1601REMSYN072AAXX  14214 01098 41260 83105 10077 20071 30030 40048 52017 76062 887//;
0188010980999992000101500004+70360+031090FM-12+001599999V0203101N002610012019N0100001N1+00761+00701100691ADDAA106001091AY161061AY221061GF108991081061001501999999MA1999999100511MD1210211+9999MW1611REMSYN088AAXX  15004 01098 11260 83105 10076 20070 30051 40069 52021 60011 76162 886// 333 91110;
0161010980999992000101503004+70360+031090FM-12+001599999V0202701N002112200019N0550001N1+00551+00451100881ADDAY161031AY221031GF103991021071004501041001MA1999999100701MD1210191+9999MW1021REMSYN072AAXX  15034 01098 41485 32704 10055 20045 30070 40088 52019 70262 82740;
0207010980999992000101506004+70360+031090FM-12+001599999V0202301N001510240019N0550001N1+00621+00521101011ADDAA112001091AY161061AY221061GF106991021071004501041001KA1120N+00481MA1999999100831MD1210131+9999MW1031REMSYN094AAXX  15064 01098 11485 62303 10062 20052 30083 40101 52013 60012 70362 82740 333 20048 91111;
0161010980999992000101509004+70360+031090FM-12+001599999V0202001N003112200019N0550001N1+00741+00621101091ADDAY121031AY221031GF104991031051004501041081MA1999999100911MD1210081+9999MW1021REMSYN072AAXX  15094 01098 41485 42006 10074 20062 30091 40109 52008 70222 83548;
0182010980999992000101512004+70360+031090FM-12+001599999V0201901N004112200019N0750001N1+00771+00651101101ADDAA199000021AY121061AY211061GF102991011051004501041081MA1999999100921MD1110011+9999MW1011REMSYN082AAXX  15124 01098 31489 21908 10077 20065 30092 40110 51001 70121 81548 333 91111;
0161010980999992000101515004+70360+031090FM-12+001599999V0202201N005710240019N0550001N1+00781+00631101061ADDAY121031AY211031GF107991021041004501051001MA1999999100881MD1810041+9999MW1031REMSYN072AAXX  15154 01098 41485 72211 10078 20063 30088 40106 58004 70321 82450;
0220010980999992000101518004+70360+031090FM-12+001599999V0202001N004610240019N0550001N1+00781+00631101081ADDAA199000091AY121061AY211061GF108991031041004501051001KA1120M+00821MA1999999100901MD1210021+9999MW1031REMSYN088AAXX  15184 01098 31485 82009 10078 20063 30090 40108 52002 70321 83450 333 10082 91115;EQDQ01  00002PRCP99
0161010980999992000101521004+70360+031090FM-12+001599999V0202401N002110042019N0550001N1+00681+00531101251ADDAY121031AY221031GF107991071041004501001001MA1999999101071MD1210171+9999MW1011REMSYN072AAXX  15214 01098 41485 72404 10068 20053 30107 40125 52017 70122 87400;
0201010980999992000101600004+70360+031090FM-12+001599999V0202001N002610042019N0550001N1+00701+00591101281ADDAA199000091AY121061AY221061GF108991081051004501999999MA1999999101101MD1210031+9999MW1021REMSYN082AAXX  16004 01098 31485 82005 10070 20059 30110 40128 52003 70222 885// 333 91112;EQDQ01  00002PRCP99
0161010980999992000101603004+70360+031090FM-12+001599999V0202401N002110042019N0550001N1+00681+00561101371ADDAY121031AY221031GF107991061051004501051999MA1999999101191MD1210091+9999MW1021REMSYN072AAXX  16034 01098 41485 72404 10068 20056 30119 40137 52009 70222 8655/;
0220010980999992000101606004+70360+031090FM-12+001599999V0202601N000512200019N0550001N1+00461+00361101651ADDAA199000091AY121061AY221061GF104991031051004501031091KA1120N+00461MA1999999101471MD1310281+9999MW1021REMSYN088AAXX  16064 01098 31485 42601 10046 20036 30147 40165 53028 70222 83539 333 20046 91106;EQDQ01  00002PRCP99
0161010980999992000101609004+70360+031090FM-12+001599999V0201901N000510240019N0550001N1+00851+00631101961ADDAY121031AY211031GF105991031041004501041001MA1999999101781MD1310311+9999MW1021REMSYN072AAXX  16094 01098 41485 51901 10085 20063 30178 40196 53031 70221 83440;
0201010980999992000101612004+70360+031090FM-12+001599999V0202001N001012200019N0750001N1+00741+00601102191ADDAA199000091AY121061AY211061GF103991021041004501071091MA1999999102011MD1210231+9999MW1011REMSYN082AAXX  16124 01098 31489 32002 10074 20060 30201 40219 52023 70121 82479 333 91105;EQDQ01  00002PRCP99
0161010980999992000101615004+70360+031090FM-12+001599999V0202101N003612200019N0750001N1+00621+00521102301ADDAY101031AY201031GF101991011041004501041001MA1999999102121MD1110111+9999MW1011REMSYN072AAXX  16154 01098 41489 12107 10062 20052 30212 40230 51011 70100 81440;
0220010980999992000101618004+70360+031090FM-12+001599999V0202001N003612200019N0750001N1+00581+00511102361ADDAA199000091AY101061AY201061GF102991011041004501001081KA1120M+00901MA1999999102181MD1210061+9999MW1031REMSYN088AAXX  16184 01098 31489 22007 10058 20051 30218 40236 52006 70300 81408 333 10090 91109;EQDQ01  00002PRCP99
0161010980999992000101621004+70360+031090FM-12+001599999V0201801N004110042019N0550001N1+00561+00491102381ADDAY121031AY211031GF106991061041004501001001MA1999999102201MD1210021+9999MW1031REMSYN072AAXX  16214 01098 41485 61808 10056 20049 30220 40238 52002 70321 86400;
0201010980999992000101700004+70360+031090FM-12+001599999V0201801N005710042019N0550001N1+00541+00471102151ADDAA199000091AY121061AY211061GF107991071041004501001001MA1999999101971MD1810231+9999MW1031REMSYN082AAXX  17004 01098 31485 71811 10054 20047 30197 40215 58023 70321 87400 333 91115;EQDQ01  00002PRCP99
0161010980999992000101703004+70360+031090FM-12+001599999V0201801N006210042019N0550001N1+00521+00451102011ADDAY121031AY221031GF107991071041004501001001MA1999999101831MD1710141+9999MW1021REMSYN072AAXX  17034 01098 41485 71812 10052 20045 30183 40201 57014 70222 87400;
0207010980999992000101706004+70360+031090FM-12+001599999V0201701N005710042019N0550001N1+00691+00621101691ADDAA112000791AY161061AY221061GF108991071071004501021001KA1120N+00521MA1999999101511MD1710321+9999MW1601REMSYN094AAXX  17064 01098 11485 81711 10069 20062 30151 40169 57032 69902 76062 87720 333 20052 91120;
0161010980999992000101709004+70360+031090FM-12+001599999V0201701N006710042019N0550001N1+00801+00721101431ADDAY161031AY221031GF108991071071004501021999MA1999999101251MD1810261+9999MW1021REMSYN072AAXX  17094 01098 41485 81713 10080 20072 30125 40143 58026 70262 8772/;
0188010980999992000101712004+70360+031090FM-12+001599999V0201901N003610042019N0550001N1+00971+00701101311ADDAA106000791AY161061AY221061GF107991051071004501071091MA1999999101131MD1610121+9999MW1021REMSYN088AAXX  17124 01098 11485 71907 10097 20070 30113 40131 56012 69901 70262 85779 333 91119;
0161010980999992000101715004+70360+031090FM-12+001599999V0202101N009810210019N0550001N1+00951+00691100971ADDAY121031AY221031GF106991051001022501041091MA1999999100791MD1810341+9999MW1021REMSYN072AAXX  17154 01098 41885 62119 10095 20069 30079 40097 58034 70222 85049;
0226010980999992000101718004+70360+031090FM-12+001599999V0201901N006710210019N0550001N1+00941+00611101031ADDAA112000791AY121061AY221061GF106991999001022501041001KA1120M+01021MA1999999100851MD1310061+9999MW1021REMSYN094AAXX  17184 01098 11885 61913 10094 20061 30085 40103 53006 69902 70222 85040 333 10102 91127;EQDQ01+000052SCOTLC
0161010980999992000101721004+70360+031090FM-12+001599999V0202001N006710240019N0550001N1+00871+00701100831ADDAY121031AY221031GF106991011041012501041001MA1999999100651MD1810201+9999MW1021REMSYN072AAXX  17214 01098 41685 62013 10087 20070 30065 40083 58020 70222 81440;
0201010980999992000101800004+70360+031090FM-12+001599999V0202101N006210240019N0550001N1+00931+00761100791ADDAA199000091AY121061AY221061GF106991031051002501071001MA1999999100611MD1810041+9999MW1021REMSYN082AAXX  18004 01098 31385 62112 10093 20076 30061 40079 58004 70222 83570 333 91121;EQDQ01  00002PRCP99
0161010980999992000101803004+70360+031090FM-12+001599999V0202201N005112200019N0550001N1+01021+00811100991ADDAY121031AY211031GF104991021051004501071001MA1999999100811MD1310201+9999MW1011REMSYN072AAXX  18034 01098 41485 42210 10102 20081 30081 40099 53020 70121 82570;
0220010980999992000101806004+70360+031090FM-12+001599999V0202601N001512200019N0550001N1+00921+00561101351ADDAA199000091AY121061AY211061GF103991021081002501041081KA1120N+00871MA1999999101171MD1210361+9999MW1011REMSYN088AAXX  18064 01098 31385 32603 10092 20056 30117 40135 52036 70121 82848 333 20087 91121;EQDQ01  00002PRCP99
0161010980999992000101809004+70360+031090FM-12+001599999V0202701N001012200019N0550001N1+00881+00541101511ADDAY121031AY211031GF103991011041004501041091MA1999999101331MD1210161+9999MW1021REMSYN072AAXX  18094 01098 41485 32702 10088 20054 30133 40151 52016 70221 81449;
0201010980999992000101812004+70360+031090FM-12+001599999V0201501N002112200019N0550001N1+00911+00751101561ADDAA199000091AY121061AY211061GF103991011011004501041091MA1999999101381MD1110051+9999MW1021REMSYN082AAXX  18124 01098 31485 31504 10091 20075 30138 40156 51005 70221 81149 333 91106;EQDQ01  00002PRCP99
0161010980999992000101815004+70360+031090FM-12+001599999V0202101N001512200019N0550001N1+00631+00531101561ADDAY101031AY201031GF103991011011004501031091MA1999999101381MD1410001+9999MW1021REMSYN072AAXX  18154 01098 41485 32103 10063 20053 30138 40156 54000 70200 81139;
0220010980999992000101818004+70360+031090FM-12+001599999V0202301N002112200019N0550001N1+00551+00481101561ADDAA199000091AY101061AY201061GF103991011011004501031091KA1120M+01001MA1999999101381MD1410001+9999MW1021REMSYN088AAXX  18184 01098 31485 32304 10055 20048 30138 40156 54000 70200 81139 333 10100 91106;EQDQ01  00002PRCP99
0161010980999992000101821004+70360+031090FM-12+001599999V0202201N002612200019N0550001N1+00591+00451101561ADDAY101031AY201031GF103991011011004501041081MA1999999101381MD1410001+9999MW1021REMSYN072AAXX  18214 01098 41485 32205 10059 20045 30138 40156 54000 70200 81148;
0201010980999992000101900004+70360+031090FM-12+001599999V0202101N001012200019N0550001N1+00581+00481101561ADDAA199000091AY101061AY201061GF103991011011004501041001MA1999999101381MD1410001+9999MW1021REMSYN082AAXX  19004 01098 31485 32102 10058 20048 30138 40156 54000 70200 81140 333 91108;EQDQ01  00002PRCP99
0161010980999992000101903004+70360+031090FM-12+001599999V0202301N001510042019N0550001N1+00721+00611101521ADDAY121031AY221031GF108991051051004501041999MA1999999101341MD1810041+9999MW1031REMSYN072AAXX  19034 01098 41485 82303 10072 20061 30134 40152 58004 70322 8554/;
0220010980999992000101906004+70360+031090FM-12+001599999V0202001N002612200019N0550001N1+00791+00711101511ADDAA199000091AY101061AY201061GF104991011011004501071041KA1120N+00521MA1999999101331MD1710011+9999MW1011REMSYN088AAXX  19064 01098 31485 42005 10079 20071 30133 40151 57001 70100 81174 333 20052 91106;EQDQ01  00002PRCP99
0161010980999992000101909004+70360+031090FM-12+001599999V0202101N002110240019N0550001N1+00851+00771101521ADDAY121031AY211031GF107991031051004501071081MA1999999101341MD1310011+9999MW1021REMSYN072AAXX  19094 01098 41485 72104 10085 20077 30134 40152 53001 70221 83578;
0201010980999992000101912004+70360+031090FM-12+001599999V0201201N000510240019N0550001N1+00871+00791101591ADDAA199000091AY121061AY211061GF105991041051004501071081MA1999999101411MD1210071+9999MW1021REMSYN082AAXX  19124 01098 31485 51201 10087 20079 30141 40159 52007 70221 84578 333 91107;EQDQ01  00002PRCP99
0161010980999992000101915004+70360+031090FM-12+001599999V0202701N001010240019N0550001N1+00681+00571101691ADDAY121031AY211031GF106991041051004501071001MA1999999101511MD1210101+9999MW1021REMSYN072AAXX  19154 01098 41485 62702 10068 20057 30151 40169 52010 70221 84570;
0220010980999992000101918004+70360+031090FM-12+001599999V0203001N001012200019N0550001N1+00621+00551101851ADDAA199000091AY121061AY211061GF103991021051004501071001KA1120M+00961MA1999999101671MD1210161+9999MW1011REMSYN088AAXX  19184 01098 31485 33002 10062 20055 30167 40185 52016 70121 82570 333 10096 91105;EQDQ01  00002PRCP99
0161010980999992000101921004+70360+031090FM-12+001599999V0202701N000512200019N0750001N1+00531+00461102021ADDAY101031AY201031GF102991011051004501071001MA1999999101841MD1310171+9999MW1021REMSYN072AAXX  19214 01098 41489 22701 10053 20046 30184 40202 53017 70200 81570;
0201010980999992000102000004+70360+031090FM-12+001599999V0201701N000512200019N0750001N1+00541+00471102111ADDAA199000091AY101061AY201061GF101991011011004501001001MA1999999101931MD1110091+9999MW1021REMSYN082AAXX  20004 01098 31489 11701 10054 20047 30193 40211 51009 70200 81100 333 91103;EQDQ01  00002PRCP99
0161010980999992000102003004+70360+031090FM-12+001599999V0201801N000512200019N0750001N1+00541+00471102111ADDAY101031AY201031GF101991011011004501001001MA1999999101931MD1410001+9999MW1021REMSYN072AAXX  20034 01098 41489 11801 10054 20047 30193 40211 54000 70200 81100;
0220010980999992000102006004+70360+031090FM-12+001599999V0201701N002612200019N0550001N1+00551+00481102021ADDAA199000091AY111061AY201061GF103991021011004501051091KA1120N+00421MA1999999101841MD1810091+9999MW1031REMSYN088AAXX  20064 01098 31485 31705 10055 20048 30184 40202 58009 70310 82159 333 20042 91107;EQDQ01  00002PRCP99
0161010980999992000102009004+70360+031090FM-12+001599999V0201801N003610021019N0300001N1+00541+00481101851ADDAY121031AY211031GF107991061071002501021001MA1999999101671MD1810171+9999MW1031REMSYN072AAXX  20094 01098 41380 71807 10054 20048 30167 40185 58017 70321 86720;
0201010980999992000102012004+70360+031090FM-12+001599999V0201801N000510240019N0300001N1+00751+00631101691ADDAA199000091AY121061AY211061GF106991031081002501071081MA1999999101511MD1710161+9999MW1011REMSYN082AAXX  20124 01098 31380 61801 10075 20063 30151 40169 57016 70121 83878 333 91113;EQDQ01  00002PRCP99
0161010980999992000102015004+70360+031090FM-12+001599999V0202001N004110042019N0550001N1+00781+00611101631ADDAY121031AY221031GF108991081051004501999999MA1999999101451MD1710061+9999MW1031REMSYN072AAXX  20154 01098 41485 82008 10078 20061 30145 40163 57006 70322 885//;
0220010980999992000102018004+70360+031090FM-12+001599999V0202201N003110042019N0550001N1+00611+00441101611ADDAA199000091AY121061AY221061GF105991051051004501001001KA1120M+00781MA1999999101431MD1710021+9999MW1011REMSYN088AAXX  20184 01098 31485 52206 10061 20044 30143 40161 57002 70122 85500 333 10078 91112;EQDQ01  00002PRCP99
0161010980999992000102021004+70360+031090FM-12+001599999V0202101N003112200019N0550001N1+00531+00381101621ADDAY121031AY211031GF104991031051004501031001MA1999999101441MD1310011+9999MW1021REMSYN072AAXX  20214 01098 41485 42106 10053 20038 30144 40162 53001 70221 83530;
0201010980999992000102100004+70360+031090FM-12+001599999V0202101N003112200019N0550001N1+00621+00451101611ADDAA199000091AY121061AY211061GF103991021051004501031001MA1999999101431MD1810011+9999MW1021REMSYN082AAXX  21004 01098 31485 32106 10062 20045 30143 40161 58001 70221 82530 333 91109;EQDQ01  00002PRCP99
0133010980999992000102103004+70360+031090FM-12+001599999V0202201N001010042019N0550001N1+00741+00311101731ADDGF108991081051004501999999MA1999999101551MD1310121+9999REMSYN066AAXX  21034 01098 41485 82202 10074 20031 30155 40173 53012 885//;
0220010980999992000102106004+70360+031090FM-12+001599999V0202301N002610240019N0550001N1+00731+00481101871ADDAA199000091AY121061AY221061GF106991041051004501031001KA1120N+00501MA1999999101691MD1210141+9999MW1021REMSYN088AAXX  21064 01098 31485 62305 10073 20048 30169 40187 52014 70222 84530 333 20050 91110;EQDQ01  00002PRCP99
0161010980999992000102109004+70360+031090FM-12+001599999V0202401N003112200019N0550001N1+00751+00581102091ADDAY121031AY221031GF104991021041004501001091MA1999999101911MD1210221+9999MW1011REMSYN072AAXX  21094 01098 41485 42406 10075 20058 30191 40209 52022 70122 82409;
0201010980999992000102112004+70360+031090FM-12+001599999V0201801N002112200019N0550001N1+00801+00511102171ADDAA199000091AY121061AY221061GF104991021041004501001091MA1999999101991MD1210081+9999MW1021REMSYN082AAXX  21124 01098 31485 41804 10080 20051 30199 40217 52008 70222 82409 333 91111;EQDQ01  00002PRCP99
0180010980999992000102115004+70360+031090FM-12+001599999V0202101N003619999999N0550001N1+00631+00511102061ADDAY121031AY221031GF106991001001999999001091MA1999999101881MD1810111+9999MW1031REMSYN072AAXX  21154 01098 41885 62107 10063 20051 30188 40206 58011 70322 80009;EQDQ01+022502SCOLCB
0236010980999992000102118004+70360+031090FM-12+001599999V0201801N004119999999N0550001N1+00621+00471101781ADDAA199000091AY121061AY221061GF108991001001999999001091KA1120M+00861MA1999999101601MD1810281+9999MW1031REMSYN088AAXX  21184 01098 31885 81808 10062 20047 30160 40178 58028 70322 80009 333 10086 91110;EQDQ01+022502SCOLCBQ02  00002PRCP99
0155010980999992000102121004+70360+031090FM-12+001599999V0201901N006210210019N0550001N1+00601+00431999999ADDAY121031AY221031GF108991081031022501999999MA1999999101151MD1810451+9999MW1031REMSYN066AAXX  21214 01098 41885 81912 10060 20043 30115 58045 70322 883//;
0188010980999992000102200004+70360+031090FM-12+001599999V0201801N005710090019N0300001N1+00711+00641100931ADDAA106000191AY181061AY221061GF108991081081004501999999MA1999999100751MD1710401+9999MW1811REMSYN088AAXX  22004 01098 11480 81811 10071 20064 30075 40093 57040 69911 78182 888// 333 91118;
0161010980999992000102203004+70360+031090FM-12+001599999V0201901N005110090019N0300001N1+00701+00631100461ADDAY181031AY221031GF108991081081004501999999MA1999999100281MD1710471+9999MW1021REMSYN072AAXX  22034 01098 41480 81910 10070 20063 30028 40046 57047 70282 888//;
0207010980999992000102206004+70360+031090FM-12+001599999V0202101N004610060019N0300001N1+00771+00701100191ADDAA112001091AY181061AY221061GF108991081081001501999999KA1120N+00611MA1999999100011MD1710271+9999MW1021REMSYN094AAXX  22064 01098 11280 82109 10077 20070 30001 40019 57027 60012 70282 888// 333 20061 91115;
0161010980999992000102209004+70360+031090FM-12+001599999V0202501N002110240019N0550001N1+00781+00711100051ADDAY121031AY221031GF108991011021004501041081MA1999999099871MD1610141+9999MW1011REMSYN072AAXX  22094 01098 41485 82504 10078 20071 39987 40005 56014 70122 81248;
0182010980999992000102212004+70360+031090FM-12+001599999V0209999C000010075019N0750001N1+00721+00651100011ADDAA199000021AY121061AY221061GF108991081041008001999999MA1999999099831MD1610041+9999MW1021REMSYN082AAXX  22124 01098 31589 80000 10072 20065 39983 40001 56004 70222 884// 333 91111;
0161010980999992000102215004+70360+031090FM-12+001599999V0202901N001010075019N0750001N1+00701+00581099981ADDAY121031AY221031GF107991071041008001031001MA1999999099801MD1710031+9999MW1021REMSYN072AAXX  22154 01098 41589 72902 10070 20058 39980 49998 57003 70222 87430;
0220010980999992000102218004+70360+031090FM-12+001599999V0202701N001510075019N0750001N1+00651+00401100021ADDAA199000091AY121061AY221061GF108991071041008001031999KA1120M+00801MA1999999099841MD1310041+9999MW1021REMSYN088AAXX  22184 01098 31589 82703 10065 20040 39984 40002 53004 70222 8743/ 333 10080 91106;EQDQ01  00002PRCP99
0161010980999992000102221004+70360+031090FM-12+001599999V0202701N002612200019N0750001N1+00471+00271100051ADDAY121031AY221031GF104991041041008001001001MA1999999099871MD1210031+9999MW1011REMSYN072AAXX  22214 01098 41589 42705 10047 20027 39987 40005 52003 70122 84400;
0201010980999992000102300004+70360+031090FM-12+001599999V0202401N002612200019N0750001N1+00361+00241100041ADDAA199000091AY121061AY211061GF104991041041008001001001MA1999999099861MD1810011+9999MW1021REMSYN082AAXX  23004 01098 31589 42405 10036 20024 39986 40004 58001 70221 84400 333 91110;EQDQ01  00002PRCP99
0161010980999992000102303004+70360+031090FM-12+001599999V0202501N005712200019N0550001N1+00451+00251099911ADDAY121031AY211031GF104991041071004501001001MA1999999099731MD1810131+9999MW1031REMSYN072AAXX  23034 01098 41485 42511 10045 20025 39973 49991 58013 70321 84700;
0220010980999992000102306004+70360+031090FM-12+001599999V0202601N006210042019N0550001N1+00471+00271099891ADDAA199000091AY121061AY221061GF108991051071004501041061KA1120N+00311MA1999999099711MD1610021+9999MW1031REMSYN088AAXX  23064 01098 31485 82612 10047 20027 39971 49989 56002 70322 85746 333 20031 91116;EQDQ01  00002PRCP99
0161010980999992000102309004+70360+031090FM-12+001599999V0202601N007710240019N0550001N1+00531+00231100041ADDAY121031AY221031GF106991031071004501071091MA1999999099861MD1310151+9999MW1021REMSYN072AAXX  23094 01098 41485 62615 10053 20023 39986 40004 53015 70222 83779;
0201010980999992000102312004+70360+031090FM-12+001599999V0202801N007710240019N0550001N1+00531+00111100251ADDAA199000091AY121061AY221061GF106991041071004501071091MA1999999100071MD1210191+9999MW1021REMSYN082AAXX  23124 01098 31485 62815 10053 20011 30007 40025 52019 70222 84779 333 91122;EQDQ01  00002PRCP99
0161010980999992000102315004+70360+031090FM-12+001599999V0202701N005710042019N0550001N1+00531-00051100391ADDAY121031AY221031GF107991051071004501071001MA1999999100211MD1010141+9999MW1021REMSYN072AAXX  23154 01098 41485 72711 10053 21005 30021 40039 50014 70222 85770;
0220010980999992000102318004+70360+031090FM-12+001599999V0202801N006210042019N0550001N1+00521-00151100401ADDAA199000091AY121061AY221061GF108991081071004501999999KA1120M+00551MA1999999100221MD1210011+9999MW1021REMSYN088AAXX  23184 01098 31485 82812 10052 21015 30022 40040 52001 70222 887// 333 10055 91120;EQDQ01  00002PRCP99
0161010980999992000102321004+70360+031090FM-12+001599999V0202601N004112200019N0750001N1+00361+00121100441ADDAY121031AY221031GF104991041071004501001001MA1999999100261MD1210041+9999MW1011REMSYN072AAXX  23214 01098 41489 42608 10036 20012 30026 40044 52004 70122 84700;
0201010980999992000102400004+70360+031090FM-12+001599999V0202401N004610042019N0750001N1+00321+00201100421ADDAA199000091AY121061AY221061GF106991061071004501001001MA1999999100241MD1810021+9999MW1031REMSYN082AAXX  24004 01098 31489 62409 10032 20020 30024 40042 58002 70322 86700 333 91113;EQDQ01  00002PRCP99
0161010980999992000102403004+70360+031090FM-12+001599999V0202501N003612200019N0750001N1+00221+00121100351ADDAY121031AY221031GF104991041071004501001001MA1999999100171MD1710071+9999MW1011REMSYN072AAXX  24034 01098 41489 42507 10022 20012 30017 40035 57007 70122 84700;
0220010980999992000102406004+70360+031090FM-12+001599999V0202401N003112200019N0750001N1+00141+00071100281ADDAA199000091AY121061AY211061GF102991021021004501001001KA1120N+00141MA1999999100101MD1710071+9999MW1011REMSYN088AAXX  24064 01098 31489 22406 10014 20007 30010 40028 57007 70121 82200 333 20014 91110;EQDQ01  00002PRCP99
0161010980999992000102409004+70360+031090FM-12+001599999V0209999C000012200019N0550001N1+00201+00071100271ADDAY111031AY201031GF101991011021004501041011MA1999999100091MD1710011+9999MW1021REMSYN072AAXX  24094 01098 41485 10000 10020 20007 30009 40027 57001 70210 81241;
0201010980999992000102412004+70360+031090FM-12+001599999V0202401N001012200019N0750001N1+00311+00051100251ADDAA199000091AY111061AY201061GF102991011081004501041011MA1999999100071MD1710021+9999MW1021REMSYN082AAXX  24124 01098 31489 22402 10031 20005 30007 40025 57002 70210 81841 333 91107;EQDQ01  00002PRCP99
0161010980999992000102415004+70360+031090FM-12+001599999V0202701N001012200019N0750001N1+00031-00041100211ADDAY101031AY201031GF102991021011004501001001MA1999999100031MD1710041+9999MW1021REMSYN072AAXX  24154 01098 41489 22702 10003 21004 30003 40021 57004 70200 82100;
0220010980999992000102418004+70360+031090FM-12+001599999V0202601N000512200019N0750001N1+00001-00071100141ADDAA199000091AY101061AY201061GF102991021011004501001001KA1120M+00351MA1999999099961MD1710071+9999MW1021REMSYN088AAXX  24184 01098 31489 22601 10000 21007 39996 40014 57007 70200 82100 333 10035 91103;EQDQ01  00002PRCP99
0161010980999992000102421004+70360+031090FM-12+001599999V0202601N000512200019N0750001N1-00021-00081100151ADDAY101031AY201031GF102991021011004501001001MA1999999099961MD1310011+9999MW1021REMSYN072AAXX  24214 01098 41489 22601 11002 21008 39996 40015 53001 70200 82100;
0201010980999992000102500004+70360+031090FM-12+001599999V0202801N000512200019N0750001N1+00151+00081100051ADDAA199000091AY101061AY201061GF101991011011004501001001MA1999999099871MD1710151+9999MW1021REMSYN082AAXX  25004 01098 31489 12801 10015 20008 39987 40005 57015 70200 81100 333 91103;EQDQ01  00002PRCP99
0161010980999992000102503004+70360+031090FM-12+001599999V0200501N001512200019N0550001N1+00281+00151099871ADDAY101031AY201031GF103991031011004501001001MA1999999099691MD1710181+9999MW1021REMSYN072AAXX  25034 01098 41485 30503 10028 20015 39969 49987 57018 70200 83100;
0220010980999992000102506004+70360+031090FM-12+001599999V0200701N001010240019N0550001N1+00251+00091099761ADDAA199000091AY121061AY201061GF106991041081002501031001KA1120N-00021MA1999999099581MD1710251+9999MW1031REMSYN088AAXX  25064 01098 31385 60702 10025 20009 39958 49976 57025 70320 84830 333 21002 91107;EQDQ01  00002PRCP99
0161010980999992000102509004+70360+031090FM-12+001599999V0200601N003610060019N0100001N1+00231+00081099601ADDAY181031AY221031GF107991071081002501001001MA1999999099421MD1710161+9999MW1831REMSYN072AAXX  25094 01098 41360 70607 10023 20008 39942 49960 57016 78382 87800;
0188010980999992000102512004+70360+031090FM-12+001599999V0200401N002610060019N0550001N1+00411-00011099461ADDAA106000191AY181061AY221061GF106991061081002501071001MA1999999099281MD1710141+9999MW1021REMSYN088AAXX  25124 01098 11385 60405 10041 21001 39928 49946 57014 69911 70282 86870 333 91112;
0161010980999992000102515004+70360+031090FM-12+001599999V0200401N003110060019N0550001N1+00451+00191099451ADDAY181031AY221031GF108991051081002501071999MA1999999099271MD1710011+9999MW1801REMSYN072AAXX  25154 01098 41385 80406 10045 20019 39927 49945 57001 78082 8587/;
0207010980999992000102518004+70360+031090FM-12+001599999V0200601N002610060019N0550001N1+00471+00291099361ADDAA112000191AY181061AY221061GF108991081081002501999999KA1120M+00481MA1999999099181MD1710091+9999MW1021REMSYN094AAXX  25184 01098 11385 80605 10047 20029 39918 49936 57009 69912 70282 888// 333 10048 91113;
0161010980999992000102521004+70360+031090FM-12+001599999V0200501N005110090019N0600001N1+00461+00291099341ADDAY121031AY221031GF105991051081004501001001MA1999999099161MD1610021+9999MW1011REMSYN072AAXX  25214 01098 41486 50510 10046 20029 39916 49934 56002 70122 85800;
0188010980999992000102600004+70360+031090FM-12+001599999V0200401N004610090019N0600001N1+00401+00231099421ADDAA106000591AY181061AY221061GF108991081081004501999999MA1999999099241MD1310081+9999MW1031REMSYN088AAXX  26004 01098 11486 80409 10040 20023 39924 49942 53008 69951 70382 888// 333 91116;
0161010980999992000102603004+70360+031090FM-12+001599999V0200301N004610090019N0600001N1+00361+00201099551ADDAY121031AY221031GF106991061081004501001001MA1999999099371MD1210131+9999MW1011REMSYN072AAXX  26034 01098 41486 60309 10036 20020 39937 49955 52013 70122 86800;
0207010980999992000102606004+70360+031090FM-12+001599999V0200301N004610042019N0600001N1+00251+00181099711ADDAA112001091AY181061AY221061GF108991081071004501999999KA1120N+00221MA1999999099531MD1210161+9999MW1031REMSYN094AAXX  26064 01098 11486 80309 10025 20018 39953 49971 52016 60012 70382 887// 333 20022 91117;
0161010980999992000102609004+70360+031090FM-12+001599999V0200301N005110090019N0300001N1+00291-00021099931ADDAY181031AY221031GF108991081081004501999999MA1999999099751MD1210221+9999MW1801REMSYN072AAXX  26094 01098 41480 80310 10029 21002 39975 49993 52022 78082 888//;
0188010980999992000102612004+70360+031090FM-12+001599999V0200201N004610060019N0300001N1+00261-00161100121ADDAA106000191AY181061AY221061GF107991071081002501001001MA1999999099941MD1210191+9999MW1021REMSYN088AAXX  26124 01098 11380 70209 10026 21016 39994 40012 52019 69911 70282 87800 333 91119;
0161010980999992000102615004+70360+031090FM-12+001599999V0200301N004110090019N0300001N1+00301-00331100301ADDAY181031AY221031GF108991081081004501999999MA1999999100121MD1210181+9999MW1031REMSYN072AAXX  26154 01098 41480 80308 10030 21033 30012 40030 52018 70382 888//;
0207010980999992000102618004+70360+031090FM-12+001599999V0200401N004610090019N0100001N1+00221-00021100521ADDAA112000191AY181061AY221061GF108991081081004501999999KA1120M+00331MA1999999100341MD1210221+9999MW1871REMSYN094AAXX  26184 01098 11460 80409 10022 21002 30034 40052 52022 69922 78782 888// 333 10033 91116;
0161010980999992000102621004+70360+031090FM-12+001599999V0200401N004610090019N0100001N1+00191-00191100651ADDAY181031AY221031GF108991081081004501999999MA1999999100471MD1210131+9999MW1871REMSYN072AAXX  26214 01098 41460 80409 10019 21019 30047 40065 52013 78782 888//;
0188010980999992000102700004+70360+031090FM-12+001599999V0200301N004610060019N0100001N1+00141-00201100791ADDAA106000391AY181061AY221061GF108991081081002501999999MA1999999100611MD1210141+9999MW1851REMSYN088AAXX  27004 01098 11360 80309 10014 21020 30061 40079 52014 69931 78582 888// 333 91116;
0161010980999992000102703004+70360+031090FM-12+001599999V0200301N004110060019N0100001N1+00181-00231100941ADDAY181031AY221031GF108991081081002501999999MA1999999100761MD1210151+9999MW1851REMSYN072AAXX  27034 01098 41360 80308 10018 21023 30076 40094 52015 78582 888//;
0207010980999992000102706004+70360+031090FM-12+001599999V0200401N004612200019N0300001N1+00211-00441101031ADDAA112000591AY181061AY221061GF104991041081002501001001KA1120N+00141MA1999999100851MD1210091+9999MW1011REMSYN094AAXX  27064 01098 11380 40409 10021 21044 30085 40103 52009 69942 70182 84800 333 20014 91116;
0161010980999992000102709004+70360+031090FM-12+001599999V0200201N004610060019N0250001N1+00271-00491101191ADDAY181031AY221031GF105991051081002501001001MA1999999101011MD1210161+9999MW1151REMSYN072AAXX  27094 01098 41375 50209 10027 21049 30101 40119 52016 71582 85800;
0188010980999992000102712004+70360+031090FM-12+001599999V0200301N004110060019N0550001N1+00231-00361101311ADDAA106000191AY181061AY221061GF105991051081002501001001MA1999999101131MD1210121+9999MW1151REMSYN088AAXX  27124 01098 11385 50308 10023 21036 30113 40131 52012 69911 71582 85800 333 91115;
0161010980999992000102715004+70360+031090FM-12+001599999V0200301N003610060019N0300001N1+00241-00461101351ADDAY181031AY221031GF107991071081002501001001MA1999999101171MD1210041+9999MW1261REMSYN072AAXX  27154 01098 41380 70307 10024 21046 30117 40135 52004 72682 87800;
0207010980999992000102718004+70360+031090FM-12+001599999V0200301N003612200019N0550001N1+00221-00591101421ADDAA112000191AY181061AY221061GF103991031081004501001001KA1120M+00281MA1999999101241MD1210071+9999MW1021REMSYN094AAXX  27184 01098 11485 30307 10022 21059 30124 40142 52007 69912 70282 83800 333 10028 91112;
0161010980999992000102721004+70360+031090FM-12+001599999V0200301N002612200019N0550001N1+00181-00161101521ADDAY121031AY211031GF104991041081004501001001MA1999999101341MD1210101+9999MW1031REMSYN072AAXX  27214 01098 41485 40305 10018 21016 30134 40152 52010 70321 84800;
0182010980999992000102800004+70360+031090FM-12+001599999V0200301N001510090019N0550001N1+00081-00221101561ADDAA199000021AY121061AY211061GF105991051081004501001001MA1999999101381MD1210041+9999MW1031REMSYN082AAXX  28004 01098 31485 50303 10008 21022 30138 40156 52004 70321 85800 333 91111;
0161010980999992000102803004+70360+031090FM-12+001599999V0203301N002110090019N0550001N1+00121-00191101691ADDAY181031AY221031GF107991071081004501001001MA1999999101411MD1210031+9999MW1031REMSYN072AAXX  28034 01098 41485 73304 10012 21019 30141 40169 52003 70382 87800;
0255010980999992000102806004+70360+031090FM-12+001599999V0200101N002110090019N0550001N1+00201-00541101621ADDAA112000591AJ199992999999999AY181061AY221061GF106991061081004501001001IA1219KA1120N+00051MA1999999101441MD1210031+9999MW1011REMSYN100AAXX  28064 01098 11485 60104 10020 21054 30144 40162 52003 69942 70182 86800 333 20005 45998 91111;EQDQ01  09972SNDP  
0161010980999992000102809004+70360+031090FM-12+001599999V0203301N001512200019N0550001N1+00181-00491101621ADDAY121031AY201031GF102991021011004501001001MA1999999101441MD1410001+9999MW1011REMSYN072AAXX  28094 01098 41485 23303 10018 21049 30144 40162 54000 70120 82100;
0188010980999992000102812004+70360+031090FM-12+001599999V0200501N002610090019N0550001N1+00181+00061101561ADDAA106000591AY181061AY211061GF108991081081004501999999MA1999999101381MD1810061+9999MW1261REMSYN088AAXX  28124 01098 11485 80505 10018 20006 30138 40156 58006 69961 72681 888// 333 91111;
0161010980999992000102815004+70360+031090FM-12+001599999V0203301N002610042019N0600001N1+00101-00581101581ADDAY121031AY221031GF106991061071004501001001MA1999999101401MD1310021+9999MW1011REMSYN072AAXX  28154 01098 41486 63305 10010 21058 30140 40158 53002 70122 86700;
0207010980999992000102818004+70360+031090FM-12+001599999V0203601N004610042019N0600001N1+00121-00421101571ADDAA112000591AY181061AY221061GF106991061071004501001001KA1120M+00251MA1999999101391MD1810021+9999MW1021REMSYN094AAXX  28184 01098 11486 63609 10012 21042 30139 40157 58002 69962 70282 86700 333 10025 91115;
0161010980999992000102821004+70360+031090FM-12+001599999V0200301N002110042019N0600001N1+00101-00571101661ADDAY121031AY221031GF105991051071004501001001MA1999999101481MD1310101+9999MW1011REMSYN072AAXX  28214 01098 41486 50304 10010 21057 30148 40166 53010 70122 85700;
0188010980999992000102900004+70360+031090FM-12+001599999V0203301N001010042019N0300001N1-00021-00121101731ADDAA106000791AY181061AY221061GF108991081071004501001001MA1999999101551MD1210071+9999MW1851REMSYN088AAXX  29004 01098 11480 83302 11002 21012 30155 40173 52007 69901 78582 88700 333 91116;
0161010980999992000102903004+70360+031090FM-12+001599999V0200501N001012200019N0750001N1-00021-00081101751ADDAY181031AY221031GF104991041081004501001001MA1999999101571MD1210021+9999MW1011REMSYN072AAXX  29034 01098 41489 40502 11002 21008 30157 40175 52002 70182 84800;
0207010980999992000102906004+70360+031090FM-12+001599999V0200501N002610021019N0300001N1+00081-00461101751ADDAA112001091AY181061AY221061GF108991081071002501999999KA1120N-00021MA1999999101571MD1410001+9999MW1031REMSYN094AAXX  29064 01098 11380 80505 10008 21046 30157 40175 54000 69992 70382 887// 333 21002 91110;
0161010980999992000102909004+70360+031090FM-12+001599999V0200301N002110240019N0750001N1+00061-00651101811ADDAY121031AY221031GF105991041081004501051011MA1999999101631MD1310061+9999MW1011REMSYN072AAXX  29094 01098 41489 50304 10006 21065 30163 40181 53006 70122 84851;
0182010980999992000102912004+70360+031090FM-12+001599999V0200201N002612200019N0600001N1+00061-00651101831ADDAA199000021AY121061AY211061GF104991031071004501001011MA1999999101651MD1110021+9999MW1151REMSYN082AAXX  29124 01098 31486 40205 10006 21065 30165 40183 51002 71521 83701 333 91110;
0161010980999992000102915004+70360+031090FM-12+001599999V0200601N001510042019N0750001N1+00101-00351101861ADDAY121031AY221031GF106991051031004501041001MA1999999101681MD1210031+9999MW1021REMSYN072AAXX  29154 01098 41489 60603 10010 21035 30168 40186 52003 70222 85340;
0207010980999992000102918004+70360+031090FM-12+001599999V0200301N002110240019N0550001N1-00091-00151101871ADDAA112000591AY181061AY211061GF105991041081004501041001KA1120M+00151MA1999999101681MD1410001+9999MW1261REMSYN094AAXX  29184 01098 11485 50304 11009 21015 30168 40187 54000 69952 72681 84840 333 10015 91109;
0161010980999992000102921004+70360+031090FM-12+001599999V0200801N001510090019N0550001N1-00021-00391101901ADDAY181031AY221031GF107991071081004501999999MA1999999101711MD1210031+9999MW1261REMSYN072AAXX  29214 01098 41485 70803 11002 21039 30171 40190 52003 72682 878//;
0188010980999992000103000004+70360+031090FM-12+001599999V0200701N002110090019N0050001N1-00141-00201101941ADDAA106002091AY181061AY221061GF108991081081004501999999MA1999999101751MD1210041+9999MW1861REMSYN088AAXX  30004 01098 11450 80704 11014 21020 30175 40194 52004 60021 78682 888// 333 91110;
0161010980999992000103003004+70360+031090FM-12+001599999V0200701N001512200019N0550001N1-00011-00531101911ADDAY181031AY221031GF103991031081004501001001MA1999999101721MD1810031+9999MW1021REMSYN072AAXX  30034 01098 41485 30703 11001 21053 30172 40191 58003 70282 83800;
0207010980999992000103006004+70360+031090FM-12+001599999V0200701N001519999999N0550001N1+00041-00691101871ADDAJ199991999999999GF105991999999004501999999IA1239KA1120N-00151MA1999999101691REMSYN099AAXX  30064 01098 11485 50703 10004 21069 30169 40187 7004 60022 70282 85800 333 21015 47999 91108;EQDQ01  09962SNDP  
0161010980999992000103009004+70360+031090FM-12+001599999V0200901N001012200019N0550001N1-00031-00331101951ADDAY181031AY221031GF104991041081004501001001MA1999999101761MD1310071+9999MW1151REMSYN072AAXX  30094 01098 41485 40902 11003 21033 30176 40195 53007 71582 84800;
0188010980999992000103012004+70360+031090FM-12+001599999V0202601N001510090019N0300001N1-00041-00281101991ADDAA106002091AY181061AY221061GF107991071081004501001001MA1999999101801MD1210041+9999MW1851REMSYN088AAXX  30124 01098 11480 72603 11004 21028 30180 40199 52004 60021 78582 87800 333 91113;
0161010980999992000103015004+70360+031090FM-12+001599999V0202601N001510060019N0300001N1-00251-00321102001ADDAY181031AY221031GF105991051081002501001001MA1999999101811MD1210011+9999MW1011REMSYN072AAXX  30154 01098 41380 52603 11025 21032 30181 40200 52001 70182 85800;
0207010980999992000103018004+70360+031090FM-12+001599999V0203401N001012200019N0750001N1-00101-00141102011ADDAA112002091AY181061AY221061GF102991021081004501001001KA1120M+00091MA1999999101821MD1210011+9999MW1011REMSYN094AAXX  30184 01098 11489 23402 11010 21014 30182 40201 52001 60022 70182 82800 333 10009 91106;
0161010980999992000103021004+70360+031090FM-12+001599999V0201601N002112200019N0300001N1-00051-00121102041ADDAY111031AY201031GF103991031081004501001001MA1999999101851MD1210031+9999MW1021REMSYN072AAXX  30214 01098 41480 31604 11005 21012 30185 40204 52003 70210 83800;
0188010980999992000103100004+70360+031090FM-12+001599999V0201201N000510060019N0006001N1-00121-00181102041ADDAA106002091AY181061AY221061GF108991081081002501999999MA1999999101841MD1410001+9999MW1861REMSYN088AAXX  31004 01098 11306 81201 11012 21018 30184 40204 54000 60021 78682 888// 333 91107;
0161010980999992000103103004+70360+031090FM-12+001599999V0201401N001010060019N0550001N1-00021-00131101971ADDAY181031AY211031GF105991051081002501001001MA1999999101781MD1810061+9999MW1021REMSYN072AAXX  31034 01098 41385 51402 11002 21013 30178 40197 58006 70281 85800;
0255010980999992000103106004+70360+031090FM-12+001599999V0201801N001510090019N0300001N1-00141-00211101871ADDAA112003091AJ199991999999999AY181061AY211061GF106991061081004501001001IA1239KA1120N-00221MA1999999101681MD1710101+9999MW1151REMSYN100AAXX  31064 01098 11480 61803 11014 21021 30168 40187 57010 60032 71581 86800 333 21022 47999 91105;EQDQ01  09962SNDP  
0161010980999992000103109004+70360+031090FM-12+001599999V0201901N000510060019N0050001N1-00081-00141101771ADDAY181031AY221031GF107991071081002501001001MA1999999101581MD1710101+9999MW1851REMSYN072AAXX  31094 01098 41350 71901 11008 21014 30158 40177 57010 78582 87800;
0188010980999992000103112004+70360+031090FM-12+001599999V0201401N001010060019N0200001N1+00011-00051101611ADDAA106002091AY181061AY221061GF107991071081002501001001MA1999999101431MD1710161+9999MW1261REMSYN088AAXX  31124 01098 11370 71402 10001 21005 30143 40161 57016 60021 72682 87800 333 91106;
0161010980999992000103115004+70360+031090FM-12+001599999V0201201N001510240019N0750001N1+00091-00391101411ADDAY181031AY221031GF105991031081004501071001MA1999999101231MD1710201+9999MW1021REMSYN072AAXX  31154 01098 41489 51203 10009 21039 30123 40141 57020 70282 83870;
0207010980999992000103118004+70360+031090FM-12+001599999V0201301N003610090019N0750001N1+00051-00381101341ADDAA112002091AY181061AY221061GF107991071081004501001001KA1120M+00121MA1999999101161MD1710071+9999MW1021REMSYN094AAXX  31184 01098 11489 71307 10005 21038 30116 40134 57007 60022 70282 87800 333 10012 91110;
0161010980999992000103121004+70360+031090FM-12+001599999V0201301N002612200019N0750001N1+00071-00341101271ADDAY111031AY201031GF103991031081004501001001MA1999999101091MD1710071+9999MW1011REMSYN072AAXX  31214 01098 41489 31305 10007 21034 30109 40127 57007 70110 83800;
0182010980999992000110100004+70360+031090FM-12+001599999V0201201N003112200019N0750001N1+00021-00461101281ADDAA199000021AY101061AY201061GF103991031081004501001001MA1999999101101MD1710011+9999MW1021REMSYN082AAXX  01004 01098 31489 31206 10002 21046 30110 40128 57001 70200 83800 333 91110;
0161010980999992000110103004+70360+031090FM-12+001599999V0201201N003112200019N0750001N1-00011-00531101221ADDAY101031AY201031GF103991031081004501001001MA1999999101031MD1710061+9999MW1021REMSYN072AAXX  01034 01098 41489 31206 11001 21053 30103 40122 57006 70200 83800;
0220010980999992000110106004+70360+031090FM-12+001599999V0201201N003112200019N0750001N1+00021-00521101181ADDAA199000091AY101061AY201061GF102991021081004501001001KA1120N-00011MA1999999101001MD1710041+9999MW1011REMSYN088AAXX  01064 01098 31489 21206 10002 21052 30100 40118 57004 70100 82800 333 21001 91111;EQDQ01  00002PRCP99
0161010980999992000110109004+70360+031090FM-12+001599999V0201201N003612200019N0550001N1+00051-00491101181ADDAY101031AY201031GF101991011011004501041081MA1999999101001MD1510001+9999MW1011REMSYN072AAXX  01094 01098 41485 11207 10005 21049 30100 40118 55000 70100 81148;
0201010980999992000110112004+70360+031090FM-12+001599999V0201201N004112200019N0600001N1+00021-00691101221ADDAA199000091AY101061AY201061GF103991021051004501001071MA1999999101041MD1110041+9999MW1031REMSYN082AAXX  01124 01098 31486 31208 10002 21069 30104 40122 51004 70300 82507 333 91112;EQDQ01  00002PRCP99
0161010980999992000110115004+70360+031090FM-12+001599999V0201201N003612200019N0550001N1+00041-00641101231ADDAY101031AY201031GF103991011051004501071001MA1999999101051MD1210011+9999MW1021REMSYN072AAXX  01154 01098 41485 31207 10004 21064 30105 40123 52001 70200 81570;
0220010980999992000110118004+70360+031090FM-12+001599999V0201201N004112200019N0550001N1+00101-00521101301ADDAA199000091AY131061AY201061GF103991011051004501071001KA1120M+00101MA1999999101121MD1210071+9999MW1381REMSYN088AAXX  01184 01098 31485 31208 10010 21052 30112 40130 52007 73830 81570 333 10010 91113;EQDQ01  00002PRCP99
0161010980999992000110121004+70360+031090FM-12+001599999V0201201N004112200019N0550001N1+00121-00651101401ADDAY131031AY201031GF103991011051004501071001MA1999999101221MD1210101+9999MW1361REMSYN072AAXX  01214 01098 41485 31208 10012 21065 30122 40140 52010 73630 81570;
0201010980999992000110200004+70360+031090FM-12+001599999V0201201N003612200019N0750001N1+00081-00351101521ADDAA199000091AY131061AY201061GF102991011051004501071001MA1999999101341MD1210121+9999MW1021REMSYN082AAXX  02004 01098 31489 21207 10008 21035 30134 40152 52012 70230 81570 333 91113;EQDQ01  00002PRCP99
0161010980999992000110203004+70360+031090FM-12+001599999V0201301N003612200019N0750001N1+00071-00301101611ADDAY101031AY201031GF103991011051004501071001MA1999999101431MD1210091+9999MW1021REMSYN072AAXX  02034 01098 41489 31307 10007 21030 30143 40161 52009 70200 81570;
0265010980999992000110206004+70360+031090FM-12+001599999V0201301N004112200019N0750001N1+00151-00281101721ADDAA199000091AJ199991999999999AY101061AY201061GF103991031081004501001001IA1229KA1120N+00041MA1999999101541MD1210111+9999MW1021REMSYN094AAXX  02064 01098 31489 31308 10015 21028 30154 40172 52011 70200 83800 333 20004 46999 91114;EQDQ01  00002PRCP99Q02  09962SNDP  
0161010980999992000110209004+70360+031090FM-12+001599999V0201601N004612200019N0550001N1+00171-00121101831ADDAY111031AY201031GF103991021021004501041081MA1999999101651MD1210111+9999MW1021REMSYN072AAXX  02094 01098 41485 31609 10017 21012 30165 40183 52011 70210 82248;
0201010980999992000110212004+70360+031090FM-12+001599999V0201301N004112200019N0750001N1+00131-00301101851ADDAA199000091AY111061AY201061GF101991011041004501041011MA1999999101671MD1110021+9999MW1021REMSYN082AAXX  02124 01098 31489 11308 10013 21030 30167 40185 51002 70210 81441 333 91115;EQDQ01  00002PRCP99
0161010980999992000110215004+70360+031090FM-12+001599999V0201401N003612200019N0750001N1+00061-00281101981ADDAY111031AY201031GF102991011041004501041011MA1999999101801MD1210131+9999MW1021REMSYN072AAXX  02154 01098 41489 21407 10006 21028 30180 40198 52013 70210 81441;
0220010980999992000110218004+70360+031090FM-12+001599999V0201501N004612200019N0550001N1+00041-00261101861ADDAA199000091AY121061AY211061GF104991031041004501041001KA1120M+00181MA1999999101681MD1710121+9999MW1031REMSYN088AAXX  02184 01098 31485 41509 10004 21026 30168 40186 57012 70321 83440 333 10018 91114;EQDQ01  00002PRCP99
0161010980999992000110221004+70360+031090FM-12+001599999V0201601N004612200019N0550001N1-00021-00271101971ADDAY121031AY211031GF104991031041004501041001MA1999999101781MD1210111+9999MW1021REMSYN072AAXX  02214 01098 41485 41609 11002 21027 30178 40197 52011 70221 83440;
0201010980999992000110300004+70360+031090FM-12+001599999V0201401N005110042019N0550001N1-00021-00271101871ADDAA199000091AY121061AY211061GF106991051051004501041001MA1999999101681MD1710101+9999MW1031REMSYN082AAXX  03004 01098 31485 61410 11002 21027 30168 40187 57010 70321 85540 333 91114;EQDQ01  00002PRCP99
0161010980999992000110303004+70360+031090FM-12+001599999V0201401N004110042019N0550001N1+00021-00231101771ADDAY121031AY211031GF106991061051004501001001MA1999999101591MD1710101+9999MW1021REMSYN072AAXX  03034 01098 41485 61408 10002 21023 30159 40177 57010 70221 86500;
0265010980999992000110306004+70360+031090FM-12+001599999V0201301N004110090019N0550001N1+00031-00211101651ADDAA199000091AJ199991999999999AY121061AY221061GF108991061081004501021001IA1239KA1120N-00031MA1999999101471MD1710121+9999MW1031REMSYN094AAXX  03064 01098 31485 81308 10003 21021 30147 40165 57012 70322 86820 333 21003 47999 91115;EQDQ01  00002PRCP99Q02  09962SNDP  
0161010980999992000110309004+70360+031090FM-12+001599999V0201301N004110240019N0550001N1+00081-00211101601ADDAY121031AY221031GF108991031071002501071081MA1999999101421MD1610051+9999MW1021REMSYN072AAXX  03094 01098 41385 81308 10008 21021 30142 40160 56005 70222 83778;
0201010980999992000110312004+70360+031090FM-12+001599999V0201301N003610042019N0750001N1+00091-00071101471ADDAA199000091AY121061AY221061GF108991061071004501071081MA1999999101291MD1810131+9999MW1021REMSYN082AAXX  03124 01098 31489 81307 10009 21007 30129 40147 58013 70222 86778 333 91115;EQDQ01  00002PRCP99
0161010980999992000110315004+70360+031090FM-12+001599999V0201401N003610042019N0750001N1+00191+00041101411ADDAY121031AY221031GF107991061071004501071081MA1999999101231MD1710061+9999MW1021REMSYN072AAXX  03154 01098 41489 71407 10019 20004 30123 40141 57006 70222 86778;
0207010980999992000110318004+70360+031090FM-12+001599999V0201401N002110042019N0100001N1+00141+00081101341ADDAA112000791AY181061AY221061GF108991081071004501999999KA1120M+00201MA1999999101161MD1710071+9999MW1801REMSYN094AAXX  03184 01098 11460 81404 10014 20008 30116 40134 57007 69902 78082 887// 333 10020 91112;
0161010980999992000110321004+70360+031090FM-12+001599999V0201601N002110090019N0550001N1+00151+00081101291ADDAY181031AY221031GF107991071081004501999999MA1999999101111MD1710051+9999MW1021REMSYN072AAXX  03214 01098 41485 71604 10015 20008 30111 40129 57005 70282 878//;
0182010980999992000110400004+70360+031090FM-12+001599999V0202301N002612200019N0550001N1-00101-00161101351ADDAA199000021AY121061AY211061GF104991041041004501001001MA1999999101161MD1210061+9999MW1011REMSYN082AAXX  04004 01098 31485 42305 11010 21016 30116 40135 52006 70121 84400 333 91106;
0161010980999992000110403004+70360+031090FM-12+001599999V0202201N004112200019N0550001N1-00101-00201101391ADDAY111031AY201031GF104991041041004501001001MA1999999101201MD1210041+9999MW1021REMSYN072AAXX  04034 01098 41485 42208 11010 21020 30120 40139 52004 70210 84400;
0249010980999992000110406004+70360+031090FM-12+001599999V0202101N003610240019N0550001N1-00051-00111101411ADDAA199000021AJ199991999999999AY121061AY211061GF106991041041004501051001IA1239KA1120N-00211MA1999999101221MD1210021+9999MW1031REMSYN094AAXX  04064 01098 31485 62107 11005 21011 30122 40141 52002 70321 84450 333 21021 47999 91113;EQDQ01  09962SNDP  
0161010980999992000110409004+70360+031090FM-12+001599999V0202001N004610240019N0750001N1+00081+00021101361ADDAY121031AY221031GF106991041081004501041091MA1999999101181MD1810041+9999MW1021REMSYN072AAXX  04094 01098 41489 62009 10008 20002 30118 40136 58004 70222 84849;
0201010980999992000110412004+70360+031090FM-12+001599999V0202001N005110240019N0750001N1+00221+00131101371ADDAA199000091AY121061AY221061GF106991021081004501041081MA1999999101191MD1310011+9999MW1021REMSYN082AAXX  04124 01098 31489 62010 10022 20013 30119 40137 53001 70222 82848 333 91116;EQDQ01  00002PRCP99
0161010980999992000110415004+70360+031090FM-12+001599999V0201701N004110090019N0300001N1+00251+00181101401ADDAY151031AY221031GF106991061081004501001001MA1999999101221MD1310031+9999MW1021REMSYN072AAXX  04154 01098 41480 61708 10025 20018 30122 40140 53003 70252 86800;
0207010980999992000110418004+70360+031090FM-12+001599999V0201801N004610042019N0300001N1+00261+00191101251ADDAA112000191AY161061AY251061GF106991061051004501001001KA1120M+00291MA1999999101071MD1810151+9999MW1021REMSYN094AAXX  04184 01098 11480 61809 10026 20019 30107 40125 58015 69922 70265 86500 333 10029 91116;
0161010980999992000110421004+70360+031090FM-12+001599999V0201901N004610042019N0300001N1+00251+00181101221ADDAY121031AY221031GF106991061051004501001001MA1999999101041MD1710031+9999MW1021REMSYN072AAXX  04214 01098 41480 61909 10025 20018 30104 40122 57003 70222 86500;
0201010980999992000110500004+70360+031090FM-12+001599999V0201801N004610042019N0300001N1+00241+00181101081ADDAA199000091AY121061AY221061GF106991061051004501001001MA1999999100901MD1710141+9999MW1021REMSYN082AAXX  05004 01098 31480 61809 10024 20018 30090 40108 57014 70222 86500 333 91115;EQDQ01  00002PRCP99
0161010980999992000110503004+70360+031090FM-12+001599999V0201701N004110042019N0550001N1+00321+00261100821ADDAY121031AY221031GF108991081051004501001001MA1999999100641MD1810261+9999MW1021REMSYN072AAXX  05034 01098 41485 81708 10032 20026 30064 40082 58026 70222 88500;
0255010980999992000110506004+70360+031090FM-12+001599999V0201601N004610021019N0100001N1+00391+00331100531ADDAA112001091AJ199991999999999AY181061AY221061GF107991071071002501999999IA1289KA1120N+00241MA1999999100351MD1710291+9999MW1801REMSYN100AAXX  05064 01098 11360 71609 10039 20033 30035 40053 57029 60012 78082 877// 333 20024 44999 91114;EQDQ01  09962SNDP  
0161010980999992000110509004+70360+031090FM-12+001599999V0201801N004610042019N0300001N1+00431+00361100411ADDAY181031AY221031GF108991081071004501999999MA1999999100231MD1610121+9999MW1021REMSYN072AAXX  05094 01098 41480 81809 10043 20036 30023 40041 56012 70282 887//;
0188010980999992000110512004+70360+031090FM-12+001599999V0201901N005110042019N0300001N1+00481+00411100411ADDAA106000591AY181061AY221061GF108991081051004501999999MA1999999100231MD1410001+9999MW1021REMSYN088AAXX  05124 01098 11480 81910 10048 20041 30023 40041 54000 69951 70282 885// 333 91114;
0161010980999992000110515004+70360+031090FM-12+001599999V0201901N004610042019N0600001N1+00481+00411100411ADDAY121031AY221031GF106991061071004501001001MA1999999100231MD1410001+9999MW1011REMSYN072AAXX  05154 01098 41486 61909 10048 20041 30023 40041 54000 70122 86700;
0207010980999992000110518004+70360+031090FM-12+001599999V0202101N003610042019N0600001N1+00401+00331100591ADDAA112000591AY181061AY221061GF106991061071004501001001KA1120M+00521MA1999999100411MD1310181+9999MW1021REMSYN094AAXX  05184 01098 11486 62107 10040 20033 30041 40059 53018 69952 70282 86700 333 10052 91114;
0161010980999992000110521004+70360+031090FM-12+001599999V0202001N003610090019N0600001N1+00261+00191100701ADDAY121031AY221031GF105991051081004501001001MA1999999100521MD1210111+9999MW1011REMSYN072AAXX  05214 01098 41486 52007 10026 20019 30052 40070 52011 70122 85800;
0201010980999992000110600004+70360+031090FM-12+001599999V0202201N004110042019N0550001N1+00231+00161100791ADDAA199000091AY121061AY221061GF105991051051004501001001MA1999999100611MD1210091+9999MW1021REMSYN082AAXX  06004 01098 31485 52208 10023 20016 30061 40079 52009 70222 85500 333 91113;EQDQ01  00002PRCP99
0161010980999992000110603004+70360+031090FM-12+001599999V0202201N002612200019N0750001N1+00191+00121100791ADDAY121031AY211031GF103991021051004501071001MA1999999100611MD1410001+9999MW1021REMSYN072AAXX  06034 01098 41489 32205 10019 20012 30061 40079 54000 70221 82570;
0220010980999992000110606004+70360+031090FM-12+001599999V0202701N000510042019N0750001N1+00231+00161100781ADDAA199000091AY121061AY211061GF108991081051004501999999KA1120N+00171MA1999999100601MD1710011+9999MW1031REMSYN088AAXX  06064 01098 31489 82701 10023 20016 30060 40078 57001 70321 885// 333 20017 91110;EQDQ01  00002PRCP99
0161010980999992000110609004+70360+031090FM-12+001599999V0200801N000510240019N0550001N1+00331+00271100691ADDAY121031AY221031GF108991031071004501011999MA1999999100511MD1710091+9999MW1021REMSYN072AAXX  06094 01098 41485 80801 10033 20027 30051 40069 57009 70222 8371/;
0188010980999992000110612004+70360+031090FM-12+001599999V0201001N000510042019N0200001N1+00411+00351100481ADDAA106000591AY161061AY221061GF108991061071004501021999MA1999999100301MD1810211+9999MW1601REMSYN088AAXX  06124 01098 11470 81001 10041 20035 30030 40048 58021 69961 76062 8672/ 333 91102;
0161010980999992000110615004+70360+031090FM-12+001599999V0200301N002110042019N0200001N1+00051-00021100171ADDAY161031AY221031GF108991071071004501021999MA1999999099991MD1710311+9999MW1631REMSYN072AAXX  06154 01098 41470 80304 10005 21002 39999 40017 57031 76362 8772/;
0207010980999992000110618004+70360+031090FM-12+001599999V0201301N001510042019N0200001N1+00521+00461099901ADDAA112006191AY161061AY221061GF108991071071004501021999KA1120M+00601MA1999999099721MD1710271+9999MW1611REMSYN094AAXX  06184 01098 11470 81303 10052 20046 39972 49990 57027 60062 76162 8772/ 333 10060 91108;
0161010980999992000110621004+70360+031090FM-12+001599999V0201701N001010042019N0200001N1+00491+00421099691ADDAY161031AY221031GF108991071071004501021999MA1999999099511MD1710211+9999MW1611REMSYN072AAXX  06214 01098 41470 81702 10049 20042 39951 49969 57021 76162 8772/;
0188010980999992000110700004+70360+031090FM-12+001599999V0202101N002110240019N0200001N1+00321+00281099591ADDAA106001091AY161061AY221061GF108991041071004501021999MA1999999099411MD1710101+9999MW1021REMSYN088AAXX  07004 01098 11470 82104 10032 20028 39941 49959 57010 60011 70262 8472/ 333 91105;
0161010980999992000110703004+70360+031090FM-12+001599999V0203001N004610240019N0200001N1+00421+00361099641ADDAY161031AY221031GF108991041071004501021999MA1999999099461MD1310051+9999MW1601REMSYN072AAXX  07034 01098 41470 83009 10042 20036 39946 49964 53005 76062 8472/;
0207010980999992000110706004+70360+031090FM-12+001599999V0202701N003610240019N0300001N1+00401+00331099941ADDAA112002091AY161061AY221061GF108991041071004501021999KA1120N+00321MA1999999099761MD1210301+9999MW1021REMSYN094AAXX  07064 01098 11480 82707 10040 20033 39976 49994 52030 60022 70262 8472/ 333 20032 91113;
0161010980999992000110709004+70360+031090FM-12+001599999V0202601N003110240019N0300001N1+00331+00211100281ADDAY121031AY221031GF106991021081004501071081MA1999999100101MD1210241+9999MW1021REMSYN072AAXX  07094 01098 41480 62606 10033 20021 30010 40028 52024 70222 82878;
0182010980999992000110712004+70360+031090FM-12+001599999V0202401N004110240019N0550001N1+00301+00201100551ADDAA199000021AY121061AY221061GF106991011081004501051091MA1999999100371MD1210271+9999MW1021REMSYN082AAXX  07124 01098 31485 62408 10030 20020 30037 40055 52027 70222 81859 333 91111;
0161010980999992000110715004+70360+031090FM-12+001599999V0202001N001512200019N0750001N1+00171+00071100811ADDAY121031AY211031GF103991011081004501051001MA1999999100631MD1210261+9999MW1011REMSYN072AAXX  07154 01098 41489 32003 10017 20007 30063 40081 52026 70121 81850;
0220010980999992000110718004+70360+031090FM-12+001599999V0202401N003610240019N0750001N1+00201+00071101011ADDAA199000091AY121061AY211061GF106991021081004501051001KA1120M+00421MA1999999100831MD1210201+9999MW1031REMSYN088AAXX  07184 01098 31489 62407 10020 20007 30083 40101 52020 70321 82850 333 10042 91110;EQDQ01  00002PRCP99
0220010980999992000110806004+70360+031090FM-12+001599999V0202401N001012200019N0550001N1-00171-00421101751ADDAA199000091AY101061AY201061GF103991011011004501071001KA1120N-00231MA1999999101561MD1210061+9999MW1021REMSYN088AAXX  08064 01098 31485 32402 11017 21042 30156 40175 52006 70200 81170 333 21023 91110;EQDQ01  00002PRCP99
0161010980999992000110809004+70360+031090FM-12+001599999V0202101N002610240019N0550001N1-00081-00151101781ADDAY121031AY211031GF107991031061002501041081MA1999999101591MD1210031+9999MW1021REMSYN072AAXX  08094 01098 41385 72105 11008 21015 30159 40178 52003 70221 83648;
0201010980999992000110812004+70360+031090FM-12+001599999V0201801N001010240019N0550001N1+00001-00071101671ADDAA199000091AY121061AY211061GF107991031081002501071081MA1999999101491MD1810111+9999MW1021REMSYN082AAXX  08124 01098 31385 71802 10000 21007 30149 40167 58011 70221 83878 333 91108;EQDQ01  00002PRCP99
0161010980999992000110815004+70360+031090FM-12+001599999V0201801N002610042019N0550001N1+00141+00071101521ADDAY121031AY221031GF107991071051004501001001MA1999999101341MD1710151+9999MW1021REMSYN072AAXX  08154 01098 41485 71805 10014 20007 30134 40152 57015 70222 87500;
0220010980999992000110818004+70360+031090FM-12+001599999V0202101N002110042019N0550001N1+00201+00131101391ADDAA199000091AY121061AY221061GF107991071051004501001001KA1120M+00201MA1999999101211MD1710131+9999MW1021REMSYN088AAXX  08184 01098 31485 72104 10020 20013 30121 40139 57013 70222 87500 333 10020 91107;EQDQ01  00002PRCP99
0161010980999992000110821004+70360+031090FM-12+001599999V0202501N001010042019N0550001N1+00221+00151101251ADDAY121031AY221031GF108991081031004501999999MA1999999101071MD1710141+9999MW1031REMSYN072AAXX  08214 01098 41485 82502 10022 20015 30107 40125 57014 70322 883//;
0201010980999992000110900004+70360+031090FM-12+001599999V0202601N001010042019N0550001N1+00201+00131101111ADDAA199000091AY121061AY221061GF108991081031004501999999MA1999999100931MD1710141+9999MW1021REMSYN082AAXX  09004 01098 31485 82602 10020 20013 30093 40111 57014 70222 883// 333 91106;EQDQ01  00002PRCP99
0161010980999992000110903004+70360+031090FM-12+001599999V0202001N000510042019N0200001N1+00221+00091100961ADDAY151031AY221031GF108991081031004501999999MA1999999100871MD1710151+9999MW1521REMSYN072AAXX  09034 01098 41470 82001 10022 20009 30087 40096 57015 75252 883//;
0207010980999992000110906004+70360+031090FM-12+001599999V0209999C000010042019N0200001N1+00321+00201100841ADDAA112000791AY151061AY221061GF108991081031004501999999KA1120N+00051MA1999999100661MD1710121+9999MW1021REMSYN094AAXX  09064 01098 11470 80000 10032 20020 30066 40084 57012 69902 70252 883// 333 20005 91103;
0161010980999992000110909004+70360+031090FM-12+001599999V0203501N001510042019N0300001N1+00321+00251100821ADDAY161031AY251031GF108991071071004501021999MA1999999100641MD1610021+9999MW1021REMSYN072AAXX  09094 01098 41480 83503 10032 20025 30064 40082 56002 70265 8772/;
0188010980999992000110912004+70360+031090FM-12+001599999V0200301N001510042019N0550001N1+00441+00371100771ADDAA106000191AY161061AY251061GF108991071071004501021999MA1999999100591MD1710051+9999MW1021REMSYN088AAXX  09124 01098 11485 80303 10044 20037 30059 40077 57005 69911 70265 8772/ 333 91105;
0161010980999992000110915004+70360+031090FM-12+001599999V0200801N001010042019N0250001N1+00461+00401100781ADDAY161031AY221031GF108991071071004501021999MA1999999100601MD1210011+9999MW1611REMSYN072AAXX  09154 01098 41475 80802 10046 20040 30060 40078 52001 76162 8772/;
0207010980999992000110918004+70360+031090FM-12+001599999V0200601N000510042019N0300001N1+00461+00391100821ADDAA112000591AY161061AY251061GF108991071071004501021999KA1120M+00481MA1999999100641MD1210041+9999MW1511REMSYN094AAXX  09184 01098 11480 80601 10046 20039 30064 40082 52004 69942 75165 8772/ 333 10048 91106;
0161010980999992000110921004+70360+031090FM-12+001599999V0200701N001010042019N0300001N1+00461+00391100821ADDAY161031AY251031GF108991071071004501021999MA1999999100641MD1010001+9999MW1611REMSYN072AAXX  09214 01098 41480 80702 10046 20039 30064 40082 50000 76165 8772/;
0188010980999992000111000004+70360+031090FM-12+001599999V0201501N001510042019N0300001N1+00401+00331100851ADDAA106000591AY161061AY221061GF108991071071004501021999MA1999999100671MD1210031+9999MW1601REMSYN088AAXX  10004 01098 11480 81503 10040 20033 30067 40085 52003 69961 76062 8772/ 333 91104;
0161010980999992000111003004+70360+031090FM-12+001599999V0201801N001510021019N0250001N1+00381+00311100871ADDAY161031AY221031GF108991071071002501021999MA1999999100691MD1210021+9999MW1601REMSYN072AAXX  10034 01098 41375 81803 10038 20031 30069 40087 52002 76062 8772/;
0207010980999992000111006004+70360+031090FM-12+001599999V0202001N002110021019N0250001N1+00321+00251100921ADDAA112001091AY161061AY221061GF108991071071002501021999KA1120N+00321MA1999999100741MD1210051+9999MW1601REMSYN094AAXX  10064 01098 11375 82004 10032 20025 30074 40092 52005 60012 76062 8772/ 333 20032 91105;
0161010980999992000111009004+70360+031090FM-12+001599999V0201801N002610021019N0550001N1+00321+00251100951ADDAY161031AY221031GF108991071071002501021999MA1999999100771MD1210031+9999MW1021REMSYN072AAXX  10094 01098 41385 81805 10032 20025 30077 40095 52003 70262 8772/;
0188010980999992000111012004+70360+031090FM-12+001599999V0201901N002110021019N0550001N1+00441+00371100971ADDAA106000191AY161061AY221061GF108991081051002501999999MA1999999100791MD1210021+9999MW1021REMSYN088AAXX  10124 01098 11385 81904 10044 20037 30079 40097 52002 69911 70262 885// 333 91107;
0161010980999992000111015004+70360+031090FM-12+001599999V0202101N002610021019N0600001N1+00401+00331101001ADDAY121031AY221031GF108991081051002501999999MA1999999100821MD1210131+9999MW1021REMSYN072AAXX  10154 01098 41386 82105 10040 20033 30082 40100 52013 70222 885//;
0207010980999992000111018004+70360+031090FM-12+001599999V0202201N002110042019N0600001N1+00351+00271101031ADDAA112000191AY161061AY221061GF108991081051004501999999KA1120M+00551MA1999999100851MD1210031+9999MW1021REMSYN094AAXX  10184 01098 11486 82204 10035 20027 30085 40103 52003 69912 70262 885// 333 10055 91109;
0161010980999992000111021004+70360+031090FM-12+001599999V0202201N003110240019N0600001N1+00341+00261101041ADDAY121031AY221031GF105991031051004501041001MA1999999100861MD1110011+9999MW1011REMSYN072AAXX  10214 01098 41486 52206 10034 20026 30086 40104 51001 70122 83540;
0201010980999992000111100004+70360+031090FM-12+001599999V0201401N000510240019N0750001N1+00321+00221101081ADDAA199000091AY121061AY221061GF105991021051004501041001MA1999999100901MD1210041+9999MW1021REMSYN082AAXX  11004 01098 31489 51401 10032 20022 30090 40108 52004 70222 82540 333 91112;EQDQ01  00002PRCP99
0161010980999992000111103004+70360+031090FM-12+001599999V0202101N003112200019N0750001N1+00321+00201101071ADDAY101031AY201031GF103991011021004501041001MA1999999100891MD1810011+9999MW1021REMSYN072AAXX  11034 01098 41489 32106 10032 20020 30089 40107 58001 70200 81240;
0220010980999992000111106004+70360+031090FM-12+001599999V0202301N002610240019N0750001N1+00331+00211101051ADDAA199000091AY121061AY221061GF106991031081004501041001KA1120N+00281MA1999999100871MD1710021+9999MW1031REMSYN088AAXX  11064 01098 31489 62305 10033 20021 30087 40105 57002 70322 83840 333 20028 91109;EQDQ01  00002PRCP99
0161010980999992000111109004+70360+031090FM-12+001599999V0202101N002612200019N0750001N1+00241+00171101071ADDAY111031AY201031GF103991021081004501001011MA1999999100891MD1310021+9999MW1011REMSYN072AAXX  11094 01098 41489 32105 10024 20017 30089 40107 53002 70110 82801;
0201010980999992000111112004+70360+031090FM-12+001599999V0203101N001012200019N0750001N1+00341+00271101071ADDAA199000091AY111061AY201061GF104991021081004501001011MA1999999100891MD1410001+9999MW1031REMSYN082AAXX  11124 01098 31489 43102 10034 20027 30089 40107 54000 70310 82801 333 91113;EQDQ01  00002PRCP99
0161010980999992000111115004+70360+031090FM-12+001599999V0201901N002112200019N0750001N1+00341+00271101071ADDAY111031AY201031GF103991031081004501001001MA1999999100891MD1410001+9999MW1021REMSYN072AAXX  11154 01098 41489 31904 10034 20027 30089 40107 54000 70210 83800;
0220010980999992000111118004+70360+031090FM-12+001599999V0202001N002612200019N0750001N1+00281+00211101021ADDAA199000091AY111061AY201061GF103991031081004501001001KA1120M+00361MA1999999100841MD1710051+9999MW1021REMSYN088AAXX  11184 01098 31489 32005 10028 20021 30084 40102 57005 70210 83800 333 10036 91109;EQDQ01  00002PRCP99
0161010980999992000111121004+70360+031090FM-12+001599999V0202001N003612200019N0750001N1+00281+00211101021ADDAY101031AY201031GF103991031081004501001001MA1999999100841MD1410001+9999MW1021REMSYN072AAXX  11214 01098 41489 32007 10028 20021 30084 40102 54000 70200 83800;
0201010980999992000111200004+70360+031090FM-12+001599999V0202201N001512200019N0750001N1+00251+00181100951ADDAA199000091AY111061AY201061GF104991031081004501001071MA1999999100771MD1810071+9999MW1031REMSYN082AAXX  12004 01098 31489 42203 10025 20018 30077 40095 58007 70310 83807 333 91109;EQDQ01  00002PRCP99
0161010980999992000111203004+70360+031090FM-12+001599999V0202001N003110600019N0750001N1+00251+00181100921ADDAY121031AY211031GF108991031081004501001071MA1999999100741MD1710031+9999MW1031REMSYN072AAXX  12034 01098 41489 82006 10025 20018 30074 40092 57003 70321 83807;
0220010980999992000111206004+70360+031090FM-12+001599999V0202201N001510042019N0750001N1+00271+00201100931ADDAA199000091AY121061AY221061GF108991081051004501999999KA1120N+00201MA1999999100751MD1310011+9999MW1021REMSYN088AAXX  12064 01098 31489 82203 10027 20020 30075 40093 53001 70222 885// 333 20020 91108;EQDQ01  00002PRCP99
0161010980999992000111209004+70360+031090FM-12+001599999V0202101N003610240019N0750001N1+00211+00111100981ADDAY121031AY221031GF105991031081004501031001MA1999999100801MD1210051+9999MW1011REMSYN072AAXX  12094 01098 41489 52107 10021 20011 30080 40098 52005 70122 83830;
0201010980999992000111212004+70360+031090FM-12+001599999V0202301N002612200019N0750001N1+00201+00131101101ADDAA199000091AY121061AY211061GF104991031081004501001091MA1999999100921MD1210121+9999MW1021REMSYN082AAXX  12124 01098 31489 42305 10020 20013 30092 40110 52012 70221 83809 333 91109;EQDQ01  00002PRCP99
0161010980999992000111215004+70360+031090FM-12+001599999V0202401N001010240019N0750001N1+00221+00121101211ADDAY121031AY221031GF105991031081004501051091MA1999999101031MD1210111+9999MW1021REMSYN072AAXX  12154 01098 41489 52402 10022 20012 30103 40121 52011 70222 83859;
0220010980999992000111218004+70360+031090FM-12+001599999V0202601N000510240019N0750001N1+00121+00021101291ADDAA199000091AY121061AY221061GF107991041081004501051001KA1120M+00271MA1999999101111MD1210081+9999MW1021REMSYN088AAXX  12184 01098 31489 72601 10012 20002 30111 40129 52008 70222 84850 333 10027 91105;EQDQ01  00002PRCP99
0161010980999992000111221004+70360+031090FM-12+001599999V0202101N002110240019N0750001N1+00241+00141101381ADDAY121031AY221031GF108991011081004501051999MA1999999101201MD1210091+9999MW1021REMSYN072AAXX  12214 01098 41489 82104 10024 20014 30120 40138 52009 70222 8185/;
0201010980999992000111300004+70360+031090FM-12+001599999V0201901N002112200019N0750001N1+00211+00091101421ADDAA199000091AY121061AY211061GF103991031081004501001001MA1999999101241MD1210041+9999MW1011REMSYN082AAXX  13004 01098 31489 31904 10021 20009 30124 40142 52004 70121 83800 333 91108;EQDQ01  00002PRCP99
0161010980999992000111303004+70360+031090FM-12+001599999V0201801N002612200019N0750001N1+00321+00201101421ADDAY121031AY211031GF103991031081004501001001MA1999999101241MD1410001+9999MW1021REMSYN072AAXX  13034 01098 41489 31805 10032 20020 30124 40142 54000 70221 83800;
0220010980999992000111306004+70360+031090FM-12+001599999V0201801N003612200019N0750001N1+00401+00281101421ADDAA199000091AY121061AY201061GF103991031081004501001001KA1120N+00131MA1999999101241MD1410001+9999MW1021REMSYN088AAXX  13064 01098 31489 31807 10040 20028 30124 40142 54000 70220 83800 333 20013 91109;EQDQ01  00002PRCP99
0161010980999992000111309004+70360+031090FM-12+001599999V0201701N004110090019N0550001N1+00421+00331101401ADDAY121031AY211031GF107991071081004501001001MA1999999101221MD1810021+9999MW1031REMSYN072AAXX  13094 01098 41485 71708 10042 20033 30122 40140 58002 70321 87800;
0161010980999992000111315004+70360+031090FM-12+001599999V0201801N004610042019N0550001N1+00421+00261101351ADDAY121031AY221031GF107991071051004501001001MA1999999101171MD1710031+9999MW1021REMSYN072AAXX  13154 01098 41485 71809 10042 20026 30117 40135 57003 70222 87500;
0220010980999992000111318004+70360+031090FM-12+001599999V0201801N004610042019N0550001N1+00451+00251101291ADDAA199000091AY121061AY221061GF107991071051004501001001KA1120M+00451MA1999999101111MD1710061+9999MW1021REMSYN088AAXX  13184 01098 31485 71809 10045 20025 30111 40129 57006 70222 87500 333 10045 91113;EQDQ01  00002PRCP99
0161010980999992000111321004+70360+031090FM-12+001599999V0201801N005110042019N0550001N1+00391+00241101311ADDAY121031AY221031GF107991071051004501001001MA1999999101131MD1210021+9999MW1021REMSYN072AAXX  13214 01098 41485 71810 10039 20024 30113 40131 52002 70222 87500;
0201010980999992000111400004+70360+031090FM-12+001599999V0201801N005110240019N0750001N1+00461+00281101201ADDAA199000091AY121061AY221061GF107991031081004501071999MA1999999101021MD1710111+9999MW1021REMSYN082AAXX  14004 01098 31489 71810 10046 20028 30102 40120 57011 70222 8387/ 333 91115;EQDQ01  00002PRCP99
0161010980999992000111403004+70360+031090FM-12+001599999V0201701N004612200019N0750001N1+00411+00251101181ADDAY121031AY221031GF102991011001012501041091MA1999999101001MD1710021+9999MW1021REMSYN072AAXX  14034 01098 41689 21709 10041 20025 30100 40118 57002 70222 81049;
0220010980999992000111406004+70360+031090FM-12+001599999V0201601N005110090019N0750001N1+00421+00261101151ADDAA199000091AY121061AY221061GF107991071081004501001001KA1120N+00371MA1999999100971MD1710031+9999MW1021REMSYN088AAXX  14064 01098 31489 71610 10042 20026 30097 40115 57003 70222 87800 333 20037 91115;EQDQ01  00002PRCP99
0161010980999992000111409004+70360+031090FM-12+001599999V0201701N004610090019N0550001N1+00421+00271101091ADDAY121031AY221031GF107991071081004501001001MA1999999100911MD1710061+9999MW1021REMSYN072AAXX  14094 01098 41485 71709 10042 20027 30091 40109 57006 70222 87800;
0201010980999992000111412004+70360+031090FM-12+001599999V0201601N004610090019N0550001N1+00391+00151100981ADDAA199000091AY121061AY221061GF108991081081004501999999MA1999999100801MD1810111+9999MW1021REMSYN082AAXX  14124 01098 31485 81609 10039 20015 30080 40098 58011 70222 888// 333 91114;EQDQ01  00002PRCP99
0161010980999992000111415004+70360+031090FM-12+001599999V0201601N004610090019N0600001N1+00361+00291100901ADDAY121031AY221031GF108991081081004501999999MA1999999100721MD1710081+9999MW1021REMSYN072AAXX  14154 01098 41486 81609 10036 20029 30072 40090 57008 70222 888//;
0207010980999992000111418004+70360+031090FM-12+001599999V0201601N004610090019N0600001N1+00401+00331100781ADDAA112000791AY181061AY221061GF108991081081004501999999KA1120M+00451MA1999999100601MD1710121+9999MW1021REMSYN094AAXX  14184 01098 11486 81609 10040 20033 30060 40078 57012 69902 70282 888// 333 10045 91113;
0161010980999992000111421004+70360+031090FM-12+001599999V0201601N004110090019N0600001N1+00301+00231100711ADDAY181031AY221031GF108991081081004501999999MA1999999100531MD1710071+9999MW1801REMSYN072AAXX  14214 01098 41486 81608 10030 20023 30053 40071 57007 78082 888//;
0188010980999992000111500004+70360+031090FM-12+001599999V0201901N004110090019N0550001N1+00361+00291100711ADDAA106000191AY181061AY221061GF107991071081004501001001MA1999999100531MD1410001+9999MW1011REMSYN088AAXX  15004 01098 11485 71908 10036 20029 30053 40071 54000 69911 70182 87800 333 91113;
0161010980999992000111503004+70360+031090FM-12+001599999V0201701N003110090019N0550001N1+00401+00331100741ADDAY181031AY221031GF107991071081004501001001MA1999999100561MD1310031+9999MW1021REMSYN072AAXX  15034 01098 41485 71706 10040 20033 30056 40074 53003 70282 87800;
0207010980999992000111506004+70360+031090FM-12+001599999V0201701N003610090019N0550001N1+00401+00281100711ADDAA112000191AY181061AY221061GF107991071081004501001001KA1120N+00301MA1999999100531MD1810031+9999MW1021REMSYN094AAXX  15064 01098 11485 71707 10040 20028 30053 40071 58003 69912 70282 87800 333 20030 91110;
0161010980999992000111509004+70360+031090FM-12+001599999V0201901N002110042019N0550001N1+00361+00241100801ADDAY121031AY221031GF108991061011004501011999MA1999999100621MD1310091+9999MW1021REMSYN072AAXX  15094 01098 41485 81904 10036 20024 30062 40080 53009 70222 8611/;
0201010980999992000111512004+70360+031090FM-12+001599999V0201901N002110042019N0750001N1+00321+00221100801ADDAA199000091AY121061AY221061GF107991061051004501081001MA1999999100621MD1410001+9999MW1021REMSYN082AAXX  15124 01098 31489 71904 10032 20022 30062 40080 54000 70222 86580 333 91109;EQDQ01  00002PRCP99
0161010980999992000111515004+70360+031090FM-12+001599999V0201501N000510042019N0550001N1+00281+00181100881ADDAY121031AY221031GF107991061051004501081001MA1999999100701MD1210081+9999MW1021REMSYN072AAXX  15154 01098 41485 71501 10028 20018 30070 40088 52008 70222 86580;
0220010980999992000111518004+70360+031090FM-12+001599999V0202601N000510042019N0550001N1+00291+00221100821ADDAA199000091AY121061AY221061GF107991061051004501081001KA1120M+00411MA1999999100641MD1710061+9999MW1021REMSYN088AAXX  15184 01098 31485 72601 10029 20022 30064 40082 57006 70222 86580 333 10041 91104;EQDQ01  00002PRCP99
0161010980999992000111521004+70360+031090FM-12+001599999V0201201N000510042019N0550001N1+00341+00101100861ADDAY121031AY211031GF106991051051004501081001MA1999999100681MD1210041+9999MW1021REMSYN072AAXX  15214 01098 41485 61201 10034 20010 30068 40086 52004 70221 85580;
0201010980999992000111600004+70360+031090FM-12+001599999V0201101N001010240019N0750001N1+00321+00131100911ADDAA199000091AY121061AY221061GF108991021051004501051999MA1999999100731MD1210051+9999MW1021REMSYN082AAXX  16004 01098 31489 81102 10032 20013 30073 40091 52005 70222 8255/ 333 91104;EQDQ01  00002PRCP99
0161010980999992000111603004+70360+031090FM-12+001599999V0201101N000510240019N0750001N1+00301-00051100961ADDAY121031AY221031GF107991011051004501051001MA1999999100781MD1210051+9999MW1021REMSYN072AAXX  16034 01098 41489 71101 10030 21005 30078 40096 52005 70222 81550;
0207010980999992000111606004+70360+031090FM-12+001599999V0202401N001010240019N0750001N1+00181+00111101041ADDAA112000591AY181061AY221061GF107991031071004501051001KA1120N+00171MA1999999100861MD1210081+9999MW1251REMSYN094AAXX  16064 01098 11489 72402 10018 20011 30086 40104 52008 69962 72582 83750 333 20017 91113;
0161010980999992000111609004+70360+031090FM-12+001599999V0201301N001010042019N0550001N1+00301+00231101191ADDAY121031AY221031GF108991081071004501999999MA1999999101011MD1210151+9999MW1031REMSYN072AAXX  16094 01098 41485 81302 10030 20023 30101 40119 52015 70322 887//;
0182010980999992000111612004+70360+031090FM-12+001599999V0202001N001010240019N0550001N1+00241+00181101261ADDAA199000021AY121061AY221061GF108991041071004501051999MA1999999101081MD1110071+9999MW1021REMSYN082AAXX  16124 01098 31485 82002 10024 20018 30108 40126 51007 70222 8475/ 333 91105;
0161010980999992000111615004+70360+031090FM-12+001599999V0202701N001010240019N0600001N1+00201+00131101371ADDAY121031AY221031GF108991041071004501051999MA1999999101191MD1210111+9999MW1021REMSYN072AAXX  16154 01098 41486 82702 10020 20013 30119 40137 52011 70222 8475/;
0201010980999992000111618004+70360+031090FM-12+001599999V0202301N001510090019N0600001N1+00201+00131101491ADDAA199000021AY121061AY221061GF108991081081004501999999KA1120M+00351MA1999999101311MD1210121+9999MW1021REMSYN088AAXX  16184 01098 31486 82303 10020 20013 30131 40149 52012 70222 888// 333 10035 91105;
0161010980999992000111621004+70360+031090FM-12+001599999V0202701N000510090019N0600001N1+00141+00071101601ADDAY121031AY221031GF106991061081004501001001MA1999999101421MD1210111+9999MW1011REMSYN072AAXX  16214 01098 41486 62701 10014 20007 30142 40160 52011 70122 86800;
0188010980999992000111700004+70360+031090FM-12+001599999V0200901N001010090019N0550001N1+00181+00111101781ADDAA106000191AY161061AY201061GF107991071081004501001001MA1999999101601MD1210181+9999MW1031REMSYN088AAXX  17004 01098 11485 70902 10018 20011 30160 40178 52018 69911 70360 87800 333 91105;
0161010980999992000111703004+70360+031090FM-12+001599999V0202601N000510090019N0550001N1+00131+00061101821ADDAY121031AY221031GF107991071081004501001001MA1999999101641MD1210041+9999MW1021REMSYN072AAXX  17034 01098 41485 72601 10013 20006 30164 40182 52004 70222 87800;
0207010980999992000111706004+70360+031090FM-12+001599999V0202601N001010240019N0550001N1+00141+00081101931ADDAA112000191AY161061AY221061GF106991041081004501081001KA1120N+00141MA1999999101751MD1210051+9999MW1011REMSYN094AAXX  17064 01098 11485 62602 10014 20008 30175 40193 52005 69912 70162 84880 333 20014 91103;
0161010980999992000111709004+70360+031090FM-12+001599999V0202601N000512200019N0750001N1+00071+00011102071ADDAY121031AY211031GF103991021021004501041081MA1999999101851MD1210101+9999MW1011REMSYN072AAXX  17094 01098 41489 32601 10007 20001 30185 40207 52010 70121 82248;
0201010980999992000111712004+70360+031090FM-12+001599999V0202701N001012200019N0750001N1+00071+00011102101ADDAA199000091AY121061AY211061GF103991021021004501001081MA1999999101921MD1210071+9999MW1021REMSYN082AAXX  17124 01098 31489 32702 10007 20001 30192 40210 52007 70221 82208 333 91103;EQDQ01  00002PRCP99
0161010980999992000111715004+70360+031090FM-12+001599999V0202701N002119999999N0750001N1+00061-00011102141ADDAY121031AY211031GF107991071001012501051001MA1999999101961MD1210041+9999MW1021REMSYN072AAXX  17154 01098 41689 72704 10006 21001 30196 40214 52004 70221 87050;
0220010980999992000111718004+70360+031090FM-12+001599999V0202701N002112200019N0750001N1+00061-00191102161ADDAA199000091AY101061AY201061GF103991031001012501051001KA1120M+00221MA1999999101981MD1210021+9999MW1011REMSYN088AAXX  17184 01098 31689 32704 10006 21019 30198 40216 52002 70100 83050 333 10022 91106;EQDQ01  00002PRCP99
0161010980999992000111721004+70360+031090FM-12+001599999V0203001N003119999999N0750001N1+00181-00081102161ADDAY121031AY211031GF107991071001012501051001MA1999999101981MD1410001+9999MW1031REMSYN072AAXX  17214 01098 41689 73006 10018 21008 30198 40216 54000 70321 87050;
0188010980999992000111800004+70360+031090FM-12+001599999V0203001N000510240019N0600001N1+00021-00041102241ADDAA106006191AY171061AY221061GF107991041071004501021001MA1999999102061MD1210081+9999MW1741REMSYN088AAXX  18004 01098 11486 73001 10002 21004 30206 40224 52008 60061 77472 84720 333 91109;
0161010980999992000111803004+70360+031090FM-12+001599999V0200101N003110240019N0600001N1+00101-00241102231ADDAY171031AY221031GF108991041071004501021999MA1999999102051MD1810011+9999MW1701REMSYN072AAXX  18034 01098 41486 80106 10010 21024 30205 40223 58001 77072 8472/;
0255010980999992000111806004+70360+031090FM-12+001599999V0200201N002110240019N0600001N1+00081-00041102251ADDAA106006191AJ199991999999999AY171061AY221061GF108991021071004501021999IA1289KA1120N+00021MA1999999102071MD1310021+9999MW1021REMSYN100AAXX  18064 01098 11486 80204 10008 21004 30207 40225 53002 60061 70272 8272/ 333 20002 44999 91110;EQDQ01  09962SNDP  
0161010980999992000111809004+70360+031090FM-12+001599999V0203601N002110240019N0300001N1+00111-00231102251ADDAY181031AY221031GF108991031071004501081999MA1999999102071MD1410001+9999MW1851REMSYN072AAXX  18094 01098 41480 83604 10011 21023 30207 40225 54000 78582 8378/;
0188010980999992000111812004+70360+031090FM-12+001599999V0200301N001510240019N0750001N1+00101-00331102251ADDAA106000191AY181061AY221061GF105991031081004501051001MA1999999102071MD1410001+9999MW1021REMSYN088AAXX  18124 01098 11489 50303 10010 21033 30207 40225 54000 69921 70282 83850 333 91111;
0161010980999992000111815004+70360+031090FM-12+001599999V0200101N002110090019N0550001N1+00081-00081102171ADDAY121031AY211031GF107991071081004501001001MA1999999101991MD1810081+9999MW1021REMSYN072AAXX  18154 01098 41485 70104 10008 21008 30199 40217 58008 70221 87800;
0207010980999992000111818004+70360+031090FM-12+001599999V0200801N001010090019N0550001N1+00081-00081102141ADDAA112000591AY181061AY221061GF106991061081004501001001KA1120M+00141MA1999999101961MD1710031+9999MW1021REMSYN094AAXX  18184 01098 11485 60802 10008 21008 30196 40214 57003 69942 70282 86800 333 10014 91110;
0161010980999992000111821004+70360+031090FM-12+001599999V0200301N002610090019N0050001N1+00031-00071102161ADDAY181031AY221031GF108991081081004501999999MA1999999101981MD1310021+9999MW1841REMSYN072AAXX  18214 01098 41450 80305 10003 21007 30198 40216 53002 78482 888//;
0188010980999992000111900004+70360+031090FM-12+001599999V0201101N001010090019N0750001N1+00121+00001102161ADDAA106000591AY181061AY221061GF105991051081004501001001MA1999999101981MD1410001+9999MW1021REMSYN088AAXX  19004 01098 11489 51102 10012 20000 30198 40216 54000 69961 70282 85800 333 91109;
0161010980999992000111903004+70360+031090FM-12+001599999V0200901N001510090019N0200001N1+00011-00051102191ADDAY181031AY221031GF107991071081004501001001MA1999999102011MD1310031+9999MW1851REMSYN072AAXX  19034 01098 41470 70903 10001 21005 30201 40219 53003 78582 87800;
0255010980999992000111906004+70360+031090FM-12+001599999V0201201N002110090019N0300001N1+00031-00041102261ADDAA112002091AJ199991999999999AY181061AY221061GF105991051081004501001001IA1289KA1120N-00051MA1999999102081MD1210071+9999MW1851REMSYN100AAXX  19064 01098 11480 51204 10003 21004 30208 40226 52007 60022 78582 85800 333 21005 44999 91108;EQDQ01  09962SNDP  
0161010980999992000111909004+70360+031090FM-12+001599999V0201301N001012200019N0550001N1+00061-00301102391ADDAY181031AY221031GF104991031081004501071001MA1999999102211MD1210131+9999MW1021REMSYN072AAXX  19094 01098 41485 41302 10006 21030 30221 40239 52013 70282 83870;
0188010980999992000111912004+70360+031090FM-12+001599999V0202701N001010090019N0550001N1-00041-00141102521ADDAA106000791AY181061AY221061GF107991071081004501001001MA1999999102331MD1210131+9999MW1851REMSYN088AAXX  19124 01098 11485 72702 11004 21014 30233 40252 52013 69901 78582 87800 333 91105;
0161010980999992000111915004+70360+031090FM-12+001599999V0203001N001010060019N0050001N1-00021-00061102651ADDAY181031AY221031GF108991081081002501999999MA1999999102461MD1210131+9999MW1851REMSYN072AAXX  19154 01098 41350 83002 11002 21006 30246 40265 52013 78582 888//;
0207010980999992000111918004+70360+031090FM-12+001599999V0200901N002110240019N0150001N1+00141-00121102761ADDAA112002091AY181061AY221061GF107991041081004501021001KA1120M+00161MA1999999102581MD1210111+9999MW1831REMSYN094AAXX  19184 01098 11465 70904 10014 21012 30258 40276 52011 60022 78382 84820 333 10016 91107;
0161010980999992000111921004+70360+031090FM-12+001599999V0200901N001510240019N0300001N1+00161-00251102911ADDAY181031AY221031GF107991041081004501021001MA1999999102731MD1210151+9999MW1021REMSYN072AAXX  19214 01098 41480 70903 10016 21025 30273 40291 52015 70282 84820;
0188010980999992000112000004+70360+031090FM-12+001599999V0200901N002610090019N0550001N1+00201-00211103031ADDAA106000791AY181061AY221061GF107991071081004501001001MA1999999102851MD1210121+9999MW1021REMSYN088AAXX  20004 01098 11485 70905 10020 21021 30285 40303 52012 69901 70282 87800 333 91108;
0161010980999992000112003004+70360+031090FM-12+001599999V0200901N002110090019N0550001N1+00191-00341103161ADDAY181031AY221031GF107991071081004501001001MA1999999102981MD1210131+9999MW1021REMSYN072AAXX  20034 01098 41485 70904 10019 21034 30298 40316 52013 70282 87800;
0255010980999992000112006004+70360+031090FM-12+001599999V0200901N001510090019N0550001N1+00201-00331103271ADDAA112000191AJ199991999999999AY181061AY221061GF107991071081004501001001IA1239KA1120N+00101MA1999999103091MD1210111+9999MW1021REMSYN100AAXX  20064 01098 11485 70903 10020 21033 30309 40327 52011 69912 70282 87800 333 20010 47999 91108;EQDQ01  09962SNDP  
0161010980999992000112009004+70360+031090FM-12+001599999V0201401N001510060019N0200001N1+00121-00021103391ADDAY121031AY221031GF107991071081002501001001MA1999999103211MD1210121+9999MW1151REMSYN072AAXX  20094 01098 41370 71403 10012 21002 30321 40339 52012 71522 87800;
0188010980999992000112012004+70360+031090FM-12+001599999V0202001N003610060019N0200001N1-00071-00181103461ADDAA106000891AY181061AY221061GF107991071081002501001001MA1999999103271MD1110071+9999MW1261REMSYN088AAXX  20124 01098 11370 72007 11007 21018 30327 40346 51007 69971 72682 87800 333 91109;
0161010980999992000112015004+70360+031090FM-12+001599999V0202201N002110060019N0300001N1-00461-00511103641ADDAY181031AY221031GF106991061081002501001001MA1999999103451MD1210181+9999MW1011REMSYN072AAXX  20154 01098 41380 62204 11046 21051 30345 40364 52018 70182 86800;
0207010980999992000112018004+70360+031090FM-12+001599999V0201801N004610060019N0300001N1-00241-00401103621ADDAA112000891AY121061AY221061GF106991061081002501001001KA1120M+00201MA1999999103431MD1510021+9999MW1021REMSYN094AAXX  20184 01098 11380 61809 11024 21040 30343 40362 55002 69972 70222 86800 333 10020 91111;
0161010980999992000112021004+70360+031090FM-12+001599999V0202101N003610060019N0300001N1-00291-00391103591ADDAY121031AY221031GF107991071081002501001001MA1999999103401MD1710031+9999MW1031REMSYN072AAXX  20214 01098 41380 72107 11029 21039 30340 40359 57003 70322 87800;
0182010980999992000112100004+70360+031090FM-12+001599999V0202001N005110090019N0300001N1-00381-00451103511ADDAA199000021AY131061AY221061GF105991051081004501001001MA1999999103321MD1710081+9999MW1361REMSYN082AAXX  21004 01098 31480 52010 11038 21045 30332 40351 57008 73632 85800 333 91113;
0161010980999992000112103004+70360+031090FM-12+001599999V0202001N003610090019N0300001N1-00541-00611103441ADDAY121031AY221031GF107991071081004501001001MA1999999103251MD1710071+9999MW1031REMSYN072AAXX  21034 01098 41480 72007 11054 21061 30325 40344 57007 70322 87800;
0265010980999992000112106004+70360+031090FM-12+001599999V0201801N003110600019N0300001N1-00521-00631103331ADDAA199000091AJ199991999999999AY121061AY221061GF107991041081004501001051IA1239KA1120N-00641MA1999999103141MD1710111+9999MW1021REMSYN094AAXX  21064 01098 31480 71806 11052 21063 30314 40333 57011 70222 84805 333 21064 47999 91112;EQDQ01  00002PRCP99Q02  09962SNDP  
0161010980999992000112109004+70360+031090FM-12+001599999V0202101N007210600019N0300001N1-00641-00731103081ADDAY131031AY221031GF106991041081004501001081MA1999999102891MD1810251+9999MW1361REMSYN072AAXX  21094 01098 41480 62114 11064 21073 30289 40308 58025 73632 84808;
0201010980999992000112112004+70360+031090FM-12+001599999V0202101N007210240019N0550001N1-00611-00721102981ADDAA199000091AY131061AY221061GF105991031081004501041041MA1999999102791MD1610101+9999MW1021REMSYN082AAXX  21124 01098 31485 52114 11061 21072 30279 40298 56010 70232 83844 333 91121;EQDQ01  00002PRCP99
0161010980999992000112115004+70360+031090FM-12+001599999V0202201N004112200019N0550001N1-00531-00771103071ADDAY111031AY201031GF104991041021004501001001MA1999999102881MD1310091+9999MW1011REMSYN072AAXX  21154 01098 41485 42208 11053 21077 30288 40307 53009 70110 84200;
0220010980999992000112118004+70360+031090FM-12+001599999V0202201N006212200019N0550001N1-00621-00841102941ADDAA199000091AY111061AY201061GF101991011011008001001001KA1120M-00621MA1999999102751MD1810131+9999MW1011REMSYN088AAXX  21184 01098 31585 12212 11062 21084 30275 40294 58013 70110 81100 333 11062 91119;EQDQ01  00002PRCP99
0161010980999992000112121004+70360+031090FM-12+001599999V0202201N004112200019N0550001N1-00661-00951102931ADDAY111031AY201031GF102991021011008001001001MA1999999102741MD1610011+9999MW1021REMSYN072AAXX  21214 01098 41585 22208 11066 21095 30274 40293 56001 70210 82100;
0201010980999992000112200004+70360+031090FM-12+001599999V0202101N004612200019N0550001N1-00651-00971102901ADDAA199000091AY121061AY211061GF104991041041004501001001MA1999999102711MD1710031+9999MW1031REMSYN082AAXX  22004 01098 31485 42109 11065 21097 30271 40290 57003 70321 84400 333 91114;EQDQ01  00002PRCP99
0161010980999992000112203004+70360+031090FM-12+001599999V0202101N004112200019N0550001N1-00651-00971102851ADDAY121031AY211031GF104991041041004501001001MA1999999102661MD1710051+9999MW1021REMSYN072AAXX  22034 01098 41485 42108 11065 21097 30266 40285 57005 70221 84400;
0265010980999992000112206004+70360+031090FM-12+001599999V0202101N005712200019N0550001N1-00621-00981102771ADDAA199000091AJ199991999999999AY111061AY201061GF103991031041004501001001IA1289KA1120N-00661MA1999999102581MD1710081+9999MW1011REMSYN094AAXX  22064 01098 31485 32111 11062 21098 30258 40277 57008 70110 83400 333 21066 44999 91114;EQDQ01  00002PRCP99Q02  09962SNDP  
0161010980999992000112209004+70360+031090FM-12+001599999V0202101N006712200019N0750001N1-00651-00941102631ADDAY101031AY201031GF103991011011004501041081MA1999999102441MD1710141+9999MW1021REMSYN072AAXX  22094 01098 41489 32113 11065 21094 30244 40263 57014 70200 81148;
0201010980999992000112212004+70360+031090FM-12+001599999V0202001N006212200019N0550001N1-00631-01091102591ADDAA199000091AY101061AY201061GF102991011011004501001081MA1999999102401MD1610041+9999MW1011REMSYN082AAXX  22124 01098 31485 22012 11063 21109 30240 40259 56004 70100 81108 333 91117;EQDQ01  00002PRCP99
0161010980999992000112215004+70360+031090FM-12+001599999V0202101N006212200019N0750001N1-00621-01111102501ADDAY121031AY211031GF104991011011004501001081MA1999999102311MD1710091+9999MW1021REMSYN072AAXX  22154 01098 41489 42112 11062 21111 30231 40250 57009 70221 81108;
0220010980999992000112218004+70360+031090FM-12+001599999V0201701N003112200019N0750001N1-00631-01121102511ADDAA199000091AY101061AY201061GF103991011011004501001081KA1120M-00531MA1999999102321MD1310011+9999MW1021REMSYN088AAXX  22184 01098 31489 31706 11063 21112 30232 40251 53001 70200 81108 333 11053 91118;EQDQ01  00002PRCP99
0161010980999992000112221004+70360+031090FM-12+001599999V0202001N005112200019N0750001N1-00631-01141102371ADDAY101031AY201031GF103991011011004501001081MA1999999102181MD1810141+9999MW1021REMSYN072AAXX  22214 01098 41489 32010 11063 21114 30218 40237 58014 70200 81108;
0201010980999992000112300004+70360+031090FM-12+001599999V0202101N006212200019N0750001N1-00591-00911102091ADDAA199000091AY111061AY201061GF103991011011004501001081MA1999999101901MD1810281+9999MW1021REMSYN082AAXX  23004 01098 31489 32112 11059 21091 30190 40209 58028 70210 81108 333 91120;EQDQ01  00002PRCP99
0161010980999992000112303004+70360+031090FM-12+001599999V0201901N007212200019N0750001N1-00641-00771101871ADDAY111031AY201031GF102991011011008001001081MA1999999101681MD1610221+9999MW1021REMSYN072AAXX  23034 01098 41589 21914 11064 21077 30168 40187 56022 70210 81108;
0265010980999992000112306004+70360+031090FM-12+001599999V0202001N008712200019N0750001N1-00771-00841101491ADDAA199000091AJ199991999999999AY111061AY201061GF102991021071004501001001IA1289KA1120N-00771MA1999999101301MD1810381+9999MW1021REMSYN094AAXX  23064 01098 31489 22017 11077 21084 30130 40149 58038 70210 82700 333 21077 44999 91126;EQDQ01  00002PRCP99Q02  09962SNDP  
0161010980999992000112309004+70360+031090FM-12+001599999V0202401N002110600019N0300001N1-00501-00611101621ADDAY121031AY211031GF106991021071004501001091MA1999999101431MD1010131+9999MW1031REMSYN072AAXX  23094 01098 41480 62404 11050 21061 30143 40162 50013 70321 82709;
0201010980999992000112312004+70360+031090FM-12+001599999V0202001N007210240019N0300001N1-00451-00521101281ADDAA199000091AY121061AY211061GF106991041091004501041091MA1999999101091MD1710341+9999MW1031REMSYN082AAXX  23124 01098 31480 62014 11045 21052 30109 40128 57034 70321 84949 333 91121;EQDQ01  00002PRCP99
0161010980999992000112315004+70360+031090FM-12+001599999V0203301N002110090019N0750001N1-00371-00481101321ADDAY121031AY211031GF107991071081004501001001MA1999999101131MD1310041+9999MW1021REMSYN072AAXX  23154 01098 41489 73304 11037 21048 30113 40132 53004 70221 87800;
0190010980999992000112318004+70360+031090FM-12+001599999V0202201N005112200019N0750001N1-00251-00351101181ADDAY121061AY211061GF103991011061001501041041KA1120M-00211MA1999999100991MD1810141+9999MW1011REMSYN088AAXX  23184 01098 11289 32210 11025 21035 30099 40118 58014 70121 81644 333 11021 91121;
0161010980999992000112321004+70360+031090FM-12+001599999V0202101N004112200019N0750001N1-00231-00361101181ADDAY101031AY201031GF103991011061001501041001MA1999999100991MD1410001+9999MW1021REMSYN072AAXX  23214 01098 41289 32108 11023 21036 30099 40118 54000 70200 81640;
0201010980999992000112400004+70360+031090FM-12+001599999V0202101N005112200019N0750001N1-00111-00181101051ADDAA199000091AY101061AY201061GF102991011061001501041001MA1999999100861MD1810131+9999MW1021REMSYN082AAXX  24004 01098 31289 22110 11011 21018 30086 40105 58013 70200 81640 333 91114;EQDQ01  00002PRCP99
0161010980999992000112403004+70360+031090FM-12+001599999V0202401N004612200019N0750001N1-00161-00231100991ADDAY101031AY201031GF102991011061001501041001MA1999999100801MD1710061+9999MW1021REMSYN072AAXX  24034 01098 41289 22409 11016 21023 30080 40099 57006 70200 81640;
0265010980999992000112406004+70360+031090FM-12+001599999V0202301N003612200019N0750001N1-00121-00191100961ADDAA199000091AJ199991999999999AY101061AY201061GF103991011011002501041001IA1289KA1120N-00181MA1999999100771MD1610031+9999MW1021REMSYN094AAXX  24064 01098 31389 32307 11012 21019 30077 40096 56003 70200 81140 333 21018 44999 91111;EQDQ01  00002PRCP99Q02  09962SNDP  
0161010980999992000112409004+70360+031090FM-12+001599999V0202201N003110240019N0300001N1-00031-00101100931ADDAY121031AY211031GF106991031081004501051001MA1999999100741MD1710031+9999MW1031REMSYN072AAXX  24094 01098 41480 62206 11003 21010 30074 40093 57003 70321 83850;
0201010980999992000112412004+70360+031090FM-12+001599999V0202301N001010240019N0550001N1+00021-00041100941ADDAA199000091AY121061AY211061GF106991041031004501061001MA1999999100761MD1310011+9999MW1021REMSYN082AAXX  24124 01098 31485 62302 10002 21004 30076 40094 53001 70221 84360 333 91110;EQDQ01  00002PRCP99
0161010980999992000112415004+70360+031090FM-12+001599999V0202201N001510042019N0550001N1+00061-00051100941ADDAY121031AY221031GF108991051031004501061999MA1999999100761MD1410001+9999MW1031REMSYN072AAXX  24154 01098 41485 82203 10006 21005 30076 40094 54000 70322 8536/;
0220010980999992000112418004+70360+031090FM-12+001599999V0202401N000510042019N0550001N1+00181-00111101021ADDAA199000091AY121061AY221061GF108991051031004501061999KA1120M+00201MA1999999100941MD1310081+9999MW1021REMSYN088AAXX  24184 01098 31485 82401 10018 21011 30094 40102 53008 70222 8536/ 333 10020 91104;EQDQ01  00002PRCP99
0161010980999992000112421004+70360+031090FM-12+001599999V0202501N002110042019N0550001N1+00211-00051101071ADDAY121031AY221031GF108991051061004501031999MA1999999100891MD1210051+9999MW1021REMSYN072AAXX  24214 01098 41485 82504 10021 21005 30089 40107 52005 70222 8563/;
0201010980999992000112500004+70360+031090FM-12+001599999V0202101N003119999999N0750001N1+00141-00041101121ADDAA199000091AY121061AY221061GF107991071001012501071001MA1999999100941MD1210051+9999MW1021REMSYN082AAXX  25004 01098 31689 72106 10014 21004 30094 40112 52005 70222 87070 333 91108;EQDQ01  00002PRCP99
0161010980999992000112503004+70360+031090FM-12+001599999V0202101N003112200019N0750001N1+00061-00121101151ADDAY111031AY201031GF104991041001012501071001MA1999999100971MD1210031+9999MW1011REMSYN072AAXX  25034 01098 41689 42106 10006 21012 30097 40115 52003 70110 84070;
0265010980999992000112506004+70360+031090FM-12+001599999V0202201N003612200019N0750001N1-00081-00211101191ADDAA199000091AJ199991999999999AY111061AY201061GF101991011001012501071001IA1289KA1120N-00111MA1999999101001MD1210041+9999MW1011REMSYN094AAXX  25064 01098 31689 12207 11008 21021 30100 40119 52004 70110 81070 333 21011 44999 91109;EQDQ01  00002PRCP99Q02  09962SNDP  
0161010980999992000112509004+70360+031090FM-12+001599999V0202201N003612200019N0750001N1-00181-00251101241ADDAY111031AY201031GF102991011021008001071001MA1999999101051MD1210051+9999MW1031REMSYN072AAXX  25094 01098 41589 22207 11018 21025 30105 40124 52005 70310 81270;
0201010980999992000112512004+70360+031090FM-12+001599999V0201701N002110090019N0550001N1+00021-00041101231ADDAA199000091AY121061AY211061GF108991051081004501021999MA1999999101051MD1810011+9999MW1031REMSYN082AAXX  25124 01098 31485 81704 10002 21004 30105 40123 58001 70321 8582/ 333 91112;EQDQ01  00002PRCP99
0161010980999992000112515004+70360+031090FM-12+001599999V0201801N003110090019N0550001N1+00301+00231101131ADDAY121031AY221031GF107991071081004501001001MA1999999100951MD1710101+9999MW1011REMSYN072AAXX  25154 01098 41485 71806 10030 20023 30095 40113 57010 70122 87800;
0207010980999992000112518004+70360+031090FM-12+001599999V0201901N004610090019N0550001N1+00371+00301101031ADDAA112000791AY181061AY221061GF107991071081004501001001KA1120M+00371MA1999999100851MD1710101+9999MW1021REMSYN094AAXX  25184 01098 11485 71909 10037 20030 30085 40103 57010 69902 70282 87800 333 10037 91112;
0161010980999992000112521004+70360+031090FM-12+001599999V0201901N005710090019N0550001N1+00331+00261100911ADDAY181031AY221031GF107991071081004501001001MA1999999100731MD1710121+9999MW1021REMSYN072AAXX  25214 01098 41485 71911 10033 20026 30073 40091 57012 70282 87800;
0188010980999992000112600004+70360+031090FM-12+001599999V0201901N004610090019N0550001N1+00321+00261100821ADDAA106000791AY181061AY221061GF108991081081004501999999MA1999999100641MD1710091+9999MW1021REMSYN088AAXX  26004 01098 11485 81909 10032 20026 30064 40082 57009 69901 70282 888// 333 91116;
0161010980999992000112603004+70360+031090FM-12+001599999V0202001N005710090019N0550001N1+00281+00211100701ADDAY121031AY221031GF108991081081004501999999MA1999999100521MD1710121+9999MW1021REMSYN072AAXX  26034 01098 41485 82011 10028 20021 30052 40070 57012 70222 888//;
0255010980999992000112606004+70360+031090FM-12+001599999V0202101N005110090019N0550001N1+00221+00151100691ADDAA112000791AJ199991999999999AY151061AY221061GF108991081081004501999999IA1279KA1120N+00221MA1999999100511MD1710011+9999MW1021REMSYN100AAXX  26064 01098 11485 82110 10022 20015 30051 40069 57001 69902 70252 888// 333 20022 43999 91119;EQDQ01  09962SNDP  
0161010980999992000112609004+70360+031090FM-12+001599999V0202201N003610090019N0550001N1+00231+00161100761ADDAY181031AY221031GF107991071081004501001001MA1999999100581MD1310071+9999MW1011REMSYN072AAXX  26094 01098 41485 72207 10023 20016 30058 40076 53007 70182 87800;
0188010980999992000112612004+70360+031090FM-12+001599999V0202201N003610090019N0550001N1+00181+00111100791ADDAA106000791AY181061AY221061GF106991061081004501001001MA1999999100611MD1210031+9999MW1011REMSYN088AAXX  26124 01098 11485 62207 10018 20011 30061 40079 52003 69901 70182 86800 333 91111;
0161010980999992000112615004+70360+031090FM-12+001599999V0202201N003110090019N0550001N1+00171+00071100841ADDAY121031AY221031GF106991061081004501001001MA1999999100661MD1210051+9999MW1021REMSYN072AAXX  26154 01098 41485 62206 10017 20007 30066 40084 52005 70222 86800;
0207010980999992000112618004+70360+031090FM-12+001599999V0202301N003612200019N0550001N1+00161+00091100851ADDAA112000791AY121061AY221061GF104991041081004501001001KA1120M+00261MA1999999100671MD1110011+9999MW1011REMSYN094AAXX  26184 01098 11485 42307 10016 20009 30067 40085 51001 69902 70122 84800 333 10026 91110;
0161010980999992000112621004+70360+031090FM-12+001599999V0202301N003112200019N0550001N1+00091+00031100881ADDAY121031AY211031GF103991031081004501001001MA1999999100701MD1210031+9999MW1021REMSYN072AAXX  26214 01098 41485 32306 10009 20003 30070 40088 52003 70221 83800;
0149010980999992000112700004+70360+031090FM-12+001599999V0202301N000519999999N0550001N1+99999+99999999999ADDAA199000091GF106991999999004501999999REMSYN081AAXX  27004 01098 31485 62301 1014 20007 30077 40095 52007 70321 86800 333 91109;EQDQ01  00002PRCP99
0161010980999992000112703004+70360+031090FM-12+001599999V0202801N001010090019N0550001N1+00271+00201101041ADDAY121031AY221031GF105991051081004501001001MA1999999100861MD1210091+9999MW1011REMSYN072AAXX  27034 01098 41485 52802 10027 20020 30086 40104 52009 70122 85800;
0265010980999992000112706004+70360+031090FM-12+001599999V0202201N002112200019N0550001N1+00161+00091101141ADDAA199000091AJ199992999999999AY121061AY221061GF104991041041004501001001IA1259KA1120N+00011MA1999999100961MD1210101+9999MW1011REMSYN094AAXX  27064 01098 31485 42204 10016 20009 30096 40114 52010 70122 84400 333 20001 41998 91105;EQDQ01  00002PRCP99Q02  09972SNDP  
0161010980999992000112709004+70360+031090FM-12+001599999V0202201N002112200019N0750001N1+00211+00141101251ADDAY111031AY201031GF101991011041004501041081MA1999999101071MD1210111+9999MW1021REMSYN072AAXX  27094 01098 41489 12204 10021 20014 30107 40125 52011 70210 81448;
0201010980999992000112712004+70360+031090FM-12+001599999V0201701N001512200019N0750001N1+00211+00151101331ADDAA199000091AY111061AY201061GF101991011011004501041081MA1999999101151MD1210081+9999MW1021REMSYN082AAXX  27124 01098 31489 11703 10021 20015 30115 40133 52008 70210 81148 333 91107;EQDQ01  00002PRCP99
0161010980999992000112715004+70360+031090FM-12+001599999V0202101N005112200019N0750001N1+00061-00011101351ADDAY101031AY201031GF101991011011004501041001MA1999999101171MD1110021+9999MW1021REMSYN072AAXX  27154 01098 41489 12110 10006 21001 30117 40135 51002 70200 81140;
0220010980999992000112718004+70360+031090FM-12+001599999V0202201N004612200019N0750001N1-00061-00191101341ADDAA199000091AY101061AY201061GF101991011011004501041001KA1120M+00321MA1999999101151MD1810021+9999MW1021REMSYN088AAXX  27184 01098 31489 12209 11006 21019 30115 40134 58002 70200 81140 333 10032 91112;EQDQ01  00002PRCP99
0161010980999992000112721004+70360+031090FM-12+001599999V0202001N003612200019N0750001N1+00081-00021101311ADDAY101031AY201031GF101991011011004501041001MA1999999101131MD1710021+9999MW1021REMSYN072AAXX  27214 01098 41489 12007 10008 21002 30113 40131 57002 70200 81140;
0201010980999992000112800004+70360+031090FM-12+001599999V0202101N002110021019N0550001N1+00261+00191101201ADDAA199000091AY121061AY211061GF108991081061002501999999MA1999999101021MD1710111+9999MW1031REMSYN082AAXX  28004 01098 31385 82104 10026 20019 30102 40120 57011 70321 886// 333 91112;EQDQ01  00002PRCP99
0161010980999992000112803004+70360+031090FM-12+001599999V0202101N003110021019N0100001N1+00261+00201101031ADDAY151031AY221031GF108991081061002501999999MA1999999100851MD1710171+9999MW1501REMSYN072AAXX  28034 01098 41360 82106 10026 20020 30085 40103 57017 75052 886//;
0207010980999992000112806004+70360+031090FM-12+001599999V0202101N003610021019N0300001N1+00261+00201100871ADDAA112000791AY151061AY221061GF108991081061002501999999KA1120N-00061MA1999999100691MD1710161+9999MW1021REMSYN094AAXX  28064 01098 11380 82107 10026 20020 30069 40087 57016 69902 70252 886// 333 21006 91109;
0161010980999992000112809004+70360+031090FM-12+001599999V0202201N002610240019N0550001N1+00271+00211100831ADDAY121031AY221031GF108991021041004501071999MA1999999100651MD1710041+9999MW1021REMSYN072AAXX  28094 01098 41485 82205 10027 20021 30065 40083 57004 70222 8247/;
0182010980999992000112812004+70360+031090FM-12+001599999V0202501N002110240019N0550001N1+00311+00251100791ADDAA199000021AY121061AY221061GF108991041041004501071999MA1999999100611MD1710041+9999MW1021REMSYN082AAXX  28124 01098 31485 82504 10031 20025 30061 40079 57004 70222 8447/ 333 91108;
0161010980999992000112815004+70360+031090FM-12+001599999V0202501N002110240019N0550001N1+00321+00261100771ADDAY121031AY221031GF108991041041004501071999MA1999999100591MD1710021+9999MW1021REMSYN072AAXX  28154 01098 41485 82504 10032 20026 30059 40077 57002 70222 8447/;
0220010980999992000112818004+70360+031090FM-12+001599999V0202701N002610240019N0550001N1+00331+00271100721ADDAA199000091AY121061AY221061GF107991041051004501071001KA1120M+00331MA1999999100541MD1610051+9999MW1021REMSYN088AAXX  28184 01098 31485 72705 10033 20027 30054 40072 56005 70222 84570 333 10033 91107;EQDQ01  00002PRCP99
0161010980999992000112821004+70360+031090FM-12+001599999V0202801N002610240019N0550001N1+00351+00291100671ADDAY121031AY221031GF108991041051004501071999MA1999999100491MD1710051+9999MW1021REMSYN072AAXX  28214 01098 41485 82805 10035 20029 30049 40067 57005 70222 8457/;
0201010980999992000112900004+70360+031090FM-12+001599999V0202401N001510042019N0550001N1+00341+00271100611ADDAA199000091AY121061AY221061GF108991061051004501071999MA1999999100431MD1710061+9999MW1021REMSYN082AAXX  29004 01098 31485 82403 10034 20027 30043 40061 57006 70222 8657/ 333 91106;EQDQ01  00002PRCP99
0161010980999992000112903004+70360+031090FM-12+001599999V0202401N001510042019N0550001N1+00311+00241100501ADDAY121031AY221031GF108991081051004501999999MA1999999100321MD1810111+9999MW1021REMSYN072AAXX  29034 01098 41485 82403 10031 20024 30032 40050 58011 70222 885//;
0220010980999992000112906004+70360+031090FM-12+001599999V0203001N001010021019N0300001N1+00321+00261100411ADDAA199000091AY121061AY221061GF108991081061002501999999KA1120N+00291MA1999999100231MD1710091+9999MW1021REMSYN088AAXX  29064 01098 31380 83002 10032 20026 30023 40041 57009 70222 886// 333 20029 91104;EQDQ01  00002PRCP99
0161010980999992000112909004+70360+031090FM-12+001599999V0203001N001510060019N0250001N1+00321+00261100391ADDAY181031AY221031GF108991081081002501999999MA1999999100211MD1610021+9999MW1801REMSYN072AAXX  29094 01098 41375 83003 10032 20026 30021 40039 56002 78082 888//;
0188010980999992000112912004+70360+031090FM-12+001599999V0202801N001510060019N0250001N1+00281+00221100361ADDAA106000191AY181061AY251061GF107991071081002501001001MA1999999100181MD1710031+9999MW1021REMSYN088AAXX  29124 01098 11375 72803 10028 20022 30018 40036 57003 69911 70285 87800 333 91106;
0161010980999992000112915004+70360+031090FM-12+001599999V0202701N002110090019N0600001N1+00181+00111100371ADDAY181031AY221031GF107991071081004501001001MA1999999100191MD1310011+9999MW1021REMSYN072AAXX  29154 01098 41486 72704 10018 20011 30019 40037 53001 70282 87800;
0207010980999992000112918004+70360+031090FM-12+001599999V0202701N002610090019N0600001N1+00141+00071100371ADDAA112000191AY181061AY221061GF107991071081004501001001KA1120M+00351MA1999999100191MD1410001+9999MW1021REMSYN094AAXX  29184 01098 11486 72705 10014 20007 30019 40037 54000 69912 70282 87800 333 10035 91107;
0161010980999992000112921004+70360+031090FM-12+001599999V0202601N003112200019N0600001N1+00101+00031100391ADDAY181031AY221031GF104991041081004501001001MA1999999100211MD1310021+9999MW1011REMSYN072AAXX  29214 01098 41486 42606 10010 20003 30021 40039 53002 70182 84800;
0188010980999992000113000004+70360+031090FM-12+001599999V0202701N003110090019N0600001N1+00061+00001100451ADDAA106000191AY181061AY221061GF105991051081004501001001MA1999999100271MD1210061+9999MW1261REMSYN088AAXX  30004 01098 11486 52706 10006 20000 30027 40045 52006 69911 72682 85800 333 91108;
0161010980999992000113003004+70360+031090FM-12+001599999V0202601N003110090019N0600001N1+00131+00061100511ADDAY181031AY221031GF105991051081004501001001MA1999999100331MD1210061+9999MW1261REMSYN072AAXX  30034 01098 41486 52606 10013 20006 30033 40051 52006 72682 85800;
0255010980999992000113006004+70360+031090FM-12+001599999V0202601N002610090019N0600001N1+00131+00061100571ADDAA112000391AJ199991999999999AY181061AY221061GF107991071081004501001001IA1259KA1120N+00051MA1999999100391MD1210061+9999MW1031REMSYN100AAXX  30064 01098 11486 72605 10013 20006 30039 40057 52006 69932 70382 87800 333 20005 41999 91107;EQDQ01  09962SNDP  
0161010980999992000113009004+70360+031090FM-12+001599999V0202601N003110042019N0550001N1+00081-00211100641ADDAY121031AY221031GF106991061051004501001001MA1999999100461MD1210071+9999MW1021REMSYN072AAXX  30094 01098 41485 62606 10008 21021 30046 40064 52007 70222 86500;
0182010980999992000113012004+70360+031090FM-12+001599999V0202401N002110042019N0550001N1-00011-00251100701ADDAA199000021AY121061AY221061GF106991061041004501001001MA1999999100511MD1210061+9999MW1021REMSYN082AAXX  30124 01098 31485 62404 11001 21025 30051 40070 52006 70222 86400 333 91107;
0161010980999992000113015004+70360+031090FM-12+001599999V0203001N001010042019N0550001N1-00061-00311100741ADDAY121031AY221031GF105991051041004501001001MA1999999100551MD1210041+9999MW1021REMSYN072AAXX  30154 01098 41485 53002 11006 21031 30055 40074 52004 70222 85400;
0220010980999992000113018004+70360+031090FM-12+001599999V0202701N000510042019N0550001N1-00161-00301100771ADDAA199000091AY121061AY221061GF105991051041004501001001KA1120M+00151MA1999999100581MD1210031+9999MW1021REMSYN088AAXX  30184 01098 31485 52701 11016 21030 30058 40077 52003 70222 85400 333 10015 91104;EQDQ01  00002PRCP99
0161010980999992000113021004+70360+031090FM-12+001599999V0202401N000510042019N0550001N1-00031-00101100781ADDAY121031AY221031GF107991071041004501001001MA1999999100591MD1210011+9999MW1031REMSYN072AAXX  30214 01098 41485 72401 11003 21010 30059 40078 52001 70322 87400;
0188010980999992000120100004+70360+031090FM-12+001599999V0202101N002110090019N0600001N1+00001-00071100781ADDAA106000791AY181061AY221061GF107991071081004501001001MA1999999100601MD1210011+9999MW1021REMSYN088AAXX  01004 01098 11486 72104 10000 21007 30060 40078 52001 69901 70282 87800 333 91105;
0161010980999992000120103004+70360+031090FM-12+001599999V0202001N002110240019N0600001N1-00121-00181100761ADDAY181031AY221031GF108991041081004501011001MA1999999100571MD1810021+9999MW1031REMSYN072AAXX  01034 01098 41486 82004 11012 21018 30057 40076 58002 70382 84810;
0255010980999992000120106004+70360+031090FM-12+001599999V0201801N002110090019N0600001N1-00081-00151100741ADDAA112000791AJ199991999999999AY181061AY221061GF107991071081004501001001IA1259KA1120N-00151MA1999999100551MD1710021+9999MW1011REMSYN100AAXX  01064 01098 11486 71804 11008 21015 30055 40074 57002 69902 70182 87800 333 21015 41999 91108;EQDQ01  09962SNDP  
0161010980999992000120109004+70360+031090FM-12+001599999V0201701N003110042019N0550001N1+00021-00041100761ADDAY121031AY221031GF108991081051004501999999MA1999999100581MD1310031+9999MW1021REMSYN072AAXX  01094 01098 41485 81706 10002 21004 30058 40076 53003 70222 885//;
0201010980999992000120112004+70360+031090FM-12+001599999V0201701N003110042019N0300001N1-00011-00101100751ADDAA199000091AY121061AY221061GF108991061051004501071999MA1999999100561MD1810011+9999MW1021REMSYN082AAXX  01124 01098 31480 81706 11001 21010 30056 40075 58001 70222 8657/ 333 91108;EQDQ01  00002PRCP99
0161010980999992000120115004+70360+031090FM-12+001599999V0201801N003110042019N0550001N1-00141-00241100801ADDAY121031AY221031GF108991071051004501071999MA1999999100611MD1210051+9999MW1021REMSYN072AAXX  01154 01098 41485 81806 11014 21024 30061 40080 52005 70222 8757/;
0207010980999992000120118004+70360+031090FM-12+001599999V0201501N001510042019N0550001N1-00101-00241100851ADDAA112000791AY171061AY221061GF108991081051004501999999KA1120M+00031MA1999999100661MD1210051+9999MW1781REMSYN094AAXX  01184 01098 11485 81503 11010 21024 30066 40085 52005 69902 77872 885// 333 10003 91109;
0161010980999992000120121004+70360+031090FM-12+001599999V0201601N001510042019N0550001N1-00081-00221100911ADDAY171031AY221031GF108991081051004501999999MA1999999100721MD1210061+9999MW1021REMSYN072AAXX  01214 01098 41485 81603 11008 21022 30072 40091 52006 70272 885//;
0188010980999992000120200004+70360+031090FM-12+001599999V0201501N002110042019N0550001N1-00021-00191100951ADDAA106000791AY171061AY221061GF108991081051004501999999MA1999999100761MD1210041+9999MW1021REMSYN088AAXX  02004 01098 11485 81504 11002 21019 30076 40095 52004 69901 70272 885// 333 91106;
0161010980999992000120203004+70360+031090FM-12+001599999V0201501N002610042019N0550001N1+00051-00061100911ADDAY181031AY221031GF108991081051004501999999MA1999999100731MD1810041+9999MW1021REMSYN072AAXX  02034 01098 41485 81505 10005 21006 30073 40091 58004 70282 885//;
0255010980999992000120206004+70360+031090FM-12+001599999V0201601N002110042019N0200001N1+00011-00091100851ADDAA112000791AJ199991999999999AY181061AY221061GF108991081051004501999999IA1259KA1120N-00091MA1999999100671MD1710061+9999MW1851REMSYN100AAXX  02064 01098 11470 81604 10001 21009 30067 40085 57006 69902 78582 885// 333 21009 41999 91107;EQDQ01  09962SNDP  
0180010980999992000120209004+70360+031090FM-12+001599999V0201601N003110021019N0200001N1+00061+00001100841ADDAY171031AY221031GF108991999071002501021999MA1999999100661MD1710011+9999MW1681REMSYN072AAXX  02094 01098 41370 81606 10006 20000 30066 40084 57001 76872 8872/;EQDQ01+000082SCOTLC
0188010980999992000120212004+70360+031090FM-12+001599999V0201801N003110042019N0300001N1+00071+00001100771ADDAA106000191AY171061AY221061GF108991081071004501999999MA1999999100591MD1710071+9999MW1021REMSYN088AAXX  02124 01098 11480 81806 10007 21000 30059 40077 57007 69911 70272 887// 333 91109;
0161010980999992000120215004+70360+031090FM-12+001599999V0201801N003610042019N0300001N1+00061-00041100791ADDAY121031AY221031GF108991081071004501999999MA1999999100611MD1110021+9999MW1021REMSYN072AAXX  02154 01098 41480 81807 10006 21004 30061 40079 51002 70222 887//;
0220010980999992000120218004+70360+031090FM-12+001599999V0201801N002610042019N0300001N1+00051-00031100661ADDAA199000021AY121061AY221061GF108991999071004501021999KA1120M+00091MA1999999100481MD1710131+9999MW1021REMSYN088AAXX  02184 01098 31480 81805 10005 21003 30048 40066 57013 70222 8872/ 333 10009 91110;EQDQ01+000082SCOTLC
0180010980999992000120221004+70360+031090FM-12+001599999V0201801N003110042019N0300001N1+00041-00061100611ADDAY121031AY221031GF108991999071004501021999MA1999999100431MD1710051+9999MW1021REMSYN072AAXX  02214 01098 41480 81806 10004 21006 30043 40061 57005 70222 8872/;EQDQ01+000082SCOTLC
0217010980999992000120300004+70360+031090FM-12+001599999V0201901N002110042019N0300001N1+00031-00071100411ADDAA199000091AY121061AY221061GF108991999071004501021999MA1999999100231MD1710201+9999MW1021REMSYN082AAXX  03004 01098 31480 81904 10003 21007 30023 40041 57020 70222 8872/ 333 91108;EQDQ01+000082SCOTLCQ02  00002PRCP99
0161010980999992000120303004+70360+031090FM-12+001599999V0202201N001510042019N0550001N1+00031-00071100301ADDAY121031AY221031GF108991081051004501999999MA1999999100121MD1710111+9999MW1021REMSYN072AAXX  03034 01098 41485 82203 10003 21007 30012 40030 57011 70222 885//;
0255010980999992000120306004+70360+031090FM-12+001599999V0202201N001010042019N0200001N1+00011-00071100261ADDAA112000191AJ199991999999999AY171061AY221061GF108991081071004501999999IA1259KA1120N-00011MA1999999100081MD1710041+9999MW1701REMSYN100AAXX  03064 01098 11470 82202 10001 21007 30008 40026 57004 69922 77072 887// 333 21001 41999 91106;EQDQ01  09962SNDP  
0161010980999992000120309004+70360+031090FM-12+001599999V0209999C000010042019N0300001N1+00001-00071100361ADDAY121031AY221031GF108991081071004501999999MA1999999100181MD1210101+9999MW1021REMSYN072AAXX  03094 01098 41480 80000 10000 21007 30018 40036 52010 70222 887//;
0188010980999992000120312004+70360+031090FM-12+001599999V0203001N001010042019N0200001N1+00031-00031100431ADDAA106000191AY171061AY221061GF108991081071004501999999MA1999999100251MD1210071+9999MW1221REMSYN088AAXX  03124 01098 11470 83002 10003 21003 30025 40043 52007 69911 72272 887// 333 91102;
0161010980999992000120315004+70360+031090FM-12+001599999V0200501N001010042019N0550001N1+00211+00051100441ADDAY121031AY211031GF106991061011004501001001MA1999999100261MD1210011+9999MW1011REMSYN072AAXX  03154 01098 41485 60502 10021 20005 30026 40044 52001 70121 86100;
0207010980999992000120318004+70360+031090FM-12+001599999V0200301N001012200019N0550001N1+00181+00111100571ADDAA112000191AY181061AY211061GF104991041011004501001001KA1120M+00221MA1999999100391MD1310131+9999MW1011REMSYN094AAXX  03184 01098 11485 40302 10018 20011 30039 40057 53013 69922 70181 84100 333 10022 91108;
0161010980999992000120321004+70360+031090FM-12+001599999V0200501N001010042019N0550001N1+00251-00171100731ADDAY121031AY211031GF106991061011004501001001MA1999999100551MD1310161+9999MW1031REMSYN072AAXX  03214 01098 41485 60502 10025 21017 30055 40073 53016 70321 86100;
0188010980999992000120400004+70360+031090FM-12+001599999V0203601N001510042019N0300001N1+00181+00081100851ADDAA106000791AY171061AY221061GF106991061041004501001001MA1999999100671MD1210121+9999MW1021REMSYN088AAXX  04004 01098 11480 63603 10018 20008 30067 40085 52012 69901 70272 86400 333 91107;
0161010980999992000120403004+70360+031090FM-12+001599999V0203601N000510042019N0300001N1+00131+00061101021ADDAY121031AY221031GF106991051041004501021001MA1999999100841MD1210171+9999MW1021REMSYN072AAXX  04034 01098 41480 63601 10013 20006 30084 40102 52017 70222 85420;
0255010980999992000120406004+70360+031090FM-12+001599999V0203201N001010042019N0200001N1+00051-00021101061ADDAA112002091AJ199991999999999AY171061AY221061GF108991051071004501021999IA1309KA1120N+00051MA1999999100881MD1210041+9999MW1711REMSYN100AAXX  04064 01098 11470 83202 10005 21002 30088 40106 52004 60022 77172 8572/ 333 20005 42999 91107;EQDQ01  09962SNDP  
0161010980999992000120409004+70360+031090FM-12+001599999V0202701N000510090019N0300001N1-00131-00191101181ADDAY181031AY271031GF106991051081004501041081MA1999999100991MD1210111+9999MW1151REMSYN072AAXX  04094 01098 41480 62701 11013 21019 30099 40118 52011 71587 85848;
0188010980999992000120412004+70360+031090FM-12+001599999V0202301N000510090019N0300001N1-00041-00111101221ADDAA106000791AY181061AY271061GF107991071081004501001001MA1999999101031MD1210041+9999MW1021REMSYN088AAXX  04124 01098 11480 72301 11004 21011 30103 40122 52004 69901 70287 87800 333 91104;
0161010980999992000120415004+70360+031090FM-12+001599999V0202501N001510090019N0600001N1+00031-00101101261ADDAY181031AY221031GF107991071081004501001001MA1999999101081MD1210051+9999MW1021REMSYN072AAXX  04154 01098 41486 72503 10003 21010 30108 40126 52005 70282 87800;
0207010980999992000120418004+70360+031090FM-12+001599999V0202201N002112200019N0600001N1-00181-00301101331ADDAA112000791AY181061AY221061GF104991041081004501001001KA1120M+00101MA1999999101141MD1210061+9999MW1011REMSYN094AAXX  04184 01098 11486 42204 11018 21030 30114 40133 52006 69902 70182 84800 333 10010 91106;
0161010980999992000120421004+70360+031090FM-12+001599999V0202101N002612200019N0600001N1-00241-00311101351ADDAY111031AY201031GF102991021051004501001001MA1999999101161MD1110021+9999MW1011REMSYN072AAXX  04214 01098 41486 22105 11024 21031 30116 40135 51002 70110 82500;
0201010980999992000120500004+70360+031090FM-12+001599999V0202101N003612200019N0750001N1-00091-00151101271ADDAA199000091AY111061AY201061GF104991041011008001001001MA1999999101081MD1810081+9999MW1031REMSYN082AAXX  05004 01098 31589 42107 11009 21015 30108 40127 58008 70310 84100 333 91108;EQDQ01  00002PRCP99
0161010980999992000120503004+70360+031090FM-12+001599999V0201901N005710042019N0550001N1-00031-00101101131ADDAY121031AY211031GF106991061071004501001001MA1999999100941MD1810141+9999MW1031REMSYN072AAXX  05034 01098 41485 61911 11003 21010 30094 40113 58014 70321 86700;
0265010980999992000120506004+70360+031090FM-12+001599999V0202001N006210042019N0550001N1-00031-00111100931ADDAA199000091AJ199991999999999AY121061AY211061GF107991071071004501001001IA1289KA1120N-00361MA1999999100741MD1810201+9999MW1031REMSYN094AAXX  05064 01098 31485 72012 11003 21011 30074 40093 58020 70321 87700 333 21036 44999 91118;EQDQ01  00002PRCP99Q02  09962SNDP  
0161010980999992000120509004+70360+031090FM-12+001599999V0202101N007710042019N0550001N1-00021-00081100741ADDAY121031AY221031GF107991071071004501001001MA1999999100551MD1710191+9999MW1021REMSYN072AAXX  05094 01098 41485 72115 11002 21008 30055 40074 57019 70222 87700;
0201010980999992000120512004+70360+031090FM-12+001599999V0202001N007210042019N0550001N1-00041-00141100621ADDAA199000091AY121061AY221061GF107991071071004501001001MA1999999100431MD1710121+9999MW1021REMSYN082AAXX  05124 01098 31485 72014 11004 21014 30043 40062 57012 70222 87700 333 91122;EQDQ01  00002PRCP99
0161010980999992000120515004+70360+031090FM-12+001599999V0202001N007712200019N0550001N1-00091-00161100541ADDAY121031AY211031GF103991031071004501001001MA1999999100351MD1610081+9999MW1011REMSYN072AAXX  05154 01098 41485 32015 11009 21016 30035 40054 56008 70121 83700;
0220010980999992000120518004+70360+031090FM-12+001599999V0201801N004610240019N0550001N1-00111-00181100551ADDAA199000091AY121061AY211061GF105991031071004501031001KA1120M+00011MA1999999100361MD1210011+9999MW1021REMSYN088AAXX  05184 01098 31485 51809 11011 21018 30036 40055 52001 70221 83730 333 10001 91122;EQDQ01  00002PRCP99
0161010980999992000120521004+70360+031090FM-12+001599999V0201801N005110042019N0550001N1-00081-00151100311ADDAY121031AY221031GF108991081071004501999999MA1999999100121MD1810241+9999MW1021REMSYN072AAXX  05214 01098 41485 81810 11008 21015 30012 40031 58024 70222 887//;
0201010980999992000120600004+70360+031090FM-12+001599999V0201901N007210042019N0600001N1+00021-00091099971ADDAA199000091AY121061AY221061GF108991081071004501999999MA1999999099791MD1810331+9999MW1021REMSYN082AAXX  06004 01098 31486 81914 10002 21009 39979 49997 58033 70222 887// 333 91117;EQDQ01  00002PRCP99
0161010980999992000120603004+70360+031090FM-12+001599999V0202101N005110042019N0600001N1+00021-00051099681ADDAY121031AY221031GF108991081071004501999999MA1999999099501MD1710291+9999MW1021REMSYN072AAXX  06034 01098 41486 82110 10002 21005 39950 49968 57029 70222 887//;
0265010980999992000120606004+70360+031090FM-12+001599999V0202101N003610042019N0600001N1-00051-00121099611ADDAA199000091AJ199991999999999AY121061AY221061GF106991061071004501001001IA1289KA1120N-00051MA1999999099421MD1610081+9999MW1011REMSYN094AAXX  06064 01098 31486 62107 11005 21012 39942 49961 56008 70122 86700 333 21005 44999 91117;EQDQ01  00002PRCP99Q02  09962SNDP  
0161010980999992000120609004+70360+031090FM-12+001599999V0202101N006210240019N0550001N1+00041-00031099421ADDAY121031AY221031GF106991021051004501071081MA1999999099241MD1710181+9999MW1021REMSYN072AAXX  06094 01098 41485 62112 10004 21003 39924 49942 57018 70222 82578;
0188010980999992000120612004+70360+031090FM-12+001599999V0202001N004610240019N0550001N1+00161+00041099221ADDAA106000791AY181061AY221061GF106991021081004501071081MA1999999099041MD1710201+9999MW1801REMSYN088AAXX  06124 01098 11485 62009 10016 20004 39904 49922 57020 69901 78082 82878 333 91117;
0161010980999992000120615004+70360+031090FM-12+001599999V0202101N006710240019N0750001N1+00261+00161099011ADDAY121031AY221031GF107991031071004501071001MA1999999098831MD1710211+9999MW1021REMSYN072AAXX  06154 01098 41489 72113 10026 20016 39883 49901 57021 70222 83770;
0207010980999992000120618004+70360+031090FM-12+001599999V0202101N005710240019N0750001N1+00261+00191098841ADDAA112000791AY121061AY221061GF107991031071004501071001KA1120M+00301MA1999999098661MD1710171+9999MW1021REMSYN094AAXX  06184 01098 11489 72111 10026 20019 39866 49884 57017 69902 70222 83770 333 10030 91117;
0161010980999992000120621004+70360+031090FM-12+001599999V0202101N004119999999N0750001N1+00271+00201098801ADDAY121031AY221031GF108991071001012501071999MA1999999098621MD1710041+9999MW1021REMSYN072AAXX  06214 01098 41689 82108 10027 20020 39862 49880 57004 70222 8707/;
0188010980999992000120700004+70360+031090FM-12+001599999V0202801N003610240019N0300001N1+00401+00331098831ADDAA106000791AY151061AY221061GF108991041071004501071001MA1999999098651MD1310031+9999MW1501REMSYN088AAXX  07004 01098 11480 82807 10040 20033 39865 49883 53003 69901 75052 84770 333 91114;
0180010980999992000120703004+70360+031090FM-12+001599999V0203501N004610042019N0550001N1+00201+00131099331ADDAY151031AY221031GF108991081071004501999999MA1999999099151MD1310502+9999MW1021REMSYN072AAXX  07034 01098 41485 83509 10020 20013 39915 49933 53050 70252 887//;EQDQ01+000502APC3  
0207010980999992000120706004+70360+031090FM-12+001599999V0203201N004110042019N0550001N1+00101-00241099911ADDAA112000591AY151061AY221061GF108991081051004501999999KA1120N+00101MA1999999099731MD1210581+9999MW1021REMSYN094AAXX  07064 01098 11485 83208 10010 21024 39973 49991 52058 69942 70252 885// 333 20010 91115;
0161010980999992000120709004+70360+031090FM-12+001599999V0203101N003610090019N0550001N1-00051-00571100391ADDAY181031AY221031GF108991081081004501999999MA1999999100201MD1210471+9999MW1021REMSYN072AAXX  07094 01098 41485 83107 11005 21057 30020 40039 52047 70282 888//;
0188010980999992000120712004+70360+031090FM-12+001599999V0203001N002610090019N0550001N1-00061-00741100671ADDAA106000791AY181061AY221061GF107991071081004501001001MA1999999100481MD1110281+9999MW1011REMSYN088AAXX  07124 01098 11485 73005 11006 21074 30048 40067 51028 69901 70182 87800 333 91113;
0161010980999992000120715004+70360+031090FM-12+001599999V0203301N002610060019N0100001N1-00121-00281100841ADDAY181031AY221031GF108991081081002501999999MA1999999100651MD1210171+9999MW1851REMSYN072AAXX  07154 01098 41360 83305 11012 21028 30065 40084 52017 78582 888//;
0207010980999992000120718004+70360+031090FM-12+001599999V0202401N002610090019N0550001N1-00181-00341100951ADDAA112000391AY181061AY221061GF108991081081004501999999KA1120M+00101MA1999999100761MD1210111+9999MW1021REMSYN094AAXX  07184 01098 11485 82405 11018 21034 30076 40095 52011 69932 70282 888// 333 10010 91110;
0161010980999992000120721004+70360+031090FM-12+001599999V0202401N003110240019N0550001N1-00261-00561101031ADDAY121031AY221031GF106991031081004501071001MA1999999100841MD1210081+9999MW1011REMSYN072AAXX  07214 01098 41485 62406 11026 21056 30084 40103 52008 70122 83870;
0188010980999992000120800004+70360+031090FM-12+001599999V0200101N001510240019N0260001N1-00141-00511101061ADDAA100001091AY181061AY221061GF107991041081004501071001MA1999999100871MD1210031+9999MW1851REMSYN088AAXX  08004 01098 11476 70103 11014 21051 30087 40106 52003 60010 78582 84870 333 91109;
0161010980999992000120803004+70360+031090FM-12+001599999V0203601N002110042019N0016001N1-00241-00311101061ADDAY181031AY221031GF108991071091004501999999MA1999999100871MD1410001+9999MW1861REMSYN072AAXX  08034 01098 41416 83604 11024 21031 30087 40106 54000 78682 879//;
0255010980999992000120806004+70360+031090FM-12+001599999V0203601N002610090019N0600001N1-00221-00731100971ADDAA112002091AJ199991999999999AY181061AY221061GF108991071081004501999999IA1249KA1120N-00321MA1999999100781MD1810091+9999MW1021REMSYN100AAXX  08064 01098 11486 83605 11022 21073 30078 40097 58009 60022 70282 878// 333 21032 48999 91107;EQDQ01  09962SNDP  
0161010980999992000120809004+70360+031090FM-12+001599999V0203601N001510090019N0550001N1-00211-00821100951ADDAY121031AY221031GF107991071081004501001001MA1999999100761MD1710021+9999MW1021REMSYN072AAXX  08094 01098 41485 73603 11021 21082 30076 40095 57002 70222 87800;
0182010980999992000120812004+70360+031090FM-12+001599999V0203301N001010090019N0750001N1-00221-00791100921ADDAA199000021AY121061AY221061GF107991061081004501041001MA1999999100731MD1710031+9999MW1021REMSYN082AAXX  08124 01098 31489 73302 11022 21079 30073 40092 57003 70222 86840 333 91107;
0163010980999992000120815004+70360+031090FM-12+001599999V0203601N002610003019N0004001N1-00331-00391100901ADDAY171031GA1091+999999999GF109991091999999999999999MA1999999100711MD1710021+9999MW1751REMSYN066AAXX  08154 01098 41/04 93605 11033 21039 30071 40090 57002 7757/;
0207010980999992000120818004+70360+031090FM-12+001599999V0203601N002619999999N0750001N1-00241-00681100911ADDAA112003091AY171061AY211061GF106991061001012501031001KA1120M-00201MA1999999100721MD1310011+9999MW1011REMSYN094AAXX  08184 01098 11689 63605 11024 21068 30072 40091 53001 60032 70171 86030 333 11020 91111;
0161010980999992000120821004+70360+031090FM-12+001599999V0202601N002112200019N0750001N1-00371-00451100921ADDAY111031AY201031GF104991041001012501031001MA1999999100731MD1210011+9999MW1011REMSYN072AAXX  08214 01098 41689 42604 11037 21045 30073 40092 52001 70110 84030;
0188010980999992000120900004+70360+031090FM-12+001599999V0202601N004112200019N0550001N1-00471-00741100871ADDAA106000391AY181061AY211061GF102991011031004501031001MA1999999100681MD1710061+9999MW1021REMSYN088AAXX  09004 01098 11485 22608 11047 21074 30068 40087 57006 69931 70281 81330 333 91109;
0161010980999992000120903004+70360+031090FM-12+001599999V0202601N003612200019N0550001N1-00541-00651100801ADDAY111031AY201031GF102991011031004501031001MA1999999100611MD1710071+9999MW1021REMSYN072AAXX  09034 01098 41485 22607 11054 21065 30061 40080 57007 70210 81330;
0255010980999992000120906004+70360+031090FM-12+001599999V0202701N003612200019N0550001N1-00591-00731100741ADDAA112000591AJ199991999999999AY171061AY201061GF103991011031004501031001IA1249KA1120N-00591MA1999999100551MD1710061+9999MW1021REMSYN100AAXX  09064 01098 11485 32707 11059 21073 30055 40074 57006 69942 70270 81330 333 21059 48999 91112;EQDQ01  09962SNDP  
0161010980999992000120909004+70360+031090FM-12+001599999V0202501N004612200019N0060001N1-00511-00621100771ADDAY111031AY211031GF103991031091002501001001MA1999999100581MD1310031+9999MW1161REMSYN072AAXX  09094 01098 41356 32509 11051 21062 30058 40077 53003 71611 83900;
0188010980999992000120912004+70360+031090FM-12+001599999V0202501N005112200019N0080001N1-00561-00671100731ADDAA106000591AY181061AY211061GF102991021091002501001001MA1999999100541MD1810041+9999MW1151REMSYN088AAXX  09124 01098 11358 22510 11056 21067 30054 40073 58004 69961 71581 82900 333 91113;
0161010980999992000120915004+70360+031090FM-12+001599999V0202501N006212200019N0550001N1-00541-00611100651ADDAY101031AY201031GF102991011031002501041001MA1999999100461MD1710081+9999MW1021REMSYN072AAXX  09154 01098 41385 22512 11054 21061 30046 40065 57008 70200 81340;
0207010980999992000120918004+70360+031090FM-12+001599999V0202701N006212200019N0750001N1-00491-00631100571ADDAA112000591AY101061AY201061GF102991011021004501041001KA1120M-00421MA1999999100381MD1710081+9999MW1021REMSYN094AAXX  09184 01098 11489 22712 11049 21063 30038 40057 57008 69962 70200 81240 333 11042 91114;
0161010980999992000120921004+70360+031090FM-12+001599999V0202601N005112200019N0750001N1-00491-00651100541ADDAY101031AY201031GF104991011021004501031001MA1999999100351MD1610031+9999MW1031REMSYN072AAXX  09214 01098 41489 42610 11049 21065 30035 40054 56003 70300 81230;
0201010980999992000121000004+70360+031090FM-12+001599999V0202401N003612200019N0750001N1-00471-00711100521ADDAA199000091AY111061AY201061GF101991011001012501051001MA1999999100331MD1710021+9999MW1011REMSYN082AAXX  10004 01098 31689 12407 11047 21071 30033 40052 57002 70110 81050 333 91115;EQDQ01  00002PRCP99
0161010980999992000121003004+70360+031090FM-12+001599999V0202501N003612200019N0750001N1-00501-00771100461ADDAY111031AY201031GF101991011001012501041001MA1999999100271MD1810061+9999MW1021REMSYN072AAXX  10034 01098 41689 12507 11050 21077 30027 40046 58006 70210 81040;
0265010980999992000121006004+70360+031090FM-12+001599999V0202201N003612200019N0750001N1-00571-00851100401ADDAA199000091AJ199991999999999AY111061AY201061GF103991031011004501001001IA1289KA1120N-00661MA1999999100211MD1710061+9999MW1031REMSYN094AAXX  10064 01098 31489 32207 11057 21085 30021 40040 57006 70310 83100 333 21066 44999 91111;EQDQ01  00002PRCP99Q02  09962SNDP  
0161010980999992000121009004+70360+031090FM-12+001599999V0202201N003612200019N0750001N1-00721-01011100381ADDAY101031AY201031GF102991021081004501041001MA1999999100191MD1610021+9999MW1021REMSYN072AAXX  10094 01098 41489 22207 11072 21101 30019 40038 56002 70200 82840;
0201010980999992000121012004+70360+031090FM-12+001599999V0202301N003612200019N0750001N1-00681-00971100351ADDAA199000091AY101061AY201061GF102991021031004501041001MA1999999100161MD1710031+9999MW1021REMSYN082AAXX  10124 01098 31489 22307 11068 21097 30016 40035 57003 70200 82340 333 91111;EQDQ01  00002PRCP99
0161010980999992000121015004+70360+031090FM-12+001599999V0202201N004112200019N0750001N1-00821-00981100331ADDAY101031AY201031GF102991021081004501001001MA1999999100141MD1710021+9999MW1021REMSYN072AAXX  10154 01098 41489 22208 11082 21098 30014 40033 57002 70200 82800;
0220010980999992000121018004+70360+031090FM-12+001599999V0202201N003612200019N0750001N1-00661-00851100301ADDAA199000091AY101061AY201061GF102991021021004501001001KA1120M-00531MA1999999100111MD1610031+9999MW1021REMSYN088AAXX  10184 01098 31489 22207 11066 21085 30011 40030 56003 70200 82200 333 11053 91111;EQDQ01  00002PRCP99
0161010980999992000121021004+70360+031090FM-12+001599999V0202201N003612200019N0750001N1-00721-00951100301ADDAY101031AY201031GF102991021011004501001001MA1999999100111MD1410001+9999MW1021REMSYN072AAXX  10214 01098 41489 22207 11072 21095 30011 40030 54000 70200 82100;
0201010980999992000121100004+70360+031090FM-12+001599999V0202301N002612200019N0750001N1-00721-00951100271ADDAA199000091AY101061AY201061GF102991021011004501001001MA1999999100081MD1810091+9999MW1021REMSYN082AAXX  11004 01098 31489 22305 11072 21095 30008 40027 58009 70200 82100 333 91111;EQDQ01  00002PRCP99
0161010980999992000121103004+70360+031090FM-12+001599999V0202001N003112200019N0750001N1-00761-00911100181ADDAY101031AY201031GF102991021081002501001001MA1999999099991MD1710091+9999MW1021REMSYN072AAXX  11034 01098 41389 22006 11076 21091 39999 40018 57009 70200 82800;
0255010980999992000121106004+70360+031090FM-12+001599999V0202301N002610060019N0260001N1-00611-00671099921ADDAA112000791AJ199991999999999AY181061AY221061GF108991081081002501999999IA1289KA1120N-00801MA1999999099831MD1810161+9999MW1851REMSYN100AAXX  11064 01098 11376 82305 11061 21067 39983 49992 58016 69902 78582 888// 333 21080 44999 91108;EQDQ01  09962SNDP  
0161010980999992000121109004+70360+031090FM-12+001599999V0202301N003612200019N0080001N1-00721-00781099931ADDAY181031AY221031GF102991011081002501041001MA1999999099741MD1710091+9999MW1101REMSYN072AAXX  11094 01098 41358 22307 11072 21078 39974 49993 57009 71082 81840;
0188010980999992000121112004+70360+031090FM-12+001599999V0202301N002612200019N0550001N1-00761-00821099881ADDAA106000791AY181061AY221061GF102991011081004501041001MA1999999099691MD1710051+9999MW1021REMSYN088AAXX  11124 01098 11485 22305 11076 21082 39969 49988 57005 69901 70282 81840 333 91109;
0161010980999992000121115004+70360+031090FM-12+001599999V0202001N002612200019N0650001N1-00821-00881099821ADDAY101031AY201031GF102991021081004501001001MA1999999099631MD1710061+9999MW1021REMSYN072AAXX  11154 01098 41487 22005 11082 21088 39963 49982 57006 70200 82800;
0207010980999992000121118004+70360+031090FM-12+001599999V0202201N004612200019N0750001N1-00841-00931099821ADDAA112000791AY101061AY201061GF102991021081004501001001KA1120M-00601MA1999999099631MD1410001+9999MW1021REMSYN094AAXX  11184 01098 11489 22209 11084 21093 39963 49982 54000 69902 70200 82800 333 11060 91114;
0161010980999992000121121004+70360+031090FM-12+001599999V0202101N003612200019N0750001N1-00721-00871099901ADDAY101031AY201031GF104991001001999999001061MA1999999099711MD1310081+9999MW1031REMSYN072AAXX  11214 01098 41989 42107 11072 21087 39971 49990 53008 70300 80006;
0217010980999992000121200004+70360+031090FM-12+001599999V0202201N004612200019N0750001N1-00781-00901100011ADDAA199000091AY101061AY201061GF102991999001022501071001MA1999999099821MD1210111+9999MW1021REMSYN082AAXX  12004 01098 31889 22209 11078 21090 39982 40001 52011 70200 81070 333 91113;EQDQ01+000012SCOTLCQ02  00002PRCP99
0161010980999992000121203004+70360+031090FM-12+001599999V0202101N002612200019N0750001N1-00741-00801100081ADDAY101031AY201031GF102991021001022501071001MA1999999099891MD1210071+9999MW1401REMSYN072AAXX  12034 01098 41889 22105 11074 21080 39989 40008 52007 74000 82070;
0265010980999992000121206004+70360+031090FM-12+001599999V0201801N002610090019N0550001N1-00531-00591100131ADDAA199000091AJ199991999999999AY121061AY211061GF106991061081004501001001IA1239KA1120N-00921MA1999999099941MD1210051+9999MW1031REMSYN094AAXX  12064 01098 31485 61805 11053 21059 39994 40013 52005 70321 86800 333 21092 47999 91110;EQDQ01  00002PRCP99Q02  09962SNDP  
0161010980999992000121209004+70360+031090FM-12+001599999V0202201N002110090019N0550001N1-00521-00581100221ADDAY121031AY221031GF108991071081004501001081MA1999999100031MD1210091+9999MW1021REMSYN072AAXX  12094 01098 41485 82204 11052 21058 30003 40022 52009 70222 87808;
0201010980999992000121212004+70360+031090FM-12+001599999V0201101N002110090019N0550001N1-00261-00491100221ADDAA199000091AY121061AY221061GF108991081081004501999999MA1999999100031MD1410001+9999MW1021REMSYN082AAXX  12124 01098 31485 81104 11026 21049 30003 40022 54000 70222 888// 333 91108;EQDQ01  00002PRCP99
0161010980999992000121215004+70360+031090FM-12+001599999V0200801N001510021019N0020001N1+00031-00031100161ADDAY171031AY221031GF108991071071002501021999MA1999999099981MD1810061+9999MW1731REMSYN072AAXX  12154 01098 41320 80803 10003 21003 39998 40016 58006 77372 8772/;
0207010980999992000121218004+70360+031090FM-12+001599999V0202901N001510012019N0030001N1-00021-00081100091ADDAA112002091AY171061AY221061GF108991081071001501999999KA1120M+00111MA1999999099901MD1710071+9999MW1731REMSYN094AAXX  12184 01098 11230 82903 11002 21008 39990 40009 57007 60022 77372 887// 333 10011 91107;
0161010980999992000121221004+70360+031090FM-12+001599999V0202801N001510021019N0040001N1-00041-00101100101ADDAY171031AY221031GF108991081071002501999999MA1999999099911MD1310011+9999MW1701REMSYN072AAXX  12214 01098 41340 82803 11004 21010 39991 40010 53001 77072 887//;
0188010980999992000121300004+70360+031090FM-12+001599999V0202801N001510090019N0300001N1-00081-00151100181ADDAA106001091AY181061AY221061GF107991071081004501001001MA1999999099991MD1210081+9999MW1021REMSYN088AAXX  13004 01098 11480 72803 11008 21015 39999 40018 52008 69991 70282 87800 333 99110;
0161010980999992000121303004+70360+031090FM-12+001599999V0202801N002110240019N0600001N1-00141-00271100231ADDAY121031AY221031GF107991041081004501071001MA1999999100041MD1210051+9999MW1021REMSYN072AAXX  13034 01098 41486 72804 11014 21027 30004 40023 52005 70222 84870;
0255010980999992000121306004+70360+031090FM-12+001599999V0202601N002612200019N0750001N1-00181-00381100231ADDAA112001091AJ199991999999999AY121061AY211061GF104991011081004501071001IA1249KA1120N-00281MA1999999100041MD1410001+9999MW1021REMSYN100AAXX  13064 01098 11489 42605 11018 21038 30004 40023 54000 69992 70221 81870 333 21028 48999 91106;EQDQ01  09962SNDP  
0161010980999992000121309004+70360+031090FM-12+001599999V0202701N002110600019N0550001N1-00181-00371100311ADDAY121031AY211031GF105991011081004501071081MA1999999100121MD1310081+9999MW1021REMSYN072AAXX  13094 01098 41485 52704 11018 21037 30012 40031 53008 70221 81878;
0201010980999992000121312004+70360+031090FM-12+001599999V0202301N002612200019N0550001N1-00301-00531100301ADDAA199000091AY121061AY211061GF104991011081004501071081MA1999999100111MD1810011+9999MW1021REMSYN082AAXX  13124 01098 31485 42305 11030 21053 30011 40030 58001 70221 81878 333 91107;EQDQ01  00002PRCP99
0171010980999992000121315004+70360+031090FM-12+001599999V0202501N003112200019N0750001N1-00241-00501100271ADDAY111031AY201031GF102991011081004501031001MA1999999100081MD1710031+9999MW1011REMSYN082AAXX  13154 01098 41489 22506 11024 21050 30008 40027 57003 70110 81830 333 03116;
0220010980999992000121318004+70360+031090FM-12+001599999V0202501N003612200019N0750001N1-00241-00431100221ADDAA199000091AY111061AY201061GF102991011081004501031001KA1120M-00131MA1999999100031MD1710051+9999MW1021REMSYN088AAXX  13184 01098 31489 22507 11024 21043 30003 40022 57005 70210 81830 333 11013 91108;EQDQ01  00002PRCP99
0161010980999992000121321004+70360+031090FM-12+001599999V0202501N003610600019N0750001N1-00101-00421100231ADDAY121031AY211031GF105991011081004501031041MA1999999100041MD1310011+9999MW1031REMSYN072AAXX  13214 01098 41489 52507 11010 21042 30004 40023 53001 70321 81834;
0201010980999992000121400004+70360+031090FM-12+001599999V0202301N003612200019N0750001N1-00351-00531100201ADDAA199000091AY111061AY211061GF102991021071004501001001MA1999999100011MD1710031+9999MW1021REMSYN082AAXX  14004 01098 31489 22307 11035 21053 30001 40020 57003 70211 82700 333 91109;EQDQ01  00002PRCP99
0161010980999992000121403004+70360+031090FM-12+001599999V0202201N003612200019N0750001N1-00301-00611100161ADDAY101031AY201031GF102991021071004501001001MA1999999099971MD1710041+9999MW1021REMSYN072AAXX  14034 01098 41489 22207 11030 21061 39997 40016 57004 70200 82700;
0265010980999992000121406004+70360+031090FM-12+001599999V0202101N002612200019N0750001N1-00391-00491100131ADDAA199000091AJ199991999999999AY101061AY201061GF101991011041004501001001IA1249KA1120N-00421MA1999999099941MD1710031+9999MW1021REMSYN094AAXX  14064 01098 31489 12105 11039 21049 39994 40013 57003 70200 81400 333 21042 48999 91109;EQDQ01  00002PRCP99Q02  09962SNDP  
0161010980999992000121409004+70360+031090FM-12+001599999V0202101N002612200019N0550001N1-00421-00471100131ADDAY111031AY201031GF104991011081004501071081MA1999999099941MD1410001+9999MW1021REMSYN072AAXX  14094 01098 41485 42105 11042 21047 39994 40013 54000 70210 81878;
0201010980999992000121412004+70360+031090FM-12+001599999V0201301N001512200019N0750001N1-00181-00371100061ADDAA199000091AY111061AY201061GF104991021021004501071081MA1999999099871MD1810071+9999MW1021REMSYN082AAXX  14124 01098 31489 41303 11018 21037 39987 40006 58007 70210 82278 333 91107;EQDQ01  00002PRCP99
0161010980999992000121415004+70360+031090FM-12+001599999V0201401N002112200019N0750001N1-00161-00221100001ADDAY111031AY201031GF104991041021004501001001MA1999999099811MD1710061+9999MW1021REMSYN072AAXX  14154 01098 41489 41404 11016 21022 39981 40000 57006 70210 84200;
0220010980999992000121418004+70360+031090FM-12+001599999V0201301N001510042019N0750001N1-00021-00091099881ADDAA199000091AY121061AY211061GF107991071011004501001001KA1120M-00011MA1999999099691MD1810121+9999MW1031REMSYN088AAXX  14184 01098 31489 71303 11002 21009 39969 49988 58012 70321 87100 333 11001 91108;EQDQ01  00002PRCP99
0161010980999992000121421004+70360+031090FM-12+001599999V0201201N002610240019N0750001N1+00141+00041099781ADDAY121031AY221031GF107991031011004501031001MA1999999099601MD1710101+9999MW1021REMSYN072AAXX  14214 01098 41489 71205 10014 20004 39960 49978 57010 70222 83130;
0201010980999992000121500004+70360+031090FM-12+001599999V0201601N003110042019N0550001N1-00021-00121099721ADDAA199000091AY121061AY221061GF108991081051004501999999MA1999999099531MD1710051+9999MW1031REMSYN082AAXX  15004 01098 31485 81606 11002 21012 39953 49972 57005 70322 885// 333 91110;EQDQ01  00002PRCP99
0161010980999992000121503004+70360+031090FM-12+001599999V0201701N003110042019N0550001N1+00021-00091099681ADDAY121031AY221031GF108991081051004501999999MA1999999099501MD1710041+9999MW1021REMSYN072AAXX  15034 01098 41485 81706 10002 21009 39950 49968 57004 70222 885//;
0265010980999992000121506004+70360+031090FM-12+001599999V0201601N003110042019N0550001N1+00081-00031099601ADDAA199000091AJ199991999999999AY121061AY221061GF108991081051004501999999IA1249KA1120N-00401MA1999999099421MD1710081+9999MW1021REMSYN094AAXX  15064 01098 31485 81606 10008 21003 39942 49960 57008 70222 885// 333 21040 48999 91109;EQDQ01  00002PRCP99Q02  09962SNDP  
0161010980999992000121509004+70360+031090FM-12+001599999V0201801N003610090019N0250001N1+00121-00011099651ADDAY181031AY221031GF108991081081004501999999MA1999999099471MD1310051+9999MW1831REMSYN072AAXX  15094 01098 41475 81807 10012 21001 39947 49965 53005 78382 888//;
0188010980999992000121512004+70360+031090FM-12+001599999V0201901N003610090019N0300001N1+00131+00011099681ADDAA106000791AY181061AY221061GF108991081081004501999999MA1999999099501MD1310031+9999MW1021REMSYN088AAXX  15124 01098 11480 81907 10013 20001 39950 49968 53003 69901 70282 888// 333 91111;
0161010980999992000121515004+70360+031090FM-12+001599999V0202101N003610090019N0300001N1+00121-00041099671ADDAY121031AY221031GF108991081081004501999999MA1999999099491MD1210011+9999MW1021REMSYN072AAXX  15154 01098 41480 82107 10012 21004 39949 49967 52001 70222 888//;
0207010980999992000121518004+70360+031090FM-12+001599999V0201801N004110090019N0600001N1+00151+00081099821ADDAA106000791AY181061AY221061GF105991051081004501001001KA1120M+00151MA1999999099641MD1210151+9999MW1011REMSYN094AAXX  15184 01098 11486 51808 10015 20008 39964 49982 52015 69901 70182 85800 333 10015 91112;
0161010980999992000121521004+70360+031090FM-12+001599999V0202101N002612200019N0600001N1+00061-00011099921ADDAY121031AY201031GF103991031081004501001001MA1999999099741MD1110201+9999MW1011REMSYN072AAXX  15214 01098 41486 32105 10006 21001 39974 49992 51020 70120 83800;
0201010980999992000121600004+70360+031090FM-12+001599999V0201901N004112200019N0750001N1+00071+00011099931ADDAA199000091AY111061AY201061GF103991031001012501041001MA1999999099751MD1110011+9999MW1011REMSYN082AAXX  16004 01098 31689 31908 10007 20001 39975 49993 51001 70110 83040 333 91110;EQDQ01  00002PRCP99
0161010980999992000121603004+70360+031090FM-12+001599999V0201901N004112200019N0750001N1+00031-00071099911ADDAY111031AY201031GF103991031011008001001001MA1999999099731MD1810021+9999MW1031REMSYN072AAXX  16034 01098 41589 31908 10003 21007 39973 49991 58002 70310 83100;
0265010980999992000121606004+70360+031090FM-12+001599999V0202101N003610042019N0750001N1+00061-00011099921ADDAA199000091AJ199991999999999AY121061AY211061GF106991061011004501001001IA1289KA1120N-00051MA1999999099741MD1310011+9999MW1031REMSYN094AAXX  16064 01098 31489 62107 10006 21001 39974 49992 53001 70321 86100 333 21005 44999 91113;EQDQ01  00002PRCP99Q02  09962SNDP  
0161010980999992000121609004+70360+031090FM-12+001599999V0202001N004610090019N0400001N1+00101+00031099991ADDAY121031AY221031GF108991081081004501999999MA1999999099811MD1310071+9999MW1031REMSYN072AAXX  16094 01098 41482 82009 10010 20003 39981 49999 53007 70322 888//;
0201010980999992000121612004+70360+031090FM-12+001599999V0202101N005712200019N0600001N1+00171+00101099931ADDAA199000091AY121061AY201061GF104991031081002501041001MA1999999099751MD1810061+9999MW1011REMSYN082AAXX  16124 01098 31386 42111 10017 20010 39975 49993 58006 70120 83840 333 91114;EQDQ01  00002PRCP99
0161010980999992000121615004+70360+031090FM-12+001599999V0202001N005112200019N0600001N1+00141+00041099911ADDAY111031AY201031GF104991031081004501041001MA1999999099731MD1610021+9999MW1021REMSYN072AAXX  16154 01098 41486 42010 10014 20004 39973 49991 56002 70210 83840;
0219010980999992000121618004+70360+031090FM-12+001599999V0201901N006210240019N0600001N1+00201+00101099851ADDAA199000091AY121061AY211061GF106991021081004501021001KA1120M+00201MA1999999099671MD1710061+9999MW1031REMSYN087AAXX  16184 01098 31486 61912 10020 20010 39967 49985 57006 70321 82820 333 10020 9111;EQDQ01  00002PRCP99
0161010980999992000121621004+70360+031090FM-12+001599999V0202001N005710240019N0600001N1+00241+00141099861ADDAY121031AY221031GF106991021081004501021001MA1999999099681MD1310011+9999MW1021REMSYN072AAXX  16214 01098 41486 62011 10024 20014 39968 49986 53001 70222 82820;
0201010980999992000121700004+70360+031090FM-12+001599999V0202101N006710240019N0600001N1+00231+00131099811ADDAA199000091AY121061AY221061GF106991041081004501021001MA1999999099631MD1810051+9999MW1021REMSYN082AAXX  17004 01098 31486 62113 10023 20013 39963 49981 58005 70222 84820 333 91117;EQDQ01  00002PRCP99
0161010980999992000121703004+70360+031090FM-12+001599999V0202101N004612200019N0600001N1+00131+00011099861ADDAY121031AY201031GF102991011081004501041001MA1999999099681MD1110051+9999MW1011REMSYN072AAXX  17034 01098 41486 22109 10013 20001 39968 49986 51005 70120 81840;
0265010980999992000121706004+70360+031090FM-12+001599999V0202101N004610090019N0600001N1+00081-00081099951ADDAA199000091AJ199991999999999AY121061AY201061GF108991081081004501999999IA1289KA1120N+00051MA1999999099771MD1210091+9999MW1031REMSYN094AAXX  17064 01098 31486 82109 10008 21008 39977 49995 52009 70320 888// 333 20005 44999 91114;EQDQ01  00002PRCP99Q02  09962SNDP  
0161010980999992000121709004+70360+031090FM-12+001599999V0202501N005110240019N0600001N1+00181-00081100091ADDAY121031AY221031GF106991041081004501041001MA1999999099911MD1210141+9999MW1011REMSYN072AAXX  17094 01098 41486 62510 10018 21008 39991 40009 52014 70122 84840;
0191010980999992000121712004+70360+031090FM-12+001599999V0202201N003112200019N0600001N1-00101-00241100361ADDAA199000091AY121061AY211061GF104991041031004501001001MA1999999100181MD1210271+9999MW1011REMSYN072AAXX  17124 01098 31486 42206 11010 21024 30018 40036 52027 70121 84300;EQDQ01  00002PRCP99
0161010980999992000121715004+70360+031090FM-12+001599999V0202101N003612200019N0600001N1-00051-00191100521ADDAY111031AY201031GF103991031031004501001001MA1999999100331MD1110151+9999MW1021REMSYN072AAXX  17154 01098 41486 32107 11005 21019 30033 40052 51015 70210 83300;
0220010980999992000121718004+70360+031090FM-12+001599999V0202401N004612200019N0750001N1-00011-00181100621ADDAA199000091AY111061AY201061GF101991011031004501001001KA1120M+00211MA1999999100431MD1210101+9999MW1011REMSYN088AAXX  17184 01098 31489 12409 11001 21018 30043 40062 52010 70110 81300 333 10021 91112;EQDQ01  00002PRCP99
0161010980999992000121721004+70360+031090FM-12+001599999V0202401N005112200019N0750001N1-00071-00211100761ADDAY101031AY201031GF101991011031004501001001MA1999999100571MD1210141+9999MW1011REMSYN072AAXX  17214 01098 41489 12410 11007 21021 30057 40076 52014 70100 81300;
0201010980999992000121800004+70360+031090FM-12+001599999V0202401N004610240019N0600001N1-00041-00161100871ADDAA199000091AY121061AY201061GF108991041031004501021999MA1999999100691MD1210121+9999MW1031REMSYN082AAXX  18004 01098 31486 82409 11004 21016 30069 40087 52012 70320 8432/ 333 91113;EQDQ01  00002PRCP99
0161010980999992000121803004+70360+031090FM-12+001599999V0202401N004110240019N0600001N1-00061-00181100971ADDAY121031AY221031GF108991041031004501021999MA1999999100791MD1210101+9999MW1021REMSYN072AAXX  18034 01098 41486 82408 11006 21018 30079 40097 52010 70222 8432/;
0265010980999992000121806004+70360+031090FM-12+001599999V0202501N004110042019N0600001N1+00061-00231101031ADDAA199000091AJ199991999999999AY121061AY221061GF107991071051004501001001IA1289KA1120N-00061MA1999999100851MD1210061+9999MW1011REMSYN094AAXX  18064 01098 31486 72508 10006 21023 30085 40103 52006 70122 87500 333 21006 44999 91111;EQDQ01  00002PRCP99Q02  09962SNDP  
0161010980999992000121809004+70360+031090FM-12+001599999V0202501N004110090019N0080001N1-00061-00161101101ADDAY181031AY221031GF107991061081004501001081MA1999999100911MD1210061+9999MW1851REMSYN072AAXX  18094 01098 41458 72508 11006 21016 30091 40110 52006 78582 86808;
0188010980999992000121812004+70360+031090FM-12+001599999V0202501N005710090019N0750001N1+00121-00171101071ADDAA106000791AY181061AY221061GF106991061081004501001001MA1999999100891MD1810031+9999MW1021REMSYN088AAXX  18124 01098 11489 62511 10012 21017 30089 40107 58003 69901 70282 86800 333 91115;
0161010980999992000121815004+70360+031090FM-12+001599999V0203001N005110090019N0750001N1+00141-00401101161ADDAY121031AY221031GF107991071081004501001001MA1999999100981MD1210091+9999MW1031REMSYN072AAXX  18154 01098 41489 73010 10014 21040 30098 40116 52009 70322 87800;
0201010980999992000121818004+70360+031090FM-12+001599999V0203001N004610090019N0750001N1+00181-00531101271ADDAA199000021AY121061AY221061GF107991071081004501001001KA1120M+00211MA1999999101091MD1210111+9999MW1021REMSYN088AAXX  18184 01098 31489 73009 10018 21053 30109 40127 52011 70222 87800 333 10021 91114;
0161010980999992000121821004+70360+031090FM-12+001599999V0202601N003110090019N0550001N1-00081-00151101301ADDAY181031AY221031GF106991061081004501001001MA1999999101111MD1210031+9999MW1261REMSYN072AAXX  18214 01098 41485 62606 11008 21015 30111 40130 52003 72682 86800;
0188010980999992000121900004+70360+031090FM-12+001599999V0202601N002610090019N0550001N1-00071-00171101211ADDAA106000891AY181061AY221061GF108991081081004501999999MA1999999101021MD1810091+9999MW1021REMSYN088AAXX  19004 01098 11485 82605 11007 21017 30102 40121 58009 69971 70282 888// 333 91111;
0161010980999992000121903004+70360+031090FM-12+001599999V0202901N002112200019N0550001N1-00041-00111101221ADDAY111031AY201031GF103991031081004501001001MA1999999101031MD1210011+9999MW1011REMSYN072AAXX  19034 01098 41485 32904 11004 21011 30103 40122 52001 70110 83800;
0217010980999992000121906004+70360+031090FM-12+001599999V0202801N003110003019N0003001N1-00071-00131101351ADDAA112006191AY181061AY231061GA1091+999999999GF109991091999999999999999KA1120N-00221MA1999999101161MD1210131+9999MW1841REMSYN088AAXX  19064 01098 11/03 92806 11007 21013 30116 40135 52013 60062 78483 333 21022 91111;
0161010980999992000121909004+70360+031090FM-12+001599999V0203001N005710060019N0009001N1-00091-00161101481ADDAY181031AY231031GF107991071081002501001001MA1999999101291MD1210131+9999MW1851REMSYN072AAXX  19094 01098 41309 73011 11009 21016 30129 40148 52013 78583 87800;
0188010980999992000121912004+70360+031090FM-12+001599999V0203101N004110060019N0550001N1+00031-00131101501ADDAA106004191AY181061AY231061GF106991061081002501001001MA1999999101321MD1110021+9999MW1261REMSYN088AAXX  19124 01098 11385 63108 10003 21013 30132 40150 51002 60041 72683 86800 333 91115;
0161010980999992000121915004+70360+031090FM-12+001599999V0203101N004110060019N0020001N1-00061-00121101231ADDAY181031AY231031GF108991081081002501999999MA1999999101421MD1210101+9999MW1851REMSYN072AAXX  19154 01098 41320 83108 11006 21012 30142 40123 52010 78583 888//;
0207010980999992000121918004+70360+031090FM-12+001599999V0203201N004610060019N0300001N1+00081-00461101691ADDAA112007191AY181061AY231061GF107991071081002501001001KA1120M+00121MA1999999101511MD1310091+9999MW1361REMSYN094AAXX  19184 01098 11380 73209 10008 21046 30151 40169 53009 60072 73683 87800 333 10012 91115;
0161010980999992000121921004+70360+031090FM-12+001599999V0203301N004610060019N0050001N1+00001-00161101831ADDAY181031AY231031GF108991081081002501999999MA1999999101651MD1210141+9999MW1871REMSYN072AAXX  19214 01098 41350 83309 10000 21016 30165 40183 52014 78783 888//;
0188010980999992000122000004+70360+031090FM-12+001599999V0203201N005710060019N0050001N1-00141-00251101971ADDAA106000191AY181061AY231061GF108991081081002501999999MA1999999101781MD1210141+9999MW1851REMSYN088AAXX  20004 01098 11350 83211 11014 21025 30178 40197 52014 69921 78583 888// 333 91117;
0161010980999992000122003004+70360+031090FM-12+001599999V0203301N004110060019N0070001N1-00021-00271102141ADDAY181031AY231031GF108991081081002501999999MA1999999101951MD1210171+9999MW1871REMSYN072AAXX  20034 01098 41357 83308 11002 21027 30195 40214 52017 78783 888//;
0255010980999992000122006004+70360+031090FM-12+001599999V0203301N003610090019N0200001N1+00001-00541102231ADDAA112000391AJ199991999999999AY181061AY231061GF108991081081004501999999IA1289KA1120N-00221MA1999999102041MD1210091+9999MW1021REMSYN100AAXX  20064 01098 11470 83307 11000 21054 30204 40223 52009 69932 70283 888// 333 21022 44999 91114;EQDQ01  09962SNDP  
0161010980999992000122009004+70360+031090FM-12+001599999V0203301N003110060019N0200001N1+00021-00411102381ADDAY181031AY231031GF108991081081002501999999MA1999999102201MD1210161+9999MW1831REMSYN072AAXX  20094 01098 41370 83306 10002 21041 30220 40238 52016 78383 888//;
0188010980999992000122012004+70360+031090FM-12+001599999V0203201N002110060019N0550001N1+00011-00571102431ADDAA106000191AY181061AY231061GF107991071081002501001001MA1999999102251MD1210051+9999MW1021REMSYN088AAXX  20124 01098 11385 73204 10001 21057 30225 40243 52005 69911 70283 87800 333 91112;
0161010980999992000122015004+70360+031090FM-12+001599999V0202601N003110090019N0550001N1-00081-00351102481ADDAY121031AY221031GF107991071081004501001001MA1999999102291MD1210051+9999MW1021REMSYN072AAXX  20154 01098 41485 72606 11008 21035 30229 40248 52005 70222 87800;
0226010980999992000122018004+70360+031090FM-12+001599999V0202401N002110090019N0550001N1-00101-00231102471ADDAA112999999AY121061AY221061GF108991081081004501999999KA1120M+00061MA1999999102281MD1810011+9999MW1021REMSYN094AAXX  20184 01098 11485 82404 11010 21023 30228 40247 58001 69112 70222 888// 333 10006 91108;EQDQ01  91112PRCP12
0161010980999992000122021004+70360+031090FM-12+001599999V0201901N001010060019N0040001N1-00111-00181102441ADDAY171031AY221031GF108991081081002501999999MA1999999102251MD1710031+9999MW1731REMSYN072AAXX  20214 01098 41340 81902 11011 21018 30225 40244 57003 77372 888//;
0188010980999992000122100004+70360+031090FM-12+001599999V0202001N001010060019N0030001N1+00011-00031102321ADDAA106002091AY181061AY271061GF108991081081002501999999MA1999999102141MD1710111+9999MW1851REMSYN088AAXX  21004 01098 11330 82002 10001 21003 30214 40232 57011 60021 78587 888// 333 91107;
0161010980999992000122103004+70360+031090FM-12+001599999V0203301N000510060019N0150001N1+00211+00151102251ADDAY181031AY221031GF108991081081002501999999MA1999999102071MD1710071+9999MW1831REMSYN072AAXX  21034 01098 41365 83301 10021 20015 30207 40225 57007 78382 888//;
0255010980999992000122106004+70360+031090FM-12+001599999V0203001N001010042019N0250001N1+00271+00211102241ADDAA112003091AJ199991999999999AY181061AY261061GF108991071071004501021999IA1289KA1120N-00101MA1999999102061MD1610011+9999MW1601REMSYN100AAXX  21064 01098 11475 83002 10027 20021 30206 40224 56001 60032 76086 8772/ 333 21010 44999 91107;EQDQ01  09962SNDP  
0161010980999992000122109004+70360+031090FM-12+001599999V0202401N000510021019N0300001N1+00291+00231102231ADDAY161031AY221031GF107991061071002501021001MA1999999102051MD1710011+9999MW1021REMSYN072AAXX  21094 01098 41380 72401 10029 20023 30205 40223 57001 70262 86720;
0188010980999992000122112004+70360+031090FM-12+001599999V0202001N002610021019N0550001N1+00191+00121102061ADDAA106000191AY161061AY221061GF107991061071002501071001MA1999999101881MD1810171+9999MW1021REMSYN088AAXX  21124 01098 11385 72005 10019 20012 30188 40206 58017 69911 70262 86770 333 91108;
0161010980999992000122115004+70360+031090FM-12+001599999V0201801N003612200019N0550001N1+00031-00041101881ADDAY121031AY201031GF103991021071002501071001MA1999999101701MD1710181+9999MW1011REMSYN072AAXX  21154 01098 41385 31807 10003 21004 30170 40188 57018 70120 82770;
0207010980999992000122118004+70360+031090FM-12+001599999V0201801N004112200019N0600001N1-00021-00291101591ADDAA112000191AY121061AY201061GF101991011071002501001001KA1120M+00321MA1999999101401MD1710301+9999MW1011REMSYN094AAXX  21184 01098 11386 11808 11002 21029 30140 40159 57030 69912 70120 81700 333 10032 91111;
0161010980999992000122121004+70360+031090FM-12+001599999V0201501N006212200019N0750001N1+00011-00131101281ADDAY101031AY201031GF101991011051002501001001MA1999999101101MD1710301+9999MW1021REMSYN072AAXX  21214 01098 41389 11512 10001 21013 30110 40128 57030 70200 81500;
0201010980999992000122200004+70360+031090FM-12+001599999V0201801N006712200019N0750001N1-00451-00571101041ADDAA199000091AY101061AY201061GF102991021051004501001001MA1999999100851MD1710241+9999MW1021REMSYN082AAXX  22004 01098 31489 21813 11045 21057 30085 40104 57024 70200 82500 333 91117;EQDQ01  00002PRCP99
0161010980999992000122203004+70360+031090FM-12+001599999V0201801N005710042019N0750001N1-00461-00561100761ADDAY111031AY201031GF105991051051004501001001MA1999999100571MD1710281+9999MW1021REMSYN072AAXX  22034 01098 41489 51811 11046 21056 30057 40076 57028 70210 85500;
0255010980999992000122206004+70360+031090FM-12+001599999V0201801N004610012019N0012001N1-00331-00381100571ADDAA112001091AJ199991999999999AY171061AY221061GF108991081071001501999999IA1289KA1120N-00581MA1999999100381MD1710191+9999MW1731REMSYN100AAXX  22064 01098 11212 81809 11033 21038 30038 40057 57019 69992 77372 887// 333 21058 44999 91116;EQDQ01  09962SNDP  
0161010980999992000122209004+70360+031090FM-12+001599999V0201701N004110021019N0045001N1-00241-00291100481ADDAY171031AY231031GF108991071071002501021999MA1999999100291MD1710091+9999MW1271REMSYN072AAXX  22094 01098 41345 81708 11024 21029 30029 40048 57009 72773 8772/;
0188010980999992000122212004+70360+031090FM-12+001599999V0201601N004110021019N0080001N1-00221-00291100351ADDAA106001091AY171061AY231061GF108991071071002501021999MA1999999100161MD1710131+9999MW1701REMSYN088AAXX  22124 01098 11358 81608 11022 21029 30016 40035 57013 60011 77073 8772/ 333 91112;
0161010980999992000122215004+70360+031090FM-12+001599999V0201601N004110021019N0050001N1-00191-00261100271ADDAY171031AY231031GF108991071071002501021999MA1999999100081MD1710081+9999MW1701REMSYN072AAXX  22154 01098 41350 81608 11019 21026 30008 40027 57008 77073 8772/;
0207010980999992000122218004+70360+031090FM-12+001599999V0201501N004610021019N0040001N1-00191-00261100261ADDAA112002091AY171061AY231061GF108991081071002501999999KA1120M-00171MA1999999100071MD1710011+9999MW1701REMSYN094AAXX  22184 01098 11340 81509 11019 21026 30007 40026 57001 60022 77073 887// 333 11017 91111;
0161010980999992000122221004+70360+031090FM-12+001599999V0201401N004610021019N0040001N1-00211-00281100281ADDAY171031AY231031GF108991081071002501999999MA1999999100091MD1210021+9999MW1701REMSYN072AAXX  22214 01098 41340 81409 11021 21028 30009 40028 52002 77073 887//;
0188010980999992000122300004+70360+031090FM-12+001599999V0201301N003610021019N0100001N1-00271-00341100321ADDAA106000891AY171061AY231061GF108991081051002501999999MA1999999100131MD1210041+9999MW1361REMSYN088AAXX  23004 01098 11360 81307 11027 21034 30013 40032 52004 69971 73673 885// 333 91112;
0161010980999992000122303004+70360+031090FM-12+001599999V0201401N004110021019N0100001N1-00341-00541100361ADDAY131031AY221031GF106991061051002501001001MA1999999100171MD1210041+9999MW1361REMSYN072AAXX  23034 01098 41360 61408 11034 21054 30017 40036 52004 73632 86500;
0255010980999992000122306004+70360+031090FM-12+001599999V0201201N003610021019N0300001N1-00321-00571100411ADDAA112000891AJ199991999999999AY131061AY221061GF105991051051002501001001IA1249KA1120N-00351MA1999999100221MD1210051+9999MW1361REMSYN100AAXX  23064 01098 11380 51207 11032 21057 30022 40041 52005 69972 73632 85500 333 21035 48999 91112;EQDQ01  09962SNDP  
0161010980999992000122309004+70360+031090FM-12+001599999V0201201N003112200019N0550001N1-00381-00561100461ADDAY131031AY211031GF103991031051004501001001MA1999999100271MD1210051+9999MW1021REMSYN072AAXX  23094 01098 41485 31206 11038 21056 30027 40046 52005 70231 83500;
0201010980999992000122312004+70360+031090FM-12+001599999V0201301N003112200019N0550001N1-00461-00851100501ADDAA199000091AY131061AY211061GF104991041081004501001001MA1999999100311MD1210041+9999MW1021REMSYN082AAXX  23124 01098 31485 41306 11046 21085 30031 40050 52004 70231 84800 333 91111;EQDQ01  00002PRCP99
0161010980999992000122315004+70360+031090FM-12+001599999V0201301N003112200019N0600001N1-00471-01041100521ADDAY101031AY201031GF102991021081004501001001MA1999999100331MD1110021+9999MW1011REMSYN072AAXX  23154 01098 41486 21306 11047 21104 30033 40052 51002 70100 82800;
0220010980999992000122318004+70360+031090FM-12+001599999V0201201N002612200019N0750001N1-00541-01061100531ADDAA199000091AY101061AY201061GF102991021081004501001001KA1120M-00321MA1999999100341MD1210011+9999MW1021REMSYN088AAXX  23184 01098 31489 21205 11054 21106 30034 40053 52001 70200 82800 333 11032 91111;EQDQ01  00002PRCP99
0161010980999992000122321004+70360+031090FM-12+001599999V0201201N002112200019N0200001N1-00511-00751100541ADDAY181031AY211031GF104991041081004501001001MA1999999100351MD1210011+9999MW1851REMSYN072AAXX  23214 01098 41470 41204 11051 21075 30035 40054 52001 78581 84800;
0188010980999992000122400004+70360+031090FM-12+001599999V0202301N002110090019N0300001N1-00721-00791100561ADDAA106000191AY181061AY211061GF106991061081004501001001MA1999999100371MD1210021+9999MW1021REMSYN088AAXX  24004 01098 11480 62304 11072 21079 30037 40056 52002 69911 70281 86800 333 91108;
0161010980999992000122403004+70360+031090FM-12+001599999V0202201N002612200019N0300001N1-00791-00861100581ADDAY121031AY211031GF104991041081004501001001MA1999999100391MD1210021+9999MW1021REMSYN072AAXX  24034 01098 41480 42205 11079 21086 30039 40058 52002 70221 84800;
0207010980999992000122406004+70360+031090FM-12+001599999V0202201N002612200019N0300001N1-00811-00861100611ADDAA112000191AY181061AY211061GF103991031081004501001001KA1120N-00841MA1999999100421MD1210031+9999MW1261REMSYN094AAXX  24064 01098 11480 32205 11081 21086 30042 40061 52003 69922 72681 83800 333 21084 91107;
0161010980999992000122409004+70360+031090FM-12+001599999V0202301N002612200019N0300001N1-00951-01001100651ADDAY101031AY201031GF101991011021004501001001MA1999999100461MD1310041+9999MW1011REMSYN072AAXX  24094 01098 41480 12305 11095 21100 30046 40065 53004 70100 81200;
0182010980999992000122412004+70360+031090FM-12+001599999V0202301N003612200019N0300001N1-00991-01041100631ADDAA199000021AY101061AY201061GF101991011021004501001001MA1999999100441MD1110021+9999MW1021REMSYN082AAXX  24124 01098 31480 12307 11099 21104 30044 40063 51002 70200 81200 333 91109;
0161010980999992000122415004+70360+031090FM-12+001599999V0202201N003112200019N0550001N1-00881-00931100591ADDAY101031AY201031GF101991011021004501001001MA1999999100401MD1710041+9999MW1021REMSYN072AAXX  24154 01098 41485 12206 11088 21093 30040 40059 57004 70200 81200;
0201010980999992000122418004+70360+031090FM-12+001599999V0202201N003112200019N0550001N1-01081-01131100541ADDAA199000021AY101061AY201061GF101991011061001501001001KA1120M-00801MA1999999100371MD1710031+9999MW1021REMSYN088AAXX  24184 01098 31285 12206 11108 21113 30037 40054 57003 70200 81600 333 11080 91109;
0161010980999992000122421004+70360+031090FM-12+001599999V0202201N003612200019N0700001N1-00951-01001100541ADDAY101031AY201031GF101991011021004501001001MA1999999100371MD1410001+9999MW1021REMSYN072AAXX  24214 01098 41488 12207 11095 21100 30037 40054 54000 70200 81200;
0188010980999992000122500004+70360+031090FM-12+001599999V0202301N003110042019N0100001N1-01091-01141100581ADDAA106000791AY121061AY201061GF105991051031004501001001MA1999999100391MD1210021+9999MW1851REMSYN088AAXX  25004 01098 11460 52306 11109 21114 30039 40058 52002 69901 78520 85300 333 91110;
0161010980999992000122503004+70360+031090FM-12+001599999V0202301N003610090019N0050001N1-01241-01291100531ADDAY181031AY221031GF106991061081004501001001MA1999999100331MD1710061+9999MW1851REMSYN072AAXX  25034 01098 41450 62307 11124 21129 30033 40053 57006 78582 86800;
0255010980999992000122506004+70360+031090FM-12+001599999V0202301N002112200019N0060001N1-01281-01331100481ADDAA112000191AJ199991999999999AY181061AY221061GF104991041031004501001001IA1249KA1120N-01301MA1999999100281MD1710051+9999MW1851REMSYN100AAXX  25064 01098 11456 42304 11128 21133 30028 40048 57005 69912 78582 84300 333 21130 48999 91109;EQDQ01  09962SNDP  
0161010980999992000122509004+70360+031090FM-12+001599999V0202201N002612200019N0200001N1-01201-01251100471ADDAY181031AY211031GF102991021061001501001001MA1999999100211MD1710071+9999MW1011REMSYN072AAXX  25094 01098 41270 22205 11120 21125 30021 40047 57007 70181 82600;
0188010980999992000122512004+70360+031090FM-12+001599999V0202301N003612200019N0200001N1-01141-01191100331ADDAA106000791AY181061AY211061GF102991021061001501001001MA1999999100141MD1710081+9999MW1011REMSYN088AAXX  25124 01098 11270 22307 11114 21119 30014 40033 57008 69901 70181 82600 333 91109;
0161010980999992000122515004+70360+031090FM-12+001599999V0202701N001512200019N0200001N1-00901-01291100231ADDAY101031AY201031GF102991021061001501001001MA1999999100041MD1710101+9999MW1021REMSYN072AAXX  25154 01098 41270 22703 11090 21129 30004 40023 57010 70200 82600;
0207010980999992000122518004+70360+031090FM-12+001599999V0202701N002612200019N0200001N1-00681-00941100171ADDAA112000791AY141061AY211061GF104991041061001501001001KA1120M-00681MA1999999099981MD1710061+9999MW1021REMSYN094AAXX  25184 01098 11270 42705 11068 21094 39998 40017 57006 69902 70241 84600 333 11068 91109;
0161010980999992000122521004+70360+031090FM-12+001599999V0202701N003610021019N0050001N1-00681-00741100161ADDAY181031AY221031GF108991081071002501999999MA1999999099971MD1710011+9999MW1851REMSYN072AAXX  25214 01098 41350 82707 11068 21074 39997 40016 57001 78582 887//;
0188010980999992000122600004+70360+031090FM-12+001599999V0201901N002612200019N0200001N1-00801-00851100311ADDAA106001091AY181061AY231061GF104991041081002501001001MA1999999100121MD1310151+9999MW1361REMSYN088AAXX  26004 01098 11370 41905 11080 21085 30012 40031 53015 60011 73683 84800 333 91111;
0161010980999992000122603004+70360+031090FM-12+001599999V0202301N003112200019N0200001N1-00831-00881100401ADDAY131031AY211031GF103991031071002501001001MA1999999100211MD1110091+9999MW1021REMSYN072AAXX  26034 01098 41370 32306 11083 21088 30021 40040 51009 70231 83700;
0255010980999992000122606004+70360+031090FM-12+001599999V0202701N002610060019N0025001N1-00681-00861100281ADDAA112001091AJ199991999999999AY181061AY231061GF108991081081002501999999IA1249KA1120N-00881MA1999999100091MD1710121+9999MW1851REMSYN100AAXX  26064 01098 11325 82705 11068 21086 30009 40028 57012 60012 78583 888// 333 21088 48999 91110;EQDQ01  09962SNDP  
0161010980999992000122609004+70360+031090FM-12+001599999V0200801N001010012019N0045001N1-00581-00621100301ADDAY171031AY221031GF108991081071001501999999MA1999999100111MD1310021+9999MW1731REMSYN072AAXX  26094 01098 41245 80802 11058 21062 30011 40030 53002 77372 887//;
0188010980999992000122612004+70360+031090FM-12+001599999V0200601N003110021019N0200001N1-00451-01151100321ADDAA106004191AY171061AY231061GF108991081071002501999999MA1999999100131MD1210021+9999MW1021REMSYN088AAXX  26124 01098 11370 80606 11045 21115 30013 40032 52002 60041 70273 887// 333 91112;
0161010980999992000122615004+70360+031090FM-12+001599999V0201101N002110090019N0300001N1-00531-00941100441ADDAY181031AY221031GF107991071081004501001001MA1999999100251MD1210121+9999MW1011REMSYN072AAXX  26154 01098 41480 71104 11053 21094 30025 40044 52012 70182 87800;
0207010980999992000122618004+70360+031090FM-12+001599999V0201001N001010060019N0010001N1-00641-00751100521ADDAA112005191AY181061AY221061GF108991081081002501999999KA1120M-00381MA1999999100331MD1210081+9999MW1861REMSYN094AAXX  26184 01098 11310 81002 11064 21075 30033 40052 52008 60052 78682 888// 333 11038 91113;
0161010980999992000122621004+70360+031090FM-12+001599999V0202401N001510090019N0200001N1-00641-00711100571ADDAY181031AY221031GF108991081081004501999999MA1999999100381MD1210051+9999MW1851REMSYN072AAXX  26214 01098 41470 82403 11064 21071 30038 40057 52005 78582 888//;
0188010980999992000122700004+70360+031090FM-12+001599999V0200601N001010012019N0030001N1-00581-00641100561ADDAA106005191AY171061AY221061GF108991081071001501999999MA1999999100371MD1710011+9999MW1731REMSYN088AAXX  27004 01098 11230 80602 11058 21064 30037 40056 57001 60051 77372 887// 333 91108;
0161010980999992000122703004+70360+031090FM-12+001599999V0202901N002110012019N0010001N1-00631-00691100571ADDAY171031AY271031GF108991081071001501999999MA1999999100381MD1210011+9999MW1731REMSYN072AAXX  27034 01098 41210 82904 11063 21069 30038 40057 52001 77377 887//;
0255010980999992000122706004+70360+031090FM-12+001599999V0202901N002110021019N0050001N1-00541-00581100501ADDAA112014091AJ199991999999999AY171061AY231061GF108991081071002501999999IA1249KA1120N-00701MA1999999100311MD1710071+9999MW1711REMSYN100AAXX  27064 01098 11350 82904 11054 21058 30031 40050 57007 60142 77173 887// 333 21070 48999 91109;EQDQ01  09962SNDP  
0161010980999992000122709004+70360+031090FM-12+001599999V0201001N002610240019N0300001N1-00451-00521100551ADDAY171031AY221031GF108991011011002501021999MA1999999100361MD1310051+9999MW1021REMSYN072AAXX  27094 01098 41380 81005 11045 21052 30036 40055 53005 70272 8112/;
0188010980999992000122712004+70360+031090FM-12+001599999V0200701N003110240019N0300001N1-00421-00941100661ADDAA106000191AY171061AY221061GF106991041081002501071001MA1999999100471MD1210111+9999MW1011REMSYN088AAXX  27124 01098 11380 60706 11042 21094 30047 40066 52011 69911 70172 84870 333 91111;
0161010980999992000122715004+70360+031090FM-12+001599999V0200701N002110021019N0200001N1-00481-00801100781ADDAY181031AY221031GF108991051031002501071999MA1999999100591MD1310121+9999MW1851REMSYN072AAXX  27154 01098 41370 80704 11048 21080 30059 40078 53012 78582 8537/;
0207010980999992000122718004+70360+031090FM-12+001599999V0200801N002110240019N0200001N1-00471-00621100851ADDAA112000191AY181061AY221061GF107991041031002501071001KA1120M-00381MA1999999100661MD1110071+9999MW1851REMSYN094AAXX  27184 01098 11370 70804 11047 21062 30066 40085 51007 69922 78582 84370 333 11038 91110;
0161010980999992000122721004+70360+031090FM-12+001599999V0200701N003112200019N0300001N1-00431-01151100991ADDAY181031AY221031GF103991011081004501071001MA1999999100801MD1210141+9999MW1011REMSYN072AAXX  27214 01098 41480 30706 11043 21115 30080 40099 52014 70182 81870;
0188010980999992000122800004+70360+031090FM-12+001599999V0201001N000510090019N0300001N1-00521-01061101111ADDAA106000191AY181061AY211061GF106991061081004501001001MA1999999100921MD1210121+9999MW1031REMSYN088AAXX  28004 01098 11480 61001 11052 21106 30092 40111 52012 69911 70381 86800 333 91110;
0161010980999992000122803004+70360+031090FM-12+001599999V0202401N002610090019N0300001N1-00561-00681101161ADDAY181031AY221031GF107991071081004501001001MA1999999100971MD1210051+9999MW1851REMSYN072AAXX  28034 01098 41480 72405 11056 21068 30097 40116 52005 78582 87800;
0255010980999992000122806004+70360+031090FM-12+001599999V0202401N002110090019N0050001N1-00631-00701101211ADDAA112000591AJ199991999999999AY181061AY221061GF106991061081004501001001IA1289KA1120N-00691MA1999999101021MD1210051+9999MW1861REMSYN100AAXX  28064 01098 11450 62404 11063 21070 30102 40121 52005 69962 78682 86800 333 21069 44999 91107;EQDQ01  09962SNDP  
0161010980999992000122809004+70360+031090FM-12+001599999V0202601N001512200019N0550001N1-00721-00781101301ADDAY181031AY221031GF105991041081004501001081MA1999999101111MD1210091+9999MW1021REMSYN072AAXX  28094 01098 41485 52603 11072 21078 30111 40130 52009 70282 84808;
0188010980999992000122812004+70360+031090FM-12+001599999V0202201N001510060019N0030001N1-00571-00631101321ADDAA106000191AY181061AY221061GF107991051081002501001081MA1999999101131MD1110021+9999MW1851REMSYN088AAXX  28124 01098 11330 72203 11057 21063 30113 40132 51002 69921 78582 85808 333 91106;
0161010980999992000122815004+70360+031090FM-12+001599999V0202401N001510060019N0030001N1-00621-00681101421ADDAY181031AY221031GF108991081081002501999999MA1999999101231MD1210101+9999MW1851REMSYN072AAXX  28154 01098 41330 82403 11062 21068 30123 40142 52010 78582 888//;
0207010980999992000122818004+70360+031090FM-12+001599999V0202201N003110090019N0100001N1-00921-01251101461ADDAA112002091AY181061AY221061GF107991071081004501001001KA1120M-00551MA1999999101271MD1210041+9999MW1851REMSYN094AAXX  28184 01098 11460 72206 11092 21125 30127 40146 52004 60022 78582 87800 333 11055 91107;
0161010980999992000122821004+70360+031090FM-12+001599999V0202101N003110090019N0550001N1-00981-01481101581ADDAY121031AY221031GF106991061081004501001001MA1999999101391MD1210121+9999MW1011REMSYN072AAXX  28214 01098 41485 62106 11098 21148 30139 40158 52012 70122 86800;
0182010980999992000122900004+70360+031090FM-12+001599999V0201801N002112200019N0550001N1-00711-00871101591ADDAA199000021AY121061AY211061GF103991031021004501001001MA1999999101401MD1210011+9999MW1011REMSYN082AAXX  29004 01098 31485 31804 11071 21087 30140 40159 52001 70121 83200 333 91108;
0161010980999992000122903004+70360+031090FM-12+001599999V0201401N003610042019N0550001N1-00581-01091101561ADDAY131031AY211031GF105991051021004501001001MA1999999101371MD1810031+9999MW1361REMSYN072AAXX  29034 01098 41485 51407 11058 21109 30137 40156 58003 73631 85200;
0249010980999992000122906004+70360+031090FM-12+001599999V0201301N003612200019N0300001N1-00551-01101101511ADDAA199000021AJ199991999999999AY131061AY211061GF104991041021004501001001IA1249KA1120N-01081MA1999999101321MD1710051+9999MW1361REMSYN094AAXX  29064 01098 31480 41307 11055 21110 30132 40151 57005 73631 84200 333 21108 48999 91112;EQDQ01  09962SNDP  
0161010980999992000122909004+70360+031090FM-12+001599999V0201301N003110600019N0550001N1-00561-00821101481ADDAY131031AY211031GF107991041021004501001081MA1999999101291MD1710031+9999MW1031REMSYN072AAXX  29094 01098 41485 71306 11056 21082 30129 40148 57003 70331 84208;
0201010980999992000122912004+70360+031090FM-12+001599999V0201201N003110600019N0750001N1-00541-00701101431ADDAA199000091AY131061AY211061GF107991031021004501001081MA1999999101241MD1710051+9999MW1021REMSYN082AAXX  29124 01098 31489 71206 11054 21070 30124 40143 57005 70231 83208 333 91111;EQDQ01  00002PRCP99
0161010980999992000122915004+70360+031090FM-12+001599999V0201501N003110042019N0700001N1-00541-00741101371ADDAY121031AY221031GF107991051031004501001081MA1999999101181MD1710061+9999MW1021REMSYN072AAXX  29154 01098 41488 71506 11054 21074 30118 40137 57006 70222 85308;
0220010980999992000122918004+70360+031090FM-12+001599999V0201301N003110042019N0750001N1-00561-00861101301ADDAA199000091AY121061AY221061GF105991051021004501001001KA1120M-00511MA1999999101111MD1710071+9999MW1021REMSYN088AAXX  29184 01098 31489 51306 11056 21086 30111 40130 57007 70222 85200 333 11051 91111;EQDQ01  00002PRCP99
0161010980999992000122921004+70360+031090FM-12+001599999V0201201N004110042019N0700001N1-00551-00791101211ADDAY131031AY221031GF105991051021004501001001MA1999999101021MD1710091+9999MW1361REMSYN072AAXX  29214 01098 41488 51208 11055 21079 30102 40121 57009 73632 85200;
0201010980999992000123000004+70360+031090FM-12+001599999V0201201N004110042019N0550001N1-00521-00841101071ADDAA199000091AY131061AY221061GF107991071021004501001001MA1999999100881MD1710141+9999MW1381REMSYN082AAXX  30004 01098 31485 71208 11052 21084 30088 40107 57014 73832 87200 333 91115;EQDQ01  00002PRCP99
0161010980999992000123003004+70360+031090FM-12+001599999V0201301N003110042019N0550001N1-00541-00701100921ADDAY131031AY221031GF107991071021004501001001MA1999999100731MD1710151+9999MW1361REMSYN072AAXX  30034 01098 41485 71306 11054 21070 30073 40092 57015 73632 87200;
0265010980999992000123006004+70360+031090FM-12+001599999V0201201N004110042019N0550001N1-00521-00691100771ADDAA199000091AJ199991999999999AY131061AY221061GF107991071021004501001001IA1249KA1120N-00601MA1999999100581MD1710151+9999MW1361REMSYN094AAXX  30064 01098 31485 71208 11052 21069 30058 40077 57015 73632 87200 333 21060 48999 91113;EQDQ01  00002PRCP99Q02  09962SNDP  
0161010980999992000123009004+70360+031090FM-12+001599999V0201301N005710042019N0020001N1-00481-00551100591ADDAY131031AY221031GF106991061021004501001001MA1999999100401MD1710181+9999MW1391REMSYN072AAXX  30094 01098 41420 61311 11048 21055 30040 40059 57018 73932 86200;
0211010980999992000123012004+70360+031090FM-12+001599999V0201301N005110006019N0006001N1-00451-00511100311ADDAA199000091AY131061AY231061GA1091+999999999GF109991091999999999999999MA1999999100121MD1810281+9999MW1391REMSYN076AAXX  30124 01098 31/06 91310 11045 21051 30012 40031 58028 73933 333 91117;EQDQ01  00002PRCP99
0161010980999992000123015004+70360+031090FM-12+001599999V0201201N005110060019N0015001N1-00481-00531100191ADDAY171031AY231031GF108991081081002501999999MA1999999100001MD1710121+9999MW1721REMSYN072AAXX  30154 01098 41315 81210 11048 21053 30000 40019 57012 77273 888//;
0207010980999992000123018004+70360+031090FM-12+001599999V0201501N004610060019N0050001N1-00491-00591100101ADDAA112004191AY171061AY231061GF108991081081002501999999KA1120M-00381MA1999999099911MD1710091+9999MW1701REMSYN094AAXX  30184 01098 11350 81509 11049 21059 39991 40010 57009 60042 77073 888// 333 11038 91116;
0161010980999992000123021004+70360+031090FM-12+001599999V0201701N004110090019N0250001N1-00491-00631100011ADDAY171031AY231031GF108991081081004501999999MA1999999099821MD1710091+9999MW1021REMSYN072AAXX  30214 01098 41475 81708 11049 21063 39982 40001 57009 70273 888//;
0198010980999992000123100004+70360+031090FM-12+001599999V0201501N004110003019N0005001N1-00361-00461099851ADDAA106000191AY181061AY271061GA1091+999999999GF109991091999999999999999MA1999999099661MD1710161+9999MW1861REMSYN082AAXX  31004 01098 11/05 91508 11036 21046 39966 49985 57016 69921 78687 333 91113;
0171010980999992000123103004+70360+031090FM-12+001599999V0202101N003610003019N0005001N1-00491-00561099751ADDAY181031AY231031GA1091+999999999GF109991091999999999999999MA1999999099561MD1710101+9999MW1861REMSYN066AAXX  31034 01098 41/05 92107 11049 21056 39956 49975 57010 78683;
0265010980999992000123106004+70360+031090FM-12+001599999V0202201N004612200019N0100001N1-00751-00821099931ADDAA112001091AJ199991999999999AY181061AY231061GA1001+999999999GF100991001001999999001001IA1249KA1120N-00761MA1999999099741MD1310181+9999MW1361REMSYN094AAXX  31064 01098 11960 02209 11075 21082 39974 49993 53018 69992 73683 333 21076 48999 91113;EQDQ01  09962SNDP  
0161010980999992000123109004+70360+031090FM-12+001599999V0202001N005112200019N0250001N1-00971-01031100131ADDAY131031AY211031GF103991031081004501001001MA1999999099941MD1210201+9999MW1361REMSYN072AAXX  31094 01098 41475 32010 11097 21103 39994 40013 52020 73631 83800;
0188010980999992000123112004+70360+031090FM-12+001599999V0202001N006712200019N0250001N1-00821-00871100311ADDAA106000391AY131061AY201061GF102991021081004501001001MA1999999100121MD1210181+9999MW1381REMSYN088AAXX  31124 01098 11475 22013 11082 21087 30012 40031 52018 69931 73830 82800 333 91118;
0161010980999992000123115004+70360+031090FM-12+001599999V0202101N006212200019N0200001N1-00841-00891100441ADDAY131031AY201031GF102991021081004501001001MA1999999100251MD1210131+9999MW1381REMSYN072AAXX  31154 01098 41470 22112 11084 21089 30025 40044 52013 73830 82800;
0207010980999992000123118004+70360+031090FM-12+001599999V0202101N008212200019N0040001N1-00801-00851100651ADDAA112000391AY131061AY201061GF102991021081004501001001KA1120M-00731MA1999999100361MD1210111+9999MW1381REMSYN094AAXX  31184 01098 11440 22116 11080 21085 30036 40065 52011 69932 73830 82800 333 11073 91122;
0161010980999992000123121004+70360+031090FM-12+001599999V0202101N006212200019N0300001N1-00861-00911100761ADDAY131031AY201031GF102991021081004501001001MA1999999100571MD1210211+9999MW1361REMSYN072AAXX  31214 01098 41480 22112 11086 21091 30057 40076 52021 73630 82800;
