0189026800999992000010100004+56920+018150FM-12+003999999V0203101N002110054019N0400001N1-00141-00441102081ADDAA106000091GA1061+005409059GF107991061051004501071999MA1999999101591MD1610061+9999REMSYN076AAXX  01004 02680 32482 73104 11014 21044 30159 40208 56006 8657/ 333 86618;EQDQ01  00002PRCP06
0252026800999992000010106004+56920+018150FM-12+003999999V0202501N003110012019N0110001N1+00101+00071101941ADDAA112000591AJ100019199999999AY121061AY221061GA1081+001209069GF108991081071001501999999IA1289KA1120N-00241MA1999999101451MD1710081+9999MW1681REMSYN100AAXX  01064 02680 11261 82506 10010 20007 30145 40194 57008 69962 76822 887// 333 21024 44001 88704;
0198026800999992000010109004+56920+018150FM-12+003999999V0202401N003110012019N0150001N1+00191+00181101941ADDAA106000021AY161031AY261031GA1081+001209069GF108991081071002501999999MA1999999101461MD1210011+9999MW1231REMSYN082AAXX  01094 02680 31365 82406 10019 20018 30146 40194 52001 72366 887// 333 88704;
0210026800999992000010112004+56920+018150FM-12+003999999V0202401N00261004501CN0300001N1+00221+00161101891ADDAA106001091AY161061AY261061GA1071+004509069GF108991071051004501021999MA1999999101411MD1710051+9999MW1021REMSYN094AAXX  01124 02680 11480 82405 10022 20016 30141 40189 57005 60011 70266 8752/ 333 87694 88499;
0159026800999992000010115004+56920+018150FM-12+003999999V0202301N003110300019N0300001N1+00191+00161101891ADDGA1011+004509059GF108991011051004501021999MA1999999101411MD1410001+9999REMSYN076AAXX  01154 02680 42480 82306 10019 20016 30141 40189 54000 8152/ 333 81694;
0223026800999992000010118004+56920+018150FM-12+003999999V0202201N003110039019N0120001N1+00201+00191101931ADDAA112001091AY121061AY221061GA1081+003909059GF108991081051004501999999KA1120M+00231MA1999999101451MD1110041+9999MW1221REMSYN094AAXX  01184 02680 11462 82206 10020 20019 30145 40193 51004 60012 72222 885// 333 10023 88613;
0193026800999992000010121004+56920+018150FM-12+003999999V0202101N003610021019N0150001N1+00221+00191101981ADDAY161031AY261031GA1061+002109069GF108991081051002501999999MA1999999101501MD1310051+9999MW1021REMSYN088AAXX  01214 02680 41365 82107 10022 20019 30150 40198 53005 70266 885// 333 86607 88619;
0204026800999992000010200004+56920+018150FM-12+003999999V0202001N003110018019N0150001N1+00231+00221101991ADDAA106000191AY161061AY261061GA1081+001809069GF108991081061001501999999MA1999999101511MD1110011+9999MW1021REMSYN088AAXX  02004 02680 11265 82006 10023 20022 30151 40199 51001 69911 70266 886// 333 88706;
0159026800999992000010203004+56920+018150FM-12+003999999V0202101N003610012019N0110001N1+00261+00251101981ADDGA1081+001209069GF108991081061001501999999MA1999999101501MD1710011+9999REMSYN076AAXX  02034 02680 42261 82107 10026 20025 30150 40198 57001 886// 333 88704;
0254026800999992000010206004+56920+018150FM-12+003999999V0202001N002610003019N0020001N1+00301+00291101941ADDAA112000191AY121061AY221061GA1081+000309069GF108991081061000251999999IA1099KA1120N+99999MA1999999101461MD1710041+9999MW1101REMSYN100AAXX  02064 02680 11020 82005 10030 20029 30146 40194 57004 69912 71022 886// 333 20200 31/// 88701;EQDQ01 +02002ATMN  
0171026800999992000010209004+56920+018150FM-12+003999999V0202001N003110003019N0002001N1+00331+00321101881ADDAY121031AY221031GA1091+999999999GF109991091999999999999999MA1999999101401MD1810061+9999MW1471REMSYN066AAXX  02094 02680 41/02 92006 10033 20032 30140 40188 58006 74722;
0223026800999992000010212004+56920+018150FM-12+003999999V0202301N00411000601CN0300001N1+00191+00181101711ADDAA106000091AY141061AY221061GA1021+000909079GF108991081061000751999999MA1999999101231MD1810171+9999MW1021REMSYN088AAXX  02124 02680 31180 82308 10019 20018 30123 40171 58017 70242 886// 333 82703 88793;EQDQ01  00002PRCP06
0159026800999992000010215004+56920+018150FM-12+003999999V0202401N005110033019N0300001N1+00251+00241101491ADDGA1081+003309059GF108991081051004501999999MA1999999101011MD1510221+9999REMSYN076AAXX  02154 02680 42480 82410 10025 20024 30101 40149 55022 885// 333 88611;
0251026800999992000010218004+56920+018150FM-12+003999999V0202501N00571002101CN0100001N1+00361+00321101261ADDAA112000191AY161061AY221061GA1011+002709079GA2031+003609069GF108991081051002501999999KA1120M+00391MA1999999100781MD1610231+9999MW1021REMSYN106AAXX  02184 02680 11360 82511 10036 20032 30078 40126 56023 69912 70262 885// 333 10039 81709 83612 88618;
0143026800999992000010221004+56920+018150FM-12+003999999V0202501N005112200019N0150001N1+00381+00351101201ADDGA1001+999999999GF100991001001999999001001MA1999999100721MD1610061+9999REMSYN060AAXX  02214 02680 42965 02510 10038 20035 30072 40120 56006;
0173026800999992000010300004+56920+018150FM-12+003999999V0202701N005712200019N0400001N1+00341+00301101241ADDAA106000091GA1001+999999999GF100991001001999999001001MA1999999100761MD1210041+9999REMSYN060AAXX  03004 02680 32982 02711 10034 20030 30076 40124 52004;EQDQ01  00002PRCP06
0159026800999992000010303004+56920+018150FM-12+003999999V0202901N004112200019N0400001N1+00291+00221101371ADDGA1011+999999079GF101991011001999999031001MA1999999100891MD1210131+9999REMSYN076AAXX  03034 02680 42982 12908 10029 20022 30089 40137 52013 81030 333 81399;
0220026800999992000010306004+56920+018150FM-12+003999999V0202901N004112200019N0400001N1+00221+00161101431ADDAA106000091GA1011+999999079GF101991011001999999031001IA1099KA1120N+00221MA1999999100951MD1110061+9999REMSYN088AAXX  03064 02680 32982 12908 10022 20016 30095 40143 51006 81030 333 20022 31/// 81399;EQDQ01  00002PRCP06
0185026800999992000010309004+56920+018150FM-12+003999999V0202801N002619999999N0350001N1+00231+00191101441ADDGA1011+025009039GF106991061001999999071001MA1999999100961MD1010011+9999SA1+0349REMSYN094AAXX  03094 02680 42981 62805 10023 20019 30096 40144 50001 86070 222// 00034 333 81399 83499;
0195026800999992000010312004+56920+018150FM-12+003999999V0202401N00261030001CN0300001N1+00281+00241101271ADDAA106000091GA1011+002509089GF107991011011002501071999MA1999999100791MD1810171+9999REMSYN082AAXX  03124 02680 32380 72405 10028 20024 30079 40127 58017 8117/ 333 81893 86399;EQDQ01  00002PRCP06
0187026800999992000010315004+56920+018150FM-12+003999999V0202001N003110009019N0050001N1+00321+00291100971ADDAY141031AY221031GA1081+000909069GF108991081061000751999999MA1999999100491MD1810301+9999MW1101REMSYN082AAXX  03154 02680 41150 82006 10032 20029 30049 40097 58030 71042 886// 333 88703;
0224026800999992000010318004+56920+018150FM-12+003999999V0202401N004110001519N0001001N1+00441+00431100741ADDAA106000091AY141061AY221061GA1091+999999999GF109991091999999999999999KA1999M+00451MA1999999100271MD1710221+9999MW1451REMSYN076AAXX  03184 02680 31/01 92408 10044 20043 30027 40074 57022 74542 333 10045;EQDQ01  00002PRCP06
0187026800999992000010321004+56920+018150FM-12+003999999V0202601N004112200019N0049001N1+00441+00411100671ADDAY141031AY241031GA1011+000609069GF101991011061000751001001MA1999999100201MD1610071+9999MW1101REMSYN082AAXX  03214 02680 41149 12608 10044 20041 30020 40067 56007 71044 81600 333 81702;
0217026800999992000010400004+56920+018150FM-12+003999999V0202401N004110450019N0350001N1+00431+00421100631ADDAA106000091AY141061AY241061GA1081+045009079GF108991081001999999071999MA1999999100161MD1710041+9999MW1021REMSYN082AAXX  04004 02680 31981 82408 10043 20042 30016 40063 57004 70244 8807/ 333 88365;EQDQ01  00002PRCP06
0159026800999992000010403004+56920+018150FM-12+003999999V0202301N004610360019N0300001N1+00411+00401100471ADDGA1081+036009079GF108991081001999999071999MA1999999100001MD1810161+9999REMSYN076AAXX  04034 02680 42980 82309 10041 20040 30000 40047 58016 8807/ 333 88362;
0236026800999992000010406004+56920+018150FM-12+003999999V0202401N005110210019N0170001N1+00401+00391100371ADDAA106000091GA1061+021009079GF106991061999022501071001IA1099KA1120N+00361MA1999999099901MD1710101+9999REMSYN088AAXX  04064 02680 32867 62410 10040 20039 39990 40037 57010 86070 333 20036 31/// 86357;EQDQ01+000002SCOLCGQ02  00002PRCP06
0143026800999992000010409004+56920+018150FM-12+003999999V0202401N005112200019N0300001N1+00401+00361100371ADDGA1001+999999999GF100991001001999999001001MA1999999099901MD1510001+9999REMSYN060AAXX  04094 02680 42980 02410 10040 20036 39990 40037 55000;
0201026800999992000010412004+56920+018150FM-12+003999999V0202701N006712200019N0290001N1+00471-00051100281ADDAA106000091AY121061AY201061GA1001+999999999GF100991001001999999001001MA1999999099811MD1810091+9999MW1051REMSYN066AAXX  04124 02680 31979 02713 10047 21005 39981 40028 58009 70520;EQDQ01  00002PRCP06
0159026800999992000010415004+56920+018150FM-12+003999999V0202701N006712200019N0300001N1+00411-00101100481ADDGA1011+999999019GF101991001001999999001011MA1999999100011MD1310201+9999REMSYN076AAXX  04154 02680 42980 12713 10041 21010 30001 40048 53020 80001 333 81099;
0196026800999992000010418004+56920+018150FM-12+003999999V0202601N006212200019N0300001N1+00351-00081100511ADDAA106000091GA1001+999999999GF100991001001999999001001KA1999M+00481MA1999999100041MD1110031+9999REMSYN070AAXX  04184 02680 32980 02612 10035 21008 30004 40051 51003 333 10048;EQDQ01  00002PRCP06
0162026800999992000010421004+56920+018150FM-12+003999999V0202601N005112200019N0300001N1+00311+00091999999ADDGA1001+999999999GF100991001001999999001001MA1999999100161MD1310121+9999REMSYN060AAXX  04214 02680 42980 02610 10031 20009 30016 40663 53012;EQDQ01+106633APOSLP
0189026800999992000010500004+56920+018150FM-12+003999999V0202501N005112200019N0300001N1+00241+00131100681ADDAA106000091GA1011+999999019GF101991001001999999001011MA1999999100211MD1110051+9999REMSYN076AAXX  05004 02680 32980 12510 10024 20013 30021 40068 51005 80001 333 81099;EQDQ01  00002PRCP06
0159026800999992000010503004+56920+018150FM-12+003999999V0202501N002619999999N0300001N1+00191+00111100571ADDGA1081+999999089GF108991001001999999001071MA1999999100101MD1810111+9999REMSYN076AAXX  05034 02680 42980 82505 10019 20011 30010 40057 58011 80007 333 88299;
0220026800999992000010506004+56920+018150FM-12+003999999V0202601N001019999999N0300001N1+00161+00081100541ADDAA106000091GA1081+999999089GF108991001001999999001071IA1099KA1120N+00161MA1999999100071MD1610031+9999REMSYN088AAXX  05064 02680 32980 82602 10016 20008 30007 40054 56003 80007 333 20016 31/// 88299;EQDQ01  00002PRCP06
0185026800999992000010509004+56920+018150FM-12+003999999V0203301N00051075001CN0250001N1+00191+00111100661ADDGA1031+022509039GF108991031001022501071071MA1999999100191MD1310121+9999SA1+0349REMSYN094AAXX  05094 02680 42875 83301 10019 20011 30019 40066 53012 83077 222// 00034 333 83398 88299;
0189026800999992000010512004+56920+018150FM-12+003999999V0203301N002112200019N0290001N1+00251+00171100941ADDAA106000091GA1011+008009059GF103991011051008001071011MA1999999100461MD1210271+9999REMSYN076AAXX  05124 02680 32579 33304 10025 20017 30046 40094 52027 81571 333 81695;EQDQ01  00002PRCP06
0165026800999992000010515004+56920+018150FM-12+003999999V0203101N00261030001CN0300001N1+00161+00101101281ADDGA1021+004509069GF108991021051004501031071MA1999999100801MD1210341+9999REMSYN082AAXX  05154 02680 42480 83105 10016 20010 30080 40128 52034 82537 333 82694 88299;
0143026800999992000010521004+56920+018150FM-12+003999999V0202501N002112200019N0300001N1+00191+00111101691ADDGA1001+999999999GF100991001001999999001001MA1999999101211MD1210161+9999REMSYN060AAXX  05214 02680 42980 02504 10019 20011 30121 40169 52016;
0159026800999992000010603004+56920+018150FM-12+003999999V0202301N003110180019N0200001N1+00291+00231101761ADDGA1081+018009059GF108991081051017501999999MA1999999101281MD1410001+9999REMSYN076AAXX  06034 02680 42770 82306 10029 20023 30128 40176 54000 885// 333 88656;
0236026800999992000010606004+56920+018150FM-12+003999999V0202101N004112200019N0290001N1+00291+00241101651ADDAA106000091GA1031+022509079GF103991031999022501071001IA1099KA1120N+00131MA1999999101171MD1810111+9999REMSYN088AAXX  06064 02680 32879 32108 10029 20024 30117 40165 58011 83070 333 20013 31/// 83398;EQDQ01+000002SCOLCGQ02  00002PRCP06
0159026800999992000010609004+56920+018150FM-12+003999999V0202001N005112200019N0280001N1+00331+00291101571ADDGA1011+002509069GF102991011061002501001081MA1999999101091MD1810081+9999REMSYN076AAXX  06094 02680 42378 22010 10033 20029 30109 40157 58008 81608 333 81793;
0189026800999992000010612004+56920+018150FM-12+003999999V0202101N005712200019N0300001N1+00401+00181101491ADDAA106000091GA1011+999999079GF101991011001999999071011MA1999999101011MD1710081+9999REMSYN076AAXX  06124 02680 32980 12111 10040 20018 30101 40149 57008 81071 333 81399;EQDQ01  00002PRCP06
0159026800999992000010615004+56920+018150FM-12+003999999V0202001N006212200019N0290001N1+00321+00211101231ADDGA1011+999999079GF101991011001999999071011MA1999999100751MD1810261+9999REMSYN076AAXX  06154 02680 42979 12012 10032 20021 30075 40123 58026 81071 333 81399;
0159026800999992000010621004+56920+018150FM-12+003999999V0202101N006210036019N0200001N1+00391+00271100951ADDGA1081+003609059GF108991081051004501999999MA1999999100471MD1710101+9999REMSYN076AAXX  06214 02680 42470 82112 10039 20027 30047 40095 57010 885// 333 88612;
0204026800999992000010700004+56920+018150FM-12+003999999V0202201N006210015019N0030001N1+00371+00291100831ADDAA106000591AY121061AY221061GA1081+001509069GF108991081071001501999999MA1999999100361MD1710111+9999MW1611REMSYN088AAXX  07004 02680 11230 82212 10037 20029 30036 40083 57011 69941 76122 887// 333 88705;
0193026800999992000010703004+56920+018150FM-12+003999999V0202301N00511001201CN0030001N1+00431+00371100831ADDAY161031AY261031GA1041+001509079GF108991081071001501999999MA1999999100361MD1010001+9999MW1101REMSYN088AAXX  07034 02680 41230 82310 10043 20037 30036 40083 50000 71066 887// 333 84705 88708;
0235026800999992000010706004+56920+018150FM-12+003999999V0202701N004112200019N0350001N1+00331+00111101141ADDAA112000591AY161061AY221061GA1011+008009059GF101991011051008001999999IA1099KA1120N+00331MA1999999100661MD1310301+9999MW1021REMSYN100AAXX  07064 02680 11581 12708 10033 20011 30066 40114 53030 69962 70262 815// 333 20033 31/// 81695;
0179026800999992000010709004+56920+018150FM-12+003999999V0202601N004112200019N0400001N1+00291+00111101441ADDGA1011+004509059GF101991011061004501001081MA1999999100961MD1110301+9999SA1+0329REMSYN088AAXX  07094 02680 42482 12608 10029 20011 30096 40144 51030 81608 222// 00032 333 81694;
0189026800999992000010712004+56920+018150FM-12+003999999V0202501N003619999999N0400001N1+00301+00091101511ADDAA106000091GA1051+999999089GF105991001001999999001061MA1999999101031MD1110071+9999REMSYN076AAXX  07124 02680 32982 52507 10030 20009 30103 40151 51007 80006 333 85299;EQDQ01  00002PRCP06
0165026800999992000010715004+56920+018150FM-12+003999999V0202301N003119999999N0300001N1+00271+00121101551ADDGA1011+025009039GF106991061001999999071001MA1999999101071MD1110041+9999REMSYN082AAXX  07154 02680 42980 62306 10027 20012 30107 40155 51004 86070 333 81399 87499;
0208026800999992000010718004+56920+018150FM-12+003999999V0202301N004619999999N0300001N1+00321+00201101471ADDAA106000091GA1081+999999089GF108991001001999999001071KA1120M+00341MA1999999100991MD1810081+9999REMSYN082AAXX  07184 02680 32980 82309 10032 20020 30099 40147 58008 80007 333 10034 88299;EQDQ01  00002PRCP06
0119026800999992000010721004+56920+018150FM-12+003999999V0202301N005719999999N0170001N1+00391+00291999999ADDGF108991999999001501999999REMSYN081AAXX  07214 02680 42267 82311 10039 20029 3093 40141 57006 885// 333 81706 88619;
0189026800999992000010800004+56920+018150FM-12+003999999V0202101N006210024019N0120001N1+00421+00321101211ADDAA106000091GA1081+002409069GF108991081061002501999999MA1999999100731MD1810201+9999REMSYN076AAXX  08004 02680 32362 82112 10042 20032 30073 40121 58020 886// 333 88708;EQDQ01  00002PRCP06
0159026800999992000010803004+56920+018150FM-12+003999999V0202101N005710021019N0120001N1+00421+00321101091ADDGA1081+002109069GF108991081061002501999999MA1999999100611MD1710121+9999REMSYN076AAXX  08034 02680 42362 82111 10042 20032 30061 40109 57012 886// 333 88707;
0220026800999992000010806004+56920+018150FM-12+003999999V0202301N006710015019N0120001N1+00421+00321100941ADDAA106000091GA1081+001509069GF108991081061001501999999IA1099KA1120N+00321MA1999999100461MD1710151+9999REMSYN088AAXX  08064 02680 32262 82313 10042 20032 30046 40094 57015 886// 333 20032 31/// 88705;EQDQ01  00002PRCP06
0159026800999992000010809004+56920+018150FM-12+003999999V0202201N006210025019N0150001N1+00411+00311101001ADDGA1081+002509069GF108991081061002501999999MA1999999100521MD1110061+9999REMSYN076AAXX  08094 02680 42365 82212 10041 20031 30052 40100 51006 886// 333 88793;
0217026800999992000010812004+56920+018150FM-12+003999999V0202301N006210045019N0090001N1+00431+00341100901ADDAA106000091AY121061AY221061GA1081+004509069GF108991081061002501999999MA1999999100421MD1610101+9999MW1101REMSYN082AAXX  08124 02680 31359 82312 10043 20034 30042 40090 56010 71022 886// 333 88794;EQDQ01  00002PRCP06
0187026800999992000010815004+56920+018150FM-12+003999999V0202301N005710015019N0045001N1+00411+00321100961ADDAY121031AY221031GA1081+001509069GF108991081061001501999999MA1999999100481MD1110061+9999MW1101REMSYN082AAXX  08154 02680 41245 82311 10041 20032 30048 40096 51006 71022 886// 333 88792;
0236026800999992000010818004+56920+018150FM-12+003999999V0202401N005110006019N0040001N1+00411+00321101041ADDAA106000091AY121061AY221061GA1081+000609069GF108991081061000751999999KA1120M+00451MA1999999100561MD1010081+9999MW1101REMSYN088AAXX  08184 02680 31140 82410 10041 20032 30056 40104 50008 71022 886// 333 10045 88702;EQDQ01  00002PRCP06
0143026800999992000010821004+56920+018150FM-12+003999999V0202401N005112200019N0120001N1+00361+00271101191ADDGA1001+999999999GF100991001001999999001001MA1999999100711MD1310151+9999REMSYN060AAXX  08214 02680 42962 02410 10036 20027 30071 40119 53015;
0173026800999992000010900004+56920+018150FM-12+003999999V0202401N004112200019N0300001N1+00371+00301101301ADDAA106000091GA1001+999999999GF100991001001999999001001MA1999999100821MD1110111+9999REMSYN060AAXX  09004 02680 32980 02408 10037 20030 30082 40130 51011;EQDQ01  00002PRCP06
0143026800999992000010903004+56920+018150FM-12+003999999V0202301N003112200019N0350001N1+00321+00201101401ADDGA1001+999999999GF100991001001999999001001MA1999999100921MD1210101+9999REMSYN060AAXX  09034 02680 42981 02306 10032 20020 30092 40140 52010;
0165026800999992000010909004+56920+018150FM-12+003999999V0202301N003119999999N0230001N1+00361+00291101661ADDGA1011+025009039GF107991071001999999071999MA1999999101181MD1110151+9999REMSYN082AAXX  09094 02680 42973 72306 10036 20029 30118 40166 51015 8707/ 333 81399 86399;
0195026800999992000010912004+56920+018150FM-12+003999999V0202301N003112200019N0220001N1+00391+00301101721ADDAA106000091GA1011+025009039GF103991011001999999031021MA1999999101241MD1110061+9999REMSYN082AAXX  09124 02680 32972 32306 10039 20030 30124 40172 51006 81032 333 81399 83099;EQDQ01  00002PRCP06
0165026800999992000010915004+56920+018150FM-12+003999999V0202501N003119999999N0230001N1+00301+00211101811ADDGA1011+025009039GF108991011001999999071071MA1999999101331MD1310091+9999REMSYN082AAXX  09154 02680 42973 82506 10030 20021 30133 40181 53009 81077 333 81399 88299;
0196026800999992000010918004+56920+018150FM-12+003999999V0202401N003112200019N0230001N1+00291+00201101921ADDAA106000091GA1001+999999999GF100991001001999999001001KA1999M+00401MA1999999101441MD1210111+9999REMSYN070AAXX  09184 02680 32973 02406 10029 20020 30144 40192 52011 333 10040;EQDQ01  00002PRCP06
0143026800999992000010921004+56920+018150FM-12+003999999V0202401N004112200019N0160001N1+00271+00181102041ADDGA1001+999999999GF100991001001999999001001MA1999999101561MD1210121+9999REMSYN060AAXX  09214 02680 42966 02408 10027 20018 30156 40204 52012;
0173026800999992000011000004+56920+018150FM-12+003999999V0202301N003112200019N0300001N1+00251+00161102151ADDAA106000091GA1001+999999999GF100991001001999999001001MA1999999101671MD1110111+9999REMSYN060AAXX  10004 02680 32980 02306 10025 20016 30167 40215 51011;EQDQ01  00002PRCP06
0143026800999992000011003004+56920+018150FM-12+003999999V0202601N003612200019N0300001N1+00271+00181102291ADDGA1001+999999999GF100991001001999999001001MA1999999101811MD1210141+9999REMSYN060AAXX  10034 02680 42980 02607 10027 20018 30181 40229 52014;
0208026800999992000011006004+56920+018150FM-12+003999999V0202601N003112200019N0400001N1+00251+00161102421ADDAA106000091GA1001+999999999GF100991001001999999001001IA1099KA1120N+00251MA1999999101941MD1210131+9999REMSYN076AAXX  10064 02680 32982 02606 10025 20016 30194 40242 52013 333 20025 31///;EQDQ01  00002PRCP06
0179026800999992000011009004+56920+018150FM-12+003999999V0202701N003112200019N0400001N1+00301+00201102561ADDGA1011+999999079GF101991011001999999051001MA1999999102081MD1210141+9999SA1+0249REMSYN088AAXX  10094 02680 42982 12706 10030 20020 30208 40256 52014 81050 222// 00024 333 81399;
0189026800999992000011012004+56920+018150FM-12+003999999V0202801N003612200019N0450001N1+00341+00171102681ADDAA106000091GA1011+999999019GF101991001001999999001011MA1999999102201MD1210121+9999REMSYN076AAXX  10124 02680 32983 12807 10034 20017 30220 40268 52012 80001 333 81099;EQDQ01  00002PRCP06
0159026800999992000011015004+56920+018150FM-12+003999999V0202701N003112200019N0450001N1+00211+00071102791ADDGA1011+999999079GF101991011001999999031011MA1999999102311MD1310111+9999REMSYN076AAXX  10154 02680 42983 12706 10021 20007 30231 40279 53011 81031 333 81399;
0208026800999992000011018004+56920+018150FM-12+003999999V0202701N004112200019N0400001N1+00251+00101102881ADDAA106000091GA1011+999999019GF101991001001999999001011KA1120M+00351MA1999999102401MD1310091+9999REMSYN082AAXX  10184 02680 32982 12708 10025 20010 30240 40288 53009 80001 333 10035 81099;EQDQ01  00002PRCP06
0143026800999992000011021004+56920+018150FM-12+003999999V0202401N003112200019N0350001N1+00241+00111102961ADDGA1001+999999999GF100991001001999999001001MA1999999102481MD1210081+9999REMSYN060AAXX  10214 02680 42981 02406 10024 20011 30248 40296 52008;
0173026800999992000011100004+56920+018150FM-12+003999999V0202401N004112200019N0300001N1+00171+00061102941ADDAA106000091GA1001+999999999GF100991001001999999001001MA1999999102461MD1610021+9999REMSYN060AAXX  11004 02680 32980 02408 10017 20006 30246 40294 56002;EQDQ01  00002PRCP06
0159026800999992000011103004+56920+018150FM-12+003999999V0202401N005712200019N0200001N1+00201+00091102841ADDGA1011+002409069GF101991011061002501001001MA1999999102361MD1710101+9999REMSYN076AAXX  11034 02680 42370 12411 10020 20009 30236 40284 57010 81600 333 81708;
0226026800999992000011106004+56920+018150FM-12+003999999V0202401N006210030019N0250001N1+00251+00101102791ADDAA106000091GA1061+003009069GF107991071051004501999999IA1099KA1120N+00171MA1999999102311MD1810051+9999REMSYN094AAXX  11064 02680 32475 72412 10025 20010 30231 40279 58005 875// 333 20017 31/// 86610 87656;EQDQ01  00002PRCP06
0189026800999992000011109004+56920+018150FM-12+003999999V0202401N005710045019N0250001N1+00301+00161102801ADDAA106000091GA1071+004509059GF108991071051004501999999MA1999999102321MD1010011+9999REMSYN076AAXX  11094 02680 32475 82411 10030 20016 30232 40280 50001 875// 333 87694;EQDQ01  00002PRCP06
0204026800999992000011112004+56920+018150FM-12+003999999V0202401N005710045019N0250001N1+00331+00211102781ADDAA106000391AY121061AY221061GA1071+004509059GF108991071051004501999999MA1999999102301MD1710021+9999MW1601REMSYN088AAXX  11124 02680 11475 82411 10033 20021 30230 40278 57002 69931 76022 875// 333 87694;
0187026800999992000011115004+56920+018150FM-12+003999999V0202401N005110015019N0030001N1+00311+00231102811ADDAY161031AY261031GA1081+001509069GF108991081071001501999999MA1999999102331MD1110031+9999MW1601REMSYN082AAXX  11154 02680 41230 82410 10031 20023 30233 40281 51003 76066 887// 333 88792;
0223026800999992000011118004+56920+018150FM-12+003999999V0202401N004610015019N0100001N1+00331+00251102821ADDAA112000391AY161061AY261061GA1081+001509069GF108991081071001501999999KA1120M+00341MA1999999102341MD1310011+9999MW1021REMSYN094AAXX  11184 02680 11260 82409 10033 20025 30234 40282 53001 69932 70266 887// 333 10034 88705;
0187026800999992000011121004+56920+018150FM-12+003999999V0202401N004610015019N0045001N1+00331+00271102771ADDAY121031AY221031GA1081+001509069GF108991081071001501999999MA1999999102291MD1710051+9999MW1501REMSYN082AAXX  11214 02680 41245 82409 10033 20027 30229 40277 57005 75022 887// 333 88705;
0204026800999992000011200004+56920+018150FM-12+003999999V0202301N004610012019N0045001N1+00331+00271102651ADDAA106000791AY151061AY221061GA1081+001209069GF108991081061001501999999MA1999999102171MD1810121+9999MW1101REMSYN088AAXX  12004 02680 11245 82309 10033 20027 30217 40265 58012 69901 71052 886// 333 88704;
0187026800999992000011203004+56920+018150FM-12+003999999V0202201N005710009019N0030001N1+00361+00301102511ADDAY121031AY221031GA1081+000909069GF108991081061000751999999MA1999999102031MD1710141+9999MW1101REMSYN082AAXX  12034 02680 41130 82211 10036 20030 30203 40251 57014 71022 886// 333 88703;
0213026800999992000011206004+56920+018150FM-12+003999999V0202101N006219999999N0002001N1+00351+00301102321ADDAA112000591AY121061AY221061GF108991081999999999999999IA1099KA1120N+00331MA1999999101841MD1810191+9999MW1611REMSYN094AAXX  12064 02680 11/02 82112 10035 20030 30184 40232 58019 69952 76122 88/// 333 20033 31///;
0176026800999992000011209004+56920+018150FM-12+003999999V0202301N00671002501CN0100001N1+00381+00341999999ADDGA1061+002509079GF108991999999002501999999MA1999999101731SA1+0369REMSYN099AAXX  12094 02680 41360 82313 10038 20034 30173 4021 57011 70264 8667/ 222// 00036 333 86793 88399;
0204026800999992000011212004+56920+018150FM-12+003999999V0202301N006710025019N0048001N1+00381+00331102121ADDAA106000791AY161061AY241061GA1081+002509069GF108991081061002501999999MA1999999101641MD1610091+9999MW1101REMSYN088AAXX  12124 02680 11348 82313 10038 20033 30164 40212 56009 69901 71064 886// 333 88793;
0193026800999992000011215004+56920+018150FM-12+003999999V0202301N00621030001CN0048001N1+00371+00311102081ADDAY121031AY221031GA1011+004509069GF108991011051004501071999MA1999999101601MD1710041+9999MW1101REMSYN088AAXX  12154 02680 41448 82312 10037 20031 30160 40208 57004 71022 8157/ 333 81694 88398;
0201026800999992000011218004+56920+018150FM-12+003999999V0202301N00621004201CN0200001N1+00361+00301102071ADDAA112000791GA1011+005709069GF108991081051004501999999KA1120M+00381MA1999999101591MD1610011+9999REMSYN094AAXX  12184 02680 12470 82312 10036 20030 30159 40207 56001 69902 885// 333 10038 81619 88656;
0159026800999992000011221004+56920+018150FM-12+003999999V0202201N006210150019N0200001N1+00331+00241101991ADDGA1081+015009059GF108991081051012501999999MA1999999101511MD1810081+9999REMSYN076AAXX  12214 02680 42670 82212 10033 20024 30151 40199 58008 885// 333 88650;
0189026800999992000011300004+56920+018150FM-12+003999999V0202301N006210036019N0200001N1+00331+00241101941ADDAA106000091GA1081+003609059GF108991081051004501999999MA1999999101461MD1710051+9999REMSYN076AAXX  13004 02680 32470 82312 10033 20024 30146 40194 57005 885// 333 88612;EQDQ01  00002PRCP06
0159026800999992000011303004+56920+018150FM-12+003999999V0202301N006210024019N0200001N1+00331+00241101821ADDGA1081+002409069GF108991081061002501999999MA1999999101341MD1710121+9999REMSYN076AAXX  13034 02680 42370 82312 10033 20024 30134 40182 57012 886// 333 88708;
0248026800999992000011306004+56920+018150FM-12+003999999V0202301N006210018019N0090001N1+00331+00251101791ADDAA106000091AY121061AY221061GA1081+001809069GF108991081061001501999999IA1099KA1120N+00331MA1999999101311MD1610031+9999MW1101REMSYN094AAXX  13064 02680 31259 82312 10033 20025 30131 40179 56003 71022 886// 333 20033 31/// 88706;EQDQ01  00002PRCP06
0187026800999992000011309004+56920+018150FM-12+003999999V0202301N005110015019N0049001N1+00321+00251101881ADDAY121031AY221031GA1081+001509069GF108991081061001501999999MA1999999101401MD1210091+9999MW1101REMSYN082AAXX  13094 02680 41249 82310 10032 20025 30140 40188 52009 71022 886// 333 88792;
0217026800999992000011312004+56920+018150FM-12+003999999V0202301N004610015019N0045001N1+00291+00231101861ADDAA106000091AY121061AY221061GA1081+001509069GF108991081061001501999999MA1999999101381MD1710021+9999MW1101REMSYN082AAXX  13124 02680 31245 82309 10029 20023 30138 40186 57002 71022 886// 333 88792;EQDQ01  00002PRCP06
0187026800999992000011315004+56920+018150FM-12+003999999V0202301N004610015019N0045001N1+00241+00161101861ADDAY121031AY221031GA1071+001509069GF107991071061001501999999MA1999999101381MD1410001+9999MW1101REMSYN082AAXX  13154 02680 41245 72309 10024 20016 30138 40186 54000 71022 876// 333 87792;
0236026800999992000011318004+56920+018150FM-12+003999999V0202301N004110018019N0045001N1+00261+00181101931ADDAA106000091AY121061AY221061GA1081+001809069GF108991081061001501999999KA1120M+00331MA1999999101451MD1310071+9999MW1101REMSYN088AAXX  13184 02680 31245 82308 10026 20018 30145 40193 53007 71022 886// 333 10033 88706;EQDQ01  00002PRCP06
0163026800999992000011321004+56920+018150FM-12+003999999V0202401N003110033019N0100001N1+00191+00101102041ADDGA1081+003309059GF108991081051004501999999MA1999999101561MD1210111+9999REMSYN080    AAXX  13214 02680 42460 82406 10019 20010 30156 40204 52011 885// 333 88611;
0193026800999992000011400004+56920+018150FM-12+003999999V0202501N002110045019N0200001N1+00151-00101102121ADDAA199000091GA1081+004509059GF108991081051004501999999MA1999999101641MD1210081+9999REMSYN080    AAXX  14004 02680 32470 82504 10015 21010 30164 40212 52008 885// 333 88615;EQDQ01  00002PRCP99
0163026800999992000011403004+56920+018150FM-12+003999999V0202401N001010051019N0300001N1+00101-00221102201ADDGA1081+005109059GF108991081051004501999999MA1999999101711MD1210071+9999REMSYN080    AAXX  14034 02680 42480 82402 10010 21022 30171 40220 52007 885// 333 88617;
0224026800999992000011406004+56920+018150FM-12+003999999V0202001N000510045019N0300001N1+00141-00161102281ADDAA199000091GA1081+004509059GF108991081051004501999999IA1099KA1120N+00101MA1999999101791MD1210081+9999REMSYN092    AAXX  14064 02680 32480 82001 10014 21016 30179 40228 52008 885// 333 20010 31/// 88615;EQDQ01  00002PRCP99
0183026800999992000011409004+56920+018150FM-12+003999999V0201901N001010045019N0160001N1+00161-00181102401ADDGA1081+004509059GF108991081051004501999999MA1999999101921MD1110131+9999SA1+0309REMSYN092    AAXX  14094 02680 42466 81902 10016 21018 30192 40240 51013 885// 222// 00030 333 88694;
0193026800999992000011412004+56920+018150FM-12+003999999V0201801N000510045019N0150001N1+00161-00401102431ADDAA199000091GA1081+004509059GF108991081051004501999999MA1999999101951MD1210031+9999REMSYN080    AAXX  14124 02680 32465 81801 10016 21040 30195 40243 52003 885// 333 88694;EQDQ01  00002PRCP99
0163026800999992000011415004+56920+018150FM-12+003999999V0201301N001010045019N0150001N1+00101-00481102491ADDGA1081+004509059GF108991081051004501999999MA1999999102001MD1310051+9999REMSYN080    AAXX  14154 02680 42465 81302 10010 21048 30200 40249 53005 885// 333 88694;
0212026800999992000011418004+56920+018150FM-12+003999999V0201501N001010063019N0150001N1+00041-00581102581ADDAA199000091GA1081+006309059GF108991081051008001999999KA1120M+00171MA1999999102091MD1110091+9999REMSYN086    AAXX  14184 02680 32565 81502 10004 21058 30209 40258 51009 885// 333 10017 88621;EQDQ01  00002PRCP99
0163026800999992000011421004+56920+018150FM-12+003999999V0201801N000510066019N0150001N1+00031-00571102651ADDGA1081+006609059GF108991081051008001999999MA1999999102161MD1210071+9999REMSYN080    AAXX  14214 02680 42565 81801 10003 21057 30216 40265 52007 885// 333 88622;
0193026800999992000011500004+56920+018150FM-12+003999999V0209999C000010081019N0200001N1+00001-00641102641ADDAA199000091GA1081+008109059GF108991081051008001999999MA1999999102151MD1510011+9999REMSYN080    AAXX  15004 02680 32570 80000 10000 21064 30215 40264 55001 885// 333 88627;EQDQ01  00002PRCP99
0163026800999992000011503004+56920+018150FM-12+003999999V0209999C000010087019N0210001N1+00001-00661102641ADDGA1081+008709059GF108991081051008001999999MA1999999102151MD1410001+9999REMSYN080    AAXX  15034 02680 42571 80000 10000 21066 30215 40264 54000 885// 333 88629;
0230026800999992000011506004+56920+018150FM-12+003999999V0203201N00101002101CN0170001N1+00121-00251102611ADDAA199000091GA1021+002409079GF108991081051002501999999IA1019KA1120N+00001MA1999999102121MD1710031+9999REMSYN098    AAXX  15064 02680 32367 83202 10012 21025 30212 40261 57003 885// 333 20000 30/// 82708 88614;EQDQ01  00002PRCP99
0191026800999992000011509004+56920+018150FM-12+003999999V0203601N002110045019N0650001N1+00081+00001102661ADDAY151031AY221031GA1081+004509059GF108991081051004501999999MA1999999102171MD1210051+9999MW1021REMSYN086    AAXX  15094 02680 41487 83604 10008 20000 30217 40266 52005 70252 885// 333 88694;
0208026800999992000011512004+56920+018150FM-12+003999999V0203201N002112200019N0700001N1+00101-00291102571ADDAA106000791AY151061AY221061GA1011+004509029GF102991011011004501071011MA1999999102081MD1810091+9999MW1011REMSYN092    AAXX  15124 02680 11488 23204 10010 21029 30208 40257 58009 69901 70152 81171 333 81894;
0163026800999992000011515004+56920+018150FM-12+003999999V0203001N003112200019N0700001N1+00061-00421102491ADDGA1011+999999079GF101991011001999999071001MA1999999102001MD1610081+9999REMSYN080    AAXX  15154 02680 42988 13006 10006 21042 30200 40249 56008 81070 333 81399;
0199026800999992000011518004+56920+018150FM-12+003999999V0203101N003112200019N0750001N1+00101-00421102411ADDAA112000791GA1011+999999079GF101991011001999999031011KA1120M+00151MA1999999101921MD1810081+9999REMSYN092    AAXX  15184 02680 12989 13106 10010 21042 30192 40241 58008 69902 81031 333 10015 81399;
0163026800999992000011521004+56920+018150FM-12+003999999V0203001N003119999999N0700001N1+00101-00291102371ADDGA1051+999999079GF105991051001999999071001MA1999999101881MD1610041+9999REMSYN080    AAXX  15214 02680 42988 53006 10010 21029 30188 40237 56004 85070 333 85399;
0193026800999992000011600004+56920+018150FM-12+003999999V0203201N003112200019N0750001N1+00151-00201102301ADDAA199000091GA1011+999999079GF101991011001999999071001MA1999999101821MD1810061+9999REMSYN080    AAXX  16004 02680 32989 13206 10015 21020 30182 40230 58006 81070 333 81399;EQDQ01  00002PRCP99
0163026800999992000011603004+56920+018150FM-12+003999999V0203001N002612200019N0700001N1+00121-00171102261ADDGA1011+999999079GF101991011001999999071001MA1999999101771MD1710051+9999REMSYN080    AAXX  16034 02680 42988 13005 10012 21017 30177 40226 57005 81070 333 81399;
0224026800999992000011606004+56920+018150FM-12+003999999V0202901N003112200019N0700001N1+00111-00061102221ADDAA199000091GA1011+012509059GF101991011051012501031001IA1019KA1120N+00101MA1999999101731MD1810041+9999REMSYN092    AAXX  16064 02680 32688 12906 10011 21006 30173 40222 58004 81530 333 20010 30/// 81696;EQDQ01  00002PRCP99
0169026800999992000011609004+56920+018150FM-12+003999999V0202701N002612200019N0650001N1+00201+00071102111ADDGA1011+025009039GF104991011001999999071061MA1999999101631MD1710101+9999REMSYN086    AAXX  16094 02680 42987 42705 10020 20007 30163 40211 57010 81076 333 81399 84299;
0176026800999992000011612004+56920+018150FM-12+003999999V0202701N004119999999N0550001N1+00191+00091101811ADDAA199000091GF107991071001999999071999MA1999999101331MD1810301+9999REMSYN079    AAXX  16124 02680 32985 72708 10019 20009 30133 40181 58030 8707/ 33 87399;EQDQ01  00002PRCP99
0193026800999992000011615004+56920+018150FM-12+003999999V0202501N004619999999N0450001N1+00201+00121101341ADDAA199000091GA1071+999999079GF107991071001999999071999MA1999999100861MD1810471+9999REMSYN080    AAXX  16154 02680 32983 72509 10020 20012 30086 40134 58047 8707/ 333 87399;EQDQ01  00002PRCP99
0218026800999992000011618004+56920+018150FM-12+003999999V0202601N005719999999N0450001N1+00221+00141100841ADDAA199000091GA1011+025009039GF108991011001999999071071KA1120M+00241MA1999999100361MD1710501+9999REMSYN092    AAXX  16184 02680 32983 82611 10022 20014 30036 40084 57050 81077 333 10024 81399 88299;EQDQ01  00002PRCP99
0147026800999992000011621004+56920+018150FM-12+003999999V0202701N003112200019N0450001N1+00261+00131100441ADDGA1001+999999999GF100991001001999999001001MA1999999099961MD1810461+9999REMSYN064    AAXX  16214 02680 42983 02706 10026 20013 30996 40044 58046;
0177026800999992000011700004+56920+018150FM-12+003999999V0203001N005712200019N0450001N1+00431+00131100211ADDAA199000091GA1001+999999999GF100991001001999999001001MA1999999099741MD1610221+9999REMSYN064    AAXX  17004 02680 32983 03011 10043 20013 39974 40021 56022;EQDQ01  00002PRCP99
0163026800999992000011703004+56920+018150FM-12+003999999V0202301N005112200019N0450001N1+00461+00141100001ADDGA1011+004509029GF101991011011004501001001MA1999999099531MD1710211+9999REMSYN080    AAXX  17034 02680 42483 12310 10046 20014 39953 40000 57021 81100 333 81894;
0224026800999992000011706004+56920+018150FM-12+003999999V0203101N005112200019N0550001N1+00431+00111099841ADDAA199000091GA1011+999999079GF101991011001999999071001IA1019KA1120N+00221MA1999999099371MD1610161+9999REMSYN092    AAXX  17064 02680 32985 13110 10043 20011 39937 49984 56016 81070 333 20022 30/// 81399;EQDQ01  00002PRCP99
0183026800999992000011709004+56920+018150FM-12+003999999V0203201N005112200019N0700001N1+00501-00171099751ADDGA1011+008009059GF101991011021008001001001MA1999999099281MD1810091+9999SA1+0289REMSYN092    AAXX  17094 02680 42588 13210 10050 21017 39928 49975 58009 81200 222// 00028 333 81695;
0227026800999992000011712004+56920+018150FM-12+003999999V0203201N006212200019N0700001N1+00501-00571099591ADDAA199000091AY101061AY201061GA1011+012509089GF101991011091012501001001MA1999999099121MD1710161+9999MW1151REMSYN092    AAXX  17124 02680 31688 13212 10050 21057 39912 49959 57016 71500 81900 333 81896 81996;EQDQ01  00002PRCP99
0216026800999992000011715004+56920+018150FM-12+003999999V0203301N006712200019N0700001N1+00441-00671099571ADDAY111031AY201031GA1011+012509089GF101991999091012501001001MA1999999099101MD1510021+9999MW1161REMSYN092    AAXX  17154 02680 41688 13313 10044 21067 39910 49957 55002 71610 86900 333 81896 85996;EQDQ01+000062SCOTLC
0163026800999992000011721004+56920+018150FM-12+003999999V0203301N006210180019N0650001N1+00331-00721099631ADDGA1071+018009059GF107991071051017501999999MA1999999099161MD1010011+9999REMSYN080    AAXX  17214 02680 42787 73312 10033 21072 39916 49963 50001 875// 333 87656;
0193026800999992000011800004+56920+018150FM-12+003999999V0203201N007210180019N0650001N1+00281-00711099481ADDAA199000091GA1071+018009059GF107991071051017501999999MA1999999099011MD1710151+9999REMSYN080    AAXX  18004 02680 32787 73214 10028 21071 39901 49948 57015 875// 333 87656;EQDQ01  00002PRCP99
0163026800999992000011803004+56920+018150FM-12+003999999V0203301N007210138019N0650001N1+00241-00691099331ADDGA1071+013809059GF107991071051012501999999MA1999999098861MD1710151+9999REMSYN080    AAXX  18034 02680 42687 73314 10024 21069 39886 49933 57015 875// 333 87646;
0224026800999992000011806004+56920+018150FM-12+003999999V0203601N006710099019N0700001N1+00231-00631099351ADDAA199000091GA1071+009909059GF107991071051008001999999IA1019KA1120N+00201MA1999999098881MD1310021+9999REMSYN092    AAXX  18064 02680 32588 73613 10023 21063 39888 49935 53002 875// 333 20020 30/// 87633;EQDQ01  00002PRCP99
0163026800999992000011809004+56920+018150FM-12+003999999V0203401N006210080019N0650001N1+00271-00421099461ADDGA1071+008009059GF107991071051008001999999MA1999999098991MD1210111+9999REMSYN080    AAXX  18094 02680 42587 73412 10027 21042 39899 49946 52011 875// 333 87695;
0227026800999992000011812004+56920+018150FM-12+003999999V0203401N00671004201CN0550001N1+00271+00071099631ADDAA199000091AY121061AY221061GA1031+004509099GF107991071091004501999999MA1999999099161MD1210171+9999MW1151REMSYN092    AAXX  18124 02680 31485 73413 10027 20007 39916 49963 52017 71522 879// 333 83994 87695;EQDQ01  00002PRCP99
0219026800999992000011815004+56920+018150FM-12+003999999V0203501N006212200019N0550001N1+00061-00691100031ADDAY121031AY221031GA1011+004509099GA2011+004509089GF104991041091004501001001MA1999999099551MD1310391+9999MW1151REMSYN098    AAXX  18154 02680 41485 43512 10006 21069 39955 40003 53039 71522 84900 333 81994 81894 83695;
0212026800999992000011818004+56920+018150FM-12+003999999V0203601N006210111019N0550001N1-00031-00971100431ADDAA199000091GA1051+011109059GF105991051051012501001001KA1120M+00301MA1999999099951MD1210401+9999REMSYN086    AAXX  18184 02680 32685 53612 11003 21097 39995 40043 52040 85500 333 10030 85637;EQDQ01  00002PRCP99
0163026800999992000011821004+56920+018150FM-12+003999999V0203601N004610111019N0550001N1-00081-00821100671ADDGA1051+011109059GF105991051051012501001001MA1999999100181MD1310241+9999REMSYN080    AAXX  18214 02680 42685 53609 11008 21082 30018 40067 53024 85500 333 85637;
0208026800999992000011900004+56920+018150FM-12+003999999V0203501N006210099019N0200001N1-00151-00661100881ADDAA106000791AY121061AY221061GA1071+009909099GF107991071091008001999999MA1999999100401MD1210221+9999MW1851REMSYN092    AAXX  19004 02680 11570 73512 11015 21066 30040 40088 52022 69901 78522 879// 333 87933;
0191026800999992000011903004+56920+018150FM-12+003999999V0200101N006210111019N0550001N1-00161-00941101021ADDAY181031AY281031GA1071+011109059GF107991071051012501999999MA1999999100531MD1210131+9999MW1021REMSYN086    AAXX  19034 02680 41685 70112 11016 21094 30053 40102 52013 70288 875// 333 87637;
0239026800999992000011909004+56920+018150FM-12+003999999V0203601N00511004201CN0550001N1-00021-00451101261ADDAY111031AY201031GA1021+004509099GA2011+004509089GF107991071091004501999999MA1999999100771MD1210141+9999MW1871SA1+0129REMSYN110    AAXX  19094 02680 41485 73610 11002 21045 30077 40126 52014 78710 879// 222// 00012 333 81894 82994 84695;
0208026800999992000011912004+56920+018150FM-12+003999999V0203501N006210080019N0750001N1+00031-00811101341ADDAA106000591AY181061AY211061GA1061+008009059GF106991061051008001001011MA1999999100851MD1110081+9999MW1021REMSYN092    AAXX  19124 02680 11589 63512 10003 21081 30085 40134 51008 69951 70281 86501 333 86695;
0163026800999992000011915004+56920+018150FM-12+003999999V0203401N006212200019N0750001N1+00011-01041101511ADDGA1021+008009059GF102991021051008001001011MA1999999101021MD1210171+9999REMSYN080    AAXX  19154 02680 42589 23412 10001 21104 30102 40151 52017 82501 333 82695;
0195026800999992000011918004+56920+018150FM-12+003999999V0203401N005112200019N0750001N1+00081-00891101561ADDAA112000591GA1021+008009029GF102991021021008001001001KA1120M+00101MA1999999101071MD1110051+9999REMSYN088AAXX  19184 02680 12589 23410 10008 21089 30107 40156 51005 69952 82200 333 10010 82895;
0159026800999992000011921004+56920+018150FM-12+003999999V0203301N004110080019N0750001N1+00151-00581101541ADDGA1071+008009059GF107991071021008001999999MA1999999101051MD1010021+9999REMSYN076AAXX  19214 02680 42589 73308 10015 21058 30105 40154 50002 872// 333 87695;
0189026800999992000012000004+56920+018150FM-12+003999999V0203201N004112200019N0750001N1+00071-00531101371ADDAA199000091GA1021+999999079GF102991021001999999031001MA1999999100881MD1710171+9999REMSYN076AAXX  20004 02680 32989 23208 10007 21053 30088 40137 57017 82030 333 82399;EQDQ01  00002PRCP99
0236026800999992000012006004+56920+018150FM-12+003999999V0202801N004110300019N0550001N1+00231-00141100501ADDAA199000091GA1081+030009079GF108991081001999999071999IA1099KA1120N+00071MA1999999100011MD1710512+9999REMSYN088AAXX  20064 02680 32985 82808 10023 21014 30001 40050 57051 8807/ 333 20007 31/// 88360;EQDQ01+000512APC3  Q02  00002PRCP99
0165026800999992000012009004+56920+018150FM-12+003999999V0202901N00571021001CN0550001N1+00271-00111100231ADDGA1031+022509039GF108991081001022501071999MA1999999099761MD1610251+9999REMSYN082AAXX  20094 02680 42885 82911 10027 21011 39976 40023 56025 8807/ 333 83398 88399;
0195026800999992000012012004+56920+018150FM-12+003999999V0203101N00461999999CN0550001N1+00341-00071100051ADDAA199000091GA1051+025009039GF107991071001022501071999MA1999999099581MD1710181+9999REMSYN082AAXX  20124 02680 32885 73109 10034 21007 39958 40005 57018 8707/ 333 85399 85499;EQDQ01  00002PRCP99
0165026800999992000012015004+56920+018150FM-12+003999999V0203501N00571030001CN0650001N1+00241-00831100051ADDGA1021+008009069GF107991021051008001071011MA1999999099581MD1510001+9999REMSYN082AAXX  20154 02680 42587 73511 10024 21083 39958 40005 55000 82571 333 82695 86399;
0214026800999992000012018004+56920+018150FM-12+003999999V0203601N004112200019N0700001N1+00071-01261100041ADDAA199000091GA1021+008009089GF104991021021008001091001KA1120M+00401MA1999999099571MD1710011+9999REMSYN088AAXX  20184 02680 32588 43608 10007 21126 39957 40004 57001 82290 333 10040 82895 83399;EQDQ01  00002PRCP99
0187026800999992000012021004+56920+018150FM-12+003999999V0203601N005112200019N0750001N1-00081-01401099961ADDAY181031AY211031GA1011+008009029GF101991011011008001001001MA1999999099481MD1610091+9999MW1021REMSYN082AAXX  20214 02680 41589 13610 11008 21140 39948 49996 56009 70281 81100 333 81895;
0204026800999992000012100004+56920+018150FM-12+003999999V0203601N006212200019N0750001N1-00101-01321099931ADDAA106000791AY181061AY211061GA1041+008009029GF104991041021008001001001MA1999999099451MD1710031+9999MW1021REMSYN088AAXX  21004 02680 11589 43612 11010 21132 39945 49993 57003 69901 70281 84200 333 84895;
0241026800999992000012106004+56920+018150FM-12+003999999V0203501N00621007501CN0300001N1-00271-01271100051ADDAA112000791AY181061AY221061GA1031+009909099GF105991051091008001001001IA1149KA1120N-00271MA1999999099571MD1310101+9999MW1871REMSYN106AAXX  21064 02680 11580 53512 11027 21127 39957 40005 53010 69902 78782 85900 333 21027 34/// 83933 82633;
0207026800999992000012109004+56920+018150FM-12+003999999V0200201N006210045019N0020001N1-00391-00521100411ADDAY181031AY231031GA1071+004509099GF107991071091004501999999MA1999999099931MD1310361+9999MW1861SA1+0029REMSYN094AAXX  21094 02680 41420 70212 11039 21052 39993 40041 53036 78683 879// 222// 00002 333 87994;
0204026800999992000012112004+56920+018150FM-12+003999999V0200201N005710080019N0002001N1-00231-00921100811ADDAA106000191AY181061AY231061GA1071+008009099GF107991071091008001999999MA1999999100331MD1210401+9999MW1861REMSYN088AAXX  21124 02680 11502 70211 11023 21092 30033 40081 52040 69911 78683 879// 333 87995;
0193026800999992000012115004+56920+018150FM-12+003999999V0203601N005112200019N0450001N1-00321-00891101061ADDAY181031AY231031GA1011+008009089GF103991031091008001001001MA1999999100581MD1110251+9999MW1161REMSYN088AAXX  21154 02680 41583 33610 11032 21089 30058 40106 51025 71683 83900 333 81895 82995;
0229026800999992000012118004+56920+018150FM-12+003999999V0203601N00461012001CN0350001N1-00331-01201101281ADDAA112001091AY181061AY231061GA1011+011109089GF105991051091012501001001KA1120M-00231MA1999999100791MD1110211+9999MW1851REMSYN100AAXX  21184 02680 11681 53609 11033 21120 30079 40128 51021 69992 78583 85900 333 11023 81837 84937;
0119026800999992000012121004+56920+018150FM-12+003999999V0203601N004112200019N0650001N1+99999+99999999999ADDGF102991999999012501999999REMSYN081AAXX  21214 02680 41687 23608 1103 21125 30085 40134 51006 70181 82200 333 82896;
0210026800999992000012200004+56920+018150FM-12+003999999V0203301N004112200019N0750001N1-00401-01331101341ADDAA106000791AY181061AY211061GA1011+012509089GF104991011021012501001061MA1999999100851MD1010001+9999MW1031REMSYN094AAXX  22004 02680 11689 43308 11040 21133 30085 40134 50000 69901 70381 81206 333 81896 84299;
0165026800999992000012203004+56920+018150FM-12+003999999V0203601N003119999999N0750001N1-00411-01731101201ADDGA1011+025009039GF108991011001999999031071MA1999999100711MD1810141+9999REMSYN082AAXX  22034 02680 42989 83606 11041 21173 30071 40120 58014 81037 333 81399 88299;
0243026800999992000012206004+56920+018150FM-12+003999999V0203301N002612200019N0750001N1-00451-01791101121ADDAA112000791AJ199992999999999GA1011+017509029GF101991011011017501031001IA1219KA1120N-00451MA1999999100631MD1610081+9999REMSYN094AAXX  22064 02680 12789 13305 11045 21179 30063 40112 56008 69902 81130 333 21045 45998 81897;EQDQ01  09972SNDP  
0159026800999992000012209004+56920+018150FM-12+003999999V0200401N001012200019N0750001N1-00501-01541101121ADDGA1011+012509029GF101991011021012501001011MA1999999100631MD1410001+9999REMSYN076AAXX  22094 02680 42689 10402 11050 21154 30063 40112 54000 81201 333 81896;
0189026800999992000012212004+56920+018150FM-12+003999999V0200301N001012200019N0750001N1-00331-01651101151ADDAA199000091GA1011+012509029GF102991011021012501001011MA1999999100661MD1010031+9999REMSYN076AAXX  22124 02680 32689 20302 11033 21165 30066 40115 50003 81201 333 81896;EQDQ01  00002PRCP99
0165026800999992000012215004+56920+018150FM-12+003999999V0200301N00211075001CN0750001N1-00471-01811101211ADDGA1011+012509069GF108991011051012501001071MA1999999100721MD1310061+9999REMSYN082AAXX  22154 02680 42689 80304 11047 21181 30072 40121 53006 81507 333 81696 88299;
0208026800999992000012218004+56920+018150FM-12+003999999V0200301N001512200019N0750001N1-00611-01721101241ADDAA199000091GA1011+012509059GF101991011051012501001011KA1120M-00301MA1999999100751MD1110031+9999REMSYN082AAXX  22184 02680 32689 10303 11061 21172 30075 40124 51003 81501 333 11030 81696;EQDQ01  00002PRCP99
0159026800999992000012221004+56920+018150FM-12+003999999V0200301N001519999999N0750001N1-00521-01581101311ADDGA1081+999999089GF108991001001999999001071MA1999999100821MD1210071+9999REMSYN076AAXX  22214 02680 42989 80303 11052 21158 30082 40131 52007 80007 333 88299;
0189026800999992000012300004+56920+018150FM-12+003999999V0200201N001519999999N0600001N1-00481-01541101401ADDAA199000091GA1081+999999089GF108991001001999999001071MA1999999100911MD1210091+9999REMSYN076AAXX  23004 02680 32986 80203 11048 21154 30091 40140 52009 80007 333 88299;EQDQ01  00002PRCP99
0165026800999992000012303004+56920+018150FM-12+003999999V0200301N00151030001CN0550001N1-00611-01341101451ADDGA1011+008009089GF108991011021008001031999MA1999999100961MD1110051+9999REMSYN082AAXX  23034 02680 42585 80303 11061 21134 30096 40145 51005 8123/ 333 81895 87399;
0259026800999992000012306004+56920+018150FM-12+003999999V0203501N00211030001CN0550001N1-00301-01411101491ADDAA199000091AJ199992999999999GA1011+008009069GF108991011051008001031999IA1219KA1120N-00701MA1999999101001MD1210041+9999REMSYN094AAXX  23064 02680 32585 83504 11030 21141 30100 40149 52004 8153/ 333 21070 45998 81695 88399;EQDQ01  00002PRCP99Q02  09972SNDP  
0215026800999992000012309004+56920+018150FM-12+003999999V0203501N00151030001CN0300001N1-00311-00781101581ADDAY121031AY221031GA1011+004509099GA2011+004509089GF108991021091004501071999MA1999999101091MD1210091+9999MW1851REMSYN094AAXX  23094 02680 41480 83503 11031 21078 30109 40158 52009 78522 8297/ 333 81894 81994 88499;
0210026800999992000012312004+56920+018150FM-12+003999999V0203201N00261004201CN0300001N1-00301-00401101521ADDAA106000191AY121061AY221061GA1041+004509089GF107991061021004501071999MA1999999101031MD1810061+9999MW1261REMSYN094AAXX  23124 02680 11480 73205 11030 21040 30103 40152 58006 69921 72622 8627/ 333 84894 87399;
0193026800999992000012315004+56920+018150FM-12+003999999V0200201N002112200019N0700001N1-00521-00691101651ADDAY181031AY221031GA1011+002509089GF102991021091002501061001MA1999999101161MD1310131+9999MW1011REMSYN088AAXX  23154 02680 41388 20204 11052 21069 30116 40165 53013 70182 82960 333 81893 81994;
0169026800999992000012317004+56920+018150FM-12+003999999V0200201N002112200019N0700001N1+99999+99999101791ADDAA112002091GA1001+999999999GF100991001001999999001001KA1999M-00271MA1999999101301REMSYN076AAXX  23174 02680 11988 00204 188/8 21129 30130 40179 60022 70/82 333 11027;
0211026800999992000012318004+56920+018150FM-12+003999999V0200201N002112200019N0700001N1-00601-01291101791ADDAA112002091AY181061AY221061GA1001+999999999GF100991001001999999001001KA1999M-00271MA1999999101301MD1310141+9999MW1021REMSYN082AAXX  23184 02680 11988 00204 11060 21129 30130 40179 53014 60022 70282 333 11027;
0159026800999992000012321004+56920+018150FM-12+003999999V0200201N002112200019N0700001N1-00631-01211101881ADDGA1011+008009029GF101991011021008001001001MA1999999101391MD1110091+9999REMSYN076AAXX  23214 02680 42588 10204 11063 21121 30139 40188 51009 81200 333 81895;
0170026800999992000012400004+56920+018150FM-12+003999999V0200201N002112200019N0700001N1-00541-01111101931ADDAA199000021GA1011+004509029GF101991011011004501001001MA1999999101441MD1110051+9999REMSYN076AAXX  24004 02680 32488 10204 11054 21111 30144 40193 51005 81100 333 81894;
0159026800999992000012403004+56920+018150FM-12+003999999V0200201N002112200019N0700001N1-00541-01041101951ADDGA1021+007209059GF102991021051008001001001MA1999999101461MD1210021+9999REMSYN076AAXX  24034 02680 42588 20204 11054 21104 30146 40195 52002 82500 333 82624;
0237026800999992000012406004+56920+018150FM-12+003999999V0203601N002112200019N0700001N1-00391-01181101951ADDAA199000091AJ100019199999999GA1011+006309059GF101991011051008001001011IA1229KA1120N-00751MA1999999101461MD1410001+9999REMSYN088AAXX  24064 02680 32588 13604 11039 21118 30146 40195 54000 81501 333 21075 46001 81621;EQDQ01  00002PRCP99
0185026800999992000012409004+56920+018150FM-12+003999999V0203201N00211075001CN0650001N1-00291-01431101991ADDGA1011+012509089GF108991011011012501001071MA1999999101501MD1110041+9999SA1-0029REMSYN094AAXX  24094 02680 42687 83204 11029 21143 30150 40199 51004 81107 222// 01002 333 81896 88299;
0195026800999992000012412004+56920+018150FM-12+003999999V0203001N002119999999N0650001N1-00241-01471101981ADDAA199000091GA1011+025009039GF107991011001999999051081MA1999999101491MD1810011+9999REMSYN082AAXX  24124 02680 32987 73004 11024 21147 30149 40198 58001 81058 333 81399 87299;EQDQ01  00002PRCP99
0187026800999992000012415004+56920+018150FM-12+003999999V0202601N002119999999N0700001N1-00301-01411101941ADDGA1011+025009039GA2031+025009049GF108991031001999999071071MA1999999101451MD1710041+9999REMSYN088AAXX  24154 02680 42988 82604 11030 21141 30145 40194 57004 83077 333 81399 83499 88299;
0214026800999992000012418004+56920+018150FM-12+003999999V0202601N002119999999N0650001N1-00261-00601101941ADDAA199000091GA1011+025009049GF108991011001999999011071KA1120M-00241MA1999999101451MD1010001+9999REMSYN088AAXX  24184 02680 32987 82604 11026 21060 30145 40194 50000 81017 333 11024 81499 88299;EQDQ01  00002PRCP99
0189026800999992000012500004+56920+018150FM-12+003999999V0202901N003110027019N0600001N1-00121-00211101801ADDAA199000091GA1081+002709069GF108991081061002501999999MA1999999101311MD1710081+9999REMSYN076AAXX  25004 02680 32386 82906 11012 21021 30131 40180 57008 886// 333 88709;EQDQ01  00002PRCP99
0239026800999992000012506004+56920+018150FM-12+003999999V0203201N003110039019N0250001N1-00031-00171101651ADDAA112000791AJ100019199999999AY121061AY221061GA1071+003909099GF107991071091004501999999IA1229MA1999999101161MD1610081+9999MW1851REMSYN100AAXX  25064 02680 11475 73206 11003 21017 30116 40165 56008 69902 78522 879// 333 279// 46001 87913;
0187026800999992000012509004+56920+018150FM-12+003999999V0203201N002610045019N0200001N1-00081-00201101671ADDAY181031AY221031GA1081+004509059GF108991081051004501999999MA1999999101181MD1010021+9999MW1711REMSYN082AAXX  25094 02680 41470 83205 11008 21020 30118 40167 50002 77182 885// 333 88694;
0204026800999992000012512004+56920+018150FM-12+003999999V0203101N003110045019N0350001N1-00101-00241101571ADDAA106000591AY181061AY271061GA1081+004509059GF108991081051004501999999MA1999999101081MD1810101+9999MW1021REMSYN088AAXX  25124 02680 11481 83106 11010 21024 30108 40157 58010 69941 70287 885// 333 88694;
0165026800999992000012515004+56920+018150FM-12+003999999V0202901N00361030001CN0300001N1+00051-00111101431ADDGA1011+004509069GF107991011051004501071011MA1999999100941MD1710141+9999REMSYN082AAXX  25154 02680 42480 72907 10005 21011 30094 40143 57014 81571 333 81694 87399;
0214026800999992000012518004+56920+018150FM-12+003999999V0202901N004110180019N0500001N1+00181-00211101321ADDAA112000591GA1081+018009079GF108991081999017501071999KA1120M+00201MA1999999100841MD1710101+9999REMSYN088AAXX  25184 02680 12784 82908 10018 21021 30084 40132 57010 69942 8807/ 333 10020 88356;EQDQ01+000002SCOLCG
0143026800999992000012521004+56920+018150FM-12+003999999V0203201N004112200019N0500001N1+00151-00151101391ADDGA1001+999999999GF100991001001999999001001MA1999999100901MD1310061+9999REMSYN060AAXX  25214 02680 42984 03208 10015 21015 30090 40139 53006;
0189026800999992000012600004+56920+018150FM-12+003999999V0203201N003619999999N0450001N1+00111+00001101401ADDAA199000091GA1081+999999089GF108991001001999999001071MA1999999100911MD1210011+9999REMSYN076AAXX  26004 02680 32983 83207 10011 20000 30091 40140 52001 80007 333 88299;EQDQ01  00002PRCP99
0159026800999992000012603004+56920+018150FM-12+003999999V0203101N003112200019N0450001N1+00041-00041101381ADDGA1011+999999019GF101991001001999999001011MA1999999100891MD1610021+9999REMSYN076AAXX  26034 02680 42983 13106 10004 21004 30089 40138 56002 80001 333 81099;
0243026800999992000012606004+56920+018150FM-12+003999999V0202901N003112200019N0450001N1+00041-00031101311ADDAA199000091AJ100019199999999GA1011+022509039GF103991031001022501071001IA1309KA1120N+00041MA1999999100821MD1610071+9999REMSYN094AAXX  26064 02680 32883 32906 10004 21003 30082 40131 56007 83070 333 20004 42001 81398 83399;EQDQ01  00002PRCP99
0179026800999992000012609004+56920+018150FM-12+003999999V0202701N003612200019N0550001N1+00131+00051101191ADDGA1011+999999079GF101991011001999999081011MA1999999100701MD1810121+9999SA1+0109REMSYN088AAXX  26094 02680 42985 12707 10013 20005 30070 40119 58012 81081 222// 00010 333 81399;
0189026800999992000012612004+56920+018150FM-12+003999999V0202701N004112200019N0550001N1+00321-00041101001ADDAA199000091GA1011+999999079GF101991011001999999031011MA1999999100521MD1710181+9999REMSYN076AAXX  26124 02680 32985 12708 10032 21004 30052 40100 57018 81031 333 81399;EQDQ01  00002PRCP99
0159026800999992000012615004+56920+018150FM-12+003999999V0202901N003112200019N0600001N1+00301+00001100891ADDGA1011+999999079GF101991011001999999081001MA1999999100421MD1610101+9999REMSYN076AAXX  26154 02680 42986 12906 10030 20000 30042 40089 56010 81080 333 81399;
0208026800999992000012618004+56920+018150FM-12+003999999V0202901N003112200019N0450001N1+00251+00131100871ADDAA199000091GA1011+999999079GF101991011001999999031001KA1120M+00381MA1999999100401MD1810021+9999REMSYN082AAXX  26184 02680 32983 12906 10025 20013 30040 40087 58002 81030 333 10038 81399;EQDQ01  00002PRCP99
0159026800999992000012621004+56920+018150FM-12+003999999V0203101N003612200019N0400001N1+00151+00081100861ADDGA1011+008009059GF101991011051008001001001MA1999999100391MD1710011+9999REMSYN076AAXX  26214 02680 42582 13107 10015 20008 30039 40086 57001 81500 333 81695;
0189026800999992000012700004+56920+018150FM-12+003999999V0203001N002612200019N0400001N1+00131+00071100971ADDAA199000091GA1031+001509069GF103991031061008001001001MA1999999100471MD1210081+9999REMSYN076AAXX  27004 02680 32582 33005 10013 20007 30047 40097 52008 83600 333 83705;EQDQ01  00002PRCP99
0194026800999992000012703004+56920+018150FM-12+003999999V0203201N002112200019N0450001N1+00121+00061999999ADDGA1011+999999079GF101991011001999999031011MA1999999100541MD1110071+9999REMSYN076AAXX  27034 02680 42983 13204 10012 20006 30054 40203 51007 81031 333 81399;EQDQ01+102033APOSLPQ02 102033APOSLP
0259026800999992000012706004+56920+018150FM-12+003999999V0203001N002619999999N0500001N1+00121+00061101071ADDAA199000091AJ199992999999999GA1011+025009039GF107991071001999999071999IA1259KA1120N+00121MA1999999100581MD1110041+9999REMSYN094AAXX  27064 02680 32984 73005 10012 20006 30058 40107 51004 8707/ 333 20012 41998 81399 88499;EQDQ01  00002PRCP99Q02  09972SNDP  
0159026800999992000012709004+56920+018150FM-12+003999999V0203001N00261075001CN0550001N1+00161+00121100981ADDGA1081+999999019GF108991081001999999011999MA1999999100501MD1810081+9999REMSYN076AAXX  27094 02680 42985 83005 10016 20012 30050 40098 58008 8801/ 333 88499;
0195026800999992000012712004+56920+018150FM-12+003999999V0202501N00261030001CN0500001N1+00181+00141100751ADDAA199000091GA1011+002509079GF108991011061002501071071MA1999999100271MD1710231+9999REMSYN082AAXX  27124 02680 32384 82505 10018 20014 30027 40075 57023 81677 333 81793 88299;EQDQ01  00002PRCP99
0187026800999992000012715004+56920+018150FM-12+003999999V0202501N003119999999N0450001N1+00161+00101100401ADDGA1031+025009039GA2061+025009049GF108991061001999999071071MA1999999099931MD1710341+9999REMSYN088AAXX  27154 02680 42983 82506 10016 20010 39993 40040 57034 86077 333 83399 86499 88299;
0208026800999992000012718004+56920+018150FM-12+003999999V0202501N005110066019N0450001N1+00271+00211100111ADDAA199000091GA1081+006609059GF108991081051008001999999KA1120M+00321MA1999999099641MD1710291+9999REMSYN082AAXX  27184 02680 32583 82510 10027 20021 39964 40011 57029 885// 333 10032 88622;EQDQ01  00002PRCP99
0165026800999992000012721004+56920+018150FM-12+003999999V0202601N00621075001CN0400001N1+00271+00211099821ADDGA1021+008009069GF108991021051008001001071MA1999999099351MD1710291+9999REMSYN082AAXX  27214 02680 42582 82612 10027 20021 39935 49982 57029 82507 333 82695 88299;
0189026800999992000012800004+56920+018150FM-12+003999999V0202901N006219999999N0450001N1+00321+00041099701ADDAA199000091GA1011+999999079GF108991011001999999031001MA1999999099231MD1710121+9999REMSYN076AAXX  28004 02680 32983 82912 10032 20004 39923 49970 57012 81030 333 81399;EQDQ01  00002PRCP99
0165026800999992000012803004+56920+018150FM-12+003999999V0202701N005119999999N0450001N1+00301-00211099671ADDGA1011+025009039GF106991011001999999071081MA1999999099201MD1710031+9999REMSYN082AAXX  28034 02680 42983 62710 10030 21021 39920 49967 57003 81078 333 81399 86299;
0226026800999992000012806004+56920+018150FM-12+003999999V0202701N005119999999N0350001N1+00261-00121099741ADDAA199000091GA1011+025009039GF107991071001999999071999IA1099KA1120N+00261MA1999999099271MD1310071+9999REMSYN094AAXX  28064 02680 32981 72710 10026 21012 39927 49974 53007 8707/ 333 20026 31/// 81399 87499;EQDQ01  00002PRCP99
0179026800999992000012809004+56920+018150FM-12+003999999V0202701N004112200019N0400001N1+00321-00121099851ADDGA1011+999999079GF101991011001999999031011MA1999999099381MD1110111+9999SA1+0209REMSYN088AAXX  28094 02680 42982 12708 10032 21012 39938 49985 51011 81031 222// 00020 333 81399;
0195026800999992000012812004+56920+018150FM-12+003999999V0202701N004119999999N0400001N1+00441-00021099891ADDAA199000091GA1011+025009039GF108991011001999999031071MA1999999099421MD1110041+9999REMSYN082AAXX  28124 02680 32982 82708 10044 21002 39942 49989 51004 81037 333 81399 88299;EQDQ01  00002PRCP99
0159026800999992000012815004+56920+018150FM-12+003999999V0202701N002619999999N0300001N1+00231-00091099901ADDGA1081+999999079GF108991081001999999071999MA1999999099431MD1210011+9999REMSYN076AAXX  28154 02680 42980 82705 10023 21009 39943 49990 52001 8807/ 333 88399;
0208026800999992000012818004+56920+018150FM-12+003999999V0202201N002119999999N0300001N1+00131+00071099881ADDAA199000091GA1081+999999089GF109991091999999999999999KA1120M+00451MA1999999099401MD1810031+9999REMSYN082AAXX  28184 02680 32980 92204 10013 20007 39940 49988 58003 80007 333 10045 88299;EQDQ01  00002PRCP99
0159026800999992000012821004+56920+018150FM-12+003999999V0202201N002610021019N0150001N1+00171+00121099731ADDGA1081+002109069GF108991081061002501999999MA1999999099261MD1810141+9999REMSYN076AAXX  28214 02680 42365 82205 10017 20012 39926 49973 58014 886// 333 88707;
0204026800999992000012900004+56920+018150FM-12+003999999V0202401N003110018019N0045001N1+00231+00181099511ADDAA106000191AY151061AY221061GA1081+001809069GF108991081061001501999999MA1999999099041MD1210221+9999MW1101REMSYN088AAXX  29004 02680 11245 82406 10023 20018 39904 49951 52022 69921 71052 886// 333 88706;
0187026800999992000012903004+56920+018150FM-12+003999999V0202301N004110039019N0048001N1+00221+00171099311ADDAY121031AY221031GA1081+003909059GF108991081051004501999999MA1999999098841MD1710201+9999MW1101REMSYN082AAXX  29034 02680 41448 82308 10022 20017 39884 49931 57020 71022 885// 333 88613;
0235026800999992000012906004+56920+018150FM-12+003999999V0202201N005710012019N0025001N1+00231+00181099071ADDAA112000591AY161061AY221061GA1081+001209069GF108991081061001501999999IA1099KA1120N+00131MA1999999098601MD1810241+9999MW1101REMSYN100AAXX  29064 02680 11225 82211 10023 20018 39860 49907 58024 69952 71062 886// 333 20013 31/// 88704;
0187026800999992000012909004+56920+018150FM-12+003999999V0202001N007210025019N0060001N1+00221+00191098591ADDAY121031AY221031GA1081+002509069GF108991081061002501999999MA1999999098131MD1710471+9999MW1101REMSYN082AAXX  29094 02680 41356 82014 10022 20019 39813 49859 57047 71022 886// 333 88793;
0204026800999992000012912004+56920+018150FM-12+003999999V0202001N007210015019N0028001N1+00211+00171098011ADDAA106000191AY121061AY221061GA1081+001509069GF108991081061001501999999MA1999999097551MD1810581+9999MW1531REMSYN088AAXX  29124 02680 11228 82014 10021 20017 39755 49801 58058 69911 75322 886// 333 88792;
0187026800999992000012915004+56920+018150FM-12+003999999V0202001N008210015019N0060001N1+00201+00161097301ADDAY151031AY251031GA1081+001509069GF108991081071001501999999MA1999999096841MD1710711+9999MW1691REMSYN082AAXX  29154 02680 41256 82016 10020 20016 39684 49730 57071 76955 887// 333 88792;
0223026800999992000012918004+56920+018150FM-12+003999999V0202201N006210009019N0060001N1+00361+00321096891ADDAA112002091AY161061AY251061GA1081+000909069GF108991081061000751999999KA1120M+00381MA1999999096431MD1610411+9999MW1101REMSYN094AAXX  29184 02680 11156 82212 10036 20032 39643 49689 56041 60022 71065 886// 333 10038 88703;
0159026800999992000012921004+56920+018150FM-12+003999999V0202301N004610111019N0220001N1+00321+00281097021ADDGA1061+011109059GF106991061051012501001001MA1999999096561MD1310131+9999REMSYN076AAXX  29214 02680 42672 62309 10032 20028 39656 49702 53013 86500 333 86637;
0170026800999992000013000004+56920+018150FM-12+003999999V0202301N006712200019N0200001N1+00301+00241096791ADDAA199000021GA1011+008009059GF101991011051008001001001MA1999999096341MD1810221+9999REMSYN076AAXX  30004 02680 32570 12313 10030 20024 39634 49679 58022 81500 333 81695;
0159026800999992000013003004+56920+018150FM-12+003999999V0202301N008210300019N0300001N1+00321+00071096441ADDGA1081+030009079GF108991081001999999071999MA1999999095991MD1710351+9999REMSYN076AAXX  30034 02680 42980 82316 10032 20007 39599 49644 57035 8807/ 333 88360;
0220026800999992000013006004+56920+018150FM-12+003999999V0202401N007219999999N0250001N1+00291+00151096411ADDAA199000091GA1041+999999079GF105991051001999999071001IA1019KA1120N+00291MA1999999095961MD1510031+9999REMSYN088AAXX  30064 02680 32975 52414 10029 20015 39596 49641 55003 85070 333 20029 30/// 84399;EQDQ01  00002PRCP99
0193026800999992000013009004+56920+018150FM-12+003999999V0202701N00571021001CN0290001N1+00381+00031096901ADDAY161031AY221031GA1021+022509039GF107991071001022501071999MA1999999096441MD1310481+9999MW1601REMSYN088AAXX  30094 02680 41879 72711 10038 20003 39644 49690 53048 76062 8707/ 333 82398 87399;
0208026800999992000013012004+56920+018150FM-12+003999999V0203101N006219999999N0400001N1+00371-00421097801ADDAA106000791AY161061AY221061GA1071+999999079GF107991071001999999071999MD1210901+9999MW1021REMSYN088AAXX  30124 02680 11982 73112 10037 21042 39734 49780 52090 69901 70262 8707/ 333 87399;EQDQ01+097343APOSP 
0163026800999992000013015004+56920+018150FM-12+003999999V0203101N007212200019N0500001N1+00301-00991098661ADDGA1011+999999079GF101991011001999999071001MD1210861+9999REMSYN076AAXX  30154 02680 42984 13114 10030 21099 33982 49866 52086 81070 333 81399;EQDQ01+039821APOSP 
0183026800999992000013018004+56920+018150FM-12+003999999V0203101N006712200019N0500001N1+00191-01261099381ADDAA112000791GA1001+999999999GF100991001001999999001001KA1999M+00401MA1999999098911MD1210711+9999REMSYN076AAXX  30184 02680 12984 03113 10019 21126 39891 49938 52071 69902 333 10040;
0143026800999992000013021004+56920+018150FM-12+003999999V0203301N005112200019N0500001N1+00071-01491099861ADDGA1001+999999999GF100991001001999999001001MA1999999099381MD1210471+9999REMSYN060AAXX  30214 02680 42984 03310 10007 21149 39938 49986 52047;
0173026800999992000013100004+56920+018150FM-12+003999999V0202901N003112200019N0500001N1-00011-01601099951ADDAA199000091GA1001+999999999GF100991001001999999001001MA1999999099471MD1110091+9999REMSYN060AAXX  31004 02680 32984 02906 11001 21160 39947 49995 51009;EQDQ01  00002PRCP99
0178026800999992000013103004+56920+018150FM-12+003999999V0202101N000510210019N0500001N1-00101-01681099741ADDGA1081+021009079GF108991081999022501071999MA1999999099261MD1810211+9999REMSYN076AAXX  31034 02680 42884 82101 11010 21168 39926 49974 58021 8807/ 333 88357;EQDQ01+000002SCOLCG
0271026800999992000013106004+56920+018150FM-12+003999999V0201501N002110225019N0030001N1-00241-01801099241ADDAA112000191AJ199993999999999AY121061AY201061GA1081+022509029GF108991081001022501021999IA1239KA1120N-00241MA1999999098761MD1710501+9999MW1731REMSYN100AAXX  31064 02680 11830 81504 11024 21180 39876 49924 57050 69922 77320 8802/ 333 21024 47997 88598;EQDQ01  09982SNDP  
0207026800999992000013109004+56920+018150FM-12+003999999V0200701N003610015019N0016001N1-00201-00231099001ADDAY171031AY231031GA1081+001509069GF108991081071001501999999MA1999999098521MD1610241+9999MW1731SA1+0169REMSYN094AAXX  31094 02680 41216 80707 11020 21023 39852 49900 56024 77373 887// 222// 00016 333 88792;
0210026800999992000013112004+56920+018150FM-12+003999999V0200701N00411001501CN0300001N1-00041-00081099411ADDAA106004191AY171061AY231061GA1061+001509079GF107991071091001501999999MA1999999098931MD1210411+9999MW1861REMSYN094AAXX  31124 02680 11280 70708 11004 21008 39893 49941 52041 60041 78673 879// 333 86792 81993;
0193026800999992000013115004+56920+018150FM-12+003999999V0203201N001010300019N0750001N1-00081-00351100321ADDAY181031AY231031GA1011+004509089GF105991041091004501031001MA1999999099841MD1210911+9999MW1021REMSYN088AAXX  31154 02680 41489 53202 11008 21035 39984 40032 52091 70283 84930 333 81894 81994;
0223026800999992000013118004+56920+018150FM-12+003999999V0202501N002610081019N0750001N1+00001-00301100701ADDAA112004191AY181061AY231061GA1081+008109059GF108991081051008001999999KA1120M+00201MA1999999100221MD1110381+9999MW1021REMSYN094AAXX  31184 02680 11589 82505 10000 21030 30022 40070 51038 60042 70283 885// 333 10020 88627;
0159026800999992000013121004+56920+018150FM-12+003999999V0202701N005110042019N0700001N1-00081-00301100821ADDGA1081+004209059GF108991081051004501999999MA1999999100341MD1210121+9999REMSYN076AAXX  31214 02680 42488 82710 11008 21030 30034 40082 52012 885// 333 88614;
0176026800999992000020100004+56920+018150FM-12+003999999V0202701N00461002101CN0650001N1+00021-00091100801ADDAA199000021GA1021+002409079GF108991081051002501999999MA1999999100321MD1810021+9999REMSYN082AAXX  01004 02680 32387 82709 10002 21009 30032 40080 58002 885// 333 82708 88656;
0193026800999992000020103004+56920+018150FM-12+003999999V0202701N00411001201CN0100001N1+00051+00021100761ADDAY121031AY221031GA1041+001209079GF108991081071001501999999MA1999999100281MD1710041+9999MW1711REMSYN088AAXX  01034 02680 41260 82708 10005 20002 30028 40076 57004 77122 887// 333 84704 88708;
0252026800999992000020106004+56920+018150FM-12+003999999V0202901N003110030019N0300001N1+00141+00111100791ADDAA112003091AJ100029199999999AY171061AY221061GA1081+003009059GF108991081051004501999999IA1309KA1120N-00091MA1999999100311MD1010031+9999MW1021REMSYN100AAXX  01064 02680 11480 82906 10014 20011 30031 40079 50003 60032 70272 885// 333 21009 42002 88610;
0165026800999992000020109004+56920+018150FM-12+003999999V0203201N00101004201CN0750001N1+00111+00081100881ADDGA1021+004509069GF106991061051004501071001MA1999999100401MD1110091+9999REMSYN082AAXX  01094 02680 42489 63202 10011 20008 30040 40088 51009 86570 333 82694 86695;
0176026800999992000020112004+56920+018150FM-12+003999999V0202401N001012200019N0500001N1+00241-00081100771ADDAA199000021GA1011+004509089GF104991011011004501051011MA1999999100301MD1810101+9999REMSYN082AAXX  01124 02680 32484 42402 10024 21008 30030 40077 58010 81151 333 81894 83399;
0178026800999992000020115004+56920+018150FM-12+003999999V0202001N001510225019N0400001N1+00131+00041100561ADDGA1081+022509079GF108991081999022501071999MA1999999100081MD1710221+9999REMSYN076AAXX  01154 02680 42882 82003 10013 20004 30008 40056 57022 8807/ 333 88398;EQDQ01+000002SCOLCG
0223026800999992000020118004+56920+018150FM-12+003999999V0201501N002610027019N0030001N1+00041-00011100241ADDAA112001091AY161061AY221061GA1081+002709069GF108991081071002501999999KA1120M+00251MA1999999099761MD1710321+9999MW1731REMSYN094AAXX  01184 02680 11330 81505 10004 21001 39976 40024 57032 60012 77362 887// 333 10025 88709;
0187026800999992000020121004+56920+018150FM-12+003999999V0202401N005110009019N0030001N1+00331+00271099781ADDAY171031AY261031GA1081+000909069GF108991081061000751999999MA1999999099311MD1710451+9999MW1631REMSYN082AAXX  01214 02680 41130 82410 10033 20027 39931 49978 57045 76376 886// 333 88703;
0210026800999992000020200004+56920+018150FM-12+003999999V0202401N00511000601CN0045001N1+00361+00311099531ADDAA106005191AY171061AY261061GA1031+000909079GF108991081051000751999999MA1999999099061MD1710251+9999MW1101REMSYN094AAXX  02004 02680 11145 82410 10036 20031 39906 49953 57025 60051 71076 885// 333 83703 88614;
0159026800999992000020203004+56920+018150FM-12+003999999V0202601N006210081019N0100001N1+00411+00361099381ADDGA1081+008109059GF108991081051008001999999MA1999999098911MD1510151+9999REMSYN076AAXX  02034 02680 42560 82612 10041 20036 39891 49938 55015 885// 333 88627;
0207026800999992000020206004+56920+018150FM-12+003999999V0202601N005112200019N0300001N1+00361+00301099481ADDAA112005191GA1041+999999019GF104991001001999999001021IA1119KA1120N+00041MA1999999099011MD1110101+9999REMSYN094AAXX  02064 02680 12980 42610 10036 20030 39901 49948 51010 60052 80002 333 20004 32/// 84099;
0185026800999992000020209004+56920+018150FM-12+003999999V0202701N005112200019N0300001N1+00301+00231099561ADDGA1011+025009049GF103991011001999999011091MA1999999099091MD1110081+9999SA1+0269REMSYN094AAXX  02094 02680 42980 32710 10030 20023 39909 49956 51008 81019 222// 00026 333 81499 83199;
0189026800999992000020212004+56920+018150FM-12+003999999V0202501N005112200019N0300001N1+00411+00141099571ADDAA199000091GA1021+999999019GF102991001001999999001011MA1999999099101MD1010011+9999REMSYN076AAXX  02124 02680 32980 22510 10041 20014 39910 49957 50001 80001 333 82099;EQDQ01  00002PRCP99
0159026800999992000020215004+56920+018150FM-12+003999999V0202401N005112200019N0290001N1+00321+00171099441ADDGA1031+999999079GF103991031001999999071011MA1999999098971MD1810131+9999REMSYN076AAXX  02154 02680 42979 32410 10032 20017 39897 49944 58013 83071 333 83399;
0196026800999992000020218004+56920+018150FM-12+003999999V0202301N004612200019N0250001N1+00281+00161099291ADDAA199000091GA1001+999999999GF100991001001999999001001KA1999M+00411MA1999999098821MD1810151+9999REMSYN070AAXX  02184 02680 32975 02309 10028 20016 39882 49929 58015 333 10041;EQDQ01  00002PRCP99
0143026800999992000020221004+56920+018150FM-12+003999999V0202701N005712200019N0450001N1+00211+00071099131ADDGA1001+999999999GF100991001001999999001001MA1999999098661MD1610161+9999REMSYN060AAXX  02214 02680 42983 02711 10021 20007 39866 49913 56016;
0189026800999992000020300004+56920+018150FM-12+003999999V0202701N006212200019N0300001N1+00241+00011099091ADDAA199000091GA1021+007209059GF102991021051008001001001MA1999999098621MD1710041+9999REMSYN076AAXX  03004 02680 32580 22712 10024 20001 39862 49909 57004 82500 333 82624;EQDQ01  00002PRCP99
0206026800999992000020303004+56920+018150FM-12+003999999V0203301N005110111019N0200001N1+00101+00011099621ADDAY181031AY221031GA1081+011109059GF108991081051012501999999MA1999999099141MD1810522+9999MW1021REMSYN082AAXX  03034 02680 41670 83310 10010 20001 39914 49962 58052 70282 885// 333 88637;EQDQ01+000522APC3  
0235026800999992000020306004+56920+018150FM-12+003999999V0203601N004110099019N0500001N1-00051-00471100191ADDAA112001091AY181061AY221061GA1071+009909059GF107991071051008001999999IA1099KA1120N-00051MA1999999099711MD1210571+9999MW1021REMSYN100AAXX  03064 02680 11584 73608 11005 21047 39971 40019 52057 60012 70282 875// 333 21005 31/// 87633;
0187026800999992000020309004+56920+018150FM-12+003999999V0203401N005112200019N0600001N1-00071-00661100751ADDAY171031AY221031GA1021+008009029GF102991021021008001001001MA1999999100271MD1210561+9999MW1021REMSYN082AAXX  03094 02680 41586 23410 11007 21066 30027 40075 52056 70272 82200 333 82895;
0204026800999992000020312004+56920+018150FM-12+003999999V0203301N005112200019N0700001N1+00001-01051101221ADDAA106000191AY171061AY221061GA1011+008009029GF101991011011008001001001MA1999999100731MD1210461+9999MW1021REMSYN088AAXX  03124 02680 11588 13310 10000 21105 30073 40122 52046 69911 70272 81100 333 81895;
0159026800999992000020315004+56920+018150FM-12+003999999V0203001N006212200019N0700001N1+00021-00871101541ADDGA1011+008009029GF101991011011008001001001MA1999999101051MD1210321+9999REMSYN076AAXX  03154 02680 42588 13012 10002 21087 30105 40154 52032 81100 333 81895;
0183026800999992000020318004+56920+018150FM-12+003999999V0203201N005712200019N0700001N1+00031-00761101851ADDAA112000191GA1001+999999999GF100991001001999999001001KA1999M+00061MA1999999101361MD1210311+9999REMSYN076AAXX  03184 02680 12988 03211 10003 21076 30136 40185 52031 69912 333 10006;
0143026800999992000020321004+56920+018150FM-12+003999999V0203201N005112200019N0700001N1+00051-00591102151ADDGA1001+999999999GF100991001001999999001001MA1999999101661MD1110301+9999REMSYN060AAXX  03214 02680 42988 03210 10005 21059 30166 40215 51030;
0173026800999992000020400004+56920+018150FM-12+003999999V0202801N003112200019N0750001N1+00021-00601102271ADDAA199000091GA1001+999999999GF100991001001999999001001MA1999999101781MD1110121+9999REMSYN060AAXX  04004 02680 32989 02806 10002 21060 30178 40227 51012;EQDQ01  00002PRCP99
0159026800999992000020403004+56920+018150FM-12+003999999V0202401N00411075001CN0550001N1+00031-00271102161ADDGA1081+999999019GF108991081001999999011999MA1999999101671MD1810111+9999REMSYN076AAXX  04034 02680 42985 82408 10003 21027 30167 40216 58011 8801/ 333 88499;
0220026800999992000020406004+56920+018150FM-12+003999999V0202401N00511075001CN0400001N1+00151-00051101731ADDAA199000091GA1081+999999019GF108991081001999999011999IA1099KA1120N+00011MA1999999101251MD1710421+9999REMSYN088AAXX  04064 02680 32982 82410 10015 21005 30125 40173 57042 8801/ 333 20001 31/// 88499;EQDQ01  00002PRCP99
0213026800999992000020409004+56920+018150FM-12+003999999V0202401N00621030001CN0300001N1+00231+00101101341ADDAY121031AY221031GA1031+002509079GF108991031061002501021999MA1999999100861MD1710391+9999MW1211SA1+0189REMSYN100AAXX  04094 02680 41380 82412 10023 20010 30086 40134 57039 72122 8362/ 222// 00018 333 83793 88499;
0210026800999992000020412004+56920+018150FM-12+003999999V0202401N00621002501CN0200001N1+00301+00181100871ADDAA106000791AY161061AY221061GA1071+002509079GF108991071061002501021999MA1999999100401MD1810461+9999MW1021REMSYN094AAXX  04124 02680 11370 82412 10030 20018 30040 40087 58046 69901 70262 8762/ 333 87793 88499;
0165026800999992000020415004+56920+018150FM-12+003999999V0202401N00571002501CN0200001N1+00301+00201100491ADDGA1071+002509079GF108991071061002501021999MA1999999100021MD1710381+9999REMSYN082AAXX  04154 02680 42370 82411 10030 20020 30002 40049 57038 8762/ 333 87793 88499;
0201026800999992000020418004+56920+018150FM-12+003999999V0202501N00361000601CN0150001N1+00331+00231100361ADDAA112000791GA1031+000609079GF108991081051000751999999KA1120M+00351MA1999999099891MD1610131+9999REMSYN094AAXX  04184 02680 12165 82507 10033 20023 39989 40036 56013 69902 885// 333 10035 83702 88612;
0165026800999992000020421004+56920+018150FM-12+003999999V0202601N00311000601CN0200001N1+00431+00341100311ADDGA1021+000309079GF108991081051000751999999MA1999999099841MD1610051+9999REMSYN082AAXX  04214 02680 42170 82606 10043 20034 39984 40031 56005 885// 333 82701 88611;
0201026800999992000020500004+56920+018150FM-12+003999999V0202801N002610001519N0001001N1+00401+00331100391ADDAA199000091AY121061AY221061GA1091+999999999GF109991091999999999999999MA1999999099921MD1110081+9999MW1451REMSYN066AAXX  05004 02680 31/01 92805 10040 20033 39992 40039 51008 74522;EQDQ01  00002PRCP99
0187026800999992000020503004+56920+018150FM-12+003999999V0203401N002110006019N0012001N1+00461+00391100621ADDAY141031AY241031GA1081+000609069GF108991081061000751999999MA1999999100151MD1310231+9999MW1511REMSYN082AAXX  05034 02680 41112 83404 10046 20039 30015 40062 53023 75144 886// 333 88702;
0235026800999992000020506004+56920+018150FM-12+003999999V0203401N001512200019N0270001N1+00271+00181101041ADDAA112000891AY151061AY241061GA1011+999999079GF101991011001999999071001IA1099KA1120N+00271MA1999999100561MD1210411+9999MW1011REMSYN100AAXX  05064 02680 11977 13403 10027 20018 30056 40104 52041 69972 70154 81070 333 20027 31/// 81399;
0159026800999992000020509004+56920+018150FM-12+003999999V0203401N001012200019N0500001N1+00341+00271101361ADDGA1011+999999079GF102991011001999999031081MA1999999100881MD1110321+9999REMSYN076AAXX  05094 02680 42984 23402 10034 20027 30088 40136 51032 81038 333 81399;
0176026800999992000020512004+56920+018150FM-12+003999999V0202601N000519999999N0650001N1+00421-00121101471ADDAA199000021GA1011+025009039GF107991071001999999051999MA1999999100991MD1210111+9999REMSYN082AAXX  05124 02680 32987 72601 10042 21012 30099 40147 52011 8705/ 333 81399 87399;
0165026800999992000020515004+56920+018150FM-12+003999999V0201601N001019999999N0700001N1+00291+00141101421ADDGA1011+025009039GF108991081001999999071999MA1999999100941MD1610051+9999REMSYN082AAXX  05154 02680 42988 81602 10029 20014 30094 40142 56005 8807/ 333 81399 88499;
0223026800999992000020518004+56920+018150FM-12+003999999V0202401N002110045019N0050001N1+00441+00401101311ADDAA112000591AY161061AY251061GA1081+004509059GF108991081051004501999999KA1120M+00491MA1999999100831MD1810111+9999MW1281REMSYN094AAXX  05184 02680 11450 82404 10044 20040 30083 40131 58011 69962 72865 885// 333 10049 88615;
0159026800999992000020521004+56920+018150FM-12+003999999V0202501N003610021019N0300001N1+00481+00411101291ADDGA1081+002109069GF108991081061002501999999MA1999999100811MD1510021+9999REMSYN076AAXX  05214 02680 42380 82507 10048 20041 30081 40129 55002 886// 333 88707;
0189026800999992000020600004+56920+018150FM-12+003999999V0202501N002610036019N0200001N1+00401+00331101261ADDAA199000091GA1081+003609059GF108991081051004501999999MA1999999100781MD1710031+9999REMSYN076AAXX  06004 02680 32470 82505 10040 20033 30078 40126 57003 885// 333 88612;EQDQ01  00002PRCP99
0206026800999992000020603004+56920+018150FM-12+003999999V0202301N003110210019N0060001N1+00381+00311101051ADDAY121031AY221031GA1081+021009079GF108991081999022501071999MA1999999100571MD1810211+9999MW1101REMSYN082AAXX  06034 02680 41856 82306 10038 20031 30057 40105 58021 71022 8807/ 333 88357;EQDQ01+000002SCOLCG
0248026800999992000020606004+56920+018150FM-12+003999999V0202301N004110006019N0027001N1+00371+00301100821ADDAA199000091AY121061AY221061GA1081+000609069GF108991081061000751999999IA1099KA1120N+00331MA1999999100351MD1710221+9999MW1101REMSYN094AAXX  06064 02680 31127 82308 10037 20030 30035 40082 57022 71022 886// 333 20033 31/// 88702;EQDQ01  00002PRCP99
0187026800999992000020609004+56920+018150FM-12+003999999V0202401N003110025019N0050001N1+00361+00301100791ADDAY141031AY221031GA1081+002509069GF108991081061002501999999MA1999999100321MD1810031+9999MW1101REMSYN082AAXX  06094 02680 41350 82406 10036 20030 30032 40079 58003 71042 886// 333 88793;
0223026800999992000020612004+56920+018150FM-12+003999999V0202501N004119999999N0080001N1+00481+00421100791ADDAA199000091AY141061AY221061GA1011+025009039GF108991021001999999071071MA1999999100321MD1010001+9999MW1101REMSYN088AAXX  06124 02680 31958 82508 10048 20042 30032 40079 50000 71042 82077 333 81399 88299;EQDQ01  00002PRCP99
0187026800999992000020615004+56920+018150FM-12+003999999V0202501N005110045019N0080001N1+00441+00381100951ADDAY121031AY221031GA1071+004509059GF107991071051004501999999MA1999999100471MD1210151+9999MW1101REMSYN082AAXX  06154 02680 41458 72510 10044 20038 30047 40095 52015 71022 875// 333 87694;
0236026800999992000020618004+56920+018150FM-12+003999999V0202401N004112200019N0050001N1+00371+00311101081ADDAA199000091AY121061AY211061GA1011+999999079GF102991021001999999071001KA1120M+00551MA1999999100601MD1110131+9999MW1101REMSYN088AAXX  06184 02680 31950 22408 10037 20031 30060 40108 51013 71021 82070 333 10055 81399;EQDQ01  00002PRCP99
0171026800999992000020621004+56920+018150FM-12+003999999V0202401N003112200019N0035001N1+00311+00251101101ADDAY101031AY201031GA1001+999999999GF100991001001999999001001MA1999999100621MD1110021+9999MW1101REMSYN066AAXX  06214 02680 41935 02406 10031 20025 30062 40110 51002 71000;
0201026800999992000020700004+56920+018150FM-12+003999999V0202401N002612200019N0050001N1+00301+00241101021ADDAA199000091AY101061AY201061GA1001+999999999GF100991001001999999001001MA1999999100541MD1710081+9999MW1101REMSYN066AAXX  07004 02680 31950 02405 10030 20024 30054 40102 57008 71000;EQDQ01  00002PRCP99
0171026800999992000020703004+56920+018150FM-12+003999999V0201901N002110003019N0002001N1+00291+00251100821ADDAY101031AY201031GA1091+999999999GF109991091999999999999999MA1999999100351MD1810191+9999MW1471REMSYN066AAXX  07034 02680 41/02 91904 10029 20025 30035 40082 58019 74700;
0213026800999992000020706004+56920+018150FM-12+003999999V0202101N003619999999N0002001N1+00361+00321100521ADDAA112000591AY111061AY201061GF108991081999999999999999IA1099KA1120N+00241MA1999999100051MD1710301+9999MW1631REMSYN094AAXX  07064 02680 11/02 82107 10036 20032 30005 40052 57030 69942 76310 88/// 333 20024 31///;
0207026800999992000020709004+56920+018150FM-12+003999999V0202001N004110015019N0031001N1+00361+00321100261ADDAY161031AY251031GA1081+001509069GF108991081061001501999999MA1999999099791MD1710261+9999MW1101SA1+0289REMSYN094AAXX  07094 02680 41231 82008 10036 20032 39979 40026 57026 71065 886// 222// 00028 333 88792;
0204026800999992000020712004+56920+018150FM-12+003999999V0202201N005710001519N0010001N1+00431+00391099981ADDAA106000391AY161061AY251061GA1081+000159069GF108991081061000251999999MA1999999099511MD1710281+9999MW1101REMSYN088AAXX  07124 02680 11010 82211 10043 20039 39951 49998 57028 69931 71065 886// 333 88700;
0193026800999992000020715004+56920+018150FM-12+003999999V0202301N00571001501CN0030001N1+00421+00381099791ADDAY161031AY241031GA1071+001509079GF107991071061001501071999MA1999999099321MD1610191+9999MW1101REMSYN088AAXX  07154 02680 41230 72311 10042 20038 39932 49979 56019 71064 8767/ 333 87792 83399;
0163026800999992000020717004+56920+018150FM-12+003999999V0200201N021119999999N0300001N1+00341+99999099851ADDAA112000591AY181999AY261999KA1999M+00461MA1999999099381MD1010061+9999MW1011REMSYN076AAXX  07174 02680 11980 /0241 10034 39938 49985 50006 69952 70186 333 10046;
0211026800999992000020718004+56920+018150FM-12+003999999V0202401N005112200019N0300001N1+00341+00281099851ADDAA112000591AY181061AY261061GA1001+999999999GF100991001001999999001001KA1999M+00461MA1999999099381MD1010061+9999MW1011REMSYN082AAXX  07184 02680 11980 02410 10034 20028 39938 49985 50006 69952 70186 333 10046;
0159026800999992000020721004+56920+018150FM-12+003999999V0202301N006219999999N0300001N1+00351+00221099811ADDGA1061+999999079GF106991061001999999071001MA1999999099341MD1510041+9999REMSYN076AAXX  07214 02680 42980 62312 10035 20022 39934 49981 55004 86070 333 86399;
0189026800999992000020800004+56920+018150FM-12+003999999V0202301N006219999999N0250001N1+00331+00211099741ADDAA199000091GA1081+999999079GF108991081001999999071999MA1999999099271MD1710071+9999REMSYN076AAXX  08004 02680 32975 82312 10033 20021 39927 49974 57007 8807/ 333 88399;EQDQ01  00002PRCP99
0187026800999992000020803004+56920+018150FM-12+003999999V0202001N005110066019N0150001N1+00301+00201099501ADDAY121031AY221031GA1081+006609059GF108991081051008001999999MA1999999099031MD1810241+9999MW1601REMSYN082AAXX  08034 02680 41565 82010 10030 20020 39903 49950 58024 76022 885// 333 88622;
0235026800999992000020806004+56920+018150FM-12+003999999V0202001N005110009019N0060001N1+00311+00241099071ADDAA112000591AY161061AY221061GA1081+000909069GF108991081071000751999999IA1099KA1120N+00301MA1999999098601MD1710431+9999MW1611REMSYN100AAXX  08064 02680 11156 82010 10031 20024 39860 49907 57043 69952 76162 887// 333 20030 31/// 88703;
0187026800999992000020809004+56920+018150FM-12+003999999V0202301N005110007519N0060001N1+00391+00331098821ADDAY161031AY261031GA1081+000759069GF108991081071000751999999MA1999999098351MD1710251+9999MW1601REMSYN082AAXX  08094 02680 41156 82310 10039 20033 39835 49882 57025 76066 887// 333 88791;
0210026800999992000020812004+56920+018150FM-12+003999999V0202201N00411030001CN0200001N1+00411+00351098751ADDAA106001091AY161061AY261061GA1021+008009069GF107991021051004501071999MA1999999098291MD1610061+9999MW1601REMSYN094AAXX  08124 02680 11470 72208 10041 20035 39829 49875 56006 60011 76066 8257/ 333 82695 87399;
0193026800999992000020815004+56920+018150FM-12+003999999V0202401N00411021001CN0200001N1+00391+00341098801ADDAY161031AY261031GA1011+022509039GF108991081001022501071999MA1999999098331MD1310041+9999MW1601REMSYN088AAXX  08154 02680 41870 82408 10039 20034 39833 49880 53004 76066 8807/ 333 81398 88399;
0223026800999992000020818004+56920+018150FM-12+003999999V0202401N004110099019N0100001N1+00351+00301098781ADDAA112002091AY161061AY261061GA1081+009909059GF108991081051008001999999KA1120M+00441MA1999999098311MD1810021+9999MW1021REMSYN094AAXX  08184 02680 11560 82408 10035 20030 39831 49878 58002 60022 70266 885// 333 10044 88633;
0171026800999992000020821004+56920+018150FM-12+003999999V0202401N004110003019N0002001N1+00341+00291098741ADDAY121031AY221031GA1091+999999999GF109991091999999999999999MA1999999098281MD1610031+9999MW1451REMSYN066AAXX  08214 02680 41/02 92408 10034 20029 39828 49874 56003 74522;
0204026800999992000020900004+56920+018150FM-12+003999999V0202401N003110009019N0030001N1+00311+00281098631ADDAA106000591AY161061AY261061GA1081+000909069GF108991081061000751999999MA1999999098171MD1810111+9999MW1101REMSYN088AAXX  09004 02680 11130 82406 10031 20028 39817 49863 58011 69961 71066 886// 333 88703;
0193026800999992000020903004+56920+018150FM-12+003999999V0202401N00361000601CN0030001N1+00321+00291098581ADDAY121031AY221031GA1011+000909079GF108991081051000751999999MA1999999098121MD1610051+9999MW1611REMSYN088AAXX  09034 02680 41130 82407 10032 20029 39812 49858 56005 76122 885// 333 81703 88629;
0235026800999992000020906004+56920+018150FM-12+003999999V0202401N004110066019N0090001N1+00331+00301098661ADDAA112001091AY161061AY261061GA1081+006609059GF108991081051008001999999IA1099KA1120N+00311MA1999999098201MD1310081+9999MW1601REMSYN100AAXX  09064 02680 11559 82408 10033 20030 39820 49866 53008 60012 76066 885// 333 20031 31/// 88622;
0207026800999992000020909004+56920+018150FM-12+003999999V0202401N00461075001CN0300001N1+00361+00331098941ADDAY161031AY261031GA1071+999999029GF107991071001999999071999MA1999999098471MD1210271+9999MW1211SA1+0289REMSYN094AAXX  09094 02680 41980 72409 10036 20033 39847 49894 52027 72166 8707/ 222// 00028 333 87599;
0210026800999992000020912004+56920+018150FM-12+003999999V0202501N00311030001CN0500001N1+00441+00311099261ADDAA106000591AY161061AY261061GA1021+004509069GF107991021051004501071999MA1999999098791MD1210391+9999MW1021REMSYN094AAXX  09124 02680 11484 72506 10044 20031 39879 49926 52039 69951 70266 8257/ 333 82694 87399;
0165026800999992000020915004+56920+018150FM-12+003999999V0202601N00261021001CN0500001N1+00351+00251099611ADDGA1011+022509039GF107991071001022501071999MA1999999099141MD1210351+9999REMSYN082AAXX  09154 02680 42884 72605 10035 20025 39914 49961 52035 8707/ 333 81398 86399;
0223026800999992000020918004+56920+018150FM-12+003999999V0203301N002110012019N0300001N1+00261+00171100071ADDAA112000891AY121061AY221061GA1081+001209069GF108991081071001501999999KA1120M+00481MA1999999099601MD1110461+9999MW1211REMSYN094AAXX  09184 02680 11280 83304 10026 20017 39960 40007 51046 69972 72122 887// 333 10048 88704;
0159026800999992000020921004+56920+018150FM-12+003999999V0203301N003110027019N0500001N1+00201+00131100571ADDGA1081+002709069GF108991081061002501999999MA1999999100101MD1210501+9999REMSYN076AAXX  09214 02680 42384 83306 10020 20013 30010 40057 52050 886// 333 88709;
0170026800999992000021000004+56920+018150FM-12+003999999V0203201N002612200019N0550001N1+00131-00121100961ADDAA199000021GA1021+004509059GF102991021051004501001001MA1999999100481MD1210381+9999REMSYN076AAXX  10004 02680 32485 23205 10013 21012 30048 40096 52038 82500 333 82694;
0159026800999992000021003004+56920+018150FM-12+003999999V0202801N002612200019N0450001N1+00041-00071101171ADDGA1011+004509059GF101991011051004501001001MA1999999100681MD1110201+9999REMSYN076AAXX  10034 02680 42483 12805 10004 21007 30068 40117 51020 81500 333 81694;
0201026800999992000021006004+56920+018150FM-12+003999999V0203401N002112200019N0450001N1+00061-00011101301ADDAA199000021GA1011+004509059GF102991011051004501031001IA1149KA1120N+00021MA1999999100811MD1210131+9999REMSYN088AAXX  10064 02680 32483 23404 10006 21001 30081 40130 52013 81530 333 20002 34/// 81694;
0190026800999992000021009004+56920+018150FM-12+003999999V0202201N00411220001CN0550001N1+00231+00131101321ADDGA1061+999999089GF199999011051004501001081MA1999999100841MD1010031+9999REMSYN088AAXX  10094 02680 42485 52208 10023 20013 30084 40132 50003 81508 222// 01694 333 86299;EQDQ01+000052SCOTCV
0189026800999992000021012004+56920+018150FM-12+003999999V0202001N004110080019N0300001N1+00301+00211101191ADDAA199000091GA1081+008009059GF108991081051008001999999MA1999999100711MD1810131+9999REMSYN076AAXX  10124 02680 32580 82008 10030 20021 30071 40119 58013 885// 333 88695;EQDQ01  00002PRCP99
0212026800999992000021015004+56920+018150FM-12+003999999V0202001N00461002501CN0050001N1+00331+00271100841ADDAY121031AY221031GA1071+002509079GF107991999061002501999999MA1999999100371MD1710341+9999MW1101REMSYN088AAXX  10154 02680 41350 72009 10033 20027 30037 40084 57034 71022 886// 333 87793 86399;EQDQ01+000082SCOTLC
0208026800999992000021018004+56920+018150FM-12+003999999V0202001N005719999999N0130001N1+00341+00281100641ADDAA199000091GA1081+999999079GF108991081001999999071999KA1120M+00371MA1999999100171MD1810201+9999REMSYN082AAXX  10184 02680 32963 82011 10034 20028 30017 40064 58020 8807/ 333 10037 88399;EQDQ01  00002PRCP99
0187026800999992000021021004+56920+018150FM-12+003999999V0202001N006210096019N0150001N1+00361+00211100401ADDAY121031AY221031GA1081+009609059GF108991081051008001999999MA1999999099931MD1710241+9999MW1601REMSYN082AAXX  10214 02680 41565 82012 10036 20021 39993 40040 57024 76022 885// 333 88632;
0204026800999992000021100004+56920+018150FM-12+003999999V0202201N006210018019N0150001N1+00311+00241100221ADDAA106000391AY161061AY221061GA1081+001809069GF108991081061001501999999MA1999999099751MD1710181+9999MW1211REMSYN088AAXX  11004 02680 11265 82212 10031 20024 39975 40022 57018 69931 72162 886// 333 88706;
0159026800999992000021103004+56920+018150FM-12+003999999V0202401N004612200019N0300001N1+00291+00221100371ADDGA1011+999999079GF101991011001999999071001MA1999999099901MD1310151+9999REMSYN076AAXX  11034 02680 42980 12409 10029 20022 39990 40037 53015 81070 333 81399;
0207026800999992000021106004+56920+018150FM-12+003999999V0202701N004112200019N0400001N1+00301+00201100661ADDAA112000391GA1011+999999079GF101991011001999999071001IA1099KA1120N+00291MA1999999100191MD1210291+9999REMSYN094AAXX  11064 02680 12982 12708 10030 20020 30019 40066 52029 69932 81070 333 20029 31/// 81399;
0163026800999992000021109004+56920+018150FM-12+003999999V0202601N005112200019N0350001N1+00401+00061100991ADDGA1001+999999999GF100991001001999999001001MA1999999100511MD1210321+9999SA1+2809REMSYN072AAXX  11094 02680 42981 02610 10040 20006 30051 40099 52032 222// 00028;
0154026800999992000021112004+56920+018150FM-12+003999999V0202401N004112200019N0300001N1+00481+00071101231ADDAA199000021GA1001+999999999GF100991001001999999001001MA1999999100751MD1110241+9999REMSYN060AAXX  11124 02680 32980 02408 10048 20007 30075 40123 51024;
0113026800999992000021115004+56920+018150FM-12+003999999V0202401N005112200019N0300001N1+00431+99999999999ADDGF101991999999999999999999REMSYN075AAXX  11154 02680 42980 12410 10043 2004 30085 40133 51010 81070 333 81399;
0196026800999992000021118004+56920+018150FM-12+003999999V0202401N005112200019N0300001N1+00341+00191101481ADDAA199000091GA1001+999999999GF100991001001999999001001KA1999M+00501MA1999999101001MD1210151+9999REMSYN070AAXX  11184 02680 32980 02410 10034 20019 30100 40148 52015 333 10050;EQDQ01  00002PRCP99
0143026800999992000021121004+56920+018150FM-12+003999999V0202401N005712200019N0300001N1+00331+00221101581ADDGA1001+999999999GF100991001001999999001001MA1999999101101MD1210101+9999REMSYN060AAXX  11214 02680 42980 02411 10033 20022 30110 40158 52010;
0173026800999992000021200004+56920+018150FM-12+003999999V0202401N004112200019N0300001N1+00301+00211101751ADDAA199000091GA1001+999999999GF100991001001999999001001MA1999999101271MD1210171+9999REMSYN060AAXX  12004 02680 32980 02408 10030 20021 30127 40175 52017;EQDQ01  00002PRCP99
0159026800999992000021203004+56920+018150FM-12+003999999V0202401N004112200019N0300001N1+00291+00201101801ADDGA1011+999999079GF101991011001999999071001MA1999999101321MD1110051+9999REMSYN076AAXX  12034 02680 42980 12408 10029 20020 30132 40180 51005 81070 333 81399;
0220026800999992000021206004+56920+018150FM-12+003999999V0202401N003610066019N0300001N1+00331+00251101811ADDAA199000091GA1071+006609059GF107991071051008001999999IA1099KA1120N+00291MA1999999101331MD1110011+9999REMSYN088AAXX  12064 02680 32580 72407 10033 20025 30133 40181 51001 875// 333 20029 31/// 87622;EQDQ01  00002PRCP99
0159026800999992000021209004+56920+018150FM-12+003999999V0202301N004110080019N0300001N1+00361+00291101761ADDGA1081+008009059GF108991081051008001999999MA1999999101281MD1810051+9999REMSYN076AAXX  12094 02680 42580 82308 10036 20029 30128 40176 58005 885// 333 88695;
0189026800999992000021212004+56920+018150FM-12+003999999V0202201N005710080019N0290001N1+00351+00241101621ADDAA199000091GA1081+008009059GF108991081051008001999999MA1999999101141MD1710141+9999REMSYN076AAXX  12124 02680 32579 82211 10035 20024 30114 40162 57014 885// 333 88695;EQDQ01  00002PRCP99
0187026800999992000021215004+56920+018150FM-12+003999999V0202101N005110025019N0045001N1+00271+00181101411ADDAY121031AY221031GA1081+002509069GF108991081061002501999999MA1999999100931MD1710211+9999MW1101REMSYN082AAXX  12154 02680 41345 82110 10027 20018 30093 40141 57021 71022 886// 333 88793;
0196026800999992000021218004+56920+018150FM-12+003999999V0202101N005112200019N0300001N1+00281+00161101161ADDAA199000091GA1001+999999999GF100991001001999999001001KA1999M+00401MA1999999100681MD1710251+9999REMSYN070AAXX  12184 02680 32980 02110 10028 20016 30068 40116 57025 333 10040;EQDQ01  00002PRCP99
0159026800999992000021221004+56920+018150FM-12+003999999V0201901N005712200019N0300001N1+00291+00061100891ADDGA1011+999999019GF101991001001999999001011MA1999999100411MD1710271+9999REMSYN076AAXX  12214 02680 42980 11911 10029 20006 30041 40089 57027 80001 333 81099;
0204026800999992000021300004+56920+018150FM-12+003999999V0202101N006210039019N0100001N1+00281+00111100501ADDAA106000791AY121061AY201061GA1081+003909059GF108991081051004501999999MA1999999100031MD1710381+9999MW1611REMSYN088AAXX  13004 02680 11460 82112 10028 20011 30003 40050 57038 69901 76120 885// 333 88613;
0187026800999992000021303004+56920+018150FM-12+003999999V0202301N005110009019N0100001N1+00151+00071100211ADDAY161031AY261031GA1081+000909069GF108991081071000751999999MA1999999099741MD1710291+9999MW1611REMSYN082AAXX  13034 02680 41160 82310 10015 20007 39974 40021 57029 76166 887// 333 88703;
0241026800999992000021306004+56920+018150FM-12+003999999V0202601N00411075001CN0350001N1+00201+00091100191ADDAA112000891AY161061AY221061GA1011+004509089GF105991011021004501071011IA1099KA1120N+00151MA1999999099721MD1510021+9999MW1011REMSYN106AAXX  13064 02680 11481 52608 10020 20009 39972 40019 55002 69982 70162 81271 333 20015 31/// 81894 84399;
0159026800999992000021309004+56920+018150FM-12+003999999V0202401N004612200019N0400001N1+00261-00021100231ADDGA1011+004509029GF101991011011004501031001MA1999999099761MD1110041+9999REMSYN076AAXX  13094 02680 42482 12409 10026 21002 39976 40023 51004 81130 333 81894;
0170026800999992000021312004+56920+018150FM-12+003999999V0202401N004110045019N0550001N1+00281-00131100231ADDAA199000021GA1071+004509059GF107991071051004501999999MA1999999099761MD1410001+9999REMSYN076AAXX  13124 02680 32485 72408 10028 21013 39976 40023 54000 875// 333 87694;
0193026800999992000021315004+56920+018150FM-12+003999999V0202301N004112200019N0350001N1+00221+00091100131ADDAY181031AY211031GA1011+004509089GF101991011091004501031011MA1999999099661MD1810101+9999MW1021REMSYN088AAXX  13154 02680 41481 12308 10022 20009 39966 40013 58010 70281 81931 333 81894 81994;
0211026800999992000021318004+56920+018150FM-12+003999999V0202301N003612200019N0300001N1+00171+00041100151ADDAA112000791AY181061AY211061GA1001+999999999GF100991001001999999001001KA1999M+00331MA1999999099681MD1110021+9999MW1011REMSYN082AAXX  13184 02680 11980 02307 10017 20004 39968 40015 51002 69902 70181 333 10033;
0159026800999992000021321004+56920+018150FM-12+003999999V0202301N004612200019N0300001N1+00231+00121100041ADDGA1021+008109059GF102991021051008001001001MA1999999099571MD1810111+9999REMSYN076AAXX  13214 02680 42580 22309 10023 20012 39957 40004 58011 82500 333 82627;
0189026800999992000021400004+56920+018150FM-12+003999999V0202701N003112200019N0350001N1+00221+00111100021ADDAA199000091GA1021+009309059GF102991021051008001001001MA1999999099551MD1510021+9999REMSYN076AAXX  14004 02680 32581 22706 10022 20011 39955 40002 55002 82500 333 82631;EQDQ01  00002PRCP99
0143026800999992000021403004+56920+018150FM-12+003999999V0202901N004112200019N0500001N1+00121-00101100101ADDGA1001+999999999GF100991001001999999001001MA1999999099621MD1110071+9999REMSYN060AAXX  14034 02680 42984 02908 10012 21010 39962 40010 51007;
0220026800999992000021406004+56920+018150FM-12+003999999V0203201N004112200019N0500001N1+00061-00281100291ADDAA199000091GA1011+004509029GF101991011011004501001001IA1019KA1120N+00061MA1999999099811MD1310191+9999REMSYN088AAXX  14064 02680 32484 13208 10006 21028 39981 40029 53019 81100 333 20006 30/// 81894;EQDQ01  00002PRCP99
0220026800999992000021409004+56920+018150FM-12+003999999V0203201N004112200019N0500001N1+00061-00281100291ADDAA199000091GA1011+004509029GF101991011011004501001001IA1019KA1120N+00061MA1999999099811MD1310191+9999REMSYN088AAXX  14094 02680 32484 13208 10006 21028 39981 40029 53019 81100 333 20006 30/// 81894;EQDQ01  00002PRCP99
0189026800999992000021412004+56920+018150FM-12+003999999V0203101N005112200019N0650001N1+00271-00521100651ADDAA199000091GA1011+008009029GF101991011011008001031001MA1999999100181MD1210181+9999REMSYN076AAXX  14124 02680 32587 13110 10027 21052 30018 40065 52018 81130 333 81895;EQDQ01  00002PRCP99
0159026800999992000021415004+56920+018150FM-12+003999999V0203201N003612200019N0700001N1+00221-00371100901ADDGA1011+008009059GF101991011041008001031001MA1999999100431MD1210251+9999REMSYN076AAXX  14154 02680 42588 13207 10022 21037 30043 40090 52025 81430 333 81695;
0196026800999992000021418004+56920+018150FM-12+003999999V0202901N002112200019N0700001N1+00131-00061101081ADDAA199000091GA1001+999999999GF100991001001999999001001KA1999M+00311MA1999999100601MD1110171+9999REMSYN070AAXX  14184 02680 32988 02904 10013 21006 30060 40108 51017 333 10031;EQDQ01  00002PRCP99
0143026800999992000021421004+56920+018150FM-12+003999999V0202801N002112200019N0700001N1+00051-00191101131ADDGA1001+999999999GF100991001001999999001001MA1999999100641MD1110041+9999REMSYN060AAXX  14214 02680 42988 02804 10005 21019 30064 40113 51004;
0189026800999992000021500004+56920+018150FM-12+003999999V0202301N002112200019N0650001N1+00031-00191101071ADDAA199000091GA1011+999999079GF102991011001999999031051MA1999999100581MD1810061+9999REMSYN076AAXX  15004 02680 32987 22304 10003 21019 30058 40107 58006 81035 333 81399;EQDQ01  00002PRCP99
0159026800999992000021503004+56920+018150FM-12+003999999V0202401N003610450019N0650001N1+00031-00241100881ADDGA1081+045009019GF108991081001999999021999MA1999999100401MD1710181+9999REMSYN076AAXX  15034 02680 42987 82407 10003 21024 30040 40088 57018 8802/ 333 88465;
0226026800999992000021506004+56920+018150FM-12+003999999V0202301N00311030001CN0550001N1+00131-00061100691ADDAA199000091GA1011+004509069GF108991011051004501021999IA1019KA1120N+00031MA1999999100211MD1710191+9999REMSYN094AAXX  15064 02680 32485 82306 10013 21006 30021 40069 57019 8152/ 333 20003 30/// 81694 88499;EQDQ01  00002PRCP99
0193026800999992000021509004+56920+018150FM-12+003999999V0202101N00461030001CN0350001N1+00221+00111100521ADDAY121031AY221031GA1011+002509079GF108991011071002501021999MA1999999100051MD1710161+9999MW1611REMSYN088AAXX  15094 02680 41381 82109 10022 20011 30005 40052 57016 76122 8172/ 333 81793 88599;
0204026800999992000021512004+56920+018150FM-12+003999999V0202001N004610045019N0290001N1+00181+00071100301ADDAA106000391AY161061AY261061GA1081+004509059GF108991081051004501999999MA1999999099821MD1710221+9999MW1611REMSYN088AAXX  15124 02680 11479 82009 10018 20007 39982 40030 57022 69931 76166 885// 333 88694;
0187026800999992000021515004+56920+018150FM-12+003999999V0202101N003610015019N0040001N1+00191+00101100061ADDAY161031AY261031GA1081+001509069GF108991081071001501999999MA1999999099591MD1710231+9999MW1611REMSYN082AAXX  15154 02680 41240 82107 10019 20010 39959 40006 57023 76166 887// 333 88792;
0223026800999992000021518004+56920+018150FM-12+003999999V0202401N004110087019N0100001N1+00241+00161099941ADDAA112000591AY161061AY261061GA1081+008709059GF108991081051008001999999KA1120M+00251MA1999999099471MD1610121+9999MW1021REMSYN094AAXX  15184 02680 11560 82408 10024 20016 39947 49994 56012 69962 70266 885// 333 10025 88629;
0170026800999992000021600004+56920+018150FM-12+003999999V0202401N003112200019N0300001N1+00191+00111099921ADDAA199000021GA1021+011109059GF102991021051012501001001MA1999999099451MD1810011+9999REMSYN076AAXX  16004 02680 32680 22406 10019 20011 39945 49992 58001 82500 333 82637;
0159026800999992000021603004+56920+018150FM-12+003999999V0202401N002612200019N0300001N1+00181+00091099861ADDGA1021+012509059GF102991021051012501031001MA1999999099391MD1710061+9999REMSYN076AAXX  16034 02680 42680 22405 10018 20009 39939 49986 57006 82530 333 82696;
0236026800999992000021606004+56920+018150FM-12+003999999V0202401N002612200019N0300001N1+00131+00051099791ADDAA199000091GA1031+022509079GF104991041999022501031021IA1019KA1120N+00131MA1999999099311MD1710081+9999REMSYN088AAXX  16064 02680 32880 42405 10013 20005 39931 49979 57008 84032 333 20013 30/// 83398;EQDQ01+000002SCOLCGQ02  00002PRCP99
0185026800999992000021609004+56920+018150FM-12+003999999V0202301N00211030001CN0300001N1+00271+00201099721ADDGA1011+004509069GF107991011051004501071999MA1999999099251MD1810061+9999SA1+0249REMSYN094AAXX  16094 02680 42480 72304 10027 20020 39925 49972 58006 8157/ 222// 00024 333 81694 87499;
0195026800999992000021612004+56920+018150FM-12+003999999V0201801N00101030001CN0300001N1+00301+00201099611ADDAA199000091GA1011+002509089GF108991011011002501071999MA1999999099141MD1810111+9999REMSYN082AAXX  16124 02680 32380 81802 10030 20020 39914 49961 58011 8117/ 333 81893 88499;EQDQ01  00002PRCP99
0187026800999992000021615004+56920+018150FM-12+003999999V0209999C000010009019N0050001N1+00241+00161099531ADDAY121031AY221031GA1081+000909069GF108991081061001501999999MA1999999099061MD1710081+9999MW1101REMSYN082AAXX  16154 02680 41250 80000 10024 20016 39906 49953 57008 71022 886// 333 88703;
0223026800999992000021618004+56920+018150FM-12+003999999V0200501N001010006019N0035001N1+00161+00091099461ADDAA112000791AY151061AY221061GA1081+000609069GF108991081061000751999999KA1120M+00331MA1999999098991MD1710071+9999MW1101REMSYN094AAXX  16184 02680 11135 80502 10016 20009 39899 49946 57007 69902 71052 886// 333 10033 88702;
0159026800999992000021621004+56920+018150FM-12+003999999V0200701N002110009019N0150001N1+00111+00041099371ADDGA1081+000909069GF108991081061000751999999MA1999999098891MD1710101+9999REMSYN076AAXX  16214 02680 42165 80704 10011 20004 39889 49937 57010 886// 333 88703;
0189026800999992000021700004+56920+018150FM-12+003999999V0200401N002110036019N0450001N1+00111+00041099261ADDAA199000091GA1081+003609069GF108991081061004501999999MA1999999098781MD1710111+9999REMSYN076AAXX  17004 02680 32483 80404 10011 20004 39878 49926 57011 886// 333 88712;EQDQ01  00002PRCP99
0187026800999992000021703004+56920+018150FM-12+003999999V0200301N002110021019N0050001N1+00051-00011099231ADDAY121031AY221031GA1081+002109069GF108991081071002501999999MA1999999098751MD1610031+9999MW1731REMSYN082AAXX  17034 02680 41350 80304 10005 21001 39875 49923 56003 77322 887// 333 88707;
0271026800999992000021706004+56920+018150FM-12+003999999V0203601N002610025019N0045001N1+00041-00021099271ADDAA112001091AJ199992999999999AY121061AY221061GA1081+002509069GF108991081071002501999999IA1259KA1120N+00041MA1999999098791MD1310041+9999MW1711REMSYN100AAXX  17064 02680 11345 83605 10004 21002 39879 49927 53004 60012 77122 887// 333 20004 41998 88793;EQDQ01  09972SNDP  
0193026800999992000021709004+56920+018150FM-12+003999999V0203601N00261002501CN0045001N1+00101+00041099481ADDAY171031AY271031GA1061+002509079GF108991061071002501011999MA1999999099001MD1210211+9999MW1711REMSYN088AAXX  17094 02680 41345 83605 10010 20004 39900 49948 52021 77177 8671/ 333 86793 88499;
0204026800999992000021712004+56920+018150FM-12+003999999V0203601N002610045019N0045001N1+00131+00081099751ADDAA106002091AY171061AY271061GA1071+004509059GF108991071051004501999999MA1999999099271MD1210271+9999MW1701REMSYN088AAXX  17124 02680 11445 83605 10013 20008 39927 49975 52027 60021 77077 875// 333 87694;
0193026800999992000021715004+56920+018150FM-12+003999999V0203601N00261009001CN0500001N1+00111+00001100051ADDAY171031AY271031GA1011+004509089GF108991071081004501999999MA1999999099571MD1210301+9999MW1021REMSYN088AAXX  17154 02680 41484 83605 10011 20000 39957 40005 52030 70277 878// 333 81894 87695;
0223026800999992000021718004+56920+018150FM-12+003999999V0203601N003110099019N0500001N1+00041-00071100301ADDAA112002091AY171061AY271061GA1061+009909059GF106991061051008001001001KA1120M+00211MA1999999099821MD1110251+9999MW1021REMSYN094AAXX  17184 02680 11584 63606 10004 21007 39982 40030 51025 60022 70277 86500 333 10021 86633;
0159026800999992000021721004+56920+018150FM-12+003999999V0203601N002112200019N0600001N1-00061-00181100471ADDGA1011+008009029GF101991011011008001031001MA1999999099991MD1210171+9999REMSYN076AAXX  17214 02680 42586 13604 11006 21018 39999 40047 52017 81130 333 81895;
0170026800999992000021800004+56920+018150FM-12+003999999V0203501N001512200019N0750001N1-00071-00221100611ADDAA199000021GA1011+008009059GF101991011051008001001001MA1999999100131MD1110141+9999REMSYN076AAXX  18004 02680 32589 13503 11007 21022 30013 40061 51014 81500 333 81695;
0159026800999992000021803004+56920+018150FM-12+003999999V0203001N001012200019N0750001N1-00171-00351100631ADDGA1031+004209059GF103991031051004501001001MA1999999100151MD1110021+9999REMSYN076AAXX  18034 02680 42489 33002 11017 21035 30015 40063 51002 83500 333 83614;
0220026800999992000021806004+56920+018150FM-12+003999999V0202501N001012200019N0750001N1-00181-00321100681ADDAA199000091GA1031+004509059GF103991031051004501001001IA1149KA1120N-00181MA1999999100201MD1210051+9999REMSYN088AAXX  18064 02680 32489 32502 11018 21032 30020 40068 52005 83500 333 21018 34/// 83694;EQDQ01  00002PRCP99
0179026800999992000021809004+56920+018150FM-12+003999999V0202301N001510045019N0750001N1+00001-00331100721ADDGA1051+004509059GF105991051051004501001001MA1999999100241MD1110041+9999SA1+0189REMSYN088AAXX  18094 02680 42489 52303 10000 21033 30024 40072 51004 85500 222// 00018 333 85694;
0189026800999992000021812004+56920+018150FM-12+003999999V0202301N002110080019N0500001N1+00111-00301100761ADDAA199000091GA1071+008009059GF107991071051008001001011MA1999999100281MD1110041+9999REMSYN076AAXX  18124 02680 32584 72304 10011 21030 30028 40076 51004 87501 333 87695;EQDQ01  00002PRCP99
0159026800999992000021815004+56920+018150FM-12+003999999V0201801N001010045019N0500001N1+00001-00401100751ADDGA1071+004509059GF107991071051004501999999MA1999999100271MD1210011+9999REMSYN076AAXX  18154 02680 42484 71802 10000 21040 30027 40075 52001 875// 333 87694;
0208026800999992000021818004+56920+018150FM-12+003999999V0201801N001510063019N0500001N1-00021-00441100741ADDAA199000091GA1071+006309059GF107991071051008001999999KA1120M+00151MA1999999100261MD1510011+9999REMSYN082AAXX  18184 02680 32584 71803 11002 21044 30026 40074 55001 875// 333 10015 87621;EQDQ01  00002PRCP99
0159026800999992000021821004+56920+018150FM-12+003999999V0201701N002110066019N0500001N1+00031-00531100791ADDGA1071+006609059GF107991071051008001999999MA1999999100311MD1110051+9999REMSYN076AAXX  18214 02680 42584 71704 10003 21053 30031 40079 51005 875// 333 87622;
0189026800999992000021900004+56920+018150FM-12+003999999V0201901N002110072019N0600001N1+00031-00651100811ADDAA199000091GA1051+007209059GF105991051051008001001001MA1999999100331MD1210021+9999REMSYN076AAXX  19004 02680 32586 51904 10003 21065 30033 40081 52002 85500 333 85624;EQDQ01  00002PRCP99
0159026800999992000021903004+56920+018150FM-12+003999999V0201501N001010099019N0550001N1+00111-00691100831ADDGA1081+009909059GF108991081051008001999999MA1999999100351MD1210021+9999REMSYN076AAXX  19034 02680 42585 81502 10011 21069 30035 40083 52002 885// 333 88633;
0226026800999992000021906004+56920+018150FM-12+003999999V0201301N00211009001CN0500001N1+00101-00701100941ADDAA199000091GA1011+004509089GF107991071081004501999999IA1019KA1120N-00021MA1999999100451MD1310101+9999REMSYN094AAXX  19064 02680 32484 71304 10010 21070 30045 40094 53010 878// 333 21002 30/// 81894 87695;EQDQ01  00002PRCP99
0165026800999992000021909004+56920+018150FM-12+003999999V0201301N00311030001CN0500001N1+00201-00531101061ADDGA1011+004509089GF106991011081004501031011MA1999999100581MD1210131+9999REMSYN082AAXX  19094 02680 42484 61306 10020 21053 30058 40106 52013 81831 333 81894 85399;
0245026800999992000021912004+56920+018150FM-12+003999999V0201401N00311004201CN0500001N1+00151-00371101171ADDAA199000091AY121061AY221061GA1011+004509089GA2031+008009069GF106991051091004501071001MA1999999100691MD1110111+9999MW1161REMSYN094AAXX  19124 02680 31484 61406 10015 21037 30069 40117 51011 71622 85970 333 81894 83695 81995;EQDQ01  00002PRCP99
0159026800999992000021915004+56920+018150FM-12+003999999V0201101N002112200019N0750001N1+00101-00581101281ADDGA1011+008009029GF103991021081008001031041MA1999999100791MD1210101+9999REMSYN076AAXX  19154 02680 42589 31104 10010 21058 30079 40128 52010 82834 333 81895;
0214026800999992000021918004+56920+018150FM-12+003999999V0200701N001019999999N0700001N1-00161-00521101391ADDAA199000091GA1011+025009039GF108991011001999999031071KA1120M+00271MA1999999100901MD1210111+9999REMSYN088AAXX  19184 02680 32988 80702 11016 21052 30090 40139 52011 81037 333 10027 81399 88299;EQDQ01  00002PRCP99
0165026800999992000021921004+56920+018150FM-12+003999999V0200901N001019999999N0650001N1-00231-00501101551ADDGA1011+025009039GF107991011001999999031081MA1999999101061MD1110161+9999REMSYN082AAXX  19214 02680 42987 70902 11023 21050 30106 40155 51016 81038 333 81399 87299;
0189026800999992000022000004+56920+018150FM-12+003999999V0200301N001010066019N0700001N1-00161-00481101641ADDAA199000091GA1071+006609059GF107991071051008001999999MA1999999101151MD1110091+9999REMSYN076AAXX  20004 02680 32588 70302 11016 21048 30115 40164 51009 875// 333 87622;EQDQ01  00002PRCP99
0159026800999992000022003004+56920+018150FM-12+003999999V0200401N001012200019N0700001N1-00211-00651101771ADDGA1021+008009059GF104991021051008001031081MA1999999101281MD1210131+9999REMSYN076AAXX  20034 02680 42588 40402 11021 21065 30128 40177 52013 82538 333 82695;
0220026800999992000022006004+56920+018150FM-12+003999999V0203601N001012200019N0650001N1-00231-00611101911ADDAA199000091GA1011+008009059GF102991011051008001071011IA1149KA1120N-00231MA1999999101421MD1210141+9999REMSYN088AAXX  20064 02680 32587 23602 11023 21061 30142 40191 52014 81571 333 21023 34/// 81695;EQDQ01  00002PRCP99
0165026800999992000022009004+56920+018150FM-12+003999999V0203501N00051030001CN0650001N1+00071-00661102031ADDGA1011+008009069GF107991011051008001071021MA1999999101551MD1110131+9999REMSYN082AAXX  20094 02680 42587 73501 10007 21066 30155 40203 51013 81572 333 81695 87099;
0195026800999992000022012004+56920+018150FM-12+003999999V0202901N00101030001CN0400001N1+00171-00641102141ADDAA199000091GA1021+008009069GF107991011051008001081999MA1999999101661MD1210111+9999REMSYN082AAXX  20124 02680 32582 72902 10017 21064 30166 40214 52011 8158/ 333 82695 87399;EQDQ01  00002PRCP99
0187026800999992000022015004+56920+018150FM-12+003999999V0203401N002110080019N0210001N1+00001-00171102181ADDAY181031AY221031GA1081+008009059GF108991081051008001999999MA1999999101691MD1210031+9999MW1021REMSYN082AAXX  20154 02680 41571 83404 10000 21017 30169 40218 52003 70282 885// 333 88695;
0223026800999992000022018004+56920+018150FM-12+003999999V0203101N002610036019N0650001N1-00161-00371102261ADDAA112000791AY181061AY221061GA1061+003609059GF106991061051004501001001KA1120M+00201MA1999999101771MD1110081+9999MW1011REMSYN094AAXX  20184 02680 11487 63105 11016 21037 30177 40226 51008 69902 70182 86500 333 10020 86612;
0159026800999992000022021004+56920+018150FM-12+003999999V0203401N002112200019N0650001N1-00111-00451102291ADDGA1011+004509029GF101991011011004501001001MA1999999101801MD1210031+9999REMSYN076AAXX  20214 02680 42487 13404 11011 21045 30180 40229 52003 81100 333 81894;
0189026800999992000022100004+56920+018150FM-12+003999999V0203601N001012200019N0700001N1-00241-00451102341ADDAA199000091GA1011+004509029GF101991011081004501001001MA1999999101851MD1210051+9999REMSYN076AAXX  21004 02680 32488 13602 11024 21045 30185 40234 52005 81800 333 81894;EQDQ01  00002PRCP99
0159026800999992000022103004+56920+018150FM-12+003999999V0200201N001010063019N0750001N1-00191-00331102331ADDGA1061+006309059GF106991061051008001001001MA1999999101841MD1710011+9999REMSYN076AAXX  21034 02680 42589 60202 11019 21033 30184 40233 57001 86500 333 86621;
0220026800999992000022106004+56920+018150FM-12+003999999V0200201N001012200019N0700001N1-00221-00461102351ADDAA199000091GA1011+004509029GF101991011021004501001001IA1149KA1120N-00261MA1999999101861MD1210021+9999REMSYN088AAXX  21064 02680 32488 10202 11022 21046 30186 40235 52002 81200 333 21026 34/// 81894;EQDQ01  00002PRCP99
0179026800999992000022109004+56920+018150FM-12+003999999V0203601N001012200019N0650001N1+00091-00551102481ADDGA1011+008009029GF101991011021008001001001MA1999999101991MD1210131+9999SA1+0209REMSYN088AAXX  21094 02680 42587 13602 10009 21055 30199 40248 52013 81200 222// 00020 333 81895;
0159026800999992000022115004+56920+018150FM-12+003999999V0203001N002112200019N0650001N1+00011-00571102481ADDGA1011+008009029GF101991011011008001001001MA1999999102001MD1710021+9999REMSYN076AAXX  21154 02680 42587 13004 10001 21057 30200 40248 57002 81100 333 81895;
0196026800999992000022118004+56920+018150FM-12+003999999V0202901N001012200019N0700001N1-00201-00421102501ADDAA199000091GA1001+999999999GF100991001001999999001001KA1999M+00231MA1999999102011MD1010011+9999REMSYN070AAXX  21184 02680 32988 02902 11020 21042 30201 40250 50001 333 10023;EQDQ01  00002PRCP99
0143026800999992000022121004+56920+018150FM-12+003999999V0202501N002112200019N0750001N1-00081-00381102471ADDGA1001+999999999GF100991001001999999001001MA1999999101981MD1810031+9999REMSYN060AAXX  21214 02680 42989 02504 11008 21038 30198 40247 58003;
0173026800999992000022200004+56920+018150FM-12+003999999V0202601N003112200019N0650001N1+00001-00391102401ADDAA199000091GA1001+999999999GF100991001001999999001001MA1999999101911MD1710071+9999REMSYN060AAXX  22004 02680 32987 02606 10000 21039 30191 40240 57007;EQDQ01  00002PRCP99
0143026800999992000022203004+56920+018150FM-12+003999999V0202901N001012200019N0650001N1-00151-00311102311ADDGA1001+999999999GF100991001001999999001001MA1999999101821MD1810091+9999REMSYN060AAXX  22034 02680 42987 02902 11015 21031 30182 40231 58009;
0220026800999992000022206004+56920+018150FM-12+003999999V0203101N001012200019N0650001N1-00151-00551102311ADDAA199000091GA1011+004509029GF101991011011004501031001IA1149KA1120N-00201MA1999999101821MD1410001+9999REMSYN088AAXX  22064 02680 32487 13102 11015 21055 30182 40231 54000 81130 333 21020 34/// 81894;EQDQ01  00002PRCP99
0159026800999992000022209004+56920+018150FM-12+003999999V0203001N001012200019N0650001N1+00171-00731102331ADDGA1011+999999089GF101991001001999999001051MA1999999101851MD1110031+9999REMSYN076AAXX  22094 02680 42987 13002 10017 21073 30185 40233 51003 80005 333 81299;
0195026800999992000022212004+56920+018150FM-12+003999999V0202901N001512200019N0600001N1+00211-00571102331ADDAA199000091GA1011+008009089GF104991011021008001031061MA1999999101851MD1410001+9999REMSYN082AAXX  22124 02680 32586 42903 10021 21057 30185 40233 54000 81236 333 81895 84299;EQDQ01  00002PRCP99
0165026800999992000022215004+56920+018150FM-12+003999999V0203201N00101030001CN0600001N1+00081-00671102341ADDGA1011+008009069GF108991011051008001011999MA1999999101851MD1510001+9999REMSYN082AAXX  22154 02680 42586 83202 10008 21067 30185 40234 55000 8151/ 333 81695 88499;
0208026800999992000022218004+56920+018150FM-12+003999999V0202801N000519999999N0600001N1-00061-00611102351ADDAA199000091GA1081+999999089GF108991001001999999001071KA1120M+00251MA1999999101861MD1110011+9999REMSYN082AAXX  22184 02680 32986 82801 11006 21061 30186 40235 51001 80007 333 10025 88299;EQDQ01  00002PRCP99
0159026800999992000022221004+56920+018150FM-12+003999999V0202701N001019999999N0600001N1-00031-00581102381ADDGA1081+999999089GF108991001001999999001071MA1999999101891MD1210031+9999REMSYN076AAXX  22214 02680 42986 82702 11003 21058 30189 40238 52003 80007 333 88299;
0205026800999992000022300004+56920+018150FM-12+003999999V0202701N001012200019N0600001N1-00041-00591102411ADDAA199000091GA1011+999999019GF101991001001999999001011MA1999999101921MD1210031+9999REMSYN076AAXX  23004 02680 32986 12702 11004 21059 30192 40241 52003 81001 333 81099;EQDQ01+000012SCOTLCQ02  00002PRCP99
0178026800999992000022303004+56920+018150FM-12+003999999V0202801N001010210019N0600001N1-00071-00621102381ADDGA1071+021009079GF107991071999022501031999MA1999999101891MD1810031+9999REMSYN076AAXX  23034 02680 42886 72802 11007 21062 30189 40238 58003 8703/ 333 87357;EQDQ01+000002SCOLCG
0226026800999992000022306004+56920+018150FM-12+003999999V0203201N00101030001CN0500001N1+00011-00411102421ADDAA199000091GA1011+008009089GF108991011011022501071999IA1149KA1120N-00101MA1999999101931MD1310041+9999REMSYN094AAXX  23064 02680 32884 83202 10001 21041 30193 40242 53004 8117/ 333 21010 34/// 81895 88399;EQDQ01  00002PRCP99
0185026800999992000022309004+56920+018150FM-12+003999999V0203001N00101030001CN0500001N1+00171-00371102491ADDGA1011+008009089GF108991011011022501071999MA1999999102011MD1110081+9999SA1+0209REMSYN094AAXX  23094 02680 42884 83002 10017 21037 30201 40249 51008 8117/ 222// 00020 333 81895 88399;
0210026800999992000022312004+56920+018150FM-12+003999999V0202701N002110300019N0500001N1+00111-00301102491ADDAA106000791AY121061AY221061GA1021+004509069GF108991021051022501071999MA1999999102011MD1410001+9999MW1701REMSYN094AAXX  23124 02680 11884 82704 10011 21030 30201 40249 54000 69901 77022 8257/ 333 82694 887//;
0187026800999992000022315004+56920+018150FM-12+003999999V0202901N002110045019N0300001N1+00061-00071102491ADDAY171031AY271031GA1081+004509059GF108991081051004501999999MA1999999102001MD1710011+9999MW1701REMSYN082AAXX  23154 02680 41480 82904 10006 21007 30200 40249 57001 77077 885// 333 88694;
0217026800999992000022318004+56920+018150FM-12+003999999V0203301N001012200019N0300001N1-00041-00351102541ADDAA199000021AY101061AY221061GA1021+004509059GF102991021051004501001001KA1120M+00221MA1999999102051MD1110051+9999MW1991REMSYN088AAXX  23184 02680 31480 23302 11004 21035 30205 40254 51005 79902 82500 333 10022 82694;
0170026800999992000022400004+56920+018150FM-12+003999999V0202601N001012200019N0550001N1-00031-00401102491ADDAA199000021GA1031+011109059GF103991031051012501001001MA1999999102001MD1810051+9999REMSYN076AAXX  24004 02680 32685 32602 11003 21040 30200 40249 58005 83500 333 83637;
0159026800999992000022403004+56920+018150FM-12+003999999V0202201N001012200019N0500001N1-00111-00251102371ADDGA1031+012509059GF103991031051012501001001MA1999999101881MD1810121+9999REMSYN076AAXX  24034 02680 42684 32202 11011 21025 30188 40237 58012 83500 333 83696;
0207026800999992000022406004+56920+018150FM-12+003999999V0201901N002612200019N0450001N1-00031-00431102231ADDAA199000021GA1021+004509069GF104991021051004501031001IA1149KA1120N-00111MA1999999101741MD1710141+9999REMSYN094AAXX  24064 02680 32483 41905 11003 21043 30174 40223 57014 82530 333 21011 34/// 82694 84399;
0165026800999992000022409004+56920+018150FM-12+003999999V0201801N00461030001CN0220001N1+00121-00481101931ADDGA1011+008009089GF108991021081008001071999MA1999999101441MD1810301+9999REMSYN082AAXX  24094 02680 42572 81809 10012 21048 30144 40193 58030 8287/ 333 81895 88499;
0195026800999992000022412004+56920+018150FM-12+003999999V0201801N00511030001CN0220001N1+00151-00261101451ADDAA199000091GA1011+004509089GF108991011011004501011999MA1999999100971MD1710471+9999REMSYN082AAXX  24124 02680 32472 81810 10015 21026 30097 40145 57047 8111/ 333 81894 88499;EQDQ01  00002PRCP99
0187026800999992000022415004+56920+018150FM-12+003999999V0201801N005710015019N0021001N1+00061-00081100921ADDAY121031AY221031GA1081+001509069GF108991081071001501999999MA1999999100441MD1710531+9999MW1731REMSYN082AAXX  24154 02680 41221 81811 10006 21008 30044 40092 57053 77322 887// 333 88792;
0223026800999992000022418004+56920+018150FM-12+003999999V0202001N005110012019N0050001N1+00081-00031100511ADDAA112005191AY171061AY221061GA1081+001209069GF108991081061001501999999KA1120M+00161MA1999999100031MD1710411+9999MW1101REMSYN094AAXX  24184 02680 11250 82010 10008 21003 30003 40051 57041 60052 71072 886// 333 10016 88704;
0143026800999992000022421004+56920+018150FM-12+003999999V0202701N004112200019N0400001N1+00131+00021100561ADDGA1001+999999999GF100991001001999999001001MA1999999100081MD1210051+9999REMSYN060AAXX  24214 02680 42982 02708 10013 20002 30008 40056 52005;
0154026800999992000022500004+56920+018150FM-12+003999999V0202701N005112200019N0400001N1+00171+00071100631ADDAA199000021GA1001+999999999GF100991001001999999001001MA1999999100161MD1310081+9999REMSYN060AAXX  25004 02680 32982 02710 10017 20007 30016 40063 53008;
0143026800999992000022503004+56920+018150FM-12+003999999V0202701N005112200019N0400001N1+00171+00071100681ADDGA1001+999999999GF100991001001999999001001MA1999999100211MD1110051+9999REMSYN060AAXX  25034 02680 42982 02710 10017 20007 30021 40068 51005;
0253026800999992000022506004+56920+018150FM-12+003999999V0202701N004612200019N0300001N1+00191+00061100711ADDAA199000091AJ199992999999999GA1011+999999079GF101991011001999999031001IA1259KA1120N+00081MA1999999100241MD1210031+9999REMSYN088AAXX  25064 02680 32980 12709 10019 20006 30024 40071 52003 81030 333 20008 41998 81399;EQDQ01  00002PRCP99Q02  09972SNDP  
0185026800999992000022509004+56920+018150FM-12+003999999V0202701N004612200019N0300001N1+00311+00091100771ADDGA1011+008009089GF104991011011008001031021MA1999999100301MD1110061+9999SA1+0189REMSYN094AAXX  25094 02680 42580 42709 10031 20009 30030 40077 51006 81132 222// 00018 333 81895 84099;
0189026800999992000022512004+56920+018150FM-12+003999999V0202501N004610045019N0290001N1+00251+00101100781ADDAA199000091GA1071+004509059GF108991071051004501999999MA1999999100311MD1110011+9999REMSYN076AAXX  25124 02680 32479 82509 10025 20010 30031 40078 51001 875// 333 87694;EQDQ01  00002PRCP99
0187026800999992000022515004+56920+018150FM-12+003999999V0202701N005110045019N0290001N1+00231+00121100751ADDAY121031AY221031GA1071+004509059GF108991071051004501999999MA1999999100281MD1810031+9999MW1611REMSYN082AAXX  25154 02680 41479 82710 10023 20012 30028 40075 58003 76122 875// 333 87694;
0223026800999992000022518004+56920+018150FM-12+003999999V0202801N002112200019N0550001N1+00201+00091100991ADDAA112001091AY161061AY221061GA1011+008009059GF101991011051008001001001KA1120M+00361MA1999999100511MD1310231+9999MW1011REMSYN094AAXX  25184 02680 11585 12804 10020 20009 30051 40099 53023 69992 70162 81500 333 10036 81695;
0159026800999992000022521004+56920+018150FM-12+003999999V0202701N003612200019N0550001N1+00231+00091101121ADDGA1011+008009059GF101991011051008001001001MA1999999100641MD1210131+9999REMSYN076AAXX  25214 02680 42585 12707 10023 20009 30064 40112 52013 81500 333 81695;
0170026800999992000022600004+56920+018150FM-12+003999999V0202701N003112200019N0450001N1+00171+00061101271ADDAA199000021GA1011+008009059GF101991011051008001001001MA1999999100791MD1110151+9999REMSYN076AAXX  26004 02680 32583 12706 10017 20006 30079 40127 51015 81500 333 81695;
0143026800999992000022603004+56920+018150FM-12+003999999V0202901N003112200019N0400001N1+00151+00061101491ADDGA1001+999999999GF100991001001999999001001MA1999999101011MD1210221+9999REMSYN060AAXX  26034 02680 42982 02906 10015 20006 30101 40149 52022;
0220026800999992000022606004+56920+018150FM-12+003999999V0202901N002612200019N0400001N1+00101+00001101701ADDAA199000091GA1011+999999079GF101991011001999999031001IA1149KA1120N+00101MA1999999101211MD1210201+9999REMSYN088AAXX  26064 02680 32982 12905 10010 20000 30121 40170 52020 81030 333 20010 34/// 81399;EQDQ01  00002PRCP99
0159026800999992000022609004+56920+018150FM-12+003999999V0202901N003112200019N0500001N1+00261+00141101901ADDGA1011+002509069GF101991011061002501001081MA1999999101421MD1210211+9999REMSYN076AAXX  26094 02680 42384 12906 10026 20014 30142 40190 52021 81608 333 81793;
0189026800999992000022612004+56920+018150FM-12+003999999V0202801N003112200019N0600001N1+00351+00051102011ADDAA199000091GA1011+999999089GF101991001001999999001081MA1999999101531MD1210111+9999REMSYN076AAXX  26124 02680 32986 12806 10035 20005 30153 40201 52011 80008 333 81299;EQDQ01  00002PRCP99
0165026800999992000022615004+56920+018150FM-12+003999999V0202601N002619999999N0600001N1+00361+00001102051ADDGA1011+025009039GF105991021001999999071021MA1999999101571MD1010041+9999REMSYN082AAXX  26154 02680 42986 52605 10036 20000 30157 40205 50004 82072 333 81399 85099;
0208026800999992000022618004+56920+018150FM-12+003999999V0202601N003110081019N0400001N1+00331+00131102121ADDAA199000091GA1061+008109059GF106991061051008001001001KA1120M+00401MA1999999101641MD1210071+9999REMSYN082AAXX  26184 02680 32582 62606 10033 20013 30164 40212 52007 86500 333 10040 86627;EQDQ01  00002PRCP99
0159026800999992000022621004+56920+018150FM-12+003999999V0202501N003112200019N0400001N1+00321+00141102201ADDGA1021+008009059GF102991021051008001001001MA1999999101721MD1210081+9999REMSYN076AAXX  26214 02680 42582 22506 10032 20014 30172 40220 52008 82500 333 82695;
0173026800999992000022700004+56920+018150FM-12+003999999V0202701N003112200019N0300001N1+00221+00081102271ADDAA199000091GA1001+999999999GF100991001001999999001001MA1999999101791MD1110071+9999REMSYN060AAXX  27004 02680 32980 02706 10022 20008 30179 40227 51007;EQDQ01  00002PRCP99
0143026800999992000022703004+56920+018150FM-12+003999999V0202601N001512200019N0300001N1+00201+00091102361ADDGA1001+999999999GF100991001001999999001001MA1999999101881MD1210091+9999REMSYN060AAXX  27034 02680 42980 02603 10020 20009 30188 40236 52009;
0220026800999992000022706004+56920+018150FM-12+003999999V0202301N003112200019N0300001N1+00201+00091102381ADDAA199000091GA1011+999999079GF102991011001999999031081IA1149KA1120N+00161MA1999999101901MD1210021+9999REMSYN088AAXX  27064 02680 32980 22306 10020 20009 30190 40238 52002 81038 333 20016 34/// 81399;EQDQ01  00002PRCP99
0159026800999992000022709004+56920+018150FM-12+003999999V0202301N003119999999N0300001N1+00361+00261102401ADDGA1081+999999089GF108991001001999999001071MA1999999101921MD1010021+9999REMSYN076AAXX  27094 02680 42980 82306 10036 20026 30192 40240 50002 80007 333 88299;
0195026800999992000022712004+56920+018150FM-12+003999999V0202001N005110750019N0110001N1+00321+00201102291ADDAA199000091GA1031+000909079GF108991031061000751001071MA1999999101811MD1810111+9999REMSYN082AAXX  27124 02680 32161 82010 10032 20020 30181 40229 58011 83607 333 83703 88299;EQDQ01  00002PRCP99
0165026800999992000022715004+56920+018150FM-12+003999999V0202101N006219999999N0200001N1+00311+00211102051ADDGA1011+025009039GF108991021001999999071071MA1999999101571MD1810241+9999REMSYN082AAXX  27154 02680 42970 82112 10031 20021 30157 40205 58024 82077 333 81399 88299;
0208026800999992000022718004+56920+018150FM-12+003999999V0202101N006219999999N0150001N1+00321+00231101851ADDAA199000091GA1081+999999089GF108991001001999999001071KA1120M+00421MA1999999101371MD1610201+9999REMSYN082AAXX  27184 02680 32965 82112 10032 20023 30137 40185 56020 80007 333 10042 88299;EQDQ01  00002PRCP99
0189026800999992000022721004+56920+018150FM-12+003999999V0202001N006219999999N0250001N1+00361+00161101531ADDAA199000091GA1081+999999089GF108991001001999999001071MA1999999101051MD1810321+9999REMSYN076AAXX  27214 02680 32975 82012 10036 20016 30105 40153 58032 80007 333 88299;EQDQ01  00002PRCP99
0189026800999992000022800004+56920+018150FM-12+003999999V0202001N007210300019N0200001N1+00421+00051101221ADDAA199000091GA1081+030009019GF108991081001999999011999MA1999999100741MD1710311+9999REMSYN076AAXX  28004 02680 32970 82014 10042 20005 30074 40122 57031 8801/ 333 88460;EQDQ01  00002PRCP99
0159026800999992000022803004+56920+018150FM-12+003999999V0202001N006710330019N0200001N1+00371+00191100881ADDGA1081+033009019GF108991081001999999021999MA1999999100411MD1710331+9999REMSYN076AAXX  28034 02680 42970 82013 10037 20019 30041 40088 57033 8802/ 333 88461;
0226026800999992000022806004+56920+018150FM-12+003999999V0202101N007219999999N0210001N1+00411+00211100631ADDAA199000091GA1021+025009039GF108991081001999999071999IA1019KA1120N+00321MA1999999100161MD1710251+9999REMSYN094AAXX  28064 02680 32971 82114 10041 20021 30016 40063 57025 8807/ 333 20032 30/// 82399 88499;EQDQ01  00002PRCP99
0179026800999992000022809004+56920+018150FM-12+003999999V0202001N00671075001CN0260001N1+00461+00211100431ADDGA1081+999999019GF108991081001999999011999MA1999999099961MD1710201+9999SA1+0309REMSYN088AAXX  28094 02680 42976 82013 10046 20021 39996 40043 57020 8801/ 222// 00030 333 88499;
0195026800999992000022812004+56920+018150FM-12+003999999V0202201N006219999999N0260001N1+00541+00191100201ADDAA199000091GA1011+025009039GF108991021001999999071071MA1999999099731MD1710231+9999REMSYN082AAXX  28124 02680 32976 82212 10054 20019 39973 40020 57023 82077 333 81399 88299;EQDQ01  00002PRCP99
0178026800999992000022815004+56920+018150FM-12+003999999V0202101N006710225019N0280001N1+00551+00141100031ADDGA1081+022509079GF108991081999022501071999MA1999999099561MD1710171+9999REMSYN076AAXX  28154 02680 42878 82113 10055 20014 39956 40003 57017 8807/ 333 88398;EQDQ01+000002SCOLCG
0224026800999992000022818004+56920+018150FM-12+003999999V0202301N005710210019N0170001N1+00541+00361100041ADDAA199000091GA1081+021009079GF108991081999022501071999KA1120M+00601MA1999999099571MD1010011+9999REMSYN082AAXX  28184 02680 32867 82311 10054 20036 39957 40004 50001 8807/ 333 10060 88357;EQDQ01+000002SCOLCGQ02  00002PRCP99
0178026800999992000022821004+56920+018150FM-12+003999999V0202401N003610210019N0400001N1+00381+00261100221ADDGA1081+021009079GF108991081999022501071999MA1999999099751MD1310181+9999REMSYN076AAXX  28214 02680 42882 82407 10038 20026 39975 40022 53018 8807/ 333 88357;EQDQ01+000002SCOLCG
0189026800999992000022900004+56920+018150FM-12+003999999V0202501N004612200019N0550001N1+00321+00251100401ADDAA199000091GA1011+999999079GF101991011001999999071001MA1999999099931MD1110181+9999REMSYN076AAXX  29004 02680 32985 12509 10032 20025 39993 40040 51018 81070 333 81399;EQDQ01  00002PRCP99
0143026800999992000022903004+56920+018150FM-12+003999999V0202401N005712200019N0400001N1+00291+00171100471ADDGA1001+999999999GF100991001001999999001001MA1999999100001MD1310071+9999REMSYN060AAXX  29034 02680 42982 02411 10029 20017 30000 40047 53007;
0220026800999992000022906004+56920+018150FM-12+003999999V0202501N005112200019N0400001N1+00271+00141100621ADDAA199000091GA1011+999999079GF101991011001999999031001IA1019KA1120N+00271MA1999999100151MD1210151+9999REMSYN088AAXX  29064 02680 32982 12510 10027 20014 30015 40062 52015 81030 333 20027 30/// 81399;EQDQ01  00002PRCP99
0159026800999992000022909004+56920+018150FM-12+003999999V0202301N005712200019N0290001N1+00431+00291100791ADDGA1011+002509069GF102991011061002501001011MA1999999100321MD1210171+9999REMSYN076AAXX  29094 02680 42379 22311 10043 20029 30032 40079 52017 81601 333 81793;
0195026800999992000022912004+56920+018150FM-12+003999999V0202201N00621075001CN0200001N1+00431+00211100781ADDAA199000091GA1011+004509069GF108991011051004501001071MA1999999100311MD1010011+9999REMSYN082AAXX  29124 02680 32470 82212 10043 20021 30031 40078 50001 81507 333 81694 88299;EQDQ01  00002PRCP99
0165026800999992000022915004+56920+018150FM-12+003999999V0202201N00621075001CN0100001N1+00321+00171100641ADDGA1011+002509079GF108991011061002501001071MA1999999100171MD1610141+9999REMSYN082AAXX  29154 02680 42360 82212 10032 20017 30017 40064 56014 81607 333 81793 88299;
0236026800999992000022918004+56920+018150FM-12+003999999V0202001N005119999999N0040001N1+00291+00181100491ADDAA199000091AY121061AY221061GA1081+999999089GF108991001001999999001071KA1120M+00501MA1999999100021MD1710151+9999MW1101REMSYN088AAXX  29184 02680 31940 82010 10029 20018 30002 40049 57015 71022 80007 333 10050 88299;EQDQ01  00002PRCP99
0159026800999992000022921004+56920+018150FM-12+003999999V0201901N004119999999N0290001N1+00301+00191100151ADDGA1081+999999089GF108991001001999999001071MA1999999099681MD1810341+9999REMSYN076AAXX  29214 02680 42979 81908 10030 20019 39968 40015 58034 80007 333 88299;
0173026800999992000030100004+56920+018150FM-12+003999999V0201801N004112200019N0300001N1+00311+00201099721ADDAA199000091GA1001+999999999GF100991001001999999001001MA1999999099251MD1710431+9999REMSYN060AAXX  01004 02680 32980 01808 10031 20020 39925 49972 57043;EQDQ01  00002PRCP99
0178026800999992000030103004+56920+018150FM-12+003999999V0201801N004610210019N0290001N1+00341+00231099191ADDGA1081+021009079GF108991081999022501071999MA1999999098721MD1710531+9999REMSYN076AAXX  01034 02680 42879 81809 10034 20023 39872 49919 57053 8807/ 333 88357;EQDQ01+000002SCOLCG
0235026800999992000030106004+56920+018150FM-12+003999999V0201701N004110025019N0040001N1+00321+00231098761ADDAA112000591AY121061AY201061GA1081+002509069GF108991081071002501999999IA1099KA1120N+00291MA1999999098301MD1710421+9999MW1601REMSYN100AAXX  01064 02680 11340 81708 10032 20023 39830 49876 57042 69952 76020 887// 333 20029 31/// 88793;
0207026800999992000030109004+56920+018150FM-12+003999999V0201901N005110015019N0035001N1+00371+00281098401ADDAY161031AY261031GA1081+001509069GF108991081071001501999999MA1999999097941MD1710361+9999MW1591SA1+0309REMSYN094AAXX  01094 02680 41235 81910 10037 20028 39794 49840 57036 75966 887// 222// 00030 333 88792;
0204026800999992000030112004+56920+018150FM-12+003999999V0202201N006210007519N0050001N1+00371+00281098251ADDAA106002091AY161061AY251061GA1081+000759069GF108991081061000751999999MA1999999097791MD1610151+9999MW1101REMSYN088AAXX  01124 02680 11150 82212 10037 20028 39779 49825 56015 60021 71065 886// 333 88791;
0187026800999992000030115004+56920+018150FM-12+003999999V0202401N005112200019N0450001N1+00361+00271098481ADDAY161031AY221031GA1011+002509059GF103991011051002501071011MA1999999098021MD1110231+9999MW1011REMSYN082AAXX  01154 02680 41383 32410 10036 20027 39802 49848 51023 70162 81571 333 81693;
0223026800999992000030118004+56920+018150FM-12+003999999V0202301N006212200019N0300001N1+00271+00181098741ADDAA112003091AY161061AY221061GA1011+999999079GF101991011001999999071001KA1120M+00401MA1999999098281MD1210261+9999MW1021REMSYN094AAXX  01184 02680 11980 12312 10027 20018 39828 49874 52026 60032 70262 81070 333 10040 81399;
0159026800999992000030121004+56920+018150FM-12+003999999V0202301N004612200019N0450001N1+00291+00201098861ADDGA1011+006609059GF102991021051008001001001MA1999999098391MD1310111+9999REMSYN076AAXX  01214 02680 42583 22309 10029 20020 39839 49886 53011 82500 333 81622;
0189026800999992000030200004+56920+018150FM-12+003999999V0202301N004610066019N0550001N1+00231+00151099081ADDAA199000091GA1071+006609059GF107991071051008001999999MA1999999098601MD1210211+9999REMSYN076AAXX  02004 02680 32585 72309 10023 20015 39860 49908 52021 875// 333 87622;EQDQ01  00002PRCP99
0143026800999992000030203004+56920+018150FM-12+003999999V0202501N004112200019N0500001N1+00201+00131099221ADDGA1001+999999999GF100991001001999999001001MA1999999098751MD1110151+9999REMSYN060AAXX  02034 02680 42984 02508 10020 20013 39875 49922 51015;
0220026800999992000030206004+56920+018150FM-12+003999999V0202701N004612200019N0600001N1+00211+00041099531ADDAA199000091GA1011+999999079GF101991011001999999031001IA1099KA1120N+00201MA1999999099061MD1210311+9999REMSYN088AAXX  02064 02680 32986 12709 10021 20004 39906 49953 52031 81030 333 20020 31/// 81399;EQDQ01  00002PRCP99
0165026800999992000030209004+56920+018150FM-12+003999999V0202901N00461030001CN0600001N1+00241-00391099901ADDGA1011+008009089GF107991011011008001081081MA1999999099431MD1210371+9999REMSYN082AAXX  02094 02680 42586 72909 10024 21039 39943 49990 52037 81188 333 81895 87299;
0189026800999992000030212004+56920+018150FM-12+003999999V0202901N003612200019N0700001N1+00881-00761100211ADDAA199000091GA1011+012509029GF101991011011012501081001MA1999999099741MD1110311+9999REMSYN076AAXX  02124 02680 32688 12907 10088 21076 39974 40021 51031 81180 333 81896;EQDQ01  00002PRCP99
0159026800999992000030215004+56920+018150FM-12+003999999V0202601N003612200019N0750001N1+00381-00821100391ADDGA1011+999999089GF101991001001999999001081MA1999999099921MD1210181+9999REMSYN076AAXX  02154 02680 42989 12607 10038 21082 39992 40039 52018 80008 333 81299;
0242026800999992000030218004+56920+018150FM-12+003999999V0202401N003612200019N0750001N1+00251-00281100471ADDAA199000091AY101061AY201061GA1011+008009089GF101991011091008001001001KA1120M+00451MA1999999100001MD1110081+9999MW1151REMSYN094AAXX  02184 02680 31589 12407 10025 21028 30000 40047 51008 71500 81900 333 10045 81895 81995;EQDQ01  00002PRCP99
0143026800999992000030221004+56920+018150FM-12+003999999V0202501N004112200019N0750001N1+00181-00431100461ADDGA1001+999999999GF100991001001999999001001MA1999999099991MD1710011+9999REMSYN060AAXX  02214 02680 42989 02508 10018 21043 39999 40046 57001;
0173026800999992000030300004+56920+018150FM-12+003999999V0202001N004112200019N0300001N1+00161+00061100161ADDAA199000091GA1001+999999999GF100991001001999999001001MA1999999099691MD1810301+9999REMSYN060AAXX  03004 02680 32980 02008 10016 20006 39969 40016 58030;EQDQ01  00002PRCP99
0200026800999992000030303004+56920+018150FM-12+003999999V0201801N00671004201CN0200001N1+00211+00131099452ADDGA1011+003009069GF108991081051004501999999MA1999999098982MD1810711+9999REMSYN082AAXX  03034 02680 42470 81813 10021 20013 39898 49945 58071 885// 333 81610 88612;EQDQ01+098983APOSP Q02+099453APOSLP
0254026800999992000030306004+56920+018150FM-12+003999999V0201801N008710015019N0060001N1+00141+00081098711ADDAA112000191AY121061AY201061GA1081+001509069GF108991081071001501999999IA1099KA1120N+00141MA1999999098231MD1710752+9999MW1681REMSYN100AAXX  03064 02680 11256 81817 10014 20008 39823 49871 57075 69912 76820 887// 333 20014 31/// 88792;EQDQ01+000752APC3  
0207026800999992000030309004+56920+018150FM-12+003999999V0202001N009310015019N0050001N1+00221+00191098101ADDAY171031AY261031GA1081+001509069GF108991081071001501999999MA1999999097651MD1710581+9999MW1601SA1+0269REMSYN094AAXX  03094 02680 41250 82018 10022 20019 39765 49810 57058 76076 887// 222// 00026 333 88792;
0210026800999992000030312004+56920+018150FM-12+003999999V0202201N00721030001CN0250001N1+00391+00361097761ADDAA106002091AY171061AY261061GA1041+001509079GF108991041071001501071999MA1999999097301MD1610351+9999MW1601REMSYN094AAXX  03124 02680 11275 82214 10039 20036 39730 49776 56035 60021 76076 8477/ 333 84792 88399;
0187026800999992000030315004+56920+018150FM-12+003999999V0202301N005712200019N0350001N1+00351+00241097801ADDAY161031AY261031GA1011+004509059GF102991011051004501031011MA1999999097341MD1310041+9999MW1011REMSYN082AAXX  03154 02680 41481 22311 10035 20024 39734 49780 53004 70166 81531 333 81694;
0211026800999992000030318004+56920+018150FM-12+003999999V0202101N006212200019N0350001N1+00261+00201097761ADDAA112002091AY161061AY201061GA1001+999999999GF100991001001999999001001KA1999M+00401MA1999999097301MD1810041+9999MW1021REMSYN082AAXX  03184 02680 11981 02112 10026 20020 39730 49776 58004 60022 70260 333 10040;
0189026800999992000030321004+56920+018150FM-12+003999999V0202101N006212200019N9999999N1+00261+00201097701ADDAA112002091GA1001+999999999GF100991001001999999001001KA1999M+00401MA1999999097301MD1810041+9999REMSYN082AAXX  03214 02680 1/81/ 02112 10026 20020 39730 4977/ 58004 60022 70260 333 10040;
0170026800999992000030400004+56920+018150FM-12+003999999V0202601N009312200019N0350001N1+00241-00391097881ADDAA199000021GA1031+007209059GF103991031051008001001001MA1999999097421MD1310181+9999REMSYN076AAXX  04004 02680 32581 32618 10024 21039 39742 49788 53018 83500 333 83624;
0187026800999992000030403004+56920+018150FM-12+003999999V0202801N007210126019N0500001N1+00061-00741098161ADDAY111031AY211031GA1081+012609059GF108991081051012501999999MA1999999097701MD1210281+9999MW1251REMSYN082AAXX  04034 02680 41684 82814 10006 21074 39770 49816 52028 72511 885// 333 88642;
0235026800999992000030406004+56920+018150FM-12+003999999V0203001N006210045019N0400001N1-00171-00841098581ADDAA112000791AY171061AY211061GA1071+004509029GF108991071021004501999999IA1099KA1120N-00171MA1999999098111MD1310411+9999MW1271REMSYN100AAXX  04064 02680 11482 83012 11017 21084 39811 49858 53041 69902 72771 872// 333 21017 31/// 87894;
0235026800999992000030409004+56920+018150FM-12+003999999V0203001N006210045019N9999999N1-00171-00841098581ADDAA112000791AY171031AY211031GA1071+004509029GF108991071021004501999999IA1099KA1120N-00171MA1999999098111MD1310411+9999MW1271REMSYN100AAXX  04094 02680 114/2 83012 11017 21084 39811 49858 53041 69902 72771 872// 333 21017 31/// 87894;
0210026800999992000030412004+56920+018150FM-12+003999999V0203101N00621075001CN0500001N1+00001-01201099471ADDAA106000191AY181061AY281061GA1041+004509069GF108991041051008001001071MA1999999098991MD1210411+9999MW1021REMSYN094AAXX  04124 02680 11584 83112 10000 21120 39899 49947 52041 69911 70288 84507 333 84694 88299;
0165026800999992000030415004+56920+018150FM-12+003999999V0203101N00461030001CN0750001N1+00101-01271099851ADDGA1011+004509089GF108991011011004501031071MA1999999099371MD1210381+9999REMSYN082AAXX  04154 02680 42489 83109 10010 21127 39937 49985 52038 81137 333 81894 88299;
0189026800999992000030418004+56920+018150FM-12+003999999V0203001N005112200019N0750001N1+00191-01231100161ADDAA199000021GA1021+004509059GF102991021051004501001001KA1120M+00301MA1999999099681MD1210311+9999REMSYN082AAXX  04184 02680 32489 23010 10019 21123 39968 40016 52031 82500 333 10030 82694;
0143026800999992000030421004+56920+018150FM-12+003999999V0202701N004112200019N0750001N1+00051-01281100361ADDGA1001+999999999GF100991001001999999001001MA1999999099881MD1210201+9999REMSYN060AAXX  04214 02680 42989 02708 10005 21128 39988 40036 52020;
0173026800999992000030500004+56920+018150FM-12+003999999V0202801N004112200019N0750001N1-00021-01341100461ADDAA199000091GA1001+999999999GF100991001001999999001001MA1999999099981MD1210101+9999REMSYN060AAXX  05004 02680 32989 02808 11002 21134 39998 40046 52010;EQDQ01  00002PRCP99
0143026800999992000030501004+56920+018150FM-12+003999999V0202901N003112200019N0750001N1-00101-01381100571ADDGA1001+999999999GF100991001001999999001001MA1999999100091MD1210111+9999REMSYN060AAXX  05014 02680 42989 02906 11010 21138 30009 40057 52011;
0143026800999992000030503004+56920+018150FM-12+003999999V0202901N003112200019N0750001N1-00101-01381100571ADDGA1001+999999999GF100991001001999999001001MA1999999100091MD1210111+9999REMSYN060AAXX  05034 02680 42989 02906 11010 21138 30009 40057 52011;
0220026800999992000030506004+56920+018150FM-12+003999999V0203101N004112200019N0750001N1-00121-00881100731ADDAA199000091GA1011+999999019GF101991001001999999001011IA1149KA1120N-00121MA1999999100251MD1210161+9999REMSYN088AAXX  05064 02680 32989 13108 11012 21088 30025 40073 52016 80001 333 21012 34/// 81099;EQDQ01  00002PRCP99
0159026800999992000030509004+56920+018150FM-12+003999999V0203201N005112200019N0750001N1+00111-00811100951ADDGA1041+999999019GF104991001001999999001011MA1999999100481MD1210231+9999REMSYN076AAXX  05094 02680 42989 43210 10011 21081 30048 40095 52023 80001 333 84099;
0189026800999992000030512004+56920+018150FM-12+003999999V0203201N005112200019N0750001N1+00201-01011101211ADDAA199000091GA1031+012509059GF103991031051012501001001MA1999999100741MD1210261+9999REMSYN076AAXX  05124 02680 32689 33210 10020 21101 30074 40121 52026 83500 333 83696;EQDQ01  00002PRCP99
0193026800999992000030515004+56920+018150FM-12+003999999V0203201N005112200019N0750001N1+00131-01141101401ADDAY101031AY201031GA1011+012509089GF102991021091012501001001MA1999999100921MD1210181+9999MW1151REMSYN088AAXX  05154 02680 41689 23210 10013 21114 30092 40140 52018 71500 82900 333 81896 81996;
0208026800999992000030518004+56920+018150FM-12+003999999V0203201N004112200019N0700001N1+00021-01031101661ADDAA199000091GA1011+012509029GF101991011021012501001001KA1120M+00271MA1999999101171MD1210251+9999REMSYN082AAXX  05184 02680 32688 13208 10002 21103 30117 40166 52025 81200 333 10027 81896;EQDQ01  00002PRCP99
0143026800999992000030521004+56920+018150FM-12+003999999V0203201N002112200019N0700001N1-00051-01011101811ADDGA1001+999999999GF100991001001999999001001MA1999999101321MD1110151+9999REMSYN060AAXX  05214 02680 42988 03204 11005 21101 30132 40181 51015;
0189026800999992000030600004+56920+018150FM-12+003999999V0202701N002119999999N0700001N1-00081-00991101801ADDAA199000091GA1081+999999089GF108991001001999999001071MA1999999101311MD1810011+9999REMSYN076AAXX  06004 02680 32988 82704 11008 21099 30131 40180 58001 80007 333 88299;EQDQ01  00002PRCP99
0159026800999992000030603004+56920+018150FM-12+003999999V0202401N003619999999N0650001N1-00041-00621101651ADDGA1081+999999089GF108991001001999999001071MA1999999101161MD1810151+9999REMSYN076AAXX  06034 02680 42987 82407 11004 21062 30116 40165 58015 80007 333 88299;
0226026800999992000030606004+56920+018150FM-12+003999999V0202301N00571004501CN0350001N1+00101-00151101371ADDAA199000091GA1071+004509069GF108991071051004501021999IA1019KA1120N-00091MA1999999100881MD1810281+9999REMSYN094AAXX  06064 02680 32481 82311 10010 21015 30088 40137 58028 8752/ 333 21009 30/// 87694 88499;EQDQ01  00002PRCP99
0207026800999992000030609004+56920+018150FM-12+003999999V0202201N007210025019N0150001N1+00181+00021100901ADDAY121031AY221031GA1081+002509069GF108991081071002501999999MA1999999100411MD1810471+9999MW1691SA1+0209REMSYN094AAXX  06094 02680 41365 82214 10018 20002 30041 40090 58047 76922 887// 222// 00020 333 88793;
0204026800999992000030612004+56920+018150FM-12+003999999V0202401N007710025019N0048001N1+00261+00151100411ADDAA106001091AY171061AY221061GA1081+002509069GF108991081071002501999999MA1999999099941MD1710471+9999MW1611REMSYN088AAXX  06124 02680 11348 82415 10026 20015 39994 40041 57047 60011 76172 887// 333 88793;
0193026800999992000030615004+56920+018150FM-12+003999999V0202401N00721002501CN0200001N1+00361+00271100001ADDAY161031AY261031GA1061+002509079GF108991061071002501071999MA1999999099531MD1610411+9999MW1021REMSYN088AAXX  06154 02680 41370 82414 10036 20027 39953 40000 56041 70266 8677/ 333 86793 88399;
0223026800999992000030618004+56920+018150FM-12+003999999V0202401N007219999999N0300001N1+00401+00341099861ADDAA112001091AY161061AY261061GA1081+999999089GF108991081001999999071999KA1120M+00421MA1999999099391MD1710141+9999MW1021REMSYN094AAXX  06184 02680 11980 82414 10040 20034 39939 49986 57014 60012 70266 8807/ 333 10042 88299;
0187026800999992000030621004+56920+018150FM-12+003999999V0202201N007210012019N0035001N1+00391+00331099591ADDAY121031AY221031GA1081+001209069GF108991081061001501999999MA1999999099121MD1810271+9999MW1101REMSYN082AAXX  06214 02680 41235 82214 10039 20033 39912 49959 58027 71022 886// 333 88704;
0170026800999992000030700004+56920+018150FM-12+003999999V0202301N005710087019N0100001N1+00431+00381099231ADDAA199000021GA1081+008709059GF108991081051008001999999MA1999999098761MD1710361+9999REMSYN076AAXX  07004 02680 32560 82311 10043 20038 39876 49923 57036 885// 333 88629;
0159026800999992000030703004+56920+018150FM-12+003999999V0202601N005712200019N0500001N1+00541+00431099221ADDGA1021+012609059GF102991021051012501001001MA1999999098751MD1510011+9999REMSYN076AAXX  07034 02680 42684 22611 10054 20043 39875 49922 55001 82500 333 82642;
0220026800999992000030706004+56920+018150FM-12+003999999V0202701N005712200019N0500001N1+00371-00121099381ADDAA199000091GA1011+999999019GF101991001001999999001011IA1099KA1120N+00371MA1999999098911MD1210161+9999REMSYN088AAXX  07064 02680 32984 12711 10037 21012 39891 49938 52016 80001 333 20037 31/// 81099;EQDQ01  00002PRCP99
0165026800999992000030709004+56920+018150FM-12+003999999V0202701N005119999999N0400001N1+00441-00251099641ADDGA1011+025009039GF105991011001999999081021MA1999999099171MD1210261+9999REMSYN082AAXX  07094 02680 42982 52710 10044 21025 39917 49964 52026 81082 333 81399 84099;
0189026800999992000030712004+56920+018150FM-12+003999999V0202501N00511075001CN0300001N1+00461-00211099761ADDAA199000091GA1081+999999019GF108991081001999999011999MA1999999099291MD1110121+9999REMSYN076AAXX  07124 02680 32980 82510 10046 21021 39929 49976 51012 8801/ 333 88499;EQDQ01  00002PRCP99
0159026800999992000030715004+56920+018150FM-12+003999999V0202601N003619999999N0350001N1+00381-00081099821ADDGA1081+999999079GF108991081001999999071999MA1999999099351MD1110061+9999REMSYN076AAXX  07154 02680 42981 82607 10038 21008 39935 49982 51006 8807/ 333 88399;
0208026800999992000030718004+56920+018150FM-12+003999999V0202901N002612200019N0300001N1+00261-00051099921ADDAA199000091GA1011+999999079GF101991011001999999071011KA1120M+00521MA1999999099451MD1310101+9999REMSYN082AAXX  07184 02680 32980 12905 10026 21005 39945 49992 53010 81071 333 10052 81399;EQDQ01  00002PRCP99
0143026800999992000030721004+56920+018150FM-12+003999999V0203001N002612200019N0350001N1+00221+00051100021ADDGA1001+999999999GF100991001001999999001001MA1999999099551MD1110101+9999REMSYN060AAXX  07214 02680 42981 03005 10022 20005 39955 40002 51010;
0173026800999992000030800004+56920+018150FM-12+003999999V0202901N003112200019N0400001N1+00191+00021100171ADDAA199000091GA1001+999999999GF100991001001999999001001MA1999999099701MD1310151+9999REMSYN060AAXX  08004 02680 32982 02906 10019 20002 39970 40017 53015;EQDQ01  00002PRCP99
0143026800999992000030803004+56920+018150FM-12+003999999V0203201N003112200019N0450001N1+00141-00021100301ADDGA1001+999999999GF100991001001999999001001MA1999999099821MD1110121+9999REMSYN060AAXX  08034 02680 42983 03206 10014 21002 39982 40030 51012;
0220026800999992000030806004+56920+018150FM-12+003999999V0203001N002119999999N0600001N1+00101-00011100361ADDAA199000091GA1081+999999089GF108991001001999999001071IA1149KA1120N+00101MA1999999099881MD1010061+9999REMSYN088AAXX  08064 02680 32986 83004 10010 21001 39988 40036 50006 80007 333 20010 34/// 88299;EQDQ01  00002PRCP99
0185026800999992000030809004+56920+018150FM-12+003999999V0202601N00101999999CN0700001N1+00241+00081100311ADDGA1061+025009049GF107991061001999999011081MA1999999099841MD1810041+9999SA1+0249REMSYN094AAXX  08094 02680 42988 72602 10024 20008 39984 40031 58004 86018 222// 00024 333 86499 87299;
0195026800999992000030812004+56920+018150FM-12+003999999V0202001N00311004501CN0450001N1+00241+00031100001ADDAA199000091GA1061+004509069GF107991061051004501071999MA1999999099531MD1810311+9999REMSYN082AAXX  08124 02680 32483 72006 10024 20003 39953 40000 58031 8657/ 333 86694 87399;EQDQ01  00002PRCP99
0187026800999992000030815004+56920+018150FM-12+003999999V0202001N002110009019N0050001N1+00231+00151099561ADDAY121031AY221031GA1081+000909069GF108991081071000751999999MA1999999099091MD1810441+9999MW1611REMSYN082AAXX  08154 02680 41150 82004 10023 20015 39909 49956 58044 76122 887// 333 88703;
0223026800999992000030818004+56920+018150FM-12+003999999V0201401N002110006019N0020001N1+00021-00051099141ADDAA112003091AY161061AY221061GA1081+000609069GF108991081071000751999999KA1120M+00391MA1999999098661MD1710431+9999MW1731REMSYN094AAXX  08184 02680 11120 81404 10002 21005 39866 49914 57043 60032 77362 887// 333 10039 88702;
0187026800999992000030821004+56920+018150FM-12+003999999V0202701N000510006019N0030001N1+00141+00071098911ADDAY171031AY271031GA1081+000609069GF108991081061000751999999MA1999999098431MD1710231+9999MW1101REMSYN082AAXX  08214 02680 41130 82701 10014 20007 39843 49891 57023 71077 886// 333 88702;
0204026800999992000030900004+56920+018150FM-12+003999999V0203601N000510009019N0030001N1+00121+00041098941ADDAA106000891AY171061AY271061GA1081+000909069GF108991081061000751999999MA1999999098461MD1310031+9999MW1101REMSYN088AAXX  09004 02680 11130 83601 10012 20004 39846 49894 53003 69971 71077 886// 333 88703;
0165026800999992000030903004+56920+018150FM-12+003999999V0203501N00101001201CN0550001N1+00081+00011098981ADDGA1041+001509079GF108991081051001501999999MA1999999098401MD1710061+9999REMSYN082AAXX  09034 02680 42285 83502 10008 20001 39840 49898 57006 885// 333 84705 88642;
0271026800999992000030906004+56920+018150FM-12+003999999V0203601N002610009019N0060001N1+00041+00011099021ADDAA112002091AJ199992999999999AY121061AY221061GA1081+000909069GF108991081071001501999999IA1259KA1120N+00021MA1999999098541MD1310041+9999MW1711REMSYN100AAXX  09064 02680 11256 83605 10004 20001 39854 49902 53004 60022 77122 887// 333 20002 41998 88703;EQDQ01  09972SNDP  
0187026800999992000030909004+56920+018150FM-12+003999999V0200201N004110045019N0450001N1+00161+00121099501ADDAY171031AY271031GA1061+004509059GF107991061051004501031001MA1999999099031MD1210491+9999MW1011REMSYN082AAXX  09094 02680 41483 70208 10016 20012 39903 49950 52049 70177 86530 333 86694;
0210026800999992000030912004+56920+018150FM-12+003999999V0203501N00311012001CN0550001N1+00121-00441099961ADDAA106000791AY181061AY271061GA1031+008009089GF106991061081008001001001MA1999999099481MD1210451+9999MW1021REMSYN094AAXX  09124 02680 11585 63506 10012 21044 39948 49996 52045 69901 70287 86800 333 83895 84696;
0159026800999992000030915004+56920+018150FM-12+003999999V0203201N005112200019N0650001N1+00121-00831100281ADDGA1011+012509029GF101991011011012501031001MA1999999099801MD1210321+9999REMSYN076AAXX  09154 02680 42687 13210 10012 21083 39980 40028 52032 81130 333 81896;
0195026800999992000030918004+56920+018150FM-12+003999999V0203201N005712200019N0700001N1+00071-00711100501ADDAA112000791GA1011+008009029GF102991011011008001071001KA1120M+00171MA1999999100021MD1210221+9999REMSYN088AAXX  09184 02680 12588 23211 10007 21071 30002 40050 52022 69902 81170 333 10017 81895;
0143026800999992000030921004+56920+018150FM-12+003999999V0203101N006212200019N0700001N1+00041-00561100621ADDGA1001+999999999GF100991001001999999001001MA1999999100141MD1210121+9999REMSYN060AAXX  09214 02680 42988 03112 10004 21056 30014 40062 52012;
0173026800999992000031000004+56920+018150FM-12+003999999V0203201N006212200019N0700001N1+00051-00771100731ADDAA199000091GA1001+999999999GF100991001001999999001001MA1999999100251MD1110111+9999REMSYN060AAXX  10004 02680 32988 03212 10005 21077 30025 40073 51011;EQDQ01  00002PRCP99
0159026800999992000031003004+56920+018150FM-12+003999999V0203201N006212200019N0750001N1+00001-00921100821ADDGA1011+012509029GF101991011011012501001001MA1999999100341MD1310091+9999REMSYN076AAXX  10034 02680 42689 13212 10000 21092 30034 40082 53009 81100 333 81896;
0220026800999992000031006004+56920+018150FM-12+003999999V0203401N006212200019N0700001N1-00011-00981100991ADDAA199000091GA1011+012509029GF102991021021012501001001IA1149KA1120N-00011MA1999999100501MD1210161+9999REMSYN088AAXX  10064 02680 32688 23412 11001 21098 30050 40099 52016 82200 333 21001 34/// 81896;EQDQ01  00002PRCP99
0179026800999992000031009004+56920+018150FM-12+003999999V0203201N005110125019N0750001N1+00041-00781101251ADDGA1061+012509059GF106991061051012501001001MA1999999100761MD1210261+9999SA1+0169REMSYN088AAXX  10094 02680 42689 63210 10004 21078 30076 40125 52026 86500 222// 00016 333 86696;
0189026800999992000031012004+56920+018150FM-12+003999999V0203301N005112200019N0750001N1+00211-00751101431ADDAA199000091GA1021+012509029GF102991021011012501001001MA1999999100951MD1210191+9999REMSYN076AAXX  10124 02680 32689 23310 10021 21075 30095 40143 52019 82100 333 82896;EQDQ01  00002PRCP99
0159026800999992000031015004+56920+018150FM-12+003999999V0203201N003612200019N0750001N1+00221-00791101541ADDGA1011+012509029GF101991011011012501001011MA1999999101061MD1110111+9999REMSYN076AAXX  10154 02680 42689 13207 10022 21079 30106 40154 51011 81101 333 81896;
0214026800999992000031018004+56920+018150FM-12+003999999V0203001N002112200019N0700001N1+00151-00411101601ADDAA199000091GA1011+008009089GF103991011011008001001051KA1120M+00251MA1999999101121MD1210061+9999REMSYN088AAXX  10184 02680 32588 33004 10015 21041 30112 40160 52006 81105 333 10025 81895 83299;EQDQ01  00002PRCP99
0159026800999992000031021004+56920+018150FM-12+003999999V0203001N003112200019N0700001N1+00031-00631101521ADDGA1011+999999019GF101991001001999999001011MA1999999101031MD1810091+9999REMSYN076AAXX  10214 02680 42988 13006 10003 21063 30103 40152 58009 80001 333 81099;
0189026800999992000031100004+56920+018150FM-12+003999999V0202901N002112200019N0550001N1-00041-00481101331ADDAA199000091GA1011+999999019GF101991001001999999001011MA1999999100841MD1710191+9999REMSYN076AAXX  11004 02680 32985 12904 11004 21048 30084 40133 57019 80001 333 81099;EQDQ01  00002PRCP99
0159026800999992000031103004+56920+018150FM-12+003999999V0202601N001512200019N0650001N1-00011-00491101091ADDGA1011+999999019GF101991001001999999001011MA1999999100601MD1710241+9999REMSYN076AAXX  11034 02680 42987 12603 11001 21049 30060 40109 57024 80001 333 81099;
0220026800999992000031106004+56920+018150FM-12+003999999V0201801N001519999999N0650001N1-00031-00491100851ADDAA199000091GA1081+999999089GF108991001001999999001071IA1149KA1120N-00101MA1999999100371MD1710231+9999REMSYN088AAXX  11064 02680 32987 81803 11003 21049 30037 40085 57023 80007 333 21010 34/// 88299;EQDQ01  00002PRCP99
0165026800999992000031109004+56920+018150FM-12+003999999V0201501N00211030001CN0650001N1+00231-00351100761ADDGA1011+002509089GF108991011021002501071999MA1999999100291MD1810091+9999REMSYN082AAXX  11094 02680 42387 81504 10023 21035 30029 40076 58009 8127/ 333 81893 88399;
0195026800999992000031112004+56920+018150FM-12+003999999V0201501N00101030001CN0650001N1+00261-00321100811ADDAA199000091GA1041+002509089GF108991041021002501071999MA1999999100341MD1310051+9999REMSYN082AAXX  11124 02680 32387 81502 10026 21032 30034 40081 53005 8427/ 333 84893 88399;EQDQ01  00002PRCP99
0159026800999992000031115004+56920+018150FM-12+003999999V0200601N002112200019N0750001N1+00301-00721100951ADDGA1011+002509029GF102991011021002501031001MA1999999100471MD1110141+9999REMSYN076AAXX  11154 02680 42389 20604 10030 21072 30047 40095 51014 81230 333 81893;
0208026800999992000031118004+56920+018150FM-12+003999999V0200601N003112200019N0650001N1-00011-00531101241ADDAA199000091GA1011+002509029GF101991011011002501001001KA1120M+00401MA1999999100751MD1310291+9999REMSYN082AAXX  11184 02680 32387 10606 11001 21053 30075 40124 53029 81100 333 10040 81893;EQDQ01  00002PRCP99
0159026800999992000031121004+56920+018150FM-12+003999999V0203601N002112200019N0650001N1-00221-00611101591ADDGA1031+999999089GF103991001001999999001061MA1999999101101MD1210351+9999REMSYN076AAXX  11214 02680 42987 33604 11022 21061 30110 40159 52035 80006 333 83299;
0189026800999992000031200004+56920+018150FM-12+003999999V0200101N001512200019N0650001N1-00221-00841101861ADDAA199000091GA1011+999999089GF101991001001999999001081MA1999999101371MD1210271+9999REMSYN076AAXX  12004 02680 32987 10103 11022 21084 30137 40186 52027 80008 333 81299;EQDQ01  00002PRCP99
0159026800999992000031203004+56920+018150FM-12+003999999V0203601N001012200019N0650001N1-00301-00911102051ADDGA1011+999999079GF101991011001999999031001MA1999999101561MD1110191+9999REMSYN076AAXX  12034 02680 42987 13602 11030 21091 30156 40205 51019 81030 333 81399;
0220026800999992000031206004+56920+018150FM-12+003999999V0209999C000012200019N0750001N1-00261-01061102201ADDAA199000091GA1011+004509029GF101991011011004501001001IA1289KA1120N-00301MA1999999101711MD1210151+9999REMSYN088AAXX  12064 02680 32489 10000 11026 21106 30171 40220 52015 81100 333 21030 44/// 81894;EQDQ01  00002PRCP99
0159026800999992000031209004+56920+018150FM-12+003999999V0202501N003112200019N0650001N1+00201-00561102291ADDGA1011+008009029GF101991011011008001031081MA1999999101811MD1110101+9999REMSYN076AAXX  12094 02680 42587 12506 10020 21056 30181 40229 51010 81138 333 81895;
0195026800999992000031212004+56920+018150FM-12+003999999V0202401N00461030001CN0600001N1+00311-00221102251ADDAA199000091GA1011+008009089GF105991011011008001051001MA1999999101771MD1710041+9999REMSYN082AAXX  12124 02680 32586 52409 10031 21022 30177 40225 57004 81150 333 81895 85399;EQDQ01  00002PRCP99
0159026800999992000031215004+56920+018150FM-12+003999999V0202401N004119999999N0550001N1+00211-00071102141ADDGA1071+999999079GF107991071001999999071999MA1999999101661MD1710111+9999REMSYN076AAXX  12154 02680 42985 72408 10021 21007 30166 40214 57011 8707/ 333 87399;
0208026800999992000031218004+56920+018150FM-12+003999999V0202401N004110111019N0500001N1+00201+00061102091ADDAA199000091GA1081+011109059GF108991081051012501999999KA1120M+00351MA1999999101611MD1710051+9999REMSYN082AAXX  12184 02680 32684 82408 10020 20006 30161 40209 57005 885// 333 10035 88637;EQDQ01  00002PRCP99
0159026800999992000031221004+56920+018150FM-12+003999999V0202401N004110135019N0450001N1+00171+00041102061ADDGA1081+013509059GF108991081051012501999999MA1999999101581MD1610031+9999REMSYN076AAXX  12214 02680 42683 82408 10017 20004 30158 40206 56003 885// 333 88645;
0195026800999992000031300004+56920+018150FM-12+003999999V0202501N00311002101CN0450001N1+00151+00051102011ADDAA199000091GA1011+002709079GF108991081051002501999999MA1999999101531MD1710051+9999REMSYN082AAXX  13004 02680 32383 82506 10015 20005 30153 40201 57005 885// 333 81709 88649;EQDQ01  00002PRCP99
0159026800999992000031303004+56920+018150FM-12+003999999V0202401N003110072019N0400001N1+00141+00071101931ADDGA1081+007209059GF108991081051008001999999MA1999999101441MD1710091+9999REMSYN076AAXX  13034 02680 42582 82406 10014 20007 30144 40193 57009 885// 333 88624;
0220026800999992000031306004+56920+018150FM-12+003999999V0202301N003110025019N0210001N1+00151+00091101851ADDAA199000091GA1081+002509059GF108991081051002501999999IA1019KA1120N+00131MA1999999101371MD1710071+9999REMSYN088AAXX  13064 02680 32371 82306 10015 20009 30137 40185 57007 885// 333 20013 30/// 88693;EQDQ01  00002PRCP99
0207026800999992000031309004+56920+018150FM-12+003999999V0202001N004110015019N0100001N1+00301+00241101691ADDAY161031AY221031GA1081+001509069GF108991081061001501999999MA1999999101211MD1810161+9999MW1211SA1+0249REMSYN094AAXX  13094 02680 41260 82008 10030 20024 30121 40169 58016 72162 886// 222// 00024 333 88792;
0210026800999992000031312004+56920+018150FM-12+003999999V0202201N00411001201CN0100001N1+00341+00281101581ADDAA106000791AY161061AY221061GA1021+001509079GF108991081051001501999999MA1999999101101MD1710111+9999MW1501REMSYN094AAXX  13124 02680 11260 82208 10034 20028 30110 40158 57011 69901 75062 885// 333 82792 88694;
0159026800999992000031315004+56920+018150FM-12+003999999V0202201N004610125019N0160001N1+00391+00351101381ADDGA1081+012509059GF108991081051012501999999MA1999999100901MD1710201+9999REMSYN076AAXX  13154 02680 42666 82209 10039 20035 30090 40138 57020 885// 333 88696;
0201026800999992000031318004+56920+018150FM-12+003999999V0202301N00461000601CN0110001N1+00311+00251101231ADDAA112000791GA1011+000909079GF107991071051000751999999KA1120M+00461MA1999999100751MD1710151+9999REMSYN094AAXX  13184 02680 12161 72309 10031 20025 30075 40123 57015 69902 875// 333 10046 81703 87656;
0159026800999992000031321004+56920+018150FM-12+003999999V0202201N005110024019N0100001N1+00311+00251101081ADDGA1071+002409069GF107991071061002501999999MA1999999100601MD1810151+9999REMSYN076AAXX  13214 02680 42360 72210 10031 20025 30060 40108 58015 876// 333 87708;
0176026800999992000031400004+56920+018150FM-12+003999999V0202201N00511001201CN0150001N1+00301+00261100801ADDAA199000021GA1011+001509079GF108991081051001501999999MA1999999100331MD1710271+9999REMSYN082AAXX  14004 02680 32265 82210 10030 20026 30033 40080 57027 885// 333 81705 88611;
0159026800999992000031403004+56920+018150FM-12+003999999V0202301N005112200019N0150001N1+00281+00241100581ADDGA1011+004509059GF101991011051004501001001MA1999999100111MD1810221+9999REMSYN076AAXX  14034 02680 42465 12310 10028 20024 30011 40058 58022 81500 333 81694;
0226026800999992000031406004+56920+018150FM-12+003999999V0203201N00411030001CN0250001N1+00321+00281100521ADDAA199000091GA1011+004509069GF107991011051004501071999IA1019KA1120N+00281MA1999999100051MD1610061+9999REMSYN094AAXX  14064 02680 32475 73208 10032 20028 30005 40052 56006 8157/ 333 20028 30/// 81694 87499;EQDQ01  00002PRCP99
0193026800999992000031409004+56920+018150FM-12+003999999V0202301N00411030001CN0150001N1+00381+00341100421ADDAY161031AY221031GA1011+002509079GF108991011071002501021999MA1999999099951MD1810101+9999MW1611REMSYN088AAXX  14094 02680 41365 82308 10038 20034 39995 40042 58010 76162 8172/ 333 81793 88497;
0210026800999992000031412004+56920+018150FM-12+003999999V0202301N00411000751CN0048001N1+00401+00361100231ADDAA106000591AY161061AY221061GA1051+000759079GF108991051071000751071999MA1999999099761MD1810191+9999MW1101REMSYN094AAXX  14124 02680 11148 82308 10040 20036 39976 40023 58019 69951 71062 8577/ 333 85791 88397;
0193026800999992000031415004+56920+018150FM-12+003999999V0202301N00261000751CN0048001N1+00361+00351100001ADDAY121031AY221031GA1061+000759079GF108991061061000751011999MA1999999099531MD1710231+9999MW1101REMSYN088AAXX  14154 02680 41148 82305 10036 20035 39953 40000 57023 71022 8661/ 333 86791 88497;
0229026800999992000031418004+56920+018150FM-12+003999999V0202401N00151030001CN0250001N1+00231+00201099821ADDAA112000591AY121061AY221061GA1021+002509079GF108991021061002501011999KA1120M+00421MA1999999099351MD1710181+9999MW1281REMSYN100AAXX  14184 02680 11375 82403 10023 20020 39935 49982 57018 69952 72822 8261/ 333 10042 82793 88398;
0159026800999992000031421004+56920+018150FM-12+003999999V0202601N002119999999N0250001N1+00301-00261099681ADDGA1081+999999089GF108991001001999999001071MA1999999099211MD1710141+9999REMSYN076AAXX  14214 02680 42975 82604 10030 21026 39921 49968 57014 80007 333 88299;
0204026800999992000031500004+56920+018150FM-12+003999999V0202401N003110225019N0170001N1+00191+00161099561ADDAA106000791AY121061AY221061GA1081+022509029GF108991081001022501021999MA1999999099091MD1610121+9999MW1611REMSYN088AAXX  15004 02680 11867 82406 10019 20016 39909 49956 56012 69901 76122 8802/ 333 88598;
0187026800999992000031503004+56920+018150FM-12+003999999V0203001N002610007519N0040001N1+00081+00051099501ADDAY161031AY261031GA1081+000759069GF108991081071000751999999MA1999999099031MD1610061+9999MW1611REMSYN082AAXX  15034 02680 41140 83005 10008 20005 39903 49950 56006 76166 887// 333 88791;
0235026800999992000031506004+56920+018150FM-12+003999999V0203301N003610007519N0030001N1+00071+00061099601ADDAA112001091AY171061AY261061GA1081+000759069GF108991081071000751999999IA1099KA1120N+00051MA1999999099121MD1310101+9999MW1691REMSYN100AAXX  15064 02680 11130 83307 10007 20006 39912 49960 53010 60012 76976 887// 333 20005 31/// 88791;
0207026800999992000031509004+56920+018150FM-12+003999999V0203301N005110007519N0020001N1+00041+00031099941ADDAY171031AY271031GA1081+000759069GF108991081071000751999999MA1999999099461MD1210341+9999MW1731SA1+0229REMSYN094AAXX  15094 02680 41120 83310 10004 20003 39946 49994 52034 77377 887// 222// 00022 333 88791;
0204026800999992000031512004+56920+018150FM-12+003999999V0203301N005110007519N0020001N1-00051-00061100381ADDAA106004191AY171061AY271061GA1081+000759069GF108991081071000751999999MA1999999099901MD1210441+9999MW1731REMSYN088AAXX  15124 02680 11120 83310 11005 21006 39990 40038 52044 60041 77377 887// 333 88791;
0193026800999992000031515004+56920+018150FM-12+003999999V0203601N00461030001CN0550001N1+00171-00491100721ADDAY171031AY221031GA1011+002509089GF106991011021002501011021MA1999999100251MD1210341+9999MW1011REMSYN088AAXX  15154 02680 41385 63609 10017 21049 30025 40072 52034 70172 81212 333 81893 86099;
0223026800999992000031518004+56920+018150FM-12+003999999V0203301N004112200019N0650001N1+00201-00611100891ADDAA112004191AY171061AY221061GA1011+002509099GF101991011091002501001001KA1120M+00241MA1999999100411MD1110171+9999MW1151REMSYN094AAXX  15184 02680 11387 13308 10020 21061 30041 40089 51017 60042 71572 81900 333 10024 81993;
0159026800999992000031521004+56920+018150FM-12+003999999V0203301N004112200019N0650001N1+00161-00521100921ADDGA1011+004509029GF101991011011004501001001MA1999999100441MD1110031+9999REMSYN076AAXX  15214 02680 42487 13308 10016 21052 30044 40092 51003 81100 333 81894;
0170026800999992000031600004+56920+018150FM-12+003999999V0203101N003112200019N0750001N1+00121-00461101021ADDAA199000021GA1011+999999079GF101991011001999999061001MA1999999100531MD1210101+9999REMSYN076AAXX  16004 02680 32989 13106 10012 21046 30053 40102 52010 81060 333 81399;
0159026800999992000031603004+56920+018150FM-12+003999999V0203501N003112200019N0750001N1+00081-00441101071ADDGA1011+999999079GF101991011001999999061001MA1999999100581MD1210051+9999REMSYN076AAXX  16034 02680 42989 13506 10008 21044 30058 40107 52005 81060 333 81399;
0208026800999992000031606004+56920+018150FM-12+003999999V0203401N003112200019N0750001N1+00071-00471101281ADDAA199000091GA1001+999999999GF100991001001999999001001IA1099KA1120N+00051MA1999999100791MD1310211+9999REMSYN076AAXX  16064 02680 32989 03406 10007 21047 30079 40128 53021 333 20005 31///;EQDQ01  00002PRCP99
0159026800999992000031609004+56920+018150FM-12+003999999V0203201N005112200019N0750001N1+00131-00531101481ADDGA1021+004509029GF102991021011004501001001MA1999999100991MD1210201+9999REMSYN076AAXX  16094 02680 42489 23210 10013 21053 30099 40148 52020 82100 333 82894;
0189026800999992000031612004+56920+018150FM-12+003999999V0203201N005712200019N0750001N1+00181-00461101561ADDAA199000091GA1011+004509029GF102991011011004501051041MA1999999101081MD1110081+9999REMSYN076AAXX  16124 02680 32489 23211 10018 21046 30108 40156 51008 81154 333 81894;EQDQ01  00002PRCP99
0165026800999992000031615004+56920+018150FM-12+003999999V0203201N003612200019N0750001N1+00281-00661101591ADDGA1011+004509089GF104991011021004501001091MA1999999101111MD1110031+9999REMSYN082AAXX  16154 02680 42489 43207 10028 21066 30111 40159 51003 81209 333 81894 83199;
0214026800999992000031618004+56920+018150FM-12+003999999V0203301N002119999999N0650001N1+00151-00431101601ADDAA199000091GA1011+025009039GF108991011001999999031071KA1120M+00301MA1999999101121MD1010011+9999REMSYN088AAXX  16184 02680 32987 83304 10015 21043 30112 40160 50001 81037 333 10030 81399 88299;EQDQ01  00002PRCP99
0165026800999992000031621004+56920+018150FM-12+003999999V0203201N004119999999N0650001N1+00131-00471101491ADDGA1011+025009039GF107991011001999999031081MA1999999101001MD1710111+9999REMSYN082AAXX  16214 02680 42987 73208 10013 21047 30100 40149 57011 81038 333 81399 87299;
0165026800999992000031622004+56920+018150FM-12+003999999V0203201N004119999999N0650001N1+00131-00471101491ADDGA1011+999999099GF107991011001999999031081MA1999999101001MD1710111+9999REMSYN082AAXX  16224 02680 42987 73208 10013 21047 30100 40149 57011 81038 333 8199/ 87299;
0189026800999992000031700004+56920+018150FM-12+003999999V0203601N003110300019N0650001N1+00101-00401101451ADDAA199000091GA1041+004509099GF105991041031004501031021MA1999999100961MD1610041+9999REMSYN076AAXX  17004 02680 32487 53606 10010 21040 30096 40145 56004 84332 333 84994;EQDQ01  00002PRCP99
0143026800999992000031703004+56920+018150FM-12+003999999V0203301N004112200019N0750001N1+00001-00921101471ADDGA1001+999999999GF100991001001999999001001MA1999999100981MD1310021+9999REMSYN060AAXX  17034 02680 42989 03308 10000 21092 30098 40147 53002;
0220026800999992000031706004+56920+018150FM-12+003999999V0203401N004612200019N0650001N1+00021-00691101471ADDAA199000091GA1021+004509029GF102991021011004501001001IA1099KA1120N-00011MA1999999100981MD1410001+9999REMSYN088AAXX  17064 02680 32487 23409 10002 21069 30098 40147 54000 82100 333 21001 31/// 82894;EQDQ01  00002PRCP99
0179026800999992000031709004+56920+018150FM-12+003999999V0203401N006212200019N0550001N1+00141-00591101491ADDGA1011+008009029GF101991011011008001001001MA1999999101001MD1210021+9999SA1+0169REMSYN088AAXX  17094 02680 42585 13412 10014 21059 30100 40149 52002 81100 222// 00016 333 81895;
0189026800999992000031712004+56920+018150FM-12+003999999V0203401N005110080019N0550001N1+00141-00491101581ADDAA199000091GA1071+008009059GF107991071051008001999999MA1999999101091MD1210091+9999REMSYN076AAXX  17124 02680 32585 73410 10014 21049 30109 40158 52009 875// 333 87695;EQDQ01  00002PRCP99
0165026800999992000031715004+56920+018150FM-12+003999999V0203601N00461004501CN0400001N1+00181-00311101671ADDGA1061+004509069GF107991071051004501999999MA1999999101191MD1210101+9999REMSYN082AAXX  17154 02680 42482 73609 10018 21031 30119 40167 52010 875// 333 86694 87695;
0159026800999992000031721004+56920+018150FM-12+003999999V0200101N002610111019N0300001N1+00101-00041102041ADDGA1071+011109059GF107991071051012501999999MA1999999101551MD1210141+9999REMSYN076AAXX  17214 02680 42680 70105 10010 21004 30155 40204 52014 875// 333 87637;
0189026800999992000031800004+56920+018150FM-12+003999999V0203601N002112200019N0400001N1+00081-00051102131ADDAA199000091GA1011+003909029GF102991021021004501001001MA1999999101641MD1210091+9999REMSYN076AAXX  18004 02680 32482 23604 10008 21005 30164 40213 52009 82200 333 81813;EQDQ01  00002PRCP99
0159026800999992000031803004+56920+018150FM-12+003999999V0203601N001010081019N0400001N1+00061-00041102171ADDGA1071+008109059GF107991071051008001999999MA1999999101681MD1110041+9999REMSYN076AAXX  18034 02680 42582 73602 10006 21004 30168 40217 51004 875// 333 87627;
0220026800999992000031806004+56920+018150FM-12+003999999V0203601N002112200019N0300001N1+00021-00081102261ADDAA199000091GA1021+008009059GF102991021051008001001001IA1019KA1120N+00011MA1999999101771MD1310091+9999REMSYN088AAXX  18064 02680 32580 23604 10002 21008 30177 40226 53009 82500 333 20001 30/// 82695;EQDQ01  00002PRCP99
0165026800999992000031809004+56920+018150FM-12+003999999V0203401N00311009001CN0400001N1+00141-00181102351ADDGA1011+004509089GF108991081081004501999999MA1999999101861MD1110091+9999REMSYN082AAXX  18094 02680 42482 83406 10014 21018 30186 40235 51009 888// 333 81894 88696;
0217026800999992000031812004+56920+018150FM-12+003999999V0203201N00311030001CN0300001N1+00211-00111102361ADDAA199000091GA1011+004509089GA2041+008009069GF108991041081004501011999MA1999999101881MD1210021+9999REMSYN088AAXX  18124 02680 32480 83206 10021 21011 30188 40236 52002 8481/ 333 81894 84695 88499;EQDQ01  00002PRCP99
0159026800999992000031815004+56920+018150FM-12+003999999V0203301N00211075001CN0500001N1+00121-00231102391ADDGA1081+999999019GF108991081001999999021999MA1999999101901MD1210021+9999REMSYN076AAXX  18154 02680 42984 83304 10012 21023 30190 40239 52002 8802/ 333 88499;
0223026800999992000031818004+56920+018150FM-12+003999999V0203301N002610024019N0500001N1+00051-00031102411ADDAA112000791AY121061AY221061GA1081+002409059GF108991081051002501999999KA1120M+00211MA1999999101921MD1110021+9999MW1261REMSYN094AAXX  18184 02680 11384 83305 10005 21003 30192 40241 51002 69902 72622 885// 333 10021 88608;
0159026800999992000031821004+56920+018150FM-12+003999999V0203301N002610147019N0550001N1+00171+00141102401ADDGA1071+014709059GF107991071051012501999999MA1999999101921MD1410001+9999REMSYN076AAXX  18214 02680 42685 73305 10017 20014 30192 40240 54000 875// 333 87649;
0170026800999992000031900004+56920+018150FM-12+003999999V0203601N002110150019N0550001N1+00231+00011102401ADDAA199000021GA1081+015009059GF108991081051017501999999MA1999999101921MD1410001+9999REMSYN076AAXX  19004 02680 32785 83604 10023 20001 30192 40240 54000 885// 333 88650;
0159026800999992000031903004+56920+018150FM-12+003999999V0203601N002612200019N0600001N1+00131-00211102471ADDGA1041+004509059GF104991041051004501001001MA1999999101981MD1310061+9999REMSYN076AAXX  19034 02680 42486 43605 10013 21021 30198 40247 53006 84500 333 84694;
0207026800999992000031906004+56920+018150FM-12+003999999V0203601N00211009001CN0750001N1+00111-00061102641ADDAA199000021GA1011+004509089GF107991071081004501999999IA1019KA1120N+00051MA1999999102151MD1310171+9999REMSYN094AAXX  19064 02680 32489 73604 10011 21006 30215 40264 53017 878// 333 20005 30/// 81894 87695;
0187026800999992000031909004+56920+018150FM-12+003999999V0200501N00101009001CN0700001N1+00281-00171102801ADDGA1011+004509089GA2031+008009069GF106991061081004501001001MA1999999102321MD1210171+9999REMSYN088AAXX  19094 02680 42488 60502 10028 21017 30232 40280 52017 86800 333 81894 83695 85696;
0195026800999992000031912004+56920+018150FM-12+003999999V0201401N00101009001CN0700001N1+00241+00051102881ADDAA199000091GA1011+004509089GF106991061081004501001001MA1999999102401MD1110081+9999REMSYN082AAXX  19124 02680 32488 61402 10024 20005 30240 40288 51008 86800 333 81894 86695;EQDQ01  00002PRCP99
0187026800999992000031915004+56920+018150FM-12+003999999V0202001N002110300019N0450001N1+00251-00131102771ADDGA1011+004509069GA2031+025009049GF107991011051004501071999MA1999999102291MD1810111+9999REMSYN088AAXX  19154 02680 42483 72004 10025 21013 30229 40277 58011 8157/ 333 81694 83499 87399;
0214026800999992000031918004+56920+018150FM-12+003999999V0201901N003119999999N0350001N1+00071-00011102671ADDAA199000091GA1011+025009039GF108991081001999999071999KA1120M+00311MA1999999102181MD1710111+9999REMSYN088AAXX  19184 02680 32981 81906 10007 21001 30218 40267 57011 8807/ 333 10031 81399 88499;EQDQ01  00002PRCP99
0165026800999992000031921004+56920+018150FM-12+003999999V0202101N003619999999N0450001N1+00141+00111102501ADDGA1011+025009039GF108991011001999999031071MA1999999102011MD1810171+9999REMSYN082AAXX  19214 02680 42983 82107 10014 20011 30201 40250 58017 81037 333 81399 88299;
0189026800999992000032000004+56920+018150FM-12+003999999V0202101N003619999999N0500001N1+00141+00131102291ADDAA199000091GA1081+999999089GF108991001001999999001071MA1999999101801MD1810211+9999REMSYN076AAXX  20004 02680 32984 82107 10014 20013 30180 40229 58021 80007 333 88299;EQDQ01  00002PRCP99
0159026800999992000032003004+56920+018150FM-12+003999999V0202001N003119999999N0400001N1+00161+00151101911ADDGA1081+999999089GF108991001001999999001071MA1999999101431MD1810371+9999REMSYN076AAXX  20034 02680 42982 82006 10016 20015 30143 40191 58037 80007 333 88299;
0220026800999992000032006004+56920+018150FM-12+003999999V0202201N003619999999N0250001N1+00231+00221101781ADDAA199000091GA1081+999999089GF108991001001999999001071IA1099KA1120N+00071MA1999999101301MD1710131+9999REMSYN088AAXX  20064 02680 32975 82207 10023 20022 30130 40178 57013 80007 333 20007 31/// 88299;EQDQ01  00002PRCP99
0179026800999992000032009004+56920+018150FM-12+003999999V0202401N003119999999N0200001N1+00371+00331101711ADDGA1061+999999089GF106991001001999999001081MA1999999101231MD1710071+9999SA1+0249REMSYN088AAXX  20094 02680 42970 62406 10037 20033 30123 40171 57007 80008 222// 00024 333 86299;
0189026800999992000032012004+56920+018150FM-12+003999999V0202201N002612200019N0210001N1+00701+00291101571ADDAA199000091GA1021+999999019GF102991001001999999001021MA1999999101091MD1810141+9999REMSYN076AAXX  20124 02680 32971 22205 10070 20029 30109 40157 58014 80002 333 82099;EQDQ01  00002PRCP99
0159026800999992000032015004+56920+018150FM-12+003999999V0202101N002112200019N0240001N1+00581+00351101391ADDGA1011+999999019GF101991001001999999001011MA1999999100911MD1710181+9999REMSYN076AAXX  20154 02680 42974 12104 10058 20035 30091 40139 57018 80001 333 81099;
0208026800999992000032018004+56920+018150FM-12+003999999V0202301N002112200019N0400001N1+00381+00351101321ADDAA199000091GA1011+999999019GF101991001001999999001011KA1120M+00751MA1999999100841MD1610071+9999REMSYN082AAXX  20184 02680 32982 12304 10038 20035 30084 40132 56007 80001 333 10075 81099;EQDQ01  00002PRCP99
0159026800999992000032021004+56920+018150FM-12+003999999V0203101N003112200019N0450001N1+00581+00401101361ADDGA1011+999999019GF101991001001999999001011MA1999999100881MD1210041+9999REMSYN076AAXX  20214 02680 42983 13106 10058 20040 30088 40136 52004 80001 333 81099;
0173026800999992000032100004+56920+018150FM-12+003999999V0202901N002112200019N0500001N1+00411+00401101401ADDAA199000091GA1001+999999999GF100991001001999999001001MA1999999100921MD1210041+9999REMSYN060AAXX  21004 02680 32984 02904 10041 20040 30092 40140 52004;EQDQ01  00002PRCP99
0143026800999992000032103004+56920+018150FM-12+003999999V0202901N003112200019N0500001N1+00301+00291101361ADDGA1001+999999999GF100991001001999999001001MA1999999100881MD1610041+9999REMSYN060AAXX  21034 02680 42984 02906 10030 20029 30088 40136 56004;
0220026800999992000032106004+56920+018150FM-12+003999999V0203201N002112200019N0450001N1+00301+00291101411ADDAA199000091GA1011+999999079GF101991011001999999031001IA1099KA1120N+00271MA1999999100931MD1210051+9999REMSYN088AAXX  21064 02680 32983 13204 10030 20029 30093 40141 52005 81030 333 20027 31/// 81399;EQDQ01  00002PRCP99
0159026800999992000032109004+56920+018150FM-12+003999999V0203001N003112200019N0450001N1+00521+00241101501ADDGA1011+999999089GF101991001001999999001051MA1999999101021MD1210091+9999REMSYN076AAXX  21094 02680 42983 13006 10052 20024 30102 40150 52009 80005 333 81299;
0189026800999992000032112004+56920+018150FM-12+003999999V0203001N004112200019N0550001N1+00721-00361101541ADDAA199000091GA1011+999999089GF101991001001999999001081MA1999999101061MD1110041+9999REMSYN076AAXX  21124 02680 32985 13008 10072 21036 30106 40154 51004 80008 333 81299;EQDQ01  00002PRCP99
0159026800999992000032115004+56920+018150FM-12+003999999V0202401N002112200019N0750001N1+00811-00641101441ADDGA1011+999999089GF101991001001999999001081MA1999999100971MD1810101+9999REMSYN076AAXX  21154 02680 42989 12404 10081 21064 30097 40144 58010 80008 333 81299;
0208026800999992000032118004+56920+018150FM-12+003999999V0202201N003119999999N0550001N1+00481+00201101311ADDAA199000091GA1061+999999079GF107991061001999999051081KA1120M+00941MA1999999100831MD1710131+9999REMSYN082AAXX  21184 02680 32985 72206 10048 20020 30083 40131 57013 86058 333 10094 86399;EQDQ01  00002PRCP99
0165026800999992000032121004+56920+018150FM-12+003999999V0202701N00411999999CN0550001N1+00601+00301101311ADDGA1071+025009039GF107991071001999999051071MA1999999100831MD1410001+9999REMSYN082AAXX  21214 02680 42985 72708 10060 20030 30083 40131 54000 87057 333 87399 88299;
0189026800999992000032200004+56920+018150FM-12+003999999V0202501N004119999999N0550001N1+00491+00481101221ADDAA199000091GA1081+999999089GF108991001001999999001071MA1999999100741MD1810091+9999REMSYN076AAXX  22004 02680 32985 82508 10049 20048 30074 40122 58009 80007 333 88299;EQDQ01  00002PRCP99
0159026800999992000032203004+56920+018150FM-12+003999999V0202401N004112200019N0300001N1+00471+00441101111ADDGA1011+999999089GF101991001001999999001081MA1999999100631MD1710111+9999REMSYN076AAXX  22034 02680 42980 12408 10047 20044 30063 40111 57011 80008 333 81299;
0220026800999992000032206004+56920+018150FM-12+003999999V0202701N003619999999N0300001N1+00541+00181101091ADDAA199000091GA1081+999999079GF108991081001999999071999IA1099KA1120N+00451MA1999999100611MD1610021+9999REMSYN088AAXX  22064 02680 32980 82707 10054 20018 30061 40109 56002 8807/ 333 20045 31/// 88399;EQDQ01  00002PRCP99
0179026800999992000032209004+56920+018150FM-12+003999999V0202701N003110080019N0270001N1+00581+00351101121ADDGA1071+008009059GF107991071051008001999999MA1999999100641MD1010031+9999SA1+0309REMSYN088AAXX  22094 02680 42577 72706 10058 20035 30064 40112 50003 875// 222// 00030 333 87695;
0229026800999992000032211004+56920+018150FM-12+003999999V0202501N002610210019N0500001N1+00421+00301100841ADDAA112000791AY161999AY221999GA1011+022509039GF106991061001022501091001KA1120M+00851MA1999999100371MD1619999+9999MW1021REMSYN100AAXX  22114 02680 11884 62505 10042 20030 30037 40084 56/06 69902 70262 86090 333 10085 81398 83399;
0233026800999992000032212004+56920+018150FM-12+003999999V0202601N002110125019N0300001N1+00731+00191101081ADDAA199000091AY121061AY221061GA1081+012509059GF199999081051012501999999MA1999999100601MD1810041+9999MW1051REMSYN082AAXX  22124 02680 31680 72604 10073 20019 30060 40108 58004 70522 885// 333 88696;EQDQ01+000072SCOTCVQ02  00002PRCP99
0193026800999992000032215004+56920+018150FM-12+003999999V0202401N00211021001CN0200001N1+00461+00421100911ADDAY121031AY221031GA1031+022509039GF108991081001022501091999MA1999999100431MD1710171+9999MW1211REMSYN088AAXX  22154 02680 41870 82404 10046 20042 30043 40091 57017 72122 8809/ 333 83398 88399;
0229026800999992000032218004+56920+018150FM-12+003999999V0202501N002610210019N0500001N1+00421+00301100841ADDAA112000791AY161061AY221061GA1011+022509039GF106991061001022501091001KA1120M+00851MA1999999100371MD1610061+9999MW1021REMSYN100AAXX  22184 02680 11884 62505 10042 20030 30037 40084 56006 69902 70262 86090 333 10085 81398 83399;
0159026800999992000032221004+56920+018150FM-12+003999999V0202701N002112200019N0550001N1+00261+00251100871ADDGA1011+999999079GF101991011001999999031011MA1999999100401MD1310031+9999REMSYN076AAXX  22214 02680 42985 12704 10026 20025 30040 40087 53003 81031 333 81399;
0159026800999992000032303004+56920+018150FM-12+003999999V0202701N002612200019N0750001N1+00111-00031100871ADDGA1021+999999019GF102991001001999999001011MA1999999100391MD1610071+9999REMSYN076AAXX  23034 02680 42989 22705 10011 21003 30039 40087 56007 80001 333 82099;
0137026800999992000032306004+56920+018150FM-12+003999999V0202901N002612200019N0500001N1+00161+00131100871ADDAA199000091GF103991999999999999999999MA1999999100401REMSYN054AAXX  23064 02680 32984 32905 10016 20013 30040 40087;EQDQ01  00002PRCP99
0159026800999992000032309004+56920+018150FM-12+003999999V0203101N003612200019N0500001N1+00361-00111100971ADDGA1011+004509029GF101991011011004501001011MA1999999100491MD1210091+9999REMSYN076AAXX  23094 02680 42484 13107 10036 21011 30049 40097 52009 81101 333 81894;
0189026800999992000032312004+56920+018150FM-12+003999999V0203201N004112200019N0600001N1+00361-00281101031ADDAA199000091GA1011+008009029GF101991011021008001001011MA1999999100551MD1310061+9999REMSYN076AAXX  23124 02680 32586 13208 10036 21028 30055 40103 53006 81201 333 81895;EQDQ01  00002PRCP99
0159026800999992000032315004+56920+018150FM-12+003999999V0203201N001012200019N0750001N1+00351-01051101041ADDGA1011+999999079GF101991011001999999081011MA1999999100561MD1210011+9999REMSYN076AAXX  23154 02680 42989 13202 10035 21105 30056 40104 52001 81081 333 81399;
0252026800999992000032318004+56920+018150FM-12+003999999V0202601N002112200019N0750001N1+00101-00361101101ADDAA199000091AY101061AY201061GA1011+022509079GF102991021999022501081001KA1120M+00451MA1999999100611MD1310051+9999MW1141REMSYN088AAXX  23184 02680 31889 22604 10010 21036 30061 40110 53005 71400 82080 333 10045 81398;EQDQ01+000002SCOLCGQ02  00002PRCP99
0159026800999992000032321004+56920+018150FM-12+003999999V0203201N003112200019N0750001N1+00171-00521101161ADDGA1011+999999079GF101991011001999999071001MA1999999100681MD1110071+9999REMSYN076AAXX  23214 02680 42989 13206 10017 21052 30068 40116 51007 81070 333 81399;
0173026800999992000032400004+56920+018150FM-12+003999999V0203201N003612200019N0750001N1+00121-00631101291ADDAA199000091GA1001+999999999GF100991001001999999001001MA1999999100801MD1310121+9999REMSYN060AAXX  24004 02680 32989 03207 10012 21063 30080 40129 53012;EQDQ01  00002PRCP99
0143026800999992000032403004+56920+018150FM-12+003999999V0203201N003612200019N0750001N1+00071-00611101391ADDGA1001+999999999GF100991001001999999001001MA1999999100901MD1210101+9999REMSYN060AAXX  24034 02680 42989 03207 10007 21061 30090 40139 52010;
0208026800999992000032406004+56920+018150FM-12+003999999V0203101N003612200019N0750001N1+00131-00481101501ADDAA199000091GA1001+999999999GF100991001001999999001001IA1019KA1120N+00071MA1999999101011MD1310111+9999REMSYN076AAXX  24064 02680 32989 03107 10013 21048 30101 40150 53011 333 20007 30///;EQDQ01  00002PRCP99
0163026800999992000032409004+56920+018150FM-12+003999999V0203001N003612200019N0750001N1+00301-00611101611ADDGA1001+999999999GF100991001001999999001001MA1999999101131MD1210111+9999SA1+2409REMSYN072AAXX  24094 02680 42989 03007 10030 21061 30113 40161 52011 222// 00024;
0189026800999992000032412004+56920+018150FM-12+003999999V0203301N003612200019N0750001N1+00351-00601101741ADDAA199000091GA1011+004509029GF101991011011004501001081MA1999999101261MD1210131+9999REMSYN076AAXX  24124 02680 32489 13307 10035 21060 30126 40174 52013 81108 333 81894;EQDQ01  00002PRCP99
0159026800999992000032415004+56920+018150FM-12+003999999V0203101N002112200019N0750001N1+00311-00441101761ADDGA1021+999999019GF102991001001999999001041MA1999999101281MD1110021+9999REMSYN076AAXX  24154 02680 42989 23104 10031 21044 30128 40176 51002 80004 333 82099;
0208026800999992000032418004+56920+018150FM-12+003999999V0202701N000512200019N0750001N1+00071-00101101821ADDAA199000091GA1021+999999019GF102991001001999999001041KA1120M+00401MA1999999101331MD1210061+9999REMSYN082AAXX  24184 02680 32989 22701 10007 21010 30133 40182 52006 80004 333 10040 82099;EQDQ01  00002PRCP99
0159026800999992000032421004+56920+018150FM-12+003999999V0202401N001512200019N0750001N1+00111-00021101921ADDGA1011+999999089GF101991001001999999001081MA1999999101431MD1210101+9999REMSYN076AAXX  24214 02680 42989 12403 10011 21002 30143 40192 52010 80008 333 81299;
0189026800999992000032500004+56920+018150FM-12+003999999V0202401N001519999999N0750001N1+00101-00021101931ADDAA199000091GA1081+999999089GF108991001001999999001071MA1999999101451MD1110011+9999REMSYN076AAXX  25004 02680 32989 82403 10010 21002 30145 40193 51001 80007 333 88299;EQDQ01  00002PRCP99
0159026800999992000032503004+56920+018150FM-12+003999999V0202401N001019999999N0650001N1+00111-00021101911ADDGA1081+999999089GF108991001001999999001071MA1999999101431MD1610021+9999REMSYN076AAXX  25034 02680 42987 82402 10011 21002 30143 40191 56002 80007 333 88299;
0220026800999992000032506004+56920+018150FM-12+003999999V0202401N001019999999N0650001N1+00171+00031101921ADDAA199000091GA1081+999999089GF108991001001999999001071IA1099KA1120N+00051MA1999999101441MD1210011+9999REMSYN088AAXX  25064 02680 32987 82402 10017 20003 30144 40192 52001 80007 333 20005 31/// 88299;EQDQ01  00002PRCP99
0159026800999992000032509004+56920+018150FM-12+003999999V0202101N002619999999N0650001N1+00331+00131101941ADDGA1081+999999089GF108991001001999999001071MA1999999101461MD1210021+9999REMSYN076AAXX  25094 02680 42987 82105 10033 20013 30146 40194 52002 80007 333 88299;
0211026800999992000032512004+56920+018150FM-12+003999999V0201201N001519999999N0750001N1+00431+99999101841ADDAA199000091GA1011+025009039GF108991011001999999031071MA1999999101361MD1810101+9999REMSYN082AAXX  25124 02680 32989 81203 10043 21117 30136 40184 58010 81037 333 81399 88299;EQDQ01-001173ATOD  Q02  00002PRCP99
0165026800999992000032515004+56920+018150FM-12+003999999V0201301N00211030001CN0750001N1+00301+00021101631ADDGA1011+004509089GF108991011011004501071071MA1999999101151MD1710211+9999REMSYN082AAXX  25154 02680 42489 81304 10030 20002 30115 40163 57021 81177 333 81894 87399;
0208026800999992000032518004+56920+018150FM-12+003999999V0201201N002119999999N0550001N1+00211+00151101521ADDAA199000091GA1081+999999079GF108991081001999999071999KA1120M+00551MA1999999101041MD1610111+9999REMSYN082AAXX  25184 02680 32985 81204 10021 20015 30104 40152 56011 8807/ 333 10055 88399;EQDQ01  00002PRCP99
0159026800999992000032521004+56920+018150FM-12+003999999V0201101N001519999999N0300001N1+00201+00141101421ADDGA1081+999999079GF108991081001999999071999MA1999999100941MD1710101+9999REMSYN076AAXX  25214 02680 42980 81103 10020 20014 30094 40142 57010 8807/ 333 88399;
0159026800999992000032603004+56920+018150FM-12+003999999V0200901N001510012019N0200001N1+00201+00171101191ADDGA1081+001209069GF108991081061001501999999MA1999999100711MD1610071+9999REMSYN076AAXX  26034 02680 42270 80903 10020 20017 30071 40119 56007 886// 333 88704;
0248026800999992000032606004+56920+018150FM-12+003999999V0200901N002110025019N0048001N1+00221+00191101191ADDAA199000091AY121061AY221061GA1081+002509069GF108991081061002501999999IA1019KA1120N+00201MA1999999100711MD1010001+9999MW1101REMSYN094AAXX  26064 02680 31348 80904 10022 20019 30071 40119 50000 71022 886// 333 20020 30/// 88793;EQDQ01  00002PRCP99
0165026800999992000032609004+56920+018150FM-12+003999999V0200901N00311030001CN0200001N1+00361+00241101281ADDGA1011+002509089GF108991011011002501071999MA1999999100801MD1010091+9999REMSYN082AAXX  26094 02680 42370 80906 10036 20024 30080 40128 50009 8117/ 333 81893 88499;
0195026800999992000032612004+56920+018150FM-12+003999999V0200901N00311030001CN0200001N1+00371+00111101351ADDAA199000091GA1011+004509089GF108991011011004501071999MA1999999100871MD1110071+9999REMSYN082AAXX  26124 02680 32470 80906 10037 20011 30087 40135 51007 8117/ 333 81894 88399;EQDQ01  00002PRCP99
0195026800999992000032615004+56920+018150FM-12+003999999V0200701N00411030001CN0350001N1+00371-00071101311ADDAA199000091GA1011+004509089GF108991011011004501071999MA1999999100831MD1710041+9999REMSYN082AAXX  26154 02680 32481 80708 10037 21007 30083 40131 57004 8117/ 333 81894 88399;EQDQ01  00002PRCP99
0214026800999992000032618004+56920+018150FM-12+003999999V0200801N004119999999N0400001N1+00291-00071101341ADDAA199000091GA1011+025009039GF108991081001999999071999KA1120M+00481MA1999999100861MD1310031+9999REMSYN088AAXX  26184 02680 32982 80808 10029 21007 30086 40134 53003 8807/ 333 10048 81399 88499;EQDQ01  00002PRCP99
0159026800999992000032621004+56920+018150FM-12+003999999V0200701N00411075001CN0300001N1+00301+00101101341ADDGA1081+999999019GF108991081001999999021999MA1999999100861MD1510001+9999REMSYN076AAXX  26214 02680 42980 80708 10030 20010 30086 40134 55000 8802/ 333 88499;
0204026800999992000032700004+56920+018150FM-12+003999999V0200901N005110025019N0046001N1+00121+00111101381ADDAA106000891AY121061AY221061GA1081+002509069GF108991081071002501999999MA1999999100891MD1010031+9999MW1691REMSYN088AAXX  27004 02680 11346 80910 10012 20011 30089 40138 50003 69971 76922 887// 333 88793;
0187026800999992000032703004+56920+018150FM-12+003999999V0200701N005710015019N0020001N1+00021+00011101351ADDAY161031AY261031GA1081+001509069GF108991081071001501999999MA1999999100861MD1810011+9999MW1731REMSYN082AAXX  27034 02680 41220 80711 10002 20001 30086 40135 58001 77366 887// 333 88792;
0252026800999992000032706004+56920+018150FM-12+003999999V0200601N006210015019N0032001N1+00061+00051101491ADDAA112009991AJ100019199999999AY161061AY261061GA1081+001509069GF108991081071001501999999IA1309KA1120N+00021MA1999999101001MD1310141+9999MW1731REMSYN100AAXX  27064 02680 11232 80612 10006 20005 30100 40149 53014 60102 77366 887// 333 20002 42001 88792;
0207026800999992000032709004+56920+018150FM-12+003999999V0200701N007710025019N0200001N1+00091+00081101631ADDAY171031AY271031GA1081+002509059GF108991081051002501999999MA1999999101141MD1110141+9999MW1711SA1+0249REMSYN094AAXX  27094 02680 41370 80715 10009 20008 30114 40163 51014 77177 885// 222// 00024 333 88693;
0178026800999992000032712004+56920+018150FM-12+003999999V0200701N007219999999N0004001N1-00021-00031101751ADDAA106004191AY171061AY271061GF108991081999999999999999MA1999999101261MD1110121+9999MW1751REMSYN078AAXX  27124 02680 11/04 80714 11002 21003 30126 40175 51012 60041 77577 88///;
0161026800999992000032715004+56920+018150FM-12+003999999V0200601N007219999999N0004001N1-00071-00081101831ADDAY171031AY231031GF108991081999999999999999MA1999999101341MD1210081+9999MW1731REMSYN072AAXX  27154 02680 41/04 80614 11007 21008 30134 40183 52008 77373 88///;
0223026800999992000032718004+56920+018150FM-12+003999999V0200701N006210024019N0035001N1-00061-00071101951ADDAA112018091AY171061AY231061GA1081+002409069GF108991081071002501999999KA1120M+00091MA1999999101461MD1310121+9999MW1711REMSYN094AAXX  27184 02680 11335 80712 11006 21007 30146 40195 53012 60182 77173 887// 333 10009 88708;
0187026800999992000032721004+56920+018150FM-12+003999999V0200601N005110096019N0500001N1-00081-00641102051ADDAY171031AY231031GA1081+009609059GF108991081051008001999999MA1999999101561MD1110101+9999MW1701REMSYN082AAXX  27214 02680 41584 80610 11008 21064 30156 40205 51010 77073 885// 333 88632;
0204026800999992000032800004+56920+018150FM-12+003999999V0200701N005710114019N0500001N1+00091-00661102121ADDAA106000191AY171061AY231061GA1081+011409059GF108991081051012501999999MA1999999101631MD1210071+9999MW1021REMSYN088AAXX  28004 02680 11684 80711 10009 21066 30163 40212 52007 69911 70273 885// 333 88638;
0178026800999992000032803004+56920+018150FM-12+003999999V0200601N005110150019N0450001N1+00031-00531102141ADDGA1061+015009059GF106991061051017501999001MA1999999101651MD1210021+9999REMSYN076AAXX  28034 02680 42783 60610 10003 21053 30165 40214 52002 86500 333 86650;EQDQ01    003SCOMCG
0230026800999992000032806004+56920+018150FM-12+003999999V0200701N00461021001CN0450001N1+00081-00501102191ADDAA112000191AJ100029199999999GA1031+022509039GF106991061001022501071001IA1309KA1120N-00081MA1999999101701MD1310051+9999REMSYN100AAXX  28064 02680 12883 60709 10008 21050 30170 40219 53005 69912 86070 333 21008 42002 83398 83399;
0178026800999992000032809004+56920+018150FM-12+003999999V0200601N005110225019N0550001N1+00141-00421102311ADDGA1071+022509079GF107991071999022501071001MA1999999101821MD1210121+9999REMSYN076AAXX  28094 02680 42885 70610 10014 21042 30182 40231 52012 87070 333 87398;EQDQ01+000002SCOLCG
0189026800999992000032812004+56920+018150FM-12+003999999V0200301N005112200019N0300001N1+00241-00441102361ADDAA199000091GA1011+999999079GF103991011001999999031051MA1999999101881MD1110051+9999REMSYN076AAXX  28124 02680 32980 30310 10024 21044 30188 40236 51005 81035 333 81399;EQDQ01  00002PRCP99
0159026800999992000032815004+56920+018150FM-12+003999999V0200401N005112200019N0280001N1+00201-00421102371ADDGA1011+999999079GF101991011001999999031001MA1999999101891MD1210011+9999REMSYN076AAXX  28154 02680 42978 10410 10020 21042 30189 40237 52001 81030 333 81399;
0196026800999992000032818004+56920+018150FM-12+003999999V0200301N003112200019N0400001N1+00071-00321102461ADDAA199000091GA1001+999999999GF100991001001999999001001KA1999M+00291MA1999999101971MD1310091+9999REMSYN070AAXX  28184 02680 32982 00306 10007 21032 30197 40246 53009 333 10029;EQDQ01  00002PRCP99
0143026800999992000032821004+56920+018150FM-12+003999999V0200501N003112200019N0400001N1+00031-00291102541ADDGA1001+999999999GF100991001001999999001001MA1999999102051MD1210081+9999REMSYN060AAXX  28214 02680 42982 00506 10003 21029 30205 40254 52008;
0173026800999992000032900004+56920+018150FM-12+003999999V0200501N003112200019N0250001N1+00021-00301102491ADDAA199000091GA1001+999999999GF100991001001999999001001MA1999999102001MD1810051+9999REMSYN060AAXX  29004 02680 32975 00506 10002 21030 30200 40249 58005;EQDQ01  00002PRCP99
0143026800999992000032903004+56920+018150FM-12+003999999V0200501N003112200019N0280001N1-00021-00161102471ADDGA1001+999999999GF100991001001999999001001MA1999999101981MD1610021+9999REMSYN060AAXX  29034 02680 42978 00506 11002 21016 30198 40247 56002;
0225026800999992000032906004+56920+018150FM-12+003999999V0200501N002612200019N0250001N1+00111-00031102531ADDAA199000091AJ100009199999999GA1001+999999999GF100991001001999999001001IA1259KA1120N-00031MA1999999102041MD1310061+9999REMSYN076AAXX  29064 02680 32975 00505 10011 21003 30204 40253 53006 333 21003 41998;EQDQ01  00002PRCP99
0163026800999992000032909004+56920+018150FM-12+003999999V0200601N003612200019N0200001N1+00421-00251102591ADDGA1001+999999999GF100991001001999999001001MA1999999102111MD1110061+9999SA1+2809REMSYN072AAXX  29094 02680 42970 00607 10042 21025 30211 40259 51006 222// 00028;
0173026800999992000032912004+56920+018150FM-12+003999999V0200801N003112200019N0200001N1+00541-00531102591ADDAA199000091GA1001+999999999GF100991001001999999001001MA1999999102111MD1510001+9999REMSYN060AAXX  29124 02680 32970 00806 10054 21053 30211 40259 55000;EQDQ01  00002PRCP99
0143026800999992000032915004+56920+018150FM-12+003999999V0200901N002612200019N0200001N1+00471-00361102511ADDGA1001+999999999GF100991001001999999001001MA1999999102031MD1810081+9999REMSYN060AAXX  29154 02680 42970 00905 10047 21036 30203 40251 58008;
0208026800999992000032918004+56920+018150FM-12+003999999V0200701N002112200019N0180001N1+00081+00021102531ADDAA199000091GA1031+999999019GF103991001001999999001021KA1120M+00591MA1999999102041MD1310021+9999REMSYN082AAXX  29184 02680 32968 30704 10008 20002 30204 40253 53002 80002 333 10059 83099;EQDQ01  00002PRCP99
0143026800999992000032921004+56920+018150FM-12+003999999V0200601N002112200019N0180001N1+00021-00011102461ADDGA1001+999999999GF100991001001999999001001MA1999999101971MD1810071+9999REMSYN060AAXX  29214 02680 42968 00604 10002 21001 30197 40246 58007;
0173026800999992000033000004+56920+018150FM-12+003999999V0200601N002112200019N0160001N1+00001-00011102341ADDAA199000091GA1001+999999999GF100991001001999999001001MA1999999101851MD1710121+9999REMSYN060AAXX  30004 02680 32966 00604 10000 21001 30185 40234 57012;EQDQ01  00002PRCP99
0143026800999992000033003004+56920+018150FM-12+003999999V0200601N002112200019N0150001N1+00021+00011102171ADDGA1001+999999999GF100991001001999999001001MA1999999101681MD1710171+9999REMSYN060AAXX  30034 02680 42965 00604 10002 20001 30168 40217 57017;
0253026800999992000033006004+56920+018150FM-12+003999999V0200801N001012200019N0030001N1+00171+00161102031ADDAA199000091AJ100009199999999AY101061AY201061GA1001+999999999GF100991001001999999001001IA1259KA1120N+00001MA1999999101551MD1710141+9999MW1401REMSYN082AAXX  30064 02680 31930 00802 10017 20016 30155 40203 57014 74000 333 20000 41998;EQDQ01  00002PRCP99
0187026800999992000033009004+56920+018150FM-12+003999999V0201201N002112200019N0070001N1+00571+00181101931ADDAY101031AY201031GA1011+999999019GF101991001001999999001011MA1999999101451MD1710101+9999MW1101REMSYN082AAXX  30094 02680 41957 11204 10057 20018 30145 40193 57010 71000 80001 333 81099;
0201026800999992000033012004+56920+018150FM-12+003999999V0201201N002112200019N0070001N1+00581+00161101721ADDAA199000091AY101061AY201061GA1001+999999999GF100991001001999999001001MA1999999101241MD1810211+9999MW1101REMSYN066AAXX  30124 02680 31957 01204 10058 20016 30124 40172 58021 71000;EQDQ01  00002PRCP99
0171026800999992000033015004+56920+018150FM-12+003999999V0201201N001512200019N0070001N1+00641-00151101481ADDAY101031AY201031GA1001+999999999GF100991001001999999001001MA1999999101001MD1710241+9999MW1101REMSYN066AAXX  30154 02680 41957 01203 10064 21015 30100 40148 57024 71000;
0224026800999992000033018004+56920+018150FM-12+003999999V0200401N001012200019N0070001N1+00311+00081101271ADDAA199000091AY101061AY201061GA1001+999999999GF100991001001999999001001KA1999M+00691MA1999999100791MD1710211+9999MW1101REMSYN076AAXX  30184 02680 31957 00402 10031 20008 30079 40127 57021 71000 333 10069;EQDQ01  00002PRCP99
0143026800999992000033021004+56920+018150FM-12+003999999V0200601N001512200019N0160001N1+00121+00111101131ADDGA1001+999999999GF100991001001999999001001MA1999999100641MD1710141+9999REMSYN060AAXX  30214 02680 42966 00603 10012 20011 30064 40113 57014;
0189026800999992000033100004+56920+018150FM-12+003999999V0200501N002110900019N0160001N1+00201+00171100901ADDAA199000091GA1081+090009089GF108991001001999999001071MA1999999100421MD1710231+9999REMSYN076AAXX  31004 02680 32966 80504 10020 20017 30042 40090 57023 80007 333 88280;EQDQ01  00002PRCP99
0187026800999992000033103004+56920+018150FM-12+003999999V0200501N002110900019N0048001N1+00191+00181100741ADDAY121031AY221031GA1081+090009089GF108991001001999999001071MA1999999100271MD1610161+9999MW1101REMSYN082AAXX  31034 02680 41948 80504 10019 20018 30027 40074 56016 71022 80007 333 88280;
0281026800999992000033106004+56920+018150FM-12+003999999V0200601N001012200019N0060001N1+00221+00211100561ADDAA199000091AJ199992999999999AY121061AY211061GA1011+999999079GF103991011001999999031021IA1259KA1120N+00101MA1999999100091MD1710181+9999MW1101REMSYN094AAXX  31064 02680 31956 30602 10022 20021 30009 40056 57018 71021 81032 333 20010 41998 81399;EQDQ01  00002PRCP99Q02  09972SNDP  
0179026800999992000033109004+56920+018150FM-12+003999999V0201101N001510045019N0120001N1+00511+00331100491ADDGA1071+004509059GF107991071051008001999999MA1999999100021MD1610071+9999SA1+0369REMSYN088AAXX  31094 02680 42562 71103 10051 20033 30002 40049 56007 875// 222// 00036 333 87694;
0217026800999992000033112004+56920+018150FM-12+003999999V0209999V000510125019N0200001N1+00801-00121100301ADDAA199000091AY121061AY221061GA1071+012509059GF107991071051012501999999MA1999999099831MD1810191+9999MW1051REMSYN082AAXX  31124 02680 31670 79901 10080 21012 39983 40030 58019 70522 875// 333 87696;EQDQ01  00002PRCP99
0159026800999992000033115004+56920+018150FM-12+003999999V0203401N001519999999N0150001N1+00471+00211100171ADDGA1071+999999079GF107991071001999999071999MA1999999099701MD1710131+9999REMSYN076AAXX  31154 02680 42965 73403 10047 20021 39970 40017 57013 8707/ 333 87399;
0208026800999992000033118004+56920+018150FM-12+003999999V0209999C000019999999N0150001N1+00461+00051100091ADDAA199000091GA1081+999999079GF108991081001999999071999KA1120M+00891MA1999999099621MD1610081+9999REMSYN082AAXX  31184 02680 32965 80000 10046 20005 39962 40009 56008 8807/ 333 10089 88399;EQDQ01  00002PRCP99
0159026800999992000033121004+56920+018150FM-12+003999999V0202401N001010147019N0150001N1+00311+00301100011ADDGA1081+014709059GF108991081051012501999999MA1999999099541MD1810081+9999REMSYN076AAXX  31214 02680 42665 82402 10031 20030 39954 40001 58008 885// 333 88649;
0201026800999992000040100004+56920+018150FM-12+003999999V0202701N001512200019N0047001N1+00231+00221099891ADDAA199000091AY121061AY211061GA1001+999999999GF100991001001999999001001MA1999999099421MD1710121+9999MW1101REMSYN066AAXX  01004 02680 31947 02703 10023 20022 39942 49989 57012 71021;EQDQ01  00002PRCP99
0171026800999992000040103004+56920+018150FM-12+003999999V0202601N001010003019N0002001N1+00171+00161099861ADDAY101031AY201031GA1091+999999999GF109991091999999999999999MA1999999099391MD1610031+9999MW1451REMSYN066AAXX  01034 02680 41/02 92602 10017 20016 39939 49986 56003 74500;
0236026800999992000040106004+56920+018150FM-12+003999999V0202601N001010001519N0001001N1+00171+00171099881ADDAA199000091AY141061AY201061GA1091+999999999GF109991091999999999999999IA1099KA1120N+00171MA1999999099411MD1310021+9999MW1451REMSYN082AAXX  01064 02680 31/01 92602 10017 20017 39941 49988 53002 74540 333 20017 31///;EQDQ01  00002PRCP99
0187026800999992000040109004+56920+018150FM-12+003999999V0202501N001012200019N0110001N1+00361+00351099961ADDAY141031AY241031GA1011+999999079GF101991011001999999031001MA1999999099491MD1310081+9999MW1401REMSYN082AAXX  01094 02680 41961 12502 10036 20035 39949 49996 53008 74044 81030 333 81399;
0223026800999992000040112004+56920+018150FM-12+003999999V0202501N002119999999N0150001N1+00611+00111100041ADDAA199000091AY141061AY241061GA1021+025009039GF106991021001999999031081MA1999999099571MD1210081+9999MW1051REMSYN088AAXX  01124 02680 31965 62504 10061 20011 39957 40004 52008 70544 82038 333 82399 86299;EQDQ01  00002PRCP99
0159026800999992000040115004+56920+018150FM-12+003999999V0202401N002119999999N0200001N1+00521+00351100131ADDGA1071+999999079GF107991071001999999071999MA1999999099661MD1110091+9999REMSYN076AAXX  01154 02680 42970 72404 10052 20035 39966 40013 51009 8707/ 333 87399;
0229026800999992000040118004+56920+018150FM-12+003999999V0202401N00211021001CN0250001N1+00381+00371100271ADDAA112000791AY121061AY221061GA1011+022509039GF107991071001022501091999KA1120M+00671MA1999999099801MD1210141+9999MW1211REMSYN100AAXX  01184 02680 11875 72404 10038 20037 39980 40027 52014 69902 72122 8709/ 333 10067 81398 87399;
0187026800999992000040121004+56920+018150FM-12+003999999V0202301N002110024019N0050001N1+00331+00321100441ADDAY121031AY221031GA1081+002409069GF108991081071002501999999MA1999999099971MD1110171+9999MW1611REMSYN082AAXX  01214 02680 41350 82304 10033 20032 39997 40044 51017 76122 887// 333 88708;
0204026800999992000040200004+56920+018150FM-12+003999999V0200801N001010018019N0035001N1+00241+00231100541ADDAA106003091AY121061AY221061GA1081+001809069GF108991081071001501999999MA1999999100071MD1210101+9999MW1611REMSYN088AAXX  02004 02680 11235 80802 10024 20023 30007 40054 52010 60031 76122 887// 333 88706;
0187026800999992000040203004+56920+018150FM-12+003999999V0200901N001010015019N0030001N1+00281+00271100591ADDAY161031AY261031GA1081+001509069GF108991081071001501999999MA1999999100121MD1210051+9999MW1631REMSYN082AAXX  02034 02680 41230 80902 10028 20027 30012 40059 52005 76366 887// 333 88705;
0235026800999992000040206004+56920+018150FM-12+003999999V0202301N000510003019N0020001N1+00331+00331100691ADDAA112005191AY161061AY261061GA1081+000309069GF108991081071000751999999IA1099KA1120N+00241MA1999999100221MD1210101+9999MW1611REMSYN100AAXX  02064 02680 11120 82301 10033 20033 30022 40069 52010 60052 76166 887// 333 20024 31/// 88701;
0187026800999992000040209004+56920+018150FM-12+003999999V0201801N001510025019N0050001N1+00381+00371100801ADDAY161031AY261031GA1081+002509069GF108991081061002501999999MA1999999100331MD1310111+9999MW1101REMSYN082AAXX  02094 02680 41350 81803 10038 20037 30033 40080 53011 71066 886// 333 88793;
0210026800999992000040212004+56920+018150FM-12+003999999V0201801N001010750019N0140001N1+00701+00171100821ADDAA106000591AY161061AY261061GA1011+008009089GF105991011021008001071011MA1999999100351MD1210021+9999MW1051REMSYN094AAXX  02124 02680 11564 51802 10070 20017 30035 40082 52002 69961 70566 81271 333 81895 83399;
0165026800999992000040215004+56920+018150FM-12+003999999V0201301N001019999999N0120001N1+00461+00231100791ADDGA1031+025009039GF108991081001999999071999MA1999999100321MD1710031+9999REMSYN082AAXX  02154 02680 42962 81302 10046 20023 30032 40079 57003 8807/ 333 83399 88499;
0229026800999992000040218004+56920+018150FM-12+003999999V0200901N00101004501CN0045001N1+00331+00291100791ADDAA112000591AY121061AY221061GA1071+004509069GF108991071051004501021999KA1120M+00701MA1999999100321MD1410001+9999MW1101REMSYN100AAXX  02184 02680 11445 80902 10033 20029 30032 40079 54000 69962 71022 8752/ 333 10070 87694 88499;
0187026800999992000040221004+56920+018150FM-12+003999999V0200901N001010147019N0015001N1+00271+00261100791ADDAY121031AY221031GA1081+014709059GF108991081051012501999999MA1999999100321MD1010001+9999MW1101REMSYN082AAXX  02214 02680 41615 80902 10027 20026 30032 40079 50000 71022 885// 333 88649;
0201026800999992000040300004+56920+018150FM-12+003999999V0200501N000510001519N0001001N1+00081+00071100791ADDAA199000091AY121061AY221061GA1091+999999999GF109991091999999999999999MA1999999100321MD1410001+9999MW1451REMSYN066AAXX  03004 02680 31/01 90501 10008 20007 30032 40079 54000 74522;EQDQ01  00002PRCP99
0171026800999992000040303004+56920+018150FM-12+003999999V0203201N000510001519N0001001N1+00141+00131100761ADDAY121031AY221031GA1091+999999999GF109991091999999999999999MA1999999100281MD1610041+9999MW1451REMSYN066AAXX  03034 02680 41/01 93201 10014 20013 30028 40076 56004 74522;
0252026800999992000040306004+56920+018150FM-12+003999999V0200901N001012200019N0001001N1+00101+00101100751ADDAA199000091AY121061AY221061GA1001+999999999GF100991001001999999001001IA1099KA1120N+00081MA1999999100271MD1710011+9999MW1441REMSYN082AAXX  03064 02680 31/01 00902 10010 20010 30027 40075 57001 74522 333 20008 31///;EQDQ01+000452PRSWM1Q02  00002PRCP99
0207026800999992000040309004+56920+018150FM-12+003999999V0201401N001012200019N0060001N1+00541+00511100781ADDAY141031AY201031GA1021+999999019GF102991001001999999001011MA1999999100311MD1010041+9999MW1401SA1+0429REMSYN094AAXX  03094 02680 41956 21402 10054 20051 30031 40078 50004 74040 80001 222// 00042 333 82099;
0223026800999992000040312004+56920+018150FM-12+003999999V0201301N00211075001CN0200001N1+00631+00371100681ADDAA199000091AY141061AY201061GA1011+004509089GF108991011011004501001071MA1999999100211MD1710101+9999MW1401REMSYN088AAXX  03124 02680 31470 81304 10063 20037 30021 40068 57010 74040 81107 333 81894 88299;EQDQ01  00002PRCP99
0187026800999992000040315004+56920+018150FM-12+003999999V0201101N002619999999N0200001N1+00621+00371100551ADDAY141031AY241031GA1081+999999089GF108991001001999999001071MA1999999100081MD1810131+9999MW1021REMSYN082AAXX  03154 02680 41970 81105 10062 20037 30008 40055 58013 70244 80007 333 88299;
0242026800999992000040318004+56920+018150FM-12+003999999V0200901N003119999999N0150001N1+00361+00351100451ADDAA199000091AY141061AY241061GA1011+025009019GF108991001001999999001071KA1120M+00701MA1999999099981MD1710101+9999MW1021REMSYN094AAXX  03184 02680 31965 80906 10036 20035 39998 40045 57010 70244 80007 333 10070 81199 88299;EQDQ01  00002PRCP99
0143026800999992000040321004+56920+018150FM-12+003999999V0200901N003112200019N0170001N1+00381+00341100331ADDGA1001+999999999GF100991001001999999001001MA1999999099861MD1710121+9999REMSYN060AAXX  03214 02680 42967 00906 10038 20034 39986 40033 57012;
0173026800999992000040400004+56920+018150FM-12+003999999V0201301N003612200019N0200001N1+00481+00251100161ADDAA199000091GA1001+999999999GF100991001001999999001001MA1999999099691MD1810171+9999REMSYN060AAXX  04004 02680 32970 01307 10048 20025 39969 40016 58017;EQDQ01  00002PRCP99
0159026800999992000040403004+56920+018150FM-12+003999999V0201101N003612200019N0170001N1+00431+00231099971ADDGA1011+999999019GF101991001001999999001011MA1999999099501MD1810191+9999REMSYN076AAXX  04034 02680 42967 11107 10043 20023 39950 49997 58019 80001 333 81099;
0220026800999992000040406004+56920+018150FM-12+003999999V0201301N004119999999N0160001N1+00481+00181099791ADDAA199000091GA1081+999999079GF108991081001999999071999IA1019KA1120N+00361MA1999999099321MD1710181+9999REMSYN088AAXX  04064 02680 32966 81308 10048 20018 39932 49979 57018 8807/ 333 20036 30/// 88399;EQDQ01  00002PRCP99
0159026800999992000040409004+56920+018150FM-12+003999999V0201301N003619999999N0150001N1+00511+00251099661ADDGA1081+999999079GF108991081001999999071999MA1999999099191MD1810131+9999REMSYN076AAXX  04094 02680 42965 81307 10051 20025 39919 49966 58013 8807/ 333 88399;
0189026800999992000040412004+56920+018150FM-12+003999999V0201301N004119999999N0130001N1+00521+00341099561ADDAA199000091GA1081+999999079GF108991081001999999071999MA1999999099091MD1810101+9999REMSYN076AAXX  04124 02680 32963 81308 10052 20034 39909 49956 58010 8807/ 333 88399;EQDQ01  00002PRCP99
0189026800999992000040415004+56920+018150FM-12+003999999V0201201N003619999999N0130001N1+00521+00431099411ADDAA199000091GA1081+999999079GF108991081001999999071999MA1999999098941MD1710151+9999REMSYN076AAXX  04154 02680 32963 81207 10052 20043 39894 49941 57015 8807/ 333 88399;EQDQ01  00002PRCP99
0236026800999992000040418004+56920+018150FM-12+003999999V0201201N002119999999N0070001N1+00421+00411099311ADDAA199000091AY121061AY221061GA1071+999999079GF108991071001999999071071KA1120M+00591MA1999999098841MD1810101+9999MW1101REMSYN088AAXX  04184 02680 31957 81204 10042 20041 39884 49931 58010 71022 87077 333 10059 87399;EQDQ01  00002PRCP99
0187026800999992000040421004+56920+018150FM-12+003999999V0201801N001019999999N0050001N1+00421+00391099281ADDAY121031AY221031GA1081+999999079GF108991081001999999071999MA1999999098711MD1710031+9999MW1101REMSYN082AAXX  04214 02680 41950 81802 10042 20039 39871 49928 57003 71022 8807/ 333 88399;
0204026800999992000040500004+56920+018150FM-12+003999999V0201901N002110015019N0015001N1+00421+00411099161ADDAA101198992AY161061AY221061GA1081+001509069GF108991081071001501999999MA1999999098691MD1710121+9999MW1611REMSYN088AAXX  05004 02680 11215 81904 10042 20041 39869 49916 57012 61995 76162 887// 333 88792;
0187026800999992000040503004+56920+018150FM-12+003999999V0202101N002610007519N0015001N1+00381+00371099121ADDAY161031AY261031GA1081+000759069GF108991081071000751999999MA1999999098651MD1510041+9999MW1611REMSYN082AAXX  05034 02680 41115 82105 10038 20037 39865 49912 55004 76166 887// 333 88791;
0223026800999992000040506004+56920+018150FM-12+003999999V0202101N004110001519N0001001N1+00441+00431099221ADDAA112003091AY161061AY241061GA1091+999999999GF109991091999999999999999IA1099KA1120N+00381MA1999999098751MD1310101+9999MW1451REMSYN088AAXX  05064 02680 11/01 92108 10044 20043 39875 49922 53010 60032 74564 333 20038 31///;
0187026800999992000040509004+56920+018150FM-12+003999999V0203201N003610009019N0100001N1+00241+00231099461ADDAY141031AY241031GA1081+000909069GF108991081071000751999999MA1999999098991MD1210241+9999MW1611REMSYN082AAXX  05094 02680 41160 83207 10024 20023 39899 49946 52024 76144 887// 333 88703;
0204026800999992000040512004+56920+018150FM-12+003999999V0203201N005110045019N0250001N1+00191+00111099901ADDAA106001091AY141061AY221061GA1081+004509059GF108991081051004501999999MA1999999099431MD1310441+9999MW1771REMSYN088AAXX  05124 02680 11475 83210 10019 20011 39943 49990 53044 60011 77742 885// 333 88694;
0187026800999992000040515004+56920+018150FM-12+003999999V0203401N004610080019N0700001N1+00081-00361100361ADDAY171031AY271031GA1071+008009059GF107991071051008001999999MA1999999099881MD1210451+9999MW1011REMSYN082AAXX  05154 02680 41588 73409 10008 21036 39988 40036 52045 70177 875// 333 87695;
0223026800999992000040518004+56920+018150FM-12+003999999V0203601N002612200019N0700001N1+00061-00581100781ADDAA112002091AY171061AY271061GA1011+999999019GF101991001001999999001011KA1120M+00451MA1999999100301MD1210421+9999MW1011REMSYN094AAXX  05184 02680 11988 13605 10006 21058 30030 40078 52042 60022 70177 80001 333 10045 81099;
0143026800999992000040521004+56920+018150FM-12+003999999V0203201N002612200019N0700001N1+00131-00551101071ADDGA1001+999999999GF100991001001999999001001MA1999999100591MD1110291+9999REMSYN060AAXX  05214 02680 42988 03205 10013 21055 30059 40107 51029;
0154026800999992000040600004+56920+018150FM-12+003999999V0203301N003612200019N0750001N1+00201-00481101321ADDAA199000021GA1001+999999999GF100991001001999999001001MA1999999100851MD1210261+9999REMSYN060AAXX  06004 02680 32989 03307 10020 21048 30085 40132 52026;
0189026800999992000040603004+56920+018150FM-12+003999999V0203301N003612200019N0750001N1+00171-00591101481ADDAA199000091GA1011+999999079GF101991011001999999031001MA1999999101001MD1210151+9999REMSYN076AAXX  06034 02680 32989 13307 10017 21059 30100 40148 52015 81030 333 81399;EQDQ01  00002PRCP99
0220026800999992000040606004+56920+018150FM-12+003999999V0203301N003112200019N0750001N1+00241-00621101731ADDAA199000091GA1011+999999089GF101991001001999999001081IA1019KA1120N+00061MA1999999101251MD1310251+9999REMSYN088AAXX  06064 02680 32989 13306 10024 21062 30125 40173 53025 80008 333 20006 30/// 81299;EQDQ01  00002PRCP99
0159026800999992000040609004+56920+018150FM-12+003999999V0203301N003612200019N0750001N1+00391-00501101891ADDGA1011+999999089GF101991001001999999001081MA1999999101411MD1110161+9999REMSYN076AAXX  06094 02680 42989 13307 10039 21050 30141 40189 51016 80008 333 81299;
0189026800999992000040612004+56920+018150FM-12+003999999V0203101N003112200019N0750001N1+00481-00831102001ADDAA199000091GA1011+999999089GF101991001001999999001081MA1999999101521MD1210111+9999REMSYN076AAXX  06124 02680 32989 13106 10048 21083 30152 40200 52011 80008 333 81299;EQDQ01  00002PRCP99
0159026800999992000040615004+56920+018150FM-12+003999999V0202801N002112200019N0750001N1+00581-01171101971ADDGA1011+999999089GF101991001001999999001081MA1999999101491MD1810031+9999REMSYN076AAXX  06154 02680 42989 12804 10058 21117 30149 40197 58003 80008 333 81299;
0208026800999992000040618004+56920+018150FM-12+003999999V0202201N002119999999N0750001N1+00331-00441102021ADDAA199000091GA1061+999999079GF106991061001999999071001KA1120M+00641MA1999999101541MD1310051+9999REMSYN082AAXX  06184 02680 32989 62204 10033 21044 30154 40202 53005 86070 333 10064 86399;EQDQ01  00002PRCP99
0159026800999992000040621004+56920+018150FM-12+003999999V0202201N001010150019N0750001N1+00361-00091102001ADDGA1071+015009059GF107991071051017501999999MA1999999101521MD1810021+9999REMSYN076AAXX  06214 02680 42789 72202 10036 21009 30152 40200 58002 875// 333 87650;
0189026800999992000040700004+56920+018150FM-12+003999999V0203501N002110129019N0750001N1+00411-00171102071ADDAA199000091GA1071+012909059GF107991071051012501999999MA1999999101591MD1210071+9999REMSYN076AAXX  07004 02680 32689 73504 10041 21017 30159 40207 52007 875// 333 87643;EQDQ01  00002PRCP99
0159026800999992000040703004+56920+018150FM-12+003999999V0203601N001512200019N0750001N1+00211+00141102131ADDGA1011+012509059GF101991011051012501001001MA1999999101651MD1310061+9999REMSYN076AAXX  07034 02680 42689 13603 10021 20014 30165 40213 53006 81500 333 81696;
0220026800999992000040706004+56920+018150FM-12+003999999V0200201N002612200019N0700001N1+00301-00441102261ADDAA199000091GA1011+999999079GF101991011001999999031001IA1019KA1120N+00161MA1999999101781MD1210131+9999REMSYN088AAXX  07064 02680 32988 10205 10030 21044 30178 40226 52013 81030 333 20016 30/// 81399;EQDQ01  00002PRCP99
0179026800999992000040709004+56920+018150FM-12+003999999V0203301N003112200019N0700001N1+00521-00281102411ADDGA1011+004509029GF101991011011004501001001MA1999999101931MD1210151+9999SA1+0389REMSYN088AAXX  07094 02680 42488 13306 10052 21028 30193 40241 52015 81100 222// 00038 333 81894;
0189026800999992000040712004+56920+018150FM-12+003999999V0203301N004612200019N0700001N1+00441-00411102431ADDAA199000091GA1011+004509029GF101991011011004501031001MA1999999101951MD1110021+9999REMSYN076AAXX  07124 02680 32488 13309 10044 21041 30195 40243 51002 81130 333 81894;EQDQ01  00002PRCP99
0159026800999992000040715004+56920+018150FM-12+003999999V0203401N004612200019N0750001N1+00401-00551102471ADDGA1011+004509029GF101991011021004501001001MA1999999101991MD1210041+9999REMSYN076AAXX  07154 02680 42489 13409 10040 21055 30199 40247 52004 81200 333 81894;
0196026800999992000040718004+56920+018150FM-12+003999999V0203601N002112200019N0750001N1+00241-00341102521ADDAA199000091GA1001+999999999GF100991001001999999001001KA1999M+00601MA1999999102041MD1210051+9999REMSYN070AAXX  07184 02680 32989 03604 10024 21034 30204 40252 52005 333 10060;EQDQ01  00002PRCP99
0143026800999992000040721004+56920+018150FM-12+003999999V0203601N002112200019N0750001N1+00081-00401102551ADDGA1001+999999999GF100991001001999999001001MA1999999102061MD1010031+9999REMSYN060AAXX  07214 02680 42989 03604 10008 21040 30206 40255 50003;
0173026800999992000040800004+56920+018150FM-12+003999999V0203601N002112200019N0750001N1+00051-00431102521ADDAA199000091GA1001+999999999GF100991001001999999001001MA1999999102031MD1710031+9999REMSYN060AAXX  08004 02680 32989 03604 10005 21043 30203 40252 57003;EQDQ01  00002PRCP99
0159026800999992000040803004+56920+018150FM-12+003999999V0203401N003112200019N0750001N1+00121-00171102411ADDGA1011+004509029GF101991011011004501001001MA1999999101921MD1710111+9999REMSYN076AAXX  08034 02680 42489 13406 10012 21017 30192 40241 57011 81100 333 81894;
0220026800999992000040806004+56920+018150FM-12+003999999V0203601N002112200019N0650001N1+00171-00201102401ADDAA199000091GA1011+004509029GF101991011011004501001001IA1019KA1120N+00051MA1999999101921MD1810011+9999REMSYN088AAXX  08064 02680 32487 13604 10017 21020 30192 40240 58001 81100 333 20005 30/// 81894;EQDQ01  00002PRCP99
0158026800999992000040809004+56920+018150FM-12+003999999V0203401N003612200019N0400001N1+00341-00031102351ADDGA1011+999999089GF101991011011004501001001MA1999999101871MD1710051+9999REMSYN075AAXX  08094 02680 42482 13407 10034 21003 30187 40235 57005 81100 333 8184;
0189026800999992000040812004+56920+018150FM-12+003999999V0203501N003112200019N0450001N1+00421+00011102351ADDAA199000091GA1011+004509029GF102991021081004501001001MA1999999101871MD1410001+9999REMSYN076AAXX  08124 02680 32483 23506 10042 20001 30187 40235 54000 82800 333 81894;EQDQ01  00002PRCP99
0159026800999992000040815004+56920+018150FM-12+003999999V0200401N002112200019N0500001N1+00461-00601102291ADDGA1021+008009059GF102991021041008001001001MA1999999101811MD1710061+9999REMSYN076AAXX  08154 02680 42584 20404 10046 21060 30181 40229 57006 82400 333 82695;
0208026800999992000040818004+56920+018150FM-12+003999999V0200501N003612200019N0650001N1+00191-00691102311ADDAA199000091GA1011+008009059GF101991011051008001031001KA1120M+00601MA1999999101831MD1210021+9999REMSYN082AAXX  08184 02680 32587 10507 10019 21069 30183 40231 52002 81530 333 10060 81695;EQDQ01  00002PRCP99
0159026800999992000040821004+56920+018150FM-12+003999999V0200201N002110147019N0650001N1+00121-00631102331ADDGA1061+014709059GF106991061051012501001001MA1999999101841MD1010011+9999REMSYN076AAXX  08214 02680 42687 60204 10012 21063 30184 40233 50001 86500 333 86649;
0189026800999992000040900004+56920+018150FM-12+003999999V0200101N002610147019N0650001N1+00141-00441102231ADDAA199000091GA1081+014709059GF108991081051012501999999MA1999999101741MD1710101+9999REMSYN076AAXX  09004 02680 32687 80105 10014 21044 30174 40223 57010 885// 333 88649;EQDQ01  00002PRCP99
0159026800999992000040903004+56920+018150FM-12+003999999V0200201N003110126019N0700001N1+00171-00421102131ADDGA1081+012609059GF108991081051012501999999MA1999999101651MD1610091+9999REMSYN076AAXX  09034 02680 42688 80206 10017 21042 30165 40213 56009 885// 333 88642;
0226026800999992000040906004+56920+018150FM-12+003999999V0203601N00261021001CN0650001N1+00271-00341102081ADDAA199000091GA1011+022509039GF108991071001022501071999IA1019KA1120N+00001MA1999999101601MD1810051+9999REMSYN094AAXX  09064 02680 32887 83605 10027 21034 30160 40208 58005 8707/ 333 20000 30/// 81398 87399;EQDQ01  00002PRCP99
0187026800999992000040909004+56920+018150FM-12+003999999V0203501N00311999999CN0500001N1+00301+00021102051ADDGA1011+004509089GA2061+025009049GF108991011011004501071999MA1999999101571MD1710031+9999REMSYN088AAXX  09094 02680 42484 83506 10030 20002 30157 40205 57003 8117/ 333 81894 86499 88399;
0210026800999992000040912004+56920+018150FM-12+003999999V0203401N00311030001CN0300001N1+00281+00221102011ADDAA106000791AY121061AY221061GA1011+004509089GF108991021081004501021999MA1999999101531MD1710041+9999MW1681REMSYN094AAXX  09124 02680 11480 83406 10028 20022 30153 40201 57004 69901 76822 8282/ 333 81894 88599;
0215026800999992000040915004+56920+018150FM-12+003999999V0203401N00311004501CN0500001N1+00201+00061101891ADDAY161031AY261031GA1011+002509089GA2051+004509069GF108991051081002501071999MA1999999101411MD1710121+9999MW1021REMSYN094AAXX  09154 02680 41384 83406 10020 20006 30141 40189 57012 70266 8587/ 333 81893 85694 88399;
0223026800999992000040918004+56920+018150FM-12+003999999V0203601N001510045019N0400001N1+00171-00051101821ADDAA112000791AY161061AY221061GA1081+004509059GF108991081051004501999999KA1120M+00391MA1999999101341MD1710071+9999MW1021REMSYN094AAXX  09184 02680 11482 83603 10017 21005 30134 40182 57007 69902 70262 885// 333 10039 88694;
0159026800999992000040921004+56920+018150FM-12+003999999V0200201N001010033019N0220001N1+00131+00101101791ADDGA1081+003309059GF108991081051004501999999MA1999999101301MD1610041+9999REMSYN076AAXX  09214 02680 42472 80202 10013 20010 30130 40179 56004 885// 333 88611;
0204026800999992000041000004+56920+018150FM-12+003999999V0203601N001010021019N0060001N1+00061+00051101691ADDAA106000591AY121061AY221061GA1081+002109069GF108991081071002501999999MA1999999101201MD1810101+9999MW1611REMSYN088AAXX  10004 02680 11356 83602 10006 20005 30120 40169 58010 69941 76122 887// 333 88707;
0187026800999992000041003004+56920+018150FM-12+003999999V0203501N001510018019N0120001N1+00131+00121101641ADDAY161031AY261031GA1081+001809069GF108991081071001501999999MA1999999101151MD1710051+9999MW1681REMSYN082AAXX  10034 02680 41262 83503 10013 20012 30115 40164 57005 76866 887// 333 88706;
0241026800999992000041006004+56920+018150FM-12+003999999V0200201N00151002501CN0250001N1+00161+00151101591ADDAA112001091AY161061AY261061GA1071+002509079GF108991071061002501071999IA1099KA1120N+00061MA1999999101111MD1710041+9999MW1211REMSYN106AAXX  10064 02680 11375 80203 10016 20015 30111 40159 57004 60012 72166 8767/ 333 20006 31/// 87793 88399;
0179026800999992000041009004+56920+018150FM-12+003999999V0200601N001010015019N0200001N1+00251+00221101571ADDGA1081+001509069GF108991081061001501999999MA1999999101091MD1710021+9999SA1+0409REMSYN088AAXX  10094 02680 42270 80602 10025 20022 30109 40157 57002 886// 222// 00040 333 88792;
0204026800999992000041012004+56920+018150FM-12+003999999V0202601N001010007519N0030001N1+00231+00221101521ADDAA106000191AY151061AY221061GA1081+000759069GF108991081061000751999999MA1999999101041MD1710051+9999MW1101REMSYN088AAXX  10124 02680 11130 82602 10023 20022 30104 40152 57005 69911 71052 886// 333 88791;
0159026800999992000041015004+56920+018150FM-12+003999999V0202101N001010007519N0150001N1+00281+00251101351ADDGA1081+000759069GF108991081061000751999999MA1999999100871MD1810171+9999REMSYN076AAXX  10154 02680 42165 82102 10028 20025 30087 40135 58017 886// 333 88791;
0195026800999992000041018004+56920+018150FM-12+003999999V0201801N001010025019N0250001N1+00201+00091101221ADDAA112000191GA1081+002509069GF108991081061002501999999KA1120M+00311MA1999999100741MD1610131+9999REMSYN088AAXX  10184 02680 12375 81802 10020 20009 30074 40122 56013 69912 886// 333 10031 88793;
0165026800999992000041021004+56920+018150FM-12+003999999V0201801N002610300019N0280001N1+00201+00131101131ADDGA1021+004509069GF108991021051004501021999MA1999999100651MD1710091+9999REMSYN082AAXX  10214 02680 42478 81805 10020 20013 30065 40113 57009 8252/ 333 82694 88437;
0189026800999992000041100004+56920+018150FM-12+003999999V0201801N003110045019N0280001N1+00221+00081100981ADDAA199000091GA1081+004509069GF108991081061004501999999MA1999999100501MD1710151+9999REMSYN076AAXX  11004 02680 32478 81806 10022 20008 30050 40098 57015 886// 333 88794;EQDQ01  00002PRCP99
0159026800999992000041103004+56920+018150FM-12+003999999V0201801N002610045019N0250001N1+00221+00161100831ADDGA1081+004509069GF108991081061004501999999MA1999999100361MD1710151+9999REMSYN076AAXX  11034 02680 42475 81805 10022 20016 30036 40083 57015 886// 333 88794;
0226026800999992000041106004+56920+018150FM-12+003999999V0201501N00151030001CN0250001N1+00271+00231100761ADDAA199000091GA1011+004509089GF108991011011004501071999IA1019KA1120N+00201MA1999999100291MD1710071+9999REMSYN094AAXX  11064 02680 32475 81503 10027 20023 30029 40076 57007 8117/ 333 20020 30/// 81894 88399;EQDQ01  00002PRCP99
0165026800999992000041109004+56920+018150FM-12+003999999V0201101N00311030001CN0350001N1+00371+00181100671ADDGA1011+004509089GF107991011011004501071999MA1999999100201MD1710091+9999REMSYN082AAXX  11094 02680 42481 71106 10037 20018 30020 40067 57009 8117/ 333 81894 87399;
0217026800999992000041112004+56920+018150FM-12+003999999V0201301N003112200019N0200001N1+00621+00031100551ADDAA199000091AY121061AY211061GA1041+999999079GF104991041001999999031001MA1999999100081MD1710121+9999MW1051REMSYN082AAXX  11124 02680 31970 41306 10062 20003 30008 40055 57012 70521 84030 333 84399;EQDQ01  00002PRCP99
0187026800999992000041115004+56920+018150FM-12+003999999V0201301N002612200019N0200001N1+00511+00171100461ADDAY101031AY201031GA1011+999999019GF101991001001999999001011MA1999999099991MD1710091+9999MW1051REMSYN082AAXX  11154 02680 41970 11305 10051 20017 39999 40046 57009 70500 80001 333 81099;
0236026800999992000041118004+56920+018150FM-12+003999999V0200901N003119999999N0200001N1+00301-00231100401ADDAA199000091AY111061AY201061GA1081+999999079GF108991081001999999031061KA1120M+00651MA1999999099931MD1710061+9999MW1051REMSYN088AAXX  11184 02680 31970 80906 10030 21023 39993 40040 57006 70510 88036 333 10065 88399;EQDQ01  00002PRCP99
0187026800999992000041121004+56920+018150FM-12+003999999V0200901N004110180019N0200001N1+00481+00031100321ADDAY121031AY221031GA1081+018009029GF108991081001017501021999MA1999999099851MD1710081+9999MW1601REMSYN082AAXX  11214 02680 41770 80908 10048 20003 39985 40032 57008 76022 8802/ 333 88556;
0204026800999992000041200004+56920+018150FM-12+003999999V0200901N004110150019N0200001N1+00471+00081100131ADDAA106000791AY161061AY261061GA1081+015009059GF108991081051012501999999MA1999999099661MD1710191+9999MW1021REMSYN088AAXX  12004 02680 11670 80908 10047 20008 39966 40013 57019 69901 70266 885// 333 88650;
0187026800999992000041203004+56920+018150FM-12+003999999V0200801N004110025019N0045001N1+00371+00351100011ADDAY161031AY221031GA1081+002509069GF108991081071002501999999MA1999999099541MD1710121+9999MW1631REMSYN082AAXX  12034 02680 41345 80808 10037 20035 39954 40001 57012 76362 887// 333 88793;
0235026800999992000041206004+56920+018150FM-12+003999999V0200901N003610080019N0200001N1+00441+00381099921ADDAA112002091AY161061AY221061GA1081+008009059GF108991081051008001999999IA1099KA1120N+00301MA1999999099451MD1610091+9999MW1021REMSYN100AAXX  12064 02680 11570 80907 10044 20038 39945 49992 56009 60022 70262 885// 333 20030 31/// 88695;
0226026800999992000041209004+56920+018150FM-12+003999999V0200901N003110225019N0200001N1+00551+00411099881ADDAY161031AY221031GA1071+022509079GF107991071999022501031999MA1999999099411MD1710041+9999MW1021SA1+0529REMSYN094AAXX  12094 02680 41870 70906 10055 20041 39941 49988 57004 70262 8703/ 222// 00052 333 87398;EQDQ01+000002SCOLCG
0204026800999992000041212004+56920+018150FM-12+003999999V0201201N004112200019N0200001N1+00771+00011099821ADDAA106000391AY161061AY221061GA1031+999999079GF103991031001999999031001MA1999999099351MD1810061+9999MW1021REMSYN088AAXX  12124 02680 11970 31208 10077 20001 39935 49982 58006 69931 70262 83030 333 83399;
0159026800999992000041215004+56920+018150FM-12+003999999V0201001N002619999999N0100001N1+00581+00441099721ADDGA1081+999999079GF108991081001999999071999MA1999999099251MD1710101+9999REMSYN076AAXX  12154 02680 42960 81005 10058 20044 39925 49972 57010 8807/ 333 88399;
0195026800999992000041218004+56920+018150FM-12+003999999V0201101N002610080019N0100001N1+00611+00291099661ADDAA112000391GA1071+008009029GF107991071021008001999999KA1120M+00801MA1999999099191MD1710061+9999REMSYN088AAXX  12184 02680 12560 71105 10061 20029 39919 49966 57006 69932 872// 333 10080 87895;
0159026800999992000041221004+56920+018150FM-12+003999999V0201101N003112200019N0100001N1+00611+00371099531ADDGA1021+015009029GF102991021021012501001011MA1999999099061MD1710131+9999REMSYN076AAXX  12214 02680 42660 21106 10061 20037 39906 49953 57013 82201 333 82850;
0204026800999992000041300004+56920+018150FM-12+003999999V0200801N003110126019N0100001N1+00551+00531099261ADDAA106002091AY121061AY211061GA1081+012609059GF108991081051012501999999MA1999999098791MD1810271+9999MW1251REMSYN088AAXX  13004 02680 11660 80806 10055 20053 39879 49926 58027 60021 72521 885// 333 88642;
0187026800999992000041303004+56920+018150FM-12+003999999V0201001N003610066019N0040001N1+00501+00481098931ADDAY121031AY221031GA1081+006609059GF108991081051008001999999MA1999999098461MD1710331+9999MW1611REMSYN082AAXX  13034 02680 41540 81007 10050 20048 39846 49893 57033 76122 885// 333 88622;
0235026800999992000041306004+56920+018150FM-12+003999999V0202101N004610025019N0040001N1+00341+00321098731ADDAA112006191AY121061AY221061GA1081+002509069GF108991081071002501999999IA1119KA1120N+00341MA1999999098271MD1510191+9999MW1631REMSYN100AAXX  13064 02680 11340 82109 10034 20032 39827 49873 55019 60062 76322 887// 333 20034 32/// 88793;
0187026800999992000041309004+56920+018150FM-12+003999999V0202101N007710045019N0200001N1+00391+00341098871ADDAY161031AY261031GA1081+004509059GF108991081051004501999999MA1999999098401MD1210131+9999MW1601REMSYN082AAXX  13094 02680 41470 82115 10039 20034 39840 49887 52013 76066 885// 333 88694;
0204026800999992000041312004+56920+018150FM-12+003999999V0202001N006719999999N0200001N1+00451+00361099131ADDAA106004191AY161061AY261061GA1081+999999089GF108991001001999999001071MA1999999098661MD1210261+9999MW1011REMSYN088AAXX  13124 02680 11970 82013 10045 20036 39866 49913 52026 60041 70166 80007 333 88299;
0159026800999992000041315004+56920+018150FM-12+003999999V0202101N00621075001CN0300001N1+00481+00291099181ADDGA1071+999999019GF107991001001999999001021MA1999999098711MD1110051+9999REMSYN076AAXX  13154 02680 42980 72112 10048 20029 39871 49918 51005 80002 333 87099;
0195026800999992000041318004+56920+018150FM-12+003999999V0202101N005719999999N0250001N1+00411+00361099241ADDAA112004191GA1061+999999079GF106991061001999999031011KA1120M+00501MA1999999098771MD1210061+9999REMSYN088AAXX  13184 02680 12975 62111 10041 20036 39877 49924 52006 60042 86031 333 10050 86399;
0159026800999992000041321004+56920+018150FM-12+003999999V0202001N006219999999N0250001N1+00431+00321099271ADDGA1081+999999089GF108991001001999999001071MA1999999098801MD1210031+9999REMSYN076AAXX  13214 02680 42975 82012 10043 20032 39880 49927 52003 80007 333 88299;
0189026800999992000041400004+56920+018150FM-12+003999999V0202101N00511075001CN0300001N1+00441+00241099291ADDAA199000091GA1081+999999019GF108991081001999999011999MA1999999098821MD1110021+9999REMSYN076AAXX  14004 02680 32980 82110 10044 20024 39882 49929 51002 8801/ 333 88499;EQDQ01  00002PRCP99
0165026800999992000041403004+56920+018150FM-12+003999999V0202101N004619999999N0300001N1+00421+00271099271ADDGA1021+025009039GF108991021001999999071071MA1999999098801MD1610021+9999REMSYN082AAXX  14034 02680 42980 82109 10042 20027 39880 49927 56002 82077 333 82399 88299;
0220026800999992000041406004+56920+018150FM-12+003999999V0202201N004112200019N0250001N1+00501+00341099351ADDAA199000091GA1041+999999019GF104991001001999999001021IA1099KA1120N+00411MA1999999098881MD1310081+9999REMSYN088AAXX  14064 02680 32975 42208 10050 20034 39888 49935 53008 80002 333 20041 31/// 84099;EQDQ01  00002PRCP99
0179026800999992000041409004+56920+018150FM-12+003999999V0202101N004110045019N0180001N1+00611+00361099431ADDGA1081+004509059GF108991081051004501999999MA1999999098961MD1210081+9999SA1+0369REMSYN088AAXX  14094 02680 42468 82108 10061 20036 39896 49943 52008 885// 222// 00036 333 88694;
0187026800999992000041415004+56920+018150FM-12+003999999V0202101N004612200019N0050001N1+00621+00271099651ADDAY101031AY201031GA1011+999999079GF101991011001999999031011MA1999999099181MD1210081+9999MW1101REMSYN082AAXX  14154 02680 41950 12109 10062 20027 39918 49965 52008 71000 81031 333 81399;
0236026800999992000041418004+56920+018150FM-12+003999999V0202101N003612200019N0050001N1+00371+00341099701ADDAA199000091AY101061AY201061GA1011+999999079GF101991011001999999031001KA1120M+00751MA1999999099231MD1210051+9999MW1101REMSYN088AAXX  14184 02680 31950 12107 10037 20034 39923 49970 52005 71000 81030 333 10075 81399;EQDQ01  00002PRCP99
0171026800999992000041421004+56920+018150FM-12+003999999V0202401N003112200019N0050001N1+00331+00181099821ADDAY101031AY201031GA1001+999999999GF100991001001999999001001MA1999999099351MD1110121+9999MW1101REMSYN066AAXX  14214 02680 41950 02406 10033 20018 39935 49982 51012 71000;
0201026800999992000041500004+56920+018150FM-12+003999999V0202401N002112200019N0050001N1+00281+00271099981ADDAA199000091AY101061AY201061GA1001+999999999GF100991001001999999001001MA1999999099511MD1210161+9999MW1101REMSYN066AAXX  15004 02680 31950 02404 10028 20027 39951 49998 52016 71000;EQDQ01  00002PRCP99
0187026800999992000041503004+56920+018150FM-12+003999999V0202301N001512200019N0045001N1+00281+00271100101ADDAY101031AY201031GA1041+999999079GF104991041001999999031001MA1999999099631MD1210121+9999MW1101REMSYN082AAXX  15034 02680 41945 42303 10028 20027 39963 40010 52012 71000 84030 333 84399;
0236026800999992000041506004+56920+018150FM-12+003999999V0202201N002112200019N0048001N1+00401+00371100211ADDAA199000091AY101061AY201061GA1001+999999999GF100991001001999999001001IA1019KA1120N+00281MA1999999099741MD1210111+9999MW1101REMSYN082AAXX  15064 02680 31948 02204 10040 20037 39974 40021 52011 71000 333 20028 30///;EQDQ01  00002PRCP99
0187026800999992000041509004+56920+018150FM-12+003999999V0202101N003119999999N0070001N1+00681+00261100321ADDAY111031AY211031GA1081+999999089GF108991001001999999001071MA1999999099851MD1210111+9999MW1101REMSYN082AAXX  15094 02680 41957 82106 10068 20026 39985 40032 52011 71011 80007 333 88299;
0217026800999992000041512004+56920+018150FM-12+003999999V0201901N002619999999N0050001N1+00621+00361100391ADDAA199000091AY111061AY211061GA1081+999999089GF108991001001999999001071MA1999999099921MD1110071+9999MW1101REMSYN082AAXX  15124 02680 31950 81905 10062 20036 39992 40039 51007 71011 80007 333 88299;EQDQ01  00002PRCP99
0187026800999992000041515004+56920+018150FM-12+003999999V0201901N002612200019N0070001N1+00601+00401100401ADDAY111031AY211031GA1021+999999079GF102991021001999999031001MA1999999099931MD1210011+9999MW1101REMSYN082AAXX  15154 02680 41957 21905 10060 20040 39993 40040 52001 71011 82030 333 82399;
0208026800999992000041518004+56920+018150FM-12+003999999V0201501N002119999999N0150001N1+00491+00431100371ADDAA199000091GA1071+999999079GF108991071001999999051071KA1120M+00771MA1999999099901MD1810031+9999REMSYN082AAXX  15184 02680 32965 81504 10049 20043 39990 40037 58003 87057 333 10077 87399;EQDQ01  00002PRCP99
0187026800999992000041521004+56920+018150FM-12+003999999V0201301N002119999999N0150001N1+00501+00441100381ADDAY161031AY221031GA1081+999999079GF108991081001999999071999MA1999999099911MD1010011+9999MW1021REMSYN082AAXX  15214 02680 41965 81304 10050 20044 39991 40038 50001 70262 8807/ 333 88399;
0204026800999992000041600004+56920+018150FM-12+003999999V0201201N001519999999N0150001N1+00511+00441100321ADDAA106000791AY161061AY221061GA1081+999999079GF108991081001999999071999MA1999999099851MD1610061+9999MW1021REMSYN088AAXX  16004 02680 11965 81203 10051 20044 39985 40032 56006 69901 70262 8807/ 333 88399;
0159026800999992000041603004+56920+018150FM-12+003999999V0201101N001519999999N0150001N1+00481+00451100281ADDGA1071+999999079GF108991071001999999071071MA1999999099811MD1710041+9999REMSYN076AAXX  16034 02680 42965 81103 10048 20045 39981 40028 57004 87077 333 87399;
0213026800999992000041606004+56920+018150FM-12+003999999V0200901N00211030001CN0150001N1+00581+00451100211ADDAA112000791GA1011+004509099GF106991011031004501031011IA1019KA1120N+00481MA1999999099741MD1710071+9999REMSYN100AAXX  16064 02680 12465 60904 10058 20045 39974 40021 57007 69902 81331 333 20048 30/// 81994 84399;
0215026800999992000041609004+56920+018150FM-12+003999999V0201101N004110300019N0150001N1+00781+00321100091ADDAY121031AY221031GA1011+004509089GA2031+025009039GF108991011021004501031071MA1999999099621MD1710121+9999MW1051REMSYN094AAXX  16094 02680 41465 81108 10078 20032 39962 40009 57012 70522 81237 333 81894 83399 88299;
0217026800999992000041612004+56920+018150FM-12+003999999V0200901N003119999999N0150001N1+00831+00251100031ADDAA199000091AY121061AY221061GA1081+999999079GF108991081001999999071999MA1999999099571MD1710061+9999MW1051REMSYN082AAXX  16124 02680 31965 80906 10083 20025 39957 40003 57006 70522 8807/ 333 88399;EQDQ01  00002PRCP99
0187026800999992000041615004+56920+018150FM-12+003999999V0201001N002110025019N0048001N1+00551+00541100031ADDAY181031AY221031GA1081+002509069GF108991081071002501999999MA1999999099561MD1410001+9999MW1101REMSYN082AAXX  16154 02680 41348 81004 10055 20054 39956 40003 54000 71082 887// 333 88793;
0211026800999992000041618004+56920+018150FM-12+003999999V0202401N002610001519N0000001N1+00441+00431100141ADDAA112000591AY141061AY221061GA1091+999999999GF109991091999999999999999KA1999M+00901MA1999999099671MD1310111+9999MW1451REMSYN082AAXX  16184 02680 11/00 92405 10044 20043 39967 40014 53011 69962 74542 333 10090;
0171026800999992000041621004+56920+018150FM-12+003999999V0202401N003110001519N0000001N1+00321+00311100261ADDAY141031AY241031GA1091+999999999GF109991091999999999999999MA1999999099791MD1010121+9999MW1451REMSYN066AAXX  16214 02680 41/00 92406 10032 20031 39979 40026 50012 74544;
0201026800999992000041700004+56920+018150FM-12+003999999V0202601N002112200019N0030001N1+00401+00391100361ADDAA199000091AY141061AY211061GA1001+999999999GF100991001001999999001001MA1999999099891MD1310101+9999MW1101REMSYN066AAXX  17004 02680 31930 02604 10040 20039 39989 40036 53010 71041;EQDQ01  00002PRCP99
0171026800999992000041703004+56920+018150FM-12+003999999V0202401N001512200019N0030001N1+00301+00291100481ADDAY101031AY201031GA1001+999999999GF100991001001999999001001MA1999999100011MD1210121+9999MW1101REMSYN066AAXX  17034 02680 41930 02403 10030 20029 30001 40048 52012 71000;
0236026800999992000041706004+56920+018150FM-12+003999999V0202401N001512200019N0048001N1+00501+00441100721ADDAA199000091AY101061AY201061GA1001+999999999GF100991001001999999001001IA1019KA1120N+00301MA1999999100251MD1310241+9999MW1101REMSYN082AAXX  17064 02680 31948 02403 10050 20044 30025 40072 53024 71000 333 20030 30///;EQDQ01  00002PRCP99
0207026800999992000041709004+56920+018150FM-12+003999999V0202001N001012200019N0070001N1+00741+00461100861ADDAY101031AY201031GA1011+004509029GF101991011021004501001001MA1999999100391MD1110141+9999MW1101SA1+0569REMSYN094AAXX  17094 02680 41457 12002 10074 20046 30039 40086 51014 71000 81200 222// 00056 333 81894;
0201026800999992000041712004+56920+018150FM-12+003999999V0201201N002112200019N0150001N1+00841+00211100931ADDAA199000091AY101061AY201061GA1001+999999999GF100991001001999999001001MA1999999100461MD1110071+9999MW1051REMSYN066AAXX  17124 02680 31965 01204 10084 20021 30046 40093 51007 70500;EQDQ01  00002PRCP99
0187026800999992000041715004+56920+018150FM-12+003999999V0201201N003119999999N0130001N1+00841+00091100891ADDAY111031AY211031GA1081+999999089GF108991001001999999001071MA1999999100421MD1810041+9999MW1051REMSYN082AAXX  17154 02680 41963 81206 10084 20009 30042 40089 58004 70511 80007 333 88299;
0242026800999992000041718004+56920+018150FM-12+003999999V0200901N003119999999N0130001N1+00621+00181100901ADDAA199000091AY121061AY211061GA1011+025009039GF108991011001999999051071KA1120M+00981MA1999999100421MD1210011+9999MW1051REMSYN094AAXX  17184 02680 31963 80906 10062 20018 30042 40090 52001 70521 81057 333 10098 81399 88299;EQDQ01  00002PRCP99
0193026800999992000041721004+56920+018150FM-12+003999999V0200901N003619999999N0150001N1+00601+00181100811ADDAY121031AY221031GA1041+025009039GF107991041001999999031081MA1999999100341MD1810091+9999MW1051REMSYN088AAXX  17214 02680 41965 70907 10060 20018 30034 40081 58009 70522 84038 333 84399 87299;
0189026800999992000041800004+56920+018150FM-12+003999999V0201001N003619999999N0150001N1+00631+00281100731ADDAA199000091GA1081+999999079GF108991081001999999071999MA1999999100261MD1710081+9999REMSYN076AAXX  18004 02680 32965 81007 10063 20028 30026 40073 57008 8807/ 333 88399;EQDQ01  00002PRCP99
0159026800999992000041803004+56920+018150FM-12+003999999V0201401N003119999999N0150001N1+00561+00431100701ADDGA1081+999999079GF108991081001999999071999MA1999999100231MD1510031+9999REMSYN076AAXX  18034 02680 42965 81406 10056 20043 30023 40070 55003 8807/ 333 88399;
0226026800999992000041806004+56920+018150FM-12+003999999V0201801N001019999999N0150001N1+00581+00511100831ADDAA199000091GA1031+025009039GF108991031001999999031071IA1019KA1120N+00551MA1999999100361MD1210131+9999REMSYN094AAXX  18064 02680 32965 81802 10058 20051 30036 40083 52013 83037 333 20055 30/// 83399 88299;EQDQ01  00002PRCP99
0187026800999992000041809004+56920+018150FM-12+003999999V0203101N001019999999N0150001N1+00761+00341101041ADDAY121031AY221031GA1081+999999079GF108991081001999999071999MA1999999100561MD1210201+9999MW1051REMSYN082AAXX  18094 02680 41965 83102 10076 20034 30056 40104 52020 70522 8807/ 333 88399;
0217026800999992000041812004+56920+018150FM-12+003999999V0203201N001519999999N0200001N1+00831+00331101211ADDAA199000091AY121061AY221061GA1081+999999079GF108991081001999999071999MA1999999100731MD1210171+9999MW1051REMSYN082AAXX  18124 02680 31970 83203 10083 20033 30073 40121 52017 70522 8807/ 333 88399;EQDQ01  00002PRCP99
0187026800999992000041815004+56920+018150FM-12+003999999V0200601N000519999999N0200001N1+00901+00421101281ADDAY121031AY221031GA1081+999999079GF108991081001999999071999MA1999999100811MD1310081+9999MW1051REMSYN082AAXX  18154 02680 41970 80601 10090 20042 30081 40128 53008 70522 8807/ 333 88399;
0214026800999992000041818004+56920+018150FM-12+003999999V0202101N001019999999N0200001N1+00621+00461101371ADDAA199000091GA1041+025009039GF106991041001999999031081KA1120M+01051MA1999999100891MD1210081+9999REMSYN088AAXX  18184 02680 32970 62102 10062 20046 30089 40137 52008 84038 333 10105 84399 84299;EQDQ01  00002PRCP99
0159026800999992000041821004+56920+018150FM-12+003999999V0202201N001012200019N0150001N1+00591+00461101441ADDGA1011+999999019GF101991001001999999001011MA1999999100961MD1210071+9999REMSYN076AAXX  18214 02680 42965 12202 10059 20046 30096 40144 52007 80001 333 81099;
0189026800999992000041900004+56920+018150FM-12+003999999V0202701N001519999999N0100001N1+00551+00531101501ADDAA199000091GA1081+999999089GF108991001001999999001071MA1999999101021MD1110061+9999REMSYN076AAXX  19004 02680 32960 82703 10055 20053 30102 40150 51006 80007 333 88299;EQDQ01  00002PRCP99
0159026800999992000041903004+56920+018150FM-12+003999999V0200301N001012200019N0100001N1+00601+00581101481ADDGA1011+999999079GF101991011001999999031001MA1999999101001MD1810021+9999REMSYN076AAXX  19034 02680 42960 10302 10060 20058 30100 40148 58002 81030 333 81399;
0220026800999992000041906004+56920+018150FM-12+003999999V0200601N002119999999N0100001N1+00761+00731101551ADDAA199000091GA1081+999999089GF108991001001999999001071IA1019KA1120N+00401MA1999999101071MD1310071+9999REMSYN088AAXX  19064 02680 32960 80604 10076 20073 30107 40155 53007 80007 333 20040 30/// 88299;EQDQ01  00002PRCP99
0179026800999992000041909004+56920+018150FM-12+003999999V0200601N003619999999N0130001N1+01221+00181101591ADDGA1081+999999089GF108991001001999999001071MA1999999101121MD1210041+9999SA1+0469REMSYN088AAXX  19094 02680 42963 80607 10122 20018 30112 40159 52004 80007 222// 00046 333 88299;
0189026800999992000041912004+56920+018150FM-12+003999999V0200501N004119999999N0170001N1+01391+00121101551ADDAA199000091GA1081+999999089GF108991001001999999001071MA1999999101081MD1810041+9999REMSYN076AAXX  19124 02680 32967 80508 10139 20012 30108 40155 58004 80007 333 88299;EQDQ01  00002PRCP99
0159026800999992000041915004+56920+018150FM-12+003999999V0200601N004119999999N0200001N1+01181+00021101461ADDGA1061+999999079GF106991061001999999051001MA1999999100991MD1710091+9999REMSYN076AAXX  19154 02680 42970 60608 10118 20002 30099 40146 57009 86050 333 86399;
0214026800999992000041918004+56920+018150FM-12+003999999V0200601N003619999999N0180001N1+00721+00471101401ADDAA199000091GA1011+025009039GF108991011001999999031071KA1120M+01421MA1999999100921MD1710061+9999REMSYN088AAXX  19184 02680 32968 80607 10072 20047 30092 40140 57006 81037 333 10142 81399 88299;EQDQ01  00002PRCP99
0143026800999992000041921004+56920+018150FM-12+003999999V0200801N002612200019N0180001N1+00741+00531101351ADDGA1001+999999999GF100991001001999999001001MA1999999100871MD1710051+9999REMSYN060AAXX  19214 02680 42968 00805 10074 20053 30087 40135 57005;
0189026800999992000042000004+56920+018150FM-12+003999999V0201201N002619999999N0180001N1+00801+00401101291ADDAA199000091GA1081+999999089GF108991001001999999001071MA1999999100821MD1610061+9999REMSYN076AAXX  20004 02680 32968 81205 10080 20040 30082 40129 56006 80007 333 88299;EQDQ01  00002PRCP99
0165026800999992000042003004+56920+018150FM-12+003999999V0200301N002119999999N0180001N1+00721+00421101251ADDGA1011+025009039GF108991011001999999031071MA1999999100771MD1810041+9999REMSYN082AAXX  20034 02680 42968 80304 10072 20042 30077 40125 58004 81037 333 81399 88299;
0276026800999992000042006004+56920+018150FM-12+003999999V0201901N00151999999CN0220001N1+00761+00481101291ADDAA199000091AY121061AY221061GA1011+004509089GA2071+025009039GF108991011021004501091071IA1019KA1120N+00651MA1999999100811MD1310041+9999MW1171REMSYN106AAXX  20064 02680 31472 81903 10076 20048 30081 40129 53004 71722 81297 333 20065 30/// 81894 87399 88299;EQDQ01  00002PRCP99
0187026800999992000042009004+56920+018150FM-12+003999999V0203501N003112200019N0150001N1+00781+00451101361ADDAY191031AY281031GA1011+999999079GF101991011001999999031001MA1999999100881MD1210071+9999MW1011REMSYN082AAXX  20094 02680 41965 13506 10078 20045 30088 40136 52007 70198 81030 333 81399;
0204026800999992000042012004+56920+018150FM-12+003999999V0202801N002119999999N0150001N1+00981+00351101511ADDAA106000791AY191061AY281061GA1061+999999089GF106991001001999999001011MA1999999101041MD1310151+9999MW1021REMSYN088AAXX  20124 02680 11965 62804 10098 20035 30104 40151 53015 69901 70298 80001 333 86299;
0159026800999992000042015004+56920+018150FM-12+003999999V0203301N002119999999N0150001N1+00851+00431101551ADDGA1081+999999089GF108991001001999999001071MA1999999101081MD1110041+9999REMSYN076AAXX  20154 02680 42965 83304 10085 20043 30108 40155 51004 80007 333 88299;
0183026800999992000042018004+56920+018150FM-12+003999999V0202901N001012200019N0150001N1+00641+00491101611ADDAA112000791GA1001+999999999GF100991001001999999001001KA1999M+01101MA1999999101131MD1210061+9999REMSYN076AAXX  20184 02680 12965 02902 10064 20049 30113 40161 52006 69902 333 10110;
0143026800999992000042021004+56920+018150FM-12+003999999V0203001N001012200019N0170001N1+00501+00491101711ADDGA1001+999999999GF100991001001999999001001MA1999999101231MD1210101+9999REMSYN060AAXX  20214 02680 42967 03002 10050 20049 30123 40171 52010;
0143026800999992000042103004+56920+018150FM-12+003999999V0200501N002112200019N0160001N1+00561+00551101771ADDGA1001+999999999GF100991001001999999001001MA1999999101291MD1210021+9999REMSYN060AAXX  21034 02680 42966 00504 10056 20055 30129 40177 52002;
0208026800999992000042106004+56920+018150FM-12+003999999V0200801N002112200019N0160001N1+00831+00541101801ADDAA199000091GA1001+999999999GF100991001001999999001001IA1019KA1120N+00501MA1999999101331MD1210031+9999REMSYN076AAXX  21064 02680 32966 00804 10083 20054 30133 40180 52003 333 20050 30///;EQDQ01  00002PRCP99
0183026800999992000042109004+56920+018150FM-12+003999999V0201201N002612200019N0200001N1+01091+00291101811ADDAY101031AY201031GA1001+999999999GF100991001001999999001001MA1999999101341MD1210011+9999MW1051REMSYN078AAXX  21094 02680 41970 01205 10109 20029 30134 40181 52001 70500 222// 00074;
0201026800999992000042112004+56920+018150FM-12+003999999V0201301N002112200019N0200001N1+01101+00201101771ADDAA199000091AY101061AY201061GA1001+999999999GF100991001001999999001001MA1999999101301MD1810041+9999MW1051REMSYN066AAXX  21124 02680 31970 01304 10110 20020 30130 40177 58004 70500;EQDQ01  00002PRCP99
0171026800999992000042115004+56920+018150FM-12+003999999V0201401N001512200019N0200001N1+00861+00361101651ADDAY101031AY201031GA1001+999999999GF100991001001999999001001MA1999999101181MD1710121+9999MW1051REMSYN066AAXX  21154 02680 41970 01403 10086 20036 30118 40165 57012 70500;
0208026800999992000042118004+56920+018150FM-12+003999999V0201201N001519999999N0150001N1+00631+00611101581ADDAA199000091GA1051+999999089GF105991001001999999001061KA1120M+01201MA1999999101101MD1710081+9999REMSYN082AAXX  21184 02680 32965 51203 10063 20061 30110 40158 57008 80006 333 10120 85299;EQDQ01  00002PRCP99
0143026800999992000042121004+56920+018150FM-12+003999999V0201601N001012200019N0150001N1+00601+00581101651ADDGA1001+999999999GF100991001001999999001001MA1999999101171MD1110071+9999REMSYN060AAXX  21214 02680 42965 01602 10060 20058 30117 40165 51007;
0189026800999992000042200004+56920+018150FM-12+003999999V0202201N001012200019N0150001N1+00631+00611101641ADDAA199000091GA1041+999999089GF104991001001999999001061MA1999999101161MD1610011+9999REMSYN076AAXX  22004 02680 32965 42202 10063 20061 30116 40164 56001 80006 333 84299;EQDQ01  00002PRCP99
0193026800999992000042203004+56920+018150FM-12+003999999V0202701N002119999999N0150001N1+00721+00671101611ADDAY121031AY211031GA1021+025009039GF105991051001999999091001MA1999999101131MD1710031+9999MW1291REMSYN088AAXX  22034 02680 41965 52704 10072 20067 30113 40161 57003 72921 85090 333 82399 84399;
0235026800999992000042206004+56920+018150FM-12+003999999V0202901N002112200019N0100001N1+00721+00701101711ADDAA112000791AY191061AY221061GA1021+999999079GF102991021001999999031011IA1019KA1120N+00601MA1999999101231MD1210101+9999MW1021REMSYN100AAXX  22064 02680 11960 22904 10072 20070 30123 40171 52010 69902 70292 82031 333 20060 30/// 82399;
0187026800999992000042209004+56920+018150FM-12+003999999V0203301N002119999999N0200001N1+01101+00711101851ADDAY121031AY211031GA1081+999999089GF108991001001999999001071MA1999999101381MD1210151+9999MW1051REMSYN082AAXX  22094 02680 41970 83304 10110 20071 30138 40185 52015 70521 80007 333 88299;
0193026800999992000042215004+56920+018150FM-12+003999999V0202401N001019999999N0290001N1+01591+00081101831ADDAY121031AY221031GA1041+025009009GF108991001001999999001071MA1999999101361MD1710071+9999MW1051REMSYN088AAXX  22154 02680 41979 82402 10159 20008 30136 40183 57007 70522 80007 333 84099 88299;
0242026800999992000042218004+56920+018150FM-12+003999999V0201501N001019999999N0200001N1+00931+00521101821ADDAA199000091AY121061AY221061GA1021+025009009GF108991001001999999001071KA1120M+01601MA1999999101351MD1710011+9999MW1051REMSYN094AAXX  22184 02680 31970 81502 10093 20052 30135 40182 57001 70522 80007 333 10160 82099 88299;EQDQ01  00002PRCP99
0159026800999992000042221004+56920+018150FM-12+003999999V0201201N001012200019N0300001N1+00801+00671101841ADDGA1011+999999019GF101991001001999999001011MA1999999101371MD1210021+9999REMSYN076AAXX  22214 02680 42980 11202 10080 20067 30137 40184 52002 80001 333 81099;
0195026800999992000042300004+56920+018150FM-12+003999999V0201001N00211999999CN0450001N1+00741+00631101781ADDAA199000091GA1051+025009039GF107991051001999999031021MA1999999101301MD1610071+9999REMSYN082AAXX  23004 02680 32983 71004 10074 20063 30130 40178 56007 85032 333 85399 85099;EQDQ01  00002PRCP99
0159026800999992000042303004+56920+018150FM-12+003999999V0201001N003112200019N0350001N1+00751+00591101641ADDGA1011+999999079GF101991011001999999031011MA1999999101161MD1710141+9999REMSYN076AAXX  23034 02680 42981 11006 10075 20059 30116 40164 57014 81031 333 81399;
0226026800999992000042306004+56920+018150FM-12+003999999V0201101N003119999999N0250001N1+00881+00671101521ADDAA199000091GA1011+025009039GF108991011001999999031071IA1019KA1120N+00701MA1999999101041MD1810121+9999REMSYN094AAXX  23064 02680 32975 81106 10088 20067 30104 40152 58012 81037 333 20070 30/// 81399 88299;EQDQ01  00002PRCP99
0189026800999992000042309004+56920+018150FM-12+003999999V0201201N003119999999N0130001N1+01021+00731101351ADDAA199000091GA1061+999999089GF106991001001999999001081MA1999999100881MD1710171+9999REMSYN076AAXX  23094 02680 32963 61206 10102 20073 30088 40135 57017 80008 333 86299;EQDQ01  00002PRCP99
0189026800999992000042312004+56920+018150FM-12+003999999V0201401N003612200019N0130001N1+01101+00661101231ADDAA199000091GA1041+999999089GF104991001001999999001081MA1999999100761MD1710121+9999REMSYN076AAXX  23124 02680 32963 41407 10110 20066 30076 40123 57012 80008 333 84299;EQDQ01  00002PRCP99
0159026800999992000042315004+56920+018150FM-12+003999999V0201301N003119999999N0130001N1+01061+00601101121ADDGA1081+999999089GF108991001001999999001071MA1999999100651MD1710111+9999REMSYN076AAXX  23154 02680 42963 81306 10106 20060 30065 40112 57011 80007 333 88299;
0208026800999992000042318004+56920+018150FM-12+003999999V0201301N002619999999N0130001N1+00961+00481101041ADDAA199000091GA1081+999999089GF108991001001999999001071KA1120M+01141MA1999999100571MD1710081+9999REMSYN082AAXX  23184 02680 32963 81305 10096 20048 30057 40104 57008 80007 333 10114 88299;EQDQ01  00002PRCP99
0159026800999992000042321004+56920+018150FM-12+003999999V0201501N003119999999N0160001N1+00981+00461101021ADDGA1081+999999089GF108991001001999999001071MA1999999100551MD1610021+9999REMSYN076AAXX  23214 02680 42966 81506 10098 20046 30055 40102 56002 80007 333 88299;
0189026800999992000042400004+56920+018150FM-12+003999999V0201501N002112200019N0160001N1+00911+00471101021ADDAA199000091GA1021+999999089GF102991001001999999001081MA1999999100551MD1410001+9999REMSYN076AAXX  24004 02680 32966 21504 10091 20047 30055 40102 54000 80008 333 82299;EQDQ01  00002PRCP99
0159026800999992000042403004+56920+018150FM-12+003999999V0201801N001519999999N0160001N1+00851+00431100981ADDGA1081+999999089GF108991001001999999001071MA1999999100511MD1810041+9999REMSYN076AAXX  24034 02680 42966 81803 10085 20043 30051 40098 58004 80007 333 88299;
0220026800999992000042406004+56920+018150FM-12+003999999V0201401N002112200019N0160001N1+01101+00381101001ADDAA199000091GA1031+999999089GF103991001001999999001081IA1019KA1120N+00851MA1999999100531MD1310021+9999REMSYN088AAXX  24064 02680 32966 31404 10110 20038 30053 40100 53002 80008 333 20085 30/// 83299;EQDQ01  00002PRCP99
0179026800999992000042409004+56920+018150FM-12+003999999V0201501N002612200019N0160001N1+01211+00331101051ADDGA1011+999999089GF101991001001999999001081MA1999999100581MD1210051+9999SA1+0689REMSYN088AAXX  24094 02680 42966 11505 10121 20033 30058 40105 52005 80008 222// 00068 333 81299;
0143026800999992000042415004+56920+018150FM-12+003999999V0201201N002612200019N0180001N1+01221+00401100911ADDGA1001+999999999GF100991001001999999001001MA1999999100441MD1810101+9999REMSYN060AAXX  24154 02680 42968 01205 10122 20040 30044 40091 58010;
0196026800999992000042418004+56920+018150FM-12+003999999V0201201N002612200019N0180001N1+01121+00541100811ADDAA199000091GA1001+999999999GF100991001001999999001001KA1999M+01401MA1999999100351MD1710101+9999REMSYN070AAXX  24184 02680 32968 01205 10112 20054 30035 40081 57010 333 10140;EQDQ01  00002PRCP99
0143026800999992000042421004+56920+018150FM-12+003999999V0201201N003112200019N0180001N1+01071+00461100781ADDGA1001+999999999GF100991001001999999001001MA1999999100311MD1810031+9999REMSYN060AAXX  24214 02680 42968 01206 10107 20046 30031 40078 58003;
0173026800999992000042500004+56920+018150FM-12+003999999V0201501N004112200019N0180001N1+01011+00571100681ADDAA199000091GA1001+999999999GF100991001001999999001001MA1999999100221MD1710101+9999REMSYN060AAXX  25004 02680 32968 01508 10101 20057 30022 40068 57010;EQDQ01  00002PRCP99
0165026800999992000042503004+56920+018150FM-12+003999999V0201501N00411999999CN0180001N1+00881+00851100591ADDGA1051+025009039GF107991051001999999081061MA1999999100131MD1710091+9999REMSYN082AAXX  25034 02680 42968 71508 10088 20085 30013 40059 57009 85086 333 85399 84299;
0254026800999992000042506004+56920+018150FM-12+003999999V0202101N002619999999N0048001N1+00681+00671100711ADDAA199000091AY121061AY211061GA1011+025009039GF108991011001999999031071IA1019KA1120N+00681MA1999999100241MD1310121+9999MW1101REMSYN100AAXX  25064 02680 31948 82105 10068 20067 30024 40071 53012 71021 81037 333 20068 30/// 81399 88299;EQDQ01  00002PRCP99
0165026800999992000042509004+56920+018150FM-12+003999999V0203301N00311030001CN0100001N1+00881+00801101011ADDGA1011+002509079GF108991011061002501081071MA1999999100541MD1210301+9999REMSYN082AAXX  25094 02680 42360 83306 10088 20080 30054 40101 52030 81687 333 81793 88299;
0195026800999992000042512004+56920+018150FM-12+003999999V0203301N00211030001CN0200001N1+00951+00721101301ADDAA199000091GA1011+004509089GF108991011011004501081071MA1999999100831MD1210291+9999REMSYN082AAXX  25124 02680 32470 83304 10095 20072 30083 40130 52029 81187 333 81894 88299;EQDQ01  00002PRCP99
0165026800999992000042515004+56920+018150FM-12+003999999V0203301N002119999999N9999999N1+01231+00421101441ADDGA1011+025009039GF108991011001999999031071MA1999999100971MD1110141+9999REMSYN082AAXX  25154 02680 42955 83304 10123 20042 30097 40144 51014 81037 333 81399 88299;
0214026800999992000042518004+56920+018150FM-12+003999999V0202701N002119999999N0200001N1+00721+00661101561ADDAA199000091GA1011+025009039GF108991011001999999031071KA1120M+01441MA1999999101081MD1210111+9999REMSYN088AAXX  25184 02680 32970 82704 10072 20066 30108 40156 52011 81037 333 10144 81399 88299;EQDQ01  00002PRCP99
0159026800999992000042521004+56920+018150FM-12+003999999V0200301N002112200019N0300001N1+00621+00601101681ADDGA1011+999999079GF101991011001999999031001MA1999999101201MD1210121+9999REMSYN076AAXX  25214 02680 42980 10304 10062 20060 30120 40168 52012 81030 333 81399;
0173026800999992000042600004+56920+018150FM-12+003999999V0200801N002112200019N0300001N1+00531+00511101721ADDAA199000091GA1001+999999999GF100991001001999999001001MA1999999101241MD1110041+9999REMSYN060AAXX  26004 02680 32980 00804 10053 20051 30124 40172 51004;EQDQ01  00002PRCP99
0159026800999992000042603004+56920+018150FM-12+003999999V0200901N001512200019N0300001N1+00481+00451101741ADDGA1011+999999079GF101991011001999999031011MA1999999101261MD1210021+9999REMSYN076AAXX  26034 02680 42980 10903 10048 20045 30126 40174 52002 81031 333 81399;
0220026800999992000042606004+56920+018150FM-12+003999999V0200901N001519999999N0300001N1+00911+00471101801ADDAA199000091GA1081+999999089GF108991001001999999001071IA1019KA1120N+00451MA1999999101331MD1310071+9999REMSYN088AAXX  26064 02680 32980 80903 10091 20047 30133 40180 53007 80007 333 20045 30/// 88299;EQDQ01  00002PRCP99
0179026800999992000042609004+56920+018150FM-12+003999999V0200801N002112200019N0400001N1+01231+00031101881ADDGA1021+999999019GF102991001001999999001011MA1999999101411MD1310081+9999SA1+0849REMSYN088AAXX  26094 02680 42982 20804 10123 20003 30141 40188 53008 80001 222// 00084 333 82099;
0195026800999992000042612004+56920+018150FM-12+003999999V0200601N00261075001CN0550001N1+01291+00001101911ADDAA199000091GA1011+008009089GF108991011011008001001071MA1999999101441MD1110031+9999REMSYN082AAXX  26124 02680 32585 80605 10129 20000 30144 40191 51003 81107 333 81895 88299;EQDQ01  00002PRCP99
0165026800999992000042615004+56920+018150FM-12+003999999V0200601N003119999999N0550001N1+01131-00081101911ADDGA1011+025009039GF108991011001999999031071MA1999999101441MD1410001+9999REMSYN082AAXX  26154 02680 42985 80606 10113 21008 30144 40191 54000 81037 333 81399 88299;
0214026800999992000042618004+56920+018150FM-12+003999999V0200601N002619999999N0500001N1+00821+00151101911ADDAA199000091GA1011+025009039GF108991011001999999031071KA1120M+01301MA1999999101441MD1410001+9999REMSYN088AAXX  26184 02680 32984 80605 10082 20015 30144 40191 54000 81037 333 10130 81399 88299;EQDQ01  00002PRCP99
0178026800999992000042621004+56920+018150FM-12+003999999V0200501N002612200019N0500001N1+00591+00501101961ADDGA1011+999999019GF101991001001999999001011MA1999999101481MD1010041+9999REMSYN076AAXX  26214 02680 42984 10505 10059 20050 30148 40196 50004 81001 333 81099;EQDQ01+000012SCOTLC
0173026800999992000042700004+56920+018150FM-12+003999999V0200501N003612200019N0500001N1+00571+00551101971ADDAA199000091GA1001+999999999GF100991001001999999001001MA1999999101491MD1110011+9999REMSYN060AAXX  27004 02680 32984 00507 10057 20055 30149 40197 51001;EQDQ01  00002PRCP99
0159026800999992000042703004+56920+018150FM-12+003999999V0200601N003112200019N0500001N1+00601+00551101991ADDGA1011+999999019GF101991001001999999001011MA1999999101511MD1210021+9999REMSYN076AAXX  27034 02680 42984 10606 10060 20055 30151 40199 52002 80001 333 81099;
0220026800999992000042706004+56920+018150FM-12+003999999V0200601N003112200019N0550001N1+00921+00331102071ADDAA199000091GA1011+999999019GF101991001001999999001011IA1019KA1120N+00551MA1999999101591MD1310081+9999REMSYN088AAXX  27064 02680 32985 10606 10092 20033 30159 40207 53008 80001 333 20055 30/// 81099;EQDQ01  00002PRCP99
0159026800999992000042709004+56920+018150FM-12+003999999V0201101N003112200019N0550001N1+01011+00381102131ADDGA1011+999999019GF101991001001999999001011MA1999999101661MD1210071+9999REMSYN076AAXX  27094 02680 42985 11106 10101 20038 30166 40213 52007 80001 333 81099;
0189026800999992000042712004+56920+018150FM-12+003999999V0201201N001512200019N0500001N1+01171+00461102181ADDAA199000091GA1011+999999019GF101991001001999999001011MA1999999101711MD1110051+9999REMSYN076AAXX  27124 02680 32984 11203 10117 20046 30171 40218 51005 80001 333 81099;EQDQ01  00002PRCP99
0159026800999992000042715004+56920+018150FM-12+003999999V0201301N001512200019N0400001N1+01281+00491102121ADDGA1011+999999019GF101991001001999999001011MA1999999101651MD1810061+9999REMSYN076AAXX  27154 02680 42982 11303 10128 20049 30165 40212 58006 80001 333 81099;
0208026800999992000042718004+56920+018150FM-12+003999999V0200901N002112200019N0300001N1+00951+00761102141ADDAA199000091GA1011+999999019GF102991001001999999001021KA1120M+01451MA1999999101671MD1310021+9999REMSYN082AAXX  27184 02680 32980 20904 10095 20076 30167 40214 53002 80002 333 10145 81099;EQDQ01  00002PRCP99
0159026800999992000042721004+56920+018150FM-12+003999999V0200701N002112200019N0300001N1+00861+00841102191ADDGA1021+999999019GF102991001001999999001021MA1999999101721MD1210051+9999REMSYN076AAXX  27214 02680 42980 20704 10086 20084 30172 40219 52005 80002 333 82099;
0189026800999992000042800004+56920+018150FM-12+003999999V0200801N002112200019N0300001N1+01041+00841102181ADDAA199000091GA1011+999999019GF101991001001999999001011MA1999999101711MD1610011+9999REMSYN076AAXX  28004 02680 32980 10804 10104 20084 30171 40218 56001 80001 333 81099;EQDQ01  00002PRCP99
0165026800999992000042803004+56920+018150FM-12+003999999V0200801N00211030001CN0290001N1+01201+00771102141ADDGA1011+008009089GF108991011011008001071999MA1999999101671MD1710041+9999REMSYN082AAXX  28034 02680 42579 80804 10120 20077 30167 40214 57004 8117/ 333 81895 88399;
0220026800999992000042806004+56920+018150FM-12+003999999V0200801N001519999999N0250001N1+01241+00901102211ADDAA199000091GA1071+999999079GF107991071001999999071999IA1019KA1120N+00841MA1999999101741MD1310071+9999REMSYN088AAXX  28064 02680 32975 70803 10124 20090 30174 40221 53007 8707/ 333 20084 30/// 87399;EQDQ01  00002PRCP99
0179026800999992000042809004+56920+018150FM-12+003999999V0201001N002119999999N0200001N1+01711+00601102271ADDGA1071+999999079GF107991071001999999071999MA1999999101811MD1210061+9999SA1+0869REMSYN088AAXX  28094 02680 42970 71004 10171 20060 30181 40227 52006 8707/ 222// 00086 333 87399;
0189026800999992000042812004+56920+018150FM-12+003999999V0200901N002119999999N0200001N1+01711+00511102271ADDAA199000091GA1071+999999079GF107991071001999999071999MA1999999101811MD1410001+9999REMSYN076AAXX  28124 02680 32970 70904 10171 20051 30181 40227 54000 8707/ 333 87399;EQDQ01  00002PRCP99
0165026800999992000042815004+56920+018150FM-12+003999999V0200601N002619999999N0200001N1+01801+00521102251ADDGA1041+025009039GF108991041001999999071021MA1999999101791MD1810021+9999REMSYN082AAXX  28154 02680 42970 80605 10180 20052 30179 40225 58002 84072 333 84399 84099;
0208026800999992000042818004+56920+018150FM-12+003999999V0200601N00311075001CN0200001N1+01301+00691102231ADDAA199000091GA1061+999999019GF106991001001999999001021KA1120M+01941MA1999999101761MD1710021+9999REMSYN082AAXX  28184 02680 32970 60606 10130 20069 30176 40223 57002 80002 333 10194 86099;EQDQ01  00002PRCP99
0159026800999992000042821004+56920+018150FM-12+003999999V0200601N003112200019N0200001N1+01241+00761102271ADDGA1011+999999089GF101991001001999999001081MA1999999101801MD1110041+9999REMSYN076AAXX  28214 02680 42970 10606 10124 20076 30180 40227 51004 80008 333 81299;
0189026800999992000042900004+56920+018150FM-12+003999999V0200601N002612200019N0200001N1+01181+00781102291ADDAA199000091GA1011+999999089GF101991001001999999001081MA1999999101821MD1210021+9999REMSYN076AAXX  29004 02680 32970 10605 10118 20078 30182 40229 52002 80008 333 81299;EQDQ01  00002PRCP99
0159026800999992000042903004+56920+018150FM-12+003999999V0200701N002119999999N0200001N1+01021+00861102251ADDGA1081+999999089GF108991001001999999001071MA1999999101781MD1810041+9999REMSYN076AAXX  29034 02680 42970 80704 10102 20086 30178 40225 58004 80007 333 88299;
0220026800999992000042906004+56920+018150FM-12+003999999V0201201N00211075001CN0200001N1+01401+00701102281ADDAA199000091GA1081+999999019GF108991001001999999001021IA1019KA1120N+01021MA1999999101821MD1310031+9999REMSYN088AAXX  29064 02680 32970 81204 10140 20070 30182 40228 53003 80002 333 20102 30/// 88099;EQDQ01  00002PRCP99
0159026800999992000042909004+56920+018150FM-12+003999999V0201201N001519999999N0180001N1+01581+00621102321ADDGA1081+999999089GF108991001001999999001071MA1999999101881MD1210041+9999REMSYN076AAXX  29094 02680 42968 81203 10158 20062 30188 40232 52004 80007 333 88299;
0189026800999992000042912004+56920+018150FM-12+003999999V0201301N001019999999N0200001N1+01791+00451102301ADDAA199000091GA1081+999999089GF108991001001999999001071MA1999999101841MD1810021+9999REMSYN076AAXX  29124 02680 32970 81302 10179 20045 30184 40230 58002 80007 333 88299;EQDQ01  00002PRCP99
0159026800999992000042915004+56920+018150FM-12+003999999V0201201N001019999999N0200001N1+01841+00391102261ADDGA1081+999999089GF108991001001999999001071MA1999999101801MD1710041+9999REMSYN076AAXX  29154 02680 42970 81202 10184 20039 30180 40226 57004 80007 333 88299;
0208026800999992000042918004+56920+018150FM-12+003999999V0200901N001019999999N0200001N1+01711+00341102241ADDAA199000091GA1081+999999089GF108991001001999999001071KA1120M+02151MA1999999101781MD1710021+9999REMSYN082AAXX  29184 02680 32970 80902 10171 20034 30178 40224 57002 80007 333 10215 88299;EQDQ01  00002PRCP99
0159026800999992000042921004+56920+018150FM-12+003999999V0200701N002119999999N0200001N1+01131+00781102291ADDGA1081+999999089GF108991001001999999001071MA1999999101821MD1310051+9999REMSYN076AAXX  29214 02680 42970 80704 10113 20078 30182 40229 53005 80007 333 88299;
0189026800999992000043000004+56920+018150FM-12+003999999V0200901N002119999999N0200001N1+01161+00791102321ADDAA199000091GA1081+999999089GF108991001001999999001071MA1999999101851MD1110031+9999REMSYN076AAXX  30004 02680 32970 80904 10116 20079 30185 40232 51003 80007 333 88299;EQDQ01  00002PRCP99
0165026800999992000043003004+56920+018150FM-12+003999999V0200901N001519999999N0170001N1+01161+00831102311ADDGA1011+025009039GF108991011001999999081071MA1999999101841MD1810011+9999REMSYN082AAXX  30034 02680 42967 80903 10116 20083 30184 40231 58001 81087 333 81399 88299;
0226026800999992000043006004+56920+018150FM-12+003999999V0200701N001519999999N0180001N1+01671+00731102321ADDAA199000091GA1031+025009039GF108991031001999999031071IA1019KA1120N+01101MA1999999101861MD1310011+9999REMSYN094AAXX  30064 02680 32968 80703 10167 20073 30186 40232 53001 83037 333 20110 30/// 83399 88299;EQDQ01  00002PRCP99
0165026800999992000043009004+56920+018150FM-12+003999999V0200801N003119999999N0180001N1+02011+00381102381ADDGA1011+025009039GF108991011001999999031071MA1999999101931MD1210061+9999REMSYN082AAXX  30094 02680 42968 80806 10201 20038 30193 40238 52006 81037 333 81399 88299;
0189026800999992000043012004+56920+018150FM-12+003999999V0200901N002112200019N0150001N1+02171+00241102351ADDAA199000091GA1021+999999079GF102991021001999999031001MA1999999101901MD1810031+9999REMSYN076AAXX  30124 02680 32965 20904 10217 20024 30190 40235 58003 82030 333 82399;EQDQ01  00002PRCP99
0159026800999992000043015004+56920+018150FM-12+003999999V0200601N002612200019N0200001N1+01761+00481102351ADDGA1011+999999079GF101991011001999999031001MA1999999101891MD1510001+9999REMSYN076AAXX  30154 02680 42970 10605 10176 20048 30189 40235 55000 81030 333 81399;
0208026800999992000043018004+56920+018150FM-12+003999999V0200601N003112200019N0200001N1+01181+00601102321ADDAA199000091GA1021+999999079GF102991021001999999031001KA1120M+02291MA1999999101851MD1810031+9999REMSYN082AAXX  30184 02680 32970 20606 10118 20060 30185 40232 58003 82030 333 10229 82399;EQDQ01  00002PRCP99
0159026800999992000043021004+56920+018150FM-12+003999999V0200601N004112200019N0200001N1+01001+00501102411ADDGA1011+999999079GF101991011001999999031001MA1999999101941MD1310091+9999REMSYN076AAXX  30214 02680 42970 10608 10100 20050 30194 40241 53009 81030 333 81399;
0173026800999992000050100004+56920+018150FM-12+003999999V0200601N004112200019N0200001N1+01001+00191102421ADDAA199000091GA1001+999999999GF100991001001999999001001MA1999999101951MD1110011+9999REMSYN060AAXX  01004 02680 32970 00608 10100 20019 30195 40242 51001;EQDQ01  00002PRCP99
0159026800999992000050103004+56920+018150FM-12+003999999V0200601N004119999999N0200001N1+00741+00241102611ADDGA1061+999999079GF106991061001999999061071MA1999999102131MD1310191+9999REMSYN076AAXX  01034 02680 42970 60608 10074 20024 30213 40261 53019 86067 333 86399;
0220026800999992000050106004+56920+018150FM-12+003999999V0200701N004119999999N0300001N1+00821+00081102701ADDAA199000091GA1081+999999079GF108991081001999999071999IA1019KA1120N+00711MA1999999102231MD1310091+9999REMSYN088AAXX  01064 02680 32980 80708 10082 20008 30223 40270 53009 8807/ 333 20071 30/// 88399;EQDQ01  00002PRCP99
0179026800999992000050109004+56920+018150FM-12+003999999V0200601N004610045019N0550001N1+00881+00071102801ADDGA1051+004509029GF106991051081004501071001MA1999999102331MD1110101+9999SA1+0649REMSYN088AAXX  01094 02680 42485 60609 10088 20007 30233 40280 51010 85870 222// 00064 333 85894;
0204026800999992000050112004+56920+018150FM-12+003999999V0200601N004119999999N0550001N1+00741+00141102891ADDAA106000791AY181061AY221061GA1081+999999079GF108991081001999999071999MA1999999102411MD1210091+9999MW1801REMSYN088AAXX  01124 02680 11985 80608 10074 20014 30241 40289 52009 69901 78082 8807/ 333 88399;
0187026800999992000050115004+56920+018150FM-12+003999999V0200601N005119999999N0650001N1+00811-00401102851ADDAY181031AY221031GA1071+999999079GF107991071001999999071999MA1999999102381MD1810041+9999MW1021REMSYN082AAXX  01154 02680 41987 70610 10081 21040 30238 40285 58004 70282 8707/ 333 87399;
0229026800999992000050118004+56920+018150FM-12+003999999V0200401N004119999999N0750001N1+00611-00201102821ADDAA112000791AY181061AY211061GA1011+025009039GF108991011001999999071071KA1120M+01051MA1999999102341MD1710031+9999MW1011REMSYN100AAXX  01184 02680 11989 80408 10061 21020 30234 40282 57003 69902 70181 81077 333 10105 81399 88299;
0159026800999992000050121004+56920+018150FM-12+003999999V0200501N003112200019N0750001N1+00491+00011102931ADDGA1011+999999079GF101991011001999999031001MA1999999102451MD1310111+9999REMSYN076AAXX  01214 02680 42989 10506 10049 20001 30245 40293 53011 81030 333 81399;
0170026800999992000050200004+56920+018150FM-12+003999999V0200601N003112200019N0750001N1+00521+00061103031ADDAA199000021GA1011+999999019GF101991001001999999001011MA1999999102541MD1110101+9999REMSYN076AAXX  02004 02680 32989 10606 10052 20006 30254 40303 51010 80001 333 81099;
0165026800999992000050203004+56920+018150FM-12+003999999V0200901N003119999999N0750001N1+00521+00061103061ADDGA1011+025009039GF108991011001999999071071MA1999999102571MD1210031+9999REMSYN082AAXX  02034 02680 42989 80906 10052 20006 30257 40306 52003 81077 333 81399 88299;
0220026800999992000050206004+56920+018150FM-12+003999999V0201101N003619999999N0750001N1+00661-00011103121ADDAA199000091GA1081+999999089GF108991001001999999001071IA1019KA1120N+00491MA1999999102631MD1210061+9999REMSYN088AAXX  02064 02680 32989 81107 10066 21001 30263 40312 52006 80007 333 20049 30/// 88299;EQDQ01  00002PRCP99
0159026800999992000050209004+56920+018150FM-12+003999999V0201101N003619999999N0750001N1+00841-00161103231ADDGA1081+999999089GF108991001001999999001071MA1999999102751MD1210121+9999REMSYN076AAXX  02094 02680 42989 81107 10084 21016 30275 40323 52012 80007 333 88299;
0189026800999992000050212004+56920+018150FM-12+003999999V0201201N003112200019N0750001N1+00831-00261103171ADDAA199000091GA1011+999999019GF101991001001999999001011MA1999999102691MD1810061+9999REMSYN076AAXX  02124 02680 32989 11206 10083 21026 30269 40317 58006 80001 333 81099;EQDQ01  00002PRCP99
0159026800999992000050215004+56920+018150FM-12+003999999V0201201N002112200019N0750001N1+00731-00081103041ADDGA1011+999999079GF101991011001999999031011MA1999999102551MD1710141+9999REMSYN076AAXX  02154 02680 42989 11204 10073 21008 30255 40304 57014 81031 333 81399;
0208026800999992000050218004+56920+018150FM-12+003999999V0201401N001012200019N0750001N1+00571-00391102911ADDAA199000091GA1011+999999079GF101991011001999999031011KA1120M+00861MA1999999102431MD1710121+9999REMSYN082AAXX  02184 02680 32989 11402 10057 21039 30243 40291 57012 81031 333 10086 81399;EQDQ01  00002PRCP99
0159026800999992000050221004+56920+018150FM-12+003999999V0201401N001512200019N0700001N1+00481+00121102821ADDGA1011+999999079GF101991011001999999031011MA1999999102341MD1710091+9999REMSYN076AAXX  02214 02680 42988 11403 10048 20012 30234 40282 57009 81031 333 81399;
0189026800999992000050300004+56920+018150FM-12+003999999V0201701N002112200019N0650001N1+00521+00331102721ADDAA199000091GA1011+999999079GF101991011001999999031001MA1999999102241MD1810101+9999REMSYN076AAXX  03004 02680 32987 11704 10052 20033 30224 40272 58010 81030 333 81399;EQDQ01  00002PRCP99
0159026800999992000050303004+56920+018150FM-12+003999999V0201801N001519999999N0350001N1+00501+00481102621ADDGA1051+999999079GF105991051001999999071011MA1999999102141MD1710101+9999REMSYN076AAXX  03034 02680 42981 51803 10050 20048 30214 40262 57010 85071 333 85399;
0220026800999992000050306004+56920+018150FM-12+003999999V0201701N001019999999N0350001N1+00721+00591102531ADDAA199000091GA1061+999999079GF106991061001999999071011IA1019KA1120N+00401MA1999999102051MD1710091+9999REMSYN088AAXX  03064 02680 32981 61702 10072 20059 30205 40253 57009 86071 333 20040 30/// 86399;EQDQ01  00002PRCP99
0179026800999992000050309004+56920+018150FM-12+003999999V0202001N001512200019N0550001N1+00891+00431102451ADDGA1041+999999079GF104991041001999999081001MA1999999101981MD1710081+9999SA1+0809REMSYN088AAXX  03094 02680 42985 42003 10089 20043 30198 40245 57008 84080 222// 00080 333 84399;
0189026800999992000050312004+56920+018150FM-12+003999999V0202101N002119999999N0400001N1+01101+00311102341ADDAA199000091GA1081+999999089GF108991001001999999001071MA1999999101871MD1710111+9999REMSYN076AAXX  03124 02680 32982 82104 10110 20031 30187 40234 57011 80007 333 88299;EQDQ01  00002PRCP99
0159026800999992000050315004+56920+018150FM-12+003999999V0201901N002119999999N0280001N1+01011+00341102201ADDGA1081+999999089GF108991001001999999001071MA1999999101731MD1710141+9999REMSYN076AAXX  03154 02680 42978 81904 10101 20034 30173 40220 57014 80007 333 88299;
0214026800999992000050318004+56920+018150FM-12+003999999V0202201N002119999999N0280001N1+00801+00221102081ADDAA199000091GA1011+025009039GF108991011001999999031071KA1120M+01151MA1999999101611MD1710121+9999REMSYN088AAXX  03184 02680 32978 82204 10080 20022 30161 40208 57012 81037 333 10115 81399 88299;EQDQ01  00002PRCP99
0159026800999992000050321004+56920+018150FM-12+003999999V0201801N001512200019N0280001N1+00711+00301102131ADDGA1021+999999079GF102991021001999999031011MA1999999101651MD1110051+9999REMSYN076AAXX  03214 02680 42978 21803 10071 20030 30165 40213 51005 82031 333 82399;
0204026800999992000050400004+56920+018150FM-12+003999999V0203301N000519999999N0250001N1+00671+00491102081ADDAA106000191AY181061AY211061GA1081+999999079GF108991081001999999071999MA1999999101601MD1810051+9999MW1031REMSYN088AAXX  04004 02680 11975 83301 10067 20049 30160 40208 58005 69921 70381 8807/ 333 88399;
0187026800999992000050403004+56920+018150FM-12+003999999V0200401N00211021001CN0200001N1+00681+00671102121ADDAY181031AY261031GA1081+999999079GF108991081001022501071999MA1999999101641MD1310041+9999MW1611REMSYN082AAXX  04034 02680 41870 80404 10068 20067 30164 40212 53004 76186 8807/ 333 88399;
0235026800999992000050406004+56920+018150FM-12+003999999V0200301N002619999999N0250001N1+00801+00581102201ADDAA112000891AY181061AY261061GA1081+999999079GF108991081001999999071999IA1099KA1120N+00671MA1999999101731MD1210081+9999MW1011REMSYN100AAXX  04064 02680 11975 80305 10080 20058 30173 40220 52008 69972 70186 8807/ 333 20067 31/// 88399;
0159026800999992000050409004+56920+018150FM-12+003999999V0200401N003112200019N0750001N1+01181-00041102361ADDGA1011+004509029GF103991011021004501081011MA1999999101791MD1310161+9999REMSYN076AAXX  04094 02680 42489 30406 10118 21004 30179 40236 53016 81281 333 81894;
0198026800999992000050412004+56920+018150FM-12+003999999V0202701N001012200019N0750001N1+01081+00581102341ADDAA199000021AY111061AY211061GA1011+004509029GF102991011021004501031021MA1999999101871MD1810021+9999MW1401REMSYN082AAXX  04124 02680 31489 22702 10108 20058 30187 40234 58002 74011 81232 333 81894;
0193026800999992000050415004+56920+018150FM-12+003999999V0203101N00151030001CN0750001N1+01021+00351102301ADDAY121031AY211031GA1011+004509089GF108991011021004501031071MA1999999101831MD1710041+9999MW1401REMSYN088AAXX  04154 02680 41489 83103 10102 20035 30183 40230 57004 74021 81237 333 81894 88299;
0208026800999992000050418004+56920+018150FM-12+003999999V0201201N001019999999N0750001N1+00851+00451102301ADDAA199000091GA1081+999999089GF108991001001999999001071KA1120M+01351MA1999999101831MD1410001+9999REMSYN082AAXX  04184 02680 32989 81202 10085 20045 30183 40230 54000 80007 333 10135 88299;EQDQ01  00002PRCP99
0159026800999992000050421004+56920+018150FM-12+003999999V0201201N001012200019N0550001N1+00581+00391102331ADDGA1011+999999089GF101991001001999999001081MA1999999101851MD1110031+9999REMSYN076AAXX  04214 02680 42985 11202 10058 20039 30185 40233 51003 80008 333 81299;
0189026800999992000050500004+56920+018150FM-12+003999999V0202401N001012200019N0550001N1+00521+00511102291ADDAA199000091GA1011+999999089GF101991001001999999001081MA1999999101811MD1810041+9999REMSYN076AAXX  05004 02680 32985 12402 10052 20051 30181 40229 58004 80008 333 81299;EQDQ01  00002PRCP99
0159026800999992000050503004+56920+018150FM-12+003999999V0202401N001512200019N0550001N1+00531+00401102281ADDGA1021+999999089GF102991001001999999001081MA1999999101801MD1810011+9999REMSYN076AAXX  05034 02680 42985 22403 10053 20040 30180 40228 58001 80008 333 82299;
0220026800999992000050506004+56920+018150FM-12+003999999V0202401N001019999999N0750001N1+00851+00471102211ADDAA199000091GA1081+999999089GF108991001001999999001071IA1019KA1120N+00521MA1999999101741MD1710071+9999REMSYN088AAXX  05064 02680 32989 82402 10085 20047 30174 40221 57007 80007 333 20052 30/// 88299;EQDQ01  00002PRCP99
0159026800999992000050509004+56920+018150FM-12+003999999V0202101N003119999999N0650001N1+01041+00351102151ADDGA1081+999999089GF108991001001999999001071MA1999999101681MD1710061+9999REMSYN076AAXX  05094 02680 42987 82106 10104 20035 30168 40215 57006 80007 333 88299;
0189026800999992000050512004+56920+018150FM-12+003999999V0202201N003619999999N0650001N1+01151+00111102031ADDAA199000091GA1081+999999089GF108991001001999999001071MA1999999101561MD1710121+9999REMSYN076AAXX  05124 02680 32987 82207 10115 20011 30156 40203 57012 80007 333 88299;EQDQ01  00002PRCP99
0159026800999992000050515004+56920+018150FM-12+003999999V0202101N003119999999N0750001N1+01071+00231101911ADDGA1081+999999089GF108991001001999999001071MA1999999101441MD1710121+9999REMSYN076AAXX  05154 02680 42989 82106 10107 20023 30144 40191 57012 80007 333 88299;
0208026800999992000050518004+56920+018150FM-12+003999999V0202401N003119999999N0750001N1+00841+00361101781ADDAA199000091GA1081+999999089GF108991001001999999001071KA1120M+01191MA1999999101311MD1610131+9999REMSYN082AAXX  05184 02680 32989 82406 10084 20036 30131 40178 56013 80007 333 10119 88299;EQDQ01  00002PRCP99
0159026800999992000050521004+56920+018150FM-12+003999999V0202401N001512200019N0550001N1+00691+00621101811ADDGA1011+999999089GF101991001001999999001081MA1999999101331MD1310031+9999REMSYN076AAXX  05214 02680 42985 12403 10069 20062 30133 40181 53003 80008 333 81299;
0189026800999992000050600004+56920+018150FM-12+003999999V0202601N001012200019N0550001N1+00731+00691101811ADDAA199000091GA1031+999999079GF103991031001999999051081MA1999999101331MD1410001+9999REMSYN076AAXX  06004 02680 32985 32602 10073 20069 30133 40181 54000 83058 333 83399;EQDQ01  00002PRCP99
0165026800999992000050603004+56920+018150FM-12+003999999V0200601N002119999999N0550001N1+00721+00711101851ADDGA1011+025009039GF108991011001999999031071MA1999999101381MD1310041+9999REMSYN082AAXX  06034 02680 42985 80604 10072 20071 30138 40185 53004 81037 333 81399 88299;
0220026800999992000050606004+56920+018150FM-12+003999999V0200601N005119999999N0650001N1+01121-00371102051ADDAA199000091GA1081+999999089GF108991001001999999001071IA1019KA1120N+00691MA1999999101581MD1210201+9999REMSYN088AAXX  06064 02680 32987 80610 10112 21037 30158 40205 52020 80007 333 20069 30/// 88299;EQDQ01  00002PRCP99
0159026800999992000050609004+56920+018150FM-12+003999999V0200601N005119999999N0750001N1+01191-00471102331ADDGA1081+999999089GF108991001001999999001071MA1999999101861MD1210281+9999REMSYN076AAXX  06094 02680 42989 80610 10119 21047 30186 40233 52028 80007 333 88299;
0189026800999992000050612004+56920+018150FM-12+003999999V0200601N003119999999N0700001N1+01231-00471102431ADDAA199000091GA1081+999999089GF108991001001999999001071MA1999999101961MD1110101+9999REMSYN076AAXX  06124 02680 32988 80606 10123 21047 30196 40243 51010 80007 333 88299;EQDQ01  00002PRCP99
0159026800999992000050615004+56920+018150FM-12+003999999V0200701N003119999999N0650001N1+01051-00391102451ADDGA1081+999999089GF108991001001999999001071MA1999999101981MD1110021+9999REMSYN076AAXX  06154 02680 42987 80706 10105 21039 30198 40245 51002 80007 333 88299;
0208026800999992000050618004+56920+018150FM-12+003999999V0200601N003119999999N0650001N1+00731-00671102481ADDAA199000091GA1081+999999089GF108991001001999999001071KA1120M+01301MA1999999102011MD1210031+9999REMSYN082AAXX  06184 02680 32987 80606 10073 21067 30201 40248 52003 80007 333 10130 88299;EQDQ01  00002PRCP99
0159026800999992000050621004+56920+018150FM-12+003999999V0200301N001512200019N0400001N1+00321+00001102561ADDGA1011+999999019GF101991001001999999001011MA1999999102081MD1110071+9999REMSYN076AAXX  06214 02680 42982 10303 10032 20000 30208 40256 51007 80001 333 81099;
0173026800999992000050700004+56920+018150FM-12+003999999V0200401N001512200019N0550001N1+00241+00101102611ADDAA199000091GA1001+999999999GF100991001001999999001001MA1999999102131MD1210051+9999REMSYN060AAXX  07004 02680 32985 00403 10024 20010 30213 40261 52005;EQDQ01  00002PRCP99
0159026800999992000050703004+56920+018150FM-12+003999999V0200301N002112200019N0550001N1+00321+00291102691ADDGA1011+999999019GF101991001001999999001011MA1999999102211MD1210081+9999REMSYN076AAXX  07034 02680 42985 10304 10032 20029 30221 40269 52008 80001 333 81099;
0208026800999992000050706004+56920+018150FM-12+003999999V0200901N001512200019N0750001N1+00891+00051102761ADDAA199000091GA1001+999999999GF100991001001999999001001IA1019KA1120N+00231MA1999999102281MD1210071+9999REMSYN076AAXX  07064 02680 32989 00903 10089 20005 30228 40276 52007 333 20023 30///;EQDQ01  00002PRCP99
0159026800999992000050709004+56920+018150FM-12+003999999V0201201N001512200019N0750001N1+01131-00481102851ADDGA1011+999999019GF101991001001999999001011MA1999999102381MD1210091+9999REMSYN076AAXX  07094 02680 42989 11203 10113 21048 30238 40285 52009 80001 333 81099;
0189026800999992000050712004+56920+018150FM-12+003999999V0201501N002112200019N0750001N1+01161-00291102781ADDAA199000091GA1011+999999019GF101991001001999999001011MA1999999102311MD1810071+9999REMSYN076AAXX  07124 02680 32989 11504 10116 21029 30231 40278 58007 80001 333 81099;EQDQ01  00002PRCP99
0159026800999992000050715004+56920+018150FM-12+003999999V0201501N002112200019N0750001N1+00981+00331102661ADDGA1011+999999019GF101991001001999999001011MA1999999102191MD1710121+9999REMSYN076AAXX  07154 02680 42989 11504 10098 20033 30219 40266 57012 80001 333 81099;
0143026800999992000050721004+56920+018150FM-12+003999999V0201201N001012200019N0750001N1+00631+00621102551ADDGA1001+999999999GF100991001001999999001001MA1999999102071MD1710021+9999REMSYN060AAXX  07214 02680 42989 01202 10063 20062 30207 40255 57002;
0173026800999992000050800004+56920+018150FM-12+003999999V0201601N001012200019N0700001N1+00611+00101102541ADDAA199000091GA1001+999999999GF100991001001999999001001MA1999999102061MD1610011+9999REMSYN060AAXX  08004 02680 32988 01602 10061 20010 30206 40254 56001;EQDQ01  00002PRCP99
0159026800999992000050803004+56920+018150FM-12+003999999V0202701N001012200019N0700001N1+00651+00621102501ADDGA1011+999999019GF101991001001999999001011MA1999999102021MD1710041+9999REMSYN076AAXX  08034 02680 42988 12702 10065 20062 30202 40250 57004 80001 333 81099;
0220026800999992000050806004+56920+018150FM-12+003999999V0209999V000512200019N0750001N1+01161-00581102491ADDAA199000091GA1011+999999019GF101991001001999999001011IA1019KA1120N+00601MA1999999102021MD1410001+9999REMSYN088AAXX  08064 02680 32989 19901 10116 21058 30202 40249 54000 80001 333 20060 30/// 81099;EQDQ01  00002PRCP99
0155026800999992000050809004+56920+018150FM-12+003999999V0201801N001512200019N0750001N1+01421-00971102511ADDGA1001+999999999GF100991001001999999001001MA1999999102041MD1310021+9999REMSYN072AAXX  08094 02680 42989 01803 10142 21097 30204 40251 53002 222// 00088;
0189026800999992000050812004+56920+018150FM-12+003999999V0201801N001512200019N0750001N1+01511-00701102511ADDAA199000091GA1011+999999079GF101991011001999999031001MA1999999102041MD1410001+9999REMSYN076AAXX  08124 02680 32989 11803 10151 21070 30204 40251 54000 81030 333 81399;EQDQ01  00002PRCP99
0159026800999992000050815004+56920+018150FM-12+003999999V0201901N001012200019N0750001N1+01501-00711102451ADDGA1011+999999079GF101991011001999999031001MA1999999101981MD1810061+9999REMSYN076AAXX  08154 02680 42989 11902 10150 21071 30198 40245 58006 81030 333 81399;
0196026800999992000050818004+56920+018150FM-12+003999999V0209999V000512200019N0750001N1+01361-00331102421ADDAA199000091GA1001+999999999GF100991001001999999001001KA1999M+01581MA1999999101951MD1710031+9999REMSYN070AAXX  08184 02680 32989 09901 10136 21033 30195 40242 57003 333 10158;EQDQ01  00002PRCP99
0143026800999992000050821004+56920+018150FM-12+003999999V0200601N002112200019N0750001N1+00781+00611102491ADDGA1001+999999999GF100991001001999999001001MA1999999102011MD1310071+9999REMSYN060AAXX  08214 02680 42989 00604 10078 20061 30201 40249 53007;
0173026800999992000050900004+56920+018150FM-12+003999999V0200701N002112200019N0750001N1+00691+00511102551ADDAA199000091GA1001+999999999GF100991001001999999001001MA1999999102071MD1210061+9999REMSYN060AAXX  09004 02680 32989 00704 10069 20051 30207 40255 52006;EQDQ01  00002PRCP99
0159026800999992000050903004+56920+018150FM-12+003999999V0200601N001512200019N0750001N1+00561+00531102541ADDGA1011+999999019GF101991001001999999001011MA1999999102061MD1810011+9999REMSYN076AAXX  09034 02680 42989 10603 10056 20053 30206 40254 58001 80001 333 81099;
0220026800999992000050906004+56920+018150FM-12+003999999V0200901N002112200019N0750001N1+01141-00131102611ADDAA199000091GA1011+999999019GF101991001001999999001011IA1019KA1120N+00561MA1999999102141MD1310071+9999REMSYN088AAXX  09064 02680 32989 10904 10114 21013 30214 40261 53007 80001 333 20056 30/// 81099;EQDQ01  00002PRCP99
0159026800999992000050909004+56920+018150FM-12+003999999V0200801N003612200019N0750001N1+01321-00491102621ADDGA1011+999999019GF101991001001999999001011MA1999999102151MD1110011+9999REMSYN076AAXX  09094 02680 42989 10807 10132 21049 30215 40262 51001 80001 333 81099;
0189026800999992000050912004+56920+018150FM-12+003999999V0201101N002612200019N0750001N1+01371-00441102611ADDAA199000091GA1011+999999019GF101991001001999999001011MA1999999102141MD1810011+9999REMSYN076AAXX  09124 02680 32989 11105 10137 21044 30214 40261 58001 80001 333 81099;EQDQ01  00002PRCP99
0159026800999992000050915004+56920+018150FM-12+003999999V0201201N001512200019N0750001N1+01321-00271102481ADDGA1011+999999019GF101991001001999999001011MA1999999102011MD1810131+9999REMSYN076AAXX  09154 02680 42989 11203 10132 21027 30201 40248 58013 80001 333 81099;
0208026800999992000050918004+56920+018150FM-12+003999999V0203301N000512200019N0750001N1+01111+00361102361ADDAA199000091GA1011+999999019GF101991001001999999001011KA1120M+01501MA1999999101891MD1610121+9999REMSYN082AAXX  09184 02680 32989 13301 10111 20036 30189 40236 56012 80001 333 10150 81099;EQDQ01  00002PRCP99
0143026800999992000050921004+56920+018150FM-12+003999999V0200601N001512200019N0750001N1+00831-00021102281ADDGA1001+999999999GF100991001001999999001001MA1999999101811MD1710081+9999REMSYN060AAXX  09214 02680 42989 00603 10083 21002 30181 40228 57008;
0173026800999992000051000004+56920+018150FM-12+003999999V0200901N001012200019N0750001N1+00931-00501102201ADDAA199000091GA1001+999999999GF100991001001999999001001MA1999999101731MD1710081+9999REMSYN060AAXX  10004 02680 32989 00902 10093 21050 30173 40220 57008;EQDQ01  00002PRCP99
0143026800999992000051003004+56920+018150FM-12+003999999V0200101N001512200019N0750001N1+00781+00431102141ADDGA1001+999999999GF100991001001999999001001MA1999999101671MD1610061+9999REMSYN060AAXX  10034 02680 42989 00103 10078 20043 30167 40214 56006;
0208026800999992000051006004+56920+018150FM-12+003999999V0209999V000512200019N0750001N1+01311-00011102081ADDAA199000091GA1001+999999999GF100991001001999999001001IA1019KA1120N+00751MA1999999101611MD1710061+9999REMSYN076AAXX  10064 02680 32989 09901 10131 21001 30161 40208 57006 333 20075 30///;EQDQ01  00002PRCP99
0155026800999992000051009004+56920+018150FM-12+003999999V0201401N001512200019N0750001N1+01381+00541101991ADDGA1001+999999999GF100991001001999999001001MA1999999101521MD1710091+9999REMSYN072AAXX  10094 02680 42989 01403 10138 20054 30152 40199 57009 222// 00088;
0173026800999992000051012004+56920+018150FM-12+003999999V0202101N001012200019N0750001N1+01531+00411101911ADDAA199000091GA1001+999999999GF100991001001999999001001MA1999999101451MD1710081+9999REMSYN060AAXX  10124 02680 32989 02102 10153 20041 30145 40191 57008;EQDQ01  00002PRCP99
0159026800999992000051015004+56920+018150FM-12+003999999V0202101N001012200019N0750001N1+01501+00601101761ADDGA1011+999999089GF101991001001999999001051MA1999999101301MD1710151+9999REMSYN076AAXX  10154 02680 42989 12102 10150 20060 30130 40176 57015 80005 333 81299;
0208026800999992000051018004+56920+018150FM-12+003999999V0202101N001012200019N0750001N1+01171+01091101601ADDAA199000091GA1021+999999089GF102991001001999999001051KA1120M+01651MA1999999101131MD1610161+9999REMSYN082AAXX  10184 02680 32989 22102 10117 20109 30113 40160 56016 80005 333 10165 82299;EQDQ01  00002PRCP99
0159026800999992000051021004+56920+018150FM-12+003999999V0202101N001519999999N0750001N1+01011+00891101521ADDGA1081+999999089GF108991001001999999001071MA1999999101051MD1710081+9999REMSYN076AAXX  10214 02680 42989 82103 10101 20089 30105 40152 57008 80007 333 88299;
0189026800999992000051100004+56920+018150FM-12+003999999V0202701N002119999999N0750001N1+01021+00671101401ADDAA199000091GA1081+999999089GF108991001001999999001071MA1999999100931MD1710121+9999REMSYN076AAXX  11004 02680 32989 82704 10102 20067 30093 40140 57012 80007 333 88299;EQDQ01  00002PRCP99
0159026800999992000051103004+56920+018150FM-12+003999999V0203301N002119999999N0750001N1+00941+00891101391ADDGA1081+999999089GF108991001001999999001071MA1999999100921MD1610011+9999REMSYN076AAXX  11034 02680 42989 83304 10094 20089 30092 40139 56001 80007 333 88299;
0226026800999992000051106004+56920+018150FM-12+003999999V0200501N003619999999N0650001N1+01161+00441101531ADDAA199000091GA1011+025009039GF108991011001999999081071IA1019KA1120N+00911MA1999999101061MD1310141+9999REMSYN094AAXX  11064 02680 32987 80507 10116 20044 30106 40153 53014 81087 333 20091 30/// 81399 88299;EQDQ01  00002PRCP99
0159026800999992000051109004+56920+018150FM-12+003999999V0200601N002119999999N0650001N1+01201+00041101751ADDGA1081+999999079GF108991081001999999071999MA1999999101281MD1110221+9999REMSYN076AAXX  11094 02680 42987 80604 10120 20004 30128 40175 51022 8807/ 333 88399;
0195026800999992000051112004+56920+018150FM-12+003999999V0203601N00261030001CN0550001N1+01121+00281101851ADDAA199000091GA1011+004509089GF108991011011004501071071MA1999999101381MD1110101+9999REMSYN082AAXX  11124 02680 32485 83605 10112 20028 30138 40185 51010 81177 333 81894 86398;EQDQ01  00002PRCP99
0165026800999992000051115004+56920+018150FM-12+003999999V0201501N00151075001CN0550001N1+01031-00021101901ADDGA1011+004509089GF108991011021004501001071MA1999999101431MD1210051+9999REMSYN082AAXX  11154 02680 42485 81503 10103 21002 30143 40190 52005 81207 333 81894 88299;
0214026800999992000051118004+56920+018150FM-12+003999999V0203301N00101030001CN0750001N1+01001+00261101931ADDAA199000091GA1011+004509089GF108991011021004501031071KA1120M+01321MA1999999101461MD1310031+9999REMSYN088AAXX  11184 02680 32489 83302 10100 20026 30146 40193 53003 81237 333 10132 81894 88299;EQDQ01  00002PRCP99
0159026800999992000051121004+56920+018150FM-12+003999999V0200601N002112200019N0750001N1+00551-00291102251ADDGA1011+004509029GF101991011011004501031081MA1999999101771MD1210321+9999REMSYN076AAXX  11214 02680 42489 10604 10055 21029 30177 40225 52032 81138 333 81894;
0189026800999992000051200004+56920+018150FM-12+003999999V0200201N001012200019N0750001N1+00471-00491102421ADDAA199000091GA1011+004509029GF101991011011004501001081MA1999999101941MD1210171+9999REMSYN076AAXX  12004 02680 32489 10202 10047 21049 30194 40242 52017 81108 333 81894;EQDQ01  00002PRCP99
0159026800999992000051203004+56920+018150FM-12+003999999V0200201N001010045019N0750001N1+00521-00521102531ADDGA1061+004509029GF106991061081004501001001MA1999999102051MD1210111+9999REMSYN076AAXX  12034 02680 42489 60202 10052 21052 30205 40253 52011 86800 333 86894;
0220026800999992000051206004+56920+018150FM-12+003999999V0203601N003112200019N0750001N1+00701-00781102701ADDAA199000091GA1011+004509029GF102991011021004501081001IA1019KA1120N+00401MA1999999102221MD1210171+9999REMSYN088AAXX  12064 02680 32489 23606 10070 21078 30222 40270 52017 81280 333 20040 30/// 81894;EQDQ01  00002PRCP99
0179026800999992000051209004+56920+018150FM-12+003999999V0203601N003112200019N0750001N1+00741-00821102851ADDGA1011+004509029GF101991011021004501001011MA1999999102371MD1210151+9999SA1+1109REMSYN088AAXX  12094 02680 42489 13606 10074 21082 30237 40285 52015 81201 222// 00110 333 81894;
0189026800999992000051212004+56920+018150FM-12+003999999V0203301N003612200019N0650001N1+00741-00781102911ADDAA199000091GA1011+004509029GF101991011021004501031001MA1999999102431MD1110061+9999REMSYN076AAXX  12124 02680 32487 13307 10074 21078 30243 40291 51006 81230 333 81894;EQDQ01  00002PRCP99
0159026800999992000051215004+56920+018150FM-12+003999999V0203601N002612200019N0750001N1+00901-01051102801ADDGA1011+999999079GF101991011001999999031001MA1999999102331MD1810111+9999REMSYN076AAXX  12154 02680 42989 13605 10090 21105 30233 40280 58011 81030 333 81399;
0208026800999992000051218004+56920+018150FM-12+003999999V0203301N001012200019N0750001N1+00831-00741102701ADDAA199000091GA1011+999999079GF101991011001999999031001KA1120M+00971MA1999999102231MD1610101+9999REMSYN082AAXX  12184 02680 32989 13302 10083 21074 30223 40270 56010 81030 333 10097 81399;EQDQ01  00002PRCP99
0159026800999992000051221004+56920+018150FM-12+003999999V0202701N002612200019N0750001N1+00601-00421102681ADDGA1011+999999079GF101991011001999999031021MA1999999102201MD1810021+9999REMSYN076AAXX  12214 02680 42989 12705 10060 21042 30220 40268 58002 81032 333 81399;
0189026800999992000051300004+56920+018150FM-12+003999999V0202801N004112200019N0750001N1+00641+00311102561ADDAA199000091GA1011+999999079GF101991011001999999031001MA1999999102081MD1710121+9999REMSYN076AAXX  13004 02680 32989 12808 10064 20031 30208 40256 57012 81030 333 81399;EQDQ01  00002PRCP99
0159026800999992000051303004+56920+018150FM-12+003999999V0202401N003612200019N0650001N1+00661+00631102411ADDGA1011+999999079GF101991011001999999031001MA1999999101931MD1710151+9999REMSYN076AAXX  13034 02680 42987 12407 10066 20063 30193 40241 57015 81030 333 81399;
0220026800999992000051306004+56920+018150FM-12+003999999V0202701N003112200019N0650001N1+00901+00551102301ADDAA199000091GA1031+999999089GF103991001001999999001081IA1019KA1120N+00601MA1999999101831MD1610111+9999REMSYN088AAXX  13064 02680 32987 32706 10090 20055 30183 40230 56011 80008 333 20060 30/// 83299;EQDQ01  00002PRCP99
0159026800999992000051309004+56920+018150FM-12+003999999V0202801N003112200019N0750001N1+01181+00271102231ADDGA1011+999999019GF101991001001999999001021MA1999999101761MD1710071+9999REMSYN076AAXX  13094 02680 42989 12806 10118 20027 30176 40223 57007 80002 333 81099;
0189026800999992000051312004+56920+018150FM-12+003999999V0202601N00211075001CN0500001N1+01501-00151102151ADDAA199000091GA1071+999999019GF107991001001999999001021MA1999999101691MD1810071+9999REMSYN076AAXX  13124 02680 32984 72604 10150 21015 30169 40215 58007 80002 333 87099;EQDQ01  00002PRCP99
0159026800999992000051315004+56920+018150FM-12+003999999V0202401N00101075001CN0450001N1+01331+00221102121ADDGA1071+999999019GF107991001001999999001021MA1999999101651MD1710041+9999REMSYN076AAXX  13154 02680 42983 72402 10133 20022 30165 40212 57004 80002 333 87099;
0208026800999992000051318004+56920+018150FM-12+003999999V0202701N00101075001CN0450001N1+01361+00021102101ADDAA199000091GA1071+999999019GF107991001001999999001021KA1120M+01601MA1999999101631MD1610021+9999REMSYN082AAXX  13184 02680 32983 72702 10136 20002 30163 40210 56002 80002 333 10160 87099;EQDQ01  00002PRCP99
0159026800999992000051321004+56920+018150FM-12+003999999V0202801N002112200019N0450001N1+01091+00191102181ADDGA1041+999999019GF104991001001999999001011MA1999999101711MD1310081+9999REMSYN076AAXX  13214 02680 42983 42804 10109 20019 30171 40218 53008 80001 333 84099;
0189026800999992000051400004+56920+018150FM-12+003999999V0200401N001512200019N0550001N1+01001+00471102211ADDAA199000091GA1011+999999019GF101991001001999999001011MA1999999101741MD1210031+9999REMSYN076AAXX  14004 02680 32985 10403 10100 20047 30174 40221 52003 80001 333 81099;EQDQ01  00002PRCP99
0159026800999992000051403004+56920+018150FM-12+003999999V0209999C000012200019N0550001N1+00851+00831102291ADDGA1021+999999019GF102991001001999999001021MA1999999101821MD1210081+9999REMSYN076AAXX  14034 02680 42985 20000 10085 20083 30182 40229 52008 80002 333 82099;
0220026800999992000051406004+56920+018150FM-12+003999999V0203201N001512200019N0550001N1+01181+00651102361ADDAA199000091GA1041+999999019GF104991001001999999001021IA1019KA1120N+00851MA1999999101891MD1210071+9999REMSYN088AAXX  14064 02680 32985 43203 10118 20065 30189 40236 52007 80002 333 20085 30/// 84099;EQDQ01  00002PRCP99
0159026800999992000051409004+56920+018150FM-12+003999999V0203301N002112200019N0550001N1+01401+00151102411ADDGA1021+999999019GF102991001001999999001021MA1999999101941MD1210051+9999REMSYN076AAXX  14094 02680 42985 23304 10140 20015 30194 40241 52005 80002 333 82099;
0189026800999992000051412004+56920+018150FM-12+003999999V0202901N002112200019N0750001N1+01741+00141102351ADDAA199000091GA1021+999999019GF102991001001999999001021MA1999999101891MD1810051+9999REMSYN076AAXX  14124 02680 32989 22904 10174 20014 30189 40235 58005 80002 333 82099;EQDQ01  00002PRCP99
0159026800999992000051415004+56920+018150FM-12+003999999V0202101N002612200019N0550001N1+01521+00211102181ADDGA1041+999999019GF104991001001999999001021MA1999999101721MD1810171+9999REMSYN076AAXX  14154 02680 42985 42105 10152 20021 30172 40218 58017 80002 333 84099;
0208026800999992000051418004+56920+018150FM-12+003999999V0201801N001519999999N0550001N1+01231+00731102011ADDAA199000091GA1081+999999089GF108991001001999999001071KA1120M+01801MA1999999101541MD1710181+9999REMSYN082AAXX  14184 02680 32985 81803 10123 20073 30154 40201 57018 80007 333 10180 88299;EQDQ01  00002PRCP99
0159026800999992000051421004+56920+018150FM-12+003999999V0201201N001012200019N0400001N1+01001+00981101941ADDGA1011+999999019GF101991001001999999001011MA1999999101471MD1710071+9999REMSYN076AAXX  14214 02680 42982 11202 10100 20098 30147 40194 57007 80001 333 81099;
0173026800999992000051500004+56920+018150FM-12+003999999V0202701N001512200019N0550001N1+01231+00731101891ADDAA199000091GA1001+999999999GF100991001001999999001001MA1999999101421MD1710051+9999REMSYN060AAXX  15004 02680 32985 02703 10123 20073 30142 40189 57005;EQDQ01  00002PRCP99
0143026800999992000051503004+56920+018150FM-12+003999999V0203301N003112200019N0600001N1+01321+00651101831ADDGA1001+999999999GF100991001001999999001001MA1999999101361MD1710061+9999REMSYN060AAXX  15034 02680 42986 03306 10132 20065 30136 40183 57006;
0208026800999992000051506004+56920+018150FM-12+003999999V0203001N003112200019N0750001N1+01431+00531101801ADDAA199000091GA1001+999999999GF100991001001999999001001IA1019KA1120N+00951MA1999999101331MD1710031+9999REMSYN076AAXX  15064 02680 32989 03006 10143 20053 30133 40180 57003 333 20095 30///;EQDQ01  00002PRCP99
0179026800999992000051509004+56920+018150FM-12+003999999V0202901N002112200019N0650001N1+01731+00241101771ADDGA1011+999999019GF101991001001999999001011MA1999999101311MD1710021+9999SA1+1149REMSYN088AAXX  15094 02680 42987 12904 10173 20024 30131 40177 57002 80001 222// 00114 333 81099;
0189026800999992000051512004+56920+018150FM-12+003999999V0203101N002112200019N0550001N1+02001+00091101731ADDAA199000091GA1011+999999019GF101991001001999999001011MA1999999101281MD1710031+9999REMSYN076AAXX  15124 02680 32985 13104 10200 20009 30128 40173 57003 80001 333 81099;EQDQ01  00002PRCP99
0159026800999992000051515004+56920+018150FM-12+003999999V0200601N003612200019N0550001N1+01831-00311101751ADDGA1011+999999019GF101991001001999999001011MA1999999101291MD1210011+9999REMSYN076AAXX  15154 02680 42985 10607 10183 21031 30129 40175 52001 80001 333 81099;
0208026800999992000051518004+56920+018150FM-12+003999999V0200901N003112200019N0700001N1+01721+00271101741ADDAA199000091GA1011+999999019GF101991001001999999001011KA1120M+02281MA1999999101281MD1510011+9999REMSYN082AAXX  15184 02680 32988 10906 10172 20027 30128 40174 55001 80001 333 10228 81099;EQDQ01  00002PRCP99
0143026800999992000051521004+56920+018150FM-12+003999999V0200901N002112200019N0650001N1+00981+00521101791ADDGA1001+999999999GF100991001001999999001001MA1999999101321MD1210041+9999REMSYN060AAXX  15214 02680 42987 00904 10098 20052 30132 40179 52004;
0173026800999992000051600004+56920+018150FM-12+003999999V0200701N001512200019N0650001N1+00771+00531101851ADDAA199000091GA1001+999999999GF100991001001999999001001MA1999999101371MD1110051+9999REMSYN060AAXX  16004 02680 32987 00703 10077 20053 30137 40185 51005;EQDQ01  00002PRCP99
0159026800999992000051603004+56920+018150FM-12+003999999V0200601N001012200019N0650001N1+00741+00711101881ADDGA1011+999999019GF101991001001999999001011MA1999999101401MD1310031+9999REMSYN076AAXX  16034 02680 42987 10602 10074 20071 30140 40188 53003 80001 333 81099;
0220026800999992000051606004+56920+018150FM-12+003999999V0200801N001512200019N0600001N1+01401+00221101921ADDAA199000091GA1011+999999089GF101991001001999999001081IA1019KA1120N+00721MA1999999101461MD1210061+9999REMSYN088AAXX  16064 02680 32986 10803 10140 20022 30146 40192 52006 80008 333 20072 30/// 81299;EQDQ01  00002PRCP99
0159026800999992000051609004+56920+018150FM-12+003999999V0201101N002112200019N0550001N1+01541-00201101971ADDGA1011+999999089GF101991001001999999001081MA1999999101511MD1110051+9999REMSYN076AAXX  16094 02680 42985 11104 10154 21020 30151 40197 51005 80008 333 81299;
0189026800999992000051612004+56920+018150FM-12+003999999V0201201N002112200019N0600001N1+01611-00011101971ADDAA199000091GA1021+999999089GF102991001001999999001081MA1999999101511MD1010001+9999REMSYN076AAXX  16124 02680 32986 21204 10161 21001 30151 40197 50000 80008 333 82299;EQDQ01  00002PRCP99
0159026800999992000051615004+56920+018150FM-12+003999999V0201101N002112200019N0600001N1+01511-00021101911ADDGA1011+999999089GF101991001001999999001081MA1999999101451MD1710061+9999REMSYN076AAXX  16154 02680 42986 11104 10151 21002 30145 40191 57006 80008 333 81299;
0208026800999992000051618004+56920+018150FM-12+003999999V0201101N002112200019N0650001N1+01141+00661101791ADDAA199000091GA1011+999999089GF101991001001999999001081KA1120M+01711MA1999999101321MD1610131+9999REMSYN082AAXX  16184 02680 32987 11104 10114 20066 30132 40179 56013 80008 333 10171 81299;EQDQ01  00002PRCP99
0159026800999992000051621004+56920+018150FM-12+003999999V0201001N002112200019N0600001N1+00951+00791101741ADDGA1011+999999089GF101991001001999999001081MA1999999101271MD1710051+9999REMSYN076AAXX  16214 02680 42986 11004 10095 20079 30127 40174 57005 80008 333 81299;
0189026800999992000051700004+56920+018150FM-12+003999999V0201101N002112200019N0650001N1+01001+00721101651ADDAA199000091GA1011+999999079GF101991011001999999031011MA1999999101181MD1810091+9999REMSYN076AAXX  17004 02680 32987 11104 10100 20072 30118 40165 58009 81031 333 81399;EQDQ01  00002PRCP99
0159026800999992000051703004+56920+018150FM-12+003999999V0201101N001512200019N0750001N1+01121+00511101521ADDGA1011+999999019GF101991001001999999001011MA1999999101051MD1810131+9999REMSYN076AAXX  17034 02680 42989 11103 10112 20051 30105 40152 58013 80001 333 81099;
0220026800999992000051706004+56920+018150FM-12+003999999V0201301N002112200019N0700001N1+01471+00461101351ADDAA199000091GA1011+999999079GF101991011001999999081011IA1019KA1120N+00951MA1999999100891MD1710161+9999REMSYN088AAXX  17064 02680 32988 11304 10147 20046 30089 40135 57016 81081 333 20095 30/// 81399;EQDQ01  00002PRCP99
0185026800999992000051709004+56920+018150FM-12+003999999V0201201N003119999999N0700001N1+01711+00331101181ADDGA1031+025009039GF108991031001999999081071MA1999999100721MD1710171+9999SA1+1029REMSYN094AAXX  17094 02680 42988 81206 10171 20033 30072 40118 57017 83087 222// 00102 333 83399 88299;
0195026800999992000051712004+56920+018150FM-12+003999999V0201201N003119999999N0500001N1+01601+00661101041ADDAA199000091GA1011+025009039GF108991011001999999081071MA1999999100571MD1810151+9999REMSYN082AAXX  17124 02680 32984 81206 10160 20066 30057 40104 58015 81087 333 81399 88299;EQDQ01  00002PRCP99
0193026800999992000051715004+56920+018150FM-12+003999999V0201501N002619999999N0200001N1+01531+00891100801ADDAY121031AY221031GA1011+025009039GF108991011001999999081071MA1999999100351MD1710221+9999MW1051REMSYN088AAXX  17154 02680 41970 81505 10153 20089 30035 40080 57022 70522 81087 333 81399 88299;
0242026800999992000051718004+56920+018150FM-12+003999999V0201501N002119999999N0200001N1+01421+00961100591ADDAA199000091AY121061AY221061GA1011+025009039GF108991011001999999081071KA1120M+01731MA1999999100141MD1710211+9999MW1051REMSYN094AAXX  17184 02680 31970 81504 10142 20096 30014 40059 57021 70522 81087 333 10173 81399 88299;EQDQ01  00002PRCP99
0193026800999992000051721004+56920+018150FM-12+003999999V0202201N002119999999N0300001N1+01461+00801100571ADDAY121031AY221031GA1021+025009039GF108991021001999999081071MA1999999100121MD1510021+9999MW1051REMSYN088AAXX  17214 02680 41980 82204 10146 20080 30012 40057 55002 70522 82087 333 82399 88299;
0223026800999992000051800004+56920+018150FM-12+003999999V0209999V000519999999N0300001N1+01411+00691100331ADDAA199000091AY121061AY221061GA1041+025009039GF108991041001999999031071MA1999999099881MD1810241+9999MW1051REMSYN088AAXX  18004 02680 31980 89901 10141 20069 39988 40033 58024 70522 84037 333 84399 88299;EQDQ01  00002PRCP99
0159026800999992000051803004+56920+018150FM-12+003999999V0203001N004119999999N0300001N1+01251+01181100401ADDGA1071+999999079GF107991071001999999071999MA1999999099941MD1310061+9999REMSYN076AAXX  18034 02680 42980 73008 10125 20118 39994 40040 53006 8707/ 333 87399;
0241026800999992000051806004+56920+018150FM-12+003999999V0202801N00211021001CN0200001N1+01171+01101100601ADDAA112000791AY121061AY221061GA1041+022509039GF108991081001022501071999IA1099KA1120N+01171MA1999999100141MD1210201+9999MW1601REMSYN106AAXX  18064 02680 11870 82804 10117 20110 30014 40060 52020 69902 76022 8807/ 333 20117 31/// 84398 88399;
0193026800999992000051809004+56920+018150FM-12+003999999V0202801N00211999999CN0250001N1+01221+01031100761ADDAY161031AY261031GA1051+025009039GF107991071001999999071999MA1999999100301MD1110161+9999MW1011REMSYN088AAXX  18094 02680 41975 72804 10122 20103 30030 40076 51016 70166 8707/ 333 85399 87399;
0210026800999992000051812004+56920+018150FM-12+003999999V0202301N002612200019N0300001N1+01501+00661100791ADDAA106000791AY161061AY261061GA1011+012509089GF104991011011012501001021MA1999999100341MD1210041+9999MW1011REMSYN094AAXX  18124 02680 11680 42305 10150 20066 30034 40079 52004 69901 70166 81102 333 81896 84099;
0193026800999992000051815004+56920+018150FM-12+003999999V0202301N002619999999N0350001N1+01301+00541100781ADDAY111031AY211031GA1011+025009039GF107991071001999999091999MA1999999100321MD1710021+9999MW1051REMSYN088AAXX  18154 02680 41981 72305 10130 20054 30032 40078 57002 70511 8709/ 333 81399 87399;
0201026800999992000051818004+56920+018150FM-12+003999999V0202101N001019999999N0300001N1+01101+00941100701ADDAA112000791GA1031+025009049GF107991071001999999071999KA1120M+01621MA1999999100241MD1610081+9999REMSYN094AAXX  18184 02680 12980 72102 10110 20094 30024 40070 56008 69902 8707/ 333 10162 83499 87399;
0187026800999992000051821004+56920+018150FM-12+003999999V0202101N001010240019N0250001N1+01041+01031100721ADDAY161031AY221031GA1081+024009029GF108991081001022501021999MA1999999100261MD1210021+9999MW1601REMSYN082AAXX  18214 02680 41875 82102 10104 20103 30026 40072 52002 76062 8802/ 333 88558;
0204026800999992000051900004+56920+018150FM-12+003999999V0202401N001010180019N0220001N1+01031+01021100581ADDAA106002091AY161061AY221061GA1081+018009059GF108991081051017501999999MA1999999100121MD1810141+9999MW1601REMSYN088AAXX  19004 02680 11772 82402 10103 20102 30012 40058 58014 60021 76062 885// 333 88656;
0187026800999992000051903004+56920+018150FM-12+003999999V0201401N00151075001CN0300001N1+01011+01001100581ADDAY161031AY261031GA1081+999999019GF108991081001999999021999MA1999999100121MD1410001+9999MW1021REMSYN082AAXX  19034 02680 41980 81403 10101 20100 30012 40058 54000 70266 8802/ 333 88499;
0235026800999992000051906004+56920+018150FM-12+003999999V0201401N00151075001CN0350001N1+01031+00891100561ADDAA112002091AY161061AY261061GA1081+999999019GF108991081001999999021999IA1019KA1120N+01011MA1999999100101MD1710021+9999MW1021REMSYN100AAXX  19064 02680 11981 81403 10103 20089 30010 40056 57002 60022 70266 8802/ 333 20101 30/// 88499;
0185026800999992000051909004+56920+018150FM-12+003999999V0202001N00211030001CN0300001N1+01361+00931100601ADDGA1011+004509089GF107991011021004501071999MA1999999100141MD1010041+9999SA1+1329REMSYN094AAXX  19094 02680 42480 72004 10136 20093 30014 40060 50004 8127/ 222// 00132 333 81894 87399;
0189026800999992000051912004+56920+018150FM-12+003999999V0202101N00101030001CN0250001N1+01241+00931100611ADDAA199000021GA1081+999999079GF108991011081004501091041MA1999999100151MD1110011+9999REMSYN076AAXX  19124 02680 32475 82102 10124 20093 30015 40061 5117/ 81894 333 88399;EQDQ01+001702APC3  
0165026800999992000051915004+56920+018150FM-12+003999999V0201401N00151030001CN0250001N1+01111+01051100601ADDGA1021+002509079GF108991021061002501011999MA1999999100141MD1810011+9999REMSYN082AAXX  19154 02680 42375 81403 10111 20105 30014 40060 58001 8261/ 333 82793 88499;
0208026800999992000051918004+56920+018150FM-12+003999999V0201801N001010025019N0220001N1+01081+01071100591ADDAA199000091GA1081+002509069GF108991081061002501999999KA1120M+01361MA1999999100131MD1610011+9999REMSYN082AAXX  19184 02680 32372 81802 10108 20107 30013 40059 56001 886// 333 10136 88793;EQDQ01  00002PRCP99
0171026800999992000051921004+56920+018150FM-12+003999999V0201801N001010003019N0003001N1+00981+00971100611ADDAY121031AY221031GA1091+999999999GF109991091999999999999999MA1999999100151MD1210021+9999MW1451REMSYN066AAXX  19214 02680 41/03 91802 10098 20097 30015 40061 52002 74522;
0217026800999992000052000004+56920+018150FM-12+003999999V0201801N001010003019N0002001N1+00921+00911999999ADDAA199000091AY121061AY221061GA1091+999999999GF109991091999999999999999MA1999999100101MD1810051+9999MW1451REMSYN066AAXX  20004 02680 31/02 91802 10092 20091 30010 40156 58005 74522;EQDQ01+101563APOSLPQ02  00002PRCP99
0171026800999992000052003004+56920+018150FM-12+003999999V0202001N001010003019N0004001N1+00921+00911100491ADDAY141031AY241031GA1091+999999999GF109991091999999999999999MA1999999100031MD1710071+9999MW1431REMSYN066AAXX  20034 02680 41/04 92002 10092 20091 30003 40049 57007 74344;
0248026800999992000052006004+56920+018150FM-12+003999999V0201301N000510025019N0110001N1+01021+01011100531ADDAA199000091AY141061AY221061GA1081+002509069GF108991081061002501999999IA1019KA1120N+00921MA1999999100071MD1110041+9999MW1401REMSYN094AAXX  20064 02680 31361 81301 10102 20101 30007 40053 51004 74042 886// 333 20092 30/// 88793;EQDQ01  00002PRCP99
0187026800999992000052009004+56920+018150FM-12+003999999V0200901N001510025019N0090001N1+01171+01151100601ADDAY121031AY221031GA1081+002509069GF108991081061002501999999MA1999999100141MD1110071+9999MW1101REMSYN082AAXX  20094 02680 41359 80903 10117 20115 30014 40060 51007 71022 886// 333 88793;
0217026800999992000052012004+56920+018150FM-12+003999999V0201701N001012200019N0200001N1+01461+00561100561ADDAA199000091AY121061AY221061GA1021+004509099GF104991021031004501081011MA1999999100111MD1810031+9999MW1051REMSYN082AAXX  20124 02680 31470 41702 10146 20056 30011 40056 58003 70522 82381 333 82994;EQDQ01  00002PRCP99
0193026800999992000052015004+56920+018150FM-12+003999999V0203301N001510042019N0200001N1+01501+00861100591ADDAY121031AY211031GA1011+004509099GF106991051091004501031011MA1999999100141MD1310031+9999MW1051REMSYN088AAXX  20154 02680 41470 63303 10150 20086 30014 40059 53003 70521 85931 333 81994 83894;
0208026800999992000052018004+56920+018150FM-12+003999999V0203501N001512200019N0200001N1+01131+01061100601ADDAA199000091GA1011+002509069GF103991011021002501031011KA1120M+01541MA1999999100141MD1010001+9999REMSYN082AAXX  20184 02680 32370 33503 10113 20106 30014 40060 50000 81231 333 10154 81793;EQDQ01  00002PRCP99
0171026800999992000052021004+56920+018150FM-12+003999999V0200101N001012200019N0005001N1+00841+00821100591ADDAY111031AY211031GA1001+999999999GF100991001001999999001001MA1999999100151MD1710011+9999MW1441REMSYN066AAXX  20214 02680 41905 00102 10084 20082 30015 40059 57001 74411;
0201026800999992000052100004+56920+018150FM-12+003999999V0202801N001010003019N0002001N1+00911+00891100621ADDAA199000091AY101061AY201061GA1091+999999999GF109991091999999999999999MA1999999100161MD1210011+9999MW1451REMSYN066AAXX  21004 02680 31/02 92802 10091 20089 30016 40062 52001 74500;EQDQ01  00002PRCP99
0171026800999992000052103004+56920+018150FM-12+003999999V0203001N001010003019N0002001N1+00821+00801100541ADDAY141031AY241031GA1091+999999999GF109991091999999999999999MA1999999100081MD1810081+9999MW1451REMSYN066AAXX  21034 02680 41/02 93002 10082 20080 30008 40054 58008 74544;
0236026800999992000052106004+56920+018150FM-12+003999999V0202401N002110003019N0003001N1+00831+00811100561ADDAA199000091AY141061AY241061GA1091+999999999GF109991091999999999999999IA1019KA1120N+00761MA1999999100101MD1110021+9999MW1451REMSYN082AAXX  21064 02680 31/03 92404 10083 20081 30010 40056 51002 74544 333 20076 30///;EQDQ01  00002PRCP99
0187026800999992000052109004+56920+018150FM-12+003999999V0202401N002110003019N0170001N1+01111+00951100581ADDAY141031AY241031GA1071+000309069GF107991071061000251001011MA1999999100121MD1110021+9999MW1011REMSYN082AAXX  21094 02680 41067 72404 10111 20095 30012 40058 51002 70144 87601 333 87701;
0217026800999992000052112004+56920+018150FM-12+003999999V0202201N002610001519N0005001N1+01321+00881100591ADDAA199000091AY141061AY221061GA1071+000159069GF107991071061000251031011MA1999999100131MD1210011+9999MW1411REMSYN082AAXX  21124 02680 31005 72205 10132 20088 30013 40059 52001 74142 87631 333 87700;EQDQ01  00002PRCP99
0193026800999992000052115004+56920+018150FM-12+003999999V0202201N00211030001CN0290001N1+01171+01041100621ADDAY141031AY241031GA1021+004509089GF107991021021004501071021MA1999999100161MD1110031+9999MW1011REMSYN088AAXX  21154 02680 41479 72204 10117 20104 30016 40062 51003 70144 82272 333 82894 84399;
0236026800999992000052118004+56920+018150FM-12+003999999V0202301N002610007519N0300001N1+01231+01111100651ADDAA199000091AY141061AY221061GA1051+000759019GF105991001001999999001021KA1120M+01461MA1999999100191MD1210031+9999MW1021REMSYN088AAXX  21184 02680 31980 52305 10123 20111 30019 40065 52003 70242 80002 333 10146 85091;EQDQ01  00002PRCP99
0159026800999992000052121004+56920+018150FM-12+003999999V0202101N002119999999N0290001N1+01031+01011100701ADDGA1081+999999089GF108991001001999999001071MA1999999100241MD1210051+9999REMSYN076AAXX  21214 02680 42979 82104 10103 20101 30024 40070 52005 80007 333 88299;
0189026800999992000052200004+56920+018150FM-12+003999999V0202201N001512200019N0400001N1+00981+00961100721ADDAA199000091GA1011+999999019GF101991001001999999001021MA1999999100261MD1210021+9999REMSYN076AAXX  22004 02680 32982 12203 10098 20096 30026 40072 52002 80002 333 81099;EQDQ01  00002PRCP99
0187026800999992000052203004+56920+018150FM-12+003999999V0202101N001512200019N0090001N1+00961+00941100761ADDAY101031AY201031GA1011+999999079GF101991011001999999031011MA1999999100301MD1310041+9999MW1101REMSYN082AAXX  22034 02680 41959 12103 10096 20094 30030 40076 53004 71000 81031 333 81399;
0220026800999992000052206004+56920+018150FM-12+003999999V0202301N001512200019N0250001N1+01211+00941100841ADDAA199000091GA1011+999999079GF102991021001999999031021IA1019KA1120N+00951MA1999999100381MD1110081+9999REMSYN088AAXX  22064 02680 32975 22303 10121 20094 30038 40084 51008 82032 333 20095 30/// 81399;EQDQ01  00002PRCP99
0179026800999992000052209004+56920+018150FM-12+003999999V0201801N002110021019N0200001N1+01461+00941100971ADDGA1041+002509069GF106991051021002501001041MA1999999100501MD1210121+9999SA1+1229REMSYN088AAXX  22094 02680 42370 61804 10146 20094 30050 40097 52012 85204 222// 00122 333 84793;
0223026800999992000052212004+56920+018150FM-12+003999999V0202301N00151075001CN0220001N1+01491+00911101041ADDAA199000091AY121061AY201061GA1011+012509089GF108991011021012501001071MA1999999100571MD1210071+9999MW1051REMSYN088AAXX  22124 02680 31672 82303 10149 20091 30057 40104 52007 70520 81207 333 81896 88299;EQDQ01  00002PRCP99
0187026800999992000052215004+56920+018150FM-12+003999999V0202401N002612200019N0400001N1+01481+00891101091ADDAY121031AY211031GA1011+012509029GF102991011021012501031081MA1999999100621MD1110051+9999MW1051REMSYN082AAXX  22154 02680 41682 22405 10148 20089 30062 40109 51005 70521 81238 333 81896;
0208026800999992000052218004+56920+018150FM-12+003999999V0202301N001512200019N0200001N1+01241+01211101151ADDAA199000091GA1021+000909069GF102991021061000751031001KA1120M+01581MA1999999100681MD1210061+9999REMSYN082AAXX  22184 02680 32170 22303 10124 20121 30068 40115 52006 82630 333 10158 82703;EQDQ01  00002PRCP99
0159026800999992000052221004+56920+018150FM-12+003999999V0202501N001012200019N0260001N1+01081+01071101241ADDGA1011+999999079GF101991011001999999031001MA1999999100771MD1110091+9999REMSYN076AAXX  22214 02680 42976 12502 10108 20107 30077 40124 51009 81030 333 81399;
0189026800999992000052300004+56920+018150FM-12+003999999V0202701N001512200019N0450001N1+01041+01011101291ADDAA199000091GA1011+999999079GF101991011001999999031001MA1999999100821MD1310051+9999REMSYN076AAXX  23004 02680 32983 12703 10104 20101 30082 40129 53005 81030 333 81399;EQDQ01  00002PRCP99
0159026800999992000052303004+56920+018150FM-12+003999999V0202701N002112200019N0450001N1+01031+01001101371ADDGA1011+999999079GF101991011001999999081001MA1999999100901MD1210081+9999REMSYN076AAXX  23034 02680 42983 12704 10103 20100 30090 40137 52008 81080 333 81399;
0220026800999992000052306004+56920+018150FM-12+003999999V0203101N002612200019N0500001N1+01231+00761101501ADDAA199000091GA1011+999999079GF101991011001999999081011IA1019KA1120N+01031MA1999999101031MD1210131+9999REMSYN088AAXX  23064 02680 32984 13105 10123 20076 30103 40150 52013 81081 333 20103 30/// 81399;EQDQ01  00002PRCP99
0159026800999992000052309004+56920+018150FM-12+003999999V0203001N003112200019N0550001N1+01411+00511101621ADDGA1011+008009099GF101991011031008001001001MA1999999101161MD1210131+9999REMSYN076AAXX  23094 02680 42585 13006 10141 20051 30116 40162 52013 81300 333 81995;
0189026800999992000052312004+56920+018150FM-12+003999999V0202501N003612200019N0600001N1+01521+00361101631ADDAA199000091GA1011+008009099GF101991011031008001031011MA1999999101171MD1110011+9999REMSYN076AAXX  23124 02680 32586 12507 10152 20036 30117 40163 51001 81331 333 81995;EQDQ01  00002PRCP99
0165026800999992000052315004+56920+018150FM-12+003999999V0202401N002612200019N0400001N1+01471+00771101641ADDGA1011+008009099GF103991011021004501071011MA1999999101161MD1110011+9999REMSYN082AAXX  23154 02680 42482 32405 10147 20077 30116 40164 51001 81271 333 81995 83399;
0214026800999992000052318004+56920+018150FM-12+003999999V0202401N00311022501CN0500001N1+01241+00951101611ADDAA199000091GA1061+022509039GF107991071001022501081021KA1120M+01601MA1999999101141MD1610021+9999REMSYN088AAXX  23184 02680 32884 72406 10124 20095 30114 40161 56002 87082 333 10160 86398 83099;EQDQ01  00002PRCP99
0165026800999992000052321004+56920+018150FM-12+003999999V0202401N002119999999N0450001N1+01131+01091101601ADDGA1041+025009039GF105991051001999999081011MA1999999101131MD1610011+9999REMSYN082AAXX  23214 02680 42983 52404 10113 20109 30113 40160 56001 85081 333 84399 83099;
0189026800999992000052400004+56920+018150FM-12+003999999V0202301N002119999999N0400001N1+01061+01041101571ADDAA199000091GA1071+999999079GF107991071001999999031999MA1999999101101MD1710031+9999REMSYN076AAXX  24004 02680 32982 72304 10106 20104 30110 40157 57003 8703/ 333 87399;EQDQ01  00002PRCP99
0165026800999992000052403004+56920+018150FM-12+003999999V0202201N002119999999N0250001N1+01081+01061101521ADDGA1021+025009039GF108991021001999999031071MA1999999101051MD1710051+9999REMSYN082AAXX  24034 02680 42975 82204 10108 20106 30105 40152 57005 82037 333 82399 88299;
0226026800999992000052406004+56920+018150FM-12+003999999V0202001N00261999999CN0300001N1+01271+00971101451ADDAA199000091GA1061+025009049GF107991071001999999071999IA1019KA1120N+01061MA1999999100981MD1810071+9999REMSYN094AAXX  24064 02680 32980 72005 10127 20097 30098 40145 58007 8707/ 333 20106 30/// 86499 87399;EQDQ01  00002PRCP99
0213026800999992000052409004+56920+018150FM-12+003999999V0201801N003619999999N0300001N1+01461+00831101361ADDAY121031AY221031GA1031+025009049GF108991081001999999071999MA1999999100891MD1810091+9999MW1051SA1+1269REMSYN100AAXX  24094 02680 41980 81807 10146 20083 30089 40136 58009 70522 8807/ 222// 00126 333 83499 88399;
0195026800999992000052412004+56920+018150FM-12+003999999V0201801N003119999999N0230001N1+01311+00991101271ADDAA199000091GA1021+025009039GF108991081001999999071999MA1999999100801MD1810091+9999REMSYN082AAXX  24124 02680 32973 81806 10131 20099 30080 40127 58009 8807/ 333 82399 88499;EQDQ01  00002PRCP99
0187026800999992000052415004+56920+018150FM-12+003999999V0202001N00311075001CN0120001N1+01261+01181101241ADDAY121031AY221031GA1081+999999029GF108991081001999999021999MA1999999100771MD1710031+9999MW1611REMSYN082AAXX  24154 02680 41962 82006 10126 20118 30077 40124 57003 76122 8802/ 333 88599;
0229026800999992000052418004+56920+018150FM-12+003999999V0202001N00311999999CN0100001N1+01211+01201101131ADDAA112000591AY121061AY221061GA1061+025009039GF108991081001999999071999KA1120M+01541MA1999999100661MD1810111+9999MW1211REMSYN100AAXX  24184 02680 11960 82006 10121 20120 30066 40113 58011 69942 72122 8807/ 333 10154 86399 88499;
0187026800999992000052421004+56920+018150FM-12+003999999V0202201N003610009019N0049001N1+01211+01201101141ADDAY121031AY221031GA1081+000909069GF108991081061000751999999MA1999999100671MD1010011+9999MW1101REMSYN082AAXX  24214 02680 41149 82207 10121 20120 30067 40114 50001 71022 886// 333 88703;
0198026800999992000052500004+56920+018150FM-12+003999999V0202301N002612200019N0050001N1+01201+01191101131ADDAA199000021AY121061AY221061GA1011+000909069GF102991011061001501071001MA1999999100661MD1710011+9999MW1101REMSYN082AAXX  25004 02680 31250 22305 10120 20119 30066 40113 57001 71022 81670 333 81703;
0187026800999992000052503004+56920+018150FM-12+003999999V0202501N001010003019N0020001N1+01151+01141101131ADDAY121031AY221031GA1081+000309069GF108991081061000251999999MA1999999100661MD1410001+9999MW1101REMSYN082AAXX  25034 02680 41020 82502 10115 20114 30066 40113 54000 71022 886// 333 88701;
0235026800999992000052506004+56920+018150FM-12+003999999V0203101N00101030001CN0500001N1+01261+00501101151ADDAA199000021AY121061AY221061GA1011+008009089GF108991011011008001071071IA1019KA1120N+01151MA1999999100681MD1210021+9999MW1401REMSYN100AAXX  25064 02680 31584 83102 10126 20050 30068 40115 52002 74022 81177 333 20115 30/// 81895 88299;
0193026800999992000052509004+56920+018150FM-12+003999999V0201601N00051021001CN0250001N1+01251+00761101131ADDAY141031AY221031GA1021+022509039GF108991081001022501071999MA1999999100661MD1710021+9999MW1611REMSYN088AAXX  25094 02680 41875 81601 10125 20076 30066 40113 57002 76142 8807/ 333 82398 88599;
0210026800999992000052512004+56920+018150FM-12+003999999V0201501N00101001501CN0045001N1+01111+01101101031ADDAA106003091AY141061AY221061GA1061+001509079GF108991061071001501021999MA1999999100561MD1710101+9999MW1611REMSYN094AAXX  25124 02680 11245 81502 10111 20110 30056 40103 57010 60031 76142 8672/ 333 86792 88599;
0193026800999992000052515004+56920+018150FM-12+003999999V0201501N00311021001CN0050001N1+01241+01231100711ADDAY161031AY261031GA1021+022509039GF108991081001022501071999MA1999999100251MD1810311+9999MW1211REMSYN088AAXX  25154 02680 41850 81506 10124 20123 30025 40071 58031 72166 8807/ 333 82398 88499;
0143026800999992000052518004+56920+018150FM-12+003999999V0201701N003119999999N0130001N1+01301+01291999999ADDGF108991999999022501999999REMSYN105AAXX  25184 02680 11863 81706 10130 20129 9994 40040 58031 60122 72162 8809/ 333 10135 81398 86399 88499;
0193026800999992000052521004+56920+018150FM-12+003999999V0202001N004110021019N0060001N1+01261+01251100251ADDAY121031AY221031GA1081+999999079GF108991081071002501999999MA1999999099791MD1710151+9999MW1631REMSYN088AAXX  25214 02680 41356 82008 10126 20125 39979 40025 57015 76322 887// 333 887// 88708;
0159026800999992000052603004+56920+018150FM-12+003999999V0202301N007712200019N0400001N1+00911+00451100311ADDGA1021+008009059GF102991021051008001001001MA1999999099851MD1310091+9999REMSYN076AAXX  26034 02680 42582 22315 10091 20045 39985 40031 53009 82500 333 82695;
0207026800999992000052606004+56920+018150FM-12+003999999V0202301N006212200019N0450001N1+01041+00601100561ADDAA112004191GA1011+008009029GF101991011081008001001001IA1019KA1120N+00911MA1999999100101MD1210251+9999REMSYN094AAXX  26064 02680 12583 12312 10104 20060 30010 40056 52025 60042 81800 333 20091 30/// 81895;
0148026800999992000052609004+56920+018150FM-12+003999999V0202301N006212200019N0400001N1+01201+00651999999ADDGF101991999999008001999999MA1999999100371SA1+1229REMSYN087AAXX  26094 02680 42582 12312 10120 20065 30037 4083 52027 81800 222// 00122 333 81895;
0217026800999992000052612004+56920+018150FM-12+003999999V0202301N006212200019N0400001N1+01321+00581101121ADDAA199000091AY101061AY201061GA1011+008009029GF101991011021008001081011MA1999999100651MD1210281+9999MW1051REMSYN082AAXX  26124 02680 31582 12312 10132 20058 30065 40112 52028 70500 81281 333 81895;EQDQ01  00002PRCP99
0187026800999992000052615004+56920+018150FM-12+003999999V0202301N005712200019N0350001N1+01241+00641101331ADDAY101031AY201031GA1011+008009029GF101991011011008001031011MA1999999100861MD1210211+9999MW1051REMSYN082AAXX  26154 02680 41581 12311 10124 20064 30086 40133 52021 70500 81131 333 81895;
0208026800999992000052618004+56920+018150FM-12+003999999V0202301N004112200019N0350001N1+01041+00801101431ADDAA199000091GA1031+999999089GF103991001001999999001021KA1120M+01341MA1999999100961MD1210101+9999REMSYN082AAXX  26184 02680 32981 32308 10104 20080 30096 40143 52010 80002 333 10134 83299;EQDQ01  00002PRCP99
0159026800999992000052621004+56920+018150FM-12+003999999V0202301N003612200019N0400001N1+00931+00871101591ADDGA1011+999999079GF101991011001999999031001MA1999999101121MD1210161+9999REMSYN076AAXX  26214 02680 42982 12307 10093 20087 30112 40159 52016 81030 333 81399;
0189026800999992000052700004+56920+018150FM-12+003999999V0202601N002112200019N0400001N1+00881+00851101621ADDAA199000091GA1011+999999079GF101991011001999999031001MA1999999101151MD1110031+9999REMSYN076AAXX  27004 02680 32982 12604 10088 20085 30115 40162 51003 81030 333 81399;EQDQ01  00002PRCP99
0159026800999992000052703004+56920+018150FM-12+003999999V0201901N001512200019N0300001N1+00821+00811101621ADDGA1011+999999019GF101991011001999999071011MA1999999101151MD1410001+9999REMSYN076AAXX  27034 02680 42980 11903 10082 20081 30115 40162 54000 81071 333 81499;
0220026800999992000052706004+56920+018150FM-12+003999999V0201701N002119999999N0350001N1+01051+00871101631ADDAA199000091GA1071+999999079GF107991071001999999031999IA1019KA1120N+00801MA1999999101161MD1310011+9999REMSYN088AAXX  27064 02680 32981 71704 10105 20087 30116 40163 53001 8703/ 333 20080 30/// 87399;EQDQ01  00002PRCP99
0193026800999992000052709004+56920+018150FM-12+003999999V0201201N003612200019N0400001N1+01321+00461101361ADDAY121031AY211031GA1011+025009039GF103991011001999999031011MA1999999100891MD1810271+9999MW1051REMSYN088AAXX  27094 02680 41982 31207 10132 20046 30089 40136 58027 70521 81031 333 81399 83099;
0217026800999992000052712004+56920+018150FM-12+003999999V0201201N004619999999N0400001N1+01361+00591101051ADDAA199000091AY121061AY211061GA1071+999999079GF107991071001999999031999MA1999999100581MD1710311+9999MW1051REMSYN082AAXX  27124 02680 31982 71209 10136 20059 30058 40105 57031 70521 8703/ 333 87399;EQDQ01  00002PRCP99
0193026800999992000052715004+56920+018150FM-12+003999999V0201401N004619999999N0290001N1+01431+00581100711ADDAY121031AY221031GA1021+025009039GF108991021001999999031071MA1999999100251MD1710331+9999MW1051REMSYN088AAXX  27154 02680 41979 81409 10143 20058 30025 40071 57033 70522 82037 333 82399 88299;
0229026800999992000052718004+56920+018150FM-12+003999999V0202101N00311030001CN0040001N1+01271+01251100741ADDAA112002091AY121061AY221061GA1011+002509079GF108991011071002501091999KA1120M+01501MA1999999100281MD1310031+9999MW1631REMSYN100AAXX  27184 02680 11340 82106 10127 20125 30028 40074 53003 60022 76322 8179/ 333 10150 81793 88599;
0204026800999992000052800004+56920+018150FM-12+003999999V0202501N003119999999N0300001N1+00941+00921101201ADDAA106004191AY161061AY261061GA1081+999999089GF108991001001999999001071MA1999999100731MD1210181+9999MW1221REMSYN088AAXX  28004 02680 11980 82506 10094 20092 30073 40120 52018 60041 72266 80007 333 88299;
0159026800999992000052803004+56920+018150FM-12+003999999V0202401N003112200019N0300001N1+00921+00891101431ADDGA1011+999999019GF101991001001999999001011MA1999999100871MD1210141+9999REMSYN076AAXX  28034 02680 42980 12406 10092 20089 30087 40143 52014 80001 333 81099;
0207026800999992000052806004+56920+018150FM-12+003999999V0202201N002119999999N0200001N1+01141+00971101401ADDAA112004191GA1081+999999089GF108991001001999999001071IA1099KA1120N+00921MA1999999100931MD1110061+9999REMSYN094AAXX  28064 02680 12970 82204 10114 20097 30093 40140 51006 60042 80007 333 20092 31/// 88299;
0165026800999992000052809004+56920+018150FM-12+003999999V0201901N00311030001CN0200001N1+01271+00981101411ADDGA1011+004509089GF108991011011004501031071MA1999999100941MD1010011+9999REMSYN082AAXX  28094 02680 42470 81906 10127 20098 30094 40141 50001 81137 333 81894 88299;
0176026800999992000052812004+56920+018150FM-12+003999999V0201601N00311075001CN0150001N1+01201+00951101241ADDAA199000021GA1011+004509089GF108991011021004501001071MA1999999100771MD1710171+9999REMSYN082AAXX  28124 02680 32465 81606 10120 20095 30077 40124 57017 81207 333 81894 88299;
0159026800999992000052815004+56920+018150FM-12+003999999V0201301N004112200019N0200001N1+01181+00861100991ADDGA1031+999999079GF103991031001999999031001MA1999999100521MD1710251+9999REMSYN076AAXX  28154 02680 42970 31308 10118 20086 30052 40099 57025 83030 333 83399;
0208026800999992000052818004+56920+018150FM-12+003999999V0201101N002612200019N0200001N1+01131+00661100801ADDAA199000091GA1041+999999079GF104991041001999999081011KA1120M+01301MA1999999100341MD1710181+9999REMSYN082AAXX  28184 02680 32970 41105 10113 20066 30034 40080 57018 84081 333 10130 84399;EQDQ01  00002PRCP99
0159026800999992000052821004+56920+018150FM-12+003999999V0200901N003610057019N0200001N1+01031+00851100551ADDGA1081+005709059GF108991081051004501999999MA1999999100091MD1710251+9999REMSYN076AAXX  28214 02680 42470 80907 10103 20085 30009 40055 57025 885// 333 88619;
0195026800999992000052900004+56920+018150FM-12+003999999V0201201N002619999999N0200001N1+01011+00991100261ADDAA199000091GA1011+025009039GF108991011001999999031071MA1999999099801MD1710301+9999REMSYN082AAXX  29004 02680 32970 81205 10101 20099 39980 40026 57030 81037 333 81399 88299;EQDQ01  00002PRCP99
0193026800999992000052903004+56920+018150FM-12+003999999V0202001N00311021001CN0048001N1+01071+01051100141ADDAY121031AY221031GA1011+022509039GF108991071001022501081999MA1999999099681MD1610121+9999MW1101REMSYN088AAXX  29034 02680 41848 82006 10107 20105 39968 40014 56012 71022 8708/ 333 81398 87399;
0226026800999992000052906004+56920+018150FM-12+003999999V0202101N00361999999CN0550001N1+01121+00641100261ADDAA199000091GA1061+025009039GF107991061001999999071021IA1019KA1120N+01011MA1999999099801MD1310121+9999REMSYN094AAXX  29064 02680 32985 72107 10112 20064 39980 40026 53012 86072 333 20101 30/// 86399 86099;EQDQ01  00002PRCP99
0207026800999992000052909004+56920+018150FM-12+003999999V0202001N004112200019N0400001N1+01331+00571100361ADDAY121031AY201031GA1011+008009029GF101991011021008001071011MA1999999099901MD1110101+9999MW1051SA1+1129REMSYN094AAXX  29094 02680 41582 12008 10133 20057 39990 40036 51010 70520 81271 222// 00112 333 81895;
0217026800999992000052912004+56920+018150FM-12+003999999V0202001N00511017501CN0500001N1+01201+00611100521ADDAA199000091GA1011+008009089GA2051+017509069GF107991041081008001071001MA1999999100061MD1210161+9999REMSYN088AAXX  29124 02680 32584 72010 10120 20061 30006 40052 52016 84870 333 81895 85697 87399;EQDQ01  00002PRCP99
0193026800999992000052915004+56920+018150FM-12+003999999V0201801N00511030001CN0400001N1+01261+00611100501ADDAY121031AY221031GA1011+008009089GF106991011011008001071081MA1999999100041MD1810021+9999MW1051REMSYN088AAXX  29154 02680 41582 61810 10126 20061 30004 40050 58002 70522 81178 333 81895 86299;
0214026800999992000052918004+56920+018150FM-12+003999999V0202001N004619999999N0400001N1+01081+00711100461ADDAA199000091GA1011+025009039GF105991011001999999031081KA1120M+01391MA1999999100001MD1710041+9999REMSYN088AAXX  29184 02680 32982 52009 10108 20071 30000 40046 57004 81038 333 10139 81399 85299;EQDQ01  00002PRCP99
0159026800999992000052921004+56920+018150FM-12+003999999V0202101N004112200019N0400001N1+00931+00881100581ADDGA1011+004509029GF101991011011004501031011MA1999999100121MD1110121+9999REMSYN076AAXX  29214 02680 42482 12108 10093 20088 30012 40058 51012 81131 333 81894;
0189026800999992000053000004+56920+018150FM-12+003999999V0202201N004112200019N0350001N1+00911+00901100591ADDAA199000091GA1011+999999079GF101991011001999999031001MA1999999100131MD1310011+9999REMSYN076AAXX  30004 02680 32981 12208 10091 20090 30013 40059 53001 81030 333 81399;EQDQ01  00002PRCP99
0159026800999992000053003004+56920+018150FM-12+003999999V0202201N004112200019N0400001N1+00881+00851100661ADDGA1011+999999079GF101991011001999999081041MA1999999100201MD1310071+9999REMSYN076AAXX  30034 02680 42982 12208 10088 20085 30020 40066 53007 81084 333 81399;
0220026800999992000053006004+56920+018150FM-12+003999999V0202301N003619999999N0400001N1+01001+00761100801ADDAA199000091GA1061+999999079GF107991061001999999071011IA1019KA1120N+00881MA1999999100341MD1110161+9999REMSYN088AAXX  30064 02680 32982 72307 10100 20076 30034 40080 51016 86071 333 20088 30/// 86399;EQDQ01  00002PRCP99
0187026800999992000053009004+56920+018150FM-12+003999999V0202201N004112200019N0400001N1+01181+00521100901ADDAY121031AY211031GA1011+008009029GF103991011021008001071021MA1999999100441MD1210101+9999MW1051REMSYN082AAXX  30094 02680 41582 32208 10118 20052 30044 40090 52010 70521 81272 333 81895;
0217026800999992000053012004+56920+018150FM-12+003999999V0202201N005112200019N0400001N1+01291+00501100891ADDAA199000091AY121061AY201061GA1011+008009029GF101991011021008001071021MA1999999100431MD1810011+9999MW1051REMSYN082AAXX  30124 02680 31582 12210 10129 20050 30043 40089 58001 70520 81272 333 81895;EQDQ01  00002PRCP99
0187026800999992000053015004+56920+018150FM-12+003999999V0202101N005112200019N0400001N1+01231+00521100901ADDAY101031AY201031GA1011+008009029GF101991011021008001001021MA1999999100441MD1010011+9999MW1051REMSYN082AAXX  30154 02680 41582 12110 10123 20052 30044 40090 50001 70500 81202 333 81895;
0208026800999992000053018004+56920+018150FM-12+003999999V0202201N004112200019N0500001N1+01021+00641100881ADDAA199000091GA1011+999999079GF101991011001999999081001KA1120M+01321MA1999999100421MD1510021+9999REMSYN082AAXX  30184 02680 32984 12208 10102 20064 30042 40088 55002 81080 333 10132 81399;EQDQ01  00002PRCP99
0193026800999992000053021004+56920+018150FM-12+003999999V0202401N003112200019N0550001N1+00941+00591100971ADDAY111031AY201031GA1011+022509039GF103991031001022501091001MA1999999100501MD1110081+9999MW1251REMSYN088AAXX  30214 02680 41885 32406 10094 20059 30050 40097 51008 72510 83090 333 81398 83399;
0204026800999992000053100004+56920+018150FM-12+003999999V0202401N003112200019N0500001N1+00881+00551101021ADDAA106000791AY181061AY201061GA1011+999999079GF101991011001999999081001MA1999999100551MD1210051+9999MW1021REMSYN088AAXX  31004 02680 11984 12406 10088 20055 30055 40102 52005 69901 70280 81080 333 81399;
0159026800999992000053103004+56920+018150FM-12+003999999V0202601N002612200019N0650001N1+00841+00531101081ADDGA1011+999999079GF101991011001999999031011MA1999999100611MD1210061+9999REMSYN076AAXX  31034 02680 42987 12605 10084 20053 30061 40108 52006 81031 333 81399;
0207026800999992000053106004+56920+018150FM-12+003999999V0202301N003112200019N0600001N1+01061+00481101191ADDAA112000791GA1011+008009029GF102991011021008001001011IA1019KA1120N+00841MA1999999100721MD1210111+9999REMSYN094AAXX  31064 02680 12586 22306 10106 20048 30072 40119 52011 69902 81201 333 20084 30/// 81895;
0179026800999992000053109004+56920+018150FM-12+003999999V0202201N003612200019N0550001N1+01231+00481101291ADDGA1011+008009029GF101991011021008001061011MA1999999100821MD1310101+9999SA1+0969REMSYN088AAXX  31094 02680 42585 12207 10123 20048 30082 40129 53010 81261 222// 00096 333 81895;
0189026800999992000053112004+56920+018150FM-12+003999999V0202101N004612200019N0550001N1+01331+00491101401ADDAA199000091GA1011+008009029GF101991011021008001031011MA1999999100931MD1210111+9999REMSYN076AAXX  31124 02680 32585 12109 10133 20049 30093 40140 52011 81231 333 81895;EQDQ01  00002PRCP99
0159026800999992000053115004+56920+018150FM-12+003999999V0202101N004112200019N0550001N1+01231+00561101491ADDGA1011+008009029GF101991011021008001081011MA1999999101021MD1210091+9999REMSYN076AAXX  31154 02680 42585 12108 10123 20056 30102 40149 52009 81281 333 81895;
0208026800999992000053118004+56920+018150FM-12+003999999V0202401N001512200019N0650001N1+01051+00621101621ADDAA199000091GA1011+008009029GF101991011021008001081001KA1120M+01351MA1999999101151MD1310131+9999REMSYN082AAXX  31184 02680 32587 12403 10105 20062 30115 40162 53013 81280 333 10135 81895;EQDQ01  00002PRCP99
0178026800999992000053121004+56920+018150FM-12+003999999V0202601N002112200019N0550001N1+00901+00821101761ADDGA1011+022509079GF101991011999022501081001MA1999999101291MD1210141+9999REMSYN076AAXX  31214 02680 42885 12604 10090 20082 30129 40176 52014 81080 333 81398;EQDQ01+000002SCOLCG
0189026800999992000060100004+56920+018150FM-12+003999999V0202701N002612200019N0550001N1+00971+00501101901ADDAA199000091GA1011+008009029GF101991011011008001001001MA1999999101431MD1210141+9999REMSYN076AAXX  01004 02680 32585 12705 10097 20050 30143 40190 52014 81100 333 81895;EQDQ01  00002PRCP99
0159026800999992000060103004+56920+018150FM-12+003999999V0202701N002112200019N0550001N1+00851+00711102031ADDGA1011+999999079GF101991011001999999031001MA1999999101561MD1210131+9999REMSYN076AAXX  01034 02680 42985 12704 10085 20071 30156 40203 52013 81030 333 81399;
0220026800999992000060106004+56920+018150FM-12+003999999V0202301N002112200019N0650001N1+01131+00581102141ADDAA199000091GA1011+999999079GF102991011001999999031011IA1019KA1120N+00851MA1999999101671MD1210111+9999REMSYN088AAXX  01064 02680 32987 22304 10113 20058 30167 40214 52011 81031 333 20085 30/// 81399;EQDQ01  00002PRCP99
0165026800999992000060109004+56920+018150FM-12+003999999V0202201N00261075001CN0650001N1+01301+00671102201ADDGA1011+004509089GF108991011021004501001071MA1999999101731MD1110061+9999REMSYN082AAXX  01094 02680 42487 82205 10130 20067 30173 40220 51006 81207 333 81894 88299;
0195026800999992000060112004+56920+018150FM-12+003999999V0202101N00311030001CN0400001N1+01391+00851102181ADDAA199000091GA1011+004509089GF108991011021004501031071MA1999999101711MD1810021+9999REMSYN082AAXX  01124 02680 32482 82106 10139 20085 30171 40218 58002 81237 333 81894 88299;EQDQ01  00002PRCP99
0187026800999992000060115004+56920+018150FM-12+003999999V0202001N003112200019N0400001N1+01331+00801102191ADDAY121031AY211031GA1011+008009029GF101991011011008001031001MA1999999101721MD1010011+9999MW1051REMSYN082AAXX  01154 02680 41582 12006 10133 20080 30172 40219 50001 70521 81130 333 81895;
0218026800999992000060118004+56920+018150FM-12+003999999V0202001N00311999999CN0500001N1+01101+00771102091ADDAA199000091GA1061+025009029GF106991001001999999001081KA1120M+01451MA1999999101621MD1710101+9999REMSYN092AAXX  01184 02680 32984 62006 10110 20077 30162 40209 57010 80008 333 10145 86299 555 03107;EQDQ01  00002PRCP99
0159026800999992000060121004+56920+018150FM-12+003999999V0201801N00261075001CN0400001N1+01011+00841102051ADDGA1081+999999019GF108991081001999999021999MA1999999101581MD1810041+9999REMSYN076AAXX  01214 02680 42982 81805 10101 20084 30158 40205 58004 8802/ 333 88499;
0204026800999992000060200004+56920+018150FM-12+003999999V0201801N003110150019N0350001N1+01061+00891101911ADDAA106000791AY121061AY221061GA1081+015009059GF108991081051017501999999MA1999999101441MD1810141+9999MW1611REMSYN088AAXX  02004 02680 11781 81806 10106 20089 30144 40191 58014 69901 76122 885// 333 88650;
0193026800999992000060203004+56920+018150FM-12+003999999V0201701N00311021001CN0250001N1+01031+01021101611ADDAY161031AY261031GA1021+022509039GF108991081001022501071999MA1999999101141MD1810301+9999MW1611REMSYN088AAXX  02034 02680 41875 81706 10103 20102 30114 40161 58030 76166 8807/ 333 82398 88599;
0235026800999992000060206004+56920+018150FM-12+003999999V0201901N005110015019N0050001N1+01061+01051101351ADDAA112004191AY161061AY261061GA1081+001509069GF108991081071001501999999IA1099KA1120N+01011MA1999999100881MD1710261+9999MW1611REMSYN100AAXX  02064 02680 11250 81910 10106 20105 30088 40135 57026 60042 76166 887// 333 20101 31/// 88792;
0207026800999992000060209004+56920+018150FM-12+003999999V0202301N004110015019N0035001N1+01141+01131101331ADDAY161031AY221031GA1081+001509069GF108991081071001501999999MA1999999100861MD1710021+9999MW1211SA1+1089REMSYN094AAXX  02094 02680 41235 82308 10114 20113 30086 40133 57002 72162 887// 222// 00108 333 88792;
0204026800999992000060212004+56920+018150FM-12+003999999V0202301N004610009019N0050001N1+01341+01291101281ADDAA106001091AY161061AY221061GA1081+000909069GF108991081061000751999999MA1999999100811MD1710051+9999MW1101REMSYN088AAXX  02124 02680 11150 82309 10134 20129 30081 40128 57005 60011 71062 886// 333 88703;
0193026800999992000060215004+56920+018150FM-12+003999999V0202301N004119999999N0050001N1+01211+01201101261ADDAY121031AY221031GA1011+025009039GF108991081001999999071999MA1999999100791MD1710021+9999MW1101REMSYN088AAXX  02154 02680 41950 82308 10121 20120 30079 40126 57002 71022 8807/ 333 81399 88499;
0229026800999992000060218004+56920+018150FM-12+003999999V0202201N004119999999N0050001N1+01171+01161101171ADDAA112001091AY121061AY221061GA1011+025009039GF108991081001999999071999KA1120M+01401MA1999999100701MD1610091+9999MW1101REMSYN100AAXX  02184 02680 11950 82208 10117 20116 30070 40117 56009 60012 71022 8807/ 333 10140 81399 88499;
0165026800999992000060221004+56920+018150FM-12+003999999V0202501N00361021001CN0120001N1+01161+01151101131ADDGA1011+022509039GF108991081001022501071999MA1999999100661MD1710041+9999REMSYN082AAXX  02214 02680 42862 82507 10116 20115 30066 40113 57004 8807/ 333 81398 88399;
0189026800999992000060300004+56920+018150FM-12+003999999V0202401N003110300019N0200001N1+01121+01111101151ADDAA199000091GA1081+030009019GF108991081001999999021999MA1999999100681MD1210021+9999REMSYN076AAXX  03004 02680 32970 82406 10112 20111 30068 40115 52002 8802/ 333 88460;EQDQ01  00002PRCP99
0165026800999992000060303004+56920+018150FM-12+003999999V0202701N004119999999N0500001N1+01021+00641101291ADDGA1011+025009039GF106991061001999999071001MA1999999100821MD1110141+9999REMSYN082AAXX  03034 02680 42984 62708 10102 20064 30082 40129 51014 86070 333 81399 86499;
0220026800999992000060306004+56920+018150FM-12+003999999V0202701N004112200019N0500001N1+01071+00551101441ADDAA199000091GA1011+999999079GF101991011001999999071001IA1019KA1120N+01001MA1999999100971MD1210151+9999REMSYN088AAXX  03064 02680 32984 12708 10107 20055 30097 40144 52015 81070 333 20100 30/// 81399;EQDQ01  00002PRCP99
0159026800999992000060309004+56920+018150FM-12+003999999V0202601N003612200019N0500001N1+01251+00581101611ADDGA1011+999999019GF101991001001999999001011MA1999999101141MD1210171+9999REMSYN076AAXX  03094 02680 42984 12607 10125 20058 30114 40161 52017 80001 333 81099;
0189026800999992000060312004+56920+018150FM-12+003999999V0202201N003612200019N0500001N1+01411+00591101701ADDAA199000091GA1011+999999019GF101991001001999999001011MA1999999101231MD1110091+9999REMSYN076AAXX  03124 02680 32984 12207 10141 20059 30123 40170 51009 80001 333 81099;EQDQ01  00002PRCP99
0159026800999992000060315004+56920+018150FM-12+003999999V0202301N003112200019N0500001N1+01341+00671101681ADDGA1011+999999019GF101991001001999999001011MA1999999101211MD1610021+9999REMSYN076AAXX  03154 02680 42984 12306 10134 20067 30121 40168 56002 80001 333 81099;
0196026800999992000060318004+56920+018150FM-12+003999999V0202601N002612200019N0450001N1+01201+00581101601ADDAA199000091GA1001+999999999GF100991001001999999001001KA1999M+01501MA1999999101131MD1610081+9999REMSYN070AAXX  03184 02680 32983 02605 10120 20058 30113 40160 56008 333 10150;EQDQ01  00002PRCP99
0143026800999992000060321004+56920+018150FM-12+003999999V0202901N002612200019N0500001N1+01071+00411101701ADDGA1001+999999999GF100991001001999999001001MA1999999101231MD1210101+9999REMSYN060AAXX  03214 02680 42984 02905 10107 20041 30123 40170 52010;
0173026800999992000060400004+56920+018150FM-12+003999999V0202901N003112200019N0450001N1+00951+00471101821ADDAA199000091GA1001+999999999GF100991001001999999001001MA1999999101351MD1210121+9999REMSYN060AAXX  04004 02680 32983 02906 10095 20047 30135 40182 52012;EQDQ01  00002PRCP99
0159026800999992000060403004+56920+018150FM-12+003999999V0203001N002112200019N0500001N1+00881+00531101821ADDGA1011+999999019GF101991001001999999001011MA1999999101351MD1010001+9999REMSYN076AAXX  04034 02680 42984 13004 10088 20053 30135 40182 50000 80001 333 81099;
0220026800999992000060406004+56920+018150FM-12+003999999V0203201N002612200019N0550001N1+01081+00451101891ADDAA199000091GA1011+999999019GF101991011001999999011011IA1019KA1120N+00881MA1999999101421MD1210071+9999REMSYN088AAXX  04064 02680 32985 13205 10108 20045 30142 40189 52007 81011 333 20088 30/// 81499;EQDQ01  00002PRCP99
0165026800999992000060409004+56920+018150FM-12+003999999V0203201N00151075001CN0550001N1+01231+00591101951ADDGA1011+008009089GF108991011021008001001071MA1999999101481MD1110061+9999REMSYN082AAXX  04094 02680 42585 83203 10123 20059 30148 40195 51006 81207 333 81895 88299;
0217026800999992000060412004+56920+018150FM-12+003999999V0202701N00101030001CN0600001N1+01311+00111102021ADDAA199000091GA1011+008009089GA2041+025009039GF108991011021008001071071MA1999999101551MD1110071+9999REMSYN088AAXX  04124 02680 32586 82702 10131 20011 30155 40202 51007 81277 333 81895 84399 88299;EQDQ01  00002PRCP99
0159026800999992000060415004+56920+018150FM-12+003999999V0201201N00151021001CN0400001N1+01131+00151101971ADDGA1081+999999079GF108991081001022501071999MA1999999101501MD1710051+9999REMSYN076AAXX  04154 02680 42882 81203 10113 20015 30150 40197 57005 8807/ 333 88399;
0223026800999992000060418004+56920+018150FM-12+003999999V0200801N00101021001CN0400001N1+01011+00811101971ADDAA112000191AY121061AY221061GA1071+999999079GF108991071001022501071999KA1120M+01361MA1999999101501MD1510001+9999MW1601REMSYN094AAXX  04184 02680 11882 80802 10101 20081 30150 40197 55000 69922 76022 8707/ 333 10136 87399;
0187026800999992000060421004+56920+018150FM-12+003999999V0200701N001019999999N0400001N1+00921+00901102031ADDAY161031AY261031GA1071+999999079GF108991071001999999071999MA1999999101561MD1310061+9999MW1021REMSYN082AAXX  04214 02680 41982 80702 10092 20090 30156 40203 53006 70266 8707/ 333 87399;
0223026800999992000060500004+56920+018150FM-12+003999999V0201001N001510210019N0500001N1+00901+00801102031ADDAA106000591AY161061AY221061GA1071+021009079GF107991071999022501071999MA1999999101561MD1410001+9999MW1021REMSYN088AAXX  05004 02680 11884 71003 10090 20080 30156 40203 54000 69951 70262 8707/ 333 87357;EQDQ01+000002SCOLCG
0159026800999992000060503004+56920+018150FM-12+003999999V0203301N001012200019N0600001N1+00881+00671102041ADDGA1021+999999079GF103991021001999999071011MA1999999101571MD1210011+9999REMSYN076AAXX  05034 02680 42986 33302 10088 20067 30157 40204 52001 82071 333 82399;
0207026800999992000060506004+56920+018150FM-12+003999999V0203301N001012200019N0700001N1+01271+00251102081ADDAA112000591GA1011+999999079GF101991011001999999031001IA1019KA1120N+00861MA1999999101611MD1010041+9999REMSYN094AAXX  05064 02680 12988 13302 10127 20025 30161 40208 50004 69952 81030 333 20086 30/// 81399;
0179026800999992000060509004+56920+018150FM-12+003999999V0202001N001012200019N0700001N1+01361+00361102141ADDGA1011+012509029GF101991011011012501031011MA1999999101671MD1210061+9999SA1+1129REMSYN088AAXX  05094 02680 42688 12002 10136 20036 30167 40214 52006 81131 222// 00112 333 81896;
0189026800999992000060512004+56920+018150FM-12+003999999V0202001N001512200019N0700001N1+01481+00101102171ADDAA199000091GA1011+017509029GF101991011011017501011011MA1999999101701MD1210031+9999REMSYN076AAXX  05124 02680 32788 12003 10148 20010 30170 40217 52003 81111 333 81897;EQDQ01  00002PRCP99
0159026800999992000060515004+56920+018150FM-12+003999999V0202801N001012200019N0700001N1+01431-00171102071ADDGA1011+017509029GF101991011011017501001021MA1999999101611MD1810091+9999REMSYN076AAXX  05154 02680 42788 12802 10143 21017 30161 40207 58009 81102 333 81897;
0208026800999992000060518004+56920+018150FM-12+003999999V0203601N000512200019N0750001N1+01381-00171101961ADDAA199000091GA1021+999999019GF102991001001999999001021KA1120M+01581MA1999999101491MD1810121+9999REMSYN082AAXX  05184 02680 32989 23601 10138 21017 30149 40196 58012 80002 333 10158 82099;EQDQ01  00002PRCP99
0159026800999992000060521004+56920+018150FM-12+003999999V0200601N001512200019N0750001N1+00771+00651102021ADDGA1011+999999019GF101991011001999999011011MA1999999101541MD1110051+9999REMSYN076AAXX  05214 02680 42989 10603 10077 20065 30154 40202 51005 81011 333 81499;
0189026800999992000060600004+56920+018150FM-12+003999999V0200601N002112200019N0750001N1+00701+00691101911ADDAA199000091GA1011+999999079GF102991011001999999031001MA1999999101431MD1810111+9999REMSYN076AAXX  06004 02680 32989 20604 10070 20069 30143 40191 58011 81030 333 81399;EQDQ01  00002PRCP99
0159026800999992000060603004+56920+018150FM-12+003999999V0200601N002119999999N0750001N1+00861+00551101791ADDGA1021+999999079GF107991071001999999091999MA1999999101321MD1710111+9999REMSYN076AAXX  06034 02680 42989 70604 10086 20055 30132 40179 57011 8709/ 333 82399;
0226026800999992000060606004+56920+018150FM-12+003999999V0200701N00361999999CN0750001N1+01061+00141101711ADDAA199000091GA1061+025009039GF107991071001999999071999IA1019KA1120N+00701MA1999999101241MD1810081+9999REMSYN094AAXX  06064 02680 32989 70707 10106 20014 30124 40171 58008 8707/ 333 20070 30/// 86399 86499;EQDQ01  00002PRCP99
0165026800999992000060609004+56920+018150FM-12+003999999V0200701N004619999999N0750001N1+01131+00001101601ADDGA1041+025009039GF108991081001999999071999MA1999999101131MD1810111+9999REMSYN082AAXX  06094 02680 42989 80709 10113 20000 30113 40160 58011 8807/ 333 84399 88499;
0210026800999992000060612004+56920+018150FM-12+003999999V0200501N004119999999N0750001N1+01071+00441101561ADDAA106000791AY121061AY221061GA1011+025009039GF108991081001999999071999MA1999999101091MD1610041+9999MW1211REMSYN094AAXX  06124 02680 11989 80508 10107 20044 30109 40156 56004 69901 72122 8807/ 333 81399 88499;
0187026800999992000060615004+56920+018150FM-12+003999999V0200501N00461075001CN0700001N1+00901+00571101291ADDAY121031AY221031GA1081+999999019GF108991081001999999021999MA1999999100821MD1810271+9999MW1211REMSYN082AAXX  06154 02680 41988 80509 10090 20057 30082 40129 58027 72122 8802/ 333 88499;
0229026800999992000060618004+56920+018150FM-12+003999999V0200401N00361030001CN0300001N1+00871+00841101161ADDAA112000191AY161061AY221061GA1011+004509089GF108991011011004501021999KA1120M+01171MA1999999100691MD1710131+9999MW1611REMSYN100AAXX  06184 02680 11480 80407 10087 20084 30069 40116 57013 69912 76162 8112/ 333 10117 81894 88599;
0193026800999992000060621004+56920+018150FM-12+003999999V0200701N00411000601CN0050001N1+00861+00851100961ADDAY161031AY261031GA1011+000309079GF108991081051000751999999MA1999999100491MD1710201+9999MW1611REMSYN088AAXX  06214 02680 41150 80708 10086 20085 30049 40096 57020 76166 885// 333 81701 88622;
0204026800999992000060700004+56920+018150FM-12+003999999V0200901N004110003019N0030001N1+01001+00991100661ADDAA106002091AY161061AY261061GA1081+000309069GF108991081071000251999999MA1999999100191MD1810301+9999MW1531REMSYN088AAXX  07004 02680 11030 80908 10100 20099 30019 40066 58030 60021 75366 887// 333 88701;
0187026800999992000060703004+56920+018150FM-12+003999999V0201101N002110009019N0100001N1+01001+00991100411ADDAY151031AY251031GA1081+000909069GF108991081061000751999999MA1999999099951MD1610241+9999MW1021REMSYN082AAXX  07034 02680 41160 81104 10100 20099 39995 40041 56024 70255 886// 333 88703;
0235026800999992000060706004+56920+018150FM-12+003999999V0202401N003610003019N0045001N1+00971+00961100311ADDAA112003091AY151061AY221061GA1081+000309069GF108991081061000251999999IA1099KA1120N+00861MA1999999099851MD1610101+9999MW1201REMSYN100AAXX  07064 02680 11045 82407 10097 20096 39985 40031 56010 60032 72052 886// 333 20086 31/// 88701;
0207026800999992000060709004+56920+018150FM-12+003999999V0202401N005110009019N0300001N1+01001+00991100381ADDAY141031AY221031GA1081+000909069GF108991081061000751999999MA1999999099921MD1210071+9999MW1021SA1+0989REMSYN094AAXX  07094 02680 41180 82410 10100 20099 39992 40038 52007 70242 886// 222// 00098 333 88703;
0198026800999992000060712004+56920+018150FM-12+003999999V0202501N005110025019N0400001N1+01031+00981100411ADDAA199000021AY141061AY221061GA1081+002509069GF108991081061002501999999MA1999999099951MD1110031+9999MW1021REMSYN082AAXX  07124 02680 31382 82510 10103 20098 39995 40041 51003 70242 886// 333 88793;
0187026800999992000060715004+56920+018150FM-12+003999999V0202601N004110025019N0200001N1+00971+00951100471ADDAY151031AY221031GA1081+002509069GF108991081071002501999999MA1999999100011MD1210061+9999MW1601REMSYN082AAXX  07154 02680 41370 82608 10097 20095 30001 40047 52006 76052 887// 333 88793;
0223026800999992000060718004+56920+018150FM-12+003999999V0202801N005110015019N0070001N1+00911+00891100501ADDAA112001091AY161061AY251061GA1081+001509069GF108991081071001501999999KA1120M+01091MA1999999100041MD1210031+9999MW1611REMSYN094AAXX  07184 02680 11257 82810 10091 20089 30004 40050 52003 60012 76165 887// 333 10109 88792;
0193026800999992000060721004+56920+018150FM-12+003999999V0202801N00571030001CN0100001N1+00901+00881100621ADDAY161031AY261031GA1021+001509079GF108991021071001501071999MA1999999100161MD1310121+9999MW1601REMSYN088AAXX  07214 02680 41260 82811 10090 20088 30016 40062 53012 76066 8277/ 333 82792 88398;
0210026800999992000060800004+56920+018150FM-12+003999999V0202801N00511004201CN0400001N1+00961+00911100721ADDAA106002091AY161061AY261061GA1021+005109069GF108991081051004501999999MA1999999100261MD1210101+9999MW1601REMSYN094AAXX  08004 02680 11482 82810 10096 20091 30026 40072 52010 60021 76066 885// 333 82617 88637;
0193026800999992000060803004+56920+018150FM-12+003999999V0202701N004112200019N0400001N1+00941+00921100821ADDAY161031AY261031GA1011+001509079GF103991011021001501071011MA1999999100361MD1210101+9999MW1011REMSYN088AAXX  08034 02680 41282 32708 10094 20092 30036 40082 52010 70166 81271 333 81792 83399;
0241026800999992000060806004+56920+018150FM-12+003999999V0202701N00411030001CN0300001N1+01041+00941100991ADDAA112002091AY161061AY221061GA1011+004509089GF107991011021004501081999IA1099KA1120N+00901MA1999999100521MD1210161+9999MW1031REMSYN106AAXX  08064 02680 11480 72708 10104 20094 30052 40099 52016 60022 70362 8128/ 333 20090 31/// 81894 87399;
0159026800999992000060809004+56920+018150FM-12+003999999V0202801N003612200019N0350001N1+01311+00871101171ADDGA1011+004509029GF101991011021004501031001MA1999999100701MD1210181+9999REMSYN076AAXX  08094 02680 42481 12807 10131 20087 30070 40117 52018 81230 333 81894;
0176026800999992000060812004+56920+018150FM-12+003999999V0202701N003112200019N0450001N1+01521+00621101301ADDAA199000021GA1011+008009089GF101991011091008001031001MA1999999100841MD1210141+9999REMSYN082AAXX  08124 02680 32583 12706 10152 20062 30084 40130 52014 81930 333 81895 81995;
0165026800999992000060815004+56920+018150FM-12+003999999V0202701N002612200019N0500001N1+01551+00421101491ADDGA1011+008009099GF103991031091008001061001MA1999999101021MD1210181+9999REMSYN082AAXX  08154 02680 42584 32705 10155 20042 30102 40149 52018 83960 333 81995 82895;
0223026800999992000060818004+56920+018150FM-12+003999999V0202401N001512200019N0500001N1+01331+00751101591ADDAA112000591AY181061AY211061GA1011+008009099GF101991011091008001081001KA1120M+01571MA1999999101121MD1310101+9999MW1151REMSYN094AAXX  08184 02680 11584 12403 10133 20075 30112 40159 53010 69942 71581 81980 333 10157 81995;
0178026800999992000060821004+56920+018150FM-12+003999999V0203001N002112200019N0500001N1+01201+00771101701ADDGA1031+022509079GF103991031999022501081001MA1999999101231MD1210111+9999REMSYN076AAXX  08214 02680 42884 33004 10120 20077 30123 40170 52011 83080 333 83398;EQDQ01+000002SCOLCG
0189026800999992000060900004+56920+018150FM-12+003999999V0202901N003112200019N0450001N1+01111+00881101601ADDAA199000091GA1011+999999079GF101991011001999999031001MA1999999101331MD1110101+9999REMSYN076AAXX  09004 02680 32983 12906 10111 20088 30133 40160 51010 81030 333 81399;EQDQ01  00002PRCP99
0159026800999992000060903004+56920+018150FM-12+003999999V0203001N002112200019N0450001N1+01001+00821101941ADDGA1011+999999019GF101991001001999999001011MA1999999101471MD1210141+9999REMSYN076AAXX  09034 02680 42983 13004 10100 20082 30147 40194 52014 80001 333 81099;
0220026800999992000060906004+56920+018150FM-12+003999999V0203001N003112200019N0550001N1+01171+00761102071ADDAA199000091GA1011+999999079GF101991011001999999031011IA1019KA1120N+01001MA1999999101601MD1210131+9999REMSYN088AAXX  09064 02680 32985 13006 10117 20076 30160 40207 52013 81031 333 20100 30/// 81399;EQDQ01  00002PRCP99
0179026800999992000060909004+56920+018150FM-12+003999999V0203101N002112200019N0550001N1+01321+00561102201ADDGA1011+999999019GF101991001001999999001011MA1999999101731MD1210131+9999SA1+1049REMSYN088AAXX  09094 02680 42985 13104 10132 20056 30173 40220 52013 80001 222// 00104 333 81099;
0189026800999992000060912004+56920+018150FM-12+003999999V0202701N001012200019N0550001N1+01451+00551102281ADDAA199000091GA1011+008009029GF101991011021999999001011MA1999999101821MD1210091+9999REMSYN076AAXX  09124 02680 32985 12702 10145 20055 30182 40228 52009 81201 333 81895;EQDQ01  00002PRCP99
0159026800999992000060915004+56920+018150FM-12+003999999V0202301N001512200019N0550001N1+01501+00341102271ADDGA1011+008009029GF101991011011008001001011MA1999999101811MD1810011+9999REMSYN076AAXX  09154 02680 42585 12303 10150 20034 30181 40227 58001 81101 333 81895;
0208026800999992000060918004+56920+018150FM-12+003999999V0201901N001019999999N0400001N1+01271+01041102241ADDAA199000091GA1081+999999089GF108991001001999999001071KA1120M+01581MA1999999101771MD1610041+9999REMSYN082AAXX  09184 02680 32982 81902 10127 20104 30177 40224 56004 80007 333 10158 88299;EQDQ01  00002PRCP99
0165026800999992000060921004+56920+018150FM-12+003999999V0201901N001019999999N0300001N1+01001+00981102241ADDGA1011+025009039GF108991011001999999031071MA1999999101771MD1510001+9999REMSYN082AAXX  09214 02680 42980 81902 10100 20098 30177 40224 55000 81037 333 81399 88299;
0195026800999992000061000004+56920+018150FM-12+003999999V0201701N001012200019N0300001N1+00941+00921102261ADDAA199000091GA1011+025009039GF101991011001999999031071MA1999999101791MD1210021+9999REMSYN082AAXX  10004 02680 32980 11702 10094 20092 30179 40226 52002 81037 333 81399 88299;EQDQ01  00002PRCP99
0165026800999992000061003004+56920+018150FM-12+003999999V0201401N001019999999N0300001N1+00971+00951102281ADDGA1011+025009039GF108991011001999999031071MA1999999101811MD1210021+9999REMSYN082AAXX  10034 02680 42980 81402 10097 20095 30181 40228 52002 81037 333 81399 88299;
0220026800999992000061006004+56920+018150FM-12+003999999V0201301N002112200019N0350001N1+01221+00921102241ADDAA199000091GA1011+999999019GF101991001001999999001011IA1019KA1120N+00941MA1999999101771MD1810041+9999REMSYN088AAXX  10064 02680 32981 11304 10122 20092 30177 40224 58004 80001 333 20094 30/// 81099;EQDQ01  00002PRCP99
0159026800999992000061009004+56920+018150FM-12+003999999V0201401N003112200019N0350001N1+01411+00891102191ADDGA1011+999999019GF101991001001999999001011MA1999999101721MD1710051+9999REMSYN076AAXX  10094 02680 42981 11406 10141 20089 30172 40219 57005 80001 333 81099;
0189026800999992000061012004+56920+018150FM-12+003999999V0201501N003112200019N0300001N1+01431+00991102101ADDAA199000091GA1021+999999019GF102991001001999999001011MA1999999101631MD1710091+9999REMSYN076AAXX  10124 02680 32980 21506 10143 20099 30163 40210 57009 80001 333 82099;EQDQ01  00002PRCP99
0159026800999992000061015004+56920+018150FM-12+003999999V0201501N003112200019N0300001N1+01471+00991101981ADDGA1011+999999019GF101991001001999999001011MA1999999101521MD1710011+9999REMSYN076AAXX  10154 02680 42980 11506 10147 20099 30152 40198 57001 80001 333 81099;
0177026800999992000061018004+56920+018150FM-12+003999999V0201401N003112200019N0400001N1+01371+00911101761ADDAA199000091GF101991999999999999999999KA1120M+01521MA1999999101291REMSYN081AAXX  10184 02680 32982 11406 10137 20091 30129 40176 5823 80001 333 10152 81099;EQDQ01  00002PRCP99
0159026800999992000061021004+56920+018150FM-12+003999999V0201401N002612200019N0400001N1+01301+01011101631ADDGA1011+999999019GF101991001001999999001011MA1999999101161MD1610131+9999REMSYN076AAXX  10214 02680 42982 11405 10130 20101 30116 40163 56013 80001 333 81099;
0189026800999992000061100004+56920+018150FM-12+003999999V0201501N003112200019N0400001N1+01351+00971101491ADDAA199000091GA1011+999999019GF101991001001999999001011MA1999999101021MD1710141+9999REMSYN076AAXX  11004 02680 32982 11506 10135 20097 30102 40149 57014 80001 333 81099;EQDQ01  00002PRCP99
0159026800999992000061103004+56920+018150FM-12+003999999V0201601N002119999999N0400001N1+01301+00991101421ADDGA1081+999999089GF108991001001999999001071MA1999999100951MD1610071+9999REMSYN076AAXX  11034 02680 42982 81604 10130 20099 30095 40142 56007 80007 333 88299;
0220026800999992000061106004+56920+018150FM-12+003999999V0201601N003119999999N0300001N1+01531+00891101241ADDAA199000091GA1081+999999089GF108991001001999999001071IA1019KA1120N+01301MA1999999100781MD1810171+9999REMSYN088AAXX  11064 02680 32980 81606 10153 20089 30078 40124 58017 80007 333 20130 30/// 88299;EQDQ01  00002PRCP99
0187026800999992000061109004+56920+018150FM-12+003999999V0201801N003119999999N0250001N1+01601+00911101231ADDAY121031AY221031GA1081+999999089GF108991001001999999001071MA1999999100771MD1610011+9999MW1051REMSYN082AAXX  11094 02680 41975 81806 10160 20091 30077 40123 56001 70522 80007 333 88299;
0217026800999992000061112004+56920+018150FM-12+003999999V0201601N003119999999N0200001N1+01601+00961101141ADDAA199000091AY121061AY221061GA1081+999999089GF108991001001999999001071MA1999999100681MD1710091+9999MW1051REMSYN082AAXX  11124 02680 31970 81606 10160 20096 30068 40114 57009 70522 80007 333 88299;EQDQ01  00002PRCP99
0187026800999992000061115004+56920+018150FM-12+003999999V0201801N003119999999N0130001N1+01601+01151101081ADDAY121031AY221031GA1081+999999089GF108991001001999999001071MA1999999100621MD1710061+9999MW1051REMSYN082AAXX  11154 02680 41963 81806 10160 20115 30062 40108 57006 70522 80007 333 88299;
0208026800999992000061118004+56920+018150FM-12+003999999V0202101N002619999999N0100001N1+01491+01291100991ADDAA199000091GA1081+999999089GF108991001001999999001071KA1120M+01701MA1999999100531MD1710091+9999REMSYN082AAXX  11184 02680 32960 82105 10149 20129 30053 40099 57009 80007 333 10170 88299;EQDQ01  00002PRCP99
0178026800999992000061121004+56920+018150FM-12+003999999V0202601N002112200019N0300001N1+01371+01121101061ADDGA1021+022509079GF102991021999022501081001MA1999999100591MD1110061+9999REMSYN076AAXX  11214 02680 42880 22604 10137 20112 30059 40106 51006 82080 333 82398;EQDQ01+000002SCOLCG
0210026800999992000061200004+56920+018150FM-12+003999999V0202501N003610075019N0100001N1+01341+00881101391ADDAA106000391AY121061AY211061GA1041+008009099GF108991081091008001999999MA1999999100921MD1010331+9999MW1951REMSYN094AAXX  12004 02680 11560 82507 10134 20088 30092 40139 50033 69931 79521 889// 333 84995 88556;
0187026800999992000061203004+56920+018150FM-12+003999999V0202601N003119999999N0290001N1+01201+01101101231ADDAY191031AY281031GA1081+999999079GF108991081001999999071999MA1999999100761MD1510161+9999MW1611REMSYN082AAXX  12034 02680 41979 82606 10120 20110 30076 40123 55016 76198 8807/ 333 88399;
0241026800999992000061206004+56920+018150FM-12+003999999V0202401N003619999999N0260001N1+01311+01251101301ADDAA112002091AY191061AY261061GA1011+025009039GF106991061001999999091001IA1099KA1120N+01191MA1999999100831MD1010071+9999MW1021REMSYN106AAXX  12064 02680 11976 62407 10131 20125 30083 40130 50007 60022 70296 86090 333 20119 31/// 81399 83499;
0185026800999992000061209004+56920+018150FM-12+003999999V0202501N00411030001CN0450001N1+01361+00831101451ADDGA1011+008009089GF107991011011008001071999MA1999999100981MD1310151+9999SA1+1269REMSYN094AAXX  12094 02680 42583 72508 10136 20083 30098 40145 53015 8117/ 222// 00126 333 81895 84499;
0176026800999992000061212004+56920+018150FM-12+003999999V0202201N004110300019N0500001N1+01441+00811101521ADDAA199000021GA1011+008009089GF106991011011008001071021MA1999999101061MD1110081+9999REMSYN082AAXX  12124 02680 32584 62208 10144 20081 30106 40152 51008 81172 333 81895 83499;
0165026800999992000061215004+56920+018150FM-12+003999999V0202201N005119999999N0400001N1+01391+00931101541ADDGA1011+025009039GF107991071001999999071999MA1999999101071MD1210011+9999REMSYN082AAXX  12154 02680 42982 72210 10139 20093 30107 40154 52001 8707/ 333 81399 83499;
0208026800999992000061218004+56920+018150FM-12+003999999V0202401N004619999999N0550001N1+01271+00991101631ADDAA199000091GA1071+999999079GF107991071001999999071999KA1120M+01511MA1999999101161MD1310091+9999REMSYN082AAXX  12184 02680 32985 72409 10127 20099 30116 40163 53009 8707/ 333 10151 87399;EQDQ01  00002PRCP99
0165026800999992000061221004+56920+018150FM-12+003999999V0202401N00411030001CN0650001N1+01221+01111101821ADDGA1011+012509069GF107991011051012501091999MA1999999101351MD1110191+9999REMSYN082AAXX  12214 02680 42687 72408 10122 20111 30135 40182 51019 8159/ 333 81696 85399;
0195026800999992000061300004+56920+018150FM-12+003999999V0202501N002612200019N0550001N1+01221+01001101921ADDAA199000091GA1011+025009039GF103991031001999999071001MA1999999101451MD1210101+9999REMSYN082AAXX  13004 02680 32985 32505 10122 20100 30145 40192 52010 83070 333 81399 83399;EQDQ01  00002PRCP99
0159026800999992000061303004+56920+018150FM-12+003999999V0202401N002610125019N0700001N1+01261+01111102001ADDGA1061+012509059GF106991061051012501001001MA1999999101531MD1210081+9999REMSYN076AAXX  13034 02680 42688 62405 10126 20111 30153 40200 52008 86500 333 86696;
0220026800999992000061306004+56920+018150FM-12+003999999V0202301N003610080019N0400001N1+01371+01121101991ADDAA199000091GA1071+008009059GF107991071051008001999999IA1019KA1120N+01151MA1999999101521MD1510011+9999REMSYN088AAXX  13064 02680 32582 72307 10137 20112 30152 40199 55001 875// 333 20115 30/// 87695;EQDQ01  00002PRCP99
0159026800999992000061309004+56920+018150FM-12+003999999V0202201N004610080019N0210001N1+01471+01201101931ADDGA1071+008009059GF107991071051008001999999MA1999999101471MD1810051+9999REMSYN076AAXX  13094 02680 42571 72209 10147 20120 30147 40193 58005 875// 333 87695;
0201026800999992000061312004+56920+018150FM-12+003999999V0202201N004112200019N0200001N1+01601+01181101751ADDAA199000091AY121061AY211061GA1001+999999999GF100991001001999999001001MA1999999101291MD1810181+9999MW1051REMSYN066AAXX  13124 02680 31970 02208 10160 20118 30129 40175 58018 70521;EQDQ01  00002PRCP99
0187026800999992000061315004+56920+018150FM-12+003999999V0202101N005712200019N0200001N1+01601+01141101521ADDAY101031AY201031GA1011+999999019GF101991001001999999001011MA1999999101061MD1710231+9999MW1051REMSYN082AAXX  13154 02680 41970 12111 10160 20114 30106 40152 57023 70500 80001 333 81099;
0208026800999992000061318004+56920+018150FM-12+003999999V0202301N005710210019N0200001N1+01501+01251101431ADDAA199000091GA1021+210009079GF107991071001022501091999KA1120M+01641MA1999999100971MD1610091+9999REMSYN082AAXX  13184 02680 32870 72311 10150 20125 30097 40143 56009 8709/ 333 10164 82388;EQDQ01  00002PRCP99
0159026800999992000061321004+56920+018150FM-12+003999999V0202601N004112200019N0700001N1+01341+01141101571ADDGA1011+999999079GF101991011001999999071001MA1999999101101MD1110131+9999REMSYN076AAXX  13214 02680 42988 12608 10134 20114 30110 40157 51013 81070 333 81399;
0189026800999992000061400004+56920+018150FM-12+003999999V0202701N00411075001CN0300001N1+01231+00681101631ADDAA199000091GA1071+999999019GF107991071001999999011999MA1999999101161MD1210061+9999REMSYN076AAXX  14004 02680 32980 72708 10123 20068 30116 40163 52006 8701/ 333 87499;EQDQ01  00002PRCP99
0220026800999992000061406004+56920+018150FM-12+003999999V0202701N004112200019N0350001N1+01281+00781101731ADDAA199000091GA1011+999999079GF101991011001999999031011IA1019KA1120N+01201MA1999999101261MD1010031+9999REMSYN088AAXX  14064 02680 32981 12708 10128 20078 30126 40173 50003 81031 333 20120 30/// 81399;EQDQ01  00002PRCP99
0179026800999992000061409004+56920+018150FM-12+003999999V0202501N00311075001CN0400001N1+01441+00771101731ADDGA1051+999999019GF105991001001999999001051MA1999999101271MD1710011+9999SA1+1469REMSYN088AAXX  14094 02680 42982 52506 10144 20077 30127 40173 57001 80005 222// 00146 333 85099;
0217026800999992000061412004+56920+018150FM-12+003999999V0202301N004119999999N0400001N1+01541+00791101661ADDAA199000091AY111061AY211061GA1081+999999089GF108991001001999999001071MA1999999101201MD1810071+9999MW1051REMSYN082AAXX  14124 02680 31982 82308 10154 20079 30120 40166 58007 70511 80007 333 88299;EQDQ01  00002PRCP99
0165026800999992000061415004+56920+018150FM-12+003999999V0202301N00411021001CN0300001N1+01341+00981101531ADDGA1011+022509039GF108991081001022501071999MA1999999101061MD1710141+9999REMSYN082AAXX  14154 02680 42880 82308 10134 20098 30106 40153 57014 8807/ 333 81398 88499;
0208026800999992000061418004+56920+018150FM-12+003999999V0202501N003619999999N0500001N1+01301+00661101331ADDAA199000091GA1081+999999089GF108991001001999999001071KA1120M+01581MA1999999100861MD1710201+9999REMSYN082AAXX  14184 02680 32984 82507 10130 20066 30086 40133 57020 80007 333 10158 88299;EQDQ01  00002PRCP99
0143026800999992000061421004+56920+018150FM-12+003999999V0202501N003612200019N0450001N1+01171+00621101321ADDGA1001+999999999GF100991001001999999001001MA1999999100871MD1210011+9999REMSYN060AAXX  14214 02680 42983 02507 10117 20062 30087 40132 52001;
0189026800999992000061500004+56920+018150FM-12+003999999V0202601N004612200019N0500001N1+01151+00661101291ADDAA199000091GA1011+008009029GF101991011011008001001011MA1999999100821MD1610051+9999REMSYN076AAXX  15004 02680 32584 12609 10115 20066 30082 40129 56005 81101 333 81895;EQDQ01  00002PRCP99
0143026800999992000061503004+56920+018150FM-12+003999999V0202501N004112200019N0500001N1+01071+00641101211ADDGA1001+999999999GF100991001001999999001001MA1999999100741MD1810081+9999REMSYN060AAXX  15034 02680 42984 02508 10107 20064 30074 40121 58008;
0220026800999992000061506004+56920+018150FM-12+003999999V0202701N004112200019N0500001N1+01151+00691101191ADDAA199000091GA1011+999999019GF101991001001999999001011IA1019KA1120N+01071MA1999999100721MD1710021+9999REMSYN088AAXX  15064 02680 32984 12708 10115 20069 30072 40119 57002 80001 333 20107 30/// 81099;EQDQ01  00002PRCP99
0159026800999992000061509004+56920+018150FM-12+003999999V0202601N003112200019N0500001N1+01351+00641101171ADDGA1011+008009029GF101991011011008001031001MA1999999100701MD1710021+9999REMSYN076AAXX  15094 02680 42584 12606 10135 20064 30070 40117 57002 81130 333 81895;
0189026800999992000061512004+56920+018150FM-12+003999999V0202201N003112200019N0500001N1+01601+00471101081ADDAA199000091GA1011+012509029GF101991011021012501001001MA1999999100621MD1810081+9999REMSYN076AAXX  15124 02680 32684 12206 10160 20047 30062 40108 58008 81200 333 81896;EQDQ01  00002PRCP99
0251026800999992000061518004+56920+018150FM-12+003999999V0203101N00211030001CN0700001N1+01241+00651100891ADDAA112000791AY111061AY201061GA1011+008009099GA2011+008009089GF106991031091008001061001KA1120M+01631MA1999999100421MD1510001+9999MW1251REMSYN106AAXX  15184 02680 11588 63104 10124 20065 30042 40089 55000 69902 72510 83960 333 10163 81895 81995 83399;
0193026800999992000061521004+56920+018150FM-12+003999999V0203201N002110300019N0750001N1+01101+00431100921ADDAY181031AY221031GA1011+008009089GF105991041091008001061001MA1999999100451MD1110031+9999MW1151REMSYN088AAXX  15214 02680 41589 53204 10110 20043 30045 40092 51003 71582 84960 333 81895 82995;
0204026800999992000061600004+56920+018150FM-12+003999999V0202701N001512200019N0650001N1+01001+00561100931ADDAA106000191AY181061AY221061GA1011+012509059GF103991011051012501071001MA1999999100461MD1210011+9999MW1021REMSYN088AAXX  16004 02680 11687 32703 10100 20056 30046 40093 52001 69921 70282 81570 333 81696;
0159026800999992000061603004+56920+018150FM-12+003999999V0203001N003112200019N0700001N1+00991+00571100921ADDGA1011+999999079GF101991011001999999081001MA1999999100451MD1710011+9999REMSYN076AAXX  16034 02680 42988 13006 10099 20057 30045 40092 57001 81080 333 81399;
0235026800999992000061606004+56920+018150FM-12+003999999V0203201N00361030001CN0700001N1+01071+00581100961ADDAA112699092GA1011+008009089GA2011+022509039GF106991011021008001081001IA1019KA1120N+00991MA1999999100491MD1310041+9999REMSYN106AAXX  16064 02680 12588 63207 10107 20058 30049 40096 53004 66992 81280 333 20099 30/// 81895 81398 85399;
0179026800999992000061609004+56920+018150FM-12+003999999V0203301N003112200019N0750001N1+01301+00761101131ADDGA1011+008009029GF103991011031008001081011MA1999999100661MD1210171+9999SA1+1249REMSYN088AAXX  16094 02680 42589 33306 10130 20076 30066 40113 52017 81381 222// 00124 333 81895;
0195026800999992000061612004+56920+018150FM-12+003999999V0203301N003112200019N0750001N1+01391+00181101311ADDAA199000091GA1011+009309099GF103991011091008001031011MA1999999100841MD1210181+9999REMSYN082AAXX  16124 02680 32589 33306 10139 20018 30084 40131 52018 81931 333 81995 81895;EQDQ01  00002PRCP99
0159026800999992000061615004+56920+018150FM-12+003999999V0203001N003112200019N0750001N1+01461+00141101401ADDGA1011+008009099GF102991011091008001061001MA1999999100941MD1210101+9999REMSYN076AAXX  16154 02680 42589 23006 10146 20014 30094 40140 52010 81960 333 81995;
0208026800999992000061618004+56920+018150FM-12+003999999V0203001N001512200019N0750001N1+01291+00501101451ADDAA199000091GA1011+008009099GF102991011091008001081011KA1120M+01501MA1999999100981MD1110021+9999REMSYN082AAXX  16184 02680 32589 23003 10129 20050 30098 40145 51002 81981 333 10150 81995;EQDQ01  00002PRCP99
0178026800999992000061621004+56920+018150FM-12+003999999V0203301N001012200019N0750001N1+01001+00551101601ADDGA1041+022509079GF104991041999022501061011MA1999999101131MD1110151+9999REMSYN076AAXX  16214 02680 42889 43302 10100 20055 30113 40160 51015 84061 333 84398;EQDQ01+000002SCOLCG
0189026800999992000061700004+56920+018150FM-12+003999999V0203401N003112200019N0750001N1+01011+00781101741ADDAA199000091GA1011+008009029GF102991011011008001061001MA1999999101271MD1210141+9999REMSYN076AAXX  17004 02680 32589 23406 10101 20078 30127 40174 52014 81160 333 81895;EQDQ01  00002PRCP99
0159026800999992000061703004+56920+018150FM-12+003999999V0203601N003112200019N0750001N1+01011+00861101881ADDGA1011+008009029GF102991011021008001061001MA1999999101411MD1210141+9999REMSYN076AAXX  17034 02680 42589 23606 10101 20086 30141 40188 52014 81260 333 81895;
0220026800999992000061706004+56920+018150FM-12+003999999V0203501N003612200019N0750001N1+01171+00801102081ADDAA199000091GA1011+004509029GF102991011021004501061001IA1019KA1120N+00991MA1999999101611MD1210201+9999REMSYN088AAXX  17064 02680 32489 23507 10117 20080 30161 40208 52020 81260 333 20099 30/// 81894;EQDQ01  00002PRCP99
0159026800999992000061709004+56920+018150FM-12+003999999V0203301N004112200019N0750001N1+01251+00601102301ADDGA1011+004509029GF101991011021004501061001MA1999999101831MD1210221+9999REMSYN076AAXX  17094 02680 42489 13308 10125 20060 30183 40230 52022 81260 333 81894;
0195026800999992000061712004+56920+018150FM-12+003999999V0203401N004112200019N0750001N1+01301+00461102461ADDAA199000091GA1011+004509099GF101991011031004501001011MA1999999101991MD1210161+9999REMSYN082AAXX  17124 02680 32489 13408 10130 20046 30199 40246 52016 81301 333 81994 81894;EQDQ01  00002PRCP99
0159026800999992000061715004+56920+018150FM-12+003999999V0203401N002612200019N0750001N1+01381-00141102491ADDGA1011+008009029GF101991011011008001001041MA1999999102021MD1110031+9999REMSYN076AAXX  17154 02680 42589 13405 10138 21014 30202 40249 51003 81104 333 81895;
0214026800999992000061718004+56920+018150FM-12+003999999V0202801N00211030001CN0750001N1+01191+00231102481ADDAA199000091GA1011+008009089GF106991011011008001051011KA1120M+01421MA1999999102011MD1510011+9999REMSYN088AAXX  17184 02680 32589 62804 10119 20023 30201 40248 55001 81151 333 10142 81895 86399;EQDQ01  00002PRCP99
0159026800999992000061721004+56920+018150FM-12+003999999V0202701N002112200019N0650001N1+00991+00561102551ADDGA1011+008009029GF104991011011008001071011MA1999999102081MD1210071+9999REMSYN076AAXX  17214 02680 42587 42704 10099 20056 30208 40255 52007 81171 333 81895;
0195026800999992000061800004+56920+018150FM-12+003999999V0202601N002119999999N0650001N1+00971+00711102531ADDAA199000091GA1011+025009039GF107991011001999999071061MA1999999102061MD1610021+9999REMSYN082AAXX  18004 02680 32987 72604 10097 20071 30206 40253 56002 81076 333 81399 87299;EQDQ01  00002PRCP99
0159026800999992000061803004+56920+018150FM-12+003999999V0202701N002112200019N0600001N1+01031+00851102541ADDGA1011+008009029GF101991011011008001031011MA1999999102071MD1210011+9999REMSYN076AAXX  18034 02680 42586 12704 10103 20085 30207 40254 52001 81131 333 81895;
0220026800999992000061806004+56920+018150FM-12+003999999V0203101N002112200019N0750001N1+01391+00571102611ADDAA199000091GA1011+999999079GF101991011001999999031081IA1019KA1120N+00971MA1999999102141MD1310071+9999REMSYN088AAXX  18064 02680 32989 13104 10139 20057 30214 40261 53007 81038 333 20097 30/// 81399;EQDQ01  00002PRCP99
0165026800999992000061809004+56920+018150FM-12+003999999V0202701N001010750019N0750001N1+01591-00301102641ADDGA1011+025009089GF108991011021008001001071MA1999999102181MD1110041+9999REMSYN082AAXX  18094 02680 42589 82702 10159 21030 30218 40264 51004 81207 333 81899 88299;
0195026800999992000061812004+56920+018150FM-12+003999999V0202001N002610750019N0750001N1+01581+00701102671ADDAA199000091GA1011+025009089GF108991011021008001001071MA1999999102211MD1110031+9999REMSYN082AAXX  18124 02680 32589 82005 10158 20070 30221 40267 51003 81207 333 81899 88299;EQDQ01  00002PRCP99
0165026800999992000061815004+56920+018150FM-12+003999999V0202001N003119999999N0700001N1+01431+01071102581ADDGA1041+025009039GF108991041001999999031071MA1999999102121MD1810091+9999REMSYN082AAXX  18154 02680 42988 82006 10143 20107 30212 40258 58009 84037 333 84399 88299;
0208026800999992000061818004+56920+018150FM-12+003999999V0201901N003119999999N0400001N1+01251+01211102551ADDAA199000091GA1071+999999079GF107991071001999999071999KA1120M+01601MA1999999102081MD1710041+9999REMSYN082AAXX  18184 02680 32982 71906 10125 20121 30208 40255 57004 8707/ 333 10160 87399;EQDQ01  00002PRCP99
0159026800999992000061821004+56920+018150FM-12+003999999V0202001N003119999999N0400001N1+01201+01161102511ADDGA1081+999999079GF108991081001999999071999MA1999999102041MD1710041+9999REMSYN076AAXX  18214 02680 42982 82006 10120 20116 30204 40251 57004 8807/ 333 88399;
0189026800999992000061900004+56920+018150FM-12+003999999V0202101N003110150019N0450001N1+01201+01161102451ADDAA199000091GA1081+015009059GF108991081051012501999999MA1999999101981MD1710061+9999REMSYN076AAXX  19004 02680 32683 82106 10120 20116 30198 40245 57006 885// 333 88650;EQDQ01  00002PRCP99
0159026800999992000061903004+56920+018150FM-12+003999999V0201901N002619999999N0450001N1+01201+01181102361ADDGA1081+999999079GF108991081001999999071999MA1999999101891MD1710091+9999REMSYN076AAXX  19034 02680 42983 81905 10120 20118 30189 40236 57009 8807/ 333 88399;
0226026800999992000061906004+56920+018150FM-12+003999999V0201901N00211012501CN0750001N1+01351+01121102251ADDAA199000091GA1061+012509069GF107991061051012501071999IA1019KA1120N+01351MA1999999101781MD1810111+9999REMSYN094AAXX  19064 02680 32689 71904 10135 20112 30178 40225 58011 8657/ 333 20135 30/// 86696 87499;EQDQ01  00002PRCP99
0185026800999992000061909004+56920+018150FM-12+003999999V0201801N002119999999N0550001N1+01521+01081102251ADDGA1011+025009039GF108991041001999999071071MA1999999101781MD1010001+9999SA1+1329REMSYN094AAXX  19094 02680 42985 81804 10152 20108 30178 40225 50000 84077 222// 00132 333 81399 88299;
0217026800999992000061912004+56920+018150FM-12+003999999V0201801N002619999999N0400001N1+01661+01011102151ADDAA199000091AY121061AY221061GA1081+999999089GF108991001001999999001071MA1999999101691MD1610091+9999MW1051REMSYN082AAXX  19124 02680 31982 81805 10166 20101 30169 40215 56009 70522 80007 333 88299;EQDQ01  00002PRCP99
0187026800999992000061915004+56920+018150FM-12+003999999V0201701N002612200019N0350001N1+01581+01061101991ADDAY121031AY211031GA1011+999999019GF101991001001999999001011MA1999999101531MD1710161+9999MW1051REMSYN082AAXX  19154 02680 41981 11705 10158 20106 30153 40199 57016 70521 80001 333 81099;
0208026800999992000061918004+56920+018150FM-12+003999999V0201901N003112200019N0350001N1+01441+01191101841ADDAA199000091GA1011+999999019GF101991001001999999001011KA1120M+01711MA1999999101381MD1710151+9999REMSYN082AAXX  19184 02680 32981 11906 10144 20119 30138 40184 57015 80001 333 10171 81099;EQDQ01  00002PRCP99
0159026800999992000061921004+56920+018150FM-12+003999999V0202101N002612200019N0300001N1+01291+01271101761ADDGA1011+999999079GF101991011001999999071001MA1999999101291MD1710091+9999REMSYN076AAXX  19214 02680 42980 12105 10129 20127 30129 40176 57009 81070 333 81399;
0217026800999992000062000004+56920+018150FM-12+003999999V0201901N002119999999N0240001N1+01281+01261101631ADDAA199000091GA1011+025009039GA2041+025009049GF108991041001999999071071MA1999999101161MD1610131+9999REMSYN088AAXX  20004 02680 32974 81904 10128 20126 30116 40163 56013 84077 333 81399 84499 88299;EQDQ01  00002PRCP99
0165026800999992000062003004+56920+018150FM-12+003999999V0202001N002119999999N0200001N1+01301+01281101481ADDGA1011+025009039GF108991021001999999081071MA1999999101011MD1810151+9999REMSYN082AAXX  20034 02680 42970 82004 10130 20128 30101 40148 58015 82087 333 81399 88299;
0226026800999992000062006004+56920+018150FM-12+003999999V0202201N002119999999N0230001N1+01551+01201101331ADDAA199000091GA1021+025009039GF108991021001999999081071IA1019KA1120N+01281MA1999999100871MD1810141+9999REMSYN094AAXX  20064 02680 32973 82204 10155 20120 30087 40133 58014 82087 333 20128 30/// 82399 88299;EQDQ01  00002PRCP99
0165026800999992000062009004+56920+018150FM-12+003999999V0202401N003119999999N0200001N1+01841+01091101211ADDGA1011+025009039GF108991011001999999081071MA1999999100751MD1710121+9999REMSYN082AAXX  20094 02680 42970 82406 10184 20109 30075 40121 57012 81087 333 81399 88299;
0223026800999992000062012004+56920+018150FM-12+003999999V0202301N004119999999N0200001N1+02011+01021101081ADDAA199000091AY121061AY221061GA1021+025009039GF108991021001999999081071MA1999999100631MD1710121+9999MW1051REMSYN088AAXX  20124 02680 31970 82308 10201 20102 30063 40108 57012 70522 82087 333 82399 88299;EQDQ01  00002PRCP99
0187026800999992000062015004+56920+018150FM-12+003999999V0202401N002112200019N0200001N1+02031+01041101091ADDAY121031AY221031GA1011+999999079GF102991011001999999081011MA1999999100641MD1110011+9999MW1051REMSYN082AAXX  20154 02680 41970 22404 10203 20104 30064 40109 51001 70522 81081 333 81399;
0242026800999992000062018004+56920+018150FM-12+003999999V0202801N000519999999N0250001N1+02241+00881101121ADDAA199000091AY121061AY211061GA1011+025009039GF108991011001999999081071KA1120M+02451MA1999999100671MD1210031+9999MW1051REMSYN094AAXX  20184 02680 31975 82801 10224 20088 30067 40112 52003 70521 81087 333 10245 81399 88299;EQDQ01  00002PRCP99
0187026800999992000062021004+56920+018150FM-12+003999999V0200601N003119999999N0250001N1+01701+01101101261ADDAY121031AY221031GA1081+999999089GF108991001001999999001071MA1999999100801MD1310131+9999MW1051REMSYN082AAXX  20214 02680 41975 80606 10170 20110 30080 40126 53013 70522 80007 333 88299;
0189026800999992000062100004+56920+018150FM-12+003999999V0200601N002619999999N0200001N1+01331+01281101361ADDAA199000091GA1081+999999089GF108991001001999999001071MA1999999100891MD1110091+9999REMSYN076AAXX  21004 02680 32970 80605 10133 20128 30089 40136 51009 80007 333 88299;EQDQ01  00002PRCP99
0159026800999992000062103004+56920+018150FM-12+003999999V0200601N003119999999N0200001N1+01331+01281101401ADDGA1081+999999089GF108991001001999999001071MA1999999100931MD1210041+9999REMSYN076AAXX  21034 02680 42970 80606 10133 20128 30093 40140 52004 80007 333 88299;
0220026800999992000062106004+56920+018150FM-12+003999999V0200901N003112200019N0500001N1+01761+00811101501ADDAA199000091GA1011+999999089GF101991001001999999001081IA1019KA1120N+01311MA1999999101041MD1210111+9999REMSYN088AAXX  21064 02680 32984 10906 10176 20081 30104 40150 52011 80008 333 20131 30/// 81299;EQDQ01  00002PRCP99
0207026800999992000062109004+56920+018150FM-12+003999999V0201001N003119999999N0400001N1+02001+00831101521ADDAY111031AY201031GA1081+999999089GF108991001001999999001071MA1999999101071MD1110031+9999MW1051SA1+1469REMSYN094AAXX  21094 02680 41982 81006 10200 20083 30107 40152 51003 70510 80007 222// 00146 333 88299;
0171026800999992000062110004+56920+018150FM-12+003999999V0200901N003612200019N0400001N1+01971+00801101381ADDAY101999AY201999GA1001+999999999GF100991001001999999001001MA1999999100921MD1810101+9999MW1051REMSYN066AAXX  21104 02680 41982 00907 10197 20080 30092 40138 58010 70500;
0217026800999992000062112004+56920+018150FM-12+003999999V0200901N003112200019N0300001N1+02171+00751101471ADDAA199000091AY111061AY201061GA1011+999999019GF101991001001999999001011MA1999999101021MD1810051+9999MW1051REMSYN082AAXX  21124 02680 31980 10906 10217 20075 30102 40147 58005 70510 80001 333 81099;EQDQ01  00002PRCP99
0208026800999992000062118004+56920+018150FM-12+003999999V0200901N002612200019N0550001N1+01751+00691101321ADDAA199000091GA1011+999999079GF101991011001999999081001KA1120M+02311MA1999999100861MD1610061+9999REMSYN082AAXX  21184 02680 32985 10905 10175 20069 30086 40132 56006 81080 333 10231 81399;EQDQ01  00002PRCP99
0159026800999992000062121004+56920+018150FM-12+003999999V0200901N002112200019N0600001N1+01451+01111101301ADDGA1011+999999079GF101991011001999999081001MA1999999100831MD1510031+9999REMSYN076AAXX  21214 02680 42986 10904 10145 20111 30083 40130 55003 81080 333 81399;
0189026800999992000062200004+56920+018150FM-12+003999999V0200701N002112200019N0650001N1+01341+01051101321ADDAA199000091GA1011+999999079GF101991011001999999031001MA1999999100851MD1210021+9999REMSYN076AAXX  22004 02680 32987 10704 10134 20105 30085 40132 52002 81030 333 81399;EQDQ01  00002PRCP99
0159026800999992000062203004+56920+018150FM-12+003999999V0200901N002112200019N0750001N1+01531+00891101191ADDGA1011+999999019GF101991001001999999001011MA1999999100731MD1810121+9999REMSYN076AAXX  22034 02680 42989 10904 10153 20089 30073 40119 58012 80001 333 81099;
0220026800999992000062206004+56920+018150FM-12+003999999V0201901N001012200019N0650001N1+01871+00861101211ADDAA199000091GA1011+999999019GF101991001001999999001011IA1019KA1120N+01311MA1999999100751MD1010021+9999REMSYN088AAXX  22064 02680 32987 11902 10187 20086 30075 40121 50002 80001 333 20131 30/// 81099;EQDQ01  00002PRCP99
0193026800999992000062209004+56920+018150FM-12+003999999V0200501N00101030001CN0350001N1+02201+00621101141ADDAY111031AY201031GA1011+012509099GF106991011091012501061001MA1999999100691MD1510061+9999MW1291REMSYN088AAXX  22094 02680 41681 60502 10220 20062 30069 40114 55006 72910 81960 333 81996 86399;
0217026800999992000062212004+56920+018150FM-12+003999999V0201001N003112200019N0350001N1+02321+00311101081ADDAA199000091AY111061AY201061GA1011+999999079GF101991011001999999081001MA1999999100631MD1710061+9999MW1051REMSYN082AAXX  22124 02680 31981 11006 10232 20031 30063 40108 57006 70510 81080 333 81399;EQDQ01  00002PRCP99
0159026800999992000062215004+56920+018150FM-12+003999999V0202001N002112200019N0450001N1+01931+01231101031ADDGA1011+999999079GF101991011001999999081001MA1999999100571MD1810061+9999REMSYN076AAXX  22154 02680 42983 12004 10193 20123 30057 40103 58006 81080 333 81399;
0214026800999992000062218004+56920+018150FM-12+003999999V0202901N004119999999N0350001N1+01681+01511101161ADDAA199000091GA1011+025009039GF107991071001999999091999KA1120M+02321MA1999999100701MD1310131+9999REMSYN088AAXX  22184 02680 32981 72908 10168 20151 30070 40116 53013 8709/ 333 10232 81399 87499;EQDQ01  00002PRCP99
0171026800999992000062221004+56920+018150FM-12+003999999V0202901N001010003019N0002001N1+01431+01381101271ADDAY121031AY221031GA1091+999999999GF109991091999999999999999MA1999999100811MD1310141+9999MW1471REMSYN066AAXX  22214 02680 41/02 92902 10143 20138 30081 40127 53014 74722;
0151026800999992000062303004+56920+018150FM-12+003999999V0202401N001510125019N0200001N1+01421+01381999999ADDGA1061+012509059GF106991061051012501001001MD1010912+9999REMSYN064AAXX  23034 02680 42670 62403 10142 20138 50091 86500 333 86696;EQDQ01+000912APC3  
0270026800999992000062306004+56920+018150FM-12+003999999V0202101N001019999999N0050001N1+01491+01471101431ADDAA199000091AY111061AY201061GA1011+000609079GF106991011999000751071001IA1019KA1120N+01391MA1999999100961MD1210051+9999MW1101REMSYN100AAXX  23064 02680 31150 62102 10149 20147 30096 40143 52005 71010 81070 333 20139 30/// 81702 86399;EQDQ01+000002SCOLCGQ02  00002PRCP99
0179026800999992000062309004+56920+018150FM-12+003999999V0202301N001519999999N0210001N1+01811+01281101471ADDGA1071+999999079GF107991071001999999071999MA1999999101011MD1110051+9999SA1+1649REMSYN088AAXX  23094 02680 42971 72303 10181 20128 30101 40147 51005 8707/ 222// 00164 333 87399;
0217026800999992000062312004+56920+018150FM-12+003999999V0201801N002119999999N0220001N1+01771+01221101441ADDAA199000091AY121061AY221061GA1081+999999089GF108991001001999999001071MA1999999100981MD1710031+9999MW1051REMSYN082AAXX  23124 02680 31972 81804 10177 20122 30098 40144 57003 70522 80007 333 88299;EQDQ01  00002PRCP99
0165026800999992000062315004+56920+018150FM-12+003999999V0201801N002619999999N0210001N1+01631+01501101391ADDGA1011+025009039GF108991071001999999071999MA1999999100931MD1710051+9999REMSYN082AAXX  23154 02680 42971 81805 10163 20150 30093 40139 57005 8707/ 333 81399 87499;
0214026800999992000062318004+56920+018150FM-12+003999999V0201801N002610300019N0200001N1+01471+01451101301ADDAA199000091GA1011+000609079GF108991011061000751071071KA1120M+01911MA1999999100831MD1710101+9999REMSYN088AAXX  23184 02680 32170 81805 10147 20145 30083 40130 57010 81677 333 10191 81702 88299;EQDQ01  00002PRCP99
0204026800999992000062400004+56920+018150FM-12+003999999V0202001N000512200019N0250001N1+01301+01281101201ADDAA106000191AY161061AY241061GA1011+999999079GF101991011001999999071001MA1999999100731MD1710081+9999MW1011REMSYN088AAXX  24004 02680 11975 12001 10130 20128 30073 40120 57008 69911 70164 81070 333 81399;
0143026800999992000062403004+56920+018150FM-12+003999999V0202001N001512200019N0250001N1+01331+01311101191ADDGA1001+999999999GF100991001001999999001001MA1999999100721MD1710011+9999REMSYN060AAXX  24034 02680 42975 02003 10133 20131 30072 40119 57001;
0207026800999992000062406004+56920+018150FM-12+003999999V0202101N002112200019N0200001N1+01601+01461101171ADDAA112000391GA1011+004509069GF101991011061004501001001IA1019KA1120N+01301MA1999999100711MD1710011+9999REMSYN094AAXX  24064 02680 12470 12104 10160 20146 30071 40117 57001 69932 81600 333 20130 30/// 81794;
0187026800999992000062409004+56920+018150FM-12+003999999V0202101N002612200019N0200001N1+01821+01171101221ADDAY101031AY201031GA1011+004509029GF101991011011004501001011MA1999999100761MD1210051+9999MW1051REMSYN082AAXX  24094 02680 41470 12105 10182 20117 30076 40122 52005 70500 81101 333 81894;
0223026800999992000062412004+56920+018150FM-12+003999999V0201901N00261075001CN0200001N1+01831+01201101181ADDAA199000091AY101061AY201061GA1011+004509089GF108991011011004501001071MA1999999100721MD1810041+9999MW1051REMSYN088AAXX  24124 02680 31470 81905 10183 20120 30072 40118 58004 70500 81107 333 81894 88299;EQDQ01  00002PRCP99
0165026800999992000062415004+56920+018150FM-12+003999999V0201701N00261075001CN0200001N1+01691+01381101111ADDGA1021+002509079GF108991021061002501001071MA1999999100651MD1810071+9999REMSYN082AAXX  24154 02680 42370 81705 10169 20138 30065 40111 58007 82607 333 82793 88299;
0214026800999992000062418004+56920+018150FM-12+003999999V0201601N00101030001CN0200001N1+01521+01471101031ADDAA199000091GA1011+002509079GF108991011061002501031071KA1120M+01881MA1999999100571MD1610081+9999REMSYN088AAXX  24184 02680 32370 81602 10152 20147 30057 40103 56008 81637 333 10188 81793 88299;EQDQ01  00002PRCP99
0171026800999992000062421004+56920+018150FM-12+003999999V0200601N001010003019N0002001N1+01321+01301100961ADDAY121031AY221031GA1091+999999999GF109991091999999999999999MA1999999100491MD1710081+9999MW1451REMSYN066AAXX  24214 02680 41/02 90602 10132 20130 30049 40096 57008 74522;
0223026800999992000062500004+56920+018150FM-12+003999999V0200901N002110300019N0030001N1+01431+01411100861ADDAA199000091AY141061AY221061GA1021+000609079GF107991021061000751071999MA1999999100401MD1710091+9999MW1101REMSYN088AAXX  25004 02680 31130 70904 10143 20141 30040 40086 57009 71042 8267/ 333 82702 87399;EQDQ01  00002PRCP99
0193026800999992000062503004+56920+018150FM-12+003999999V0201001N00151030001CN0045001N1+01411+01391100751ADDAY121031AY221031GA1021+002509079GF108991021071002501071999MA1999999100291MD1610111+9999MW1601REMSYN088AAXX  25034 02680 41345 81003 10141 20139 30029 40075 56011 76022 8277/ 333 82793 88399;
0241026800999992000062506004+56920+018150FM-12+003999999V0201201N00151009001CN0200001N1+01571+01491100651ADDAA112000191AY161061AY221061GA1031+004509089GF107991071081004501999999IA1019KA1120N+01321MA1999999100201MD1710091+9999MW1021REMSYN106AAXX  25064 02680 11470 71203 10157 20149 30020 40065 57009 69922 70262 878// 333 20132 30/// 83894 87695;
0165026800999992000062509004+56920+018150FM-12+003999999V0202001N00211030001CN0300001N1+01771+01341100691ADDGA1031+004509089GF105991031021004501031011MA1999999100241MD1010041+9999REMSYN082AAXX  25094 02680 42480 52004 10177 20134 30024 40069 50004 83231 333 83894 83398;
0170026800999992000062512004+56920+018150FM-12+003999999V0202301N003112200019N0350001N1+01901+00911100731ADDAA199000021GA1011+004509029GF102991011021004501031011MA1999999100211MD1210041+9999REMSYN076AAXX  25124 02680 32481 22306 10190 20091 30021 40073 52004 81231 333 81894;
0159026800999992000062515004+56920+018150FM-12+003999999V0202201N004112200019N0400001N1+01881+01031100721ADDGA1011+004509029GF101991011021004501001011MA1999999100271MD1110011+9999REMSYN076AAXX  25154 02680 42482 12208 10188 20103 30027 40072 51001 81201 333 81894;
0208026800999992000062518004+56920+018150FM-12+003999999V0202201N003112200019N0500001N1+01571+01101100731ADDAA199000091GA1011+004509029GF101991011011004501031011KA1120M+01951MA1999999100281MD1310011+9999REMSYN082AAXX  25184 02680 32484 12206 10157 20110 30028 40073 53001 81131 333 10195 81894;EQDQ01  00002PRCP99
0159026800999992000062521004+56920+018150FM-12+003999999V0202001N002612200019N0500001N1+01361+01341100721ADDGA1011+999999079GF101991011001999999071001MA1999999100271MD1810011+9999REMSYN076AAXX  25214 02680 42999 12005 10136 20134 30027 40072 58001 81070 333 81399;
0189026800999992000062600004+56920+018150FM-12+003999999V0202201N002110750019N0400001N1+01311+01291100651ADDAA199000091GA1011+004509029GF105991011011004501031011MA1999999100191MD1710081+9999REMSYN076AAXX  26004 02680 32482 52204 10131 20129 30019 40065 57008 81131 333 81894;EQDQ01  00002PRCP99
0159026800999992000062603004+56920+018150FM-12+003999999V0202301N002612200019N0450001N1+01251+01231100611ADDGA1011+004509029GF103991011021004501031011MA1999999100151MD1710041+9999REMSYN076AAXX  26034 02680 42483 32305 10125 20123 30015 40061 57004 81231 333 81894;
0226026800999992000062606004+56920+018150FM-12+003999999V0201801N001010750019N0700001N1+01511+01111100521ADDAA199000091GA1011+004509089GF105991011021004501031021IA1019KA1120N+01251MA1999999100071MD1710081+9999REMSYN094AAXX  26064 02680 32488 51802 10151 20111 30007 40052 57008 81232 333 20125 30/// 81894 83099;EQDQ01  00002PRCP99
0185026800999992000062609004+56920+018150FM-12+003999999V0201901N002112200019N0650001N1+01701+00971100501ADDGA1011+008009089GF104991011021008001001021MA1999999100051MD1710021+9999SA1+1669REMSYN094AAXX  26094 02680 42587 41904 10170 20097 30005 40050 57002 81202 222// 00166 333 81895 84099;
0195026800999992000062612004+56920+018150FM-12+003999999V0202101N002112200019N0550001N1+01801+00861100491ADDAA199000091GA1011+012509089GF101991011031012501001021MA1999999100041MD1710011+9999REMSYN082AAXX  26124 02680 32685 12104 10180 20086 30004 40049 57001 81302 333 81896 81996;EQDQ01  00002PRCP99
0159026800999992000062615004+56920+018150FM-12+003999999V0202001N002112200019N0500001N1+01791+00841100441ADDGA1011+012509029GF101991011021012501001031MA1999999099991MD1810051+9999REMSYN076AAXX  26154 02680 42684 12004 10179 20084 39999 40044 58005 81203 333 81896;
0214026800999992000062618004+56920+018150FM-12+003999999V0202301N001012200019N0500001N1+01591+01031100381ADDAA199000091GA1011+008009089GF101991011091008001001011KA1120M+01911MA1999999099931MD1710061+9999REMSYN088AAXX  26184 02680 32584 12302 10159 20103 39993 40038 57006 81901 333 10191 81895 81995;EQDQ01  00002PRCP99
0165026800999992000062621004+56920+018150FM-12+003999999V0209999C000012200019N0550001N1+01311+01291100371ADDGA1011+004509089GF101991011091004501071011MA1999999099911MD1810021+9999REMSYN082AAXX  26214 02680 42485 10000 10131 20129 39991 40037 58002 81971 333 81894 81994;
0195026800999992000062700004+56920+018150FM-12+003999999V0209999C000012200019N0550001N1+01181+01161100291ADDAA199000091GA1011+004509089GF101991011091004501031001MA1999999099831MD1710081+9999REMSYN082AAXX  27004 02680 32485 10000 10118 20116 39983 40029 57008 81930 333 81894 81994;EQDQ01  00002PRCP99
0193026800999992000062703004+56920+018150FM-12+003999999V0200501N001012200019N0550001N1+01081+01061100251ADDAY101031AY201031GA1011+004509089GF101991011031004501061001MA1999999099791MD1710041+9999MW1121REMSYN088AAXX  27034 02680 41485 10502 10108 20106 39979 40025 57004 71200 81360 333 81894 81994;
0220026800999992000062706004+56920+018150FM-12+003999999V0203201N000512200019N0550001N1+01481+01271100301ADDAA199000091GA1011+004509029GF104991021021004501091001IA1019KA1120N+01081MA1999999099841MD1110051+9999REMSYN088AAXX  27064 02680 32485 43201 10148 20127 39984 40030 51005 82290 333 20108 30/// 81894;EQDQ01  00002PRCP99
0159026800999992000062709004+56920+018150FM-12+003999999V0202701N001512200019N0650001N1+01711+01041100341ADDGA1031+004509029GF104991031021004501001021MA1999999099891MD1210051+9999REMSYN076AAXX  27094 02680 42487 42703 10171 20104 39989 40034 52005 83202 333 83894;
0195026800999992000062712004+56920+018150FM-12+003999999V0202801N002112200019N0700001N1+01811+00751100431ADDAA199000091GA1011+004509099GF103991021091004501061021MA1999999099981MD1110091+9999REMSYN082AAXX  27124 02680 32488 32804 10181 20075 39998 40043 51009 82962 333 81994 81894;EQDQ01  00002PRCP99
0187026800999992000062715004+56920+018150FM-12+003999999V0202901N00211030001CN0650001N1+01571+00931100471ADDGA1011+004509099GA2021+004509089GF106991031091004501061031MA1999999100021MD1210041+9999REMSYN088AAXX  27154 02680 42487 62904 10157 20093 30002 40047 52004 83963 333 81994 82894 84099;
0236026800999992000062718004+56920+018150FM-12+003999999V0203501N00151030001CN0700001N1+01441+01141100541ADDAA199000091GA1011+004509099GA2011+004509089GF107991011091004501091999KA1120M+01811MA1999999100091MD1110071+9999REMSYN094AAXX  27184 02680 32488 73503 10144 20114 30009 40054 51007 8199/ 333 10181 81894 81994 85399;EQDQ01  00002PRCP99
0193026800999992000062721004+56920+018150FM-12+003999999V0203601N00101004501CN0650001N1+01361+01071100661ADDAY121031AY221031GA1071+004509069GF108991071051004501071999MA1999999100201MD1110111+9999MW1151REMSYN088AAXX  27214 02680 41487 83602 10136 20107 30020 40066 51011 71522 8757/ 333 87694 88399;
0210026800999992000062800004+56920+018150FM-12+003999999V0200601N000510090019N0700001N1+01171+01161100701ADDAA106001091AY181061AY221061GA1011+004509089GF107991071081004501999999MA1999999100241MD1010041+9999MW1021REMSYN094AAXX  28004 02680 11488 70601 10117 20116 30024 40070 50004 60011 70282 878// 333 81894 88642;
0165026800999992000062803004+56920+018150FM-12+003999999V0200301N00051030001CN0750001N1+01121+01091100731ADDGA1011+004509069GF107991011051004501091999MA1999999100271MD1210031+9999REMSYN082AAXX  28034 02680 42489 70301 10112 20109 30027 40073 52003 8159/ 333 81694 87399;
0213026800999992000062806004+56920+018150FM-12+003999999V0200301N00151030001CN0750001N1+01321+00981100801ADDAA112001091GA1011+004509089GF106991011021004501091001IA1019KA1120N+01121MA1999999100341MD1110071+9999REMSYN100AAXX  28064 02680 12489 60303 10132 20098 30034 40080 51007 60012 81290 333 20112 30/// 81894 85399;
0185026800999992000062809004+56920+018150FM-12+003999999V0200501N00211030001CN0750001N1+01441+00641100881ADDGA1011+008009089GF106991011021008001091001MA1999999100421MD1210081+9999SA1+1309REMSYN094AAXX  28094 02680 42589 60504 10144 20064 30042 40088 52008 81290 222// 00130 333 81895 85399;
0210026800999992000062812004+56920+018150FM-12+003999999V0202801N00151004201CN0750001N1+01221+01211100971ADDAA106000191AY121061AY221061GA1011+004509089GF107991071091004501999999MA1999999100501MD1210081+9999MW1811REMSYN094AAXX  28124 02680 11489 72803 10122 20121 30050 40097 52008 69921 78122 879// 333 81894 86994;
0215026800999992000062815004+56920+018150FM-12+003999999V0203101N00101004501CN0650001N1+01411+01311100991ADDAY181031AY221031GA1011+002509089GA2061+004509069GF108991061081002501071999MA1999999100531MD1210031+9999MW1151REMSYN094AAXX  28154 02680 41387 83102 10141 20131 30053 40099 52003 71582 8687/ 333 81893 86694 88399;
0229026800999992000062818004+56920+018150FM-12+003999999V0203601N00051009001CN0750001N1+01421+01311101021ADDAA112002091AY181061AY221061GA1011+004509089GF107991061081004501071999KA1120M+01541MA1999999100561MD1210031+9999MW1021REMSYN100AAXX  28184 02680 11489 73601 10142 20131 30056 40102 52003 60022 70282 8687/ 333 10154 81894 86695;
0187026800999992000062821004+56920+018150FM-12+003999999V0203601N00101004201CN0750001N1+01331+01251101061ADDGA1051+004209069GA2011+004509089GF107991051081002501071999MA1999999100591MD1110031+9999REMSYN088AAXX  28214 02680 42389 73602 10133 20125 30059 40106 51003 8587/ 333 81894 85614 87399;
0170026800999992000062900004+56920+018150FM-12+003999999V0200201N002110066019N0700001N1+01331+01251101031ADDAA199000021GA1071+006609059GF107991071051008001999999MA1999999100561MD1810031+9999REMSYN076AAXX  29004 02680 32588 70204 10133 20125 30056 40103 58003 875// 333 87622;
0165026800999992000062903004+56920+018150FM-12+003999999V0200201N00101009001CN0700001N1+01261+01211100981ADDGA1011+004509089GF107991061081004501031001MA1999999100511MD1610051+9999REMSYN082AAXX  29034 02680 42488 70202 10126 20121 30051 40098 56005 86830 333 81894 86695;
0259026800999992000062906004+56920+018150FM-12+003999999V0203601N002110125019N0700001N1+01501+01211100951ADDAA199000091AJ199999999999999GA1051+012509059GF107991061081004501071001IA1259KA1120N+01261MA1999999100491MD1510021+9999REMSYN094AAXX  29064 02680 32488 73604 10150 20121 30049 40095 55002 86870 333 20126 30/// 41894 85696;EQDQ01  00002PRCP99Q02  08942SNDP  
0165026800999992000062909004+56920+018150FM-12+003999999V0203301N00261030001CN0700001N1+01501+01081100941ADDGA1011+004509089GF108991021081004501071999MA1999999100481MD1710011+9999REMSYN082AAXX  29094 02680 42488 83305 10150 20108 30048 40094 57001 8287/ 333 81894 88499;
0195026800999992000062912004+56920+018150FM-12+003999999V0203501N00361030001CN0700001N1+01481+00851100891ADDAA199000091GA1011+004509089GF108991011021004501071999MA1999999100431MD1710051+9999REMSYN082AAXX  29124 02680 32488 83507 10148 20085 30043 40089 57005 8127/ 333 81894 88399;EQDQ01  00002PRCP99
0193026800999992000062915004+56920+018150FM-12+003999999V0203501N00311030001CN0600001N1+01291+01021100861ADDAY121031AY221031GA1011+004509079GF108991011071004501071999MA1999999100401MD1710031+9999MW1611REMSYN088AAXX  29154 02680 41486 83506 10129 20102 30040 40086 57003 76122 8177/ 333 81794 88599;
0229026800999992000062918004+56920+018150FM-12+003999999V0202901N00311030001CN0200001N1+01361+01251100681ADDAA112002091AY121061AY221061GA1011+004509089GF108991011011004501071999KA1120M+01611MA1999999100221MD1810181+9999MW1631REMSYN100AAXX  29184 02680 11470 82906 10136 20125 30022 40068 58018 60022 76322 8117/ 333 10161 81894 88599;
0187026800999992000062921004+56920+018150FM-12+003999999V0202701N004610033019N0150001N1+01271+01251100411ADDAY161031AY261031GA1081+003309069GF108991081071004501999999MA1999999099951MD1710271+9999MW1611REMSYN082AAXX  29214 02680 41465 82709 10127 20125 39995 40041 57027 76166 887// 333 88711;
0204026800999992000063000004+56920+018150FM-12+003999999V0202701N005110012019N0100001N1+01231+01221100111ADDAA106011991AY161061AY261061GA1081+001209069GF108991081071001501999999MA1999999099651MD1810301+9999MW1631REMSYN088AAXX  30004 02680 11260 82710 10123 20122 39965 40011 58030 60121 76366 887// 333 88704;
0187026800999992000063003004+56920+018150FM-12+003999999V0202701N004610006019N0050001N1+01271+01251099861ADDAY161031AY261031GA1081+000609069GF108991081071000751999999MA1999999099421MD1610231+9999MW1631REMSYN082AAXX  30034 02680 41150 82709 10127 20125 39942 49986 56023 76366 887// 333 88702;
0235026800999992000063006004+56920+018150FM-12+003999999V0202601N003110003019N0025001N1+01301+01281099821ADDAA112016091AY161061AY261061GA1081+000309069GF108991081071000251999999IA1099KA1120N+01231MA1999999099361MD1510061+9999MW1511REMSYN100AAXX  30064 02680 11025 82606 10130 20128 39936 49982 55006 60162 75166 887// 333 20123 31/// 88701;
0207026800999992000063009004+56920+018150FM-12+003999999V0202301N003110006019N0160001N1+01301+01281099861ADDAY151031AY251031GA1081+000609069GF108991081061000751999999MA1999999099401MD1310041+9999MW1021SA1+1349REMSYN094AAXX  30094 02680 41166 82306 10130 20128 39940 49986 53004 70255 886// 222// 00134 333 88702;
0204026800999992000063012004+56920+018150FM-12+003999999V0202201N002610006019N0120001N1+01301+01281099971ADDAA106000591AY151061AY251061GA1081+000609069GF108991081061000751999999MA1999999099511MD1110111+9999MW1021REMSYN088AAXX  30124 02680 11162 82205 10130 20128 39951 49997 51011 69941 70255 886// 333 88702;
0187026800999992000063015004+56920+018150FM-12+003999999V0202001N001010003019N0025001N1+01321+01301099991ADDAY121031AY221031GA1081+000309069GF108991081061000251999999MA1999999099531MD1210021+9999MW1511REMSYN082AAXX  30154 02680 41025 82002 10132 20130 39953 49999 52002 75122 886// 333 88701;
0223026800999992000063018004+56920+018150FM-12+003999999V0201501N001510003019N0020001N1+01271+01251099951ADDAA112001091AY151061AY221061GA1081+000309069GF108991081061000251999999KA1120M+01321MA1999999099491MD1810041+9999MW1501REMSYN094AAXX  30184 02680 11020 81503 10127 20125 39949 49995 58004 60012 75052 886// 333 10132 88701;
0212026800999992000063021004+56920+018150FM-12+003999999V0201301N00311000601CN0045001N1+01211+01191099951ADDAY151031AY251031GA1011+000909079GF108991081061000751999999MA1999999099491MD1410001+9999MW1511REMSYN088AAXX  30214 02680 41145 81306 10121 20119 39949 49995 51000 75155 886// 333 81703 88705;EQDQ01+000012APCTEN
0204026800999992000070100004+56920+018150FM-12+003999999V0201201N006210015019N0100001N1+01231+01211099941ADDAA106000191AY151061AY251061GA1081+001509069GF108991081061001501999999MA1999999099481MD1610011+9999MW1021REMSYN088AAXX  01004 02680 11260 81212 10123 20121 39948 49994 56001 69911 70255 886// 333 88705;
0215026800999992000070103004+56920+018150FM-12+003999999V0201201N00771030001CN0100001N1+01181+01161099931ADDAY151031AY221031GA1011+001509079GA2031+004509099GF107991031091001501071021MA1999999099471MD1510011+9999MW1811REMSYN094AAXX  01034 02680 41260 71215 10118 20116 39947 49993 55001 78152 83972 333 81792 83994 84399;
0235026800999992000070106004+56920+018150FM-12+003999999V0201101N006710025019N0150001N1+01171+01161100101ADDAA112001091AY181061AY221061GA1081+002509069GF108991081071002501999999IA1099KA1120N+01151MA1999999099641MD1210171+9999MW1631REMSYN100AAXX  01064 02680 11365 81113 10117 20116 39964 40010 52017 60012 76382 887// 333 20115 31/// 88793;
0187026800999992000070109004+56920+018150FM-12+003999999V0200901N006210025019N0045001N1+01191+01171100361ADDAY161031AY261031GA1081+002509069GF108991081071002501999999MA1999999099901MD1210261+9999MW1621REMSYN082AAXX  01094 02680 41345 80912 10119 20117 39990 40036 52026 76266 887// 333 88793;
0210026800999992000070112004+56920+018150FM-12+003999999V0201001N00461002101CN0250001N1+01221+01181100551ADDAA106001091AY161061AY261061GA1011+002509079GF108991081071002501999999MA1999999100081MD1110181+9999MW1601REMSYN094AAXX  01124 02680 11375 81009 10122 20118 30008 40055 51018 60011 76066 887// 333 81793 88794;
0193026800999992000070115004+56920+018150FM-12+003999999V0200801N00411030001CN0400001N1+01241+01091100621ADDAY161031AY261031GA1021+004509089GF107991021021004501071999MA1999999101161MD1210081+9999MW1021REMSYN088AAXX  01154 02680 41482 70808 10124 20109 30116 40062 52008 70266 8227/ 333 82894 87398;
0223026800999992000070118004+56920+018150FM-12+003999999V0200401N004112200019N0450001N1+01331+01101100631ADDAA112002091AY161061AY221061GA1011+004509029GF102991011021004501031011KA1120M+01381MA1999999101171MD1010011+9999MW1011REMSYN094AAXX  01184 02680 11483 20408 10133 20110 30117 40063 50001 60022 70162 81231 333 10138 81894;
0178026800999992000070121004+56920+018150FM-12+003999999V0200501N001012200019N0350001N1+01101+01051100741ADDGA1011+004509029GF102991011011004501031021MA1999999100282MD1110111+9999REMSYN076AAXX  01214 02680 42481 20502 10110 20105 30028 40074 51011 81132 333 81894;EQDQ01+100283APOSP 
0170026800999992000070200004+56920+018150FM-12+003999999V0200201N002112200019N0300001N1+01031+01011100751ADDAA199000021GA1011+999999079GF101991011001999999031011MA1999999100291MD1210011+9999REMSYN076AAXX  02004 02680 32980 10204 10103 20101 30029 40075 52001 81031 333 81399;
0165026800999992000070203004+56920+018150FM-12+003999999V0203601N00261030001CN0300001N1+01131+01111100751ADDGA1011+004509089GF107991011021004501071999MA1999999100291MD1010001+9999REMSYN082AAXX  02034 02680 42480 73605 10113 20111 30029 40075 50000 8127/ 333 81894 87399;
0226026800999992000070206004+56920+018150FM-12+003999999V0203601N00261030001CN0300001N1+01301+01281100841ADDAA199000091GA1031+002509079GF106991031061002501031001IA1019KA1120N+01031MA1999999100381MD1310091+9999REMSYN094AAXX  02064 02680 32380 63605 10130 20128 30038 40084 53009 83630 333 20103 30/// 83793 84399;EQDQ01  00002PRCP99
0165026800999992000070209004+56920+018150FM-12+003999999V0203301N004112200019N0300001N1+01491+01121100971ADDGA1021+004509099GF104991021091004501031021MA1999999100501MD1210121+9999REMSYN082AAXX  02094 02680 42480 43308 10149 20112 30050 40097 52012 82932 333 82994 83099;
0195026800999992000070212004+56920+018150FM-12+003999999V0203301N004112200019N0300001N1+01571+01221101051ADDAA199000091GA1011+004509099GF104991011091004501031011MA1999999100581MD1210081+9999REMSYN082AAXX  02124 02680 32480 43308 10157 20122 30058 40105 52008 81931 333 81994 83399;EQDQ01  00002PRCP99
0159026800999992000070215004+56920+018150FM-12+003999999V0203301N003612200019N0300001N1+01571+01101101091ADDGA1021+004509099GF102991021091004501031011MA1999999100621MD1210041+9999REMSYN076AAXX  02154 02680 42480 23307 10157 20110 30062 40109 52004 82931 333 82994;
0214026800999992000070218004+56920+018150FM-12+003999999V0202901N00211030001CN0300001N1+01431+01311101121ADDAA199000091GA1011+004509089GF106991011021004501081011KA1120M+01651MA1999999100651MD1110031+9999REMSYN088AAXX  02184 02680 32480 62904 10143 20131 30065 40112 51003 81281 333 10165 81894 86399;EQDQ01  00002PRCP99
0165026800999992000070221004+56920+018150FM-12+003999999V0202901N001510300019N0400001N1+01281+01261101121ADDGA1011+004509069GF106991011051004501071001MA1999999100651MD1410001+9999REMSYN082AAXX  02214 02680 42482 62903 10128 20126 30065 40112 54000 81570 333 81694 83339;
0189026800999992000070300004+56920+018150FM-12+003999999V0203201N002119999999N0450001N1+01291+01271101041ADDAA199000091GA1071+999999079GF107991071001999999031999MA1999999100571MD1810081+9999REMSYN076AAXX  03004 02680 32983 73204 10129 20127 30057 40104 58008 8703/ 333 87399;EQDQ01  00002PRCP99
0159026800999992000070303004+56920+018150FM-12+003999999V0203001N002119999999N0600001N1+01311+01291101001ADDGA1051+999999079GF105991051001999999071001MA1999999100531MD1210041+9999REMSYN076AAXX  03034 02680 42986 53004 10131 20129 30053 40100 52004 85070 333 85399;
0220026800999992000070306004+56920+018150FM-12+003999999V0202701N003112200019N0550001N1+01521+01251100971ADDAA199000091GA1011+999999079GF101991011001999999031011IA1019KA1120N+01281MA1999999100511MD1710021+9999REMSYN088AAXX  03064 02680 32985 12706 10152 20125 30051 40097 57002 81031 333 20128 30/// 81399;EQDQ01  00002PRCP99
0159026800999992000070309004+56920+018150FM-12+003999999V0203001N004112200019N0500001N1+01741+01141101001ADDGA1011+999999079GF101991011001999999081001MA1999999100541MD1210031+9999REMSYN076AAXX  03094 02680 42984 13008 10174 20114 30054 40100 52003 81080 333 81399;
0189026800999992000070312004+56920+018150FM-12+003999999V0203101N003112200019N0500001N1+01941+00991101011ADDAA199000091GA1011+012509029GF101991011011012501031021MA1999999100551MD1210011+9999REMSYN076AAXX  03124 02680 32684 13106 10194 20099 30055 40101 52001 81132 333 81896;EQDQ01  00002PRCP99
0159026800999992000070315004+56920+018150FM-12+003999999V0202801N002112200019N0450001N1+02081+00561100951ADDGA1011+999999079GF101991011001999999031021MA1999999100511MD1810061+9999REMSYN076AAXX  03154 02680 42983 12804 10208 20056 30051 40095 58006 81032 333 81399;
0208026800999992000070318004+56920+018150FM-12+003999999V0202701N002612200019N0550001N1+01801+00941100941ADDAA199000091GA1011+999999079GF101991011001999999031001KA1120M+02141MA1999999100481MD1710031+9999REMSYN082AAXX  03184 02680 32985 12705 10180 20094 30048 40094 57003 81030 333 10214 81399;EQDQ01  00002PRCP99
0159026800999992000070321004+56920+018150FM-12+003999999V0202601N002112200019N0650001N1+01571+01131100951ADDGA1011+999999079GF101991011001999999031001MA1999999100491MD1010011+9999REMSYN076AAXX  03214 02680 42987 12604 10157 20113 30049 40095 50001 81030 333 81399;
0189026800999992000070400004+56920+018150FM-12+003999999V0202601N002112200019N0550001N1+01511+01211100941ADDAA199000091GA1011+999999079GF101991011001999999031011MA1999999100481MD1510011+9999REMSYN076AAXX  04004 02680 32985 12604 10151 20121 30048 40094 55001 81031 333 81399;EQDQ01  00002PRCP99
0159026800999992000070403004+56920+018150FM-12+003999999V0202701N001012200019N0550001N1+01481+01321100891ADDGA1011+999999079GF101991011001999999031011MA1999999100421MD1710061+9999REMSYN076AAXX  04034 02680 42985 12702 10148 20132 30042 40089 57006 81031 333 81399;
0220026800999992000070406004+56920+018150FM-12+003999999V0202001N001012200019N0450001N1+01701+01391100901ADDAA199000091GA1011+999999079GF101991011001999999081011IA1019KA1120N+01411MA1999999100441MD1310021+9999REMSYN088AAXX  04064 02680 32983 12002 10170 20139 30044 40090 53002 81081 333 20141 30/// 81399;EQDQ01  00002PRCP99
0187026800999992000070409004+56920+018150FM-12+003999999V0202001N001512200019N0400001N1+01851+01221100981ADDAY101031AY201031GA1011+008009029GF101991011021008001081091MA1999999100521MD1210081+9999MW1051REMSYN082AAXX  04094 02680 41582 12003 10185 20122 30052 40098 52008 70500 81289 333 81895;
0223026800999992000070412004+56920+018150FM-12+003999999V0202501N002112200019N0350001N1+01991+01171100981ADDAA199000091AY101061AY201061GA1011+008009089GF102991011091008001001021MA1999999100521MD1510001+9999MW1051REMSYN088AAXX  04124 02680 31581 22504 10199 20117 30052 40098 55000 70500 81902 333 81895 81995;EQDQ01  00002PRCP99
0193026800999992000070415004+56920+018150FM-12+003999999V0202201N001012200019N0350001N1+01961+00661100921ADDAY101031AY201031GA1011+012509089GF103991011021012501001021MA1999999100461MD1710061+9999MW1051REMSYN088AAXX  04154 02680 41681 32202 10196 20066 30046 40092 57006 70500 81202 333 81896 83099;
0208026800999992000070418004+56920+018150FM-12+003999999V0209999C000012200019N0700001N1+01801+00651100871ADDAA199000091GA1021+999999019GF102991001001999999001021KA1120M+02091MA1999999100411MD1710051+9999REMSYN082AAXX  04184 02680 32988 20000 10180 20065 30041 40087 57005 80002 333 10209 82099;EQDQ01  00002PRCP99
0189026800999992000070500004+56920+018150FM-12+003999999V0200501N001512200019N0750001N1+01481+01001100831ADDAA199000091GA1011+999999019GF102991011001999999011011MA1999999100381MD1010001+9999REMSYN076AAXX  05004 02680 32989 20503 10148 20100 30038 40083 50000 81011 333 81499;EQDQ01  00002PRCP99
0159026800999992000070503004+56920+018150FM-12+003999999V0200601N002119999999N0400001N1+01431+01381100751ADDGA1011+999999079GF105991051001999999091001MA1999999100301MD1710081+9999REMSYN076AAXX  05034 02680 42982 50604 10143 20138 30030 40075 57008 85090 333 81399;
0226026800999992000070506004+56920+018150FM-12+003999999V0200901N002619999999N0500001N1+01801+01181100681ADDAA199000091GA1011+025009039GF107991071001999999081001IA1019KA1120N+01371MA1999999100231MD1710071+9999REMSYN094AAXX  05064 02680 32984 70905 10180 20118 30023 40068 57007 87080 333 20137 30/// 81399 86399;EQDQ01  00002PRCP99
0213026800999992000070509004+56920+018150FM-12+003999999V0200901N003119999999N0350001N1+01951+01201100701ADDAY121031AY221031GA1011+025009039GF107991071001999999081001MA1999999100251MD1210021+9999MW1051SA1+1589REMSYN100AAXX  05094 02680 41981 70906 10195 20120 30025 40070 52002 70522 87080 222// 00158 333 81399 86399;
0217026800999992000070512004+56920+018150FM-12+003999999V0201301N003112200019N0400001N1+02051+01051100721ADDAA199000091AY121061AY211061GA1011+999999079GF102991011001999999081011MA1999999100281MD1110031+9999MW1051REMSYN082AAXX  05124 02680 31982 21306 10205 20105 30028 40072 51003 70521 81081 333 81399;EQDQ01  00002PRCP99
0187026800999992000070515004+56920+018150FM-12+003999999V0201301N002112200019N0400001N1+02011+01101100731ADDAY101031AY201031GA1011+012509029GF101991011021012501081011MA1999999100291MD1210011+9999MW1051REMSYN082AAXX  05154 02680 41682 11304 10201 20110 30029 40073 52001 70500 81281 333 81896;
0236026800999992000070518004+56920+018150FM-12+003999999V0201101N001512200019N0350001N1+01981+00821100781ADDAA199000091AY101061AY201061GA1011+012509029GF101991011021012501031011KA1120M+02211MA1999999100331MD1210041+9999MW1051REMSYN088AAXX  05184 02680 31681 11103 10198 20082 30033 40078 52004 70500 81231 333 10221 81896;EQDQ01  00002PRCP99
0159026800999992000070521004+56920+018150FM-12+003999999V0200301N001012200019N0300001N1+01601+01201100831ADDGA1011+999999079GF101991011001999999031001MA1999999100381MD1210031+9999REMSYN076AAXX  05214 02680 42980 10302 10160 20120 30038 40083 52003 81030 333 81399;
0189026800999992000070600004+56920+018150FM-12+003999999V0203401N001012200019N0200001N1+01491+01471100841ADDAA199000091GA1011+999999079GF101991011001999999031001MA1999999100391MD1310011+9999REMSYN076AAXX  06004 02680 32970 13402 10149 20147 30039 40084 53001 81030 333 81399;EQDQ01  00002PRCP99
0159026800999992000070603004+56920+018150FM-12+003999999V0203601N001012200019N0300001N1+01601+01041100871ADDGA1011+999999079GF101991011001999999031011MA1999999100421MD1210031+9999REMSYN076AAXX  06034 02680 42980 13602 10160 20104 30042 40087 52003 81031 333 81399;
0220026800999992000070606004+56920+018150FM-12+003999999V0203601N002119999999N0300001N1+01721+01331100971ADDAA199000091GA1041+999999079GF105991051001999999071001IA1019KA1120N+01471MA1999999100511MD1610091+9999REMSYN088AAXX  06064 02680 32980 53604 10172 20133 30051 40097 56009 85070 333 20147 30/// 84399;EQDQ01  00002PRCP99
0165026800999992000070609004+56920+018150FM-12+003999999V0203501N003110300019N0450001N1+01941+01141101061ADDGA1011+012509089GF106991011011012501071001MA1999999100601MD1210091+9999REMSYN082AAXX  06094 02680 42683 63506 10194 20114 30060 40106 52009 81170 333 81896 83399;
0189026800999992000070612004+56920+018150FM-12+003999999V0203401N002112200019N0400001N1+01931+01491101121ADDAA199000091GA1011+004509029GF104991011021004501071011MA1999999100661MD1210061+9999REMSYN076AAXX  06124 02680 32482 43404 10193 20149 30066 40112 52006 81271 333 81894;EQDQ01  00002PRCP99
0159026800999992000070615004+56920+018150FM-12+003999999V0202601N002112200019N0400001N1+01931+01531101161ADDGA1011+004509029GF104991011021004501071011MA1999999100701MD1210041+9999REMSYN076AAXX  06154 02680 42482 42604 10193 20153 30070 40116 52004 81271 333 81894;
0208026800999992000070618004+56920+018150FM-12+003999999V0202401N001512200019N0400001N1+01821+01281101161ADDAA199000091GA1011+999999079GF102991011001999999061011KA1120M+02041MA1999999100701MD1410001+9999REMSYN082AAXX  06184 02680 32982 22403 10182 20128 30070 40116 54000 81061 333 10204 81399;EQDQ01  00002PRCP99
0159026800999992000070621004+56920+018150FM-12+003999999V0202101N001012200019N0300001N1+01561+01541101141ADDGA1011+999999079GF102991011001999999071011MA1999999100681MD1810021+9999REMSYN076AAXX  06214 02680 42980 22102 10156 20154 30068 40114 58002 81071 333 81399;
0189026800999992000070700004+56920+018150FM-12+003999999V0203001N004112200019N0450001N1+01471+01051101151ADDAA199000091GA1011+999999079GF101991011001999999071011MA1999999100691MD1710011+9999REMSYN076AAXX  07004 02680 32983 13008 10147 20105 30069 40115 57001 81071 333 81399;EQDQ01  00002PRCP99
0189026800999992000070703004+56920+018150FM-12+003999999V0202901N003112200019N0650001N1+01361+00951101141ADDAA199000091GA1011+999999079GF102991011001999999031011MA1999999100671MD1710021+9999REMSYN076AAXX  07034 02680 32987 22906 10136 20095 30067 40114 57002 81031 333 81399;EQDQ01  00002PRCP99
0220026800999992000070706004+56920+018150FM-12+003999999V0202801N002612200019N0600001N1+01481+01071101101ADDAA199000091GA1011+004509029GF101991011011004501051011IA1019KA1120N+01361MA1999999100641MD1510031+9999REMSYN088AAXX  07064 02680 32486 12805 10148 20107 30064 40110 55003 81151 333 20136 30/// 81894;EQDQ01  00002PRCP99
0185026800999992000070709004+56920+018150FM-12+003999999V0202701N00311030001CN0550001N1+01601+00281101101ADDGA1011+012509089GF106991011021012501071001MA1999999100651MD1210011+9999SA1+1689REMSYN094AAXX  07094 02680 42685 62706 10160 20028 30065 40110 52001 81270 222// 00168 333 81896 85399;
0195026800999992000070712004+56920+018150FM-12+003999999V0202401N00411030001CN0650001N1+01541+00181101051ADDAA199000091GA1011+012509089GF107991011011012501071999MA1999999100591MD1710061+9999REMSYN082AAXX  07124 02680 32687 72408 10154 20018 30059 40105 57006 8117/ 333 81896 87399;EQDQ01  00002PRCP99
0165026800999992000070715004+56920+018150FM-12+003999999V0202401N004110175019N0550001N1+01501+00521100911ADDGA1011+012509089GF107991071081012501001011MA1999999100451MD1810141+9999REMSYN082AAXX  07154 02680 42685 72408 10150 20052 30045 40091 58014 87801 333 81896 87697;
0224026800999992000070718004+56920+018150FM-12+003999999V0202301N003610175019N0700001N1+01391+00791100791ADDAA199000091GA1071+017509059GF107991071051017501999001KA1120M+01831MA1999999100331MD1710121+9999REMSYN082AAXX  07184 02680 32788 72307 10139 20079 30033 40079 57012 87500 333 10183 87697;EQDQ01+000002SCOMCGQ02  00002PRCP99
0159026800999992000070721004+56920+018150FM-12+003999999V0202701N002110180019N0600001N1+01431+00151100721ADDGA1071+018009059GF107991071051017501999999MA1999999100271MD1810061+9999REMSYN076AAXX  07214 02680 42786 72704 10143 20015 30027 40072 58006 875// 333 87656;
0189026800999992000070800004+56920+018150FM-12+003999999V0202701N004110210019N0550001N1+01331+00571100671ADDAA199000091GA1071+021009059GF107991071051017501999999MA1999999100211MD1810061+9999REMSYN076AAXX  08004 02680 32785 72708 10133 20057 30021 40067 58006 875// 333 87657;EQDQ01  00002PRCP99
0178026800999992000070803004+56920+018150FM-12+003999999V0202801N003612200019N0550001N1+01231+00411100571ADDGA1011+008009029GF102991021081008001001001MA1999999100111MD1810101+9999REMSYN076AAXX  08034 02680 42585 22807 10123 20041 30011 40057 58100 82800 333 81895;EQDQ01+001002APC3  
0220026800999992000070806004+56920+018150FM-12+003999999V0202501N003112200019N0550001N1+01401+00451100511ADDAA199000091GA1011+008009029GF101991011081008001001001IA1019KA1120N+01231MA1999999100051MD1610061+9999REMSYN088AAXX  08064 02680 32585 12506 10140 20045 30005 40051 56006 81800 333 20123 30/// 81895;EQDQ01  00002PRCP99
0178026800999992000070809004+56920+018150FM-12+003999999V0202301N003612200019N0500001N1+01491+00611100521ADDGA1011+008009029GF104991999021008001001001MA1999999100071MD1210021+9999REMSYN076AAXX  08094 02680 42584 42307 10149 20061 30007 40052 52002 81200 333 81895;EQDQ01+000012SCOTLC
0189026800999992000070812004+56920+018150FM-12+003999999V0202501N003112200019N0500001N1+01611+00561100471ADDAA199000091GA1011+012509029GF102991011021012501071011MA1999999100021MD1710051+9999REMSYN076AAXX  08124 02680 32684 22506 10161 20056 30002 40047 57005 81271 333 81896;EQDQ01  00002PRCP99
0159026800999992000070815004+56920+018150FM-12+003999999V0202101N004112200019N0500001N1+01601+00521100441ADDGA1011+012509029GF101991011021012501031011MA1999999099991MD1710031+9999REMSYN076AAXX  08154 02680 42684 12108 10160 20052 39999 40044 57003 81231 333 81896;
0208026800999992000070818004+56920+018150FM-12+003999999V0202301N003612200019N0400001N1+01501+00851100401ADDAA199000091GA1011+999999079GF101991011001999999081041KA1120M+01731MA1999999099951MD1710041+9999REMSYN082AAXX  08184 02680 32982 12307 10150 20085 39995 40040 57004 81084 333 10173 81399;EQDQ01  00002PRCP99
0159026800999992000070821004+56920+018150FM-12+003999999V0202701N002112200019N0550001N1+01401+01081100371ADDGA1011+999999079GF101991011001999999081011MA1999999099921MD1710031+9999REMSYN076AAXX  08214 02680 42985 12704 10140 20108 39992 40037 57003 81081 333 81399;
0189026800999992000070900004+56920+018150FM-12+003999999V0202701N003112200019N0550001N1+01311+01011100361ADDAA199000091GA1011+999999079GF101991011001999999031011MA1999999099911MD1710011+9999REMSYN076AAXX  09004 02680 32985 12706 10131 20101 39991 40036 57001 81031 333 81399;EQDQ01  00002PRCP99
0159026800999992000070903004+56920+018150FM-12+003999999V0202801N00311075001CN0300001N1+01281+00941100321ADDGA1071+999999019GF107991001001999999001021MA1999999099861MD1710051+9999REMSYN076AAXX  09034 02680 42980 72806 10128 20094 39986 40032 57005 80002 333 87099;
0226026800999992000070906004+56920+018150FM-12+003999999V0202701N00261075001CN0700001N1+01391+00981100341ADDAA199000091GA1011+004509089GF105991011011004501001021IA1019KA1120N+01281MA1999999099881MD1210021+9999REMSYN094AAXX  09064 02680 32488 52705 10139 20098 39988 40034 52002 81102 333 20128 30/// 81894 85099;EQDQ01  00002PRCP99
0159026800999992000070909004+56920+018150FM-12+003999999V0202501N002612200019N0650001N1+01511+00791100351ADDGA1011+008009029GF101991011021008001031011MA1999999099901MD1110021+9999REMSYN076AAXX  09094 02680 42587 12505 10151 20079 39990 40035 51002 81231 333 81895;
0189026800999992000070912004+56920+018150FM-12+003999999V0202201N003112200019N0750001N1+01711+00681100321ADDAA199000091GA1011+008009029GF101991011021008001031001MA1999999099871MD1810031+9999REMSYN076AAXX  09124 02680 32589 12206 10171 20068 39987 40032 58003 81230 333 81895;EQDQ01  00002PRCP99
0159026800999992000070915004+56920+018150FM-12+003999999V0202101N003612200019N0700001N1+01711+00741100271ADDGA1011+008009029GF101991011021008001031021MA1999999099821MD1810051+9999REMSYN076AAXX  09154 02680 42588 12107 10171 20074 39982 40027 58005 81232 333 81895;
0208026800999992000070918004+56920+018150FM-12+003999999V0202101N002612200019N0600001N1+01471+01031100231ADDAA199000091GA1011+999999079GF102991011001999999031021KA1120M+01801MA1999999099771MD1710051+9999REMSYN082AAXX  09184 02680 32986 22105 10147 20103 39977 40023 57005 81032 333 10180 81399;EQDQ01  00002PRCP99
0159026800999992000070921004+56920+018150FM-12+003999999V0202101N002112200019N0500001N1+01281+01231100241ADDGA1011+004509029GF101991011011004501031021MA1999999099781MD1310011+9999REMSYN076AAXX  09214 02680 42484 12104 10128 20123 39978 40024 53001 81132 333 81894;
0189026800999992000071000004+56920+018150FM-12+003999999V0201901N002610033019N0400001N1+01281+01261100211ADDAA199000091GA1071+003309059GF107991071051004501999999MA1999999099751MD1710031+9999REMSYN076AAXX  10004 02680 32482 71905 10128 20126 39975 40021 57003 875// 333 87611;EQDQ01  00002PRCP99
0159026800999992000071003004+56920+018150FM-12+003999999V0201501N001510300019N0400001N1+01231+01211100141ADDGA1041+004509029GF105991041021004501031011MA1999999099681MD1610071+9999REMSYN076AAXX  10034 02680 42482 51503 10123 20121 39968 40014 56007 84231 333 84894;
0220026800999992000071006004+56920+018150FM-12+003999999V0201301N002112200019N0450001N1+01481+01321100091ADDAA199000091GA1011+004509029GF101991011011004501031001IA1019KA1120N+01201MA1999999099641MD1610041+9999REMSYN088AAXX  10064 02680 32483 11304 10148 20132 39964 40009 56004 81130 333 20120 30/// 81894;EQDQ01  00002PRCP99
0209026800999992000071009004+56920+018150FM-12+003999999V0201301N003112200019N0500001N1+01631+01151100081ADDAA199000091GA1011+004509029GF102991011011004501001051MA1999999099631MD1810011+9999SA1+1629REMSYN088AAXX  10094 02680 32484 21306 10163 20115 39963 40008 58001 81105 222// 00162 333 81894;EQDQ01  00002PRCP99
0189026800999992000071012004+56920+018150FM-12+003999999V0201301N004112200019N0500001N1+01681+00951100011ADDAA199000091GA1011+004509029GF102991011011008001031081MA1999999099561MD1710071+9999REMSYN076AAXX  10124 02680 32584 21308 10168 20095 39956 40001 57007 81138 333 81894;EQDQ01  00002PRCP99
0159026800999992000071015004+56920+018150FM-12+003999999V0201101N004112200019N0500001N1+01701+00841099901ADDGA1011+008009029GF103991011011008001071011MA1999999099451MD1610111+9999REMSYN076AAXX  10154 02680 42584 31108 10170 20084 39945 49990 56011 81171 333 81895;
0229026800999992000071018004+56920+018150FM-12+003999999V0200901N00411030001CN0300001N1+01471+01171099751ADDAA112000791AY111061AY201061GA1011+008009069GF108991011051008001021999KA1120M+01771MA1999999099301MD1710151+9999MW1611REMSYN100AAXX  10184 02680 11580 80908 10147 20117 39930 49975 57015 69902 76110 8152/ 333 10177 81695 88599;
0187026800999992000071021004+56920+018150FM-12+003999999V0201201N004110024019N0120001N1+01411+01391099701ADDAY161031AY261031GA1081+002409069GF108991081071002501999999MA1999999099251MD1710051+9999MW1631REMSYN082AAXX  10214 02680 41362 81208 10141 20139 39925 49970 57005 76366 887// 333 88708;
0204026800999992000071100004+56920+018150FM-12+003999999V0201801N002112200019N0200001N1+01391+01371099781ADDAA106005191AY161061AY261061GA1011+004509059GF101991011051004501071001MA1999999099321MD1110071+9999MW1011REMSYN088AAXX  11004 02680 11470 11804 10139 20137 39932 49978 51007 60051 70166 81570 333 81694;
0187026800999992000071103004+56920+018150FM-12+003999999V0201601N001512200019N0035001N1+01361+01341099851ADDAY101031AY201031GA1011+000259069GF102991011061000251071001MA1999999099391MD1210071+9999MW1101REMSYN082AAXX  11034 02680 41035 21603 10136 20134 39939 49985 52007 71000 81670 333 81790;
0213026800999992000071106004+56920+018150FM-12+003999999V0201301N00101030001CN0100001N1+01491+01471099961ADDAA112005191GA1041+000759079GF107991041061000751031001IA1099KA1120N+01361MA1999999099511MD1210121+9999REMSYN100AAXX  11064 02680 12160 71302 10149 20147 39951 49996 52012 60052 84630 333 20136 31/// 84791 85399;
0223026800999992000071112004+56920+018150FM-12+003999999V0201201N00311030001CN0050001N1+01591+01571100061ADDAA199000091AY121061AY221061GA1011+001509079GF108991011061001501031071MA1999999099611MD1210041+9999MW1101REMSYN088AAXX  11124 02680 31250 81206 10159 20157 39961 40006 52004 71022 81637 333 81792 88299;EQDQ01  00002PRCP99
0193026800999992000071115004+56920+018150FM-12+003999999V0201501N002619999999N0100001N1+01501+01481100081ADDAY121031AY221031GA1031+025009039GF108991081001999999071999MA1999999099631MD1210021+9999MW1611REMSYN088AAXX  11154 02680 41960 81505 10150 20148 39963 40008 52002 76122 8807/ 333 83399 88599;
0223026800999992000071118004+56920+018150FM-12+003999999V0201101N001519999999N0300001N1+01431+01411100041ADDAA112000891AY161061AY221061GA1071+999999079GF107991071001999999071999KA1120M+01601MA1999999099581MD1710051+9999MW1021REMSYN094AAXX  11184 02680 11980 71103 10143 20141 39958 40004 57005 69972 70262 8707/ 333 10160 87399;
0187026800999992000071121004+56920+018150FM-12+003999999V0200901N000510024019N0040001N1+01391+01371100041ADDAY121031AY221031GA1081+002409069GF108991081071002501999999MA1999999099581MD1510001+9999MW1631REMSYN082AAXX  11214 02680 41340 80901 10139 20137 39958 40004 55000 76322 887// 333 88708;
0210026800999992000071200004+56920+018150FM-12+003999999V0209999C000010006019N0040001N1+01371+01351099951ADDAA106003091AY161061AY221061GA1011+000759079GF108991081051000751999999MA1999999099491MD1810091+9999MW1101REMSYN094AAXX  12004 02680 11140 80000 10137 20135 39949 49995 58009 60031 71062 885// 333 81791 88656;
0165026800999992000071203004+56920+018150FM-12+003999999V0203601N00051030001CN0200001N1+01351+01331099891ADDGA1011+000759079GF108991011061000751071999MA1999999099431MD1610061+9999REMSYN082AAXX  12034 02680 42170 83601 10135 20133 39943 49989 56006 8167/ 333 81791 88399;
0235026800999992000071206004+56920+018150FM-12+003999999V0203401N00151075001CN0200001N1+01421+01421099791ADDAA112004191AY121061AY221061GA1081+999999029GF108991081001999999021999IA1099KA1120N+01351MA1999999099341MD1810091+9999MW1631REMSYN100AAXX  12064 02680 11970 83403 10142 20142 39934 49979 58009 60042 76322 8802/ 333 20135 31/// 88599;
0213026800999992000071209004+56920+018150FM-12+003999999V0203401N00361001501CN0050001N1+01381+01361099651ADDAY161031AY261031GA1071+001509079GF108991071071001501021999MA1999999099191MD1810151+9999MW1651SA1+1449REMSYN100AAXX  12094 02680 41250 83407 10138 20136 39919 49965 58015 76566 8772/ 222// 00144 333 87792 88598;
0204026800999992000071212004+56920+018150FM-12+003999999V0203201N005710006019N0049001N1+01401+01381099471ADDAA106042991AY161061AY261061GA1081+000609069GF108991081071000751999999MA1999999099021MD1810171+9999MW1651REMSYN088AAXX  12124 02680 11149 83211 10140 20138 39902 49947 58017 60431 76566 887// 333 88702;
0187026800999992000071215004+56920+018150FM-12+003999999V0203101N005710015019N0070001N1+01411+01391099471ADDAY161031AY261031GA1081+001509069GF108991081071001501999999MA1999999099021MD1510001+9999MW1631REMSYN082AAXX  12154 02680 41257 83111 10141 20139 39902 49947 55000 76366 887// 333 88792;
0229026800999992000071218004+56920+018150FM-12+003999999V0202701N00511002501CN0130001N1+01411+01391099611ADDAA112071191AY161061AY261061GA1061+002509079GF108991061071002501021999KA1120M+01441MA1999999099161MD1210141+9999MW1631REMSYN100AAXX  12184 02680 11363 82710 10141 20139 39916 49961 52014 60712 76366 8672/ 333 10144 86793 88598;
0193026800999992000071221004+56920+018150FM-12+003999999V0202501N00461030001CN0150001N1+01401+01381099631ADDAY161031AY261031GA1011+004509069GF108991011051004501021999MA1999999099181MD1110021+9999MW1611REMSYN088AAXX  12214 02680 41465 82509 10140 20138 39918 49963 51002 76166 8152/ 333 81694 88599;
0210026800999992000071300004+56920+018150FM-12+003999999V0202701N00411030001CN0200001N1+01421+01401099611ADDAA106007191AY161061AY261061GA1011+002409079GF108991011071002501021999MA1999999099161MD1810021+9999MW1611REMSYN094AAXX  13004 02680 11370 82708 10142 20140 39916 49961 58002 60071 76166 8172/ 333 81708 88557;
0193026800999992000071303004+56920+018150FM-12+003999999V0202701N00511030001CN0300001N1+01321+01241099611ADDAY161031AY261031GA1011+002509079GF108991011071002501071999MA1999999099151MD1710011+9999MW1611REMSYN088AAXX  13034 02680 41380 82710 10132 20124 39915 49961 57001 76166 8177/ 333 81793 88599;
0241026800999992000071306004+56920+018150FM-12+003999999V0202501N00511030001CN0450001N1+01331+01101099621ADDAA112008991AY161061AY261061GA1011+002509089GF108991011011002501071999IA1119KA1120N+01311MA1999999099161MD1010011+9999MW1021REMSYN106AAXX  13064 02680 11383 82510 10133 20110 39916 49962 50001 60092 70266 8117/ 333 20131 32/// 81893 88499;
0165026800999992000071309004+56920+018150FM-12+003999999V0202501N00621030001CN0450001N1+01431+00951099651ADDGA1011+004509089GF108991011011004501071071MA1999999099201MD1110041+9999REMSYN082AAXX  13094 02680 42483 82512 10143 20095 39920 49965 51004 81177 333 81894 88299;
0176026800999992000071312004+56920+018150FM-12+003999999V0202501N00621030001CN0500001N1+01531+00701099801ADDAA199000021GA1011+008009089GF107991011011008001071081MA1999999099351MD1310151+9999REMSYN082AAXX  13124 02680 32584 72512 10153 20070 39935 49980 53015 81178 333 81895 84499;
0165026800999992000071315004+56920+018150FM-12+003999999V0202301N00621075001CN0500001N1+01541+00771099831ADDGA1011+008009089GF105991011011008001071021MA1999999099381MD1210031+9999REMSYN082AAXX  13154 02680 42584 52312 10154 20077 39938 49983 52003 81172 333 81895 85099;
0214026800999992000071318004+56920+018150FM-12+003999999V0202301N005110300019N0550001N1+01411+00931099941ADDAA199000091GA1011+004509089GF105991011021004501081001KA1120M+01711MA1999999099491MD1210111+9999REMSYN088AAXX  13184 02680 32485 52310 10141 20093 39949 49994 52011 81280 333 10171 81894 83398;EQDQ01  00002PRCP99
0165026800999992000071321004+56920+018150FM-12+003999999V0202301N005710300019N0500001N1+01331+00831099971ADDGA1021+011709069GF105991021051012501071001MA1999999099511MD1110021+9999REMSYN082AAXX  13214 02680 42684 52311 10133 20083 39951 49997 51002 82570 333 82639 83399;
0189026800999992000071400004+56920+018150FM-12+003999999V0202401N005112200019N0550001N1+01281+00631099901ADDAA199000091GA1011+999999079GF101991011001999999071001MA1999999099441MD1710071+9999REMSYN076AAXX  14004 02680 32985 12410 10128 20063 39944 49990 57007 81070 333 81399;EQDQ01  00002PRCP99
0159026800999992000071403004+56920+018150FM-12+003999999V0202301N004112200019N0500001N1+01241+00791099951ADDGA1011+004509029GF101991011011004501081001MA1999999099491MD1110051+9999REMSYN076AAXX  14034 02680 42484 12308 10124 20079 39949 49995 51005 81180 333 81894;
0220026800999992000071406004+56920+018150FM-12+003999999V0202101N003612200019N0450001N1+01471+00971099971ADDAA199000091GA1011+004509029GF102991011011004501081001IA1019KA1120N+01241MA1999999099521MD1110031+9999REMSYN088AAXX  14064 02680 32483 22107 10147 20097 39952 49997 51003 81180 333 20124 30/// 81894;EQDQ01  00002PRCP99
0207026800999992000071409004+56920+018150FM-12+003999999V0202101N003112200019N0210001N1+01691+01261100011ADDAY111031AY201031GA1011+004509029GF101991011021004501031021MA1999999099561MD1010041+9999MW1051SA1+1349REMSYN094AAXX  14094 02680 41471 12106 10169 20126 39956 40001 50004 70510 81232 222// 00134 333 81894;
0217026800999992000071412004+56920+018150FM-12+003999999V0201901N002610025019N0060001N1+01671+01381100081ADDAA199000091AY111061AY201061GA1081+002509069GF108991081061002501999999MA1999999099631MD1310071+9999MW1101REMSYN082AAXX  14124 02680 31356 81905 10167 20138 39963 40008 53007 71010 886// 333 88793;EQDQ01  00002PRCP99
0187026800999992000071415004+56920+018150FM-12+003999999V0201801N002610025019N0045001N1+01631+01391100151ADDAY121031AY211031GA1071+002509069GF107991071061002501999999MA1999999099701MD1210071+9999MW1101REMSYN082AAXX  14154 02680 41345 71805 10163 20139 39970 40015 52007 71021 876// 333 87793;
0236026800999992000071418004+56920+018150FM-12+003999999V0201801N002612200019N0070001N1+01431+01381100171ADDAA199000091AY121061AY211061GA1021+999999019GF102991001001999999001021KA1120M+01741MA1999999099721MD1110021+9999MW1101REMSYN088AAXX  14184 02680 31957 21805 10143 20138 39972 40017 51002 71021 80002 333 10174 82099;EQDQ01  00002PRCP99
0187026800999992000071421004+56920+018150FM-12+003999999V0202001N001012200019N0090001N1+01301+01281100141ADDAY111031AY201031GA1021+002509069GF103991021061002501031011MA1999999099681MD1510041+9999MW1101REMSYN082AAXX  14214 02680 41359 32002 10130 20128 39968 40014 55004 71010 82631 333 82793;
0189026800999992000071500004+56920+018150FM-12+003999999V0202201N001010018019N0100001N1+01231+01221100151ADDAA199000091GA1081+001809069GF108991081061002501999999MA1999999099691MD1010011+9999REMSYN076AAXX  15004 02680 32360 82202 10123 20122 39969 40015 50001 886// 333 88706;EQDQ01  00002PRCP99
0159026800999992000071503004+56920+018150FM-12+003999999V0200401N000510025019N0100001N1+01221+01211100131ADDGA1071+002509069GF107991071061002501999999MA1999999099671MD1810021+9999REMSYN076AAXX  15034 02680 42360 70401 10122 20121 39967 40013 58002 876// 333 87793;
0248026800999992000071506004+56920+018150FM-12+003999999V0200501N001010025019N0060001N1+01331+01311100101ADDAA199000091AY121061AY221061GA1081+002509069GF108991081071002501999999IA1019KA1120N+01221MA1999999099641MD1710031+9999MW1101REMSYN094AAXX  15064 02680 31356 80502 10133 20131 39964 40010 57003 71022 887// 333 20122 30/// 88793;EQDQ01  00002PRCP99
0187026800999992000071509004+56920+018150FM-12+003999999V0203201N002110025019N0090001N1+01441+01171100101ADDAY121031AY221031GA1081+002509069GF108991081061002501999999MA1999999099641MD1410001+9999MW1101REMSYN082AAXX  15094 02680 41359 83204 10144 20117 39964 40010 54000 71022 886// 333 88793;
0223026800999992000071512004+56920+018150FM-12+003999999V0203401N00411030001CN0060001N1+01411+01291100111ADDAA199000091AY121061AY221061GA1011+004509089GF108991011021004501071999MA1999999099651MD1310011+9999MW1101REMSYN088AAXX  15124 02680 31456 83408 10141 20129 39965 40011 53001 71022 8127/ 333 81894 88399;EQDQ01  00002PRCP99
0229026800999992000071518004+56920+018150FM-12+003999999V0203001N00311030001CN0045001N1+01331+01311100211ADDAA112003091AY161061AY261061GA1021+004509079GF108991021071004501071999KA1120M+01481MA1999999099751MD1210031+9999MW1611REMSYN100AAXX  15184 02680 11445 83006 10133 20131 39975 40021 52003 60032 76166 8277/ 333 10148 82794 88399;
0204026800999992000071600004+56920+018150FM-12+003999999V0202601N002119999999N0090001N1+01341+01321100251ADDAA106001091AY161061AY261061GA1081+999999079GF108991081001999999071999MA1999999099791MD1610011+9999MW1101REMSYN088AAXX  16004 02680 11959 82604 10134 20132 39979 40025 56001 60011 71066 8807/ 333 88399;
0165026800999992000071603004+56920+018150FM-12+003999999V0203201N00261030001CN0300001N1+01301+01171100331ADDGA1041+004509069GF107991041051004501071999MA1999999099871MD1310081+9999REMSYN082AAXX  16034 02680 42480 73205 10130 20117 39987 40033 53008 8457/ 333 84694 86399;
0213026800999992000071606004+56920+018150FM-12+003999999V0202601N00211030001CN0400001N1+01381+01281100461ADDAA112002091GA1041+008009069GF107991041051008001071999IA1099KA1120N+01301MA1999999100001MD1210131+9999REMSYN100AAXX  16064 02680 12582 72604 10138 20128 30000 40046 52013 60022 8457/ 333 20130 31/// 84695 86399;
0165026800999992000071609004+56920+018150FM-12+003999999V0202301N002110300019N0250001N1+01691+01481100611ADDGA1011+004509089GF106991011021004501071001MA1999999100161MD1210161+9999REMSYN082AAXX  16094 02680 42475 62304 10169 20148 30016 40061 52016 81270 333 81894 83399;
0189026800999992000071612004+56920+018150FM-12+003999999V0202401N002112200019N0200001N1+01731+01381100721ADDAA199000091GA1011+004509029GF102991011021004501031021MA1999999100271MD1110111+9999REMSYN076AAXX  16124 02680 32470 22404 10173 20138 30027 40072 51011 81232 333 81894;EQDQ01  00002PRCP99
0159026800999992000071615004+56920+018150FM-12+003999999V0202101N002612200019N0300001N1+01771+01321100831ADDGA1011+004509029GF101991011011008001031021MA1999999100381MD1210111+9999REMSYN076AAXX  16154 02680 42580 12105 10177 20132 30038 40083 52011 81132 333 81894;
0208026800999992000071618004+56920+018150FM-12+003999999V0202201N002612200019N0300001N1+01571+01421100901ADDAA199000091GA1011+008009029GF101991011011008001001011KA1120M+01901MA1999999100441MD1210061+9999REMSYN082AAXX  16184 02680 32580 12205 10157 20142 30044 40090 52006 81101 333 10190 81895;EQDQ01  00002PRCP99
0159026800999992000071621004+56920+018150FM-12+003999999V0201701N002112200019N0300001N1+01401+01381101001ADDGA1011+008009029GF101991011011008001031011MA1999999100541MD1210101+9999REMSYN076AAXX  16214 02680 42580 11704 10140 20138 30054 40100 52010 81131 333 81895;
0189026800999992000071700004+56920+018150FM-12+003999999V0201901N002112200019N0300001N1+01351+01331101041ADDAA199000091GA1011+004509029GF101991011011004501031001MA1999999100571MD1110031+9999REMSYN076AAXX  17004 02680 32480 11904 10135 20133 30057 40104 51003 81130 333 81894;EQDQ01  00002PRCP99
0159026800999992000071703004+56920+018150FM-12+003999999V0202401N001012200019N0400001N1+01361+01341101021ADDGA1011+999999019GF101991001001999999001011MA1999999100551MD1610021+9999REMSYN076AAXX  17034 02680 42982 12402 10136 20134 30055 40102 56002 80001 333 81099;
0220026800999992000071706004+56920+018150FM-12+003999999V0203101N000512200019N0550001N1+01701+01191101051ADDAA199000091GA1011+999999079GF101991011001999999031011IA1019KA1120N+01341MA1999999100591MD1210041+9999REMSYN088AAXX  17064 02680 32985 13101 10170 20119 30059 40105 52004 81031 333 20134 30/// 81399;EQDQ01  00002PRCP99
0179026800999992000071709004+56920+018150FM-12+003999999V0202901N002612200019N0300001N1+01731+01431101021ADDGA1011+004509029GF101991011021004501031011MA1999999100561MD1610031+9999SA1+1629REMSYN088AAXX  17094 02680 42480 12905 10173 20143 30056 40102 56003 81231 222// 00162 333 81894;
0217026800999992000071712004+56920+018150FM-12+003999999V0203001N002110003019N0006001N1+01611+01511100931ADDAA199000091AY121061AY201061GA1061+000309069GF107991061061000251001011MA1999999100471MD1810091+9999MW1411REMSYN082AAXX  17124 02680 31006 73004 10161 20151 30047 40093 58009 74120 86601 333 86701;EQDQ01  00002PRCP99
0187026800999992000071715004+56920+018150FM-12+003999999V0203001N001510003019N0005001N1+01631+01531100881ADDAY141031AY211031GA1051+000309069GF105991011021000251001021MA1999999100421MD1710051+9999MW1411REMSYN082AAXX  17154 02680 41005 53003 10163 20153 30042 40088 57005 74141 81202 333 85701;
0236026800999992000071718004+56920+018150FM-12+003999999V0203201N001010003019N0007001N1+01511+01491100791ADDAA199000091AY141061AY211061GA1071+000309069GF107991071061000251999999KA1120M+01871MA1999999100341MD1810081+9999MW1411REMSYN088AAXX  17184 02680 31007 73202 10151 20149 30034 40079 58008 74141 876// 333 10187 87701;EQDQ01  00002PRCP99
0159026800999992000071721004+56920+018150FM-12+003999999V0203201N001012200019N0300001N1+01461+01441100761ADDGA1031+999999079GF103991031001999999031001MA1999999100311MD1710031+9999REMSYN076AAXX  17214 02680 42980 33202 10146 20144 30031 40076 57003 83030 333 83399;
0195026800999992000071800004+56920+018150FM-12+003999999V0203201N001510021019N0300001N1+01521+01501100621ADDAA199000091GA1011+002509079GF107991071051002501999999MA1999999100171MD1810141+9999REMSYN082AAXX  18004 02680 32380 73203 10152 20150 30017 40062 58014 875// 333 81793 87656;EQDQ01  00002PRCP99
0159026800999992000071803004+56920+018150FM-12+003999999V0203201N002610009019N0450001N1+01501+01481100551ADDGA1081+000909069GF108991081061000751999999MA1999999100101MD1610071+9999REMSYN076AAXX  18034 02680 42183 83205 10150 20148 30010 40055 56007 886// 333 88703;
0220026800999992000071806004+56920+018150FM-12+003999999V0203201N002610025019N0400001N1+01501+01481100541ADDAA199000091GA1071+002509069GF107991071061002501999999IA1019KA1120N+01461MA1999999100091MD1210011+9999REMSYN088AAXX  18064 02680 32382 73205 10150 20148 30009 40054 52001 876// 333 20146 30/// 87793;EQDQ01  00002PRCP99
0159026800999992000071809004+56920+018150FM-12+003999999V0203201N003110045019N0400001N1+01711+01521100531ADDGA1071+004509059GF107991071051004501999999MA1999999100081MD1810011+9999REMSYN076AAXX  18094 02680 42482 73206 10171 20152 30008 40053 58001 875// 333 87694;
0189026800999992000071812004+56920+018150FM-12+003999999V0203201N002610025019N0300001N1+01721+01441100521ADDAA199000091GA1071+002509069GF107991071061002501999999MA1999999100071MD1710011+9999REMSYN076AAXX  18124 02680 32380 73205 10172 20144 30007 40052 57001 876// 333 87793;EQDQ01  00002PRCP99
0159026800999992000071815004+56920+018150FM-12+003999999V0202601N001512200019N0300001N1+01731+01491100511ADDGA1011+002509069GF103991011021002501031011MA1999999100061MD1710011+9999REMSYN076AAXX  18154 02680 42380 32603 10173 20149 30006 40051 57001 81231 333 81793;
0214026800999992000071818004+56920+018150FM-12+003999999V0202401N00101030001CN0400001N1+01671+01601100461ADDAA199000091GA1021+008009089GF107991021021008001081999KA1120M+01831MA1999999100011MD1810051+9999REMSYN088AAXX  18184 02680 32582 72402 10167 20160 30001 40046 58005 8228/ 333 10183 82895 87399;EQDQ01  00002PRCP99
0178026800999992000071821004+56920+018150FM-12+003999999V0202801N001010225019N0400001N1+01561+01541100381ADDGA1081+022509079GF108991081999022501081999MA1999999099931MD1710081+9999REMSYN076AAXX  18214 02680 42882 82802 10156 20154 39993 40038 57008 8808/ 333 88398;EQDQ01+000002SCOLCG
0189026800999992000071900004+56920+018150FM-12+003999999V0202801N003119999999N0300001N1+01511+01491100301ADDAA199000091GA1081+999999079GF108991081001999999071999MA1999999099841MD1710091+9999REMSYN076AAXX  19004 02680 32980 82806 10151 20149 39984 40030 57009 8807/ 333 88399;EQDQ01  00002PRCP99
0165026800999992000071903004+56920+018150FM-12+003999999V0202801N00311030001CN0300001N1+01491+01471100221ADDGA1011+008009089GF107991011021008001081999MA1999999099771MD1710071+9999REMSYN082AAXX  19034 02680 42580 72806 10149 20147 39977 40022 57007 8128/ 333 81895 87399;
0248026800999992000071906004+56920+018150FM-12+003999999V0202701N00361030001CN0300001N1+01521+01411100211ADDAA199000091GA1011+002509079GA2031+004509069GF107991031051002501071001IA1019KA1120N+01491MA1999999099761MD1710011+9999REMSYN100AAXX  19064 02680 32380 72707 10152 20141 39976 40021 57001 83570 333 20149 30/// 81793 83694 86399;EQDQ01  00002PRCP99
0185026800999992000071909004+56920+018150FM-12+003999999V0202201N00311009001CN0400001N1+01641+01441100221ADDGA1011+004509089GF108991081081004501999999MA1999999099771MD1210011+9999SA1+1569REMSYN094AAXX  19094 02680 42482 82206 10164 20144 39977 40022 52001 888// 222// 00156 333 81894 88695;
0195026800999992000071912004+56920+018150FM-12+003999999V0202201N00461030001CN0350001N1+01661+01351100261ADDAA199000091GA1011+004509089GF108991011011004501071999MA1999999099811MD1110041+9999REMSYN082AAXX  19124 02680 32481 82209 10166 20135 39981 40026 51004 8117/ 333 81894 88399;EQDQ01  00002PRCP99
0165026800999992000071915004+56920+018150FM-12+003999999V0202201N00511009001CN0400001N1+01561+01311100321ADDGA1011+004509089GF107991061081004501071999MA1999999099871MD1310061+9999REMSYN082AAXX  19154 02680 42482 72210 10156 20131 39987 40032 53006 8687/ 333 81894 86695;
0214026800999992000071918004+56920+018150FM-12+003999999V0202201N00511030001CN0350001N1+01461+01351100371ADDAA199000091GA1011+002509089GF107991011011002501071999KA1120M+01771MA1999999099921MD1210051+9999REMSYN088AAXX  19184 02680 32381 72210 10146 20135 39992 40037 52005 8117/ 333 10177 81893 87399;EQDQ01  00002PRCP99
0159026800999992000071921004+56920+018150FM-12+003999999V0202001N004610054019N0300001N1+01421+01391100401ADDGA1081+005409059GF108991081051004501999999MA1999999099951MD1110031+9999REMSYN076AAXX  19214 02680 42480 82009 10142 20139 39995 40040 51003 885// 333 88618;
0204026800999992000072000004+56920+018150FM-12+003999999V0201801N003610003019N0015001N1+01381+01361100401ADDAA106000591AY121061AY221061GA1081+000309069GF108991081061000751999999MA1999999099951MD1010001+9999MW1531REMSYN088AAXX  20004 02680 11115 81807 10138 20136 39995 40040 50000 69951 75322 886// 333 88701;
0171026800999992000072003004+56920+018150FM-12+003999999V0202001N002110003019N0002001N1+01421+01421100401ADDAY151031AY251031GA1091+999999999GF109991091999999999999999MA1999999099951MD1410001+9999MW1451REMSYN066AAXX  20034 02680 41/02 92004 10142 20142 39995 40040 54000 74555;
0235026800999992000072006004+56920+018150FM-12+003999999V0201901N002110001519N0031001N1+01461+01441100491ADDAA112001091AY151061AY241061GA1081+000159069GF108991081061000251999999IA1099KA1120N+01381MA1999999100041MD1210091+9999MW1101REMSYN100AAXX  20064 02680 11031 81904 10146 20144 30004 40049 52009 69992 71054 886// 333 20138 31/// 88700;
0159026800999992000072009004+56920+018150FM-12+003999999V0202001N001510006019N0160001N1+01551+01531100611ADDGA1081+000609069GF108991081061000751999999MA1999999100161MD1310121+9999REMSYN076AAXX  20094 02680 42166 82003 10155 20153 30016 40061 53012 886// 333 88702;
0204026800999992000072012004+56920+018150FM-12+003999999V0202101N002110006019N0110001N1+01501+01481100761ADDAA106000191AY121061AY221061GA1081+000609069GF108991081071000751999999MA1999999100311MD1210151+9999MW1611REMSYN088AAXX  20124 02680 11161 82104 10150 20148 30031 40076 52015 69911 76122 887// 333 88702;
0187026800999992000072015004+56920+018150FM-12+003999999V0201901N003110006019N0160001N1+01411+01391100871ADDAY161031AY261031GA1081+000609069GF108991081071000751999999MA1999999100421MD1210111+9999MW1611REMSYN082AAXX  20154 02680 41166 81906 10141 20139 30042 40087 52011 76166 887// 333 88702;
0223026800999992000072018004+56920+018150FM-12+003999999V0201701N003110015019N0200001N1+01361+01341100981ADDAA112004191AY161061AY261061GA1081+001509069GF108991081071001501999999KA1120M+01611MA1999999100511MD1210091+9999MW1611REMSYN094AAXX  20184 02680 11270 81706 10136 20134 30051 40098 52009 60042 76166 887// 333 10161 88792;
0187026800999992000072021004+56920+018150FM-12+003999999V0201601N002610003019N0100001N1+01441+01421101101ADDAY161031AY261031GA1081+000309069GF108991081061000251999999MA1999999100631MD1210121+9999MW1021REMSYN082AAXX  20214 02680 41060 81605 10144 20142 30063 40110 52012 70266 886// 333 88701;
0204026800999992000072100004+56920+018150FM-12+003999999V0201301N003110003019N0150001N1+01341+01321101191ADDAA106000191AY161061AY261061GA1081+000309069GF108991081061000251999999MA1999999100721MD1110091+9999MW1021REMSYN088AAXX  21004 02680 11065 81306 10134 20132 30072 40119 51009 69921 70266 886// 333 88701;
0159026800999992000072103004+56920+018150FM-12+003999999V0201101N003110025019N0400001N1+01331+01311101261ADDGA1071+002509069GF107991071061002501999999MA1999999100791MD1310071+9999REMSYN076AAXX  21034 02680 42382 71106 10133 20131 30079 40126 53007 876// 333 87793;
0213026800999992000072106004+56920+018150FM-12+003999999V0200901N00361030001CN0400001N1+01411+01391101381ADDAA112000191GA1011+002509079GF107991021051002501071999IA1019KA1120N+01331MA1999999100921MD1310131+9999REMSYN100AAXX  21064 02680 12382 70907 10141 20139 30092 40138 53013 69922 8257/ 333 20133 30/// 81793 87399;
0185026800999992000072109004+56920+018150FM-12+003999999V0200901N00311030001CN0450001N1+01531+01421101511ADDGA1011+004509089GF108991011021004501071999MA1999999101051MD1210131+9999SA1+1469REMSYN094AAXX  21094 02680 42483 80906 10153 20142 30105 40151 52013 8127/ 222// 00146 333 81894 87399;
0195026800999992000072112004+56920+018150FM-12+003999999V0200801N00261009001CN0550001N1+01691+01341101631ADDAA199000091GA1011+004509089GF107991071081004501999999MA1999999101171MD1110121+9999REMSYN082AAXX  21124 02680 32485 70805 10169 20134 30117 40163 51012 878// 333 81894 87696;EQDQ01  00002PRCP99
0187026800999992000072115004+56920+018150FM-12+003999999V0200701N002112200019N0500001N1+01841+01121101681ADDAY121031AY211031GA1011+008009029GF102991021081008001001001MA1999999101221MD1110051+9999MW1401REMSYN082AAXX  21154 02680 41584 20704 10184 20112 30122 40168 51005 74021 82800 333 81895;
0242026800999992000072118004+56920+018150FM-12+003999999V0200501N00211021001CN0300001N1+01651+01361101741ADDAA199000091AY141061AY211061GA1011+022509039GF106991061001022501071001KA1120M+01881MA1999999101281MD1110061+9999MW1031REMSYN094AAXX  21184 02680 31880 60504 10165 20136 30128 40174 51006 70341 86070 333 10188 81398 85399;EQDQ01  00002PRCP99
0159026800999992000072121004+56920+018150FM-12+003999999V0200401N002112200019N0200001N1+01421+01401101751ADDGA1011+999999079GF101991011001999999071001MA1999999101291MD1110011+9999REMSYN076AAXX  21214 02680 42970 10404 10142 20140 30129 40175 51001 81070 333 81399;
0195026800999992000072200004+56920+018150FM-12+003999999V0203601N001010210019N0230001N1+01381+01361101741ADDAA199000091GA1071+021009039GF107991071001022501071999MA1999999101271MD1810021+9999REMSYN082AAXX  22004 02680 32873 73602 10138 20136 30127 40174 58002 8707/ 333 87357 87357;EQDQ01  00002PRCP99
0165026800999992000072203004+56920+018150FM-12+003999999V0203601N00151030001CN0210001N1+01331+01311101701ADDGA1011+001509079GF105991011061002501081001MA1999999101231MD1810041+9999REMSYN082AAXX  22034 02680 42371 53603 10133 20131 30123 40170 58004 81680 333 81792 85399;
0226026800999992000072206004+56920+018150FM-12+003999999V0200201N00151030001CN0200001N1+01491+01411101711ADDAA199000091GA1011+001509079GF107991011061001501081999IA1019KA1120N+01301MA1999999101251MD1610021+9999REMSYN094AAXX  22064 02680 32270 70203 10149 20141 30125 40171 56002 8168/ 333 20130 30/// 81792 87399;EQDQ01  00002PRCP99
0165026800999992000072209004+56920+018150FM-12+003999999V0203301N002110300019N0200001N1+01661+01541101721ADDGA1011+001509079GF105991031021001501031021MA1999999101261MD1110011+9999REMSYN082AAXX  22094 02680 42270 53304 10166 20154 30126 40172 51001 83232 333 81792 83894;
0195026800999992000072212004+56920+018150FM-12+003999999V0200201N00151030001CN0200001N1+01811+01511101721ADDAA199000091GA1041+004509089GF107991041021004501081999MA1999999101261MD1410001+9999REMSYN082AAXX  22124 02680 32470 70203 10181 20151 30126 40172 54000 8428/ 333 84894 84399;EQDQ01  00002PRCP99
0165026800999992000072215004+56920+018150FM-12+003999999V0200901N001512200019N0300001N1+02021+01361101681ADDGA1021+004509089GF104991021021004501081011MA1999999101231MD1710031+9999REMSYN082AAXX  22154 02680 42480 40903 10202 20136 30123 40168 57003 82281 333 82894 83899;
0214026800999992000072218004+56920+018150FM-12+003999999V0200701N00211030001CN0300001N1+01681+01581101701ADDAA199000091GA1011+001509079GF107991011021001501081011KA1120M+02051MA1999999101241MD1110011+9999REMSYN088AAXX  22184 02680 32280 70704 10168 20158 30124 40170 51001 81281 333 10205 81792 86399;EQDQ01  00002PRCP99
0171026800999992000072221004+56920+018150FM-12+003999999V0201201N001010003019N0002001N1+01441+01421101691ADDAY121031AY221031GA1091+999999999GF109991091999999999999999MA1999999101231MD1710011+9999MW1451REMSYN066AAXX  22214 02680 41/02 91202 10144 20142 30123 40169 57001 74522;
0181026800999992000072300004+56920+018150FM-12+003999999V0202201N001019999999N0002001N1+01421+01401999999ADDAA106000791AY141061AY221061GF108991999999999999999999MA1999999101101MD1810051+9999ME1311659MW1611REMSYN072AAXX  23004 02680 11/02 82202 10142 20140 30110 48165 58005 69901 76142;
0171026800999992000072303004+56920+018150FM-12+003999999V0202401N001010003019N0002001N1+01371+01351101591ADDAY161031AY241031GA1091+999999999GF109991091999999999999999MA1999999101121MD1710061+9999MW1451REMSYN066AAXX  23034 02680 41/02 92402 10137 20135 30112 40159 57006 74564;
0235026800999992000072306004+56920+018150FM-12+003999999V0202101N002110007519N0030001N1+01331+01311101541ADDAA112000391AY161061AY241061GA1081+000759069GF108991081061000751999999IA1099KA1120N+01331MA1999999101071MD1710051+9999MW1101REMSYN100AAXX  23064 02680 11130 82104 10133 20131 30107 40154 57005 69932 71064 886// 333 20133 31/// 88791;
0187026800999992000072309004+56920+018150FM-12+003999999V0202301N001510025019N0045001N1+01501+01371101521ADDAY121031AY221031GA1081+002509069GF108991081061002501999999MA1999999101061MD1810011+9999MW1101REMSYN082AAXX  23094 02680 41345 82303 10150 20137 30106 40152 58001 71022 886// 333 88793;
0198026800999992000072312004+56920+018150FM-12+003999999V0202001N002610015019N0030001N1+01511+01491101511ADDAA199000021AY121061AY221061GA1081+001509069GF108991081061001501999999MA1999999101051MD1710011+9999MW1101REMSYN082AAXX  23124 02680 31230 82005 10151 20149 30105 40151 57001 71022 886// 333 88792;
0187026800999992000072315004+56920+018150FM-12+003999999V0201901N002110007519N0025001N1+01511+01491101411ADDAY121031AY221031GA1081+000759069GF108991081061000751999999MA1999999100951MD1710101+9999MW1101REMSYN082AAXX  23154 02680 41125 81904 10151 20149 30095 40141 57010 71022 886// 333 88791;
0236026800999992000072318004+56920+018150FM-12+003999999V0202101N001510007519N0040001N1+01481+01461101381ADDAA199000091AY121061AY221061GA1081+000759069GF108991081061000751999999KA1120M+01601MA1999999100921MD1610031+9999MW1101REMSYN088AAXX  23184 02680 31140 82103 10148 20146 30092 40138 56003 71022 886// 333 10160 88791;EQDQ01  00002PRCP99
0187026800999992000072321004+56920+018150FM-12+003999999V0201801N002110006019N0030001N1+01421+01401101351ADDAY121031AY221031GA1081+000609069GF108991081061000751999999MA1999999100881MD1710041+9999MW1101REMSYN082AAXX  23214 02680 41130 81804 10142 20140 30088 40135 57004 71022 886// 333 88702;
0217026800999992000072400004+56920+018150FM-12+003999999V0202101N001510018019N0040001N1+01471+01451101251ADDAA199000091AY121061AY221061GA1081+001809069GF108991081061001501999999MA1999999100791MD1810091+9999MW1101REMSYN082AAXX  24004 02680 31240 82103 10147 20145 30079 40125 58009 71022 886// 333 88706;EQDQ01  00002PRCP99
0187026800999992000072403004+56920+018150FM-12+003999999V0202001N001010015019N0043001N1+01471+01431101231ADDAY121031AY221031GA1081+001509069GF108991081061001501999999MA1999999100771MD1610021+9999MW1101REMSYN082AAXX  24034 02680 41243 82002 10147 20143 30077 40123 56002 71022 886// 333 88792;
0248026800999992000072406004+56920+018150FM-12+003999999V0202501N000510025019N0048001N1+01501+01381101141ADDAA199000091AY121061AY221061GA1071+002509069GF107991071061002501999999IA1019KA1120N+01421MA1999999100681MD1710091+9999MW1101REMSYN094AAXX  24064 02680 31348 72501 10150 20138 30068 40114 57009 71022 876// 333 20142 30/// 87793;EQDQ01  00002PRCP99
0179026800999992000072409004+56920+018150FM-12+003999999V0201801N001010025019N0150001N1+01771+01301101111ADDGA1071+002509069GF107991071061002501999999MA1999999100651MD1810031+9999SA1+1549REMSYN088AAXX  24094 02680 42365 71802 10177 20130 30065 40111 58003 876// 222// 00154 333 87793;
0195026800999992000072412004+56920+018150FM-12+003999999V0202701N00101075001CN0210001N1+01651+01241101061ADDAA199000091GA1011+004509079GF108991011061004501001071MA1999999100601MD1710051+9999REMSYN082AAXX  24124 02680 32471 82702 10165 20124 30060 40106 57005 81607 333 81794 88299;EQDQ01  00002PRCP99
0165026800999992000072415004+56920+018150FM-12+003999999V0203201N00211075001CN0220001N1+01521+01361101011ADDGA1041+002509079GF108991041061002501001071MA1999999100551MD1710051+9999REMSYN082AAXX  24154 02680 42372 83204 10152 20136 30055 40101 57005 84607 333 84793 88299;
0242026800999992000072418004+56920+018150FM-12+003999999V0203301N00211001501CN0050001N1+01471+01451100941ADDAA199000091AY121061AY221061GA1061+001509079GF108991061061001501001071KA1120M+01831MA1999999100481MD1710071+9999MW1101REMSYN094AAXX  24184 02680 31250 83304 10147 20145 30048 40094 57007 71022 86607 333 10183 86792 88299;EQDQ01  00002PRCP99
0193026800999992000072421004+56920+018150FM-12+003999999V0203201N002110006019N0045001N1+01491+01471100901ADDAY121031AY221031GA1071+000609079GF108991071071000751001071MA1999999100441MD1710041+9999MW1101REMSYN088AAXX  24214 02680 41145 83204 10149 20147 30044 40090 57004 71022 87707 333 87702 88299;
0217026800999992000072500004+56920+018150FM-12+003999999V0203201N002612200019N0045001N1+01411+01391100801ADDAA199000091AY121061AY221061GA1011+001509069GF102991011061001501031001MA1999999100351MD1810091+9999MW1101REMSYN082AAXX  25004 02680 31245 23205 10141 20139 30035 40080 58009 71022 81630 333 81792;EQDQ01  00002PRCP99
0187026800999992000072503004+56920+018150FM-12+003999999V0203201N002610006019N0044001N1+01401+01381100711ADDAY121031AY201031GA1081+000609069GF108991081061001501999999MA1999999100261MD1710091+9999MW1101REMSYN082AAXX  25034 02680 41244 83205 10140 20138 30026 40071 57009 71020 886// 333 88702;
0220026800999992000072506004+56920+018150FM-12+003999999V0203501N003112200019N0130001N1+01591+01561100611ADDAA199000091GA1041+001509069GF104991041061001501031001IA1019KA1120N+01401MA1999999100161MD1710101+9999REMSYN088AAXX  25064 02680 32263 43506 10159 20156 30016 40061 57010 84630 333 20140 30/// 84792;EQDQ01  00002PRCP99
0159026800999992000072509004+56920+018150FM-12+003999999V0203201N003610025019N0200001N1+01631+01561100581ADDGA1081+002509069GF108991081061002501999999MA1999999100131MD1710031+9999REMSYN076AAXX  25094 02680 42370 83207 10163 20156 30013 40058 57003 886// 333 88793;
0195026800999992000072512004+56920+018150FM-12+003999999V0203501N00411030001CN0300001N1+01801+01371100461ADDAA199000091GA1011+004509089GF107991011021004501031021MA1999999100011MD1810121+9999REMSYN082AAXX  25124 02680 32480 73508 10180 20137 30001 40046 58012 81232 333 81894 86099;EQDQ01  00002PRCP99
0165026800999992000072515004+56920+018150FM-12+003999999V0203401N00411030001CN0350001N1+01831+01391100431ADDGA1011+004509089GF106991011021004501071011MA1999999099981MD1610031+9999REMSYN082AAXX  25154 02680 42481 63408 10183 20139 39998 40043 56003 81271 333 81894 85399;
0229026800999992000072518004+56920+018150FM-12+003999999V0203101N00311030001CN0350001N1+01611+01541100371ADDAA112000791AY121061AY221061GA1011+004509089GF107991011021004501071999KA1120M+01891MA1999999099921MD1610061+9999MW1611REMSYN100AAXX  25184 02680 11481 73106 10161 20154 39992 40037 56006 69902 76122 8127/ 333 10189 81894 87399;
0193026800999992000072521004+56920+018150FM-12+003999999V0203201N00311001201CN0048001N1+01501+01481100321ADDAY161031AY261031GA1011+001509079GF108991081071001501999999MA1999999099871MD1710051+9999MW1631REMSYN088AAXX  25214 02680 41248 83206 10150 20148 39987 40032 57005 76366 887// 333 81705 88709;
0204026800999992000072600004+56920+018150FM-12+003999999V0203201N003610012019N0100001N1+01441+01421100261ADDAA106007191AY161061AY261061GA1071+001209069GF108991071071001501999999MA1999999099811MD1710061+9999MW1601REMSYN088AAXX  26004 02680 11260 83207 10144 20142 39981 40026 57006 60071 76066 877// 333 87704;
0187026800999992000072603004+56920+018150FM-12+003999999V0203101N003610015019N0300001N1+01431+01411100171ADDAY161031AY261031GA1081+001509069GF108991081061001501999999MA1999999099721MD1710091+9999MW1021REMSYN082AAXX  26034 02680 41280 83107 10143 20141 39972 40017 57009 70266 886// 333 88792;
0235026800999992000072606004+56920+018150FM-12+003999999V0203101N001010001519N0007001N1+01541+01521100211ADDAA112014091AY161061AY241061GA1081+000159069GF108991081061000251999999IA1099KA1120N+01431MA1999999099761MD1110041+9999MW1411REMSYN100AAXX  26064 02680 11007 83102 10154 20152 39976 40021 51004 60142 74164 886// 333 20143 31/// 88700;
0207026800999992000072609004+56920+018150FM-12+003999999V0203301N001010003019N0009001N1+01541+01521100311ADDAY141031AY241031GA1081+000309069GF108991081061000251999999MA1999999099861MD1210101+9999MW1411SA1+1369REMSYN094AAXX  26094 02680 41009 83302 10154 20152 39986 40031 52010 74144 886// 222// 00136 333 88701;
0204026800999992000072612004+56920+018150FM-12+003999999V0209999C000010006019N0040001N1+01601+01581100411ADDAA106000591AY141061AY241061GA1081+000609069GF108991081061000751999999MA1999999099961MD1210101+9999MW1511REMSYN088AAXX  26124 02680 11140 80000 10160 20158 39996 40041 52010 69951 75144 886// 333 88702;
0187026800999992000072615004+56920+018150FM-12+003999999V0200301N001010006019N0050001N1+01641+01621100501ADDAY151031AY251031GA1081+000609069GF108991081061000751999999MA1999999100051MD1210091+9999MW1201REMSYN082AAXX  26154 02680 41150 80302 10164 20162 30005 40050 52009 72055 886// 333 88702;
0223026800999992000072618004+56920+018150FM-12+003999999V0200501N001010015019N0110001N1+01571+01551100611ADDAA112005191AY151061AY251061GA1081+001509069GF108991081071001501999999KA1120M+01701MA1999999100161MD1210111+9999MW1591REMSYN094AAXX  26184 02680 11261 80502 10157 20155 30016 40061 52011 60052 75955 887// 333 10170 88792;
0187026800999992000072621004+56920+018150FM-12+003999999V0209999C000010030019N0050001N1+01491+01471100701ADDAY151031AY251031GA1081+003009069GF108991081061004501999999MA1999999100251MD1110091+9999MW1101REMSYN082AAXX  26214 02680 41450 80000 10149 20147 30025 40070 51009 71055 886// 333 88710;
0210026800999992000072700004+56920+018150FM-12+003999999V0203601N00101002101CN0100001N1+01421+01401100731ADDAA106000191AY151061AY251061GA1041+002409069GF108991081051002501999999MA1999999100281MD1110031+9999MW1021REMSYN094AAXX  27004 02680 11360 83602 10142 20140 30028 40073 51003 69911 70255 885// 333 84608 88615;
0193026800999992000072703004+56920+018150FM-12+003999999V0203601N001010300019N0050001N1+01411+01391100771ADDAY121031AY221031GA1011+000609079GF108991011061000751071999MA1999999100321MD1310041+9999MW1101REMSYN088AAXX  27034 02680 41150 83602 10141 20139 30032 40077 53004 71022 8167/ 333 81702 88399;
0213026800999992000072706004+56920+018150FM-12+003999999V0203401N00151030001CN0300001N1+01431+01411100861ADDAA112000191GA1011+001509079GF108991011011001501091999IA1099KA1120N+01411MA1999999100411MD1110091+9999REMSYN100AAXX  27064 02680 12280 83403 10143 20141 30041 40086 51009 69912 8119/ 333 20141 31/// 81792 86399;
0165026800999992000072709004+56920+018150FM-12+003999999V0203301N00211006001CN0400001N1+01531+01511101001ADDGA1011+002509079GF108991081081002501999999MA1999999100541MD1310131+9999REMSYN082AAXX  27094 02680 42382 83304 10153 20151 30054 40100 53013 888// 333 81793 88695;
0195026800999992000072712004+56920+018150FM-12+003999999V0203301N00261002501CN0300001N1+01581+01551101041ADDAA199000091GA1051+002509079GF108991051061002501071999MA1999999100581MD1110041+9999REMSYN082AAXX  27124 02680 32380 83305 10158 20155 30058 40104 51004 8567/ 333 85793 88399;EQDQ01  00002PRCP99
0193026800999992000072715004+56920+018150FM-12+003999999V0203501N00211004501CN0300001N1+01541+01521101141ADDAY121031AY221031GA1051+004509069GF108991051051004501071999MA1999999100681MD1210101+9999MW1801REMSYN088AAXX  27154 02680 41480 83504 10154 20152 30068 40114 52010 78022 8557/ 333 85694 88399;
0229026800999992000072718004+56920+018150FM-12+003999999V0200201N00101009001CN0250001N1+01461+01441101111ADDAA112002091AY181061AY221061GA1011+004509089GF108991081081004501999999KA1120M+01651MA1999999100651MD1710031+9999MW1611REMSYN100AAXX  27184 02680 11475 80202 10146 20144 30065 40111 57003 60022 76182 888// 333 10165 81894 88695;
0193026800999992000072721004+56920+018150FM-12+003999999V0200201N001010042019N0150001N1+01361+01341101191ADDAY161031AY261031GA1011+004509069GF108991081051004501999999MA1999999100721MD1210071+9999MW1611REMSYN088AAXX  27214 02680 41465 80202 10136 20134 30072 40119 52007 76166 885// 333 81694 88621;
0210026800999992000072800004+56920+018150FM-12+003999999V0200201N00101000601CN0100001N1+01321+01301101131ADDAA106003091AY161061AY261061GA1011+000609079GF108991081051000751999999MA1999999100661MD1810061+9999MW1611REMSYN094AAXX  28004 02680 11160 80202 10132 20130 30066 40113 58006 60031 76166 885// 333 81702 88619;
0193026800999992000072803004+56920+018150FM-12+003999999V0200201N001010300019N0050001N1+01281+01261101091ADDAY161031AY261031GA1041+000909079GF108991041071000751071999MA1999999100621MD1810041+9999MW1631REMSYN088AAXX  28034 02680 41150 80202 10128 20126 30062 40109 58004 76366 8477/ 333 84703 88599;
0235026800999992000072806004+56920+018150FM-12+003999999V0200901N002110015019N0037001N1+01391+01371101081ADDAA112006191AY161061AY261061GA1081+001509069GF108991081061001501999999IA1099KA1120N+01281MA1999999100611MD1710011+9999MW1511REMSYN100AAXX  28064 02680 11237 80904 10139 20137 30061 40108 57001 60062 75166 886// 333 20128 31/// 88792;
0213026800999992000072809004+56920+018150FM-12+003999999V0200501N00261030001CN0400001N1+01651+01341101101ADDAY151031AY251031GA1011+004509089GF107991011021004501071999MA1999999100641MD1110031+9999MW1011SA1+1549REMSYN100AAXX  28094 02680 41482 70505 10165 20134 30064 40110 51003 70155 8127/ 222// 00154 333 81894 87499;
0210026800999992000072812004+56920+018150FM-12+003999999V0200901N002112200019N0500001N1+01891+00701101101ADDAA106000191AY151061AY251061GA1011+012509089GF104991011081012501071011MA1999999100641MD1410001+9999MW1011REMSYN094AAXX  28124 02680 11684 40904 10189 20070 30064 40110 54000 69911 70155 81871 333 81896 83399;
0159026800999992000072815004+56920+018150FM-12+003999999V0200901N001512200019N0500001N1+01811+00201101111ADDGA1011+017509029GF102991011011017501081001MA1999999100651MD1210011+9999REMSYN076AAXX  28154 02680 42784 20903 10181 20020 30065 40111 52001 81180 333 81897;
0195026800999992000072818004+56920+018150FM-12+003999999V0209999C000012200019N0500001N1+01611+01021101101ADDAA112000191GA1011+999999079GF101991011001999999071001KA1120M+01891MA1999999100641MD1510011+9999REMSYN088AAXX  28184 02680 12984 10000 10161 20102 30064 40110 55001 69912 81070 333 10189 81399;
0159026800999992000072821004+56920+018150FM-12+003999999V0209999C000012200019N0550001N1+01301+00851101121ADDGA1011+999999079GF101991011001999999031001MA1999999100651MD1010011+9999REMSYN076AAXX  28214 02680 42985 10000 10130 20085 30065 40112 50001 81030 333 81399;
0189026800999992000072900004+56920+018150FM-12+003999999V0203401N000512200019N0500001N1+01241+01221101081ADDAA199000091GA1011+999999079GF101991011001999999031001MA1999999100611MD1710041+9999REMSYN076AAXX  29004 02680 32984 13401 10124 20122 30061 40108 57004 81030 333 81399;EQDQ01  00002PRCP99
0159026800999992000072903004+56920+018150FM-12+003999999V0203201N000519999999N0550001N1+01301+01251101061ADDGA1041+999999079GF105991051001999999071001MA1999999100591MD1610021+9999REMSYN076AAXX  29034 02680 42985 53201 10130 20125 30059 40106 56002 85070 333 84399;
0220026800999992000072906004+56920+018150FM-12+003999999V0203201N001019999999N0550001N1+01581+01381101041ADDAA199000091GA1061+999999079GF106991061001999999031001IA1019KA1120N+01241MA1999999100581MD1710011+9999REMSYN088AAXX  29064 02680 32985 63202 10158 20138 30058 40104 57001 86030 333 20124 30/// 86399;EQDQ01  00002PRCP99
0165026800999992000072909004+56920+018150FM-12+003999999V0203301N001012200019N0650001N1+01781+00961101041ADDGA1011+004509089GF104991011021004501031001MA1999999100581MD1410001+9999REMSYN082AAXX  29094 02680 42487 43302 10178 20096 30058 40104 54000 81230 333 81894 84399;
0195026800999992000072912004+56920+018150FM-12+003999999V0203201N001512200019N0650001N1+01881+01031101041ADDAA199000091GA1011+004509089GF104991021021004501031011MA1999999100581MD1410001+9999REMSYN082AAXX  29124 02680 32487 43203 10188 20103 30058 40104 54000 82231 333 81894 83399;EQDQ01  00002PRCP99
0165026800999992000072915004+56920+018150FM-12+003999999V0203301N00151030001CN0650001N1+01831+00961101081ADDGA1011+004509089GF106991011021004501071011MA1999999100611MD1210031+9999REMSYN082AAXX  29154 02680 42487 63303 10183 20096 30061 40108 52003 81271 333 81894 86399;
0224026800999992000072918004+56920+018150FM-12+003999999V0203501N001512200019N0750001N1+01681+00681101081ADDAA199000091GA1011+022509079GF101991011999022501071011KA1120M+01901MA1999999100611MD1410001+9999REMSYN082AAXX  29184 02680 32889 13503 10168 20068 30061 40108 54000 81071 333 10190 81398;EQDQ01+000002SCOLCGQ02  00002PRCP99
0178026800999992000072921004+56920+018150FM-12+003999999V0203601N001512200019N0650001N1+01381+01361101131ADDGA1011+022509079GF101991011999022501071011MA1999999100661MD1210051+9999REMSYN076AAXX  29214 02680 42887 13603 10138 20136 30066 40113 52005 81071 333 81398;EQDQ01+000002SCOLCG
0173026800999992000073000004+56920+018150FM-12+003999999V0200201N001012200019N0650001N1+01291+01271101131ADDAA199000091GA1001+999999999GF100991001001999999001001MA1999999100661MD1410001+9999REMSYN060AAXX  30004 02680 32987 00202 10129 20127 30066 40113 54000;EQDQ01  00002PRCP99
0159026800999992000073003004+56920+018150FM-12+003999999V0203601N001012200019N0650001N1+01201+01181101131ADDGA1011+004509059GF101991011051004501001011MA1999999100661MD1410001+9999REMSYN076AAXX  30034 02680 42487 13602 10120 20118 30066 40113 54000 81501 333 81694;
0220026800999992000073006004+56920+018150FM-12+003999999V0203301N000512200019N0650001N1+01561+01151101151ADDAA199000091GA1011+004509029GF101991011011004501001011IA1019KA1120N+01201MA1999999100691MD1310031+9999REMSYN088AAXX  30064 02680 32487 13301 10156 20115 30069 40115 53003 81101 333 20120 30/// 81894;EQDQ01  00002PRCP99
0159026800999992000073009004+56920+018150FM-12+003999999V0202001N001012200019N0650001N1+01721+01331101211ADDGA1011+004509029GF101991011021004501001011MA1999999100751MD1210061+9999REMSYN076AAXX  30094 02680 42487 12002 10172 20133 30075 40121 52006 81201 333 81894;
0189026800999992000073012004+56920+018150FM-12+003999999V0202101N002112200019N0750001N1+01871+01221101231ADDAA199000091GA1011+004509029GF101991011021004501081011MA1999999100771MD1110021+9999REMSYN076AAXX  30124 02680 32489 12104 10187 20122 30077 40123 51002 81281 333 81894;EQDQ01  00002PRCP99
0165026800999992000073015004+56920+018150FM-12+003999999V0201801N002112200019N0750001N1+01851+01471101261ADDGA1011+004509089GF104991011021004501081011MA1999999100801MD1210031+9999REMSYN082AAXX  30154 02680 42489 41804 10185 20147 30080 40126 52003 81281 333 81894 84398;
0208026800999992000073018004+56920+018150FM-12+003999999V0201501N002112200019N0500001N1+01731+01641101241ADDAA199000091GA1011+004509029GF101991011021004501081011KA1120M+01941MA1999999100781MD1810021+9999REMSYN082AAXX  30184 02680 32484 11504 10173 20164 30078 40124 58002 81281 333 10194 81894;EQDQ01  00002PRCP99
0159026800999992000073021004+56920+018150FM-12+003999999V0202101N001012200019N0400001N1+01601+01581101251ADDGA1011+004509059GF101991011051004501031001MA1999999100791MD1310011+9999REMSYN076AAXX  30214 02680 42482 12102 10160 20158 30079 40125 53001 81530 333 81694;
0189026800999992000073100004+56920+018150FM-12+003999999V0203101N002112200019N0500001N1+01681+01171101291ADDAA199000091GA1021+008009059GF102991021051008001001001MA1999999100831MD1110041+9999REMSYN076AAXX  31004 02680 32584 23104 10168 20117 30083 40129 51004 82500 333 82695;EQDQ01  00002PRCP99
0159026800999992000073103004+56920+018150FM-12+003999999V0203301N002112200019N0500001N1+01561+01511101331ADDGA1011+004509059GF101991011051004501081011MA1999999100871MD1210041+9999REMSYN076AAXX  31034 02680 42484 13304 10156 20151 30087 40133 52004 81581 333 81694;
0254026800999992000073106004+56920+018150FM-12+003999999V0202901N003612200019N0400001N1+01671+01461101431ADDAA112000191AY181061AY201061GA1031+002109019GF199999011001999999081001IA1019KA1120N-00801MA1999999100971MD1210101+9999MW1021REMSYN100AAXX  31064 02680 11982 12907 10167 20146 30097 40143 52010 69922 70280 81080 333 21080 30/// 83007;EQDQ01+000012SCOTCV
0207026800999992000073109004+56920+018150FM-12+003999999V0202701N003112200019N0350001N1+01841+01331101511ADDAY101031AY201031GA1011+999999079GF101991011001999999081001MA1999999101051MD1210081+9999MW1051SA1+1669REMSYN094AAXX  31094 02680 41981 12706 10184 20133 30105 40151 52008 70500 81080 222// 00166 333 81399;
0217026800999992000073112004+56920+018150FM-12+003999999V0202501N003612200019N0350001N1+01891+01311101561ADDAA199000091AY101061AY201061GA1011+008009029GF101991011011008001031001MA1999999101101MD1210051+9999MW1051REMSYN082AAXX  31124 02680 31581 12507 10189 20131 30110 40156 52005 70500 81130 333 81895;EQDQ01  00002PRCP99
0187026800999992000073115004+56920+018150FM-12+003999999V0202301N003612200019N0400001N1+01901+01401101551ADDAY101031AY201031GA1011+999999079GF101991011001999999031001MA1999999101091MD1810011+9999MW1051REMSYN082AAXX  31154 02680 41982 12307 10190 20140 30109 40155 58001 70500 81030 333 81399;
0208026800999992000073118004+56920+018150FM-12+003999999V0202301N003112200019N0500001N1+01731+01501101521ADDAA199000091GA1011+999999079GF101991011001999999031001KA1120M+01981MA1999999101061MD1610031+9999REMSYN082AAXX  31184 02680 32984 12306 10173 20150 30106 40152 56003 81030 333 10198 81399;EQDQ01  00002PRCP99
0143026800999992000073121004+56920+018150FM-12+003999999V0202301N001512200019N0450001N1+01621+01601101461ADDGA1001+999999999GF100991001001999999001001MA1999999101001MD1710061+9999REMSYN060AAXX  31214 02680 42983 02303 10162 20160 30100 40146 57006;
0173026800999992000080100004+56920+018150FM-12+003999999V0202901N002612200019N0500001N1+01601+01491101591ADDAA199000091GA1001+999999999GF100991001001999999001001MA1999999101131MD1210131+9999REMSYN060AAXX  01004 02680 32984 02905 10160 20149 30113 40159 52013;EQDQ01  00002PRCP99
0159026800999992000080103004+56920+018150FM-12+003999999V0203001N002112200019N0500001N1+01561+01511101581ADDGA1011+999999079GF101991011001999999081001MA1999999101121MD1710011+9999REMSYN076AAXX  01034 02680 42984 13004 10156 20151 30112 40158 57001 81080 333 81399;
0220026800999992000080106004+56920+018150FM-12+003999999V0203001N003112200019N0500001N1+01691+01431101621ADDAA199000091GA1011+002509069GF101991011061002501031001IA1019KA1120N+01561MA1999999101161MD1310041+9999REMSYN088AAXX  01064 02680 32384 13006 10169 20143 30116 40162 53004 81630 333 20156 30/// 81793;EQDQ01  00002PRCP99
0159026800999992000080109004+56920+018150FM-12+003999999V0203001N002612200019N0500001N1+01821+01321101671ADDGA1011+002509069GF101991011061002501001021MA1999999101211MD1110051+9999REMSYN076AAXX  01094 02680 42384 13005 10182 20132 30121 40167 51005 81602 333 81793;
0189026800999992000080112004+56920+018150FM-12+003999999V0202501N001012200019N0600001N1+01801+01061101701ADDAA199000091GA1011+004509029GF102991011011004501001021MA1999999101241MD1210031+9999REMSYN076AAXX  01124 02680 32486 22502 10180 20106 30124 40170 52003 81102 333 81894;EQDQ01  00002PRCP99
0159026800999992000080115004+56920+018150FM-12+003999999V0202101N003112200019N0400001N1+01901+01381101631ADDGA1011+999999079GF102991011001999999031021MA1999999101171MD1710071+9999REMSYN076AAXX  01154 02680 42982 22106 10190 20138 30117 40163 57007 81032 333 81399;
0208026800999992000080118004+56920+018150FM-12+003999999V0202501N003112200019N0300001N1+01741+01631101561ADDAA199000091GA1011+999999079GF102991021001999999081001KA1120M+01941MA1999999101101MD1610071+9999REMSYN082AAXX  01184 02680 32980 22506 10174 20163 30110 40156 56007 82080 333 10194 81399;EQDQ01  00002PRCP99
0159026800999992000080121004+56920+018150FM-12+003999999V0202501N003110080019N0200001N1+01671+01641101561ADDGA1081+008009059GF108991081051999999999999MA1999999101101MD1410001+9999REMSYN076AAXX  01214 02680 42970 82506 10167 20164 30110 40156 54000 885// 333 88695;
0158026800999992000080200004+56920+018150FM-12+003999999V0203301N002612200019N0300001N1+01591+01571101471ADDAA199000091GF101991999999012501999999MD1810091+9999REMSYN060AAXX  02004 02680 32680 13305 10159 20157 30001 40147 58009;EQDQ01+100013APOSP Q02  00002PRCP99
0159026800999992000080203004+56920+018150FM-12+003999999V0202501N002612200019N0300001N1+01601+01561101401ADDGA1011+999999079GF101991011001999999071001MA1999999100941MD1710071+9999REMSYN076AAXX  02034 02680 42980 12505 10160 20156 30094 40140 57007 81070 333 81399;
0220026800999992000080206004+56920+018150FM-12+003999999V0202501N002112200019N0350001N1+01721+01541101361ADDAA199000091GA1011+002509029GF102991011011002501031051IA1019KA1120N+01571MA1999999100901MD1710041+9999REMSYN088AAXX  02064 02680 32381 22504 10172 20154 30090 40136 57004 81135 333 20157 30/// 81893;EQDQ01  00002PRCP99
0185026800999992000080209004+56920+018150FM-12+003999999V0202501N00151075001CN0210001N1+01811+01481101331ADDGA1011+004509089GF106991011011004501071061MA1999999100871MD1810031+9999SA1+1909REMSYN094AAXX  02094 02680 42471 62503 10181 20148 30087 40133 58003 81176 222// 00190 333 81894 86299;
0189026800999992000080212004+56920+018150FM-12+003999999V0201801N001010025019N0140001N1+01761+01681101311ADDAA199000091GA1081+002509069GF108991081061002501999999MA1999999100851MD1710021+9999REMSYN076AAXX  02124 02680 32364 81802 10176 20168 30085 40131 57002 886// 333 88793;EQDQ01  00002PRCP99
0193026800999992000080215004+56920+018150FM-12+003999999V0201901N00211002501CN0200001N1+01691+01671101251ADDAY121031AY221031GA1061+002509079GF108991061061002501021999MA1999999100791MD1710061+9999MW1211REMSYN088AAXX  02154 02680 41370 81904 10169 20167 30079 40125 57006 72122 8662/ 333 86793 88599;
0229026800999992000080218004+56920+018150FM-12+003999999V0202001N00211030001CN0300001N1+01621+01601101151ADDAA112001091AY161061AY221061GA1011+004509069GF107991011051004501071999KA1120M+01881MA1999999100691MD1710101+9999MW1011REMSYN100AAXX  02184 02680 11480 72004 10162 20160 30069 40115 57010 60012 70162 8157/ 333 10188 81694 87399;
0159026800999992000080221004+56920+018150FM-12+003999999V0202101N001010018019N0300001N1+01591+01571101141ADDGA1081+001809069GF108991081061001501999999MA1999999100681MD1810011+9999REMSYN076AAXX  02214 02680 42280 82102 10159 20157 30068 40114 58001 886// 333 88706;
0170026800999992000080300004+56920+018150FM-12+003999999V0202101N001510045019N0160001N1+01581+01561101011ADDAA199000021GA1081+004509059GF108991081051004501999999MA1999999100551MD1810131+9999REMSYN076AAXX  03004 02680 32466 82103 10158 20156 30055 40101 58013 885// 333 88615;
0187026800999992000080303004+56920+018150FM-12+003999999V0202001N001010025019N0050001N1+01601+01581100931ADDAY161031AY221031GA1081+002509069GF108991081061002501999999MA1999999100471MD1710081+9999MW1101REMSYN082AAXX  03034 02680 41350 82002 10160 20158 30047 40093 57008 71062 886// 333 88793;
0235026800999992000080306004+56920+018150FM-12+003999999V0202701N002610045019N0450001N1+01611+01591100921ADDAA112006191AY161061AY221061GA1071+004509029GF107991071021004501999999IA1099KA1120N+01561MA1999999100461MD1710011+9999MW1011REMSYN100AAXX  03064 02680 11483 72705 10161 20159 30046 40092 57001 60062 70162 872// 333 20156 31/// 87894;
0159026800999992000080309004+56920+018150FM-12+003999999V0203001N003612200019N0500001N1+01801+01461101051ADDGA1041+004509029GF104991041021004501071001MA1999999100591MD1310131+9999REMSYN076AAXX  03094 02680 42484 43007 10180 20146 30059 40105 53013 84270 333 84894;
0189026800999992000080312004+56920+018150FM-12+003999999V0203001N002112200019N0500001N1+01921+01441101221ADDAA199000091GA1021+004509029GF103991021021004501081001MA1999999100761MD1210171+9999REMSYN076AAXX  03124 02680 32484 33004 10192 20144 30076 40122 52017 82280 333 82894;EQDQ01  00002PRCP99
0159026800999992000080315004+56920+018150FM-12+003999999V0202001N001512200019N0400001N1+01971+01471101271ADDGA1011+004509029GF102991011021004501031001MA1999999100811MD1110051+9999REMSYN076AAXX  03154 02680 42482 22003 10197 20147 30081 40127 51005 81230 333 81894;
0224026800999992000080318004+56920+018150FM-12+003999999V0202401N002612200019N0400001N1+01771+01551101301ADDAA199000091GA1021+022509079GF102991021999022501081001KA1120M+02001MA1999999100841MD1210031+9999REMSYN082AAXX  03184 02680 32882 22405 10177 20155 30084 40130 52003 82080 333 10200 82398;EQDQ01+000002SCOLCGQ02  00002PRCP99
0159026800999992000080321004+56920+018150FM-12+003999999V0202501N003112200019N0350001N1+01701+01471101381ADDGA1011+999999079GF101991011001999999031001MA1999999100921MD1210081+9999REMSYN076AAXX  03214 02680 42981 12506 10170 20147 30092 40138 52008 81030 333 81399;
0189026800999992000080400004+56920+018150FM-12+003999999V0202601N002112200019N0300001N1+01591+01541101431ADDAA199000091GA1011+999999079GF101991011001999999031001MA1999999100971MD1110051+9999REMSYN076AAXX  04004 02680 32980 12604 10159 20154 30097 40143 51005 81030 333 81399;EQDQ01  00002PRCP99
0159026800999992000080403004+56920+018150FM-12+003999999V0202601N002112200019N0400001N1+01541+01491101461ADDGA1011+999999079GF101991011001999999031001MA1999999101001MD1110031+9999REMSYN076AAXX  04034 02680 42982 12604 10154 20149 30100 40146 51003 81030 333 81399;
0174026800999992000080406004+56920+018150FM-12+003999999V0202801N002112200019N0350001N1+01711+99999999999ADDAA199000091GF101991999999999999999999IA1019KA1120N+01541REMSYN087AAXX  04064 02680 32981 12804 10171 2015 30103 40149 52003 81039 333 20154 30/// 81399;EQDQ01  00002PRCP99
0179026800999992000080409004+56920+018150FM-12+003999999V0202901N001012200019N0300001N1+01841+01541101601ADDGA1011+004509029GF102991011021004501031021MA1999999101141MD1110111+9999SA1+1669REMSYN088AAXX  04094 02680 42480 22902 10184 20154 30114 40160 51011 81232 222// 00166 333 81894;
0189026800999992000080412004+56920+018150FM-12+003999999V0202601N002112200019N0300001N1+01911+01511101621ADDAA199000091GA1011+004509029GF101991011021004501031011MA1999999101161MD1210021+9999REMSYN076AAXX  04124 02680 32480 12604 10191 20151 30116 40162 52002 81231 333 81894;EQDQ01  00002PRCP99
0159026800999992000080415004+56920+018150FM-12+003999999V0202401N002112200019N0300001N1+01921+01621101601ADDGA1011+002509029GF102991011021002501081001MA1999999101141MD1710021+9999REMSYN076AAXX  04154 02680 42380 22404 10192 20162 30114 40160 57002 81280 333 81893;
0208026800999992000080418004+56920+018150FM-12+003999999V0202401N002112200019N0280001N1+01691+01611101611ADDAA199000091GA1011+999999079GF102991011001999999031021KA1120M+01991MA1999999101151MD1110011+9999REMSYN082AAXX  04184 02680 32978 22404 10169 20161 30115 40161 51001 81032 333 10199 81399;EQDQ01  00002PRCP99
0159026800999992000080421004+56920+018150FM-12+003999999V0202501N001512200019N0350001N1+01611+01591101641ADDGA1011+999999079GF101991011001999999031001MA1999999101181MD1210031+9999REMSYN076AAXX  04214 02680 42981 12503 10161 20159 30118 40164 52003 81030 333 81399;
0189026800999992000080500004+56920+018150FM-12+003999999V0202901N002112200019N0550001N1+01641+01591101691ADDAA199000091GA1011+999999079GF101991011001999999031001MA1999999101231MD1010051+9999REMSYN076AAXX  05004 02680 32985 12904 10164 20159 30123 40169 50005 81030 333 81399;EQDQ01  00002PRCP99
0159026800999992000080503004+56920+018150FM-12+003999999V0203001N003112200019N0550001N1+01581+01281101731ADDGA1011+999999079GF101991011001999999071001MA1999999101271MD1210041+9999REMSYN076AAXX  05034 02680 42985 13006 10158 20128 30127 40173 52004 81070 333 81399;
0220026800999992000080506004+56920+018150FM-12+003999999V0202901N002612200019N0550001N1+01701+01101101801ADDAA199000091GA1011+004509029GF101991011011004501031001IA1019KA1120N+01581MA1999999101341MD1210071+9999REMSYN088AAXX  05064 02680 32485 12905 10170 20110 30134 40180 52007 81130 333 20158 30/// 81894;EQDQ01  00002PRCP99
0159026800999992000080509004+56920+018150FM-12+003999999V0202701N002612200019N0600001N1+01771+00791101881ADDGA1011+004509029GF102991011011004501031011MA1999999101421MD1210081+9999REMSYN076AAXX  05094 02680 42486 22705 10177 20079 30142 40188 52008 81131 333 81894;
0189026800999992000080512004+56920+018150FM-12+003999999V0202201N003612200019N0600001N1+01891+00731101891ADDAA199000091GA1011+004509029GF101991011011004501031011MA1999999101431MD1110011+9999REMSYN076AAXX  05124 02680 32486 12207 10189 20073 30143 40189 51001 81131 333 81894;EQDQ01  00002PRCP99
0159026800999992000080515004+56920+018150FM-12+003999999V0202501N003610300019N0550001N1+01811+00971101831ADDGA1011+004509029GF107991011021004501071999MA1999999101371MD1810061+9999REMSYN076AAXX  05154 02680 42485 72507 10181 20097 30137 40183 58006 8127/ 333 81894;
0224026800999992000080518004+56920+018150FM-12+003999999V0202401N004112200019N0450001N1+01721+01401101771ADDAA199000091GA1021+022509079GF103991021999022501081011KA1120M+01931MA1999999101311MD1610061+9999REMSYN082AAXX  05184 02680 32883 32408 10172 20140 30131 40177 56006 82081 333 10193 82398;EQDQ01+000002SCOLCGQ02  00002PRCP99
0178026800999992000080521004+56920+018150FM-12+003999999V0202601N003112200019N0450001N1+01631+01371101821ADDGA1031+022509079GF103991031999022501071001MA1999999101361MD1110051+9999REMSYN076AAXX  05214 02680 42883 32606 10163 20137 30136 40182 51005 83070 333 83398;EQDQ01+000002SCOLCG
0189026800999992000080600004+56920+018150FM-12+003999999V0202601N003610180019N0500001N1+01621+01401101771ADDAA199000091GA1081+018009059GF108991081051017501999999MA1999999101311MD1810051+9999REMSYN076AAXX  06004 02680 32784 82607 10162 20140 30131 40177 58005 885// 333 88656;EQDQ01  00002PRCP99
0165026800999992000080603004+56920+018150FM-12+003999999V0202501N00311030001CN0400001N1+01611+01491101671ADDGA1011+004509089GF108991011011004501071999MA1999999101211MD1710101+9999REMSYN082AAXX  06034 02680 42482 82506 10161 20149 30121 40167 57010 8117/ 333 81894 88398;
0226026800999992000080606004+56920+018150FM-12+003999999V0202401N00311030001CN0350001N1+01671+01521101631ADDAA199000091GA1021+004509089GF107991021021004501031999IA1019KA1120N+01611MA1999999101171MD1610041+9999REMSYN094AAXX  06064 02680 32481 72406 10167 20152 30117 40163 56004 8223/ 333 20161 30/// 82894 87399;EQDQ01  00002PRCP99
0165026800999992000080609004+56920+018150FM-12+003999999V0202401N00311004501CN0350001N1+01701+01391101531ADDGA1061+004509089GF107991061021004501031999MA1999999101071MD1810101+9999REMSYN082AAXX  06094 02680 42481 72406 10170 20139 30107 40153 58010 8623/ 333 86894 86399;
0195026800999992000080612004+56920+018150FM-12+003999999V0202201N00411030001CN0400001N1+01781+00941101441ADDAA199000091GA1011+004509089GF107991011021004501031999MA1999999100981MD1710091+9999REMSYN082AAXX  06124 02680 32482 72208 10178 20094 30098 40144 57009 8123/ 333 81894 87399;EQDQ01  00002PRCP99
0159026800999992000080615004+56920+018150FM-12+003999999V0202301N005112200019N0300001N1+01891+01371101241ADDGA1011+999999079GF102991011001999999031021MA1999999100781MD1710201+9999REMSYN076AAXX  06154 02680 42980 22310 10189 20137 30078 40124 57020 81032 333 81399;
0214026800999992000080618004+56920+018150FM-12+003999999V0202301N004119999999N0250001N1+01751+01561101141ADDAA199000091GA1011+025009039GF108991011001999999071071KA1120M+01961MA1999999100681MD1610101+9999REMSYN088AAXX  06184 02680 32975 82308 10175 20156 30068 40114 56010 81077 333 10196 81399 88299;EQDQ01  00002PRCP99
0159026800999992000080621004+56920+018150FM-12+003999999V0202301N004612200019N0300001N1+01681+01561101061ADDGA1041+999999019GF104991001001999999001021MA1999999100601MD1610081+9999REMSYN076AAXX  06214 02680 42980 42309 10168 20156 30060 40106 56008 80002 333 84099;
0189026800999992000080700004+56920+018150FM-12+003999999V0202301N005110072019N0300001N1+01681+01611100961ADDAA199000091GA1081+007209059GF108991081051008001999999MA1999999100501MD1710101+9999REMSYN076AAXX  07004 02680 32580 82310 10168 20161 30050 40096 57010 885// 333 88624;EQDQ01  00002PRCP99
0165026800999992000080703004+56920+018150FM-12+003999999V0202701N00461030001CN0400001N1+01531+00871100901ADDGA1011+004509089GF107991011011004501071021MA1999999100441MD1610061+9999REMSYN082AAXX  07034 02680 42482 72709 10153 20087 30044 40090 56006 81172 333 81894 86399;
0220026800999992000080706004+56920+018150FM-12+003999999V0202701N003612200019N0500001N1+01491+01071100901ADDAA199000091GA1011+004509029GF102991011011004501031001IA1019KA1120N+01421MA1999999100441MD1010001+9999REMSYN088AAXX  07064 02680 32484 22707 10149 20107 30044 40090 50000 81130 333 20142 30/// 81894;EQDQ01  00002PRCP99
0179026800999992000080709004+56920+018150FM-12+003999999V0202901N003612200019N0550001N1+01691+00931100881ADDGA1011+008009029GF101991011011008001031011MA1999999100421MD1710021+9999SA1+1809REMSYN088AAXX  07094 02680 42585 12907 10169 20093 30042 40088 57002 81131 222// 00180 333 81895;
0189026800999992000080712004+56920+018150FM-12+003999999V0202701N003612200019N0700001N1+01911+00411100811ADDAA199000091GA1011+017509029GF101991011021017501031011MA1999999100361MD1710061+9999REMSYN076AAXX  07124 02680 32788 12707 10191 20041 30036 40081 57006 81231 333 81897;EQDQ01  00002PRCP99
0159026800999992000080715004+56920+018150FM-12+003999999V0202601N003112200019N0750001N1+01801+00191100731ADDGA1011+017509029GF102991021081017501001021MA1999999100281MD1810081+9999REMSYN076AAXX  07154 02680 42789 22606 10180 20019 30028 40073 58008 82802 333 81897;
0242026800999992000080718004+56920+018150FM-12+003999999V0202901N004112200019N0750001N1+01621+00301100711ADDAA199000091AY101061AY201061GA1011+017509089GF103991031091017501081001KA1120M+01931MA1999999100261MD1810021+9999MW1151REMSYN094AAXX  07184 02680 31789 32908 10162 20030 30026 40071 58002 71500 83980 333 10193 81897 81997;EQDQ01  00002PRCP99
0189026800999992000080721004+56920+018150FM-12+003999999V0202701N004612200019N0750001N1+01571+00531100771ADDAA199000091GA1011+999999079GF101991011001999999071001MA1999999100321MD1110061+9999REMSYN076AAXX  07214 02680 32989 12709 10157 20053 30032 40077 51006 81070 333 81399;EQDQ01  00002PRCP99
0217026800999992000080800004+56920+018150FM-12+003999999V0202701N004112200019N0750001N1+01391+00741100821ADDAA199000091AY101061AY201061GA1011+008009029GF101991011011008001001001MA1999999100361MD1110041+9999MW1131REMSYN082AAXX  08004 02680 31589 12708 10139 20074 30036 40082 51004 71300 81100 333 81895;EQDQ01  00002PRCP99
0189026800999992000080803004+56920+018150FM-12+003999999V0202701N004112200019N0550001N1+01311+01041100801ADDAA199000091GA1031+004509059GF103991031051004501001001MA1999999100341MD1710021+9999REMSYN076AAXX  08034 02680 32485 32708 10131 20104 30034 40080 57002 83500 333 83694;EQDQ01  00002PRCP99
0220026800999992000080806004+56920+018150FM-12+003999999V0202701N003610300019N0450001N1+01411+01141100821ADDAA199000091GA1041+004509059GF105991041051004501031001IA1019KA1120N+01311MA1999999100371MD1210031+9999REMSYN088AAXX  08064 02680 32483 52707 10141 20114 30037 40082 52003 84530 333 20131 30/// 84694;EQDQ01  00002PRCP99
0159026800999992000080809004+56920+018150FM-12+003999999V0202601N003612200019N0550001N1+01671+00931100921ADDGA1021+004509029GF103991021011004501031001MA1999999100471MD1210101+9999REMSYN076AAXX  08094 02680 42485 32607 10167 20093 30047 40092 52010 82130 333 82894;
0189026800999992000080812004+56920+018150FM-12+003999999V0202401N003612200019N0750001N1+01881+00691100931ADDAA199000091GA1011+008009029GF102991011021008001031021MA1999999100491MD1110021+9999REMSYN076AAXX  08124 02680 32589 22407 10188 20069 30049 40093 51002 81232 333 81895;EQDQ01  00002PRCP99
0165026800999992000080815004+56920+018150FM-12+003999999V0202401N00411075001CN0750001N1+01731+00921100931ADDGA1021+008009089GF105991021021004501031021MA1999999100491MD1410001+9999REMSYN082AAXX  08154 02680 42489 52408 10173 20092 30049 40093 54000 82232 333 82895 84099;
0251026800999992000080818004+56920+018150FM-12+003999999V0202501N00311075001CN0750001N1+01571+00611100991ADDAA112000791AY181061AY201061GA1011+004509099GA2011+004509089GF105991021091004501031021KA1120M+01881MA1999999100531MD1210041+9999MW1151REMSYN106AAXX  08184 02680 11489 52506 10157 20061 30053 40099 52004 69902 71580 82932 333 10188 81994 81894 83399;
0159026800999992000080821004+56920+018150FM-12+003999999V0202701N003619999999N0650001N1+01581+00891101081ADDGA1031+999999079GF105991031001999999031021MA1999999100621MD1110091+9999REMSYN076AAXX  08214 02680 42987 52707 10158 20089 30062 40108 51009 83032 333 83399;
0189026800999992000080900004+56920+018150FM-12+003999999V0202901N004612200019N0750001N1+01471+00921101121ADDAA199000091GA1011+999999079GF101991011001999999071001MA1999999100661MD1210061+9999REMSYN076AAXX  09004 02680 32989 12909 10147 20092 30066 40112 52006 81070 333 81399;EQDQ01  00002PRCP99
0165026800999992000080903004+56920+018150FM-12+003999999V0203001N00311030001CN0750001N1+01431+00891101181ADDGA1021+008009069GF107991021051022501071011MA1999999100721MD1110061+9999REMSYN082AAXX  09034 02680 42889 73006 10143 20089 30072 40118 51006 82571 333 82695 86399;
0220026800999992000080906004+56920+018150FM-12+003999999V0202701N002612200019N0750001N1+01511+00971101241ADDAA199000091GA1011+008009029GF101991011011008001071011IA1019KA1120N+01421MA1999999100781MD1310061+9999REMSYN088AAXX  09064 02680 32589 12705 10151 20097 30078 40124 53006 81171 333 20142 30/// 81895;EQDQ01  00002PRCP99
0179026800999992000080909004+56920+018150FM-12+003999999V0202601N003112200019N0750001N1+01611+00981101381ADDGA1011+008009029GF101991011021008001031011MA1999999100931MD1210151+9999SA1+1729REMSYN088AAXX  09094 02680 42589 12606 10161 20098 30093 40138 52015 81231 222// 00172 333 81895;
0189026800999992000080912004+56920+018150FM-12+003999999V0202301N003112200019N0700001N1+01751+00691101441ADDAA199000091GA1011+012509029GF101991011011012501001011MA1999999100981MD1110051+9999REMSYN076AAXX  09124 02680 32688 12306 10175 20069 30098 40144 51005 81101 333 81896;EQDQ01  00002PRCP99
0159026800999992000080915004+56920+018150FM-12+003999999V0202501N004112200019N0500001N1+01761+01041101441ADDGA1011+008009059GF101991011041008001001001MA1999999100981MD1410001+9999REMSYN076AAXX  09154 02680 42584 12508 10176 20104 30098 40144 54000 81400 333 81695;
0208026800999992000080918004+56920+018150FM-12+003999999V0202301N003612200019N0450001N1+01631+01221101421ADDAA199000091GA1011+999999079GF101991011001999999031001KA1120M+01821MA1999999100961MD1510021+9999REMSYN082AAXX  09184 02680 32983 12307 10163 20122 30096 40142 55002 81030 333 10182 81399;EQDQ01  00002PRCP99
0159026800999992000080921004+56920+018150FM-12+003999999V0202501N003112200019N0450001N1+01581+01451101431ADDGA1011+999999079GF101991011001999999031011MA1999999100971MD1010011+9999REMSYN076AAXX  09214 02680 42983 12506 10158 20145 30097 40143 50001 81031 333 81399;
0189026800999992000081000004+56920+018150FM-12+003999999V0202701N002610180019N0550001N1+01591+01391101451ADDAA199000091GA1071+018009059GF107991071051017501999999MA1999999100991MD1110021+9999REMSYN076AAXX  10004 02680 32785 72705 10159 20139 30099 40145 51002 875// 333 87656;EQDQ01  00002PRCP99
0159026800999992000081003004+56920+018150FM-12+003999999V0202701N002112200019N0650001N1+01441+01151101411ADDGA1011+999999079GF101991011001999999071011MA1999999100951MD1710051+9999REMSYN076AAXX  10034 02680 42987 12704 10144 20115 30095 40141 57005 81071 333 81399;
0220026800999992000081006004+56920+018150FM-12+003999999V0202501N002612200019N0550001N1+01541+01161101441ADDAA199000091GA1011+004509029GF101991011011004501001011IA1019KA1120N+01441MA1999999100981MD1210031+9999REMSYN088AAXX  10064 02680 32485 12505 10154 20116 30098 40144 52003 81101 333 20144 30/// 81894;EQDQ01  00002PRCP99
0165026800999992000081009004+56920+018150FM-12+003999999V0202401N003112200019N0450001N1+01661+00521101491ADDGA1011+012509089GF103991011011012501001061MA1999999101031MD1210051+9999REMSYN082AAXX  10094 02680 42683 32406 10166 20052 30103 40149 52005 81106 333 81896 83299;
0195026800999992000081012004+56920+018150FM-12+003999999V0202501N00311075001CN0500001N1+01761+00481101471ADDAA199000091GA1011+012509089GF107991011011012501001061MA1999999101011MD1710021+9999REMSYN082AAXX  10124 02680 32684 72506 10176 20048 30101 40147 57002 81106 333 81896 87299;EQDQ01  00002PRCP99
0165026800999992000081015004+56920+018150FM-12+003999999V0202301N003119999999N0650001N1+01701+00891101391ADDGA1021+025009049GF108991021001999999011071MA1999999100931MD1710081+9999REMSYN082AAXX  10154 02680 42987 82306 10170 20089 30093 40139 57008 82017 333 82499 88299;
0165026800999992000081021004+56920+018150FM-12+003999999V0202501N002119999999N0350001N1+01561+01371101261ADDGA1021+025009039GF105991021001999999071021MA1999999100801MD1610021+9999REMSYN082AAXX  10214 02680 42981 52504 10156 20137 30080 40126 56002 82072 333 82399 84099;
0189026800999992000081100004+56920+018150FM-12+003999999V0202001N001010300019N0450001N1+01511+01401101181ADDAA199000091GA1071+030009079GF107991071001999999071999MA1999999100721MD1810081+9999REMSYN076AAXX  11004 02680 32983 72002 10151 20140 30072 40118 58008 8707/ 333 87360;EQDQ01  00002PRCP99
0165026800999992000081103004+56920+018150FM-12+003999999V0201801N001019999999N0550001N1+01471+01441101071ADDGA1011+025009039GF107991071001999999071999MA1999999100611MD1710111+9999REMSYN082AAXX  11034 02680 42985 71802 10147 20144 30061 40107 57011 8707/ 333 81399 86399;
0226026800999992000081106004+56920+018150FM-12+003999999V0201101N001019999999N0500001N1+01601+01371100991ADDAA199000091GA1011+025009039GF107991071001999999091999IA1019KA1120N+01471MA1999999100531MD1710081+9999REMSYN094AAXX  11064 02680 32984 71102 10160 20137 30053 40099 57008 8709/ 333 20147 30/// 81399 87399;EQDQ01  00002PRCP99
0213026800999992000081109004+56920+018150FM-12+003999999V0201101N00211022501CN0250001N1+01661+01371100991ADDAY121031AY221031GA1061+022509059GF108991081001022501071999MA1999999100531MD1010001+9999MW1611SA1+1709REMSYN100AAXX  11094 02680 41875 81104 10166 20137 30053 40099 50000 76122 8807/ 222// 00170 333 86598 88399;
0210026800999992000081112004+56920+018150FM-12+003999999V0201201N00211030001CN0300001N1+01781+01501100931ADDAA106000191AY161061AY261061GA1011+004509089GF108991011011004501071999MA1999999100471MD1810061+9999MW1021REMSYN094AAXX  11124 02680 11480 81204 10178 20150 30047 40093 58006 69911 70266 8117/ 333 81894 88399;
0201026800999992000081118004+56920+018150FM-12+003999999V0201401N00051002101CN0210001N1+01631+01611100841ADDAA112000191GA1011+002509079GF108991081061002501999999KA1120M+01901MA1999999100391MD1710041+9999REMSYN094AAXX  11184 02680 12371 81401 10163 20161 30039 40084 57004 69912 886// 333 10190 81793 88794;
0187026800999992000081121004+56920+018150FM-12+003999999V0209999C000010012019N0050001N1+01571+01551100851ADDAY121031AY221031GA1081+001209069GF108991081061001501999999MA1999999100401MD1010011+9999MW1101REMSYN082AAXX  11214 02680 41250 80000 10157 20155 30040 40085 50001 71022 886// 333 88704;
0223026800999992000081200004+56920+018150FM-12+003999999V0202301N000510012019N0060001N1+01591+01571100851ADDAA199000091AY121061AY221061GA1061+001209079GF108991081061001501999999MA1999999100361MD1710041+9999MW1101REMSYN088AAXX  12004 02680 31256 82301 10159 20157 30036 40085 57004 71022 886// 333 86704 88716;EQDQ01  00002PRCP99
0193026800999992000081203004+56920+018150FM-12+003999999V0202601N00051021001CN0046001N1+01561+01541100821ADDAY121031AY221031GA1021+022509039GF108991081001022501071999MA1999999100371MD1010011+9999MW1101REMSYN088AAXX  12034 02680 41846 82601 10156 20154 30037 40082 50001 71022 8807/ 333 82398 88399;
0226026800999992000081206004+56920+018150FM-12+003999999V0202801N00311009001CN0500001N1+01631+01461100901ADDAA199000091GA1021+004509089GF107991071081004501999999IA1019KA1120N+01501MA1999999100441MD1310071+9999REMSYN094AAXX  12064 02680 32484 72806 10163 20146 30044 40090 53007 878// 333 20150 30/// 82894 87695;EQDQ01  00002PRCP99
0159026800999992000081209004+56920+018150FM-12+003999999V0202501N003110045019N0550001N1+01711+01281100981ADDGA1071+004509029GF107991071021004501999999MA1999999100521MD1110081+9999REMSYN076AAXX  12094 02680 42485 72506 10171 20128 30052 40098 51008 872// 333 87894;
0195026800999992000081212004+56920+018150FM-12+003999999V0202601N00311030001CN0550001N1+01771+01341101051ADDAA199000091GA1011+004509089GF107991011021004501071999MA1999999100591MD1210071+9999REMSYN082AAXX  12124 02680 32485 72606 10177 20134 30059 40105 52007 8127/ 333 81894 87399;EQDQ01  00002PRCP99
0214026800999992000081218004+56920+018150FM-12+003999999V0202601N00311030001CN0750001N1+01641+01591101191ADDAA199000091GA1011+004509089GF107991011021004501071999KA1120M+01861MA1999999100731MD1210061+9999REMSYN088AAXX  12184 02680 32489 72606 10164 20159 30073 40119 52006 8127/ 333 10186 81894 87399;EQDQ01  00002PRCP99
0159026800999992000081221004+56920+018150FM-12+003999999V0202901N002112200019N0750001N1+01601+01581101311ADDGA1011+999999079GF101991011001999999031011MA1999999100851MD1210121+9999REMSYN076AAXX  12214 02680 42989 12904 10160 20158 30085 40131 52012 81031 333 81399;
0189026800999992000081300004+56920+018150FM-12+003999999V0203201N002110099019N0650001N1+01671+01411101421ADDAA199000091GA1071+009909059GF107991071051008001999999MA1999999100961MD1110111+9999REMSYN076AAXX  13004 02680 32587 73204 10167 20141 30096 40142 51011 875// 333 87633;EQDQ01  00002PRCP99
0159026800999992000081303004+56920+018150FM-12+003999999V0203001N002612200019N0550001N1+01541+01471101521ADDGA1011+004509029GF101991011011004501071001MA1999999101061MD1210101+9999REMSYN076AAXX  13034 02680 42485 13005 10154 20147 30106 40152 52010 81170 333 81894;
0226026800999992000081306004+56920+018150FM-12+003999999V0203101N00211009001CN0650001N1+01631+01541101671ADDAA199000091GA1011+004509089GF106991061081004501001011IA1019KA1120N+01541MA1999999101211MD1210151+9999REMSYN094AAXX  13064 02680 32487 63104 10163 20154 30121 40167 52015 86801 333 20154 30/// 81894 86695;EQDQ01  00002PRCP99
0159026800999992000081309004+56920+018150FM-12+003999999V0202901N002110045019N0400001N1+01861+01551101811ADDGA1051+004509059GF107991051051004501081001MA1999999101351MD1110141+9999REMSYN076AAXX  13094 02680 42482 72904 10186 20155 30135 40181 51014 85580 333 85694;
0189026800999992000081312004+56920+018150FM-12+003999999V0203101N002612200019N0300001N1+01951+01491101931ADDAA199000091GA1031+004509069GF104991031061004501031091MA1999999101471MD1210121+9999REMSYN076AAXX  13124 02680 32480 43105 10195 20149 30147 40193 52012 83639 333 83794;EQDQ01  00002PRCP99
0208026800999992000081318004+56920+018150FM-12+003999999V0203001N001512200019N0500001N1+01771+01451102071ADDAA199000091GA1011+004509029GF101991011021004501071011KA1120M+02001MA1999999101611MD1210051+9999REMSYN082AAXX  13184 02680 32484 13003 10177 20145 30161 40207 52005 81271 333 10200 81894;EQDQ01  00002PRCP99
0173026800999992000081400004+56920+018150FM-12+003999999V0201001N001012200019N0400001N1+01431+01411102211ADDAA199000091GA1001+999999999GF100991001001999999001001MA1999999101751MD1210081+9999REMSYN060AAXX  14004 02680 32982 01002 10143 20141 30175 40221 52008;EQDQ01  00002PRCP99
0159026800999992000081403004+56920+018150FM-12+003999999V0201201N001012200019N0350001N1+01441+01421102241ADDGA1011+004509059GF101991011051004501031011MA1999999101781MD1110031+9999REMSYN076AAXX  14034 02680 42481 11202 10144 20142 30178 40224 51003 81531 333 81694;
0220026800999992000081406004+56920+018150FM-12+003999999V0201401N001012200019N0650001N1+01681+01601102241ADDAA199000091GA1011+004509029GF101991011011004501031011IA1019KA1120N+01401MA1999999101781MD1410001+9999REMSYN088AAXX  14064 02680 32487 11402 10168 20160 30178 40224 54000 81131 333 20140 30/// 81894;EQDQ01  00002PRCP99
0179026800999992000081409004+56920+018150FM-12+003999999V0201801N002112200019N0450001N1+01891+01531102291ADDGA1011+004509029GF101991011021004501001011MA1999999101831MD1310051+9999SA1+1709REMSYN088AAXX  14094 02680 42483 11804 10189 20153 30183 40229 53005 81201 222// 00170 333 81894;
0189026800999992000081412004+56920+018150FM-12+003999999V0201801N002112200019N0500001N1+01931+01161102291ADDAA199000091GA1011+008009029GF101991011041008001001081MA1999999101831MD1010001+9999REMSYN076AAXX  14124 02680 32584 11804 10193 20116 30183 40229 50000 81408 333 81895;EQDQ01  00002PRCP99
0159026800999992000081415004+56920+018150FM-12+003999999V0201801N002112200019N0400001N1+01881+01391102181ADDGA1011+004509029GF101991011011004501001011MA1999999101721MD1810111+9999REMSYN076AAXX  14154 02680 42482 11804 10188 20139 30172 40218 58011 81101 333 81894;
0159026800999992000081421004+56920+018150FM-12+003999999V0201801N001512200019N0600001N1+01521+01491102031ADDGA1011+999999019GF101991001001999999001011MA1999999101571MD1810041+9999REMSYN076AAXX  14214 02680 42986 11803 10152 20149 30157 40203 58004 80001 333 81099;
0189026800999992000081500004+56920+018150FM-12+003999999V0201601N002112200019N0450001N1+01561+01541101911ADDAA199000091GA1011+002509069GF101991011061002501001011MA1999999101451MD1810121+9999REMSYN076AAXX  15004 02680 32383 11604 10156 20154 30145 40191 58012 81601 333 81793;EQDQ01  00002PRCP99
0159026800999992000081503004+56920+018150FM-12+003999999V0201601N002112200019N0300001N1+01611+01591101761ADDGA1011+002509069GF102991011061002501051081MA1999999101301MD1810151+9999REMSYN076AAXX  15034 02680 42380 21604 10161 20159 30130 40176 58015 81658 333 81793;
0226026800999992000081506004+56920+018150FM-12+003999999V0201601N002119999999N0300001N1+01751+01731101601ADDAA199000091GA1011+025009039GF108991081001999999071999IA1019KA1120N+01521MA1999999101141MD1810161+9999REMSYN094AAXX  15064 02680 32980 81604 10175 20173 30114 40160 58016 8807/ 333 20152 30/// 81399 88499;EQDQ01  00002PRCP99
0165026800999992000081509004+56920+018150FM-12+003999999V0201801N002119999999N0300001N1+01931+01671101521ADDGA1011+025009039GF106991061001999999091001MA1999999101061MD1810081+9999REMSYN082AAXX  15094 02680 42980 61804 10193 20167 30106 40152 58008 86090 333 81399 83499;
0217026800999992000081512004+56920+018150FM-12+003999999V0201901N003119999999N0250001N1+02031+01531101371ADDAA199000091AY121061AY221061GA1081+999999089GF108991001001999999001071MA1999999100911MD1710151+9999MW1051REMSYN082AAXX  15124 02680 31975 81906 10203 20153 30091 40137 57015 70522 80007 333 88299;EQDQ01  00002PRCP99
0165026800999992000081515004+56920+018150FM-12+003999999V0202101N002619999999N0200001N1+01941+01771101251ADDGA1021+025009039GF107991071001999999091999MA1999999100791MD1710121+9999REMSYN082AAXX  15154 02680 42970 72105 10194 20177 30079 40125 57012 8709/ 333 82399 86499;
0214026800999992000081518004+56920+018150FM-12+003999999V0202301N002619999999N0150001N1+01851+01801101161ADDAA199000091GA1011+025009039GF108991081001999999071999KA1120M+02121MA1999999100701MD1610091+9999REMSYN088AAXX  15184 02680 32965 82305 10185 20180 30070 40116 56009 8807/ 333 10212 81399 88499;EQDQ01  00002PRCP99
0187026800999992000081521004+56920+018150FM-12+003999999V0202401N002610126019N0160001N1+01791+01761101141ADDGA1061+012609069GA2081+025009049GF108991061051012501071999MA1999999100681MD1710021+9999REMSYN088AAXX  15214 02680 42666 82405 10179 20176 30068 40114 57002 8657/ 333 86642 88499 86642;
0165026800999992000081603004+56920+018150FM-12+003999999V0202501N002119999999N0150001N1+01741+01721101101ADDGA1011+025009039GF108991081001999999071999MA1999999100641MD1710021+9999REMSYN082AAXX  16034 02680 42965 82504 10174 20172 30064 40110 57002 8807/ 333 81399 88499;
0220026800999992000081606004+56920+018150FM-12+003999999V0202701N002112200019N0170001N1+01801+01771101091ADDAA199000091GA1011+999999079GF103991011001999999081011IA1019KA1120N+01721MA1999999100631MD1810011+9999REMSYN088AAXX  16064 02680 32967 32704 10180 20177 30063 40109 58001 81081 333 20172 30/// 81399;EQDQ01  00002PRCP99
0179026800999992000081609004+56920+018150FM-12+003999999V0202501N003110300019N0400001N1+01881+01381101141ADDGA1031+004509059GF106991031051004501031011MA1999999100681MD1110051+9999SA1+1769REMSYN088AAXX  16094 02680 42482 62506 10188 20138 30068 40114 51005 83531 222// 00176 333 83694;
0189026800999992000081612004+56920+018150FM-12+003999999V0202301N002612200019N0450001N1+02001+01201101111ADDAA199000091GA1011+008009029GF102991011021008001071091MA1999999100651MD1710031+9999REMSYN076AAXX  16124 02680 32583 22305 10200 20120 30065 40111 57003 81279 333 81895;EQDQ01  00002PRCP99
0159026800999992000081615004+56920+018150FM-12+003999999V0202301N003612200019N0450001N1+01871+01331101051ADDGA1011+008009029GF102991011011008001081001MA1999999100591MD1810061+9999REMSYN076AAXX  16154 02680 42583 22307 10187 20133 30059 40105 58006 81180 333 81895;
0208026800999992000081618004+56920+018150FM-12+003999999V0202301N003112200019N0400001N1+01751+01551101031ADDAA199000091GA1011+999999079GF101991011001999999081001KA1120M+02041MA1999999100571MD1610021+9999REMSYN082AAXX  16184 02680 32982 12306 10175 20155 30057 40103 56002 81080 333 10204 81399;EQDQ01  00002PRCP99
0159026800999992000081621004+56920+018150FM-12+003999999V0202401N003610300019N0450001N1+01721+01541101031ADDGA1061+030009079GF107991061001999999071001MA1999999100571MD1010001+9999REMSYN076AAXX  16214 02680 42983 72407 10172 20154 30057 40103 50000 86070 333 86360;
0189026800999992000081700004+56920+018150FM-12+003999999V0202401N002112200019N0500001N1+01611+01511101081ADDAA199000091GA1011+999999079GF101991011001999999031001MA1999999100621MD1710051+9999REMSYN076AAXX  17004 02680 32984 12404 10161 20151 30062 40108 57005 81030 333 81399;EQDQ01  00002PRCP99
0159026800999992000081703004+56920+018150FM-12+003999999V0202401N003112200019N0350001N1+01601+01371101021ADDGA1011+004509029GF102991011021004501031011MA1999999100561MD1710061+9999REMSYN076AAXX  17034 02680 42481 22406 10160 20137 30056 40102 57006 81231 333 81894;
0226026800999992000081706004+56920+018150FM-12+003999999V0202501N003112200019N0400001N1+01661+01371101061ADDAA199000091GA1011+004509089GF104991011021004501001081IA1019KA1120N+01601MA1999999100601MD1310041+9999REMSYN094AAXX  17064 02680 32482 42506 10166 20137 30060 40106 53004 81208 333 20160 30/// 81894 84299;EQDQ01  00002PRCP99
0165026800999992000081709004+56920+018150FM-12+003999999V0202501N00311075001CN0450001N1+01761+01231101121ADDGA1011+008009089GF108991011021008001001071MA1999999100661MD1210061+9999REMSYN082AAXX  17094 02680 42583 82506 10176 20123 30066 40112 52006 81207 333 81895 88299;
0223026800999992000081712004+56920+018150FM-12+003999999V0202301N00361075001CN0300001N1+01881+01361101111ADDAA199000091AY121061AY221061GA1011+008009089GF108991021021008001001071MA1999999100651MD1810011+9999MW1051REMSYN088AAXX  17124 02680 31580 82307 10188 20136 30065 40111 58001 70522 82207 333 81895 88299;EQDQ01  00002PRCP99
0193026800999992000081715004+56920+018150FM-12+003999999V0202201N00311075001CN0300001N1+01911+01371101061ADDAY121031AY221031GA1011+008009089GF105991011021008001081081MA1999999100591MD1610061+9999MW1051REMSYN088AAXX  17154 02680 41580 52206 10191 20137 30059 40106 56006 70522 81288 333 81895 84299;
0208026800999992000081718004+56920+018150FM-12+003999999V0202201N003112200019N0300001N1+01601+01561100991ADDAA199000091GA1011+002509029GF101991011011002501031001KA1120M+01981MA1999999100531MD1510061+9999REMSYN082AAXX  17184 02680 32380 12206 10160 20156 30053 40099 55006 81130 333 10198 81893;EQDQ01  00002PRCP99
0159026800999992000081721004+56920+018150FM-12+003999999V0202301N003112200019N0250001N1+01581+01551101061ADDGA1011+002509029GF101991011011002501001001MA1999999100601MD1110071+9999REMSYN076AAXX  17214 02680 42375 12306 10158 20155 30060 40106 51007 81100 333 81893;
0189026800999992000081800004+56920+018150FM-12+003999999V0202401N002112200019N0150001N1+01621+01591101001ADDAA199000091GA1011+001509069GF102991011061001501031001MA1999999100541MD1810061+9999REMSYN076AAXX  18004 02680 32265 22404 10162 20159 30054 40100 58006 81630 333 81705;EQDQ01  00002PRCP99
0159026800999992000081803004+56920+018150FM-12+003999999V0202501N002610025019N0250001N1+01611+01561101021ADDGA1081+002509059GF108991081051002501999999MA1999999100561MD1110021+9999REMSYN076AAXX  18034 02680 42375 82505 10161 20156 30056 40102 51002 885// 333 88693;
0220026800999992000081806004+56920+018150FM-12+003999999V0202701N003110042019N0250001N1+01671+01511101091ADDAA199000091GA1041+004509029GF106991061021004501001011IA1019KA1120N+01581MA1999999100631MD1310071+9999REMSYN088AAXX  18064 02680 32475 62706 10167 20151 30063 40109 53007 86201 333 20158 30/// 84894;EQDQ01  00002PRCP99
0185026800999992000081809004+56920+018150FM-12+003999999V0202501N00211004501CN0250001N1+01721+01211101161ADDGA1061+004509089GF107991061021004501081011MA1999999100701MD1210071+9999SA1+1789REMSYN094AAXX  18094 02680 42475 72504 10172 20121 30070 40116 52007 86281 222// 00178 333 86894 84099;
0189026800999992000081812004+56920+018150FM-12+003999999V0202101N002610045019N0300001N1+01921+01221101211ADDAA199000091GA1051+004509029GF106991051021004501031011MA1999999100751MD1110051+9999REMSYN076AAXX  18124 02680 32480 62105 10192 20122 30075 40121 51005 85231 333 85894;EQDQ01  00002PRCP99
0193026800999992000081815004+56920+018150FM-12+003999999V0202301N004110042019N0350001N1+01781+01241101251ADDAY121031AY221031GA1031+004509099GF105991051091004501081001MA1999999100791MD1310041+9999MW1151REMSYN088AAXX  18154 02680 41481 52308 10178 20124 30079 40125 53004 71522 85980 333 83994 81894;
0223026800999992000081818004+56920+018150FM-12+003999999V0202401N003112200019N0500001N1+01631+01351101291ADDAA112000891AY181061AY221061GA1011+999999079GF101991011001999999081011KA1120M+02031MA1999999100831MD1310041+9999MW1011REMSYN094AAXX  18184 02680 11984 12406 10163 20135 30083 40129 53004 69972 70182 81081 333 10203 81399;
0159026800999992000081821004+56920+018150FM-12+003999999V0202601N003112200019N0500001N1+01711+01281101401ADDGA1021+999999019GF102991001001999999001011MA1999999100941MD1210111+9999REMSYN076AAXX  18214 02680 42984 22606 10171 20128 30094 40140 52011 80001 333 82099;
0189026800999992000081900004+56920+018150FM-12+003999999V0202501N001512200019N0600001N1+01631+00971101511ADDAA199000091GA1011+999999079GF101991011001999999031011MA1999999101051MD1110111+9999REMSYN076AAXX  19004 02680 32986 12503 10163 20097 30105 40151 51011 81031 333 81399;EQDQ01  00002PRCP99
0159026800999992000081903004+56920+018150FM-12+003999999V0202401N001012200019N0600001N1+01541+01321101531ADDGA1041+999999019GF104991001001999999001011MA1999999101071MD1110021+9999REMSYN076AAXX  19034 02680 42986 42402 10154 20132 30107 40153 51002 80001 333 84099;
0226026800999992000081906004+56920+018150FM-12+003999999V0202101N00151999999CN0300001N1+01731+01521101561ADDAA199000091GA1071+025009039GF108991071001999999071071IA1019KA1120N+01541MA1999999101101MD1310031+9999REMSYN094AAXX  19064 02680 32980 82103 10173 20152 30110 40156 53003 87077 333 20154 30/// 87399 88299;EQDQ01  00002PRCP99
0165026800999992000081909004+56920+018150FM-12+003999999V0202101N00211030001CN0350001N1+01861+01421101561ADDGA1011+004509089GF108991011011004501031071MA1999999101101MD1010001+9999REMSYN082AAXX  19094 02680 42481 82104 10186 20142 30110 40156 50000 81137 333 81894 88299;
0195026800999992000081912004+56920+018150FM-12+003999999V0202001N00101030001CN0300001N1+01801+01261101521ADDAA199000091GA1011+004509089GF108991011021004501071999MA1999999101061MD1810041+9999REMSYN082AAXX  19124 02680 32480 82002 10180 20126 30106 40152 58004 8127/ 333 81894 88399;EQDQ01  00002PRCP99
0206026800999992000081915004+56920+018150FM-12+003999999V0202101N002610225019N0350001N1+01681+00971101491ADDAY181031AY221031GA1081+022509079GF108991081999022501071999MA1999999101031MD1710031+9999MW1021REMSYN082AAXX  19154 02680 41881 82105 10168 20097 30103 40149 57003 70282 8807/ 333 88398;EQDQ01+000002SCOLCG
0178026800999992000081918004+56920+018150FM-12+003999999V0201501N000510210019N0350001N1+01511+00611101381ADDAA112000791AY121061AY281061GF108991081001022501071999MA1999999100921MD1610111+9999MW1021REMSYN078AAXX  19184 02680 11881 81501 10151 20061 30092 40138 56011 69902 70228 8807/;
0159026800999992000081921004+56920+018150FM-12+003999999V0201801N001019999999N0500001N1+01461+01151101411ADDGA1081+999999079GF108991081001999999071999MA1999999100951MD1310031+9999REMSYN076AAXX  19214 02680 42984 81802 10146 20115 30095 40141 53003 8807/ 333 88399;
0195026800999992000082000004+56920+018150FM-12+003999999V0201001N001010300019N0400001N1+01401+01381101291ADDAA199000091GA1041+005709089GF108991041021004501071999MA1999999100831MD1810121+9999REMSYN082AAXX  20004 02680 32482 81002 10140 20138 30083 40129 58012 8427/ 333 84819 88399;EQDQ01  00002PRCP99
0159026800999992000082003004+56920+018150FM-12+003999999V0201301N001010057019N0400001N1+01501+01431101271ADDGA1081+005709059GF108991081051004501999999MA1999999100811MD1710021+9999REMSYN076AAXX  20034 02680 42482 81302 10150 20143 30081 40127 57002 885// 333 88619;
0259026800999992000082006004+56920+018150FM-12+003999999V0201401N002110080019N0400001N1+01601+01531101191ADDAA199000091AJ199999999999999GA1081+008009059GF108991081081004501999999IA1259KA1120N+01401MA1999999100731MD1810081+9999REMSYN094AAXX  20064 02680 32482 81404 10160 20153 30073 40119 58008 888// 333 20140 30/// 41894 88695;EQDQ01  00002PRCP99Q02  08942SNDP  
0159026800999992000082009004+56920+018150FM-12+003999999V0201501N002110045019N0300001N1+01701+01681101131ADDGA1081+004509059GF108991081051004501999999MA1999999100671MD1710061+9999REMSYN076AAXX  20094 02680 42480 81504 10170 20168 30067 40113 57006 885// 333 88694;
0195026800999992000082012004+56920+018150FM-12+003999999V0202101N00261030001CN0250001N1+01921+01691101061ADDAA199000091GA1021+004509089GF108991021021004501031999MA1999999100601MD1710071+9999REMSYN082AAXX  20124 02680 32475 82105 10192 20169 30060 40106 57007 8223/ 333 82894 87399;EQDQ01  00002PRCP99
0193026800999992000082015004+56920+018150FM-12+003999999V0202301N00211002501CN0100001N1+01731+01711100961ADDAY121031AY221031GA1061+002509079GF108991061071002501021999MA1999999100501MD1610101+9999MW1611REMSYN088AAXX  20154 02680 41360 82304 10173 20171 30050 40096 56010 76122 8672/ 333 86793 88599;
0229026800999992000082018004+56920+018150FM-12+003999999V0202701N00311030001CN0400001N1+01651+01611100901ADDAA112004191AY161061AY221061GA1021+002509079GF107991021071002501071011KA1120M+02001MA1999999100441MD1610061+9999MW1011REMSYN100AAXX  20184 02680 11382 72706 10165 20161 30044 40090 56006 60042 70162 82771 333 10200 82793 86399;
0159026800999992000082021004+56920+018150FM-12+003999999V0202601N003112200019N0400001N1+01581+01531101041ADDGA1011+999999019GF101991001001999999001011MA1999999100581MD1210141+9999REMSYN076AAXX  20214 02680 42982 12606 10158 20153 30058 40104 52014 80001 333 81099;
0170026800999992000082100004+56920+018150FM-12+003999999V0202701N002612200019N0450001N1+01541+01111101061ADDAA199000021GA1021+999999019GF102991001001999999001011MA1999999100601MD1210021+9999REMSYN076AAXX  21004 02680 32983 22705 10154 20111 30060 40106 52002 80001 333 82099;
0159026800999992000082103004+56920+018150FM-12+003999999V0202701N003112200019N0500001N1+01451+00991101031ADDGA1031+999999079GF103991031001999999031011MA1999999100571MD1610031+9999REMSYN076AAXX  21034 02680 42984 32706 10145 20099 30057 40103 56003 83031 333 83399;
0220026800999992000082106004+56920+018150FM-12+003999999V0202501N002112200019N0500001N1+01561+00931101111ADDAA199000091GA1011+999999079GF104991041001999999081011IA1019KA1120N+01451MA1999999100651MD1010081+9999REMSYN088AAXX  21064 02680 32984 42504 10156 20093 30065 40111 50008 84081 333 20145 30/// 81399;EQDQ01  00002PRCP99
0213026800999992000082109004+56920+018150FM-12+003999999V0202301N00211030001CN0500001N1+01471+01201101061ADDAY121031AY221031GA1011+004509089GF108991011011004501021999MA1999999100601MD1810051+9999MW1811SA1+1789REMSYN100AAXX  21094 02680 41484 82304 10147 20120 30060 40106 58005 78122 8112/ 222// 00178 333 81894 88599;
0210026800999992000082112004+56920+018150FM-12+003999999V0202601N00311030001CN0500001N1+01621+00991101121ADDAA106003091AY181061AY221061GA1011+008009089GF107991011021008001071999MA1999999100661MD1110061+9999MW1011REMSYN094AAXX  21124 02680 11584 72606 10162 20099 30066 40112 51006 60031 70182 8127/ 333 81895 86499;
0165026800999992000082115004+56920+018150FM-12+003999999V0202301N00311030001CN0550001N1+01601+00751101121ADDGA1011+008009089GF106991011011008001071001MA1999999100661MD1410001+9999REMSYN082AAXX  21154 02680 42585 62306 10160 20075 30066 40112 54000 81170 333 81895 85399;
0195026800999992000082118004+56920+018150FM-12+003999999V0202301N002612200019N0550001N1+01531+01231101151ADDAA112003091GA1011+999999079GF103991011001999999071081KA1120M+01721MA1999999100691MD1210031+9999REMSYN088AAXX  21184 02680 12985 32305 10153 20123 30069 40115 52003 60032 81078 333 10172 81399;
0159026800999992000082121004+56920+018150FM-12+003999999V0202401N002612200019N0500001N1+01531+01371101131ADDGA1011+999999079GF101991011001999999031011MA1999999100671MD1810021+9999REMSYN076AAXX  21214 02680 42984 12405 10153 20137 30067 40113 58002 81031 333 81399;
0189026800999992000082200004+56920+018150FM-12+003999999V0202901N003112200019N0550001N1+01511+00901101141ADDAA199000091GA1011+999999019GF101991001001999999001011MA1999999100681MD1010011+9999REMSYN076AAXX  22004 02680 32985 12906 10151 20090 30068 40114 50001 80001 333 81099;EQDQ01  00002PRCP99
0165026800999992000082203004+56920+018150FM-12+003999999V0203101N002619999999N0450001N1+01401+01081101121ADDGA1011+025009039GF107991011001999999071081MA1999999100661MD1810021+9999REMSYN082AAXX  22034 02680 42983 73105 10140 20108 30066 40112 58002 81078 333 81399 87299;
0226026800999992000082206004+56920+018150FM-12+003999999V0202901N00151030001CN0650001N1+01461+01141101221ADDAA199000091GA1011+004509089GF108991011011004501011999IA1019KA1120N+01401MA1999999100761MD1210101+9999REMSYN094AAXX  22064 02680 32487 82903 10146 20114 30076 40122 52010 8111/ 333 20140 30/// 81894 88499;EQDQ01  00002PRCP99
0159026800999992000082209004+56920+018150FM-12+003999999V0202601N002612200019N0500001N1+01581+00811101251ADDGA1011+008009029GF102991011021008001071011MA1999999100791MD1010031+9999REMSYN076AAXX  22094 02680 42584 22605 10158 20081 30079 40125 50003 81271 333 81895;
0195026800999992000082212004+56920+018150FM-12+003999999V0202701N003110300019N0500001N1+01581+00971101301ADDAA199000091GA1011+004509089GF105991011021008001071001MA1999999100841MD1110051+9999REMSYN082AAXX  22124 02680 32584 52706 10158 20097 30084 40130 51005 81270 333 81894 83499;EQDQ01  00002PRCP99
0159026800999992000082215004+56920+018150FM-12+003999999V0202701N002112200019N0500001N1+01801+00711101351ADDGA1011+012509029GF101991011011012501081011MA1999999100891MD1310051+9999REMSYN076AAXX  22154 02680 42684 12704 10180 20071 30089 40135 53005 81181 333 81896;
0242026800999992000082218004+56920+018150FM-12+003999999V0202501N002112200019N0700001N1+01641+01341101411ADDAA199000091AY101061AY201061GA1011+004509089GF102991011091004501061031KA1120M+01851MA1999999100951MD1210061+9999MW1151REMSYN094AAXX  22184 02680 31488 22504 10164 20134 30095 40141 52006 71500 81963 333 10185 81894 81995;EQDQ01  00002PRCP99
0171026800999992000082221004+56920+018150FM-12+003999999V0202901N003112200019N0700001N1+01561+01021101481ADDAY181031AY201031GA1001+999999999GF100991001001999999001001MA1999999101021MD1010071+9999MW1011REMSYN066AAXX  22214 02680 41988 02906 10156 20102 30102 40148 50007 70180;
0188026800999992000082300004+56920+018150FM-12+003999999V0202901N003112200019N0750001N1+01471+01171101521ADDAA106000191AY181061AY201061GA1001+999999999GF100991001001999999001001MA1999999101061MD1010041+9999MW1021REMSYN072AAXX  23004 02680 11989 02906 10147 20117 30106 40152 50004 69911 70280;
0159026800999992000082303004+56920+018150FM-12+003999999V0202901N002612200019N0750001N1+01441+01351101571ADDGA1011+004509099GF101991011091004501001001MA1999999101111MD1210051+9999REMSYN076AAXX  23034 02680 42489 12905 10144 20135 30111 40157 52005 81900 333 81994;
0207026800999992000082306004+56920+018150FM-12+003999999V0203001N002112200019N0750001N1+01541+01291101621ADDAA112000191GA1011+004509029GF101991011011004501031001IA1019KA1120N+01441MA1999999101161MD1310051+9999REMSYN094AAXX  23064 02680 12489 13004 10154 20129 30116 40162 53005 69912 81130 333 20144 30/// 81894;
0179026800999992000082309004+56920+018150FM-12+003999999V0202901N002612200019N0700001N1+01641+01161101711ADDGA1011+004509029GF102991021021004501001001MA1999999101251MD1210091+9999SA1+1689REMSYN088AAXX  23094 02680 42488 22905 10164 20116 30125 40171 52009 82200 222// 00168 333 81894;
0195026800999992000082312004+56920+018150FM-12+003999999V0202901N002612200019N0750001N1+01751+00891101731ADDAA199000091GA1011+008009089GF101991011091008001001001MA1999999101271MD1110021+9999REMSYN082AAXX  23124 02680 32589 12905 10175 20089 30127 40173 51002 81900 333 81895 81995;EQDQ01  00002PRCP99
0193026800999992000082315004+56920+018150FM-12+003999999V0202501N002612200019N0750001N1+01741+00741101711ADDAY101031AY201031GA1011+012509089GF102991021091012501061001MA1999999101251MD1710021+9999MW1151REMSYN088AAXX  23154 02680 41689 22505 10174 20074 30125 40171 57002 71500 82960 333 81896 81996;
0229026800999992000082318004+56920+018150FM-12+003999999V0202501N001512200019N0750001N1+01531+01071101701ADDAA112000791AY181061AY201061GA1011+004509089GF101991011091004501061001KA1120M+01821MA1999999101241MD1710011+9999MW1151REMSYN100AAXX  23184 02680 11489 12503 10153 20107 30124 40170 57001 69902 71580 81960 333 10182 81894 81994;
0159026800999992000082321004+56920+018150FM-12+003999999V0202501N002619999999N0750001N1+01601+00991101691ADDGA1061+999999079GF106991061001999999071001MA1999999101231MD1710011+9999REMSYN076AAXX  23214 02680 42989 62505 10160 20099 30123 40169 57001 86070 333 86399;
0189026800999992000082400004+56920+018150FM-12+003999999V0202901N003619999999N0700001N1+01501+00891101591ADDAA199000091GA1071+999999079GF107991071001999999031999MA1999999101131MD1810101+9999REMSYN076AAXX  24004 02680 32988 72907 10150 20089 30113 40159 58010 8703/ 333 87399;EQDQ01  00002PRCP99
0165026800999992000082403004+56920+018150FM-12+003999999V0202601N00411030001CN0650001N1+01371+00811101471ADDGA1011+008009089GF108991011021008001071999MA1999999101001MD1710131+9999REMSYN082AAXX  24034 02680 42587 82608 10137 20081 30100 40147 57013 8127/ 333 81895 88499;
0220026800999992000082406004+56920+018150FM-12+003999999V0202501N003610300019N0650001N1+01391+01141101371ADDAA199000091GA1011+004509029GF107991011021004501071999IA1019KA1120N+01351MA1999999100901MD1610101+9999REMSYN088AAXX  24064 02680 32487 72507 10139 20114 30090 40137 56010 8127/ 333 20135 30/// 81894;EQDQ01  00002PRCP99
0232026800999992000082412004+56920+018150FM-12+003999999V0202501N00411004501CN0260001N1+01301+01201101141ADDAA106002091AY121061AY221061GA1011+002509089GA2061+004509069GF108991061081002501071999MA1999999100671MD1810181+9999MW1611REMSYN100AAXX  24124 02680 11376 82508 10130 20120 30067 40114 58018 60021 76122 8687/ 333 81893 86694 88599;
0193026800999992000082415004+56920+018150FM-12+003999999V0202801N00621002501CN0130001N1+01231+01221100931ADDAY161031AY261031GA1071+002509079GF108991071071002501021999MA1999999100461MD1610211+9999MW1631REMSYN088AAXX  24154 02680 41363 82812 10123 20122 30046 40093 56021 76366 8772/ 333 87793 88598;
0229026800999992000082418004+56920+018150FM-12+003999999V0202901N00211009001CN0160001N1+01201+01191100671ADDAA112023191AY161061AY261061GA1011+004509089GF108991081081004501999999KA1120M+01491MA1999999100211MD1710251+9999MW1631REMSYN100AAXX  24184 02680 11466 82904 10120 20119 30021 40067 57025 60232 76366 888// 333 10149 81894 88695;
0187026800999992000082421004+56920+018150FM-12+003999999V0203601N002610180019N0250001N1+01141+01131100581ADDAY161031AY261031GA1081+018009029GF108991081001017501021999MA1999999100121MD1610091+9999MW1631REMSYN082AAXX  24214 02680 41775 83605 10114 20113 30012 40058 56009 76366 8802/ 333 88556;
0204026800999992000082500004+56920+018150FM-12+003999999V0203601N003612200019N0700001N1+01251+01051100671ADDAA106002091AY161061AY261061GA1011+004509029GF101991011021004501071011MA1999999100211MD1210091+9999MW1011REMSYN088AAXX  25004 02680 11488 13607 10125 20105 30021 40067 52009 60021 70166 81271 333 81894;
0165026800999992000082503004+56920+018150FM-12+003999999V0203601N003612200019N0750001N1+01261+00991100881ADDGA1011+004509089GF103991021031004501061001MA1999999100411MD1210201+9999REMSYN082AAXX  25034 02680 42489 33607 10126 20099 30041 40088 52020 82360 333 81894 81994;
0213026800999992000082506004+56920+018150FM-12+003999999V0203501N003612200019N0750001N1+01351+00921101121ADDAA112002091GA1011+004509089GF101991011031004501061001IA1019KA1120N+01141MA1999999100651MD1210241+9999REMSYN100AAXX  25064 02680 12489 13507 10135 20092 30065 40112 52024 60022 81360 333 20114 30/// 81894 81994;
0179026800999992000082509004+56920+018150FM-12+003999999V0203301N004112200019N0700001N1+01441+01021101331ADDGA1031+004509029GF104991031021004501061001MA1999999100871MD1210221+9999SA1+1229REMSYN088AAXX  25094 02680 42488 43308 10144 20102 30087 40133 52022 83260 222// 00122 333 83894;
0195026800999992000082512004+56920+018150FM-12+003999999V0203401N004112200019N0700001N1+01601+01151101561ADDAA199000091GA1011+004509089GF104991011021004501061001MA1999999101101MD1110231+9999REMSYN082AAXX  25124 02680 32488 43408 10160 20115 30110 40156 51023 81260 333 81894 83398;EQDQ01  00002PRCP99
0159026800999992000082515004+56920+018150FM-12+003999999V0203501N004112200019N0750001N1+01471+00901101761ADDGA1011+004509029GF101991011021004501061001MA1999999101301MD1210201+9999REMSYN076AAXX  25154 02680 42489 13508 10147 20090 30130 40176 52020 81260 333 81894;
0208026800999992000082518004+56920+018150FM-12+003999999V0203601N001012200019N0700001N1+01241+00921101961ADDAA199000091GA1011+004509029GF101991011021004501061011KA1120M+01611MA1999999101491MD1210191+9999REMSYN082AAXX  25184 02680 32488 13602 10124 20092 30149 40196 52019 81261 333 10161 81894;EQDQ01  00002PRCP99
0143026800999992000082521004+56920+018150FM-12+003999999V0203601N001012200019N0650001N1+01151+01131102091ADDGA1001+999999999GF100991001001999999001001MA1999999101621MD1110131+9999REMSYN060AAXX  25214 02680 42987 03602 10115 20113 30162 40209 51013;
0189026800999992000082600004+56920+018150FM-12+003999999V0200101N001012200019N0750001N1+01101+01051102191ADDAA199000091GA1011+008009059GF101991011051008001001001MA1999999101721MD1210101+9999REMSYN076AAXX  26004 02680 32589 10102 10110 20105 30172 40219 52010 81500 333 81695;EQDQ01  00002PRCP99
0159026800999992000082603004+56920+018150FM-12+003999999V0203301N001012200019N0750001N1+01101+01081102251ADDGA1011+008009029GF101991011011008001001001MA1999999101781MD1210061+9999REMSYN076AAXX  26034 02680 42589 13302 10110 20108 30178 40225 52006 81100 333 81895;
0220026800999992000082606004+56920+018150FM-12+003999999V0200301N001012200019N0750001N1+01371+01121102341ADDAA199000091GA1011+008009029GF101991011021008001001011IA1019KA1120N+01091MA1999999101871MD1210091+9999REMSYN088AAXX  26064 02680 32589 10302 10137 20112 30187 40234 52009 81201 333 20109 30/// 81895;EQDQ01  00002PRCP99
0159026800999992000082609004+56920+018150FM-12+003999999V0203401N001012200019N0750001N1+01561+00851102441ADDGA1011+008009029GF101991011021008001001011MA1999999101971MD1210101+9999REMSYN076AAXX  26094 02680 42589 13402 10156 20085 30197 40244 52010 81201 333 81895;
0189026800999992000082612004+56920+018150FM-12+003999999V0202701N001512200019N0750001N1+01781+00661102511ADDAA199000091GA1011+008009029GF101991011021012501031011MA1999999102041MD1110071+9999REMSYN076AAXX  26124 02680 32689 12703 10178 20066 30204 40251 51007 81231 333 81895;EQDQ01  00002PRCP99
0159026800999992000082615004+56920+018150FM-12+003999999V0201801N000512200019N0750001N1+01671+00591102471ADDGA1011+008009029GF102991011081008001031011MA1999999102011MD1810031+9999REMSYN076AAXX  26154 02680 42589 21801 10167 20059 30201 40247 58003 81831 333 81895;
0208026800999992000082618004+56920+018150FM-12+003999999V0201201N000512200019N0750001N1+01431+00661102491ADDAA199000091GA1011+008009029GF101991011011008001031011KA1120M+01851MA1999999102031MD1110021+9999REMSYN082AAXX  26184 02680 32589 11201 10143 20066 30203 40249 51002 81131 333 10185 81895;EQDQ01  00002PRCP99
0143026800999992000082621004+56920+018150FM-12+003999999V0200901N001012200019N0750001N1+01101+00941102491ADDGA1001+999999999GF100991001001999999001001MA1999999102041MD1110011+9999REMSYN060AAXX  26214 02680 42989 00902 10110 20094 30204 40249 51001;
0173026800999992000082700004+56920+018150FM-12+003999999V0201001N001512200019N0750001N1+01201+01131102511ADDAA199000091GA1001+999999999GF100991001001999999001001MA1999999102051MD1110011+9999REMSYN060AAXX  27004 02680 32989 01003 10120 20113 30205 40251 51001;EQDQ01  00002PRCP99
0159026800999992000082703004+56920+018150FM-12+003999999V0201001N001012200019N0750001N1+01231+01161102521ADDGA1011+999999019GF101991001001999999001011MA1999999102051MD1410001+9999REMSYN076AAXX  27034 02680 42989 11002 10123 20116 30205 40252 54000 80001 333 81099;
0220026800999992000082706004+56920+018150FM-12+003999999V0201101N001512200019N0550001N1+01621+01581102521ADDAA199000091GA1021+002509069GF102991021061002501001011IA1019KA1120N+01101MA1999999102061MD1210011+9999REMSYN088AAXX  27064 02680 32385 21103 10162 20158 30206 40252 52001 82601 333 20110 30/// 82793;EQDQ01  00002PRCP99
0159026800999992000082709004+56920+018150FM-12+003999999V0201401N002612200019N0500001N1+01771+01561102601ADDGA1011+004509029GF102991011021004501001081MA1999999102141MD1310081+9999REMSYN076AAXX  27094 02680 42484 21405 10177 20156 30214 40260 53008 81208 333 81894;
0189026800999992000082712004+56920+018150FM-12+003999999V0201501N002612200019N0400001N1+01821+01521102661ADDAA199000091GA1011+004509029GF101991011021004501001011MA1999999102201MD1210061+9999REMSYN076AAXX  27124 02680 32482 11505 10182 20152 30220 40266 52006 81201 333 81894;EQDQ01  00002PRCP99
0159026800999992000082715004+56920+018150FM-12+003999999V0201201N003112200019N0450001N1+01731+01341102601ADDGA1011+008009029GF101991011011008001001011MA1999999102111MD1810091+9999REMSYN076AAXX  27154 02680 42583 11206 10173 20134 30211 40260 58009 81101 333 81895;
0208026800999992000082718004+56920+018150FM-12+003999999V0201201N002112200019N0750001N1+01491+01291102521ADDAA199000091GA1011+004509029GF101991011011004501001011KA1120M+01851MA1999999102061MD1710051+9999REMSYN082AAXX  27184 02680 32489 11204 10149 20129 30206 40252 57005 81101 333 10185 81894;EQDQ01  00002PRCP99
0143026800999992000082721004+56920+018150FM-12+003999999V0201101N002112200019N0500001N1+01501+01401102501ADDGA1001+999999999GF100991001001999999001001MA1999999102041MD1710021+9999REMSYN060AAXX  27214 02680 42984 01104 10150 20140 30204 40250 57002;
0173026800999992000082800004+56920+018150FM-12+003999999V0201201N002612200019N0750001N1+01531+01291102481ADDAA199000091GA1001+999999999GF100991001001999999001001MA1999999102021MD1710021+9999REMSYN060AAXX  28004 02680 32989 01205 10153 20129 30202 40248 57002;EQDQ01  00002PRCP99
0159026800999992000082803004+56920+018150FM-12+003999999V0201301N002110080019N0750001N1+01561+01461102421ADDGA1051+008009059GF105991051051008001001001MA1999999101961MD1810061+9999REMSYN076AAXX  28034 02680 42589 51304 10156 20146 30196 40242 58006 85500 333 85695;
0220026800999992000082806004+56920+018150FM-12+003999999V0201301N002612200019N0650001N1+01681+01551102401ADDAA199000091GA1011+004509029GF101991011011004501031011IA1019KA1120N+01491MA1999999101941MD1710021+9999REMSYN088AAXX  28064 02680 32487 11305 10168 20155 30194 40240 57002 81131 333 20149 30/// 81894;EQDQ01  00002PRCP99
0155026800999992000082809004+56920+018150FM-12+003999999V0201301N003112200019N0500001N1+01801+01521102431ADDGA1001+999999999GF100991001001999999001001MA1999999101971MD1110031+9999REMSYN072AAXX  28094 02680 42984 01306 10180 20152 30197 40243 51003 222// 00158;
0189026800999992000082812004+56920+018150FM-12+003999999V0201201N003612200019N0400001N1+01801+01491102391ADDAA199000091GA1011+004509029GF101991011011004501001001MA1999999101931MD1710041+9999REMSYN076AAXX  28124 02680 32482 11207 10180 20149 30193 40239 57004 81100 333 81894;EQDQ01  00002PRCP99
0143026800999992000082815004+56920+018150FM-12+003999999V0201201N003612200019N0400001N1+01781+01391102311ADDGA1001+999999999GF100991001001999999001001MA1999999101851MD1710081+9999REMSYN060AAXX  28154 02680 42982 01207 10178 20139 30185 40231 57008;
0208026800999992000082818004+56920+018150FM-12+003999999V0201101N003112200019N0550001N1+01621+01391102241ADDAA199000091GA1011+999999079GF101991011001999999031001KA1120M+01861MA1999999101781MD1710071+9999REMSYN082AAXX  28184 02680 32985 11106 10162 20139 30178 40224 57007 81030 333 10186 81399;EQDQ01  00002PRCP99
0159026800999992000082821004+56920+018150FM-12+003999999V0201101N002612200019N0550001N1+01551+01401102211ADDGA1011+999999079GF101991011001999999031001MA1999999101751MD1610031+9999REMSYN076AAXX  28214 02680 42985 11105 10155 20140 30175 40221 56003 81030 333 81399;
0173026800999992000082900004+56920+018150FM-12+003999999V0200901N002112200019N0550001N1+01551+01401102111ADDAA199000091GA1001+999999999GF100991001001999999001001MA1999999101651MD1810101+9999REMSYN060AAXX  29004 02680 32985 00904 10155 20140 30165 40211 58010;EQDQ01  00002PRCP99
0165026800999992000082903004+56920+018150FM-12+003999999V0201101N002119999999N0500001N1+01571+01541102011ADDGA1011+025009039GF106991061001999999071001MA1999999101551MD1710101+9999REMSYN082AAXX  29034 02680 42984 61104 10157 20154 30155 40201 57010 86070 333 81399 84399;
0235026800999992000082906004+56920+018150FM-12+003999999V0201101N001519999999N0300001N1+01671+01651101981ADDAA112000791AY181061AY211061GA1061+999999079GF106991061001999999071001IA1099KA1120N+01551MA1999999101521MD1610031+9999MW1021REMSYN100AAXX  29064 02680 11980 61103 10167 20165 30152 40198 56003 69902 70281 86070 333 20155 31/// 86399;
0159026800999992000082909004+56920+018150FM-12+003999999V0201501N002112200019N0220001N1+01851+01731101981ADDGA1021+999999079GF102991021001999999081001MA1999999101521MD1410001+9999REMSYN076AAXX  29094 02680 42972 21504 10185 20173 30152 40198 54000 82080 333 82399;
0217026800999992000082912004+56920+018150FM-12+003999999V0201901N00151030001CN0200001N1+01841+01651101981ADDAA199000091GA1011+002509089GA2031+022509049GF107991011021002501091999MA1999999101521MD1410001+9999REMSYN088AAXX  29124 02680 32370 71903 10184 20165 30152 40198 54000 8129/ 333 81893 83498 85399;EQDQ01  00002PRCP99
0165026800999992000082915004+56920+018150FM-12+003999999V0201501N001012200019N0250001N1+01671+01621101891ADDGA1011+002509089GF104991011011002501071001MA1999999101431MD1610091+9999REMSYN082AAXX  29154 02680 42375 41502 10167 20162 30143 40189 56009 81170 333 81893 84399;
0214026800999992000082918004+56920+018150FM-12+003999999V0201801N001019999999N0250001N1+01631+01591101861ADDAA199000091GA1031+025009049GF107991071001999999091999KA1120M+01951MA1999999101401MD1710031+9999REMSYN088AAXX  29184 02680 32975 71802 10163 20159 30140 40186 57003 8709/ 333 10195 83499 83399;EQDQ01  00002PRCP99
0187026800999992000082921004+56920+018150FM-12+003999999V0202101N002110009019N0049001N1+01541+01521101851ADDAY121031AY221031GA1081+000909069GF108991081061001501999999MA1999999101391MD1710011+9999MW1101REMSYN082AAXX  29214 02680 41249 82104 10154 20152 30139 40185 57001 71022 886// 333 88703;
0201026800999992000083000004+56920+018150FM-12+003999999V0202301N001512200019N0046001N1+01461+01441101791ADDAA199000091AY121061AY211061GA1001+999999999GF100991001001999999001001MA1999999101331MD1810061+9999MW1101REMSYN066AAXX  30004 02680 31946 02303 10146 20144 30133 40179 58006 71021;EQDQ01  00002PRCP99
0187026800999992000083003004+56920+018150FM-12+003999999V0202301N001012200019N0047001N1+01401+01381101681ADDAY101031AY201031GA1011+001509069GF101991011061001501071001MA1999999101221MD1710111+9999MW1101REMSYN082AAXX  30034 02680 41247 12302 10140 20138 30122 40168 57011 71000 81670 333 81792;
0220026800999992000083006004+56920+018150FM-12+003999999V0202001N001010015019N0100001N1+01551+01531101641ADDAA199000091GA1061+001509069GF107991061061001501071011IA1099KA1120N+01401MA1999999101181MD1810041+9999REMSYN088AAXX  30064 02680 32260 72002 10155 20153 30118 40164 58004 86671 333 20140 31/// 86792;EQDQ01  00002PRCP99
0213026800999992000083009004+56920+018150FM-12+003999999V0202401N00101030001CN0200001N1+01661+01331101651ADDAY121031AY221031GA1011+004509089GF108991011011004501071999MA1999999101191MD1210011+9999MW1211SA1+1629REMSYN100AAXX  30094 02680 41470 82402 10166 20133 30119 40165 52001 72122 8117/ 222// 00162 333 81894 88499;
0204026800999992000083012004+56920+018150FM-12+003999999V0202101N001012200019N0300001N1+01821+00811101591ADDAA106000191AY161061AY221061GA1021+090009009GF102991999999999999999999MA1999999101131MD1810061+9999MW1051REMSYN088AAXX  30124 02680 11980 22102 10182 20081 30113 40159 58006 69911 70562 333 82080 82399;
0187026800999992000083015004+56920+018150FM-12+003999999V0201901N002112200019N0250001N1+01741+00931101471ADDAY101031AY201031GA1011+999999079GF101991011001999999081001MA1999999101011MD1710121+9999MW1051REMSYN082AAXX  30154 02680 41975 11904 10174 20093 30101 40147 57012 70500 81080 333 81399;
0201026800999992000083018004+56920+018150FM-12+003999999V0202001N002119999999N0250001N1+01521+01361101441ADDAA112000191GA1021+025009039GF107991071001999999071999KA1120M+01851MA1999999100981MD1610031+9999REMSYN094AAXX  30184 02680 12975 72004 10152 20136 30098 40144 56003 69912 8707/ 333 10185 82399 86499;
0159026800999992000083021004+56920+018150FM-12+003999999V0202301N001512200019N0350001N1+01471+01451101371ADDGA1021+999999079GF102991021001999999071001MA1999999100911MD1710071+9999REMSYN076AAXX  30214 02680 42981 22303 10147 20145 30091 40137 57007 82070 333 82399;
0173026800999992000083100004+56920+018150FM-12+003999999V0202301N001012200019N0300001N1+01331+01301101301ADDAA199000091GA1001+999999999GF100991001001999999001001MA1999999100831MD1810081+9999REMSYN060AAXX  31004 02680 32980 02302 10133 20130 30083 40130 58008;EQDQ01  00002PRCP99
0165026800999992000083103004+56920+018150FM-12+003999999V0202101N00211030001CN0300001N1+01441+01421101201ADDGA1011+004509089GF107991011021004501071999MA1999999100741MD1710091+9999REMSYN082AAXX  31034 02680 42480 72104 10144 20142 30074 40120 57009 8127/ 333 81894 87399;
0241026800999992000083106004+56920+018150FM-12+003999999V0202301N002112200019N0350001N1+01461+01441101141ADDAA112000791AY181061AY211061GA1011+004509089GF104991041031004501061001IA1099KA1120N+01331MA1999999100681MD1710061+9999MW1011REMSYN106AAXX  31064 02680 11481 42304 10146 20144 30068 40114 57006 69902 70181 84360 333 20133 31/// 81894 82994;
0187026800999992000083109004+56920+018150FM-12+003999999V0202401N002612200019N0450001N1+01671+00731101151ADDGA1011+000309039GA2011+004509089GF101991011031004501001011MA1999999100691MD1110011+9999REMSYN088AAXX  31094 02680 42483 12405 10167 20073 30069 40115 51001 81301 333 81301 81894 81994;
0195026800999992000083112004+56920+018150FM-12+003999999V0202301N003112200019N0450001N1+01721+00661101101ADDAA199000091GA1011+008009089GF101991011031008001081011MA1999999100641MD1810051+9999REMSYN082AAXX  31124 02680 32583 12306 10172 20066 30064 40110 58005 81381 333 81895 81995;EQDQ01  00002PRCP99
0165026800999992000083115004+56920+018150FM-12+003999999V0202301N003612200019N0500001N1+01701+00641101051ADDGA1011+008009089GF101991011031008001061011MA1999999100591MD1710051+9999REMSYN082AAXX  31154 02680 42584 12307 10170 20064 30059 40105 57005 81361 333 81895 81995;
0208026800999992000083118004+56920+018150FM-12+003999999V0202401N002112200019N0450001N1+01431+01071100981ADDAA199000091GA1011+999999079GF101991011001999999061011KA1120M+01801MA1999999100521MD1610071+9999REMSYN082AAXX  31184 02680 32983 12404 10143 20107 30052 40098 56007 81061 333 10180 81399;EQDQ01  00002PRCP99
0159026800999992000083121004+56920+018150FM-12+003999999V0202501N001012200019N0400001N1+01461+01361100921ADDGA1011+999999079GF101991011001999999061001MA1999999100461MD1710061+9999REMSYN076AAXX  31214 02680 42982 12502 10146 20136 30046 40092 57006 81060 333 81399;
0204026800999992000090100004+56920+018150FM-12+003999999V0203001N001512200019N0450001N1+01381+01361100901ADDAA106001091AY101061AY201061GA1011+004509029GF101991011021004501001001MA1999999100441MD1710021+9999MW1251REMSYN088AAXX  01004 02680 11483 13003 10138 20136 30044 40090 57002 60011 72500 81200 333 81894;
0159026800999992000090103004+56920+018150FM-12+003999999V0203001N002112200019N0500001N1+01381+01361100851ADDGA1011+004509029GF101991011021004501001001MA1999999100391MD1710051+9999REMSYN076AAXX  01034 02680 42484 13004 10138 20136 30039 40085 57005 81200 333 81894;
0207026800999992000090106004+56920+018150FM-12+003999999V0203101N001012200019N0550001N1+01571+01191100851ADDAA112001091GA1011+004509029GF101991011021004501031011IA1019KA1120N+01371MA1999999100401MD1710011+9999REMSYN094AAXX  01064 02680 12485 13102 10157 20119 30040 40085 57001 60012 81231 333 20137 30/// 81894;
0179026800999992000090109004+56920+018150FM-12+003999999V0202901N001012200019N0500001N1+01691+01051100871ADDGA1011+008009029GF102991011021008001031041MA1999999100411MD1110011+9999SA1+1649REMSYN088AAXX  01094 02680 42584 22902 10169 20105 30041 40087 51001 81234 222// 00164 333 81895;
0170026800999992000090112004+56920+018150FM-12+003999999V0202701N002112200019N0400001N1+01761+01181100861ADDAA199000021GA1011+008009029GF101991011021008001001011MA1999999100401MD1710011+9999REMSYN076AAXX  01124 02680 32582 12704 10176 20118 30040 40086 57001 81201 333 81895;
0159026800999992000090115004+56920+018150FM-12+003999999V0202401N001012200019N0500001N1+01541+01371100821ADDGA1011+004509029GF101991011021004501061011MA1999999100371MD1810031+9999REMSYN076AAXX  01154 02680 42484 12402 10154 20137 30037 40082 58003 81261 333 81894;
0208026800999992000090118004+56920+018150FM-12+003999999V0202001N001012200019N0450001N1+01301+01281100771ADDAA199000091GA1011+999999089GF101991001001999999001081KA1120M+01781MA1999999100311MD1710061+9999REMSYN082AAXX  01184 02680 32983 12002 10130 20128 30031 40077 57006 80008 333 10178 81299;EQDQ01  00002PRCP99
0159026800999992000090121004+56920+018150FM-12+003999999V0202101N000512200019N0500001N1+01241+01221100721ADDGA1011+999999079GF101991011001999999031001MA1999999100261MD1810051+9999REMSYN076AAXX  01214 02680 42984 12101 10124 20122 30026 40072 58005 81030 333 81399;
0189026800999992000090200004+56920+018150FM-12+003999999V0202001N001512200019N0450001N1+01291+01211100671ADDAA199000091GA1021+004509059GF102991021051004501001001MA1999999100211MD1710051+9999REMSYN076AAXX  02004 02680 32483 22003 10129 20121 30021 40067 57005 82500 333 82694;EQDQ01  00002PRCP99
0159026800999992000090203004+56920+018150FM-12+003999999V0201601N001012200019N0500001N1+01321+01241100531ADDGA1011+004509029GF101991011021004501001011MA1999999100071MD1710141+9999REMSYN076AAXX  02034 02680 42484 11602 10132 20124 30007 40053 57014 81201 333 81894;
0248026800999992000090206004+56920+018150FM-12+003999999V0201201N00261030001CN0400001N1+01531+01351100431ADDAA199000091GA1011+002509089GA2031+022509039GF106991011011002501071011IA1019KA1120N+01241MA1999999099981MD1710091+9999REMSYN100AAXX  02064 02680 32382 61205 10153 20135 39998 40043 57009 81171 333 20124 30/// 81893 83398 85399;EQDQ01  00002PRCP99
0187026800999992000090209004+56920+018150FM-12+003999999V0201201N00361030001CN0300001N1+01691+01321100341ADDGA1011+004509089GA2041+022509039GF107991011011004501091011MA1999999099891MD1710091+9999REMSYN088AAXX  02094 02680 42480 71207 10169 20132 39989 40034 57009 81191 333 81894 84398 86099;
0195026800999992000090212004+56920+018150FM-12+003999999V0201201N00311030001CN0250001N1+01781+01441100231ADDAA199000091GA1011+004509089GF108991011021004501081071MA1999999099781MD1810111+9999REMSYN082AAXX  02124 02680 32475 81206 10178 20144 39978 40023 58011 81287 333 81894 88299;EQDQ01  00002PRCP99
0159026800999992000090215004+56920+018150FM-12+003999999V0201201N004119999999N0200001N1+01681+01351100111ADDGA1081+999999079GF108991081001999999071999MA1999999099661MD1710121+9999REMSYN076AAXX  02154 02680 42970 81208 10168 20135 39966 40011 57012 8807/ 333 88399;
0251026800999992000090218004+56920+018150FM-12+003999999V0201201N00411030001CN0100001N1+01491+01471100101ADDAA112002091AY121061AY221061GA1011+002509079GA2041+022509039GF108991011071002501071999KA1120M+01851MA1999999099651MD1610011+9999MW1631REMSYN106AAXX  02184 02680 11360 81208 10149 20147 39965 40010 56001 60022 76322 8177/ 333 10185 81793 84398 88599;
0193026800999992000090221004+56920+018150FM-12+003999999V0201601N002110750019N0250001N1+01461+01441100041ADDAY161031AY261031GA1011+005409069GF107991011051004501001071MA1999999099591MD1610061+9999MW1021REMSYN088AAXX  02214 02680 41475 71604 10146 20144 39959 40004 56006 70266 81507 333 81618 88299;
0204026800999992000090300004+56920+018150FM-12+003999999V0202101N001512200019N0400001N1+01461+01441099991ADDAA106002091AY161061AY261061GA1021+004509059GF102991021051004501001001MA1999999099541MD1710051+9999MW1021REMSYN088AAXX  03004 02680 11482 22103 10146 20144 39954 49999 57005 60021 70266 82500 333 82694;
0159026800999992000090303004+56920+018150FM-12+003999999V0202501N001012200019N0450001N1+01381+01331100031ADDGA1021+004509029GF102991021021004501001011MA1999999099571MD1310031+9999REMSYN076AAXX  03034 02680 42483 22502 10138 20133 39957 40003 53003 82201 333 82894;
0235026800999992000090306004+56920+018150FM-12+003999999V0202201N00101075001CN0500001N1+01451+01331100061ADDAA112002091GA1011+004509099GA2011+004509089GF105991011091004501081011IA1099KA1120N+01381MA1999999099611MD1210041+9999REMSYN106AAXX  03064 02680 12484 52202 10145 20133 39961 40006 52004 60022 81981 333 20138 31/// 81994 81894 84099;
0165026800999992000090309004+56920+018150FM-12+003999999V0202301N00101030001CN0500001N1+01671+01221100151ADDGA1021+004509089GF108991021021004501081071MA1999999099701MD1210091+9999REMSYN082AAXX  03094 02680 42484 82302 10167 20122 39970 40015 52009 82287 333 82894 88299;
0195026800999992000090312004+56920+018150FM-12+003999999V0203201N001012200019N0500001N1+01781+00941100171ADDAA199000091GA1011+004509089GF104991011021008001031011MA1999999099721MD1110021+9999REMSYN082AAXX  03124 02680 32584 43202 10178 20094 39972 40017 51002 81231 333 81894 83399;EQDQ01  00002PRCP99
0165026800999992000090315004+56920+018150FM-12+003999999V0203101N00101030001CN0450001N1+01751+00571100211ADDGA1011+008009089GF107991011021008001031021MA1999999099761MD1210041+9999REMSYN082AAXX  03154 02680 42583 73102 10175 20057 39976 40021 52004 81232 333 81895 87099;
0214026800999992000090318004+56920+018150FM-12+003999999V0209999V00051030001CN0400001N1+01441+01271100271ADDAA199000091GA1011+004509089GF108991011021008001061071KA1120M+01801MA1999999099821MD1310061+9999REMSYN088AAXX  03184 02680 32582 89901 10144 20127 39982 40027 53006 81267 333 10180 81894 88299;EQDQ01  00002PRCP99
0159026800999992000090321004+56920+018150FM-12+003999999V0200201N004110111019N0300001N1+01281+01011100461ADDGA1071+011109059GF107991071051012501999999MA1999999100001MD1210181+9999REMSYN076AAXX  03214 02680 42680 70208 10128 20101 30000 40046 52018 875// 333 87637;
0189026800999992000090400004+56920+018150FM-12+003999999V0200101N004110150019N0550001N1+01281+01031100541ADDAA199000091GA1081+015009059GF108991081051012501999999MA1999999100081MD1010081+9999REMSYN076AAXX  04004 02680 32685 80108 10128 20103 30008 40054 50008 885// 333 88650;EQDQ01  00002PRCP99
0165026800999992000090403004+56920+018150FM-12+003999999V0203601N004110090019N0550001N1+01301+00721100621ADDGA1011+004509089GF108991081081004501999999MA1999999100161MD1210081+9999REMSYN082AAXX  04034 02680 42485 83608 10130 20072 30016 40062 52008 888// 333 81894 88637;
0226026800999992000090406004+56920+018150FM-12+003999999V0203601N00461030001CN0750001N1+01281+00691100751ADDAA199000091GA1011+008009089GF107991021011008001071999IA1019KA1120N+01281MA1999999100291MD1310131+9999REMSYN094AAXX  04064 02680 32589 73609 10128 20069 30029 40075 53013 8217/ 333 20128 30/// 81895 87399;EQDQ01  00002PRCP99
0179026800999992000090409004+56920+018150FM-12+003999999V0203501N005112200019N0700001N1+01361+00761100881ADDGA1011+008009029GF103991021021008001031001MA1999999100411MD1210121+9999SA1+1489REMSYN088AAXX  04094 02680 42588 33510 10136 20076 30041 40088 52012 82230 222// 00148 333 81895;
0189026800999992000090412004+56920+018150FM-12+003999999V0203301N005112200019N0650001N1+01351+00801101011ADDAA199000091GA1011+008009029GF102991011021008001071011MA1999999100541MD1210131+9999REMSYN076AAXX  04124 02680 32587 23310 10135 20080 30054 40101 52013 81271 333 81895;EQDQ01  00002PRCP99
0159026800999992000090415004+56920+018150FM-12+003999999V0203401N004112200019N0700001N1+01291+00671101151ADDGA1011+008009029GF101991011021008001001011MA1999999100681MD1210141+9999REMSYN076AAXX  04154 02680 42588 13408 10129 20067 30068 40115 52014 81201 333 81895;
0229026800999992000090418004+56920+018150FM-12+003999999V0203501N002610090019N0750001N1+01121+00641101291ADDAA112000791AY111061AY201061GA1011+004509089GF106991061081004501001001KA1120M+01421MA1999999100821MD1310141+9999MW1801REMSYN100AAXX  04184 02680 11489 63505 10112 20064 30082 40129 53014 69902 78010 86800 333 10142 81894 86625;
0159026800999992000090421004+56920+018150FM-12+003999999V0203401N002612200019N0750001N1+01121+00421101341ADDGA1011+008009059GF101991011051008001001001MA1999999100871MD1110051+9999REMSYN076AAXX  04214 02680 42589 13405 10112 20042 30087 40134 51005 81500 333 81695;
0170026800999992000090500004+56920+018150FM-12+003999999V0203501N002112200019N0750001N1+01061+00481101361ADDAA199000021GA1011+004509059GF101991011051004501031001MA1999999100891MD1110021+9999REMSYN076AAXX  05004 02680 32489 13504 10106 20048 30089 40136 51002 81530 333 81694;
0165026800999992000090503004+56920+018150FM-12+003999999V0203601N003110090019N0750001N1+01141+00851101351ADDGA1011+004509089GF105991051081004501001001MA1999999100881MD1710011+9999REMSYN082AAXX  05034 02680 42489 53606 10114 20085 30088 40135 57001 85800 333 81894 85656;
0201026800999992000090506004+56920+018150FM-12+003999999V0203601N003612200019N0750001N1+01251+00871101401ADDAA199000021GA1011+004509029GF104991031081004501031011IA1019KA1120N+01061MA1999999100931MD1310051+9999REMSYN088AAXX  05064 02680 32489 43607 10125 20087 30093 40140 53005 83831 333 20106 30/// 81894;
0159026800999992000090509004+56920+018150FM-12+003999999V0203401N003612200019N0750001N1+01401+00681101501ADDGA1011+008009029GF102991011021008001031011MA1999999101031MD1210101+9999REMSYN076AAXX  05094 02680 42589 23407 10140 20068 30103 40150 52010 81231 333 81895;
0159026800999992000090512004+56920+018150FM-12+003999999V0203401N004612200019N0750001N1+01451+00301101591ADDGA1011+008009029GF101991011021008001061011MA1999999101131MD1110101+9999REMSYN076AAXX  05124 02680 42589 13409 10145 20030 30113 40159 51010 81261 333 81895;
0159026800999992000090515004+56920+018150FM-12+003999999V0203301N003112200019N0750001N1+01391+00111101671ADDGA1011+008009029GF101991011021008001001011MA1999999101201MD1210071+9999REMSYN076AAXX  05154 02680 42589 13306 10139 20011 30120 40167 52007 81201 333 81895;
0208026800999992000090518004+56920+018150FM-12+003999999V0203401N001012200019N0750001N1+01071+00251101731ADDAA199000091GA1011+008009029GF101991011021008001001011KA1120M+01471MA1999999101261MD1210061+9999REMSYN082AAXX  05184 02680 32589 13402 10107 20025 30126 40173 52006 81201 333 10147 81895;EQDQ01  00002PRCP99
0143026800999992000090521004+56920+018150FM-12+003999999V0200101N001012200019N0750001N1+00921+00481101771ADDGA1001+999999999GF100991001001999999001001MA1999999101301MD1210041+9999REMSYN060AAXX  05214 02680 42989 00102 10092 20048 30130 40177 52004;
0189026800999992000090600004+56920+018150FM-12+003999999V0200501N000512200019N0750001N1+00901+00271101741ADDAA199000091GA1011+004509029GF101991011011004501001001MA1999999101271MD1810031+9999REMSYN076AAXX  06004 02680 32489 10501 10090 20027 30127 40174 58003 81100 333 81894;EQDQ01  00002PRCP99
0159026800999992000090603004+56920+018150FM-12+003999999V0200801N000512200019N0750001N1+00831+00431101671ADDGA1011+004509029GF101991011011004501001011MA1999999101201MD1710071+9999REMSYN076AAXX  06034 02680 42489 10801 10083 20043 30120 40167 57007 81101 333 81894;
0220026800999992000090606004+56920+018150FM-12+003999999V0200901N000512200019N0750001N1+01191+00631101621ADDAA199000091GA1011+999999079GF101991011001999999031011IA1019KA1120N+00831MA1999999101151MD1710051+9999REMSYN088AAXX  06064 02680 32989 10901 10119 20063 30115 40162 57005 81031 333 20083 30/// 81399;EQDQ01  00002PRCP99
0179026800999992000090609004+56920+018150FM-12+003999999V0201701N002112200019N0750001N1+01501+00441101571ADDGA1011+012509029GF101991011021012501031011MA1999999101111MD1710041+9999SA1+1529REMSYN088AAXX  06094 02680 42689 11704 10150 20044 30111 40157 57004 81231 222// 00152 333 81896;
0189026800999992000090612004+56920+018150FM-12+003999999V0202201N002112200019N0700001N1+01671+00471101471ADDAA199000091GA1011+012509029GF101991011021012501031011MA1999999101011MD1710101+9999REMSYN076AAXX  06124 02680 32688 12204 10167 20047 30101 40147 57010 81231 333 81896;EQDQ01  00002PRCP99
0159026800999992000090615004+56920+018150FM-12+003999999V0202001N002612200019N0650001N1+01521+00301101371ADDGA1011+012509029GF101991011081012501001091MA1999999100911MD1710101+9999REMSYN076AAXX  06154 02680 42687 12005 10152 20030 30091 40137 57010 81809 333 81896;
0208026800999992000090618004+56920+018150FM-12+003999999V0201901N002112200019N0700001N1+01271+00531101301ADDAA199000091GA1011+008009029GF101991011021008001071001KA1120M+01671MA1999999100831MD1710081+9999REMSYN082AAXX  06184 02680 32588 11904 10127 20053 30083 40130 57008 81270 333 10167 81895;EQDQ01  00002PRCP99
0159026800999992000090621004+56920+018150FM-12+003999999V0201501N002112200019N0650001N1+01301+00541101211ADDGA1021+008009029GF102991021021008001001001MA1999999100741MD1710091+9999REMSYN076AAXX  06214 02680 42587 21504 10130 20054 30074 40121 57009 82200 333 82895;
0189026800999992000090700004+56920+018150FM-12+003999999V0201801N003112200019N0700001N1+01321+00661101131ADDAA199000091GA1011+008009029GF101991011011008001031001MA1999999100661MD1710081+9999REMSYN076AAXX  07004 02680 32588 11806 10132 20066 30066 40113 57008 81130 333 81895;EQDQ01  00002PRCP99
0159026800999992000090703004+56920+018150FM-12+003999999V0201601N003112200019N0650001N1+01341+00911101101ADDGA1011+004509029GF101991011021004501031001MA1999999100631MD1610031+9999REMSYN076AAXX  07034 02680 42487 11606 10134 20091 30063 40110 56003 81230 333 81894;
0220026800999992000090706004+56920+018150FM-12+003999999V0201601N003112200019N0750001N1+01461+00851101201ADDAA199000091GA1011+008009029GF103991031081008001031011IA1019KA1120N+01251MA1999999100741MD1310111+9999REMSYN088AAXX  07064 02680 32589 31606 10146 20085 30074 40120 53011 83831 333 20125 30/// 81895;EQDQ01  00002PRCP99
0159026800999992000090709004+56920+018150FM-12+003999999V0201401N003612200019N0650001N1+01651+00771101371ADDGA1011+008009029GF101991011021008001031011MA1999999100911MD1210171+9999REMSYN076AAXX  07094 02680 42587 11407 10165 20077 30091 40137 52017 81231 333 81895;
0189026800999992000090712004+56920+018150FM-12+003999999V0201501N002612200019N0600001N1+01671+00761101471ADDAA199000091GA1011+012509029GF101991011021012501001001MA1999999101011MD1110101+9999REMSYN076AAXX  07124 02680 32686 11505 10167 20076 30101 40147 51010 81200 333 81896;EQDQ01  00002PRCP99
0159026800999992000090715004+56920+018150FM-12+003999999V0201601N002612200019N0650001N1+01621+00741101551ADDGA1011+012509029GF101991011011012501001001MA1999999101091MD1210081+9999REMSYN076AAXX  07154 02680 42687 11605 10162 20074 30109 40155 52008 81100 333 81896;
0214026800999992000090718004+56920+018150FM-12+003999999V0201801N00261030001CN0600001N1+01381+00731101641ADDAA199000091GA1011+008009089GF106991011011008001071081KA1120M+01751MA1999999101171MD1210081+9999REMSYN088AAXX  07184 02680 32586 61805 10138 20073 30117 40164 52008 81178 333 10175 81895 86299;EQDQ01  00002PRCP99
0159026800999992000090721004+56920+018150FM-12+003999999V0201701N003612200019N0650001N1+01391+00551101661ADDGA1041+999999089GF104991001001999999001081MA1999999101191MD1010021+9999REMSYN076AAXX  07214 02680 42987 41707 10139 20055 30119 40166 50002 80008 333 84299;
0163026800999992000090800004+56920+018150FM-12+003999999V0201901N003619999999N0600001N1+01381+00761101501ADDAA199000091GF106991061021999999091091MA1999999101131MD1810061+9999REMSYN066AAXX  08004 02680 32986 61907 10138 20076 30113 40150 58006 86299;EQDQ01  00002PRCP99
0165026800999992000090803004+56920+018150FM-12+003999999V0201801N00461999999CN0550001N1+01461+01131101481ADDGA1061+025009049GF108991061001999999011071MA1999999101021MD1710111+9999REMSYN082AAXX  08034 02680 42985 81809 10146 20113 30102 40148 57011 86017 333 86499 88299;
0235026800999992000090806004+56920+018150FM-12+003999999V0202001N00411075001CN0260001N1+01481+01421101441ADDAA112000791AY121061AY221061GA1081+999999029GF108991081001999999021999IA1099KA1120N+01371MA1999999100981MD1710041+9999MW1631REMSYN100AAXX  08064 02680 11976 82008 10148 20142 30098 40144 57004 69902 76322 8802/ 333 20137 31/// 88599;
0213026800999992000090809004+56920+018150FM-12+003999999V0202001N00461030001CN0200001N1+01501+01481101361ADDAY161031AY261031GA1011+004509089GF108991011011004501021999MA1999999100901MD1710081+9999MW1021SA1+1469REMSYN100AAXX  08094 02680 41470 82009 10150 20148 30090 40136 57008 70266 8112/ 222// 00146 333 81894 88499;
0210026800999992000090812004+56920+018150FM-12+003999999V0202101N00511002101CN0250001N1+01521+01441101301ADDAA106000791AY161061AY261061GA1041+002509079GF108991081051002501999999MA1999999100841MD1710061+9999MW1021REMSYN094AAXX  08124 02680 11375 82110 10152 20144 30084 40130 57006 69901 70266 885// 333 84793 88694;
0159026800999992000090815004+56920+018150FM-12+003999999V0202301N003610045019N0300001N1+01461+01441101311ADDGA1081+004509059GF108991081051004501999999MA1999999100851MD1210011+9999REMSYN076AAXX  08154 02680 42480 82307 10146 20144 30085 40131 52001 885// 333 88694;
0201026800999992000090818004+56920+018150FM-12+003999999V0202301N00361030001CN0250001N1+01411+01391101321ADDAA112000791GA1011+002509079GF106991011061002501071001KA1120M+01521MA1999999100861MD1210011+9999REMSYN094AAXX  08184 02680 12375 62307 10141 20139 30086 40132 52001 69902 81670 333 10152 81793 86399;
0159026800999992000090821004+56920+018150FM-12+003999999V0202401N003619999999N0350001N1+01411+01391101361ADDGA1061+999999079GF106991061001999999071001MA1999999100901MD1110041+9999REMSYN076AAXX  08214 02680 42981 62407 10141 20139 30090 40136 51004 86070 333 86399;
0189026800999992000090900004+56920+018150FM-12+003999999V0202401N003110300019N0300001N1+01441+01421101411ADDAA199000091GA1081+030009079GF108991081001999999071999MA1999999100951MD1110051+9999REMSYN076AAXX  09004 02680 32980 82406 10144 20142 30095 40141 51005 8807/ 333 88360;EQDQ01  00002PRCP99
0159026800999992000090903004+56920+018150FM-12+003999999V0202401N002119999999N0300001N1+01371+01351101511ADDGA1061+999999079GF106991061001999999071001MA1999999101041MD1110091+9999REMSYN076AAXX  09034 02680 42980 62404 10137 20135 30104 40151 51009 86070 333 86399;
0226026800999992000090906004+56920+018150FM-12+003999999V0202701N003119999999N0300001N1+01441+01201101591ADDAA199000091GA1011+025009039GF108991011001999999031071IA1019KA1120N+01371MA1999999101131MD1210091+9999REMSYN094AAXX  09064 02680 32980 82706 10144 20120 30113 40159 52009 81037 333 20137 30/// 81399 88299;EQDQ01  00002PRCP99
0165026800999992000090909004+56920+018150FM-12+003999999V0202601N00361030001CN0290001N1+01541+01091101711ADDGA1011+004509089GF108991011011004501031071MA1999999101251MD1210121+9999REMSYN082AAXX  09094 02680 42479 82607 10154 20109 30125 40171 52012 81137 333 81894 88299;
0172026800999992000090912004+56920+018150FM-12+003999999V0202501N003112200019N0300001N1+01651+01011101721ADDAA199000091GF101991999999999999999999MA1999999101261MD1310011+9999REMSYN075AAXX  09124 02680 32980 12506 10165 20101 30126 40172 53001 8001 333 81099;EQDQ01  00002PRCP99
0165026800999992000090915004+56920+018150FM-12+003999999V0202401N004112200019N0290001N1+01651+01241101661ADDGA1011+025009039GF104991011001999999031011MA1999999101201MD1810061+9999REMSYN082AAXX  09154 02680 42979 42408 10165 20124 30120 40166 58006 81031 333 81399 84099;
0214026800999992000090918004+56920+018150FM-12+003999999V0202401N00411030001CN0290001N1+01501+01241101691ADDAA199000091GA1011+004509089GF108991011011004501031071KA1120M+01801MA1999999101231MD1310031+9999REMSYN088AAXX  09184 02680 32479 82408 10150 20124 30123 40169 53003 81137 333 10180 81894 88299;EQDQ01  00002PRCP99
0159026800999992000090921004+56920+018150FM-12+003999999V0202601N004119999999N0300001N1+01551+00841101741ADDGA1081+999999089GF108991001001999999001071MA1999999101281MD1110051+9999REMSYN076AAXX  09214 02680 42980 82608 10155 20084 30128 40174 51005 80007 333 88299;
0173026800999992000091000004+56920+018150FM-12+003999999V0202601N004112200019N0400001N1+01461+01001101741ADDAA199000091GA1001+999999999GF100991001001999999001001MA1999999101281MD1510001+9999REMSYN060AAXX  10004 02680 32982 02608 10146 20100 30128 40174 55000;EQDQ01  00002PRCP99
0159026800999992000091003004+56920+018150FM-12+003999999V0202701N005112200019N0400001N1+01331+00971101701ADDGA1011+004509029GF101991011021004501001001MA1999999101231MD1810051+9999REMSYN076AAXX  10034 02680 42482 12710 10133 20097 30123 40170 58005 81200 333 81894;
0220026800999992000091006004+56920+018150FM-12+003999999V0202601N005119999999N0400001N1+01301+00941101661ADDAA199000091GA1081+999999089GF108991001001999999001071IA1019KA1120N+01301MA1999999101191MD1710041+9999REMSYN088AAXX  10064 02680 32982 82610 10130 20094 30119 40166 57004 80007 333 20130 30/// 88299;EQDQ01  00002PRCP99
0165026800999992000091009004+56920+018150FM-12+003999999V0202601N00511030001CN0400001N1+01401+00831101651ADDGA1011+004509089GF108991011021004501031999MA1999999101181MD1610011+9999REMSYN082AAXX  10094 02680 42482 82610 10140 20083 30118 40165 56001 8123/ 333 81894 87399;
0217026800999992000091012004+56920+018150FM-12+003999999V0202701N00461030001CN0400001N1+01641+00621101591ADDAA199000091GA1011+004509089GA2041+025009039GF108991011021004501031071MA1999999101131MD1710051+9999REMSYN088AAXX  10124 02680 32482 82709 10164 20062 30113 40159 57005 81237 333 81894 84399 88299;EQDQ01  00002PRCP99
0165026800999992000091015004+56920+018150FM-12+003999999V0202701N00411075001CN0500001N1+01661+00691101501ADDGA1011+022509039GF108991011001022501081071MA1999999101041MD1710091+9999REMSYN082AAXX  10154 02680 42884 82708 10166 20069 30104 40150 57009 81087 333 81398 88299;
0214026800999992000091018004+56920+018150FM-12+003999999V0202601N00411030001CN0500001N1+01491+00861101451ADDAA199000091GA1011+004509019GF108991011011004501031071KA1120M+01701MA1999999100991MD1610051+9999REMSYN088AAXX  10184 02680 32484 82608 10149 20086 30099 40145 56005 81137 333 10170 81194 88299;EQDQ01  00002PRCP99
0143026800999992000091021004+56920+018150FM-12+003999999V0202801N004112200019N0450001N1+01401+00751101511ADDGA1001+999999999GF100991001001999999001001MA1999999101051MD1110061+9999REMSYN060AAXX  10214 02680 42983 02808 10140 20075 30105 40151 51006;
0173026800999992000091100004+56920+018150FM-12+003999999V0202901N004112200019N0450001N1+01271+00791101541ADDAA199000091GA1001+999999999GF100991001001999999001001MA1999999101071MD1110021+9999REMSYN060AAXX  11004 02680 32983 02908 10127 20079 30107 40154 51002;EQDQ01  00002PRCP99
0159026800999992000091103004+56920+018150FM-12+003999999V0202901N003612200019N0500001N1+01171+01021101511ADDGA1011+004509029GF101991011011004501001001MA1999999101041MD1710031+9999REMSYN076AAXX  11034 02680 42484 12907 10117 20102 30104 40151 57003 81100 333 81894;
0220026800999992000091106004+56920+018150FM-12+003999999V0202901N003112200019N0550001N1+01261+01131101501ADDAA199000091GA1011+004509029GF101991011011004501001001IA1019KA1120N+01171MA1999999101031MD1610011+9999REMSYN088AAXX  11064 02680 32485 12906 10126 20113 30103 40150 56001 81100 333 20117 30/// 81894;EQDQ01  00002PRCP99
0179026800999992000091109004+56920+018150FM-12+003999999V0202901N003112200019N0500001N1+01461+00981101511ADDGA1011+004509059GF101991011051004501001011MA1999999101051MD1110021+9999SA1+1529REMSYN088AAXX  11094 02680 42484 12906 10146 20098 30105 40151 51002 81501 222// 00152 333 81694;
0189026800999992000091112004+56920+018150FM-12+003999999V0203201N003112200019N0500001N1+01571+00851101491ADDAA199000091GA1011+008009029GF101991011011008001001011MA1999999101031MD1710021+9999REMSYN076AAXX  11124 02680 32584 13206 10157 20085 30103 40149 57002 81101 333 81895;EQDQ01  00002PRCP99
0189026800999992000091115004+56920+018150FM-12+003999999V0203201N001512200019N0700001N1+01511+00681101451ADDAA199000091GA1011+012509029GF101991011011012501001011MA1999999100991MD1110041+9999REMSYN076AAXX  11154 02680 32688 13203 10151 20068 30099 40145 51004 81101 333 81896;EQDQ01  00002PRCP99
0208026800999992000091118004+56920+018150FM-12+003999999V0203301N001012200019N0750001N1+01201+00911101491ADDAA199000091GA1011+999999079GF101991011001999999081001KA1120M+01611MA1999999101021MD1710031+9999REMSYN082AAXX  11184 02680 32989 13302 10120 20091 30102 40149 57003 81080 333 10161 81399;EQDQ01  00002PRCP99
0159026800999992000091121004+56920+018150FM-12+003999999V0203401N001512200019N0750001N1+01211+00821101531ADDGA1011+004509029GF101991011011004501031001MA1999999101061MD1210041+9999REMSYN076AAXX  11214 02680 42489 13403 10121 20082 30106 40153 52004 81130 333 81894;
0189026800999992000091200004+56920+018150FM-12+003999999V0203401N001512200019N0750001N1+01211+00571101601ADDAA199000091GA1011+999999079GF101991011001999999031001MA1999999101131MD1110071+9999REMSYN076AAXX  12004 02680 32989 13403 10121 20057 30113 40160 51007 81030 333 81399;EQDQ01  00002PRCP99
0143026800999992000091203004+56920+018150FM-12+003999999V0203501N001012200019N0750001N1+01061+00731101621ADDGA1001+999999999GF100991001001999999001001MA1999999101151MD1210021+9999REMSYN060AAXX  12034 02680 42989 03502 10106 20073 30115 40162 52002;
0220026800999992000091206004+56920+018150FM-12+003999999V0203401N000512200019N0750001N1+01241+01001101661ADDAA199000091GA1011+002509029GF101991011011002501031001IA1019KA1120N+01061MA1999999101191MD1310041+9999REMSYN088AAXX  12064 02680 32389 13401 10124 20100 30119 40166 53004 81130 333 20106 30/// 81893;EQDQ01  00002PRCP99
0159026800999992000091209004+56920+018150FM-12+003999999V0203601N001512200019N0750001N1+01501+00631101721ADDGA1011+008009029GF101991011021008001071011MA1999999101261MD1210071+9999REMSYN076AAXX  12094 02680 42589 13603 10150 20063 30126 40172 52007 81271 333 81895;
0195026800999992000091212004+56920+018150FM-12+003999999V0203201N00211030001CN0750001N1+01431+00421101711ADDAA199000091GA1011+012509089GF106991011041012501071021MA1999999101251MD1810011+9999REMSYN082AAXX  12124 02680 32689 63204 10143 20042 30125 40171 58001 81472 333 81896 86099;EQDQ01  00002PRCP99
0165026800999992000091215004+56920+018150FM-12+003999999V0203201N002112200019N0750001N1+01421+00241101671ADDGA1011+012509089GF104991011041012501071081MA1999999101211MD1710041+9999REMSYN082AAXX  12154 02680 42689 43204 10142 20024 30121 40167 57004 81478 333 81896 83299;
0214026800999992000091218004+56920+018150FM-12+003999999V0200501N00101030001CN0750001N1+01061+00431101611ADDAA199000091GA1011+008009069GF106991011041008001071081KA1120M+01601MA1999999101141MD1710071+9999REMSYN088AAXX  12184 02680 32589 60502 10106 20043 30114 40161 57007 81478 333 10160 81695 85499;EQDQ01  00002PRCP99
0165026800999992000091221004+56920+018150FM-12+003999999V0200801N00151030001CN0750001N1+00941+00821101631ADDGA1011+004509089GF108991011011004501071071MA1999999101161MD1310021+9999REMSYN082AAXX  12214 02680 42489 80803 10094 20082 30116 40163 53002 81177 333 81894 88299;
0195026800999992000091300004+56920+018150FM-12+003999999V0200601N00151030001CN0750001N1+00961+00841101551ADDAA199000091GA1011+002509089GF108991011011002501011999MA1999999101081MD1810081+9999REMSYN082AAXX  13004 02680 32389 80603 10096 20084 30108 40155 58008 8111/ 333 81893 88499;EQDQ01  00002PRCP99
0165026800999992000091303004+56920+018150FM-12+003999999V0200801N00211030001CN0750001N1+01181+00661101431ADDGA1011+008009069GF107991011051008001021999MA1999999100961MD1710121+9999REMSYN082AAXX  13034 02680 42589 70804 10118 20066 30096 40143 57012 8152/ 333 81695 87499;
0220026800999992000091306004+56920+018150FM-12+003999999V0200801N002110300019N0750001N1+01241+00051101391ADDAA199000091GA1011+008009029GF107991011021008001021999IA1019KA1120N+00931MA1999999100921MD1510041+9999REMSYN088AAXX  13064 02680 32589 70804 10124 20005 30092 40139 55004 8122/ 333 20093 30/// 81895;EQDQ01  00002PRCP99
0235026800999992000091309004+56920+018150FM-12+003999999V0200701N00311030001CN0750001N1+01411+00551101341ADDAY121031AY221031GA1011+008009099GA2011+008009089GF107991021091008001021999MA1999999100881MD1810041+9999MW1151SA1+1249REMSYN106AAXX  13094 02680 41589 70706 10141 20055 30088 40134 58004 71522 8292/ 222// 00124 333 81895 81995 87499;
0210026800999992000091312004+56920+018150FM-12+003999999V0200901N00361030001CN0700001N1+01461+00531101341ADDAA106000591AY181061AY221061GA1011+008009089GF108991011021008001071999MA1999999100881MD1010001+9999MW1021REMSYN094AAXX  13124 02680 11588 80907 10146 20053 30088 40134 50000 69941 70282 8127/ 333 81895 88499;
0165026800999992000091315004+56920+018150FM-12+003999999V0200901N00311030001CN0750001N1+01341+00531101331ADDGA1011+008009089GF108991011011008001071999MA1999999100871MD1710011+9999REMSYN082AAXX  13154 02680 42589 80906 10134 20053 30087 40133 57001 8117/ 333 81895 88499;
0165026800999992000091321004+56920+018150FM-12+003999999V0200501N002610300019N0750001N1+01231+00841101391ADDGA1011+004509089GF107991011021004501071999MA1999999100921MD1210041+9999REMSYN082AAXX  13214 02680 42489 70505 10123 20084 30092 40139 52004 8127/ 333 81894 83399;
0205026800999992000091400004+56920+018150FM-12+003999999V0200401N001512200019N0750001N1+01091+01011999999ADDAA199000091GA1011+014709029GF101991011021008001031001MA1999999100951MD1210031+9999REMSYN076AAXX  14004 02680 32589 10403 10109 20101 30095 40042 52003 81230 333 81849;EQDQ01+100423APOSLPQ02  00002PRCP99
0165026800999992000091403004+56920+018150FM-12+003999999V0200501N002612200019N0750001N1+01101+00881101491ADDGA1011+004509089GF101991011031004501031011MA1999999101021MD1210071+9999REMSYN082AAXX  14034 02680 42489 10505 10110 20088 30102 40149 52007 81331 333 81894 81995;
0254026800999992000091406004+56920+018150FM-12+003999999V0200201N002112200019N0750001N1+00931+00811101611ADDAA199000091AY101061AY201061GA1011+004509089GF101991011091004501031011IA1019KA1120N+00931MA1999999101141MD1310121+9999MW1151REMSYN100AAXX  14064 02680 31489 10204 10093 20081 30114 40161 53012 71500 81931 333 20093 30/// 81894 81994;EQDQ01  00002PRCP99
0159026800999992000091409004+56920+018150FM-12+003999999V0200501N004112200019N0750001N1+01501+00221101761ADDGA1011+008009029GF101991011021008001031081MA1999999101301MD1110161+9999REMSYN076AAXX  14094 02680 42589 10508 10150 20022 30130 40176 51016 81238 333 81895;
0223026800999992000091412004+56920+018150FM-12+003999999V0200701N003112200019N0700001N1+01611+00071101871ADDAA199000091AY101061AY201061GA1011+017509089GF101991011091017501061011MA1999999101411MD1110111+9999MW1151REMSYN088AAXX  14124 02680 31788 10706 10161 20007 30141 40187 51011 71500 81961 333 81897 81997;EQDQ01  00002PRCP99
0193026800999992000091415004+56920+018150FM-12+003999999V0200201N001512200019N0700001N1+01321+00271102001ADDAY101031AY201031GA1011+008009089GF102991021091008001001001MA1999999101531MD1210121+9999MW1801REMSYN088AAXX  14154 02680 41588 20203 10132 20027 30153 40200 52012 78000 82900 333 81895 81996;
0223026800999992000091418004+56920+018150FM-12+003999999V0200301N001512200019N0750001N1+00961+00501102091ADDAA112000791AY181061AY201061GA1011+004509029GF101991011021004501041001KA1120M+01651MA1999999101621MD1310091+9999MW1021REMSYN094AAXX  14184 02680 11489 10303 10096 20050 30162 40209 53009 69902 70280 81240 333 10165 81894;
0159026800999992000091421004+56920+018150FM-12+003999999V0200301N002112200019N0750001N1+00901+00501102211ADDGA1011+004509029GF101991011021004501001001MA1999999101741MD1210121+9999REMSYN076AAXX  14214 02680 42489 10304 10090 20050 30174 40221 52012 81200 333 81894;
0170026800999992000091500004+56920+018150FM-12+003999999V0200201N002112200019N0750001N1+00881+00441102281ADDAA199000021GA1011+004509029GF101991011021004501001001MA1999999101811MD1110071+9999REMSYN076AAXX  15004 02680 32489 10204 10088 20044 30181 40228 51007 81200 333 81894;
0159026800999992000091503004+56920+018150FM-12+003999999V0200101N002112200019N0750001N1+00811+00571102271ADDGA1011+004509029GF101991011021004501001001MA1999999101801MD1810011+9999REMSYN076AAXX  15034 02680 42489 10104 10081 20057 30180 40227 58001 81200 333 81894;
0220026800999992000091506004+56920+018150FM-12+003999999V0200201N001512200019N0750001N1+00831+00591102361ADDAA199000091GA1011+004509029GF101991011021004501061011IA1019KA1120N+00801MA1999999101891MD1310091+9999REMSYN088AAXX  15064 02680 32489 10203 10083 20059 30189 40236 53009 81261 333 20080 30/// 81894;EQDQ01  00002PRCP99
0179026800999992000091509004+56920+018150FM-12+003999999V0203201N001012200019N0750001N1+01301+00391102431ADDGA1021+004509029GF102991021021004501061011MA1999999101961MD1210071+9999SA1+1309REMSYN088AAXX  15094 02680 42489 23202 10130 20039 30196 40243 52007 82261 222// 00130 333 82894;
0189026800999992000091512004+56920+018150FM-12+003999999V0200601N002112200019N0750001N1+01391+00241102421ADDAA199000091GA1031+004509029GF104991031021004501001011MA1999999101951MD1810011+9999REMSYN076AAXX  15124 02680 32489 40604 10139 20024 30195 40242 58001 83201 333 83894;EQDQ01  00002PRCP99
0159026800999992000091515004+56920+018150FM-12+003999999V0201601N001012200019N0750001N1+01401+00281102371ADDGA1021+004509029GF104991021021004501061011MA1999999101901MD1710051+9999REMSYN076AAXX  15154 02680 42489 41602 10140 20028 30190 40237 57005 82261 333 82894;
0208026800999992000091518004+56920+018150FM-12+003999999V0200901N000512200019N0750001N1+00991+00421102341ADDAA199000091GA1011+004509029GF103991011021004501061011KA1120M+01501MA1999999101871MD1710031+9999REMSYN082AAXX  15184 02680 32489 30901 10099 20042 30187 40234 57003 81261 333 10150 81894;EQDQ01  00002PRCP99
0159026800999992000091521004+56920+018150FM-12+003999999V0201001N001012200019N0750001N1+00831+00571102331ADDGA1021+004509029GF102991021021004501001001MA1999999101861MD1710011+9999REMSYN076AAXX  15214 02680 42489 21002 10083 20057 30186 40233 57001 82200 333 82894;
0195026800999992000091600004+56920+018150FM-12+003999999V0201001N001012200019N0750001N1+00851+00501102271ADDAA199000091GA1011+004509089GF104991011011004501001011MA1999999101801MD1710061+9999REMSYN082AAXX  16004 02680 32489 41002 10085 20050 30180 40227 57006 81101 333 81894 84099;EQDQ01  00002PRCP99
0165026800999992000091603004+56920+018150FM-12+003999999V0200901N001012200019N0750001N1+00751+00491102141ADDGA1011+004509089GF104991011011004501001011MA1999999101661MD1810141+9999REMSYN082AAXX  16034 02680 42489 40902 10075 20049 30166 40214 58014 81101 333 81894 84099;
0220026800999992000091606004+56920+018150FM-12+003999999V0201301N002612200019N0750001N1+01251+00811102011ADDAA199000091GA1031+004509029GF104991031021004501001091IA1019KA1120N+00751MA1999999101541MD1710121+9999REMSYN088AAXX  16064 02680 32489 41305 10125 20081 30154 40201 57012 83209 333 20075 30/// 83894;EQDQ01  00002PRCP99
0159026800999992000091609004+56920+018150FM-12+003999999V0201401N004112200019N0750001N1+01441+00381101971ADDGA1011+004509029GF102991011021004501061011MA1999999101511MD1610031+9999REMSYN076AAXX  16094 02680 42489 21408 10144 20038 30151 40197 56003 81261 333 81894;
0189026800999992000091612004+56920+018150FM-12+003999999V0201301N003612200019N0750001N1+01461+00451101891ADDAA199000091GA1021+004509029GF103991021021004501061011MA1999999101431MD1810081+9999REMSYN076AAXX  16124 02680 32489 31307 10146 20045 30143 40189 58008 82261 333 82894;EQDQ01  00002PRCP99
0159026800999992000091615004+56920+018150FM-12+003999999V0201201N003112200019N0750001N1+01351+00321101811ADDGA1021+004509029GF102991021021004501001011MA1999999101341MD1710091+9999REMSYN076AAXX  16154 02680 42489 21206 10135 20032 30134 40181 57009 82201 333 82894;
0208026800999992000091618004+56920+018150FM-12+003999999V0201101N002612200019N0750001N1+01131+00121101791ADDAA199000091GA1011+004509029GF101991011011004501001001KA1120M+01501MA1999999101321MD1510021+9999REMSYN082AAXX  16184 02680 32489 11105 10113 20012 30132 40179 55002 81100 333 10150 81894;EQDQ01  00002PRCP99
0159026800999992000091621004+56920+018150FM-12+003999999V0201101N002612200019N0750001N1+01201+00211101791ADDGA1021+004509029GF102991021011004501001001MA1999999101321MD1410001+9999REMSYN076AAXX  16214 02680 42489 21105 10120 20021 30132 40179 54000 82100 333 82894;
0189026800999992000091700004+56920+018150FM-12+003999999V0201401N004112200019N0750001N1+01271+00161101771ADDAA199000091GA1041+008009059GF104991041051008001001001MA1999999101301MD1810021+9999REMSYN076AAXX  17004 02680 32589 41408 10127 20016 30130 40177 58002 84500 333 84695;EQDQ01  00002PRCP99
0159026800999992000091703004+56920+018150FM-12+003999999V0201201N003612200019N0750001N1+01201+00181101751ADDGA1011+004509029GF101991011011004501001001MA1999999101281MD1710021+9999REMSYN076AAXX  17034 02680 42489 11207 10120 20018 30128 40175 57002 81100 333 81894;
0220026800999992000091706004+56920+018150FM-12+003999999V0201401N004112200019N0750001N1+01231+00031101851ADDAA199000091GA1041+004509059GF104991041051004501001001IA1019KA1120N+01131MA1999999101381MD1310101+9999REMSYN088AAXX  17064 02680 32489 41408 10123 20003 30138 40185 53010 84500 333 20113 30/// 84694;EQDQ01  00002PRCP99
0159026800999992000091709004+56920+018150FM-12+003999999V0201201N004112200019N0750001N1+01341+00041101951ADDGA1011+008009029GF101991011011008001001001MA1999999101481MD1210101+9999REMSYN076AAXX  17094 02680 42589 11208 10134 20004 30148 40195 52010 81100 333 81895;
0189026800999992000091712004+56920+018150FM-12+003999999V0201401N004112200019N0750001N1+01331+00031102011ADDAA199000091GA1011+008009029GF101991011011008001001001MA1999999101541MD1110061+9999REMSYN076AAXX  17124 02680 32589 11408 10133 20003 30154 40201 51006 81100 333 81895;EQDQ01  00002PRCP99
0159026800999992000091715004+56920+018150FM-12+003999999V0201201N004112200019N0750001N1+01251+00051101961ADDGA1011+008009029GF101991011011008001001001MA1999999101491MD1610051+9999REMSYN076AAXX  17154 02680 42589 11208 10125 20005 30149 40196 56005 81100 333 81895;
0208026800999992000091718004+56920+018150FM-12+003999999V0201101N003112200019N0750001N1+01141+00101101981ADDAA199000091GA1011+004509029GF101991011011004501001001KA1120M+01451MA1999999101511MD1310021+9999REMSYN082AAXX  17184 02680 32489 11106 10114 20010 30151 40198 53002 81100 333 10145 81894;EQDQ01  00002PRCP99
0159026800999992000091721004+56920+018150FM-12+003999999V0201201N003612200019N0750001N1+01231+00271102011ADDGA1011+004509029GF101991011011004501001001MA1999999101541MD1110031+9999REMSYN076AAXX  17214 02680 42489 11207 10123 20027 30154 40201 51003 81100 333 81894;
0189026800999992000091800004+56920+018150FM-12+003999999V0201401N003612200019N0750001N1+01221+00261102031ADDAA199000091GA1041+004509059GF104991041051004501001001MA1999999101561MD1210021+9999REMSYN076AAXX  18004 02680 32489 41407 10122 20026 30156 40203 52002 84500 333 84694;EQDQ01  00002PRCP99
0159026800999992000091803004+56920+018150FM-12+003999999V0201401N003112200019N0750001N1+01161+00261102001ADDGA1021+008009059GF102991021051008001001001MA1999999101531MD1810031+9999REMSYN076AAXX  18034 02680 42589 21406 10116 20026 30153 40200 58003 82500 333 82695;
0220026800999992000091806004+56920+018150FM-12+003999999V0201401N003112200019N0750001N1+01211+00201102061ADDAA199000091GA1011+012509029GF102991021041012501001001IA1019KA1120N+01141MA1999999101591MD1210061+9999REMSYN088AAXX  18064 02680 32689 21406 10121 20020 30159 40206 52006 82400 333 20114 30/// 81896;EQDQ01  00002PRCP99
0179026800999992000091809004+56920+018150FM-12+003999999V0201201N003112200019N0750001N1+01251+00311102131ADDGA1011+008009059GF103991031051008001001001MA1999999101661MD1010071+9999SA1+1369REMSYN088AAXX  18094 02680 42589 31206 10125 20031 30166 40213 50007 83500 222// 00136 333 81695;
0189026800999992000091812004+56920+018150FM-12+003999999V0201201N003112200019N0700001N1+01351+00081102061ADDAA199000091GA1011+012509029GF101991011011012501001001MA1999999101591MD1810071+9999REMSYN076AAXX  18124 02680 32688 11206 10135 20008 30159 40206 58007 81100 333 81896;EQDQ01  00002PRCP99
0159026800999992000091815004+56920+018150FM-12+003999999V0201301N003112200019N0750001N1+01221+00091102021ADDGA1021+012509059GF102991021041012501001001MA1999999101551MD1710041+9999REMSYN076AAXX  18154 02680 42689 21306 10122 20009 30155 40202 57004 82400 333 82696;
0208026800999992000091818004+56920+018150FM-12+003999999V0201201N003112200019N0700001N1+01061+00221101991ADDAA199000091GA1011+008009029GF101991011011008001001001KA1120M+01401MA1999999101521MD1710031+9999REMSYN082AAXX  18184 02680 32588 11206 10106 20022 30152 40199 57003 81100 333 10140 81895;EQDQ01  00002PRCP99
0159026800999992000091821004+56920+018150FM-12+003999999V0201401N003112200019N0750001N1+01211+00081102021ADDGA1011+012509029GF101991011011012501001001MA1999999101551MD1110031+9999REMSYN076AAXX  18214 02680 42689 11406 10121 20008 30155 40202 51003 81100 333 81896;
0189026800999992000091900004+56920+018150FM-12+003999999V0201201N002112200019N0750001N1+01151+00271102031ADDAA199000091GA1011+014709059GF101991011051012501001001MA1999999101561MD1210011+9999REMSYN076AAXX  19004 02680 32689 11204 10115 20027 30156 40203 52001 81500 333 81649;EQDQ01  00002PRCP99
0159026800999992000091903004+56920+018150FM-12+003999999V0200901N002112200019N0750001N1+01021+00201102041ADDGA1011+012509059GF101991011051012501001001MA1999999101571MD1110011+9999REMSYN076AAXX  19034 02680 42689 10904 10102 20020 30157 40204 51001 81500 333 81696;
0220026800999992000091906004+56920+018150FM-12+003999999V0201001N002612200019N0750001N1+01231+00181102131ADDAA199000091GA1011+012509059GF101991011051012501001001IA1019KA1120N+01021MA1999999101661MD1010091+9999REMSYN088AAXX  19064 02680 32689 11005 10123 20018 30166 40213 50009 81500 333 20102 30/// 81696;EQDQ01  00002PRCP99
0178026800999992000091909004+56920+018150FM-12+003999999V0201001N004112200019N0700001N1+01371-00071102191ADDGA1011+017509059GF101991011051017501999001MA1999999101721MD1010061+9999REMSYN076AAXX  19094 02680 42788 11008 10137 21007 30172 40219 50006 81500 333 81697;EQDQ01+000002SCOMCG
0205026800999992000091912004+56920+018150FM-12+003999999V0201101N003612200019N0750001N1+01571-00051102181ADDAA199000091GA1011+017509059GF101991011051017501999001MA1999999101721MD1410001+9999REMSYN076AAXX  19124 02680 32789 11107 10157 21005 30172 40218 54000 81500 333 81697;EQDQ01+000002SCOMCGQ02  00002PRCP99
0159026800999992000091915004+56920+018150FM-12+003999999V0200701N003112200019N0750001N1+01291-00071102131ADDGA1011+017509029GF101991011011017501001001MA1999999101661MD1810061+9999REMSYN076AAXX  19154 02680 42789 10706 10129 21007 30166 40213 58006 81100 333 81897;
0208026800999992000091918004+56920+018150FM-12+003999999V0200601N002612200019N0700001N1+01071+00531102081ADDAA199000091GA1011+008009029GF101991011011008001001001KA1120M+01571MA1999999101611MD1810051+9999REMSYN082AAXX  19184 02680 32588 10605 10107 20053 30161 40208 58005 81100 333 10157 81895;EQDQ01  00002PRCP99
0159026800999992000091921004+56920+018150FM-12+003999999V0200901N002112200019N0700001N1+01231+00611102081ADDGA1011+008009059GF101991011051008001001001MA1999999101611MD1410001+9999REMSYN076AAXX  19214 02680 42588 10904 10123 20061 30161 40208 54000 81500 333 81695;
0173026800999992000092000004+56920+018150FM-12+003999999V0200901N001512200019N0750001N1+01131+00511102121ADDAA199000091GA1001+999999999GF100991001001999999001001MA1999999101651MD1210041+9999REMSYN060AAXX  20004 02680 32989 00903 10113 20051 30165 40212 52004;EQDQ01  00002PRCP99
0143026800999992000092003004+56920+018150FM-12+003999999V0200601N001512200019N0700001N1+00881+00591102141ADDGA1001+999999999GF100991001001999999001001MA1999999101671MD1110021+9999REMSYN060AAXX  20034 02680 42988 00603 10088 20059 30167 40214 51002;
0208026800999992000092006004+56920+018150FM-12+003999999V0200501N001512200019N0650001N1+01011+00701102191ADDAA199000091GA1001+999999999GF100991001001999999001001IA1019KA1120N+00881MA1999999101721MD1310051+9999REMSYN076AAXX  20064 02680 32987 00503 10101 20070 30172 40219 53005 333 20088 30///;EQDQ01  00002PRCP99
0179026800999992000092009004+56920+018150FM-12+003999999V0200801N003112200019N0700001N1+01511+00301102241ADDGA1011+012509029GF101991011011012501001001MA1999999101781MD1110061+9999SA1+1329REMSYN088AAXX  20094 02680 42688 10806 10151 20030 30178 40224 51006 81100 222// 00132 333 81896;
0189026800999992000092012004+56920+018150FM-12+003999999V0200801N003612200019N0700001N1+01531+00251102281ADDAA199000091GA1011+012509029GF101991011011012501001001MA1999999101821MD1110041+9999REMSYN076AAXX  20124 02680 32688 10807 10153 20025 30182 40228 51004 81100 333 81896;EQDQ01  00002PRCP99
0159026800999992000092015004+56920+018150FM-12+003999999V0200701N002612200019N0550001N1+01451+00471102281ADDGA1011+012509029GF101991011011012501001001MA1999999101821MD1410001+9999REMSYN076AAXX  20154 02680 42685 10705 10145 20047 30182 40228 54000 81100 333 81896;
0208026800999992000092018004+56920+018150FM-12+003999999V0200501N001512200019N0650001N1+01101+00861102321ADDAA199000091GA1011+002509029GF101991011011002501001001KA1120M+01651MA1999999101851MD1210031+9999REMSYN082AAXX  20184 02680 32387 10503 10110 20086 30185 40232 52003 81100 333 10165 81893;EQDQ01  00002PRCP99
0143026800999992000092021004+56920+018150FM-12+003999999V0200501N002112200019N0600001N1+00961+00841102431ADDGA1001+999999999GF100991001001999999001001MA1999999101961MD1210111+9999REMSYN060AAXX  20214 02680 42986 00504 10096 20084 30196 40243 52011;
0189026800999992000092100004+56920+018150FM-12+003999999V0200201N001012200019N0650001N1+01321+01291102461ADDAA199000091GA1011+004509029GF101991011011004501001001MA1999999101991MD1110031+9999REMSYN076AAXX  21004 02680 32487 10202 10132 20129 30199 40246 51003 81100 333 81894;EQDQ01  00002PRCP99
0159026800999992000092103004+56920+018150FM-12+003999999V0200301N002112200019N0650001N1+00831+00811102461ADDGA1011+004509059GF101991011051004501001001MA1999999101991MD1410001+9999REMSYN076AAXX  21034 02680 42487 10304 10083 20081 30199 40246 54000 81500 333 81694;
0220026800999992000092106004+56920+018150FM-12+003999999V0200401N002112200019N0650001N1+00931+00881102461ADDAA199000091GA1011+004509029GF101991011021004501001001IA1019KA1120N+00751MA1999999101991MD1410001+9999REMSYN088AAXX  21064 02680 32487 10404 10093 20088 30199 40246 54000 81200 333 20075 30/// 81894;EQDQ01  00002PRCP99
0159026800999992000092109004+56920+018150FM-12+003999999V0200601N004110045019N0650001N1+01321+00511102561ADDGA1071+004509059GF107991071051004501999999MA1999999102091MD1310101+9999REMSYN076AAXX  21094 02680 42487 70608 10132 20051 30209 40256 53010 875// 333 87694;
0189026800999992000092112004+56920+018150FM-12+003999999V0200501N004110045019N0700001N1+01461+00311102581ADDAA199000091GA1061+004509029GF106991061021004501001001MA1999999102121MD1010031+9999REMSYN076AAXX  21124 02680 32488 60508 10146 20031 30212 40258 50003 86200 333 86894;EQDQ01  00002PRCP99
0159026800999992000092115004+56920+018150FM-12+003999999V0200601N004112200019N0700001N1+01301+00491102551ADDGA1021+004509029GF102991021021004501001001MA1999999102081MD1810041+9999REMSYN076AAXX  21154 02680 42488 20608 10130 20049 30208 40255 58004 82200 333 82894;
0208026800999992000092118004+56920+018150FM-12+003999999V0200601N003612200019N0700001N1+01121+00321102661ADDAA199000091GA1021+004509029GF102991021021004501001001KA1120M+01541MA1999999102191MD1310111+9999REMSYN082AAXX  21184 02680 32488 20607 10112 20032 30219 40266 53011 82200 333 10154 82894;EQDQ01  00002PRCP99
0159026800999992000092121004+56920+018150FM-12+003999999V0200901N003612200019N0650001N1+01231+00491102811ADDGA1021+004509029GF102991021021004501001001MA1999999102341MD1210151+9999REMSYN076AAXX  21214 02680 42487 20907 10123 20049 30234 40281 52015 82200 333 82894;
0189026800999992000092200004+56920+018150FM-12+003999999V0201001N003112200019N0650001N1+01121+00481102871ADDAA199000091GA1011+004509029GF101991011011004501001001MA1999999102401MD1110061+9999REMSYN076AAXX  22004 02680 32487 11006 10112 20048 30240 40287 51006 81100 333 81894;EQDQ01  00002PRCP99
0159026800999992000092203004+56920+018150FM-12+003999999V0201001N003112200019N0650001N1+01121+00731102911ADDGA1041+006609029GF104991041021008001001001MA1999999102441MD1210041+9999REMSYN076AAXX  22034 02680 42587 41006 10112 20073 30244 40291 52004 84200 333 84822;
0220026800999992000092206004+56920+018150FM-12+003999999V0201001N002612200019N0700001N1+01191+00621103041ADDAA199000091GA1011+008009029GF101991011021008001001011IA1019KA1120N+01081MA1999999102561MD1110121+9999REMSYN088AAXX  22064 02680 32588 11005 10119 20062 30256 40304 51012 81201 333 20108 30/// 81895;EQDQ01  00002PRCP99
0179026800999992000092209004+56920+018150FM-12+003999999V0200901N003112200019N0750001N1+01371+00031103201ADDGA1011+017509029GF101991011011017501001011MA1999999102721MD1210161+9999SA1+1289REMSYN088AAXX  22094 02680 42789 10906 10137 20003 30272 40320 52016 81101 222// 00128 333 81897;
0189026800999992000092212004+56920+018150FM-12+003999999V0201101N003112200019N0750001N1+01341+00111103231ADDAA199000091GA1011+012509029GF102991011011012501001011MA1999999102751MD1010031+9999REMSYN076AAXX  22124 02680 32689 21106 10134 20011 30275 40323 50003 81101 333 81896;EQDQ01  00002PRCP99
0159026800999992000092215004+56920+018150FM-12+003999999V0201101N002119999999N0750001N1+01261+00061103221ADDGA1051+999999089GF105991001001999999001081MA1999999102741MD1710011+9999REMSYN076AAXX  22154 02680 42989 51104 10126 20006 30274 40322 57001 80008 333 85299;
0208026800999992000092218004+56920+018150FM-12+003999999V0200701N001012200019N0750001N1+00721+00291103291ADDAA199000091GA1021+999999089GF102991001001999999001081KA1120M+01441MA1999999102801MD1310061+9999REMSYN082AAXX  22184 02680 32989 20702 10072 20029 30280 40329 53006 80008 333 10144 82299;EQDQ01  00002PRCP99
0143026800999992000092221004+56920+018150FM-12+003999999V0200901N001012200019N0750001N1+00871+00111103351ADDGA1001+999999999GF100991001001999999001001MA1999999102871MD1110071+9999REMSYN060AAXX  22214 02680 42989 00902 10087 20011 30287 40335 51007;
0189026800999992000092300004+56920+018150FM-12+003999999V0201301N001012200019N0750001N1+01071+00061103411ADDAA199000091GA1011+999999019GF101991001001999999001011MA1999999102931MD1110061+9999REMSYN076AAXX  23004 02680 32989 11302 10107 20006 30293 40341 51006 80001 333 81099;EQDQ01  00002PRCP99
0143026800999992000092303004+56920+018150FM-12+003999999V0201201N000512200019N0750001N1+00901+00091103401ADDGA1001+999999999GF100991001001999999001001MA1999999102921MD1710011+9999REMSYN060AAXX  23034 02680 42989 01201 10090 20009 30292 40340 57001;
0220026800999992000092306004+56920+018150FM-12+003999999V0200901N000512200019N0700001N1+00921+00401103471ADDAA199000091GA1021+999999019GF102991001001999999001011IA1019KA1120N+00711MA1999999102991MD1310071+9999REMSYN088AAXX  23064 02680 32988 20901 10092 20040 30299 40347 53007 80001 333 20071 30/// 82099;EQDQ01  00002PRCP99
0159026800999992000092309004+56920+018150FM-12+003999999V0201201N002112200019N0750001N1+01421+00071103571ADDGA1011+999999019GF101991001001999999001011MA1999999103101MD1210111+9999REMSYN076AAXX  23094 02680 42989 11204 10142 20007 30310 40357 52011 80001 333 81099;
0189026800999992000092312004+56920+018150FM-12+003999999V0201201N002112200019N0750001N1+01421-00061103561ADDAA199000091GA1011+999999019GF101991001001999999001011MA1999999103091MD1810011+9999REMSYN076AAXX  23124 02680 32989 11204 10142 21006 30309 40356 58001 80001 333 81099;EQDQ01  00002PRCP99
0159026800999992000092315004+56920+018150FM-12+003999999V0201101N001512200019N0750001N1+01311-00091103461ADDGA1011+999999019GF101991001001999999001011MA1999999102981MD1710111+9999REMSYN076AAXX  23154 02680 42989 11103 10131 21009 30298 40346 57011 80001 333 81099;
0208026800999992000092318004+56920+018150FM-12+003999999V0200601N001012200019N0750001N1+00931+00141103441ADDAA199000091GA1011+999999019GF101991001001999999001011KA1120M+01501MA1999999102961MD1610021+9999REMSYN082AAXX  23184 02680 32989 10602 10093 20014 30296 40344 56002 80001 333 10150 81099;EQDQ01  00002PRCP99
0143026800999992000092321004+56920+018150FM-12+003999999V0200601N001512200019N0750001N1+00801+00221103471ADDGA1001+999999999GF100991001001999999001001MA1999999102991MD1210031+9999REMSYN060AAXX  23214 02680 42989 00603 10080 20022 30299 40347 52003;
0173026800999992000092400004+56920+018150FM-12+003999999V0200901N001012200019N0750001N1+00761+00411103451ADDAA199000091GA1001+999999999GF100991001001999999001001MA1999999102961MD1810031+9999REMSYN060AAXX  24004 02680 32989 00902 10076 20041 30296 40345 58003;EQDQ01  00002PRCP99
0143026800999992000092403004+56920+018150FM-12+003999999V0200601N001012200019N0750001N1+00841+00611103381ADDGA1001+999999999GF100991001001999999001001MA1999999102901MD1710061+9999REMSYN060AAXX  24034 02680 42989 00602 10084 20061 30290 40338 57006;
0236026800999992000092406004+56920+018150FM-12+003999999V0200501N001512200019N0750001N1+00911+00871103371ADDAA199000091GA1011+022509079GF101991011999999999081011IA1019KA1120N+00741MA1999999102891MD1610011+9999REMSYN088AAXX  24064 02680 32989 10503 10091 20087 30289 40337 56001 81081 333 20074 30/// 81398;EQDQ01+000002SCOLCGQ02  00002PRCP99
0159026800999992000092409004+56920+018150FM-12+003999999V0201301N002112200019N0700001N1+01461+00041103391ADDGA1011+008009029GF101991011011008001001011MA1999999102921MD1310031+9999REMSYN076AAXX  24094 02680 42588 11304 10146 20004 30292 40339 53003 81101 333 81895;
0189026800999992000092412004+56920+018150FM-12+003999999V0201501N002112200019N0700001N1+01501+00001103341ADDAA199000091GA1011+008009029GF101991011011008001001011MA1999999102871MD1810051+9999REMSYN076AAXX  24124 02680 32588 11504 10150 20000 30287 40334 58005 81101 333 81895;EQDQ01  00002PRCP99
0159026800999992000092415004+56920+018150FM-12+003999999V0201201N001012200019N0700001N1+01351+00141103221ADDGA1011+008009029GF101991011011008001001011MA1999999102741MD1710131+9999REMSYN076AAXX  24154 02680 42588 11202 10135 20014 30274 40322 57013 81101 333 81895;
0208026800999992000092418004+56920+018150FM-12+003999999V0201101N001012200019N0700001N1+01011+00291103171ADDAA199000091GA1011+004509029GF101991011011004501001011KA1120M+01551MA1999999102691MD1610051+9999REMSYN082AAXX  24184 02680 32488 11102 10101 20029 30269 40317 56005 81101 333 10155 81894;EQDQ01  00002PRCP99
0143026800999992000092421004+56920+018150FM-12+003999999V0200901N001012200019N0750001N1+00781+00431103151ADDGA1001+999999999GF100991001001999999001001MA1999999102671MD1710021+9999REMSYN060AAXX  24214 02680 42989 00902 10078 20043 30267 40315 57002;
0173026800999992000092500004+56920+018150FM-12+003999999V0201201N001512200019N0750001N1+00981+00511103071ADDAA199000091GA1001+999999999GF100991001001999999001001MA1999999102591MD1810081+9999REMSYN060AAXX  25004 02680 32989 01203 10098 20051 30259 40307 58008;EQDQ01  00002PRCP99
0143026800999992000092503004+56920+018150FM-12+003999999V0200701N001512200019N0750001N1+00811+00631103021ADDGA1001+999999999GF100991001001999999001001MA1999999102541MD1710051+9999REMSYN060AAXX  25034 02680 42989 00703 10081 20063 30254 40302 57005;
0220026800999992000092506004+56920+018150FM-12+003999999V0200401N002112200019N0750001N1+00881+00871102981ADDAA199000091GA1011+004509029GF101991011021004501001001IA1019KA1120N+00781MA1999999102501MD1710041+9999REMSYN088AAXX  25064 02680 32489 10404 10088 20087 30250 40298 57004 81200 333 20078 30/// 81894;EQDQ01  00002PRCP99
0179026800999992000092509004+56920+018150FM-12+003999999V0201101N002612200019N0750001N1+01491+00141102981ADDGA1011+017509029GF101991011011017501001001MA1999999102511MD1210011+9999SA1+1169REMSYN088AAXX  25094 02680 42789 11105 10149 20014 30251 40298 52001 81100 222// 00116 333 81897;
0189026800999992000092512004+56920+018150FM-12+003999999V0201301N002612200019N0750001N1+01501+00181102901ADDAA199000091GA1011+012509029GF101991011011012501001011MA1999999102441MD1810071+9999REMSYN076AAXX  25124 02680 32689 11305 10150 20018 30244 40290 58007 81101 333 81896;EQDQ01  00002PRCP99
0159026800999992000092515004+56920+018150FM-12+003999999V0201301N001512200019N0750001N1+01361+00181102831ADDGA1011+008009029GF101991011011008001001011MA1999999102361MD1710081+9999REMSYN076AAXX  25154 02680 42589 11303 10136 20018 30236 40283 57008 81101 333 81895;
0208026800999992000092518004+56920+018150FM-12+003999999V0200801N001012200019N0750001N1+00911+00491102801ADDAA199000091GA1011+004509029GF101991011011004501001001KA1120M+01551MA1999999102331MD1810031+9999REMSYN082AAXX  25184 02680 32489 10802 10091 20049 30233 40280 58003 81100 333 10155 81894;EQDQ01  00002PRCP99
0143026800999992000092521004+56920+018150FM-12+003999999V0201001N001512200019N0650001N1+00781+00521102811ADDGA1001+999999999GF100991001001999999001001MA1999999102331MD1410001+9999REMSYN060AAXX  25214 02680 42987 01003 10078 20052 30233 40281 54000;
0189026800999992000092600004+56920+018150FM-12+003999999V0201401N001012200019N0650001N1+01011+00461102801ADDAA199000091GA1011+008009059GF101991011051008001001001MA1999999102331MD1410001+9999REMSYN076AAXX  26004 02680 32587 11402 10101 20046 30233 40280 54000 81500 333 81695;EQDQ01  00002PRCP99
0159026800999992000092603004+56920+018150FM-12+003999999V0201301N001012200019N0550001N1+00931+00491102781ADDGA1011+008009059GF101991011051008001001001MA1999999102311MD1710021+9999REMSYN076AAXX  26034 02680 42585 11302 10093 20049 30231 40278 57002 81500 333 81695;
0220026800999992000092606004+56920+018150FM-12+003999999V0201001N001012200019N0550001N1+00901+00741102751ADDAA199000091GA1011+004509029GF102991011011004501081051IA1019KA1120N+00781MA1999999102281MD1610031+9999REMSYN088AAXX  26064 02680 32485 21002 10090 20074 30228 40275 56003 81185 333 20078 30/// 81894;EQDQ01  00002PRCP99
0159026800999992000092609004+56920+018150FM-12+003999999V0201201N002112200019N0550001N1+01511+00351102791ADDGA1011+008009029GF102991011011008001081081MA1999999102331MD1110051+9999REMSYN076AAXX  26094 02680 42585 21204 10151 20035 30233 40279 51005 81188 333 81895;
0195026800999992000092612004+56920+018150FM-12+003999999V0201301N00211075001CN0550001N1+01451+00301102731ADDAA199000091GA1011+008009089GF105991011011008001081061MA1999999102271MD1810061+9999REMSYN082AAXX  26124 02680 32585 51304 10145 20030 30227 40273 58006 81186 333 81895 84299;EQDQ01  00002PRCP99
0165026800999992000092615004+56920+018150FM-12+003999999V0201301N00151030001CN0600001N1+01351+00431102641ADDGA1011+008009089GF107991011021008001071999MA1999999102171MD1810101+9999REMSYN082AAXX  26154 02680 42586 71303 10135 20043 30217 40264 58010 8127/ 333 81895 87399;
0208026800999992000092618004+56920+018150FM-12+003999999V0201301N002119999999N0450001N1+01251+00541102601ADDAA199000091GA1071+999999079GF107991071001999999071999KA1120M+01551MA1999999102131MD1610041+9999REMSYN082AAXX  26184 02680 32983 71304 10125 20054 30213 40260 56004 8707/ 333 10155 87399;EQDQ01  00002PRCP99
0159026800999992000092621004+56920+018150FM-12+003999999V0201401N002119999999N0450001N1+01261+00611102601ADDGA1081+999999089GF108991001001999999001071MA1999999102131MD1410001+9999REMSYN076AAXX  26214 02680 42983 81404 10126 20061 30213 40260 54000 80007 333 88299;
0189026800999992000092700004+56920+018150FM-12+003999999V0201301N002119999999N0450001N1+01251+00651102501ADDAA199000091GA1081+999999089GF108991001001999999001071MA1999999102031MD1810101+9999REMSYN076AAXX  27004 02680 32983 81304 10125 20065 30203 40250 58010 80007 333 88299;EQDQ01  00002PRCP99
0159026800999992000092703004+56920+018150FM-12+003999999V0201201N001512200019N0450001N1+01151+01081102371ADDGA1031+999999089GF103991001001999999001081MA1999999101901MD1710131+9999REMSYN076AAXX  27034 02680 42983 31203 10115 20108 30190 40237 57013 80008 333 83299;
0226026800999992000092706004+56920+018150FM-12+003999999V0201101N001519999999N0350001N1+01151+01111102371ADDAA199000091GA1031+025009039GF107991031001999999071021IA1019KA1120N+01151MA1999999101901MD1410001+9999REMSYN094AAXX  27064 02680 32981 71103 10115 20111 30190 40237 54000 83072 333 20115 30/// 83399 86099;EQDQ01  00002PRCP99
0185026800999992000092709004+56920+018150FM-12+003999999V0201301N00211030001CN0250001N1+01421+01021102321ADDGA1011+004509089GF107991011011004501031999MA1999999101861MD1810041+9999SA1+1209REMSYN094AAXX  27094 02680 42475 71304 10142 20102 30186 40232 58004 8113/ 222// 00120 333 81894 87399;
0189026800999992000092712004+56920+018150FM-12+003999999V0201301N002619999999N0200001N1+01411+01121102171ADDAA199000091GA1081+999999079GF108991081001999999071999MA1999999101711MD1710151+9999REMSYN076AAXX  27124 02680 32970 81305 10141 20112 30171 40217 57015 8807/ 333 88399;EQDQ01  00002PRCP99
0159026800999992000092715004+56920+018150FM-12+003999999V0201301N00211075001CN0100001N1+01351+01331102021ADDGA1081+999999019GF108991081001999999021999MA1999999101551MD1710161+9999REMSYN076AAXX  27154 02680 42960 81304 10135 20133 30155 40202 57016 8802/ 333 88499;
0208026800999992000092718004+56920+018150FM-12+003999999V0201201N002110180019N0100001N1+01331+01311101951ADDAA199000091GA1071+018009059GF107991071051017501999999KA1120M+01451MA1999999101481MD1710071+9999REMSYN082AAXX  27184 02680 32760 71204 10133 20131 30148 40195 57007 875// 333 10145 87656;EQDQ01  00002PRCP99
0178026800999992000092721004+56920+018150FM-12+003999999V0201401N002110210019N0100001N1+01371+01131101861ADDGA1081+021009079GF108991081999022501071999MA1999999101391MD1710091+9999REMSYN076AAXX  27214 02680 42860 81404 10137 20113 30139 40186 57009 8807/ 333 88357;EQDQ01+000002SCOLCG
0204026800999992000092800004+56920+018150FM-12+003999999V0201501N003110210019N0100001N1+01361+01291101721ADDAA106000191AY121061AY221061GA1081+021009029GF108991081001022501021999MA1999999101251MD1710141+9999MW1611REMSYN088AAXX  28004 02680 11860 81506 10136 20129 30125 40172 57014 69911 76122 8802/ 333 88557;
0187026800999992000092803004+56920+018150FM-12+003999999V0201401N003610210019N0250001N1+01351+01231101581ADDAY161031AY261031GA1081+021009019GF108991081001022501021999MA1999999101111MD1710141+9999MW1021REMSYN082AAXX  28034 02680 41875 81407 10135 20123 30111 40158 57014 70266 8802/ 333 88457;
0241026800999992000092806004+56920+018150FM-12+003999999V0201401N00361021001CN0200001N1+01351+01221101531ADDAA112000191AY161061AY221061GA1011+022509039GF108991081001022501071999IA1099KA1120N+01331MA1999999101061MD1610051+9999MW1601REMSYN106AAXX  28064 02680 11870 81407 10135 20122 30106 40153 56005 69912 76062 8807/ 333 20133 31/// 81398 88399;
0165026800999992000092809004+56920+018150FM-12+003999999V0201501N00361021001CN0160001N1+01421+01311101521ADDGA1021+022509039GF108991081001022501071999MA1999999101061MD1410001+9999REMSYN082AAXX  28094 02680 42866 81507 10142 20131 30106 40152 54000 8807/ 333 82398 87399;
0170026800999992000092812004+56920+018150FM-12+003999999V0201501N003119999999N0160001N1+01461+01231101471ADDAA199000021GA1071+999999079GF107991071001999999071999MA1999999101011MD1710051+9999REMSYN076AAXX  28124 02680 32966 71506 10146 20123 30101 40147 57005 8707/ 333 87399;
0187026800999992000092815004+56920+018150FM-12+003999999V0201401N003110025019N0070001N1+01361+01331101421ADDAY121031AY221031GA1081+002509069GF108991081061002501999999MA1999999100951MD1810061+9999MW1101REMSYN082AAXX  28154 02680 41357 81406 10136 20133 30095 40142 58006 71022 886// 333 88793;
0217026800999992000092818004+56920+018150FM-12+003999999V0201401N002612200019N0090001N1+01361+01341101431ADDAA199000021AY121061AY221061GA1031+999999079GF103991031001999999071001KA1120M+01541MA1999999100961MD1110011+9999MW1101REMSYN088AAXX  28184 02680 31959 31405 10136 20134 30096 40143 51001 71022 83070 333 10154 83399;
0143026800999992000092821004+56920+018150FM-12+003999999V0201401N002112200019N0150001N1+01381+01361101391ADDGA1001+999999999GF100991001001999999001001MA1999999100921MD1710041+9999REMSYN060AAXX  28214 02680 42965 01404 10138 20136 30092 40139 57004;
0201026800999992000092900004+56920+018150FM-12+003999999V0201401N002112200019N0060001N1+01411+01391101381ADDAA199000091AY101061AY201061GA1001+999999999GF100991001001999999001001MA1999999100911MD1710011+9999MW1101REMSYN066AAXX  29004 02680 31956 01404 10141 20139 30091 40138 57001 71000;EQDQ01  00002PRCP99
0171026800999992000092903004+56920+018150FM-12+003999999V0201601N002112200019N0044001N1+01401+01381101361ADDAY101031AY201031GA1001+999999999GF100991001001999999001001MA1999999100891MD1710021+9999MW1101REMSYN066AAXX  29034 02680 41944 01604 10140 20138 30089 40136 57002 71000;
0248026800999992000092906004+56920+018150FM-12+003999999V0201501N002619999999N0030001N1+01411+01391101421ADDAA199000091AY111061AY201061GA1071+999999079GF107991071001999999071999IA1099KA1120N+01361MA1999999100961MD1210071+9999MW1101REMSYN094AAXX  29064 02680 31930 71505 10141 20139 30096 40142 52007 71010 8707/ 333 20136 31/// 87399;EQDQ01  00002PRCP99
0213026800999992000092909004+56920+018150FM-12+003999999V0201501N003119999999N0035001N1+01501+01481101521ADDAY121031AY221031GA1011+025009039GF107991071001999999071999MA1999999101061MD1110101+9999MW1101SA1+1329REMSYN100AAXX  29094 02680 41935 71506 10150 20148 30106 40152 51010 71022 8707/ 222// 00132 333 81399 87399;
0217026800999992000092912004+56920+018150FM-12+003999999V0201401N002612200019N0050001N1+01541+01391101631ADDAA199000091AY121061AY211061GA1031+999999079GF103991031001999999031001MA1999999101171MD1210111+9999MW1101REMSYN082AAXX  29124 02680 31950 31405 10154 20139 30117 40163 52011 71021 83030 333 83399;EQDQ01  00002PRCP99
0159026800999992000092915004+56920+018150FM-12+003999999V0201401N003112200019N0110001N1+01481+01371101641ADDGA1011+999999019GF101991001001999999001011MA1999999101181MD1210011+9999REMSYN076AAXX  29154 02680 42961 11406 10148 20137 30118 40164 52001 80001 333 81099;
0208026800999992000092918004+56920+018150FM-12+003999999V0201401N002612200019N0160001N1+01431+01251101741ADDAA199000091GA1011+999999019GF101991001001999999001011KA1120M+01631MA1999999101281MD1310101+9999REMSYN082AAXX  29184 02680 32966 11405 10143 20125 30128 40174 53010 80001 333 10163 81099;EQDQ01  00002PRCP99
0143026800999992000092921004+56920+018150FM-12+003999999V0201401N003112200019N0160001N1+01431+01271101811ADDGA1001+999999999GF100991001001999999001001MA1999999101351MD1210071+9999REMSYN060AAXX  29214 02680 42966 01406 10143 20127 30135 40181 52007;
0173026800999992000093000004+56920+018150FM-12+003999999V0201401N002612200019N0140001N1+01361+01281101861ADDAA199000091GA1001+999999999GF100991001001999999001001MA1999999101391MD1210041+9999REMSYN060AAXX  30004 02680 32964 01405 10136 20128 30139 40186 52004;EQDQ01  00002PRCP99
0143026800999992000093003004+56920+018150FM-12+003999999V0201301N002612200019N0170001N1+01311+01281101881ADDGA1001+999999999GF100991001001999999001001MA1999999101411MD1210021+9999REMSYN060AAXX  30034 02680 42967 01305 10131 20128 30141 40188 52002;
0220026800999992000093006004+56920+018150FM-12+003999999V0201301N003112200019N0200001N1+01331+01281101931ADDAA199000091GA1011+999999019GF101991001001999999001011IA1019KA1120N+01311MA1999999101461MD1310051+9999REMSYN088AAXX  30064 02680 32970 11306 10133 20128 30146 40193 53005 80001 333 20131 30/// 81099;EQDQ01  00002PRCP99
0189026800999992000093009004+56920+018150FM-12+003999999V0201301N004112200019N0200001N1+01471+01141101961ADDAA199000091GA1011+004509029GF101991011011004501001001MA1999999101501MD1110041+9999REMSYN076AAXX  30094 02680 32470 11308 10147 20114 30150 40196 51004 81100 333 81894;EQDQ01  00002PRCP99
0217026800999992000093012004+56920+018150FM-12+003999999V0201301N003612200019N0230001N1+01541+00931101991ADDAA199000091AY101061AY201061GA1011+999999019GF101991001001999999001011MA1999999101531MD1110031+9999MW1051REMSYN082AAXX  30124 02680 31973 11307 10154 20093 30153 40199 51003 70500 80001 333 81099;EQDQ01  00002PRCP99
0187026800999992000093015004+56920+018150FM-12+003999999V0201301N003112200019N0200001N1+01431+00821101931ADDAY101031AY201031GA1011+999999019GF101991001001999999001011MA1999999101471MD1810061+9999MW1051REMSYN082AAXX  30154 02680 41970 11306 10143 20082 30147 40193 58006 70500 80001 333 81099;
0224026800999992000093018004+56920+018150FM-12+003999999V0201201N004112200019N0200001N1+01361+00841101931ADDAA199000091AY101061AY201061GA1001+999999999GF100991001001999999001001KA1999M+01561MA1999999101461MD1610011+9999MW1051REMSYN076AAXX  30184 02680 31970 01208 10136 20084 30146 40193 56001 70500 333 10156;EQDQ01  00002PRCP99
0143026800999992000093021004+56920+018150FM-12+003999999V0201201N004112200019N0300001N1+01341+00781101861ADDGA1001+999999999GF100991001001999999001001MA1999999101391MD1810071+9999REMSYN060AAXX  30214 02680 42980 01208 10134 20078 30139 40186 58007;
0173026800999992000100100004+56920+018150FM-12+003999999V0201201N003112200019N0250001N1+01311+00971101801ADDAA199000091GA1001+999999999GF100991001001999999001001MA1999999101331MD1810061+9999REMSYN060AAXX  01004 02680 32975 01206 10131 20097 30133 40180 58006;EQDQ01  00002PRCP99
0143026800999992000100103004+56920+018150FM-12+003999999V0201201N003612200019N0250001N1+01301+01071101651ADDGA1001+999999999GF100991001001999999001001MA1999999101181MD1810151+9999REMSYN060AAXX  01034 02680 42975 01207 10130 20107 30118 40165 58015;
0220026800999992000100106004+56920+018150FM-12+003999999V0201401N005112200019N0250001N1+01311+01021101531ADDAA199000091GA1011+004509029GF101991011011004501001001IA1019KA1120N+01301MA1999999101061MD1710121+9999REMSYN088AAXX  01064 02680 32475 11410 10131 20102 30106 40153 57012 81100 333 20130 30/// 81894;EQDQ01  00002PRCP99
0165026800999992000100109004+56920+018150FM-12+003999999V0201401N00461009001CN0250001N1+01401+01041101501ADDGA1011+004509089GF107991071081004501999999MA1999999101041MD1510021+9999REMSYN082AAXX  01094 02680 42475 71409 10140 20104 30104 40150 55002 878// 333 81894 87695;
0189026800999992000100112004+56920+018150FM-12+003999999V0201501N004110045019N0300001N1+01471+01071101401ADDAA199000091GA1071+004509059GF107991071051004501999999MA1999999100941MD1810101+9999REMSYN076AAXX  01124 02680 32480 71508 10147 20107 30094 40140 58010 875// 333 87694;EQDQ01  00002PRCP99
0206026800999992000100115004+56920+018150FM-12+003999999V0201301N003610225019N0290001N1+01381+01311101191ADDAY121031AY221031GA1081+022509079GF108991081999022501071999MA1999999100721MD1810221+9999MW1601REMSYN082AAXX  01154 02680 41879 81307 10138 20131 30072 40119 58022 76022 8807/ 333 88398;EQDQ01+000002SCOLCG
0223026800999992000100118004+56920+018150FM-12+003999999V0201501N005710150019N0100001N1+01501+01231101071ADDAA112000891AY161061AY221061GA1081+015009059GF108991081051012501999999KA1120M+01501MA1999999100611MD1610111+9999MW1021REMSYN094AAXX  01184 02680 11660 81511 10150 20123 30061 40107 56011 69972 70262 885// 333 10150 88650;
0143026800999992000100121004+56920+018150FM-12+003999999V0201501N004612200019N0200001N1+01501+01211101041ADDGA1001+999999999GF100991001001999999001001MA1999999100581MD1710031+9999REMSYN060AAXX  01214 02680 42970 01509 10150 20121 30058 40104 57003;
0189026800999992000100200004+56920+018150FM-12+003999999V0201601N004110210019N0200001N1+01471+01301100981ADDAA199000021GA1081+021009079GF108991081999022501071999MA1999999100521MD1710061+9999REMSYN076AAXX  02004 02680 32870 81608 10147 20130 30052 40098 57006 8807/ 333 88357;EQDQ01+000002SCOLCG
0178026800999992000100203004+56920+018150FM-12+003999999V0201501N002610210019N0250001N1+01421+01371100881ADDGA1081+021009079GF108991081999022501071999MA1999999100421MD1710101+9999REMSYN076AAXX  02034 02680 42875 81505 10142 20137 30042 40088 57010 8807/ 333 88357;EQDQ01+000002SCOLCG
0226026800999992000100206004+56920+018150FM-12+003999999V0201401N003112200019N0400001N1+01401+01371100841ADDAA199000091GA1011+025009039GF103991031001999999071011IA1019KA1120N+01401MA1999999100391MD1610031+9999REMSYN094AAXX  02064 02680 32982 31406 10140 20137 30039 40084 56003 83071 333 20140 30/// 81399 83399;EQDQ01  00002PRCP99
0185026800999992000100209004+56920+018150FM-12+003999999V0201201N003119999999N0350001N1+01441+01331100791ADDGA1011+025009039GF107991071001999999071999MA1999999100341MD1710051+9999SA1+1369REMSYN094AAXX  02094 02680 42981 71206 10144 20133 30034 40079 57005 8707/ 222// 00136 333 81399 87399;
0195026800999992000100212004+56920+018150FM-12+003999999V0201301N00411030001CN0300001N1+01481+01231100751ADDAA199000091GA1011+004509089GF108991011011004501071071MA1999999100301MD1510041+9999REMSYN082AAXX  02124 02680 32480 81308 10148 20123 30030 40075 55004 81177 333 81894 88299;EQDQ01  00002PRCP99
0187026800999992000100215004+56920+018150FM-12+003999999V0201601N005110025019N0120001N1+01291+01271100731ADDAY121031AY221031GA1071+002509069GF108991071071002501021999MA1999999100271MD1510031+9999MW1621REMSYN082AAXX  02154 02680 41362 81610 10129 20127 30027 40073 55003 76222 8772/ 333 87793;
0223026800999992000100218004+56920+018150FM-12+003999999V0201701N004610009019N0050001N1+01341+01321100711ADDAA112008991AY121061AY221061GA1081+000909069GF108991081071000751999999KA1120M+01551MA1999999100251MD1610021+9999MW1611REMSYN094AAXX  02184 02680 11150 81709 10134 20132 30025 40071 56002 60092 76122 887// 333 10155 88703;
0187026800999992000100221004+56920+018150FM-12+003999999V0201801N003610006019N0040001N1+01381+01361100801ADDAY161031AY261031GA1081+000609069GF108991081061000751999999MA1999999100341MD1210091+9999MW1101REMSYN082AAXX  02214 02680 41140 81807 10138 20136 30034 40080 52009 71066 886// 333 88702;
0204026800999992000100300004+56920+018150FM-12+003999999V0202101N004110009019N0042001N1+01371+01351100991ADDAA106002091AY161061AY261061GA1081+000909069GF108991081061000751999999MA1999999100521MD1310181+9999MW1101REMSYN088AAXX  03004 02680 11142 82108 10137 20135 30052 40099 53018 60021 71066 886// 333 88703;
0171026800999992000100303004+56920+018150FM-12+003999999V0202301N004112200019N0050001N1+01351+01331101201ADDAY121031AY211031GA1001+999999999GF100991001001999999001001MA1999999100731MD1210211+9999MW1101REMSYN066AAXX  03034 02680 41950 02308 10135 20133 30073 40120 52021 71021;
0207026800999992000100306004+56920+018150FM-12+003999999V0202501N004112200019N0300001N1+01321+01291101541ADDAA112002091GA1011+002509029GF101991011011002501071011IA1099KA1120N+01321MA1999999101071MD1210341+9999REMSYN094AAXX  03064 02680 12380 12508 10132 20129 30107 40154 52034 60022 81171 333 20132 31/// 81893;
0159026800999992000100309004+56920+018150FM-12+003999999V0202401N003612200019N0260001N1+01461+01171101791ADDGA1011+999999019GF101991001001999999001011MA1999999101331MD1310261+9999REMSYN076AAXX  03094 02680 42976 12407 10146 20117 30133 40179 53026 80001 333 81099;
0173026800999992000100312004+56920+018150FM-12+003999999V0202301N003612200019N0200001N1+01541+01221102011ADDAA199000091GA1001+999999999GF100991001001999999001001MA1999999101551MD1210221+9999REMSYN060AAXX  03124 02680 32970 02307 10154 20122 30155 40201 52022;EQDQ01  00002PRCP99
0171026800999992000100315004+56920+018150FM-12+003999999V0202301N002612200019N0034001N1+01411+01391102101ADDAY101031AY201031GA1001+999999999GF100991001001999999001001MA1999999101641MD1210091+9999MW1101REMSYN066AAXX  03154 02680 41934 02305 10141 20139 30164 40210 52009 71000;
0236026800999992000100318004+56920+018150FM-12+003999999V0202301N002112200019N0032001N1+01301+01281102181ADDAA199000091AY101061AY201061GA1011+999999079GF101991011001999999031011KA1120M+01571MA1999999101711MD1210071+9999MW1101REMSYN088AAXX  03184 02680 31932 12304 10130 20128 30171 40218 52007 71000 81031 333 10157 81399;EQDQ01  00002PRCP99
0171026800999992000100321004+56920+018150FM-12+003999999V0202301N002112200019N0060001N1+01281+01261102391ADDAY101031AY201031GA1001+999999999GF100991001001999999001001MA1999999101921MD1210211+9999MW1101REMSYN066AAXX  03214 02680 41956 02304 10128 20126 30192 40239 52021 71000;
0201026800999992000100400004+56920+018150FM-12+003999999V0202301N002112200019N0046001N1+01241+01221102341ADDAA199000091AY101061AY201061GA1001+999999999GF100991001001999999001001MA1999999101871MD1110051+9999MW1101REMSYN066AAXX  04004 02680 31946 02304 10124 20122 30187 40234 51005 71000;EQDQ01  00002PRCP99
0171026800999992000100403004+56920+018150FM-12+003999999V0202501N002112200019N0060001N1+01201+01191102341ADDAY101031AY201031GA1001+999999999GF100991001001999999001001MA1999999101871MD1410001+9999MW1101REMSYN066AAXX  04034 02680 41956 02504 10120 20119 30187 40234 54000 71000;
0220026800999992000100406004+56920+018150FM-12+003999999V0202701N002110025019N0110001N1+01181+01171102371ADDAA199000091GA1081+002509069GF108991081061002501999999IA1099KA1120N+01151MA1999999101901MD1210031+9999REMSYN088AAXX  04064 02680 32361 82704 10118 20117 30190 40237 52003 886// 333 20115 31/// 88793;EQDQ01  00002PRCP99
0179026800999992000100409004+56920+018150FM-12+003999999V0202501N002110045019N0220001N1+01331+01061102421ADDGA1081+004509059GF108991081051004501999999MA1999999101951MD1110051+9999SA1+1349REMSYN088AAXX  04094 02680 42472 82504 10133 20106 30195 40242 51005 885// 222// 00134 333 88694;
0189026800999992000100412004+56920+018150FM-12+003999999V0203201N000510025019N0150001N1+01381+01151102391ADDAA199000091GA1081+002509069GF108991081061002501999999MA1999999101921MD1710031+9999REMSYN076AAXX  04124 02680 32365 83201 10138 20115 30192 40239 57003 886// 333 88793;EQDQ01  00002PRCP99
0193026800999992000100415004+56920+018150FM-12+003999999V0201801N001012200019N0032001N1+01341+01321102321ADDAY121031AY221031GA1021+001509079GF104991021061001501031001MA1999999101851MD1710071+9999MW1101REMSYN088AAXX  04154 02680 41232 41802 10134 20132 30185 40232 57007 71022 82630 333 82792 83399;
0252026800999992000100418004+56920+018150FM-12+003999999V0201601N001010210019N0030001N1+01271+01251102281ADDAA199000091AY121061AY221061GA1081+021009079GF108991081999999999071999KA1120M+01481MA1999999101811MD1610041+9999MW1101REMSYN088AAXX  04184 02680 31930 81602 10127 20125 30181 40228 56004 71022 8807/ 333 10148 88357;EQDQ01+000002SCOLCGQ02  00002PRCP99
0206026800999992000100421004+56920+018150FM-12+003999999V0201301N001010240019N0015001N1+01291+01271102241ADDAY121031AY221031GA1081+024009079GF108991081999999999071999MA1999999101771MD1810041+9999MW1101REMSYN082AAXX  04214 02680 41915 81302 10129 20127 30177 40224 58004 71022 8807/ 333 88358;EQDQ01    003SCOLCG
0233026800999992000100500004+56920+018150FM-12+003999999V0201301N001010240019N0020001N1+01271+01251102181ADDAA199000091AY121061AY221061GA1081+024009079GF108991081999999999071999MA1999999101711MD1710061+9999MW1101REMSYN082AAXX  05004 02680 31920 81302 10127 20125 30171 40218 57006 71022 8807/ 333 88358;EQDQ01  00002PRCP99Q02    003SCOLCG
0159026800999992000100503004+56920+018150FM-12+003999999V0200901N001010300019N0200001N1+01251+01231102081ADDGA1081+030009079GF108991081001999999071999MA1999999101611MD1710101+9999REMSYN076AAXX  05034 02680 42970 80902 10125 20123 30161 40208 57010 8807/ 333 88360;
0220026800999992000100506004+56920+018150FM-12+003999999V0201101N001519999999N0200001N1+01321+01301101981ADDAA199000091GA1071+999999079GF107991071001999999071999IA1099KA1120N+01251MA1999999101511MD1710101+9999REMSYN088AAXX  05064 02680 32970 71103 10132 20130 30151 40198 57010 8707/ 333 20125 31/// 87399;EQDQ01  00002PRCP99
0159026800999992000100509004+56920+018150FM-12+003999999V0201301N002119999999N0100001N1+01421+01401101961ADDGA1081+999999079GF108991081001999999071999MA1999999101491MD1610021+9999REMSYN076AAXX  05094 02680 42960 81304 10142 20140 30149 40196 56002 8807/ 333 88399;
0217026800999992000100512004+56920+018150FM-12+003999999V0201201N001510015019N0048001N1+01471+01451101901ADDAA199000091AY121061AY221061GA1071+001509069GF108991071061001501999999MA1999999101431MD1810061+9999MW1101REMSYN082AAXX  05124 02680 31248 81203 10147 20145 30143 40190 58006 71022 876// 333 87792;EQDQ01  00002PRCP99
0171026800999992000100515004+56920+018150FM-12+003999999V0201301N001010001519N0001001N1+01401+01381101821ADDAY121031AY221031GA1091+999999999GF109991091999999999999999MA1999999101351MD1710081+9999MW1451REMSYN066AAXX  05154 02680 41/01 91302 10140 20138 30135 40182 57008 74522;
0224026800999992000100518004+56920+018150FM-12+003999999V0201601N001510001519N0001001N1+01371+01351101811ADDAA199000091AY141061AY221061GA1091+999999999GF109991091999999999999999KA1999M+01471MA1999999101341MD1510011+9999MW1451REMSYN076AAXX  05184 02680 31/01 91603 10137 20135 30134 40181 55001 74542 333 10147;EQDQ01  00002PRCP99
0161026800999992000100521004+56920+018150FM-12+003999999V0201201N002119999999N0001001N1+01371+01351101781ADDAY141031AY241031GF108991081999999999999999MA1999999101311MD1810031+9999MW1611REMSYN072AAXX  05214 02680 41/01 81204 10137 20135 30131 40178 58003 76144 88///;
0223026800999992000100600004+56920+018150FM-12+003999999V0201101N002110210019N0040001N1+01411+01391101681ADDAA106002091AY141061AY241061GA1081+021009079GF108991081999022501071999MA1999999101211MD1710101+9999MW1611REMSYN088AAXX  06004 02680 11840 81104 10141 20139 30121 40168 57010 60021 76144 8807/ 333 88357;EQDQ01+000002SCOLCG
0206026800999992000100603004+56920+018150FM-12+003999999V0201101N002110225019N0100001N1+01391+01371101621ADDAY161031AY261031GA1051+022509079GF105991051999022501071001MA1999999101151MD1710061+9999MW1021REMSYN082AAXX  06034 02680 41860 51104 10139 20137 30115 40162 57006 70266 85070 333 85398;EQDQ01+000002SCOLCG
0235026800999992000100606004+56920+018150FM-12+003999999V0201101N003119999999N0100001N1+01401+01361101571ADDAA112003091AY161061AY221061GA1071+999999079GF107991071001999999071999IA1099KA1120N+01371MA1999999101111MD1710041+9999MW1021REMSYN100AAXX  06064 02680 11960 71106 10140 20136 30111 40157 57004 60032 70262 8707/ 333 20137 31/// 87399;
0213026800999992000100609004+56920+018150FM-12+003999999V0201101N00311075001CN0050001N1+01481+01461101611ADDAY161031AY221031GA1021+022509039GF107991021001022501081021MA1999999101151MD1310041+9999MW1101SA1+1389REMSYN100AAXX  06094 02680 41850 71106 10148 20146 30115 40161 53004 71062 82082 222// 00138 333 82398 86099;
0204026800999992000100612004+56920+018150FM-12+003999999V0201201N003112200019N0100001N1+01531+01341101631ADDAA106000791AY161061AY221061GA1011+999999079GF103991011001999999081011MA1999999101171MD1110021+9999MW1021REMSYN088AAXX  06124 02680 11960 31206 10153 20134 30117 40163 51002 69901 70262 81081 333 81399;
0193026800999992000100615004+56920+018150FM-12+003999999V0201201N002112200019N0050001N1+01421+01381101731ADDAY111031AY211031GA1021+025009039GF104991021001999999031011MA1999999101271MD1210101+9999MW1101REMSYN088AAXX  06154 02680 41950 41204 10142 20138 30127 40173 52010 71011 82031 333 82399 83099;
0211026800999992000100618004+56920+018150FM-12+003999999V0201201N001512200019N0050001N1+01341+01321101931ADDAA112000791AY111061AY211061GA1001+999999999GF100991001001999999001001KA1999M+01601MA1999999101461MD1110191+9999MW1101REMSYN082AAXX  06184 02680 11950 01203 10134 20132 30146 40193 51019 69902 71011 333 10160;
0159026800999992000100621004+56920+018150FM-12+003999999V0201301N001512200019N0250001N1+01311+01291102071ADDGA1011+999999079GF101991011001999999031001MA1999999101601MD1210141+9999REMSYN076AAXX  06214 02680 42975 11303 10131 20129 30160 40207 52014 81030 333 81399;
0189026800999992000100700004+56920+018150FM-12+003999999V0201001N001012200019N0250001N1+01241+01221102161ADDAA199000091GA1011+999999079GF101991011001999999031001MA1999999101691MD1210091+9999REMSYN076AAXX  07004 02680 32975 11002 10124 20122 30169 40216 52009 81030 333 81399;EQDQ01  00002PRCP99
0143026800999992000100703004+56920+018150FM-12+003999999V0201101N001512200019N0250001N1+01241+01221102201ADDGA1001+999999999GF100991001001999999001001MA1999999101731MD1210041+9999REMSYN060AAXX  07034 02680 42975 01103 10124 20122 30173 40220 52004;
0236026800999992000100706004+56920+018150FM-12+003999999V0201201N001512200019N0250001N1+01231+01211102331ADDAA199000091GA1021+022509079GF104991021999022501031021IA1099KA1120N+01231MA1999999101861MD1210131+9999REMSYN088AAXX  07064 02680 32875 41203 10123 20121 30186 40233 52013 82032 333 20123 31/// 82398;EQDQ01+000002SCOLCGQ02  00002PRCP99
0187026800999992000100709004+56920+018150FM-12+003999999V0201201N002112200019N0250001N1+01571+01141102411ADDAY111031AY211031GA1011+999999079GF102991011001999999031091MA1999999101951MD1110091+9999MW1051REMSYN082AAXX  07094 02680 41975 21204 10157 20114 30195 40241 51009 70511 81039 333 81399;
0217026800999992000100712004+56920+018150FM-12+003999999V0201001N003112200019N0250001N1+01571+01101102381ADDAA199000091AY111061AY201061GA1011+999999019GF101991001001999999001011MA1999999101921MD1810031+9999MW1051REMSYN082AAXX  07124 02680 31975 11006 10157 20110 30192 40238 58003 70510 80001 333 81099;EQDQ01  00002PRCP99
0159026800999992000100715004+56920+018150FM-12+003999999V0200901N002112200019N0250001N1+01391+01211102341ADDGA1011+999999019GF101991001001999999001011MA1999999101871MD1610041+9999REMSYN076AAXX  07154 02680 42975 10904 10139 20121 30187 40234 56004 80001 333 81099;
0196026800999992000100718004+56920+018150FM-12+003999999V0200601N001512200019N0250001N1+01031+01011102371ADDAA199000091GA1001+999999999GF100991001001999999001001KA1999M+01601MA1999999101911MD1210041+9999REMSYN070AAXX  07184 02680 32975 00603 10103 20101 30191 40237 52004 333 10160;EQDQ01  00002PRCP99
0143026800999992000100721004+56920+018150FM-12+003999999V0200901N002112200019N0300001N1+01231+01001102321ADDGA1001+999999999GF100991001001999999001001MA1999999101851MD1810061+9999REMSYN060AAXX  07214 02680 42980 00904 10123 20100 30185 40232 58006;
0173026800999992000100800004+56920+018150FM-12+003999999V0201001N001512200019N0300001N1+01231+01211102331ADDAA199000091GA1001+999999999GF100991001001999999001001MA1999999101761MD1710091+9999REMSYN060AAXX  08004 02680 32980 01003 10123 20121 30176 40233 57009;EQDQ01  00002PRCP99
0143026800999992000100803004+56920+018150FM-12+003999999V0201401N001512200019N0250001N1+01301+01281102241ADDGA1001+999999999GF100991001001999999001001MA1999999101671MD1710091+9999REMSYN060AAXX  08034 02680 42975 01403 10130 20128 30167 40224 57009;
0220026800999992000100806004+56920+018150FM-12+003999999V0201201N001012200019N0150001N1+01261+01241102121ADDAA199000091GA1021+999999019GF102991001001999999001011IA1099KA1120N+01021MA1999999101651MD1610021+9999REMSYN088AAXX  08064 02680 32965 21202 10126 20124 30165 40212 56002 80001 333 20102 31/// 82099;EQDQ01  00002PRCP99
0165026800999992000100809004+56920+018150FM-12+003999999V0201301N00211075001CN0130001N1+01451+01431102091ADDGA1011+002509079GF108991011061002501001071MA1999999101631MD1710021+9999REMSYN082AAXX  08094 02680 42363 81304 10145 20143 30163 40209 57002 81607 333 81793 88299;
0195026800999992000100812004+56920+018150FM-12+003999999V0201301N003110300019N0200001N1+01431+01331101951ADDAA199000091GA1011+002509089GF106991011011002501071001MA1999999101491MD1810141+9999REMSYN082AAXX  08124 02680 32370 61306 10143 20133 30149 40195 58014 81170 333 81893 82399;EQDQ01  00002PRCP99
0159026800999992000100815004+56920+018150FM-12+003999999V0201401N003119999999N0240001N1+01361+01331101861ADDGA1021+999999079GF107991071001999999091999MA1999999101391MD1610101+9999REMSYN076AAXX  08154 02680 42974 71406 10136 20133 30139 40186 56010 8709/ 333 82399;
0208026800999992000100818004+56920+018150FM-12+003999999V0201601N003119999999N0230001N1+01381+01231101831ADDAA199000091GA1061+999999079GF106991061001999999071001KA1120M+01541MA1999999101361MD1810031+9999REMSYN082AAXX  08184 02680 32973 61606 10138 20123 30136 40183 58003 86070 333 10154 86399;EQDQ01  00002PRCP99
0159026800999992000100821004+56920+018150FM-12+003999999V0201601N004119999999N0250001N1+01421+01191101711ADDGA1061+999999079GF107991061001999999071001MA1999999101251MD1710111+9999REMSYN076AAXX  08214 02680 42975 71608 10142 20119 30125 40171 57011 86070 333 86399;
0189026800999992000100900004+56920+018150FM-12+003999999V0201601N003112200019N0350001N1+01351+01271101681ADDAA199000091GA1021+999999079GF102991021001999999071001MA1999999101211MD1710041+9999REMSYN076AAXX  09004 02680 32981 21606 10135 20127 30121 40168 57004 82070 333 82399;EQDQ01  00002PRCP99
0159026800999992000100903004+56920+018150FM-12+003999999V0201601N004112200019N0350001N1+01321+01221101591ADDGA1021+999999079GF102991021001999999071001MA1999999101121MD1710091+9999REMSYN076AAXX  09034 02680 42981 21608 10132 20122 30112 40159 57009 82070 333 82399;
0254026800999992000100906004+56920+018150FM-12+003999999V0201501N004119999999N0300001N1+01321+01121101571ADDAA199000091AY111061AY201061GA1011+025009039GF107991031001999999071081IA1019KA1120N+01321MA1999999101101MD1710021+9999MW1141REMSYN100AAXX  09064 02680 31980 71508 10132 20112 30110 40157 57002 71410 83078 333 20132 30/// 81399 87299;EQDQ01  00002PRCP99
0179026800999992000100909004+56920+018150FM-12+003999999V0201301N005112200019N0300001N1+01391+01011101551ADDGA1011+004509029GF102991011011004501001081MA1999999101081MD1710021+9999SA1+1349REMSYN088AAXX  09094 02680 42480 21310 10139 20101 30108 40155 57002 81108 222// 00134 333 81894;
0189026800999992000100912004+56920+018150FM-12+003999999V0201401N005112200019N0300001N1+01411+01001101461ADDAA199000091GA1011+004509029GF101991011011004501001011MA1999999101001MD1810081+9999REMSYN076AAXX  09124 02680 32480 11410 10141 20100 30100 40146 58008 81101 333 81894;EQDQ01  00002PRCP99
0165026800999992000100915004+56920+018150FM-12+003999999V0201301N006212200019N0300001N1+01311+00601101371ADDGA1011+008009089GF104991011011008001001091MA1999999100901MD1610101+9999REMSYN082AAXX  09154 02680 42580 41312 10131 20060 30090 40137 56010 81109 333 81895 83199;
0236026800999992000100918004+56920+018150FM-12+003999999V0201301N006712200019N0350001N1+01311+00291101311ADDAA199000091AY111061AY201061GA1041+027009079GF104991041001999999071001KA1120M+01441MA1999999100841MD1710061+9999MW1051REMSYN088AAXX  09184 02680 31981 41313 10131 20029 30084 40131 57006 70510 84070 333 10144 84359;EQDQ01  00002PRCP99
0193026800999992000100921004+56920+018150FM-12+003999999V0201501N006210120019N0350001N1+01321+00151101181ADDAY121031AY211031GA1011+008009089GF108991081081008001999999MA1999999100711MD1810131+9999MW1051REMSYN088AAXX  09214 02680 41581 81512 10132 20015 30071 40118 58013 70521 888// 333 81895 88642;
0217026800999992000101000004+56920+018150FM-12+003999999V0201501N005712200019N0350001N1+01151+00371101051ADDAA199000091AY121061AY211061GA1011+008009029GF104991011011008001071081MA1999999100581MD1710131+9999MW1051REMSYN082AAXX  10004 02680 31581 41511 10115 20037 30058 40105 57013 70521 81178 333 81895;EQDQ01  00002PRCP99
0187026800999992000101003004+56920+018150FM-12+003999999V0201401N005710069019N0300001N1+01061+00481100881ADDAY121031AY211031GA1081+006909059GF108991081051008001999999MA1999999100411MD1710171+9999MW1051REMSYN082AAXX  10034 02680 41580 81411 10106 20048 30041 40088 57017 70521 885// 333 88623;
0254026800999992000101006004+56920+018150FM-12+003999999V0201201N00571004501CN0300001N1+01031+00421100751ADDAA199000091AY121061AY211061GA1071+004509089GF108991071021004501071999IA1019KA1120N+01031MA1999999100291MD1710121+9999MW1051REMSYN100AAXX  10064 02680 31480 81211 10103 20042 30029 40075 57012 70521 8727/ 333 20103 30/// 87894 88399;EQDQ01  00002PRCP99
0193026800999992000101009004+56920+018150FM-12+003999999V0201301N00621004501CN0300001N1+01001+00411100651ADDAY181031AY221031GA1071+004509089GF108991071021004501071999MA1999999100191MD1710101+9999MW1021REMSYN088AAXX  10094 02680 41480 81312 10100 20041 30019 40065 57010 70282 8727/ 333 87894 88399;
0210026800999992000101012004+56920+018150FM-12+003999999V0201401N00621004201CN0290001N1+01031+00501100511ADDAA106000391AY181061AY221061GA1041+004509099GF108991081091004501999999MA1999999100051MD1710141+9999MW1801REMSYN094AAXX  10124 02680 11479 81412 10103 20050 30005 40051 57014 69931 78082 889// 333 84994 84894;
0187026800999992000101015004+56920+018150FM-12+003999999V0201301N006210045019N0300001N1+01031+00501100431ADDAY181031AY221031GA1081+004509059GF108991081051004501999999MA1999999099971MD1710081+9999MW1021REMSYN082AAXX  10154 02680 41480 81312 10103 20050 39997 40043 57008 70282 885// 333 88694;
0223026800999992000101018004+56920+018150FM-12+003999999V0201401N007210072019N0300001N1+01041+00791100351ADDAA112000591AY181061AY221061GA1081+007209059GF108991081051008001999999KA1120M+01101MA1999999099891MD1610081+9999MW1021REMSYN094AAXX  10184 02680 11580 81414 10104 20079 39989 40035 56008 69942 70282 885// 333 10110 88624;
0159026800999992000101021004+56920+018150FM-12+003999999V0201501N007210150019N0300001N1+01201+00661100301ADDGA1081+015009059GF108991081051012501999999MA1999999099841MD1710051+9999REMSYN076AAXX  10214 02680 42680 81514 10120 20066 39984 40030 57005 885// 333 88650;
0204026800999992000101100004+56920+018150FM-12+003999999V0201501N006210057019N0200001N1+01091+00981100251ADDAA106000891AY121061AY221061GA1081+005709059GF108991081051004501999999MA1999999099791MD1710051+9999MW1611REMSYN088AAXX  11004 02680 11470 81512 10109 20098 39979 40025 57005 69981 76122 885// 333 88619;
0187026800999992000101103004+56920+018150FM-12+003999999V0201501N006210042019N0200001N1+01001+00901100211ADDAY161031AY261031GA1081+004209059GF108991081051004501999999MA1999999099751MD1710041+9999MW1021REMSYN082AAXX  11034 02680 41470 81512 10100 20090 39975 40021 57004 70266 885// 333 88614;
0235026800999992000101106004+56920+018150FM-12+003999999V0201401N006210025019N0045001N1+00961+00941100181ADDAA112005191AY161061AY221061GA1081+002509069GF108991081071002501999999IA1129KA1120N+00961MA1999999099721MD1710031+9999MW1631REMSYN100AAXX  11064 02680 11345 81412 10096 20094 39972 40018 57003 60052 76362 887// 333 20096 332// 88793;
0207026800999992000101109004+56920+018150FM-12+003999999V0201501N005710025019N0060001N1+01011+00961100271ADDAY161031AY261031GA1081+002509069GF108991081071002501999999MA1999999099811MD1310091+9999MW1101SA1+1249REMSYN094AAXX  11094 02680 41356 81511 10101 20096 39981 40027 53009 71066 887// 222// 00124 333 88793;
0204026800999992000101112004+56920+018150FM-12+003999999V0201301N005710025019N0090001N1+01031+00931100221ADDAA106002091AY161061AY221061GA1081+002509069GF108991081061002501999999MA1999999099761MD1610051+9999MW1101REMSYN088AAXX  11124 02680 11359 81311 10103 20093 39976 40022 56005 60021 71062 886// 333 88793;
0159026800999992000101115004+56920+018150FM-12+003999999V0201201N006210045019N0100001N1+01081+00901100091ADDGA1071+004509059GF107991071051004501999999MA1999999099631MD1810131+9999REMSYN076AAXX  11154 02680 42460 71212 10108 20090 39963 40009 58013 875// 333 87694;
0229026800999992000101118004+56920+018150FM-12+003999999V0201301N00721030001CN0048001N1+01061+00991100061ADDAA112005191AY121061AY221061GA1011+001509079GF108991011071001501021999KA1120M+01151MA1999999099601MD1510031+9999MW1631REMSYN100AAXX  11184 02680 11248 81314 10106 20099 39960 40006 55003 60052 76322 8172/ 333 10115 81705 88558;
0187026800999992000101121004+56920+018150FM-12+003999999V0201401N005710150019N0100001N1+01211+00981100171ADDAY161031AY221031GA1081+015009059GF108991081051012501999999MA1999999099711MD1210111+9999MW1021REMSYN082AAXX  11214 02680 41660 81411 10121 20098 39971 40017 52011 70262 885// 333 88650;
0204026800999992000101200004+56920+018150FM-12+003999999V0201501N005110099019N0100001N1+01231+01001100261ADDAA106000791AY161061AY221061GA1081+009909059GF108991081051008001999999MA1999999099801MD1210091+9999MW1021REMSYN088AAXX  12004 02680 11560 81510 10123 20100 39980 40026 52009 69901 70262 885// 333 88633;
0159026800999992000101203004+56920+018150FM-12+003999999V0201401N004119999999N0170001N1+01201+01051100331ADDGA1081+999999079GF108991081001999999071999MA1999999099871MD1210071+9999REMSYN076AAXX  12034 02680 42967 81408 10120 20105 39987 40033 52007 8807/ 333 88399;
0241026800999992000101206004+56920+018150FM-12+003999999V0201201N00411030001CN0060001N1+01141+01091100371ADDAA112000191AY121061AY221061GA1011+002509079GF108991011071002501021999IA1099KA1120N+01061MA1999999099911MD1110041+9999MW1601REMSYN106AAXX  12064 02680 11356 81208 10114 20109 39991 40037 51004 69912 76022 8172/ 333 20106 31/// 81793 88599;
0193026800999992000101209004+56920+018150FM-12+003999999V0201201N00461002501CN0060001N1+01131+01121100301ADDAY161031AY261031GA1071+002509079GF108991071071002501021999MA1999999099841MD1810071+9999MW1611REMSYN088AAXX  12094 02680 41356 81209 10113 20112 39984 40030 58007 76166 8772/ 333 87793 88599;
0210026800999992000101212004+56920+018150FM-12+003999999V0201501N00411002501CN0110001N1+01191+01181100231ADDAA106003091AY161061AY211061GA1061+002509079GF108991061071002501021999MA1999999099771MD1610071+9999MW1211REMSYN094AAXX  12124 02680 11361 81508 10119 20118 39977 40023 56007 60031 72161 8672/ 333 86793 88599;
0159026800999992000101215004+56920+018150FM-12+003999999V0201801N004110225019N0150001N1+01251+01241100341ADDGA1081+022509019GF108991081001022501021999MA1999999099881MD1310111+9999REMSYN076AAXX  12154 02680 42865 81808 10125 20124 39988 40034 53011 8802/ 333 88498;
0201026800999992000101218004+56920+018150FM-12+003999999V0202201N00361002101CN0100001N1+01251+01241100631ADDAA112003091GA1011+001809079GF108991081051002501999999KA1120M+01251MA1999999100171MD1210291+9999REMSYN094AAXX  12184 02680 12360 82207 10125 20124 30017 40063 52029 60032 885// 333 10125 81706 88629;
0165026800999992000101221004+56920+018150FM-12+003999999V0202201N00311075001CN0300001N1+01161+01151100981ADDGA1011+008009069GF108991011051008001001071MA1999999100481MD1110311+9999REMSYN082AAXX  12214 02680 42580 82206 10116 20115 30048 40098 51031 81507 333 81695 88299;
0198026800999992000101300004+56920+018150FM-12+003999999V0202201N001012200019N0200001N1+01111+01101101181ADDAA199000021AY121061AY211061GA1011+999999079GF101991011001999999031011MA1999999100711MD1210231+9999MW1111REMSYN082AAXX  13004 02680 31970 12202 10111 20110 30071 40118 52023 71121 81031 333 81399;
0159026800999992000101303004+56920+018150FM-12+003999999V0201301N000512200019N0300001N1+01091+01081101251ADDGA1031+999999079GF103991031001999999031001MA1999999100781MD1010071+9999REMSYN076AAXX  13034 02680 42980 31301 10109 20108 30078 40125 50007 83030 333 83399;
0248026800999992000101306004+56920+018150FM-12+003999999V0200901N001019999999N0300001N1+01131+01121101341ADDAA199000091AY111061AY201061GA1071+999999079GF107991071001999999071999IA1099KA1120N+01091MA1999999100871MD1210091+9999MW1111REMSYN094AAXX  13064 02680 31980 70902 10113 20112 30087 40134 52009 71110 8707/ 333 20109 31/// 87399;EQDQ01  00002PRCP99
0213026800999992000101309004+56920+018150FM-12+003999999V0200901N00211030001CN0050001N1+01361+01341101341ADDAY121031AY221031GA1011+002509079GF106991011061002501071011MA1999999100871MD1410001+9999MW1101SA1+1229REMSYN100AAXX  13094 02680 41350 60904 10136 20134 30087 40134 54000 71022 81671 222// 00122 333 81793 85399;
0210026800999992000101312004+56920+018150FM-12+003999999V0200901N00261030001CN0050001N1+01341+01321101281ADDAA106000791AY161061AY221061GA1011+001509079GF108991011061001501071999MA1999999100811MD1510061+9999MW1101REMSYN094AAXX  13124 02680 11250 80905 10134 20132 30081 40128 55006 69901 71062 8167/ 333 81792 88399;
0193026800999992000101315004+56920+018150FM-12+003999999V0201101N00261030001CN0040001N1+01271+01251101211ADDAY121031AY221031GA1011+001509079GF108991011061001501071999MA1999999100741MD1710071+9999MW1101REMSYN088AAXX  13154 02680 41240 81105 10127 20125 30074 40121 57007 71022 8167/ 333 81792 88499;
0223026800999992000101318004+56920+018150FM-12+003999999V0203601N000512200019N0035001N1+01151+01141101231ADDAA112000791AY121061AY211061GA1021+999999079GF102991021001999999071001KA1120M+01391MA1999999100761MD1010021+9999MW1101REMSYN094AAXX  13184 02680 11935 23601 10115 20114 30076 40123 50002 69902 71021 82070 333 10139 82399;
0187026800999992000101321004+56920+018150FM-12+003999999V0200301N001510006019N0030001N1+01201+01191101221ADDAY111031AY201031GA1081+000609069GF108991081061000751999999MA1999999100751MD1510011+9999MW1101REMSYN082AAXX  13214 02680 41130 80303 10120 20119 30075 40122 55001 71010 886// 333 88702;
0217026800999992000101400004+56920+018150FM-12+003999999V0203301N001010006019N0030001N1+01201+01191101291ADDAA199000091AY121061AY211061GA1081+000609069GF108991081061000751999999MA1999999100821MD1110071+9999MW1101REMSYN082AAXX  14004 02680 31130 83302 10120 20119 30082 40129 51007 71021 886// 333 88702;EQDQ01  00002PRCP99
0159026800999992000101403004+56920+018150FM-12+003999999V0203401N000510009019N0100001N1+01101+01091101341ADDGA1081+000909069GF108991081061001501999999MA1999999100871MD1210051+9999REMSYN076AAXX  14034 02680 42260 83401 10110 20109 30087 40134 52005 886// 333 88703;
0226026800999992000101406004+56920+018150FM-12+003999999V0203301N00211030001CN0300001N1+01131+01091101371ADDAA199000091GA1011+004509089GF108991011081004501071999IA1099KA1120N+01101MA1999999100901MD1110031+9999REMSYN094AAXX  14064 02680 32480 83304 10113 20109 30090 40137 51003 8187/ 333 20110 31/// 81894 87399;EQDQ01  00002PRCP99
0165026800999992000101409004+56920+018150FM-12+003999999V0202901N00151030001CN0300001N1+01231+01161101541ADDGA1011+002509079GF107991021021002501031999MA1999999101071MD1210171+9999REMSYN082AAXX  14094 02680 42380 72903 10123 20116 30107 40154 52017 8223/ 333 81793 87399;
0189026800999992000101412004+56920+018150FM-12+003999999V0202701N002112200019N0350001N1+01331+01131101651ADDAA199000091GA1021+002509069GF103991031021002501001001MA1999999101181MD1210111+9999REMSYN076AAXX  14124 02680 32381 32704 10133 20113 30118 40165 52011 83200 333 82793;EQDQ01  00002PRCP99
0159026800999992000101415004+56920+018150FM-12+003999999V0202601N001512200019N0300001N1+01211+01191101791ADDGA1011+002509069GF102991011061002501081041MA1999999101321MD1210141+9999REMSYN076AAXX  14154 02680 42380 22603 10121 20119 30132 40179 52014 81684 333 81793;
0208026800999992000101418004+56920+018150FM-12+003999999V0202501N001012200019N0300001N1+01101+01081101931ADDAA199000091GA1011+999999019GF101991001001999999001011KA1120M+01351MA1999999101461MD1210141+9999REMSYN082AAXX  14184 02680 32980 12502 10110 20108 30146 40193 52014 80001 333 10135 81099;EQDQ01  00002PRCP99
0159026800999992000101421004+56920+018150FM-12+003999999V0202601N001012200019N0200001N1+01121+01101102061ADDGA1031+999999019GF103991001001999999001021MA1999999101591MD1110131+9999REMSYN076AAXX  14214 02680 42970 32602 10112 20110 30159 40206 51013 80002 333 83099;
0189026800999992000101500004+56920+018150FM-12+003999999V0203001N001012200019N0200001N1+01041+01021102171ADDAA199000091GA1031+999999019GF103991001001999999001021MA1999999101701MD1210111+9999REMSYN076AAXX  15004 02680 32970 33002 10104 20102 30170 40217 52011 80002 333 83099;EQDQ01  00002PRCP99
0159026800999992000101503004+56920+018150FM-12+003999999V0202301N001012200019N0048001N1+01001+00981102241ADDGA1011+999999019GF101991001001999999001011MA1999999101771MD1310071+9999REMSYN076AAXX  15034 02680 42948 12302 10100 20098 30177 40224 53007 80001 333 81099;
0248026800999992000101506004+56920+018150FM-12+003999999V0209999C000012200019N0250001N1+01011+01001102301ADDAA199000091AY101061AY201061GA1011+999999079GF101991011001999999031011IA1099KA1120N+00991MA1999999101831MD1210061+9999MW1121REMSYN094AAXX  15064 02680 31975 10000 10101 20100 30183 40230 52006 71200 81031 333 20099 31/// 81399;EQDQ01  00002PRCP99
0159026800999992000101509004+56920+018150FM-12+003999999V0201801N001012200019N0250001N1+01311+01131102431ADDGA1011+002509029GF101991011021002501001001MA1999999101961MD1310131+9999REMSYN076AAXX  15094 02680 42375 11802 10131 20113 30196 40243 53013 81200 333 81893;
0189026800999992000101512004+56920+018150FM-12+003999999V0202001N001512200019N0210001N1+01361+01001102411ADDAA199000091GA1011+004509029GF102991011021004501001011MA1999999101941MD1810021+9999REMSYN076AAXX  15124 02680 32471 22003 10136 20100 30194 40241 58002 81201 333 81894;EQDQ01  00002PRCP99
0159026800999992000101515004+56920+018150FM-12+003999999V0201101N001012200019N0200001N1+01171+01121102351ADDGA1011+999999019GF101991001001999999001011MA1999999101881MD1710061+9999REMSYN076AAXX  15154 02680 42970 11102 10117 20112 30188 40235 57006 80001 333 81099;
0208026800999992000101518004+56920+018150FM-12+003999999V0201001N001512200019N0100001N1+01021+01011102351ADDAA199000091GA1011+999999019GF101991001001999999001011KA1120M+01381MA1999999101881MD1410001+9999REMSYN082AAXX  15184 02680 32960 11003 10102 20101 30188 40235 54000 80001 333 10138 81099;EQDQ01  00002PRCP99
0189026800999992000101521004+56920+018150FM-12+003999999V0201001N002112200019N0250001N1+01061+01051102361ADDAA199000091GA1021+999999079GF102991021001999999031001MA1999999101891MD1110011+9999REMSYN076AAXX  15214 02680 32975 21004 10106 20105 30189 40236 51001 82030 333 82399;EQDQ01  00002PRCP99
0189026800999992000101600004+56920+018150FM-12+003999999V0201101N003110015019N0250001N1+01131+01121102341ADDAA199000091GA1071+001509069GF107991071061001501999999MA1999999101871MD1710021+9999REMSYN076AAXX  16004 02680 32275 71106 10113 20112 30187 40234 57002 876// 333 87705;EQDQ01  00002PRCP99
0159026800999992000101603004+56920+018150FM-12+003999999V0201201N004610018019N0220001N1+01051+01041102231ADDGA1071+001809069GF107991071061001501999999MA1999999101761MD1810111+9999REMSYN076AAXX  16034 02680 42272 71209 10105 20104 30176 40223 58011 876// 333 87706;
0220026800999992000101606004+56920+018150FM-12+003999999V0201201N005112200019N0300001N1+01131+01101102161ADDAA199000091GA1011+002509069GF101991011061002501001011IA1099KA1120N+01021MA1999999101691MD1610071+9999REMSYN088AAXX  16064 02680 32380 11210 10113 20110 30169 40216 56007 81601 333 20102 31/// 81793;EQDQ01  00002PRCP99
0179026800999992000101609004+56920+018150FM-12+003999999V0201101N006212200019N0350001N1+01271+00891102111ADDGA1011+999999019GF101991001001999999001011MA1999999101641MD1810051+9999SA1+1229REMSYN088AAXX  16094 02680 42981 11112 10127 20089 30164 40211 58005 80001 222// 00122 333 81099;
0189026800999992000101612004+56920+018150FM-12+003999999V0200901N005712200019N0400001N1+01311+00781101981ADDAA199000091GA1011+999999019GF101991001001999999001011MA1999999101511MD1810131+9999REMSYN076AAXX  16124 02680 32982 10911 10131 20078 30151 40198 58013 80001 333 81099;EQDQ01  00002PRCP99
0143026800999992000101615004+56920+018150FM-12+003999999V0201101N005112200019N0400001N1+01241+00861101901ADDGA1001+999999999GF100991001001999999001001MA1999999101431MD1710081+9999REMSYN060AAXX  16154 02680 42982 01110 10124 20086 30143 40190 57008;
0196026800999992000101618004+56920+018150FM-12+003999999V0201201N005112200019N0400001N1+01251+00901101901ADDAA199000091GA1001+999999999GF100991001001999999001001KA1999M+01311MA1999999101431MD1410001+9999REMSYN070AAXX  16184 02680 32982 01210 10125 20090 30143 40190 54000 333 10131;EQDQ01  00002PRCP99
0159026800999992000101621004+56920+018150FM-12+003999999V0201301N004112200019N0400001N1+01251+01001101931ADDGA1011+999999019GF101991001001999999001011MA1999999101461MD1210031+9999REMSYN076AAXX  16214 02680 42982 11308 10125 20100 30146 40193 52003 80001 333 81099;
0173026800999992000101700004+56920+018150FM-12+003999999V0201301N003112200019N0400001N1+01221+01131101921ADDAA199000091GA1001+999999999GF100991001001999999001001MA1999999101451MD1810011+9999REMSYN060AAXX  17004 02680 32982 01306 10122 20113 30145 40192 58001;EQDQ01  00002PRCP99
0165026800999992000101703004+56920+018150FM-12+003999999V0201301N002612200019N0350001N1+01201+01171101921ADDGA1011+025009039GF104991011001999999031081MA1999999101451MD1410001+9999REMSYN082AAXX  17034 02680 42981 41305 10120 20117 30145 40192 54000 81038 333 81399 84299;
0226026800999992000101706004+56920+018150FM-12+003999999V0201401N00311999999CN0300001N1+01201+01181101941ADDAA199000091GA1051+025009039GF107991051001999999031011IA1019KA1120N+01201MA1999999101471MD1310021+9999REMSYN094AAXX  17064 02680 32980 71406 10120 20118 30147 40194 53002 85031 333 20120 30/// 85399 86099;EQDQ01  00002PRCP99
0165026800999992000101709004+56920+018150FM-12+003999999V0201501N00261075001CN0200001N1+01281+01261102061ADDGA1021+002509079GF108991021061002501001071MA1999999101591MD1210121+9999REMSYN082AAXX  17094 02680 42370 81505 10128 20126 30159 40206 52012 82607 333 82793 88299;
0195026800999992000101712004+56920+018150FM-12+003999999V0201501N00211075001CN0200001N1+01281+01261102111ADDAA199000091GA1011+022509039GF108991011001022501031071MA1999999101641MD1110051+9999REMSYN082AAXX  17124 02680 32870 81504 10128 20126 30164 40211 51005 81037 333 81398 88299;EQDQ01  00002PRCP99
0165026800999992000101715004+56920+018150FM-12+003999999V0201201N00211021001CN0150001N1+01211+01191102181ADDGA1021+022509039GF107991071001022501071999MA1999999101711MD1210071+9999REMSYN082AAXX  17154 02680 42865 71204 10121 20119 30171 40218 52007 8707/ 333 82398 87399;
0208026800999992000101718004+56920+018150FM-12+003999999V0201401N002119999999N0150001N1+01171+01151102271ADDAA199000091GA1071+999999079GF107991071001999999031999KA1120M+01341MA1999999101801MD1110091+9999REMSYN082AAXX  17184 02680 32965 71404 10117 20115 30180 40227 51009 8703/ 333 10134 87399;EQDQ01  00002PRCP99
0159026800999992000101721004+56920+018150FM-12+003999999V0201101N001512200019N0150001N1+01071+01051102301ADDGA1011+999999079GF101991011001999999031001MA1999999101831MD1210031+9999REMSYN076AAXX  17214 02680 42965 11103 10107 20105 30183 40230 52003 81030 333 81399;
0217026800999992000101800004+56920+018150FM-12+003999999V0200801N001012200019N0035001N1+00951+00931102291ADDAA199000091AY121061AY211061GA1011+999999079GF101991011001999999031001MA1999999101821MD1110011+9999MW1101REMSYN082AAXX  18004 02680 31935 10802 10095 20093 30182 40229 51001 71021 81030 333 81399;EQDQ01  00002PRCP99
0171026800999992000101803004+56920+018150FM-12+003999999V0209999C000012200019N0004001N1+01031+01011102311ADDAY101031AY201031GA1001+999999999GF100991001001999999001001MA1999999101841MD1110021+9999MW1441REMSYN066AAXX  18034 02680 41904 00000 10103 20101 30184 40231 51002 74400;
0248026800999992000101806004+56920+018150FM-12+003999999V0209999C000012200019N0001001N1+00991+00991102351ADDAA199000091AY101061AY201061GA1021+999999079GF102991021001999999031001IA1099KA1120N+00951MA1999999101881MD1310041+9999MW1441REMSYN094AAXX  18064 02680 31901 20000 10099 20099 30188 40235 53004 74400 82030 333 20095 31/// 82399;EQDQ01  00002PRCP99
0207026800999992000101809004+56920+018150FM-12+003999999V0209999C000010015019N0036001N1+01161+01151102491ADDAY141031AY241031GA1081+001509069GF108991081061001501999999MA1999999102021MD1210141+9999MW1101SA1+1209REMSYN094AAXX  18094 02680 41236 80000 10116 20115 30202 40249 52014 71044 886// 222// 00120 333 88792;
0217026800999992000101812004+56920+018150FM-12+003999999V0202701N000510009019N0046001N1+01191+01181102551ADDAA199000091AY141061AY241061GA1081+000909069GF108991081061000751999999MA1999999102081MD1210061+9999MW1101REMSYN082AAXX  18124 02680 31146 82701 10119 20118 30208 40255 52006 71044 886// 333 88703;EQDQ01  00002PRCP99
0187026800999992000101815004+56920+018150FM-12+003999999V0202501N001010006019N0047001N1+01071+01071102621ADDAY121031AY221031GA1081+000609069GF108991081061000751999999MA1999999102151MD1110071+9999MW1101REMSYN082AAXX  18154 02680 41147 82502 10107 20107 30215 40262 51007 71022 886// 333 88702;
0236026800999992000101818004+56920+018150FM-12+003999999V0202401N000510015019N0070001N1+01041+01031102681ADDAA199000091AY121061AY221061GA1081+001509069GF108991081061001501999999KA1120M+01211MA1999999102211MD1110061+9999MW1101REMSYN088AAXX  18184 02680 31257 82401 10104 20103 30221 40268 51006 71022 886// 333 10121 88705;EQDQ01  00002PRCP99
0159026800999992000101821004+56920+018150FM-12+003999999V0202001N001010024019N0250001N1+01041+01011102751ADDGA1081+002409069GF108991081061002501999999MA1999999102281MD1210071+9999REMSYN076AAXX  18214 02680 42375 82002 10104 20101 30228 40275 52007 886// 333 88708;
0189026800999992000101900004+56920+018150FM-12+003999999V0202001N001010024019N0300001N1+01001+00971102781ADDAA199000091GA1081+002409069GF108991081061002501999999MA1999999102311MD1310031+9999REMSYN076AAXX  19004 02680 32380 82002 10100 20097 30231 40278 53003 886// 333 88708;EQDQ01  00002PRCP99
0159026800999992000101903004+56920+018150FM-12+003999999V0201501N001010030019N0250001N1+01021+00931102741ADDGA1081+003009059GF108991081051004501999999MA1999999102271MD1810041+9999REMSYN076AAXX  19034 02680 42475 81502 10102 20093 30227 40274 58004 885// 333 88610;
0220026800999992000101906004+56920+018150FM-12+003999999V0201401N001510045019N0250001N1+01041+00991102711ADDAA199000091GA1081+004509059GF108991081051004501999999IA1019KA1120N+01001MA1999999102241MD1510031+9999REMSYN088AAXX  19064 02680 32475 81403 10104 20099 30224 40271 55003 885// 333 20100 30/// 88694;EQDQ01  00002PRCP99
0165026800999992000101909004+56920+018150FM-12+003999999V0201301N00261002501CN0150001N1+01151+01141102721ADDGA1061+002509079GF108991061061002501021999MA1999999102251MD1010011+9999REMSYN082AAXX  19094 02680 42365 81305 10115 20114 30225 40272 50001 8662/ 333 86793 88499;
0189026800999992000101912004+56920+018150FM-12+003999999V0201401N003612200019N0200001N1+01191+00861102671ADDAA199000091GA1031+002509059GF103991031051002501001001MA1999999102201MD1810051+9999REMSYN076AAXX  19124 02680 32370 31407 10119 20086 30220 40267 58005 83500 333 83693;EQDQ01  00002PRCP99
0159026800999992000101915004+56920+018150FM-12+003999999V0201601N004112200019N0300001N1+01081+00391102611ADDGA1011+008009029GF101991011011008001031001MA1999999102141MD1710061+9999REMSYN076AAXX  19154 02680 42580 11608 10108 20039 30214 40261 57006 81130 333 81895;
0224026800999992000101918004+56920+018150FM-12+003999999V0201601N005112200019N0300001N1+01081+00361102691ADDAA199000091AY101061AY201061GA1001+999999999GF100991001001999999001001KA1999M+01251MA1999999102221MD1110081+9999MW1051REMSYN076AAXX  19184 02680 31980 01610 10108 20036 30222 40269 51008 70500 333 10125;EQDQ01  00002PRCP99
0171026800999992000101921004+56920+018150FM-12+003999999V0201801N005112200019N0250001N1+01091+00371102661ADDAY101031AY201031GA1001+999999999GF100991001001999999001001MA1999999102191MD1810031+9999MW1051REMSYN066AAXX  19214 02680 41975 01810 10109 20037 30219 40266 58003 70500;
0173026800999992000102000004+56920+018150FM-12+003999999V0202001N004112200019N0260001N1+01051+00491102741ADDAA199000091GA1001+999999999GF100991001001999999001001MA1999999102271MD1310081+9999REMSYN060AAXX  20004 02680 32976 02008 10105 20049 30227 40274 53008;EQDQ01  00002PRCP99
0159026800999992000102003004+56920+018150FM-12+003999999V0201801N003110081019N0300001N1+01081+00661102781ADDGA1081+008109059GF108991081051008001999999MA1999999102311MD1210041+9999REMSYN076AAXX  20034 02680 42580 81806 10108 20066 30231 40278 52004 885// 333 88627;
0220026800999992000102006004+56920+018150FM-12+003999999V0201701N003110080019N0240001N1+01061+00781102841ADDAA199000091GA1081+008009059GF108991081051008001999999IA1019KA1120N+01051MA1999999102371MD1210061+9999REMSYN088AAXX  20064 02680 32574 81706 10106 20078 30237 40284 52006 885// 333 20105 30/// 88695;EQDQ01  00002PRCP99
0207026800999992000102009004+56920+018150FM-12+003999999V0201701N00311030001CN0210001N1+01061+00871102921ADDGA1011+004509069GA2031+008009069GF108991031051004501021999MA1999999102451MD1210081+9999SA1+1189REMSYN100AAXX  20094 02680 42471 81706 10106 20087 30245 40292 52008 8352/ 222// 00118 333 81694 83695 88499;
0195026800999992000102012004+56920+018150FM-12+003999999V0201801N00211004501CN0160001N1+01131+01011102991ADDAA199000091GA1071+004509069GF108991071051004501021999MA1999999102511MD1210061+9999REMSYN082AAXX  20124 02680 32466 81804 10113 20101 30251 40299 52006 8752/ 333 87694 88499;EQDQ01  00002PRCP99
0193026800999992000102015004+56920+018150FM-12+003999999V0201601N00211004201CN0060001N1+01111+01021103021ADDAY121031AY221031GA1011+004509069GF108991081051004501999999MA1999999102541MD1310031+9999MW1101REMSYN088AAXX  20154 02680 41456 81604 10111 20102 30254 40302 53003 71022 885// 333 81694 88695;
0214026800999992000102018004+56920+018150FM-12+003999999V0201501N00311002101CN0100001N1+01061+00951103081ADDAA199000091GA1021+002709079GF108991081051002501999999KA1120M+01151MA1999999102601MD1010061+9999REMSYN088AAXX  20184 02680 32360 81506 10106 20095 30260 40308 50006 885// 333 10115 82709 88637;EQDQ01  00002PRCP99
0143026800999992000102021004+56920+018150FM-12+003999999V0201801N003112200019N0100001N1+00991+00831103121ADDGA1001+999999999GF100991001001999999001001MA1999999102641MD1110041+9999REMSYN060AAXX  20214 02680 42960 01806 10099 20083 30264 40312 51004;
0143026800999992000102103004+56920+018150FM-12+003999999V0201301N002112200019N0250001N1+00951+00871103121ADDGA1001+999999999GF100991001001999999001001MA1999999102641MD1710011+9999REMSYN060AAXX  21034 02680 42975 01304 10095 20087 30264 40312 57001;
0248026800999992000102106004+56920+018150FM-12+003999999V0201501N003112200019N0070001N1+01031+00981103101ADDAA199000091AY101061AY201061GA1011+999999079GF101991011001999999031011IA1099KA1120N+00951MA1999999102621MD1810021+9999MW1101REMSYN094AAXX  21064 02680 31957 11506 10103 20098 30262 40310 58002 71000 81031 333 20095 31/// 81399;EQDQ01  00002PRCP99
0187026800999992000102109004+56920+018150FM-12+003999999V0201501N003112200019N0045001N1+01211+01131103131ADDAY101031AY201031GA1021+002509069GF102991021061002501031001MA1999999102651MD1110031+9999MW1101REMSYN082AAXX  21094 02680 41345 21506 10121 20113 30265 40313 51003 71000 82630 333 82793;
0217026800999992000102112004+56920+018150FM-12+003999999V0201601N004119999999N0048001N1+01251+00981103031ADDAA199000091AY111061AY201061GA1081+999999089GF108991001001999999001071MA1999999102551MD1810101+9999MW1101REMSYN082AAXX  21124 02680 31948 81608 10125 20098 30255 40303 58010 71010 80007 333 88299;EQDQ01  00002PRCP99
0193026800999992000102115004+56920+018150FM-12+003999999V0201501N003619999999N0070001N1+01071+00771102891ADDAY121031AY221031GA1011+025009039GF108991011001999999031071MA1999999102421MD1710131+9999MW1101REMSYN088AAXX  21154 02680 41957 81507 10107 20077 30242 40289 57013 71022 81037 333 81399 88299;
0236026800999992000102118004+56920+018150FM-12+003999999V0201801N004619999999N0070001N1+01091+00991102811ADDAA199000091AY121061AY221061GA1081+999999089GF108991001001999999001071KA1120M+01311MA1999999102341MD1710081+9999MW1101REMSYN088AAXX  21184 02680 31957 81809 10109 20099 30234 40281 57008 71022 80007 333 10131 88299;EQDQ01  00002PRCP99
0143026800999992000102121004+56920+018150FM-12+003999999V0201901N004612200019N0200001N1+01121+00801102701ADDGA1001+999999999GF100991001001999999001001MA1999999102231MD1710111+9999REMSYN060AAXX  21214 02680 42970 01909 10112 20080 30223 40270 57011;
0173026800999992000102200004+56920+018150FM-12+003999999V0201901N004112200019N0200001N1+01091+00961102571ADDAA199000091GA1001+999999999GF100991001001999999001001MA1999999102101MD1710131+9999REMSYN060AAXX  22004 02680 32970 01908 10109 20096 30210 40257 57013;EQDQ01  00002PRCP99
0159026800999992000102203004+56920+018150FM-12+003999999V0202001N004110180019N0100001N1+01161+01051102441ADDGA1081+018009059GF108991081051017501999999MA1999999101971MD1710131+9999REMSYN076AAXX  22034 02680 42760 82008 10116 20105 30197 40244 57013 885// 333 88656;
0236026800999992000102206004+56920+018150FM-12+003999999V0202201N003610225019N0100001N1+01191+01171102381ADDAA199000091GA1081+022509079GF108991081999022501031999IA1019KA1120N+01091MA1999999101911MD1610061+9999REMSYN088AAXX  22064 02680 32860 82207 10119 20117 30191 40238 56006 8803/ 333 20109 30/// 88398;EQDQ01+000002SCOLCGQ02  00002PRCP99
0217026800999992000102212004+56920+018150FM-12+003999999V0202301N004110025019N0040001N1+01311+01291102401ADDAA199000091AY121061AY221061GA1081+002509069GF108991081061002501999999MA1999999101931MD1610011+9999MW1101REMSYN082AAXX  22124 02680 31340 82308 10131 20129 30193 40240 56001 71022 886// 333 88793;EQDQ01  00002PRCP99
0206026800999992000102215004+56920+018150FM-12+003999999V0202401N002610225019N0035001N1+01241+01221102461ADDAY121031AY221031GA1081+022509079GF108991081999022501071999MA1999999101991MD1110061+9999MW1101REMSYN082AAXX  22154 02680 41835 82405 10124 20122 30199 40246 51006 71022 8807/ 333 88398;EQDQ01+000002SCOLCG
0224026800999992000102218004+56920+018150FM-12+003999999V0202401N003112200019N0035001N1+01201+01181102471ADDAA199000091AY121061AY221061GA1001+999999999GF100991001001999999001001KA1999M+01381MA1999999102001MD1210011+9999MW1101REMSYN076AAXX  22184 02680 31935 02406 10120 20118 30200 40247 52001 71022 333 10138;EQDQ01  00002PRCP99
0143026800999992000102221004+56920+018150FM-12+003999999V0202901N002612200019N0400001N1+01101+01081102591ADDGA1001+999999999GF100991001001999999001001MA1999999102121MD1110121+9999REMSYN060AAXX  22214 02680 42982 02905 10110 20108 30212 40259 51012;
0173026800999992000102300004+56920+018150FM-12+003999999V0203001N001512200019N0450001N1+01001+00981102651ADDAA199000091GA1001+999999999GF100991001001999999001001MA1999999102181MD1210061+9999REMSYN060AAXX  23004 02680 32983 03003 10100 20098 30218 40265 52006;EQDQ01  00002PRCP99
0159026800999992000102303004+56920+018150FM-12+003999999V0203101N002112200019N0450001N1+00931+00911102641ADDGA1011+004509059GF101991011051004501001001MA1999999102171MD1810011+9999REMSYN076AAXX  23034 02680 42483 13104 10093 20091 30217 40264 58001 81500 333 81694;
0226026800999992000102306004+56920+018150FM-12+003999999V0202101N00101030001CN0400001N1+00951+00931102601ADDAA199000091GA1011+002509079GF107991021051002501031999IA1099KA1120N+00931MA1999999102131MD1610041+9999REMSYN094AAXX  23064 02680 32382 72102 10095 20093 30213 40260 56004 8253/ 333 20093 31/// 81793 87399;EQDQ01  00002PRCP99
0185026800999992000102309004+56920+018150FM-12+003999999V0202101N00211030001CN0450001N1+01131+01121102581ADDGA1011+002509089GF107991011011002501071999MA1999999102111MD1810021+9999SA1+1189REMSYN094AAXX  23094 02680 42383 72104 10113 20112 30211 40258 58002 8117/ 222// 00118 333 81893 87399;
0217026800999992000102312004+56920+018150FM-12+003999999V0202001N002119999999N0047001N1+01241+01231102431ADDAA199000091AY121061AY221061GA1081+999999079GF108991081001999999071999MA1999999101961MD1810151+9999MW1101REMSYN082AAXX  23124 02680 31947 82004 10124 20123 30196 40243 58015 71022 8807/ 333 88399;EQDQ01  00002PRCP99
0171026800999992000102315004+56920+018150FM-12+003999999V0201901N003110001519N0001001N1+01161+01151102251ADDAY121031AY221031GA1091+999999999GF109991091999999999999999MA1999999101781MD1810181+9999MW1471REMSYN066AAXX  23154 02680 41/01 91906 10116 20115 30178 40225 58018 74722;
0236026800999992000102318004+56920+018150FM-12+003999999V0201801N003110003019N0010001N1+01051+01041102041ADDAA199000091AY121061AY221061GA1081+000309069GF108991081061000251999999KA1120M+01271MA1999999101571MD1710211+9999MW1281REMSYN088AAXX  23184 02680 31010 81806 10105 20104 30157 40204 57021 72822 886// 333 10127 88701;EQDQ01  00002PRCP99
0171026800999992000102321004+56920+018150FM-12+003999999V0201601N003612200019N0035001N1+01051+01041101801ADDAY121031AY201031GA1001+999999999GF100991001001999999001001MA1999999101331MD1810241+9999MW1101REMSYN066AAXX  23214 02680 41935 01607 10105 20104 30133 40180 58024 71020;
0189026800999992000102400004+56920+018150FM-12+003999999V0201801N003112200019N0150001N1+01061+01051101461ADDAA199000091GA1021+999999079GF102991021001999999071001MA1999999100991MD1810341+9999REMSYN076AAXX  24004 02680 32965 21806 10106 20105 30099 40146 58034 82070 333 82399;EQDQ01  00002PRCP99
0171026800999992000102403004+56920+018150FM-12+003999999V0201801N004112200019N0080001N1+01041+01031101041ADDAY101031AY201031GA1001+999999999GF100991001001999999001001MA1999999100571MD1710421+9999MW1101REMSYN066AAXX  24034 02680 41958 01808 10104 20103 30057 40104 57042 71000;
0254026800999992000102406004+56920+018150FM-12+003999999V0202001N00411030001CN0070001N1+01091+01081100701ADDAA199000091AY111061AY201061GA1011+002509079GF108991011061002501031071IA1019KA1120N+01041MA1999999100241MD1710331+9999MW1101REMSYN100AAXX  24064 02680 31357 82008 10109 20108 30024 40070 57033 71010 81637 333 20104 30/// 81793 88299;EQDQ01  00002PRCP99
0187026800999992000102409004+56920+018150FM-12+003999999V0202301N004110025019N0035001N1+01201+01181100501ADDAY121031AY221031GA1081+002509069GF108991081071002501999999MA1999999100041MD1710201+9999MW1601REMSYN082AAXX  24094 02680 41335 82308 10120 20118 30004 40050 57020 76022 887// 333 88793;
0204026800999992000102412004+56920+018150FM-12+003999999V0202301N005112200019N0300001N1+01301+01101100361ADDAA106000591AY161061AY261061GA1011+004509029GF101991011081004501071001MA1999999099901MD1610141+9999MW1011REMSYN088AAXX  24124 02680 11480 12310 10130 20110 39990 40036 56014 69951 70166 81870 333 81894;
0165026800999992000102415004+56920+018150FM-12+003999999V0202301N00571009001CN0400001N1+01171+01041100241ADDGA1011+004509089GF107991071081004501999999MA1999999099781MD1710121+9999REMSYN082AAXX  24154 02680 42482 72311 10117 20104 39978 40024 57012 878// 333 81894 87695;
0183026800999992000102418004+56920+018150FM-12+003999999V0202501N005712200019N0300001N1+01111+00841100181ADDAA112000591GA1001+999999999GF100991001001999999001001KA1999M+01341MA1999999099741MD1610061+9999REMSYN076AAXX  24184 02680 12980 02511 10111 20084 39974 40018 56006 69952 333 10134;
0143026800999992000102421004+56920+018150FM-12+003999999V0202501N005712200019N0450001N1+01101+00851100181ADDGA1001+999999999GF100991001001999999001001MA1999999099721MD1410001+9999REMSYN060AAXX  24214 02680 42983 02511 10110 20085 39972 40018 54000;
0173026800999992000102500004+56920+018150FM-12+003999999V0202501N007212200019N0400001N1+01101+00691100131ADDAA199000091GA1001+999999999GF100991001001999999001001MA1999999099671MD1810051+9999REMSYN060AAXX  25004 02680 32982 02514 10110 20069 39967 40013 58005;EQDQ01  00002PRCP99
0159026800999992000102503004+56920+018150FM-12+003999999V0202501N006212200019N0400001N1+01041+00781100141ADDGA1011+004509059GF101991011051004501001001MA1999999099681MD1210011+9999REMSYN076AAXX  25034 02680 42482 12512 10104 20078 39968 40014 52001 81500 333 81694;
0220026800999992000102506004+56920+018150FM-12+003999999V0202501N006212200019N0500001N1+01031+00771100171ADDAA199000091GA1011+004509059GF101991011051004501001001IA1019KA1120N+01031MA1999999099711MD1210031+9999REMSYN088AAXX  25064 02680 32484 12512 10103 20077 39971 40017 52003 81500 333 20103 30/// 81694;EQDQ01  00002PRCP99
0185026800999992000102509004+56920+018150FM-12+003999999V0202501N00571030001CN0450001N1+01171+00791100191ADDGA1011+004509089GF108991011011004501081071MA1999999099731MD1010021+9999SA1+1169REMSYN094AAXX  25094 02680 42483 82511 10117 20079 39973 40019 50002 81187 222// 00116 333 81894 88299;
0195026800999992000102512004+56920+018150FM-12+003999999V0202401N00411030001CN0300001N1+01191+00941100061ADDAA199000091GA1011+004509089GF108991021081004501031071MA1999999099601MD1810131+9999REMSYN082AAXX  25124 02680 32480 82408 10119 20094 39960 40006 58013 82837 333 81894 88299;EQDQ01  00002PRCP99
0193026800999992000102515004+56920+018150FM-12+003999999V0202301N00511030001CN0050001N1+01031+01011099841ADDAY121031AY221031GA1031+002509079GF108991031071002501021999MA1999999099381MD1710221+9999MW1611REMSYN088AAXX  25154 02680 41350 82310 10103 20101 39938 49984 57022 76122 8372/ 333 83793 88599;
0229026800999992000102518004+56920+018150FM-12+003999999V0202101N005710300019N0048001N1+01031+01011099461ADDAA112003091AY121061AY221061GA1031+002109079GF108991031071002501021999KA1120M+01231MA1999999099001MD1710381+9999MW1631REMSYN100AAXX  25184 02680 11348 82111 10103 20101 39900 49946 57038 60032 76322 8372/ 333 10123 83707 88599;
0187026800999992000102521004+56920+018150FM-12+003999999V0202301N005710033019N0100001N1+01121+01101099211ADDAY161031AY261031GA1081+003309059GF108991081051004501999999MA1999999098751MD1610251+9999MW1021REMSYN082AAXX  25214 02680 41460 82311 10112 20110 39875 49921 56025 70266 885// 333 88611;
0210026800999992000102600004+56920+018150FM-12+003999999V0202401N00571002101CN0048001N1+01121+01101099041ADDAA106004191AY161061AY221061GA1011+002109079GF108991081051002501999999MA1999999098581MD1610171+9999MW1631REMSYN094AAXX  26004 02680 11348 82411 10112 20110 39858 49904 56017 60041 76362 885// 333 81707 88650;
0193026800999992000102603004+56920+018150FM-12+003999999V0202601N00621004201CN0500001N1+01101+01081099171ADDAY161031AY261031GA1031+003009079GF108991081051004501999999MA1999999098711MD1310131+9999MW1021REMSYN088AAXX  26034 02680 41484 82612 10110 20108 39871 49917 53013 70266 885// 333 83710 88637;
0241026800999992000102606004+56920+018150FM-12+003999999V0202601N00571030001CN0500001N1+01061+00981099401ADDAA112007191AY161061AY261061GA1011+004509069GF107991011051004501071999IA1119KA1120N+01031MA1999999098941MD1210231+9999MW1021REMSYN106AAXX  26064 02680 11484 72611 10106 20098 39894 49940 52023 60072 70266 8157/ 333 20103 32/// 81694 87398;
0159026800999992000102609004+56920+018150FM-12+003999999V0202601N006212200019N0350001N1+01121+00861099601ADDGA1011+004509059GF103991011051004501071001MA1999999099141MD1110201+9999REMSYN076AAXX  26094 02680 42481 32612 10112 20086 39914 49960 51020 81570 333 81694;
0170026800999992000102612004+56920+018150FM-12+003999999V0202501N005112200019N0450001N1+01171+00801099761ADDAA199000021GA1011+004509029GF101991011011004501071021MA1999999099301MD1110161+9999REMSYN076AAXX  26124 02680 32483 12510 10117 20080 39930 49976 51016 81172 333 81894;
0165026800999992000102615004+56920+018150FM-12+003999999V0202401N00411030001CN0550001N1+01061+00851099801ADDGA1011+004509089GF107991011021004501071999MA1999999099341MD1210041+9999REMSYN082AAXX  26154 02680 42485 72408 10106 20085 39934 49980 52004 8127/ 333 81894 86499;
0208026800999992000102618004+56920+018150FM-12+003999999V0202501N004612200019N0500001N1+01021+00861099861ADDAA199000091GA1021+999999079GF102991021001999999071001KA1120M+01201MA1999999099401MD1210061+9999REMSYN082AAXX  26184 02680 32984 22509 10102 20086 39940 49986 52006 82070 333 10120 82399;EQDQ01  00002PRCP99
0159026800999992000102621004+56920+018150FM-12+003999999V0202701N004612200019N0550001N1+00941+00781099911ADDGA1011+999999079GF101991011001999999071001MA1999999099451MD1210051+9999REMSYN076AAXX  26214 02680 42985 12709 10094 20078 39945 49991 52005 81070 333 81399;
0189026800999992000102700004+56920+018150FM-12+003999999V0202701N004112200019N0550001N1+00891+00631099981ADDAA199000091GA1011+999999079GF101991011001999999071001MA1999999099521MD1110071+9999REMSYN076AAXX  27004 02680 32985 12708 10089 20063 39952 49998 51007 81070 333 81399;EQDQ01  00002PRCP99
0193026800999992000102703004+56920+018150FM-12+003999999V0202701N00361004201CN0500001N1+00881+00761100051ADDAY111031AY201031GA1041+004509069GF107991071051004501999999MA1999999099591MD1310071+9999MW1601REMSYN088AAXX  27034 02680 41484 72707 10088 20076 39959 40005 53007 76010 875// 333 84615 86642;
0241026800999992000102706004+56920+018150FM-12+003999999V0202801N00261006001CN0550001N1+00881+00821100171ADDAA112000791AY161061AY211061GA1011+002509089GF107991061081002501071999IA1019KA1120N+00881MA1999999099711MD1310121+9999MW1021REMSYN106AAXX  27064 02680 11385 72805 10088 20082 39971 40017 53012 69902 70261 8687/ 333 20088 30/// 81893 86694;
0207026800999992000102709004+56920+018150FM-12+003999999V0200501N002610009019N0300001N1+00701+00691100361ADDAY121031AY221031GA1081+000909069GF108991081071000751999999MA1999999099891MD1210181+9999MW1801SA1+1149REMSYN094AAXX  27094 02680 41180 80505 10070 20069 39989 40036 52018 78022 887// 222// 00114 333 88703;
0210026800999992000102712004+56920+018150FM-12+003999999V0200201N00311030001CN0300001N1+00601+00591100591ADDAA106002091AY181061AY221061GA1011+002509079GF108991011071002501021999MA1999999100121MD1210231+9999MW1611REMSYN094AAXX  27124 02680 11380 80206 10060 20059 30012 40059 52023 60021 76182 8172/ 333 81793 88599;
0193026800999992000102715004+56920+018150FM-12+003999999V0203501N00211030001CN0400001N1+00671+00551100841ADDAY161031AY261031GA1011+004509089GF106991041081004501071001MA1999999100371MD1110251+9999MW1161REMSYN088AAXX  27154 02680 41482 63504 10067 20055 30037 40084 51025 71666 84870 333 81894 84695;
0223026800999992000102718004+56920+018150FM-12+003999999V0200301N001510039019N0550001N1+00571+00541101071ADDAA112003091AY161061AY221061GA1071+003909059GF107991071051004501999999KA1120M+00991MA1999999100601MD1110231+9999MW1251REMSYN094AAXX  27184 02680 11485 70303 10057 20054 30060 40107 51023 60032 72562 875// 333 10099 87613;
0159026800999992000102721004+56920+018150FM-12+003999999V0200201N001512200019N0450001N1+00431+00361101251ADDGA1011+004509059GF101991011051004501001001MA1999999100771MD1110171+9999REMSYN076AAXX  27214 02680 42483 10203 10043 20036 30077 40125 51017 81500 333 81694;
0170026800999992000102800004+56920+018150FM-12+003999999V0200501N001512200019N0500001N1+00341+00141101371ADDAA199000021GA1011+999999079GF102991021001999999071001MA1999999100891MD1110121+9999REMSYN076AAXX  28004 02680 32984 20503 10034 20014 30089 40137 51012 82070 333 81399;
0159026800999992000102803004+56920+018150FM-12+003999999V0200501N001012200019N0650001N1+00341+00271101401ADDGA1021+999999079GF102991021001999999071001MA1999999100921MD1310031+9999REMSYN076AAXX  28034 02680 42987 20502 10034 20027 30092 40140 53003 82070 333 82399;
0207026800999992000102806004+56920+018150FM-12+003999999V0201301N00101030001CN0700001N1+00491+00341101411ADDAA199000021GA1011+004509089GF106991011011004501071001IA1099KA1120N+00341MA1999999100931MD1210011+9999REMSYN094AAXX  28064 02680 32488 61302 10049 20034 30093 40141 52001 81170 333 20034 31/// 81894 84399;
0232026800999992000102812004+56920+018150FM-12+003999999V0201601N00311004501CN0210001N1+00901+00891101231ADDAA106000191AY121061AY221061GA1011+002509089GA2071+004509069GF108991071081002501021999MA1999999100761MD1810151+9999MW1601REMSYN100AAXX  28124 02680 11371 81606 10090 20089 30076 40123 58015 69921 76022 8782/ 333 81893 87694 88599;
0187026800999992000102815004+56920+018150FM-12+003999999V0201801N003610003019N0030001N1+00961+00951101051ADDAY161031AY261031GA1081+000309069GF108991081061000751999999MA1999999100581MD1710181+9999MW1101REMSYN082AAXX  28154 02680 41130 81807 10096 20095 30058 40105 57018 71066 886// 333 88701;
0223026800999992000102818004+56920+018150FM-12+003999999V0202501N002110045019N0140001N1+01021+01011101001ADDAA112001091AY161061AY251061GA1071+004509059GF107991071051004501999999KA1120M+01051MA1999999100531MD1610051+9999MW1021REMSYN094AAXX  28184 02680 11464 72504 10102 20101 30053 40100 56005 60012 70265 875// 333 10105 87615;
0165026800999992000102821004+56920+018150FM-12+003999999V0202701N00211001201CN0400001N1+01011+01001101071ADDGA1011+000909079GF107991071051001501999999MA1999999100601MD1210071+9999REMSYN082AAXX  28214 02680 42282 72704 10101 20100 30060 40107 52007 875// 333 81703 87616;
0170026800999992000102900004+56920+018150FM-12+003999999V0202401N001010054019N0400001N1+00921+00911101081ADDAA199000021GA1081+005409059GF108991081051004501999999MA1999999100611MD1210011+9999REMSYN076AAXX  29004 02680 32482 82402 10092 20091 30061 40108 52001 885// 333 88618;
0159026800999992000102903004+56920+018150FM-12+003999999V0201501N001010150019N0350001N1+00961+00941100941ADDGA1081+015009059GF108991081051012501999999MA1999999100471MD1810141+9999REMSYN076AAXX  29034 02680 42681 81502 10096 20094 30047 40094 58014 885// 333 88650;
0213026800999992000102906004+56920+018150FM-12+003999999V0201501N003119999999N0001001N1+01031+01011100751ADDAA112000591AY141061AY221061GF108991081999999999999999IA1099KA1120N+00921MA1999999100291MD1710181+9999MW1531REMSYN094AAXX  29064 02680 11/01 81506 10103 20101 30029 40075 57018 69942 75342 88/// 333 20092 31///;
0187026800999992000102909004+56920+018150FM-12+003999999V0201701N003610015019N0030001N1+01071+01051100541ADDAY151031AY241031GA1081+001509069GF108991081061001501999999MA1999999100081MD1710211+9999MW1101REMSYN082AAXX  29094 02680 41230 81707 10107 20105 30008 40054 57021 71054 886// 333 88792;
0210026800999992000102912004+56920+018150FM-12+003999999V0202201N00411030001CN0200001N1+01111+01091100411ADDAA106001091AY151061AY241061GA1021+008009069GF108991021051008001071999MA1999999099951MD1610131+9999MW1021REMSYN094AAXX  29124 02680 11570 82208 10111 20109 39995 40041 56013 60011 70254 8257/ 333 82695 88399;
0178026800999992000102915004+56920+018150FM-12+003999999V0202301N004112200019N0250001N1+01061+01041100421ADDGA1031+022509079GF103991031999022501071011MA1999999099961MD1510011+9999REMSYN076AAXX  29154 02680 42875 32308 10106 20104 39996 40042 55001 83071 333 83398;EQDQ01+000002SCOLCG
0183026800999992000102918004+56920+018150FM-12+003999999V0202501N005112200019N0300001N1+01031+00851100461ADDAA112001091GA1001+999999999GF100991001001999999001001KA1999M+01151MA1999999100001MD1010041+9999REMSYN076AAXX  29184 02680 12980 02510 10103 20085 30000 40046 50004 60012 333 10115;
0143026800999992000102921004+56920+018150FM-12+003999999V0202301N004112200019N0400001N1+01001+00211100441ADDGA1001+999999999GF100991001001999999001001MA1999999099981MD1810021+9999REMSYN060AAXX  29214 02680 42982 02308 10100 20021 39998 40044 58002;
0204026800999992000103000004+56920+018150FM-12+003999999V0202301N005112200019N0400001N1+00951+00651100301ADDAA106000891AY111061AY211061GA1041+006609099GF104991041091008001001001MA1999999099841MD1810141+9999MW1801REMSYN088AAXX  30004 02680 11582 42310 10095 20065 39984 40030 58014 69981 78011 84900 333 84922;
0187026800999992000103003004+56920+018150FM-12+003999999V0202301N005112200019N0450001N1+00931+00721100241ADDAY181031AY211031GA1021+008009059GF102991021051008001001001MA1999999099781MD1810061+9999MW1021REMSYN082AAXX  30034 02680 41583 22310 10093 20072 39978 40024 58006 70281 82500 333 82695;
0241026800999992000103006004+56920+018150FM-12+003999999V0202101N00461030001CN0450001N1+00971+00601100071ADDAA112001091AY181061AY211061GA1021+004509089GF107991021021004501071999IA1099KA1120N+00831MA1999999099611MD1610171+9999MW1021REMSYN106AAXX  30064 02680 11483 72109 10097 20060 39961 40007 56017 60012 70281 8227/ 333 20083 31/// 82894 87399;
0207026800999992000103009004+56920+018150FM-12+003999999V0201801N005110045019N0350001N1+01001+00881099891ADDAY121031AY221031GA1081+004509059GF108991081051004501999999MA1999999099431MD1810181+9999MW1211SA1+0949REMSYN094AAXX  30094 02680 41481 81810 10100 20088 39943 49989 58018 72122 885// 222// 00094 333 88694;
0210026800999992000103012004+56920+018150FM-12+003999999V0201901N00511002501CN0250001N1+01011+00961099691ADDAA106000591AY161061AY221061GA1071+002509079GF108991071071002501021999MA1999999099231MD1710201+9999MW1611REMSYN094AAXX  30124 02680 11375 81910 10101 20096 39923 49969 57020 69961 76162 8772/ 333 87793 88599;
0193026800999992000103015004+56920+018150FM-12+003999999V0201801N005119999999N0400001N1+01031+00871099501ADDAY161031AY221031GA1011+025009039GF107991071001999999071999MA1999999099041MD1810191+9999MW1211REMSYN088AAXX  30154 02680 41982 71810 10103 20087 39904 49950 58019 72162 8707/ 333 81399 87499;
0223026800999992000103018004+56920+018150FM-12+003999999V0201801N005119999999N0400001N1+01031+00791099221ADDAA112000891AY161061AY221061GA1081+999999079GF108991081001999999071999KA1120M+01061MA1999999098761MD1810281+9999MW1021REMSYN094AAXX  30184 02680 11982 81810 10103 20079 39876 49922 58028 69972 70262 8807/ 333 10106 88399;
0159026800999992000103021004+56920+018150FM-12+003999999V0201801N006210180019N0350001N1+01131+00711099041ADDGA1081+018009059GF108991081051999999999999MA1999999098581MD1610181+9999REMSYN076AAXX  30214 02680 42981 81812 10113 20071 39858 49904 56018 885// 333 88656;
0170026800999992000103100004+56920+018150FM-12+003999999V0201801N006710105019N0300001N1+01211+00741098981ADDAA199000021GA1081+010509059GF108991081051012501999999MA1999999098521MD1610061+9999REMSYN076AAXX  31004 02680 32680 81813 10121 20074 39852 49898 56006 885// 333 88635;
0159026800999992000103103004+56920+018150FM-12+003999999V0202001N005110450019N0500001N1+01041+00581099151ADDGA1061+045009079GF106991061001999999071001MA1999999098691MD1110171+9999REMSYN076AAXX  31034 02680 42984 62010 10104 20058 39869 49915 51017 86070 333 86365;
0248026800999992000103106004+56920+018150FM-12+003999999V0202101N005110300019N0550001N1+01021+00731099271ADDAA199000091GA1011+004509089GA2031+025009049GF108991011011004501071071IA1019KA1120N+01021MA1999999098811MD1210121+9999REMSYN100AAXX  31064 02680 32485 82110 10102 20073 39881 49927 52012 81177 333 20102 30/// 81894 83499 88299;EQDQ01  00002PRCP99
0159026800999992000103109004+56920+018150FM-12+003999999V0202101N004112200019N0500001N1+01121+00781099441ADDGA1021+004509029GF104991021011004501031021MA1999999098981MD1210171+9999REMSYN076AAXX  31094 02680 42484 42108 10112 20078 39898 49944 52017 82132 333 82894;
0195026800999992000103112004+56920+018150FM-12+003999999V0202101N00461021001CN0400001N1+01101+00801099511ADDAA199000091GA1041+022509039GF108991081001022501071999MA1999999099051MD1110071+9999REMSYN082AAXX  31124 02680 32882 82109 10110 20080 39905 49951 51007 8807/ 333 84398 88499;EQDQ01  00002PRCP99
0165026800999992000103115004+56920+018150FM-12+003999999V0202101N00411030001CN0400001N1+01041+00891099581ADDGA1011+004509089GF108991011011004501071999MA1999999099121MD1610071+9999REMSYN082AAXX  31154 02680 42482 82108 10104 20089 39912 49958 56007 8117/ 333 81894 88399;
0208026800999992000103118004+56920+018150FM-12+003999999V0202001N003610066019N0500001N1+01051+00801099651ADDAA199000091GA1081+006609059GF108991081051008001999999KA1120M+01201MA1999999099191MD1310071+9999REMSYN082AAXX  31184 02680 32584 82007 10105 20080 39919 49965 53007 885// 333 10120 88622;EQDQ01  00002PRCP99
0165026800999992000103121004+56920+018150FM-12+003999999V0202001N004110300019N0500001N1+01031+00981099661ADDGA1021+004209069GF108991021051004501071999MA1999999099201MD1010011+9999REMSYN082AAXX  31214 02680 42484 82008 10103 20098 39920 49966 50001 8257/ 333 82614 88399;
0189026800999992000110100004+56920+018150FM-12+003999999V0202101N004612200019N0500001N1+01001+00791099681ADDAA199000091GA1011+004509029GF101991011011004501001001MA1999999099221MD1210021+9999REMSYN076AAXX  01004 02680 32484 12109 10100 20079 39922 49968 52002 81100 333 81894;EQDQ01  00002PRCP99
0159026800999992000110103004+56920+018150FM-12+003999999V0202101N005110150019N0400001N1+01031+00821099751ADDGA1071+015009059GF107991071051012501999999MA1999999099291MD1310071+9999REMSYN076AAXX  01034 02680 42682 72110 10103 20082 39929 49975 53007 875// 333 87650;
0226026800999992000110106004+56920+018150FM-12+003999999V0202201N00511030001CN0400001N1+01001+00871099971ADDAA199000091GA1011+004509099GF107991011031004501071999IA1019KA1120N+01001MA1999999099511MD1110221+9999REMSYN094AAXX  01064 02680 32482 72210 10100 20087 39951 49997 51022 8137/ 333 20100 30/// 81994 87399;EQDQ01  00002PRCP99
0171026800999992000110109004+56920+018150FM-12+003999999V0202201N004612200019N0350001N1+01151+00861100201ADDGA1021+012509059GF102991021051012501001001MA1999999099741MD1210231+9999REMSYN088AAXX  01094 02680 42681 22209 10115 20086 39974 40020 52023 82500 222// 00104 333 82696;
0195026800999992000110112004+56920+018150FM-12+003999999V0202001N004112200019N0400001N1+01141+00711100281ADDAA199000091GA1011+004509089GF101991011031004501031011MA1999999099821MD1210081+9999REMSYN082AAXX  01124 02680 32482 12008 10114 20071 39982 40028 52008 81331 333 81894 81994;EQDQ01  00002PRCP99
0159026800999992000110115004+56920+018150FM-12+003999999V0202101N004112200019N0400001N1+00971+00831100321ADDGA1011+004509029GF102991011021004501001011MA1999999099861MD1210041+9999REMSYN076AAXX  01154 02680 42482 22108 10097 20083 39986 40032 52004 81201 333 81894;
0208026800999992000110118004+56920+018150FM-12+003999999V0201801N003612200019N0400001N1+00941+00851100351ADDAA199000091GA1031+003909059GF103991031051004501001001KA1120M+01181MA1999999099891MD1110031+9999REMSYN082AAXX  01184 02680 32482 31807 10094 20085 39989 40035 51003 83500 333 10118 83613;EQDQ01  00002PRCP99
0159026800999992000110121004+56920+018150FM-12+003999999V0201801N002612200019N0400001N1+00901+00891100281ADDGA1011+004509059GF101991011051004501001001MA1999999099821MD1610071+9999REMSYN076AAXX  01214 02680 42482 11805 10090 20089 39982 40028 56007 81500 333 81694;
0189026800999992000110200004+56920+018150FM-12+003999999V0201801N003112200019N0350001N1+00901+00891100171ADDAA199000091GA1011+004509029GF101991011011004501001001MA1999999099711MD1710111+9999REMSYN076AAXX  02004 02680 32481 11806 10090 20089 39971 40017 57011 81100 333 81894;EQDQ01  00002PRCP99
0159026800999992000110203004+56920+018150FM-12+003999999V0201801N003612200019N0350001N1+00931+00901100071ADDGA1011+003309029GF102991011011004501071001MA1999999099611MD1710101+9999REMSYN076AAXX  02034 02680 42481 21807 10093 20090 39961 40007 57010 81170 333 81811;
0226026800999992000110206004+56920+018150FM-12+003999999V0201801N004112200019N0300001N1+00921+00831099991ADDAA199000091GA1011+004509069GF104991011051004501071001IA1099KA1120N+00901MA1999999099531MD1810081+9999REMSYN094AAXX  02064 02680 32480 41808 10092 20083 39953 49999 58008 81570 333 20090 31/// 81694 83399;EQDQ01  00002PRCP99
0215026800999992000110209004+56920+018150FM-12+003999999V0202301N00311004501CN0400001N1+00841+00681100171ADDAY181031AY221031GA1031+004509099GA2031+004509089GF107991061091004501081999MA1999999099711MD1310181+9999MW1021REMSYN094AAXX  02094 02680 41482 72306 10084 20068 39971 40017 53018 70282 8698/ 333 83894 83994 84399;
0204026800999992000110212004+56920+018150FM-12+003999999V0202401N003612200019N0500001N1+00981+00451100351ADDAA106002091AY181061AY221061GA1021+004509029GF102991021021004501001001MA1999999099891MD1210181+9999MW1021REMSYN088AAXX  02124 02680 11484 22407 10098 20045 39989 40035 52018 60021 70282 82200 333 82894;
0159026800999992000110215004+56920+018150FM-12+003999999V0202301N004612200019N0450001N1+00861+00581100481ADDGA1011+004509029GF101991011021004501061001MA1999999100021MD1110131+9999REMSYN076AAXX  02154 02680 42483 12309 10086 20058 30002 40048 51013 81260 333 81894;
0195026800999992000110218004+56920+018150FM-12+003999999V0202201N004112200019N0300001N1+00881+00511100681ADDAA112002091GA1011+004509029GF101991011011004501001001KA1120M+01051MA1999999100221MD1210201+9999REMSYN088AAXX  02184 02680 12480 12208 10088 20051 30022 40068 52020 60022 81100 333 10105 81894;
0159026800999992000110221004+56920+018150FM-12+003999999V0201901N003112200019N0300001N1+00871+00731100741ADDGA1011+004509029GF101991011021004501001001MA1999999100281MD1110061+9999REMSYN076AAXX  02214 02680 42480 11906 10087 20073 30028 40074 51006 81200 333 81894;
0173026800999992000110300004+56920+018150FM-12+003999999V0201601N003112200019N0300001N1+00871+00711100791ADDAA199000091GA1001+999999999GF100991001001999999001001MA1999999100331MD1210051+9999REMSYN060AAXX  03004 02680 32980 01606 10087 20071 30033 40079 52005;EQDQ01  00002PRCP99
0159026800999992000110303004+56920+018150FM-12+003999999V0201501N003112200019N0300001N1+00911+00891100671ADDGA1011+999999079GF101991011001999999071001MA1999999100211MD1810121+9999REMSYN076AAXX  03034 02680 42980 11506 10091 20089 30021 40067 58012 81070 333 81399;
0226026800999992000110306004+56920+018150FM-12+003999999V0201401N005119999999N0100001N1+00941+00921100571ADDAA199000091GA1031+025009039GF107991071001999999071021IA1099KA1120N+00861MA1999999100111MD1710111+9999REMSYN094AAXX  03064 02680 32960 71410 10094 20092 30011 40057 57011 87072 333 20086 31/// 83399 86099;EQDQ01  00002PRCP99
0204026800999992000110309004+56920+018150FM-12+003999999V0201401N004619999999N0160001N1+01011+00961100621ADDGA1021+025009049GF107991061061999999999071MA1999999100161MD1210051+9999SA1+0969REMSYN094AAXX  03094 02680 42966 71409 10101 20096 30016 40062 52005 86607 222// 00096 333 82499 83399;EQDQ01+000002SCOMCG
0189026800999992000110312004+56920+018150FM-12+003999999V0201501N00411075001CN0160001N1+01051+00941100621ADDAA199000091GA1071+999999019GF107991001001999999001021MA1999999100161MD1410001+9999REMSYN076AAXX  03124 02680 32966 71508 10105 20094 30016 40062 54000 80002 333 87099;EQDQ01  00002PRCP99
0165026800999992000110315004+56920+018150FM-12+003999999V0201501N00411030001CN0100001N1+00931+00911100591ADDGA1011+002509079GF108991011061002501071071MA1999999100131MD1510031+9999REMSYN082AAXX  03154 02680 42360 81508 10093 20091 30013 40059 55003 81677 333 81793 88299;
0208026800999992000110318004+56920+018150FM-12+003999999V0201501N004110066019N0100001N1+00971+00951100591ADDAA199000091GA1081+006609059GF108991081051008001999999KA1120M+01101MA1999999100131MD1010001+9999REMSYN082AAXX  03184 02680 32560 81508 10097 20095 30013 40059 50000 885// 333 10110 88622;EQDQ01  00002PRCP99
0187026800999992000110321004+56920+018150FM-12+003999999V0201501N004110042019N0100001N1+00981+00941100561ADDAY121031AY221031GA1081+004209059GF108991081051004501999999MA1999999100101MD1810031+9999MW1251REMSYN082AAXX  03214 02680 41460 81508 10098 20094 30010 40056 58003 72522 885// 333 88614;
0204026800999992000110400004+56920+018150FM-12+003999999V0201501N003610024019N0045001N1+00951+00931100481ADDAA106000791AY181061AY221061GA1081+002409069GF108991081061002501999999MA1999999100021MD1810081+9999MW1101REMSYN088AAXX  04004 02680 11345 81507 10095 20093 30002 40048 58008 69901 71082 886// 333 88708;
0187026800999992000110403004+56920+018150FM-12+003999999V0201401N003610018019N0045001N1+00971+00951100401ADDAY121031AY221031GA1081+001809069GF108991081061001501999999MA1999999099941MD1610081+9999MW1101REMSYN082AAXX  04034 02680 41245 81407 10097 20095 39994 40040 56008 71022 886// 333 88706;
0235026800999992000110406004+56920+018150FM-12+003999999V0201501N003110025019N0045001N1+01001+00981100291ADDAA112000791AY121061AY221061GA1081+002509069GF108991081061002501999999IA1019KA1120N+00951MA1999999099831MD1610111+9999MW1101REMSYN100AAXX  04064 02680 11345 81506 10100 20098 39983 40029 56011 69902 71022 886// 333 20095 30/// 88793;
0187026800999992000110409004+56920+018150FM-12+003999999V0201801N003110015019N0040001N1+00981+00971100321ADDAY121031AY221031GA1081+001509069GF108991081071001501999999MA1999999099861MD1110031+9999MW1611REMSYN082AAXX  04094 02680 41240 81806 10098 20097 39986 40032 51003 76122 887// 333 88792;
0204026800999992000110412004+56920+018150FM-12+003999999V0202301N002110015019N0035001N1+00991+00991100411ADDAA106004191AY121061AY221061GA1081+001509069GF108991081071001501999999MA1999999099951MD1110091+9999MW1611REMSYN088AAXX  04124 02680 11235 82304 10099 20099 39995 40041 51009 60041 76122 887// 333 88792;
0187026800999992000110415004+56920+018150FM-12+003999999V0202301N001510015019N0029001N1+00971+00971100581ADDAY161031AY261031GA1081+001509069GF108991081071001501999999MA1999999100121MD1210171+9999MW1611REMSYN082AAXX  04154 02680 41229 82303 10097 20097 30012 40058 52017 76166 887// 333 88792;
0223026800999992000110418004+56920+018150FM-12+003999999V0202901N00211075001CN0150001N1+00901+00891100731ADDAA112006191AY161061AY261061GA1081+999999019GF108991081001999999011999KA1120M+01051MA1999999100271MD1210151+9999MW1021REMSYN094AAXX  04184 02680 11965 82904 10090 20089 30027 40073 52015 60062 70266 8801/ 333 10105 88499;
0195026800999992000110500004+56920+018150FM-12+003999999V0201901N001019999999N0300001N1+00741+00651102002ADDAA199000021GA1021+025009039GF108991021001999999071071MA1999999100521MD1110071+9999REMSYN082AAXX  05004 02680 32980 81902 10074 20065 30052 40200 51007 82077 333 82399 88299;EQDQ01+102003APOSLP
0159026800999992000110503004+56920+018150FM-12+003999999V0202701N001019999999N0300001N1+00761+00701102011ADDGA1081+999999089GF108991001001999999001071MA1999999100531MD1110011+9999REMSYN076AAXX  05034 02680 42980 82702 10076 20070 30053 40201 51001 80007 333 88299;
0226026800999992000110506004+56920+018150FM-12+003999999V0202901N00101030001CN0300001N1+00731+00721100951ADDAA199000091GA1011+004509089GF108991011081004501021999IA1099KA1120N+00711MA1999999100471MD1810061+9999REMSYN094AAXX  05064 02680 32480 82902 10073 20072 30047 40095 58006 8182/ 333 20071 31/// 81894 88499;EQDQ01  00002PRCP99
0165026800999992000110509004+56920+018150FM-12+003999999V0203101N00101030001CN0300001N1+00761+00681100941ADDGA1021+004509089GF108991021011004501021999MA1999999100461MD1810011+9999REMSYN082AAXX  05094 02680 42480 83102 10076 20068 30046 40094 58001 8212/ 333 82894 88499;
0195026800999992000110512004+56920+018150FM-12+003999999V0203101N00261004501CN0260001N1+00701+00671100921ADDAA199000091GA1071+004509069GF108991071051004501021999MA1999999100441MD1610021+9999REMSYN082AAXX  05124 02680 32476 83105 10070 20067 30044 40092 56002 8752/ 333 87694 88499;EQDQ01  00002PRCP99
0159026800999992000110515004+56920+018150FM-12+003999999V0202901N003110045019N0300001N1+00681+00611100911ADDGA1061+004509059GF107991061051004501031999MA1999999100431MD1710011+9999REMSYN076AAXX  05154 02680 42480 72906 10068 20061 30043 40091 57001 8653/ 333 86694;
0208026800999992000110518004+56920+018150FM-12+003999999V0203001N003110048019N0300001N1+00591+00361100971ADDAA199000091GA1071+004809059GF107991071051004501999999KA1120M+00781MA1999999100491MD1210061+9999REMSYN082AAXX  05184 02680 32480 73006 10059 20036 30049 40097 52006 875// 333 10078 87616;EQDQ01  00002PRCP99
0159026800999992000110521004+56920+018150FM-12+003999999V0202501N001512200019N0300001N1+00581+00321101011ADDGA1021+004509059GF102991021051004501001001MA1999999100531MD1210041+9999REMSYN076AAXX  05214 02680 42480 22503 10058 20032 30053 40101 52004 82500 333 82694;
0189026800999992000110600004+56920+018150FM-12+003999999V0202101N002110054019N0300001N1+00741+00311101011ADDAA199000091GA1081+005409059GF108991081051004501999999MA1999999100531MD1410001+9999REMSYN076AAXX  06004 02680 32480 82104 10074 20031 30053 40101 54000 885// 333 88618;EQDQ01  00002PRCP99
0159026800999992000110603004+56920+018150FM-12+003999999V0202501N002112200019N0350001N1+00701+00111101001ADDGA1011+008009059GF101991011051008001001001MA1999999100521MD1710011+9999REMSYN076AAXX  06034 02680 42581 12504 10070 20011 30052 40100 57001 81500 333 81695;
0248026800999992000110606004+56920+018150FM-12+003999999V0201801N00151009001CN0400001N1+00681+00561101061ADDAA199000091GA1011+004509089GA2031+008009069GF107991071081004501999999IA1019KA1120N+00581MA1999999100581MD1210061+9999REMSYN100AAXX  06064 02680 32482 71803 10068 20056 30058 40106 52006 878// 333 20058 30/// 81894 83695 85696;EQDQ01  00002PRCP99
0213026800999992000110609004+56920+018150FM-12+003999999V0201701N002612200019N0400001N1+00851+00631101081ADDAY181031AY221031GA1011+004509089GF102991021091004501061001MA1999999100601MD1010021+9999MW1011SA1+0929REMSYN100AAXX  06094 02680 41482 21705 10085 20063 30060 40108 50002 70182 82960 222// 00092 333 81894 81994;
0210026800999992000110612004+56920+018150FM-12+003999999V0201601N00361030001CN0400001N1+00881+00441101061ADDAA106000191AY181061AY211061GA1021+004509089GF106991021021004501061081MA1999999100581MD1710021+9999MW1021REMSYN094AAXX  06124 02680 11482 61607 10088 20044 30058 40106 57002 69911 70281 82268 333 82894 86299;
0159026800999992000110615004+56920+018150FM-12+003999999V0201301N003612200019N0300001N1+00771+00531100981ADDGA1021+004509029GF103991021021004501031001MA1999999100501MD1810081+9999REMSYN076AAXX  06154 02680 42480 31307 10077 20053 30050 40098 58008 82230 333 82894;
0195026800999992000110618004+56920+018150FM-12+003999999V0201101N006210048019N0300001N1+00741+00461100801ADDAA112000191GA1081+004809059GF108991081051004501999999KA1120M+00951MA1999999100331MD1710171+9999REMSYN088AAXX  06184 02680 12480 81112 10074 20046 30033 40080 57017 69912 885// 333 10095 88616;
0159026800999992000110621004+56920+018150FM-12+003999999V0201301N005110039019N0300001N1+00791+00601100731ADDGA1081+003909059GF108991081051004501999999MA1999999100261MD1610071+9999REMSYN076AAXX  06214 02680 42480 81310 10079 20060 30026 40073 56007 885// 333 88613;
0189026800999992000110700004+56920+018150FM-12+003999999V0201101N006210045019N0260001N1+00821+00701100431ADDAA199000091GA1081+004509059GF108991081051004501999999MA1999999099971MD1710291+9999REMSYN076AAXX  07004 02680 32476 81112 10082 20070 39997 40043 57029 885// 333 88615;EQDQ01  00002PRCP99
0159026800999992000110703004+56920+018150FM-12+003999999V0201101N006710036019N0250001N1+00841+00751100171ADDGA1081+003609059GF108991081051004501999999MA1999999099711MD1710261+9999REMSYN076AAXX  07034 02680 42475 81113 10084 20075 39971 40017 57026 885// 333 88612;
0241026800999992000110706004+56920+018150FM-12+003999999V0201201N00571002501CN0220001N1+00891+00811100011ADDAA112000791AY121061AY221061GA1071+002509079GF108991071071002501021999IA1019KA1120N+00741MA1999999099551MD1810161+9999MW1601REMSYN106AAXX  07064 02680 11372 81211 10089 20081 39955 40001 58016 69902 76022 8772/ 333 20074 30/// 87793 88599;
0187026800999992000110709004+56920+018150FM-12+003999999V0201301N006710045019N0200001N1+00941+00791099931ADDAY161031AY221031GA1071+004509059GF108991071051004501999999MA1999999099471MD1710081+9999MW1021REMSYN082AAXX  07094 02680 41470 81313 10094 20079 39947 49993 57008 70262 875// 333 87694;
0210026800999992000110712004+56920+018150FM-12+003999999V0201201N00671030001CN0200001N1+01001+00821099781ADDAA106000791AY161061AY221061GA1041+002509079GF108991041071002501071999MA1999999099321MD1710151+9999MW1021REMSYN094AAXX  07124 02680 11370 81213 10100 20082 39932 49978 57015 69901 70262 8477/ 333 84793 88399;
0187026800999992000110715004+56920+018150FM-12+003999999V0201201N006710025019N0200001N1+01011+00861099621ADDAY121031AY221031GA1071+002509069GF108991071071002501999999MA1999999099161MD1710161+9999MW1601REMSYN082AAXX  07154 02680 41370 81213 10101 20086 39916 49962 57016 76022 877// 333 87793;
0229026800999992000110718004+56920+018150FM-12+003999999V0201201N00621001201CN0040001N1+00951+00931099601ADDAA112002091AY161061AY221061GA1021+001809079GF108991081051001501999999KA1120M+01041MA1999999099141MD1610021+9999MW1631REMSYN100AAXX  07184 02680 11240 81212 10095 20093 39914 49960 56002 60022 76362 885// 333 10104 82706 88619;
0187026800999992000110721004+56920+018150FM-12+003999999V0201301N006210015019N0040001N1+00941+00921099501ADDAY161031AY261031GA1081+001509069GF108991081071001501999999MA1999999099041MD1810101+9999MW1631REMSYN082AAXX  07214 02680 41240 81312 10094 20092 39904 49950 58010 76366 887// 333 88705;
0235026800999992000110806004+56920+018150FM-12+003999999V0202101N001510007519N0020001N1+00941+00921099291ADDAA112024991AY161061AY261061GA1081+000759069GF108991081061000751999999IA1119KA1120N+00931MA1999999098831MD1310071+9999MW1581REMSYN100AAXX  08064 02680 11120 82103 10094 20092 39883 49929 53007 60252 75866 886// 333 20093 32/// 88791;
0207026800999992000110809004+56920+018150FM-12+003999999V0202201N002110015019N0030001N1+00961+00941099471ADDAY161031AY251031GA1071+001509069GF108991071061001501999999MA1999999099011MD1210181+9999MW1101SA1+0869REMSYN094AAXX  08094 02680 41230 82204 10096 20094 39901 49947 52018 71065 876// 222// 00086 333 87792;
0204026800999992000110812004+56920+018150FM-12+003999999V0202301N003610025019N0045001N1+00851+00831099651ADDAA106000591AY161061AY251061GA1081+002509069GF108991081061002501999999MA1999999099191MD1210181+9999MW1101REMSYN088AAXX  08124 02680 11345 82307 10085 20083 39919 49965 52018 69961 71065 886// 333 88793;
0159026800999992000110815004+56920+018150FM-12+003999999V0202001N003112200019N0150001N1+00881+00861099851ADDGA1011+999999079GF102991011001999999071021MA1999999099391MD1210201+9999REMSYN076AAXX  08154 02680 42965 22006 10088 20086 39939 49985 52020 81072 333 81399;
0195026800999992000110818004+56920+018150FM-12+003999999V0201801N003612200019N0100001N1+00891+00871100021ADDAA112000591GA1021+999999079GF103991021001999999031011KA1120M+01001MA1999999099561MD1210171+9999REMSYN088AAXX  08184 02680 12960 31807 10089 20087 39956 40002 52017 69962 82031 333 10100 82399;
0187026800999992000110821004+56920+018150FM-12+003999999V0201701N003119999999N0045001N1+00931+00911100171ADDAY111031AY211031GA1071+999999079GF107991071001999999031999MA1999999099711MD1110151+9999MW1101REMSYN082AAXX  08214 02680 41945 71706 10093 20091 39971 40017 51015 71011 8703/ 333 87399;
0217026800999992000110900004+56920+018150FM-12+003999999V0201701N001512200019N0040001N1+00841+00821100211ADDAA199000091AY111061AY211061GA1011+999999079GF101991011001999999031011MA1999999099751MD1110041+9999MW1101REMSYN082AAXX  09004 02680 31940 11703 10084 20082 39975 40021 51004 71011 81031 333 81399;EQDQ01  00002PRCP99
0187026800999992000110903004+56920+018150FM-12+003999999V0201501N001010099019N0035001N1+00891+00871100311ADDAY101031AY201031GA1081+009909059GF108991081051008001999999MA1999999099851MD1210101+9999MW1101REMSYN082AAXX  09034 02680 41535 81502 10089 20087 39985 40031 52010 71000 885// 333 88633;
0248026800999992000110906004+56920+018150FM-12+003999999V0201701N001012200019N0011001N1+00811+00791100401ADDAA199000091AY121061AY201061GA1011+999999079GF101991011001999999071011IA1099KA1120N+00811MA1999999099941MD1210091+9999MW1101REMSYN094AAXX  09064 02680 31911 11702 10081 20079 39994 40040 52009 71020 81071 333 20081 31/// 81399;EQDQ01  00002PRCP99
0187026800999992000110909004+56920+018150FM-12+003999999V0201701N002119999999N0035001N1+00921+00911100531ADDAY141031AY201031GA1051+999999089GF105991001001999999001081MA1999999100071MD1210131+9999MW1101REMSYN082AAXX  09094 02680 41935 51704 10092 20091 30007 40053 52013 71040 80008 333 85299;
0218026800999992000110912004+56920+018150FM-12+003999999V0201801N002112200019N0200001N1+01051+00901100591ADDAA199000091AY141061AY221061GA1011+999999079GF101991011001999999031021MD1210061+9999MW1021REMSYN082AAXX  09124 02680 31970 11804 10105 20090 30113 40059 52006 70242 81032 333 81399;EQDQ01+101133APOSP Q02  00002PRCP99
0193026800999992000110915004+56920+018150FM-12+003999999V0201801N00211999999CN0045001N1+00881+00861100731ADDAY111031AY201031GA1051+025009039GF108991081001999999071999MA1999999100271MD1010141+9999MW1101REMSYN088AAXX  09154 02680 41945 81804 10088 20086 30027 40073 50014 71010 8807/ 333 85399 88499;
0236026800999992000110918004+56920+018150FM-12+003999999V0201701N002119999999N0040001N1+00871+00851100801ADDAA199000091AY121061AY211061GA1061+999999079GF107991061001999999031091KA1120M+01101MA1999999100341MD1210071+9999MW1101REMSYN088AAXX  09184 02680 31940 71704 10087 20085 30034 40080 52007 71021 86039 333 10110 86399;EQDQ01  00002PRCP99
0206026800999992000110921004+56920+018150FM-12+003999999V0201701N003110024019N0040001N1+00891+00871999999ADDAY121031AY221031GA1081+002409069GF108991081061002501999999MA1999999100431MD1210091+9999MW1101REMSYN082AAXX  09214 02680 41340 81706 10089 20087 30043 40009 52009 71022 886// 333 88708;EQDQ01+100093APOSLP
0217026800999992000111000004+56920+018150FM-12+003999999V0201801N001519999999N0040001N1+00821+00801100961ADDAA199000091AY121061AY221061GA1071+999999079GF107991071001999999031999MA1999999100491MD1110061+9999MW1101REMSYN082AAXX  10004 02680 31940 71803 10082 20080 30049 40096 51006 71022 8703/ 333 87399;EQDQ01  00002PRCP99
0159026800999992000111003004+56920+018150FM-12+003999999V0201801N001512200019N0100001N1+00731+00711100981ADDGA1011+999999079GF101991011001999999031001MA1999999100511MD1210021+9999REMSYN076AAXX  10034 02680 42960 11803 10073 20071 30051 40098 52002 81030 333 81399;
0226026800999992000111006004+56920+018150FM-12+003999999V0202101N002112200019N0100001N1+00821+00801101031ADDAA199000091GA1021+004509029GF104991021021004501031001IA1099KA1120N+00731MA1999999100561MD1210051+9999REMSYN094AAXX  10064 02680 32460 42104 10082 20080 30056 40103 52005 82230 333 20073 31/// 82294 84399;EQDQ01  00002PRCP99
0185026800999992000111009004+56920+018150FM-12+003999999V0202101N00261030001CN0200001N1+00941+00911101101ADDGA1011+004509089GF107991021081004501071999MA1999999100631MD1210071+9999SA1+0889REMSYN094AAXX  10094 02680 42470 72105 10094 20091 30063 40110 52007 8287/ 222// 00088 333 81894 87399;
0217026800999992000111012004+56920+018150FM-12+003999999V0202201N00311030001CN0300001N1+00921+00781101121ADDAA199000091GA1011+004509089GA2031+012509069GF107991031081004501071999MA1999999100651MD1210021+9999REMSYN088AAXX  10124 02680 32480 72206 10092 20078 30065 40112 52002 8387/ 333 81894 83696 87399;EQDQ01  00002PRCP99
0165026800999992000111015004+56920+018150FM-12+003999999V0202201N00311009001CN0290001N1+00851+00761101151ADDGA1011+004509089GF107991071081004501999999MA1999999100681MD1210031+9999REMSYN082AAXX  10154 02680 42479 72206 10085 20076 30068 40115 52003 878// 333 81894 87697;
0214026800999992000111018004+56920+018150FM-12+003999999V0202201N004110090019N0400001N1+00831+00621101181ADDAA199000091GA1011+004509089GF108991081081004501999999KA1120M+00951MA1999999100711MD1110031+9999REMSYN088AAXX  10184 02680 32482 82208 10083 20062 30071 40118 51003 888// 333 10095 81894 88656;EQDQ01  00002PRCP99
0159026800999992000111021004+56920+018150FM-12+003999999V0202201N003112200019N0400001N1+00801+00661101181ADDGA1021+004509029GF102991021021004501031001MA1999999100711MD1410001+9999REMSYN076AAXX  10214 02680 42482 22206 10080 20066 30071 40118 54000 82230 333 82894;
0189026800999992000111100004+56920+018150FM-12+003999999V0202201N003110018019N0400001N1+00811+00731101181ADDAA199000091GA1081+001809069GF108991081061001501999999MA1999999100711MD1410001+9999REMSYN076AAXX  11004 02680 32282 82206 10081 20073 30071 40118 54000 886// 333 88706;EQDQ01  00002PRCP99
0165026800999992000111103004+56920+018150FM-12+003999999V0202401N002112200019N0350001N1+00751+00721101221ADDGA1011+004509089GF102991021091004501001001MA1999999100741MD1210031+9999REMSYN082AAXX  11034 02680 42481 22404 10075 20072 30074 40122 52003 82900 333 81894 81994;
0248026800999992000111106004+56920+018150FM-12+003999999V0202401N00311030001CN0400001N1+00821+00701101261ADDAA199000091GA1011+004509099GA2011+004509089GF107991021031004501071001IA1019KA1120N+00751MA1999999100791MD1310051+9999REMSYN100AAXX  11064 02680 32482 72406 10082 20070 30079 40126 53005 82370 333 20075 30/// 81894 81994 86399;EQDQ01  00002PRCP99
0187026800999992000111109004+56920+018150FM-12+003999999V0202501N00311030001CN0400001N1+00881+00691101381ADDGA1011+004509089GA2031+008009069GF107991031081004501071999MA1999999100911MD1310121+9999REMSYN088AAXX  11094 02680 42482 72506 10088 20069 30091 40138 53012 8387/ 333 81894 83695 87399;
0189026800999992000111112004+56920+018150FM-12+003999999V0202601N003612200019N0600001N1+00901+00681101441ADDAA199000091GA1011+004509029GF102991011081004501031011MA1999999100971MD1210061+9999REMSYN076AAXX  11124 02680 32486 22607 10090 20068 30097 40144 52006 81831 333 81894;EQDQ01  00002PRCP99
0159026800999992000111115004+56920+018150FM-12+003999999V0202501N003112200019N0700001N1+00781+00471101541ADDGA1011+004509029GF101991011011004501031001MA1999999101061MD1210091+9999REMSYN076AAXX  11154 02680 42488 12506 10078 20047 30106 40154 52009 81130 333 81894;
0208026800999992000111118004+56920+018150FM-12+003999999V0202401N003112200019N0650001N1+00761+00601101601ADDAA199000091GA1011+004509029GF101991011011004501001001KA1120M+00931MA1999999101121MD1110061+9999REMSYN082AAXX  11184 02680 32487 12406 10076 20060 30112 40160 51006 81100 333 10093 81894;EQDQ01  00002PRCP99
0159026800999992000111121004+56920+018150FM-12+003999999V0202201N003112200019N0400001N1+00721+00491101631ADDGA1011+004509029GF101991011021004501001011MA1999999101151MD1110031+9999REMSYN076AAXX  11214 02680 42482 12206 10072 20049 30115 40163 51003 81201 333 81894;
0189026800999992000111200004+56920+018150FM-12+003999999V0202101N003110024019N0300001N1+00791+00761101551ADDAA199000091GA1071+002409059GF107991071051002501999999MA1999999101071MD1810081+9999REMSYN076AAXX  12004 02680 32380 72106 10079 20076 30107 40155 58008 875// 333 87608;EQDQ01  00002PRCP99
0241026800999992000111206004+56920+018150FM-12+003999999V0202101N00361002501CN0150001N1+00821+00811101351ADDAA112000191AY121061AY221061GA1071+002509079GF108991071071002501021999IA1099KA1120N+00711MA1999999100881MD1710081+9999MW1631REMSYN106AAXX  12064 02680 11365 82107 10082 20081 30088 40135 57008 69912 76322 8772/ 333 20071 31/// 87793 88599;
0187026800999992000111209004+56920+018150FM-12+003999999V0202101N004110045019N0250001N1+00851+00751101341ADDAY161031AY221031GA1071+004509059GF108991071051004501999999MA1999999100871MD1810011+9999MW1021REMSYN082AAXX  12094 02680 41475 82108 10085 20075 30087 40134 58001 70262 875// 333 87694;
0204026800999992000111212004+56920+018150FM-12+003999999V0202001N004110045019N0400001N1+00831+00601101241ADDAA106000591AY161061AY221061GA1071+004509059GF107991071051004501999999MA1999999100771MD1810101+9999MW1021REMSYN088AAXX  12124 02680 11482 72008 10083 20060 30077 40124 58010 69941 70262 875// 333 87694;
0165026800999992000111215004+56920+018150FM-12+003999999V0201901N00411030001CN0400001N1+00871+00631101091ADDGA1011+004509089GF108991011011004501071999MA1999999100621MD1710151+9999REMSYN082AAXX  12154 02680 42482 81908 10087 20063 30062 40109 57015 8117/ 333 81894 88399;
0195026800999992000111218004+56920+018150FM-12+003999999V0201701N004612200019N0300001N1+00771+00391100941ADDAA112000591GA1011+004509029GF102991011011004501001011KA1120M+00871MA1999999100461MD1710161+9999REMSYN088AAXX  12184 02680 12480 21709 10077 20039 30046 40094 57016 69942 81101 333 10087 81894;
0165026800999992000111221004+56920+018150FM-12+003999999V0201801N004610750019N0300001N1+00781+00571100761ADDGA1011+002109019GF108991011011004501001071MA1999999100281MD1710181+9999REMSYN082AAXX  12214 02680 42480 81809 10078 20057 30028 40076 57018 81107 333 81107 88299;
0189026800999992000111300004+56920+018150FM-12+003999999V0201701N004619999999N0300001N1+00821+00641100571ADDAA199000091GA1081+999999089GF108991001001999999001071MA1999999100111MD1710171+9999REMSYN076AAXX  13004 02680 32980 81709 10082 20064 30011 40057 57017 80007 333 88299;EQDQ01  00002PRCP99
0159026800999992000111303004+56920+018150FM-12+003999999V0201701N004110099019N0300001N1+00871+00641100441ADDGA1081+009909059GF108991081051008001999999MA1999999099981MD1710131+9999REMSYN076AAXX  13034 02680 42580 81708 10087 20064 39998 40044 57013 885// 333 88633;
0254026800999992000111306004+56920+018150FM-12+003999999V0201701N005110225019N0100001N1+00871+00711100181ADDAA112000791AY121061AY221061GA1081+022509079GF108991081999022501071999IA1099KA1120N+00771MA1999999099721MD1810261+9999MW1611REMSYN100AAXX  13064 02680 11860 81710 10087 20071 39972 40018 58026 69902 76122 8807/ 333 20077 31/// 88398;EQDQ01+000002SCOLCG
0207026800999992000111309004+56920+018150FM-12+003999999V0201801N005710015019N0049001N1+00801+00791100141ADDAY161031AY261031GA1081+001509069GF108991081071001501999999MA1999999099681MD1710041+9999MW1631SA1+0889REMSYN094AAXX  13094 02680 41249 81811 10080 20079 39968 40014 57004 76366 887// 222// 00088 333 88792;
0204026800999992000111312004+56920+018150FM-12+003999999V0201901N004610025019N0060001N1+00861+00851100111ADDAA106005191AY161061AY261061GA1081+002509069GF108991081061002501999999MA1999999099651MD1710031+9999MW1201REMSYN088AAXX  13124 02680 11356 81909 10086 20085 39965 40011 57003 60051 72066 886// 333 88793;
0229026800999992000111318004+56920+018150FM-12+003999999V0202201N00311001201CN0060001N1+00881+00871100331ADDAA112005191AY151061AY221061GA1011+001509079GF108991081051001501999999KA1120M+00901MA1999999099871MD1310111+9999MW1101REMSYN100AAXX  13184 02680 11256 82206 10088 20087 39987 40033 53011 60052 71052 885// 333 10090 81705 88621;
0187026800999992000111321004+56920+018150FM-12+003999999V0202201N002119999999N0060001N1+00831+00821100441ADDAY121031AY211031GA1061+999999079GF106991061001999999031001MA1999999099981MD1210111+9999MW1101REMSYN082AAXX  13214 02680 41956 62204 10083 20082 39998 40044 52011 71021 86030 333 86399;
0204026800999992000111400004+56920+018150FM-12+003999999V0201701N00051001201CN0040001N1+00881+00871100461ADDAA199000021AY121061AY221061GA1041+001509079GF108991081061001501999999MA1999999100001MD1010021+9999MW1101REMSYN088AAXX  14004 02680 31240 81701 10088 20087 30000 40046 50002 71022 886// 333 84705 88713;
0193026800999992000111403004+56920+018150FM-12+003999999V0201901N00211000601CN0035001N1+00871+00861100501ADDAY121031AY221031GA1011+000609079GF108991081051000751999999MA1999999100041MD1110041+9999MW1611REMSYN088AAXX  14034 02680 41135 81904 10087 20086 30004 40050 51004 76122 885// 333 81702 88617;
0235026800999992000111406004+56920+018150FM-12+003999999V0201301N001010009019N0030001N1+00831+00821100451ADDAA112004191AY121061AY221061GA1081+000909069GF108991081071001501999999IA1099KA1120N+00831MA1999999099991MD1810051+9999MW1631REMSYN100AAXX  14064 02680 11230 81302 10083 20082 39999 40045 58005 60042 76322 887// 333 20083 31/// 88703;
0187026800999992000111409004+56920+018150FM-12+003999999V0201301N000510007519N0013001N1+00841+00831100491ADDAY161031AY261031GA1081+000759069GF108991081071000751999999MA1999999100031MD1010041+9999MW1631REMSYN082AAXX  14094 02680 41113 81301 10084 20083 30003 40049 50004 76366 887// 333 88791;
0204026800999992000111412004+56920+018150FM-12+003999999V0203501N000510015019N0021001N1+00891+00881100411ADDAA106010991AY161061AY261061GA1081+001509069GF108991081061001501999999MA1999999099951MD1510081+9999MW1101REMSYN088AAXX  14124 02680 11221 83501 10089 20088 39995 40041 55008 60111 71066 886// 333 88792;
0200026800999992000111415004+56920+018150FM-12+003999999V0203601N001010007519N0020001N1+00831+00821100521ADDAY121031AY221031GA1081+000759069GF108991081071000751999999MA1999999100061MD1010111+9999REMSYN082AAXX  14154 02680 41120 83602 10083 20082 30006 40052 50011 76922 887// 333 88791;EQDQ01+000692PRSWM1
0229026800999992000111418004+56920+018150FM-12+003999999V0203601N001019999999N0550001N1+00701+00691100721ADDAA112011991AY151061AY221061GA1041+025009039GF108991041001999999071071KA1120M+00891MA1999999100251MD1310191+9999MW1011REMSYN100AAXX  14184 02680 11985 83602 10070 20069 30025 40072 53019 60122 70152 84077 333 10089 84399 88299;
0165026800999992000111421004+56920+018150FM-12+003999999V0203601N001019999999N0600001N1+00641+00631100831ADDGA1011+025009039GF108991081001999999071999MA1999999100361MD1110111+9999REMSYN082AAXX  14214 02680 42986 83602 10064 20063 30036 40083 51011 8807/ 333 81399 88499;
0195026800999992000111500004+56920+018150FM-12+003999999V0209999C000010090019N0500001N1+00661+00431100971ADDAA199000091GA1011+004509089GF108991081081004501999999MA1999999100491MD1010131+9999REMSYN082AAXX  15004 02680 32484 80000 10066 20043 30049 40097 50013 888// 333 81894 88656;EQDQ01  00002PRCP99
0165026800999992000111503004+56920+018150FM-12+003999999V0203501N00151030001CN0500001N1+00731+00721100961ADDGA1031+002409069GF108991031051002501021999MA1999999100481MD1710011+9999REMSYN082AAXX  15034 02680 42384 83503 10073 20072 30048 40096 57001 8352/ 333 83608 88457;
0248026800999992000111506004+56920+018150FM-12+003999999V0203601N00101999999CN0500001N1+00631+00621101041ADDAA199000091GA1021+004509069GA2061+025009039GF108991021051004501071999IA1099KA1120N+00631MA1999999100561MD1210081+9999REMSYN100AAXX  15064 02680 32484 83602 10063 20062 30056 40104 52008 8257/ 333 20063 31/// 82694 86399 88499;EQDQ01  00002PRCP99
0207026800999992000111509004+56920+018150FM-12+003999999V0209999C00001030001CN0300001N1+00601+00591101191ADDGA1011+004509069GA2031+022509039GF107991011051004501071999MA1999999100711MD1110151+9999SA1+0889REMSYN100AAXX  15094 02680 42480 70000 10060 20059 30071 40119 51015 8157/ 222// 00088 333 81694 83398 86399;
0217026800999992000111512004+56920+018150FM-12+003999999V0202301N00151030001CN0400001N1+00761+00751101261ADDAA199000091GA1011+004509089GA2041+008009069GF107991041081004501071999MA1999999100781MD1110071+9999REMSYN088AAXX  15124 02680 32482 72303 10076 20075 30078 40126 51007 8487/ 333 81894 84695 86399;EQDQ01  00002PRCP99
0187026800999992000111515004+56920+018150FM-12+003999999V0202501N00101030001CN0400001N1+00701+00671101321ADDGA1011+004509089GA2031+008009069GF108991031081004501071999MA1999999100841MD1110061+9999REMSYN088AAXX  15154 02680 42482 82502 10070 20067 30084 40132 51006 8387/ 333 81894 83695 88399;
0223026800999992000111518004+56920+018150FM-12+003999999V0202301N001010147019N0400001N1+00701+00691101351ADDAA112000791AY121061AY221061GA1081+014709059GF108991081051012501999999KA1120M+00771MA1999999100871MD1110031+9999MW1601REMSYN094AAXX  15184 02680 11682 82302 10070 20069 30087 40135 51003 69902 76022 885// 333 10077 88649;
0193026800999992000111521004+56920+018150FM-12+003999999V0201801N00051001201CN0350001N1+00681+00671101371ADDAY161031AY261031GA1011+001209079GF108991081051001501999999MA1999999100891MD1210021+9999MW1021REMSYN088AAXX  15214 02680 41281 81801 10068 20067 30089 40137 52002 70266 885// 333 81704 88629;
0204026800999992000111600004+56920+018150FM-12+003999999V0202401N002110111019N0350001N1+00741+00671101361ADDAA106002091AY161061AY221061GA1081+011109059GF108991081051012501999999MA1999999100881MD1710011+9999MW1601REMSYN088AAXX  16004 02680 11681 82404 10074 20067 30088 40136 57001 60021 76062 885// 333 88637;
0159026800999992000111603004+56920+018150FM-12+003999999V0202301N001019999999N0400001N1+00661+00631101311ADDGA1071+999999079GF107991071001999999031001MA1999999100831MD1810051+9999REMSYN076AAXX  16034 02680 42982 72302 10066 20063 30083 40131 58005 87030 333 87399;
0235026800999992000111606004+56920+018150FM-12+003999999V0203201N000510048019N0035001N1+00651+00621101301ADDAA112003091AY121061AY221061GA1081+004809099GF108991081091004501999999IA1099KA1120N+00651MA1999999100821MD1510011+9999MW1961REMSYN100AAXX  16064 02680 11435 83201 10065 20062 30082 40130 55001 60032 79622 889// 333 20065 31/// 88916;
0237026800999992000111609004+56920+018150FM-12+003999999V0201301N00211004501CN0550001N1+00621+00561101261ADDAY191031AY291031GA1011+001509079GA2021+004509099GA3041+004509069GF107991061091001501071999MA1999999100781MD1710041+9999MW1251REMSYN100AAXX  16094 02680 41285 71304 10062 20056 30078 40126 57004 72599 8697/ 333 81792 82994 84694 87399;
0232026800999992000111612004+56920+018150FM-12+003999999V0202401N00151030001CN0400001N1+00801+00661101181ADDAA106007991AY191061AY291061GA1011+004509099GA2031+004509089GF107991041031004501031021MA1999999100711MD1710071+9999MW1021REMSYN100AAXX  16124 02680 11482 72403 10080 20066 30071 40118 57007 60081 70299 84332 333 83894 81994 86099;
0159026800999992000111615004+56920+018150FM-12+003999999V0203001N001012200019N0550001N1+00621+00591101281ADDGA1011+004509029GF101991011081004501001001MA1999999100801MD1310091+9999REMSYN076AAXX  16154 02680 42485 13002 10062 20059 30080 40128 53009 81800 333 81894;
0195026800999992000111618004+56920+018150FM-12+003999999V0202701N001012200019N0300001N1+00531+00481101381ADDAA112007991GA1011+004509059GF101991011051004501001001KA1120M+00841MA1999999100901MD1210101+9999REMSYN088AAXX  16184 02680 12480 12702 10053 20048 30090 40138 52010 60082 81500 333 10084 81694;
0159026800999992000111621004+56920+018150FM-12+003999999V0203101N001512200019N0300001N1+00501+00481101551ADDGA1011+004509059GF101991011051004501001001MA1999999101071MD1210171+9999REMSYN076AAXX  16214 02680 42480 13103 10050 20048 30107 40155 52017 81500 333 81694;
0189026800999992000111700004+56920+018150FM-12+003999999V0200501N000512200019N0290001N1+00391+00371101661ADDAA199000091GA1011+999999079GF101991011001999999031001MA1999999101181MD1310111+9999REMSYN076AAXX  17004 02680 32979 10501 10039 20037 30118 40166 53011 81030 333 81399;EQDQ01  00002PRCP99
0187026800999992000111703004+56920+018150FM-12+003999999V0200601N001512200019N0020001N1+00341+00321101711ADDAY101031AY201031GA1041+999999079GF104991041001999999031001MA1999999101231MD1110051+9999MW1101REMSYN082AAXX  17034 02680 41920 40603 10034 20032 30123 40171 51005 71000 84030 333 84399;
0226026800999992000111706004+56920+018150FM-12+003999999V0201201N00151030001CN0300001N1+00531+00511101741ADDAA199000091GA1011+004509089GF107991011021004501071001IA1099KA1120N+00331MA1999999101261MD1210031+9999REMSYN094AAXX  17064 02680 32480 71203 10053 20051 30126 40174 52003 81270 333 20033 31/// 81894 87399;EQDQ01  00002PRCP99
0179026800999992000111709004+56920+018150FM-12+003999999V0201701N002612200019N0300001N1+00831+00501101811ADDGA1021+004509029GF103991021021004501031011MA1999999101341MD1110081+9999SA1+0769REMSYN088AAXX  17094 02680 42480 31705 10083 20050 30134 40181 51008 82231 222// 00076 333 82894;
0195026800999992000111712004+56920+018150FM-12+003999999V0201501N00261030001CN0350001N1+00781+00381101771ADDAA199000091GA1011+004509089GF108991011021004501031071MA1999999101291MD1810051+9999REMSYN082AAXX  17124 02680 32481 81505 10078 20038 30129 40177 58005 81237 333 81894 88299;EQDQ01  00002PRCP99
0165026800999992000111715004+56920+018150FM-12+003999999V0201401N00311030001CN0400001N1+00681+00241101671ADDGA1031+004509069GF108991031041004501031071MA1999999101191MD1810101+9999REMSYN082AAXX  17154 02680 42482 81406 10068 20024 30119 40167 58010 83437 333 83694 88299;
0208026800999992000111718004+56920+018150FM-12+003999999V0201401N005110072019N0350001N1+00691+00451101551ADDAA199000091GA1081+007209059GF108991081051008001999999KA1120M+00831MA1999999101071MD1610121+9999REMSYN082AAXX  17184 02680 32581 81410 10069 20045 30107 40155 56012 885// 333 10083 88624;EQDQ01  00002PRCP99
0187026800999992000111721004+56920+018150FM-12+003999999V0201201N005110054019N0100001N1+00631+00611101231ADDAY121031AY221031GA1081+005409059GF108991081051004501999999MA1999999100751MD1710321+9999MW1631REMSYN082AAXX  17214 02680 41460 81210 10063 20061 30075 40123 57032 76322 885// 333 88618;
0204026800999992000111800004+56920+018150FM-12+003999999V0201401N005710018019N0045001N1+00721+00701100941ADDAA106001091AY161061AY221061GA1081+001809069GF108991081061001501999999MA1999999100461MD1710291+9999MW1601REMSYN088AAXX  18004 02680 11245 81411 10072 20070 30046 40094 57029 60011 76062 886// 333 88706;
0170026800999992000111803004+56920+018150FM-12+003999999V0201601N004119999999N0048001N1+00771+00751100721ADDGA1041+001509079GF108991999999001501999999MA1999999100251MD1610211+9999REMSYN087AAXX  18034 02680 41248 81608 10077 20075 30025 40072 56021 7606 887// 333 84705 88707;
0241026800999992000111806004+56920+018150FM-12+003999999V0202001N003610012019N0100001N1+00771+00751100651ADDAA112002091AY161061AY261061GA1021+001509079GF108991081051001501999999IA1099KA1120N+00631MA1999999100181MD1610071+9999MW1021REMSYN106AAXX  18064 02680 11260 82007 10077 20075 30018 40065 56007 60022 70266 885// 333 20063 31/// 82792 88613;
0193026800999992000111809004+56920+018150FM-12+003999999V0202301N00411030001CN0500001N1+00761+00571100671ADDAY161031AY221031GA1011+002509089GF107991011011002501071999MA1999999100201MD1210021+9999MW1601REMSYN088AAXX  18094 02680 41384 72308 10076 20057 30020 40067 52002 76062 8117/ 333 81893 87399;
0210026800999992000111812004+56920+018150FM-12+003999999V0202301N00361030001CN0500001N1+00731+00561100641ADDAA106000191AY161061AY221061GA1021+004509089GF108991021021004501071999MA1999999100171MD1810031+9999MW1021REMSYN094AAXX  18124 02680 11484 82307 10073 20056 30017 40064 58003 69911 70262 8227/ 333 82894 88399;
0165026800999992000111815004+56920+018150FM-12+003999999V0202301N00411004501CN0400001N1+00701+00351100651ADDGA1051+004509089GF108991051021004501071999MA1999999100181MD1110011+9999REMSYN082AAXX  18154 02680 42482 82308 10070 20035 30018 40065 51001 8527/ 333 85894 87399;
0195026800999992000111818004+56920+018150FM-12+003999999V0202301N005110111019N0150001N1+00671+00051100671ADDAA112000191GA1071+011109059GF107991071051012501999999KA1120M+00791MA1999999100201MD1110021+9999REMSYN088AAXX  18184 02680 12665 72310 10067 20005 30020 40067 51002 69912 875// 333 10079 87637;
0143026800999992000111821004+56920+018150FM-12+003999999V0202301N005112200019N0300001N1+00601+00221100681ADDGA1001+999999999GF100991001001999999001001MA1999999100211MD1210011+9999REMSYN060AAXX  18214 02680 42980 02310 10060 20022 30021 40068 52001;
0189026800999992000111900004+56920+018150FM-12+003999999V0202301N005712200019N0450001N1+00611+00211100721ADDAA199000091GA1021+004509059GF102991021051004501031001MA1999999100251MD1210041+9999REMSYN076AAXX  19004 02680 32483 22311 10061 20021 30025 40072 52004 82530 333 82694;EQDQ01  00002PRCP99
0159026800999992000111903004+56920+018150FM-12+003999999V0202201N005110072019N0400001N1+00661+00041100721ADDGA1071+007209029GF107991071021008001999999MA1999999100251MD1410001+9999REMSYN076AAXX  19034 02680 42582 72210 10066 20004 30025 40072 54000 872// 333 87824;
0220026800999992000111906004+56920+018150FM-12+003999999V0202001N006210080019N0350001N1+00701+00341100681ADDAA199000091GA1061+008009029GF106991061021008001031001IA1099KA1120N+00501MA1999999100211MD1710041+9999REMSYN088AAXX  19064 02680 32581 62012 10070 20034 30021 40068 57004 86230 333 20050 31/// 86895;EQDQ01  00002PRCP99
0165026800999992000111909004+56920+018150FM-12+003999999V0201801N00621030001CN0400001N1+00741+00251100691ADDGA1041+004509069GF107991041051004501031081MA1999999100221MD1010011+9999REMSYN082AAXX  19094 02680 42482 71812 10074 20025 30022 40069 50001 84538 333 84694 84299;
0195026800999992000111912004+56920+018150FM-12+003999999V0201901N00621030001CN0400001N1+00751+00221100651ADDAA199000091GA1011+004509089GF106991011011004501031081MA1999999100171MD1710051+9999REMSYN082AAXX  19124 02680 32482 61912 10075 20022 30017 40065 57005 81138 333 81894 86299;EQDQ01  00002PRCP99
0165026800999992000111915004+56920+018150FM-12+003999999V0201901N00571030001CN0400001N1+00721+00111100681ADDGA1011+008009089GF106991011011008001011001MA1999999100211MD1210041+9999REMSYN082AAXX  19154 02680 42582 61911 10072 20011 30021 40068 52004 81110 333 81895 86499;
0224026800999992000111918004+56920+018150FM-12+003999999V0201701N006212200019N0300001N1+00671+00121100751ADDAA199000091AY121061AY211061GA1001+999999999GF100991001001999999001001KA1999M+00811MA1999999100281MD1210071+9999MW1051REMSYN076AAXX  19184 02680 31980 01712 10067 20012 30028 40075 52007 70521 333 10081;EQDQ01  00002PRCP99
0187026800999992000111921004+56920+018150FM-12+003999999V0201601N005110048019N0300001N1+00721+00251100831ADDAY111031AY201031GA1061+004809059GF106991061051004501001001MA1999999100361MD1210081+9999MW1051REMSYN082AAXX  19214 02680 41480 61610 10072 20025 30036 40083 52008 70510 86500 333 86616;
0217026800999992000112000004+56920+018150FM-12+003999999V0201601N004110066019N0260001N1+00721+00131100891ADDAA199000091AY121061AY211061GA1071+006609059GF107991071051008001999999MA1999999100411MD1110051+9999MW1051REMSYN082AAXX  20004 02680 31576 71608 10072 20013 30041 40089 51005 70521 875// 333 87622;EQDQ01  00002PRCP99
0159026800999992000112003004+56920+018150FM-12+003999999V0201601N003610087019N0300001N1+00761+00381100921ADDGA1071+008709059GF107991071051008001999999MA1999999100441MD1010031+9999REMSYN076AAXX  20034 02680 42580 71607 10076 20038 30044 40092 50003 875// 333 87629;
0226026800999992000112006004+56920+018150FM-12+003999999V0201101N00311004201CN0160001N1+00761+00491100941ADDAA199000091GA1011+003609069GF108991081051004501999999IA1019KA1120N+00671MA1999999100461MD1110021+9999REMSYN094AAXX  20064 02680 32466 81106 10076 20049 30046 40094 51002 885// 333 20067 30/// 81612 88621;EQDQ01  00002PRCP99
0207026800999992000112009004+56920+018150FM-12+003999999V0201101N004110025019N0050001N1+00771+00721100961ADDAY121031AY221031GA1081+002509069GF108991081061002501999999MA1999999100481MD1010021+9999MW1101SA1+0849REMSYN094AAXX  20094 02680 41350 81108 10077 20072 30048 40096 50002 71022 886// 222// 00084 333 88793;
0204026800999992000112012004+56920+018150FM-12+003999999V0201101N004110015019N0049001N1+00801+00791100901ADDAA106000591AY161061AY221061GA1081+001509069GF108991081061001501999999MA1999999100431MD1710051+9999MW1101REMSYN088AAXX  20124 02680 11249 81108 10080 20079 30043 40090 57005 69951 71062 886// 333 88792;
0187026800999992000112015004+56920+018150FM-12+003999999V0201301N003110025019N0050001N1+00821+00811100961ADDAY121031AY221031GA1081+002509059GF108991081051002501999999MA1999999100491MD1310061+9999MW1101REMSYN082AAXX  20154 02680 41350 81306 10082 20081 30049 40096 53006 71022 885// 333 88693;
0223026800999992000112018004+56920+018150FM-12+003999999V0201301N004110021019N0050001N1+00811+00801101081ADDAA112000591AY121061AY221061GA1081+002109059GF108991081061002501999999KA1120M+00831MA1999999100611MD1110121+9999MW1101REMSYN094AAXX  20184 02680 11350 81308 10081 20080 30061 40108 51012 69952 71022 886// 333 10083 88607;
0187026800999992000112021004+56920+018150FM-12+003999999V0201201N002610027019N0050001N1+00821+00811101201ADDAY121031AY221031GA1081+002709069GF108991081061002501999999MA1999999100731MD1210121+9999MW1101REMSYN082AAXX  20214 02680 41350 81205 10082 20081 30073 40120 52012 71022 886// 333 88709;
0223026800999992000112100004+56920+018150FM-12+003999999V0200901N00211001201CN0040001N1+00801+00791101201ADDAA199000091AY121061AY221061GA1011+000909079GF108991081061001501999999MA1999999100731MD1010001+9999MW1101REMSYN088AAXX  21004 02680 31240 80904 10080 20079 30073 40120 50000 71022 886// 333 81703 88709;EQDQ01  00002PRCP99
0187026800999992000112103004+56920+018150FM-12+003999999V0200901N002110009019N0040001N1+00821+00811101271ADDAY121031AY221031GA1081+000909069GF108991081061000751999999MA1999999100801MD1110071+9999MW1101REMSYN082AAXX  21034 02680 41140 80904 10082 20081 30080 40127 51007 71022 886// 333 88703;
0248026800999992000112106004+56920+018150FM-12+003999999V0201001N002110033019N0047001N1+00801+00791101291ADDAA199000091AY121061AY221061GA1081+003309069GF108991081061004501999999IA1099KA1120N+00801MA1999999100821MD1010021+9999MW1101REMSYN094AAXX  21064 02680 31447 81004 10080 20079 30082 40129 50002 71022 886// 333 20080 31/// 88711;EQDQ01  00002PRCP99
0187026800999992000112109004+56920+018150FM-12+003999999V0201001N002110025019N0047001N1+00821+00811101351ADDAY121031AY221031GA1081+002509069GF108991081061002501999999MA1999999100881MD1110061+9999MW1101REMSYN082AAXX  21094 02680 41347 81004 10082 20081 30088 40135 51006 71022 886// 333 88793;
0217026800999992000112112004+56920+018150FM-12+003999999V0201301N002110015019N0037001N1+00801+00791101381ADDAA199000091AY121061AY221061GA1081+001509069GF108991081061001501999999MA1999999100911MD1110031+9999MW1101REMSYN082AAXX  21124 02680 31237 81304 10080 20079 30091 40138 51003 71022 886// 333 88792;EQDQ01  00002PRCP99
0187026800999992000112115004+56920+018150FM-12+003999999V0201101N002110007519N0020001N1+00771+00771101341ADDAY121031AY221031GA1081+000759069GF108991081061000751999999MA1999999100861MD1710051+9999MW1511REMSYN082AAXX  21154 02680 41120 81104 10077 20077 30086 40134 57005 75122 886// 333 88791;
0223026800999992000112118004+56920+018150FM-12+003999999V0201301N004110006019N0021001N1+00731+00731101251ADDAA112000191AY121061AY221061GA1081+000609069GF108991081061000751999999KA1120M+00841MA1999999100771MD1710091+9999MW1511REMSYN094AAXX  21184 02680 11121 81308 10073 20073 30077 40125 57009 69922 75122 886// 333 10084 88702;
0187026800999992000112121004+56920+018150FM-12+003999999V0201201N004610012019N0025001N1+00771+00761101121ADDAY151031AY251031GA1081+001209069GF108991081061001501999999MA1999999100641MD1710131+9999MW1511REMSYN082AAXX  21214 02680 41225 81209 10077 20076 30064 40112 57013 75155 886// 333 88704;
0204026800999992000112200004+56920+018150FM-12+003999999V0201201N006210012019N0047001N1+00761+00761100951ADDAA106004191AY151061AY251061GA1081+001209069GF108991081071001501999999MA1999999100471MD1710171+9999MW1631REMSYN088AAXX  22004 02680 11247 81212 10076 20076 30047 40095 57017 60041 76355 887// 333 88704;
0187026800999992000112203004+56920+018150FM-12+003999999V0201401N004110012019N0048001N1+00811+00811100861ADDAY161031AY261031GA1081+001209069GF108991081071001501999999MA1999999100401MD1710071+9999MW1631REMSYN082AAXX  22034 02680 41248 81408 10081 20081 30040 40086 57007 76366 887// 333 88704;
0235026800999992000112206004+56920+018150FM-12+003999999V0201801N002610018019N0050001N1+00781+00781100991ADDAA112010991AY161061AY261061GA1081+001809069GF108991081071001501999999IA1119KA1120N+00731MA1999999100511MD1310111+9999MW1631REMSYN100AAXX  22064 02680 11250 81805 10078 20078 30051 40099 53011 60112 76366 887// 333 20073 32/// 88706;
0213026800999992000112209004+56920+018150FM-12+003999999V0202001N00311009001CN0300001N1+00801+00771101201ADDAY161031AY261031GA1011+004509089GF107991071081004501999999MA1999999100731MD1110221+9999MW1011SA1+0849REMSYN100AAXX  22094 02680 41480 72006 10080 20077 30073 40120 51022 70166 878// 222// 00084 333 81894 87695;
0210026800999992000112212004+56920+018150FM-12+003999999V0201901N00261009001CN0350001N1+00801+00621101321ADDAA106000391AY161061AY221061GA1031+004509089GF107991071081004501031999MA1999999100851MD1110121+9999MW1021REMSYN094AAXX  22124 02680 11481 71905 10080 20062 30085 40132 51012 69931 70262 8783/ 333 83894 87695;
0165026800999992000112215004+56920+018150FM-12+003999999V0201601N00311009001CN0400001N1+00761+00451101451ADDGA1011+004509089GF108991071081004501999999MA1999999100971MD1210121+9999REMSYN082AAXX  22154 02680 42482 81606 10076 20045 30097 40145 52012 878// 333 81894 87696;
0195026800999992000112218004+56920+018150FM-12+003999999V0201701N003110057019N0300001N1+00781+00681101531ADDAA112000391GA1081+005709059GF108991081051004501999999KA1120M+00881MA1999999101051MD1110081+9999REMSYN088AAXX  22184 02680 12480 81706 10078 20068 30105 40153 51008 69932 885// 333 10088 88619;
0159026800999992000112221004+56920+018150FM-12+003999999V0201601N003110033019N0290001N1+00781+00771101551ADDGA1081+003309059GF108991081051004501999999MA1999999101071MD1210021+9999REMSYN076AAXX  22214 02680 42479 81606 10078 20077 30107 40155 52002 885// 333 88611;
0189026800999992000112300004+56920+018150FM-12+003999999V0201501N004110033019N0200001N1+00831+00751101491ADDAA199000091GA1081+003309059GF108991081051004501999999MA1999999101021MD1810051+9999REMSYN076AAXX  23004 02680 32470 81508 10083 20075 30102 40149 58005 885// 333 88611;EQDQ01  00002PRCP99
0193026800999992000112303004+56920+018150FM-12+003999999V0201501N00361001201CN0045001N1+00821+00801101381ADDAY121031AY221031GA1031+001809079GF108991081051001501999999MA1999999100911MD1710111+9999MW1101REMSYN088AAXX  23034 02680 41245 81507 10082 20080 30091 40138 57011 71022 885// 333 83706 88619;
0224026800999992000112306004+56920+018150FM-12+003999999V0201701N00411002101CN0045001N1+00821+00801101311ADDAY121061AY221061GA1021+002409079GF108991081051002501999999IA1099KA1120N+00781MA1999999100841MD1710071+9999MW1101REMSYN100AAXX  23064 02680 21345 81708 10082 20080 30084 40131 57007 71022 885// 333 20078 31/// 82708 88637;
0193026800999992000112309004+56920+018150FM-12+003999999V0201901N00311002101CN0047001N1+00831+00811101431ADDAY121031AY221031GA1021+002509079GF108991081051002501999999MA1999999100961MD1310121+9999MW1101REMSYN088AAXX  23094 02680 41347 81906 10083 20081 30096 40143 53012 71022 885// 333 82793 88694;
0204026800999992000112312004+56920+018150FM-12+003999999V0202001N002110045019N0150001N1+00801+00691101441ADDAA106000791AY161061AY221061GA1071+004509059GF107991071051004501999999MA1999999100971MD1010011+9999MW1021REMSYN088AAXX  23124 02680 11465 72004 10080 20069 30097 40144 50001 69901 70262 875// 333 87694;
0187026800999992000112315004+56920+018150FM-12+003999999V0201601N001010045019N0060001N1+00771+00751101491ADDAY121031AY221031GA1081+004509059GF108991081051004501999999MA1999999101011MD1010041+9999MW1101REMSYN082AAXX  23154 02680 41456 81602 10077 20075 30101 40149 50004 71022 885// 333 88694;
0195026800999992000112318004+56920+018150FM-12+003999999V0201401N002610039019N0100001N1+00781+00701101511ADDAA112000791GA1081+003909059GF108991081051004501999999KA1120M+00841MA1999999101041MD1110031+9999REMSYN088AAXX  23184 02680 12460 81405 10078 20070 30104 40151 51003 69902 885// 333 10084 88613;
0159026800999992000112321004+56920+018150FM-12+003999999V0201401N002110024019N0100001N1+00791+00731101511ADDGA1081+002409059GF108991081051002501999999MA1999999101031MD1710011+9999REMSYN076AAXX  23214 02680 42360 81404 10079 20073 30103 40151 57001 885// 333 88608;
0217026800999992000112400004+56920+018150FM-12+003999999V0201301N003610015019N0060001N1+00741+00731101401ADDAA199000091AY121061AY221061GA1081+001509069GF108991081061001501999999MA1999999100921MD1810111+9999MW1101REMSYN082AAXX  24004 02680 31256 81307 10074 20073 30092 40140 58011 71022 886// 333 88705;EQDQ01  00002PRCP99
0187026800999992000112403004+56920+018150FM-12+003999999V0201301N003610012019N0050001N1+00751+00741101291ADDAY121031AY221031GA1081+001209069GF108991081061001501999999MA1999999100811MD1710111+9999MW1101REMSYN082AAXX  24034 02680 41250 81307 10075 20074 30081 40129 57011 71022 886// 333 88704;
0248026800999992000112406004+56920+018150FM-12+003999999V0201301N004110024019N0090001N1+00791+00731101211ADDAA199000091AY121061AY221061GA1081+002409069GF108991081061002501999999IA1019KA1120N+00741MA1999999100731MD1710081+9999MW1101REMSYN094AAXX  24064 02680 31359 81308 10079 20073 30073 40121 57008 71022 886// 333 20074 30/// 88708;EQDQ01  00002PRCP99
0207026800999992000112409004+56920+018150FM-12+003999999V0201401N005110045019N0090001N1+00761+00621101161ADDAY121031AY221031GA1081+004509059GF108991081051004501999999MA1999999100681MD1710051+9999MW1101SA1+0849REMSYN094AAXX  24094 02680 41459 81410 10076 20062 30068 40116 57005 71022 885// 222// 00084 333 88694;
0217026800999992000112412004+56920+018150FM-12+003999999V0201301N004610045019N0080001N1+00711+00581101031ADDAA199000091AY121061AY221061GA1081+004509059GF108991081051004501999999MA1999999100551MD1610131+9999MW1101REMSYN082AAXX  24124 02680 31458 81309 10071 20058 30055 40103 56013 71022 885// 333 88694;EQDQ01  00002PRCP99
0187026800999992000112415004+56920+018150FM-12+003999999V0201401N005110027019N0048001N1+00751+00641100961ADDAY121031AY221031GA1081+002709069GF108991081061002501999999MA1999999100481MD1610071+9999MW1101REMSYN082AAXX  24154 02680 41348 81410 10075 20064 30048 40096 56007 71022 886// 333 88709;
0236026800999992000112418004+56920+018150FM-12+003999999V0201501N004110027019N0045001N1+00801+00731100941ADDAA199000091AY121061AY221061GA1081+002709069GF108991081061002501999999KA1120M+00801MA1999999100461MD1610021+9999MW1101REMSYN088AAXX  24184 02680 31345 81508 10080 20073 30046 40094 56002 71022 886// 333 10080 88709;EQDQ01  00002PRCP99
0187026800999992000112421004+56920+018150FM-12+003999999V0201501N003610027019N0045001N1+00811+00791100891ADDAY121031AY221031GA1081+002709069GF108991081061002501999999MA1999999100411MD1710051+9999MW1101REMSYN082AAXX  24214 02680 41345 81507 10081 20079 30041 40089 57005 71022 886// 333 88709;
0217026800999992000112500004+56920+018150FM-12+003999999V0201901N002610027019N0045001N1+00771+00721100971ADDAA199000091AY121061AY221061GA1081+002709069GF108991081061002501999999MA1999999100491MD1310081+9999MW1101REMSYN082AAXX  25004 02680 31345 81905 10077 20072 30049 40097 53008 71022 886// 333 88709;EQDQ01  00002PRCP99
0187026800999992000112503004+56920+018150FM-12+003999999V0201801N002110021019N0040001N1+00731+00711101011ADDAY121031AY221031GA1081+002109069GF108991081061002501999999MA1999999100531MD1110041+9999MW1511REMSYN082AAXX  25034 02680 41340 81804 10073 20071 30053 40101 51004 75122 886// 333 88707;
0241026800999992000112506004+56920+018150FM-12+003999999V0201801N00211001201CN0040001N1+00741+00721101061ADDAA112000791AY151061AY221061GA1041+001509079GF108991081061001501999999IA1099KA1120N+00731MA1999999100581MD1210051+9999MW1101REMSYN106AAXX  25064 02680 11240 81804 10074 20072 30058 40106 52005 69902 71052 886// 333 20073 31/// 84705 88707;
0187026800999992000112509004+56920+018150FM-12+003999999V0201901N001510001519N0007001N1+00781+00771101201ADDAY121031AY221031GA1081+000159069GF108991081061000251999999MA1999999100721MD1310141+9999MW1411REMSYN082AAXX  25094 02680 41007 81903 10078 20077 30072 40120 53014 74122 886// 333 88700;
0198026800999992000112512004+56920+018150FM-12+003999999V0202001N001510025019N0048001N1+00781+00761101271ADDAA199000021AY141061AY221061GA1081+002509069GF108991081061002501999999MA1999999100791MD1210071+9999MW1101REMSYN082AAXX  25124 02680 31348 82003 10078 20076 30079 40127 52007 71042 886// 333 88793;
0187026800999992000112515004+56920+018150FM-12+003999999V0202501N000519999999N0045001N1+00701+00681101301ADDAY121031AY221031GA1081+999999079GF108991081001999999071999MA1999999100821MD1110031+9999MW1101REMSYN082AAXX  25154 02680 41945 82501 10070 20068 30082 40130 51003 71022 8807/ 333 88399;
0236026800999992000112518004+56920+018150FM-12+003999999V0200901N001010081019N0040001N1+00651+00631101301ADDAA199000091AY121061AY221061GA1081+008109059GF108991081051008001999999KA1120M+00801MA1999999100821MD1010001+9999MW1101REMSYN088AAXX  25184 02680 31540 80902 10065 20063 30082 40130 50000 71022 885// 333 10080 88627;EQDQ01  00002PRCP99
0187026800999992000112521004+56920+018150FM-12+003999999V0201701N003110039019N0030001N1+00741+00721101211ADDAY121031AY221031GA1081+003909059GF108991081051004501999999MA1999999100731MD1710091+9999MW1601REMSYN082AAXX  25214 02680 41430 81706 10074 20072 30073 40121 57009 76022 885// 333 88613;
0187026800999992000112603004+56920+018150FM-12+003999999V0201301N004110021019N0045001N1+00641+00621100861ADDAY161031AY261031GA1081+002109069GF108991081071002501999999MA1999999100391MD1710111+9999MW1611REMSYN082AAXX  26034 02680 41345 81308 10064 20062 30039 40086 57011 76166 887// 333 88707;
0235026800999992000112606004+56920+018150FM-12+003999999V0201301N005110015019N0040001N1+00611+00591100721ADDAA112007991AY161061AY261061GA1081+001509069GF108991081071001501999999IA1119KA1120N+00611MA1999999100251MD1710141+9999MW1631REMSYN100AAXX  26064 02680 11240 81310 10061 20059 30025 40072 57014 60082 76366 887// 333 20061 32/// 88705;
0187026800999992000112609004+56920+018150FM-12+003999999V0201401N005110025019N0080001N1+00571+00561100621ADDAY161031AY261031GA1081+002509069GF108991081061002501999999MA1999999100151MD1710101+9999MW1101REMSYN082AAXX  26094 02680 41358 81410 10057 20056 30015 40062 57010 71066 886// 333 88793;
0204026800999992000112612004+56920+018150FM-12+003999999V0201401N005110045019N0160001N1+00581+00531100521ADDAA106001091AY161061AY261061GA1081+004509059GF108991081051004501999999MA1999999100051MD1710101+9999MW1021REMSYN088AAXX  26124 02680 11466 81410 10058 20053 30005 40052 57010 60011 70266 885// 333 88694;
0187026800999992000112615004+56920+018150FM-12+003999999V0201401N005110015019N0060001N1+00541+00521100631ADDAY121031AY221031GA1081+001509069GF108991081051001501999999MA1999999100161MD1310111+9999MW1101REMSYN082AAXX  26154 02680 41256 81410 10054 20052 30016 40063 53011 71022 885// 333 88705;
0195026800999992000112618004+56920+018150FM-12+003999999V0201401N004610024019N0100001N1+00531+00491100601ADDAA112001091GA1081+002409069GF108991081061002501999999KA1120M+00611MA1999999100131MD1710031+9999REMSYN088AAXX  26184 02680 12360 81409 10053 20049 30013 40060 57003 60012 886// 333 10061 88708;
0187026800999992000112621004+56920+018150FM-12+003999999V0201401N004610027019N0120001N1+00541+00531100641ADDAY121031AY221031GA1081+002709069GF108991081071002501999999MA1999999100171MD1210041+9999MW1611REMSYN082AAXX  26214 02680 41362 81409 10054 20053 30017 40064 52004 76122 887// 333 88709;
0204026800999992000112700004+56920+018150FM-12+003999999V0201501N004110039019N0110001N1+00521+00511100661ADDAA106002091AY121061AY221061GA1081+003909069GF108991081071004501999999MA1999999100191MD1210021+9999MW1611REMSYN088AAXX  27004 02680 11461 81508 10052 20051 30019 40066 52002 60021 76122 887// 333 88713;
0187026800999992000112703004+56920+018150FM-12+003999999V0201401N004610027019N0150001N1+00541+00511100711ADDAY161031AY261031GA1081+002709069GF108991081071002501999999MA1999999100241MD1110051+9999MW1611REMSYN082AAXX  27034 02680 41365 81409 10054 20051 30024 40071 51005 76166 887// 333 88709;
0235026800999992000112706004+56920+018150FM-12+003999999V0201401N004110033019N0300001N1+00551+00541100831ADDAA112004191AY161061AY261061GA1081+003309059GF108991081051004501999999IA1099KA1120N+00521MA1999999100361MD1210121+9999MW1611REMSYN100AAXX  27064 02680 11480 81408 10055 20054 30036 40083 52012 60042 76166 885// 333 20052 31/// 88611;
0177026800999992000112709004+56920+018150FM-12+003999999V0201401N00311004201CN0240001N1+00541+00541100991ADDAY161031AY261031GF108991081051004501999999MA1999999100511MD1110151+9999MW1021REMSYN088AAXX  27094 02680 41474 81406 10054 20054 30051 40099 51015 70266 885// 333 80078 88694;
0204026800999992000112712004+56920+018150FM-12+003999999V0201401N003110025019N0150001N1+00521+00521101051ADDAA106000591AY161061AY221061GA1081+002509069GF108991081071002501999999MA1999999100571MD1210061+9999MW1581REMSYN088AAXX  27124 02680 11365 81406 10052 20052 30057 40105 52006 69951 75862 887// 333 88793;
0193026800999992000112715004+56920+018150FM-12+003999999V0201401N00211030001CN0200001N1+00511+00511101131ADDAY151031AY251031GA1041+004509089GF108991041021004501021999MA1999999100651MD1210081+9999MW1611REMSYN088AAXX  27154 02680 41470 81404 10051 20051 30065 40113 52008 76155 8422/ 333 84894 88598;
0229026800999992000112718004+56920+018150FM-12+003999999V0201601N00311000601CN0050001N1+00541+00531101201ADDAA112004191AY161061AY251061GA1021+000909079GF108991081061000751999999KA1120M+00561MA1999999100721MD1210071+9999MW1531REMSYN100AAXX  27184 02680 11150 81606 10054 20053 30072 40120 52007 60042 75365 886// 333 10056 82703 88711;
0187026800999992000112721004+56920+018150FM-12+003999999V0201601N002110012019N0150001N1+00561+00551101231ADDAY151031AY251031GA1081+001209069GF108991081061001501999999MA1999999100751MD1210031+9999MW1021REMSYN082AAXX  27214 02680 41265 81604 10056 20055 30075 40123 52003 70255 886// 333 88704;
0204026800999992000112800004+56920+018150FM-12+003999999V0201701N002110015019N0070001N1+00591+00591101281ADDAA106000591AY151061AY221061GA1081+001509069GF108991081071001501999999MA1999999100801MD1210051+9999MW1631REMSYN088AAXX  28004 02680 11257 81704 10059 20059 30080 40128 52005 69961 76352 887// 333 88705;
0187026800999992000112803004+56920+018150FM-12+003999999V0202501N001510012019N0100001N1+00591+00581101321ADDAY161031AY261031GA1081+001209069GF108991081071001501999999MA1999999100841MD1210041+9999MW1631REMSYN082AAXX  28034 02680 41260 82503 10059 20058 30084 40132 52004 76366 887// 333 88704;
0241026800999992000112806004+56920+018150FM-12+003999999V0202601N00261030001CN0250001N1+00631+00621101411ADDAA112005191AY161061AY261061GA1021+004509059GF108991021051004501071999IA1119KA1120N+00541MA1999999100931MD1110091+9999MW1011REMSYN106AAXX  28064 02680 11475 82605 10063 20062 30093 40141 51009 60052 70166 8257/ 333 20054 32/// 82594 88399;
0165026800999992000112809004+56920+018150FM-12+003999999V0202601N00311004501CN0300001N1+00681+00621101581ADDGA1051+004509069GF107991051051004501071999MA1999999101101MD1210171+9999REMSYN082AAXX  28094 02680 42480 72606 10068 20062 30110 40158 52017 8557/ 333 85694 87399;
0170026800999992000112812004+56920+018150FM-12+003999999V0202401N002610045019N0350001N1+00641+00531101671ADDAA199000021GA1061+004509059GF106991061051004501031001MA1999999101191MD1210091+9999REMSYN076AAXX  28124 02680 32481 62405 10064 20053 30119 40167 52009 86530 333 86694;
0165026800999992000112815004+56920+018150FM-12+003999999V0202101N002610027019N0300001N1+00571+00521101711ADDGA1061+002709069GF107991061051002501071999MA1999999101231MD1110041+9999REMSYN082AAXX  28154 02680 42380 72105 10057 20052 30123 40171 51004 8657/ 333 86609 83399;
0223026800999992000112818004+56920+018150FM-12+003999999V0202001N003110087019N0100001N1+00671+00651101681ADDAA112000591AY161061AY221061GA1081+008709059GF108991081051008001999999KA1120M+00701MA1999999101201MD1810031+9999MW1021REMSYN094AAXX  28184 02680 11560 82006 10067 20065 30120 40168 58003 69952 70262 885// 333 10070 88629;
0143026800999992000112821004+56920+018150FM-12+003999999V0201901N004112200019N0400001N1+00631+00611101621ADDGA1001+999999999GF100991001001999999001001MA1999999101141MD1710061+9999REMSYN060AAXX  28214 02680 42982 01908 10063 20061 30114 40162 57006;
0195026800999992000112900004+56920+018150FM-12+003999999V0201701N004610300019N0300001N1+00641+00581101451ADDAA199000091GA1021+003909069GF108991021051004501011999MA1999999100971MD1810171+9999REMSYN082AAXX  29004 02680 32480 81709 10064 20058 30097 40145 58017 8251/ 333 82613 88499;EQDQ01  00002PRCP99
0187026800999992000112903004+56920+018150FM-12+003999999V0201701N004110054019N0250001N1+00651+00591101251ADDAY121031AY221031GA1081+005409059GF108991081051004501999999MA1999999100771MD1710201+9999MW1601REMSYN082AAXX  29034 02680 41475 81708 10065 20059 30077 40125 57020 76022 885// 333 88618;
0235026800999992000112906004+56920+018150FM-12+003999999V0201501N004610021019N0045001N1+00631+00611101051ADDAA112001091AY161061AY221061GA1081+002109069GF108991081071002501999999IA1099KA1120N+00631MA1999999100571MD1710201+9999MW1611REMSYN100AAXX  29064 02680 11345 81509 10063 20061 30057 40105 57020 60012 76162 887// 333 20063 31/// 88707;
0207026800999992000112909004+56920+018150FM-12+003999999V0201801N003110009019N0070001N1+00671+00661100981ADDAY161031AY261031GA1081+000909069GF108991081071000751999999MA1999999100501MD1610071+9999MW1601SA1+0789REMSYN094AAXX  29094 02680 41157 81806 10067 20066 30050 40098 56007 76066 887// 222// 00078 333 88703;
0204026800999992000112912004+56920+018150FM-12+003999999V0202601N002110003019N0050001N1+00821+00811100931ADDAA106001091AY161061AY251061GA1081+000309069GF108991081061000251999999MA1999999100461MD1610041+9999MW1281REMSYN088AAXX  29124 02680 11050 82604 10082 20081 30046 40093 56004 60011 72865 886// 333 88701;
0187026800999992000112915004+56920+018150FM-12+003999999V0202601N002110015019N0047001N1+00861+00851101061ADDAY121031AY221031GA1081+001509069GF108991081061001501999999MA1999999100591MD1310131+9999MW1101REMSYN082AAXX  29154 02680 41247 82604 10086 20085 30059 40106 53013 71022 886// 333 88792;
0223026800999992000112918004+56920+018150FM-12+003999999V0202501N001510033019N0048001N1+00871+00861101181ADDAA112001091AY121061AY221061GA1081+003309059GF108991081051004501999999KA1120M+00891MA1999999100711MD1210121+9999MW1101REMSYN094AAXX  29184 02680 11448 82503 10087 20086 30071 40118 52012 60012 71022 885// 333 10089 88611;
0171026800999992000112921004+56920+018150FM-12+003999999V0201801N000512200019N0001001N1+00751+00741101231ADDAY121031AY211031GA1001+999999999GF100991001001999999001001MA1999999100751MD1110041+9999MW1441REMSYN066AAXX  29214 02680 41901 01801 10075 20074 30075 40123 51004 74421;
0201026800999992000113000004+56920+018150FM-12+003999999V0201901N002110006019N0007001N1+00801+00791101231ADDAA199000091AY121061AY201061GA1091+999999999GF109991091999999999999999MA1999999100751MD1010001+9999MW1451REMSYN066AAXX  30004 02680 31/07 91904 10080 20079 30075 40123 50000 74520;EQDQ01  00002PRCP99
0187026800999992000113003004+56920+018150FM-12+003999999V0201801N002119999999N0012001N1+00781+00771101141ADDAY141031AY241031GA1071+999999079GF107991071001999999071999MA1999999100661MD1810091+9999MW1101REMSYN082AAXX  30034 02680 41912 71804 10078 20077 30066 40114 58009 71044 8707/ 333 87399;
0248026800999992000113006004+56920+018150FM-12+003999999V0202001N00311075001CN0050001N1+00781+00771101071ADDAA199000091AY141061AY241061GA1081+999999019GF108991081001999999021999IA1099KA1120N+00751MA1999999100591MD1710071+9999MW1101REMSYN094AAXX  30064 02680 31950 82006 10078 20077 30059 40107 57007 71044 8802/ 333 20075 31/// 88499;EQDQ01  00002PRCP99
0215026800999992000113009004+56920+018150FM-12+003999999V0202001N00361002501CN0070001N1+00801+00791101021ADDAY121031AY221031GA1061+002509079GA2061+025009039GF108991061061002501071999MA1999999100551MD1710041+9999MW1101REMSYN094AAXX  30094 02680 41357 82007 10080 20079 30055 40102 57004 71022 8667/ 333 86793 86399 88499;
0217026800999992000113012004+56920+018150FM-12+003999999V0202501N003610001519N0013001N1+00801+00791100911ADDAA199000091AY121061AY221061GA1081+000159069GF108991081061000251999999MA1999999100441MD1710111+9999MW1101REMSYN082AAXX  30124 02680 31013 82507 10080 20079 30044 40091 57011 71022 886// 333 88700;EQDQ01  00002PRCP99
0187026800999992000113015004+56920+018150FM-12+003999999V0202701N003610033019N0070001N1+00841+00821101081ADDAY121031AY221031GA1081+003309059GF108991081051004501999999MA1999999100611MD1310171+9999MW1101REMSYN082AAXX  30154 02680 41457 82707 10084 20082 30061 40108 53017 71022 885// 333 88611;
0196026800999992000113018004+56920+018150FM-12+003999999V0202501N004612200019N0250001N1+00841+00761101221ADDAA199000091GA1001+999999999GF100991001001999999001001KA1999M+00891MA1999999100751MD1210141+9999REMSYN070AAXX  30184 02680 32975 02509 10084 20076 30075 40122 52014 333 10089;EQDQ01  00002PRCP99
0189026800999992000120100004+56920+018150FM-12+003999999V0202501N004112200019N0350001N1+00731+00631101441ADDAA199000091GA1011+999999079GF101991011001999999031001MA1999999100961MD1110121+9999REMSYN076AAXX  01004 02680 32981 12508 10073 20063 30096 40144 51012 81030 333 81399;EQDQ01  00002PRCP99
0143026800999992000120103004+56920+018150FM-12+003999999V0202801N005112200019N0350001N1+00661+00411101501ADDGA1001+999999999GF100991001001999999001001MA1999999101021MD1110061+9999REMSYN060AAXX  01034 02680 42981 02810 10066 20041 30102 40150 51006;
0220026800999992000120106004+56920+018150FM-12+003999999V0202701N002612200019N0350001N1+00611+00441101601ADDAA199000091GA1011+999999079GF101991011001999999031001IA1099KA1120N+00611MA1999999101121MD1310101+9999REMSYN088AAXX  01064 02680 32981 12705 10061 20044 30112 40160 53010 81030 333 20061 31/// 81399;EQDQ01  00002PRCP99
0185026800999992000120109004+56920+018150FM-12+003999999V0202601N00361030001CN0350001N1+00521+00461101761ADDGA1021+004509069GF108991021051004501071071MA1999999101281MD1110161+9999SA1+0769REMSYN094AAXX  01094 02680 42481 82607 10052 20046 30128 40176 51016 82577 222// 00076 333 82694 88299;
0195026800999992000120112004+56920+018150FM-12+003999999V0202601N003619999999N0300001N1+00681+00501101731ADDAA199000091GA1031+025009039GF107991011001999999071071MA1999999101251MD1510031+9999REMSYN082AAXX  01124 02680 32980 72607 10068 20050 30125 40173 55003 81077 333 83399 87299;EQDQ01  00002PRCP99
0224026800999992000120118004+56920+018150FM-12+003999999V0202101N002610003019N0002001N1+00671+00661101711ADDAA199000091AY121061AY221061GA1091+999999999GF109991091999999999999999KA1999M+00741MA1999999101231MD1810031+9999MW1471REMSYN076AAXX  01184 02680 31/02 92105 10067 20066 30123 40171 58003 74722 333 10074;EQDQ01  00002PRCP99
0217026800999992000120200004+56920+018150FM-12+003999999V0201901N008210001519N0001001N1+00711+00711101571ADDAA199000091AY141061AY241061GA1091+999999999GF109991091999999999999999MA1999999101101MD1010942+9999MW1451REMSYN066AAXX  02004 02680 31/01 91916 10071 20071 30110 40157 50094 74544;EQDQ01+000942APC3  Q02  00002PRCP99
0187026800999992000120203004+56920+018150FM-12+003999999V0202101N003610009019N0015001N1+00701+00691101451ADDAY141031AY241031GA1081+000909069GF108991081061000751999999MA1999999100971MD1710131+9999MW1101REMSYN082AAXX  02034 02680 41115 82107 10070 20069 30097 40145 57013 71044 886// 333 88703;
0248026800999992000120206004+56920+018150FM-12+003999999V0202001N003610006019N0025001N1+00701+00691101371ADDAA199000091AY141061AY241061GA1081+000609069GF108991081061000751999999IA1099KA1120N+00671MA1999999100891MD1710081+9999MW1101REMSYN094AAXX  02064 02680 31125 82007 10070 20069 30089 40137 57008 71044 886// 333 20067 31/// 88702;EQDQ01  00002PRCP99
0187026800999992000120209004+56920+018150FM-12+003999999V0202101N003610007519N0040001N1+00711+00691101331ADDAY121031AY221031GA1081+000759069GF108991081061000751999999MA1999999100851MD1710041+9999MW1101REMSYN082AAXX  02094 02680 41140 82107 10071 20069 30085 40133 57004 71022 886// 333 88791;
0217026800999992000120212004+56920+018150FM-12+003999999V0202301N003110007519N0037001N1+00771+00761101311ADDAA199000091AY121061AY221061GA1081+000759069GF108991081061000751999999MA1999999100831MD1710021+9999MW1101REMSYN082AAXX  02124 02680 31137 82306 10077 20076 30083 40131 57002 71022 886// 333 88791;EQDQ01  00002PRCP99
0187026800999992000120215004+56920+018150FM-12+003999999V0202401N003110007519N0030001N1+00771+00751101341ADDAY121031AY221031GA1081+000759069GF108991081061000751999999MA1999999100861MD1310011+9999MW1211REMSYN082AAXX  02154 02680 41130 82406 10077 20075 30086 40134 53001 72122 886// 333 88791;
0211026800999992000120218004+56920+018150FM-12+003999999V0202701N002112200019N0300001N1+00771+00751101391ADDAA112000791AY161061AY221061GA1001+999999999GF100991001001999999001001KA1999M+00791MA1999999100991MD1110131+9999MW1101REMSYN082AAXX  02184 02680 11180 02704 10077 20075 30099 40139 51013 69902 71062 333 10079;
0171026800999992000120221004+56920+018150FM-12+003999999V0202501N003112200019N0040001N1+00791+00771101561ADDAY101031AY221031GA1001+999999999GF100991001001999999001001MA1999999101081MD1210091+9999MW1101REMSYN066AAXX  02214 02680 41940 02506 10079 20077 30108 40156 52009 71002;
0154026800999992000120300004+56920+018150FM-12+003999999V0202601N002112200019N0300001N1+00771+00751101661ADDAA199000021GA1001+999999999GF100991001001999999001001MA1999999101181MD1210101+9999REMSYN060AAXX  03004 02680 32980 02604 10077 20075 30118 40166 52010;
0143026800999992000120303004+56920+018150FM-12+003999999V0202601N001512200019N0300001N1+00701+00681101671ADDGA1001+999999999GF100991001001999999001001MA1999999101191MD1310011+9999REMSYN060AAXX  03034 02680 42980 02603 10070 20068 30119 40167 53001;
0236026800999992000120306004+56920+018150FM-12+003999999V0202301N001010001519N0001001N1+00631+00611101751ADDAA199000091AY101061AY201061GA1091+999999999GF109991091999999999999999IA1099KA1120N+00621MA1999999101271MD1210081+9999MW1451REMSYN082AAXX  03064 02680 31/01 92302 10063 20061 30127 40175 52008 74500 333 20062 31///;EQDQ01  00002PRCP99
0171026800999992000120309004+56920+018150FM-12+003999999V0202301N002610001519N0001001N1+00671+00651101791ADDAY141031AY241031GA1091+999999999GF109991091999999999999999MA1999999101311MD1110041+9999MW1451REMSYN066AAXX  03094 02680 41/01 92305 10067 20065 30131 40179 51004 74544;
0201026800999992000120312004+56920+018150FM-12+003999999V0202101N003110001519N0001001N1+00711+00691101731ADDAA199000091AY141061AY221061GA1091+999999999GF109991091999999999999999MA1999999101251MD1810061+9999MW1451REMSYN066AAXX  03124 02680 31/01 92106 10071 20069 30125 40173 58006 74542;EQDQ01  00002PRCP99
0171026800999992000120315004+56920+018150FM-12+003999999V0201901N002110001519N0001001N1+00741+00721101641ADDAY141031AY241031GA1091+999999999GF109991091999999999999999MA1999999101161MD1610091+9999MW1451REMSYN066AAXX  03154 02680 41/01 91904 10074 20072 30116 40164 56009 74544;
0224026800999992000120318004+56920+018150FM-12+003999999V0201901N002110001519N0001001N1+00751+00731101571ADDAA199000091AY141061AY241061GA1091+999999999GF109991091999999999999999KA1999M+00751MA1999999101091MD1810071+9999MW1451REMSYN076AAXX  03184 02680 31/01 91904 10075 20073 30109 40157 58007 74544 333 10075;EQDQ01  00002PRCP99
0171026800999992000120321004+56920+018150FM-12+003999999V0201901N003110001519N0001001N1+00781+00761101461ADDAY141031AY241031GA1091+999999999GF109991091999999999999999MA1999999100981MD1710111+9999MW1451REMSYN066AAXX  03214 02680 41/01 91906 10078 20076 30098 40146 57011 74544;
0217026800999992000120400004+56920+018150FM-12+003999999V0202001N003110018019N0045001N1+00771+00751101301ADDAA199000091AY141061AY241061GA1081+001809069GF108991081061001501999999MA1999999100821MD1710161+9999MW1101REMSYN082AAXX  04004 02680 31245 82006 10077 20075 30082 40130 57016 71044 886// 333 88706;EQDQ01  00002PRCP99
0187026800999992000120403004+56920+018150FM-12+003999999V0202101N003610015019N0040001N1+00771+00751101211ADDAY121031AY221031GA1081+001509069GF108991081061001501999999MA1999999100731MD1710091+9999MW1101REMSYN082AAXX  04034 02680 41240 82107 10077 20075 30073 40121 57009 71022 886// 333 88705;
0254026800999992000120406004+56920+018150FM-12+003999999V0202401N00311000601CN0030001N1+00781+00761101191ADDAA199000091AY121061AY221061GA1041+000909079GF108991081061000751999999IA1099KA1120N+00751MA1999999100711MD1610021+9999MW1101REMSYN100AAXX  04064 02680 31130 82406 10078 20076 30071 40119 56002 71022 886// 333 20075 31/// 84703 88706;EQDQ01  00002PRCP99
0239026800999992000120412004+56920+018150FM-12+003999999V0202701N004110225019N0600001N1+00771+00641101411ADDAA106000591AY161061AY221061GA1081+022509079GF199999081999022501071999MA1999999100931MD1110101+9999MW1021REMSYN088AAXX  04124 02680 11886 72708 10077 20064 30093 40141 51010 69941 70262 8807/ 333 88398;EQDQ01+000072SCOTCVQ02+000002SCOLCG
0178026800999992000120415004+56920+018150FM-12+003999999V0202801N003610225019N0400001N1+00761+00431101611ADDGA1071+022509079GF107991071999022501071999MA1999999101131MD1310201+9999REMSYN076AAXX  04154 02680 42882 72807 10076 20043 30113 40161 53020 8707/ 333 87398;EQDQ01+000002SCOLCG
0195026800999992000120418004+56920+018150FM-12+003999999V0202701N002110087019N0450001N1+00731+00321101701ADDAA112000591GA1081+008709059GF108991081051008001999999KA1120M+00801MA1999999101221MD1210091+9999REMSYN088AAXX  04184 02680 12583 82704 10073 20032 30122 40170 52009 69942 885// 333 10080 88629;
0159026800999992000120421004+56920+018150FM-12+003999999V0202501N003112200019N0450001N1+00631+00381101791ADDGA1021+008009059GF102991021051008001001001MA1999999101311MD1110091+9999REMSYN076AAXX  04214 02680 42583 22506 10063 20038 30131 40179 51009 82500 333 82695;
0189026800999992000120500004+56920+018150FM-12+003999999V0202201N003610063019N0400001N1+00651+00291101811ADDAA199000091GA1081+006309059GF108991081051008001999999MA1999999101331MD1010021+9999REMSYN076AAXX  05004 02680 32582 82207 10065 20029 30133 40181 50002 885// 333 88621;EQDQ01  00002PRCP99
0159026800999992000120503004+56920+018150FM-12+003999999V0202101N004110042019N0400001N1+00631+00401101801ADDGA1071+004209059GF107991071051004501999999MA1999999101321MD1710011+9999REMSYN076AAXX  05034 02680 42482 72108 10063 20040 30132 40180 57001 875// 333 87614;
0220026800999992000120506004+56920+018150FM-12+003999999V0202001N004110033019N0350001N1+00671+00521101771ADDAA199000091GA1081+003309059GF108991081051004501999999IA1019KA1120N+00601MA1999999101291MD1710031+9999REMSYN088AAXX  05064 02680 32481 82008 10067 20052 30129 40177 57003 885// 333 20060 30/// 88611;EQDQ01  00002PRCP99
0159026800999992000120509004+56920+018150FM-12+003999999V0201901N003610045019N0250001N1+00721+00621101771ADDGA1081+004509059GF108991081051004501999999MA1999999101291MD1010001+9999REMSYN076AAXX  05094 02680 42475 81907 10072 20062 30129 40177 50000 885// 333 88694;
0204026800999992000120512004+56920+018150FM-12+003999999V0202301N004110025019N0200001N1+00731+00621101821ADDAA106000791AY161061AY221061GA1081+002509069GF108991081061002501999999MA1999999101341MD1310051+9999MW1021REMSYN088AAXX  05124 02680 11370 82308 10073 20062 30134 40182 53005 69901 70262 886// 333 88793;
0187026800999992000120515004+56920+018150FM-12+003999999V0202501N003110018019N0040001N1+00731+00701101901ADDAY161031AY221031GA1081+001809069GF108991081061001501999999MA1999999101421MD1310081+9999MW1021REMSYN082AAXX  05154 02680 41240 82506 10073 20070 30142 40190 53008 70262 886// 333 88706;
0223026800999992000120518004+56920+018150FM-12+003999999V0202101N002610045019N0040001N1+00731+00711101941ADDAA112000791AY161061AY221061GA1081+004509059GF108991081051004501999999KA1120M+00731MA1999999101461MD1310041+9999MW1101REMSYN094AAXX  05184 02680 11440 82105 10073 20071 30146 40194 53004 69902 71062 885// 333 10073 88694;
0187026800999992000120521004+56920+018150FM-12+003999999V0202001N002610054019N0040001N1+00751+00731102001ADDAY121031AY221031GA1081+005409059GF108991081051004501999999MA1999999101521MD1110061+9999MW1101REMSYN082AAXX  05214 02680 41440 82005 10075 20073 30152 40200 51006 71022 885// 333 88618;
0223026800999992000120600004+56920+018150FM-12+003999999V0202101N00261000601CN0030001N1+00741+00721102061ADDAA199000091AY121061AY221061GA1041+000909079GF108991081051000751999999MA1999999101581MD1210061+9999MW1101REMSYN088AAXX  06004 02680 31130 82105 10074 20072 30158 40206 52006 71022 885// 333 84703 88616;EQDQ01  00002PRCP99
0187026800999992000120603004+56920+018150FM-12+003999999V0201901N003110051019N0030001N1+00731+00711102001ADDAY121031AY221031GA1081+005109059GF108991081051004501999999MA1999999101521MD1810061+9999MW1101REMSYN082AAXX  06034 02680 41430 81906 10073 20071 30152 40200 58006 71022 885// 333 88617;
0220026800999992000120606004+56920+018150FM-12+003999999V0201901N004110042019N0250001N1+00731+00541101981ADDAA199000091GA1081+004209059GF108991081051004501999999IA1019KA1120N+00731MA1999999101501MD1610021+9999REMSYN088AAXX  06064 02680 32475 81908 10073 20054 30150 40198 56002 885// 333 20073 30/// 88614;EQDQ01  00002PRCP99
0179026800999992000120609004+56920+018150FM-12+003999999V0201801N004110045019N0230001N1+00741+00711101881ADDGA1081+004509059GF108991081051004501999999MA1999999101401MD1810101+9999SA1+0769REMSYN088AAXX  06094 02680 42473 81808 10074 20071 30140 40188 58010 885// 222// 00076 333 88694;
0189026800999992000120612004+56920+018150FM-12+003999999V0201901N004110045019N0200001N1+00701+00651101901ADDAA199000091GA1081+004509059GF108991081051004501999999MA1999999101421MD1610021+9999REMSYN076AAXX  06124 02680 32470 81908 10070 20065 30142 40190 56002 885// 333 88694;EQDQ01  00002PRCP99
0187026800999992000120615004+56920+018150FM-12+003999999V0201901N004110009019N0040001N1+00771+00721101851ADDAY121031AY221031GA1081+000909069GF108991081061002501999999MA1999999101371MD1710051+9999MW1101REMSYN082AAXX  06154 02680 41340 81908 10077 20072 30137 40185 57005 71022 886// 333 88703;
0236026800999992000120618004+56920+018150FM-12+003999999V0201801N004110012019N0030001N1+00601+00581101821ADDAA199000091AY121061AY221061GA1081+001209069GF108991081061001501999999KA1120M+00771MA1999999101341MD1710031+9999MW1101REMSYN088AAXX  06184 02680 31230 81808 10060 20058 30134 40182 57003 71022 886// 333 10077 88704;EQDQ01  00002PRCP99
0187026800999992000120621004+56920+018150FM-12+003999999V0201701N004110012019N0030001N1+00601+00581101791ADDAY121031AY221031GA1081+001209069GF108991081061001501999999MA1999999101311MD1710031+9999MW1101REMSYN082AAXX  06214 02680 41230 81708 10060 20058 30131 40179 57003 71022 886// 333 88704;
0217026800999992000120700004+56920+018150FM-12+003999999V0201901N004110015019N0030001N1+00551+00531101681ADDAA199000091AY121061AY221061GA1081+001509069GF108991081061001501999999MA1999999101201MD1810111+9999MW1101REMSYN082AAXX  07004 02680 31230 81908 10055 20053 30120 40168 58011 71022 886// 333 88705;EQDQ01  00002PRCP99
0187026800999992000120703004+56920+018150FM-12+003999999V0201701N003110012019N0030001N1+00541+00521101581ADDAY121031AY221031GA1081+001209069GF108991081061001501999999MA1999999101101MD1810101+9999MW1101REMSYN082AAXX  07034 02680 41230 81706 10054 20052 30110 40158 58010 71022 886// 333 88704;
0248026800999992000120706004+56920+018150FM-12+003999999V0201701N003610021019N0040001N1+00591+00511101431ADDAA199000091AY121061AY221061GA1081+002109069GF108991081061002501999999IA1019KA1120N+00531MA1999999100951MD1610151+9999MW1101REMSYN094AAXX  07064 02680 31340 81707 10059 20051 30095 40143 56015 71022 886// 333 20053 30/// 88707;EQDQ01  00002PRCP99
0159026800999992000120709004+56920+018150FM-12+003999999V0202001N003610045019N0150001N1+00681+00411101341ADDGA1081+004509059GF108991081051004501999999MA1999999100861MD1610091+9999REMSYN076AAXX  07094 02680 42465 82007 10068 20041 30086 40134 56009 885// 333 88694;
0217026800999992000120712004+56920+018150FM-12+003999999V0201901N004610025019N0047001N1+00651+00561101271ADDAA199000091AY121061AY221061GA1081+002509069GF108991081061002501999999MA1999999100791MD1710071+9999MW1101REMSYN082AAXX  07124 02680 31347 81909 10065 20056 30079 40127 57007 71022 886// 333 88793;EQDQ01  00002PRCP99
0161026800999992000120715004+56920+018150FM-12+003999999V0202201N004119999999N0002001N1+00701+00681101221ADDAY121031AY221031GF108991081999999999999999MA1999999100741MD1710051+9999MW1451REMSYN072AAXX  07154 02680 41/02 82208 10070 20068 30074 40122 57005 74522 88///;
0223026800999992000120718004+56920+018150FM-12+003999999V0202101N003610012019N0030001N1+00731+00711101241ADDAA112000791AY141061AY221061GA1081+001209069GF108991081061001501999999KA1120M+00731MA1999999100761MD1310021+9999MW1101REMSYN094AAXX  07184 02680 11230 82107 10073 20071 30076 40124 53002 69902 71042 886// 333 10073 88704;
0187026800999992000120721004+56920+018150FM-12+003999999V0202101N004110009019N0025001N1+00731+00711101291ADDAY121031AY221031GA1081+000909069GF108991081061000751999999MA1999999100811MD1110051+9999MW1101REMSYN082AAXX  07214 02680 41125 82108 10073 20071 30081 40129 51005 71022 886// 333 88703;
0217026800999992000120800004+56920+018150FM-12+003999999V0202001N004110012019N0030001N1+00671+00651101251ADDAA199000091AY121061AY221061GA1081+001209069GF108991081061001501999999MA1999999100771MD1810041+9999MW1101REMSYN082AAXX  08004 02680 31230 82008 10067 20065 30077 40125 58004 71022 886// 333 88704;EQDQ01  00002PRCP99
0187026800999992000120803004+56920+018150FM-12+003999999V0201901N004110003019N0011001N1+00651+00631101191ADDAY121031AY221031GA1081+000309069GF108991081061000251999999MA1999999100711MD1810061+9999MW1101REMSYN082AAXX  08034 02680 41011 81908 10065 20063 30071 40119 58006 71022 886// 333 88701;
0217026800999992000120804004+56920+018150FM-12+003999999V0201501N003610025019N0060001N1+00631+00571100821ADDAA199000091AY121999AY221999GA1081+002509069GF108991081061002501999999MA1999999100351MD1710151+9999MW1101REMSYN082AAXX  08044 02680 31356 81507 10063 20057 30035 40082 57015 71022 886// 333 88793;EQDQ01  00002PRCP99
0248026800999992000120806004+56920+018150FM-12+003999999V0201701N003610012019N0030001N1+00671+00651101061ADDAA199000091AY121061AY221061GA1081+001209069GF108991081061001501999999IA1099KA1120N+00651MA1999999100581MD1610131+9999MW1101REMSYN094AAXX  08064 02680 31230 81707 10067 20065 30058 40106 56013 71022 886// 333 20065 31/// 88704;EQDQ01  00002PRCP99
0207026800999992000120809004+56920+018150FM-12+003999999V0201701N003610025019N0050001N1+00621+00611100981ADDAY121031AY221031GA1081+002509069GF108991081061002501999999MA1999999100501MD1810081+9999MW1101SA1+0769REMSYN094AAXX  08094 02680 41350 81707 10062 20061 30050 40098 58008 71022 886// 222// 00076 333 88793;
0217026800999992000120812004+56920+018150FM-12+003999999V0201501N003610025019N0060001N1+00631+00571100821ADDAA199000091AY121061AY221061GA1081+002509069GF108991081061002501999999MA1999999100351MD1710151+9999MW1101REMSYN082AAXX  08124 02680 31356 81507 10063 20057 30035 40082 57015 71022 886// 333 88793;EQDQ01  00002PRCP99
0187026800999992000120815004+56920+018150FM-12+003999999V0201701N003110021019N0060001N1+00661+00591100691ADDAY121031AY221031GA1081+002109069GF108991081071002501999999MA1999999100221MD1610131+9999MW1601REMSYN082AAXX  08154 02680 41356 81706 10066 20059 30022 40069 56013 76022 887// 333 88707;
0229026800999992000120818004+56920+018150FM-12+003999999V0201701N00411001201CN0050001N1+00651+00621100621ADDAA112000791AY161061AY221061GA1011+001809079GF108991081071001501999999KA1120M+00681MA1999999100151MD1810071+9999MW1631REMSYN100AAXX  08184 02680 11250 81708 10065 20062 30015 40062 58007 69902 76362 887// 333 10068 81706 88707;
0187026800999992000120821004+56920+018150FM-12+003999999V0202001N003610009019N0050001N1+00681+00671100571ADDAY161031AY261031GA1081+000909069GF108991081071000751999999MA1999999100101MD1610051+9999MW1631REMSYN082AAXX  08214 02680 41150 82007 10068 20067 30010 40057 56005 76366 887// 333 88703;
0204026800999992000120900004+56920+018150FM-12+003999999V0202401N003610018019N0050001N1+00751+00741100651ADDAA106004191AY161061AY261061GA1081+001809069GF108991081071001501999999MA1999999100181MD1210081+9999MW1101REMSYN088AAXX  09004 02680 11250 82407 10075 20074 30018 40065 52008 60041 71066 887// 333 88706;
0187026800999992000120903004+56920+018150FM-12+003999999V0202501N003110006019N0025001N1+00751+00741100751ADDAY121031AY221031GA1081+000609069GF108991081061000751999999MA1999999100281MD1210101+9999MW1101REMSYN082AAXX  09034 02680 41125 82506 10075 20074 30028 40075 52010 71022 886// 333 88702;
0223026800999992000120906004+56920+018150FM-12+003999999V0202301N002110001519N0001001N1+00681+00671100851ADDAA112004191AY121061AY221061GA1091+999999999GF109991091999999999999999IA1099KA1120N+00651MA1999999100381MD1210101+9999MW1451REMSYN088AAXX  09064 02680 11/01 92304 10068 20067 30038 40085 52010 60042 74522 333 20065 31///;
0187026800999992000120909004+56920+018150FM-12+003999999V0202401N002112200019N0200001N1+00761+00751100991ADDAY141031AY241031GA1011+999999019GF101991001001999999001011MA1999999100521MD1210141+9999MW1021REMSYN082AAXX  09094 02680 41970 12404 10076 20075 30052 40099 52014 70244 80001 333 81099;
0217026800999992000120912004+56920+018150FM-12+003999999V0202201N002612200019N0200001N1+00821+00811101001ADDAA199000091AY141061AY241061GA1011+999999079GF101991011001999999071041MA1999999100541MD1110021+9999MW1031REMSYN082AAXX  09124 02680 31970 12205 10082 20081 30054 40100 51002 70344 81074 333 81399;EQDQ01  00002PRCP99
0187026800999992000120915004+56920+018150FM-12+003999999V0202201N003112200019N0050001N1+00741+00731101001ADDAY101031AY201031GA1021+002509069GF102991021061002501031001MA1999999100531MD1710011+9999MW1101REMSYN082AAXX  09154 02680 41350 22206 10074 20073 30053 40100 57001 71000 82630 333 82793;
0236026800999992000120918004+56920+018150FM-12+003999999V0202101N003112200019N0060001N1+00721+00711101031ADDAA199000091AY101061AY201061GA1021+001209069GF102991021061001501001001KA1120M+00881MA1999999100551MD1210021+9999MW1101REMSYN088AAXX  09184 02680 31256 22106 10072 20071 30055 40103 52002 71000 82600 333 10088 82704;EQDQ01  00002PRCP99
0159026800999992000120921004+56920+018150FM-12+003999999V0202301N003110009019N0120001N1+00751+00741101051ADDGA1081+000909069GF108991081061001501999999MA1999999100571MD1110021+9999REMSYN076AAXX  09214 02680 42262 82306 10075 20074 30057 40105 51002 886// 333 88703;
0187026800999992000121003004+56920+018150FM-12+003999999V0202301N003610006019N0060001N1+00701+00691101081ADDAY121031AY221031GA1081+000609069GF108991081061000751999999MA1999999100601MD1210011+9999MW1101REMSYN082AAXX  10034 02680 41156 82307 10070 20069 30060 40108 52001 71022 886// 333 88702;
0248026800999992000121006004+56920+018150FM-12+003999999V0202301N003610006019N0050001N1+00721+00711101091ADDAA199000091AY121061AY221061GA1081+000609069GF108991081061000751999999IA1099KA1120N+00691MA1999999100611MD1210011+9999MW1101REMSYN094AAXX  10064 02680 31150 82307 10072 20071 30061 40109 52001 71022 886// 333 20069 31/// 88702;EQDQ01  00002PRCP99
0189026800999992000121012004+56920+018150FM-12+003999999V0202301N004110045019N0220001N1+00741+00731101021ADDAA199000091GA1081+004509059GF108991081051004501999999MA1999999100541MD1510081+9999REMSYN076AAXX  10124 02680 32472 82308 10074 20073 30054 40102 55008 885// 333 88694;EQDQ01  00002PRCP99
0159026800999992000121015004+56920+018150FM-12+003999999V0202301N002610018019N0250001N1+00731+00721101001ADDGA1081+001809069GF108991081061001501999999MA1999999100521MD1710021+9999REMSYN076AAXX  10154 02680 42275 82305 10073 20072 30052 40100 57002 886// 333 88706;
0208026800999992000121018004+56920+018150FM-12+003999999V0202101N003610015019N0160001N1+00721+00711100951ADDAA199000091GA1081+001509069GF108991081061001501999999KA1120M+00791MA1999999100471MD1610051+9999REMSYN082AAXX  10184 02680 32266 82107 10072 20071 30047 40095 56005 886// 333 10079 88705;EQDQ01  00002PRCP99
0159026800999992000121021004+56920+018150FM-12+003999999V0202001N003110018019N0150001N1+00721+00691100901ADDGA1081+001809069GF108991081061002501999999MA1999999100421MD1710051+9999REMSYN076AAXX  10214 02680 42365 82006 10072 20069 30042 40090 57005 886// 333 88706;
0189026800999992000121100004+56920+018150FM-12+003999999V0201901N003110021019N0250001N1+00671+00581100831ADDAA199000091GA1081+002109069GF108991081061002501999999MA1999999100361MD1810061+9999REMSYN076AAXX  11004 02680 32375 81906 10067 20058 30036 40083 58006 886// 333 88707;EQDQ01  00002PRCP99
0159026800999992000121103004+56920+018150FM-12+003999999V0202001N004110054019N0260001N1+00701+00491100801ADDGA1081+005409059GF108991081051004501999999MA1999999100331MD1710031+9999REMSYN076AAXX  11034 02680 42476 82008 10070 20049 30033 40080 57003 885// 333 88618;
0235026800999992000121106004+56920+018150FM-12+003999999V0201901N003610018019N0050001N1+00721+00711100821ADDAA112000791AY121061AY221061GA1081+001809069GF108991081071001501999999IA1099KA1120N+00671MA1999999100351MD1310021+9999MW1531REMSYN100AAXX  11064 02680 11250 81907 10072 20071 30035 40082 53002 69902 75322 887// 333 20067 31/// 88706;
0207026800999992000121109004+56920+018150FM-12+003999999V0202301N003112200019N0300001N1+00731+00721100961ADDAY151031AY251031GA1011+001509069GF103991011061001501031021MA1999999100481MD1210131+9999MW1011SA1+0769REMSYN094AAXX  11094 02680 41280 32306 10073 20072 30048 40096 52013 70155 81632 222// 00076 333 81792;
0204026800999992000121112004+56920+018150FM-12+003999999V0202301N003112200019N0200001N1+00781+00701100991ADDAA106000791AY151061AY251061GA1011+999999079GF102991021001999999071001MA1999999100511MD1310031+9999MW1021REMSYN088AAXX  11124 02680 11970 22306 10078 20070 30051 40099 53003 69901 70255 82070 333 81399;
0215026800999992000121115004+56920+018150FM-12+003999999V0202201N00411002501CN0060001N1+00751+00741100941ADDAY111031AY201031GA1071+002509069GA2061+025009039GF108991071061002501071999MA1999999100461MD1810051+9999MW1101REMSYN094AAXX  11154 02680 41356 82208 10075 20074 30046 40094 58005 71010 8767/ 333 87693 86399 88499;
0229026800999992000121118004+56920+018150FM-12+003999999V0202301N004610021019N0100001N1+00731+00721100811ADDAA112001091AY121061AY201061GA1011+002509079GF108991081051002501999999KA1120M+00801MA1999999100331MD1710131+9999MW1631REMSYN100AAXX  11184 02680 11360 82309 10073 20072 30033 40081 57013 69992 76320 885// 333 10080 81793 88637;
0193026800999992000121121004+56920+018150FM-12+003999999V0202301N00571001201CN0150001N1+00821+00791100541ADDAY161031AY261031GA1011+001209079GF107991071051001501999999MA1999999100071MD1610261+9999MW1011REMSYN088AAXX  11214 02680 41265 72311 10082 20079 30007 40054 56026 70166 875// 333 81704 87649;
0210026800999992000121200004+56920+018150FM-12+003999999V0202501N005719999999N0200001N1+00861+00771100541ADDAA106001091AY161061AY261061GA1041+025009039GF107991071001999999071999MA1999999100081MD1210011+9999MW1021REMSYN094AAXX  12004 02680 11970 72511 10086 20077 30008 40054 52001 60011 70266 8707/ 333 84399 87499;
0159026800999992000121203004+56920+018150FM-12+003999999V0202501N005112200019N0300001N1+00821+00581100641ADDGA1031+009909059GF103991031051008001001001MA1999999100181MD1210101+9999REMSYN076AAXX  12034 02680 42580 32510 10082 20058 30018 40064 52010 83500 333 83633;
0207026800999992000121206004+56920+018150FM-12+003999999V0202601N004112200019N0500001N1+00771+00281100831ADDAA112001091GA1021+999999079GF102991021001999999071011IA1019KA1120N+00731MA1999999100361MD1210181+9999REMSYN094AAXX  12064 02680 12984 22608 10077 20028 30036 40083 52018 60012 82071 333 20073 30/// 82399;
0159026800999992000121209004+56920+018150FM-12+003999999V0202701N003112200019N0500001N1+00741+00391101061ADDGA1011+999999079GF102991011001999999031021MA1999999100581MD1210221+9999REMSYN076AAXX  12094 02680 42984 22706 10074 20039 30058 40106 52022 81032 333 81399;
0189026800999992000121212004+56920+018150FM-12+003999999V0202601N002112200019N0550001N1+00791+00391101151ADDAA199000091GA1041+999999019GF104991001001999999001021MA1999999100671MD1110091+9999REMSYN076AAXX  12124 02680 32985 42604 10079 20039 30067 40115 51009 80002 333 84099;EQDQ01  00002PRCP99
0159026800999992000121215004+56920+018150FM-12+003999999V0202401N002112200019N0450001N1+00591+00531101191ADDGA1011+999999079GF101991011001999999031011MA1999999100711MD1110041+9999REMSYN076AAXX  12154 02680 42983 12404 10059 20053 30071 40119 51004 81031 333 81399;
0208026800999992000121218004+56920+018150FM-12+003999999V0202101N002110051019N0300001N1+00701+00681101131ADDAA199000091GA1081+005109059GF108991081051004501999999KA1120M+00801MA1999999100651MD1510061+9999REMSYN082AAXX  12184 02680 32480 82104 10070 20068 30065 40113 55006 885// 333 10080 88617;EQDQ01  00002PRCP99
0193026800999992000121221004+56920+018150FM-12+003999999V0202101N00361000601CN0100001N1+00811+00791100961ADDAY121031AY221031GA1021+000909079GF108991081051000751999999MA1999999100481MD1810171+9999MW1611REMSYN088AAXX  12214 02680 41160 82107 10081 20079 30048 40096 58017 76122 885// 333 82703 88613;
0171026800999992000121303004+56920+018150FM-12+003999999V0202001N003110001519N0001001N1+00811+00791100621ADDAY121031AY221031GA1091+999999999GF109991091999999999999999MA1999999100141MD1710191+9999MW1451REMSYN066AAXX  13034 02680 41/01 92006 10081 20079 30014 40062 57019 74522;
0213026800999992000121306004+56920+018150FM-12+003999999V0201801N003119999999N0001001N1+00821+00801100231ADDAA112002091AY161061AY241061GF108991081999999999999999IA1099KA1120N+00701MA1999999099771MD1810371+9999MW1581REMSYN094AAXX  13064 02680 11/01 81806 10082 20080 39977 40023 58037 60022 75864 88/// 333 20070 31///;
0207026800999992000121309004+56920+018150FM-12+003999999V0202001N004610015019N0048001N1+00851+00841099911ADDAY151031AY251031GA1081+001509069GF108991081071001501999999MA1999999099451MD1710321+9999MW1631SA1+0849REMSYN094AAXX  13094 02680 41248 82009 10085 20084 39945 49991 57032 76355 887// 222// 00084 333 88792;
0204026800999992000121312004+56920+018150FM-12+003999999V0202101N005710015019N0050001N1+00811+00801099611ADDAA106006191AY151061AY251061GA1081+001509069GF108991081071001501999999MA1999999099151MD1710301+9999MW1631REMSYN088AAXX  13124 02680 11250 82111 10081 20080 39915 49961 57030 60061 76355 887// 333 88792;
0187026800999992000121315004+56920+018150FM-12+003999999V0202201N005712200019N0300001N1+00801+00711099471ADDAY161031AY261031GA1011+999999079GF101991011001999999071001MA1999999099011MD1610141+9999MW1021REMSYN082AAXX  13154 02680 41980 12211 10080 20071 39901 49947 56014 70266 81070 333 81399;
0242026800999992000121318004+56920+018150FM-12+003999999V0202301N006212200019N0350001N1+00801+00471099461ADDAA112006191AY161061AY261061GA1041+999999079GF104991999001999999071001KA1120M+00881MA1999999099001MD1510011+9999MW1011REMSYN094AAXX  13184 02680 11981 42312 10080 20047 39900 49946 55001 60062 70166 87070 333 10088 84399;EQDQ01+000072SCOTLC
0159026800999992000121321004+56920+018150FM-12+003999999V0202401N006212200019N0350001N1+00761+00271099551ADDGA1011+999999079GF101991011001999999071001MA1999999099081MD1110081+9999REMSYN076AAXX  13214 02680 42981 12412 10076 20027 39908 49955 51008 81070 333 81399;
0170026800999992000121400004+56920+018150FM-12+003999999V0202201N005112200019N0400001N1+00711+00651099551ADDAA199000021GA1011+999999079GF101991011001999999031001MA1999999099071MD1710011+9999REMSYN076AAXX  14004 02680 32982 12210 10071 20065 39907 49955 57001 81030 333 81399;
0159026800999992000121403004+56920+018150FM-12+003999999V0202201N004612200019N0450001N1+00691+00591099401ADDGA1011+999999079GF101991011001999999031001MA1999999098931MD1810141+9999REMSYN076AAXX  14034 02680 42983 12209 10069 20059 39893 49940 58014 81030 333 81399;
0235026800999992000121406004+56920+018150FM-12+003999999V0202201N005110087019N0100001N1+00701+00691099161ADDAA112001091AY111061AY201061GA1081+008709059GF108991081051008001999999IA1099KA1120N+00651MA1999999098691MD1810241+9999MW1621REMSYN100AAXX  14064 02680 11560 82210 10070 20069 39869 49916 58024 60012 76210 885// 333 20065 31/// 88629;
0193026800999992000121409004+56920+018150FM-12+003999999V0202501N00411030001CN0450001N1+00691+00661099071ADDAY161031AY221031GA1011+004509089GF107991021081004501091999MA1999999098601MD1510091+9999MW1601REMSYN088AAXX  14094 02680 41483 72508 10069 20066 39860 49907 55009 76062 8289/ 333 81894 87399;
0210026800999992000121412004+56920+018150FM-12+003999999V0202401N00571030001CN0650001N1+00661+00461099201ADDAA106001091AY161061AY221061GA1011+004509089GF106991011011004501071081MA1999999098731MD1110131+9999MW1601REMSYN094AAXX  14124 02680 11487 62411 10066 20046 39873 49920 51013 60011 76062 81178 333 81894 84599;
0193026800999992000121415004+56920+018150FM-12+003999999V0202401N004610300019N0300001N1+00641+00321099251ADDAY161031AY261031GA1011+004509089GF105991011081004501071001MA1999999098781MD1210051+9999MW1021REMSYN088AAXX  14154 02680 41480 52409 10064 20032 39878 49925 52005 70266 81870 333 81894 83399;
0223026800999992000121418004+56920+018150FM-12+003999999V0202301N005112200019N0300001N1+00671+00401099191ADDAA112001091AY161061AY261061GA1021+999999079GF102991021001999999071001KA1120M+00751MA1999999098721MD1810061+9999MW1011REMSYN094AAXX  14184 02680 11980 22310 10067 20040 39872 49919 58006 60012 70166 82070 333 10075 82399;
0159026800999992000121421004+56920+018150FM-12+003999999V0202301N006712200019N0400001N1+00681+00311099181ADDGA1011+999999079GF101991011001999999031001MA1999999098711MD1710011+9999REMSYN076AAXX  14214 02680 42982 12313 10068 20031 39871 49918 57001 81030 333 81399;
0170026800999992000121500004+56920+018150FM-12+003999999V0202301N005110099019N0400001N1+00701+00251099151ADDAA199000021GA1081+009909059GF108991081051008001999999MA1999999098681MD1710031+9999REMSYN076AAXX  15004 02680 32582 82310 10070 20025 39868 49915 57003 885// 333 88633;
0159026800999992000121503004+56920+018150FM-12+003999999V0202201N006710045019N0400001N1+00651+00331099071ADDGA1081+004509059GF108991081051004501999999MA1999999098601MD1710081+9999REMSYN076AAXX  15034 02680 42482 82213 10065 20033 39860 49907 57008 885// 333 88615;
0220026800999992000121506004+56920+018150FM-12+003999999V0202101N005110141019N0350001N1+00651+00281098971ADDAA199000091GA1071+014109059GF107991071051012501999999IA1019KA1120N+00631MA1999999098501MD1710101+9999REMSYN088AAXX  15064 02680 32681 72110 10065 20028 39850 49897 57010 875// 333 20063 30/// 87647;EQDQ01  00002PRCP99
0235026800999992000121509004+56920+018150FM-12+003999999V0202101N00571012501CN0300001N1+00681+00421098951ADDAY121031AY221031GA1021+004509089GA2061+012509069GF107991061081004501071999MA1999999098481MD1610021+9999MW1211SA1+0749REMSYN106AAXX  15094 02680 41480 72111 10068 20042 39848 49895 56002 72122 8687/ 222// 00074 333 82894 86696 86399;
0210026800999992000121512004+56920+018150FM-12+003999999V0202101N00511030001CN0300001N1+00671+00441098881ADDAA106000191AY161061AY221061GA1011+004509089GF107991021021004501071999MA1999999098411MD1810071+9999MW1021REMSYN094AAXX  15124 02680 11480 72110 10067 20044 39841 49888 58007 69911 70262 8227/ 333 81894 87398;
0159026800999992000121515004+56920+018150FM-12+003999999V0202001N005110057019N0350001N1+00641+00051098851ADDGA1071+005709029GF108991071021004501999999MA1999999098381MD1610031+9999REMSYN076AAXX  15154 02680 42481 82010 10064 20005 39838 49885 56003 872// 333 87819;
0195026800999992000121518004+56920+018150FM-12+003999999V0202101N004110048019N0350001N1+00631+00291098861ADDAA112000191GA1081+004809059GF108991081051004501999999KA1120M+00701MA1999999098391MD1110011+9999REMSYN088AAXX  15184 02680 12481 82108 10063 20029 39839 49886 51001 69912 885// 333 10070 88616;
0187026800999992000121521004+56920+018150FM-12+003999999V0201801N004610066019N0300001N1+00571+00441098891ADDAY121031AY221031GA1081+006609059GF108991081051008001999999MA1999999098421MD1210031+9999MW1601REMSYN082AAXX  15214 02680 41580 81809 10057 20044 39842 49889 52003 76022 885// 333 88622;
0210026800999992000121600004+56920+018150FM-12+003999999V0201601N00461002101CN0300001N1+00511+00491098901ADDAA106002091AY161061AY221061GA1011+000609079GF108991081051002501999999MA1999999098431MD1410001+9999MW1021REMSYN094AAXX  16004 02680 11380 81609 10051 20049 39843 49890 54001 60021 70262 885// 333 81702 88616;
0187026800999992000121603004+56920+018150FM-12+003999999V0201601N003610111019N0300001N1+00561+00481098931ADDAY161031AY221031GA1081+011109059GF108991081051012501999999MA1999999098461MD1210031+9999MW1021REMSYN082AAXX  16034 02680 41680 81607 10056 20048 39846 49893 52003 70262 885// 333 88637;
0241026800999992000121606004+56920+018150FM-12+003999999V0201501N002619999999N0350001N1+00551+00281099011ADDAA112002091AY161061AY221061GA1021+025009039GF108991021001999999071071IA1099KA1120N+00511MA1999999098541MD1310081+9999MW1021REMSYN106AAXX  16064 02680 11981 81505 10055 20028 39854 49901 53008 60022 70262 82077 333 20051 31/// 82399 88299;
0165026800999992000121609004+56920+018150FM-12+003999999V0201201N00261075001CN0400001N1+00551+00191099171ADDGA1021+004509089GF106991031081004501001021MA1999999098701MD1210161+9999REMSYN082AAXX  16094 02680 42482 61205 10055 20019 39870 49917 52016 83802 333 82894 86099;
0210026800999992000121612004+56920+018150FM-12+003999999V0200901N00311004201CN0350001N1+00521+00221099321ADDAA106000791AY121061AY221061GA1011+004509089GF107991051091004501091999MA1999999098851MD1310151+9999MW1801REMSYN094AAXX  16124 02680 11481 70906 10052 20022 39885 49932 53015 69901 78022 8599/ 333 81894 85995;
0193026800999992000121615004+56920+018150FM-12+003999999V0200601N00261009001CN0300001N1+00401+00351099471ADDAY181031AY221031GA1041+004509089GF107991071081004501999999MA1999999099001MD1210151+9999MW1021REMSYN088AAXX  16154 02680 41480 70605 10040 20035 39900 49947 52015 70282 878// 333 84894 87695;
0223026800999992000121618004+56920+018150FM-12+003999999V0200401N001510051019N0300001N1+00321+00261099661ADDAA112001091AY181061AY221061GA1081+005109099GF108991081091004501999999KA1120M+00601MA1999999099191MD1210191+9999MW1801REMSYN094AAXX  16184 02680 11480 80403 10032 20026 39919 49966 52019 69992 78082 889// 333 10060 88917;
0171026800999992000121621004+56920+018150FM-12+003999999V0200101N001512200019N0300001N1+00221+00141099841ADDAY181031AY281031GA1001+999999999GF100991001001999999001001MA1999999099371MD1210181+9999MW1021REMSYN066AAXX  16214 02680 41980 00103 10022 20014 39937 49984 52018 70288;
0204026800999992000121700004+56920+018150FM-12+003999999V0200201N001510150019N0450001N1+00241+00221099981ADDAA106000791AY181061AY221061GA1081+015009059GF108991081051012501999999MA1999999099511MD1110141+9999MW1021REMSYN088AAXX  17004 02680 11683 80203 10024 20022 39951 49998 51014 69901 70282 885// 333 88650;
0159026800999992000121703004+56920+018150FM-12+003999999V0200401N002110081019N0450001N1+00191+00171100151ADDGA1061+008109059GF106991061051008001999999MA1999999099681MD1210171+9999REMSYN076AAXX  17034 02680 42583 60404 10019 20017 39968 40015 52017 865// 333 86627;
0207026800999992000121706004+56920+018150FM-12+003999999V0200101N001512200019N0450001N1+00141+00061100301ADDAA112000791GA1011+999999079GF103991011001999999071011IA1099KA1120N+00131MA1999999099821MD1210141+9999REMSYN094AAXX  17064 02680 12983 30103 10014 20006 39982 40030 52014 69902 81071 333 20013 31/// 81399;
0165026800999992000121709004+56920+018150FM-12+003999999V0200101N001012200019N0400001N1+00291+00201100481ADDGA1011+004509089GF102991021091004501061001MA1999999100011MD1210191+9999REMSYN082AAXX  17094 02680 42482 20102 10029 20020 30001 40048 52019 82960 333 81894 81994;
0245026800999992000121712004+56920+018150FM-12+003999999V0203501N00211030001CN0500001N1+00381+00231100611ADDAA199000091AY111061AY201061GA1011+004509099GA2011+004509089GF106991041091004501061001MA1999999100141MD1210131+9999MW1141REMSYN094AAXX  17124 02680 31484 63504 10038 20023 30014 40061 52013 71410 84960 333 81894 81994 83695;EQDQ01  00002PRCP99
0193026800999992000121715004+56920+018150FM-12+003999999V0203501N002610300019N0350001N1+00351+00201100761ADDAY121031AY221031GA1011+004509089GF105991041031004501061001MA1999999100291MD1210151+9999MW1151REMSYN088AAXX  17154 02680 41481 53505 10035 20020 30029 40076 52015 71522 84360 333 81894 82994;
0223026800999992000121718004+56920+018150FM-12+003999999V0203601N001512200019N0350001N1+00251+00151100881ADDAA112000791AY181061AY221061GA1021+004509059GF102991021051004501001001KA1120M+00461MA1999999100411MD1210121+9999MW1011REMSYN094AAXX  17184 02680 11481 23603 10025 20015 30041 40088 52012 69902 70182 82500 333 10046 82694;
0159026800999992000121721004+56920+018150FM-12+003999999V0200101N001512200019N0650001N1+00251+00071101021ADDGA1021+004509029GF102991021021004501001001MA1999999100561MD1210151+9999REMSYN076AAXX  17214 02680 42487 20103 10025 20007 30056 40102 52015 82200 333 82894;
0195026800999992000121800004+56920+018150FM-12+003999999V0203601N002112200019N0550001N1+00241+00171101151ADDAA199000091GA1011+004509089GF102991021091004501001001MA1999999100671MD1110111+9999REMSYN082AAXX  18004 02680 32485 23604 10024 20017 30067 40115 51011 82900 333 81894 81994;EQDQ01  00002PRCP99
0159026800999992000121803004+56920+018150FM-12+003999999V0203401N003112200019N0550001N1+00321+00201101271ADDGA1021+004509059GF102991021051004501001001MA1999999100791MD1110121+9999REMSYN076AAXX  18034 02680 42485 23406 10032 20020 30079 40127 51012 82500 333 82694;
0220026800999992000121806004+56920+018150FM-12+003999999V0200101N001512200019N0600001N1+00091+00081101441ADDAA199000091GA1011+004509099GF102991011091004501071001IA1099KA1120N+00091MA1999999100961MD1310171+9999REMSYN088AAXX  18064 02680 32486 20103 10009 20008 30096 40144 53017 81970 333 20009 31/// 81994;EQDQ01  00002PRCP99
0185026800999992000121809004+56920+018150FM-12+003999999V0200101N000510300019N0400001N1+00221+00211101621ADDGA1011+004509089GF105991041091004501061001MA1999999101141MD1210181+9999SA1+0629REMSYN094AAXX  18094 02680 42482 50101 10022 20021 30114 40162 52018 84960 222// 00062 333 81894 82995;
0223026800999992000121812004+56920+018150FM-12+003999999V0203401N001010300019N0750001N1+00351+00121101701ADDAA199000091AY121061AY221061GA1011+004509089GF105991041091004501061001MA1999999101221MD1210081+9999MW1151REMSYN088AAXX  18124 02680 31489 53402 10035 20012 30122 40170 52008 71522 84960 333 81894 82995;EQDQ01  00002PRCP99
0193026800999992000121815004+56920+018150FM-12+003999999V0200301N00101004201CN0650001N1+00191+00181101851ADDAY121031AY221031GA1011+004509089GF106991061091004501061001MA1999999101371MD1210151+9999MW1811REMSYN088AAXX  18154 02680 41487 60302 10019 20018 30137 40185 52015 78122 86960 333 81894 85994;
0187026800999992000121821004+56920+018150FM-12+003999999V0209999C000012200019N0550001N1+00191+00091102051ADDAY181031AY281031GA1031+008009059GF103991031051008001001001MA1999999101571MD1310091+9999MW1011REMSYN082AAXX  18214 02680 41585 30000 10019 20009 30157 40205 53009 70188 83500 333 83695;
0210026800999992000121900004+56920+018150FM-12+003999999V0203001N00051002101CN0450001N1+00241+00211102131ADDAA106000191AY181061AY281061GA1031+002409079GF107991071051002501999999MA1999999101651MD1210081+9999MW1031REMSYN094AAXX  19004 02680 11383 73001 10024 20021 30165 40213 52008 69911 70388 875// 333 83708 88611;
0165026800999992000121903004+56920+018150FM-12+003999999V0203101N001512200019N0600001N1+00211+00111102201ADDGA1011+004509089GF102991021031004501001001MA1999999101721MD1210071+9999REMSYN082AAXX  19034 02680 42486 23103 10021 20011 30172 40220 52007 82300 333 81894 81994;
0207026800999992000121906004+56920+018150FM-12+003999999V0200201N001512200019N0550001N1-00011-00021102301ADDAA112000191GA1011+004509099GF101991011031004501071001IA1099KA1120N-00011MA1999999101811MD1310101+9999REMSYN094AAXX  19064 02680 12485 10203 11001 21002 30181 40230 53010 69912 81370 333 21001 31/// 81994;
0165026800999992000121909004+56920+018150FM-12+003999999V0200301N001012200019N0700001N1+00071+00011102461ADDGA1011+004509089GF102991011091004501061091MA1999999101971MD1210161+9999REMSYN082AAXX  19094 02680 42488 20302 10007 20001 30197 40246 52016 81969 333 81894 81995;
0195026800999992000121912004+56920+018150FM-12+003999999V0203601N001512200019N0700001N1+00221-00031102531ADDAA199000091GA1011+004509089GF101991011091004501061001MA1999999102051MD1110081+9999REMSYN082AAXX  19124 02680 32488 13603 10022 21003 30205 40253 51008 81960 333 81894 81995;EQDQ01  00002PRCP99
0165026800999992000121915004+56920+018150FM-12+003999999V0200301N002112200019N0550001N1+00011+00001102681ADDGA1011+004509089GF102991011091004501061001MA1999999102191MD1210141+9999REMSYN082AAXX  19154 02680 42485 20304 10001 20000 30219 40268 52014 81960 333 81894 81995;
0196026800999992000121918004+56920+018150FM-12+003999999V0200201N002112200019N0750001N1+00051-00251102841ADDAA199000091GA1001+999999999GF100991001001999999001001KA1999M+00221MA1999999102351MD1210161+9999REMSYN070AAXX  19184 02680 32989 00204 10005 21025 30235 40284 52016 333 10022;EQDQ01  00002PRCP99
0143026800999992000121921004+56920+018150FM-12+003999999V0200401N002112200019N0600001N1-00021-00041102961ADDGA1001+999999999GF100991001001999999001001MA1999999102471MD1110121+9999REMSYN060AAXX  19214 02680 42986 00404 11002 21004 30247 40296 51012;
0204026800999992000122000004+56920+018150FM-12+003999999V0200601N001010180019N0550001N1+00051+00031103071ADDAA106000791AY181061AY201061GA1071+018009059GF107991071051017501999999MA1999999102571MD1210101+9999MW1021REMSYN088AAXX  20004 02680 11785 70602 10005 20003 30257 40307 52010 69901 70280 875// 333 87656;
0159026800999992000122003004+56920+018150FM-12+003999999V0200201N001010150019N0750001N1+00121-00381103171ADDGA1081+015009059GF108991081051012501999999MA1999999102671MD1110101+9999REMSYN076AAXX  20034 02680 42689 80202 10012 21038 30267 40317 51010 885// 333 88650;
0207026800999992000122006004+56920+018150FM-12+003999999V0200101N001010150019N0700001N1+00111-00391103201ADDAA112000791GA1071+015009059GF107991071051012501999999IA1149KA1120N-00061MA1999999102701MD1310031+9999REMSYN094AAXX  20064 02680 12688 70102 10011 21039 30270 40320 53003 69902 875// 333 21006 34/// 87650;
0185026800999992000122009004+56920+018150FM-12+003999999V0200101N00151012001CN0700001N1+00161-00361103281ADDGA1011+004509089GF107991071081008001999999MA1999999102791MD1110091+9999SA1+0609REMSYN094AAXX  20094 02680 42588 70103 10016 21036 30279 40328 51009 878// 222// 00060 333 81894 87695;
0195026800999992000122012004+56920+018150FM-12+003999999V0200301N00211009001CN0650001N1+00171-00021103251ADDAA199000091GA1011+004509089GF107991071081004501999999MA1999999102761MD1810031+9999REMSYN082AAXX  20124 02680 32487 70304 10017 21002 30276 40325 58003 878// 333 81894 87695;EQDQ01  00002PRCP99
0165026800999992000122015004+56920+018150FM-12+003999999V0200301N001010090019N0650001N1+00161-00031103311ADDGA1011+004509089GF107991071081004501999999MA1999999102811MD1310051+9999REMSYN082AAXX  20154 02680 42487 70302 10016 21003 30281 40331 53005 878// 333 81894 87650;
0208026800999992000122018004+56920+018150FM-12+003999999V0200201N001010150019N0650001N1+00211-00201103341ADDAA199000091GA1081+015009059GF108991081051012501999999KA1120M+00211MA1999999102841MD1210031+9999REMSYN082AAXX  20184 02680 32687 80202 10021 21020 30284 40334 52003 885// 333 10021 88650;EQDQ01  00002PRCP99
0159026800999992000122021004+56920+018150FM-12+003999999V0200301N001510150019N0600001N1+00151-00101103371ADDGA1081+015009059GF108991081051012501999999MA1999999102871MD1110031+9999REMSYN076AAXX  20214 02680 42686 80303 10015 21010 30287 40337 51003 885// 333 88650;
0189026800999992000122100004+56920+018150FM-12+003999999V0200401N001010150019N0750001N1+00131-00471103371ADDAA199000091GA1081+015009059GF108991081051012501999999MA1999999102871MD1010001+9999REMSYN076AAXX  21004 02680 32689 80402 10013 21047 30287 40337 50000 885// 333 88650;EQDQ01  00002PRCP99
0159026800999992000122103004+56920+018150FM-12+003999999V0200301N001010126019N0750001N1+00131-00511103381ADDGA1081+012609059GF108991081051012501999999MA1999999102881MD1010011+9999REMSYN076AAXX  21034 02680 42689 80302 10013 21051 30288 40338 50001 885// 333 88642;
0220026800999992000122106004+56920+018150FM-12+003999999V0200801N001010150019N0750001N1+00121-00611103341ADDAA199000091GA1081+015009059GF108991081051012501999999IA1019KA1120N+00121MA1999999102841MD1710041+9999REMSYN088AAXX  21064 02680 32689 80802 10012 21061 30284 40334 57004 885// 333 20012 30/// 88650;EQDQ01  00002PRCP99
0159026800999992000122109004+56920+018150FM-12+003999999V0209999C000010125019N0750001N1+00171-00711103381ADDGA1071+012509059GF107991071051012501999999MA1999999102891MD1010051+9999REMSYN076AAXX  21094 02680 42689 70000 10017 21071 30289 40338 50005 875// 333 87696;
0195026800999992000122112004+56920+018150FM-12+003999999V0209999C00001009001CN0750001N1+00271-00831103321ADDAA199000091GA1011+004509089GF107991071081004501999999MA1999999102831MD1810061+9999REMSYN082AAXX  21124 02680 32489 70000 10027 21083 30283 40332 58006 878// 333 81894 87695;EQDQ01  00002PRCP99
0215026800999992000122115004+56920+018150FM-12+003999999V0200201N00151004201CN0750001N1+00141-00661103291ADDAY121031AY221031GA1021+004509099GA2011+004509089GF107991071091004501999999MA1999999102791MD1710041+9999MW1151REMSYN094AAXX  21154 02680 41489 70203 10014 21066 30279 40329 57004 71522 879// 333 81894 82994 85696;
0223026800999992000122118004+56920+018150FM-12+003999999V0200301N001012200019N0450001N1+00031-00061103261ADDAA112000791AY181061AY221061GA1041+008709059GF104991041051008001001001KA1120M+00271MA1999999102761MD1710031+9999MW1021REMSYN094AAXX  21184 02680 11583 40302 10003 21006 30276 40326 57003 69902 70282 84500 333 10027 84629;
0159026800999992000122121004+56920+018150FM-12+003999999V0209999V000510057019N0500001N1+00041-00101103211ADDGA1071+005709059GF107991071051004501999999MA1999999102711MD1710051+9999REMSYN076AAXX  21214 02680 42484 79901 10004 21010 30271 40321 57005 875// 333 87619;
0189026800999992000122200004+56920+018150FM-12+003999999V0202501N002112200019N0500001N1+00031-00191103041ADDAA199000091GA1041+003609059GF104991041051004501001001MA1999999102541MD1810171+9999REMSYN076AAXX  22004 02680 32484 42504 10003 21019 30254 40304 58017 84500 333 84612;EQDQ01  00002PRCP99
0159026800999992000122203004+56920+018150FM-12+003999999V0202801N003110036019N0500001N1-00061-00281102851ADDGA1081+003609059GF108991081051004501999999MA1999999102361MD1710181+9999REMSYN076AAXX  22034 02680 42484 82806 11006 21028 30236 40285 57018 885// 333 88612;
0226026800999992000122206004+56920+018150FM-12+003999999V0202801N00311030001CN0450001N1+00041-00401102661ADDAA199000091GA1011+004509069GF108991011051004501011999IA1019KA1120N-00061MA1999999102171MD1710191+9999REMSYN094AAXX  22064 02680 32483 82806 10004 21040 30217 40266 57019 8151/ 333 21006 30/// 81694 88499;EQDQ01  00002PRCP99
0185026800999992000122209004+56920+018150FM-12+003999999V0202801N00361030001CN0500001N1+00181-00361102501ADDGA1021+004509089GF108991021011004501071999MA1999999102021MD1710151+9999SA1+0609REMSYN094AAXX  22094 02680 42484 82807 10018 21036 30202 40250 57015 8217/ 222// 00060 333 82894 88499;
0204026800999992000122212004+56920+018150FM-12+003999999V0202701N004110045019N0500001N1+00231-00331102241ADDAA106000791AY121061AY221061GA1071+004509059GF108991071051004501999999MA1999999101761MD1710261+9999MW1771REMSYN088AAXX  22124 02680 11484 82708 10023 21033 30176 40224 57026 69901 77722 875// 333 87694;
0187026800999992000122215004+56920+018150FM-12+003999999V0202501N005110045019N0500001N1+00261-00521101871ADDAY171031AY271031GA1071+004509059GF108991071051004501999999MA1999999101391MD1810371+9999MW1021REMSYN082AAXX  22154 02680 41484 82510 10026 21052 30139 40187 58037 70277 875// 333 87694;
0223026800999992000122218004+56920+018150FM-12+003999999V0202801N005710069019N0200001N1+00021-00521101571ADDAA112000791AY171061AY271061GA1081+006909059GF108991081051008001999999KA1120M+00271MA1999999101081MD1610311+9999MW1021REMSYN094AAXX  22184 02680 11570 82811 10002 21052 30108 40157 56031 69902 70277 885// 333 10027 88623;
0159026800999992000122221004+56920+018150FM-12+003999999V0203001N003610051019N0250001N1+00031-00491101321ADDGA1081+005109059GF108991081051004501999999MA1999999100831MD1810251+9999REMSYN076AAXX  22214 02680 42475 83007 10003 21049 30083 40132 58025 885// 333 88617;
0170026800999992000122300004+56920+018150FM-12+003999999V0203001N003610039019N0250001N1+00111-00261101011ADDAA199000021GA1081+003909059GF108991081051004501999999MA1999999100521MD1710311+9999REMSYN076AAXX  23004 02680 32475 83007 10011 21026 30052 40101 57031 885// 333 88613;
0159026800999992000122303004+56920+018150FM-12+003999999V0203201N003110054019N0260001N1+00141-00271100791ADDGA1081+005409059GF108991081051004501999999MA1999999100311MD1710211+9999REMSYN076AAXX  23034 02680 42476 83206 10014 21027 30031 40079 57021 885// 333 88618;
0220026800999992000122306004+56920+018150FM-12+003999999V0203201N002110033019N0400001N1+00181-00071100591ADDAA199000091GA1081+003309059GF108991081051004501999999IA1019KA1120N+00001MA1999999100121MD1710191+9999REMSYN088AAXX  23064 02680 32482 83204 10018 21007 30012 40059 57019 885// 333 20000 30/// 88611;EQDQ01  00002PRCP99
0159026800999992000122309004+56920+018150FM-12+003999999V0203201N002110045019N0700001N1+00271+00041100561ADDGA1081+004509059GF108991081051004501999999MA1999999100091MD1710031+9999REMSYN076AAXX  23094 02680 42488 83204 10027 20004 30009 40056 57003 885// 333 88694;
0189026800999992000122312004+56920+018150FM-12+003999999V0203301N003110045019N0750001N1+00341-00141100471ADDAA199000091GA1061+004509059GF107991061051004501071011MA1999999100001MD1710091+9999REMSYN076AAXX  23124 02680 32489 73306 10034 21014 30000 40047 57009 86571 333 86694;EQDQ01  00002PRCP99
0165026800999992000122315004+56920+018150FM-12+003999999V0203401N00261030001CN0750001N1+00271-00281100421ADDGA1011+004509089GF107991011011004501071999MA1999999099951MD1710051+9999REMSYN082AAXX  23154 02680 42489 73405 10027 21028 39995 40042 57005 8117/ 333 81894 87399;
0208026800999992000122318004+56920+018150FM-12+003999999V0203201N002610300019N0750001N1+00241-00471100361ADDAA199000091GA1081+030009079GF108991081001999999071999KA1120M+00391MA1999999099891MD1710061+9999REMSYN082AAXX  23184 02680 32989 83205 10024 21047 39989 40036 57006 8807/ 333 10039 88360;EQDQ01  00002PRCP99
0159026800999992000122321004+56920+018150FM-12+003999999V0203201N003110096019N0650001N1+00181-00651100341ADDGA1071+009609059GF107991071051008001999999MA1999999099871MD1710021+9999REMSYN076AAXX  23214 02680 42587 73206 10018 21065 39987 40034 57002 875// 333 87632;
0189026800999992000122400004+56920+018150FM-12+003999999V0203101N002112200019N0700001N1+00101-00631100311ADDAA199000091GA1021+009909059GF102991021051008001001001MA1999999099831MD1710041+9999REMSYN076AAXX  24004 02680 32588 23104 10010 21063 39983 40031 57004 82500 333 82633;EQDQ01  00002PRCP99
0220026800999992000122406004+56920+018150FM-12+003999999V0203201N002610096019N0350001N1+00071-00611100161ADDAA199000091GA1071+009609059GF107991071051008001999999IA1019KA1120N+00041MA1999999099691MD1710081+9999REMSYN088AAXX  24064 02680 32581 73205 10007 21061 39969 40016 57008 875// 333 20004 30/// 87632;EQDQ01  00002PRCP99
0193026800999992000122409004+56920+018150FM-12+003999999V0203201N00261009001CN0550001N1+00131-00381100241ADDAY181031AY221031GA1011+004509089GF108991081081004501999999MA1999999099761MD1110071+9999MW1161REMSYN088AAXX  24094 02680 41485 83205 10013 21038 39976 40024 51007 71682 888// 333 81894 88695;
0210026800999992000122412004+56920+018150FM-12+003999999V0200301N001010042019N0750001N1+00101+00001100211ADDAA106001091AY181061AY221061GA1011+004509089GF105991051091004501001001MA1999999099731MD1710031+9999MW1151REMSYN094AAXX  24124 02680 11489 50302 10010 20000 39973 40021 57003 60011 71582 85900 333 81894 82994;
0193026800999992000122415004+56920+018150FM-12+003999999V0203601N002112200019N0700001N1+00051-00111100231ADDAY121031AY221031GA1011+004509089GF104991041091004501001001MA1999999099751MD1310031+9999MW1151REMSYN088AAXX  24154 02680 41488 43604 10005 21011 39975 40023 53003 71522 84900 333 81894 83994;
0223026800999992000122418004+56920+018150FM-12+003999999V0203301N001010045019N0650001N1+00011+00001100231ADDAA112003091AY121061AY221061GA1061+004509099GF106991061091004501001001KA1120M+00201MA1999999099751MD1410001+9999MW1861REMSYN094AAXX  24184 02680 11487 63302 10001 20000 39975 40023 54000 60032 78622 86900 333 10020 86994;
0171026800999992000122421004+56920+018150FM-12+003999999V0200101N002112200019N0150001N1-00061-00071100241ADDAY181031AY281031GA1001+999999999GF100991001001999999001001MA1999999099761MD1010011+9999MW1011REMSYN066AAXX  24214 02680 41965 00104 11006 21007 39976 40024 50001 70188;
0204026800999992000122500004+56920+018150FM-12+003999999V0202701N000512200019N0400001N1-00101-00111100211ADDAA106005191AY181061AY221061GA1021+004509059GF102991021051004501001001MA1999999099731MD1710031+9999MW1021REMSYN088AAXX  25004 02680 11482 22701 11010 21011 39973 40021 57003 60051 70282 82500 333 82694;
0171026800999992000122503004+56920+018150FM-12+003999999V0203501N001512200019N0150001N1-00041-00051100161ADDAY181031AY201031GA1001+999999999GF100991001001999999001001MA1999999099681MD1810051+9999MW1021REMSYN066AAXX  25034 02680 41965 03503 11004 21005 39968 40016 58005 70280;
0252026800999992000122506004+56920+018150FM-12+003999999V0200101N002612200019N0650001N1-00221-00231100091ADDAA112007991AJ100079199999999AY181061AY201061GA1011+004509029GF101991011021004501001001IA1239KA1120N-00291MA1999999099611MD1710071+9999MW1021REMSYN100AAXX  25064 02680 11487 10105 11022 21023 39961 40009 57007 60082 70280 81200 333 21029 47007 81894;
0213026800999992000122509004+56920+018150FM-12+003999999V0200201N002112200019N0650001N1-00281-00291100121ADDAY101031AY201031GA1011+004509089GF102991021091004501001001MA1999999099641MD1210031+9999MW1151SA1+0449REMSYN100AAXX  25094 02680 41487 20204 11028 21029 39964 40012 52003 71500 82900 222// 00044 333 81894 81994;
0223026800999992000122512004+56920+018150FM-12+003999999V0203601N002112200019N0650001N1+00001-00021100041ADDAA199000091AY101061AY201061GA1011+004509089GF102991021091004501061001MA1999999099561MD1810081+9999MW1151REMSYN088AAXX  25124 02680 31487 23604 10000 21002 39956 40004 58008 71500 82960 333 81894 81994;EQDQ01  00002PRCP99
0187026800999992000122515004+56920+018150FM-12+003999999V0200101N002110018019N0650001N1-00061-00071100011ADDAY111031AY201031GA1061+001809099GF106991061091002501001001MA1999999099531MD1610031+9999MW1851REMSYN082AAXX  25154 02680 41387 60104 11006 21007 39953 40001 56003 78510 86900 333 86906;
0207026800999992000122518004+56920+018150FM-12+003999999V0200501N003119999999N0030001N1-00041-00051100051ADDAA112006191AY181061AY211061GF108991081091999999999999KA1120M+00021MA1999999099571MD1210041+9999MW1861REMSYN094AAXX  25184 02680 11/30 80506 11004 21005 39957 40005 52004 60062 78681 889// 333 10002 889//;
0171026800999992000122521004+56920+018150FM-12+003999999V0200401N002112200019N0500001N1-00181-00191100091ADDAY181031AY281031GA1001+999999999GF100991001001999999001001MA1999999099611MD1210041+9999MW1011REMSYN066AAXX  25214 02680 41984 00404 11018 21019 39961 40009 52004 70188;
0204026800999992000122600004+56920+018150FM-12+003999999V0200701N002112200019N0500001N1-00031-00071100071ADDAA106001091AY181061AY211061GA1021+004509029GF102991021021004501001001MA1999999099591MD1810021+9999MW1021REMSYN088AAXX  26004 02680 11484 20704 11003 21007 39959 40007 58002 60011 70281 82200 333 82894;
0187026800999992000122603004+56920+018150FM-12+003999999V0201101N002110036019N0200001N1+00041+00021100091ADDAY181031AY211031GA1081+003609099GF108991081091004501999999MA1999999099611MD1010021+9999MW1851REMSYN082AAXX  26034 02680 41470 81104 10004 20002 39961 40009 50002 78581 889// 333 88912;
0252026800999992000122606004+56920+018150FM-12+003999999V0201301N003610036019N0250001N1+00101+00011100101ADDAA112005191AJ100159199999999AY181061AY221061GA1081+003609099GF108991081091004501999999IA1279KA1120N-00201MA1999999099621MD1310011+9999MW1851REMSYN100AAXX  26064 02680 11475 81307 10010 20001 39962 40010 53001 60052 78582 889// 333 21020 43015 88912;
0193026800999992000122609004+56920+018150FM-12+003999999V0201501N00411004201CN0300001N1+00131-00071100191ADDAY181031AY281031GA1041+004509099GF107991071091004501999999MA1999999099711MD1110091+9999MW1161REMSYN088AAXX  26094 02680 41480 71508 10013 21007 39971 40019 51009 71688 879// 333 84994 83894;
0204026800999992000122612004+56920+018150FM-12+003999999V0201501N003612200019N0400001N1+00131-00471100191ADDAA106002091AY181061AY221061GA1041+004509059GF104991041051004501001001MA1999999099711MD1010001+9999MW1021REMSYN088AAXX  26124 02680 11482 41507 10013 21047 39971 40019 50000 60021 70282 84500 333 84694;
0165026800999992000122615004+56920+018150FM-12+003999999V0201501N00311004501CN0300001N1+00141-00441100171ADDGA1051+004509069GF106991061081004501001001MA1999999099691MD1710021+9999REMSYN082AAXX  26154 02680 42480 61506 10014 21044 39969 40017 57002 86800 333 85694 81894;
0195026800999992000122618004+56920+018150FM-12+003999999V0201501N003612200019N0400001N1+00111-00641100221ADDAA112002091GA1041+009909059GF104991041051008001001001KA1120M+00161MA1999999099741MD1310051+9999REMSYN088AAXX  26184 02680 12582 41507 10011 21064 39974 40022 53005 60022 84500 333 10016 84633;
0159026800999992000122621004+56920+018150FM-12+003999999V0201201N003110072019N0400001N1+00021-00701100271ADDGA1081+007209059GF108991081051008001999999MA1999999099791MD1110051+9999REMSYN076AAXX  26214 02680 42582 81206 10002 21070 39979 40027 51005 885// 333 88624;
0189026800999992000122700004+56920+018150FM-12+003999999V0201201N006210072019N0400001N1-00051-00661100231ADDAA199000091GA1081+007209059GF108991081051008001999999MA1999999099751MD1810041+9999REMSYN076AAXX  27004 02680 32582 81212 11005 21066 39975 40023 58004 885// 333 88624;EQDQ01  00002PRCP99
0159026800999992000122703004+56920+018150FM-12+003999999V0201201N004110072019N0400001N1-00041-00701100131ADDGA1081+007209059GF108991081051008001999999MA1999999099651MD1710101+9999REMSYN076AAXX  27034 02680 42582 81208 11004 21070 39965 40013 57010 885// 333 88624;
0237026800999992000122706004+56920+018150FM-12+003999999V0201201N003110054019N0300001N1-00051-00471100051ADDAA199000091AJ100129199999999GA1081+005409059GF108991081051004501999999IA1279KA1120N-00051MA1999999099571MD1710081+9999REMSYN088AAXX  27064 02680 32480 81206 11005 21047 39957 40005 57008 885// 333 21005 43012 88618;EQDQ01  00002PRCP99
0207026800999992000122709004+56920+018150FM-12+003999999V0201001N003110045019N0060001N1-00031-00331100041ADDAY121031AY221031GA1081+004509069GF108991081071004501999999MA1999999099561MD1510011+9999MW1711SA1+0409REMSYN094AAXX  27094 02680 41456 81006 11003 21033 39956 40004 55001 77122 887// 222// 00040 333 88794;
0204026800999992000122712004+56920+018150FM-12+003999999V0201001N003110025019N0020001N1-00021-00051099941ADDAA106000591AY121061AY221061GA1081+002509069GF108991081071002501999999MA1999999099461MD1710101+9999MW1731REMSYN088AAXX  27124 02680 11320 81006 11002 21005 39946 49994 57010 69961 77322 887// 333 88793;
0187026800999992000122715004+56920+018150FM-12+003999999V0201101N003110045019N0150001N1+00061+00051099931ADDAY171031AY271031GA1081+004509059GF108991081051004501999999MA1999999099451MD1710011+9999MW1711REMSYN082AAXX  27154 02680 41465 81106 10006 20005 39945 49993 57001 77177 885// 333 88694;
0223026800999992000122718004+56920+018150FM-12+003999999V0201001N003610033019N0160001N1+00131+00061099911ADDAA112002091AY171061AY271061GA1081+003309059GF108991081051004501999999KA1120M+00151MA1999999099431MD1710021+9999MW1021REMSYN094AAXX  27184 02680 11466 81007 10013 20006 39943 49991 57002 60022 70277 885// 333 10015 88611;
0187026800999992000122721004+56920+018150FM-12+003999999V0201101N003610021019N0060001N1+00141+00131099921ADDAY121031AY221031GA1081+002109069GF108991081071002501999999MA1999999099441MD1210021+9999MW1611REMSYN082AAXX  27214 02680 41356 81107 10014 20013 39944 49992 52002 76122 887// 333 88707;
0204026800999992000122800004+56920+018150FM-12+003999999V0201101N003110012019N0100001N1+00211+00201099881ADDAA106002091AY121061AY221061GA1081+001209069GF108991081071001501999999MA1999999099411MD1810031+9999MW1611REMSYN088AAXX  28004 02680 11260 81106 10021 20020 39941 49988 58003 60021 76122 887// 333 88704;
0187026800999992000122803004+56920+018150FM-12+003999999V0201401N003110015019N0050001N1+00321+00311099821ADDAY161031AY261031GA1081+001509069GF108991081071001501999999MA1999999099351MD1810061+9999MW1691REMSYN082AAXX  28034 02680 41250 81406 10032 20031 39935 49982 58006 76966 887// 333 88705;
0252026800999992000122806004+56920+018150FM-12+003999999V0201601N004110030019N0110001N1+00321+00291099771ADDAA112004191AJ100039199999999AY161061AY261061GA1081+003009059GF108991081051004501999999IA1309KA1120N+00131MA1999999099301MD1810051+9999MW1021REMSYN100AAXX  28064 02680 11461 81608 10032 20029 39930 49977 58005 60042 70266 885// 333 20013 42003 88610;
0159026800999992000122809004+56920+018150FM-12+003999999V0201301N005110045019N0160001N1+00251+00181099751ADDGA1081+004509059GF108991081051004501999999MA1999999099281MD1710021+9999REMSYN076AAXX  28094 02680 42466 81310 10025 20018 39928 49975 57002 885// 333 88694;
0198026800999992000122812004+56920+018150FM-12+003999999V0201301N004610025019N0070001N1+00211+00131099681ADDAA199000021AY121061AY221061GA1081+002509069GF108991081061002501999999MA1999999099211MD1810071+9999MW1101REMSYN082AAXX  28124 02680 31357 81309 10021 20013 39921 49968 58007 71022 886// 333 88793;
0187026800999992000122815004+56920+018150FM-12+003999999V0201201N005110006019N0050001N1+00141+00131099581ADDAY121031AY221031GA1081+000609069GF108991081061000751999999MA1999999099101MD1810111+9999MW1101REMSYN082AAXX  28154 02680 41150 81210 10014 20013 39910 49958 58011 71022 886// 333 88702;
0236026800999992000122818004+56920+018150FM-12+003999999V0201201N003610009019N0060001N1+00221+00211099451ADDAA199000091AY121061AY221061GA1081+000909069GF108991081061000751999999KA1120M+00331MA1999999098981MD1710121+9999MW1101REMSYN088AAXX  28184 02680 31156 81207 10022 20021 39898 49945 57012 71022 886// 333 10033 88703;EQDQ01  00002PRCP99
0187026800999992000122821004+56920+018150FM-12+003999999V0201101N003110006019N0060001N1+00181+00171099301ADDAY121031AY221031GA1081+000609069GF108991081061000751999999MA1999999098831MD1810151+9999MW1101REMSYN082AAXX  28214 02680 41156 81106 10018 20017 39883 49930 58015 71022 886// 333 88702;
0217026800999992000122900004+56920+018150FM-12+003999999V0201101N002610009019N0060001N1+00141+00131099101ADDAA199000091AY121061AY221061GA1081+000909069GF108991081061000751999999MA1999999098621MD1710211+9999MW1101REMSYN082AAXX  29004 02680 31156 81105 10014 20013 39862 49910 57021 71022 886// 333 88703;EQDQ01  00002PRCP99
0187026800999992000122903004+56920+018150FM-12+003999999V0201101N001510009019N0035001N1+00021+00011098911ADDAY121031AY221031GA1081+000909069GF108991081071000751999999MA1999999098431MD1710191+9999MW1731REMSYN082AAXX  29034 02680 41135 81103 10002 20001 39843 49891 57019 77322 887// 333 88703;
0271026800999992000122906004+56920+018150FM-12+003999999V0201901N002110018019N0100001N1+00111+00111098781ADDAA112005191AJ199993999999999AY171061AY221061GA1081+001809069GF108991081071001501999999IA1309KA1120N+00021MA1999999098301MD1710131+9999MW1681REMSYN100AAXX  29064 02680 11260 81904 10011 20011 39830 49878 57013 60052 76872 887// 333 20002 42997 88706;EQDQ01  09982SNDP  
0213026800999992000122909004+56920+018150FM-12+003999999V0202401N00621004501CN0300001N1+00281-00011098931ADDAY171031AY271031GA1051+004509029GF107991071091004501999999MA1999999098461MD1310161+9999MW1151SA1+0449REMSYN100AAXX  29094 02680 41480 72412 10028 21001 39846 49893 53016 71577 879// 222// 00044 333 85294 82994;
0210026800999992000122912004+56920+018150FM-12+003999999V0202401N005112200019N0300001N1+00271-00281099061ADDAA106000891AY181061AY281061GA1021+004509029GF103991031091004501031001MA1999999098591MD1210131+9999MW1151REMSYN094AAXX  29124 02680 11480 32410 10027 21028 39859 49906 52013 69981 71588 83930 333 82294 81994;
0193026800999992000122915004+56920+018150FM-12+003999999V0202401N005112200019N0300001N1+00271-00341099291ADDAY111031AY211031GA1011+004509089GF102991021091004501061001MA1999999098821MD1210231+9999MW1151REMSYN088AAXX  29154 02680 41480 22410 10027 21034 39882 49929 52023 71511 82960 333 81894 81994;
0223026800999992000122918004+56920+018150FM-12+003999999V0202201N005110072019N0300001N1+00291-00161099421ADDAA112000891AY181061AY221061GA1081+007209059GF108991081051008001999999KA1120M+00301MA1999999098951MD1210131+9999MW1031REMSYN094AAXX  29184 02680 11580 82210 10029 21016 39895 49942 52013 69982 70382 885// 333 10030 88624;
0159026800999992000122921004+56920+018150FM-12+003999999V0202101N005112200019N0300001N1+00291-00301099581ADDGA1021+008109059GF102991021051008001001001MA1999999099111MD1210161+9999REMSYN076AAXX  29214 02680 42580 22110 10029 21030 39911 49958 52016 82500 333 82627;
0173026800999992000123000004+56920+018150FM-12+003999999V0202201N005112200019N0300001N1+00321-00591099671ADDAA199000091GA1001+999999999GF100991001001999999001001MA1999999099201MD1110111+9999REMSYN060AAXX  30004 02680 32980 02210 10032 21059 39920 49967 51011;EQDQ01  00002PRCP99
0159026800999992000123003004+56920+018150FM-12+003999999V0202001N004612200019N0300001N1+00261-00601099781ADDGA1021+004509059GF102991021051004501001001MA1999999099311MD1110111+9999REMSYN076AAXX  30034 02680 42480 22009 10026 21060 39931 49978 51011 82500 333 82694;
0220026800999992000123006004+56920+018150FM-12+003999999V0201901N004110150019N0300001N1+00311-00531099841ADDAA199000091GA1071+015009059GF107991071051012501999999IA1019KA1120N+00251MA1999999099371MD1210061+9999REMSYN088AAXX  30064 02680 32680 71908 10031 21053 39937 49984 52006 875// 333 20025 30/// 87650;EQDQ01  00002PRCP99
0165026800999992000123009004+56920+018150FM-12+003999999V0201801N00411009001CN0300001N1+00301-00331100061ADDGA1031+004509089GF108991071081004501999999MA1999999099591MD1310221+9999REMSYN082AAXX  30094 02680 42480 81808 10030 21033 39959 40006 53022 878// 333 83894 87695;
0217026800999992000123012004+56920+018150FM-12+003999999V0201901N00311008001CN0300001N1+00361-00251100101ADDAA199000091GA1031+004509089GA2041+008009069GF108991051081004501011999MA1999999099631MD1110041+9999REMSYN088AAXX  30124 02680 32480 81906 10036 21025 39963 40010 51004 8581/ 333 83894 84695 88499;EQDQ01  00002PRCP99
0165026800999992000123015004+56920+018150FM-12+003999999V0201501N00261030001CN0300001N1+00321-00421100151ADDGA1011+004509089GF108991011011004501021999MA1999999099681MD1210051+9999REMSYN082AAXX  30154 02680 42480 81505 10032 21042 39968 40015 52005 8112/ 333 81894 88499;
0208026800999992000123018004+56920+018150FM-12+003999999V0201201N002110057019N0200001N1+00231-00331100221ADDAA199000091GA1081+005709059GF108991081051004501999999KA1120M+00361MA1999999099751MD1210071+9999REMSYN082AAXX  30184 02680 32470 81204 10023 21033 39975 40022 52007 885// 333 10036 88619;EQDQ01  00002PRCP99
0159026800999992000123021004+56920+018150FM-12+003999999V0200601N00101075001CN0300001N1+00121-00271100221ADDGA1081+999999019GF108991081001999999011999MA1999999099751MD1410001+9999REMSYN076AAXX  30214 02680 42980 80602 10012 21027 39975 40022 54000 8801/ 333 88499;
0204026800999992000123100004+56920+018150FM-12+003999999V0200201N002110063019N0040001N1+00021+00001100101ADDAA106000191AY121061AY221061GA1081+006309059GF108991081051008001999999MA1999999099621MD1810131+9999MW1771REMSYN088AAXX  31004 02680 11540 80204 10002 20000 39962 40010 58013 69921 77722 885// 333 88621;
0187026800999992000123103004+56920+018150FM-12+003999999V0203601N003110030019N0020001N1-00011-00021099981ADDAY171031AY271031GA1081+003009059GF108991081051004501999999MA1999999099501MD1710121+9999MW1731REMSYN082AAXX  31034 02680 41420 83606 11001 21002 39950 49998 57012 77377 885// 333 88610;
0252026800999992000123106004+56920+018150FM-12+003999999V0203501N003110021019N0030001N1+00011+00001099881ADDAA112010991AJ100069199999999AY171061AY271061GA1081+002109069GF108991081071002501999999IA1279KA1120N-00011MA1999999099401MD1710101+9999MW1711REMSYN100AAXX  31064 02680 11330 83506 10001 20000 39940 49988 57010 60112 77177 887// 333 21001 43006 88707;
0187026800999992000123109004+56920+018150FM-12+003999999V0203601N003110025019N0050001N1+00061+00051099911ADDAY171031AY271031GA1081+002509069GF108991081071002501999999MA1999999099431MD1210031+9999MW1701REMSYN082AAXX  31094 02680 41350 83606 10006 20005 39943 49991 52003 77077 887// 333 88793;
0232026800999992000123112004+56920+018150FM-12+003999999V0203601N00361004201CN0550001N1+00161+00151099931ADDAA106002091AY171061AY221061GA1031+004509099GA2011+004509089GF108991071091004501071999MA1999999099461MD1210031+9999MW1161REMSYN100AAXX  31124 02680 11485 83607 10016 20015 39946 49993 52003 60021 71672 8797/ 333 81894 83994 88499;
0187026800999992000123115004+56920+018150FM-12+003999999V0203501N005110018019N0200001N1+00161+00151100071ADDAY121031AY221031GA1081+001809069GF108991081071002501999999MA1999999099601MD1310141+9999MW1831REMSYN082AAXX  31154 02680 41370 83510 10016 20015 39960 40007 53014 78322 887// 333 88706;
0187026800999992000123121004+56920+018150FM-12+003999999V0203301N006210015019N0030001N1+00101+00081100481ADDAY171031AY221031GA1081+001509069GF108991081061001501999999MA1999999100001MD1210241+9999MW1681REMSYN082AAXX  31214 02680 41230 83312 10010 20008 30000 40048 52024 76872 886// 333 88705;
