0147042010999992000010100004+77470-069220FM-12+001999999V0202901N001519999999N0450001N1-00821-01321096391ADDMA1999999096161MD1710111+9999REMSYN106AAXX  01004 04201 4//83 /2903 11082 21132 39616 49639 57011 72470 555 60/// 71477 72500 73500 74021 75500;
0162042010999992000010103004+77470-069220FM-12+001999999V0200901N011819999999N0070001N1-00111-00971096251ADDMA1999999096021MD1710141+9999OA149901541REMSYN110AAXX  01034 04201 45/57 /0923 11011 21097 39602 49625 57014 333 91130 555 60/// 71079 72415 73199 74068 75500;
0219042010999992000010106004+77470-069220FM-12+001999999V0200901N012919999999N0500001N1-00131-01161096271ADDKA1120M+99999KA2120N-00651MA1999999096041MD1210021+9999OA149901541REMSYN122AAXX  01064 04201 45/84 /0925 11013 21116 39604 49627 52002 333 11065 21065 91130 555 60/// 71500 72500 73500 74041 75500;EQDQ01 -00652ATMX  
0168042010999992000010109004+77470-069220FM-12+001999999V0200901N009319999999N0500001N1-00151-01281096401ADDMA1999999096171MD1210131+9999OA149902011REMSYN116AAXX  01094 04201 45/84 /0918 11015 21128 39617 49640 52013 333 91139 91230 555 60/// 71500 72500 73500 74473 75500;
0162042010999992000010112004+77470-069220FM-12+001999999V0200901N011819999999N0450001N1-00331-01391096501ADDMA1999999096271MD1210101+9999OA149902011REMSYN110AAXX  01124 04201 45/83 /0923 11033 21139 39627 49650 52010 333 91139 555 60/// 71470 72500 73500 74289 75500;
0141042010999992000010115004+77470-069220FM-12+001999999V0200801N009319999999N0500001N1-00391-01341096801ADDMA1999999096571MD1210301+9999REMSYN100AAXX  01154 04201 45/84 /0818 11039 21134 39657 49680 52030 555 60/// 71500 72500 73500 74486 75500;
0208042010999992000010118004+77470-069220FM-12+001999999V0201101N006719999999N0500001N1-00631-01341097051ADDKA1120M-00131KA2120N+99999MA1999999096821MD1210251+9999REMSYN122AAXX  01184 04201 45/84 /1113 11063 21134 39682 49705 52025 333 11013 21013 91225 555 60/// 71500 72500 73500 74850 75500;EQDQ01 -00132ATMN  
0141042010999992000010121004+77470-069220FM-12+001999999V0201001N007219999999N0500001N1-00771-01441097461ADDMA1999999097221MD1210401+9999REMSYN100AAXX  01214 04201 45/84 /1014 11077 21144 39722 49746 52040 555 60/// 71500 72500 73500 74500 75500;
0141042010999992000010200004+77470-069220FM-12+001999999V0202101N006719999999N0350001N1-00801-01321097921ADDMA1999999097681MD1210461+9999REMSYN100AAXX  02004 04201 45/81 /2113 11080 21132 39768 49792 52046 555 60/// 71359 72500 73444 74359 75500;
0157042010999992000010203004+77470-069220FM-12+001999999V0202501N002619999999N0220001N1-00951-01461098401ADDMA1999999098161MD1210481+9999REMSYN116AAXX  02034 04201 4//72 /2505 11095 21146 39816 49840 52048 78570 333 91216 555 60/// 71228 72500 73303 74178 75500;
0232042010999992000010206004+77470-069220FM-12+001999999V0201801N002119999999N0018001N1-01081-01431098831ADDKA1120M-00631KA2120N+99999MA1999999098591MD1210431+9999REMSYN146AAXX  02064 04201 4//18 /1804 11108 21143 39859 49883 52043 77170 333 11063 21063 91216 555 61991 62990 63992 64990 71018 72103 73032 74013 75500;EQDQ01 -00632ATMN  
0147042010999992000010209004+77470-069220FM-12+001999999V0201901N005719999999N0300001N1-01221-01671099251ADDMA1999999099001MD1210411+9999REMSYN106AAXX  02094 04201 4//80 /1911 11122 21167 39900 49925 52041 70077 555 63991 71348 72500 73489 74022 75500;
0147042010999992000010212004+77470-069220FM-12+001999999V0203001N001519999999N0400001N1-01331-01841099511ADDMA1999999099261MD1210261+9999REMSYN106AAXX  02124 04201 4//82 /3003 11133 21184 39926 49951 52026 70077 555 63991 71418 72500 73482 74022 75500;
0141042010999992000010215004+77470-069220FM-12+001999999V0203601N001519999999N0400001N1-01431-01961099701ADDMA1999999099451MD1210191+9999REMSYN100AAXX  02154 04201 45/82 /3603 11143 21196 39945 49970 52019 555 60/// 71443 72500 73500 74367 75500;
0202042010999992000010218004+77470-069220FM-12+001999999V0200501N001519999999N0450001N1-01531-02101099751ADDKA1120M-01081KA2120N+99999MA1999999099501MD1210051+9999REMSYN116AAXX  02184 04201 45/83 /0503 11153 21210 39950 49975 52005 333 11108 21108 555 60/// 71472 72500 73500 74286 75500;EQDQ01 -01082ATMN  
0141042010999992000010221004+77470-069220FM-12+001999999V0200701N003119999999N0500001N1-01641-02131099891ADDMA1999999099641MD1210141+9999REMSYN100AAXX  02214 04201 45/84 /0706 11164 21213 39964 49989 52014 555 60/// 71500 72500 73500 74434 75500;
0141042010999992000010303004+77470-069220FM-12+001999999V0203501N001519999999N0500001N1-01761-02261099851ADDMA1999999099601MD1710071+9999REMSYN100AAXX  03034 04201 45/84 /3503 11176 21226 39960 49985 57007 555 60/// 71500 72500 73500 74435 75500;
0202042010999992000010306004+77470-069220FM-12+001999999V0200401N000519999999N0500001N1-01891-02321099761ADDKA1120M-01531KA2120N+99999MA1999999099511MD1710091+9999REMSYN116AAXX  03064 04201 45/84 /0401 11189 21232 39951 49976 57009 333 11153 21153 555 60/// 71500 72500 73500 74435 75500;EQDQ01 -01532ATMN  
0141042010999992000010309004+77470-069220FM-12+001999999V0203201N000519999999N0450001N1-01901-02351099671ADDMA1999999099421MD1710091+9999REMSYN100AAXX  03094 04201 45/83 /3201 11190 21235 39942 49967 57009 555 60/// 71491 72500 73500 74458 75500;
0141042010999992000010312004+77470-069220FM-12+001999999V0203101N000519999999N0450001N1-01901-02341099521ADDMA1999999099271MD1710151+9999REMSYN100AAXX  03124 04201 45/83 /3101 11190 21234 39927 49952 57015 555 60/// 71472 72500 73500 74458 75500;
0162042010999992000010315004+77470-069220FM-12+001999999V0201001N007219999999N0450001N1-01841-02391099401ADDMA1999999099151MD1710121+9999OA149900721REMSYN110AAXX  03154 04201 45/83 /1014 11184 21239 39915 49940 57012 333 91114 555 60/// 71491 72500 73500 74430 75500;
0235042010999992000010318004+77470-069220FM-12+001999999V0201001N010319999999N0110001N1-01771-02371099461ADDKA1120M+99999KA2120N-01891MA1999999099211MD1210061+9999OA149999999REMSYN122AAXX  03184 04201 45/61 /1020 11177 21237 39921 49946 52006 333 11189 21189 91114 555 60/// 71115 72500 73334 74115 75500;EQDQ01  00722WGOSPDQ02 -01892ATMX  
0162042010999992000010321004+77470-069220FM-12+001999999V0200901N008719999999N0500001N1-01541-02201099701ADDMA1999999099451MD1210241+9999OA149901441REMSYN110AAXX  03214 04201 45/84 /0917 11154 21220 39945 49970 52024 333 91128 555 60/// 71500 72500 73500 74047 75500;
0162042010999992000010400004+77470-069220FM-12+001999999V0200801N007719999999N0500001N1-01521-02241099931ADDMA1999999099681MD1210231+9999OA149901441REMSYN110AAXX  04004 04201 45/84 /0815 11152 21224 39968 49993 52023 333 91128 555 60/// 71500 72500 73500 74047 75500;
0141042010999992000010403004+77470-069220FM-12+001999999V0200901N006719999999N0500001N1-01541-02201100031ADDMA1999999099781MD1210101+9999REMSYN100AAXX  04034 04201 45/84 /0913 11154 21220 39978 40003 52010 555 60/// 71500 72500 73500 74497 75500;
0202042010999992000010406004+77470-069220FM-12+001999999V0200901N006219999999N0500001N1-01601-02261100101ADDKA1120M+99999KA2120N-01771MA1999999099851MD1210071+9999REMSYN116AAXX  04064 04201 45/84 /0912 11160 21226 39985 40010 52007 333 11177 21177 555 60/// 71500 72500 73500 74424 75500;EQDQ01 -01772ATMX  
0151042010999992000010409004+77470-069220FM-12+001999999V0200901N001519999999N0500001N1-01771-02371100161ADDMA1999999099911MD1210061+9999REMSYN110AAXX  04094 04201 45/84 /0903 11177 21237 39991 40016 52006 333 91215 555 60/// 71500 72500 73500 74492 75500;
0141042010999992000010412004+77470-069220FM-12+001999999V0200501N002619999999N0500001N1-01801-02411100221ADDMA1999999099971MD1210061+9999REMSYN100AAXX  04124 04201 45/84 /0505 11180 21241 39997 40022 52006 555 60/// 71500 72500 73500 74492 75500;
0141042010999992000010415004+77470-069220FM-12+001999999V0203601N001519999999N0500001N1-01831-02451100281ADDMA1999999100031MD1210061+9999REMSYN100AAXX  04154 04201 45/84 /3603 11183 21245 30003 40028 52006 555 60/// 71500 72500 73500 74478 75500;
0202042010999992000010418004+77470-069220FM-12+001999999V0200201N000519999999N0500001N1-01941-02531100341ADDKA1120M-01601KA2120N+99999MA1999999100091MD1210061+9999REMSYN116AAXX  04184 04201 45/84 /0201 11194 21253 30009 40034 52006 333 11160 21160 555 60/// 71500 72500 73500 74478 75500;EQDQ01 -01602ATMN  
0141042010999992000010421004+77470-069220FM-12+001999999V0201101N002619999999N0500001N1-02031-02581100361ADDMA1999999100101MD1210011+9999REMSYN100AAXX  04214 04201 45/84 /1105 11203 21258 30010 40036 52001 555 60/// 71500 72500 73500 74442 75500;
0141042010999992000010500004+77470-069220FM-12+001999999V0202901N001019999999N0500001N1-02221-02691100341ADDMA1999999100081MD1710021+9999REMSYN100AAXX  05004 04201 45/84 /2902 11222 21269 30008 40034 57002 555 60/// 71500 72500 73500 74442 75500;
0141042010999992000010503004+77470-069220FM-12+001999999V0201001N000519999999N0500001N1-02221-02651100221ADDMA1999999099961MD1710121+9999REMSYN100AAXX  05034 04201 45/84 /1001 11222 21265 39996 40022 57012 555 60/// 71500 72500 73500 74079 75500;
0202042010999992000010506004+77470-069220FM-12+001999999V0201701N000519999999N0500001N1-02241-02641100141ADDKA1120M-01941KA2120N+99999MA1999999099881MD1710081+9999REMSYN116AAXX  05064 04201 45/84 /1701 11224 21264 39988 40014 57008 333 11194 21194 555 60/// 71500 72500 73500 74079 75500;EQDQ01 -01942ATMN  
0141042010999992000010509004+77470-069220FM-12+001999999V0201101N000519999999N0500001N1-02301-02691100131ADDMA1999999099871MD1710011+9999REMSYN100AAXX  05094 04201 45/84 /1101 11230 21269 39987 40013 57001 555 60/// 71500 72500 73500 74500 75500;
0141042010999992000010512004+77470-069220FM-12+001999999V0202501N000519999999N0450001N1-02331-02741100121ADDMA1999999099861MD1710011+9999REMSYN100AAXX  05124 04201 45/83 /2501 11233 21274 39986 40012 57001 555 60/// 71494 72500 73500 74494 75500;
0141042010999992000010515004+77470-069220FM-12+001999999V0202501N000519999999N0500001N1-02331-02731100121ADDMA1999999099861MD1410001+9999REMSYN100AAXX  05154 04201 45/84 /2501 11233 21273 39986 40012 54000 555 60/// 71500 72500 73500 74492 75500;
0141042010999992000010521004+77470-069220FM-12+001999999V0202301N001019999999N0500001N1-02351-02751099931ADDMA1999999099671MD1710141+9999REMSYN100AAXX  05214 04201 45/84 /2302 11235 21275 39967 49993 57014 555 60/// 71500 72500 73500 74466 75500;
0141042010999992000010603004+77470-069220FM-12+001999999V0200901N003619999999N0500001N1-02121-02661099471ADDMA1999999099221MD1710251+9999REMSYN100AAXX  06034 04201 45/84 /0907 11212 21266 39922 49947 57025 555 60/// 71500 72500 73500 74500 75500;
0202042010999992000010606004+77470-069220FM-12+001999999V0203101N002119999999N0500001N1-02031-02501099191ADDKA1120M+99999KA2120N-02181MA1999999098941MD1710281+9999REMSYN116AAXX  06064 04201 45/84 /3104 11203 21250 39894 49919 57028 333 11218 21218 555 60/// 71500 72500 73500 74486 75500;EQDQ01 -02182ATMX  
0141042010999992000010609004+77470-069220FM-12+001999999V0203101N001019999999N0500001N1-02151-02661099061ADDMA1999999098811MD1710131+9999REMSYN100AAXX  06094 04201 45/84 /3102 11215 21266 39881 49906 57013 555 60/// 71500 72500 73500 74464 75500;
0141042010999992000010612004+77470-069220FM-12+001999999V0201101N003119999999N0500001N1-01961-02551098961ADDMA1999999098711MD1710101+9999REMSYN100AAXX  06124 04201 45/84 /1106 11196 21255 39871 49896 57010 555 60/// 71500 72500 73500 74464 75500;
0141042010999992000010615004+77470-069220FM-12+001999999V0201701N001019999999N0230001N1-02141-02651098841ADDMA1999999098591MD1710121+9999REMSYN100AAXX  06154 04201 45/73 /1702 11214 21265 39859 49884 57012 555 60/// 71238 72500 73359 74070 75500;
0141042010999992000010621004+77470-069220FM-12+001999999V0201401N001019999999N0500001N1-02291-02721098741ADDMA1999999098491MD1410001+9999REMSYN100AAXX  06214 04201 45/84 /1402 11229 21272 39849 49874 54000 555 60/// 71500 72500 73500 74477 75500;
0141042010999992000010700004+77470-069220FM-12+001999999V0203201N001019999999N0110001N1-02211-02701098731ADDMA1999999098481MD1710011+9999REMSYN100AAXX  07004 04201 45/61 /3202 11221 21270 39848 49873 57001 555 60/// 71110 72500 73500 74110 75500;
0141042010999992000010703004+77470-069220FM-12+001999999V0200701N000519999999N0500001N1-02121-02611098761ADDMA1999999098511MD1210031+9999REMSYN100AAXX  07034 04201 45/84 /0701 11212 21261 39851 49876 52003 555 60/// 71500 72500 73500 74057 75500;
0202042010999992000010706004+77470-069220FM-12+001999999V0202701N000519999999N0500001N1-02311-02771098761ADDKA1120M-02051KA2120N+99999MA1999999098511MD1410001+9999REMSYN116AAXX  07064 04201 45/84 /2701 11231 21277 39851 49876 54000 333 11205 21205 555 60/// 71500 72500 73500 74057 75500;EQDQ01 -02052ATMN  
0141042010999992000010709004+77470-069220FM-12+001999999V0202301N000519999999N0500001N1-02371-02821098951ADDMA1999999098691MD1210181+9999REMSYN100AAXX  07094 04201 45/84 /2301 11237 21282 39869 49895 52018 555 60/// 71500 72500 73500 74491 75500;
0141042010999992000010712004+77470-069220FM-12+001999999V0203001N000519999999N0450001N1-02271-02721099091ADDMA1999999098831MD1210141+9999REMSYN100AAXX  07124 04201 45/83 /3001 11227 21272 39883 49909 52014 555 60/// 71450 72500 73500 74363 75500;
0141042010999992000010715004+77470-069220FM-12+001999999V0202101N000519999999N0450001N1-02381-02801099311ADDMA1999999099051MD1210221+9999REMSYN100AAXX  07154 04201 45/83 /2101 11238 21280 39905 49931 52022 555 60/// 71489 72500 73500 74118 75500;
0183042010999992000010718004+77470-069220FM-12+001999999V0202401N001019999999N0500001N1-02351-02771099531ADDKA1120M-02311KA2120N-02311MA1999999099271MD1210221+9999REMSYN116AAXX  07184 04201 45/84 /2402 11235 21277 39927 49953 52022 333 11231 21231 555 60/// 71500 72500 73500 74118 75500;
0147042010999992000010721004+77470-069220FM-12+001999999V0203101N000519999999N0500001N1-02201-02661099721ADDMA1999999099461MD1210191+9999REMSYN106AAXX  07214 04201 45/84 /3101 11220 21266 39946 49972 52019 555 63996 64006 71500 72500 73500 74457 75500;
0141042010999992000010800004+77470-069220FM-12+001999999V0209999C000019999999N0500001N1-02011-02511099921ADDMA1999999099671MD1210211+9999REMSYN100AAXX  08004 04201 45/84 /0000 11201 21251 39967 49992 52021 555 63996 71500 72500 73500 74457 75500;
0147042010999992000010803004+77470-069220FM-12+001999999V0203001N002119999999N0500001N1-02071-02481099931ADDMA1999999099671MD1410001+9999REMSYN106AAXX  08034 04201 4//84 /3004 11207 21248 39967 49993 54000 70070 555 60/// 71500 72500 73500 74037 75500;
0169042010999992000010806004+77470-069220FM-12+001999999V0200701N000519999999N0160001N1-01961-02331099961ADDKA1120M-01931KA2120N-02171MA1999999099711REMSYN116AAXX  08064 04201 4//66 /0701 11196 21233 39971 49996 77770 333 11193 21217 555 63990 71162 72307 73230 74119 75500;
0165042010999992000010809004+77470-069220FM-12+001999999V0209999C000019999999N0029001N1-01851-02141099991ADDMA1999999099741MD1210031+9999REMSYN124AAXX  08094 04201 4//29 /0000 11185 21214 39974 49999 52003 77177 555 61991 62990 63991 64990 71029 72067 73049 74029 75500;
0171042010999992000010812004+77470-069220FM-12+001999999V0201001N007219999999N0045001N1-01801-02271100011ADDMA1999999099761MD1210021+9999REMSYN130AAXX  08124 04201 4//45 /1014 11180 21227 39976 40001 52002 71177 555 61990 62990 63991 64990 65001 71045 72096 73061 74029 75500;
0153042010999992000010815004+77470-069220FM-12+001999999V0201201N007719999999N0043001N1-01831-02281100021ADDMA1999999099771MD1210011+9999REMSYN112AAXX  08154 04201 4//43 /1215 11183 21228 39977 40002 52001 71177 555 63990 64990 71043 72095 73063 74038 75451;
0151042010999992000010909004+77470-069220FM-12+001999999V0202901N000519999999N0500001N1-02181-02581100451ADDMA1999999100191MD1710191+9999REMSYN110AAXX  09094 04201 45/84 /2901 11218 21258 30019 40045 57019 333 91214 555 60/// 71500 72500 73500 74500 75500;
0151042010999992000010912004+77470-069220FM-12+001999999V0203301N001519999999N0450001N1-02161-02661100081ADDMA1999999099821MD1710371+9999REMSYN110AAXX  09124 04201 45/83 /3303 11216 21266 39982 40008 57037 333 91214 555 60/// 71455 72500 73500 74302 75500;
0141042010999992000010915004+77470-069220FM-12+001999999V0201201N009819999999N0450001N1-02111-02621100021ADDMA1999999099761MD1710061+9999REMSYN100AAXX  09154 04201 45/83 /1219 11211 21262 39976 40002 57006 555 60/// 71464 72500 73500 74464 75500;
0183042010999992000010918004+77470-069220FM-12+001999999V0200801N009319999999N0500001N1-02041-02621100131ADDKA1120M-01961KA2120N-02351MA1999999099871MD1210111+9999REMSYN116AAXX  09184 04201 45/84 /0818 11204 21262 39987 40013 52011 333 11196 21235 555 60/// 71500 72500 73500 74464 75500;
0157042010999992000010921004+77470-069220FM-12+001999999V0200301N002119999999N0500001N1-02161-02721100071ADDMA1999999099811MD1710061+9999REMSYN116AAXX  09214 04201 45/84 /0304 11216 21272 39981 40007 57006 333 91218 555 63997 64007 71500 72500 73500 74485 75500;
0151042010999992000011000004+77470-069220FM-12+001999999V0202901N002119999999N0450001N1-02351-02781099821ADDMA1999999099561MD1710251+9999REMSYN110AAXX  10004 04201 45/83 /2904 11235 21278 39956 49982 57025 333 91218 555 63997 71484 72500 73500 74465 75500;
0141042010999992000011003004+77470-069220FM-12+001999999V0200501N001019999999N0500001N1-02251-02721099731ADDMA1999999099471MD1710091+9999REMSYN100AAXX  10034 04201 45/84 /0502 11225 21272 39947 49973 57009 555 60/// 71500 72500 73500 74500 75500;
0189042010999992000011006004+77470-069220FM-12+001999999V0200901N008219999999N0230001N1-02061-02551100071ADDKA1120M-02021KA2120N-02431MA1999999099811MD1210341+9999REMSYN122AAXX  10064 04201 4//73 /0916 11206 21255 39981 40007 52034 71170 333 11202 21243 555 60/// 71232 72500 73500 74038 75500;
0141042010999992000011009004+77470-069220FM-12+001999999V0201001N007219999999N0500001N1-02121-02671100501ADDMA1999999100241MD1210431+9999REMSYN100AAXX  10094 04201 45/84 /1014 11212 21267 30024 40050 52043 555 60/// 71500 72500 73500 74386 75500;
0141042010999992000011012004+77470-069220FM-12+001999999V0201001N007219999999N0450001N1-02091-02651100811ADDMA1999999100551MD1210311+9999REMSYN100AAXX  10124 04201 45/83 /1014 11209 21265 30055 40081 52031 555 60/// 71484 72500 73500 74107 75500;
0141042010999992000011015004+77470-069220FM-12+001999999V0200801N007719999999N0500001N1-02101-02661101051ADDMA1999999100791MD1210241+9999REMSYN100AAXX  10154 04201 45/84 /0815 11210 21266 30079 40105 52024 555 60/// 71500 72500 73500 74474 75500;
0183042010999992000011018004+77470-069220FM-12+001999999V0200901N007719999999N0500001N1-02151-02751101261ADDKA1120M-01981KA2120N-02401MA1999999101001MD1210211+9999REMSYN116AAXX  10184 04201 45/84 /0915 11215 21275 30100 40126 52021 333 11198 21240 555 60/// 71500 72500 73500 74474 75500;
0141042010999992000011021004+77470-069220FM-12+001999999V0200901N005719999999N0500001N1-02281-02861101401ADDMA1999999101141MD1210141+9999REMSYN100AAXX  10214 04201 45/84 /0911 11228 21286 30114 40140 52014 555 60/// 71500 72500 73500 74403 75500;
0151042010999992000011100004+77470-069220FM-12+001999999V0203401N001519999999N0500001N1-02411-02951101431ADDMA1999999101171MD1210031+9999REMSYN110AAXX  11004 04201 45/84 /3403 11241 21295 30117 40143 52003 333 91215 555 60/// 71500 72500 73500 74403 75500;
0141042010999992000011103004+77470-069220FM-12+001999999V0203601N001019999999N0500001N1-02451-02991101371ADDMA1999999101111MD1710061+9999REMSYN100AAXX  11034 04201 45/84 /3602 11245 21299 30111 40137 57006 555 60/// 71500 72500 73500 74487 75500;
0183042010999992000011106004+77470-069220FM-12+001999999V0200401N000519999999N0500001N1-02471-02951101301ADDKA1120M-02121KA2120N-02811MA1999999101041MD1710071+9999REMSYN116AAXX  11064 04201 45/84 /0401 11247 21295 30104 40130 57007 333 11212 21281 555 60/// 71500 72500 73500 74487 75500;
0141042010999992000011109004+77470-069220FM-12+001999999V0201001N006219999999N0500001N1-02351-02891101311ADDMA1999999101051MD1210011+9999REMSYN100AAXX  11094 04201 45/84 /1012 11235 21289 30105 40131 52001 555 60/// 71500 72500 73500 74500 75500;
0141042010999992000011112004+77470-069220FM-12+001999999V0200901N009319999999N0500001N1-02231-02861101401ADDMA1999999101141MD1210091+9999REMSYN100AAXX  11124 04201 45/84 /0918 11223 21286 30114 40140 52009 555 60/// 71500 72500 73500 74500 75500;
0162042010999992000011115004+77470-069220FM-12+001999999V0201001N009819999999N0500001N1-02331-02961101551ADDMA1999999101291MD1210151+9999OA149901341REMSYN110AAXX  11154 04201 45/84 /1019 11233 21296 30129 40155 52015 333 91126 555 60/// 71500 72500 73500 74500 75500;
0200042010999992000011118004+77470-069220FM-12+001999999V0200901N006219999999N0500001N1-02201-02871101681ADDKA1120M-01981KA2120N-02561MA1999999101421MD1210131+9999OA149901341REMSYN122AAXX  11184 04201 45/84 /0912 11220 21287 30142 40168 52013 333 11198 21256 91126 555 60/// 71500 72500 73500 74500 75500;
0162042010999992000011121004+77470-069220FM-12+001999999V0203201N001519999999N0500001N1-02361-02961101751ADDMA1999999101491MD1210071+9999OA149900821REMSYN110AAXX  11214 04201 45/84 /3203 11236 21296 30149 40175 52007 333 91116 555 60/// 71500 72500 73500 74455 75500;
0162042010999992000011200004+77470-069220FM-12+001999999V0200901N006219999999N0500001N1-02171-02831101641ADDMA1999999101381MD1710111+9999OA149900821REMSYN110AAXX  12004 04201 45/84 /0912 11217 21283 30138 40164 57011 333 91116 555 60/// 71500 72500 73500 74455 75500;
0162042010999992000011203004+77470-069220FM-12+001999999V0203401N001019999999N0500001N1-02401-02991101481ADDMA1999999101221MD1710161+9999OA149901031REMSYN110AAXX  12034 04201 45/84 /3402 11240 21299 30122 40148 57016 333 91120 555 60/// 71500 72500 73500 74900 75500;
0200042010999992000011206004+77470-069220FM-12+001999999V0200701N006719999999N0500001N1-02181-02811101201ADDKA1120M-02061KA2120N-02561MA1999999100941MD1710281+9999OA149901031REMSYN122AAXX  12064 04201 45/84 /0713 11218 21281 30094 40120 57028 333 11206 21256 91120 555 60/// 71500 72500 73500 74900 75500;
0141042010999992000011209004+77470-069220FM-12+001999999V0200501N003119999999N0500001N1-02111-02761100771ADDMA1999999100511MD1710431+9999REMSYN100AAXX  12094 04201 45/84 /0506 11211 21276 30051 40077 57043 555 60/// 71500 72500 73500 74500 75500;
0151042010999992000011212004+77470-069220FM-12+001999999V0202601N000519999999N0450001N1-02351-02901100221ADDMA1999999099961MD1710551+9999REMSYN110AAXX  12124 04201 45/83 /2601 11235 21290 39996 40022 57055 333 91213 555 60/// 71494 72500 73500 74494 75500;
0141042010999992000011215004+77470-069220FM-12+001999999V0201001N005719999999N0500001N1-02301-02801099651ADDMA1999999099391MD1710571+9999REMSYN100AAXX  12154 04201 45/84 /1011 11230 21280 39939 49965 57057 555 60/// 71500 72500 73500 74462 75500;
0189042010999992000011218004+77470-069220FM-12+001999999V0201301N002119999999N0270001N1-02171-02571098961ADDKA1120M-02051KA2120N-02541MA1999999098711MD1710681+9999REMSYN122AAXX  12184 04201 4//77 /1304 11217 21257 39871 49896 57068 78570 333 11205 21254 555 63990 71274 72500 73500 74037 75500;
0168042010999992000011221004+77470-069220FM-12+001999999V0201601N004119999999N0500001N1-02011-02391098741ADDMA1999999098491MD1710221+9999OA149901241REMSYN116AAXX  12214 04201 4//84 /1608 11201 21239 39849 49874 57022 70077 333 91124 555 63990 71500 72500 73500 74099 75500;
0174042010999992000011300004+77470-069220FM-12+001999999V0203101N001019999999N0500001N1-01881-02241098781ADDMA1999999098531MD1210041+9999OA149901241REMSYN122AAXX  13004 04201 4//84 /3102 11188 21224 39853 49878 52004 70077 333 91124 91217 555 63990 71500 72500 73500 74099 75500;
0141042010999992000011303004+77470-069220FM-12+001999999V0200901N006719999999N0450001N1-01301-01951098941ADDMA1999999098691MD1210161+9999REMSYN100AAXX  13034 04201 45/83 /0913 11130 21195 39869 49894 52016 555 60/// 71481 72500 73500 74850 75500;
0206042010999992000011306004+77470-069220FM-12+001999999V0201201N011819999999N0170001N1-01561-02171099231ADDKA1120M-01251KA2120N-02171MA1999999098981MD1210291+9999OA149902061REMSYN128AAXX  13064 04201 4//67 /1223 11156 21217 39898 49923 52029 72470 333 11125 21217 91140 555 63990 71170 72269 73216 74850 75500;
0180042010999992000011309004+77470-069220FM-12+001999999V0201601N011319999999N0050001N1-01741-02161099961ADDMA1999999099711MD1210731+9999OA149902011REMSYN128AAXX  13094 04201 4//50 /1622 11174 21216 39971 49996 52073 71171 333 91139 555 61990 62990 63990 71059 72088 73075 74034 75292;
0168042010999992000011312004+77470-069220FM-12+001999999V0201501N008719999999N0080001N1-01661-02081100801ADDMA1999999100551MD1210841+9999OA149902011REMSYN116AAXX  13124 04201 4//58 /1517 11166 21208 30055 40080 52084 71171 333 91139 555 63990 71082 72158 73132 74034 75292;
0168042010999992000011315004+77470-069220FM-12+001999999V0201401N010319999999N0400001N1-01701-02251101501ADDMA1999999101241MD1210691+9999OA149901651REMSYN116AAXX  13154 04201 4//82 /1420 11170 21225 30124 40150 52069 70077 333 91132 555 60/// 71409 72500 73482 74120 75500;
0206042010999992000011318004+77470-069220FM-12+001999999V0201401N007219999999N0450001N1-01731-02261101981ADDKA1120M-01521KA2120N-01871MA1999999101721MD1210481+9999OA149901651REMSYN128AAXX  13184 04201 4//83 /1414 11173 21226 30172 40198 52048 70077 333 11152 21187 91132 555 63990 71464 72500 73500 74120 75500;
0172042010999992000011321004+77470-069220FM-12+001999999V0200901N008219999999N0300001N1-01721-02341101981ADDMA1999999101721MD1410001+9999OA149901491REMSYN120    AAXX  13214 04201 45/80 /0916 11172 21234 30172 40198 54000 333 91129 91029 555 60/// 71326 72500 73467 74326 75500;
0172042010999992000011400004+77470-069220FM-12+001999999V0200901N006719999999N0500001N1-01711-02371101801ADDMA1999999101541MD1710181+9999OA149901491REMSYN120    AAXX  14004 04201 4//84 /0913 11171 21237 30154 40180 57018 72470 333 91129 555 60/// 71500 72500 73500 74240 75500;
0125042010999992000011421004+77470-069220FM-12+001999999V0203601N001019999999N0500001N1-02321-02851100801ADDMA1999999100541REMSYN098    AAXX  14214 04201 45/84 /3602 11232 21285 30054 40080 555 60/// 71500 72500 73500 74500 75500;
0145042010999992000011500004+77470-069220FM-12+001999999V0203201N000519999999N0500001N1-02531-02971100431ADDMA1999999100171MD1710371+9999REMSYN104    AAXX  15004 04201 45/84 /3201 11253 21297 30017 40043 57037 555 60/// 71500 72500 73500 74452 75500;
0145042010999992000011503004+77470-069220FM-12+001999999V0201901N000519999999N0500001N1-02431-02911099971ADDMA1999999099711MD1710461+9999REMSYN104    AAXX  15034 04201 45/84 /1901 11243 21291 39971 49997 57046 555 60/// 71500 72500 73500 74467 75500;
0187042010999992000011506004+77470-069220FM-12+001999999V0203001N000519999999N0500001N1-02521-02981099561ADDKA1120M-02251KA2120N-02631MA1999999099301MD1710411+9999REMSYN120    AAXX  15064 04201 45/84 /3001 11252 21298 39930 49956 57041 333 11225 21263 555 60/// 71500 72500 73500 74467 75500;
0145042010999992000011509004+77470-069220FM-12+001999999V0203301N000519999999N0500001N1-02561-03031099351ADDMA1999999099091MD1710211+9999REMSYN104    AAXX  15094 04201 45/84 /3301 11256 21303 39909 49935 57021 555 60/// 71500 72500 73500 74368 75500;
0145042010999992000011512004+77470-069220FM-12+001999999V0202501N001019999999N0500001N1-02491-02981099261ADDMA1999999099001MD1710091+9999REMSYN104    AAXX  15124 04201 45/84 /2502 11249 21298 39900 49926 57009 555 60/// 71500 72500 73500 74368 75500;
0145042010999992000011515004+77470-069220FM-12+001999999V0203201N001519999999N0450001N1-02431-02931099341ADDMA1999999099081MD1210081+9999REMSYN104    AAXX  15154 04201 45/83 /3203 11243 21293 39908 49934 52008 555 60/// 71484 72500 73500 74484 75500;
0187042010999992000011518004+77470-069220FM-12+001999999V0203001N001019999999N0500001N1-02531-03021099481ADDKA1120M-02371KA2120N-02561MA1999999099221MD1210141+9999REMSYN120    AAXX  15184 04201 45/84 /3002 11253 21302 39922 49948 52014 333 11237 21256 555 60/// 71500 72500 73500 74285 75500;
0145042010999992000011521004+77470-069220FM-12+001999999V0209999C000019999999N0450001N1-02501-02991099761ADDMA1999999099501MD1210281+9999REMSYN104    AAXX  15214 04201 45/83 /0000 11250 21299 39950 49976 52028 555 60/// 71498 72500 73500 74378 75500;
0145042010999992000011600004+77470-069220FM-12+001999999V0202701N000519999999N0500001N1-02561-02991100041ADDMA1999999099781MD1210281+9999REMSYN104    AAXX  16004 04201 45/84 /2701 11256 21299 39978 40004 52028 555 60/// 71500 72500 73500 74378 75500;
0125042010999992000011603004+77470-069220FM-12+001999999V0202801N000519999999N0450001N1-02421-02871100201ADDMA1999999099941REMSYN098    AAXX  16034 04201 45/83 /2801 11242 21287 39994 40020 555 60/// 71492 72500 73500 74492 75500;
0187042010999992000011606004+77470-069220FM-12+001999999V0203001N000519999999N0450001N1-02231-02711100461ADDKA1120M-02231KA2120N-02431MA1999999100201MD1210261+9999REMSYN120    AAXX  16064 04201 45/83 /3001 11223 21271 30020 40046 52026 333 11223 21243 555 60/// 71466 72500 73500 74363 75500;
0145042010999992000011609004+77470-069220FM-12+001999999V0203501N000519999999N0450001N1-02081-02591100861ADDMA1999999100601MD1210401+9999REMSYN104    AAXX  16094 04201 45/83 /3501 11208 21259 30060 40086 52040 555 60/// 71491 72500 73500 74482 75500;
0145042010999992000011612004+77470-069220FM-12+001999999V0203201N002119999999N0450001N1-01671-02181101131ADDMA1999999100881MD1210281+9999REMSYN104    AAXX  16124 04201 45/83 /3204 11167 21218 30088 40113 52028 555 60/// 71487 72500 73500 74463 75500;
0167042010999992000011615004+77470-069220FM-12+001999999V0201501N001519999999N0270001N1-01691-02071101291ADDMA1999999101041MD1210161+9999REMSYN126    AAXX  16154 04201 4//77 /1503 11169 21207 30104 40129 52016 78570 333 91214 555 63990 64990 71279 72500 73386 74082 75500;
0199042010999992000011618004+77470-069220FM-12+001999999V0203301N002119999999N0400001N1-01851-02071101411ADDKA1120M-01531KA2120N-02271MA1999999101151MD1210111+9999REMSYN132    AAXX  16184 04201 4//82 /3304 11185 21207 30115 40141 52011 72470 333 11153 21227 555 63990 64990 71441 72500 73500 74043 75500;
0145042010999992000011621004+77470-069220FM-12+001999999V0203101N004119999999N0450001N1-01761-02131101661ADDMA1999999101401MD1210251+9999REMSYN104    AAXX  16214 04201 45/83 /3108 11176 21213 30140 40166 52025 555 60/// 71499 72500 73500 74118 75500;
0169042010999992000011700004+77470-069220FM-12+001999999V0203201N003619999999N0050001N1-01781-02101101841ADDMA1999999101581MD1210181+9999REMSYN128    AAXX  17004 04201 4//50 /3207 11178 21210 30158 40184 52018 77770 555 61990 62990 63990 64990 71050 72080 73058 74961 75500;
0151042010999992000011703004+77470-069220FM-12+001999999V0203401N002119999999N0450001N1-01751-02141102011ADDMA1999999101751MD1210171+9999REMSYN110    AAXX  17034 04201 4//83 /3404 11175 21214 30175 40201 52017 70077 555 63990 71499 72500 73500 74841 75500;
0193042010999992000011706004+77470-069220FM-12+001999999V0201901N008219999999N0400001N1-01781-02281102131ADDKA1120M-01641KA2120N-01991MA1999999101871MD1210121+9999REMSYN126    AAXX  17064 04201 4//82 /1916 11178 21228 30187 40213 52012 70077 333 11164 21199 555 63990 71440 72500 73500 74841 75500;
0155042010999992000011709004+77470-069220FM-12+001999999V0200801N002619999999N0450001N1-01811-02351102231ADDMA1999999101971MD1210101+9999REMSYN114    AAXX  17094 04201 45/83 /0805 11181 21235 30197 40223 52010 333 91216 555 60/// 71489 72500 73500 74476 75500;
0166042010999992000011712004+77470-069220FM-12+001999999V0201701N005119999999N0500001N1-01821-02331102371ADDMA1999999102111MD1210141+9999OA149900881REMSYN114    AAXX  17124 04201 45/84 /1710 11182 21233 30211 40237 52014 333 91117 555 60/// 71500 72500 73500 74471 75500;
0145042010999992000011715004+77470-069220FM-12+001999999V0201601N007219999999N0500001N1-01851-02371102461ADDMA1999999102201MD1210091+9999REMSYN104    AAXX  17154 04201 45/84 /1614 11185 21237 30220 40246 52009 555 60/// 71500 72500 73500 74469 75500;
0145042010999992000011721004+77470-069220FM-12+001999999V0202601N003119999999N0450001N1-02161-02631102681ADDMA1999999102421MD1210141+9999REMSYN104    AAXX  17214 04201 45/83 /2606 11216 21263 30242 40268 52014 555 60/// 71465 72500 73500 74435 75500;
0125042010999992000011800004+77470-069220FM-12+001999999V0202901N003119999999N0280001N1-02211-02631102681ADDMA1999999102421REMSYN098    AAXX  18004 04201 45/78 /2906 11221 21263 30242 40268 555 60/// 71284 72500 73500 74284 75500;
0151042010999992000011803004+77470-069220FM-12+001999999V0200201N001019999999N0130001N1-02151-02591102691ADDMA1999999102431MD1210011+9999REMSYN110    AAXX  18034 04201 4//63 /0202 11215 21259 30243 40269 52001 77770 555 60/// 71131 72421 73166 74131 75500;
0211042010999992000011806004+77470-069220FM-12+001999999V0202401N002619999999N0070001N1-02161-02571102831ADDKA1120M-01981KA2120N-02271MA1999999102571MD1210141+9999REMSYN144    AAXX  18064 04201 4//57 /2405 11216 21257 30257 40283 52014 77770 333 11198 21227 555 61997 62990 63997 64007 71074 72147 73098 74071 75500;
0151042010999992000011809004+77470-069220FM-12+001999999V0201901N002119999999N0450001N1-02221-02641103001ADDMA1999999102741MD1210171+9999REMSYN110    AAXX  18094 04201 4//83 /1904 11222 21264 30274 40300 52017 70077 555 63990 71474 72500 73500 74070 75500;
0172042010999992000011812004+77470-069220FM-12+001999999V0201701N006719999999N0270001N1-02221-02731103071ADDMA1999999102811MD1210071+9999OA149900671REMSYN120    AAXX  18124 04201 4//77 /1713 11222 21273 30281 40307 52007 70077 333 91113 555 63990 71274 72500 73483 74070 75500;
0145042010999992000011815004+77470-069220FM-12+001999999V0203501N003119999999N0350001N1-02441-02911103011ADDMA1999999102741MD1710071+9999REMSYN104    AAXX  18154 04201 45/81 /3506 11244 21291 30274 40301 57007 555 60/// 71364 72500 73500 74101 75500;
0211042010999992000011818004+77470-069220FM-12+001999999V0203501N001019999999N0020001N1-02381-02701102881ADDKA1120M-02121KA2120N-02471MA1999999102611MD1710131+9999REMSYN144    AAXX  18184 04201 4//20 /3502 11238 21270 30261 40288 57013 77771 333 11212 21247 91213 555 61990 62990 63990 71020 72042 73025 74020 75500;
0157042010999992000011821004+77470-069220FM-12+001999999V0203601N003119999999N0000001N1-02561-02881102821ADDMA1999999102551MD1710061+9999REMSYN116    AAXX  18214 04201 4//00 /3606 11256 21288 30255 40282 57006 71177 555 63990 65001 71940 72065 73046 74940 75131;
0151042010999992000011900004+77470-069220FM-12+001999999V0200401N002619999999N0350001N1-02601-02951102781ADDMA1999999102511MD1710041+9999REMSYN110    AAXX  19004 04201 4//81 /0405 11260 21295 30251 40278 57004 72477 555 63990 71357 72500 73500 74940 75500;
0145042010999992000011903004+77470-069220FM-12+001999999V0203401N001019999999N0450001N1-02741-03081102901ADDMA1999999102631MD1210121+9999REMSYN104    AAXX  19034 04201 45/83 /3402 11274 21308 30263 40290 52012 555 60/// 71478 72500 73500 74449 75500;
0193042010999992000011906004+77470-069220FM-12+001999999V0200201N001019999999N0110001N1-02781-03111103051ADDKA1120M-02371KA2120N-02841MA1999999102781MD1210151+9999REMSYN126    AAXX  19064 04201 45/61 /0202 11278 21311 30278 40305 52015 333 11237 21284 555 63998 64001 71110 72500 73163 74110 75500;
0145042010999992000011912004+77470-069220FM-12+001999999V0201101N001019999999N0500001N1-02861-03251103361ADDMA1999999103091MD1210091+9999REMSYN104    AAXX  19124 04201 45/84 /1102 11286 21325 30309 40336 52009 555 60/// 71500 72500 73500 74120 75500;
0144042010999992000011915004+77470-069220FM-12+001999999V0202201N000519999999N0450001N1-02921-03301103431ADDMA1999999103161MD1210071+9999REMSYN103    AAXX  19154 04201 45/83 /2201 11292 21330 30316 40343 52007555 60/// 71467 72500 73500 74467 75500;
0183042010999992000011918004+77470-069220FM-12+001999999V0209999C000019999999N0500001N1-02851-03251103471ADDKA1120M-02601KA2120N-03031MA1999999103201MD1210041+9999REMSYN116AAXX  19184 04201 45/84 /0000 11285 21325 30320 40347 52004 333 11260 21303 555 60/// 71500 72500 73500 74453 75500;
0141042010999992000011921004+77470-069220FM-12+001999999V0209999C000019999999N0450001N1-03041-03361103511ADDMA1999999103241MD1210041+9999REMSYN100AAXX  19214 04201 45/83 /0000 11304 21336 30324 40351 52004 555 60/// 71483 72500 73500 74140 75500;
0141042010999992000012000004+77470-069220FM-12+001999999V0202301N000519999999N0500001N1-02961-03331103431ADDMA1999999103161MD1710081+9999REMSYN100AAXX  20004 04201 45/84 /2301 11296 21333 30316 40343 57008 555 60/// 71500 72500 73500 74140 75500;
0183042010999992000012006004+77470-069220FM-12+001999999V0202901N001019999999N0500001N1-03011-03401102721ADDKA1120M-02801KA2120N-03111MA1999999102451MD1710431+9999REMSYN116AAXX  20064 04201 45/84 /2902 11301 21340 30245 40272 57043 333 11280 21311 555 60/// 71500 72500 73500 74950 75500;
0141042010999992000012009004+77470-069220FM-12+001999999V0202801N001019999999N0500001N1-03121-03471102171ADDMA1999999101901MD1710551+9999REMSYN100AAXX  20094 04201 45/84 /2802 11312 21347 30190 40217 57055 555 60/// 71500 72500 73500 74494 75500;
0141042010999992000012012004+77470-069220FM-12+001999999V0200201N000519999999N0500001N1-02991-03371101561ADDMA1999999101291MD1710611+9999REMSYN100AAXX  20124 04201 45/84 /0201 11299 21337 30129 40156 57061 555 60/// 71500 72500 73500 74950 75500;
0141042010999992000012015004+77470-069220FM-12+001999999V0202701N000519999999N0400001N1-02961-03341101061ADDMA1999999100791MD1710501+9999REMSYN100AAXX  20154 04201 45/82 /2701 11296 21334 30079 40106 57050 555 60/// 71418 72500 73500 74412 75500;
0183042010999992000012018004+77470-069220FM-12+001999999V0203101N001019999999N0350001N1-02951-03321100671ADDKA1120M-02801KA2120N-03121MA1999999100401MD1710391+9999REMSYN116AAXX  20184 04201 45/81 /3102 11295 21332 30040 40067 57039 333 11280 21312 555 60/// 71383 72500 73500 74201 75500;
0141042010999992000012100004+77470-069220FM-12+001999999V0203101N000519999999N0450001N1-02741-03131100731ADDMA1999999100471MD1210071+9999REMSYN100AAXX  21004 04201 45/83 /3101 11274 21313 30047 40073 52007 555 60/// 71478 72500 73500 74063 75500;
0183042010999992000012106004+77470-069220FM-12+001999999V0201401N000519999999N0500001N1-02541-02941101081ADDKA1120M-02451KA2120N-03001MA1999999100821MD1210171+9999REMSYN116AAXX  21064 04201 45/84 /1401 11254 21294 30082 40108 52017 333 11245 21300 555 60/// 71500 72500 73500 74479 75500;
0141042010999992000012109004+77470-069220FM-12+001999999V0201301N001019999999N0500001N1-02451-02821101301ADDMA1999999101041MD1210221+9999REMSYN100AAXX  21094 04201 45/84 /1302 11245 21282 30104 40130 52022 555 60/// 71500 72500 73500 74465 75500;
0141042010999992000012112004+77470-069220FM-12+001999999V0202801N001519999999N0450001N1-02231-02611101371ADDMA1999999101111MD1210071+9999REMSYN100AAXX  21124 04201 45/83 /2803 11223 21261 30111 40137 52007 555 60/// 71487 72500 73500 74451 75500;
0178042010999992000012115004+77470-069220FM-12+001999999V0203201N000519999999N0021001N1-02191-02431101461ADDMA1999999101201MD1210091+9999REMSYN137AAXX  21154 04201 4//21 /3201 11219 21243 30120 40146 52009 77770 555 61991 62990 63991 65001 71021 72034 73027 74021 75 T NA181 211514 ;
0207042010999992000012118004+77470-069220FM-12+001999999V0202601N000519999999N0025001N1-01971-02161101451ADDKA1120M-01971KA2120N-02571MA1999999101191MD1710011+9999REMSYN140AAXX  21184 04201 4//25 /2601 11197 21216 30119 40145 57001 76770 333 11197 21257 555 61990 62990 63993 65001 71025 72034 73029 74015 75500;
0147042010999992000012200004+77470-069220FM-12+001999999V0202901N001519999999N0300001N1-02081-02231101251ADDMA1999999100991MD1710211+9999REMSYN106AAXX  22004 04201 4//80 /2903 11208 21223 30099 40125 57021 72277 555 63992 71315 72460 73347 74013 75500;
0159042010999992000012203004+77470-069220FM-12+001999999V0203001N003119999999N0080001N1-02041-02181100941ADDMA1999999100681MD1710311+9999REMSYN118AAXX  22034 04201 4//58 /3006 11204 21218 30068 40094 57031 71170 555 61990 62990 63990 71089 72500 73198 74089 75500;
0147042010999992000012212004+77470-069220FM-12+001999999V0201101N005719999999N0300001N1-01911-02061099991ADDMA1999999099741MD1710201+9999REMSYN106AAXX  22124 04201 4//80 /1111 11191 21206 39974 49999 57020 70077 555 63992 71319 72468 73396 74025 75500;
0151042010999992000012215004+77470-069220FM-12+001999999V0201901N000519999999N0130001N1-01811-01981099921ADDMA1999999099671MD1710071+9999REMSYN110AAXX  22154 04201 45/63 /1901 11181 21198 39967 49992 57007 333 91212 555 60/// 71134 72178 73147 74134 75500;
0207042010999992000012218004+77470-069220FM-12+001999999V0200701N001019999999N0035001N1-01741-01871100021ADDKA1120M-01701KA2120N-02271MA1999999099771MD1210101+9999REMSYN140AAXX  22184 04201 4//35 /0702 11174 21187 39977 40002 52010 77170 333 11170 21227 555 61991 62990 63993 65001 71035 72049 73042 74025 75500;
0165042010999992000012221004+77470-069220FM-12+001999999V0200701N002119999999N0032001N1-01591-01751100471ADDMA1999999100221MD1210451+9999REMSYN124AAXX  22214 04201 4//32 /0704 11159 21175 30022 40047 52045 77177 555 61991 62990 63992 65001 71032 72130 73042 74032 75143;
0186042010999992000012300004+77470-069220FM-12+001999999V0201201N007719999999N0017001N1-01191-01451100931ADDMA1999999100681MD1210461+9999OA149901441REMSYN134AAXX  23004 04201 4//17 /1215 11119 21145 30068 40093 52046 77777 333 91128 555 61990 62990 63993 65004 71017 72190 73118 74894 75190;
0157042010999992000012303004+77470-069220FM-12+001999999V0202401N002619999999N0150001N1-01381-01771101111ADDMA1999999100861MD1210181+9999REMSYN116AAXX  23034 04201 4//65 /2405 11138 21177 30086 40111 52018 70077 333 91217 555 63990 71155 72282 73206 74067 75325;
0207042010999992000012306004+77470-069220FM-12+001999999V0203201N002119999999N0024001N1-01441-01731100951ADDKA1120M-01021KA2120N-01751MA1999999100701MD1710161+9999REMSYN140AAXX  23064 04201 4//24 /3204 11144 21173 30070 40095 57016 77177 333 11102 21175 91217 555 61991 62990 63991 71024 72051 73039 74023 75448;
0165042010999992000012309004+77470-069220FM-12+001999999V0200401N001519999999N0060001N1-01581-01741100661ADDMA1999999100411MD1710291+9999REMSYN124AAXX  23094 04201 4//56 /0403 11158 21174 30041 40066 57029 77777 555 61990 62990 63992 65002 71066 72085 73073 74023 75093;
0153042010999992000012315004+77470-069220FM-12+001999999V0201101N002119999999N0100001N1-01811-01971099881ADDMA1999999099631MD1710431+9999REMSYN112AAXX  23154 04201 4//60 /1104 11181 21197 39963 49988 57043 77777 555 63992 65001 71103 72150 73123 74049 75150;
0189042010999992000012318004+77470-069220FM-12+001999999V0209999C000019999999N0280001N1-02001-02141099301ADDKA1120M-01411KA2120N-02071MA1999999099051MD1710581+9999REMSYN122AAXX  23184 04201 4//78 /0000 11200 21214 39905 49930 57058 70077 333 11141 21207 555 63992 71282 72422 73328 74049 75500;
0147042010999992000012321004+77470-069220FM-12+001999999V0201101N003619999999N0290001N1-02011-02101098821ADDMA1999999098571MD1710481+9999REMSYN106AAXX  23214 04201 4//79 /1107 11201 21210 39857 49882 57048 72470 555 60/// 71294 72430 73372 74110 75495;
0147042010999992000012400004+77470-069220FM-12+001999999V0200801N004619999999N0070001N1-01791-01921098551ADDMA1999999098301MD1710271+9999REMSYN106AAXX  24004 04201 4//57 /0809 11179 21192 39830 49855 57027 70070 555 60/// 71078 72111 73098 74069 75495;
0159042010999992000012403004+77470-069220FM-12+001999999V0201001N008219999999N0014001N1-01711-01881098421ADDMA1999999098171MD1710131+9999REMSYN118AAXX  24034 04201 4//14 /1016 11171 21188 39817 49842 57013 77171 555 61992 62990 63992 71014 72053 73020 74014 75155;
0127042010999992000012500004+77470-069220FM-12+001999999V0201701N002619999999N0160001N1-01451-01801099571ADDMA1999999099321REMSYN100AAXX  25004 04201 4//66 /1705 11145 21180 39932 49957 77770 555 63990 71161 72245 73200 74055 75335;
0171042010999992000012503004+77470-069220FM-12+001999999V0202101N003619999999N0023001N1-01531-01791099791ADDMA1999999099541MD1210221+9999REMSYN130AAXX  25034 04201 4//23 /2107 11153 21179 39954 49979 52022 77777 555 61990 62990 63992 64991 65001 71023 72074 73040 74022 75242;
0207042010999992000012506004+77470-069220FM-12+001999999V0202401N001519999999N0015001N1-01601-01761100081ADDKA1120M-01291KA2120N-01611MA1999999099831MD1210291+9999REMSYN140AAXX  25064 04201 4//15 /2403 11160 21176 39983 40008 52029 75477 333 11129 21161 555 61993 62991 63993 64990 71015 72029 73019 74015 75462;
0171042010999992000012509004+77470-069220FM-12+001999999V0201801N001519999999N0015001N1-01651-01811100471ADDMA1999999100221MD1210391+9999REMSYN130AAXX  25094 04201 4//15 /1803 11165 21181 30022 40047 52039 75476 555 61990 62990 63992 64992 65001 71015 72025 73019 74013 75115;
0159042010999992000012512004+77470-069220FM-12+001999999V0200801N003119999999N0450001N1-01751-02191100851ADDMA1999999100601MD1210381+9999REMSYN118AAXX  25124 04201 4//83 /0806 11175 21219 30060 40085 52038 70076 555 63993 64990 65001 71465 72500 73500 74010 75500;
0159042010999992000012515004+77470-069220FM-12+001999999V0201401N007719999999N0045001N1-01741-02101101031ADDMA1999999100781MD1210181+9999REMSYN118AAXX  25154 04201 4//45 /1415 11174 21210 30078 40103 52018 77774 555 61990 62990 63990 71045 72387 73123 74045 75500;
0206042010999992000012518004+77470-069220FM-12+001999999V0201701N008219999999N0050001N1-01691-02121101221ADDKA1120M-01591KA2120N-01851MA1999999100971MD1210191+9999OA149901131REMSYN128AAXX  25184 04201 4//50 /1716 11169 21212 30097 40122 52019 70074 333 11159 21185 91122 555 63990 71058 72478 73138 74015 75500;
0168042010999992000012521004+77470-069220FM-12+001999999V0201701N007219999999N0200001N1-01711-02201101441ADDMA1999999101181MD1210211+9999OA149901131REMSYN116AAXX  25214 04201 4//70 /1714 11171 21220 30118 40144 52021 70071 333 91122 555 63990 71201 72500 73500 74013 75500;
0174042010999992000012600004+77470-069220FM-12+001999999V0200601N001019999999N0500001N1-01821-02301101611ADDMA1999999101351MD1210171+9999OA149901131REMSYN122AAXX  26004 04201 4//84 /0602 11182 21230 30135 40161 52017 70071 333 91122 91219 555 63990 71500 72500 73500 74013 75500;
0141042010999992000012603004+77470-069220FM-12+001999999V0203001N001019999999N0400001N1-01971-02311101691ADDMA1999999101431MD1210081+9999REMSYN100AAXX  26034 04201 45/82 /3002 11197 21231 30143 40169 52008 555 60/// 71433 72500 73500 74399 75500;
0195042010999992000012606004+77470-069220FM-12+001999999V0203101N002119999999N0450001N1-02071-02371101801ADDKA1120M-01691KA2120N-02071MA1999999101541MD1210111+9999REMSYN128AAXX  26064 04201 45/83 /3104 11207 21237 30154 40180 52011 333 11169 21207 555 61005 62990 63005 71479 72500 73500 74397 75500;
0141042010999992000012609004+77470-069220FM-12+001999999V0202801N002619999999N0450001N1-02101-02401101901ADDMA1999999101641MD1210101+9999REMSYN100AAXX  26094 04201 45/83 /2805 11210 21240 30164 40190 52010 555 60/// 71484 72500 73500 74379 75500;
0159042010999992000012612004+77470-069220FM-12+001999999V0202501N000519999999N0070001N1-02251-02481101911ADDMA1999999101651MD1210011+9999REMSYN118AAXX  26124 04201 4//57 /2501 11225 21248 30165 40191 52001 77770 555 61990 62990 63990 71074 72150 73118 74074 75500;
0165042010999992000012615004+77470-069220FM-12+001999999V0202701N001019999999N0032001N1-02241-02421101931ADDMA1999999101671MD1210021+9999REMSYN124AAXX  26154 04201 4//32 /2702 11224 21242 30167 40193 52002 77177 555 61990 62990 63990 64990 71032 72043 73036 74027 75193;
0207042010999992000012618004+77470-069220FM-12+001999999V0202801N000519999999N0039001N1-02421-02591101991ADDKA1120M-02031KA2120N-02421MA1999999101731MD1210061+9999REMSYN140AAXX  26184 04201 4//39 /2801 11242 21259 30173 40199 52006 77177 333 11203 21242 555 61990 62990 63990 64990 71039 72076 73047 74023 75193;
0153042010999992000012621004+77470-069220FM-12+001999999V0201201N001519999999N0140001N1-02621-02811102021ADDMA1999999101751MD1210021+9999REMSYN112AAXX  26214 04201 4//64 /1203 11262 21281 30175 40202 52002 72277 555 63990 64990 71149 72500 73425 74022 75500;
0147042010999992000012700004+77470-069220FM-12+001999999V0203501N000519999999N0450001N1-02621-02821101991ADDMA1999999101721MD1710031+9999REMSYN106AAXX  27004 04201 4//83 /3501 11262 21282 30172 40199 57003 71177 555 63990 71478 72500 73500 74022 75500;
0147042010999992000012703004+77470-069220FM-12+001999999V0200501N000519999999N0300001N1-02661-02851101881ADDMA1999999101611MD1710111+9999REMSYN106AAXX  27034 04201 4//80 /0501 11266 21285 30161 40188 57011 77777 555 60/// 71335 72500 73405 74170 75500;
0189042010999992000012706004+77470-069220FM-12+001999999V0200701N000519999999N0350001N1-02711-02891101721ADDKA1120M-02391KA2120N-02811MA1999999101451MD1710161+9999REMSYN122AAXX  27064 04201 4//81 /0701 11271 21289 30145 40172 57016 77777 333 11239 21281 555 63990 71356 72500 73474 74111 75500;
0135042010999992000012709004+77470-069220FM-12+001999999V0209999C000019999999N9999999N1-02741-02911101591ADDMA1999999101321MD1710131+9999REMSYN094AAXX  27094 04201 4//// /0000 11274 21291 30132 40159 57013 70077 555 63990 73500 74297 75500;
0147042010999992000012712004+77470-069220FM-12+001999999V0200201N000519999999N0450001N1-02781-02941101461ADDMA1999999101191MD1710131+9999REMSYN106AAXX  27124 04201 4//83 /0201 11278 21294 30119 40146 57013 70077 555 63005 71487 72500 73500 74036 75500;
0183042010999992000012718004+77470-069220FM-12+001999999V0209999C000019999999N0400001N1-02841-03001101231ADDKA1120M-02651KA2120N-02941MA1999999100961MD1710101+9999REMSYN116AAXX  27184 04201 45/82 /0000 11284 21300 30096 40123 57010 333 11265 21294 555 60/// 71402 72500 73494 74091 75500;
0141042010999992000012721004+77470-069220FM-12+001999999V0201201N000519999999N0450001N1-02891-03051101211ADDMA1999999100941MD1710021+9999REMSYN100AAXX  27214 04201 45/83 /1201 11289 21305 30094 40121 57002 555 60/// 71488 72500 73500 74045 75500;
0121042010999992000012803004+77470-069220FM-12+001999999V0200801N000519999999N0500001N1-02911-03071101151ADDMA1999999100881REMSYN094AAXX  28034 04201 45/84 /0801 11291 21307 30088 40115 555 60/// 71500 72500 73500 74474 75500;
0183042010999992000012806004+77470-069220FM-12+001999999V0203101N001019999999N0500001N1-02921-03081101181ADDKA1120M-02761KA2120N-03091MA1999999100911MD1210031+9999REMSYN116AAXX  28064 04201 45/84 /3102 11292 21308 30091 40118 52003 333 11276 21309 555 60/// 71500 72500 73500 74372 75500;
0141042010999992000012809004+77470-069220FM-12+001999999V0201101N000519999999N0500001N1-02891-03061101231ADDMA1999999100961MD1210051+9999REMSYN100AAXX  28094 04201 45/84 /1101 11289 21306 30096 40123 52005 555 60/// 71500 72500 73500 74475 75500;
0141042010999992000012812004+77470-069220FM-12+001999999V0203001N001019999999N0500001N1-02831-03011101271ADDMA1999999101001MD1210041+9999REMSYN100AAXX  28124 04201 45/84 /3002 11283 21301 30100 40127 52004 555 60/// 71500 72500 73500 74421 75500;
0141042010999992000012815004+77470-069220FM-12+001999999V0203201N000519999999N0400001N1-02951-03131101291ADDMA1999999101021MD1210021+9999REMSYN100AAXX  28154 04201 45/82 /3201 11295 21313 30102 40129 52002 555 60/// 71440 72500 73500 74112 75500;
0183042010999992000012818004+77470-069220FM-12+001999999V0209999C000019999999N0500001N1-02841-03051101281ADDKA1120M-02691KA2120N-03101MA1999999101011MD1710011+9999REMSYN116AAXX  28184 04201 45/84 /0000 11284 21305 30101 40128 57001 333 11269 21310 555 60/// 71500 72500 73500 74057 75500;
0141042010999992000012821004+77470-069220FM-12+001999999V0202401N000519999999N0500001N1-02941-03151101241ADDMA1999999100971MD1710041+9999REMSYN100AAXX  28214 04201 45/84 /2401 11294 21315 30097 40124 57004 555 60/// 71500 72500 73500 74179 75500;
0141042010999992000012900004+77470-069220FM-12+001999999V0201401N000519999999N0500001N1-03121-03361101091ADDMA1999999100821MD1710151+9999REMSYN100AAXX  29004 04201 45/84 /1401 11312 21336 30082 40109 57015 555 60/// 71500 72500 73500 74179 75500;
0141042010999992000012903004+77470-069220FM-12+001999999V0202601N000519999999N0500001N1-03121-03341101001ADDMA1999999100731MD1710091+9999REMSYN100AAXX  29034 04201 45/84 /2601 11312 21334 30073 40100 57009 555 60/// 71500 72500 73500 74269 75500;
0183042010999992000012906004+77470-069220FM-12+001999999V0209999C000019999999N0500001N1-03031-03241100801ADDKA1120M-02671KA2120N-03351MA1999999100531MD1710201+9999REMSYN116AAXX  29064 04201 45/84 /0000 11303 21324 30053 40080 57020 333 11267 21335 555 60/// 71500 72500 73500 74269 75500;
0141042010999992000012909004+77470-069220FM-12+001999999V0203201N000519999999N0500001N1-02961-03181100591ADDMA1999999100321MD1710211+9999REMSYN100AAXX  29094 04201 45/84 /3201 11296 21318 30032 40059 57021 555 60/// 71500 72500 73500 74486 75500;
0141042010999992000012912004+77470-069220FM-12+001999999V0201301N000519999999N0500001N1-02891-03161100341ADDMA1999999100081MD1710241+9999REMSYN100AAXX  29124 04201 45/84 /1301 11289 21316 30008 40034 57024 555 60/// 71500 72500 73500 74486 75500;
0141042010999992000012915004+77470-069220FM-12+001999999V0201601N000519999999N0500001N1-02861-03151100141ADDMA1999999099881MD1710201+9999REMSYN100AAXX  29154 04201 45/84 /1601 11286 21315 39988 40014 57020 555 60/// 71500 72500 73500 74500 75500;
0183042010999992000012918004+77470-069220FM-12+001999999V0201401N000519999999N0500001N1-02921-03201099941ADDKA1120M-02711KA2120N-03211MA1999999099681MD1710201+9999REMSYN116AAXX  29184 04201 45/84 /1401 11292 21320 39968 49994 57020 333 11271 21321 555 60/// 71500 72500 73500 74465 75500;
0141042010999992000012921004+77470-069220FM-12+001999999V0202801N001519999999N0500001N1-03061-03301099821ADDMA1999999099551MD1710131+9999REMSYN100AAXX  29214 04201 45/84 /2803 11306 21330 39955 49982 57013 555 60/// 71500 72500 73500 74500 75500;
0141042010999992000013000004+77470-069220FM-12+001999999V0202701N000519999999N0500001N1-02861-03131099731ADDMA1999999099471MD1710081+9999REMSYN100AAXX  30004 04201 45/84 /2701 11286 21313 39947 49973 57008 555 60/// 71500 72500 73500 74500 75500;
0147042010999992000013003004+77470-069220FM-12+001999999V0203001N001019999999N0500001N1-02941-03201099591ADDMA1999999099331MD1710141+9999REMSYN106AAXX  30034 04201 4//84 /3002 11294 21320 39933 49959 57014 70010 555 60/// 71500 72500 73500 74865 75500;
0206042010999992000013006004+77470-069220FM-12+001999999V0203601N001019999999N0500001N1-02561-02921099491ADDKA1120M-02501KA2120N-03181MA1999999099231MD1710101+9999OA149900721REMSYN128AAXX  30064 04201 4//84 /3602 11256 21292 39923 49949 57010 70010 333 11250 21318 91114 555 60/// 71500 72500 73500 74865 75500;
0141042010999992000013009004+77470-069220FM-12+001999999V0202901N002119999999N0500001N1-02891-03161099471ADDMA1999999099211MD1710021+9999REMSYN100AAXX  30094 04201 45/84 /2904 11289 21316 39921 49947 57002 555 60/// 71500 72500 73500 74500 75500;
0147042010999992000013015004+77470-069220FM-12+001999999V0201001N009319999999N0037001N1-02541-02891099271ADDMA1999999099011MD1710081+9999REMSYN106AAXX  30154 04201 4//37 /1018 11254 21289 39901 49927 57008 71071 555 63990 71037 72186 73073 74017 75329;
0148042010999992000013115004+77470-069220FM-12+001999999V0201901N001019999999N0500001N1-02961-03261099611ADDMA1999999099351OA149901081REMSYN110AAXX  31154 04201 45/84 /1902 11296 21326 39935 49961 333 91121 91215 555 60/// 71500 72500 73500 74033 75500;
0230042010999992000013118004+77470-069220FM-12+001999999V0201101N007719999999N0014001N1-02671-02971099711ADDKA1120M-02341KA2120N-03101MA1999999099451MD1210101+9999OA149901441REMSYN152AAXX  31184 04201 4//14 /1115 11267 21297 39945 49971 52010 78570 333 11234 21310 91128 555 61990 62990 63001 64990 65001 71014 72426 73211 74830 75500;
0180042010999992000013121004+77470-069220FM-12+001999999V0201001N004119999999N0250001N1-02451-02821099951ADDMA1999999099691MD1210241+9999OA149901541REMSYN128AAXX  31214 04201 4//75 /1008 11245 21282 39969 49995 52024 70070 333 91130 555 63002 64991 65002 71251 72500 73500 74810 75500;
0168042010999992000020100004+77470-069220FM-12+001999999V0201101N006219999999N0400001N1-02561-02931100171ADDMA1999999099911MD1210221+9999OA149901541REMSYN116AAXX  01004 04201 4//82 /1112 11256 21293 39991 40017 52022 70070 333 91130 555 63002 71423 72500 73500 74810 75500;
0147042010999992000020103004+77470-069220FM-12+001999999V0201001N007719999999N0090001N1-02391-02771100401ADDMA1999999100141MD1210231+9999REMSYN106AAXX  01034 04201 4//59 /1015 11239 21277 30014 40040 52023 70010 555 60/// 71098 72338 73209 74050 75500;
0189042010999992000020106004+77470-069220FM-12+001999999V0200901N008219999999N0050001N1-02331-02761100671ADDKA1120M-01931KA2120N-02901MA1999999100411MD1210271+9999REMSYN122AAXX  01064 04201 4//50 /0916 11233 21276 30041 40067 52027 70010 333 11193 21290 555 60/// 71060 72232 73107 74050 75500;
0162042010999992000020109004+77470-069220FM-12+001999999V0201001N006219999999N0350001N1-02581-03001101021ADDMA1999999100761MD1210351+9999OA149900771REMSYN110AAXX  01094 04201 45/81 /1012 11258 21300 30076 40102 52035 333 91115 555 60/// 71376 72500 73500 74063 75500;
0174042010999992000020112004+77470-069220FM-12+001999999V0200101N002119999999N0450001N1-02371-02811101261ADDMA1999999101001MD1210241+9999OA149901131REMSYN122AAXX  01124 04201 45/83 /0104 11237 21281 30100 40126 52024 333 91122 91014 91218 555 60/// 71498 72500 73500 74053 75500;
0162042010999992000020115004+77470-069220FM-12+001999999V0200801N005119999999N0500001N1-02241-02721101451ADDMA1999999101191MD1210191+9999OA149900981REMSYN110AAXX  01154 04201 45/84 /0810 11224 21272 30119 40145 52019 333 91119 555 60/// 71500 72500 73500 74071 75500;
0206042010999992000020118004+77470-069220FM-12+001999999V0201001N008219999999N0060001N1-02221-02731101611ADDKA1120M-02191KA2120N-02951MA1999999101351MD1210161+9999OA149900981REMSYN128AAXX  01184 04201 4//56 /1016 11222 21273 30135 40161 52016 70010 333 11219 21295 91119 555 60/// 71061 72422 73154 74035 75500;
0180042010999992000020121004+77470-069220FM-12+001999999V0201201N004119999999N0060001N1-02321-02841101781ADDMA1999999101521MD1210171+9999OA149900981REMSYN128AAXX  01214 04201 4//56 /1208 11232 21284 30152 40178 52017 70010 333 91119 91019 91221 555 60/// 71065 72500 73500 74031 75500;
0168042010999992000020200004+77470-069220FM-12+001999999V0200901N009819999999N0050001N1-02061-02611101781ADDMA1999999101521MD1410001+9999OA149900981REMSYN116AAXX  02004 04201 4//50 /0919 11206 21261 30152 40178 54000 71010 333 91119 555 60/// 71058 72141 73093 74031 75500;
0153042010999992000020203004+77470-069220FM-12+001999999V0201101N010319999999N0047001N1-02021-02571101721ADDMA1999999101461MD1710061+9999REMSYN112AAXX  02034 04201 4//47 /1120 11202 21257 30146 40172 57006 72271 555 63990 64990 71047 72174 73087 74020 75309;
0189042010999992000020206004+77470-069220FM-12+001999999V0200901N007719999999N0120001N1-01801-02441101531ADDKA1120M-01801KA2120N-02701MA1999999101271MD1710191+9999REMSYN122AAXX  02064 04201 4//62 /0915 11180 21244 30127 40153 57019 70071 333 11180 21270 555 63990 71122 72500 73500 74020 75500;
0141042010999992000020209004+77470-069220FM-12+001999999V0201201N006719999999N0450001N1-01891-02541101371ADDMA1999999101111MD1710161+9999REMSYN100AAXX  02094 04201 45/83 /1213 11189 21254 30111 40137 57016 555 60/// 71494 72500 73500 74307 75500;
0147042010999992000020212004+77470-069220FM-12+001999999V0200801N012319999999N0032001N1-01621-02361100941ADDMA1999999100691MD1710421+9999REMSYN106AAXX  02124 04201 4//32 /0824 11162 21236 30069 40094 57042 71010 555 60/// 71032 72196 73056 74032 75500;
0171042010999992000020215004+77470-069220FM-12+001999999V0200701N012319999999N0002001N1-01521-01631100611ADDMA1999999100361MD1710331+9999REMSYN130AAXX  02154 04201 4//02 /0724 11152 21163 30036 40061 57033 77371 555 61995 62994 63996 64994 65006 71823 72851 73832 74815 75158;
0230042010999992000020218004+77470-069220FM-12+001999999V0200901N013419999999N0003001N1-01421-01501100241ADDKA1120M-01401KA2120N-02061MA1999999099991MD1710371+9999OA149901751REMSYN152AAXX  02184 04201 4//03 /0926 11142 21150 39999 40024 57037 77371 333 11140 21206 91134 555 61995 62993 63998 64001 65014 71826 72859 73838 74810 75158;
0192042010999992000020221004+77470-069220FM-12+001999999V0200901N011319999999N0012001N1-01251-01341100011ADDMA1999999099761MD1710231+9999OA149901701REMSYN140AAXX  02214 04201 4//12 /0922 11125 21134 39976 40001 57023 75477 333 91133 555 61990 62990 63997 64996 65005 71012 72034 73022 74821 75051;
0198042010999992000020300004+77470-069220FM-12+001999999V0200901N007219999999N0017001N1-01131-01271099751ADDMA1999999099501MD1710261+9999OA149901701REMSYN146AAXX  03004 04201 4//17 /0914 11113 21127 39950 49975 57026 77777 333 91133 91226 555 61991 62990 63997 64991 65001 71017 72114 73046 74821 75415;
0198042010999992000020303004+77470-069220FM-12+001999999V0201501N003619999999N0038001N1-01191-01301099621ADDMA1999999099371MD1710131+9999OA149901491REMSYN146AAXX  03034 04201 4//38 /1507 11119 21130 39937 49962 57013 76477 333 91129 91218 555 61991 62990 63998 64996 65004 71038 72153 73064 74818 75153;
0229042010999992000020306004+77470-069220FM-12+001999999V0200901N004619999999N0019001N1-01161-01311099511ADDKA1120M-01081KA2120N-01531MA1999999099261MD1710111+9999OA149901491REMSYN151AAXX  03064 04201 4//19 /0909 11116 21131 39926 49951 57011 77177 333 11108 21153 91129 555 1995 62993 63998 64993 65002 71019 72075 73027 74818 75500;
0171042010999992000020309004+77470-069220FM-12+001999999V0200901N004119999999N0012001N1-01181-01281099471ADDMA1999999099221MD1710041+9999REMSYN130AAXX  03094 04201 4//12 /0908 11118 21128 39922 49947 57004 77177 555 61001 62997 63002 64002 65021 71012 72018 73015 74010 75064;
0171042010999992000020312004+77470-069220FM-12+001999999V0200901N005119999999N0018001N1-01171-01271099461ADDMA1999999099211MD1710011+9999REMSYN130AAXX  03124 04201 4//18 /0910 11117 21127 39921 49946 57001 77177 555 61995 62993 63002 64001 65009 71018 72024 73020 74892 75064;
0171042010999992000020315004+77470-069220FM-12+001999999V0203001N001519999999N0009001N1-01411-01491099561ADDMA1999999099311MD1210101+9999REMSYN130AAXX  03154 04201 4//09 /3003 11141 21149 39931 49956 52010 76477 555 61001 62996 63002 64001 65011 71895 72017 73013 74852 75031;
0213042010999992000020318004+77470-069220FM-12+001999999V0202801N001519999999N0015001N1-01411-01481099531ADDKA1120M-01141KA2120N-01581MA1999999099281MD1710031+9999REMSYN146AAXX  03184 04201 4//15 /2803 11141 21148 39928 49953 57003 76477 333 11114 21158 555 61993 62992 63006 64001 65007 71015 72021 73018 74836 75042;
0171042010999992000020321004+77470-069220FM-12+001999999V0203101N003119999999N0031001N1-01451-01521099601ADDMA1999999099351MD1210071+9999REMSYN130AAXX  03214 04201 4//31 /3106 11145 21152 39935 49960 52007 76476 555 61991 62990 63995 64994 65002 71031 72059 73036 74016 75059;
0165042010999992000020400004+77470-069220FM-12+001999999V0203001N002619999999N0030001N1-01541-01621099601ADDMA1999999099351MD1410001+9999REMSYN124AAXX  04004 04201 4//30 /3005 11154 21162 39935 49960 54000 76476 555 61991 62990 63995 64990 71030 72046 73033 74016 75094;
0171042010999992000020403004+77470-069220FM-12+001999999V0203001N004119999999N0032001N1-01581-01661099531ADDMA1999999099281MD1710071+9999REMSYN130AAXX  04034 04201 4//32 /3008 11158 21166 39928 49953 57007 77777 555 61990 62990 63996 64992 65002 71032 72078 73039 74019 75111;
0207042010999992000020406004+77470-069220FM-12+001999999V0202901N002119999999N0120001N1-01601-01681099391ADDKA1120M-01401KA2120N-01641MA1999999099141MD1710141+9999REMSYN140AAXX  04064 04201 4//62 /2904 11160 21168 39914 49939 57014 75477 333 11140 21164 555 61990 62990 63996 64990 71129 72216 73159 74019 75216;
0153042010999992000020409004+77470-069220FM-12+001999999V0203301N002119999999N0060001N1-01641-01731099251ADDMA1999999099001MD1710141+9999REMSYN112AAXX  04094 04201 4//56 /3304 11164 21173 39900 49925 57014 75475 555 63990 64990 71068 72110 73092 74026 75201;
0165042010999992000020412004+77470-069220FM-12+001999999V0203201N002119999999N0050001N1-01671-01771099111ADDMA1999999098861MD1710141+9999REMSYN124AAXX  04124 04201 4//50 /3204 11167 21177 39886 49911 57014 75475 555 61990 62990 63990 64990 71057 72081 73071 74026 75201;
0171042010999992000020415004+77470-069220FM-12+001999999V0200701N000519999999N0080001N1-01771-01871098921ADDMA1999999098671MD1710191+9999REMSYN130AAXX  04154 04201 4//58 /0701 11177 21187 39867 49892 57019 77175 555 61990 62990 63054 64990 65001 71081 72372 73206 74028 75372;
0195042010999992000020418004+77470-069220FM-12+001999999V0209999C000019999999N0090001N1-01941-02041098701ADDKA1120M-01561KA2120N-02131MA1999999098451MD1710221+9999REMSYN128AAXX  04184 04201 4//59 /0000 11194 21204 39845 49870 57022 77775 333 11156 21213 555 63054 64990 71099 72249 73144 74028 75500;
0147042010999992000020421004+77470-069220FM-12+001999999V0200801N001019999999N0500001N1-02021-02141098531ADDMA1999999098281MD1710171+9999REMSYN106AAXX  04214 04201 4//84 /0802 11202 21214 39828 49853 57017 70077 555 60/// 71500 72500 73500 74170 75500;
0147042010999992000020500004+77470-069220FM-12+001999999V0209999C000019999999N0450001N1-02291-02401098381ADDMA1999999098131MD1710151+9999REMSYN106AAXX  05004 04201 4//83 /0000 11229 21240 39813 49838 57015 70077 555 60/// 71487 72500 73500 74170 75500;
0141042010999992000020503004+77470-069220FM-12+001999999V0200801N000519999999N0080001N1-02611-02711098251ADDMA1999999097991MD1710141+9999REMSYN100AAXX  05034 04201 45/58 /0801 11261 21271 39799 49825 57014 555 60/// 71089 72498 73211 74089 75500;
0183042010999992000020506004+77470-069220FM-12+001999999V0200801N000519999999N0450001N1-02311-02411098071ADDKA1120M-01871KA2120N-02641MA1999999097821MD1710171+9999REMSYN116AAXX  05064 04201 45/83 /0801 11231 21241 39782 49807 57017 333 11187 21264 555 60/// 71489 72500 73500 74086 75500;
0141042010999992000020509004+77470-069220FM-12+001999999V0200801N000519999999N0450001N1-02471-02571098001ADDMA1999999097751MD1710071+9999REMSYN100AAXX  05094 04201 45/83 /0801 11247 21257 39775 49800 57007 555 60/// 71488 72500 73500 74458 75500;
0141042010999992000020512004+77470-069220FM-12+001999999V0209999C000019999999N0450001N1-02431-02541097891ADDMA1999999097641MD1710111+9999REMSYN100AAXX  05124 04201 45/83 /0000 11243 21254 39764 49789 57011 555 60/// 71495 72500 73500 74456 75500;
0141042010999992000020515004+77470-069220FM-12+001999999V0200601N001019999999N0400001N1-02361-02461097871ADDMA1999999097621MD1710021+9999REMSYN100AAXX  05154 04201 45/82 /0602 11236 21246 39762 49787 57002 555 60/// 71443 72500 73500 74423 75500;
0183042010999992000020518004+77470-069220FM-12+001999999V0200501N000519999999N0500001N1-02121-02231097891ADDKA1120M-02051KA2120N-02501MA1999999097641MD1210021+9999REMSYN116AAXX  05184 04201 45/84 /0501 11212 21223 39764 49789 52002 333 11205 21250 555 60/// 71500 72500 73500 74306 75500;
0141042010999992000020521004+77470-069220FM-12+001999999V0200501N000519999999N0450001N1-02161-02271098061ADDMA1999999097811MD1210171+9999REMSYN100AAXX  05214 04201 45/83 /0501 11216 21227 39781 49806 52017 555 60/// 71485 72500 73500 74387 75500;
0141042010999992000020600004+77470-069220FM-12+001999999V0209999C000019999999N0450001N1-01991-02121098281ADDMA1999999098031MD1210221+9999REMSYN100AAXX  06004 04201 45/83 /0000 11199 21212 39803 49828 52022 555 60/// 71494 72500 73500 74387 75500;
0141042010999992000020603004+77470-069220FM-12+001999999V0201001N001019999999N0450001N1-02031-02141098431ADDMA1999999098181MD1210151+9999REMSYN100AAXX  06034 04201 45/83 /1002 11203 21214 39818 49843 52015 555 63015 71458 72500 73500 74441 75500;
0189042010999992000020606004+77470-069220FM-12+001999999V0203001N001519999999N0270001N1-01991-02111098561ADDKA1120M-01711KA2120N-02271MA1999999098311MD1210131+9999REMSYN122AAXX  06064 04201 4//77 /3003 11199 21211 39831 49856 52013 77770 333 11171 21227 555 63015 71279 72500 73500 74231 75500;
0165042010999992000020609004+77470-069220FM-12+001999999V0201101N001019999999N0033001N1-01981-02091098751ADDMA1999999098501MD1210191+9999REMSYN124AAXX  06094 04201 4//33 /1102 11198 21209 39850 49875 52019 77177 555 61990 62990 63990 64990 71033 72058 73041 74028 75500;
0165042010999992000020612004+77470-069220FM-12+001999999V0203001N001519999999N0032001N1-02031-02131098871ADDMA1999999098621MD1210121+9999REMSYN124AAXX  06124 04201 4//32 /3003 11203 21213 39862 49887 52012 77177 555 61990 62990 63993 64990 71032 72066 73043 74028 75500;
0159042010999992000020615004+77470-069220FM-12+001999999V0200501N000519999999N0300001N1-02151-02251098891ADDMA1999999098641MD1210021+9999REMSYN118AAXX  06154 04201 4//80 /0501 11215 21225 39864 49889 52002 77777 555 63994 64990 65001 71335 72500 73438 74034 75500;
0189042010999992000020618004+77470-069220FM-12+001999999V0202701N000519999999N0160001N1-02151-02251098831ADDKA1120M-01881KA2120N-02341MA1999999098581MD1710061+9999REMSYN122AAXX  06184 04201 4//66 /2701 11215 21225 39858 49883 57006 70077 333 11188 21234 555 63994 71167 72312 73212 74034 75500;
0147042010999992000020621004+77470-069220FM-12+001999999V0202701N000519999999N0190001N1-02301-02401098791ADDMA1999999098541MD1710041+9999REMSYN106AAXX  06214 04201 4//69 /2701 11230 21240 39854 49879 57004 70070 555 63990 71195 72500 73417 74082 75500;
0147042010999992000020700004+77470-069220FM-12+001999999V0202701N000519999999N0400001N1-02331-02431098651ADDMA1999999098401MD1710141+9999REMSYN106AAXX  07004 04201 4//82 /2701 11233 21243 39840 49865 57014 70070 555 63990 71435 72500 73500 74082 75500;
0141042010999992000020703004+77470-069220FM-12+001999999V0202701N000519999999N0400001N1-02621-02721098521ADDMA1999999098261MD1710141+9999REMSYN100AAXX  07034 04201 45/82 /2701 11262 21272 39826 49852 57014 555 60/// 71437 72500 73500 74020 75500;
0183042010999992000020706004+77470-069220FM-12+001999999V0203601N001019999999N0500001N1-02221-02331098301ADDKA1120M-01981KA2120N-02861MA1999999098051MD1710211+9999REMSYN116AAXX  07064 04201 45/84 /3602 11222 21233 39805 49830 57021 333 11198 21286 555 60/// 71500 72500 73500 74020 75500;
0151042010999992000020709004+77470-069220FM-12+001999999V0202901N001019999999N0500001N1-02451-02581098251ADDMA1999999098001MD1710051+9999REMSYN110AAXX  07094 04201 45/84 /2902 11245 21258 39800 49825 57005 333 91213 555 60/// 71500 72500 73500 74366 75500;
0151042010999992000020712004+77470-069220FM-12+001999999V0202201N001019999999N0500001N1-02511-02651098261ADDMA1999999098001MD1410001+9999REMSYN110AAXX  07124 04201 45/84 /2202 11251 21265 39800 49826 54000 333 91213 555 60/// 71500 72500 73500 74366 75500;
0141042010999992000020715004+77470-069220FM-12+001999999V0202601N001019999999N0450001N1-02481-02601098261ADDMA1999999098001MD1410001+9999REMSYN100AAXX  07154 04201 45/83 /2602 11248 21260 39800 49826 54000 555 60/// 71481 72500 73500 74275 75500;
0183042010999992000020718004+77470-069220FM-12+001999999V0203001N001519999999N0450001N1-02421-02541098291ADDKA1120M-01901KA2120N-02731MA1999999098041MD1210041+9999REMSYN116AAXX  07184 04201 45/83 /3003 11242 21254 39804 49829 52004 333 11190 21273 555 60/// 71468 72500 73500 74275 75500;
0141042010999992000020721004+77470-069220FM-12+001999999V0201701N000519999999N0000001N1-02711-02851098391ADDMA1999999098131MD1210091+9999REMSYN100AAXX  07214 04201 45/00 /1701 11271 21285 39813 49839 52009 555 60/// 71900 72500 73500 74900 75500;
0141042010999992000020800004+77470-069220FM-12+001999999V0202801N001019999999N0500001N1-02651-02771098451ADDMA1999999098191MD1210061+9999REMSYN100AAXX  08004 04201 45/84 /2802 11265 21277 39819 49845 52006 555 60/// 71500 72500 73500 74900 75500;
0141042010999992000020803004+77470-069220FM-12+001999999V0203001N000519999999N0450001N1-02671-02801098511ADDMA1999999098251MD1210061+9999REMSYN100AAXX  08034 04201 45/83 /3001 11267 21280 39825 49851 52006 555 60/// 71497 72500 73500 74298 75500;
0183042010999992000020806004+77470-069220FM-12+001999999V0200101N000519999999N0500001N1-02271-02431098601ADDKA1120M-02061KA2120N-03031MA1999999098351MD1210101+9999REMSYN116AAXX  08064 04201 45/84 /0101 11227 21243 39835 49860 52010 333 11206 21303 555 63015 71500 72500 73500 74298 75500;
0142042010999992000020903004+77470-069220FM-12+001999999V0202901N001519999999N0500001N1-02651-02851098591ADDMA1999999098331OA149900771REMSYN104AAXX  09034 04201 45/84 /2903 11265 21285 39833 49859 333 91115 555 60/// 71500 72500 73500 74900 75500;
0200042010999992000020906004+77470-069220FM-12+001999999V0203401N002619999999N0500001N1-02041-02251098341ADDKA1120M-01911KA2120N-03011MA1999999098091MD1710241+9999OA149900771REMSYN122AAXX  09064 04201 45/84 /3405 11204 21225 39809 49834 57024 333 11191 21301 91115 555 60/// 71500 72500 73500 74900 75500;
0141042010999992000020909004+77470-069220FM-12+001999999V0201201N001519999999N0500001N1-02461-02651098071ADDMA1999999097821MD1710271+9999REMSYN100AAXX  09094 04201 45/84 /1203 11246 21265 39782 49807 57027 555 60/// 71500 72500 73500 74500 75500;
0147042010999992000020912004+77470-069220FM-12+001999999V0200101N002119999999N0450001N1-02121-02321097781ADDMA1999999097531MD1710291+9999REMSYN106AAXX  09124 04201 4//83 /0104 11212 21232 39753 49778 57029 72470 555 63990 71476 72500 73500 74300 75500;
0147042010999992000020915004+77470-069220FM-12+001999999V0201101N006219999999N0300001N1-02181-02401097621ADDMA1999999097371MD1710161+9999REMSYN106AAXX  09154 04201 4//80 /1112 11218 21240 39737 49762 57016 71170 555 60/// 71345 72500 73490 74222 75500;
0195042010999992000020918004+77470-069220FM-12+001999999V0203101N001019999999N0450001N1-02191-02381097711ADDKA1120M-01871KA2120N-03071MA1999999097461MD1210091+9999REMSYN128AAXX  09184 04201 4//83 /3102 11219 21238 39746 49771 52009 70070 333 11187 21307 91213 555 60/// 71468 72500 73500 74083 75500;
0141042010999992000020921004+77470-069220FM-12+001999999V0203001N001519999999N0450001N1-02161-02341098061ADDMA1999999097811MD1210351+9999REMSYN100AAXX  09214 04201 45/83 /3003 11216 21234 39781 49806 52035 555 60/// 71461 72500 73500 74083 75500;
0147042010999992000021000004+77470-069220FM-12+001999999V0202901N004619999999N0400001N1-01821-02041098351ADDMA1999999098101MD1210291+9999REMSYN106AAXX  10004 04201 4//82 /2909 11182 21204 39810 49835 52029 72470 555 63990 71447 72500 73500 74073 75500;
0141042010999992000021003004+77470-069220FM-12+001999999V0202901N002619999999N0500001N1-02201-02331098521ADDMA1999999098271MD1210171+9999REMSYN100AAXX  10034 04201 45/84 /2905 11220 21233 39827 49852 52017 555 60/// 71500 72500 73500 74900 75500;
0183042010999992000021006004+77470-069220FM-12+001999999V0203201N001519999999N0500001N1-01601-01691098601ADDKA1120M-01601KA2120N-02281MA1999999098351MD1210081+9999REMSYN116AAXX  10064 04201 45/84 /3203 11160 21169 39835 49860 52008 333 11160 21228 555 60/// 71500 72500 73500 74900 75500;
0141042010999992000021009004+77470-069220FM-12+001999999V0201201N000519999999N0450001N1-02031-02121098711ADDMA1999999098461MD1210111+9999REMSYN100AAXX  10094 04201 45/83 /1201 11203 21212 39846 49871 52011 555 60/// 71474 72500 73500 74370 75500;
0141042010999992000021012004+77470-069220FM-12+001999999V0203401N001019999999N0450001N1-01871-01971098821ADDMA1999999098571MD1210111+9999REMSYN100AAXX  10124 04201 45/83 /3402 11187 21197 39857 49882 52011 555 60/// 71463 72500 73500 74302 75500;
0141042010999992000021015004+77470-069220FM-12+001999999V0203001N001019999999N0280001N1-01901-02001098891ADDMA1999999098641MD1210071+9999REMSYN100AAXX  10154 04201 45/78 /3002 11190 21200 39864 49889 52007 555 60/// 71289 72500 73435 74289 75500;
0183042010999992000021018004+77470-069220FM-12+001999999V0200701N000519999999N0260001N1-02061-02151098981ADDKA1120M-01491KA2120N-02321MA1999999098731MD1210091+9999REMSYN116AAXX  10184 04201 45/76 /0701 11206 21215 39873 49898 52009 333 11149 21232 555 60/// 71263 72500 73487 74151 75500;
0141042010999992000021021004+77470-069220FM-12+001999999V0201601N000519999999N0450001N1-02261-02361098921ADDMA1999999098671MD1710061+9999REMSYN100AAXX  10214 04201 45/83 /1601 11226 21236 39867 49892 57006 555 60/// 71489 72500 73500 74078 75500;
0141042010999992000021100004+77470-069220FM-12+001999999V0201301N000519999999N0500001N1-01851-01941098851ADDMA1999999098601MD1710071+9999REMSYN100AAXX  11004 04201 45/84 /1301 11185 21194 39860 49885 57007 555 60/// 71500 72500 73500 74078 75500;
0141042010999992000021103004+77470-069220FM-12+001999999V0203101N000519999999N0500001N1-02281-02391098791ADDMA1999999098541MD1710061+9999REMSYN100AAXX  11034 04201 45/84 /3101 11228 21239 39854 49879 57006 555 60/// 71500 72500 73500 74495 75500;
0183042010999992000021106004+77470-069220FM-12+001999999V0201101N001019999999N0500001N1-01711-01871098751ADDKA1120M-01431KA2120N-02391MA1999999098501MD1710041+9999REMSYN116AAXX  11064 04201 45/84 /1102 11171 21187 39850 49875 57004 333 11143 21239 555 60/// 71500 72500 73500 74168 75500;
0141042010999992000021109004+77470-069220FM-12+001999999V0200401N000519999999N0500001N1-02141-02261098801ADDMA1999999098551MD1210051+9999REMSYN100AAXX  11094 04201 45/84 /0401 11214 21226 39855 49880 52005 555 60/// 71500 72500 73500 74498 75500;
0141042010999992000021112004+77470-069220FM-12+001999999V0203201N001019999999N0450001N1-02191-02301098871ADDMA1999999098621MD1210071+9999REMSYN100AAXX  11124 04201 45/83 /3202 11219 21230 39862 49887 52007 555 60/// 71499 72500 73500 74443 75500;
0141042010999992000021115004+77470-069220FM-12+001999999V0203101N000519999999N0450001N1-02001-02131099011ADDMA1999999098761MD1210141+9999REMSYN100AAXX  11154 04201 45/83 /3101 11200 21213 39876 49901 52014 555 60/// 71495 72500 73500 74058 75500;
0183042010999992000021118004+77470-069220FM-12+001999999V0200701N001019999999N0500001N1-02011-02161099151ADDKA1120M-01591KA2120N-02341MA1999999098901MD1210141+9999REMSYN116AAXX  11184 04201 45/84 /0702 11201 21216 39890 49915 52014 333 11159 21234 555 60/// 71500 72500 73500 74058 75500;
0141042010999992000021121004+77470-069220FM-12+001999999V0203301N001519999999N0300001N1-01641-01841099331ADDMA1999999099081MD1210181+9999REMSYN100AAXX  11214 04201 45/80 /3303 11164 21184 39908 49933 52018 555 60/// 71348 72500 73500 74104 75500;
0141042010999992000021200004+77470-069220FM-12+001999999V0201501N000519999999N0500001N1-01831-02031099551ADDMA1999999099301MD1210221+9999REMSYN100AAXX  12004 04201 45/84 /1501 11183 21203 39930 49955 52022 555 60/// 71500 72500 73500 74104 75500;
0162042010999992000021203004+77470-069220FM-12+001999999V0200901N006219999999N0500001N1-00821-01351099741ADDMA1999999099501MD1210201+9999OA149901081REMSYN110AAXX  12034 04201 45/84 /0912 11082 21135 39950 49974 52020 333 91121 555 60/// 71500 72500 73500 74469 75500;
0200042010999992000021206004+77470-069220FM-12+001999999V0201101N008719999999N0500001N1-00911-01541099911ADDKA1120M-00691KA2120N-02391MA1999999099671MD1210171+9999OA149901081REMSYN122AAXX  12064 04201 45/84 /1117 11091 21154 39967 49991 52017 333 11069 21239 91121 555 60/// 71500 72500 73500 74236 75500;
0141042010999992000021209004+77470-069220FM-12+001999999V0201001N006719999999N0500001N1-00951-01581100211ADDMA1999999099961MD1210291+9999REMSYN100AAXX  12094 04201 45/84 /1013 11095 21158 39996 40021 52029 555 60/// 71500 72500 73500 74302 75500;
0131042010999992000021212004+77470-069220FM-12+001999999V0202801N000519999999N0500001N1-01541-01961100481ADDMA1999999100231REMSYN104AAXX  12124 04201 45/84 /2801 11154 21196 30023 40048 333 91215 555 60/// 71500 72500 73500 74490 75500;
0141042010999992000021215004+77470-069220FM-12+001999999V0202701N001019999999N0450001N1-01801-02171100691ADDMA1999999100441MD1210211+9999REMSYN100AAXX  12154 04201 45/83 /2702 11180 21217 30044 40069 52021 555 60/// 71494 72500 73500 74487 75500;
0213042010999992000021218004+77470-069220FM-12+001999999V0203101N004119999999N0012001N1-01211-01311100761ADDKA1120M-00911KA2120N-02041MA1999999100511MD1210071+9999REMSYN146AAXX  12184 04201 4//12 /3108 11121 21131 30051 40076 52007 77170 333 11091 21204 555 61998 62995 63998 64992 65002 71012 72024 73018 74012 75500;
0171042010999992000021221004+77470-069220FM-12+001999999V0201201N002119999999N0012001N1-01291-01441100851ADDMA1999999100601MD1210091+9999REMSYN130AAXX  12214 04201 4//12 /1204 11129 21144 30060 40085 52009 76777 555 61998 62993 63999 64995 65006 71012 72017 73014 74010 75158;
0171042010999992000021300004+77470-069220FM-12+001999999V0201101N003619999999N0030001N1-01451-01571100791ADDMA1999999100541MD1710061+9999REMSYN130AAXX  13004 04201 4//30 /1107 11145 21157 30054 40079 57006 77177 555 61991 62990 63002 64001 65018 71030 72048 73033 74010 75158;
0165042010999992000021303004+77470-069220FM-12+001999999V0201001N005719999999N0130001N1-01351-01571100801ADDMA1999999100551MD1210011+9999REMSYN124AAXX  13034 04201 4//63 /1011 11135 21157 30055 40080 52001 77777 555 61990 62990 63992 64990 71136 72217 73154 74027 75344;
0213042010999992000021306004+77470-069220FM-12+001999999V0201001N007219999999N0026001N1-01461-01651100781ADDKA1120M-01101KA2120N-01581MA1999999100531MD1710021+9999REMSYN146AAXX  13064 04201 4//26 /1014 11146 21165 30053 40078 57002 77777 333 11110 21158 555 61990 62990 63992 64991 65001 71026 72048 73036 74026 75344;
0121042010999992000021403004+77470-069220FM-12+001999999V0201301N000519999999N0500001N1-02131-02371099851ADDMA1999999099591REMSYN094AAXX  14034 04201 45/84 /1301 11213 21237 39959 49985 555 60/// 71500 72500 73500 74500 75500;
0183042010999992000021406004+77470-069220FM-12+001999999V0202901N001019999999N0500001N1-02291-02531099941ADDKA1120M-01941KA2120N-02671MA1999999099681MD1210091+9999REMSYN116AAXX  14064 04201 45/84 /2902 11229 21253 39968 49994 52009 333 11194 21267 555 63017 71500 72500 73500 74500 75500;
0141042010999992000021412004+77470-069220FM-12+001999999V0202701N001019999999N0500001N1-02451-02681100201ADDMA1999999099941MD1210131+9999REMSYN100AAXX  14124 04201 45/84 /2702 11245 21268 39994 40020 52013 555 60/// 71500 72500 73500 74490 75500;
0141042010999992000021415004+77470-069220FM-12+001999999V0203601N000519999999N0500001N1-02511-02701100381ADDMA1999999100121MD1210181+9999REMSYN100AAXX  14154 04201 45/84 /3601 11251 21270 30012 40038 52018 555 60/// 71500 72500 73500 74500 75500;
0183042010999992000021418004+77470-069220FM-12+001999999V0201901N001019999999N0500001N1-02551-02791100441ADDKA1120M-01831KA2120N-02721MA1999999100181MD1210061+9999REMSYN116AAXX  14184 04201 45/84 /1902 11255 21279 30018 40044 52006 333 11183 21272 555 60/// 71500 72500 73500 74482 75500;
0141042010999992000021421004+77470-069220FM-12+001999999V0201501N000519999999N0500001N1-02641-02901100631ADDMA1999999100371MD1210191+9999REMSYN100AAXX  14214 04201 45/84 /1501 11264 21290 30037 40063 52019 555 60/// 71500 72500 73500 74410 75500;
0121042010999992000021503004+77470-069220FM-12+001999999V0203301N000519999999N0500001N1-02101-02381100901ADDMA1999999100641REMSYN094AAXX  15034 04201 45/84 /3301 11210 21238 30064 40090 555 60/// 71500 72500 73500 74500 75500;
0183042010999992000021506004+77470-069220FM-12+001999999V0200101N001019999999N0500001N1-02031-02221100951ADDKA1120M-01981KA2120N-02221MA1999999100691MD1210051+9999REMSYN116AAXX  15064 04201 45/84 /0102 11203 21222 30069 40095 52005 333 11198 21222 555 60/// 71500 72500 73500 74500 75500;
0141042010999992000021509004+77470-069220FM-12+001999999V0203201N000519999999N0450001N1-02231-02371101141ADDMA1999999100881MD1210191+9999REMSYN100AAXX  15094 04201 45/83 /3201 11223 21237 30088 40114 52019 555 60/// 71497 72500 73500 74479 75500;
0141042010999992000021512004+77470-069220FM-12+001999999V0202201N000519999999N0450001N1-02091-02261101441ADDMA1999999101181MD1210301+9999REMSYN100AAXX  15124 04201 45/83 /2201 11209 21226 30118 40144 52030 555 60/// 71498 72500 73500 74474 75500;
0159042010999992000021515004+77470-069220FM-12+001999999V0200701N001519999999N0130001N1-01881-02121101801ADDMA1999999101541MD1210361+9999REMSYN118AAXX  15154 04201 4//63 /0703 11188 21212 30154 40180 52036 77770 555 61990 62990 63990 71138 72271 73224 74138 75500;
0195042010999992000021518004+77470-069220FM-12+001999999V0201001N001519999999N0300001N1-01831-02061102231ADDKA1120M-01771KA2120N-02511MA1999999101971MD1210431+9999REMSYN128AAXX  15184 04201 4//80 /1003 11183 21206 30197 40223 52043 77770 333 11177 21251 555 63990 64990 71331 72500 73424 74068 75500;
0159042010999992000021521004+77470-069220FM-12+001999999V0200501N003119999999N0170001N1-01771-02051102601ADDMA1999999102341MD1210371+9999REMSYN118AAXX  15214 04201 4//67 /0506 11177 21205 30234 40260 52037 77777 555 63990 64990 65001 71176 72263 73211 74045 75500;
0147042010999992000021600004+77470-069220FM-12+001999999V0200801N005719999999N0130001N1-01861-02131102821ADDMA1999999102561MD1210221+9999REMSYN106AAXX  16004 04201 4//63 /0811 11186 21213 30256 40282 52022 70077 555 63990 71133 72428 73308 74045 75500;
0141042010999992000021603004+77470-069220FM-12+001999999V0200701N005719999999N0500001N1-01971-02301102891ADDMA1999999102631MD1210071+9999REMSYN100AAXX  16034 04201 45/84 /0711 11197 21230 30263 40289 52007 555 60/// 71500 72500 73500 74119 75500;
0189042010999992000021606004+77470-069220FM-12+001999999V0203101N001019999999N0500001N1-02221-02441102951ADDKA1120M-01711KA2120N-02541MA1999999102691MD1210061+9999REMSYN122AAXX  16064 04201 45/84 /3102 11222 21244 30269 40295 52006 333 11171 21254 91214 555 60/// 71500 72500 73500 74114 75500;
0123042010999992000021609004+77470-069220FM-12+001999999V0201501N000519999999N9999999N1-02571-02731102951ADDMA1999999102681MD1710011+9999REMSYN082AAXX  16094 04201 45/// /1501 11257 21273 30268 40295 57001 555 73500 74500 75500;
0141042010999992000021612004+77470-069220FM-12+001999999V0201501N000519999999N0500001N1-02531-02741102741ADDMA1999999102471MD1710211+9999REMSYN100AAXX  16124 04201 45/84 /1501 11253 21274 30247 40274 57021 555 60/// 71500 72500 73500 74500 75500;
0141042010999992000021615004+77470-069220FM-12+001999999V0209999C000019999999N0270001N1-02511-02711102511ADDMA1999999102241MD1710231+9999REMSYN100AAXX  16154 04201 45/77 /0000 11251 21271 30224 40251 57023 555 60/// 71275 72500 73500 74275 75500;
0183042010999992000021618004+77470-069220FM-12+001999999V0209999C000019999999N0500001N1-02671-02871102201ADDKA1120M-02081KA2120N-02801MA1999999101931MD1710311+9999REMSYN116AAXX  16184 04201 45/84 /0000 11267 21287 30193 40220 57031 333 11208 21280 555 60/// 71500 72500 73500 74275 75500;
0151042010999992000021621004+77470-069220FM-12+001999999V0203201N001019999999N0500001N1-02391-02681101981ADDMA1999999101721MD1710211+9999REMSYN110AAXX  16214 04201 45/84 /3202 11239 21268 30172 40198 57021 333 91212 555 60/// 71500 72500 73500 74301 75500;
0151042010999992000021700004+77470-069220FM-12+001999999V0203601N002119999999N0500001N1-02261-02651101821ADDMA1999999101561MD1710161+9999REMSYN110AAXX  17004 04201 45/84 /3604 11226 21265 30156 40182 57016 333 91216 555 60/// 71500 72500 73500 74155 75500;
0121042010999992000021703004+77470-069220FM-12+001999999V0201201N001519999999N0500001N1-02411-02701101711ADDMA1999999101451REMSYN094AAXX  17034 04201 45/84 /1203 11241 21270 30145 40171 555 60/// 71500 72500 73500 74493 75500;
0183042010999992000021706004+77470-069220FM-12+001999999V0201801N000519999999N0500001N1-02461-02741101591ADDKA1120M-02411KA2120N-02701MA1999999101331MD1710121+9999REMSYN116AAXX  17064 04201 45/84 /1801 11246 21274 30133 40159 57012 333 11241 21270 555 60/// 71500 72500 73500 74490 75500;
0141042010999992000021709004+77470-069220FM-12+001999999V0202501N000519999999N0500001N1-02351-02701101501ADDMA1999999101241MD1710091+9999REMSYN100AAXX  17094 04201 45/84 /2501 11235 21270 30124 40150 57009 555 60/// 71500 72500 73500 74050 75500;
0141042010999992000021712004+77470-069220FM-12+001999999V0203101N000519999999N0500001N1-02551-02851101441ADDMA1999999101181MD1710061+9999REMSYN100AAXX  17124 04201 45/84 /3101 11255 21285 30118 40144 57006 555 60/// 71500 72500 73500 74050 75500;
0141042010999992000021715004+77470-069220FM-12+001999999V0200501N000519999999N0450001N1-02391-02671101361ADDMA1999999101101MD1710081+9999REMSYN100AAXX  17154 04201 45/83 /0501 11239 21267 30110 40136 57008 555 60/// 71465 72500 73500 74334 75500;
0183042010999992000021718004+77470-069220FM-12+001999999V0203001N001519999999N0450001N1-02531-02841101321ADDKA1120M-02241KA2120N-02871MA1999999101061MD1710041+9999REMSYN116AAXX  17184 04201 45/83 /3003 11253 21284 30106 40132 57004 333 11224 21287 555 60/// 71482 72500 73500 74334 75500;
0141042010999992000021721004+77470-069220FM-12+001999999V0202501N000519999999N0500001N1-02561-02891101411ADDMA1999999101151MD1210091+9999REMSYN100AAXX  17214 04201 45/84 /2501 11256 21289 30115 40141 52009 555 60/// 71500 72500 73500 74440 75500;
0141042010999992000021800004+77470-069220FM-12+001999999V0202501N001519999999N0500001N1-02491-02821101441ADDMA1999999101181MD1210031+9999REMSYN100AAXX  18004 04201 45/84 /2503 11249 21282 30118 40144 52003 555 60/// 71500 72500 73500 74440 75500;
0141042010999992000021803004+77470-069220FM-12+001999999V0201301N000519999999N0500001N1-02761-03041101381ADDMA1999999101111MD1710071+9999REMSYN100AAXX  18034 04201 45/84 /1301 11276 21304 30111 40138 57007 555 60/// 71500 72500 73500 74450 75500;
0183042010999992000021806004+77470-069220FM-12+001999999V0201301N002119999999N0500001N1-02351-02651101401ADDKA1120M-02221KA2120N-02891MA1999999101141MD1210031+9999REMSYN116AAXX  18064 04201 45/84 /1304 11235 21265 30114 40140 52003 333 11222 21289 555 60/// 71500 72500 73500 74450 75500;
0141042010999992000021809004+77470-069220FM-12+001999999V0203301N000519999999N0500001N1-02481-02741101481ADDMA1999999101221MD1210081+9999REMSYN100AAXX  18094 04201 45/84 /3301 11248 21274 30122 40148 52008 555 60/// 71500 72500 73500 74500 75500;
0141042010999992000021812004+77470-069220FM-12+001999999V0202801N001519999999N0450001N1-02371-02641101581ADDMA1999999101321MD1210101+9999REMSYN100AAXX  18124 04201 45/83 /2803 11237 21264 30132 40158 52010 555 60/// 71456 72500 73500 74456 75500;
0141042010999992000021815004+77470-069220FM-12+001999999V0202901N001519999999N0500001N1-02201-02491101661ADDMA1999999101401MD1210081+9999REMSYN100AAXX  18154 04201 45/84 /2903 11220 21249 30140 40166 52008 555 60/// 71500 72500 73500 74493 75500;
0183042010999992000021818004+77470-069220FM-12+001999999V0202701N002619999999N0400001N1-01941-02291101721ADDKA1120M-01431KA2120N-02661MA1999999101461MD1210061+9999REMSYN116AAXX  18184 04201 45/82 /2705 11194 21229 30146 40172 52006 333 11143 21266 555 60/// 71412 72500 73500 74257 75500;
0141042010999992000021821004+77470-069220FM-12+001999999V0203001N003119999999N0500001N1-01871-02251101731ADDMA1999999101471MD1210011+9999REMSYN100AAXX  18214 04201 45/84 /3006 11187 21225 30147 40173 52001 555 60/// 71500 72500 73500 74196 75500;
0151042010999992000021900004+77470-069220FM-12+001999999V0203401N002619999999N0500001N1-01151-01721101701ADDMA1999999101451MD1710021+9999REMSYN110AAXX  19004 04201 45/84 /3405 11115 21172 30145 40170 57002 333 91217 555 60/// 71500 72500 73500 74194 75500;
0162042010999992000021903004+77470-069220FM-12+001999999V0203601N001019999999N0500001N1-01151-01691101601ADDMA1999999101351MD1710101+9999OA149900721REMSYN110AAXX  19034 04201 45/84 /3602 11115 21169 30135 40160 57010 333 91114 555 60/// 71500 72500 73500 74483 75500;
0200042010999992000021906004+77470-069220FM-12+001999999V0201301N001519999999N0500001N1-01331-01821101391ADDKA1120M-00871KA2120N-02071MA1999999101141MD1710211+9999OA149900721REMSYN122AAXX  19064 04201 45/84 /1303 11133 21182 30114 40139 57021 333 11087 21207 91114 555 60/// 71500 72500 73500 74481 75500;
0141042010999992000021909004+77470-069220FM-12+001999999V0201801N000519999999N0500001N1-01901-02271101231ADDMA1999999100971MD1710171+9999REMSYN100AAXX  19094 04201 45/84 /1801 11190 21227 30097 40123 57017 555 60/// 71500 72500 73500 74470 75500;
0141042010999992000021912004+77470-069220FM-12+001999999V0203601N000519999999N0500001N1-01851-02181101031ADDMA1999999100771MD1710201+9999REMSYN100AAXX  19124 04201 45/84 /3601 11185 21218 30077 40103 57020 555 60/// 71500 72500 73500 74432 75500;
0141042010999992000021915004+77470-069220FM-12+001999999V0201201N000519999999N0500001N1-01971-02291100771ADDMA1999999100511MD1710261+9999REMSYN100AAXX  19154 04201 45/84 /1201 11197 21229 30051 40077 57026 555 60/// 71500 72500 73500 74500 75500;
0183042010999992000021918004+77470-069220FM-12+001999999V0202901N000519999999N0500001N1-01501-01921100521ADDKA1120M-01181KA2120N-01981MA1999999100271MD1710241+9999REMSYN116AAXX  19184 04201 45/84 /2901 11150 21192 30027 40052 57024 333 11118 21198 555 60/// 71500 72500 73500 74454 75500;
0141042010999992000021921004+77470-069220FM-12+001999999V0201701N001019999999N0500001N1-01541-01931100251ADDMA1999999100001MD1710271+9999REMSYN100AAXX  19214 04201 45/84 /1702 11154 21193 30000 40025 57027 555 60/// 71500 72500 73500 74495 75500;
0141042010999992000022000004+77470-069220FM-12+001999999V0200801N000519999999N0500001N1-01621-01981100021ADDMA1999999099771MD1710231+9999REMSYN100AAXX  20004 04201 45/84 /0801 11162 21198 39977 40002 57023 555 60/// 71500 72500 73500 74494 75500;
0141042010999992000022003004+77470-069220FM-12+001999999V0201401N002119999999N0500001N1-01831-02111099831ADDMA1999999099581MD1710191+9999REMSYN100AAXX  20034 04201 45/84 /1404 11183 21211 39958 49983 57019 555 60/// 71500 72500 73500 74498 75500;
0183042010999992000022006004+77470-069220FM-12+001999999V0202901N001019999999N0500001N1-01641-01981099621ADDKA1120M-01311KA2120N-02051MA1999999099371MD1710211+9999REMSYN116AAXX  20064 04201 45/84 /2902 11164 21198 39937 49962 57021 333 11131 21205 555 60/// 71500 72500 73500 74498 75500;
0141042010999992000022009004+77470-069220FM-12+001999999V0202001N000519999999N0500001N1-01591-01951099491ADDMA1999999099241MD1710131+9999REMSYN100AAXX  20094 04201 45/84 /2001 11159 21195 39924 49949 57013 555 60/// 71500 72500 73500 74478 75500;
0141042010999992000022012004+77470-069220FM-12+001999999V0203401N001019999999N0500001N1-01641-01981099471ADDMA1999999099221MD1710021+9999REMSYN100AAXX  20124 04201 45/84 /3402 11164 21198 39922 49947 57002 555 60/// 71500 72500 73500 74478 75500;
0141042010999992000022015004+77470-069220FM-12+001999999V0203501N000519999999N0500001N1-01221-01661099381ADDMA1999999099131MD1710091+9999REMSYN100AAXX  20154 04201 45/84 /3501 11122 21166 39913 49938 57009 555 60/// 71500 72500 73500 74460 75500;
0183042010999992000022018004+77470-069220FM-12+001999999V0203501N001019999999N0400001N1-01101-01541099281ADDKA1120M-00641KA2120N-01991MA1999999099041MD1710091+9999REMSYN116AAXX  20184 04201 45/82 /3502 11110 21154 39904 49928 57009 333 11064 21199 555 60/// 71443 72500 73500 74443 75500;
0141042010999992000022021004+77470-069220FM-12+001999999V0203001N004119999999N0450001N1-01071-01511099301ADDMA1999999099061MD1210021+9999REMSYN100AAXX  20214 04201 45/83 /3008 11107 21151 39906 49930 52002 555 60/// 71470 72500 73500 74427 75500;
0162042010999992000022100004+77470-069220FM-12+001999999V0200901N009819999999N0210001N1-00241-01081099361ADDMA1999999099121MD1210061+9999OA149901391REMSYN110AAXX  21004 04201 45/71 /0919 11024 21108 39912 49936 52006 333 91127 555 63017 71217 72500 73374 74097 75799;
0147042010999992000022103004+77470-069220FM-12+001999999V0200801N012319999999N0035001N1-00311-01131099521ADDMA1999999099281MD1210161+9999REMSYN106AAXX  21034 04201 4//35 /0824 11031 21113 39928 49952 52016 72271 555 63990 71035 72183 73086 74021 75324;
0212042010999992000022106004+77470-069220FM-12+001999999V0200901N009819999999N0270001N1-00471-01281099661ADDKA1120M-00201KA2120N-01261MA1999999099421MD1210141+9999OA149901601REMSYN134AAXX  21064 04201 4//77 /0919 11047 21128 39942 49966 52014 70071 333 11020 21126 91131 555 63990 64990 71280 72451 73367 74021 75500;
0147042010999992000022109004+77470-069220FM-12+001999999V0201101N011319999999N0080001N1-00641-01471099791ADDMA1999999099551MD1210131+9999REMSYN106AAXX  21094 04201 4//58 /1122 11064 21147 39955 49979 52013 70010 555 60/// 71085 72276 73157 74052 75499;
0168042010999992000022115004+77470-069220FM-12+001999999V0201001N004619999999N0400001N1-00931-01701100001ADDMA1999999099761MD1210081+9999OA149900821REMSYN116AAXX  21154 04201 45/82 /1009 11093 21170 39976 40000 52008 333 91116 91220 555 60/// 71446 72500 73500 74446 75500;
0206042010999992000022118004+77470-069220FM-12+001999999V0203601N000519999999N0400001N1-01311-01871100081ADDKA1120M-00431KA2120N-01451MA1999999099831MD1210071+9999OA149900821REMSYN128AAXX  21184 04201 45/82 /3601 11131 21187 39983 40008 52007 333 11043 21145 91116 91220 555 60/// 71422 72500 73500 74399 75500;
0141042010999992000022121004+77470-069220FM-12+001999999V0202901N001019999999N0500001N1-01131-01761100171ADDMA1999999099921MD1210091+9999REMSYN100AAXX  21214 04201 45/84 /2902 11113 21176 39992 40017 52009 555 60/// 71500 72500 73500 74424 75500;
0141042010999992000022200004+77470-069220FM-12+001999999V0200701N003119999999N0500001N1-01061-01671100241ADDMA1999999099991MD1210071+9999REMSYN100AAXX  22004 04201 45/84 /0706 11106 21167 39999 40024 52007 555 60/// 71500 72500 73500 74424 75500;
0171042010999992000022203004+77470-069220FM-12+001999999V0200401N001519999999N0018001N1-00971-01211100391ADDMA1999999100141MD1210151+9999REMSYN130AAXX  22034 04201 4//18 /0403 11097 21121 30014 40039 52015 77170 555 61994 62992 63994 64992 65001 71018 72025 73020 74018 75500;
0195042010999992000022206004+77470-069220FM-12+001999999V0200601N003619999999N0400001N1-00721-01061100431ADDKA1120M-00711KA2120N-01311MA1999999100191MD1210051+9999REMSYN128AAXX  22064 04201 4//82 /0607 11072 21106 30019 40043 52005 72570 333 11071 21131 555 63994 64991 71433 72500 73500 74018 75500;
0141042010999992000022209004+77470-069220FM-12+001999999V0200801N003619999999N0240001N1-01001-01181100581ADDMA1999999100331MD1210141+9999REMSYN100AAXX  22094 04201 45/74 /0807 11100 21118 30033 40058 52014 555 60/// 71249 72500 73392 74099 75500;
0159042010999992000022212004+77470-069220FM-12+001999999V0200801N005719999999N0400001N1-00851-01291100661ADDMA1999999100411MD1210081+9999REMSYN118AAXX  22124 04201 4//82 /0811 11085 21129 30041 40066 52008 72270 555 63990 64990 65001 71449 72500 73500 74035 75500;
0141042010999992000022215004+77470-069220FM-12+001999999V0200801N005119999999N0450001N1-00901-01531100671ADDMA1999999100421MD1210011+9999REMSYN100AAXX  22154 04201 45/83 /0810 11090 21153 30042 40067 52001 555 60/// 71496 72500 73500 74403 75500;
0183042010999992000022218004+77470-069220FM-12+001999999V0200901N004619999999N0500001N1-01021-01611100621ADDKA1120M-00701KA2120N-01231MA1999999100371MD1710051+9999REMSYN116AAXX  22184 04201 45/84 /0909 11102 21161 30037 40062 57005 333 11070 21123 555 60/// 71500 72500 73500 74345 75500;
0141042010999992000022221004+77470-069220FM-12+001999999V0201301N001019999999N0450001N1-01301-01721100521ADDMA1999999100271MD1710101+9999REMSYN100AAXX  22214 04201 45/83 /1302 11130 21172 30027 40052 57010 555 60/// 71478 72500 73500 74348 75500;
0141042010999992000022300004+77470-069220FM-12+001999999V0201101N006719999999N0500001N1-01521-02031100441ADDMA1999999100191MD1710081+9999REMSYN100AAXX  23004 04201 45/84 /1113 11152 21203 30019 40044 57008 555 60/// 71500 72500 73500 74348 75500;
0141042010999992000022303004+77470-069220FM-12+001999999V0201001N007719999999N0500001N1-01411-02051100441ADDMA1999999100191MD1410001+9999REMSYN100AAXX  23034 04201 45/84 /1015 11141 21205 30019 40044 54000 555 60/// 71500 72500 73500 74469 75500;
0183042010999992000022306004+77470-069220FM-12+001999999V0200901N009819999999N0090001N1-01561-02161100441ADDKA1120M-00941KA2120N-01581MA1999999100191MD1410001+9999REMSYN116AAXX  23064 04201 45/59 /0919 11156 21216 30019 40044 54000 333 11094 21158 555 60/// 71093 72249 73135 74090 75500;
0141042010999992000022309004+77470-069220FM-12+001999999V0200801N008219999999N0500001N1-01651-02281100541ADDMA1999999100291MD1210101+9999REMSYN100AAXX  23094 04201 45/84 /0816 11165 21228 30029 40054 52010 555 60/// 71500 72500 73500 74107 75500;
0141042010999992000022312004+77470-069220FM-12+001999999V0200901N008219999999N0500001N1-01701-02341100601ADDMA1999999100351MD1210061+9999REMSYN100AAXX  23124 04201 45/84 /0916 11170 21234 30035 40060 52006 555 60/// 71500 72500 73500 74107 75500;
0141042010999992000022315004+77470-069220FM-12+001999999V0200901N007719999999N0500001N1-01671-02331100611ADDMA1999999100361MD1210011+9999REMSYN100AAXX  23154 04201 45/84 /0915 11167 21233 30036 40061 52001 555 60/// 71500 72500 73500 74500 75500;
0189042010999992000022318004+77470-069220FM-12+001999999V0200301N001519999999N0450001N1-01801-02371100691ADDKA1120M-01431KA2120N-01911MA1999999100441MD1210081+9999REMSYN122AAXX  23184 04201 45/83 /0303 11180 21237 30044 40069 52008 333 11143 21191 91218 555 60/// 71483 72500 73500 74466 75500;
0141042010999992000022400004+77470-069220FM-12+001999999V0201001N007219999999N0500001N1-01751-02401100841ADDMA1999999100591MD1210061+9999REMSYN100AAXX  24004 04201 45/84 /1014 11175 21240 30059 40084 52006 555 60/// 71500 72500 73500 74439 75500;
0151042010999992000022403004+77470-069220FM-12+001999999V0200201N001019999999N0500001N1-01941-02491100911ADDMA1999999100651MD1210061+9999REMSYN110AAXX  24034 04201 45/84 /0202 11194 21249 30065 40091 52006 333 91216 555 60/// 71500 72500 73500 74500 75500;
0183042010999992000022406004+77470-069220FM-12+001999999V0200701N003119999999N0500001N1-01801-02441100941ADDKA1120M-01651KA2120N-02031MA1999999100681MD1210031+9999REMSYN116AAXX  24064 04201 45/84 /0706 11180 21244 30068 40094 52003 333 11165 21203 555 60/// 71500 72500 73500 74500 75500;
0141042010999992000022409004+77470-069220FM-12+001999999V0200701N005119999999N0500001N1-01831-02491101051ADDMA1999999100791MD1210111+9999REMSYN100AAXX  24094 04201 45/84 /0710 11183 21249 30079 40105 52011 555 60/// 71500 72500 73500 74500 75500;
0151042010999992000022412004+77470-069220FM-12+001999999V0203101N001519999999N0500001N1-02021-02561101091ADDMA1999999100831MD1210041+9999REMSYN110AAXX  24124 04201 45/84 /3103 11202 21256 30083 40109 52004 333 91214 555 60/// 71500 72500 73500 74500 75500;
0141042010999992000022415004+77470-069220FM-12+001999999V0202901N001519999999N0500001N1-02011-02521101111ADDMA1999999100851MD1210021+9999REMSYN100AAXX  24154 04201 45/84 /2903 11201 21252 30085 40111 52002 555 60/// 71500 72500 73500 74485 75500;
0183042010999992000022418004+77470-069220FM-12+001999999V0203201N001019999999N0450001N1-01991-02571101071ADDKA1120M-01761KA2120N-02121MA1999999100811MD1710041+9999REMSYN116AAXX  24184 04201 45/83 /3202 11199 21257 30081 40107 57004 333 11176 21212 555 60/// 71479 72500 73500 74428 75500;
0141042010999992000022421004+77470-069220FM-12+001999999V0200401N000519999999N0450001N1-02101-02611101041ADDMA1999999100781MD1710031+9999REMSYN100AAXX  24214 04201 45/83 /0401 11210 21261 30078 40104 57003 555 60/// 71495 72500 73500 74359 75500;
0141042010999992000022500004+77470-069220FM-12+001999999V0200101N000519999999N0500001N1-02141-02681100981ADDMA1999999100721MD1710061+9999REMSYN100AAXX  25004 04201 45/84 /0101 11214 21268 30072 40098 57006 555 60/// 71500 72500 73500 74950 75500;
0141042010999992000022503004+77470-069220FM-12+001999999V0200501N001519999999N0500001N1-02161-02651100941ADDMA1999999100681MD1710041+9999REMSYN100AAXX  25034 04201 45/84 /0503 11216 21265 30068 40094 57004 555 60/// 71500 72500 73500 74484 75500;
0183042010999992000022506004+77470-069220FM-12+001999999V0200401N003119999999N0500001N1-02161-02741100951ADDKA1120M-01931KA2120N-02301MA1999999100691MD1210011+9999REMSYN116AAXX  25064 04201 45/84 /0406 11216 21274 30069 40095 52001 333 11193 21230 555 60/// 71500 72500 73500 74484 75500;
0141042010999992000022509004+77470-069220FM-12+001999999V0200301N001019999999N0500001N1-02351-02861101041ADDMA1999999100781MD1210091+9999REMSYN100AAXX  25094 04201 45/84 /0302 11235 21286 30078 40104 52009 555 60/// 71500 72500 73500 74498 75500;
0141042010999992000022512004+77470-069220FM-12+001999999V0201301N000519999999N0500001N1-02511-02901101111ADDMA1999999100851MD1210071+9999REMSYN100AAXX  25124 04201 45/84 /1301 11251 21290 30085 40111 52007 555 60/// 71500 72500 73500 74348 75500;
0141042010999992000022515004+77470-069220FM-12+001999999V0203001N001019999999N0400001N1-02621-03001101121ADDMA1999999100861MD1210011+9999REMSYN100AAXX  25154 04201 45/82 /3002 11262 21300 30086 40112 52001 555 60/// 71421 72500 73500 74421 75500;
0183042010999992000022518004+77470-069220FM-12+001999999V0201101N000519999999N0400001N1-02501-02971101081ADDKA1120M-02081KA2120N-02811MA1999999100821MD1710041+9999REMSYN116AAXX  25184 04201 45/82 /1101 11250 21297 30082 40108 57004 333 11208 21281 555 60/// 71419 72500 73500 74124 75500;
0141042010999992000022521004+77470-069220FM-12+001999999V0203501N000519999999N0450001N1-02491-02901101171ADDMA1999999100911MD1210091+9999REMSYN100AAXX  25214 04201 45/83 /3501 11249 21290 30091 40117 52009 555 60/// 71495 72500 73500 74131 75500;
0141042010999992000022600004+77470-069220FM-12+001999999V0209999C000019999999N0500001N1-02581-03031101221ADDMA1999999100961MD1210051+9999REMSYN100AAXX  26004 04201 45/84 /0000 11258 21303 30096 40122 52005 555 60/// 71500 72500 73500 74131 75500;
0141042010999992000022603004+77470-069220FM-12+001999999V0200301N000519999999N0500001N1-02691-03091101241ADDMA1999999100971MD1210011+9999REMSYN100AAXX  26034 04201 45/84 /0301 11269 21309 30097 40124 52001 555 63017 71500 72500 73500 74500 75500;
0183042010999992000022606004+77470-069220FM-12+001999999V0202801N000519999999N0500001N1-02821-03201101311ADDKA1120M-02271KA2120N-02901MA1999999101041MD1210071+9999REMSYN116AAXX  26064 04201 45/84 /2801 11282 21320 30104 40131 52007 333 11227 21290 555 63017 71500 72500 73500 74500 75500;
0141042010999992000022609004+77470-069220FM-12+001999999V0209999C000019999999N0500001N1-02521-02951101341ADDMA1999999101081MD1210041+9999REMSYN100AAXX  26094 04201 45/84 /0000 11252 21295 30108 40134 52004 555 60/// 71500 72500 73500 74500 75500;
0141042010999992000022612004+77470-069220FM-12+001999999V0202101N000519999999N0500001N1-02621-03001101341ADDMA1999999101081MD1410001+9999REMSYN100AAXX  26124 04201 45/84 /2101 11262 21300 30108 40134 54000 555 60/// 71500 72500 73500 74500 75500;
0141042010999992000022615004+77470-069220FM-12+001999999V0203001N000519999999N0500001N1-02821-03201101291ADDMA1999999101021MD1710061+9999REMSYN100AAXX  26154 04201 45/84 /3001 11282 21320 30102 40129 57006 555 60/// 71500 72500 73500 74477 75500;
0183042010999992000022618004+77470-069220FM-12+001999999V0202701N000519999999N0450001N1-02301-02751101271ADDKA1120M-02261KA2120N-03041MA1999999101011MD1710011+9999REMSYN116AAXX  26184 04201 45/83 /2701 11230 21275 30101 40127 57001 333 11226 21304 555 60/// 71461 72500 73500 74355 75500;
0141042010999992000022621004+77470-069220FM-12+001999999V0200301N000519999999N0500001N1-02491-02841101251ADDMA1999999100991MD1710021+9999REMSYN100AAXX  26214 04201 45/84 /0301 11249 21284 30099 40125 57002 555 63017 71500 72500 73500 74392 75500;
0141042010999992000022700004+77470-069220FM-12+001999999V0202801N000519999999N0500001N1-02601-02921101211ADDMA1999999100951MD1710041+9999REMSYN100AAXX  27004 04201 45/84 /2801 11260 21292 30095 40121 57004 555 63017 71500 72500 73500 74392 75500;
0141042010999992000022703004+77470-069220FM-12+001999999V0200201N000519999999N0500001N1-02841-03121101151ADDMA1999999100881MD1710071+9999REMSYN100AAXX  27034 04201 45/84 /0201 11284 21312 30088 40115 57007 555 60/// 71500 72500 73500 74500 75500;
0183042010999992000022706004+77470-069220FM-12+001999999V0209999C000019999999N0500001N1-02951-03191101011ADDKA1120M-02301KA2120N-03151MA1999999100741MD1710141+9999REMSYN116AAXX  27064 04201 45/84 /0000 11295 21319 30074 40101 57014 333 11230 21315 555 60/// 71500 72500 73500 74218 75500;
0141042010999992000022709004+77470-069220FM-12+001999999V0202801N000519999999N0500001N1-02731-03061100941ADDMA1999999100681MD1710061+9999REMSYN100AAXX  27094 04201 45/84 /2801 11273 21306 30068 40094 57006 555 60/// 71500 72500 73500 74500 75500;
0141042010999992000022712004+77470-069220FM-12+001999999V0202501N000519999999N0500001N1-02681-03021100901ADDMA1999999100641MD1710041+9999REMSYN100AAXX  27124 04201 45/84 /2501 11268 21302 30064 40090 57004 555 60/// 71500 72500 73500 74500 75500;
0141042010999992000022715004+77470-069220FM-12+001999999V0200401N000519999999N0500001N1-02661-03031100801ADDMA1999999100541MD1710101+9999REMSYN100AAXX  27154 04201 45/84 /0401 11266 21303 30054 40080 57010 555 60/// 71500 72500 73500 74500 75500;
0183042010999992000022718004+77470-069220FM-12+001999999V0209999C000019999999N0350001N1-02491-02941100591ADDKA1120M-02381KA2120N-02951MA1999999100331MD1710211+9999REMSYN116AAXX  27184 04201 45/81 /0000 11249 21294 30033 40059 57021 333 11238 21295 555 60/// 71359 72500 73489 74315 75500;
0121042010999992000022800004+77470-069220FM-12+001999999V0201801N000519999999N0500001N1-02841-03141100291ADDMA1999999100031REMSYN094AAXX  28004 04201 45/84 /1801 11284 21314 30003 40029 555 60/// 71500 72500 73500 74500 75500;
0141042010999992000022803004+77470-069220FM-12+001999999V0202901N001019999999N0500001N1-02561-02951100071ADDMA1999999099811MD1710221+9999REMSYN100AAXX  28034 04201 45/84 /2902 11256 21295 39981 40007 57022 555 60/// 71500 72500 73500 74900 75500;
0183042010999992000022806004+77470-069220FM-12+001999999V0202901N001519999999N0450001N1-02781-03121099911ADDKA1120M-02421KA2120N-03011MA1999999099651MD1710161+9999REMSYN116AAXX  28064 04201 45/83 /2903 11278 21312 39965 49991 57016 333 11242 21301 555 60/// 71474 72500 73500 74900 75500;
0141042010999992000022809004+77470-069220FM-12+001999999V0201101N001019999999N0500001N1-02571-02941099861ADDMA1999999099601MD1710051+9999REMSYN100AAXX  28094 04201 45/84 /1102 11257 21294 39960 49986 57005 555 60/// 71500 72500 73500 74500 75500;
0141042010999992000022812004+77470-069220FM-12+001999999V0201301N000519999999N0500001N1-02781-03111099901ADDMA1999999099641MD1210041+9999REMSYN100AAXX  28124 04201 45/84 /1301 11278 21311 39964 49990 52004 555 60/// 71500 72500 73500 74500 75500;
0141042010999992000022815004+77470-069220FM-12+001999999V0202801N000519999999N0350001N1-02651-03001100001ADDMA1999999099741MD1210101+9999REMSYN100AAXX  28154 04201 45/81 /2801 11265 21300 39974 40000 52010 555 60/// 71395 72500 73500 74209 75500;
0141042010999992000022821004+77470-069220FM-12+001999999V0201201N000519999999N0500001N1-02351-02731100531ADDMA1999999100271MD1210311+9999REMSYN100AAXX  28214 04201 45/84 /1201 11235 21273 30027 40053 52031 555 60/// 71500 72500 73500 74284 75500;
0147042010999992000022900004+77470-069220FM-12+001999999V0203501N000519999999N0060001N1-02451-02721100801ADDMA1999999100541MD1210271+9999REMSYN106AAXX  29004 04201 4//56 /3501 11245 21272 30054 40080 52027 77771 555 64990 71061 72109 73081 74059 75500;
0165042010999992000022903004+77470-069220FM-12+001999999V0209999C000019999999N0036001N1-02501-02701101031ADDMA1999999100771MD1210231+9999REMSYN124AAXX  29034 04201 4//36 /0000 11250 21270 30077 40103 52023 77177 555 61990 62990 63990 64990 71036 72066 73053 74024 75417;
0195042010999992000022906004+77470-069220FM-12+001999999V0209999C000019999999N0090001N1-02391-02581101251ADDKA1120M-02101KA2120N-02941MA1999999100991MD1210221+9999REMSYN128AAXX  29064 04201 4//59 /0000 11239 21258 30099 40125 52022 77777 333 11210 21294 555 63990 64990 71100 72437 73275 74024 75437;
0153042010999992000022909004+77470-069220FM-12+001999999V0201401N000519999999N0100001N1-02391-02541101441ADDMA1999999101181MD1210191+9999REMSYN112AAXX  29094 04201 4//60 /1401 11239 21254 30118 40144 52019 77777 555 63990 64990 71101 72211 73153 74058 75500;
0159042010999992000022912004+77470-069220FM-12+001999999V0200601N000519999999N0140001N1-02301-02451101501ADDMA1999999101241MD1210061+9999REMSYN118AAXX  29124 04201 4//64 /0601 11230 21245 30124 40150 52006 78577 555 61990 62990 63990 71145 72500 73341 74055 75500;
0147042010999992000022915004+77470-069220FM-12+001999999V0209999C000019999999N0090001N1-02481-02631101531ADDMA1999999101271MD1210031+9999REMSYN106AAXX  29154 04201 4//59 /0000 11248 21263 30127 40153 52003 72477 555 63990 71094 72252 73111 74944 75500;
0189042010999992000022918004+77470-069220FM-12+001999999V0209999C000019999999N0350001N1-02311-02461101481ADDKA1120M-02121KA2120N-02671MA1999999101221MD1710051+9999REMSYN122AAXX  29184 04201 4//81 /0000 11231 21246 30122 40148 57005 70077 333 11212 21267 555 63990 71362 72500 73450 74944 75500;
0141042010999992000022921004+77470-069220FM-12+001999999V0209999C000019999999N0300001N1-02551-02691101501ADDMA1999999101241MD1210021+9999REMSYN100AAXX  29214 04201 45/80 /0000 11255 21269 30124 40150 52002 555 60/// 71320 72500 73500 74131 75500;
0141042010999992000030100004+77470-069220FM-12+001999999V0203101N000519999999N0500001N1-02471-02611101551ADDMA1999999101291MD1210051+9999REMSYN100AAXX  01004 04201 45/84 /3101 11247 21261 30129 40155 52005 555 60/// 71500 72500 73500 74131 75500;
0141042010999992000030103004+77470-069220FM-12+001999999V0200801N000519999999N0500001N1-02531-02671101591ADDMA1999999101331MD1210041+9999REMSYN100AAXX  01034 04201 45/84 /0801 11253 21267 30133 40159 52004 555 60/// 71500 72500 73500 74325 75500;
0183042010999992000030106004+77470-069220FM-12+001999999V0202101N000519999999N0500001N1-02331-02491101661ADDKA1120M-02251KA2120N-02691MA1999999101401MD1210071+9999REMSYN116AAXX  01064 04201 45/84 /2101 11233 21249 30140 40166 52007 333 11225 21269 555 60/// 71500 72500 73500 74325 75500;
0141042010999992000030109004+77470-069220FM-12+001999999V0200501N000519999999N0500001N1-02331-02501101711ADDMA1999999101451MD1210051+9999REMSYN100AAXX  01094 04201 45/84 /0501 11233 21250 30145 40171 52005 555 60/// 71500 72500 73500 74493 75500;
0141042010999992000030112004+77470-069220FM-12+001999999V0201201N000519999999N0500001N1-02361-02531101781ADDMA1999999101521MD1210071+9999REMSYN100AAXX  01124 04201 45/84 /1201 11236 21253 30152 40178 52007 555 60/// 71500 72500 73500 74493 75500;
0141042010999992000030115004+77470-069220FM-12+001999999V0201301N000519999999N0400001N1-02101-02401101811ADDMA1999999101551MD1210031+9999REMSYN100AAXX  01154 04201 45/82 /1301 11210 21240 30155 40181 52003 555 60/// 71414 72500 73500 74396 75500;
0183042010999992000030118004+77470-069220FM-12+001999999V0200801N003119999999N0350001N1-01901-02371101841ADDKA1120M-01781KA2120N-02481MA1999999101581MD1210031+9999REMSYN116AAXX  01184 04201 45/81 /0806 11190 21237 30158 40184 52003 333 11178 21248 555 60/// 71391 72500 73500 74162 75500;
0141042010999992000030121004+77470-069220FM-12+001999999V0200501N003119999999N0500001N1-01841-02421101961ADDMA1999999101701MD1210121+9999REMSYN100AAXX  01214 04201 45/84 /0506 11184 21242 30170 40196 52012 555 60/// 71500 72500 73500 74345 75500;
0151042010999992000030200004+77470-069220FM-12+001999999V0201401N000519999999N0500001N1-02121-02561102121ADDMA1999999101861MD1210161+9999REMSYN110AAXX  02004 04201 45/84 /1401 11212 21256 30186 40212 52016 333 91214 555 60/// 71500 72500 73500 74345 75500;
0141042010999992000030203004+77470-069220FM-12+001999999V0201901N000519999999N0500001N1-02561-02901102261ADDMA1999999101991MD1210131+9999REMSYN100AAXX  02034 04201 45/84 /1901 11256 21290 30199 40226 52013 555 60/// 71500 72500 73500 74469 75500;
0183042010999992000030206004+77470-069220FM-12+001999999V0209999C000019999999N0500001N1-02401-02751102371ADDKA1120M-01731KA2120N-02731MA1999999102111MD1210121+9999REMSYN116AAXX  02064 04201 45/84 /0000 11240 21275 30211 40237 52012 333 11173 21273 555 60/// 71500 72500 73500 74469 75500;
0141042010999992000030209004+77470-069220FM-12+001999999V0202801N001019999999N0500001N1-02451-02751102461ADDMA1999999102191MD1210081+9999REMSYN100AAXX  02094 04201 45/84 /2802 11245 21275 30219 40246 52008 555 60/// 71500 72500 73500 74500 75500;
0141042010999992000030212004+77470-069220FM-12+001999999V0201501N000519999999N0500001N1-02231-02621102501ADDMA1999999102241MD1210051+9999REMSYN100AAXX  02124 04201 45/84 /1501 11223 21262 30224 40250 52005 555 60/// 71500 72500 73500 74500 75500;
0141042010999992000030215004+77470-069220FM-12+001999999V0201001N005119999999N0180001N1-01921-02331102491ADDMA1999999102231MD1710011+9999REMSYN100AAXX  02154 04201 45/68 /1010 11192 21233 30223 40249 57001 555 60/// 71180 72458 73326 74141 75500;
0183042010999992000030218004+77470-069220FM-12+001999999V0201101N007219999999N0110001N1-01911-02341102451ADDKA1120M-01811KA2120N-02691MA1999999102191MD1710041+9999REMSYN116AAXX  02184 04201 45/61 /1114 11191 21234 30219 40245 57004 333 11181 21269 555 60/// 71113 72500 73256 74070 75500;
0141042010999992000030221004+77470-069220FM-12+001999999V0200601N004619999999N0500001N1-02031-02521102411ADDMA1999999102151MD1710041+9999REMSYN100AAXX  02214 04201 45/84 /0609 11203 21252 30215 40241 57004 555 60/// 71500 72500 73500 74075 75500;
0141042010999992000030300004+77470-069220FM-12+001999999V0201001N007719999999N0500001N1-02001-02551102271ADDMA1999999102011MD1710141+9999REMSYN100AAXX  03004 04201 45/84 /1015 11200 21255 30201 40227 57014 555 60/// 71500 72500 73500 74950 75500;
0141042010999992000030303004+77470-069220FM-12+001999999V0200701N004119999999N0500001N1-02061-02591102101ADDMA1999999101841MD1710171+9999REMSYN100AAXX  03034 04201 45/84 /0708 11206 21259 30184 40210 57017 555 60/// 71500 72500 73500 74500 75500;
0189042010999992000030306004+77470-069220FM-12+001999999V0201001N001519999999N0500001N1-02491-02891101901ADDKA1120M-01851KA2120N-02491MA1999999101641MD1710201+9999REMSYN122AAXX  03064 04201 45/84 /1003 11249 21289 30164 40190 57020 333 11185 21249 91215 555 60/// 71500 72500 73500 74495 75500;
0141042010999992000030309004+77470-069220FM-12+001999999V0201601N000519999999N0500001N1-02621-02901101681ADDMA1999999101411MD1710231+9999REMSYN100AAXX  03094 04201 45/84 /1601 11262 21290 30141 40168 57023 555 60/// 71500 72500 73500 74482 75500;
0141042010999992000030312004+77470-069220FM-12+001999999V0209999C000019999999N0500001N1-02581-02851101311ADDMA1999999101051MD1710361+9999REMSYN100AAXX  03124 04201 45/84 /0000 11258 21285 30105 40131 57036 555 60/// 71500 72500 73500 74453 75500;
0141042010999992000030315004+77470-069220FM-12+001999999V0201401N000519999999N0400001N1-02731-02991100851ADDMA1999999100591MD1710461+9999REMSYN100AAXX  03154 04201 45/82 /1401 11273 21299 30059 40085 57046 555 60/// 71440 72500 73500 74165 75500;
0200042010999992000030318004+77470-069220FM-12+001999999V0201101N005719999999N0300001N1-02121-02571100391ADDKA1120M-02121KA2120N-02921MA1999999100131MD1710461+9999OA149900981REMSYN122AAXX  03184 04201 45/80 /1111 11212 21257 30013 40039 57046 333 11212 21292 91119 555 60/// 71312 72500 73423 74165 75500;
0151042010999992000030321004+77470-069220FM-12+001999999V0203601N001019999999N0450001N1-02621-02971100181ADDMA1999999099921MD1710211+9999REMSYN110AAXX  03214 04201 45/83 /3602 11262 21297 39992 40018 57021 333 91215 555 60/// 71485 72500 73500 74298 75500;
0151042010999992000030400004+77470-069220FM-12+001999999V0200901N001519999999N0450001N1-02381-02741100121ADDMA1999999099861MD1710061+9999REMSYN110AAXX  04004 04201 45/83 /0903 11238 21274 39986 40012 57006 333 91215 555 60/// 71499 72500 73500 74298 75500;
0141042010999992000030403004+77470-069220FM-12+001999999V0203501N001519999999N0500001N1-02671-02971100321ADDMA1999999100061MD1210201+9999REMSYN100AAXX  04034 04201 45/84 /3503 11267 21297 30006 40032 52020 555 60/// 71500 72500 73500 74491 75500;
0183042010999992000030406004+77470-069220FM-12+001999999V0203301N001019999999N0500001N1-02291-02741100661ADDKA1120M-01941KA2120N-02841MA1999999100401MD1210341+9999REMSYN116AAXX  04064 04201 45/84 /3302 11229 21274 30040 40066 52034 333 11194 21284 555 60/// 71500 72500 73500 74491 75500;
0141042010999992000030409004+77470-069220FM-12+001999999V0202801N002119999999N0500001N1-02611-02961101121ADDMA1999999100861MD1210461+9999REMSYN100AAXX  04094 04201 45/84 /2804 11261 21296 30086 40112 52046 555 60/// 71500 72500 73500 74500 75500;
0141042010999992000030415004+77470-069220FM-12+001999999V0200901N003119999999N0400001N1-02251-02691101771ADDMA1999999101511MD1210271+9999REMSYN100AAXX  04154 04201 45/82 /0906 11225 21269 30151 40177 52027 555 60/// 71449 72500 73500 74449 75500;
0183042010999992000030418004+77470-069220FM-12+001999999V0201101N003119999999N0400001N1-02301-02631102011ADDKA1120M-02101KA2120N-02881MA1999999101751MD1210241+9999REMSYN116AAXX  04184 04201 45/82 /1106 11230 21263 30175 40201 52024 333 11210 21288 555 63017 71415 72500 73500 74281 75500;
0141042010999992000030421004+77470-069220FM-12+001999999V0200401N001019999999N0500001N1-02291-02621102251ADDMA1999999101991MD1210241+9999REMSYN100AAXX  04214 04201 45/84 /0402 11229 21262 30199 40225 52024 555 60/// 71500 72500 73500 74312 75500;
0141042010999992000030500004+77470-069220FM-12+001999999V0200901N002119999999N0500001N1-02671-03011102401ADDMA1999999102131MD1210141+9999REMSYN100AAXX  05004 04201 45/84 /0904 11267 21301 30213 40240 52014 555 60/// 71500 72500 73500 74312 75500;
0141042010999992000030503004+77470-069220FM-12+001999999V0200701N003119999999N0500001N1-02331-02791102411ADDMA1999999102151MD1210021+9999REMSYN100AAXX  05034 04201 45/84 /0706 11233 21279 30215 40241 52002 555 60/// 71500 72500 73500 74500 75500;
0121042010999992000030600004+77470-069220FM-12+001999999V0202301N000519999999N0500001N1-02801-03211102291ADDMA1999999102021REMSYN094AAXX  06004 04201 45/84 /2301 11280 21321 30202 40229 555 60/// 71500 72500 73500 74387 75500;
0141042010999992000030603004+77470-069220FM-12+001999999V0203001N001519999999N0500001N1-02781-03221102281ADDMA1999999102011MD1710011+9999REMSYN100AAXX  06034 04201 45/84 /3003 11278 21322 30201 40228 57001 555 60/// 71500 72500 73500 74500 75500;
0183042010999992000030606004+77470-069220FM-12+001999999V0203001N000519999999N0500001N1-02801-03181102151ADDKA1120M-02391KA2120N-03101MA1999999101881MD1710131+9999REMSYN116AAXX  06064 04201 45/84 /3001 11280 21318 30188 40215 57013 333 11239 21310 555 60/// 71500 72500 73500 74500 75500;
0141042010999992000030609004+77470-069220FM-12+001999999V0200701N001019999999N0500001N1-02671-03111102021ADDMA1999999101751MD1710131+9999REMSYN100AAXX  06094 04201 45/84 /0702 11267 21311 30175 40202 57013 555 60/// 71500 72500 73500 74500 75500;
0141042010999992000030612004+77470-069220FM-12+001999999V0201601N000519999999N0500001N1-02841-03231101851ADDMA1999999101581MD1710171+9999REMSYN100AAXX  06124 04201 45/84 /1601 11284 21323 30158 40185 57017 555 60/// 71500 72500 73500 74500 75500;
0141042010999992000030615004+77470-069220FM-12+001999999V0202901N001519999999N0290001N1-02861-03241101631ADDMA1999999101361MD1710221+9999REMSYN100AAXX  06154 04201 45/79 /2903 11286 21324 30136 40163 57022 555 60/// 71299 72500 73417 74299 75500;
0183042010999992000030618004+77470-069220FM-12+001999999V0201601N000519999999N0350001N1-02881-03331101451ADDKA1120M-02481KA2120N-03231MA1999999101181MD1710181+9999REMSYN116AAXX  06184 04201 45/81 /1601 11288 21333 30118 40145 57018 333 11248 21323 555 60/// 71368 72500 73500 74104 75500;
0141042010999992000030621004+77470-069220FM-12+001999999V0202801N001019999999N0450001N1-02941-03381101331ADDMA1999999101061MD1710121+9999REMSYN100AAXX  06214 04201 45/83 /2802 11294 21338 30106 40133 57012 555 60/// 71483 72500 73500 74297 75500;
0162042010999992000030700004+77470-069220FM-12+001999999V0200801N006219999999N0500001N1-02501-03061101181ADDMA1999999100921MD1710141+9999OA149900881REMSYN110AAXX  07004 04201 45/84 /0812 11250 21306 30092 40118 57014 333 91117 555 60/// 71500 72500 73500 74297 75500;
0141042010999992000030703004+77470-069220FM-12+001999999V0201101N004119999999N0500001N1-02601-03131101131ADDMA1999999100871MD1710051+9999REMSYN100AAXX  07034 04201 45/84 /1108 11260 21313 30087 40113 57005 555 60/// 71500 72500 73500 74500 75500;
0183042010999992000030706004+77470-069220FM-12+001999999V0200701N003119999999N0500001N1-02621-03141101091ADDKA1120M-02411KA2120N-03121MA1999999100831MD1710041+9999REMSYN116AAXX  07064 04201 45/84 /0706 11262 21314 30083 40109 57004 333 11241 21312 555 60/// 71500 72500 73500 74500 75500;
0141042010999992000030709004+77470-069220FM-12+001999999V0200701N005119999999N0500001N1-02531-03071101091ADDMA1999999100831MD1410001+9999REMSYN100AAXX  07094 04201 45/84 /0710 11253 21307 30083 40109 54000 555 60/// 71500 72500 73500 74500 75500;
0141042010999992000030712004+77470-069220FM-12+001999999V0201001N002619999999N0500001N1-02781-03301101131ADDMA1999999100861MD1210031+9999REMSYN100AAXX  07124 04201 45/84 /1005 11278 21330 30086 40113 52003 555 60/// 71500 72500 73500 74500 75500;
0141042010999992000030715004+77470-069220FM-12+001999999V0200701N001519999999N0350001N1-02631-03131101111ADDMA1999999100851MD1710011+9999REMSYN100AAXX  07154 04201 45/81 /0703 11263 21313 30085 40111 57001 555 60/// 71391 72500 73500 74125 75500;
0183042010999992000030718004+77470-069220FM-12+001999999V0202201N000519999999N0300001N1-02681-03181101051ADDKA1120M-02391KA2120N-03001MA1999999100791MD1710061+9999REMSYN116AAXX  07184 04201 45/80 /2201 11268 21318 30079 40105 57006 333 11239 21300 555 60/// 71320 72500 73480 74125 75500;
0141042010999992000030721004+77470-069220FM-12+001999999V0201101N002119999999N0450001N1-02891-03371101031ADDMA1999999100761MD1710031+9999REMSYN100AAXX  07214 04201 45/83 /1104 11289 21337 30076 40103 57003 555 60/// 71481 72500 73500 74291 75500;
0141042010999992000030800004+77470-069220FM-12+001999999V0201801N001019999999N0500001N1-02831-03261101011ADDMA1999999100741MD1710021+9999REMSYN100AAXX  08004 04201 45/84 /1802 11283 21326 30074 40101 57002 555 60/// 71500 72500 73500 74291 75500;
0141042010999992000030803004+77470-069220FM-12+001999999V0203101N001019999999N0500001N1-02751-03171101011ADDMA1999999100741MD1410001+9999REMSYN100AAXX  08034 04201 45/84 /3102 11275 21317 30074 40101 54000 555 60/// 71500 72500 73500 74500 75500;
0183042010999992000030806004+77470-069220FM-12+001999999V0201301N000519999999N0500001N1-02891-03281101081ADDKA1120M-02281KA2120N-03081MA1999999100811MD1210071+9999REMSYN116AAXX  08064 04201 45/84 /1301 11289 21328 30081 40108 52007 333 11228 21308 555 60/// 71500 72500 73500 74500 75500;
0077042010999992000030809004+77470-069220FM-12+001999999V02099999999999999999N0500001N1+99999+99999999999REMSYN068AAXX  08094 04201 46/84 ///// 333 91206 555 71500 72500 74500 75500;
0121042010999992000030815004+77470-069220FM-12+001999999V0203001N000519999999N0400001N1-02421-02891101591ADDMA1999999101331REMSYN094AAXX  08154 04201 45/82 /3001 11242 21289 30133 40159 555 60/// 71442 72500 73500 74442 75500;
0183042010999992000030818004+77470-069220FM-12+001999999V0201201N000519999999N0350001N1-02501-03011101681ADDKA1120M-02331KA2120N-02911MA1999999101421MD1210091+9999REMSYN116AAXX  08184 04201 45/81 /1201 11250 21301 30142 40168 52009 333 11233 21291 555 60/// 71390 72500 73476 74224 75500;
0141042010999992000030821004+77470-069220FM-12+001999999V0203101N001019999999N0500001N1-02361-02871101761ADDMA1999999101501MD1210081+9999REMSYN100AAXX  08214 04201 45/84 /3102 11236 21287 30150 40176 52008 555 63017 71500 72500 73500 74312 75500;
0141042010999992000030900004+77470-069220FM-12+001999999V0202801N001019999999N0500001N1-02771-03181101861ADDMA1999999101591MD1210091+9999REMSYN100AAXX  09004 04201 45/84 /2802 11277 21318 30159 40186 52009 555 63017 71500 72500 73500 74312 75500;
0141042010999992000030903004+77470-069220FM-12+001999999V0202401N000519999999N0500001N1-02741-03141101851ADDMA1999999101581MD1710011+9999REMSYN100AAXX  09034 04201 45/84 /2401 11274 21314 30158 40185 57001 555 60/// 71500 72500 73500 74500 75500;
0183042010999992000030906004+77470-069220FM-12+001999999V0201301N001019999999N0500001N1-02631-03001101771ADDKA1120M-02231KA2120N-02981MA1999999101501MD1710081+9999REMSYN116AAXX  09064 04201 45/84 /1302 11263 21300 30150 40177 57008 333 11223 21298 555 60/// 71500 72500 73500 74500 75500;
0141042010999992000030909004+77470-069220FM-12+001999999V0202701N001019999999N0500001N1-02631-03021101681ADDMA1999999101411MD1710091+9999REMSYN100AAXX  09094 04201 45/84 /2702 11263 21302 30141 40168 57009 555 60/// 71500 72500 73500 74500 75500;
0141042010999992000030912004+77470-069220FM-12+001999999V0203001N001519999999N0500001N1-02781-03131101561ADDMA1999999101291MD1710121+9999REMSYN100AAXX  09124 04201 45/84 /3003 11278 21313 30129 40156 57012 555 60/// 71500 72500 73500 74500 75500;
0147042010999992000030915004+77470-069220FM-12+001999999V0201001N000519999999N0300001N1-02411-02821101371ADDMA1999999101111MD1710181+9999REMSYN106AAXX  09154 04201 4//80 /1001 11241 21282 30111 40137 57018 70010 555 60/// 71345 72500 73454 74014 75500;
0189042010999992000030918004+77470-069220FM-12+001999999V0201601N000519999999N0350001N1-02481-02921101171ADDKA1120M-02031KA2120N-02981MA1999999100911MD1710201+9999REMSYN122AAXX  09184 04201 4//81 /1601 11248 21292 30091 40117 57020 70010 333 11203 21298 555 60/// 71355 72500 73495 74014 75500;
0141042010999992000030921004+77470-069220FM-12+001999999V0201501N003619999999N0400001N1-02351-02861100901ADDMA1999999100641MD1710271+9999REMSYN100AAXX  09214 04201 45/82 /1507 11235 21286 30064 40090 57027 555 60/// 71441 72500 73500 74261 75500;
0121042010999992000031021004+77470-069220FM-12+001999999V0203001N000519999999N0350001N1-02291-02811100321ADDMA1999999100061REMSYN094AAXX  10214 04201 45/81 /3001 11229 21281 30006 40032 555 60/// 71385 72500 73481 74169 75500;
0141042010999992000031100004+77470-069220FM-12+001999999V0201201N001019999999N0500001N1-02421-02881100221ADDMA1999999099961MD1710101+9999REMSYN100AAXX  11004 04201 45/84 /1202 11242 21288 39996 40022 57010 555 60/// 71500 72500 73500 74169 75500;
0141042010999992000031103004+77470-069220FM-12+001999999V0202401N000519999999N0500001N1-02381-02771100121ADDMA1999999099861MD1710101+9999REMSYN100AAXX  11034 04201 45/84 /2401 11238 21277 39986 40012 57010 555 60/// 71500 72500 73500 74486 75500;
0183042010999992000031106004+77470-069220FM-12+001999999V0202301N000519999999N0500001N1-02691-03061100031ADDKA1120M-01791KA2120N-02831MA1999999099771MD1710091+9999REMSYN116AAXX  11064 04201 45/84 /2301 11269 21306 39977 40003 57009 333 11179 21283 555 60/// 71500 72500 73500 74479 75500;
0141042010999992000031109004+77470-069220FM-12+001999999V0209999C000019999999N0500001N1-02391-02821100071ADDMA1999999099811MD1210041+9999REMSYN100AAXX  11094 04201 45/84 /0000 11239 21282 39981 40007 52004 555 60/// 71500 72500 73500 74500 75500;
0141042010999992000031112004+77470-069220FM-12+001999999V0201201N000519999999N0500001N1-02481-02861100071ADDMA1999999099811MD1410001+9999REMSYN100AAXX  11124 04201 45/84 /1201 11248 21286 39981 40007 54000 555 60/// 71500 72500 73500 74500 75500;
0141042010999992000031115004+77470-069220FM-12+001999999V0201701N000519999999N0300001N1-02181-02711100061ADDMA1999999099801MD1710011+9999REMSYN100AAXX  11154 04201 45/80 /1701 11218 21271 39980 40006 57001 555 60/// 71307 72500 73422 74307 75500;
0183042010999992000031118004+77470-069220FM-12+001999999V0209999C000019999999N0240001N1-01931-02561099971ADDKA1120M-01811KA2120N-02731MA1999999099721MD1710081+9999REMSYN116AAXX  11184 04201 45/74 /0000 11193 21256 39972 49997 57008 333 11181 21273 555 60/// 71241 72500 73442 74219 75500;
0147042010999992000031121004+77470-069220FM-12+001999999V0201201N001019999999N0070001N1-02371-02881100001ADDMA1999999099741MD1210021+9999REMSYN106AAXX  11214 04201 4//57 /1202 11237 21288 39974 40000 52002 71010 555 60/// 71072 72131 73098 74066 75500;
0147042010999992000031200004+77470-069220FM-12+001999999V0202901N000519999999N0500001N1-02591-02951099971ADDMA1999999099711MD1710031+9999REMSYN106AAXX  12004 04201 4//84 /2901 11259 21295 39971 49997 57003 70010 555 60/// 71500 72500 73500 74033 75500;
0141042010999992000031203004+77470-069220FM-12+001999999V0203001N001519999999N0500001N1-02511-02881099991ADDMA1999999099731MD1210021+9999REMSYN100AAXX  12034 04201 45/84 /3003 11251 21288 39973 49999 52002 555 60/// 71500 72500 73500 74454 75500;
0189042010999992000031206004+77470-069220FM-12+001999999V0201501N000519999999N0500001N1-02121-02591100211ADDKA1120M-01561KA2120N-02771MA1999999099951MD1210221+9999REMSYN122AAXX  12064 04201 45/84 /1501 11212 21259 39995 40021 52022 333 11156 21277 91213 555 60/// 71500 72500 73500 74454 75500;
0141042010999992000031209004+77470-069220FM-12+001999999V0203001N001019999999N0500001N1-02271-02631100491ADDMA1999999100231MD1210281+9999REMSYN100AAXX  12094 04201 45/84 /3002 11227 21263 30023 40049 52028 555 60/// 71500 72500 73500 74900 75500;
0141042010999992000031212004+77470-069220FM-12+001999999V0201001N001019999999N0500001N1-01881-02331100731ADDMA1999999100471MD1210241+9999REMSYN100AAXX  12124 04201 45/84 /1002 11188 21233 30047 40073 52024 555 63017 71500 72500 73500 74900 75799;
0141042010999992000031215004+77470-069220FM-12+001999999V0201301N001019999999N0450001N1-01901-02361100961ADDMA1999999100701MD1210231+9999REMSYN100AAXX  12154 04201 45/83 /1302 11190 21236 30070 40096 52023 555 60/// 71497 72500 73500 74457 75500;
0183042010999992000031218004+77470-069220FM-12+001999999V0201801N000519999999N0350001N1-01931-02331101141ADDKA1120M-01671KA2120N-02441MA1999999100881MD1210181+9999REMSYN116AAXX  12184 04201 45/81 /1801 11193 21233 30088 40114 52018 333 11167 21244 555 60/// 71388 72500 73500 74294 75500;
0165042010999992000031221004+77470-069220FM-12+001999999V0200901N000519999999N0110001N1-01761-02061101301ADDMA1999999101041MD1210161+9999REMSYN124AAXX  12214 04201 4//61 /0901 11176 21206 30104 40130 52016 77774 555 61990 62990 63990 64990 71120 72209 73150 74092 75500;
0171042010999992000031300004+77470-069220FM-12+001999999V0200901N005719999999N0024001N1-01601-01901101441ADDMA1999999101191MD1210151+9999REMSYN130AAXX  13004 04201 4//24 /0911 11160 21190 30119 40144 52015 77774 555 61991 62990 63991 64990 65001 71024 72044 73029 74024 75500;
0171042010999992000031303004+77470-069220FM-12+001999999V0201001N005719999999N0030001N1-01621-01871101601ADDMA1999999101351MD1210161+9999REMSYN130AAXX  13034 04201 4//30 /1011 11162 21187 30135 40160 52016 77777 555 61991 62990 63991 64992 65002 71030 72059 73032 74023 75422;
0201042010999992000031306004+77470-069220FM-12+001999999V0200901N005119999999N0250001N1-01861-02081101751ADDKA1120M-01431KA2120N-01971MA1999999101491MD1210141+9999REMSYN134AAXX  13064 04201 4//75 /0910 11186 21208 30149 40175 52014 77777 333 11143 21197 555 63991 64991 65001 71253 72493 73385 74023 75493;
0165042010999992000031309004+77470-069220FM-12+001999999V0200701N003619999999N0049001N1-01801-02061101941ADDMA1999999101681MD1210191+9999REMSYN124AAXX  13094 04201 4//49 /0707 11180 21206 30168 40194 52019 77777 555 61990 62990 63990 64990 71049 72085 73061 74049 75500;
0153042010999992000031312004+77470-069220FM-12+001999999V0202801N000519999999N0400001N1-02131-02311102031ADDMA1999999101771MD1210091+9999REMSYN112AAXX  13124 04201 4//82 /2801 11213 21231 30177 40203 52009 70077 555 63990 64990 71423 72500 73500 74049 75500;
0141042010999992000031315004+77470-069220FM-12+001999999V0200801N003619999999N0080001N1-01921-02191102121ADDMA1999999101861MD1210091+9999REMSYN100AAXX  13154 04201 45/58 /0807 11192 21219 30186 40212 52009 555 60/// 71087 72499 73116 74087 75500;
0183042010999992000031318004+77470-069220FM-12+001999999V0201001N005719999999N0300001N1-01881-02341102191ADDKA1120M-01681KA2120N-02271MA1999999101931MD1210071+9999REMSYN116AAXX  13184 04201 45/80 /1011 11188 21234 30193 40219 52007 333 11168 21227 555 60/// 71307 72500 73469 74087 75500;
0141042010999992000031321004+77470-069220FM-12+001999999V0201001N005719999999N0400001N1-01971-02461102301ADDMA1999999102041MD1210111+9999REMSYN100AAXX  13214 04201 45/82 /1011 11197 21246 30204 40230 52011 555 60/// 71429 72500 73500 74264 75500;
0151042010999992000031400004+77470-069220FM-12+001999999V0203401N001019999999N0500001N1-02111-02481102441ADDMA1999999102181MD1210141+9999REMSYN110AAXX  14004 04201 45/84 /3402 11211 21248 30218 40244 52014 333 91213 555 60/// 71500 72500 73500 74264 75500;
0141042010999992000031403004+77470-069220FM-12+001999999V0209999C000019999999N0500001N1-02651-02861102541ADDMA1999999102271MD1210091+9999REMSYN100AAXX  14034 04201 45/84 /0000 11265 21286 30227 40254 52009 555 60/// 71500 72500 73500 74479 75500;
0183042010999992000031406004+77470-069220FM-12+001999999V0201501N001019999999N0500001N1-02481-02701102551ADDKA1120M-01861KA2120N-02711MA1999999102281MD1210011+9999REMSYN116AAXX  14064 04201 45/84 /1502 11248 21270 30228 40255 52001 333 11186 21271 555 60/// 71500 72500 73500 74479 75500;
0141042010999992000031409004+77470-069220FM-12+001999999V0203001N000519999999N0500001N1-02361-02631102491ADDMA1999999102231MD1710051+9999REMSYN100AAXX  14094 04201 45/84 /3001 11236 21263 30223 40249 57005 555 60/// 71500 72500 73500 74471 75500;
0141042010999992000031412004+77470-069220FM-12+001999999V0202901N001019999999N0070001N1-02741-02951102371ADDMA1999999102101MD1710131+9999REMSYN100AAXX  14124 04201 45/57 /2902 11274 21295 30210 40237 57013 555 60/// 71073 72500 73142 74073 75500;
0141042010999992000031415004+77470-069220FM-12+001999999V0201801N000519999999N0300001N1-02301-02641102181ADDMA1999999101921MD1710181+9999REMSYN100AAXX  14154 04201 45/80 /1801 11230 21264 30192 40218 57018 555 60/// 71332 72500 73459 74183 75500;
0183042010999992000031418004+77470-069220FM-12+001999999V0201401N000519999999N0280001N1-02201-02661101931ADDKA1120M-02071KA2120N-02921MA1999999101671MD1710251+9999REMSYN116AAXX  14184 04201 45/78 /1401 11220 21266 30167 40193 57025 333 11207 21292 555 63017 71290 72500 73389 74099 75500;
0141042010999992000031421004+77470-069220FM-12+001999999V0209999C000019999999N0270001N1-02331-02681101681ADDMA1999999101421MD1710251+9999REMSYN100AAXX  14214 04201 45/77 /0000 11233 21268 30142 40168 57025 555 60/// 71271 72443 73374 74232 75500;
0141042010999992000031500004+77470-069220FM-12+001999999V0202901N000519999999N0500001N1-02411-02751101441ADDMA1999999101181MD1710241+9999REMSYN100AAXX  15004 04201 45/84 /2901 11241 21275 30118 40144 57024 555 60/// 71500 72500 73500 74232 75500;
0141042010999992000031503004+77470-069220FM-12+001999999V0200901N002619999999N0500001N1-02091-02521101221ADDMA1999999100961MD1710221+9999REMSYN100AAXX  15034 04201 45/84 /0905 11209 21252 30096 40122 57022 555 60/// 71500 72500 73500 74500 75500;
0183042010999992000031506004+77470-069220FM-12+001999999V0202901N001519999999N0500001N1-02311-02671101161ADDKA1120M-01981KA2120N-02521MA1999999100901MD1710061+9999REMSYN116AAXX  15064 04201 45/84 /2903 11231 21267 30090 40116 57006 333 11198 21252 555 60/// 71500 72500 73500 74463 75500;
0141042010999992000031509004+77470-069220FM-12+001999999V0203001N000519999999N0500001N1-02291-02581101171ADDMA1999999100911MD1210011+9999REMSYN100AAXX  15094 04201 45/84 /3001 11229 21258 30091 40117 52001 555 60/// 71500 72500 73500 74500 75500;
0141042010999992000031512004+77470-069220FM-12+001999999V0201201N001019999999N0500001N1-02621-02901101201ADDMA1999999100941MD1210031+9999REMSYN100AAXX  15124 04201 45/84 /1202 11262 21290 30094 40120 52003 555 60/// 71500 72500 73500 74494 75500;
0141042010999992000031515004+77470-069220FM-12+001999999V0209999C000019999999N0350001N1-02181-02561101141ADDMA1999999100881MD1710061+9999REMSYN100AAXX  15154 04201 45/81 /0000 11218 21256 30088 40114 57006 555 60/// 71367 72500 73453 74308 75500;
0183042010999992000031518004+77470-069220FM-12+001999999V0202401N000519999999N0200001N1-02231-02731101141ADDKA1120M-01911KA2120N-02811MA1999999100881MD1410001+9999REMSYN116AAXX  15184 04201 45/70 /2401 11223 21273 30088 40114 54000 333 11191 21281 555 60/// 71205 72500 73394 74185 75500;
0151042010999992000031612004+77470-069220FM-12+001999999V0203101N001519999999N0450001N1-02401-02951101481ADDMA1999999101221MD1710011+9999REMSYN110AAXX  16124 04201 45/83 /3103 11240 21295 30122 40148 57001 333 91214 555 60/// 71494 72500 73500 74494 75500;
0141042010999992000031615004+77470-069220FM-12+001999999V0202901N001019999999N0350001N1-02671-03091101421ADDMA1999999101151MD1710071+9999REMSYN100AAXX  16154 04201 45/81 /2902 11267 21309 30115 40142 57007 555 60/// 71365 72500 73500 74298 75500;
0183042010999992000031618004+77470-069220FM-12+001999999V0202801N000519999999N0190001N1-02561-03051101351ADDKA1120M-02091KA2120N-02841MA1999999101091MD1710061+9999REMSYN116AAXX  16184 04201 45/69 /2801 11256 21305 30109 40135 57006 333 11209 21284 555 60/// 71191 72500 73370 74191 75500;
0141042010999992000031621004+77470-069220FM-12+001999999V0209999C000019999999N0350001N1-02281-02841101311ADDMA1999999101051MD1710041+9999REMSYN100AAXX  16214 04201 45/81 /0000 11228 21284 30105 40131 57004 555 60/// 71393 72500 73500 74253 75500;
0141042010999992000031700004+77470-069220FM-12+001999999V0209999C000019999999N0500001N1-02431-02911101281ADDMA1999999101021MD1710031+9999REMSYN100AAXX  17004 04201 45/84 /0000 11243 21291 30102 40128 57003 555 60/// 71500 72500 73500 74253 75500;
0141042010999992000031703004+77470-069220FM-12+001999999V0200901N003119999999N0500001N1-02391-02951101231ADDMA1999999100971MD1710051+9999REMSYN100AAXX  17034 04201 45/84 /0906 11239 21295 30097 40123 57005 555 60/// 71500 72500 73500 74500 75500;
0183042010999992000031706004+77470-069220FM-12+001999999V0201001N004119999999N0500001N1-02511-03021101161ADDKA1120M-02221KA2120N-02841MA1999999100901MD1710071+9999REMSYN116AAXX  17064 04201 45/84 /1008 11251 21302 30090 40116 57007 333 11222 21284 555 60/// 71500 72500 73500 74500 75500;
0141042010999992000031709004+77470-069220FM-12+001999999V0200901N005119999999N0500001N1-02331-02931101171ADDMA1999999100911MD1210011+9999REMSYN100AAXX  17094 04201 45/84 /0910 11233 21293 30091 40117 52001 555 60/// 71500 72500 73500 74500 75500;
0147042010999992000031712004+77470-069220FM-12+001999999V0203001N001519999999N0020001N1-02931-03321101141ADDMA1999999100871MD1710041+9999REMSYN106AAXX  17124 04201 4//20 /3003 11293 21332 30087 40114 57004 71010 555 60/// 71020 72500 73060 74020 75500;
0147042010999992000031715004+77470-069220FM-12+001999999V0202801N001019999999N0300001N1-02621-03111101081ADDMA1999999100821MD1710051+9999REMSYN106AAXX  17154 04201 4//80 /2802 11262 21311 30082 40108 57005 70011 555 60/// 71312 72500 73499 74019 75500;
0141042010999992000031800004+77470-069220FM-12+001999999V0202901N001519999999N0500001N1-02911-03271100941ADDMA1999999100671MD1710061+9999REMSYN100AAXX  18004 04201 45/84 /2903 11291 21327 30067 40094 57006 555 63017 71500 72500 73500 74247 75500;
0141042010999992000031803004+77470-069220FM-12+001999999V0202901N001019999999N0500001N1-02891-03231100911ADDMA1999999100641MD1710031+9999REMSYN100AAXX  18034 04201 45/84 /2902 11289 21323 30064 40091 57003 555 60/// 71500 72500 73500 74500 75500;
0183042010999992000031806004+77470-069220FM-12+001999999V0202501N000519999999N0500001N1-03011-03311100881ADDKA1120M-02281KA2120N-03101MA1999999100611MD1710031+9999REMSYN116AAXX  18064 04201 45/84 /2501 11301 21331 30061 40088 57003 333 11228 21310 555 60/// 71500 72500 73500 74500 75500;
0141042010999992000031809004+77470-069220FM-12+001999999V0202901N001019999999N0500001N1-02771-03111100971ADDMA1999999100701MD1210091+9999REMSYN100AAXX  18094 04201 45/84 /2902 11277 21311 30070 40097 52009 555 60/// 71500 72500 73500 74500 75500;
0141042010999992000031812004+77470-069220FM-12+001999999V0202901N001019999999N0400001N1-02791-03121101121ADDMA1999999100851MD1210151+9999REMSYN100AAXX  18124 04201 45/82 /2902 11279 21312 30085 40112 52015 555 60/// 71444 72500 73500 74431 75500;
0141042010999992000031815004+77470-069220FM-12+001999999V0201601N003119999999N0350001N1-02561-02941101251ADDMA1999999100991MD1210141+9999REMSYN100AAXX  18154 04201 45/81 /1606 11256 21294 30099 40125 52014 555 60/// 71383 72500 73500 74354 75500;
0201042010999992000031818004+77470-069220FM-12+001999999V0201101N005119999999N0080001N1-02131-02491101431ADDKA1120M-02121KA2120N-03071MA1999999101171MD1210181+9999REMSYN134AAXX  18184 04201 4//58 /1110 11213 21249 30117 40143 52018 77770 333 11212 21307 555 61990 62990 63990 71083 72179 73145 74074 75500;
0159042010999992000031821004+77470-069220FM-12+001999999V0200901N005719999999N0039001N1-02051-02381101631ADDMA1999999101371MD1210201+9999REMSYN118AAXX  18214 04201 4//39 /0911 11205 21238 30137 40163 52020 77777 555 63017 64990 65001 71039 72074 73050 74034 75206;
0159042010999992000031900004+77470-069220FM-12+001999999V0201001N006219999999N0100001N1-02101-02441101821ADDMA1999999101561MD1210191+9999REMSYN118AAXX  19004 04201 4//60 /1012 11210 21244 30156 40182 52019 71177 555 61990 62990 63017 71103 72206 73148 74034 75230;
0153042010999992000031903004+77470-069220FM-12+001999999V0200901N006719999999N0060001N1-02081-02481102031ADDMA1999999101771MD1210211+9999REMSYN112AAXX  19034 04201 4//56 /0913 11208 21248 30177 40203 52021 71177 555 63990 64990 71066 72108 73084 74034 75213;
0201042010999992000031906004+77470-069220FM-12+001999999V0201101N004119999999N0037001N1-02221-02521102311ADDKA1120M-01981KA2120N-02271MA1999999102051MD1210281+9999REMSYN134AAXX  19064 04201 4//37 /1108 11222 21252 30205 40231 52028 77777 333 11198 21227 555 61990 62990 63990 71037 72057 73043 74034 75384;
0165042010999992000031909004+77470-069220FM-12+001999999V0200901N004619999999N0050001N1-02161-02471102491ADDMA1999999102231MD1210181+9999REMSYN124AAXX  19094 04201 4//50 /0909 11216 21247 30223 40249 52018 77777 555 61990 62990 63017 64990 71057 72072 73063 74033 75105;
0165042010999992000031912004+77470-069220FM-12+001999999V0201001N006219999999N0070001N1-02191-02531102661ADDMA1999999102401MD1210171+9999REMSYN124AAXX  19124 04201 4//57 /1012 11219 21253 30240 40266 52017 71177 555 61990 62990 63017 64990 71073 72120 73105 74033 75219;
0147042010999992000031915004+77470-069220FM-12+001999999V0201001N008719999999N0029001N1-02221-02611102811ADDMA1999999102551MD1210151+9999REMSYN106AAXX  19154 04201 4//29 /1017 11222 21261 30255 40281 52015 72477 555 63990 71029 72094 73042 74027 75267;
0204042010999992000031918004+77470-069220FM-12+001999999V0201001N007719999999N0070001N1-02141-02611102941ADDKA1120M-02121KA2120N-02311MA1999999102681MD1210131+9999REMSYN137AAXX  19184 04201 4//57 /1015 11214 21261 30268 40294 52013 70077 333 11212 21231 555 63990 71073 72188 73120 74027 7536 T NA345 191815 ;
0147042010999992000031921004+77470-069220FM-12+001999999V0201001N006219999999N0100001N1-02051-02481103121ADDMA1999999102861MD1210181+9999REMSYN106AAXX  19214 04201 4//60 /1012 11205 21248 30286 40312 52018 71170 555 60/// 71104 72341 73171 74075 75500;
0159042010999992000032000004+77470-069220FM-12+001999999V0201001N006219999999N0049001N1-02161-02551103241ADDMA1999999102981MD1210121+9999REMSYN118AAXX  20004 04201 4//49 /1012 11216 21255 30298 40324 52012 77770 555 61990 62990 63990 71049 72107 73073 74049 75500;
0147042010999992000032003004+77470-069220FM-12+001999999V0201001N007219999999N0070001N1-02011-02411103321ADDMA1999999103061MD1210081+9999REMSYN106AAXX  20034 04201 4//57 /1014 11201 21241 30306 40332 52008 77777 555 64990 71077 72194 73144 74038 75294;
0207042010999992000032006004+77470-069220FM-12+001999999V0201001N006719999999N0021001N1-02021-02311103421ADDKA1120M-01971KA2120N-02271MA1999999103161MD1210101+9999REMSYN140AAXX  20064 04201 4//21 /1013 11202 21231 30316 40342 52010 77777 333 11197 21227 555 61990 62990 63990 64990 71021 72048 73029 74020 75340;
0171042010999992000032009004+77470-069220FM-12+001999999V0200901N006719999999N0026001N1-02051-02301103621ADDMA1999999103361MD1210201+9999REMSYN130AAXX  20094 04201 4//26 /0913 11205 21230 30336 40362 52020 77777 555 61990 62990 63990 64990 65001 71026 72032 73029 74012 75043;
0165042010999992000032012004+77470-069220FM-12+001999999V0201101N005119999999N0038001N1-02041-02271103711ADDMA1999999103451MD1210091+9999REMSYN124AAXX  20124 04201 4//38 /1110 11204 21227 30345 40371 52009 77177 555 61990 62990 63990 64990 71038 72047 73042 74012 75106;
0165042010999992000032015004+77470-069220FM-12+001999999V0200901N005119999999N0044001N1-01931-02201103781ADDMA1999999103521MD1210071+9999REMSYN124AAXX  20154 04201 4//44 /0910 11193 21220 30352 40378 52007 77777 555 61990 62990 63990 64990 71044 72067 73053 74037 75070;
0207042010999992000032018004+77470-069220FM-12+001999999V0200901N006219999999N0038001N1-01901-02221103851ADDKA1120M-01901KA2120N-02111MA1999999103591MD1210071+9999REMSYN140AAXX  20184 04201 4//38 /0912 11190 21222 30359 40385 52007 77777 333 11190 21211 555 61990 62990 63990 64990 71038 72060 73053 74037 75115;
0171042010999992000032021004+77470-069220FM-12+001999999V0200901N005719999999N0050001N1-01861-02201103921ADDMA1999999103661MD1210071+9999REMSYN130AAXX  20214 04201 4//50 /0911 11186 21220 30366 40392 52007 77777 555 61990 62990 63990 64990 65001 71060 72096 73082 74046 75201;
0147042010999992000032100004+77470-069220FM-12+001999999V0200901N006719999999N0070001N1-01861-02211103941ADDMA1999999103681MD1210021+9999REMSYN106AAXX  21004 04201 4//57 /0913 11186 21221 30368 40394 52002 77777 555 63990 71071 72102 73091 74044 75201;
0153042010999992000032103004+77470-069220FM-12+001999999V0200901N004619999999N0090001N1-01901-02211103971ADDMA1999999103711MD1210031+9999REMSYN112AAXX  21034 04201 4//59 /0909 11190 21221 30371 40397 52003 77777 555 63990 64990 71099 72140 73116 74056 75140;
0204042010999992000032106004+77470-069220FM-12+001999999V0201001N005119999999N0300001N1-01961-02291103941ADDKA1120M-01851KA2120N-02031MA1999999103681MD1710031+9999REMSYN137AAXX  21064 04201 4//80 /1010 11196 21229 30368 40394 57003 70077 333 11185 21203 555 63990 71306 72495 73447 74056 7550 T NA389 210613 ;
0139042010999992000032203004+77470-069220FM-12+001999999V0200801N008719999999N0037001N1-01331-01741103141ADDMA1999999102881REMSYN112AAXX  22034 04201 4//37 /0817 11133 21174 30288 40314 77771 555 61990 62990 63990 71037 72104 73071 74020 75171;
0207042010999992000032206004+77470-069220FM-12+001999999V0200901N009819999999N0008001N1-01331-01631103001ADDKA1120M-01311KA2120N-01391MA1999999102741MD1710141+9999REMSYN140AAXX  22064 04201 4//08 /0919 11133 21163 30274 40300 57014 77771 333 11131 21139 555 61990 62990 63990 64990 71884 72026 73014 74884 75171;
0171042010999992000032209004+77470-069220FM-12+001999999V0200801N009819999999N0019001N1-01241-01631102851ADDMA1999999102601MD1710141+9999REMSYN130AAXX  22094 04201 4//19 /0819 11124 21163 30260 40285 57014 77777 555 61990 62990 63991 64990 65001 71019 72062 73030 74011 75091;
0171042010999992000032212004+77470-069220FM-12+001999999V0200901N008719999999N0018001N1-01181-01551102701ADDMA1999999102451MD1710151+9999REMSYN130AAXX  22124 04201 4//18 /0917 11118 21155 30245 40270 57015 77177 555 61991 62990 63991 64990 65001 71018 72053 73032 74011 75091;
0171042010999992000032215004+77470-069220FM-12+001999999V0200801N007719999999N0022001N1-01141-01461102611ADDMA1999999102361MD1710091+9999REMSYN130AAXX  22154 04201 4//22 /0815 11114 21146 30236 40261 57009 77777 555 61991 62990 63993 64993 65003 71022 72039 73032 74898 75051;
0189042010999992000032218004+77470-069220FM-12+001999999V0200801N007219999999N0070001N1-01021-01611102431ADDKA1120M-01021KA2120N-01441MA1999999102181MD1710181+9999REMSYN122AAXX  22184 04201 4//57 /0814 11102 21161 30218 40243 57018 77777 333 11102 21144 555 63993 71076 72332 73140 74898 75500;
0153042010999992000032221004+77470-069220FM-12+001999999V0201001N005719999999N0450001N1-01041-01651102311ADDMA1999999102061MD1710121+9999REMSYN112AAXX  22214 04201 4//83 /1011 11104 21165 30206 40231 57012 70077 555 63990 64990 71450 72500 73500 74814 75500;
0147042010999992000032300004+77470-069220FM-12+001999999V0200801N007219999999N0400001N1-00941-01851102161ADDMA1999999101911MD1710151+9999REMSYN106AAXX  23004 04201 4//82 /0814 11094 21185 30191 40216 57015 70077 555 63990 71444 72500 73500 74814 75500;
0141042010999992000032303004+77470-069220FM-12+001999999V0200901N005119999999N0450001N1-00901-01851102021ADDMA1999999101771MD1710141+9999REMSYN100AAXX  23034 04201 45/83 /0910 11090 21185 30177 40202 57014 555 60/// 71490 72500 73500 74248 75500;
0163042010999992000032306004+77470-069220FM-12+001999999V0202701N000519999999N0450001N1-01341-01791101971ADDKA1120M-01211KA2120N-01341MA1999999101721REMSYN110AAXX  23064 04201 45/83 /2701 11134 21179 30172 40197 333 11121 21134 555 60/// 71492 72500 73500 74492 75500;
0141042010999992000032309004+77470-069220FM-12+001999999V0200501N001019999999N0450001N1-01021-01671101951ADDMA1999999101701MD1710021+9999REMSYN100AAXX  23094 04201 45/83 /0502 11102 21167 30170 40195 57002 555 60/// 71493 72500 73500 74900 75500;
0147042010999992000032312004+77470-069220FM-12+001999999V0200701N003619999999N0450001N1-00991-01641101941ADDMA1999999101691MD1710011+9999REMSYN106AAXX  23124 04201 4//83 /0707 11099 21164 30169 40194 57001 72470 555 60/// 71476 72500 73500 74900 75500;
0171042010999992000032315004+77470-069220FM-12+001999999V0200601N004619999999N0023001N1-00921-01301101971ADDMA1999999101721MD1210031+9999REMSYN130AAXX  23154 04201 4//23 /0609 11092 21130 30172 40197 52003 77170 555 61993 62991 63993 64991 65002 71023 72088 73057 74023 75500;
0213042010999992000032318004+77470-069220FM-12+001999999V0200701N007719999999N0018001N1-00911-01171101931ADDKA1120M-00871KA2120N-01351MA1999999101681MD1710041+9999REMSYN146AAXX  23184 04201 4//18 /0715 11091 21117 30168 40193 57004 77170 333 11087 21135 555 61993 62992 63994 64993 65004 71018 72030 73024 74015 75500;
0171042010999992000032321004+77470-069220FM-12+001999999V0200901N007719999999N0012001N1-00901-01051101981ADDMA1999999101731MD1210051+9999REMSYN130AAXX  23214 04201 4//12 /0915 11090 21105 30173 40198 52005 77177 555 61995 62993 63001 64001 65016 71012 72018 73016 74011 75036;
0171042010999992000032400004+77470-069220FM-12+001999999V0200801N005719999999N0015001N1-00861-01021102021ADDMA1999999101771MD1210041+9999REMSYN130AAXX  24004 04201 4//15 /0811 11086 21102 30177 40202 52004 77177 555 61995 62994 63001 64998 65011 71015 72020 73017 74011 75036;
0171042010999992000032403004+77470-069220FM-12+001999999V0202701N001019999999N0014001N1-01081-01171102071ADDMA1999999101821MD1210051+9999REMSYN130AAXX  24034 04201 4//14 /2702 11108 21117 30182 40207 52005 76477 555 61997 62993 63997 64998 65010 71014 72033 73022 74013 75051;
0201042010999992000032406004+77470-069220FM-12+001999999V0203201N001019999999N0450001N1-01091-01301102091ADDKA1120M-00831KA2120N-01121MA1999999101841MD1210021+9999REMSYN134AAXX  24064 04201 4//83 /3202 11109 21130 30184 40209 52002 72477 333 11083 21112 555 63001 64993 65003 71481 72500 73500 74013 75500;
0141042010999992000032409004+77470-069220FM-12+001999999V0200801N002119999999N0450001N1-01231-01791102121ADDMA1999999101871MD1210031+9999REMSYN100AAXX  24094 04201 45/83 /0804 11123 21179 30187 40212 52003 555 63022 71493 72500 73500 74449 75500;
0141042010999992000032412004+77470-069220FM-12+001999999V0200901N004619999999N0400001N1-01021-01361102111ADDMA1999999101861MD1710011+9999REMSYN100AAXX  24124 04201 45/82 /0909 11102 21136 30186 40211 57001 555 63022 71423 72500 73500 74411 75500;
0141042010999992000032415004+77470-069220FM-12+001999999V0200701N004619999999N0230001N1-00951-01451102041ADDMA1999999101791MD1710071+9999REMSYN100AAXX  24154 04201 45/73 /0709 11095 21145 30179 40204 57007 555 60/// 71236 72500 73357 74158 75500;
0183042010999992000032418004+77470-069220FM-12+001999999V0200801N005719999999N0350001N1-00861-01321102001ADDKA1120M-00841KA2120N-01371MA1999999101751MD1710041+9999REMSYN116AAXX  24184 04201 45/81 /0811 11086 21132 30175 40200 57004 333 11084 21137 555 60/// 71365 72500 73494 74158 75500;
0141042010999992000032421004+77470-069220FM-12+001999999V0200701N005719999999N0450001N1-01001-01521102021ADDMA1999999101771MD1210021+9999REMSYN100AAXX  24214 04201 45/83 /0711 11100 21152 30177 40202 52002 555 60/// 71494 72500 73500 74295 75500;
0141042010999992000032500004+77470-069220FM-12+001999999V0202701N001019999999N0450001N1-01401-01601102071ADDMA1999999101821MD1210051+9999REMSYN100AAXX  25004 04201 45/83 /2702 11140 21160 30182 40207 52005 555 60/// 71484 72500 73500 74295 75500;
0141042010999992000032503004+77470-069220FM-12+001999999V0203501N000519999999N0500001N1-01371-01571102021ADDMA1999999101771MD1710051+9999REMSYN100AAXX  25034 04201 45/84 /3501 11137 21157 30177 40202 57005 555 60/// 71500 72500 73500 74482 75500;
0183042010999992000032506004+77470-069220FM-12+001999999V0202701N001519999999N0500001N1-02101-02271101951ADDKA1120M-00861KA2120N-02101MA1999999101691MD1710081+9999REMSYN116AAXX  25064 04201 45/84 /2703 11210 21227 30169 40195 57008 333 11086 21210 555 60/// 71500 72500 73500 74464 75500;
0141042010999992000032509004+77470-069220FM-12+001999999V0201401N001019999999N0500001N1-01911-02091101891ADDMA1999999101631MD1710061+9999REMSYN100AAXX  25094 04201 45/84 /1402 11191 21209 30163 40189 57006 555 60/// 71500 72500 73500 74451 75500;
0141042010999992000032512004+77470-069220FM-12+001999999V0202701N000519999999N0350001N1-01891-02021101781ADDMA1999999101521MD1710111+9999REMSYN100AAXX  25124 04201 45/81 /2701 11189 21202 30152 40178 57011 555 60/// 71397 72500 73465 74353 75500;
0147042010999992000032515004+77470-069220FM-12+001999999V0201801N001019999999N0220001N1-01791-02061101661ADDMA1999999101401MD1710121+9999REMSYN106AAXX  25154 04201 4//72 /1802 11179 21206 30140 40166 57012 70070 555 63990 71224 72500 73382 74060 75500;
0189042010999992000032518004+77470-069220FM-12+001999999V0201301N002619999999N0400001N1-01651-01981101661ADDKA1120M-01171KA2120N-02301MA1999999101401MD1410001+9999REMSYN122AAXX  25184 04201 4//82 /1305 11165 21198 30140 40166 54000 70070 333 11117 21230 555 63990 71408 72500 73500 74060 75500;
0171042010999992000032521004+77470-069220FM-12+001999999V0202501N000519999999N0010001N1-01331-01521101751ADDMA1999999101501MD1210101+9999REMSYN130AAXX  25214 04201 4//10 /2501 11133 21152 30150 40175 52010 76470 555 61998 62993 63998 64991 65001 71010 72024 73014 74010 75500;
0171042010999992000032600004+77470-069220FM-12+001999999V0201701N000519999999N0018001N1-01311-01411101881ADDMA1999999101631MD1210131+9999REMSYN130AAXX  26004 04201 4//18 /1701 11131 21141 30163 40188 52013 76770 555 61001 62993 63002 64996 65007 71018 72030 73023 74897 75500;
0171042010999992000032603004+77470-069220FM-12+001999999V0201301N000519999999N0014001N1-01231-01331102061ADDMA1999999101811MD1210181+9999REMSYN130AAXX  26034 04201 4//14 /1301 11123 21133 30181 40206 52018 77177 555 61993 62990 63999 64995 65007 71014 72050 73027 74897 75190;
0213042010999992000032606004+77470-069220FM-12+001999999V0201101N005719999999N0050001N1-01281-01381102151ADDKA1120M-01151KA2120N-01651MA1999999101901MD1210091+9999REMSYN146AAXX  26064 04201 4//50 /1111 11128 21138 30190 40215 52009 77177 333 11115 21165 555 61990 62990 63999 64991 65001 71057 72082 73064 74966 75190;
0171042010999992000032609004+77470-069220FM-12+001999999V0201201N001519999999N0045001N1-01251-01351102261ADDMA1999999102011MD1210111+9999REMSYN130AAXX  26094 04201 4//45 /1203 11125 21135 30201 40226 52011 77177 555 61990 62990 63996 64992 65003 71045 72083 73070 74013 75113;
0171042010999992000032615004+77470-069220FM-12+001999999V0201101N002619999999N0060001N1-01381-01511102261ADDMA1999999102011MD1710041+9999REMSYN130AAXX  26154 04201 4//56 /1105 11138 21151 30201 40226 57004 77177 555 61990 62990 63992 64990 65002 71068 72118 73094 74031 75360;
0207042010999992000032618004+77470-069220FM-12+001999999V0201001N002119999999N0200001N1-01451-01601102171ADDKA1120M-01221KA2120N-01471MA1999999101921MD1710091+9999REMSYN140AAXX  26184 04201 4//70 /1004 11145 21160 30192 40217 57009 78577 333 11122 21147 555 61990 62990 63994 64990 71201 72487 73294 74031 75500;
0153042010999992000032621004+77470-069220FM-12+001999999V0209999C000019999999N0260001N1-01431-01691102121ADDMA1999999101871MD1710051+9999REMSYN112AAXX  26214 04201 4//76 /0000 11143 21169 30187 40212 57005 70077 555 63990 64990 71262 72500 73360 74059 75500;
0147042010999992000032700004+77470-069220FM-12+001999999V0203001N000519999999N0130001N1-01591-01681102091ADDMA1999999101831MD1710041+9999REMSYN106AAXX  27004 04201 4//63 /3001 11159 21168 30183 40209 57004 78577 555 63990 71138 72500 73376 74025 75500;
0147042010999992000032703004+77470-069220FM-12+001999999V0200401N000519999999N0350001N1-02271-02361101981ADDMA1999999101721MD1710111+9999REMSYN106AAXX  27034 04201 4//81 /0401 11227 21236 30172 40198 57011 70077 555 60/// 71394 72500 73476 74394 75500;
0189042010999992000032706004+77470-069220FM-12+001999999V0200701N000519999999N0050001N1-02321-02411101871ADDKA1120M-01081KA2120N-02391MA1999999101611MD1710111+9999REMSYN122AAXX  27064 04201 4//50 /0701 11232 21241 30161 40187 57011 70077 333 11108 21239 555 60/// 71053 72500 73293 74017 75500;
0147042010999992000032709004+77470-069220FM-12+001999999V0200701N000519999999N0500001N1-02161-02261101811ADDMA1999999101551MD1710061+9999REMSYN106AAXX  27094 04201 4//84 /0701 11216 21226 30155 40181 57006 70010 555 60/// 71500 72500 73500 74886 75500;
0147042010999992000032712004+77470-069220FM-12+001999999V0203001N000519999999N0015001N1-02291-02401101721ADDMA1999999101461MD1710091+9999REMSYN106AAXX  27124 04201 4//15 /3001 11229 21240 30146 40172 57009 71010 555 60/// 71015 72500 73057 74886 75500;
0147042010999992000032715004+77470-069220FM-12+001999999V0201201N001019999999N0190001N1-01831-01941101581ADDMA1999999101321MD1710141+9999REMSYN106AAXX  27154 04201 4//69 /1202 11183 21194 30132 40158 57014 72031 555 60/// 71199 72497 73315 74824 75500;
0189042010999992000032718004+77470-069220FM-12+001999999V0202901N000519999999N0230001N1-01931-02321101411ADDKA1120M-01581KA2120N-02541MA1999999101151MD1710171+9999REMSYN122AAXX  27184 04201 4//73 /2901 11193 21232 30115 40141 57017 70031 333 11158 21254 555 60/// 71234 72500 73296 74824 75500;
0141042010999992000032721004+77470-069220FM-12+001999999V0202801N000519999999N0400001N1-01591-01991101271ADDMA1999999101021MD1710131+9999REMSYN100AAXX  27214 04201 45/82 /2801 11159 21199 30102 40127 57013 555 60/// 71403 72500 73493 74026 75500;
0141042010999992000032803004+77470-069220FM-12+001999999V0201101N000519999999N0450001N1-02121-02221100961ADDMA1999999100701MD1710161+9999REMSYN100AAXX  28034 04201 45/83 /1101 11212 21222 30070 40096 57016 555 60/// 71492 72500 73500 74365 75500;
0183042010999992000032806004+77470-069220FM-12+001999999V0209999C000019999999N0280001N1-02331-02441100931ADDKA1120M-01211KA2120N-02521MA1999999100671MD1710031+9999REMSYN116AAXX  28064 04201 45/78 /0000 11233 21244 30067 40093 57003 333 11121 21252 555 60/// 71286 72500 73500 74286 75500;
0141042010999992000032809004+77470-069220FM-12+001999999V0201101N000519999999N0500001N1-02221-02331101021ADDMA1999999100761MD1210091+9999REMSYN100AAXX  28094 04201 45/84 /1101 11222 21233 30076 40102 52009 555 60/// 71500 72500 73500 74066 75500;
0159042010999992000032812004+77470-069220FM-12+001999999V0201401N000519999999N0009001N1-02231-02341101141ADDMA1999999100881MD1210121+9999REMSYN118AAXX  28124 04201 4//09 /1401 11223 21234 30088 40114 52012 78571 555 61990 62990 63990 71888 72376 73049 74888 75500;
0147042010999992000032815004+77470-069220FM-12+001999999V0202701N000519999999N0130001N1-02041-02341101271ADDMA1999999101011MD1210131+9999REMSYN106AAXX  28154 04201 4//63 /2701 11204 21234 30101 40127 52013 70011 555 60/// 71139 72500 73321 74098 75500;
0189042010999992000032818004+77470-069220FM-12+001999999V0209999C000019999999N0230001N1-01831-02251101441ADDKA1120M-01521KA2120N-02491MA1999999101181MD1210171+9999REMSYN122AAXX  28184 04201 4//73 /0000 11183 21225 30118 40144 52017 70011 333 11152 21249 555 60/// 71236 72500 73401 74098 75500;
0141042010999992000032821004+77470-069220FM-12+001999999V0202801N001519999999N0450001N1-01921-02171101691ADDMA1999999101431MD1210251+9999REMSYN100AAXX  28214 04201 45/83 /2803 11192 21217 30143 40169 52025 555 60/// 71460 72500 73500 74225 75500;
0171042010999992000032900004+77470-069220FM-12+001999999V0202101N000519999999N0070001N1-01841-02061101901ADDMA1999999101641MD1210211+9999REMSYN130AAXX  29004 04201 4//57 /2101 11184 21206 30164 40190 52021 77770 555 61990 62990 63990 64990 65001 71078 72164 73094 74077 75500;
0171042010999992000032903004+77470-069220FM-12+001999999V0201301N001519999999N0080001N1-01891-02011102091ADDMA1999999101831MD1210191+9999REMSYN130AAXX  29034 04201 4//58 /1303 11189 21201 30183 40209 52019 77177 555 61992 62990 63992 64991 65001 71081 72372 73235 74921 75372;
0189042010999992000032906004+77470-069220FM-12+001999999V0200801N001019999999N0500001N1-01931-02051102221ADDKA1120M-01451KA2120N-02091MA1999999101961MD1210131+9999REMSYN122AAXX  29064 04201 4//84 /0802 11193 21205 30196 40222 52013 70077 333 11145 21209 555 63992 71500 72500 73500 74921 75500;
0158042010999992000032909004+77470-069220FM-12+001999999V0202501N001019999999N0100001N1-01961-02091102401ADDMA1999999102141MD1210181+9999REMSYN117AAXX  29094 04201 4//60 /2502 11196 21209 30214 40240 52018 77770 555 61990 62990 63990 71107 72222 73153 7400 75500;
0165042010999992000032912004+77470-069220FM-12+001999999V0203001N002619999999N0100001N1-01811-01931102501ADDMA1999999102241MD1210101+9999REMSYN124AAXX  29124 04201 4//60 /3005 11181 21193 30224 40250 52010 71170 555 61990 62990 63990 64990 71107 72500 73236 74059 75500;
0147042010999992000032915004+77470-069220FM-12+001999999V0202801N002619999999N0290001N1-01671-01871102641ADDMA1999999102381MD1210141+9999REMSYN106AAXX  29154 04201 4//79 /2805 11167 21187 30238 40264 52014 70077 555 63992 71294 72500 73374 74109 75500;
0189042010999992000032918004+77470-069220FM-12+001999999V0202901N003119999999N0100001N1-01381-01691102731ADDKA1120M-01151KA2120N-02071MA1999999102471MD1210091+9999REMSYN122AAXX  29184 04201 4//60 /2906 11138 21169 30247 40273 52009 77777 333 11115 21207 555 63992 71101 72274 73194 74101 75500;
0165042010999992000032921004+77470-069220FM-12+001999999V0203301N001519999999N0080001N1-01391-01601102851ADDMA1999999102591MD1210121+9999REMSYN124AAXX  29214 04201 4//58 /3303 11139 21160 30259 40285 52012 77777 555 61990 62990 63991 64990 71081 72157 73109 74026 75469;
0171042010999992000033000004+77470-069220FM-12+001999999V0203001N001019999999N0031001N1-01401-01521102911ADDMA1999999102651MD1210061+9999REMSYN130AAXX  30004 04201 4//31 /3002 11140 21152 30265 40291 52006 76477 555 61990 62990 63991 64990 65001 71031 72053 73034 74026 75469;
0165042010999992000033003004+77470-069220FM-12+001999999V0203001N000519999999N0046001N1-01281-01361102931ADDMA1999999102681MD1210031+9999REMSYN124AAXX  30034 04201 4//46 /3001 11128 21136 30268 40293 52003 75477 555 61990 62990 63990 64991 71046 72072 73057 74022 75077;
0207042010999992000033006004+77470-069220FM-12+001999999V0202701N002619999999N0070001N1-01341-01431102981ADDKA1120M-01041KA2120N-01611MA1999999102721MD1210041+9999REMSYN140AAXX  30064 04201 4//57 /2705 11134 21143 30272 40298 52004 77777 333 11104 21161 555 61990 62990 63990 64990 71076 72121 73086 74022 75121;
0153042010999992000033009004+77470-069220FM-12+001999999V0201001N006219999999N0220001N1-00761-01001103021ADDMA1999999102771MD1210051+9999REMSYN112AAXX  30094 04201 4//72 /1012 11076 21100 30277 40302 52005 77777 555 63990 64990 71230 72437 73289 74917 75437;
0171042010999992000033012004+77470-069220FM-12+001999999V0200801N008219999999N0080001N1-00711-01051103041ADDMA1999999102791MD1210021+9999REMSYN130AAXX  30124 04201 4//58 /0816 11071 21105 30279 40304 52002 77777 555 61990 62990 63990 64990 65001 71081 72163 73102 74908 75437;
0147042010999992000033015004+77470-069220FM-12+001999999V0200801N009819999999N0100001N1-00651-01071103041ADDMA1999999102791MD1410001+9999REMSYN106AAXX  30154 04201 4//60 /0819 11065 21107 30279 40304 54000 70077 555 63990 71106 72500 73195 74058 75500;
0153042010999992000033021004+77470-069220FM-12+001999999V0201201N009819999999N0070001N1-00541-01031103061ADDMA1999999102811MD1210021+9999REMSYN112AAXX  30214 04201 4//57 /1219 11054 21103 30281 40306 52002 77770 555 63990 64990 71078 72224 73156 74049 75495;
0165042010999992000033100004+77470-069220FM-12+001999999V0201001N010319999999N0039001N1-00571-00921103071ADDMA1999999102821MD1210011+9999REMSYN124AAXX  31004 04201 4//39 /1020 11057 21092 30282 40307 52001 77770 555 61990 62990 63990 64990 71039 72070 73050 74035 75495;
0165042010999992000033103004+77470-069220FM-12+001999999V0200901N010319999999N0029001N1-00561-00891103061ADDMA1999999102811MD1710011+9999REMSYN124AAXX  31034 04201 4//29 /0920 11056 21089 30281 40306 57001 77777 555 61990 62990 63990 64990 71029 72064 73047 74029 75092;
0124042010999992000033118004+77470-069220FM-12+001999999V02099999999999999999N0070001N1+99999+99999999999ADDKA1120M-00561KA2120N-01441REMSYN086AAXX  31184 04201 46/57 ///// 333 11056 21144 91222 555 63990 71075 72228 74029 75500;
0127042010999992000033121004+77470-069220FM-12+001999999V0200801N008219999999N0350001N1-00351-00801102681ADDMA1999999102431REMSYN100AAXX  31214 04201 4//81 /0816 11035 21080 30243 40268 70077 555 63990 71367 72500 73457 74029 75500;
0157042010999992000040100004+77470-069220FM-12+001999999V0201201N003119999999N0500001N1-00601-00981102581ADDMA1999999102331MD1710101+9999REMSYN116AAXX  01004 04201 4//84 /1206 11060 21098 30233 40258 57010 70077 333 91222 555 63990 71500 72500 73500 74029 75500;
0141042010999992000040103004+77470-069220FM-12+001999999V0200101N001019999999N0450001N1-00841-01011102471ADDMA1999999102221MD1710111+9999REMSYN100AAXX  01034 04201 45/83 /0102 11084 21101 30222 40247 57011 555 60/// 71495 72500 73500 74448 75500;
0202042010999992000040106004+77470-069220FM-12+001999999V0203501N000519999999N0450001N1-00841-01031102331ADDKA1120M-00351KA2120N+99999MA1999999102081MD1710141+9999REMSYN116AAXX  01064 04201 45/83 /3501 11084 21103 30208 40233 57014 333 11035 21060 555 60/// 71494 72500 73500 74379 75500;EQDQ01 -00602ATMN  
0141042010999992000040109004+77470-069220FM-12+001999999V0200701N003619999999N0500001N1-00701-01121102241ADDMA1999999101991MD1710091+9999REMSYN100AAXX  01094 04201 45/84 /0707 11070 21112 30199 40224 57009 555 60/// 71500 72500 73500 74471 75500;
0151042010999992000040112004+77470-069220FM-12+001999999V0202901N000519999999N0350001N1-00751-01171102121ADDMA1999999101871MD1710121+9999REMSYN110AAXX  01124 04201 45/81 /2901 11075 21117 30187 40212 57012 333 91214 555 60/// 71399 72500 73494 74114 75500;
0141042010999992000040115004+77470-069220FM-12+001999999V0200201N000519999999N0230001N1-00521-01111102001ADDMA1999999101751MD1710121+9999REMSYN100AAXX  01154 04201 45/73 /0201 11052 21111 30175 40200 57012 555 60/// 71238 72500 73407 74238 75500;
0183042010999992000040118004+77470-069220FM-12+001999999V0201001N000519999999N0300001N1-00901-01281101951ADDKA1120M-00661KA2120N-01031MA1999999101701MD1710051+9999REMSYN116AAXX  01184 04201 45/80 /1001 11090 21128 30170 40195 57005 333 11066 21103 555 60/// 71310 72500 73460 74237 75500;
0141042010999992000040121004+77470-069220FM-12+001999999V0201301N000519999999N0350001N1-00921-01341101901ADDMA1999999101651MD1710051+9999REMSYN100AAXX  01214 04201 45/81 /1301 11092 21134 30165 40190 57005 555 60/// 71361 72500 73500 74247 75500;
0141042010999992000040200004+77470-069220FM-12+001999999V0203101N000519999999N0450001N1-01021-01341101861ADDMA1999999101611MD1710041+9999REMSYN100AAXX  02004 04201 45/83 /3101 11102 21134 30161 40186 57004 555 60/// 71460 72500 73500 74247 75500;
0141042010999992000040203004+77470-069220FM-12+001999999V0202801N000519999999N0450001N1-01351-01551101851ADDMA1999999101601MD1710011+9999REMSYN100AAXX  02034 04201 45/83 /2801 11135 21155 30160 40185 57001 555 60/// 71496 72500 73500 74465 75500;
0202042010999992000040206004+77470-069220FM-12+001999999V0203201N001019999999N0500001N1-01371-01581101751ADDKA1120M-00821KA2120N+99999MA1999999101501MD1710101+9999REMSYN116AAXX  02064 04201 45/84 /3202 11137 21158 30150 40175 57010 333 11082 21102 555 60/// 71500 72500 73500 74465 75500;EQDQ01 -01022ATMN  
0073042010999992000040209004+77470-069220FM-12+001999999V0202901N001019999999N0450001N1+99999+99999999999REMSYN064AAXX  02094 04201 45/83 /2902 555 71485 72500 73500 74474 75500;
0077042010999992000040212004+77470-069220FM-12+001999999V02099999999999999999N0300001N1+99999+99999999999REMSYN068AAXX  02124 04201 46/80 ///// 333 91203 555 71315 72500 74315 75500;
0077042010999992000040215004+77470-069220FM-12+001999999V02099999999999999999N0280001N1+99999+99999999999REMSYN068AAXX  02154 04201 46/78 ///// 333 91203 555 71289 72500 74113 75500;
0182042010999992000040218004+77470-069220FM-12+001999999V0200101N000519999999N0270001N1-00971-01481101101ADDKA1120M+99999KA2120N-01381MA1999999100851REMSYN110AAXX  02184 04201 45/77 /0101 11097 21148 30085 40110 333 11117 21138 555 60/// 71273 72500 73330 74113 75500;EQDQ01 -01172ATMX  
0141042010999992000040221004+77470-069220FM-12+001999999V0203101N000519999999N0350001N1-01121-01551100851ADDMA1999999100601MD1710251+9999REMSYN100AAXX  02214 04201 45/81 /3101 11112 21155 30060 40085 57025 555 60/// 71386 72500 73500 74229 75500;
0153042010999992000040300004+77470-069220FM-12+001999999V0203101N000519999999N0500001N1-00961-01381100491ADDMA1999999100241MD1710361+9999REMSYN112AAXX  03004 04201 45/84 /3101 11096 21138 30024 40049 57036 555 61025 62994 63025 71500 72500 73500 74215 75500;
0141042010999992000040303004+77470-069220FM-12+001999999V0202901N000519999999N0450001N1-01341-01601100171ADDMA1999999099921MD1710321+9999REMSYN100AAXX  03034 04201 45/83 /2901 11134 21160 39992 40017 57032 555 60/// 71499 72500 73500 74420 75500;
0183042010999992000040306004+77470-069220FM-12+001999999V0202601N000519999999N0500001N1-01371-01581099881ADDKA1120M-00811KA2120N-01581MA1999999099631MD1710291+9999REMSYN116AAXX  03064 04201 45/84 /2601 11137 21158 39963 49988 57029 333 11081 21158 555 60/// 71500 72500 73500 74225 75500;
0141042010999992000040309004+77470-069220FM-12+001999999V0209999C000019999999N0500001N1-01211-01551099741ADDMA1999999099491MD1710141+9999REMSYN100AAXX  03094 04201 45/84 /0000 11121 21155 39949 49974 57014 555 60/// 71500 72500 73500 74479 75500;
0141042010999992000040312004+77470-069220FM-12+001999999V0201401N000519999999N0300001N1-01221-01601099661ADDMA1999999099411MD1710081+9999REMSYN100AAXX  03124 04201 45/80 /1401 11122 21160 39941 49966 57008 555 60/// 71333 72500 73484 74333 75500;
0141042010999992000040315004+77470-069220FM-12+001999999V0201301N002619999999N0210001N1-01461-01801099661ADDMA1999999099411MD1410001+9999REMSYN100AAXX  03154 04201 45/71 /1305 11146 21180 39941 49966 54000 555 60/// 71215 72500 73487 74174 75500;
0141042010999992000040321004+77470-069220FM-12+001999999V0202501N000519999999N0210001N1-01121-01691099781ADDMA1999999099531MD1210081+9999REMSYN100AAXX  03214 04201 45/71 /2501 11112 21169 39953 49978 52008 555 60/// 71218 72500 73388 74164 75500;
0141042010999992000040400004+77470-069220FM-12+001999999V0202201N001019999999N0450001N1-01261-01641099791ADDMA1999999099541MD1210011+9999REMSYN100AAXX  04004 04201 45/83 /2202 11126 21164 39954 49979 52001 555 60/// 71479 72500 73500 74164 75500;
0202042010999992000040406004+77470-069220FM-12+001999999V0201301N000519999999N0500001N1-01801-02041099641ADDKA1120M-00801KA2120N+99999MA1999999099391MD1710101+9999REMSYN116AAXX  04064 04201 45/84 /1301 11180 21204 39939 49964 57010 333 11080 21168 555 60/// 71500 72500 73500 74466 75500;EQDQ01 -01682ATMN  
0141042010999992000040412004+77470-069220FM-12+001999999V0201001N005719999999N0300001N1-00961-01571099541ADDMA1999999099301MD1710061+9999REMSYN100AAXX  04124 04201 45/80 /1011 11096 21157 39930 49954 57006 555 60/// 71336 72500 73406 74278 75500;
0141042010999992000040415004+77470-069220FM-12+001999999V0202801N000519999999N0230001N1-01231-01721099561ADDMA1999999099311MD1210011+9999REMSYN100AAXX  04154 04201 45/73 /2801 11123 21172 39931 49956 52001 555 60/// 71239 72500 73346 74168 75500;
0183042010999992000040418004+77470-069220FM-12+001999999V0201001N000519999999N0200001N1-00961-01541099571ADDKA1120M-00821KA2120N-01891MA1999999099331MD1210021+9999REMSYN116AAXX  04184 04201 45/70 /1001 11096 21154 39933 49957 52002 333 11082 21189 555 60/// 71206 72500 73331 74146 75500;
0141042010999992000040421004+77470-069220FM-12+001999999V0202701N000519999999N0300001N1-01121-01661099621ADDMA1999999099371MD1210041+9999REMSYN100AAXX  04214 04201 45/80 /2701 11112 21166 39937 49962 52004 555 60/// 71325 72500 73425 74185 75500;
0141042010999992000040500004+77470-069220FM-12+001999999V0201001N000519999999N0500001N1-01241-01641099651ADDMA1999999099401MD1210031+9999REMSYN100AAXX  05004 04201 45/84 /1001 11124 21164 39940 49965 52003 555 60/// 71500 72500 73500 74088 75500;
0141042010999992000040503004+77470-069220FM-12+001999999V0209999C000019999999N0500001N1-01221-01521099711ADDMA1999999099461MD1210061+9999REMSYN100AAXX  05034 04201 45/84 /0000 11122 21152 39946 49971 52006 555 60/// 71500 72500 73500 74465 75500;
0207042010999992000040506004+77470-069220FM-12+001999999V0202801N000519999999N0037001N1-01381-01561099791ADDKA1120M-00721KA2120N-01431MA1999999099541MD1210081+9999REMSYN140AAXX  05064 04201 4//37 /2801 11138 21156 39954 49979 52008 77170 333 11072 21143 555 61991 62990 63991 64990 71037 72098 73065 74037 75500;
0171042010999992000040509004+77470-069220FM-12+001999999V0202901N002619999999N0014001N1-01251-01351099941ADDMA1999999099691MD1210151+9999REMSYN130AAXX  05094 04201 4//14 /2905 11125 21135 39969 49994 52015 77177 555 61997 62995 63002 64999 65012 71014 72027 73022 74012 75105;
0171042010999992000040512004+77470-069220FM-12+001999999V0202801N001519999999N0027001N1-01151-01301100191ADDMA1999999099941MD1210251+9999REMSYN130AAXX  05124 04201 4//27 /2803 11115 21130 39994 40019 52025 77177 555 61994 62991 63004 64002 65035 71027 72072 73049 74873 75163;
0171042010999992000040515004+77470-069220FM-12+001999999V0201101N000519999999N0013001N1-01021-01271100431ADDMA1999999100181MD1210241+9999REMSYN130AAXX  05154 04201 4//13 /1101 11102 21127 30018 40043 52024 76477 555 61994 62990 63998 64995 65009 71013 72035 73023 74892 75227;
0213042010999992000040518004+77470-069220FM-12+001999999V0202501N000519999999N0031001N1-00981-01291100651ADDKA1120M-00911KA2120N-01451MA1999999100401MD1210221+9999REMSYN146AAXX  05184 04201 4//31 /2501 11098 21129 30040 40065 52022 76477 333 11091 21145 555 61991 62990 63998 64993 65004 71031 72138 73053 74892 75227;
0171042010999992000040521004+77470-069220FM-12+001999999V0202701N000519999999N0050001N1-01031-01361100861ADDMA1999999100611MD1210211+9999REMSYN130AAXX  05214 04201 4//50 /2701 11103 21136 30061 40086 52021 76776 555 61990 62990 63996 64992 65002 71050 72228 73137 74024 75245;
0165042010999992000040600004+77470-069220FM-12+001999999V0209999C000019999999N0027001N1-01361-01481101041ADDMA1999999100791MD1210181+9999REMSYN124AAXX  06004 04201 4//27 /0000 11136 21148 30079 40104 52018 76476 555 61993 62990 63996 64990 71027 72118 73044 74024 75305;
0171042010999992000040603004+77470-069220FM-12+001999999V0201401N000519999999N0016001N1-01581-01691101221ADDMA1999999100971MD1210181+9999REMSYN130AAXX  06034 04201 4//16 /1401 11158 21169 30097 40122 52018 76777 555 61998 62993 63998 64993 65007 71016 72073 73028 74892 75242;
0213042010999992000040606004+77470-069220FM-12+001999999V0201101N002619999999N0110001N1-01411-01491101291ADDKA1120M-00851KA2120N-01601MA1999999101041MD1210071+9999REMSYN146AAXX  06064 04201 4//61 /1105 11141 21149 30104 40129 52007 77777 333 11085 21160 555 61990 62990 63001 64992 65003 71114 72190 73147 74892 75242;
0165042010999992000040609004+77470-069220FM-12+001999999V0209999C000019999999N0039001N1-01381-01511101261ADDMA1999999101011MD1710031+9999REMSYN124AAXX  06094 04201 4//39 /0000 11138 21151 30101 40126 57003 77177 555 61990 62990 63992 64990 71039 72137 73078 74929 75369;
0171042010999992000040612004+77470-069220FM-12+001999999V0203301N000519999999N0018001N1-01301-01461101241ADDMA1999999100991MD1710021+9999REMSYN130AAXX  06124 04201 4//18 /3301 11130 21146 30099 40124 57002 77177 555 61994 62990 63996 64992 65003 71018 72081 73031 74929 75369;
0171042010999992000040615004+77470-069220FM-12+001999999V0209999C000019999999N0033001N1-01251-01561101151ADDMA1999999100901MD1710091+9999REMSYN130AAXX  06154 04201 4//33 /0000 11125 21156 30090 40115 57009 76477 555 61990 62990 63994 64991 65002 71033 72072 73045 74016 75143;
0201042010999992000040618004+77470-069220FM-12+001999999V0209999C000019999999N0080001N1-01091-01521101011ADDKA1120M-01081KA2120N-01541MA1999999100761MD1710141+9999REMSYN134AAXX  06184 04201 4//58 /0000 11109 21152 30076 40101 57014 72277 333 11108 21154 555 63994 64990 65001 71084 72242 73118 74016 75381;
0153042010999992000040621004+77470-069220FM-12+001999999V0201301N000519999999N0130001N1-01291-01611100851ADDMA1999999100601MD1710161+9999REMSYN112AAXX  06214 04201 4//63 /1301 11129 21161 30060 40085 57016 72471 555 63030 64990 71138 72409 73315 74060 75447;
0153042010999992000040700004+77470-069220FM-12+001999999V0201101N002119999999N0090001N1-01381-01521100711ADDMA1999999100461MD1710141+9999REMSYN112AAXX  07004 04201 4//59 /1104 11138 21152 30046 40071 57014 77771 555 63030 64990 71091 72143 73122 74050 75447;
0165042010999992000040703004+77470-069220FM-12+001999999V0209999C000019999999N0070001N1-01731-01821100541ADDMA1999999100291MD1710171+9999REMSYN124AAXX  07034 04201 4//57 /0000 11173 21182 30029 40054 57017 77777 555 61990 62990 63992 64990 71074 72220 73107 74828 75500;
0213042010999992000040706004+77470-069220FM-12+001999999V0209999C000019999999N0050001N1-01671-01761100351ADDKA1120M-01031KA2120N-01851MA1999999100101MD1710191+9999REMSYN146AAXX  07064 04201 4//50 /0000 11167 21176 30010 40035 57019 77177 333 11103 21185 555 61993 62990 63001 64992 65003 71057 72309 73110 74828 75500;
0159042010999992000040712004+77470-069220FM-12+001999999V0209999C000019999999N0130001N1-01531-01631100021ADDMA1999999099771MD1710151+9999REMSYN118AAXX  07124 04201 4//63 /0000 11153 21163 39977 40002 57015 78577 555 63003 64992 65004 71135 72403 73231 74959 75500;
0127042010999992000040715004+77470-069220FM-12+001999999V0202601N000519999999N0070001N1-01511-01751099901ADDMA1999999099651REMSYN100AAXX  07154 04201 4//57 /2601 11151 21175 39965 49990 78570 555 60/// 71074 72460 73122 74074 75460;
0189042010999992000040718004+77470-069220FM-12+001999999V0200901N000519999999N0090001N1-01591-02081099741ADDKA1120M-01071KA2120N-01711MA1999999099491MD1710161+9999REMSYN122AAXX  07184 04201 4//59 /0901 11159 21208 39949 49974 57016 70070 333 11107 21171 555 60/// 71094 72500 73335 74038 75500;
0141042010999992000040721004+77470-069220FM-12+001999999V0209999C000019999999N0080001N1-01521-02001099651ADDMA1999999099401MD1710091+9999REMSYN100AAXX  07214 04201 45/58 /0000 11152 21200 39940 49965 57009 555 60/// 71083 72342 73171 74083 75500;
0141042010999992000040800004+77470-069220FM-12+001999999V0202501N000519999999N0350001N1-01861-02031099561ADDMA1999999099311MD1710091+9999REMSYN100AAXX  08004 04201 45/81 /2501 11186 21203 39931 49956 57009 555 60/// 71378 72500 73450 74941 75500;
0147042010999992000040803004+77470-069220FM-12+001999999V0209999C000019999999N0450001N1-01831-01931099461ADDMA1999999099211MD1710101+9999REMSYN106AAXX  08034 04201 4//83 /0000 11183 21193 39921 49946 57010 70070 555 63990 71468 72500 73500 74043 75500;
0189042010999992000040806004+77470-069220FM-12+001999999V0201101N000519999999N0400001N1-02041-02141099371ADDKA1120M-01121KA2120N-02271MA1999999099121MD1710091+9999REMSYN122AAXX  08064 04201 4//82 /1101 11204 21214 39912 49937 57009 70070 333 11112 21227 555 63990 71450 72500 73500 74043 75500;
0147042010999992000040809004+77470-069220FM-12+001999999V0201001N000519999999N0500001N1-01961-02061099391ADDMA1999999099141MD1210021+9999REMSYN106AAXX  08094 04201 4//84 /1001 11196 21206 39914 49939 52002 70070 555 63990 71500 72500 73500 74114 75500;
0147042010999992000040812004+77470-069220FM-12+001999999V0203001N000519999999N0300001N1-01841-01971099481ADDMA1999999099231MD1210091+9999REMSYN106AAXX  08124 04201 4//80 /3001 11184 21197 39923 49948 52009 70070 555 63990 71326 72500 73471 74114 75500;
0141042010999992000040815004+77470-069220FM-12+001999999V0202701N001019999999N0160001N1-01741-02121099601ADDMA1999999099351MD1210121+9999REMSYN100AAXX  08154 04201 45/66 /2702 11174 21212 39935 49960 52012 555 60/// 71164 72500 73276 74096 75500;
0183042010999992000040818004+77470-069220FM-12+001999999V0201201N000519999999N0180001N1-01311-01941099781ADDKA1120M-00791KA2120N-02331MA1999999099531MD1210181+9999REMSYN116AAXX  08184 04201 45/68 /1201 11131 21194 39953 49978 52018 333 11079 21233 555 60/// 71188 72500 73321 74096 75500;
0141042010999992000040821004+77470-069220FM-12+001999999V0209999C000019999999N0300001N1-01591-02181100011ADDMA1999999099761MD1210231+9999REMSYN100AAXX  08214 04201 45/80 /0000 11159 21218 39976 40001 52023 555 60/// 71344 72500 73454 74158 75500;
0141042010999992000040900004+77470-069220FM-12+001999999V0209999C000019999999N0450001N1-01711-02081100251ADDMA1999999100001MD1210241+9999REMSYN100AAXX  09004 04201 45/83 /0000 11171 21208 30000 40025 52024 555 60/// 71472 72500 73500 74158 75500;
0141042010999992000040903004+77470-069220FM-12+001999999V0209999C000019999999N0500001N1-01661-01861100471ADDMA1999999100221MD1210221+9999REMSYN100AAXX  09034 04201 45/84 /0000 11166 21186 30022 40047 52022 555 60/// 71500 72500 73500 74407 75500;
0183042010999992000040906004+77470-069220FM-12+001999999V0201301N001019999999N0500001N1-02021-02211100711ADDKA1120M-00851KA2120N-02181MA1999999100451MD1210231+9999REMSYN116AAXX  09064 04201 45/84 /1302 11202 21221 30045 40071 52023 333 11085 21218 555 60/// 71500 72500 73500 74407 75500;
0141042010999992000040909004+77470-069220FM-12+001999999V0202501N001019999999N0500001N1-02211-02361100951ADDMA1999999100691MD1210241+9999REMSYN100AAXX  09094 04201 45/84 /2502 11221 21236 30069 40095 52024 555 60/// 71500 72500 73500 74394 75500;
0141042010999992000040912004+77470-069220FM-12+001999999V0202301N001019999999N0450001N1-02081-02251101251ADDMA1999999100991MD1210301+9999REMSYN100AAXX  09124 04201 45/83 /2302 11208 21225 30099 40125 52030 555 60/// 71452 72500 73500 74391 75500;
0141042010999992000040915004+77470-069220FM-12+001999999V0200601N001019999999N0250001N1-01821-02051101501ADDMA1999999101241MD1210251+9999REMSYN100AAXX  09154 04201 45/75 /0602 11182 21205 30124 40150 52025 555 60/// 71257 72500 73365 74257 75500;
0183042010999992000040918004+77470-069220FM-12+001999999V0201001N000519999999N0300001N1-01561-01891101701ADDKA1120M-01431KA2120N-02291MA1999999101451MD1210211+9999REMSYN116AAXX  09184 04201 45/80 /1001 11156 21189 30145 40170 52021 333 11143 21229 555 60/// 71304 72500 73413 74234 75500;
0296042010999992000040921004+77470-069220FM-12+001999999V0201101N000519999999N0030001N1-01371-01711101881ADDKA1120M-00771MA1999999101631MD1210181+9999REMSYN242AAXX  09214 04201 4//30 /1101 11137 21171 30163 40188 52018 77770 555 61990 62990 63990 64990 71030 72136 73042 74030 75500 04221 4//23 /2409 11077 21090 30223 40264 52021 77177 555 61994 62991 63004 64002 65038 71023 72047 73033 74010 75077;
0171042010999992000041000004+77470-069220FM-12+001999999V0209999C000019999999N0022001N1-01311-01471102071ADDMA1999999101821MD1210191+9999REMSYN130AAXX  10004 04201 4//22 /0000 11131 21147 30182 40207 52019 77470 555 61990 62990 63992 64991 65001 71022 72062 73052 74021 75500;
0165042010999992000041003004+77470-069220FM-12+001999999V0203101N000519999999N0022001N1-01231-01321102291ADDMA1999999102041MD1210221+9999REMSYN124AAXX  10034 04201 4//22 /3101 11123 21132 30204 40229 52022 77775 555 61992 62990 63992 64991 71022 72033 73027 74016 75111;
0213042010999992000041006004+77470-069220FM-12+001999999V0200901N003119999999N0049001N1-00801-01031102521ADDKA1120M-00771KA2120N-01651MA1999999102271MD1210231+9999REMSYN146AAXX  10064 04201 4//49 /0906 11080 21103 30227 40252 52023 77775 333 11077 21165 555 61031 62995 63031 64991 65002 71049 72121 73077 74016 75149;
0171042010999992000041009004+77470-069220FM-12+001999999V0200701N003119999999N0050001N1-00851-01051102811ADDMA1999999102561MD1210291+9999REMSYN130AAXX  10094 04201 4//50 /0706 11085 21105 30256 40281 52029 77177 555 61990 62990 63991 64991 65002 71050 72120 73084 74025 75128;
0159042010999992000041012004+77470-069220FM-12+001999999V0201101N001019999999N0290001N1-01051-01271103151ADDMA1999999102901MD1210341+9999REMSYN118AAXX  10124 04201 4//79 /1102 11105 21127 30290 40315 52034 70077 555 63997 64991 65002 71299 72500 73414 74019 75500;
0159042010999992000041015004+77470-069220FM-12+001999999V0202901N001519999999N0170001N1-01071-01351103401ADDMA1999999103151MD1210251+9999REMSYN118AAXX  10154 04201 4//67 /2903 11107 21135 30315 40340 52025 70070 555 61031 62995 63031 71172 72500 73284 74084 75500;
0189042010999992000041018004+77470-069220FM-12+001999999V0200901N004619999999N0250001N1-00751-01411103611ADDKA1120M-00721KA2120N-01301MA1999999103361MD1210211+9999REMSYN122AAXX  10184 04201 4//75 /0909 11075 21141 30336 40361 52021 70070 333 11072 21130 555 63031 71260 72500 73408 74084 75500;
0141042010999992000041021004+77470-069220FM-12+001999999V0200901N005119999999N0270001N1-00821-01491103811ADDMA1999999103561MD1210201+9999REMSYN100AAXX  10214 04201 45/77 /0910 11082 21149 30356 40381 52020 555 60/// 71274 72500 73383 74188 75500;
0141042010999992000041100004+77470-069220FM-12+001999999V0201001N005119999999N0450001N1-01101-01601103991ADDMA1999999103731MD1210171+9999REMSYN100AAXX  11004 04201 45/83 /1010 11110 21160 30373 40399 52017 555 60/// 71496 72500 73500 74188 75500;
0141042010999992000041103004+77470-069220FM-12+001999999V0201101N007719999999N0450001N1-01241-01761104061ADDMA1999999103801MD1210071+9999REMSYN100AAXX  11034 04201 45/83 /1115 11124 21176 30380 40406 52007 555 60/// 71480 72500 73500 74413 75500;
0183042010999992000041106004+77470-069220FM-12+001999999V0201001N006719999999N0500001N1-01191-01731103971ADDKA1120M-00711KA2120N-01511MA1999999103711MD1710091+9999REMSYN116AAXX  11064 04201 45/84 /1013 11119 21173 30371 40397 57009 333 11071 21151 555 63031 71500 72500 73500 74413 75500;
0141042010999992000041109004+77470-069220FM-12+001999999V0200701N006719999999N0400001N1-01321-01881103821ADDMA1999999103561MD1710151+9999REMSYN100AAXX  11094 04201 45/82 /0713 11132 21188 30356 40382 57015 555 60/// 71416 72500 73500 74148 75500;
0168042010999992000041112004+77470-069220FM-12+001999999V0202301N001519999999N0290001N1-01341-01951103511ADDMA1999999103251MD1710311+9999OA149901081REMSYN116AAXX  11124 04201 45/79 /2303 11134 21195 30325 40351 57031 333 91121 91218 555 60/// 71292 72500 73404 74148 75500;
0141042010999992000041200004+77470-069220FM-12+001999999V0201801N001019999999N0450001N1-01431-01811101681ADDMA1999999101431MD1710401+9999REMSYN100AAXX  12004 04201 45/83 /1802 11143 21181 30143 40168 57040 555 60/// 71481 72500 73500 74175 75500;
0159042010999992000041203004+77470-069220FM-12+001999999V0202901N001019999999N0080001N1-01281-01691101441ADDMA1999999101191MD1710241+9999REMSYN118AAXX  12034 04201 4//58 /2902 11128 21169 30119 40144 57024 77770 555 61990 62990 63990 71085 72263 73150 74085 75500;
0213042010999992000041206004+77470-069220FM-12+001999999V0200701N001519999999N0011001N1-01111-01231101511ADDKA1120M-01081KA2120N-01601MA1999999101261MD1210071+9999REMSYN146AAXX  12064 04201 4//11 /0703 11111 21123 30126 40151 52007 77170 333 11108 21160 555 61004 62997 63004 64993 65007 71011 72076 73038 74011 75500;
0198042010999992000041209004+77470-069220FM-12+001999999V0203001N001519999999N0150001N1-01111-01211101811ADDMA1999999101561MD1210301+9999OA149900881REMSYN146AAXX  12094 04201 4//65 /3003 11111 21121 30156 40181 52030 78577 333 91117 91217 555 61990 62990 63002 64995 65011 71155 72500 73407 74014 75500;
0174042010999992000041212004+77470-069220FM-12+001999999V0203101N001019999999N0300001N1-00721-01001101951ADDMA1999999101701MD1210141+9999OA149900881REMSYN122AAXX  12124 04201 4//80 /3102 11072 21100 30170 40195 52014 70077 333 91117 91217 555 63002 71327 72500 73440 74014 75500;
0171042010999992000041215004+77470-069220FM-12+001999999V0203001N003119999999N0050001N1-00771-00941101931ADDMA1999999101681MD1710021+9999REMSYN130AAXX  12154 04201 4//50 /3006 11077 21094 30168 40193 57002 77170 555 61991 62990 63001 64993 65006 71056 72479 73257 74017 75500;
0213042010999992000041218004+77470-069220FM-12+001999999V0200401N001019999999N0007001N1-00671-00891101941ADDKA1120M-00011KA2120N-01181MA1999999101691MD1210011+9999REMSYN146AAXX  12184 04201 4//07 /0402 11067 21089 30169 40194 52001 76870 333 11001 21118 555 61008 62003 63008 64002 65012 71870 72026 73014 74870 75500;
0159042010999992000041221004+77470-069220FM-12+001999999V0200801N006219999999N0350001N1-00281-00791101851ADDMA1999999101611MD1710081+9999REMSYN118AAXX  12214 04201 4//81 /0812 11028 21079 30161 40185 57008 70077 555 63001 64990 65001 71368 72500 73434 74018 75500;
0147042010999992000041300004+77470-069220FM-12+001999999V0202801N002119999999N0400001N1-00661-00981101831ADDMA1999999101581MD1710031+9999REMSYN106AAXX  13004 04201 4//82 /2804 11066 21098 30158 40183 57003 70077 555 63001 71441 72500 73500 74018 75500;
0141042010999992000041303004+77470-069220FM-12+001999999V0202801N002619999999N0450001N1-01051-01191101711ADDMA1999999101461MD1710121+9999REMSYN100AAXX  13034 04201 45/83 /2805 11105 21119 30146 40171 57012 555 60/// 71470 72500 73500 74366 75500;
0213042010999992000041306004+77470-069220FM-12+001999999V0203001N002619999999N0034001N1-00961-01061101681ADDKA1120M-00271KA2120N-01161MA1999999101431MD1710031+9999REMSYN146AAXX  13064 04201 4//34 /3005 11096 21106 30143 40168 57003 77170 333 11027 21116 555 61993 62990 63996 64990 65002 71034 72205 73126 74028 75500;
0171042010999992000041309004+77470-069220FM-12+001999999V0203101N001019999999N0022001N1-00981-01091101801ADDMA1999999101551MD1210121+9999REMSYN130AAXX  13094 04201 4//22 /3102 11098 21109 30155 40180 52012 77177 555 61994 62991 63002 64994 65008 71022 72082 73048 74022 75150;
0159042010999992000041312004+77470-069220FM-12+001999999V0201301N001019999999N0240001N1-00971-01231102151ADDMA1999999101901MD1210351+9999REMSYN118AAXX  13124 04201 4//74 /1302 11097 21123 30190 40215 52035 77777 555 63003 64992 65004 71250 72464 73345 74022 75494;
0147042010999992000041315004+77470-069220FM-12+001999999V0201201N003119999999N0180001N1-01041-01481102561ADDMA1999999102311MD1210411+9999REMSYN106AAXX  13154 04201 4//68 /1206 11104 21148 30231 40256 52041 70077 555 60/// 71187 72488 73303 74168 75500;
0201042010999992000041318004+77470-069220FM-12+001999999V0201301N005119999999N0080001N1-00981-01441102951ADDKA1120M-00881KA2120N-01181MA1999999102701MD1210391+9999REMSYN134AAXX  13184 04201 4//58 /1310 11098 21144 30270 40295 52039 77777 333 11088 21118 555 61990 62990 63990 71090 72500 73351 74090 75500;
0079042010999992000041403004+77470-069220FM-12+001999999V02099999999999999999N0500001N1+99999+99999999999REMSYN070AAXX  14034 04201 45/84 ///// 555 60/// 71500 72500 73500 74500 75500;
0163042010999992000041406004+77470-069220FM-12+001999999V0201001N000519999999N0500001N1-01271-01821103501ADDKA1120M-01211KA2120N-01391MA1999999103241REMSYN110AAXX  14064 04201 45/84 /1001 11127 21182 30324 40350 333 11121 21139 555 60/// 71500 72500 73500 74459 75500;
0141042010999992000041409004+77470-069220FM-12+001999999V0200901N005719999999N0400001N1-01421-01891103461ADDMA1999999103201MD1710041+9999REMSYN100AAXX  14094 04201 45/82 /0911 11142 21189 30320 40346 57004 555 60/// 71445 72500 73500 74440 75500;
0141042010999992000041415004+77470-069220FM-12+001999999V0201001N003119999999N0250001N1-01261-01861103351ADDMA1999999103091MD1710061+9999REMSYN100AAXX  14154 04201 45/75 /1006 11126 21186 30309 40335 57006 555 60/// 71254 72500 73357 74190 75500;
0183042010999992000041418004+77470-069220FM-12+001999999V0200901N004619999999N0230001N1-01201-01731103221ADDKA1120M-01181KA2120N-01671MA1999999102971MD1710121+9999REMSYN116AAXX  14184 04201 45/73 /0909 11120 21173 30297 40322 57012 333 11118 21167 555 60/// 71234 72500 73367 74190 75500;
0141042010999992000041421004+77470-069220FM-12+001999999V0203001N000519999999N0290001N1-01391-01901103171ADDMA1999999102911MD1710061+9999REMSYN100AAXX  14214 04201 45/79 /3001 11139 21190 30291 40317 57006 555 60/// 71299 72500 73349 74054 75500;
0141042010999992000041500004+77470-069220FM-12+001999999V0203501N001519999999N0270001N1-01431-01901103091ADDMA1999999102831MD1710081+9999REMSYN100AAXX  15004 04201 45/77 /3503 11143 21190 30283 40309 57008 555 60/// 71278 72500 73441 74054 75500;
0141042010999992000041503004+77470-069220FM-12+001999999V0200101N000519999999N0450001N1-01791-02091103011ADDMA1999999102751MD1710081+9999REMSYN100AAXX  15034 04201 45/83 /0101 11179 21209 30275 40301 57008 555 60/// 71456 72500 73500 74304 75500;
0183042010999992000041506004+77470-069220FM-12+001999999V0202901N000519999999N0500001N1-01881-02141102941ADDKA1120M-01141KA2120N-02041MA1999999102681MD1710071+9999REMSYN116AAXX  15064 04201 45/84 /2901 11188 21214 30268 40294 57007 333 11114 21204 555 60/// 71500 72500 73500 74304 75500;
0141042010999992000041512004+77470-069220FM-12+001999999V0201101N002119999999N0280001N1-01981-02401102781ADDMA1999999102521MD1710081+9999REMSYN100AAXX  15124 04201 45/78 /1104 11198 21240 30252 40278 57008 555 60/// 71289 72500 73388 74934 75500;
0121042010999992000041600004+77470-069220FM-12+001999999V0209999C000019999999N0300001N1-01741-02201102351ADDMA1999999102091REMSYN094AAXX  16004 04201 45/80 /0000 11174 21220 30209 40235 555 60/// 71341 72500 73478 74341 75500;
0141042010999992000041603004+77470-069220FM-12+001999999V0209999C000019999999N0450001N1-02091-02441102221ADDMA1999999101961MD1710131+9999REMSYN100AAXX  16034 04201 45/83 /0000 11209 21244 30196 40222 57013 555 60/// 71497 72500 73500 74389 75500;
0183042010999992000041606004+77470-069220FM-12+001999999V0202901N000519999999N0500001N1-01911-02281102091ADDKA1120M-01701KA2120N-02231MA1999999101831MD1710131+9999REMSYN116AAXX  16064 04201 45/84 /2901 11191 21228 30183 40209 57013 333 11170 21223 555 60/// 71500 72500 73500 74389 75500;
0141042010999992000041609004+77470-069220FM-12+001999999V0209999C000019999999N0450001N1-02181-02551102051ADDMA1999999101791MD1710041+9999REMSYN100AAXX  16094 04201 45/83 /0000 11218 21255 30179 40205 57004 555 60/// 71498 72500 73500 74448 75500;
0141042010999992000041612004+77470-069220FM-12+001999999V0202701N000519999999N0260001N1-01931-02451101991ADDMA1999999101731MD1710061+9999REMSYN100AAXX  16124 04201 45/76 /2701 11193 21245 30173 40199 57006 555 60/// 71264 72500 73402 74264 75500;
0141042010999992000041615004+77470-069220FM-12+001999999V0201301N001019999999N0200001N1-01771-02301101961ADDMA1999999101701MD1710031+9999REMSYN100AAXX  16154 04201 45/70 /1302 11177 21230 30170 40196 57003 555 60/// 71201 72500 73355 74184 75500;
0183042010999992000041618004+77470-069220FM-12+001999999V0200901N000519999999N0300001N1-01421-02191101931ADDKA1120M-01211KA2120N-02291MA1999999101681MD1710021+9999REMSYN116AAXX  16184 04201 45/80 /0901 11142 21219 30168 40193 57002 333 11121 21229 555 63035 71303 72500 73432 74155 75500;
0141042010999992000041621004+77470-069220FM-12+001999999V0201201N000519999999N0230001N1-01581-02281101931ADDMA1999999101671MD1710011+9999REMSYN100AAXX  16214 04201 45/73 /1201 11158 21228 30167 40193 57001 555 60/// 71232 72500 73423 74146 75500;
0141042010999992000041700004+77470-069220FM-12+001999999V0202701N000519999999N0400001N1-01611-02181101951ADDMA1999999101691MD1210021+9999REMSYN100AAXX  17004 04201 45/82 /2701 11161 21218 30169 40195 52002 555 60/// 71430 72500 73500 74146 75500;
0141042010999992000041703004+77470-069220FM-12+001999999V0200601N000519999999N0500001N1-01651-02151101961ADDMA1999999101701MD1210011+9999REMSYN100AAXX  17034 04201 45/84 /0601 11165 21215 30170 40196 52001 555 60/// 71500 72500 73500 74437 75500;
0183042010999992000041706004+77470-069220FM-12+001999999V0203101N000519999999N0500001N1-01691-02181101961ADDKA1120M-01131KA2120N-02081MA1999999101701MD1410001+9999REMSYN116AAXX  17064 04201 45/84 /3101 11169 21218 30170 40196 54000 333 11113 21208 555 60/// 71500 72500 73500 74950 75500;
0141042010999992000041709004+77470-069220FM-12+001999999V0202801N001019999999N0400001N1-01901-02331101941ADDMA1999999101681MD1710021+9999REMSYN100AAXX  17094 04201 45/82 /2802 11190 21233 30168 40194 57002 555 60/// 71405 72500 73466 74229 75500;
0141042010999992000041712004+77470-069220FM-12+001999999V0203101N001019999999N0260001N1-01701-02271101861ADDMA1999999101601MD1710081+9999REMSYN100AAXX  17124 04201 45/76 /3102 11170 21227 30160 40186 57008 555 60/// 71266 72495 73377 74208 75500;
0141042010999992000041715004+77470-069220FM-12+001999999V0203001N001519999999N0230001N1-01411-02051101851ADDMA1999999101601MD1410001+9999REMSYN100AAXX  17154 04201 45/73 /3003 11141 21205 30160 40185 54000 555 60/// 71238 72464 73380 74174 75500;
0183042010999992000041718004+77470-069220FM-12+001999999V0201001N002619999999N0220001N1-01461-01981101941ADDKA1120M-01241KA2120N-02101MA1999999101691MD1210091+9999REMSYN116AAXX  17184 04201 45/72 /1005 11146 21198 30169 40194 52009 333 11124 21210 555 60/// 71221 72500 73356 74174 75500;
0141042010999992000041721004+77470-069220FM-12+001999999V0209999C000019999999N0210001N1-01181-01821101991ADDMA1999999101741MD1210051+9999REMSYN100AAXX  17214 04201 45/71 /0000 11118 21182 30174 40199 52005 555 60/// 71220 72500 73395 74177 75500;
0141042010999992000041800004+77470-069220FM-12+001999999V0209999C000019999999N0300001N1-01381-02041102061ADDMA1999999101811MD1210071+9999REMSYN100AAXX  18004 04201 45/80 /0000 11138 21204 30181 40206 52007 555 60/// 71313 72500 73433 74177 75500;
0141042010999992000041803004+77470-069220FM-12+001999999V0201901N000519999999N0450001N1-01701-02181102081ADDMA1999999101821MD1210011+9999REMSYN100AAXX  18034 04201 45/83 /1901 11170 21218 30182 40208 52001 555 60/// 71496 72500 73500 74325 75500;
0195042010999992000041806004+77470-069220FM-12+001999999V0201001N000519999999N0450001N1-01691-02161102031ADDKA1120M-00921KA2120N-01851MA1999999101771MD1710051+9999REMSYN128AAXX  18064 04201 45/83 /1001 11169 21216 30177 40203 57005 333 11092 21185 555 61035 62996 63035 71499 72500 73500 74325 75500;
0141042010999992000041809004+77470-069220FM-12+001999999V0202901N000519999999N0450001N1-01761-02211101991ADDMA1999999101731MD1710041+9999REMSYN100AAXX  18094 04201 45/83 /2901 11176 21221 30173 40199 57004 555 60/// 71457 72500 73500 74457 75500;
0141042010999992000041812004+77470-069220FM-12+001999999V0200901N000519999999N0400001N1-01741-02181102051ADDMA1999999101791MD1210061+9999REMSYN100AAXX  18124 04201 45/82 /0901 11174 21218 30179 40205 52006 555 60/// 71403 72500 73463 74341 75500;
0141042010999992000041815004+77470-069220FM-12+001999999V0202701N001019999999N0170001N1-01201-01821102061ADDMA1999999101811MD1210021+9999REMSYN100AAXX  18154 04201 45/67 /2702 11120 21182 30181 40206 52002 555 60/// 71176 72494 73283 74172 75500;
0183042010999992000041818004+77470-069220FM-12+001999999V0202901N000519999999N0210001N1-00951-01651102111ADDKA1120M-00811KA2120N-02001MA1999999101861MD1210051+9999REMSYN116AAXX  18184 04201 45/71 /2901 11095 21165 30186 40211 52005 333 11081 21200 555 60/// 71212 72500 73339 74170 75500;
0141042010999992000041821004+77470-069220FM-12+001999999V0202701N000519999999N0290001N1-00881-01661102161ADDMA1999999101911MD1210051+9999REMSYN100AAXX  18214 04201 45/79 /2701 11088 21166 30191 40216 52005 555 60/// 71300 72500 73440 74101 75500;
0141042010999992000041900004+77470-069220FM-12+001999999V0209999C000019999999N0450001N1-01071-01411102171ADDMA1999999101921MD1210011+9999REMSYN100AAXX  19004 04201 45/83 /0000 11107 21141 30192 40217 52001 555 60/// 71476 72500 73500 74101 75500;
0147042010999992000041903004+77470-069220FM-12+001999999V0201601N000519999999N0300001N1-01121-01431102121ADDMA1999999101871MD1710051+9999REMSYN106AAXX  19034 04201 4//80 /1601 11112 21143 30187 40212 57005 71170 555 60/// 71315 72500 73412 74315 75500;
0195042010999992000041906004+77470-069220FM-12+001999999V0200701N000519999999N0500001N1-01161-01491101971ADDKA1120M-00651KA2120N-01241MA1999999101721MD1710151+9999REMSYN128AAXX  19064 04201 4//84 /0701 11116 21149 30172 40197 57015 70070 333 11065 21124 555 63991 64990 71500 72500 73500 74092 75500;
0141042010999992000041909004+77470-069220FM-12+001999999V0203301N000519999999N0450001N1-01121-01361101791ADDMA1999999101541MD1710181+9999REMSYN100AAXX  19094 04201 45/83 /3301 11112 21136 30154 40179 57018 555 60/// 71485 72500 73500 74369 75500;
0159042010999992000041912004+77470-069220FM-12+001999999V0202501N001519999999N0160001N1-01041-01271101521ADDMA1999999101271MD1710271+9999REMSYN118AAXX  19124 04201 4//66 /2503 11104 21127 30127 40152 57027 78570 555 61990 62990 63991 71162 72500 73452 74076 75500;
0168042010999992000041915004+77470-069220FM-12+001999999V0201101N007719999999N0300001N1-00151-00511101411ADDMA1999999101171MD1710101+9999OA149901031REMSYN116AAXX  19154 04201 4//80 /1115 11015 21051 30117 40141 57010 70077 333 91120 555 60/// 71348 72500 73455 74093 75500;
0212042010999992000041918004+77470-069220FM-12+001999999V0201501N006219999999N0300001N1-00221-00841101611ADDKA1120M+00021KA2120N-01221MA1999999101371MD1210201+9999OA149901751REMSYN134AAXX  19184 04201 4//80 /1512 11022 21084 30137 40161 52020 70077 333 10002 21122 91134 91225 555 63035 71318 72500 73427 74064 75500;
0141042010999992000041921004+77470-069220FM-12+001999999V0201001N006219999999N0300001N1-00341-00971101831ADDMA1999999101591MD1210221+9999REMSYN100AAXX  19214 04201 45/80 /1012 11034 21097 30159 40183 52022 555 60/// 71304 72500 73462 74073 75500;
0168042010999992000042000004+77470-069220FM-12+001999999V0201401N002119999999N0350001N1-00561-01131102181ADDMA1999999101931MD1210341+9999OA149901241REMSYN116AAXX  20004 04201 45/81 /1404 11056 21113 30193 40218 52034 333 91124 91217 555 60/// 71360 72500 73500 74073 75500;
0174042010999992000042003004+77470-069220FM-12+001999999V0201501N008219999999N0070001N1-00801-01261102521ADDMA1999999102271MD1210341+9999OA149901391REMSYN122AAXX  20034 04201 4//57 /1516 11080 21126 30227 40252 52034 72470 333 91127 555 63035 64990 71074 72500 73428 74066 75500;
0206042010999992000042006004+77470-069220FM-12+001999999V0201001N006719999999N0350001N1-00771-01331102631ADDKA1120M-00171KA2120N-00861MA1999999102381MD1210111+9999OA149901391REMSYN128AAXX  20064 04201 4//81 /1013 11077 21133 30238 40263 52011 70070 333 11017 21086 91127 555 63035 71379 72500 73449 74066 75500;
0147042010999992000042009004+77470-069220FM-12+001999999V0201501N004619999999N0350001N1-00791-01301102721ADDMA1999999102471MD1210091+9999REMSYN106AAXX  20094 04201 4//81 /1509 11079 21130 30247 40272 52009 72270 555 60/// 71383 72500 73500 74326 75500;
0147042010999992000042012004+77470-069220FM-12+001999999V0201001N003119999999N0300001N1-00801-01291102791ADDMA1999999102541MD1210071+9999REMSYN106AAXX  20124 04201 4//80 /1006 11080 21129 30254 40279 52007 70070 555 60/// 71316 72500 73450 74244 75500;
0141042010999992000042015004+77470-069220FM-12+001999999V0201001N003119999999N0210001N1-00691-01251102801ADDMA1999999102551MD1210011+9999REMSYN100AAXX  20154 04201 45/71 /1006 11069 21125 30255 40280 52001 555 60/// 71213 72500 73319 74147 75500;
0189042010999992000042018004+77470-069220FM-12+001999999V0203001N001019999999N0270001N1-00581-01171102751ADDKA1120M-00511KA2120N-00851MA1999999102501MD1710051+9999REMSYN122AAXX  20184 04201 45/77 /3002 11058 21117 30250 40275 57005 333 11051 21085 91214 555 60/// 71273 72500 73477 74900 75500;
0141042010999992000042021004+77470-069220FM-12+001999999V0202901N002119999999N0230001N1-00611-01181102711ADDMA1999999102461MD1710041+9999REMSYN100AAXX  20214 04201 45/73 /2904 11061 21118 30246 40271 57004 555 60/// 71235 72500 73404 74228 75500;
0141042010999992000042103004+77470-069220FM-12+001999999V0200301N000519999999N0450001N1-01351-01671102541ADDMA1999999102291MD1710081+9999REMSYN100AAXX  21034 04201 45/83 /0301 11135 21167 30229 40254 57008 555 60/// 71460 72500 73500 74249 75500;
0183042010999992000042106004+77470-069220FM-12+001999999V0209999C000019999999N0450001N1-01511-01721102421ADDKA1120M-00531KA2120N-01511MA1999999102161MD1710131+9999REMSYN116AAXX  21064 04201 45/83 /0000 11151 21172 30216 40242 57013 333 11053 21151 555 60/// 71454 72500 73500 74249 75500;
0141042010999992000042109004+77470-069220FM-12+001999999V0201301N000519999999N0350001N1-01301-01411102341ADDMA1999999102091MD1710071+9999REMSYN100AAXX  21094 04201 45/81 /1301 11130 21141 30209 40234 57007 555 60/// 71370 72500 73470 74370 75500;
0141042010999992000042112004+77470-069220FM-12+001999999V0202701N000519999999N0250001N1-01001-01481102301ADDMA1999999102051MD1710041+9999REMSYN100AAXX  21124 04201 45/75 /2701 11100 21148 30205 40230 57004 555 60/// 71253 72500 73358 74252 75500;
0141042010999992000042115004+77470-069220FM-12+001999999V0202201N000519999999N0180001N1-00781-01421102251ADDMA1999999102001MD1710051+9999REMSYN100AAXX  21154 04201 45/68 /2201 11078 21142 30200 40225 57005 555 60/// 71181 72483 73290 74172 75500;
0183042010999992000042118004+77470-069220FM-12+001999999V0209999C000019999999N0200001N1-00641-01251102211ADDKA1120M-00481KA2120N-01511MA1999999101961MD1710041+9999REMSYN116AAXX  21184 04201 45/70 /0000 11064 21125 30196 40221 57004 333 11048 21151 555 60/// 71200 72500 73325 74163 75500;
0141042010999992000042121004+77470-069220FM-12+001999999V0209999C000019999999N0260001N1-00701-01291102211ADDMA1999999101961MD1410001+9999REMSYN100AAXX  21214 04201 45/76 /0000 11070 21129 30196 40221 54000 555 60/// 71263 72500 73346 74174 75500;
0141042010999992000042200004+77470-069220FM-12+001999999V0201601N000519999999N0300001N1-01031-01511102211ADDMA1999999101961MD1410001+9999REMSYN100AAXX  22004 04201 45/80 /1601 11103 21151 30196 40221 54000 555 60/// 71350 72500 73441 74174 75500;
0141042010999992000042203004+77470-069220FM-12+001999999V0209999C000019999999N0450001N1-01241-01611102181ADDMA1999999101931MD1710031+9999REMSYN100AAXX  22034 04201 45/83 /0000 11124 21161 30193 40218 57003 555 60/// 71482 72500 73500 74360 75500;
0121042010999992000042303004+77470-069220FM-12+001999999V0203001N002119999999N0400001N1-00871-00921102171ADDMA1999999101921REMSYN094AAXX  23034 04201 45/82 /3004 11087 21092 30192 40217 555 60/// 71429 72500 73500 74429 75500;
0183042010999992000042306004+77470-069220FM-12+001999999V0200901N006219999999N0450001N1-00471-00731102211ADDKA1120M-00391KA2120N-01021MA1999999101961MD1210041+9999REMSYN116AAXX  23064 04201 45/83 /0912 11047 21073 30196 40221 52004 333 11039 21102 555 60/// 71463 72500 73500 74338 75500;
0165042010999992000042309004+77470-069220FM-12+001999999V0201001N007719999999N0048001N1-00261-00471102281ADDMA1999999102041MD1210081+9999REMSYN124AAXX  23094 04201 4//48 /1015 11026 21047 30204 40228 52008 77770 555 61990 62990 63990 64990 71048 72070 73064 74040 75500;
0147042010999992000042312004+77470-069220FM-12+001999999V0201001N008219999999N0270001N1-00251-00581102321ADDMA1999999102081MD1210041+9999REMSYN106AAXX  23124 04201 4//77 /1016 11025 21058 30208 40232 52004 70070 555 63990 71279 72500 73387 74040 75500;
0141042010999992000042315004+77470-069220FM-12+001999999V0200901N007219999999N0120001N1-00091-00511102331ADDMA1999999102091MD1210011+9999REMSYN100AAXX  23154 04201 45/62 /0914 11009 21051 30209 40233 52001 555 63036 71123 72451 73328 74123 75500;
0183042010999992000042318004+77470-069220FM-12+001999999V0200901N006719999999N0230001N1-00031-00441102371ADDKA1120M-00031KA2120N-00601MA1999999102131MD1210041+9999REMSYN116AAXX  23184 04201 45/73 /0913 11003 21044 30213 40237 52004 333 11003 21060 555 63036 71233 72442 73343 74120 75500;
0141042010999992000042321004+77470-069220FM-12+001999999V0200801N008219999999N0220001N1+00011-00441102421ADDMA1999999102181MD1210051+9999REMSYN100AAXX  23214 04201 45/72 /0816 10001 21044 30218 40242 52005 555 60/// 71221 72500 73370 74185 75500;
0171042010999992000042400004+77470-069220FM-12+001999999V0200801N006719999999N0170001N1+00021-00401102471ADDMA1999999102231MD1210051+9999REMSYN130AAXX  24004 04201 4//67 /0813 10002 21040 30223 40247 52005 77174 555 61990 62990 63994 64990 65001 71178 72416 73234 74034 75500;
0171042010999992000042403004+77470-069220FM-12+001999999V0200901N006719999999N0080001N1-00051-00341102491ADDMA1999999102251MD1210021+9999REMSYN130AAXX  24034 04201 4//58 /0913 11005 21034 30225 40249 52002 77177 555 61990 62990 63992 64990 65001 71081 72125 73095 74064 75500;
0195042010999992000042406004+77470-069220FM-12+001999999V0200801N007219999999N0240001N1-00031-00341102491ADDKA1120M+00281KA2120N-00311MA1999999102251MD1410001+9999REMSYN128AAXX  24064 04201 4//74 /0814 11003 21034 30225 40249 54000 77777 333 10028 21031 555 63992 64990 71246 72500 73500 74064 75500;
0159042010999992000042409004+77470-069220FM-12+001999999V0200901N006219999999N0080001N1-00101-00401102531ADDMA1999999102291MD1210041+9999REMSYN118AAXX  24094 04201 4//58 /0912 11010 21040 30229 40253 52004 78574 555 61990 62990 63990 71082 72150 73109 74082 75500;
0147042010999992000042415004+77470-069220FM-12+001999999V0200801N008219999999N0280001N1+00051-00391102531ADDMA1999999102291MD1710021+9999REMSYN106AAXX  24154 04201 4//78 /0816 10005 21039 30229 40253 57002 72474 555 63990 71281 72500 73391 74091 75500;
0195042010999992000042418004+77470-069220FM-12+001999999V0201001N006219999999N0300001N1+00031-00371102531ADDKA1120M+00141KA2120N-00191MA1999999102291MD1410001+9999REMSYN128AAXX  24184 04201 4//80 /1012 10003 21037 30229 40253 54000 72474 333 10014 21019 555 63998 64990 71313 72500 73404 74054 75500;
0171042010999992000042421004+77470-069220FM-12+001999999V0200901N006219999999N0031001N1+00061-00271102471ADDMA1999999102231MD1710061+9999REMSYN130AAXX  24214 04201 4//31 /0912 10006 21027 30223 40247 57006 77174 555 61991 62990 63995 64991 65002 71031 72069 73047 74031 75500;
0153042010999992000042500004+77470-069220FM-12+001999999V0201001N006219999999N0450001N1-00031-00411102341ADDMA1999999102101MD1710131+9999REMSYN112AAXX  25004 04201 4//83 /1012 11003 21041 30210 40234 57013 70074 555 63995 64990 71460 72500 73500 74031 75500;
0141042010999992000042503004+77470-069220FM-12+001999999V0201001N005719999999N0500001N1-00071-00561102231ADDMA1999999101991MD1710111+9999REMSYN100AAXX  25034 04201 45/84 /1011 11007 21056 30199 40223 57011 555 60/// 71500 72500 73500 74342 75500;
0183042010999992000042506004+77470-069220FM-12+001999999V0200701N003119999999N0450001N1-00201-00661102161ADDKA1120M+00151KA2120N-00281MA1999999101921MD1710071+9999REMSYN116AAXX  25064 04201 45/83 /0706 11020 21066 30192 40216 57007 333 10015 21028 555 60/// 71491 72500 73500 74342 75500;
0141042010999992000042509004+77470-069220FM-12+001999999V0203401N001019999999N0400001N1-00421-00761102081ADDMA1999999101841MD1710081+9999REMSYN100AAXX  25094 04201 45/82 /3402 11042 21076 30184 40208 57008 555 60/// 71411 72500 73500 74381 75500;
0141042010999992000042512004+77470-069220FM-12+001999999V0203001N000519999999N0260001N1-00481-00831102021ADDMA1999999101771MD1710071+9999REMSYN100AAXX  25124 04201 45/76 /3001 11048 21083 30177 40202 57007 555 60/// 71261 72500 73471 74261 75500;
0141042010999992000042515004+77470-069220FM-12+001999999V0202701N001019999999N0190001N1-00561-00811101891ADDMA1999999101641MD1710131+9999REMSYN100AAXX  25154 04201 45/69 /2702 11056 21081 30164 40189 57013 555 60/// 71190 72500 73316 74152 75500;
0189042010999992000042518004+77470-069220FM-12+001999999V0202401N001019999999N0009001N1-00471-00761101781ADDKA1120M-00121KA2120N-00601MA1999999101541MD1710101+9999REMSYN122AAXX  25184 04201 4//09 /2402 11047 21076 30154 40178 57010 72031 333 11012 21060 555 60/// 71893 72052 73017 74824 75500;
0147042010999992000042521004+77470-069220FM-12+001999999V0203001N000519999999N0280001N1-00391-00561101711ADDMA1999999101471MD1710071+9999REMSYN106AAXX  25214 04201 4//78 /3001 11039 21056 30147 40171 57007 70030 555 60/// 71282 72450 73372 74838 75500;
0147042010999992000042600004+77470-069220FM-12+001999999V0200901N002119999999N0250001N1-00441-00481101591ADDMA1999999101351MD1710121+9999REMSYN106AAXX  26004 04201 4//75 /0904 11044 21048 30135 40159 57012 70030 555 60/// 71257 72500 73458 74838 75500;
0189042010999992000042606004+77470-069220FM-12+001999999V0200901N000519999999N0350001N1-00941-00981101271ADDKA1120M-00091KA2120N-00951MA1999999101021MD1710161+9999REMSYN122AAXX  26064 04201 4//81 /0901 11094 21098 30102 40127 57016 72031 333 11009 21095 555 60/// 71394 72500 73497 74832 75500;
0141042010999992000042609004+77470-069220FM-12+001999999V0201301N000519999999N0450001N1-01031-01111101061ADDMA1999999100811MD1710211+9999REMSYN100AAXX  26094 04201 45/83 /1301 11103 21111 30081 40106 57021 555 60/// 71490 72500 73500 74856 75500;
0141042010999992000042612004+77470-069220FM-12+001999999V0201501N000519999999N0180001N1-01081-01511100881ADDMA1999999100631MD1710181+9999REMSYN100AAXX  26124 04201 45/68 /1501 11108 21151 30063 40088 57018 555 60/// 71190 72500 73371 74856 75500;
0141042010999992000042615004+77470-069220FM-12+001999999V0202501N000519999999N0160001N1-00501-01311100611ADDMA1999999100371MD1710261+9999REMSYN100AAXX  26154 04201 45/66 /2501 11050 21131 30037 40061 57026 555 60/// 71165 72500 73379 74079 75500;
0183042010999992000042618004+77470-069220FM-12+001999999V0202201N000519999999N0120001N1-00561-01211100391ADDKA1120M-00061KA2120N-01311MA1999999100151MD1710221+9999REMSYN116AAXX  26184 04201 45/62 /2201 11056 21121 30015 40039 57022 333 11006 21131 555 60/// 71125 72500 73293 74061 75500;
0141042010999992000042621004+77470-069220FM-12+001999999V0209999C000019999999N0280001N1-00381-01411100231ADDMA1999999099991MD1710161+9999REMSYN100AAXX  26214 04201 45/78 /0000 11038 21141 39999 40023 57016 555 60/// 71280 72500 73424 74132 75500;
0141042010999992000042700004+77470-069220FM-12+001999999V0202701N001019999999N0270001N1-00561-01201100161ADDMA1999999099921MD1710071+9999REMSYN100AAXX  27004 04201 45/77 /2702 11056 21120 39992 40016 57007 555 60/// 71278 72486 73354 74132 75500;
0162042010999992000042703004+77470-069220FM-12+001999999V0201401N003119999999N0350001N1-00721-01211100161ADDMA1999999099921MD1410001+9999OA149900771REMSYN110AAXX  27034 04201 45/81 /1406 11072 21121 39992 40016 54000 333 91115 555 63036 71394 72500 73500 74017 75500;
0206042010999992000042706004+77470-069220FM-12+001999999V0202901N001019999999N0500001N1-00881-01371100371ADDKA1120M+00051KA2120N-01091MA1999999100131MD1210211+9999OA149900771REMSYN128AAXX  27064 04201 45/84 /2902 11088 21137 30013 40037 52021 333 10005 21109 91115 91213 555 63036 71500 72500 73500 74017 75500;
0141042010999992000042709004+77470-069220FM-12+001999999V0200501N000519999999N0450001N1-00901-01331100671ADDMA1999999100421MD1210291+9999REMSYN100AAXX  27094 04201 45/83 /0501 11090 21133 30042 40067 52029 555 60/// 71470 72500 73500 74399 75500;
0141042010999992000042712004+77470-069220FM-12+001999999V0202901N001519999999N0250001N1-00571-01251100891ADDMA1999999100651MD1210231+9999REMSYN100AAXX  27124 04201 45/75 /2903 11057 21125 30065 40089 52023 555 60/// 71258 72500 73383 74258 75500;
0159042010999992000042715004+77470-069220FM-12+001999999V0202301N001519999999N0060001N1-00701-01051100941ADDMA1999999100701MD1210051+9999REMSYN118AAXX  27154 04201 4//56 /2303 11070 21105 30070 40094 52005 77174 555 61990 62990 63990 71064 72500 73122 74064 75500;
0213042010999992000042718004+77470-069220FM-12+001999999V0201301N000519999999N0013001N1-00401-00851100911ADDKA1120M-00401KA2120N-01291MA1999999100671MD1710031+9999REMSYN146AAXX  27184 04201 4//13 /1301 11040 21085 30067 40091 57003 77174 333 11040 21129 555 61001 62995 63005 64002 65036 71013 72036 73024 74880 75500;
0171042010999992000042721004+77470-069220FM-12+001999999V0209999C000019999999N0160001N1-00361-00831100821ADDMA1999999100581MD1710091+9999REMSYN130AAXX  27214 04201 4//66 /0000 11036 21083 30058 40082 57009 77177 555 61990 62990 63006 64993 65007 71165 72462 73332 74875 75500;
0147042010999992000042800004+77470-069220FM-12+001999999V0202901N000519999999N0300001N1-00631-01001100751ADDMA1999999100511MD1710071+9999REMSYN106AAXX  28004 04201 4//80 /2901 11063 21100 30051 40075 57007 70077 555 63006 71300 72500 73425 74875 75500;
0141042010999992000042803004+77470-069220FM-12+001999999V0200901N000519999999N0450001N1-00891-01171100671ADDMA1999999100421MD1710091+9999REMSYN100AAXX  28034 04201 45/83 /0901 11089 21117 30042 40067 57009 555 60/// 71497 72500 73500 74308 75500;
0183042010999992000042806004+77470-069220FM-12+001999999V0200601N002619999999N0450001N1-01091-01471100651ADDKA1120M-00131KA2120N-01301MA1999999100401MD1710021+9999REMSYN116AAXX  28064 04201 45/83 /0605 11109 21147 30040 40065 57002 333 11013 21130 555 60/// 71489 72500 73500 74308 75500;
0153042010999992000042809004+77470-069220FM-12+001999999V0201601N001519999999N0500001N1-01331-01701100751ADDMA1999999100501MD1210101+9999REMSYN112AAXX  28094 04201 45/84 /1603 11133 21170 30050 40075 52010 555 61039 62996 63039 71500 72799 73500 74472 75799;
0141042010999992000042812004+77470-069220FM-12+001999999V0202801N001519999999N0250001N1-01151-01591100951ADDMA1999999100701MD1210201+9999REMSYN100AAXX  28124 04201 45/75 /2803 11115 21159 30070 40095 52020 555 63039 71259 72500 73366 74254 75799;
0141042010999992000042815004+77470-069220FM-12+001999999V0202901N001019999999N0210001N1-00461-01161101121ADDMA1999999100881MD1210181+9999REMSYN100AAXX  28154 04201 45/71 /2902 11046 21116 30088 40112 52018 555 60/// 71216 72500 73301 74148 75500;
0183042010999992000042818004+77470-069220FM-12+001999999V0202801N002619999999N0150001N1-00561-01151101261ADDKA1120M-00441KA2120N-01511MA1999999101021MD1210141+9999REMSYN116AAXX  28184 04201 45/65 /2805 11056 21115 30102 40126 52014 333 11044 21151 555 60/// 71152 72489 73269 74148 75500;
0141042010999992000042821004+77470-069220FM-12+001999999V0202201N000519999999N0290001N1-00501-01181101281ADDMA1999999101041MD1210021+9999REMSYN100AAXX  28214 04201 45/79 /2201 11050 21118 30104 40128 52002 555 60/// 71293 72500 73409 74144 75500;
0141042010999992000042900004+77470-069220FM-12+001999999V0209999C000019999999N0300001N1-00941-01291101251ADDMA1999999101001MD1710041+9999REMSYN100AAXX  29004 04201 45/80 /0000 11094 21129 30100 40125 57004 555 60/// 71325 72500 73394 74144 75500;
0141042010999992000042903004+77470-069220FM-12+001999999V0209999C000019999999N0400001N1-01021-01071101171ADDMA1999999100921MD1710081+9999REMSYN100AAXX  29034 04201 45/82 /0000 11102 21107 30092 40117 57008 555 60/// 71430 72500 73500 74294 75500;
0183042010999992000042906004+77470-069220FM-12+001999999V0201001N005119999999N0450001N1-00831-01151101121ADDKA1120M-00311KA2120N-01121MA1999999100871MD1710051+9999REMSYN116AAXX  29064 04201 45/83 /1010 11083 21115 30087 40112 57005 333 11031 21112 555 60/// 71495 72500 73500 74294 75500;
0141042010999992000042909004+77470-069220FM-12+001999999V0200701N005119999999N0500001N1-00901-01321101171ADDMA1999999100921MD1210051+9999REMSYN100AAXX  29094 04201 45/84 /0710 11090 21132 30092 40117 52005 555 60/// 71500 72500 73500 74477 75500;
0141042010999992000042912004+77470-069220FM-12+001999999V0202801N001519999999N0240001N1-00961-01451101351ADDMA1999999101101MD1210181+9999REMSYN100AAXX  29124 04201 45/74 /2803 11096 21145 30110 40135 52018 555 60/// 71245 72500 73356 74245 75500;
0141042010999992000042915004+77470-069220FM-12+001999999V0201401N002119999999N0240001N1-00961-01421101511ADDMA1999999101261MD1210161+9999REMSYN100AAXX  29154 04201 45/74 /1404 11096 21142 30126 40151 52016 555 60/// 71248 72500 73325 74142 75500;
0183042010999992000042918004+77470-069220FM-12+001999999V0202701N001019999999N0160001N1-00711-01271101631ADDKA1120M-00461KA2120N-01231MA1999999101381MD1210121+9999REMSYN116AAXX  29184 04201 45/66 /2702 11071 21127 30138 40163 52012 333 11046 21123 555 60/// 71169 72500 73360 74142 75500;
0141042010999992000042921004+77470-069220FM-12+001999999V0202601N001519999999N0260001N1-00781-01181101801ADDMA1999999101551MD1210171+9999REMSYN100AAXX  29214 04201 45/76 /2603 11078 21118 30155 40180 52017 555 60/// 71262 72500 73332 74151 75500;
0141042010999992000043000004+77470-069220FM-12+001999999V0202901N000519999999N0260001N1-00771-01221101811ADDMA1999999101561MD1210011+9999REMSYN100AAXX  30004 04201 45/76 /2901 11077 21122 30156 40181 52001 555 60/// 71263 72500 73404 74151 75500;
0141042010999992000043003004+77470-069220FM-12+001999999V0203601N000519999999N0450001N1-01081-01371101801ADDMA1999999101551MD1710011+9999REMSYN100AAXX  30034 04201 45/83 /3601 11108 21137 30155 40180 57001 555 60/// 71463 72500 73500 74304 75500;
0189042010999992000043006004+77470-069220FM-12+001999999V0202701N001019999999N0280001N1-01391-01521101811ADDKA1120M-00451KA2120N-01661MA1999999101561MD1210011+9999REMSYN122AAXX  30064 04201 4//78 /2702 11139 21152 30156 40181 52001 71170 333 11045 21166 555 63990 71285 72500 73468 74155 75500;
0153042010999992000043009004+77470-069220FM-12+001999999V0201201N001519999999N0130001N1-01221-01391101891ADDMA1999999101641MD1210081+9999REMSYN112AAXX  30094 04201 4//63 /1203 11122 21139 30164 40189 52008 78577 555 63990 64990 71135 72500 73451 74088 75500;
0147042010999992000043012004+77470-069220FM-12+001999999V0201101N003119999999N0140001N1-00911-01151101931ADDMA1999999101681MD1210041+9999REMSYN106AAXX  30124 04201 4//64 /1106 11091 21115 30168 40193 52004 78577 555 63990 71149 72456 73262 74088 75500;
0147042010999992000043015004+77470-069220FM-12+001999999V0201101N003619999999N0210001N1-00851-01091101901ADDMA1999999101651MD1710031+9999REMSYN106AAXX  30154 04201 4//71 /1107 11085 21109 30165 40190 57003 70077 555 60/// 71217 72500 73391 74106 75500;
0189042010999992000043018004+77470-069220FM-12+001999999V0202701N001019999999N0190001N1-00761-01231101921ADDKA1120M-00271KA2120N-01531MA1999999101671MD1210021+9999REMSYN122AAXX  30184 04201 4//69 /2702 11076 21123 30167 40192 52002 70077 333 11027 21153 555 60/// 71197 72500 73398 74106 75500;
0141042010999992000043021004+77470-069220FM-12+001999999V0202501N001019999999N0180001N1-00791-01211101941ADDMA1999999101691MD1210021+9999REMSYN100AAXX  30214 04201 45/68 /2502 11079 21121 30169 40194 52002 555 60/// 71185 72500 73298 74133 75500;
0141042010999992000050100004+77470-069220FM-12+001999999V0201001N002119999999N0290001N1-01001-01181101981ADDMA1999999101731MD1210041+9999REMSYN100AAXX  01004 04201 45/79 /1004 11100 21118 30173 40198 52004 555 60/// 71291 72500 73428 74133 75500;
0141042010999992000050103004+77470-069220FM-12+001999999V0209999C000019999999N0450001N1-01241-01331101951ADDMA1999999101701MD1710031+9999REMSYN100AAXX  01034 04201 45/83 /0000 11124 21133 30170 40195 57003 555 60/// 71455 72500 73500 74162 75500;
0183042010999992000050106004+77470-069220FM-12+001999999V0209999C000019999999N0450001N1-01441-01511101991ADDKA1120M-00531KA2120N-01721MA1999999101741MD1210041+9999REMSYN116AAXX  01064 04201 45/83 /0000 11144 21151 30174 40199 52004 333 11053 21172 555 60/// 71472 72500 73500 74162 75500;
0141042010999992000050109004+77470-069220FM-12+001999999V0203201N000519999999N0400001N1-01451-01591102041ADDMA1999999101791MD1210051+9999REMSYN100AAXX  01094 04201 45/82 /3201 11145 21159 30179 40204 52005 555 63039 71441 72500 73500 74390 75500;
0141042010999992000050112004+77470-069220FM-12+001999999V0202801N000519999999N0130001N1-01191-01631102111ADDMA1999999101861MD1210071+9999REMSYN100AAXX  01124 04201 45/63 /2801 11119 21163 30186 40211 52007 555 63039 71138 72500 73283 74138 75500;
0147042010999992000050115004+77470-069220FM-12+001999999V0202701N001519999999N0120001N1-01031-01381102131ADDMA1999999101881MD1210021+9999REMSYN106AAXX  01154 04201 4//62 /2703 11103 21138 30188 40213 52002 72474 555 63990 71120 72500 73214 74097 75500;
0201042010999992000050118004+77470-069220FM-12+001999999V0201501N000519999999N0130001N1-00811-01391102131ADDKA1120M-00681KA2120N-01731MA1999999101881MD1410001+9999REMSYN134AAXX  01184 04201 4//63 /1501 11081 21139 30188 40213 54000 78574 333 11068 21173 555 61990 62990 63990 71132 72397 73227 74021 75500;
0147042010999992000050121004+77470-069220FM-12+001999999V0202501N001019999999N0230001N1-00801-01351102181ADDMA1999999101931MD1210051+9999REMSYN106AAXX  01214 04201 4//73 /2502 11080 21135 30193 40218 52005 70077 555 60/// 71231 72500 73362 74104 75500;
0147042010999992000050200004+77470-069220FM-12+001999999V0201301N001019999999N0190001N1-01021-01231102161ADDMA1999999101911MD1710021+9999REMSYN106AAXX  02004 04201 4//69 /1302 11102 21123 30191 40216 57002 70077 555 60/// 71196 72500 73410 74104 75500;
0127042010999992000050212004+77470-069220FM-12+001999999V0201001N002119999999N0240001N1-01051-01351101771ADDMA1999999101521REMSYN100AAXX  02124 04201 4//74 /1004 11105 21135 30152 40177 78577 555 63990 71242 72500 73379 74976 75500;
0159042010999992000050215004+77470-069220FM-12+001999999V0201201N001019999999N0190001N1-00991-01321101611ADDMA1999999101361MD1710161+9999REMSYN118AAXX  02154 04201 4//69 /1202 11099 21132 30136 40161 57016 70077 555 61039 62996 63039 71200 72500 73377 74154 75500;
0189042010999992000050218004+77470-069220FM-12+001999999V0202301N001019999999N0190001N1-01001-01381101431ADDKA1120M-00771KA2120N-01161MA1999999101181MD1710181+9999REMSYN122AAXX  02184 04201 4//69 /2302 11100 21138 30118 40143 57018 70077 333 11077 21116 555 63039 71190 72500 73447 74135 75500;
0141042010999992000050221004+77470-069220FM-12+001999999V0201901N000519999999N0240001N1-00931-01411101311ADDMA1999999101061MD1710121+9999REMSYN100AAXX  02214 04201 45/74 /1901 11093 21141 30106 40131 57012 555 60/// 71247 72500 73383 74130 75500;
0141042010999992000050300004+77470-069220FM-12+001999999V0201101N003619999999N0300001N1-01121-01421101221ADDMA1999999100971MD1710091+9999REMSYN100AAXX  03004 04201 45/80 /1107 11112 21142 30097 40122 57009 555 60/// 71337 72500 73496 74130 75500;
0141042010999992000050303004+77470-069220FM-12+001999999V0209999C000019999999N0400001N1-01291-01581101161ADDMA1999999100911MD1710061+9999REMSYN100AAXX  03034 04201 45/82 /0000 11129 21158 30091 40116 57006 555 60/// 71406 72500 73500 74315 75500;
0183042010999992000050306004+77470-069220FM-12+001999999V0201101N003119999999N0450001N1-01271-01561101071ADDKA1120M-00871KA2120N-01361MA1999999100821MD1710091+9999REMSYN116AAXX  03064 04201 45/83 /1106 11127 21156 30082 40107 57009 333 11087 21136 555 60/// 71460 72500 73500 74315 75500;
0141042010999992000050309004+77470-069220FM-12+001999999V0200901N000519999999N0450001N1-01201-01581101101ADDMA1999999100851MD1210031+9999REMSYN100AAXX  03094 04201 45/83 /0901 11120 21158 30085 40110 52003 555 60/// 71490 72500 73500 74445 75500;
0141042010999992000050312004+77470-069220FM-12+001999999V0202801N000519999999N0190001N1-01021-01591101131ADDMA1999999100881MD1210031+9999REMSYN100AAXX  03124 04201 45/69 /2801 11102 21159 30088 40113 52003 555 60/// 71193 72500 73384 74168 75500;
0141042010999992000050315004+77470-069220FM-12+001999999V0202901N002619999999N0160001N1-00961-01371101111ADDMA1999999100861MD1710021+9999REMSYN100AAXX  03154 04201 45/66 /2905 11096 21137 30086 40111 57002 555 60/// 71168 72500 73403 74157 75500;
0183042010999992000050318004+77470-069220FM-12+001999999V0202801N002619999999N0160001N1-00851-01351101061ADDKA1120M-00751KA2120N-01521MA1999999100811MD1710051+9999REMSYN116AAXX  03184 04201 45/66 /2805 11085 21135 30081 40106 57005 333 11075 21152 555 60/// 71168 72500 73391 74149 75500;
0141042010999992000050321004+77470-069220FM-12+001999999V0202401N000519999999N0250001N1-00871-01341101021ADDMA1999999100771MD1710041+9999REMSYN100AAXX  03214 04201 45/75 /2401 11087 21134 30077 40102 57004 555 60/// 71252 72500 73338 74135 75500;
0141042010999992000050400004+77470-069220FM-12+001999999V0201101N001519999999N0350001N1-00961-01371100971ADDMA1999999100721MD1710051+9999REMSYN100AAXX  04004 04201 45/81 /1103 11096 21137 30072 40097 57005 555 60/// 71386 72500 73475 74135 75500;
0141042010999992000050403004+77470-069220FM-12+001999999V0202901N001019999999N0450001N1-01241-01541101011ADDMA1999999100761MD1210041+9999REMSYN100AAXX  04034 04201 45/83 /2902 11124 21154 30076 40101 52004 555 60/// 71496 72500 73500 74260 75500;
0183042010999992000050406004+77470-069220FM-12+001999999V0209999C000019999999N0450001N1-01081-01461101121ADDKA1120M-00741KA2120N-01271MA1999999100871MD1210111+9999REMSYN116AAXX  04064 04201 45/83 /0000 11108 21146 30087 40112 52011 333 11074 21127 555 60/// 71482 72500 73500 74260 75500;
0141042010999992000050412004+77470-069220FM-12+001999999V0202601N000519999999N0270001N1-01221-01661101531ADDMA1999999101281MD1210191+9999REMSYN100AAXX  04124 04201 45/77 /2601 11122 21166 30128 40153 52019 555 60/// 71279 72500 73382 74201 75500;
0141042010999992000050415004+77470-069220FM-12+001999999V0201201N000519999999N0130001N1-00921-01451101601ADDMA1999999101351MD1210071+9999REMSYN100AAXX  04154 04201 45/63 /1201 11092 21145 30135 40160 52007 555 60/// 71136 72500 73265 74136 75500;
0183042010999992000050418004+77470-069220FM-12+001999999V0202501N001519999999N0190001N1-00901-01421101631ADDKA1120M-00471KA2120N-01441MA1999999101381MD1210031+9999REMSYN116AAXX  04184 04201 45/69 /2503 11090 21142 30138 40163 52003 333 11047 21144 555 60/// 71200 72500 73294 74136 75500;
0147042010999992000050421004+77470-069220FM-12+001999999V0202701N001519999999N0070001N1-00791-01241101621ADDMA1999999101371MD1710011+9999REMSYN106AAXX  04214 04201 4//57 /2703 11079 21124 30137 40162 57001 70010 555 60/// 71078 72500 73191 74041 75500;
0147042010999992000050500004+77470-069220FM-12+001999999V0202901N002119999999N0150001N1-00941-01291101531ADDMA1999999101281MD1710091+9999REMSYN106AAXX  05004 04201 4//65 /2904 11094 21129 30128 40153 57009 70010 555 63039 71155 72384 73247 74041 75500;
0147042010999992000050503004+77470-069220FM-12+001999999V0209999C000019999999N0300001N1-01041-01261101401ADDMA1999999101151MD1710131+9999REMSYN106AAXX  05034 04201 4//80 /0000 11104 21126 30115 40140 57013 70010 555 60/// 71340 72487 73408 74045 75500;
0189042010999992000050506004+77470-069220FM-12+001999999V0209999C000019999999N0250001N1-01421-01621101241ADDKA1120M-00581KA2120N-01421MA1999999100991MD1710161+9999REMSYN122AAXX  05064 04201 4//75 /0000 11142 21162 30099 40124 57016 70010 333 11058 21142 555 60/// 71260 72500 73340 74045 75500;
0141042010999992000050509004+77470-069220FM-12+001999999V0202601N000519999999N0350001N1-01241-01481101031ADDMA1999999100781MD1710211+9999REMSYN100AAXX  05094 04201 45/81 /2601 11124 21148 30078 40103 57021 555 60/// 71373 72500 73500 74157 75500;
0141042010999992000050512004+77470-069220FM-12+001999999V0203001N000519999999N0180001N1-00721-01381100881ADDMA1999999100641MD1710141+9999REMSYN100AAXX  05124 04201 45/68 /3001 11072 21138 30064 40088 57014 555 60/// 71182 72497 73301 74157 75500;
0141042010999992000050515004+77470-069220FM-12+001999999V0203101N000519999999N0140001N1-00721-01371100711ADDMA1999999100471MD1710171+9999REMSYN100AAXX  05154 04201 45/64 /3101 11072 21137 30047 40071 57017 555 60/// 71146 72500 73293 74111 75500;
0183042010999992000050518004+77470-069220FM-12+001999999V0201201N001519999999N0220001N1-00831-01441100531ADDKA1120M-00461KA2120N-01501MA1999999100291MD1710181+9999REMSYN116AAXX  05184 04201 45/72 /1203 11083 21144 30029 40053 57018 333 11046 21150 555 60/// 71221 72500 73410 74095 75500;
0141042010999992000050521004+77470-069220FM-12+001999999V0201101N003619999999N0250001N1-00831-01211100471ADDMA1999999100231MD1710061+9999REMSYN100AAXX  05214 04201 45/75 /1107 11083 21121 30023 40047 57006 555 60/// 71256 72500 73426 74149 75500;
0151042010999992000050600004+77470-069220FM-12+001999999V0202901N000519999999N0190001N1-00701-01231100471ADDMA1999999100231MD1410001+9999REMSYN110AAXX  06004 04201 45/69 /2901 11070 21123 30023 40047 54000 333 91212 555 60/// 71200 72500 73365 74149 75500;
0141042010999992000050603004+77470-069220FM-12+001999999V0200801N000519999999N0450001N1-00901-01371100451ADDMA1999999100201MD1710031+9999REMSYN100AAXX  06034 04201 45/83 /0801 11090 21137 30020 40045 57003 555 60/// 71484 72500 73500 74237 75500;
0183042010999992000050606004+77470-069220FM-12+001999999V0209999C000019999999N0400001N1-01181-01701100421ADDKA1120M-00571KA2120N-01181MA1999999100171MD1710031+9999REMSYN116AAXX  06064 04201 45/82 /0000 11118 21170 30017 40042 57003 333 11057 21118 555 60/// 71444 72500 73500 74237 75500;
0141042010999992000050609004+77470-069220FM-12+001999999V0209999C000019999999N0450001N1-01091-01521100481ADDMA1999999100231MD1210061+9999REMSYN100AAXX  06094 04201 45/83 /0000 11109 21152 30023 40048 52006 555 60/// 71453 72500 73500 74368 75500;
0141042010999992000050612004+77470-069220FM-12+001999999V0202601N000519999999N0240001N1-00951-01621100521ADDMA1999999100271MD1210041+9999REMSYN100AAXX  06124 04201 45/74 /2601 11095 21162 30027 40052 52004 555 60/// 71247 72500 73341 74211 75500;
0141042010999992000050615004+77470-069220FM-12+001999999V0202301N001019999999N0190001N1-01011-01551100571ADDMA1999999100321MD1210051+9999REMSYN100AAXX  06154 04201 45/69 /2302 11101 21155 30032 40057 52005 555 60/// 71194 72500 73326 74153 75500;
0183042010999992000050618004+77470-069220FM-12+001999999V0202301N000519999999N0180001N1-00321-01221100611ADDKA1120M-00271KA2120N-01521MA1999999100371MD1210051+9999REMSYN116AAXX  06184 04201 45/68 /2301 11032 21122 30037 40061 52005 333 11027 21152 555 60/// 71186 72500 73309 74115 75500;
0141042010999992000050621004+77470-069220FM-12+001999999V0201201N002119999999N0180001N1-00641-01031100711ADDMA1999999100471MD1210101+9999REMSYN100AAXX  06214 04201 45/68 /1204 11064 21103 30047 40071 52010 555 60/// 71185 72500 73328 74153 75500;
0123042010999992000050700004+77470-069220FM-12+001999999V0201101N003119999999N9999999N1-00841-01081100781ADDMA1999999100531MD1210061+9999REMSYN082AAXX  07004 04201 45/// /1106 11084 21108 30053 40078 52006 555 73409 74153 75500;
0141042010999992000050703004+77470-069220FM-12+001999999V0201001N002619999999N0450001N1-00911-01241100791ADDMA1999999100541MD1210011+9999REMSYN100AAXX  07034 04201 45/83 /1005 11091 21124 30054 40079 52001 555 60/// 71466 72500 73500 74900 75500;
0183042010999992000050706004+77470-069220FM-12+001999999V0203201N001019999999N0450001N1-01031-01331100791ADDKA1120M-00291KA2120N-01381MA1999999100541MD1410001+9999REMSYN116AAXX  07064 04201 45/83 /3202 11103 21133 30054 40079 54000 333 11029 21138 555 60/// 71475 72500 73500 74900 75500;
0165042010999992000050709004+77470-069220FM-12+001999999V0201001N000519999999N0060001N1-01071-01351100781ADDMA1999999100531MD1710011+9999REMSYN124AAXX  07094 04201 4//56 /1001 11107 21135 30053 40078 57001 78570 555 61990 62990 63990 64990 71067 72251 73100 74067 75500;
0159042010999992000050712004+77470-069220FM-12+001999999V0201101N003119999999N0350001N1-00841-01271100791ADDMA1999999100541MD1210011+9999REMSYN118AAXX  07124 04201 4//81 /1106 11084 21127 30054 40079 52001 72470 555 63993 64990 65001 71353 72500 73494 74028 75500;
0141042010999992000050715004+77470-069220FM-12+001999999V0201601N000519999999N0180001N1-00451-01201100741ADDMA1999999100501MD1710041+9999REMSYN100AAXX  07154 04201 45/68 /1601 11045 21120 30050 40074 57004 555 60/// 71185 72500 73329 74180 75500;
0183042010999992000050718004+77470-069220FM-12+001999999V0202401N002119999999N0240001N1-00771-01231100731ADDKA1120M-00251KA2120N-01221MA1999999100491MD1710011+9999REMSYN116AAXX  07184 04201 45/74 /2404 11077 21123 30049 40073 57001 333 11025 21122 555 60/// 71241 72500 73385 74937 75500;
0165042010999992000050721004+77470-069220FM-12+001999999V0202001N001019999999N0160001N1-00731-01111100701ADDMA1999999100461MD1710031+9999REMSYN124AAXX  07214 04201 4//66 /2002 11073 21111 30046 40070 57003 78040 555 61990 62990 63990 64990 71164 72429 73263 74086 75500;
0165042010999992000050800004+77470-069220FM-12+001999999V0209999C000019999999N0180001N1-00761-01151100621ADDMA1999999100381MD1710081+9999REMSYN124AAXX  08004 04201 4//68 /0000 11076 21115 30038 40062 57008 74174 555 61990 62990 63996 64990 71186 72500 73347 74024 75500;
0171042010999992000050803004+77470-069220FM-12+001999999V0209999C000019999999N0024001N1-00891-01021100521ADDMA1999999100271MD1710111+9999REMSYN130AAXX  08034 04201 4//24 /0000 11089 21102 30027 40052 57011 76777 555 61990 62990 63994 64992 65001 71024 72052 73033 74018 75382;
0213042010999992000050806004+77470-069220FM-12+001999999V0201001N002619999999N0017001N1-00931-01011100401ADDKA1120M-00481KA2120N-00961MA1999999100151MD1710121+9999REMSYN146AAXX  08064 04201 4//17 /1005 11093 21101 30015 40040 57012 77177 333 11048 21096 555 61993 62992 63003 64001 65025 71017 72028 73019 74861 75382;
0171042010999992000050809004+77470-069220FM-12+001999999V0209999C000019999999N0029001N1-00851-01031100341ADDMA1999999100101MD1710051+9999REMSYN130AAXX  08094 04201 4//29 /0000 11085 21103 30010 40034 57005 76477 555 61990 62990 63994 64992 65001 71029 72066 73040 74016 75117;
0159042010999992000050812004+77470-069220FM-12+001999999V0200801N001519999999N0050001N1-00771-01091100381ADDMA1999999100141MD1210041+9999REMSYN118AAXX  08124 04201 4//50 /0803 11077 21109 30014 40038 52004 75477 555 63994 64990 65001 71052 72111 73071 74972 75396;
0147042010999992000050815004+77470-069220FM-12+001999999V0201101N004619999999N0080001N1-00751-00981100431ADDMA1999999100191MD1210051+9999REMSYN106AAXX  08154 04201 4//58 /1109 11075 21098 30019 40043 52005 70055 555 63990 71088 72455 73191 74080 75500;
0189042010999992000050818004+77470-069220FM-12+001999999V0201101N005119999999N0070001N1-00781-01031100521ADDKA1120M-00641KA2120N-01021MA1999999100281MD1210091+9999REMSYN122AAXX  08184 04201 4//57 /1110 11078 21103 30028 40052 52009 70055 333 11064 21102 555 63990 71072 72286 73150 74050 75500;
0147042010999992000050821004+77470-069220FM-12+001999999V0201001N004619999999N0031001N1-00721-00921100641ADDMA1999999100401MD1210121+9999REMSYN106AAXX  08214 04201 4//31 /1009 11072 21092 30040 40064 52012 71010 555 60/// 71031 72055 73038 74030 75343;
0147042010999992000050900004+77470-069220FM-12+001999999V0200901N005119999999N0160001N1-00731-00941100771ADDMA1999999100531MD1210131+9999REMSYN106AAXX  09004 04201 4//66 /0910 11073 21094 30053 40077 52013 70071 555 63990 71170 72435 73282 74030 75443;
0141042010999992000050903004+77470-069220FM-12+001999999V0200801N004619999999N0350001N1-00801-01061100901ADDMA1999999100651MD1210121+9999REMSYN100AAXX  09034 04201 45/81 /0809 11080 21106 30065 40090 52012 555 60/// 71374 72500 73469 74138 75500;
0207042010999992000050906004+77470-069220FM-12+001999999V0200801N005119999999N0047001N1-00861-01091101021ADDKA1120M-00691KA2120N-00891MA1999999100771MD1210121+9999REMSYN140AAXX  09064 04201 4//47 /0810 11086 21109 30077 40102 52012 77770 333 11069 21089 555 61990 62990 63990 64990 71047 72422 73092 74906 75500;
0165042010999992000050909004+77470-069220FM-12+001999999V0200901N006719999999N0090001N1-00901-01151101131ADDMA1999999100881MD1210111+9999REMSYN124AAXX  09094 04201 4//59 /0913 11090 21115 30088 40113 52011 71177 555 61990 62990 63991 64990 71093 72308 73212 74036 75500;
0153042010999992000050912004+77470-069220FM-12+001999999V0200901N008219999999N0100001N1-00891-01201101201ADDMA1999999100951MD1210071+9999REMSYN112AAXX  09124 04201 4//60 /0916 11089 21120 30095 40120 52007 70077 555 63991 64990 71107 72446 73211 74036 75500;
0141042010999992000050915004+77470-069220FM-12+001999999V0201001N006719999999N0060001N1-00841-01141101291ADDMA1999999101041MD1210091+9999REMSYN100AAXX  09154 04201 45/56 /1013 11084 21114 30104 40129 52009 555 60/// 71068 72225 73098 74043 75500;
0189042010999992000050918004+77470-069220FM-12+001999999V0201101N005119999999N0060001N1-00761-01161101381ADDKA1120M-00691KA2120N-01051MA1999999101131MD1210091+9999REMSYN122AAXX  09184 04201 4//56 /1110 11076 21116 30113 40138 52009 70010 333 11069 21105 555 60/// 71067 72421 73183 74040 75500;
0141042010999992000050921004+77470-069220FM-12+001999999V0201001N004119999999N0290001N1-00861-01161101491ADDMA1999999101241MD1210111+9999REMSYN100AAXX  09214 04201 45/79 /1008 11086 21116 30124 40149 52011 555 60/// 71294 72500 73391 74082 75500;
0175042010999992000051000004+77470-069220FM-12+001999999V0203001N001019999999N0050001N1-00841-01111101651ADDMA1999999101401MD1210161+9999REMSYN134AAXX  10004 04201 4//50 /3002 11084 21111 30140 40165 52016 76475 333 91212 555 61990 62990 63990 64990 71060 72163 73095 74033 75500;
0153042010999992000051003004+77470-069220FM-12+001999999V0209999C000019999999N0260001N1-00991-01311101721ADDMA1999999101471MD1210071+9999REMSYN112AAXX  10034 04201 4//76 /0000 11099 21131 30147 40172 52007 70077 555 63990 64990 71261 72460 73338 74044 75500;
0189042010999992000051006004+77470-069220FM-12+001999999V0200101N001019999999N0150001N1-01011-01201101841ADDKA1120M-00661KA2120N-01131MA1999999101591MD1210121+9999REMSYN122AAXX  10064 04201 4//65 /0102 11101 21120 30159 40184 52012 77777 333 11066 21113 555 63990 71159 72291 73227 74044 75500;
0165042010999992000051009004+77470-069220FM-12+001999999V0202501N000519999999N0060001N1-00971-01191102001ADDMA1999999101751MD1210161+9999REMSYN124AAXX  10094 04201 4//56 /2501 11097 21119 30175 40200 52016 75477 555 61990 62990 63990 64990 71063 72110 73092 74816 75344;
0159042010999992000051012004+77470-069220FM-12+001999999V0203001N000519999999N0170001N1-00911-01191102171ADDMA1999999101921MD1210171+9999REMSYN118AAXX  10124 04201 4//67 /3001 11091 21119 30192 40217 52017 70077 555 63996 64990 65001 71174 72500 73311 74816 75500;
0141042010999992000051015004+77470-069220FM-12+001999999V0202401N001519999999N0170001N1-00941-01361102271ADDMA1999999102021MD1210101+9999REMSYN100AAXX  10154 04201 45/67 /2403 11094 21136 30202 40227 52010 555 63041 71175 72500 73370 74116 75500;
0183042010999992000051018004+77470-069220FM-12+001999999V0202501N001019999999N0150001N1-00801-01311102331ADDKA1120M-00481KA2120N-01111MA1999999102081MD1210061+9999REMSYN116AAXX  10184 04201 45/65 /2502 11080 21131 30208 40233 52006 333 11048 21111 555 63041 71155 72500 73294 74116 75500;
0141042010999992000051021004+77470-069220FM-12+001999999V0202701N001519999999N0230001N1-00831-01401102361ADDMA1999999102111MD1210031+9999REMSYN100AAXX  10214 04201 45/73 /2703 11083 21140 30211 40236 52003 555 60/// 71238 72500 73359 74138 75500;
0141042010999992000051100004+77470-069220FM-12+001999999V0202901N001019999999N0180001N1-00991-01491102341ADDMA1999999102091MD1710021+9999REMSYN100AAXX  11004 04201 45/68 /2902 11099 21149 30209 40234 57002 555 60/// 71184 72400 73270 74138 75500;
0141042010999992000051103004+77470-069220FM-12+001999999V0202601N001019999999N0400001N1-01231-01531102271ADDMA1999999102021MD1710071+9999REMSYN100AAXX  11034 04201 45/82 /2602 11123 21153 30202 40227 57007 555 60/// 71415 72500 73486 74178 75500;
0183042010999992000051106004+77470-069220FM-12+001999999V0200801N004619999999N0450001N1-01101-01601102071ADDKA1120M-00521KA2120N-01391MA1999999101821MD1710201+9999REMSYN116AAXX  11064 04201 45/83 /0809 11110 21160 30182 40207 57020 333 11052 21139 555 60/// 71453 72500 73500 74178 75500;
0141042010999992000051109004+77470-069220FM-12+001999999V0200301N000519999999N0350001N1-01061-01681101881ADDMA1999999101631MD1710191+9999REMSYN100AAXX  11094 04201 45/81 /0301 11106 21168 30163 40188 57019 555 60/// 71391 72500 73500 74374 75500;
0141042010999992000051115004+77470-069220FM-12+001999999V0202901N001019999999N0160001N1-00871-01571101521ADDMA1999999101271MD1710151+9999REMSYN100AAXX  11154 04201 45/66 /2902 11087 21157 30127 40152 57015 555 60/// 71163 72500 73301 74122 75500;
0141042010999992000051121004+77470-069220FM-12+001999999V0201001N003119999999N0240001N1-00801-01621101571ADDMA1999999101321MD1210081+9999REMSYN100AAXX  11214 04201 45/74 /1006 11080 21162 30132 40157 52008 555 60/// 71247 72500 73359 74170 75500;
0141042010999992000051200004+77470-069220FM-12+001999999V0202701N001019999999N0180001N1-00761-01421101721ADDMA1999999101471MD1210151+9999REMSYN100AAXX  12004 04201 45/68 /2702 11076 21142 30147 40172 52015 555 60/// 71185 72489 73310 74170 75500;
0141042010999992000051203004+77470-069220FM-12+001999999V0202801N000519999999N0300001N1-01011-01561101851ADDMA1999999101601MD1210131+9999REMSYN100AAXX  12034 04201 45/80 /2801 11101 21156 30160 40185 52013 555 60/// 71345 72500 73453 74210 75500;
0183042010999992000051206004+77470-069220FM-12+001999999V0202801N000519999999N0300001N1-01001-01491101881ADDKA1120M-00531KA2120N-01191MA1999999101631MD1210031+9999REMSYN116AAXX  12064 04201 45/80 /2801 11100 21149 30163 40188 52003 333 11053 21119 555 60/// 71304 72500 73441 74210 75500;
0141042010999992000051209004+77470-069220FM-12+001999999V0202901N001019999999N0350001N1-00911-01561101861ADDMA1999999101611MD1710021+9999REMSYN100AAXX  12094 04201 45/81 /2902 11091 21156 30161 40186 57002 555 60/// 71366 72500 73420 74246 75500;
0183042010999992000051218004+77470-069220FM-12+001999999V0201201N001519999999N0180001N1-00621-01381101951ADDKA1120M-00361KA2120N-01101MA1999999101701MD1210071+9999REMSYN116AAXX  12184 04201 45/68 /1203 11062 21138 30170 40195 52007 333 11036 21110 555 63041 71189 72473 73322 74149 75500;
0141042010999992000051221004+77470-069220FM-12+001999999V0201201N004119999999N0270001N1-00671-01311102071ADDMA1999999101821MD1210121+9999REMSYN100AAXX  12214 04201 45/77 /1208 11067 21131 30182 40207 52012 555 60/// 71275 72500 73405 74159 75500;
0141042010999992000051300004+77470-069220FM-12+001999999V0201101N000519999999N0230001N1-00591-01451102171ADDMA1999999101921MD1210101+9999REMSYN100AAXX  13004 04201 45/73 /1101 11059 21145 30192 40217 52010 555 60/// 71236 72500 73365 74159 75500;
0141042010999992000051303004+77470-069220FM-12+001999999V0201201N001019999999N0270001N1-00901-01491102211ADDMA1999999101961MD1210041+9999REMSYN100AAXX  13034 04201 45/77 /1202 11090 21149 30196 40221 52004 555 60/// 71274 72500 73500 74177 75500;
0183042010999992000051306004+77470-069220FM-12+001999999V0209999C000019999999N0350001N1-00901-01381102241ADDKA1120M-00361KA2120N-01161MA1999999101991MD1210031+9999REMSYN116AAXX  13064 04201 45/81 /0000 11090 21138 30199 40224 52003 333 11036 21116 555 60/// 71399 72500 73500 74177 75500;
0141042010999992000051309004+77470-069220FM-12+001999999V0201401N000519999999N0300001N1-00841-01401102271ADDMA1999999102021MD1210031+9999REMSYN100AAXX  13094 04201 45/80 /1401 11084 21140 30202 40227 52003 555 60/// 71320 72500 73500 74320 75500;
0141042010999992000051312004+77470-069220FM-12+001999999V0209999C000019999999N0270001N1-00211-01081102301ADDMA1999999102061MD1210041+9999REMSYN100AAXX  13124 04201 45/77 /0000 11021 21108 30206 40230 52004 555 60/// 71279 72500 73381 74209 75500;
0141042010999992000051315004+77470-069220FM-12+001999999V0201601N000519999999N0180001N1-00371-01121102301ADDMA1999999102061MD1410001+9999REMSYN100AAXX  13154 04201 45/68 /1601 11037 21112 30206 40230 54000 555 60/// 71189 72500 73388 74160 75500;
0183042010999992000051318004+77470-069220FM-12+001999999V0201101N004119999999N0220001N1-00451-01111102331ADDKA1120M+00311KA2120N-01091MA1999999102081MD1210021+9999REMSYN116AAXX  13184 04201 45/72 /1108 11045 21111 30208 40233 52002 333 10031 21109 555 60/// 71223 72500 73365 74158 75500;
0123042010999992000051321004+77470-069220FM-12+001999999V0202101N000519999999N9999999N1-00471-01071102351ADDMA1999999102101MD1210021+9999REMSYN082AAXX  13214 04201 45/// /2101 11047 21107 30210 40235 52002 555 73329 74172 75500;
0141042010999992000051400004+77470-069220FM-12+001999999V0201101N003619999999N0350001N1-00411-01041102331ADDMA1999999102081MD1710021+9999REMSYN100AAXX  14004 04201 45/81 /1107 11041 21104 30208 40233 57002 555 60/// 71383 72500 73500 74172 75500;
0141042010999992000051403004+77470-069220FM-12+001999999V0202901N000519999999N0300001N1-00461-00941102241ADDMA1999999101991MD1710091+9999REMSYN100AAXX  14034 04201 45/80 /2901 11046 21094 30199 40224 57009 555 60/// 71324 72500 73451 74282 75500;
0183042010999992000051406004+77470-069220FM-12+001999999V0201001N005119999999N0400001N1-00611-01081102111ADDKA1120M-00241KA2120N-00791MA1999999101861MD1710131+9999REMSYN116AAXX  14064 04201 45/82 /1010 11061 21108 30186 40211 57013 333 11024 21079 555 63041 71419 72500 73495 74282 75500;
0141042010999992000051409004+77470-069220FM-12+001999999V0200801N003619999999N0300001N1-00641-01131101981ADDMA1999999101731MD1710131+9999REMSYN100AAXX  14094 04201 45/80 /0807 11064 21113 30173 40198 57013 555 60/// 71324 72500 73489 74271 75500;
0141042010999992000051412004+77470-069220FM-12+001999999V0201101N004619999999N0350001N1-00571-01111101861ADDMA1999999101611MD1710121+9999REMSYN100AAXX  14124 04201 45/81 /1109 11057 21111 30161 40186 57012 555 60/// 71362 72500 73444 74269 75500;
0141042010999992000051415004+77470-069220FM-12+001999999V0201101N003119999999N0250001N1-00371-01041101781ADDMA1999999101541MD1710071+9999REMSYN100AAXX  14154 04201 45/75 /1106 11037 21104 30154 40178 57007 555 60/// 71257 72500 73395 74159 75500;
0183042010999992000051418004+77470-069220FM-12+001999999V0202301N001019999999N0220001N1-00381-01071101781ADDKA1120M-00311KA2120N-00871MA1999999101541MD1410001+9999REMSYN116AAXX  14184 04201 45/72 /2302 11038 21107 30154 40178 54000 333 11031 21087 555 60/// 71228 72500 73330 74159 75500;
0141042010999992000051421004+77470-069220FM-12+001999999V0201101N003619999999N0300001N1-00431-01131101851ADDMA1999999101611MD1210071+9999REMSYN100AAXX  14214 04201 45/80 /1107 11043 21113 30161 40185 52007 555 60/// 71303 72500 73485 74144 75500;
0159042010999992000051500004+77470-069220FM-12+001999999V0201001N005719999999N0080001N1-00441-00911101961ADDMA1999999101721MD1210111+9999REMSYN118AAXX  15004 04201 4//58 /1011 11044 21091 30172 40196 52011 78574 555 61990 62990 63990 71080 72186 73124 74073 75500;
0171042010999992000051503004+77470-069220FM-12+001999999V0201201N005719999999N0130001N1-00451-00891102071ADDMA1999999101831MD1210111+9999REMSYN130AAXX  15034 04201 4//63 /1211 11045 21089 30183 40207 52011 77777 555 61990 62990 63990 64990 65001 71131 72242 73177 74043 75500;
0189042010999992000051506004+77470-069220FM-12+001999999V0201101N005719999999N0400001N1-00461-00891102131ADDKA1120M-00281KA2120N-00531MA1999999101881MD1210051+9999REMSYN122AAXX  15064 04201 4//82 /1111 11046 21089 30188 40213 52005 70077 333 11028 21053 555 63990 71419 72500 73500 74043 75500;
0141042010999992000051509004+77470-069220FM-12+001999999V0201001N006719999999N0150001N1-00561-00851102211ADDMA1999999101961MD1210081+9999REMSYN100AAXX  15094 04201 45/65 /1013 11056 21085 30196 40221 52008 555 60/// 71155 72340 73214 74155 75500;
0121042010999992000051603004+77470-069220FM-12+001999999V0200901N001519999999N0400001N1-00641-01221102241ADDMA1999999101991REMSYN094AAXX  16034 04201 45/82 /0903 11064 21122 30199 40224 555 60/// 71427 72500 73500 74266 75500;
0121042010999992000051700004+77470-069220FM-12+001999999V0209999C000019999999N0280001N1-00341-00971102331ADDMA1999999102091REMSYN094AAXX  17004 04201 45/78 /0000 11034 21097 30209 40233 555 60/// 71281 72500 73409 74281 75500;
0141042010999992000051703004+77470-069220FM-12+001999999V0209999C000019999999N0280001N1-00721-01161102341ADDMA1999999102091MD1410001+9999REMSYN100AAXX  17034 04201 45/78 /0000 11072 21116 30209 40234 54000 555 60/// 71282 72500 73477 74216 75500;
0183042010999992000051706004+77470-069220FM-12+001999999V0203301N001019999999N0400001N1-00681-01101102331ADDKA1120M-00271KA2120N-01101MA1999999102081MD1710011+9999REMSYN116AAXX  17064 04201 45/82 /3302 11068 21110 30208 40233 57001 333 11027 21110 555 60/// 71420 72500 73500 74216 75500;
0141042010999992000051709004+77470-069220FM-12+001999999V0202901N000519999999N0350001N1-00671-01081102331ADDMA1999999102081MD1410001+9999REMSYN100AAXX  17094 04201 45/81 /2901 11067 21108 30208 40233 54000 555 60/// 71397 72500 73500 74368 75500;
0141042010999992000051712004+77470-069220FM-12+001999999V0202501N001019999999N0200001N1-00641-01221102311ADDMA1999999102061MD1710021+9999REMSYN100AAXX  17124 04201 45/70 /2502 11064 21122 30206 40231 57002 555 60/// 71207 72500 73336 74187 75500;
0141042010999992000051715004+77470-069220FM-12+001999999V0202501N001019999999N0190001N1-00461-01071102311ADDMA1999999102061MD1410001+9999REMSYN100AAXX  17154 04201 45/69 /2502 11046 21107 30206 40231 54000 555 63041 71193 72493 73316 74134 75500;
0183042010999992000051718004+77470-069220FM-12+001999999V0202701N001519999999N0230001N1-00321-00851102251ADDKA1120M-00011KA2120N-01161MA1999999102011MD1710051+9999REMSYN116AAXX  17184 04201 45/73 /2703 11032 21085 30201 40225 57005 333 11001 21116 555 63041 71232 72500 73319 74134 75500;
0141042010999992000051721004+77470-069220FM-12+001999999V0203001N002119999999N0160001N1-00191-00791102171ADDMA1999999101931MD1710081+9999REMSYN100AAXX  17214 04201 45/66 /3004 11019 21079 30193 40217 57008 555 60/// 71168 72500 73358 74154 75500;
0141042010999992000051800004+77470-069220FM-12+001999999V0202701N001019999999N0260001N1-00341-00801102121ADDMA1999999101881MD1710051+9999REMSYN100AAXX  18004 04201 45/76 /2702 11034 21080 30188 40212 57005 555 60/// 71262 72500 73412 74154 75500;
0183042010999992000051806004+77470-069220FM-12+001999999V0203001N002619999999N0400001N1-00561-00901101861ADDKA1120M-00131KA2120N-00821MA1999999101611MD1710171+9999REMSYN116AAXX  18064 04201 45/82 /3005 11056 21090 30161 40186 57017 333 11013 21082 555 60/// 71406 72500 73493 74165 75500;
0141042010999992000051809004+77470-069220FM-12+001999999V0202901N002619999999N0290001N1-00671-01061101751ADDMA1999999101501MD1710111+9999REMSYN100AAXX  18094 04201 45/79 /2905 11067 21106 30150 40175 57011 555 60/// 71295 72500 73444 74295 75500;
0141042010999992000051812004+77470-069220FM-12+001999999V0203001N001519999999N0230001N1-00091-00841101611ADDMA1999999101371MD1710131+9999REMSYN100AAXX  18124 04201 45/73 /3003 11009 21084 30137 40161 57013 555 60/// 71238 72500 73380 74129 75500;
0141042010999992000051815004+77470-069220FM-12+001999999V0202501N000519999999N0190001N1+00201-00661101421ADDMA1999999101181MD1710191+9999REMSYN100AAXX  18154 04201 45/69 /2501 10020 21066 30118 40142 57019 555 60/// 71196 72500 73372 74123 75500;
0183042010999992000051818004+77470-069220FM-12+001999999V0202901N003619999999N0150001N1+00331-00731101141ADDKA1120M+00401KA2120N-00721MA1999999100901MD1710281+9999REMSYN116AAXX  18184 04201 45/65 /2907 10033 21073 30090 40114 57028 333 10040 21072 555 60/// 71151 72500 73259 74969 75500;
0141042010999992000051821004+77470-069220FM-12+001999999V0202801N002119999999N0190001N1+00231-00511100911ADDMA1999999100671MD1710231+9999REMSYN100AAXX  18214 04201 45/69 /2804 10023 21051 30067 40091 57023 555 60/// 71191 72500 73297 74140 75500;
0141042010999992000051900004+77470-069220FM-12+001999999V0201201N001019999999N0270001N1-00051-00711100681ADDMA1999999100441MD1710231+9999REMSYN100AAXX  19004 04201 45/77 /1202 11005 21071 30044 40068 57023 555 63041 71278 72500 73397 74134 75500;
0141042010999992000051903004+77470-069220FM-12+001999999V0201001N002619999999N0290001N1+00051-00651100391ADDMA1999999100151MD1710291+9999REMSYN100AAXX  19034 04201 45/79 /1005 10005 21065 30015 40039 57029 555 60/// 71297 72500 73407 74211 75500;
0200042010999992000051906004+77470-069220FM-12+001999999V0200901N004619999999N0400001N1-00171-00851100141ADDKA1120M+00371KA2120N-00371MA1999999099901MD1710251+9999OA149900821REMSYN122AAXX  19064 04201 45/82 /0909 11017 21085 39990 40014 57025 333 10037 21037 91116 555 60/// 71443 72500 73500 74211 75500;
0168042010999992000051909004+77470-069220FM-12+001999999V0200201N001519999999N0290001N1+00011-00831099861ADDMA1999999099621MD1710281+9999OA149900881REMSYN116AAXX  19094 04201 45/79 /0203 10001 21083 39962 49986 57028 333 91117 91214 555 60/// 71299 72500 73357 74299 75500;
0181042010999992000051912004+77470-069220FM-12+001999999V0201001N010319999999N0280001N1+00131-00711099771ADDMA1999999099541MD1710081+9999OA149999999REMSYN110AAXX  19124 04201 45/78 /1020 10013 21071 39954 49977 57008 333 91117 555 60/// 71281 72500 73399 74181 75500;EQDQ01  00882WGOSPD
0141042010999992000051915004+77470-069220FM-12+001999999V0201201N006719999999N0200001N1+00201-00561099861ADDMA1999999099631MD1210091+9999REMSYN100AAXX  19154 04201 45/70 /1213 10020 21056 39963 49986 52009 555 60/// 71204 72500 73418 74158 75500;
0189042010999992000051918004+77470-069220FM-12+001999999V0201001N004619999999N0180001N1+00281-00621099971ADDKA1120M+00341KA2120N-00241MA1999999099741MD1210111+9999REMSYN122AAXX  19184 04201 45/68 /1009 10028 21062 39974 49997 52011 333 10034 21024 91220 555 60/// 71183 72500 73329 74146 75500;
0141042010999992000051921004+77470-069220FM-12+001999999V0202801N003119999999N0160001N1+00151-00451100061ADDMA1999999099831MD1210091+9999REMSYN100AAXX  19214 04201 45/66 /2806 10015 21045 39983 40006 52009 555 60/// 71167 72500 73269 74137 75500;
0141042010999992000052000004+77470-069220FM-12+001999999V0202701N003119999999N0190001N1-00151-00441100071ADDMA1999999099831MD1410001+9999REMSYN100AAXX  20004 04201 45/69 /2706 11015 21044 39983 40007 54000 555 60/// 71198 72498 73274 74125 75500;
0141042010999992000052003004+77470-069220FM-12+001999999V0202801N002119999999N0140001N1-00301-00471100011ADDMA1999999099771MD1710061+9999REMSYN100AAXX  20034 04201 45/64 /2804 11030 21047 39977 40001 57006 555 60/// 71143 72272 73178 74053 75465;
0189042010999992000052006004+77470-069220FM-12+001999999V0202701N001019999999N0003001N1-00661-00661099921ADDKA1120M+00341KA2120N-00661MA1999999099681MD1710091+9999REMSYN122AAXX  20064 04201 4//03 /2702 11066 21066 39968 49992 57009 72031 333 10034 21066 555 60/// 71831 72057 73016 74831 75465;
0147042010999992000052009004+77470-069220FM-12+001999999V0202901N002119999999N0006001N1-00451-00451099861ADDMA1999999099621MD1710061+9999REMSYN106AAXX  20094 04201 4//06 /2904 11045 21045 39962 49986 57006 73030 555 60/// 71859 72021 73010 74824 75181;
0147042010999992000052012004+77470-069220FM-12+001999999V0202801N002119999999N0016001N1-00421-00521099751ADDMA1999999099511MD1710111+9999REMSYN106AAXX  20124 04201 4//16 /2804 11042 21052 39951 49975 57011 71030 555 60/// 71016 72130 73031 74824 75204;
0127042010999992000052103004+77470-069220FM-12+001999999V0201001N000519999999N0003001N1-00501-00511099881ADDMA1999999099641REMSYN100AAXX  21034 04201 4//03 /1001 11050 21051 39964 49988 73333 555 60/// 71829 72856 73836 74829 75859;
0141042010999992000052109004+77470-069220FM-12+001999999V0201101N002119999999N0210001N1-00621-00671100001ADDMA1999999099761MD1210081+9999REMSYN100AAXX  21094 04201 45/71 /1104 11062 21067 39976 40000 52008 555 60/// 71216 72500 73394 74016 75500;
0159042010999992000052112004+77470-069220FM-12+001999999V0201101N002119999999N0220001N1-00461-00641100011ADDMA1999999099771MD1210011+9999REMSYN118AAXX  21124 04201 4//72 /1104 11046 21064 39977 40001 52001 74140 555 61990 62990 63990 71230 72479 73327 74016 75500;
0165042010999992000052115004+77470-069220FM-12+001999999V0201201N001519999999N0070001N1-00391-00651100011ADDMA1999999099771MD1410001+9999REMSYN124AAXX  21154 04201 4//57 /1203 11039 21065 39977 40001 54000 77174 555 61990 62990 63990 64990 71079 72249 73135 74065 75471;
0207042010999992000052118004+77470-069220FM-12+001999999V0201101N002119999999N0130001N1-00341-00651100021ADDKA1120M-00251KA2120N-00711MA1999999099781MD1210011+9999REMSYN140AAXX  21184 04201 4//63 /1104 11034 21065 39978 40002 52001 77174 333 11025 21071 555 61990 62990 63041 64990 71134 72442 73273 74063 75500;
0159042010999992000052121004+77470-069220FM-12+001999999V0202101N002619999999N0180001N1-00341-00601100091ADDMA1999999099851MD1210071+9999REMSYN118AAXX  21214 04201 4//68 /2105 11034 21060 39985 40009 52007 72477 555 63995 64990 65001 71180 72402 73278 74024 75500;
0171042010999992000052200004+77470-069220FM-12+001999999V0202201N001019999999N0110001N1-00411-00651100181ADDMA1999999099941MD1210091+9999REMSYN130AAXX  22004 04201 4//61 /2202 11041 21065 39994 40018 52009 77177 555 61990 62990 63071 64994 65006 71118 72418 73224 74024 75500;
0153042010999992000052203004+77470-069220FM-12+001999999V0202601N001019999999N0250001N1-00531-00831100291ADDMA1999999100051MD1210111+9999REMSYN112AAXX  22034 04201 4//75 /2602 11053 21083 30005 40029 52011 70077 555 63992 64990 71253 72427 73340 74065 75500;
0189042010999992000052206004+77470-069220FM-12+001999999V0201601N002619999999N0280001N1-00721-01101100411ADDKA1120M-00111KA2120N-00731MA1999999100171MD1210121+9999REMSYN122AAXX  22064 04201 4//78 /1605 11072 21110 30017 40041 52012 70077 333 11011 21073 555 63992 71289 72500 73400 74065 75500;
0141042010999992000052209004+77470-069220FM-12+001999999V0203601N002119999999N0280001N1-00621-01331100521ADDMA1999999100281MD1210111+9999REMSYN100AAXX  22094 04201 45/78 /3604 11062 21133 30028 40052 52011 555 60/// 71286 72500 73412 74242 75500;
0141042010999992000052212004+77470-069220FM-12+001999999V0203201N001519999999N0110001N1-00491-01311100611ADDMA1999999100371MD1210091+9999REMSYN100AAXX  22124 04201 45/61 /3203 11049 21131 30037 40061 52009 555 60/// 71110 72440 73295 74110 75500;
0141042010999992000052215004+77470-069220FM-12+001999999V0202101N001519999999N0160001N1-00531-01361100681ADDMA1999999100441MD1210071+9999REMSYN100AAXX  22154 04201 45/66 /2103 11053 21136 30044 40068 52007 555 60/// 71165 72456 73316 74134 75500;
0183042010999992000052218004+77470-069220FM-12+001999999V0202201N000519999999N0200001N1-00421-01401100731ADDKA1120M-00141KA2120N-00771MA1999999100491MD1210051+9999REMSYN116AAXX  22184 04201 45/70 /2201 11042 21140 30049 40073 52005 333 11014 21077 555 60/// 71208 72424 73273 74055 75500;
0141042010999992000052221004+77470-069220FM-12+001999999V0202801N001019999999N0120001N1-00381-01121100841ADDMA1999999100601MD1210111+9999REMSYN100AAXX  22214 04201 45/62 /2802 11038 21112 30060 40084 52011 555 63041 71128 72500 73261 74128 75500;
0141042010999992000052300004+77470-069220FM-12+001999999V0202801N002119999999N0160001N1-00611-00951100891ADDMA1999999100651MD1210051+9999REMSYN100AAXX  23004 04201 45/66 /2804 11061 21095 30065 40089 52005 555 63041 71169 72380 73245 74125 75500;
0159042010999992000052303004+77470-069220FM-12+001999999V0202601N000519999999N0040001N1-00801-01021100981ADDMA1999999100731MD1210081+9999REMSYN118AAXX  23034 04201 4//40 /2601 11080 21102 30073 40098 52008 75454 555 61990 62990 63990 71040 72100 73051 74040 75417;
0189042010999992000052306004+77470-069220FM-12+001999999V0202901N000519999999N0300001N1-00721-01381101071ADDKA1120M-00311KA2120N-00911MA1999999100821MD1210091+9999REMSYN122AAXX  23064 04201 4//80 /2901 11072 21138 30082 40107 52009 70075 333 11031 21091 555 63990 71341 72500 73492 74040 75500;
0141042010999992000052309004+77470-069220FM-12+001999999V0200701N002119999999N0350001N1-00801-01411101191ADDMA1999999100941MD1210121+9999REMSYN100AAXX  23094 04201 45/81 /0704 11080 21141 30094 40119 52012 555 60/// 71380 72500 73491 74307 75500;
0141042010999992000052312004+77470-069220FM-12+001999999V0201101N004619999999N0160001N1-00751-01481101301ADDMA1999999101051MD1210111+9999REMSYN100AAXX  23124 04201 45/66 /1109 11075 21148 30105 40130 52011 555 60/// 71167 72500 73380 74167 75500;
0141042010999992000052315004+77470-069220FM-12+001999999V0201501N005119999999N0300001N1-00721-01261101421ADDMA1999999101171MD1210121+9999REMSYN100AAXX  23154 04201 45/80 /1510 11072 21126 30117 40142 52012 555 60/// 71314 72500 73406 74172 75500;
0183042010999992000052318004+77470-069220FM-12+001999999V0201101N002619999999N0150001N1-00581-01561101571ADDKA1120M-00221KA2120N-00871MA1999999101331MD1210161+9999REMSYN116AAXX  23184 04201 45/65 /1105 11058 21156 30133 40157 52016 333 11022 21087 555 60/// 71151 72500 73274 74121 75500;
0141042010999992000052321004+77470-069220FM-12+001999999V0201301N002619999999N0200001N1-00601-01561101751ADDMA1999999101501MD1210171+9999REMSYN100AAXX  23214 04201 45/70 /1305 11060 21156 30150 40175 52017 555 60/// 71204 72500 73282 74126 75500;
0141042010999992000052400004+77470-069220FM-12+001999999V0201001N004619999999N0160001N1-00641-01561101861ADDMA1999999101611MD1210111+9999REMSYN100AAXX  24004 04201 45/66 /1009 11064 21156 30161 40186 52011 555 60/// 71169 72494 73306 74126 75500;
0141042010999992000052403004+77470-069220FM-12+001999999V0200601N005119999999N0300001N1-00741-01591101861ADDMA1999999101611MD1410001+9999REMSYN100AAXX  24034 04201 45/80 /0610 11074 21159 30161 40186 54000 555 60/// 71316 72500 73422 74205 75500;
0183042010999992000052406004+77470-069220FM-12+001999999V0202801N001019999999N0350001N1-01311-01911101851ADDKA1120M-00301KA2120N-01311MA1999999101601MD1710011+9999REMSYN116AAXX  24064 04201 45/81 /2802 11131 21191 30160 40185 57001 333 11030 21131 555 60/// 71377 72500 73500 74205 75500;
0141042010999992000052409004+77470-069220FM-12+001999999V0209999C000019999999N0270001N1-00891-01531101881ADDMA1999999101631MD1210031+9999REMSYN100AAXX  24094 04201 45/77 /0000 11089 21153 30163 40188 52003 555 60/// 71279 72500 73426 74279 75500;
0141042010999992000052412004+77470-069220FM-12+001999999V0201401N000519999999N0130001N1-00531-01481101921ADDMA1999999101671MD1210041+9999REMSYN100AAXX  24124 04201 45/63 /1401 11053 21148 30167 40192 52004 555 60/// 71134 72248 73194 74093 75500;
0141042010999992000052415004+77470-069220FM-12+001999999V0201401N002119999999N0200001N1-00751-01431102001ADDMA1999999101751MD1210081+9999REMSYN100AAXX  24154 04201 45/70 /1404 11075 21143 30175 40200 52008 555 60/// 71202 72500 73285 74122 75500;
0183042010999992000052418004+77470-069220FM-12+001999999V0202701N002119999999N0160001N1-00471-01441102081ADDKA1120M-00221KA2120N-01451MA1999999101831MD1210081+9999REMSYN116AAXX  24184 04201 45/66 /2704 11047 21144 30183 40208 52008 333 11022 21145 555 60/// 71168 72500 73284 74122 75500;
0141042010999992000052421004+77470-069220FM-12+001999999V0202801N003619999999N0200001N1-00441-01341102151ADDMA1999999101901MD1210071+9999REMSYN100AAXX  24214 04201 45/70 /2807 11044 21134 30190 40215 52007 555 60/// 71209 72500 73307 74134 75500;
0141042010999992000052500004+77470-069220FM-12+001999999V0202901N003119999999N0140001N1-00441-01301102161ADDMA1999999101911MD1210011+9999REMSYN100AAXX  25004 04201 45/64 /2906 11044 21130 30191 40216 52001 555 60/// 71143 72500 73326 74134 75500;
0141042010999992000052503004+77470-069220FM-12+001999999V0202901N001019999999N0190001N1-00941-01491102181ADDMA1999999101931MD1210021+9999REMSYN100AAXX  25034 04201 45/69 /2902 11094 21149 30193 40218 52002 555 60/// 71198 72487 73283 74158 75500;
0183042010999992000052506004+77470-069220FM-12+001999999V0202901N001519999999N0400001N1-00781-01381102221ADDKA1120M-00011KA2120N-01161MA1999999101971MD1210041+9999REMSYN116AAXX  25064 04201 45/82 /2903 11078 21138 30197 40222 52004 333 11001 21116 555 60/// 71401 72500 73500 74158 75500;
0141042010999992000052509004+77470-069220FM-12+001999999V0202701N001019999999N0230001N1-00881-01461102251ADDMA1999999102001MD1210031+9999REMSYN100AAXX  25094 04201 45/73 /2702 11088 21146 30200 40225 52003 555 60/// 71236 72500 73380 74236 75500;
0141042010999992000052512004+77470-069220FM-12+001999999V0202601N001519999999N0220001N1-00731-01371102271ADDMA1999999102021MD1210021+9999REMSYN100AAXX  25124 04201 45/72 /2603 11073 21137 30202 40227 52002 555 60/// 71225 72500 73371 74220 75500;
0141042010999992000052515004+77470-069220FM-12+001999999V0202601N001019999999N0110001N1-00341-01091102261ADDMA1999999102021MD1410001+9999REMSYN100AAXX  25154 04201 45/61 /2602 11034 21109 30202 40226 54000 555 60/// 71117 72405 73275 74117 75500;
0183042010999992000052518004+77470-069220FM-12+001999999V0202901N002619999999N0140001N1-00131-00911102251ADDKA1120M-00011KA2120N-01161MA1999999102011MD1710011+9999REMSYN116AAXX  25184 04201 45/64 /2905 11013 21091 30201 40225 57001 333 11001 21116 555 60/// 71141 72411 73240 74117 75500;
0121042010999992000052603004+77470-069220FM-12+001999999V0202801N001019999999N0300001N1-00481-00941102041ADDMA1999999101791REMSYN094AAXX  26034 04201 45/80 /2802 11048 21094 30179 40204 555 60/// 71322 72500 73408 74302 75500;
0183042010999992000052606004+77470-069220FM-12+001999999V0202001N000519999999N0350001N1-00721-01031101881ADDKA1120M-00271KA2120N-00921MA1999999101631MD1710161+9999REMSYN116AAXX  26064 04201 45/81 /2001 11072 21103 30163 40188 57016 333 11027 21092 555 60/// 71378 72500 73464 74222 75500;
0168042010999992000052609004+77470-069220FM-12+001999999V0202701N001019999999N0270001N1-00431-00911101701ADDMA1999999101461MD1710171+9999OA149900771REMSYN116AAXX  26094 04201 45/77 /2702 11043 21091 30146 40170 57017 333 91115 91214 555 60/// 71277 72500 73413 74263 75500;
0162042010999992000052612004+77470-069220FM-12+001999999V0201101N003619999999N0300001N1-00081-00741101551ADDMA1999999101311MD1710151+9999OA149900771REMSYN110AAXX  26124 04201 45/80 /1107 11008 21074 30131 40155 57015 333 91115 555 60/// 71332 72500 73464 74263 75500;
0171042010999992000052615004+77470-069220FM-12+001999999V0200901N007719999999N0046001N1+00191-00541101381ADDMA1999999101141MD1710171+9999REMSYN130AAXX  26154 04201 4//46 /0915 10019 21054 30114 40138 57017 78574 555 61995 62990 63995 64990 65001 71046 72423 73127 74046 75500;
0213042010999992000052618004+77470-069220FM-12+001999999V0201001N007719999999N0017001N1+00121-00181101161ADDKA1120M+00241KA2120N-00851MA1999999100921MD1710221+9999REMSYN146AAXX  26184 04201 4//17 /1015 10012 21018 30092 40116 57022 77174 333 10024 21085 555 61001 62994 63007 64003 65049 71017 72075 73048 74894 75500;
0171042010999992000052621004+77470-069220FM-12+001999999V0201101N007219999999N0045001N1+00181-00051101061ADDMA1999999100821MD1710101+9999REMSYN130AAXX  26214 04201 4//45 /1114 10018 21005 30082 40106 57010 77177 555 61003 62995 63007 64002 65037 71045 72275 73106 74015 75275;
0171042010999992000052700004+77470-069220FM-12+001999999V0200801N008719999999N0020001N1+00201+00031101101ADDMA1999999100861MD1210041+9999REMSYN130AAXX  27004 04201 4//20 /0817 10020 20003 30086 40110 52004 77177 555 61002 62001 63007 64001 65020 71020 72039 73026 74015 75285;
0181042010999992000052703004+77470-069220FM-12+001999999V0200801N003119999999N0080001N1+00141-00271101391ADDMA1999999101151MD1210291+9999REMSYN140AAXX  27034 04201 4//58 /0806 10014 21027 30115 40139 52029 77177 333 91217 555 61991 62990 63008 64001 65014 71083 72212 73138 74013 75500;
0207042010999992000052706004+77470-069220FM-12+001999999V0201401N003619999999N0300001N1-00081-00431101691ADDKA1120M+00281KA2120N-00091MA1999999101451MD1210301+9999REMSYN140AAXX  27064 04201 4//80 /1407 11008 21043 30145 40169 52030 70077 333 10028 21009 91217 555 63008 64990 65001 71341 72500 73459 74013 75500;
0141042010999992000052709004+77470-069220FM-12+001999999V0202101N001519999999N0300001N1-00191-00581101981ADDMA1999999101741MD1210291+9999REMSYN100AAXX  27094 04201 45/80 /2103 11019 21058 30174 40198 52029 555 60/// 71315 72500 73436 74315 75500;
0141042010999992000052712004+77470-069220FM-12+001999999V0201501N005119999999N0240001N1-00211-00731102191ADDMA1999999101951MD1210211+9999REMSYN100AAXX  27124 04201 45/74 /1510 11021 21073 30195 40219 52021 555 60/// 71247 72500 73317 74190 75500;
0141042010999992000052715004+77470-069220FM-12+001999999V0202201N002119999999N0140001N1-00241-00881102331ADDMA1999999102091MD1210141+9999REMSYN100AAXX  27154 04201 45/64 /2204 11024 21088 30209 40233 52014 555 60/// 71148 72496 73289 74148 75500;
0183042010999992000052718004+77470-069220FM-12+001999999V0201801N004619999999N0180001N1-00381-00851102451ADDKA1120M+00031KA2120N-00451MA1999999102201MD1210111+9999REMSYN116AAXX  27184 04201 45/68 /1809 11038 21085 30220 40245 52011 333 10003 21045 555 60/// 71189 72500 73297 74101 75500;
0141042010999992000052721004+77470-069220FM-12+001999999V0202701N003119999999N0170001N1-00161-00941102491ADDMA1999999102251MD1210051+9999REMSYN100AAXX  27214 04201 45/67 /2706 11016 21094 30225 40249 52005 555 60/// 71172 72500 73289 74113 75500;
0141042010999992000052800004+77470-069220FM-12+001999999V0203001N002619999999N0300001N1-00351-00961102481ADDMA1999999102231MD1710021+9999REMSYN100AAXX  28004 04201 45/80 /3005 11035 21096 30223 40248 57002 555 60/// 71320 72500 73481 74113 75500;
0141042010999992000052803004+77470-069220FM-12+001999999V0202601N001019999999N0300001N1-00401-00941102391ADDMA1999999102141MD1710091+9999REMSYN100AAXX  28034 04201 45/80 /2602 11040 21094 30214 40239 57009 555 60/// 71325 72500 73447 74187 75500;
0183042010999992000052806004+77470-069220FM-12+001999999V0202901N001519999999N0350001N1-00391-00861102341ADDKA1120M-00121KA2120N-00501MA1999999102091MD1710051+9999REMSYN116AAXX  28064 04201 45/81 /2903 11039 21086 30209 40234 57005 333 11012 21050 555 60/// 71357 72500 73490 74187 75500;
0141042010999992000052809004+77470-069220FM-12+001999999V0202801N000519999999N0300001N1-00441-00811102341ADDMA1999999102091MD1410001+9999REMSYN100AAXX  28094 04201 45/80 /2801 11044 21081 30209 40234 54000 555 60/// 71328 72500 73399 74259 75500;
0141042010999992000052812004+77470-069220FM-12+001999999V0201601N000519999999N0350001N1-00371-00901102301ADDMA1999999102061MD1710031+9999REMSYN100AAXX  28124 04201 45/81 /1601 11037 21090 30206 40230 57003 555 60/// 71374 72500 73453 74204 75500;
0141042010999992000052815004+77470-069220FM-12+001999999V0201401N001519999999N0170001N1-00311-01121102321ADDMA1999999102081MD1210021+9999REMSYN100AAXX  28154 04201 45/67 /1403 11031 21112 30208 40232 52002 555 60/// 71174 72500 73284 74135 75500;
0201042010999992000052818004+77470-069220FM-12+001999999V0201001N003619999999N0090001N1-00351-01021102301ADDKA1120M-00131KA2120N-00541MA1999999102061MD1710021+9999REMSYN134AAXX  28184 04201 4//59 /1007 11035 21102 30206 40230 57002 74174 333 11013 21054 555 61990 62990 63990 71090 72382 73137 74090 75500;
0147042010999992000052821004+77470-069220FM-12+001999999V0201101N003619999999N0230001N1-00311-00941102331ADDMA1999999102091MD1210031+9999REMSYN106AAXX  28214 04201 4//73 /1107 11031 21094 30209 40233 52003 70077 555 63990 71238 72500 73398 74046 75500;
0159042010999992000052900004+77470-069220FM-12+001999999V0201101N004119999999N0110001N1-00381-00911102361ADDMA1999999102111MD1210021+9999REMSYN118AAXX  29004 04201 4//61 /1108 11038 21091 30211 40236 52002 74177 555 61990 62990 63990 71114 72446 73199 74046 75500;
0153042010999992000052903004+77470-069220FM-12+001999999V0201001N003119999999N0300001N1-00451-00701102401ADDMA1999999102151MD1210041+9999REMSYN112AAXX  29034 04201 4//80 /1006 11045 21070 30215 40240 52004 72274 555 63992 64990 71311 72500 73430 74052 75500;
0189042010999992000052906004+77470-069220FM-12+001999999V0201001N003619999999N0140001N1-00481-00771102411ADDKA1120M-00011KA2120N-00591MA1999999102161MD1210011+9999REMSYN122AAXX  29064 04201 4//64 /1007 11048 21077 30216 40241 52001 77774 333 11001 21059 555 63050 71141 72500 73428 74052 75500;
0171042010999992000052909004+77470-069220FM-12+001999999V0201501N000519999999N0014001N1-00601-00861102491ADDMA1999999102241MD1210081+9999REMSYN130AAXX  29094 04201 4//14 /1501 11060 21086 30224 40249 52008 76777 555 61001 62996 63002 64994 65001 71014 72042 73022 74014 75500;
0171042010999992000052912004+77470-069220FM-12+001999999V0201301N005119999999N0070001N1-00531-00801102471ADDMA1999999102221MD1710021+9999REMSYN130AAXX  29124 04201 4//57 /1310 11053 21080 30222 40247 57002 76777 555 61990 62990 63002 64992 65002 71071 72469 73267 74014 75500;
0121042010999992000052915004+77470-069220FM-12+001999999V0202301N001519999999N0140001N1-00341-00801102461ADDMA1999999102221REMSYN094AAXX  29154 04201 45/64 /2303 11034 21080 30222 40246 555 60/// 71149 72500 73310 74149 75500;
0141042010999992000052921004+77470-069220FM-12+001999999V0203001N004619999999N0190001N1-00261-00661102381ADDMA1999999102141MD1710041+9999REMSYN100AAXX  29214 04201 45/69 /3009 11026 21066 30214 40238 57004 555 60/// 71194 72500 73370 74122 75500;
0141042010999992000053000004+77470-069220FM-12+001999999V0203401N004119999999N0300001N1-00241-00921102301ADDMA1999999102061MD1710081+9999REMSYN100AAXX  30004 04201 45/80 /3408 11024 21092 30206 40230 57008 555 60/// 71323 72500 73413 74122 75500;
0141042010999992000053003004+77470-069220FM-12+001999999V0200201N005719999999N0300001N1-00441-01111102241ADDMA1999999101991MD1710071+9999REMSYN100AAXX  30034 04201 45/80 /0211 11044 21111 30199 40224 57007 555 60/// 71336 72500 73487 74237 75500;
0189042010999992000053006004+77470-069220FM-12+001999999V0202501N000519999999N0400001N1-00771-01351102181ADDKA1120M-00191KA2120N-00871MA1999999101931MD1710061+9999REMSYN122AAXX  30064 04201 45/82 /2501 11077 21135 30193 40218 57006 333 11019 21087 91213 555 60/// 71418 72500 73500 74237 75500;
0141042010999992000053009004+77470-069220FM-12+001999999V0200801N002119999999N0240001N1-00501-01261102131ADDMA1999999101881MD1710051+9999REMSYN100AAXX  30094 04201 45/74 /0804 11050 21126 30188 40213 57005 555 60/// 71248 72500 73489 74236 75500;
0141042010999992000053012004+77470-069220FM-12+001999999V0201101N004619999999N0280001N1-00561-01341102071ADDMA1999999101821MD1710061+9999REMSYN100AAXX  30124 04201 45/78 /1109 11056 21134 30182 40207 57006 555 60/// 71280 72500 73371 74180 75500;
0141042010999992000053015004+77470-069220FM-12+001999999V0201001N003619999999N0170001N1-00451-01321102071ADDMA1999999101831MD1210011+9999REMSYN100AAXX  30154 04201 45/67 /1007 11045 21132 30183 40207 52001 555 60/// 71173 72500 73325 74158 75500;
0183042010999992000053018004+77470-069220FM-12+001999999V0201201N002619999999N0180001N1-00301-01401102101ADDKA1120M-00301KA2120N-00991MA1999999101861MD1210031+9999REMSYN116AAXX  30184 04201 45/68 /1205 11030 21140 30186 40210 52003 333 11030 21099 555 60/// 71182 72500 73337 74122 75500;
0141042010999992000053021004+77470-069220FM-12+001999999V0201501N001019999999N0280001N1-00271-01321102151ADDMA1999999101911MD1210051+9999REMSYN100AAXX  30214 04201 45/78 /1502 11027 21132 30191 40215 52005 555 60/// 71281 72500 73364 74134 75500;
0141042010999992000053100004+77470-069220FM-12+001999999V0201401N000519999999N0300001N1-00361-01211102171ADDMA1999999101931MD1210021+9999REMSYN100AAXX  31004 04201 45/80 /1401 11036 21121 30193 40217 52002 555 60/// 71347 72500 73406 74134 75500;
0141042010999992000053103004+77470-069220FM-12+001999999V0201101N001519999999N0350001N1-00431-01331102201ADDMA1999999101951MD1210021+9999REMSYN100AAXX  31034 04201 45/81 /1103 11043 21133 30195 40220 52002 555 60/// 71383 72500 73469 74219 75500;
0183042010999992000053106004+77470-069220FM-12+001999999V0202901N000519999999N0400001N1-00741-01271102161ADDKA1120M-00171KA2120N-00811MA1999999101911MD1710041+9999REMSYN116AAXX  31064 04201 45/82 /2901 11074 21127 30191 40216 57004 333 11017 21081 555 60/// 71400 72500 73500 74219 75500;
0141042010999992000053109004+77470-069220FM-12+001999999V0209999C000019999999N0270001N1-00631-01261102121ADDMA1999999101871MD1710041+9999REMSYN100AAXX  31094 04201 45/77 /0000 11063 21126 30187 40212 57004 555 60/// 71274 72500 73362 74136 75500;
0141042010999992000053112004+77470-069220FM-12+001999999V0202501N000519999999N0290001N1-00371-01231101991ADDMA1999999101751MD1710121+9999REMSYN100AAXX  31124 04201 45/79 /2501 11037 21123 30175 40199 57012 555 60/// 71294 72500 73382 74136 75500;
0141042010999992000053115004+77470-069220FM-12+001999999V0202701N002119999999N0190001N1-00271-01071101891ADDMA1999999101651MD1710101+9999REMSYN100AAXX  31154 04201 45/69 /2704 11027 21107 30165 40189 57010 555 60/// 71195 72500 73342 74140 75500;
0183042010999992000053118004+77470-069220FM-12+001999999V0202901N005119999999N0180001N1-00231-01051101751ADDKA1120M+00151KA2120N-00851MA1999999101511MD1710141+9999REMSYN116AAXX  31184 04201 45/68 /2910 11023 21105 30151 40175 57014 333 10015 21085 555 60/// 71188 72500 73315 74112 75500;
0141042010999992000053121004+77470-069220FM-12+001999999V0202401N002119999999N0290001N1-00301-00881101661ADDMA1999999101421MD1710091+9999REMSYN100AAXX  31214 04201 45/79 /2404 11030 21088 30142 40166 57009 555 60/// 71299 72500 73395 74161 75500;
0141042010999992000060100004+77470-069220FM-12+001999999V0201401N001519999999N0250001N1-00371-01061101661ADDMA1999999101421MD1410001+9999REMSYN100AAXX  01004 04201 45/75 /1403 11037 21106 30142 40166 54000 555 60/// 71254 72500 73349 74161 75500;
0141042010999992000060103004+77470-069220FM-12+001999999V0202501N001019999999N0350001N1-00391-01231101651ADDMA1999999101411MD1710011+9999REMSYN100AAXX  01034 04201 45/81 /2502 11039 21123 30141 40165 57001 555 60/// 71385 72500 73454 74204 75500;
0183042010999992000060106004+77470-069220FM-12+001999999V0200901N004619999999N0450001N1-00471-01331101621ADDKA1120M-00051KA2120N-00581MA1999999101381MD1710031+9999REMSYN116AAXX  01064 04201 45/83 /0909 11047 21133 30138 40162 57003 333 11005 21058 555 60/// 71499 72500 73500 74204 75500;
0141042010999992000060109004+77470-069220FM-12+001999999V0201001N005719999999N0250001N1-00441-01321101651ADDMA1999999101411MD1210031+9999REMSYN100AAXX  01094 04201 45/75 /1011 11044 21132 30141 40165 52003 555 60/// 71258 72500 73500 74258 75500;
0141042010999992000060112004+77470-069220FM-12+001999999V0201001N005719999999N0350001N1-00331-01291101591ADDMA1999999101351MD1710061+9999REMSYN100AAXX  01124 04201 45/81 /1011 11033 21129 30135 40159 57006 555 60/// 71354 72500 73407 74173 75500;
0141042010999992000060115004+77470-069220FM-12+001999999V0201301N001519999999N0210001N1-00051-01311101511ADDMA1999999101271MD1710081+9999REMSYN100AAXX  01154 04201 45/71 /1303 11005 21131 30127 40151 57008 555 60/// 71219 72500 73353 74147 75500;
0183042010999992000060118004+77470-069220FM-12+001999999V0202501N002119999999N0160001N1-00231-01131101371ADDKA1120M-00011KA2120N-00591MA1999999101131MD1710141+9999REMSYN116AAXX  01184 04201 45/66 /2504 11023 21113 30113 40137 57014 333 11001 21059 555 60/// 71161 72500 73298 74129 75500;
0141042010999992000060121004+77470-069220FM-12+001999999V0202601N002119999999N0280001N1-00171-01001101261ADDMA1999999101021MD1710111+9999REMSYN100AAXX  01214 04201 45/78 /2604 11017 21100 30102 40126 57011 555 60/// 71283 72500 73381 74161 75500;
0141042010999992000060200004+77470-069220FM-12+001999999V0202701N001519999999N0180001N1-00211-01001101141ADDMA1999999100901MD1710121+9999REMSYN100AAXX  02004 04201 45/68 /2703 11021 21100 30090 40114 57012 555 60/// 71183 72500 73328 74153 75500;
0141042010999992000060203004+77470-069220FM-12+001999999V0200901N003619999999N0350001N1-00311-01131101001ADDMA1999999100761MD1710141+9999REMSYN100AAXX  02034 04201 45/81 /0907 11031 21113 30076 40100 57014 555 60/// 71394 72500 73500 74243 75500;
0183042010999992000060206004+77470-069220FM-12+001999999V0200601N005119999999N0450001N1-00151-01131100801ADDKA1120M-00031KA2120N-00401MA1999999100561MD1710201+9999REMSYN116AAXX  02064 04201 45/83 /0610 11015 21113 30056 40080 57020 333 11003 21040 555 60/// 71463 72500 73500 74243 75500;
0141042010999992000060209004+77470-069220FM-12+001999999V0201101N006219999999N0300001N1-00301-01181100641ADDMA1999999100401MD1710161+9999REMSYN100AAXX  02094 04201 45/80 /1112 11030 21118 30040 40064 57016 555 60/// 71317 72500 73387 74264 75500;
0141042010999992000060212004+77470-069220FM-12+001999999V0201101N006219999999N0220001N1-00271-01241100441ADDMA1999999100201MD1710201+9999REMSYN100AAXX  02124 04201 45/72 /1112 11027 21124 30020 40044 57020 555 60/// 71229 72500 73351 74229 75500;
0141042010999992000060215004+77470-069220FM-12+001999999V0201101N002619999999N0190001N1-00111-01061100281ADDMA1999999100041MD1710161+9999REMSYN100AAXX  02154 04201 45/69 /1105 11011 21106 30004 40028 57016 555 60/// 71192 72500 73363 74142 75500;
0189042010999992000060218004+77470-069220FM-12+001999999V0202001N001519999999N0230001N1+00071-00961100181ADDKA1120M+00121KA2120N-00521MA1999999099941MD1710101+9999REMSYN122AAXX  02184 04201 45/73 /2003 10007 21096 39994 40018 57010 333 10012 21052 91213 555 60/// 71235 72500 73451 74142 75500;
0141042010999992000060300004+77470-069220FM-12+001999999V0200901N001019999999N0260001N1-00141-00991100411ADDMA1999999100171MD1210201+9999REMSYN100AAXX  03004 04201 45/76 /0902 11014 21099 30017 40041 52020 555 60/// 71267 72500 73333 74114 75500;
0141042010999992000060303004+77470-069220FM-12+001999999V0203601N000519999999N0300001N1-00221-00921100711ADDMA1999999100471MD1210301+9999REMSYN100AAXX  03034 04201 45/80 /3601 11022 21092 30047 40071 52030 555 60/// 71336 72500 73414 74191 75500;
0183042010999992000060306004+77470-069220FM-12+001999999V0201101N001519999999N0300001N1-00371-01021100961ADDKA1120M+00281KA2120N-00591MA1999999100721MD1210251+9999REMSYN116AAXX  03064 04201 45/80 /1103 11037 21102 30072 40096 52025 333 10028 21059 555 60/// 71317 72500 73449 74191 75500;
0141042010999992000060309004+77470-069220FM-12+001999999V0201801N000519999999N0350001N1-00141-00991101181ADDMA1999999100941MD1210221+9999REMSYN100AAXX  03094 04201 45/81 /1801 11014 21099 30094 40118 52022 555 60/// 71354 72500 73444 74299 75500;
0141042010999992000060312004+77470-069220FM-12+001999999V0201301N001519999999N0290001N1-00261-01131101351ADDMA1999999101111MD1210171+9999REMSYN100AAXX  03124 04201 45/79 /1303 11026 21113 30111 40135 52017 555 60/// 71299 72500 73420 74253 75500;
0141042010999992000060315004+77470-069220FM-12+001999999V0201401N001519999999N0250001N1-00101-01011101471ADDMA1999999101231MD1210121+9999REMSYN100AAXX  03154 04201 45/75 /1403 11010 21101 30123 40147 52012 555 60/// 71251 72500 73376 74169 75500;
0183042010999992000060318004+77470-069220FM-12+001999999V0202201N001019999999N0240001N1-00081-00981101561ADDKA1120M+00051KA2120N-00431MA1999999101321MD1210091+9999REMSYN116AAXX  03184 04201 45/74 /2202 11008 21098 30132 40156 52009 333 10005 21043 555 60/// 71248 72500 73380 74159 75500;
0141042010999992000060321004+77470-069220FM-12+001999999V0202601N002119999999N0230001N1-00101-00941101641ADDMA1999999101401MD1210081+9999REMSYN100AAXX  03214 04201 45/73 /2604 11010 21094 30140 40164 52008 555 60/// 71233 72459 73374 74164 75500;
0141042010999992000060400004+77470-069220FM-12+001999999V0202701N002619999999N0300001N1-00141-00871101701ADDMA1999999101461MD1210061+9999REMSYN100AAXX  04004 04201 45/80 /2705 11014 21087 30146 40170 52006 555 60/// 71301 72500 73500 74137 75500;
0141042010999992000060403004+77470-069220FM-12+001999999V0202901N001519999999N0300001N1-00431-00851101731ADDMA1999999101491MD1210031+9999REMSYN100AAXX  04034 04201 45/80 /2903 11043 21085 30149 40173 52003 555 60/// 71303 72500 73435 74205 75500;
0183042010999992000060406004+77470-069220FM-12+001999999V0202701N000519999999N0350001N1-00891-01291101661ADDKA1120M-00031KA2120N-00891MA1999999101411MD1710081+9999REMSYN116AAXX  04064 04201 45/81 /2701 11089 21129 30141 40166 57008 333 11003 21089 555 60/// 71392 72500 73500 74205 75500;
0141042010999992000060409004+77470-069220FM-12+001999999V0202601N000519999999N0220001N1-00361-00941101571ADDMA1999999101331MD1710081+9999REMSYN100AAXX  04094 04201 45/72 /2601 11036 21094 30133 40157 57008 555 60/// 71225 72500 73374 74225 75500;
0141042010999992000060412004+77470-069220FM-12+001999999V0201301N000519999999N0300001N1-00231-01271101411ADDMA1999999101171MD1710161+9999REMSYN100AAXX  04124 04201 45/80 /1301 11023 21127 30117 40141 57016 555 60/// 71309 72500 73418 74222 75500;
0141042010999992000060415004+77470-069220FM-12+001999999V0202701N003119999999N0280001N1-00251-00881101261ADDMA1999999101021MD1710151+9999REMSYN100AAXX  04154 04201 45/78 /2706 11025 21088 30102 40126 57015 555 60/// 71285 72500 73381 74163 75500;
0183042010999992000060418004+77470-069220FM-12+001999999V0202701N004119999999N0240001N1-00091-00751101141ADDKA1120M+00061KA2120N-00891MA1999999100901MD1710121+9999REMSYN116AAXX  04184 04201 45/74 /2708 11009 21075 30090 40114 57012 333 10006 21089 555 60/// 71249 72500 73385 74163 75500;
0141042010999992000060421004+77470-069220FM-12+001999999V0202701N003619999999N0240001N1-00031-00691101051ADDMA1999999100811MD1710091+9999REMSYN100AAXX  04214 04201 45/74 /2707 11003 21069 30081 40105 57009 555 60/// 71244 72500 73359 74900 75500;
0141042010999992000060500004+77470-069220FM-12+001999999V0201801N000519999999N0250001N1-00311-01031100971ADDMA1999999100731MD1710081+9999REMSYN100AAXX  05004 04201 45/75 /1801 11031 21103 30073 40097 57008 555 60/// 71255 72500 73324 74900 75500;
0141042010999992000060503004+77470-069220FM-12+001999999V0202501N000519999999N0290001N1-00371-01021100891ADDMA1999999100651MD1710081+9999REMSYN100AAXX  05034 04201 45/79 /2501 11037 21102 30065 40089 57008 555 60/// 71295 72500 73477 74225 75500;
0183042010999992000060506004+77470-069220FM-12+001999999V0202501N000519999999N0350001N1-00401-00991100801ADDKA1120M+00051KA2120N-00421MA1999999100561MD1710091+9999REMSYN116AAXX  05064 04201 45/81 /2501 11040 21099 30056 40080 57009 333 10005 21042 555 60/// 71396 72500 73500 74225 75500;
0141042010999992000060509004+77470-069220FM-12+001999999V0201801N000519999999N0300001N1-00201-00881100821ADDMA1999999100581MD1210021+9999REMSYN100AAXX  05094 04201 45/80 /1801 11020 21088 30058 40082 52002 555 60/// 71333 72500 73454 74255 75500;
0141042010999992000060512004+77470-069220FM-12+001999999V0201301N001019999999N0350001N1+00111-00861100851ADDMA1999999100611MD1210031+9999REMSYN100AAXX  05124 04201 45/81 /1302 10011 21086 30061 40085 52003 555 60/// 71376 72500 73451 74200 75500;
0141042010999992000060515004+77470-069220FM-12+001999999V0202601N002119999999N0180001N1-00231-00821100891ADDMA1999999100651MD1210041+9999REMSYN100AAXX  05154 04201 45/68 /2604 11023 21082 30065 40089 52004 555 60/// 71190 72500 73335 74169 75500;
0183042010999992000060518004+77470-069220FM-12+001999999V0202701N004119999999N0230001N1+00101-00661100941ADDKA1120M+00541KA2120N-00651MA1999999100701MD1210051+9999REMSYN116AAXX  05184 04201 45/73 /2708 10010 21066 30070 40094 52005 333 10054 21065 555 60/// 71238 72500 73363 74128 75500;
0141042010999992000060521004+77470-069220FM-12+001999999V0202601N002619999999N0210001N1+00151-00371101051ADDMA1999999100811MD1210111+9999REMSYN100AAXX  05214 04201 45/71 /2605 10015 21037 30081 40105 52011 555 60/// 71212 72500 73355 74174 75500;
0141042010999992000060600004+77470-069220FM-12+001999999V0202801N002119999999N0270001N1+00061-00341101111ADDMA1999999100871MD1210061+9999REMSYN100AAXX  06004 04201 45/77 /2804 10006 21034 30087 40111 52006 555 60/// 71274 72500 73417 74160 75500;
0141042010999992000060603004+77470-069220FM-12+001999999V0209999C000019999999N0210001N1-00291-00621101161ADDMA1999999100921MD1210051+9999REMSYN100AAXX  06034 04201 45/71 /0000 11029 21062 30092 40116 52005 555 60/// 71218 72500 73459 74153 75500;
0183042010999992000060606004+77470-069220FM-12+001999999V0201401N000519999999N0350001N1-00241-00641101181ADDKA1120M+00171KA2120N-00421MA1999999100941MD1210021+9999REMSYN116AAXX  06064 04201 45/81 /1401 11024 21064 30094 40118 52002 333 10017 21042 555 60/// 71383 72500 73500 74153 75500;
0141042010999992000060612004+77470-069220FM-12+001999999V0202801N000519999999N0240001N1+00031-00581101211ADDMA1999999100971MD1710021+9999REMSYN100AAXX  06124 04201 45/74 /2801 10003 21058 30097 40121 57002 555 60/// 71249 72500 73369 74184 75500;
0141042010999992000060615004+77470-069220FM-12+001999999V0201501N000519999999N0220001N1+00171-00491101151ADDMA1999999100911MD1710061+9999REMSYN100AAXX  06154 04201 45/72 /1501 10017 21049 30091 40115 57006 555 60/// 71221 72500 73403 74142 75500;
0183042010999992000060618004+77470-069220FM-12+001999999V0202601N002119999999N0160001N1+00141-00261101071ADDKA1120M+00471KA2120N-00561MA1999999100831MD1710081+9999REMSYN116AAXX  06184 04201 45/66 /2604 10014 21026 30083 40107 57008 333 10047 21056 555 60/// 71168 72500 73291 74140 75500;
0141042010999992000060621004+77470-069220FM-12+001999999V0202801N001519999999N0230001N1+00221-00201101071ADDMA1999999100831MD1410001+9999REMSYN100AAXX  06214 04201 45/73 /2803 10022 21020 30083 40107 54000 555 60/// 71238 72500 73386 74165 75500;
0141042010999992000060700004+77470-069220FM-12+001999999V0201201N000519999999N0300001N1+00171-00181101151ADDMA1999999100911MD1210081+9999REMSYN100AAXX  07004 04201 45/80 /1201 10017 21018 30091 40115 52008 555 60/// 71323 72500 73464 74165 75500;
0141042010999992000060703004+77470-069220FM-12+001999999V0203001N001519999999N0160001N1+00281-00201101281ADDMA1999999101041MD1210131+9999REMSYN100AAXX  07034 04201 45/66 /3003 10028 21020 30104 40128 52013 555 60/// 71162 72403 73251 74134 75500;
0183042010999992000060706004+77470-069220FM-12+001999999V0203001N001019999999N0350001N1-00021-00341101411ADDKA1120M+00311KA2120N-00051MA1999999101171MD1210131+9999REMSYN116AAXX  07064 04201 45/81 /3002 11002 21034 30117 40141 52013 333 10031 21005 555 60/// 71361 72500 73480 74134 75500;
0141042010999992000060709004+77470-069220FM-12+001999999V0202401N001019999999N0230001N1+00151-00321101531ADDMA1999999101291MD1210121+9999REMSYN100AAXX  07094 04201 45/73 /2402 10015 21032 30129 40153 52012 555 60/// 71234 72500 73338 74184 75500;
0141042010999992000060712004+77470-069220FM-12+001999999V0202901N002119999999N0150001N1+00181-00261101621ADDMA1999999101381MD1210091+9999REMSYN100AAXX  07124 04201 45/65 /2904 10018 21026 30138 40162 52009 555 60/// 71160 72448 73198 74933 75500;
0141042010999992000060715004+77470-069220FM-12+001999999V0202801N002619999999N0240001N1+00301-00211101701ADDMA1999999101461MD1210081+9999REMSYN100AAXX  07154 04201 45/74 /2805 10030 21021 30146 40170 52008 555 60/// 71246 72500 73356 74126 75500;
0183042010999992000060718004+77470-069220FM-12+001999999V0202601N002119999999N0190001N1+00251-00081101711ADDKA1120M+00591KA2120N-00101MA1999999101471MD1210011+9999REMSYN116AAXX  07184 04201 45/69 /2604 10025 21008 30147 40171 52001 333 10059 21010 555 60/// 71199 72500 73340 74112 75500;
0141042010999992000060721004+77470-069220FM-12+001999999V0202801N004119999999N0180001N1+00311+00031101751ADDMA1999999101511MD1210041+9999REMSYN100AAXX  07214 04201 45/68 /2808 10031 20003 30151 40175 52004 555 60/// 71186 72500 73317 74124 75500;
0141042010999992000060800004+77470-069220FM-12+001999999V0202801N003119999999N0240001N1+00191-00071101711ADDMA1999999101471MD1710041+9999REMSYN100AAXX  08004 04201 45/74 /2806 10019 21007 30147 40171 57004 555 60/// 71243 72500 73347 74124 75500;
0141042010999992000060803004+77470-069220FM-12+001999999V0202901N001019999999N0200001N1+00141-00111101701ADDMA1999999101461MD1710011+9999REMSYN100AAXX  08034 04201 45/70 /2902 10014 21011 30146 40170 57001 555 60/// 71205 72494 73304 74176 75500;
0183042010999992000060806004+77470-069220FM-12+001999999V0202301N000519999999N0240001N1-00051-00261101711ADDKA1120M+00361KA2120N-00061MA1999999101471MD1210011+9999REMSYN116AAXX  08064 04201 45/74 /2301 11005 21026 30147 40171 52001 333 10036 21006 555 60/// 71245 72500 73443 74171 75500;
0141042010999992000060809004+77470-069220FM-12+001999999V0209999C000019999999N0200001N1+00121-00201101711ADDMA1999999101471MD1410001+9999REMSYN100AAXX  08094 04201 45/70 /0000 10012 21020 30147 40171 54000 555 60/// 71207 72475 73370 74207 75500;
0141042010999992000060812004+77470-069220FM-12+001999999V0201801N001019999999N0180001N1+00121-00211101711ADDMA1999999101471MD1410001+9999REMSYN100AAXX  08124 04201 45/68 /1802 10012 21021 30147 40171 54000 555 60/// 71184 72417 73261 74171 75500;
0141042010999992000060815004+77470-069220FM-12+001999999V0202601N001519999999N0190001N1+00221-00091101731ADDMA1999999101491MD1210021+9999REMSYN100AAXX  08154 04201 45/69 /2603 10022 21009 30149 40173 52002 555 60/// 71192 72483 73301 74155 75500;
0183042010999992000060818004+77470-069220FM-12+001999999V0202801N002119999999N0170001N1+00431+00101101661ADDKA1120M+00461KA2120N-00301MA1999999101421MD1710071+9999REMSYN116AAXX  08184 04201 45/67 /2804 10043 20010 30142 40166 57007 333 10046 21030 555 60/// 71175 72500 73358 74131 75500;
0141042010999992000060821004+77470-069220FM-12+001999999V0202801N004619999999N0130001N1+00371+00071101651ADDMA1999999101411MD1710011+9999REMSYN100AAXX  08214 04201 45/63 /2809 10037 20007 30141 40165 57001 555 60/// 71134 72500 73283 74013 75500;
0141042010999992000060900004+77470-069220FM-12+001999999V0202901N003619999999N0230001N1+00441+00101101571ADDMA1999999101331MD1710081+9999REMSYN100AAXX  09004 04201 45/73 /2907 10044 20010 30133 40157 57008 555 60/// 71235 72500 73340 74013 75500;
0141042010999992000060903004+77470-069220FM-12+001999999V0202601N001019999999N0260001N1+00171-00141101511ADDMA1999999101271MD1710061+9999REMSYN100AAXX  09034 04201 45/76 /2602 10017 21014 30127 40151 57006 555 60/// 71269 72500 73413 74189 75500;
0183042010999992000060906004+77470-069220FM-12+001999999V0201201N000519999999N0350001N1+00161-00121101481ADDKA1120M+00571KA2120N-00021MA1999999101241MD1710031+9999REMSYN116AAXX  09064 04201 45/81 /1201 10016 21012 30124 40148 57003 333 10057 21002 555 60/// 71377 72500 73471 74186 75500;
0141042010999992000060909004+77470-069220FM-12+001999999V0201301N001519999999N0170001N1+00231-00081101461ADDMA1999999101221MD1710021+9999REMSYN100AAXX  09094 04201 45/67 /1303 10023 21008 30122 40146 57002 555 60/// 71173 72384 73222 74113 75500;
0141042010999992000060912004+77470-069220FM-12+001999999V0202301N000519999999N0170001N1+00341-00131101431ADDMA1999999101191MD1710031+9999REMSYN100AAXX  09124 04201 45/67 /2301 10034 21013 30119 40143 57003 555 60/// 71172 72485 73284 74113 75500;
0141042010999992000060915004+77470-069220FM-12+001999999V0202801N001519999999N0240001N1+00621+00061101421ADDMA1999999101191MD1410001+9999REMSYN100AAXX  09154 04201 45/74 /2803 10062 20006 30119 40142 54000 555 60/// 71242 72500 73456 74145 75500;
0183042010999992000060918004+77470-069220FM-12+001999999V0202601N002119999999N0150001N1+00451-00051101421ADDKA1120M+00861KA2120N-00021MA1999999101181MD1710011+9999REMSYN116AAXX  09184 04201 45/65 /2604 10045 21005 30118 40142 57001 333 10086 21002 555 60/// 71152 72500 73320 74125 75500;
0141042010999992000060921004+77470-069220FM-12+001999999V0202601N001019999999N0200001N1+00521+00061101421ADDMA1999999101191MD1210011+9999REMSYN100AAXX  09214 04201 45/70 /2602 10052 20006 30119 40142 52001 555 60/// 71201 72500 73366 74149 75500;
0141042010999992000061000004+77470-069220FM-12+001999999V0202901N000519999999N0240001N1+00521+00101101421ADDMA1999999101191MD1410001+9999REMSYN100AAXX  10004 04201 45/74 /2901 10052 20010 30119 40142 54000 555 60/// 71248 72500 73405 74149 75500;
0121042010999992000061009004+77470-069220FM-12+001999999V0200901N003619999999N0300001N1+00801-00041101401ADDMA1999999101171REMSYN094AAXX  10094 04201 45/80 /0907 10080 21004 30117 40140 555 60/// 71307 72500 73427 74307 75500;
0141042010999992000061012004+77470-069220FM-12+001999999V0202301N000519999999N0200001N1+00571+00021101411ADDMA1999999101181MD1210011+9999REMSYN100AAXX  10124 04201 45/70 /2301 10057 20002 30118 40141 52001 555 60/// 71202 72472 73308 74103 75500;
0141042010999992000061015004+77470-069220FM-12+001999999V0202801N002619999999N0220001N1+00781+00071101411ADDMA1999999101181MD1410001+9999REMSYN100AAXX  10154 04201 45/72 /2805 10078 20007 30118 40141 54000 555 60/// 71223 72500 73347 74150 75500;
0183042010999992000061018004+77470-069220FM-12+001999999V0202601N002119999999N0190001N1+00601-00061101411ADDKA1120M+01101KA2120N+00201MA1999999101181MD1410001+9999REMSYN116AAXX  10184 04201 45/69 /2604 10060 21006 30118 40141 54000 333 10110 20020 555 60/// 71195 72500 73344 74150 75500;
0141042010999992000061021004+77470-069220FM-12+001999999V0201501N002119999999N0250001N1+00551-00091101401ADDMA1999999101171MD1710011+9999REMSYN100AAXX  10214 04201 45/75 /1504 10055 21009 30117 40140 57001 555 60/// 71256 72500 73421 74183 75500;
0141042010999992000061100004+77470-069220FM-12+001999999V0202101N000519999999N0300001N1+00821+00001101291ADDMA1999999101061MD1710111+9999REMSYN100AAXX  11004 04201 45/80 /2101 10082 21000 30106 40129 57011 555 60/// 71334 72500 73435 74157 75500;
0141042010999992000061103004+77470-069220FM-12+001999999V0201201N002619999999N0300001N1+00311+00011101191ADDMA1999999100951MD1710111+9999REMSYN100AAXX  11034 04201 45/80 /1205 10031 20001 30095 40119 57011 555 60/// 71341 72500 73414 74221 75500;
0183042010999992000061106004+77470-069220FM-12+001999999V0201101N005719999999N0450001N1+00551+00011100971ADDKA1120M+00941KA2120N+00231MA1999999100741MD1710211+9999REMSYN116AAXX  11064 04201 45/83 /1111 10055 20001 30074 40097 57021 333 10094 20023 555 60/// 71456 72500 73500 74221 75500;
0151042010999992000061109004+77470-069220FM-12+001999999V0202501N002119999999N0400001N1+00471+00031100901ADDMA1999999100671MD1710071+9999REMSYN110AAXX  11094 04201 45/82 /2504 10047 20003 30067 40090 57007 333 91215 555 60/// 71421 72500 73500 74353 75500;
0174042010999992000061112004+77470-069220FM-12+001999999V0203101N004619999999N0400001N1+00271-00091100911ADDMA1999999100671MD1410001+9999OA149901131REMSYN122AAXX  11124 04201 4//82 /3109 10027 21009 30067 40091 54000 70075 333 91122 555 63993 64990 71438 72500 73500 74179 75500;
0141042010999992000061115004+77470-069220FM-12+001999999V0201901N000519999999N0250001N1+00301+00141100871ADDMA1999999100631MD1710041+9999REMSYN100AAXX  11154 04201 45/75 /1901 10030 20014 30063 40087 57004 555 60/// 71256 72500 73351 74244 75500;
0207042010999992000061118004+77470-069220FM-12+001999999V0202501N001019999999N0100001N1+00341+00151100871ADDKA1120M+00871KA2120N-00021MA1999999100631MD1410001+9999REMSYN140AAXX  11184 04201 4//60 /2502 10034 20015 30063 40087 54000 76165 333 10087 21002 555 61997 62992 63999 64990 71106 72250 73153 74106 75500;
0147042010999992000061121004+77470-069220FM-12+001999999V0202201N001019999999N0220001N1+00411+00171100811ADDMA1999999100581MD1710051+9999REMSYN106AAXX  11214 04201 4//72 /2202 10041 20017 30058 40081 57005 70055 555 60/// 71226 72500 73344 74142 75500;
0147042010999992000061200004+77470-069220FM-12+001999999V0201201N001519999999N0270001N1+00381+00221100771ADDMA1999999100541MD1710041+9999REMSYN106AAXX  12004 04201 4//77 /1203 10038 20022 30054 40077 57004 70055 555 60/// 71270 72463 73356 74142 75500;
0141042010999992000061203004+77470-069220FM-12+001999999V0202401N000519999999N0230001N1+00331+00041100681ADDMA1999999100451MD1710091+9999REMSYN100AAXX  12034 04201 45/73 /2401 10033 20004 30045 40068 57009 555 60/// 71235 72473 73325 74136 75500;
0183042010999992000061206004+77470-069220FM-12+001999999V0201001N002619999999N0350001N1+00311+00231100591ADDKA1120M+00541KA2120N+00131MA1999999100361MD1710091+9999REMSYN116AAXX  12064 04201 45/81 /1005 10031 20023 30036 40059 57009 333 10054 20013 555 60/// 71361 72500 73474 74136 75500;
0141042010999992000061209004+77470-069220FM-12+001999999V0201101N002619999999N0250001N1+00391+00311100491ADDMA1999999100261MD1710101+9999REMSYN100AAXX  12094 04201 45/75 /1105 10039 20031 30026 40049 57010 555 60/// 71253 72500 73455 74199 75500;
0141042010999992000061212004+77470-069220FM-12+001999999V0202901N001019999999N0230001N1+00651+00301100431ADDMA1999999100201MD1710061+9999REMSYN100AAXX  12124 04201 45/73 /2902 10065 20030 30020 40043 57006 555 60/// 71236 72500 73326 74199 75500;
0141042010999992000061215004+77470-069220FM-12+001999999V0202801N001019999999N0300001N1+00441+00201100371ADDMA1999999100141MD1710061+9999REMSYN100AAXX  12154 04201 45/80 /2802 10044 20020 30014 40037 57006 555 60/// 71301 72500 73416 74232 75500;
0183042010999992000061218004+77470-069220FM-12+001999999V0202301N001519999999N0260001N1+00431+00121100351ADDKA1120M+00691KA2120N+00131MA1999999100121MD1710021+9999REMSYN116AAXX  12184 04201 45/76 /2303 10043 20012 30012 40035 57002 333 10069 20013 555 60/// 71267 72500 73347 74189 75500;
0141042010999992000061221004+77470-069220FM-12+001999999V0200301N004619999999N0300001N1+00851+00001100331ADDMA1999999100101MD1710021+9999REMSYN100AAXX  12214 04201 45/80 /0309 10085 21000 30010 40033 57002 555 60/// 71323 72500 73467 74172 75500;
0141042010999992000061300004+77470-069220FM-12+001999999V0200701N002619999999N0220001N1+00451-00121100361ADDMA1999999100131MD1210031+9999REMSYN100AAXX  13004 04201 45/72 /0705 10045 21012 30013 40036 52003 555 60/// 71220 72500 73406 74154 75500;
0168042010999992000061303004+77470-069220FM-12+001999999V0200601N003619999999N0450001N1+00611-00071100361ADDMA1999999100131MD1410001+9999OA149900881REMSYN116AAXX  13034 04201 45/83 /0607 10061 21007 30013 40036 54000 333 91117 91017 555 60/// 71494 72500 73500 74223 75500;
0206042010999992000061306004+77470-069220FM-12+001999999V0200401N012919999999N0270001N1+00571-00361100371ADDKA1120M+00881KA2120N+00351MA1999999100141MD1210011+9999OA149902261REMSYN128AAXX  13064 04201 45/77 /0425 10057 21036 30014 40037 52001 333 10088 20035 91144 91044 555 60/// 71274 72500 73445 74138 75500;
0168042010999992000061309004+77470-069220FM-12+001999999V0200601N016419999999N0270001N1+00411-00501100551ADDMA1999999100321MD1210181+9999OA149902521REMSYN116AAXX  13094 04201 45/77 /0632 10041 21050 30032 40055 52018 333 91149 91043 555 60/// 71280 72500 73459 74270 75500;
0168042010999992000061312004+77470-069220FM-12+001999999V0200401N015419999999N0190001N1+00361-00531100561ADDMA1999999100331MD1210011+9999OA149902571REMSYN116AAXX  13124 04201 45/69 /0430 10036 21053 30033 40056 52001 333 91150 91046 555 60/// 71198 72500 73336 74178 75500;
0168042010999992000061315004+77470-069220FM-12+001999999V0200501N014919999999N0260001N1+00401-00491100601ADDMA1999999100371MD1210041+9999OA149902371REMSYN116AAXX  13154 04201 45/76 /0529 10040 21049 30037 40060 52004 333 91146 91040 555 60/// 71270 72500 73464 74210 75500;
0206042010999992000061318004+77470-069220FM-12+001999999V0200701N015919999999N0240001N1+00511-00491100541ADDKA1120M+00621KA2120N+00271MA1999999100311MD1710061+9999OA149902471REMSYN128AAXX  13184 04201 45/74 /0731 10051 21049 30031 40054 57006 333 10062 20027 91148 91042 555 60/// 71249 72500 73351 74210 75500;
0168042010999992000061321004+77470-069220FM-12+001999999V0200501N012319999999N0350001N1+00521-00561100561ADDMA1999999100331MD1210021+9999OA149902261REMSYN116AAXX  13214 04201 45/81 /0524 10052 21056 30033 40056 52002 333 91144 91035 555 60/// 71353 72500 73460 74219 75500;
0168042010999992000061400004+77470-069220FM-12+001999999V0200401N009819999999N0350001N1+00451-00631100601ADDMA1999999100371MD1210041+9999OA149902261REMSYN116AAXX  14004 04201 45/81 /0419 10045 21063 30037 40060 52004 333 91144 91231 555 60/// 71360 72500 73484 74212 75500;
0168042010999992000061403004+77470-069220FM-12+001999999V0200501N013419999999N0300001N1+00331-00691100501ADDMA1999999100271MD1710101+9999OA149902261REMSYN116AAXX  14034 04201 45/80 /0526 10033 21069 30027 40050 57010 333 91144 91037 555 60/// 71328 72500 73399 74258 75500;
0206042010999992000061406004+77470-069220FM-12+001999999V0200301N000519999999N0290001N1+00241-00631100601ADDKA1120M+00591KA2120N+00141MA1999999100361MD1210091+9999OA149902261REMSYN128AAXX  14064 04201 45/79 /0301 10024 21063 30036 40060 52009 333 10059 20014 91144 91231 555 60/// 71295 72500 73500 74258 75500;
0141042010999992000061409004+77470-069220FM-12+001999999V0201101N005719999999N0400001N1+00351-00481100761ADDMA1999999100531MD1210171+9999REMSYN100AAXX  14094 04201 45/82 /1111 10035 21048 30053 40076 52017 555 60/// 71409 72500 73500 74336 75500;
0141042010999992000061412004+77470-069220FM-12+001999999V0202801N000519999999N0300001N1+00461-00361100921ADDMA1999999100691MD1210161+9999REMSYN100AAXX  14124 04201 45/80 /2801 10046 21036 30069 40092 52016 555 60/// 71331 72500 73427 74310 75500;
0141042010999992000061415004+77470-069220FM-12+001999999V0202601N001519999999N0240001N1+00611-00401101001ADDMA1999999100771MD1210081+9999REMSYN100AAXX  14154 04201 45/74 /2603 10061 21040 30077 40100 52008 555 60/// 71250 72500 73377 74198 75500;
0183042010999992000061418004+77470-069220FM-12+001999999V0202701N003119999999N0160001N1+00591-00161101051ADDKA1120M+00701KA2120N+00121MA1999999100821MD1210051+9999REMSYN116AAXX  14184 04201 45/66 /2706 10059 21016 30082 40105 52005 333 10070 20012 555 60/// 71161 72494 73303 74089 75500;
0141042010999992000061421004+77470-069220FM-12+001999999V0202701N003119999999N0210001N1+00681-00221101141ADDMA1999999100911MD1210091+9999REMSYN100AAXX  14214 04201 45/71 /2706 10068 21022 30091 40114 52009 555 60/// 71217 72500 73349 74204 75500;
0141042010999992000061500004+77470-069220FM-12+001999999V0202801N002119999999N0240001N1+00431-00091101281ADDMA1999999101041MD1210131+9999REMSYN100AAXX  15004 04201 45/74 /2804 10043 21009 30104 40128 52013 555 60/// 71246 72500 73365 74177 75500;
0141042010999992000061503004+77470-069220FM-12+001999999V0202801N001019999999N0300001N1+00261-00261101381ADDMA1999999101141MD1210101+9999REMSYN100AAXX  15034 04201 45/80 /2802 10026 21026 30114 40138 52010 555 60/// 71305 72486 73412 74180 75500;
0183042010999992000061506004+77470-069220FM-12+001999999V0203001N001019999999N0350001N1+00421-00201101501ADDKA1120M+00681KA2120N-00021MA1999999101261MD1210121+9999REMSYN116AAXX  15064 04201 45/81 /3002 10042 21020 30126 40150 52012 333 10068 21002 555 60/// 71371 72500 73492 74180 75500;
0141042010999992000061509004+77470-069220FM-12+001999999V0201201N007719999999N0400001N1+00321-00131101671ADDMA1999999101431MD1210171+9999REMSYN100AAXX  15094 04201 45/82 /1215 10032 21013 30143 40167 52017 555 60/// 71433 72500 73500 74265 75500;
0141042010999992000061512004+77470-069220FM-12+001999999V0201301N004119999999N0300001N1+00281-00041101851ADDMA1999999101611MD1210181+9999REMSYN100AAXX  15124 04201 45/80 /1308 10028 21004 30161 40185 52018 555 60/// 71328 72500 73406 74265 75500;
0141042010999992000061515004+77470-069220FM-12+001999999V0201201N005719999999N0250001N1+00581-00311101911ADDMA1999999101671MD1210061+9999REMSYN100AAXX  15154 04201 45/75 /1211 10058 21031 30167 40191 52006 555 60/// 71254 72500 73404 74254 75500;
0183042010999992000061518004+77470-069220FM-12+001999999V0201201N006219999999N0190001N1+00661-00291101901ADDKA1120M+00681KA2120N+00111MA1999999101671MD1410001+9999REMSYN116AAXX  15184 04201 45/69 /1212 10066 21029 30167 40190 54000 333 10068 20011 555 60/// 71193 72500 73387 74193 75500;
0141042010999992000061521004+77470-069220FM-12+001999999V0202601N002119999999N0190001N1+00521-00161101971ADDMA1999999101731MD1210061+9999REMSYN100AAXX  15214 04201 45/69 /2604 10052 21016 30173 40197 52006 555 60/// 71193 72500 73409 74083 75500;
0141042010999992000061600004+77470-069220FM-12+001999999V0202901N004119999999N0210001N1+00371+00061101991ADDMA1999999101751MD1210021+9999REMSYN100AAXX  16004 04201 45/71 /2908 10037 20006 30175 40199 52002 555 60/// 71220 72490 73340 74083 75500;
0141042010999992000061603004+77470-069220FM-12+001999999V0202801N001519999999N0260001N1+00171-00021102011ADDMA1999999101771MD1210021+9999REMSYN100AAXX  16034 04201 45/76 /2803 10017 21002 30177 40201 52002 555 60/// 71266 72500 73338 74205 75500;
0183042010999992000061606004+77470-069220FM-12+001999999V0203001N001019999999N0350001N1+00081+00021101981ADDKA1120M+00721KA2120N+00051MA1999999101741MD1710031+9999REMSYN116AAXX  16064 04201 45/81 /3002 10008 20002 30174 40198 57003 333 10072 20005 555 60/// 71400 72500 73490 74205 75500;
0141042010999992000061609004+77470-069220FM-12+001999999V0203101N001019999999N0300001N1+00171-00041101961ADDMA1999999101721MD1710021+9999REMSYN100AAXX  16094 04201 45/80 /3102 10017 21004 30172 40196 57002 555 60/// 71335 72500 73500 74261 75500;
0141042010999992000061612004+77470-069220FM-12+001999999V0201301N005719999999N0350001N1+00721-00331101881ADDMA1999999101651MD1710071+9999REMSYN100AAXX  16124 04201 45/81 /1311 10072 21033 30165 40188 57007 555 63991 71361 72500 73500 74900 75500;
0141042010999992000061615004+77470-069220FM-12+001999999V0202401N001519999999N0230001N1+00541-00131101821ADDMA1999999101581MD1710071+9999REMSYN100AAXX  16154 04201 45/73 /2403 10054 21013 30158 40182 57007 555 60/// 71235 72500 73453 74164 75500;
0183042010999992000061618004+77470-069220FM-12+001999999V0202901N002619999999N0180001N1+00551+00181101701ADDKA1120M+00901KA2120N-00071MA1999999101461MD1710121+9999REMSYN116AAXX  16184 04201 45/68 /2905 10055 20018 30146 40170 57012 333 10090 21007 555 60/// 71190 72500 73292 74117 75500;
0141042010999992000061621004+77470-069220FM-12+001999999V0202801N003619999999N0240001N1+00541+00091101561ADDMA1999999101321MD1710141+9999REMSYN100AAXX  16214 04201 45/74 /2807 10054 20009 30132 40156 57014 555 60/// 71249 72500 73389 74110 75500;
0141042010999992000061700004+77470-069220FM-12+001999999V0202801N004619999999N0300001N1+00461+00051101421ADDMA1999999101181MD1710141+9999REMSYN100AAXX  17004 04201 45/80 /2809 10046 20005 30118 40142 57014 555 60/// 71307 72500 73432 74110 75500;
0141042010999992000061703004+77470-069220FM-12+001999999V0203001N001519999999N0400001N1+00501-00021101241ADDMA1999999101011MD1710171+9999REMSYN100AAXX  17034 04201 45/82 /3003 10050 21002 30101 40124 57017 555 60/// 71413 72500 73492 74200 75500;
0183042010999992000061706004+77470-069220FM-12+001999999V0201001N004619999999N0350001N1+00661-00051101081ADDKA1120M+00871KA2120N+00101MA1999999100851MD1710161+9999REMSYN116AAXX  17064 04201 45/81 /1009 10066 21005 30085 40108 57016 333 10087 20010 555 60/// 71381 72500 73500 74200 75500;
0141042010999992000061709004+77470-069220FM-12+001999999V0200901N007719999999N0350001N1+00761-00211100991ADDMA1999999100761MD1710091+9999REMSYN100AAXX  17094 04201 45/81 /0915 10076 21021 30076 40099 57009 555 60/// 71354 72500 73488 74345 75500;
0141042010999992000061712004+77470-069220FM-12+001999999V0201101N007219999999N0300001N1+00791-00181100971ADDMA1999999100741MD1710021+9999REMSYN100AAXX  17124 04201 45/80 /1114 10079 21018 30074 40097 57002 555 60/// 71336 72500 73421 74314 75500;
0141042010999992000061715004+77470-069220FM-12+001999999V0201101N007219999999N0350001N1+00921-00111100961ADDMA1999999100731MD1710011+9999REMSYN100AAXX  17154 04201 45/81 /1114 10092 21011 30073 40096 57001 555 60/// 71353 72500 73456 74262 75500;
0189042010999992000061718004+77470-069220FM-12+001999999V0202801N002119999999N0250001N1+00571-00021101011ADDKA1120M+01001KA2120N+00531MA1999999100781MD1210051+9999REMSYN122AAXX  17184 04201 45/75 /2804 10057 21002 30078 40101 52005 333 10100 20053 91215 555 60/// 71258 72500 73366 74162 75500;
0141042010999992000061721004+77470-069220FM-12+001999999V0202801N002119999999N0300001N1+00601+00031101021ADDMA1999999100791MD1210011+9999REMSYN100AAXX  17214 04201 45/80 /2804 10060 20003 30079 40102 52001 555 60/// 71340 72500 73467 74254 75500;
0141042010999992000061800004+77470-069220FM-12+001999999V0202701N002119999999N0290001N1+00541+00021101051ADDMA1999999100821MD1210031+9999REMSYN100AAXX  18004 04201 45/79 /2704 10054 20002 30082 40105 52003 555 60/// 71290 72500 73391 74200 75500;
0141042010999992000061803004+77470-069220FM-12+001999999V0202801N001019999999N0210001N1+00231+00101101051ADDMA1999999100811MD1710011+9999REMSYN100AAXX  18034 04201 45/71 /2802 10023 20010 30081 40105 57001 555 60/// 71215 72500 73363 74173 75500;
0183042010999992000061806004+77470-069220FM-12+001999999V0201301N000519999999N0250001N1+00261+00031101011ADDKA1120M+00841KA2120N+00211MA1999999100771MD1710041+9999REMSYN116AAXX  18064 04201 45/75 /1301 10026 20003 30077 40101 57004 333 10084 20021 555 60/// 71257 72465 73370 74173 75500;
0141042010999992000061809004+77470-069220FM-12+001999999V0202601N001019999999N0350001N1+00241+00001100931ADDMA1999999100691MD1710081+9999REMSYN100AAXX  18094 04201 45/81 /2602 10024 20000 30069 40093 57008 555 60/// 71394 72500 73447 74276 75500;
0141042010999992000061812004+77470-069220FM-12+001999999V0202801N001019999999N0220001N1+00611+00141100831ADDMA1999999100601MD1710091+9999REMSYN100AAXX  18124 04201 45/72 /2802 10061 20014 30060 40083 57009 555 60/// 71228 72500 73323 74217 75500;
0141042010999992000061815004+77470-069220FM-12+001999999V0202801N003619999999N0200001N1+00691+00081100701ADDMA1999999100471MD1710131+9999REMSYN100AAXX  18154 04201 45/70 /2807 10069 20008 30047 40070 57013 555 60/// 71200 72500 73414 74200 75500;
0183042010999992000061818004+77470-069220FM-12+001999999V0202801N004119999999N0260001N1+00631+00091100601ADDKA1120M+00871KA2120N-00021MA1999999100371MD1710101+9999REMSYN116AAXX  18184 04201 45/76 /2808 10063 20009 30037 40060 57010 333 10087 21002 555 60/// 71270 72500 73385 74167 75500;
0141042010999992000061821004+77470-069220FM-12+001999999V0202801N004619999999N0260001N1+00721+00061100471ADDMA1999999100241MD1710131+9999REMSYN100AAXX  18214 04201 45/76 /2809 10072 20006 30024 40047 57013 555 60/// 71263 72500 73410 74239 75500;
0141042010999992000061900004+77470-069220FM-12+001999999V0202801N002119999999N0280001N1+00461+00101100361ADDMA1999999100131MD1710111+9999REMSYN100AAXX  19004 04201 45/78 /2804 10046 20010 30013 40036 57011 555 60/// 71286 72500 73460 74218 75500;
0141042010999992000061903004+77470-069220FM-12+001999999V0202801N000519999999N0290001N1+00321+00021100241ADDMA1999999100011MD1710121+9999REMSYN100AAXX  19034 04201 45/79 /2801 10032 20002 30001 40024 57012 555 60/// 71296 72500 73447 74234 75500;
0121042010999992000062003004+77470-069220FM-12+001999999V0201201N001019999999N0280001N1+00251+00081101441ADDMA1999999101201REMSYN094AAXX  20034 04201 45/78 /1202 10025 20008 30120 40144 555 60/// 71282 72500 73438 74256 75500;
0183042010999992000062006004+77470-069220FM-12+001999999V0201601N002119999999N0260001N1+00091+00011101671ADDKA1120M+00751KA2120N-00021MA1999999101431MD1210231+9999REMSYN116AAXX  20064 04201 45/76 /1604 10009 20001 30143 40167 52023 333 10075 21002 555 63989 71267 72500 73349 74237 75500;
0141042010999992000062009004+77470-069220FM-12+001999999V0202701N001019999999N0250001N1+00321+00111101851ADDMA1999999101611MD1210181+9999REMSYN100AAXX  20094 04201 45/75 /2702 10032 20011 30161 40185 52018 555 60/// 71260 72468 73363 74235 75499;
0141042010999992000062012004+77470-069220FM-12+001999999V0201301N001519999999N0140001N1+00341+00161101971ADDMA1999999101731MD1210121+9999REMSYN100AAXX  20124 04201 45/64 /1303 10034 20016 30173 40197 52012 555 60/// 71141 72278 73175 74141 75500;
0147042010999992000062015004+77470-069220FM-12+001999999V0202801N005119999999N0010001N1+00251+00181102051ADDMA1999999101811MD1210081+9999REMSYN106AAXX  20154 04201 4//10 /2810 10025 20018 30181 40205 52008 71010 555 60/// 71010 72225 73021 74874 75500;
0189042010999992000062018004+77470-069220FM-12+001999999V0202801N006219999999N0110001N1+00331+00251102101ADDKA1120M+00571KA2120N-00021MA1999999101861MD1210051+9999REMSYN122AAXX  20184 04201 4//61 /2812 10033 20025 30186 40210 52005 70010 333 10057 21002 555 60/// 71116 72200 73159 74874 75500;
0141042010999992000062021004+77470-069220FM-12+001999999V0202801N004619999999N0140001N1+00241+00191102051ADDMA1999999101811MD1710051+9999REMSYN100AAXX  20214 04201 45/64 /2809 10024 20019 30181 40205 57005 555 60/// 71147 72265 73192 74091 75286;
0147042010999992000062100004+77470-069220FM-12+001999999V0202501N001519999999N0005001N1+00171+00171101941ADDMA1999999101701MD1710111+9999REMSYN106AAXX  21004 04201 4//05 /2503 10017 20017 30170 40194 57011 73431 555 60/// 71853 72014 73881 74853 75340;
0147042010999992000062103004+77470-069220FM-12+001999999V0202601N001019999999N0003001N1+00121+00121101831ADDMA1999999101591MD1710111+9999REMSYN106AAXX  21034 04201 4//03 /2602 10012 20012 30159 40183 57011 73433 555 60/// 71825 72834 73830 74824 75082;
0189042010999992000062106004+77470-069220FM-12+001999999V0202101N000519999999N0003001N1+00091+00091101701ADDKA1120M+00331KA2120N+00081MA1999999101461MD1710131+9999REMSYN122AAXX  21064 04201 4//03 /2101 10009 20009 30146 40170 57013 73333 333 10033 20008 555 63991 71830 72835 73832 74824 75082;
0147042010999992000062109004+77470-069220FM-12+001999999V0201401N002119999999N0003001N1+00041+00041101571ADDMA1999999101331MD1710131+9999REMSYN106AAXX  21094 04201 4//03 /1404 10004 20004 30133 40157 57013 73333 555 60/// 71828 72834 73831 74825 75834;
0147042010999992000062112004+77470-069220FM-12+001999999V0201401N003119999999N0002001N1-00011-00011101501ADDMA1999999101261MD1710071+9999REMSYN106AAXX  21124 04201 4//02 /1406 11001 21001 30126 40150 57007 73333 555 60/// 71824 72831 73827 74820 75834;
0147042010999992000062115004+77470-069220FM-12+001999999V0202301N002619999999N0013001N1+00131+00051101501ADDMA1999999101261MD1410001+9999REMSYN106AAXX  21154 04201 4//13 /2305 10013 20005 30126 40150 54000 72033 555 60/// 71013 72428 73052 74822 75428;
0189042010999992000062118004+77470-069220FM-12+001999999V0202501N001519999999N0011001N1+00151-00031101711ADDKA1120M+00291KA2120N-00061MA1999999101471MD1210211+9999REMSYN122AAXX  21184 04201 4//11 /2503 10015 21003 30147 40171 52021 72033 333 10029 21006 555 60/// 71011 72357 73057 74822 75500;
0147042010999992000062121004+77470-069220FM-12+001999999V0201601N001019999999N0290001N1+00321+00011101931ADDMA1999999101691MD1210221+9999REMSYN106AAXX  21214 04201 4//79 /1602 10032 20001 30169 40193 52022 70010 555 60/// 71296 72500 73423 74873 75500;
0147042010999992000062200004+77470-069220FM-12+001999999V0201501N001019999999N0350001N1+00431-00041102121ADDMA1999999101881MD1210191+9999REMSYN106AAXX  22004 04201 4//81 /1502 10043 21004 30188 40212 52019 70010 555 60/// 71393 72500 73471 74873 75500;
0147042010999992000062203004+77470-069220FM-12+001999999V0201101N003119999999N0002001N1+00091+00061102291ADDMA1999999102051MD1210171+9999REMSYN106AAXX  22034 04201 4//02 /1106 10009 20006 30205 40229 52017 73031 555 63991 71824 72846 73828 74823 75500;
0189042010999992000062206004+77470-069220FM-12+001999999V0201501N002119999999N0002001N1+00101+00071102431ADDKA1120M+00591KA2120N+00071MA1999999102191MD1210141+9999REMSYN122AAXX  22064 04201 4//02 /1504 10010 20007 30219 40243 52014 73031 333 10059 20007 555 63991 71823 72840 73827 74820 75500;
0147042010999992000062209004+77470-069220FM-12+001999999V0201301N001019999999N0003001N1+00101+00071102551ADDMA1999999102311MD1210121+9999REMSYN106AAXX  22094 04201 4//03 /1302 10010 20007 30231 40255 52012 73233 555 60/// 71831 72849 73833 74818 75863;
0147042010999992000062215004+77470-069220FM-12+001999999V0201801N001019999999N0007001N1+00141+00031102641ADDMA1999999102401MD1210031+9999REMSYN106AAXX  22154 04201 4//07 /1802 10014 20003 30240 40264 52003 72033 555 60/// 71865 72033 73015 74834 75253;
0189042010999992000062218004+77470-069220FM-12+001999999V0202601N001519999999N0005001N1+00111-00011102671ADDKA1120M+00221KA2120N-00021MA1999999102431MD1210031+9999REMSYN122AAXX  22184 04201 4//05 /2603 10011 21001 30243 40267 52003 72033 333 10022 21002 555 60/// 71848 72028 73013 74834 75253;
0147042010999992000062221004+77470-069220FM-12+001999999V0202601N001519999999N0042001N1+00211+00021102701ADDMA1999999102461MD1210031+9999REMSYN106AAXX  22214 04201 4//42 /2603 10021 20002 30246 40270 52003 72031 555 60/// 71042 72489 73280 74849 75500;
0147042010999992000062300004+77470-069220FM-12+001999999V0202801N000519999999N0450001N1+00191+00051102741ADDMA1999999102501MD1210041+9999REMSYN106AAXX  23004 04201 4//83 /2801 10019 20005 30250 40274 52004 70031 555 60/// 71466 72500 73500 74849 75500;
0141042010999992000062303004+77470-069220FM-12+001999999V0202201N000519999999N0300001N1+00311-00091102711ADDMA1999999102471MD1710031+9999REMSYN100AAXX  23034 04201 45/80 /2201 10031 21009 30247 40271 57003 555 60/// 71320 72500 73476 74299 75500;
0183042010999992000062306004+77470-069220FM-12+001999999V0202501N000519999999N0300001N1+00251-00211102741ADDKA1120M+00541KA2120N-00021MA1999999102501MD1210031+9999REMSYN116AAXX  23064 04201 45/80 /2501 10025 21021 30250 40274 52003 333 10054 21002 555 60/// 71322 72500 73440 74299 75500;
0141042010999992000062309004+77470-069220FM-12+001999999V0202401N001519999999N0400001N1+00211-00121102711ADDMA1999999102471MD1710031+9999REMSYN100AAXX  23094 04201 45/82 /2403 10021 21012 30247 40271 57003 555 60/// 71436 72500 73500 74050 75500;
0141042010999992000062312004+77470-069220FM-12+001999999V0202901N001019999999N0250001N1+00451-00061102761ADDMA1999999102521MD1210051+9999REMSYN100AAXX  23124 04201 45/75 /2902 10045 21006 30252 40276 52005 555 63991 71253 72500 73432 74050 75500;
0141042010999992000062315004+77470-069220FM-12+001999999V0202601N001019999999N0300001N1+00631+00041102751ADDMA1999999102511MD1710011+9999REMSYN100AAXX  23154 04201 45/80 /2602 10063 20004 30251 40275 57001 555 60/// 71350 72500 73468 74118 75500;
0183042010999992000062318004+77470-069220FM-12+001999999V0202901N004119999999N0180001N1+00851+00031102741ADDKA1120M+00901KA2120N+00051MA1999999102501MD1710011+9999REMSYN116AAXX  23184 04201 45/68 /2908 10085 20003 30250 40274 57001 333 10090 20005 555 60/// 71185 72336 73266 74084 75500;
0141042010999992000062321004+77470-069220FM-12+001999999V0202801N004619999999N0260001N1+00861-00021102761ADDMA1999999102521MD1210021+9999REMSYN100AAXX  23214 04201 45/76 /2809 10086 21002 30252 40276 52002 555 60/// 71267 72500 73366 74120 75500;
0141042010999992000062400004+77470-069220FM-12+001999999V0202901N002619999999N0300001N1+00811-00031102741ADDMA1999999102501MD1710021+9999REMSYN100AAXX  24004 04201 45/80 /2905 10081 21003 30250 40274 57002 555 60/// 71303 72500 73401 74120 75500;
0141042010999992000062403004+77470-069220FM-12+001999999V0201501N001019999999N0350001N1+00761-00111102711ADDMA1999999102471MD1710031+9999REMSYN100AAXX  24034 04201 45/81 /1502 10076 21011 30247 40271 57003 555 63991 71366 72500 73500 74248 75500;
0183042010999992000062406004+77470-069220FM-12+001999999V0202501N000519999999N0300001N1+00651-00081102651ADDKA1120M+01161KA2120N+00271MA1999999102411MD1710061+9999REMSYN116AAXX  24064 04201 45/80 /2501 10065 21008 30241 40265 57006 333 10116 20027 555 63991 71326 72500 73500 74222 75500;
0141042010999992000062409004+77470-069220FM-12+001999999V0202801N000519999999N0230001N1+00631-00071102611ADDMA1999999102371MD1710041+9999REMSYN100AAXX  24094 04201 45/73 /2801 10063 21007 30237 40261 57004 555 60/// 71236 72500 73500 74236 75500;
0141042010999992000062412004+77470-069220FM-12+001999999V0202801N001019999999N0300001N1+00811+00031102561ADDMA1999999102321MD1710051+9999REMSYN100AAXX  24124 04201 45/80 /2802 10081 20003 30232 40256 57005 555 60/// 71301 72500 73391 74216 75500;
0141042010999992000062415004+77470-069220FM-12+001999999V0202701N002119999999N0210001N1+00721-00051102481ADDMA1999999102241MD1710081+9999REMSYN100AAXX  24154 04201 45/71 /2704 10072 21005 30224 40248 57008 555 60/// 71211 72500 73330 74197 75500;
0183042010999992000062418004+77470-069220FM-12+001999999V0202901N003619999999N0350001N1+00851+00031102431ADDKA1120M+01091KA2120N+00451MA1999999102201MD1710041+9999REMSYN116AAXX  24184 04201 45/81 /2907 10085 20003 30220 40243 57004 333 10109 20045 555 60/// 71352 72500 73424 74197 75500;
0141042010999992000062421004+77470-069220FM-12+001999999V0202901N002619999999N0200001N1+00711+00251102421ADDMA1999999102181MD1710021+9999REMSYN100AAXX  24214 04201 45/70 /2905 10071 20025 30218 40242 57002 555 60/// 71209 72500 73339 74192 75500;
0141042010999992000062500004+77470-069220FM-12+001999999V0202901N002619999999N0290001N1+00421+00201102381ADDMA1999999102141MD1710041+9999REMSYN100AAXX  25004 04201 45/79 /2905 10042 20020 30214 40238 57004 555 60/// 71296 72500 73500 74192 75500;
0141042010999992000062503004+77470-069220FM-12+001999999V0202701N001519999999N0400001N1+00541+00311102291ADDMA1999999102051MD1710091+9999REMSYN100AAXX  25034 04201 45/82 /2703 10054 20031 30205 40229 57009 555 60/// 71402 72500 73465 74188 75500;
0183042010999992000062506004+77470-069220FM-12+001999999V0209999C000019999999N0400001N1+00571+00301102191ADDKA1120M+00901KA2120N+00401MA1999999101951MD1710101+9999REMSYN116AAXX  25064 04201 45/82 /0000 10057 20030 30195 40219 57010 333 10090 20040 555 60/// 71414 72500 73500 74188 75500;
0141042010999992000062509004+77470-069220FM-12+001999999V0203201N000519999999N0400001N1+00471+00181102121ADDMA1999999101881MD1710071+9999REMSYN100AAXX  25094 04201 45/82 /3201 10047 20018 30188 40212 57007 555 60/// 71447 72500 73500 74399 75500;
0141042010999992000062512004+77470-069220FM-12+001999999V0202901N001019999999N0350001N1+00751+00231102071ADDMA1999999101841MD1710041+9999REMSYN100AAXX  25124 04201 45/81 /2902 10075 20023 30184 40207 57004 555 60/// 71390 72500 73500 74342 75500;
0162042010999992000062515004+77470-069220FM-12+001999999V0200801N003119999999N0270001N1+01291+00061102041ADDMA1999999101811MD1710031+9999OA149900671REMSYN110AAXX  25154 04201 45/77 /0806 10129 20006 30181 40204 57003 333 91113 555 63991 71273 72500 73408 74249 75500;
0200042010999992000062518004+77470-069220FM-12+001999999V0202701N001519999999N0280001N1+00651+00081102081ADDKA1120M+01381KA2120N+00341MA1999999101841MD1210031+9999OA149900671REMSYN122AAXX  25184 04201 45/78 /2703 10065 20008 30184 40208 52003 333 10138 20034 91113 555 63991 71288 72500 73431 74197 75500;
0141042010999992000062521004+77470-069220FM-12+001999999V0202901N002119999999N0300001N1+00761+00101102161ADDMA1999999101931MD1210091+9999REMSYN100AAXX  25214 04201 45/80 /2904 10076 20010 30193 40216 52009 555 60/// 71317 72500 73457 74271 75500;
0141042010999992000062600004+77470-069220FM-12+001999999V0202801N002119999999N0300001N1+00681+00451102241ADDMA1999999102001MD1210071+9999REMSYN100AAXX  26004 04201 45/80 /2804 10068 20045 30200 40224 52007 555 60/// 71344 72500 73454 74269 75500;
0141042010999992000062603004+77470-069220FM-12+001999999V0202801N002119999999N0450001N1+00451+00361102231ADDMA1999999101991MD1710011+9999REMSYN100AAXX  26034 04201 45/83 /2804 10045 20036 30199 40223 57001 555 63991 71452 72500 73500 74186 75500;
0183042010999992000062606004+77470-069220FM-12+001999999V0201401N000519999999N0400001N1+00531+00371102231ADDKA1120M+00941KA2120N-00021MA1999999101991MD1410001+9999REMSYN116AAXX  26064 04201 45/82 /1401 10053 20037 30199 40223 54000 333 10094 21002 555 63991 71409 72500 73500 74066 75500;
0141042010999992000062609004+77470-069220FM-12+001999999V0202801N001019999999N0300001N1+00481+00191102251ADDMA1999999102011MD1210021+9999REMSYN100AAXX  26094 04201 45/80 /2802 10048 20019 30201 40225 52002 555 60/// 71312 72500 73400 74312 75500;
0141042010999992000062612004+77470-069220FM-12+001999999V0202501N001519999999N0290001N1+00471+00141102251ADDMA1999999102011MD1410001+9999REMSYN100AAXX  26124 04201 45/79 /2503 10047 20014 30201 40225 54000 555 60/// 71296 72500 73356 74294 75500;
0141042010999992000062615004+77470-069220FM-12+001999999V0202801N002119999999N0160001N1+00801+00321102201ADDMA1999999101971MD1710041+9999REMSYN100AAXX  26154 04201 45/66 /2804 10080 20032 30197 40220 57004 555 60/// 71165 72500 73360 74165 75500;
0183042010999992000062618004+77470-069220FM-12+001999999V0202801N003619999999N0130001N1+00801+00171102201ADDKA1120M+00871KA2120N+00271MA1999999101971MD1410001+9999REMSYN116AAXX  26184 04201 45/63 /2807 10080 20017 30197 40220 54000 333 10087 20027 555 60/// 71132 72500 73296 74132 75500;
0141042010999992000062621004+77470-069220FM-12+001999999V0202801N003619999999N0290001N1+00751+00271102251ADDMA1999999102021MD1210051+9999REMSYN100AAXX  26214 04201 45/79 /2807 10075 20027 30202 40225 52005 555 60/// 71297 72500 73409 74124 75500;
0141042010999992000062700004+77470-069220FM-12+001999999V0202701N001519999999N0350001N1+00561+00211102291ADDMA1999999102051MD1210031+9999REMSYN100AAXX  27004 04201 45/81 /2703 10056 20021 30205 40229 52003 555 60/// 71378 72500 73454 74124 75500;
0141042010999992000062703004+77470-069220FM-12+001999999V0202901N002119999999N0300001N1+00531+00231102281ADDMA1999999102041MD1710011+9999REMSYN100AAXX  27034 04201 45/80 /2904 10053 20023 30204 40228 57001 555 63991 71330 72500 73478 74261 75500;
0183042010999992000062706004+77470-069220FM-12+001999999V0202701N000519999999N0350001N1+00501+00141102241ADDKA1120M+00851KA2120N+00421MA1999999102001MD1710041+9999REMSYN116AAXX  27064 04201 45/81 /2701 10050 20014 30200 40224 57004 333 10085 20042 555 63991 71382 72500 73500 74261 75500;
0141042010999992000062709004+77470-069220FM-12+001999999V0202801N000519999999N0260001N1+00521+00161102251ADDMA1999999102011MD1210011+9999REMSYN100AAXX  27094 04201 45/76 /2801 10052 20016 30201 40225 52001 555 63991 71268 72500 73350 74268 75500;
0141042010999992000062712004+77470-069220FM-12+001999999V0202801N001019999999N0280001N1+00511+00161102241ADDMA1999999102001MD1710011+9999REMSYN100AAXX  27124 04201 45/78 /2802 10051 20016 30200 40224 57001 555 63991 71280 72500 73338 74181 75500;
0183042010999992000062718004+77470-069220FM-12+001999999V0202901N002119999999N0250001N1+00791+00371102141ADDKA1120M+00921KA2120N+00251MA1999999101911MD1710021+9999REMSYN116AAXX  27184 04201 45/75 /2904 10079 20037 30191 40214 57002 333 10092 20025 555 60/// 71251 72500 73318 74835 75500;
0141042010999992000062721004+77470-069220FM-12+001999999V0202701N002119999999N0280001N1+00601+00331102191ADDMA1999999101951MD1210041+9999REMSYN100AAXX  27214 04201 45/78 /2704 10060 20033 30195 40219 52004 555 60/// 71289 72500 73426 74169 75500;
0141042010999992000062803004+77470-069220FM-12+001999999V0201201N000519999999N0350001N1+00641+00321102171ADDMA1999999101931MD1710041+9999REMSYN100AAXX  28034 04201 45/81 /1201 10064 20032 30193 40217 57004 555 60/// 71356 72500 73421 74221 75500;
0183042010999992000062806004+77470-069220FM-12+001999999V0209999C000019999999N0400001N1+00881+00351102161ADDKA1120M+00891KA2120N+00411MA1999999101931MD1410001+9999REMSYN116AAXX  28064 04201 45/82 /0000 10088 20035 30193 40216 54000 333 10089 20041 555 60/// 71413 72500 73500 74221 75500;
0141042010999992000062809004+77470-069220FM-12+001999999V0202501N001019999999N0290001N1+00611+00151102201ADDMA1999999101961MD1210031+9999REMSYN100AAXX  28094 04201 45/79 /2502 10061 20015 30196 40220 52003 555 60/// 71291 72500 73500 74291 75500;
0141042010999992000062812004+77470-069220FM-12+001999999V0202701N002619999999N0140001N1+00861+00141102151ADDMA1999999101921MD1710041+9999REMSYN100AAXX  28124 04201 45/64 /2705 10086 20014 30192 40215 57004 555 60/// 71147 72500 73281 74147 75500;
0141042010999992000062815004+77470-069220FM-12+001999999V0202001N000519999999N0300001N1+00921+00151102141ADDMA1999999101911MD1710011+9999REMSYN100AAXX  28154 04201 45/80 /2001 10092 20015 30191 40214 57001 555 60/// 71338 72500 73469 74040 75500;
0183042010999992000062818004+77470-069220FM-12+001999999V0202801N003119999999N0190001N1+00981+00261102101ADDKA1120M+01161KA2120N+00341MA1999999101871MD1710041+9999REMSYN116AAXX  28184 04201 45/69 /2806 10098 20026 30187 40210 57004 333 10116 20034 555 60/// 71194 72500 73312 74040 75500;
0141042010999992000062821004+77470-069220FM-12+001999999V0202801N005719999999N0290001N1+00931+00431102151ADDMA1999999101921MD1210051+9999REMSYN100AAXX  28214 04201 45/79 /2811 10093 20043 30192 40215 52005 555 60/// 71292 72500 73404 74162 75500;
0141042010999992000062900004+77470-069220FM-12+001999999V0202901N004619999999N0290001N1+00911+00471102141ADDMA1999999101911MD1710011+9999REMSYN100AAXX  29004 04201 45/79 /2909 10091 20047 30191 40214 57001 555 60/// 71291 72500 73402 74162 75500;
0141042010999992000062903004+77470-069220FM-12+001999999V0203001N003119999999N0350001N1+00831+00411102131ADDMA1999999101901MD1710011+9999REMSYN100AAXX  29034 04201 45/81 /3006 10083 20041 30190 40213 57001 555 60/// 71380 72500 73500 74185 75500;
0183042010999992000062906004+77470-069220FM-12+001999999V0209999C000019999999N0400001N1+00811+00181102131ADDKA1120M+01161KA2120N+00661MA1999999101901MD1410001+9999REMSYN116AAXX  29064 04201 45/82 /0000 10081 20018 30190 40213 54000 333 10116 20066 555 60/// 71405 72500 73474 74185 75500;
0141042010999992000062909004+77470-069220FM-12+001999999V0202701N001019999999N0300001N1+00651+00131102161ADDMA1999999101921MD1210021+9999REMSYN100AAXX  29094 04201 45/80 /2702 10065 20013 30192 40216 52002 555 60/// 71344 72500 73411 74316 75500;
0141042010999992000062912004+77470-069220FM-12+001999999V0202601N001019999999N0250001N1+00841+00151102131ADDMA1999999101901MD1710021+9999REMSYN100AAXX  29124 04201 45/75 /2602 10084 20015 30190 40213 57002 555 60/// 71252 72500 73464 74238 75500;
0141042010999992000062915004+77470-069220FM-12+001999999V0202301N001019999999N0290001N1+00911+00291102161ADDMA1999999101931MD1210031+9999REMSYN100AAXX  29154 04201 45/79 /2302 10091 20029 30193 40216 52003 555 60/// 71297 72500 73405 74088 75500;
0183042010999992000062918004+77470-069220FM-12+001999999V0202801N002619999999N0240001N1+01011+00121102221ADDKA1120M+01051KA2120N+00341MA1999999101991MD1210061+9999REMSYN116AAXX  29184 04201 45/74 /2805 10101 20012 30199 40222 52006 333 10105 20034 555 60/// 71241 72500 73357 74088 75500;
0141042010999992000062921004+77470-069220FM-12+001999999V0202701N001519999999N0350001N1+00901+00411102311ADDMA1999999102081MD1210091+9999REMSYN100AAXX  29214 04201 45/81 /2703 10090 20041 30208 40231 52009 555 60/// 71361 72500 73433 74156 75500;
0141042010999992000063000004+77470-069220FM-12+001999999V0202801N001519999999N0300001N1+00871+00301102341ADDMA1999999102111MD1210031+9999REMSYN100AAXX  30004 04201 45/80 /2803 10087 20030 30211 40234 52003 555 60/// 71309 72500 73362 74102 75500;
0141042010999992000063003004+77470-069220FM-12+001999999V0209999C000019999999N0300001N1+00461+00101102351ADDMA1999999102111MD1410001+9999REMSYN100AAXX  30034 04201 45/80 /0000 10046 20010 30211 40235 54000 555 60/// 71346 72500 73467 74289 75500;
0183042010999992000063006004+77470-069220FM-12+001999999V0201201N000519999999N0350001N1+00821+00411102341ADDKA1120M+01211KA2120N+00271MA1999999102111MD1410001+9999REMSYN116AAXX  30064 04201 45/81 /1201 10082 20041 30211 40234 54000 333 10121 20027 555 60/// 71376 72500 73500 74289 75500;
0141042010999992000063009004+77470-069220FM-12+001999999V0202901N000519999999N0400001N1+00951+00381102341ADDMA1999999102111MD1410001+9999REMSYN100AAXX  30094 04201 45/82 /2901 10095 20038 30211 40234 54000 555 63991 71413 72500 73483 74271 75500;
0141042010999992000063012004+77470-069220FM-12+001999999V0201101N003619999999N0300001N1+01061+00101102361ADDMA1999999102131MD1210021+9999REMSYN100AAXX  30124 04201 45/80 /1107 10106 20010 30213 40236 52002 555 63991 71344 72500 73500 74271 75500;
0151042010999992000063015004+77470-069220FM-12+001999999V0202301N001519999999N0290001N1+00591+00051102491ADDMA1999999102251MD1210121+9999REMSYN110AAXX  30154 04201 45/79 /2303 10059 20005 30225 40249 52012 333 91213 555 60/// 71296 72500 73436 74250 75500;
0189042010999992000063018004+77470-069220FM-12+001999999V0202701N000519999999N0350001N1+00511+00301102661ADDKA1120M+01301KA2120N+00371MA1999999102421MD1210171+9999REMSYN122AAXX  30184 04201 45/81 /2701 10051 20030 30242 40266 52017 333 10130 20037 91213 555 63991 71385 72500 73490 74250 75500;
0165042010999992000063021004+77470-069220FM-12+001999999V0200201N003619999999N0400001N1+01161+00511102821ADDMA1999999102591MD1210171+9999REMSYN124AAXX  30214 04201 4//82 /0207 10116 20051 30259 40282 52017 75165 555 61991 62990 63010 64993 71432 72500 73500 74160 75500;
0153042010999992000070100004+77470-069220FM-12+001999999V0201101N005119999999N0500001N1+00921+00421102931ADDMA1999999102691MD1210101+9999REMSYN112AAXX  01004 04201 4//84 /1110 10092 20042 30269 40293 52010 70065 555 63010 64990 71500 72500 73500 74160 75500;
0141042010999992000070103004+77470-069220FM-12+001999999V0200901N007719999999N0450001N1+01121+00341102961ADDMA1999999102731MD1210041+9999REMSYN100AAXX  01034 04201 45/83 /0915 10112 20034 30273 40296 52004 555 60/// 71483 72500 73500 74423 75500;
0195042010999992000070106004+77470-069220FM-12+001999999V0200901N007219999999N0450001N1+01191+00371102951ADDKA1120M+01221KA2120N+00441MA1999999102721MD1710011+9999REMSYN128AAXX  01064 04201 4//83 /0914 10119 20037 30272 40295 57001 78165 333 10122 20044 555 63991 64990 71487 72500 73500 74408 75500;
0141042010999992000070109004+77470-069220FM-12+001999999V0201001N006719999999N0400001N1+01181+00311102981ADDMA1999999102751MD1210031+9999REMSYN100AAXX  01094 04201 45/82 /1013 10118 20031 30275 40298 52003 555 60/// 71448 72500 73500 74424 75500;
0141042010999992000070112004+77470-069220FM-12+001999999V0201101N006719999999N0350001N1+01221+00261102971ADDMA1999999102741MD1710011+9999REMSYN100AAXX  01124 04201 45/81 /1113 10122 20026 30274 40297 57001 555 60/// 71389 72500 73500 74323 75500;
0141042010999992000070115004+77470-069220FM-12+001999999V0201101N005719999999N0270001N1+01461+00201102961ADDMA1999999102731MD1710011+9999REMSYN100AAXX  01154 04201 45/77 /1111 10146 20020 30273 40296 57001 555 60/// 71272 72500 73500 74265 75500;
0201042010999992000070118004+77470-069220FM-12+001999999V0201401N001019999999N0300001N1+00811+00121102941ADDKA1120M+01511KA2120N+00581MA1999999102701MD1710031+9999REMSYN134AAXX  01184 04201 45/80 /1402 10081 20012 30270 40294 57003 333 10151 20058 91213 555 61995 62990 63995 71326 72799 73450 74251 75799;
0141042010999992000070121004+77470-069220FM-12+001999999V0202701N001519999999N0300001N1+00831+00211102971ADDMA1999999102731MD1210031+9999REMSYN100AAXX  01214 04201 45/80 /2703 10083 20021 30273 40297 52003 555 60/// 71345 72500 73446 74223 75500;
0141042010999992000070200004+77470-069220FM-12+001999999V0203201N001519999999N0350001N1+00701+00341102921ADDMA1999999102681MD1710051+9999REMSYN100AAXX  02004 04201 45/81 /3203 10070 20034 30268 40292 57005 555 60/// 71397 72500 73498 74223 75500;
0141042010999992000070203004+77470-069220FM-12+001999999V0203001N002119999999N0400001N1+00781+00231102811ADDMA1999999102571MD1710111+9999REMSYN100AAXX  02034 04201 45/82 /3004 10078 20023 30257 40281 57011 555 60/// 71425 72500 73500 74307 75500;
0183042010999992000070206004+77470-069220FM-12+001999999V0202701N001519999999N0400001N1+00321+00051102731ADDKA1120M+01161KA2120N+00321MA1999999102491MD1710081+9999REMSYN116AAXX  02064 04201 45/82 /2703 10032 20005 30249 40273 57008 333 10116 20032 555 60/// 71431 72500 73500 74300 75500;
0141042010999992000070209004+77470-069220FM-12+001999999V0202801N001019999999N0350001N1+00431+00201102691ADDMA1999999102451MD1710041+9999REMSYN100AAXX  02094 04201 45/81 /2802 10043 20020 30245 40269 57004 555 60/// 71381 72500 73500 74381 75500;
0141042010999992000070212004+77470-069220FM-12+001999999V0201801N001019999999N0300001N1+00541+00311102661ADDMA1999999102421MD1710031+9999REMSYN100AAXX  02124 04201 45/80 /1802 10054 20031 30242 40266 57003 555 60/// 71350 72500 73456 74230 75500;
0141042010999992000070215004+77470-069220FM-12+001999999V0201801N000519999999N0300001N1+00601+00301102601ADDMA1999999102361MD1710061+9999REMSYN100AAXX  02154 04201 45/80 /1801 10060 20030 30236 40260 57006 555 60/// 71315 72500 73379 74239 75500;
0183042010999992000070218004+77470-069220FM-12+001999999V0202201N001019999999N0350001N1+00601+00331102571ADDKA1120M+00881KA2120N+00311MA1999999102331MD1710031+9999REMSYN116AAXX  02184 04201 45/81 /2202 10060 20033 30233 40257 57003 333 10088 20031 555 63995 71354 72500 73468 74232 75500;
0141042010999992000070221004+77470-069220FM-12+001999999V0201901N001019999999N0280001N1+00521+00291102571ADDMA1999999102331MD1410001+9999REMSYN100AAXX  02214 04201 45/78 /1902 10052 20029 30233 40257 54000 555 60/// 71280 72488 73361 74272 75500;
0141042010999992000070300004+77470-069220FM-12+001999999V0202901N000519999999N0350001N1+00541+00281102601ADDMA1999999102361MD1210031+9999REMSYN100AAXX  03004 04201 45/81 /2901 10054 20028 30236 40260 52003 555 60/// 71359 72500 73500 74187 75500;
0141042010999992000070303004+77470-069220FM-12+001999999V0201601N001519999999N0350001N1+00561+00371102621ADDMA1999999102381MD1210021+9999REMSYN100AAXX  03034 04201 45/81 /1603 10056 20037 30238 40262 52002 555 60/// 71392 72500 73481 74352 75500;
0183042010999992000070306004+77470-069220FM-12+001999999V0201101N001519999999N0300001N1+00721+00391102581ADDKA1120M+00891KA2120N+00271MA1999999102341MD1710041+9999REMSYN116AAXX  03064 04201 45/80 /1103 10072 20039 30234 40258 57004 333 10089 20027 555 60/// 71334 72500 73500 74334 75500;
0153042010999992000070309004+77470-069220FM-12+001999999V0201101N002619999999N0450001N1+00721+00511102531ADDMA1999999102291MD1710051+9999REMSYN112AAXX  03094 04201 4//83 /1105 10072 20051 30229 40253 57005 72364 555 63997 64990 71468 72500 73500 74128 75500;
0153042010999992000070312004+77470-069220FM-12+001999999V0202901N001519999999N0300001N1+00351+00241102491ADDMA1999999102251MD1710041+9999REMSYN112AAXX  03124 04201 4//80 /2903 10035 20024 30225 40249 57004 72164 555 63997 64990 71331 72500 73436 74128 75500;
0141042010999992000070315004+77470-069220FM-12+001999999V0202501N002119999999N0300001N1+00351+00231102401ADDMA1999999102161MD1710091+9999REMSYN100AAXX  03154 04201 45/80 /2504 10035 20023 30216 40240 57009 555 60/// 71316 72500 73448 74316 75500;
0200042010999992000070318004+77470-069220FM-12+001999999V0201101N006719999999N0300001N1+01001+00441102271ADDKA1120M+01761KA2120N+00311MA1999999102041MD1710121+9999OA149900771REMSYN122AAXX  03184 04201 45/80 /1113 10100 20044 30204 40227 57012 333 10176 20031 91115 555 60/// 71315 72500 73466 74257 75500;
0141042010999992000070321004+77470-069220FM-12+001999999V0201001N005119999999N0300001N1+01371+00521102181ADDMA1999999101951MD1710091+9999REMSYN100AAXX  03214 04201 45/80 /1010 10137 20052 30195 40218 57009 555 60/// 71307 72500 73403 74273 75500;
0151042010999992000070400004+77470-069220FM-12+001999999V0201801N000519999999N0150001N1+00541+00201102211ADDMA1999999101971MD1210021+9999REMSYN110AAXX  04004 04201 45/65 /1801 10054 20020 30197 40221 52002 333 91213 555 60/// 71156 72500 73311 74156 75500;
0141042010999992000070403004+77470-069220FM-12+001999999V0201501N000519999999N0300001N1+00441+00341102141ADDMA1999999101901MD1710071+9999REMSYN100AAXX  04034 04201 45/80 /1501 10044 20034 30190 40214 57007 555 60/// 71307 72500 73399 74201 75500;
0183042010999992000070406004+77470-069220FM-12+001999999V0201201N002119999999N0400001N1+00941+00451102051ADDKA1120M+01391KA2120N+00281MA1999999101821MD1710081+9999REMSYN116AAXX  04064 04201 45/82 /1204 10094 20045 30182 40205 57008 333 10139 20028 555 60/// 71417 72500 73476 74201 75500;
0141042010999992000070409004+77470-069220FM-12+001999999V0201101N005119999999N0400001N1+01031+00381101971ADDMA1999999101741MD1710081+9999REMSYN100AAXX  04094 04201 45/82 /1110 10103 20038 30174 40197 57008 555 60/// 71435 72500 73500 74335 75500;
0141042010999992000070412004+77470-069220FM-12+001999999V0201101N006719999999N0450001N1+01171+00301101831ADDMA1999999101601MD1710141+9999REMSYN100AAXX  04124 04201 45/83 /1113 10117 20030 30160 40183 57014 555 60/// 71459 72500 73500 74335 75500;
0141042010999992000070415004+77470-069220FM-12+001999999V0200901N004119999999N0450001N1+01341+00331101721ADDMA1999999101491MD1710111+9999REMSYN100AAXX  04154 04201 45/83 /0908 10134 20033 30149 40172 57011 555 60/// 71475 72500 73500 74369 75500;
0207042010999992000070418004+77470-069220FM-12+001999999V0201101N004119999999N0350001N1+01161+00441101661ADDKA1120M+01461KA2120N+00651MA1999999101431MD1710061+9999REMSYN140AAXX  04184 04201 4//81 /1108 10116 20044 30143 40166 57006 75260 333 10146 20065 555 61993 62990 63995 64992 71365 72500 73500 74227 75500;
0165042010999992000070500004+77470-069220FM-12+001999999V0200901N006219999999N0100001N1+01041+00661101561ADDMA1999999101331MD1210011+9999REMSYN124AAXX  05004 04201 4//60 /0912 10104 20066 30133 40156 52001 76165 555 61002 62001 63004 64002 71104 72178 73140 74063 75500;
0165042010999992000070503004+77470-069220FM-12+001999999V0200701N006719999999N0120001N1+01061+00711101491ADDMA1999999101261MD1710071+9999REMSYN124AAXX  05034 04201 4//62 /0713 10106 20071 30126 40149 57007 75266 555 61992 62990 63003 64002 71122 72411 73243 74065 75500;
0195042010999992000070506004+77470-069220FM-12+001999999V0200801N007719999999N0400001N1+01051+00701101451ADDKA1120M+01311KA2120N+00861MA1999999101221MD1710041+9999REMSYN128AAXX  05064 04201 4//82 /0815 10105 20070 30122 40145 57004 72276 333 10131 20086 555 63003 64992 71438 72500 73500 74065 75500;
0141042010999992000070509004+77470-069220FM-12+001999999V0200801N007719999999N0450001N1+01081+00581101431ADDMA1999999101201MD1710021+9999REMSYN100AAXX  05094 04201 45/83 /0815 10108 20058 30120 40143 57002 555 60/// 71474 72500 73500 74398 75500;
0165042010999992000070512004+77470-069220FM-12+001999999V0201001N006719999999N0100001N1+00761+00511101421ADDMA1999999101191MD1710011+9999REMSYN124AAXX  05124 04201 4//60 /1013 10076 20051 30119 40142 57001 78160 555 61996 62992 63996 64990 71109 72347 73164 74074 75500;
0165042010999992000070515004+77470-069220FM-12+001999999V0200801N006719999999N0070001N1+00981+00761101331ADDMA1999999101101MD1710091+9999REMSYN124AAXX  05154 04201 4//57 /0813 10098 20076 30110 40133 57009 75265 555 61001 62996 63002 64001 71079 72474 73104 74827 75500;
0213042010999992000070518004+77470-069220FM-12+001999999V0202501N000519999999N0036001N1+00421+00391101371ADDKA1120M+01161KA2120N+00381MA1999999101131MD1210031+9999REMSYN146AAXX  05184 04201 4//36 /2501 10042 20039 30113 40137 52003 76265 333 10116 20038 91214 555 61006 62003 63006 64004 71036 72071 73050 74827 75500;
0165042010999992000070521004+77470-069220FM-12+001999999V0202401N003119999999N0006001N1+00391+00371101411ADDMA1999999101171MD1210041+9999REMSYN124AAXX  05214 04201 4//06 /2406 10039 20037 30117 40141 52004 76166 555 61001 62998 63027 64004 71863 72121 73899 74823 75145;
0165042010999992000070600004+77470-069220FM-12+001999999V0201201N004619999999N0004001N1+00291+00271101421ADDMA1999999101181MD1210011+9999REMSYN124AAXX  06004 04201 4//04 /1209 10029 20027 30118 40142 52001 77176 555 61990 62990 63027 64001 71836 72184 73852 74823 75295;
0153042010999992000070603004+77470-069220FM-12+001999999V0201001N006219999999N0500001N1+00611+00431101431ADDMA1999999101201MD1210021+9999REMSYN112AAXX  06034 04201 4//84 /1012 10061 20043 30120 40143 52002 70077 555 63998 64992 71500 72500 73500 74835 75500;
0195042010999992000070606004+77470-069220FM-12+001999999V0201401N002119999999N0080001N1+00151+00101101501ADDKA1120M+00661KA2120N+00151MA1999999101261MD1210061+9999REMSYN128AAXX  06064 04201 4//58 /1404 10015 20010 30126 40150 52006 70077 333 10066 20015 91216 555 63998 71086 72500 73189 74835 75500;
0159042010999992000070609004+77470-069220FM-12+001999999V0201301N001019999999N0039001N1+00241+00191101551ADDMA1999999101311MD1210051+9999REMSYN118AAXX  06094 04201 4//39 /1302 10024 20019 30131 40155 52005 74141 555 61990 62990 63990 71039 72281 73114 74038 75500;
0163042010999992000070612004+77470-069220FM-12+001999999V0202301N001019999999N0450001N1+00361+00261101651ADDMA1999999101411MD1210101+9999REMSYN122AAXX  06124 04201 4//83 /2302 10036 20026 30141 40165 52010 70074 333 91213 555 63991 64990 71477 72500 73500 74892 75500;
0141042010999992000070615004+77470-069220FM-12+001999999V0201701N001019999999N0450001N1+00451+00301101701ADDMA1999999101461MD1210051+9999REMSYN100AAXX  06154 04201 45/83 /1702 10045 20030 30146 40170 52005 555 60/// 71453 72500 73500 74379 75500;
0189042010999992000070618004+77470-069220FM-12+001999999V0202301N001019999999N0350001N1+00361+00111101731ADDKA1120M+00931KA2120N+00111MA1999999101491MD1210031+9999REMSYN122AAXX  06184 04201 45/81 /2302 10036 20011 30149 40173 52003 333 10093 20011 91212 555 60/// 71361 72500 73500 74228 75500;
0141042010999992000070621004+77470-069220FM-12+001999999V0201101N002119999999N0400001N1+00771+00241101701ADDMA1999999101471MD1710021+9999REMSYN100AAXX  06214 04201 45/82 /1104 10077 20024 30147 40170 57002 555 60/// 71407 72500 73500 74328 75500;
0141042010999992000070700004+77470-069220FM-12+001999999V0203001N002619999999N0450001N1+00881+00131101691ADDMA1999999101461MD1710011+9999REMSYN100AAXX  07004 04201 45/83 /3005 10088 20013 30146 40169 57001 555 60/// 71450 72500 73500 74327 75500;
0186042010999992000070703004+77470-069220FM-12+001999999V0200801N001019999999N0450001N1+00811+00241101681ADDMA1999999101451MD1710011+9999OA149900671REMSYN134AAXX  07034 04201 4//83 /0802 10081 20024 30145 40168 57001 78064 333 91113 555 61990 62990 63995 64991 71464 72500 73500 74300 75500;
0224042010999992000070706004+77470-069220FM-12+001999999V0203201N000519999999N0170001N1+00811+00371101641ADDKA1120M+00991KA2120N+00271MA1999999101411MD1710041+9999OA149900671REMSYN146AAXX  07064 04201 4//67 /3201 10081 20037 30141 40164 57004 78164 333 10099 20027 91113 555 61001 62992 63001 64992 71177 72500 73401 74177 75500;
0165042010999992000070709004+77470-069220FM-12+001999999V0200501N004119999999N0090001N1+00821+00501101581ADDMA1999999101351MD1710061+9999REMSYN124AAXX  07094 04201 4//59 /0508 10082 20050 30135 40158 57006 75266 555 61997 62992 63003 64002 71098 72307 73169 74035 75403;
0165042010999992000070712004+77470-069220FM-12+001999999V0200701N001519999999N0100001N1+00771+00581101611ADDMA1999999101381MD1210031+9999REMSYN124AAXX  07124 04201 4//60 /0703 10077 20058 30138 40161 52003 76166 555 61003 62001 63019 64003 71104 72227 73143 74035 75403;
0165042010999992000070715004+77470-069220FM-12+001999999V0200701N002119999999N0200001N1+00821+00501101521ADDMA1999999101291MD1710091+9999REMSYN124AAXX  07154 04201 4//70 /0704 10082 20050 30129 40152 57009 75266 555 61992 62990 63003 64001 71202 72500 73500 74051 75500;
0195042010999992000070718004+77470-069220FM-12+001999999V0200601N007219999999N0450001N1+00871+00491101421ADDKA1120M+00901KA2120N+00541MA1999999101191MD1710101+9999REMSYN128AAXX  07184 04201 4//83 /0614 10087 20049 30119 40142 57010 70066 333 10090 20054 555 63003 64991 71491 72500 73500 74051 75500;
0153042010999992000070721004+77470-069220FM-12+001999999V0200601N006719999999N0450001N1+00961+00431101231ADDMA1999999101001MD1710191+9999REMSYN112AAXX  07214 04201 4//83 /0613 10096 20043 30100 40123 57019 70060 555 63991 64990 71490 72500 73500 74220 75500;
0147042010999992000070800004+77470-069220FM-12+001999999V0200601N008719999999N0450001N1+00981+00341101051ADDMA1999999100821MD1710181+9999REMSYN106AAXX  08004 04201 4//83 /0617 10098 20034 30082 40105 57018 70060 555 63991 71465 72500 73500 74220 75500;
0141042010999992000070803004+77470-069220FM-12+001999999V0200601N007719999999N0450001N1+00951+00291100831ADDMA1999999100601MD1710221+9999REMSYN100AAXX  08034 04201 45/83 /0615 10095 20029 30060 40083 57022 555 60/// 71471 72500 73500 74445 75500;
0213042010999992000070806004+77470-069220FM-12+001999999V0200801N001519999999N0110001N1+00691+00551100861ADDKA1120M+01031KA2120N+00401MA1999999100631MD1210031+9999REMSYN146AAXX  08064 04201 4//61 /0803 10069 20055 30063 40086 52003 76160 333 10103 20040 91217 555 61003 62996 63004 64002 71113 72250 73166 74936 75500;
0165042010999992000070809004+77470-069220FM-12+001999999V0201001N004119999999N0006001N1+00341+00301100881ADDMA1999999100641MD1210011+9999REMSYN124AAXX  08094 04201 4//06 /1008 10034 20030 30064 40088 52001 74166 555 61990 62990 63998 64994 71860 72233 73031 74860 75309;
0153042010999992000070812004+77470-069220FM-12+001999999V0201301N001519999999N0004001N1+00141+00101100911ADDMA1999999100671MD1210031+9999REMSYN112AAXX  08124 04201 4//04 /1303 10014 20010 30067 40091 52003 73476 555 63998 64992 71844 72886 73850 74844 75309;
0147042010999992000070815004+77470-069220FM-12+001999999V0202501N001019999999N0060001N1+00321+00281100961ADDMA1999999100721MD1210051+9999REMSYN106AAXX  08154 04201 4//56 /2502 10032 20028 30072 40096 52005 72033 555 60/// 71066 72089 73075 74836 75111;
0189042010999992000070818004+77470-069220FM-12+001999999V0201201N003119999999N0300001N1+00271+00181101021ADDKA1120M+00791KA2120N+00051MA1999999100781MD1210061+9999REMSYN122AAXX  08184 04201 4//80 /1206 10027 20018 30078 40102 52006 70033 333 10079 20005 555 60/// 71338 72492 73346 74836 75500;
0127042010999992000070903004+77470-069220FM-12+001999999V0200801N004119999999N0030001N1+00321+00241101241ADDMA1999999101001REMSYN100AAXX  09034 04201 4//30 /0808 10032 20024 30100 40124 70011 555 60/// 71030 72500 73404 74030 75500;
0141042010999992000070909004+77470-069220FM-12+001999999V0209999C000019999999N0350001N1+00381+00141101211ADDMA1999999100971MD1710051+9999REMSYN100AAXX  09094 04201 45/81 /0000 10038 20014 30097 40121 57005 555 60/// 71373 72500 73500 74373 75500;
0147042010999992000070912004+77470-069220FM-12+001999999V0203001N002119999999N0350001N1+00341+00181101121ADDMA1999999100881MD1710091+9999REMSYN106AAXX  09124 04201 4//81 /3004 10034 20018 30088 40112 57009 70010 555 60/// 71373 72500 73500 74013 75500;
0147042010999992000070915004+77470-069220FM-12+001999999V0202401N002119999999N0240001N1+00221+00061101011ADDMA1999999100771MD1710111+9999REMSYN106AAXX  09154 04201 4//74 /2404 10022 20006 30077 40101 57011 70010 555 60/// 71248 72500 73379 74885 75500;
0189042010999992000070918004+77470-069220FM-12+001999999V0202401N001519999999N0300001N1+00541+00231100921ADDKA1120M+00551KA2120N+00111MA1999999100691MD1710081+9999REMSYN122AAXX  09184 04201 4//80 /2403 10054 20023 30069 40092 57008 70010 333 10055 20011 555 63024 71327 72500 73426 74885 75500;
0141042010999992000070921004+77470-069220FM-12+001999999V0201901N000519999999N0300001N1+00361+00141100831ADDMA1999999100601MD1710091+9999REMSYN100AAXX  09214 04201 45/80 /1901 10036 20014 30060 40083 57009 555 60/// 71317 72500 73500 74283 75500;
0141042010999992000071000004+77470-069220FM-12+001999999V0202501N003619999999N0350001N1+00391+00211100701ADDMA1999999100471MD1710131+9999REMSYN100AAXX  10004 04201 45/81 /2507 10039 20021 30047 40070 57013 555 60/// 71368 72500 73491 74279 75500;
0141042010999992000071003004+77470-069220FM-12+001999999V0202701N003619999999N0450001N1+00501-00081100581ADDMA1999999100351MD1710121+9999REMSYN100AAXX  10034 04201 45/83 /2707 10050 21008 30035 40058 57012 555 60/// 71484 72500 73500 74264 75500;
0183042010999992000071006004+77470-069220FM-12+001999999V0202801N001519999999N0450001N1+00291+00061100451ADDKA1120M+00611KA2120N+00161MA1999999100221MD1710131+9999REMSYN116AAXX  10064 04201 45/83 /2803 10029 20006 30022 40045 57013 333 10061 20016 555 63024 71472 72500 73500 74264 75500;
0141042010999992000071009004+77470-069220FM-12+001999999V0202501N002119999999N0450001N1+00271+00061100401ADDMA1999999100171MD1710051+9999REMSYN100AAXX  10094 04201 45/83 /2504 10027 20006 30017 40040 57005 555 60/// 71462 72500 73500 74410 75500;
0141042010999992000071012004+77470-069220FM-12+001999999V0202301N001519999999N0350001N1+00341+00101100401ADDMA1999999100171MD1410001+9999REMSYN100AAXX  10124 04201 45/81 /2303 10034 20010 30017 40040 54000 555 60/// 71396 72500 73486 74133 75500;
0141042010999992000071015004+77470-069220FM-12+001999999V0202001N001019999999N0300001N1+00311+00001100381ADDMA1999999100151MD1710021+9999REMSYN100AAXX  10154 04201 45/80 /2002 10031 21000 30015 40038 57002 555 60/// 71319 72500 73462 74198 75500;
0183042010999992000071018004+77470-069220FM-12+001999999V0202201N001519999999N0250001N1+00341+00001100381ADDKA1120M+00471KA2120N+00151MA1999999100151MD1410001+9999REMSYN116AAXX  10184 04201 45/75 /2203 10034 21000 30015 40038 54000 333 10047 20015 555 60/// 71258 72500 73407 74198 75500;
0121042010999992000071103004+77470-069220FM-12+001999999V0202501N000519999999N0200001N1+00251+00001100191ADDMA1999999099961REMSYN094AAXX  11034 04201 45/70 /2501 10025 20000 39996 40019 555 60/// 71209 72331 73256 74171 75420;
0183042010999992000071106004+77470-069220FM-12+001999999V0202501N001019999999N0270001N1+00271+00031100111ADDKA1120M+00331KA2120N+00191MA1999999099881MD1710081+9999REMSYN116AAXX  11064 04201 45/77 /2502 10027 20003 39988 40011 57008 333 10033 20019 555 60/// 71276 72375 73329 74171 75427;
0141042010999992000071109004+77470-069220FM-12+001999999V0202501N000519999999N0220001N1+00221+00011100051ADDMA1999999099821MD1710061+9999REMSYN100AAXX  11094 04201 45/72 /2501 10022 20001 39982 40005 57006 555 60/// 71225 72361 73286 74204 75454;
0153042010999992000071115004+77470-069220FM-12+001999999V0202201N003619999999N0300001N1+00351+00001100001ADDMA1999999099771MD1210011+9999REMSYN112AAXX  11154 04201 4//80 /2207 10035 20000 39977 40000 52001 70065 555 63993 64990 71327 72500 73500 74175 75500;
0207042010999992000071118004+77470-069220FM-12+001999999V0202201N003619999999N0300001N1+00311+00081100041ADDKA1120M+00571KA2120N+00131MA1999999099811MD1210041+9999REMSYN140AAXX  11184 04201 4//80 /2207 10031 20008 39981 40004 52004 72365 333 10057 20013 555 61992 62990 63001 64991 71340 72500 73459 74141 75500;
0141042010999992000071121004+77470-069220FM-12+001999999V0201601N001519999999N0270001N1+00271+00071100171ADDMA1999999099941MD1210131+9999REMSYN100AAXX  11214 04201 45/77 /1603 10027 20007 39994 40017 52013 555 60/// 71274 72500 73345 74217 75500;
0141042010999992000071200004+77470-069220FM-12+001999999V0201001N005119999999N0300001N1+00221+00001100241ADDMA1999999100011MD1210071+9999REMSYN100AAXX  12004 04201 45/80 /1010 10022 20000 30001 40024 52007 555 60/// 71336 72500 73500 74217 75500;
0141042010999992000071203004+77470-069220FM-12+001999999V0200901N004619999999N0450001N1+00291-00061100321ADDMA1999999100091MD1210081+9999REMSYN100AAXX  12034 04201 45/83 /0909 10029 21006 30009 40032 52008 555 60/// 71491 72500 73500 74259 75500;
0183042010999992000071206004+77470-069220FM-12+001999999V0200701N004619999999N0400001N1+00241+00031100471ADDKA1120M+00441KA2120N+00051MA1999999100231MD1210141+9999REMSYN116AAXX  12064 04201 45/82 /0709 10024 20003 30023 40047 52014 333 10044 20005 555 60/// 71437 72500 73500 74259 75500;
0153042010999992000071209004+77470-069220FM-12+001999999V0200701N004119999999N0300001N1+00361-00081100551ADDMA1999999100321MD1210091+9999REMSYN112AAXX  12094 04201 4//80 /0708 10036 21008 30032 40055 52009 70054 555 63990 64990 71313 72500 73488 74298 75500;
0147042010999992000071212004+77470-069220FM-12+001999999V0200801N003619999999N0400001N1+00361-00221100611ADDMA1999999100381MD1210061+9999REMSYN106AAXX  12124 04201 4//82 /0807 10036 21022 30038 40061 52006 70054 555 63990 71419 72500 73488 74241 75500;
0147042010999992000071215004+77470-069220FM-12+001999999V0200701N003619999999N0400001N1+00431-00221100631ADDMA1999999100401MD1210021+9999REMSYN106AAXX  12154 04201 4//82 /0707 10043 21022 30040 40063 52002 72254 555 63992 71422 72500 73499 74168 75500;
0189042010999992000071218004+77470-069220FM-12+001999999V0202501N002619999999N0350001N1+00471-00101100671ADDKA1120M+00551KA2120N+00231MA1999999100441MD1210041+9999REMSYN122AAXX  12184 04201 4//81 /2505 10047 21010 30044 40067 52004 70054 333 10055 20023 555 63992 71378 72500 73500 74168 75500;
0141042010999992000071221004+77470-069220FM-12+001999999V0202601N004119999999N0220001N1+00511+00121100671ADDMA1999999100441MD1410001+9999REMSYN100AAXX  12214 04201 45/72 /2608 10051 20012 30044 40067 54000 555 60/// 71221 72500 73386 74221 75500;
0141042010999992000071300004+77470-069220FM-12+001999999V0202201N002119999999N0350001N1+00301+00061100681ADDMA1999999100441MD1410001+9999REMSYN100AAXX  13004 04201 45/81 /2204 10030 20006 30044 40068 54000 555 63992 71388 72500 73500 74221 75500;
0165042010999992000071303004+77470-069220FM-12+001999999V0200901N002119999999N0350001N1+00311+00001100611ADDMA1999999100381MD1710061+9999REMSYN124AAXX  13034 04201 4//81 /0904 10031 20000 30038 40061 57006 75154 555 61990 62990 63990 64990 71371 72500 73494 74350 75500;
0189042010999992000071306004+77470-069220FM-12+001999999V0202701N002619999999N0450001N1+00251+00011100601ADDKA1120M+00571KA2120N+00181MA1999999100361MD1710021+9999REMSYN122AAXX  13064 04201 4//83 /2705 10025 20001 30036 40060 57002 70054 333 10057 20018 555 63990 71484 72500 73500 74350 75500;
0141042010999992000071309004+77470-069220FM-12+001999999V0201901N000519999999N0300001N1+00151-00021100561ADDMA1999999100321MD1710041+9999REMSYN100AAXX  13094 04201 45/80 /1901 10015 21002 30032 40056 57004 555 60/// 71346 72500 73469 74346 75500;
0141042010999992000071312004+77470-069220FM-12+001999999V0202401N001019999999N0350001N1+00161-00101100531ADDMA1999999100291MD1710031+9999REMSYN100AAXX  13124 04201 45/81 /2402 10016 21010 30029 40053 57003 555 60/// 71367 72500 73451 74318 75500;
0141042010999992000071315004+77470-069220FM-12+001999999V0200901N003119999999N0300001N1+00511-00321100461ADDMA1999999100231MD1710061+9999REMSYN100AAXX  13154 04201 45/80 /0906 10051 21032 30023 40046 57006 555 60/// 71302 72500 73387 74279 75500;
0183042010999992000071318004+77470-069220FM-12+001999999V0202401N003619999999N0400001N1+00421-00161100421ADDKA1120M+00581KA2120N+00081MA1999999100191MD1710041+9999REMSYN116AAXX  13184 04201 45/82 /2407 10042 21016 30019 40042 57004 333 10058 20008 555 60/// 71405 72500 73500 74269 75500;
0141042010999992000071321004+77470-069220FM-12+001999999V0202301N004119999999N0300001N1+00461+00021100421ADDMA1999999100191MD1410001+9999REMSYN100AAXX  13214 04201 45/80 /2308 10046 20002 30019 40042 54000 555 60/// 71328 72500 73479 74269 75500;
0121042010999992000071403004+77470-069220FM-12+001999999V0202201N003619999999N0350001N1+00241+00031100411ADDMA1999999100181REMSYN094AAXX  14034 04201 45/81 /2207 10024 20003 30018 40041 555 60/// 71362 72500 73441 74196 75500;
0183042010999992000071406004+77470-069220FM-12+001999999V0209999C000019999999N0400001N1+00191+00071100461ADDKA1120M+00361KA2120N+00171MA1999999100221MD1210041+9999REMSYN116AAXX  14064 04201 45/82 /0000 10019 20007 30022 40046 52004 333 10036 20017 555 60/// 71431 72500 73500 74196 75500;
0141042010999992000071409004+77470-069220FM-12+001999999V0202001N000519999999N0350001N1+00241-00071100441ADDMA1999999100201MD1710021+9999REMSYN100AAXX  14094 04201 45/81 /2001 10024 21007 30020 40044 57002 555 60/// 71383 72500 73472 74377 75500;
0141042010999992000071412004+77470-069220FM-12+001999999V0202601N001519999999N0270001N1+00421+00131100421ADDMA1999999100191MD1710011+9999REMSYN100AAXX  14124 04201 45/77 /2603 10042 20013 30019 40042 57001 555 60/// 71279 72500 73476 74276 75500;
0141042010999992000071415004+77470-069220FM-12+001999999V0201901N002619999999N0300001N1+00371+00141100431ADDMA1999999100201MD1210011+9999REMSYN100AAXX  14154 04201 45/80 /1905 10037 20014 30020 40043 52001 555 60/// 71324 72500 73419 74236 75500;
0183042010999992000071418004+77470-069220FM-12+001999999V0202201N003119999999N0270001N1+00461+00221100461ADDKA1120M+00531KA2120N+00131MA1999999100231MD1210031+9999REMSYN116AAXX  14184 04201 45/77 /2206 10046 20022 30023 40046 52003 333 10053 20013 555 60/// 71277 72500 73384 74215 75500;
0141042010999992000071421004+77470-069220FM-12+001999999V0202401N003619999999N0230001N1+00471+00241100581ADDMA1999999100351MD1210121+9999REMSYN100AAXX  14214 04201 45/73 /2407 10047 20024 30035 40058 52012 555 60/// 71234 72500 73394 74218 75500;
0141042010999992000071500004+77470-069220FM-12+001999999V0202201N002619999999N0300001N1+00461+00161100691ADDMA1999999100461MD1210111+9999REMSYN100AAXX  15004 04201 45/80 /2205 10046 20016 30046 40069 52011 555 60/// 71318 72500 73437 74218 75500;
0141042010999992000071503004+77470-069220FM-12+001999999V0209999C000019999999N0350001N1+00281+00101100851ADDMA1999999100611MD1210151+9999REMSYN100AAXX  15034 04201 45/81 /0000 10028 20010 30061 40085 52015 555 60/// 71362 72500 73500 74206 75500;
0183042010999992000071506004+77470-069220FM-12+001999999V0200901N002619999999N0350001N1+00251+00091101001ADDKA1120M+00611KA2120N+00241MA1999999100761MD1210151+9999REMSYN116AAXX  15064 04201 45/81 /0905 10025 20009 30076 40100 52015 333 10061 20024 555 60/// 71375 72500 73485 74206 75500;
0147042010999992000071509004+77470-069220FM-12+001999999V0201001N003119999999N0400001N1+00181+00101101061ADDMA1999999100821MD1210061+9999REMSYN106AAXX  15094 04201 4//82 /1006 10018 20010 30082 40106 52006 72365 555 63996 71401 72500 73500 74164 75500;
0153042010999992000071512004+77470-069220FM-12+001999999V0200901N001519999999N0450001N1+00241+00111101111ADDMA1999999100871MD1210051+9999REMSYN112AAXX  15124 04201 4//83 /0903 10024 20011 30087 40111 52005 72165 555 63998 64992 71452 72500 73500 74127 75500;
0195042010999992000071518004+77470-069220FM-12+001999999V0202201N002119999999N0350001N1+00301+00121101031ADDKA1120M+00351KA2120N+00131MA1999999100791MD1710041+9999REMSYN128AAXX  15184 04201 4//81 /2204 10030 20012 30079 40103 57004 70065 333 10035 20013 555 63995 64990 71369 72500 73441 74117 75500;
0141042010999992000071600004+77470-069220FM-12+001999999V0202601N006219999999N0350001N1+00411-00051100881ADDMA1999999100651MD1710041+9999REMSYN100AAXX  16004 04201 45/81 /2612 10041 21005 30065 40088 57004 555 60/// 71394 72500 73500 74168 75500;
0121042010999992000071603004+77470-069220FM-12+001999999V0202101N003619999999N0400001N1+00331-00011100871ADDMA1999999100631REMSYN094AAXX  16034 04201 45/82 /2107 10033 21001 30063 40087 555 60/// 71420 72500 73489 74269 75500;
0189042010999992000071606004+77470-069220FM-12+001999999V0201701N001019999999N0400001N1+00051-00071100821ADDKA1120M+00421KA2120N+00051MA1999999100581MD1710051+9999REMSYN122AAXX  16064 04201 45/82 /1702 10005 21007 30058 40082 57005 333 10042 20005 91213 555 60/// 71448 72500 73500 74269 75500;
0141042010999992000071609004+77470-069220FM-12+001999999V0203401N001019999999N0400001N1+00431+00071100771ADDMA1999999100541MD1710041+9999REMSYN100AAXX  16094 04201 45/82 /3402 10043 20007 30054 40077 57004 555 60/// 71413 72500 73500 74050 75500;
0141042010999992000071612004+77470-069220FM-12+001999999V0200601N005719999999N0400001N1+00471-00461100731ADDMA1999999100501MD1710041+9999REMSYN100AAXX  16124 04201 45/82 /0611 10047 21046 30050 40073 57004 555 60/// 71413 72500 73485 74050 75500;
0163042010999992000071706004+77470-069220FM-12+001999999V0200701N001019999999N0450001N1+00291-00141099791ADDKA1120M+00481KA2120N+00201MA1999999099561REMSYN110AAXX  17064 04201 45/83 /0702 10029 21014 39956 49979 333 10048 20020 555 60/// 71482 72500 73500 74454 75500;
0141042010999992000071709004+77470-069220FM-12+001999999V0200901N005119999999N0400001N1+00461-00311099701ADDMA1999999099471MD1710091+9999REMSYN100AAXX  17094 04201 45/82 /0910 10046 21031 39947 49970 57009 555 60/// 71406 72500 73464 74378 75500;
0141042010999992000071712004+77470-069220FM-12+001999999V0200801N003119999999N0300001N1+00511-00541099701ADDMA1999999099471MD1410001+9999REMSYN100AAXX  17124 04201 45/80 /0806 10051 21054 39947 49970 54000 555 60/// 71324 72500 73411 74324 75500;
0141042010999992000071715004+77470-069220FM-12+001999999V0201101N003119999999N0350001N1+00461-00501099761ADDMA1999999099531MD1210061+9999REMSYN100AAXX  17154 04201 45/81 /1106 10046 21050 39953 49976 52006 555 60/// 71357 72500 73499 74285 75500;
0183042010999992000071718004+77470-069220FM-12+001999999V0201101N003619999999N0240001N1+00711-00341099861ADDKA1120M+00721KA2120N+00111MA1999999099631MD1210101+9999REMSYN116AAXX  17184 04201 45/74 /1107 10071 21034 39963 49986 52010 333 10072 20011 555 60/// 71241 72500 73435 74230 75500;
0141042010999992000071721004+77470-069220FM-12+001999999V0200901N004619999999N0300001N1+00761-00171100051ADDMA1999999099821MD1210191+9999REMSYN100AAXX  17214 04201 45/80 /0909 10076 21017 39982 40005 52019 555 60/// 71349 72500 73500 74262 75500;
0141042010999992000071800004+77470-069220FM-12+001999999V0201001N001519999999N0450001N1+00471-00211100311ADDMA1999999100081MD1210261+9999REMSYN100AAXX  18004 04201 45/83 /1003 10047 21021 30008 40031 52026 555 60/// 71481 72500 73500 74262 75500;
0141042010999992000071803004+77470-069220FM-12+001999999V0200901N004619999999N0450001N1+00541-00281100511ADDMA1999999100281MD1210201+9999REMSYN100AAXX  18034 04201 45/83 /0909 10054 21028 30028 40051 52020 555 60/// 71484 72500 73500 74360 75500;
0183042010999992000071806004+77470-069220FM-12+001999999V0200801N001019999999N0400001N1+00741-00031100731ADDKA1120M+00851KA2120N-00021MA1999999100501MD1210221+9999REMSYN116AAXX  18064 04201 45/82 /0802 10074 21003 30050 40073 52022 333 10085 21002 555 60/// 71423 72500 73500 74360 75500;
0141042010999992000071809004+77470-069220FM-12+001999999V0202301N001019999999N0350001N1+00681-00061100861ADDMA1999999100631MD1210131+9999REMSYN100AAXX  18094 04201 45/81 /2302 10068 21006 30063 40086 52013 555 60/// 71364 72500 73450 74345 75500;
0121042010999992000071812004+77470-069220FM-12+001999999V0200701N004619999999N0350001N1+00721-00091100931ADDMA1999999100701REMSYN094AAXX  18124 04201 45/81 /0709 10072 21009 30070 40093 555 60/// 71366 72500 73500 74366 75500;
0165042010999992000071815004+77470-069220FM-12+001999999V0200501N003119999999N0110001N1+00671+00071100991ADDMA1999999100761MD1210061+9999REMSYN124AAXX  18154 04201 4//61 /0506 10067 20007 30076 40099 52006 78154 555 61990 62990 63991 64990 71117 72387 73313 74117 75500;
0207042010999992000071818004+77470-069220FM-12+001999999V0200801N004619999999N0110001N1+00541+00131100991ADDKA1120M+00801KA2120N+00441MA1999999100761MD1410001+9999REMSYN140AAXX  18184 04201 4//61 /0809 10054 20013 30076 40099 54000 75254 333 10080 20044 555 61995 62992 63995 64993 71117 72269 73184 74086 75500;
0165042010999992000071821004+77470-069220FM-12+001999999V0200601N007219999999N0100001N1+00521+00241100921ADDMA1999999100691MD1710071+9999REMSYN124AAXX  18214 04201 4//60 /0614 10052 20024 30069 40092 57007 75265 555 61993 62992 63996 64995 71109 72185 73153 74099 75387;
0165042010999992000071900004+77470-069220FM-12+001999999V0200501N007719999999N0200001N1+00551+00221100871ADDMA1999999100641MD1710051+9999REMSYN124AAXX  19004 04201 4//70 /0515 10055 20022 30064 40087 57005 75165 555 61991 62990 63996 64994 71204 72360 73257 74093 75477;
0165042010999992000071903004+77470-069220FM-12+001999999V0200501N006719999999N0110001N1+00591+00191100791ADDMA1999999100561MD1710081+9999REMSYN124AAXX  19034 04201 4//61 /0513 10059 20019 30056 40079 57008 75265 555 61996 62992 63996 64992 71112 72304 73230 74112 75500;
0207042010999992000071906004+77470-069220FM-12+001999999V0200601N007719999999N0300001N1+00521+00171100811ADDKA1120M+00871KA2120N+00401MA1999999100581MD1210021+9999REMSYN140AAXX  19064 04201 4//80 /0615 10052 20017 30058 40081 52002 75265 333 10087 20040 555 61992 62990 63996 64993 71303 72500 73460 74112 75500;
0165042010999992000071909004+77470-069220FM-12+001999999V0200401N008219999999N0080001N1+00441+00191100861ADDMA1999999100631MD1210051+9999REMSYN124AAXX  19094 04201 4//58 /0416 10044 20019 30063 40086 52005 75165 555 61992 62990 63998 64997 71089 72120 73097 74067 75500;
0153042010999992000071912004+77470-069220FM-12+001999999V0200501N007219999999N0450001N1+00681+00241100881ADDMA1999999100651MD1210021+9999REMSYN112AAXX  19124 04201 4//83 /0514 10068 20024 30065 40088 52002 70065 555 63998 64990 71468 72500 73500 74067 75500;
0151042010999992000071915004+77470-069220FM-12+001999999V0202401N002119999999N0350001N1+00701+00281100971ADDMA1999999100741MD1210091+9999REMSYN110AAXX  19154 04201 45/81 /2404 10070 20028 30074 40097 52009 333 91214 555 60/// 71372 72500 73467 74326 75500;
0183042010999992000071918004+77470-069220FM-12+001999999V0202101N005119999999N0350001N1+00661+00331101081ADDKA1120M+00741KA2120N+00271MA1999999100851MD1210111+9999REMSYN116AAXX  19184 04201 45/81 /2110 10066 20033 30085 40108 52011 333 10074 20027 555 60/// 71362 72500 73457 74308 75500;
0141042010999992000071921004+77470-069220FM-12+001999999V0202101N005119999999N0350001N1+00501+00291101131ADDMA1999999100901MD1210051+9999REMSYN100AAXX  19214 04201 45/81 /2110 10050 20029 30090 40113 52005 555 63003 71383 72500 73446 74246 75500;
0141042010999992000072003004+77470-069220FM-12+001999999V0201901N005119999999N0400001N1+00341+00241101091ADDMA1999999100851MD1710061+9999REMSYN100AAXX  20034 04201 45/82 /1910 10034 20024 30085 40109 57006 555 60/// 71403 72500 73457 74252 75500;
0183042010999992000072006004+77470-069220FM-12+001999999V0202501N001519999999N0450001N1+00221+00181100981ADDKA1120M+00681KA2120N+00221MA1999999100741MD1710111+9999REMSYN116AAXX  20064 04201 45/83 /2503 10022 20018 30074 40098 57011 333 10068 20022 555 60/// 71461 72500 73500 74252 75500;
0147042010999992000072009004+77470-069220FM-12+001999999V0201401N000519999999N0009001N1+00211+00131100871ADDMA1999999100631MD1710111+9999REMSYN106AAXX  20094 04201 4//09 /1401 10021 20013 30063 40087 57011 72031 555 60/// 71890 72500 73031 74827 75500;
0142042010999992000072103004+77470-069220FM-12+001999999V0200501N006219999999N0300001N1+00811-00391100061ADDMA1999999099831OA149900981REMSYN104AAXX  21034 04201 45/80 /0512 10081 21039 39983 40006 333 91119 555 60/// 71327 72500 73441 74327 75500;
0200042010999992000072106004+77470-069220FM-12+001999999V0200401N007719999999N0500001N1+00851-00241100061ADDKA1120M+00851KA2120N+00631MA1999999099831MD1410001+9999OA149901291REMSYN122AAXX  21064 04201 45/84 /0415 10085 21024 39983 40006 54000 333 10085 20063 91125 555 63003 71500 72500 73500 74327 75500;
0162042010999992000072109004+77470-069220FM-12+001999999V0200501N007219999999N0450001N1+00811-00171100061ADDMA1999999099831MD1410001+9999OA149901181REMSYN110AAXX  21094 04201 45/83 /0514 10081 21017 39983 40006 54000 333 91123 555 60/// 71475 72500 73500 74418 75500;
0168042010999992000072112004+77470-069220FM-12+001999999V0202801N002119999999N0300001N1+00871-00071100081ADDMA1999999099851MD1210021+9999OA149901181REMSYN116AAXX  21124 04201 45/80 /2804 10087 21007 39985 40008 52002 333 91123 91219 555 60/// 71313 72500 73372 74269 75500;
0141042010999992000072115004+77470-069220FM-12+001999999V0202401N001019999999N0300001N1+00801-00071100111ADDMA1999999099881MD1210031+9999REMSYN100AAXX  21154 04201 45/80 /2402 10080 21007 39988 40011 52003 555 60/// 71345 72500 73451 74240 75500;
0183042010999992000072118004+77470-069220FM-12+001999999V0202801N001519999999N0290001N1+00711+00211100241ADDKA1120M+00951KA2120N+00421MA1999999100011MD1210131+9999REMSYN116AAXX  21184 04201 45/79 /2803 10071 20021 30001 40024 52013 333 10095 20042 555 60/// 71293 72500 73369 74187 75500;
0141042010999992000072121004+77470-069220FM-12+001999999V0202301N004119999999N0300001N1+00641+00061100371ADDMA1999999100141MD1210131+9999REMSYN100AAXX  21214 04201 45/80 /2308 10064 20006 30014 40037 52013 555 60/// 71301 72478 73366 74180 75500;
0162042010999992000072200004+77470-069220FM-12+001999999V0201901N004119999999N0270001N1+00511-00081100541ADDMA1999999100311MD1210171+9999OA149901181REMSYN110AAXX  22004 04201 45/77 /1908 10051 21008 30031 40054 52017 333 91123 555 60/// 71274 72460 73322 74180 75500;
0141042010999992000072203004+77470-069220FM-12+001999999V0201201N000519999999N0220001N1+00441-00051100641ADDMA1999999100411MD1210101+9999REMSYN100AAXX  22034 04201 45/72 /1201 10044 21005 30041 40064 52010 555 60/// 71226 72468 73409 74226 75500;
0183042010999992000072206004+77470-069220FM-12+001999999V0202501N000519999999N0210001N1+00441+00011100761ADDKA1120M+00871KA2120N-00021MA1999999100531MD1210121+9999REMSYN116AAXX  22064 04201 45/71 /2501 10044 20001 30053 40076 52012 333 10087 21002 555 60/// 71218 72500 73500 74122 75500;
0141042010999992000072209004+77470-069220FM-12+001999999V0202601N000519999999N0300001N1+00461+00071100861ADDMA1999999100631MD1210101+9999REMSYN100AAXX  22094 04201 45/80 /2601 10046 20007 30063 40086 52010 555 60/// 71319 72494 73420 74096 75500;
0141042010999992000072212004+77470-069220FM-12+001999999V0201001N002619999999N0260001N1+00541+00191100961ADDMA1999999100731MD1210101+9999REMSYN100AAXX  22124 04201 45/76 /1005 10054 20019 30073 40096 52010 555 63003 71262 72475 73376 74096 75500;
0141042010999992000072215004+77470-069220FM-12+001999999V0201801N001519999999N0260001N1+00471+00211101061ADDMA1999999100831MD1210101+9999REMSYN100AAXX  22154 04201 45/76 /1803 10047 20021 30083 40106 52010 555 60/// 71264 72500 73312 74164 75500;
0183042010999992000072218004+77470-069220FM-12+001999999V0202101N001019999999N0270001N1+00491+00151101171ADDKA1120M+00581KA2120N+00131MA1999999100941MD1210111+9999REMSYN116AAXX  22184 04201 45/77 /2102 10049 20015 30094 40117 52011 333 10058 20013 555 63003 71279 72500 73427 74164 75500;
0141042010999992000072221004+77470-069220FM-12+001999999V0202301N001019999999N0290001N1+00491+00211101321ADDMA1999999101091MD1210151+9999REMSYN100AAXX  22214 04201 45/79 /2302 10049 20021 30109 40132 52015 555 60/// 71294 72419 73367 74248 75500;
0141042010999992000072300004+77470-069220FM-12+001999999V0202201N003119999999N0400001N1+00461+00211101441ADDMA1999999101201MD1210111+9999REMSYN100AAXX  23004 04201 45/82 /2206 10046 20021 30120 40144 52011 555 60/// 71440 72500 73500 74931 75500;
0141042010999992000072303004+77470-069220FM-12+001999999V0201801N001519999999N0400001N1+00441+00161101531ADDMA1999999101291MD1210091+9999REMSYN100AAXX  23034 04201 45/82 /1803 10044 20016 30129 40153 52009 555 60/// 71402 72500 73473 74274 75500;
0183042010999992000072306004+77470-069220FM-12+001999999V0202501N000519999999N0400001N1+00391+00221101621ADDKA1120M+00521KA2120N+00271MA1999999101381MD1210091+9999REMSYN116AAXX  23064 04201 45/82 /2501 10039 20022 30138 40162 52009 333 10052 20027 555 60/// 71421 72500 73500 74274 75500;
0141042010999992000072309004+77470-069220FM-12+001999999V0202301N000519999999N0300001N1+00471+00121101711ADDMA1999999101471MD1210091+9999REMSYN100AAXX  23094 04201 45/80 /2301 10047 20012 30147 40171 52009 555 60/// 71315 72500 73416 74315 75500;
0141042010999992000072312004+77470-069220FM-12+001999999V0202501N001519999999N0260001N1+00511+00301101801ADDMA1999999101561MD1210091+9999REMSYN100AAXX  23124 04201 45/76 /2503 10051 20030 30156 40180 52009 555 60/// 71263 72486 73356 74263 75500;
0141042010999992000072315004+77470-069220FM-12+001999999V0201601N001519999999N0300001N1+00541+00281101841ADDMA1999999101601MD1210041+9999REMSYN100AAXX  23154 04201 45/80 /1603 10054 20028 30160 40184 52004 555 60/// 71345 72500 73430 74204 75500;
0183042010999992000072318004+77470-069220FM-12+001999999V0202301N002119999999N0240001N1+00731+00271101871ADDKA1120M+00761KA2120N+00241MA1999999101641MD1210041+9999REMSYN116AAXX  23184 04201 45/74 /2304 10073 20027 30164 40187 52004 333 10076 20024 555 60/// 71246 72467 73357 74144 75500;
0141042010999992000072321004+77470-069220FM-12+001999999V0202401N005119999999N0290001N1+00771+00321101951ADDMA1999999101721MD1210081+9999REMSYN100AAXX  23214 04201 45/79 /2410 10077 20032 30172 40195 52008 555 60/// 71293 72500 73418 74261 75500;
0141042010999992000072400004+77470-069220FM-12+001999999V0202601N005719999999N0240001N1+00601+00291102031ADDMA1999999101791MD1210071+9999REMSYN100AAXX  24004 04201 45/74 /2611 10060 20029 30179 40203 52007 555 60/// 71242 72500 73461 74242 75500;
0141042010999992000072403004+77470-069220FM-12+001999999V0202301N003619999999N0300001N1+00471+00221102021ADDMA1999999101781MD1710011+9999REMSYN100AAXX  24034 04201 45/80 /2307 10047 20022 30178 40202 57001 555 60/// 71328 72500 73433 74261 75500;
0183042010999992000072406004+77470-069220FM-12+001999999V0203001N001019999999N0400001N1+00261+00211102031ADDKA1120M+00861KA2120N+00251MA1999999101791MD1210011+9999REMSYN116AAXX  24064 04201 45/82 /3002 10026 20021 30179 40203 52001 333 10086 20025 555 60/// 71436 72500 73500 74261 75500;
0141042010999992000072409004+77470-069220FM-12+001999999V0203101N001019999999N0350001N1+00611+00271102031ADDMA1999999101791MD1410001+9999REMSYN100AAXX  24094 04201 45/81 /3102 10061 20027 30179 40203 54000 555 60/// 71396 72500 73468 74358 75500;
0141042010999992000072412004+77470-069220FM-12+001999999V0202201N001019999999N0280001N1+00511+00071101971ADDMA1999999101731MD1710061+9999REMSYN100AAXX  24124 04201 45/78 /2202 10051 20007 30173 40197 57006 555 60/// 71287 72500 73368 74287 75500;
0141042010999992000072415004+77470-069220FM-12+001999999V0202201N002119999999N0300001N1+00541+00171101851ADDMA1999999101611MD1710121+9999REMSYN100AAXX  24154 04201 45/80 /2204 10054 20017 30161 40185 57012 555 60/// 71312 72500 73420 74273 75500;
0183042010999992000072418004+77470-069220FM-12+001999999V0202601N005719999999N0230001N1+00731+00371101721ADDKA1120M+00871KA2120N+00241MA1999999101491MD1710121+9999REMSYN116AAXX  24184 04201 45/73 /2611 10073 20037 30149 40172 57012 333 10087 20024 555 60/// 71238 72500 73312 74149 75500;
0141042010999992000072421004+77470-069220FM-12+001999999V0202501N005119999999N0290001N1+00841-00061101641ADDMA1999999101411MD1710081+9999REMSYN100AAXX  24214 04201 45/79 /2510 10084 21006 30141 40164 57008 555 60/// 71292 72500 73385 74218 75500;
0141042010999992000072500004+77470-069220FM-12+001999999V0202401N004119999999N0260001N1+00731-00111101521ADDMA1999999101291MD1710121+9999REMSYN100AAXX  25004 04201 45/76 /2408 10073 21011 30129 40152 57012 555 60/// 71265 72500 73464 74207 75500;
0141042010999992000072503004+77470-069220FM-12+001999999V0202101N000519999999N0350001N1+00411+00071101441ADDMA1999999101201MD1710091+9999REMSYN100AAXX  25034 04201 45/81 /2101 10041 20007 30120 40144 57009 555 60/// 71364 72500 73471 74223 75500;
0183042010999992000072506004+77470-069220FM-12+001999999V0200701N005719999999N0450001N1+00761-00181101411ADDKA1120M+01161KA2120N+00381MA1999999101181MD1710021+9999REMSYN116AAXX  25064 04201 45/83 /0711 10076 21018 30118 40141 57002 333 10116 20038 555 60/// 71492 72500 73500 74223 75500;
0141042010999992000072509004+77470-069220FM-12+001999999V0200401N003619999999N0400001N1+00791-00071101541ADDMA1999999101311MD1210131+9999REMSYN100AAXX  25094 04201 45/82 /0407 10079 21007 30131 40154 52013 555 60/// 71401 72500 73500 74334 75500;
0141042010999992000072512004+77470-069220FM-12+001999999V0200701N005719999999N0350001N1+00881-00191101681ADDMA1999999101451MD1210141+9999REMSYN100AAXX  25124 04201 45/81 /0711 10088 21019 30145 40168 52014 555 60/// 71353 72500 73500 74334 75500;
0141042010999992000072515004+77470-069220FM-12+001999999V0200801N004119999999N0350001N1+00931-00261101781ADDMA1999999101551MD1210101+9999REMSYN100AAXX  25154 04201 45/81 /0808 10093 21026 30155 40178 52010 555 60/// 71365 72500 73438 74270 75500;
0183042010999992000072518004+77470-069220FM-12+001999999V0202501N001519999999N0220001N1+00871+00291101931ADDKA1120M+01041KA2120N+00481MA1999999101701MD1210151+9999REMSYN116AAXX  25184 04201 45/72 /2503 10087 20029 30170 40193 52015 333 10104 20048 555 60/// 71229 72500 73310 74126 75500;
0141042010999992000072521004+77470-069220FM-12+001999999V0202401N002119999999N0230001N1+00831+00241102101ADDMA1999999101871MD1210171+9999REMSYN100AAXX  25214 04201 45/73 /2404 10083 20024 30187 40210 52017 555 60/// 71236 72500 73410 74184 75500;
0141042010999992000072600004+77470-069220FM-12+001999999V0202601N001519999999N0240001N1+00751+00361102281ADDMA1999999102041MD1210171+9999REMSYN100AAXX  26004 04201 45/74 /2603 10075 20036 30204 40228 52017 555 60/// 71242 72469 73350 74154 75500;
0141042010999992000072603004+77470-069220FM-12+001999999V0202301N001519999999N0270001N1+00521+00301102421ADDMA1999999102181MD1210141+9999REMSYN100AAXX  26034 04201 45/77 /2303 10052 20030 30218 40242 52014 555 63003 71279 72500 73353 74228 75500;
0183042010999992000072606004+77470-069220FM-12+001999999V0203001N001019999999N0300001N1+00441+00361102561ADDKA1120M+00931KA2120N+00271MA1999999102321MD1210141+9999REMSYN116AAXX  26064 04201 45/80 /3002 10044 20036 30232 40256 52014 333 10093 20027 555 63003 71323 72489 73377 74228 75500;
0141042010999992000072609004+77470-069220FM-12+001999999V0201401N001019999999N0200001N1+00541+00351102691ADDMA1999999102451MD1210131+9999REMSYN100AAXX  26094 04201 45/70 /1402 10054 20035 30245 40269 52013 555 60/// 71205 72361 73307 74175 75500;
0141042010999992000072612004+77470-069220FM-12+001999999V0202301N002119999999N0270001N1+00621+00291102751ADDMA1999999102511MD1210061+9999REMSYN100AAXX  26124 04201 45/77 /2304 10062 20029 30251 40275 52006 555 60/// 71276 72500 73339 74175 75500;
0141042010999992000072615004+77470-069220FM-12+001999999V0202201N002619999999N0270001N1+00661+00361102741ADDMA1999999102501MD1710011+9999REMSYN100AAXX  26154 04201 45/77 /2205 10066 20036 30250 40274 57001 555 63003 71275 72500 73314 74185 75500;
0183042010999992000072618004+77470-069220FM-12+001999999V0202101N004119999999N0230001N1+00811+00341102761ADDKA1120M+00821KA2120N+00271MA1999999102521MD1210021+9999REMSYN116AAXX  26184 04201 45/73 /2108 10081 20034 30252 40276 52002 333 10082 20027 555 63003 71239 72500 73407 74185 75500;
0141042010999992000072621004+77470-069220FM-12+001999999V0202401N005119999999N0190001N1+00741+00361102761ADDMA1999999102521MD1410001+9999REMSYN100AAXX  26214 04201 45/69 /2410 10074 20036 30252 40276 54000 555 60/// 71200 72481 73356 74195 75500;
0141042010999992000072700004+77470-069220FM-12+001999999V0202201N005119999999N0300001N1+00611+00261102741ADDMA1999999102501MD1710021+9999REMSYN100AAXX  27004 04201 45/80 /2210 10061 20026 30250 40274 57002 555 60/// 71315 72500 73406 74195 75500;
0141042010999992000072703004+77470-069220FM-12+001999999V0202501N004119999999N0290001N1+00471+00201102711ADDMA1999999102471MD1710031+9999REMSYN100AAXX  27034 04201 45/79 /2508 10047 20020 30247 40271 57003 555 60/// 71290 72500 73405 74222 75500;
0183042010999992000072706004+77470-069220FM-12+001999999V0202601N001519999999N0350001N1+00331+00251102691ADDKA1120M+00871KA2120N+00331MA1999999102451MD1710021+9999REMSYN116AAXX  27064 04201 45/81 /2603 10033 20025 30245 40269 57002 333 10087 20033 555 60/// 71377 72500 73477 74222 75500;
0141042010999992000072709004+77470-069220FM-12+001999999V0209999C000019999999N0350001N1+00271+00081102601ADDMA1999999102361MD1710091+9999REMSYN100AAXX  27094 04201 45/81 /0000 10027 20008 30236 40260 57009 555 60/// 71363 72500 73464 74363 75500;
0141042010999992000072712004+77470-069220FM-12+001999999V0202301N004119999999N0270001N1+00511+00281102521ADDMA1999999102281MD1710081+9999REMSYN100AAXX  27124 04201 45/77 /2308 10051 20028 30228 40252 57008 555 60/// 71279 72500 73357 74050 75500;
0153042010999992000072715004+77470-069220FM-12+001999999V0202101N003619999999N0280001N1+00581+00311102371ADDMA1999999102131MD1710151+9999REMSYN112AAXX  27154 04201 45/78 /2107 10058 20031 30213 40237 57015 555 61003 62990 63003 71287 72490 73374 74163 75500;
0183042010999992000072718004+77470-069220FM-12+001999999V0202601N004619999999N0300001N1+00801+00351102161ADDKA1120M+00831KA2120N+00191MA1999999101931MD1710201+9999REMSYN116AAXX  27184 04201 45/80 /2609 10080 20035 30193 40216 57020 333 10083 20019 555 63003 71301 72500 73463 74163 75500;
0141042010999992000072721004+77470-069220FM-12+001999999V0202401N001519999999N0250001N1+00841+00371102051ADDMA1999999101821MD1710111+9999REMSYN100AAXX  27214 04201 45/75 /2403 10084 20037 30182 40205 57011 555 60/// 71257 72484 73318 74167 75500;
0141042010999992000072800004+77470-069220FM-12+001999999V0202401N001019999999N0300001N1+00761+00311101921ADDMA1999999101691MD1710131+9999REMSYN100AAXX  28004 04201 45/80 /2402 10076 20031 30169 40192 57013 555 60/// 71324 72500 73392 74167 75500;
0141042010999992000072803004+77470-069220FM-12+001999999V0200701N005719999999N0350001N1+00801-00161101811ADDMA1999999101581MD1710111+9999REMSYN100AAXX  28034 04201 45/81 /0711 10080 21016 30158 40181 57011 555 60/// 71374 72500 73469 74110 75500;
0183042010999992000072806004+77470-069220FM-12+001999999V0200601N006719999999N0350001N1+00631-00131101691ADDKA1120M+01161KA2120N+00561MA1999999101461MD1710121+9999REMSYN116AAXX  28064 04201 45/81 /0613 10063 21013 30146 40169 57012 333 10116 20056 555 60/// 71395 72500 73500 74110 75500;
0141042010999992000072809004+77470-069220FM-12+001999999V0200601N009819999999N0350001N1+00761-00231101581ADDMA1999999101351MD1710111+9999REMSYN100AAXX  28094 04201 45/81 /0619 10076 21023 30135 40158 57011 555 60/// 71382 72500 73496 74343 75500;
0162042010999992000072812004+77470-069220FM-12+001999999V0200501N007219999999N0350001N1+00891-00221101421ADDMA1999999101191MD1710161+9999OA149901181REMSYN110AAXX  28124 04201 45/81 /0514 10089 21022 30119 40142 57016 333 91123 555 60/// 71351 72500 73500 74271 75500;
0141042010999992000072815004+77470-069220FM-12+001999999V0200701N007719999999N0290001N1+00851-00151101231ADDMA1999999101001MD1710191+9999REMSYN100AAXX  28154 04201 45/79 /0715 10085 21015 30100 40123 57019 555 60/// 71298 72500 73433 74940 75500;
0189042010999992000072818004+77470-069220FM-12+001999999V0202601N003619999999N0220001N1+01001-00061100971ADDKA1120M+01211KA2120N+00561MA1999999100741MD1710261+9999REMSYN122AAXX  28184 04201 45/72 /2607 10100 21006 30074 40097 57026 333 10121 20056 91220 555 60/// 71224 72500 73309 74940 75500;
0162042010999992000072821004+77470-069220FM-12+001999999V0200101N003119999999N0260001N1+01461+00211100931ADDMA1999999100701MD1710041+9999OA149901081REMSYN110AAXX  28214 04201 45/76 /0106 10146 20021 30070 40093 57004 333 91121 555 60/// 71268 72500 73420 74220 75500;
0162042010999992000072900004+77470-069220FM-12+001999999V0200801N006219999999N0270001N1+01281-00121101061ADDMA1999999100831MD1210131+9999OA149901391REMSYN110AAXX  29004 04201 45/77 /0812 10128 21012 30083 40106 52013 333 91127 555 60/// 71274 72500 73411 74220 75500;
0162042010999992000072903004+77470-069220FM-12+001999999V0200701N007219999999N0400001N1+01101-00051101191ADDMA1999999100961MD1210131+9999OA149901131REMSYN110AAXX  29034 04201 45/82 /0714 10110 21005 30096 40119 52013 333 91122 555 60/// 71428 72500 73500 74228 75500;
0200042010999992000072906004+77470-069220FM-12+001999999V0200801N007719999999N0450001N1+00881+00001101231ADDKA1120M+01531KA2120N+00711MA1999999101001MD1210041+9999OA149901131REMSYN122AAXX  29064 04201 45/83 /0815 10088 20000 30100 40123 52004 333 10153 20071 91122 555 60/// 71491 72500 73500 74228 75500;
0141042010999992000072909004+77470-069220FM-12+001999999V0200701N005119999999N0450001N1+00801+00001101231ADDMA1999999101001MD1410001+9999REMSYN100AAXX  29094 04201 45/83 /0710 10080 21000 30100 40123 54000 555 60/// 71458 72500 73500 74410 75500;
0151042010999992000072912004+77470-069220FM-12+001999999V0202701N002619999999N0200001N1+00971+00231101231ADDMA1999999101001MD1410001+9999REMSYN110AAXX  29124 04201 45/70 /2705 10097 20023 30100 40123 54000 333 91219 555 60/// 71204 72500 73374 74204 75500;
0141042010999992000072915004+77470-069220FM-12+001999999V0202501N001519999999N0300001N1+00991+00041101131ADDMA1999999100901MD1710101+9999REMSYN100AAXX  29154 04201 45/80 /2503 10099 20004 30090 40113 57010 555 60/// 71318 72500 73441 74283 75500;
0183042010999992000072918004+77470-069220FM-12+001999999V0202701N005719999999N0180001N1+01111+00261100991ADDKA1120M+01231KA2120N+00531MA1999999100761MD1710141+9999REMSYN116AAXX  29184 04201 45/68 /2711 10111 20026 30076 40099 57014 333 10123 20053 555 60/// 71186 72500 73428 74186 75500;
0141042010999992000072921004+77470-069220FM-12+001999999V0202501N001019999999N0290001N1+01001+00361100931ADDMA1999999100701MD1710061+9999REMSYN100AAXX  29214 04201 45/79 /2502 10100 20036 30070 40093 57006 555 60/// 71291 72500 73420 74192 75500;
0141042010999992000073000004+77470-069220FM-12+001999999V0201101N002619999999N0300001N1+00991+00301100901ADDMA1999999100671MD1710031+9999REMSYN100AAXX  30004 04201 45/80 /1105 10099 20030 30067 40090 57003 555 60/// 71300 72500 73382 74192 75500;
0141042010999992000073003004+77470-069220FM-12+001999999V0202301N000519999999N0300001N1+00651+00191100911ADDMA1999999100681MD1210011+9999REMSYN100AAXX  30034 04201 45/80 /2301 10065 20019 30068 40091 52001 555 60/// 71332 72500 73464 74214 75500;
0183042010999992000073006004+77470-069220FM-12+001999999V0202501N002119999999N0400001N1+00621+00311100871ADDKA1120M+01221KA2120N+00531MA1999999100641MD1710041+9999REMSYN116AAXX  30064 04201 45/82 /2504 10062 20031 30064 40087 57004 333 10122 20053 555 60/// 71446 72500 73500 74214 75500;
0141042010999992000073009004+77470-069220FM-12+001999999V0202001N000519999999N0300001N1+00631+00471100901ADDMA1999999100671MD1210031+9999REMSYN100AAXX  30094 04201 45/80 /2001 10063 20047 30067 40090 52003 555 60/// 71319 72496 73417 74307 75500;
0141042010999992000073012004+77470-069220FM-12+001999999V0201001N007219999999N0350001N1+00941+00291100951ADDMA1999999100721MD1210051+9999REMSYN100AAXX  30124 04201 45/81 /1014 10094 20029 30072 40095 52005 555 60/// 71378 72500 73499 74254 75500;
0168042010999992000073015004+77470-069220FM-12+001999999V0202101N001019999999N0170001N1+00771+00321101111ADDMA1999999100881MD1210161+9999OA149900981REMSYN116AAXX  30154 04201 45/67 /2102 10077 20032 30088 40111 52016 333 91119 91214 555 60/// 71175 72389 73302 74158 75500;
0200042010999992000073018004+77470-069220FM-12+001999999V0202301N002619999999N0180001N1+00971+00541101231ADDKA1120M+01231KA2120N+00421MA1999999101001MD1210121+9999OA149900981REMSYN122AAXX  30184 04201 45/68 /2305 10097 20054 30100 40123 52012 333 10123 20042 91119 555 60/// 71185 72462 73277 74158 75500;
0121042010999992000073100004+77470-069220FM-12+001999999V0202301N005719999999N0190001N1+00671+00461101491ADDMA1999999101261REMSYN094AAXX  31004 04201 45/69 /2311 10067 20046 30126 40149 555 60/// 71200 72338 73241 74200 75338;
0141042010999992000073103004+77470-069220FM-12+001999999V0202301N005119999999N0190001N1+00551+00421101521ADDMA1999999101291MD1210031+9999REMSYN100AAXX  31034 04201 45/69 /2310 10055 20042 30129 40152 52003 555 60/// 71193 72314 73214 74159 75390;
0183042010999992000073106004+77470-069220FM-12+001999999V0202601N004619999999N0210001N1+00491+00381101441ADDKA1120M+00871KA2120N+00481MA1999999101201MD1710091+9999REMSYN116AAXX  31064 04201 45/71 /2609 10049 20038 30120 40144 57009 333 10087 20048 555 60/// 71214 72309 73262 74159 75443;
0141042010999992000073109004+77470-069220FM-12+001999999V0202301N003619999999N0300001N1+00461+00341101291ADDMA1999999101051MD1710151+9999REMSYN100AAXX  31094 04201 45/80 /2307 10046 20034 30105 40129 57015 555 60/// 71340 72487 73414 74186 75500;
0141042010999992000073112004+77470-069220FM-12+001999999V0202601N002619999999N0150001N1+00481+00311101041ADDMA1999999100811MD1710241+9999REMSYN100AAXX  31124 04201 45/65 /2605 10048 20031 30081 40104 57024 555 60/// 71157 72500 73310 74157 75500;
0141042010999992000073115004+77470-069220FM-12+001999999V0202001N001019999999N0260001N1+00581+00361100761ADDMA1999999100531MD1710281+9999REMSYN100AAXX  31154 04201 45/76 /2002 10058 20036 30053 40076 57028 555 60/// 71264 72500 73356 74219 75500;
0183042010999992000073118004+77470-069220FM-12+001999999V0201001N005119999999N0280001N1+00801+00411100501ADDKA1120M+00831KA2120N+00441MA1999999100271MD1710261+9999REMSYN116AAXX  31184 04201 45/78 /1010 10080 20041 30027 40050 57026 333 10083 20044 555 60/// 71288 72500 73397 74197 75500;
0141042010999992000073121004+77470-069220FM-12+001999999V0202301N002119999999N0290001N1+00781+00441100361ADDMA1999999100131MD1710141+9999REMSYN100AAXX  31214 04201 45/79 /2304 10078 20044 30013 40036 57014 555 60/// 71293 72500 73417 74207 75500;
0141042010999992000080100004+77470-069220FM-12+001999999V0202101N001019999999N0230001N1+00841+00361100321ADDMA1999999100091MD1710041+9999REMSYN100AAXX  01004 04201 45/73 /2102 10084 20036 30009 40032 57004 555 60/// 71235 72500 73343 74207 75500;
0141042010999992000080103004+77470-069220FM-12+001999999V0201701N000519999999N0280001N1+00631+00331100371ADDMA1999999100141MD1210051+9999REMSYN100AAXX  01034 04201 45/78 /1701 10063 20033 30014 40037 52005 555 60/// 71285 72500 73403 74062 75500;
0183042010999992000080106004+77470-069220FM-12+001999999V0200101N001019999999N0450001N1+00631+00401100491ADDKA1120M+00961KA2120N+00551MA1999999100261MD1210121+9999REMSYN116AAXX  01064 04201 45/83 /0102 10063 20040 30026 40049 52012 333 10096 20055 555 60/// 71483 72500 73500 74062 75500;
0141042010999992000080109004+77470-069220FM-12+001999999V0202301N004119999999N0130001N1+00591+00471100681ADDMA1999999100451MD1210191+9999REMSYN100AAXX  01094 04201 45/63 /2308 10059 20047 30045 40068 52019 555 60/// 71139 72333 73165 74137 75500;
0141042010999992000080112004+77470-069220FM-12+001999999V0202601N008219999999N0140001N1+00481+00341100841ADDMA1999999100611MD1210161+9999REMSYN100AAXX  01124 04201 45/64 /2616 10048 20034 30061 40084 52016 555 60/// 71147 72240 73212 74114 75500;
0141042010999992000080115004+77470-069220FM-12+001999999V0202701N006219999999N0180001N1+00471+00321100861ADDMA1999999100631MD1210021+9999REMSYN100AAXX  01154 04201 45/68 /2712 10047 20032 30063 40086 52002 555 60/// 71187 72374 73267 74161 75469;
0183042010999992000080118004+77470-069220FM-12+001999999V0202401N005119999999N0230001N1+00481+00271100841ADDKA1120M+00681KA2120N+00271MA1999999100611MD1710021+9999REMSYN116AAXX  01184 04201 45/73 /2410 10048 20027 30061 40084 57002 333 10068 20027 555 60/// 71234 72500 73314 74161 75500;
0141042010999992000080121004+77470-069220FM-12+001999999V0202101N005119999999N0220001N1+00541+00341100831ADDMA1999999100601MD1710011+9999REMSYN100AAXX  01214 04201 45/72 /2110 10054 20034 30060 40083 57001 555 60/// 71227 72500 73357 74158 75500;
0147042010999992000080200004+77470-069220FM-12+001999999V0202301N003119999999N0002001N1+00311+00301100791ADDMA1999999100551MD1710051+9999REMSYN106AAXX  02004 04201 4//02 /2306 10031 20030 30055 40079 57005 73431 555 60/// 71822 72843 73827 74822 75500;
0153042010999992000080203004+77470-069220FM-12+001999999V0202701N001519999999N0002001N1+00201+00201100741ADDMA1999999100501MD1710051+9999REMSYN112AAXX  02034 04201 4//02 /2703 10020 20020 30050 40074 57005 73274 555 63990 64990 71820 72845 73830 74815 75845;
0189042010999992000080206004+77470-069220FM-12+001999999V0201401N001519999999N0002001N1+00151+00151100641ADDKA1120M+00571KA2120N+00131MA1999999100401MD1710101+9999REMSYN122AAXX  02064 04201 4//02 /1403 10015 20015 30040 40064 57010 73374 333 10057 20013 555 63990 71819 72836 73822 74815 75016;
0147042010999992000080209004+77470-069220FM-12+001999999V0203001N001519999999N0004001N1+00191+00181100481ADDMA1999999100241MD1710161+9999REMSYN106AAXX  02094 04201 4//04 /3003 10019 20018 30024 40048 57016 73333 555 60/// 71843 72892 73862 74816 75500;
0147042010999992000080212004+77470-069220FM-12+001999999V0202401N000519999999N0003001N1+00331+00221100361ADDMA1999999100131MD1710111+9999REMSYN106AAXX  02124 04201 4//03 /2401 10033 20022 30013 40036 57011 73433 555 60/// 71833 72010 73853 74816 75500;
0147042010999992000080215004+77470-069220FM-12+001999999V0201601N001019999999N0300001N1+00761-00101100201ADDMA1999999099971MD1710161+9999REMSYN106AAXX  02154 04201 4//80 /1602 10076 21010 39997 40020 57016 70033 555 60/// 71305 72500 73411 74823 75500;
0189042010999992000080218004+77470-069220FM-12+001999999V0201401N002619999999N0250001N1+00991-00081100061ADDKA1120M+01041KA2120N+00061MA1999999099831MD1710141+9999REMSYN122AAXX  02184 04201 4//75 /1405 10099 21008 39983 40006 57014 70033 333 10104 20006 555 60/// 71256 72500 73378 74823 75500;
0162042010999992000080221004+77470-069220FM-12+001999999V0201401N003119999999N0300001N1+01051-00091100041ADDMA1999999099811MD1710021+9999OA149901131REMSYN110AAXX  02214 04201 45/80 /1406 10105 21009 39981 40004 57002 333 91122 555 60/// 71336 72500 73454 74198 75500;
0162042010999992000080300004+77470-069220FM-12+001999999V0200801N003119999999N0300001N1+00991-00201100011ADDMA1999999099781MD1710031+9999OA149901131REMSYN110AAXX  03004 04201 45/80 /0806 10099 21020 39978 40001 57003 333 91122 555 60/// 71303 72500 73420 74198 75500;
0168042010999992000080303004+77470-069220FM-12+001999999V0201001N003119999999N0450001N1+00791-00281100081ADDMA1999999099851MD1210071+9999OA149901541REMSYN116AAXX  03034 04201 45/83 /1006 10079 21028 39985 40008 52007 333 91130 91223 555 60/// 71468 72500 73500 74232 75500;
0206042010999992000080306004+77470-069220FM-12+001999999V0203101N000519999999N0500001N1+00581-00221100231ADDKA1120M+01251KA2120N+00441MA1999999100001MD1210151+9999OA149901751REMSYN128AAXX  03064 04201 45/84 /3101 10058 21022 30000 40023 52015 333 10125 20044 91134 91223 555 60/// 71500 72500 73500 74232 75500;
0141042010999992000080309004+77470-069220FM-12+001999999V0200801N003119999999N0450001N1+00561-00291100431ADDMA1999999100201MD1210201+9999REMSYN100AAXX  03094 04201 45/83 /0806 10056 21029 30020 40043 52020 555 60/// 71468 72500 73500 74462 75500;
0141042010999992000080312004+77470-069220FM-12+001999999V0202401N001519999999N0220001N1+00571+00221100741ADDMA1999999100511MD1210311+9999REMSYN100AAXX  03124 04201 45/72 /2403 10057 20022 30051 40074 52031 555 60/// 71224 72315 73270 74169 75500;
0141042010999992000080315004+77470-069220FM-12+001999999V0202401N001519999999N0150001N1+00641+00291100951ADDMA1999999100721MD1210211+9999REMSYN100AAXX  03154 04201 45/65 /2403 10064 20029 30072 40095 52021 555 60/// 71154 72372 73204 74148 75435;
0183042010999992000080318004+77470-069220FM-12+001999999V0202401N002119999999N0180001N1+00711+00391101101ADDKA1120M+00821KA2120N+00481MA1999999100871MD1210151+9999REMSYN116AAXX  03184 04201 45/68 /2404 10071 20039 30087 40110 52015 333 10082 20048 555 60/// 71183 72349 73239 74148 75500;
0141042010999992000080321004+77470-069220FM-12+001999999V0202501N001519999999N0300001N1+00691+00291101201ADDMA1999999100971MD1210101+9999REMSYN100AAXX  03214 04201 45/80 /2503 10069 20029 30097 40120 52010 555 60/// 71328 72500 73444 74148 75500;
0141042010999992000080400004+77470-069220FM-12+001999999V0202301N001519999999N0400001N1+00581+00361101251ADDMA1999999101021MD1210051+9999REMSYN100AAXX  04004 04201 45/82 /2303 10058 20036 30102 40125 52005 555 60/// 71420 72500 73500 74148 75500;
0141042010999992000080403004+77470-069220FM-12+001999999V0201201N001519999999N0450001N1+00561+00321101251ADDMA1999999101021MD1410001+9999REMSYN100AAXX  04034 04201 45/83 /1203 10056 20032 30102 40125 54000 555 60/// 71474 72500 73500 74368 75500;
0183042010999992000080406004+77470-069220FM-12+001999999V0201201N000519999999N0350001N1+00511+00371101221ADDKA1120M+00861KA2120N+00501MA1999999100991MD1710031+9999REMSYN116AAXX  04064 04201 45/81 /1201 10051 20037 30099 40122 57003 333 10086 20050 555 63003 71392 72500 73500 74361 75799;
0141042010999992000080409004+77470-069220FM-12+001999999V0201701N000519999999N0400001N1+00531+00391101171ADDMA1999999100941MD1710051+9999REMSYN100AAXX  04094 04201 45/82 /1701 10053 20039 30094 40117 57005 555 60/// 71405 72500 73496 74323 75500;
0141042010999992000080412004+77470-069220FM-12+001999999V0201001N001519999999N0400001N1+00651+00341101101ADDMA1999999100871MD1710071+9999REMSYN100AAXX  04124 04201 45/82 /1003 10065 20034 30087 40110 57007 555 60/// 71425 72500 73500 74056 75500;
0141042010999992000080415004+77470-069220FM-12+001999999V0201401N002619999999N0350001N1+00571+00311101081ADDMA1999999100851MD1710021+9999REMSYN100AAXX  04154 04201 45/81 /1405 10057 20031 30085 40108 57002 555 60/// 71360 72500 73438 74208 75500;
0189042010999992000080418004+77470-069220FM-12+001999999V0201401N002619999999N0300001N1+00591+00281101051ADDKA1120M+00761KA2120N+00511MA1999999100821MD1710031+9999REMSYN122AAXX  04184 04201 4//80 /1405 10059 20028 30082 40105 57003 70054 333 10076 20051 555 63991 71324 72500 73462 74198 75500;
0141042010999992000080421004+77470-069220FM-12+001999999V0202601N001519999999N0350001N1+00591+00261101091ADDMA1999999100861MD1210041+9999REMSYN100AAXX  04214 04201 45/81 /2603 10059 20026 30086 40109 52004 555 60/// 71392 72500 73492 74303 75500;
0141042010999992000080500004+77470-069220FM-12+001999999V0201401N001519999999N0350001N1+00611+00261101141ADDMA1999999100911MD1210051+9999REMSYN100AAXX  05004 04201 45/81 /1403 10061 20026 30091 40114 52005 555 60/// 71351 72500 73500 74303 75500;
0141042010999992000080503004+77470-069220FM-12+001999999V0201001N004119999999N0400001N1+00521+00281101191ADDMA1999999100961MD1210051+9999REMSYN100AAXX  05034 04201 45/82 /1008 10052 20028 30096 40119 52005 555 60/// 71416 72500 73500 74319 75500;
0183042010999992000080506004+77470-069220FM-12+001999999V0200801N005119999999N0450001N1+00631+00231101271ADDKA1120M+00721KA2120N+00511MA1999999101041MD1210081+9999REMSYN116AAXX  05064 04201 45/83 /0810 10063 20023 30104 40127 52008 333 10072 20051 555 60/// 71477 72500 73500 74319 75500;
0153042010999992000080509004+77470-069220FM-12+001999999V0200901N005119999999N0400001N1+00541+00311101311ADDMA1999999101081MD1210041+9999REMSYN112AAXX  05094 04201 4//82 /0910 10054 20031 30108 40131 52004 70065 555 63997 64990 71442 72500 73500 74131 75500;
0147042010999992000080512004+77470-069220FM-12+001999999V0200901N004119999999N0350001N1+00731+00251101361ADDMA1999999101131MD1210051+9999REMSYN106AAXX  05124 04201 4//81 /0908 10073 20025 30113 40136 52005 70065 555 63997 71376 72500 73475 74131 75500;
0141042010999992000080515004+77470-069220FM-12+001999999V0201101N004619999999N0400001N1+00941+00161101371ADDMA1999999101141MD1210011+9999REMSYN100AAXX  05154 04201 45/82 /1109 10094 20016 30114 40137 52001 555 60/// 71416 72500 73475 74260 75500;
0183042010999992000080518004+77470-069220FM-12+001999999V0202501N001519999999N0290001N1+00801+00381101451ADDKA1120M+01161KA2120N+00541MA1999999101221MD1210081+9999REMSYN116AAXX  05184 04201 45/79 /2503 10080 20038 30122 40145 52008 333 10116 20054 555 60/// 71297 72500 73439 74260 75500;
0141042010999992000080521004+77470-069220FM-12+001999999V0202501N003619999999N0300001N1+00741+00451101501ADDMA1999999101271MD1210051+9999REMSYN100AAXX  05214 04201 45/80 /2507 10074 20045 30127 40150 52005 555 63003 71321 72500 73500 74247 75500;
0141042010999992000080600004+77470-069220FM-12+001999999V0202001N004119999999N0300001N1+00591+00451101501ADDMA1999999101271MD1410001+9999REMSYN100AAXX  06004 04201 45/80 /2008 10059 20045 30127 40150 54000 555 63003 71317 72500 73417 74957 75500;
0141042010999992000080603004+77470-069220FM-12+001999999V0202301N003119999999N0350001N1+00511+00411101471ADDMA1999999101231MD1710041+9999REMSYN100AAXX  06034 04201 45/81 /2306 10051 20041 30123 40147 57004 555 60/// 71367 72500 73500 74301 75500;
0183042010999992000080606004+77470-069220FM-12+001999999V0202601N000519999999N0400001N1+00371+00331101411ADDKA1120M+00851KA2120N+00241MA1999999101171MD1710061+9999REMSYN116AAXX  06064 04201 45/82 /2601 10037 20033 30117 40141 57006 333 10085 20024 555 60/// 71440 72500 73500 74301 75500;
0141042010999992000080609004+77470-069220FM-12+001999999V0200601N003119999999N0500001N1+00471+00101101341ADDMA1999999101101MD1710071+9999REMSYN100AAXX  06094 04201 45/84 /0606 10047 20010 30110 40134 57007 555 60/// 71500 72500 73500 74402 75500;
0141042010999992000080612004+77470-069220FM-12+001999999V0200901N006719999999N0350001N1+00751-00341101191ADDMA1999999100961MD1710141+9999REMSYN100AAXX  06124 04201 45/81 /0913 10075 21034 30096 40119 57014 555 60/// 71381 72500 73492 74306 75500;
0141042010999992000080615004+77470-069220FM-12+001999999V0200901N007719999999N0350001N1+00871-00321101021ADDMA1999999100791MD1710171+9999REMSYN100AAXX  06154 04201 45/81 /0915 10087 21032 30079 40102 57017 555 60/// 71356 72500 73448 74251 75500;
0183042010999992000080618004+77470-069220FM-12+001999999V0200901N008719999999N0350001N1+00961-00341100861ADDKA1120M+00991KA2120N+00201MA1999999100631MD1710161+9999REMSYN116AAXX  06184 04201 45/81 /0917 10096 21034 30063 40086 57016 333 10099 20020 555 60/// 71388 72500 73476 74221 75500;
0151042010999992000080700004+77470-069220FM-12+001999999V0202501N003119999999N0230001N1+00821-00081100671ADDMA1999999100441MD1710071+9999REMSYN110AAXX  07004 04201 45/73 /2506 10082 21008 30044 40067 57007 333 91219 555 60/// 71231 72500 73389 74118 75500;
0183042010999992000080706004+77470-069220FM-12+001999999V0203101N001019999999N0350001N1+00471+00351100491ADDKA1120M+01161KA2120N+00401MA1999999100261MD1710091+9999REMSYN116AAXX  07064 04201 45/81 /3102 10047 20035 30026 40049 57009 333 10116 20040 555 60/// 71352 72500 73416 74256 75500;
0141042010999992000080709004+77470-069220FM-12+001999999V0203401N000519999999N0300001N1+00491+00421100511ADDMA1999999100281MD1210021+9999REMSYN100AAXX  07094 04201 45/80 /3401 10049 20042 30028 40051 52002 555 60/// 71326 72500 73445 74276 75500;
0141042010999992000080712004+77470-069220FM-12+001999999V0201101N001519999999N0300001N1+00661-00121100581ADDMA1999999100351MD1210071+9999REMSYN100AAXX  07124 04201 45/80 /1103 10066 21012 30035 40058 52007 555 63003 71336 72500 73413 74259 75799;
0153042010999992000080715004+77470-069220FM-12+001999999V0200901N005119999999N0400001N1+00701-00351100701ADDMA1999999100471MD1210121+9999REMSYN112AAXX  07154 04201 4//82 /0910 10070 21035 30047 40070 52012 72365 555 63993 64990 71445 72500 73500 74168 75500;
0189042010999992000080718004+77470-069220FM-12+001999999V0202101N001519999999N0350001N1+00651+00331100901ADDKA1120M+00741KA2120N+00221MA1999999100671MD1210201+9999REMSYN122AAXX  07184 04201 4//81 /2103 10065 20033 30067 40090 52020 70065 333 10074 20022 555 63993 71379 72500 73490 74168 75500;
0141042010999992000080721004+77470-069220FM-12+001999999V0209999C000019999999N0450001N1+00681+00261101091ADDMA1999999100861MD1210191+9999REMSYN100AAXX  07214 04201 45/83 /0000 10068 20026 30086 40109 52019 555 60/// 71455 72500 73500 74309 75500;
0141042010999992000080800004+77470-069220FM-12+001999999V0202001N000519999999N0450001N1+00661+00211101181ADDMA1999999100951MD1210091+9999REMSYN100AAXX  08004 04201 45/83 /2001 10066 20021 30095 40118 52009 555 60/// 71462 72500 73500 74186 75500;
0141042010999992000080803004+77470-069220FM-12+001999999V0200901N003619999999N0450001N1+00601+00271101221ADDMA1999999100991MD1210041+9999REMSYN100AAXX  08034 04201 45/83 /0907 10060 20027 30099 40122 52004 555 60/// 71465 72500 73500 74418 75500;
0183042010999992000080806004+77470-069220FM-12+001999999V0200701N003119999999N0450001N1+00681+00211101231ADDKA1120M+01161KA2120N+00271MA1999999101001MD1210011+9999REMSYN116AAXX  08064 04201 45/83 /0706 10068 20021 30100 40123 52001 333 10116 20027 555 60/// 71472 72500 73500 74418 75500;
0141042010999992000080809004+77470-069220FM-12+001999999V0201101N005119999999N0450001N1+00671+00181101221ADDMA1999999100991MD1710011+9999REMSYN100AAXX  08094 04201 45/83 /1110 10067 20018 30099 40122 57001 555 60/// 71476 72500 73500 74448 75500;
0141042010999992000080812004+77470-069220FM-12+001999999V0200901N003619999999N0450001N1+00761+00231101201ADDMA1999999100971MD1710021+9999REMSYN100AAXX  08124 04201 45/83 /0907 10076 20023 30097 40120 57002 555 60/// 71476 72500 73500 74400 75500;
0141042010999992000080815004+77470-069220FM-12+001999999V0200701N004619999999N0400001N1+00811+00231101101ADDMA1999999100871MD1710101+9999REMSYN100AAXX  08154 04201 45/82 /0709 10081 20023 30087 40110 57010 555 60/// 71442 72500 73500 74352 75500;
0183042010999992000080818004+77470-069220FM-12+001999999V0202201N002119999999N0350001N1+00681+00381101051ADDKA1120M+01161KA2120N+00561MA1999999100821MD1710051+9999REMSYN116AAXX  08184 04201 45/81 /2204 10068 20038 30082 40105 57005 333 10116 20056 555 60/// 71400 72500 73458 74281 75500;
0141042010999992000080821004+77470-069220FM-12+001999999V0201101N003119999999N0290001N1+00821+00281100931ADDMA1999999100701MD1710121+9999REMSYN100AAXX  08214 04201 45/79 /1106 10082 20028 30070 40093 57012 555 60/// 71299 72500 73500 74186 75500;
0141042010999992000080900004+77470-069220FM-12+001999999V0201101N005119999999N0400001N1+00851+00221100771ADDMA1999999100541MD1710161+9999REMSYN100AAXX  09004 04201 45/82 /1110 10085 20022 30054 40077 57016 555 60/// 71441 72500 73500 74186 75500;
0141042010999992000080903004+77470-069220FM-12+001999999V0201001N006719999999N0400001N1+00881+00191100541ADDMA1999999100311MD1710231+9999REMSYN100AAXX  09034 04201 45/82 /1013 10088 20019 30031 40054 57023 555 60/// 71449 72500 73500 74219 75500;
0207042010999992000080906004+77470-069220FM-12+001999999V0200701N008219999999N0400001N1+01111+00261100291ADDKA1120M+01121KA2120N+00561MA1999999100061MD1710251+9999REMSYN140AAXX  09064 04201 4//82 /0716 10111 20026 30006 40029 57025 78160 333 10112 20056 555 61993 62990 63993 64990 71413 72500 73500 74219 75500;
0141042010999992000080909004+77470-069220FM-12+001999999V0200801N008719999999N0450001N1+01071+00301100191ADDMA1999999099961MD1710101+9999REMSYN100AAXX  09094 04201 45/83 /0817 10107 20030 39996 40019 57010 555 60/// 71476 72500 73500 74428 75500;
0165042010999992000080912004+77470-069220FM-12+001999999V0200701N010319999999N0130001N1+01091+00401100041ADDMA1999999099811MD1710151+9999REMSYN124AAXX  09124 04201 4//63 /0720 10109 20040 39981 40004 57015 76160 555 61001 62995 63001 64993 71133 72421 73218 74133 75500;
0165042010999992000080915004+77470-069220FM-12+001999999V0200701N008219999999N0050001N1+00981+00501100051ADDMA1999999099821MD1210011+9999REMSYN124AAXX  09154 04201 4//50 /0716 10098 20050 39982 40005 52001 76365 555 61019 62005 63019 64002 71054 72168 73104 74054 75500;
0207042010999992000080918004+77470-069220FM-12+001999999V0200701N009319999999N0220001N1+00921+00441100061ADDKA1120M+01211KA2120N+00811MA1999999099831MD1210011+9999REMSYN140AAXX  09184 04201 4//72 /0718 10092 20044 39983 40006 52001 76165 333 10121 20081 555 61992 62990 63019 64002 71225 72500 73500 74047 75500;
0153042010999992000080921004+77470-069220FM-12+001999999V0200601N007219999999N0350001N1+00871+00301100131ADDMA1999999099901MD1210071+9999REMSYN112AAXX  09214 04201 4//81 /0614 10087 20030 39990 40013 52007 72365 555 63003 64995 71395 72500 73484 74048 75500;
0117042010999992000081000004+77470-069220FM-12+001999999V0200801N003619999999N0130001N1+00711+00311100241ADDMA1999999100011MD1210111+9999REMSYN076AAXX  10004 04201 4//63 /0807 10071 20031 30001 40024 52011 76165 333 91221;
0165042010999992000081003004+77470-069220FM-12+001999999V0200201N001019999999N0230001N1+00651+00431100321ADDMA1999999100091MD1210081+9999REMSYN124AAXX  10034 04201 4//73 /0202 10065 20043 30009 40032 52008 76166 555 61997 62993 63997 64992 71239 72483 73302 74156 75500;
0165042010999992000081009004+77470-069220FM-12+001999999V0202801N001519999999N0070001N1+00531+00491100551ADDMA1999999100321MD1210141+9999REMSYN124AAXX  10094 04201 4//57 /2803 10053 20049 30032 40055 52014 76166 555 61002 62001 63002 64001 71075 72169 73095 74075 75500;
0165042010999992000081012004+77470-069220FM-12+001999999V0202201N003119999999N0190001N1+00481+00391100671ADDMA1999999100441MD1210121+9999REMSYN124AAXX  10124 04201 4//69 /2206 10048 20039 30044 40067 52012 75166 555 61990 62990 63004 64001 71199 72424 73357 74056 75500;
0153042010999992000081015004+77470-069220FM-12+001999999V0202101N005719999999N0250001N1+00421+00051100731ADDMA1999999100501MD1210061+9999REMSYN112AAXX  10154 04201 4//75 /2111 10042 20005 30050 40073 52006 70055 555 63990 64990 71255 72417 73324 74118 75500;
0189042010999992000081018004+77470-069220FM-12+001999999V0202601N001519999999N0270001N1+00511-00021100771ADDKA1120M+00631KA2120N+00421MA1999999100541MD1210041+9999REMSYN122AAXX  10184 04201 4//77 /2603 10051 21002 30054 40077 52004 70055 333 10063 20042 555 63990 71279 72500 73385 74118 75500;
0101042010999992000081021004+77470-069220FM-12+001999999V0202201N001019999999N0350001N1+00501-00091100731ADDMA1999999100501MD1710041+9999REMSYN060AAXX  10214 04201 45/81 /2202 10050 21009 30050 40073 57004;
0174042010999992000081115004+77470-069220FM-12+001999999V0202201N007719999999N0400001N1+00181-00541100711ADDMA1999999100471MD1210151+9999OA149901391REMSYN122AAXX  11154 04201 4//82 /2215 10018 21054 30047 40071 52015 72474 333 91127 555 63992 64990 71407 72500 73500 74053 75500;
0141042010999992000081121004+77470-069220FM-12+001999999V0202001N006719999999N0300001N1+00191-00531101101ADDMA1999999100861MD1210211+9999REMSYN100AAXX  11214 04201 45/80 /2013 10019 21053 30086 40110 52021 555 60/// 71309 72500 73434 74250 75500;
0191042010999992000081200004+77470-069220FM-12+001999999V0202701N003619999999N0007001N1-00031-00161999999ADDMD1210111+9999REMSYN130AAXX  13154 04201 4//07 /2707 11003 21016 30024 40048 52011 77176 555 61003 62994 63010 64002 65021 71874 72134 73021 74850 75372;EQDQ01+100243APOSP Q02+100483APOSLP
0141042010999992000081203004+77470-069220FM-12+001999999V0202101N004119999999N0300001N1+00101-00561101341ADDMA1999999101101MD1210061+9999REMSYN100AAXX  12034 04201 45/80 /2108 10010 21056 30110 40134 52006 555 60/// 71322 72500 73417 74277 75500;
0213042010999992000081206004+77470-069220FM-12+001999999V0203401N001519999999N0007001N1-00111-00281101371ADDKA1120M+00211KA2120N-00121MA1999999101131MD1210031+9999REMSYN146AAXX  12064 04201 4//07 /3403 11011 21028 30113 40137 52003 77174 333 10021 21012 555 61002 62001 63002 64001 65017 71869 72021 73013 74865 75500;
0153042010999992000081212004+77470-069220FM-12+001999999V0200701N003619999999N0450001N1-00031-00251101301ADDMA1999999101061MD1710071+9999REMSYN112AAXX  12124 04201 4//83 /0707 11003 21025 30106 40130 57007 70077 555 63017 64990 71454 72500 73500 74885 75500;
0147042010999992000081215004+77470-069220FM-12+001999999V0200601N004619999999N0450001N1+00051-00351101191ADDMA1999999100951MD1710111+9999REMSYN106AAXX  12154 04201 4//83 /0609 10005 21035 30095 40119 57011 74140 555 60/// 71462 72500 73500 74376 75500;
0213042010999992000081218004+77470-069220FM-12+001999999V0200701N004619999999N0060001N1+00161-00121101121ADDKA1120M+00161KA2120N-00141MA1999999100881MD1710071+9999REMSYN146AAXX  12184 04201 4//56 /0709 10016 21012 30088 40112 57007 77174 333 10016 21014 555 61990 62990 63991 64990 65001 71066 72346 73176 74058 75500;
0159042010999992000081221004+77470-069220FM-12+001999999V0200401N006719999999N0400001N1+00171-00231101021ADDMA1999999100781MD1710101+9999REMSYN118AAXX  12214 04201 4//82 /0413 10017 21023 30078 40102 57010 78077 555 63002 64991 65001 71403 72500 73500 74020 75500;
0147042010999992000081300004+77470-069220FM-12+001999999V0200701N006719999999N0400001N1+00181-00311100931ADDMA1999999100691MD1710091+9999REMSYN106AAXX  13004 04201 4//82 /0713 10018 21031 30069 40093 57009 70077 555 63002 71426 72500 73500 74020 75500;
0213042010999992000081306004+77470-069220FM-12+001999999V0200401N002619999999N0070001N1+00111-00101100621ADDKA1120M+00281KA2120N-00021MA1999999100381MD1710161+9999REMSYN146AAXX  13064 04201 4//57 /0405 10011 21010 30038 40062 57016 77174 333 10028 21002 555 61990 62990 63002 64993 65007 71076 72186 73116 74021 75500;
0171042010999992000081309004+77470-069220FM-12+001999999V0209999C000019999999N0016001N1+00001-00041100441ADDMA1999999100201MD1710181+9999REMSYN130AAXX  13094 04201 4//16 /0000 10000 21004 30020 40044 57018 77177 555 61994 62992 63007 64004 65076 71016 72058 73024 74841 75349;
0171042010999992000081312004+77470-069220FM-12+001999999V0203001N000519999999N0031001N1+00041-00081100371ADDMA1999999100131MD1710071+9999REMSYN130AAXX  13124 04201 4//31 /3001 10004 21008 30013 40037 57007 76777 555 61002 62994 63007 64001 65009 71031 72048 73038 74841 75349;
0218042010999992000081318004+77470-069220FM-12+001999999V0202301N006719999999N0190001N1+00201-00371100771ADDKA1120M+00271KA2120N-00041MA1999999100531MD1210291+9999OA149901031REMSYN140AAXX  13184 04201 4//69 /2313 10020 21037 30053 40077 52029 70076 333 10027 21004 91120 555 63010 64990 65001 71195 72500 73356 74850 75500;
0141042010999992000081321004+77470-069220FM-12+001999999V0202301N004119999999N0300001N1+00251-00551101001ADDMA1999999100761MD1210231+9999REMSYN100AAXX  13214 04201 45/80 /2308 10025 21055 30076 40100 52023 555 60/// 71316 72500 73438 74263 75500;
0141042010999992000081400004+77470-069220FM-12+001999999V0201901N005719999999N0400001N1+00161-00571101071ADDMA1999999100831MD1210071+9999REMSYN100AAXX  14004 04201 45/82 /1911 10016 21057 30083 40107 52007 555 60/// 71430 72500 73500 74263 75500;
0192042010999992000081403004+77470-069220FM-12+001999999V0200701N004119999999N0008001N1-00051-00151101061ADDMA1999999100821MD1710011+9999OA149900981REMSYN140AAXX  14034 04201 4//08 /0708 11005 21015 30082 40106 57001 77174 333 91119 555 61012 62004 63012 64002 65036 71876 72028 73016 74876 75500;
0230042010999992000081406004+77470-069220FM-12+001999999V0200501N002619999999N0006001N1-00051-00141101091ADDKA1120M+00311KA2120N-00061MA1999999100851MD1210031+9999OA149900981REMSYN152AAXX  14064 04201 4//06 /0505 11005 21014 30085 40109 52003 77274 333 10031 21006 91119 555 61003 62002 63012 64002 65044 71856 72017 73875 74856 75500;
0107042010999992000081409004+77470-069220FM-12+001999999V0200601N005719999999N0100001N1+00111-00171101151ADDMA1999999100911MD1210061+9999REMSYN066AAXX  14094 04201 4//60 /0611 10011 21017 30091 40115 52006 77177;
0171042010999992000081412004+77470-069220FM-12+001999999V0201101N003619999999N0300001N1+00261-00241101251ADDMA1999999101011MD1210101+9999REMSYN130AAXX  14124 04201 4//80 /1107 10026 21024 30101 40125 52010 74177 555 61990 62990 63012 64992 65004 71340 72500 73462 74868 75500;
0171042010999992000081415004+77470-069220FM-12+001999999V0200601N006219999999N0130001N1+00261-00211101341ADDMA1999999101101MD1210091+9999REMSYN130AAXX  14154 04201 4//63 /0612 10026 21021 30110 40134 52009 77174 555 61990 62990 63993 64990 65001 71131 72500 73327 74061 75500;
0213042010999992000081418004+77470-069220FM-12+001999999V0200501N006219999999N0090001N1+00301-00151101381ADDKA1120M+00391KA2120N-00061MA1999999101141MD1210041+9999REMSYN146AAXX  14184 04201 4//59 /0512 10030 21015 30114 40138 52004 78574 333 10039 21006 555 61991 62990 63996 64991 65001 71096 72213 73129 74061 75500;
0153042010999992000081421004+77470-069220FM-12+001999999V0200501N007719999999N0400001N1+00361-00281101441ADDMA1999999101201MD1210061+9999REMSYN112AAXX  14214 04201 4//82 /0515 10036 21028 30120 40144 52006 72177 555 63993 64990 71433 72500 73500 74043 75500;
0147042010999992000081500004+77470-069220FM-12+001999999V0200601N005719999999N0450001N1+00361-00441101511ADDMA1999999101271MD1210071+9999REMSYN106AAXX  15004 04201 4//83 /0611 10036 21044 30127 40151 52007 70077 555 63993 71474 72500 73500 74043 75500;
0141042010999992000081503004+77470-069220FM-12+001999999V0200601N005119999999N0500001N1+00291-00421101551ADDMA1999999101311MD1210041+9999REMSYN100AAXX  15034 04201 45/84 /0610 10029 21042 30131 40155 52004 555 60/// 71500 72500 73500 74446 75500;
0183042010999992000081506004+77470-069220FM-12+001999999V0200701N006719999999N0500001N1+00301-00611101551ADDKA1120M+00401KA2120N+00201MA1999999101311MD1410001+9999REMSYN116AAXX  15064 04201 45/84 /0713 10030 21061 30131 40155 54000 333 10040 20020 555 60/// 71500 72500 73500 74446 75500;
0141042010999992000081509004+77470-069220FM-12+001999999V0200601N007719999999N0450001N1+00391-00721101571ADDMA1999999101331MD1210021+9999REMSYN100AAXX  15094 04201 45/83 /0615 10039 21072 30133 40157 52002 555 60/// 71496 72500 73500 74046 75500;
0141042010999992000081512004+77470-069220FM-12+001999999V0200701N006719999999N0400001N1+00521-00691101611ADDMA1999999101371MD1210041+9999REMSYN100AAXX  15124 04201 45/82 /0713 10052 21069 30137 40161 52004 555 60/// 71438 72500 73500 74046 75500;
0141042010999992000081515004+77470-069220FM-12+001999999V0200501N006219999999N0400001N1+00771-00311101591ADDMA1999999101361MD1710011+9999REMSYN100AAXX  15154 04201 45/82 /0512 10077 21031 30136 40159 57001 555 60/// 71412 72500 73484 74382 75500;
0183042010999992000081518004+77470-069220FM-12+001999999V0200801N006219999999N0110001N1+00651-00321101591ADDKA1120M+00931KA2120N+00241MA1999999101361MD1410001+9999REMSYN116AAXX  15184 04201 45/61 /0812 10065 21032 30136 40159 54000 333 10093 20024 555 60/// 71114 72500 73482 74114 75500;
0141042010999992000081521004+77470-069220FM-12+001999999V0200801N005119999999N0450001N1+00731-00121101601ADDMA1999999101371MD1210011+9999REMSYN100AAXX  15214 04201 45/83 /0810 10073 21012 30137 40160 52001 555 60/// 71456 72500 73500 74388 75500;
0141042010999992000081600004+77470-069220FM-12+001999999V0200601N007219999999N0400001N1+00931+00091101541ADDMA1999999101311MD1710061+9999REMSYN100AAXX  16004 04201 45/82 /0614 10093 20009 30131 40154 57006 555 60/// 71443 72500 73500 74322 75500;
0151042010999992000081603004+77470-069220FM-12+001999999V0202601N001019999999N0400001N1+00461+00031101561ADDMA1999999101321MD1210011+9999REMSYN110AAXX  16034 04201 45/82 /2602 10046 20003 30132 40156 52001 333 91214 555 60/// 71448 72500 73500 74407 75500;
0195042010999992000081606004+77470-069220FM-12+001999999V0200601N006719999999N0450001N1+00901+00111101501ADDKA1120M+00951KA2120N+00441MA1999999101271MD1710051+9999REMSYN128AAXX  16064 04201 4//83 /0613 10090 20011 30127 40150 57005 70065 333 10095 20044 555 63990 64990 71470 72500 73500 74343 75500;
0107042010999992000081609004+77470-069220FM-12+001999999V0200701N007719999999N0400001N1+00871+00221101401ADDMA1999999101171MD1710101+9999REMSYN066AAXX  16094 04201 4//82 /0715 10087 20022 30117 40140 57010 78160;
0107042010999992000081612004+77470-069220FM-12+001999999V0200601N007219999999N0400001N1+00841+00281101381ADDMA1999999101151MD1710021+9999REMSYN066AAXX  16124 04201 4//82 /0614 10084 20028 30115 40138 57002 75260;
0107042010999992000081615004+77470-069220FM-12+001999999V0200601N006719999999N0100001N1+00761+00391101461ADDMA1999999101231MD1210081+9999REMSYN066AAXX  16154 04201 4//60 /0613 10076 20039 30123 40146 52008 76165;
0107042010999992000081621004+77470-069220FM-12+001999999V0200601N006719999999N0400001N1+00871+00391101421ADDMA1999999101191MD1710011+9999REMSYN066AAXX  16214 04201 4//82 /0613 10087 20039 30119 40142 57001 75165;
0107042010999992000081700004+77470-069220FM-12+001999999V0200801N007219999999N0300001N1+00591+00331101401ADDMA1999999101171MD1710021+9999REMSYN066AAXX  17004 04201 4//80 /0814 10059 20033 30117 40140 57002 75165;
0107042010999992000081703004+77470-069220FM-12+001999999V0200501N007719999999N0090001N1+00831+00461101361ADDMA1999999101131MD1710041+9999REMSYN066AAXX  17034 04201 4//59 /0515 10083 20046 30113 40136 57004 75265;
0149042010999992000081706004+77470-069220FM-12+001999999V0200401N011319999999N0002001N1+00761+00371101271ADDKA1120M+00891KA2999N+00561MA1999999101041MD1710091+9999REMSYN082AAXX  17064 04201 4//02 /0422 10076 20037 30104 40127 57009 76165 333 10089 20056;
0107042010999992000081709004+77470-069220FM-12+001999999V0200601N009819999999N0200001N1+00711+00331101241ADDMA1999999101011MD1710031+9999REMSYN066AAXX  17094 04201 4//70 /0619 10071 20033 30101 40124 57003 75265;
0117042010999992000081712004+77470-069220FM-12+001999999V0200701N006219999999N0170001N1+00721+00371101231ADDMA1999999101001MD1710011+9999REMSYN076AAXX  17124 04201 4//67 /0712 10072 20037 30100 40123 57001 76165 333 91222;
0107042010999992000081715004+77470-069220FM-12+001999999V0200701N006719999999N0260001N1+00611+00421101151ADDMA1999999100921MD1710081+9999REMSYN066AAXX  17154 04201 4//76 /0713 10061 20042 30092 40115 57008 75166;
0107042010999992000081721004+77470-069220FM-12+001999999V0200601N005719999999N0450001N1+00781+00271101241ADDMA1999999101011MD1210071+9999REMSYN066AAXX  17214 04201 4//83 /0611 10078 20027 30101 40124 52007 72376;
0107042010999992000081800004+77470-069220FM-12+001999999V0200901N005119999999N0400001N1+00671+00291101231ADDMA1999999101001MD1710011+9999REMSYN066AAXX  18004 04201 4//82 /0910 10067 20029 30100 40123 57001 74176;
0107042010999992000081803004+77470-069220FM-12+001999999V0200601N004619999999N0500001N1+00741+00181101171ADDMA1999999100941MD1710061+9999REMSYN066AAXX  18034 04201 4//84 /0609 10074 20018 30094 40117 57006 72254;
0149042010999992000081806004+77470-069220FM-12+001999999V0202901N002119999999N0450001N1+00531+00251101201ADDKA1120M+00871KA2999N+00511MA1999999100971MD1210031+9999REMSYN082AAXX  18064 04201 4//83 /2904 10053 20025 30097 40120 52003 72154 333 10087 20051;
0101042010999992000081809004+77470-069220FM-12+001999999V0200101N001019999999N0400001N1+00581+00281101291ADDMA1999999101061MD1210091+9999REMSYN060AAXX  18094 04201 45/82 /0102 10058 20028 30106 40129 52009;
0101042010999992000081812004+77470-069220FM-12+001999999V0201501N000519999999N0500001N1+00641+00281101471ADDMA1999999101241MD1210181+9999REMSYN060AAXX  18124 04201 45/84 /1501 10064 20028 30124 40147 52018;
0101042010999992000081815004+77470-069220FM-12+001999999V0202301N001019999999N0400001N1+00481+00351101661ADDMA1999999101421MD1210181+9999REMSYN060AAXX  18154 04201 45/82 /2302 10048 20035 30142 40166 52018;
0143042010999992000081818004+77470-069220FM-12+001999999V0200801N000519999999N0400001N1+00451+00321101731ADDKA1120M+00721KA2999N+00271MA1999999101491MD1210071+9999REMSYN076AAXX  18184 04201 45/82 /0801 10045 20032 30149 40173 52007 333 10072 20027;
0101042010999992000081821004+77470-069220FM-12+001999999V0202601N001519999999N0400001N1+00461+00271101711ADDMA1999999101471MD1710021+9999REMSYN060AAXX  18214 04201 45/82 /2603 10046 20027 30147 40171 57002;
0101042010999992000081900004+77470-069220FM-12+001999999V0202401N001019999999N0500001N1+00521+00241101591ADDMA1999999101351MD1710121+9999REMSYN060AAXX  19004 04201 45/84 /2402 10052 20024 30135 40159 57012;
0107042010999992000081903004+77470-069220FM-12+001999999V0201101N001019999999N0120001N1+00401+00291101331ADDMA1999999101091MD1710261+9999REMSYN066AAXX  19034 04201 4//62 /1102 10040 20029 30109 40133 57026 75275;
0149042010999992000081906004+77470-069220FM-12+001999999V0202401N002119999999N0400001N1+00371+00341101011ADDKA1120M+00741KA2999N+00341MA1999999100771MD1710321+9999REMSYN082AAXX  19064 04201 4//82 /2404 10037 20034 30077 40101 57032 77175 333 10074 20034;
0107042010999992000081909004+77470-069220FM-12+001999999V0202801N001019999999N0350001N1+00341+00311100741ADDMA1999999100511MD1710261+9999REMSYN066AAXX  19094 04201 4//81 /2802 10034 20031 30051 40074 57026 70074;
0107042010999992000081912004+77470-069220FM-12+001999999V0202601N002619999999N0100001N1+00431+00321100611ADDMA1999999100381MD1710131+9999REMSYN066AAXX  19124 04201 4//60 /2605 10043 20032 30038 40061 57013 76174;
0107042010999992000081915004+77470-069220FM-12+001999999V0201401N001519999999N0270001N1+00461+00231100591ADDMA1999999100361MD1710021+9999REMSYN066AAXX  19154 04201 4//77 /1403 10046 20023 30036 40059 57002 70075;
0149042010999992000081918004+77470-069220FM-12+001999999V0200801N005119999999N0300001N1+00371+00171100651ADDKA1120M+00581KA2999N+00311MA1999999100421MD1210061+9999REMSYN082AAXX  19184 04201 4//80 /0810 10037 20017 30042 40065 52006 70075 333 10058 20031;
0101042010999992000081921004+77470-069220FM-12+001999999V0201701N001019999999N0300001N1+00411+00081100761ADDMA1999999100531MD1210111+9999REMSYN060AAXX  19214 04201 45/80 /1702 10041 20008 30053 40076 52011;
0101042010999992000082000004+77470-069220FM-12+001999999V0202201N002119999999N0220001N1+00241+00151100871ADDMA1999999100631MD1210101+9999REMSYN060AAXX  20004 04201 45/72 /2204 10024 20015 30063 40087 52010;
0101042010999992000082003004+77470-069220FM-12+001999999V0202901N002619999999N0450001N1+00321+00041100921ADDMA1999999100681MD1210051+9999REMSYN060AAXX  20034 04201 45/83 /2905 10032 20004 30068 40092 52005;
0149042010999992000082006004+77470-069220FM-12+001999999V0202301N004619999999N0400001N1+00091-00121101061ADDKA1120M+00551KA2999N+00091MA1999999100821MD1210141+9999REMSYN082AAXX  20064 04201 4//82 /2309 10009 21012 30082 40106 52014 70054 333 10055 20009;
0101042010999992000082009004+77470-069220FM-12+001999999V0202201N003619999999N0400001N1+00031-00581101281ADDMA1999999101041MD1210221+9999REMSYN060AAXX  20094 04201 45/82 /2207 10003 21058 30104 40128 52022;
0101042010999992000082012004+77470-069220FM-12+001999999V0202101N003119999999N0280001N1+00131-00631101471ADDMA1999999101231MD1210191+9999REMSYN060AAXX  20124 04201 45/78 /2106 10013 21063 30123 40147 52019;
0101042010999992000082021004+77470-069220FM-12+001999999V0202401N002619999999N0350001N1+00341-00451101711ADDMA1999999101471MD1210061+9999REMSYN060AAXX  20214 04201 45/81 /2405 10034 21045 30147 40171 52006;
0101042010999992000082100004+77470-069220FM-12+001999999V0202301N002619999999N0350001N1+00231-00591101761ADDMA1999999101521MD1210051+9999REMSYN060AAXX  21004 04201 45/81 /2305 10023 21059 30152 40176 52005;
0101042010999992000082103004+77470-069220FM-12+001999999V0201101N001519999999N0450001N1+00081-00511101801ADDMA1999999101561MD1210041+9999REMSYN060AAXX  21034 04201 45/83 /1103 10008 21051 30156 40180 52004;
0143042010999992000082106004+77470-069220FM-12+001999999V0200501N004119999999N0500001N1+00071-00381101801ADDKA1120M+00381KA2999N-00071MA1999999101561MD1410001+9999REMSYN076AAXX  21064 04201 45/84 /0508 10007 21038 30156 40180 54000 333 10038 21007;
0101042010999992000082109004+77470-069220FM-12+001999999V0200301N003619999999N0500001N1+00071-00461101791ADDMA1999999101551MD1710011+9999REMSYN060AAXX  21094 04201 45/84 /0307 10007 21046 30155 40179 57001;
0101042010999992000082112004+77470-069220FM-12+001999999V0202501N001019999999N0300001N1+00251-00481101751ADDMA1999999101511MD1710041+9999REMSYN060AAXX  21124 04201 45/80 /2502 10025 21048 30151 40175 57004;
0101042010999992000082115004+77470-069220FM-12+001999999V0200901N005119999999N0240001N1+00371-00621101711ADDMA1999999101471MD1710041+9999REMSYN060AAXX  21154 04201 45/74 /0910 10037 21062 30147 40171 57004;
0143042010999992000082118004+77470-069220FM-12+001999999V0202601N003119999999N0400001N1+00271-00351101601ADDKA1120M+00441KA2999N-00021MA1999999101361MD1710111+9999REMSYN076AAXX  21184 04201 45/82 /2606 10027 21035 30136 40160 57011 333 10044 21002;
0101042010999992000082121004+77470-069220FM-12+001999999V0200601N006219999999N0450001N1+00501-00751101471ADDMA1999999101231MD1710131+9999REMSYN060AAXX  21214 04201 45/83 /0612 10050 21075 30123 40147 57013;
0101042010999992000082200004+77470-069220FM-12+001999999V0200601N005119999999N0450001N1+00531-00701101291ADDMA1999999101061MD1710171+9999REMSYN060AAXX  22004 04201 45/83 /0610 10053 21070 30106 40129 57017;
0101042010999992000082203004+77470-069220FM-12+001999999V0200601N005719999999N0500001N1+00551-00621101101ADDMA1999999100871MD1710191+9999REMSYN060AAXX  22034 04201 45/84 /0611 10055 21062 30087 40110 57019;
0143042010999992000082206004+77470-069220FM-12+001999999V0200801N005719999999N0500001N1+00481-00521101011ADDKA1120M+00691KA2999N+00231MA1999999100781MD1710091+9999REMSYN076AAXX  22064 04201 45/84 /0811 10048 21052 30078 40101 57009 333 10069 20023;
0107042010999992000082209004+77470-069220FM-12+001999999V0200301N009819999999N0170001N1+00541-00141100791ADDMA1999999100561MD1710221+9999REMSYN066AAXX  22094 04201 4//67 /0319 10054 21014 30056 40079 57022 75154;
0107042010999992000082212004+77470-069220FM-12+001999999V0200501N008219999999N0450001N1+00681+00111100511ADDMA1999999100281MD1710281+9999REMSYN066AAXX  22124 04201 4//83 /0516 10068 20011 30028 40051 57028 75165;
0107042010999992000082215004+77470-069220FM-12+001999999V0200601N008219999999N0400001N1+00541+00141100311ADDMA1999999100081MD1710201+9999REMSYN066AAXX  22154 04201 4//82 /0616 10054 20014 30008 40031 57020 75165;
0149042010999992000082218004+77470-069220FM-12+001999999V0200301N007219999999N0450001N1+00871+00161100061ADDKA1120M+01161KA2999N+00341MA1999999099831MD1710251+9999REMSYN082AAXX  22184 04201 4//83 /0314 10087 20016 39983 40006 57025 70065 333 10116 20034;
0117042010999992000082221004+77470-069220FM-12+001999999V0200801N005119999999N0170001N1+00601+00241099951ADDMA1999999099721MD1710111+9999REMSYN076AAXX  22214 04201 4//67 /0810 10060 20024 39972 49995 57011 76160 333 91119;
0134042010999992000082300004+77470-069220FM-12+001999999V0202901N001019999999N0230001N1+00431+00371099831ADDMA1999999099601MD1710121+9999OA149900981REMSYN082AAXX  23004 04201 4//73 /2902 10043 20037 39960 49983 57012 72260 333 91119 91217;
0107042010999992000082303004+77470-069220FM-12+001999999V0202401N002619999999N0120001N1+00371+00331099781ADDMA1999999099551MD1710051+9999REMSYN066AAXX  23034 04201 4//62 /2405 10037 20033 39955 49978 57005 76165;
0149042010999992000082306004+77470-069220FM-12+001999999V0202401N002619999999N0100001N1+00351+00311099771ADDKA1120M+00891KA2999N+00271MA1999999099541MD1710011+9999REMSYN082AAXX  23064 04201 4//60 /2405 10035 20031 39954 49977 57001 75265 333 10089 20027;
0107042010999992000082309004+77470-069220FM-12+001999999V0202501N001519999999N0070001N1+00381+00341099791ADDMA1999999099561MD1210021+9999REMSYN066AAXX  23094 04201 4//57 /2503 10038 20034 39956 49979 52002 74175;
0107042010999992000082312004+77470-069220FM-12+001999999V0202101N003119999999N0180001N1+00441+00401099831ADDMA1999999099601MD1210041+9999REMSYN066AAXX  23124 04201 4//68 /2106 10044 20040 39960 49983 52004 75275;
0107042010999992000082315004+77470-069220FM-12+001999999V0202301N003619999999N0110001N1+00441+00371099921ADDMA1999999099691MD1210091+9999REMSYN066AAXX  23154 04201 4//61 /2307 10044 20037 39969 49992 52009 75265;
0149042010999992000082318004+77470-069220FM-12+001999999V0201601N003119999999N0110001N1+00411+00261100041ADDKA1120M+00491KA2999N+00341MA1999999099811MD1210121+9999REMSYN082AAXX  23184 04201 4//61 /1606 10041 20026 39981 40004 52012 76176 333 10049 20034;
0107042010999992000082321004+77470-069220FM-12+001999999V0202101N004619999999N0150001N1+00391+00191100241ADDMA1999999100011MD1210201+9999REMSYN066AAXX  23214 04201 4//65 /2109 10039 20019 30001 40024 52020 75265;
0107042010999992000082400004+77470-069220FM-12+001999999V0200601N002619999999N0110001N1+00531-00091100361ADDMA1999999100131MD1210121+9999REMSYN066AAXX  24004 04201 4//61 /0605 10053 21009 30013 40036 52012 72176;
0128042010999992000082403004+77470-069220FM-12+001999999V0202701N002119999999N0400001N1+00391-00321100451ADDMA1999999100221MD1210091+9999OA149901181REMSYN076AAXX  24034 04201 45/82 /2704 10039 21032 30022 40045 52009 333 91123 91215;
0166042010999992000082406004+77470-069220FM-12+001999999V0200701N001019999999N0400001N1+00251-00251100511ADDKA1120M+00601KA2120N+00221MA1999999100271MD1210051+9999OA149901181REMSYN088AAXX  24064 04201 45/82 /0702 10025 21025 30027 40051 52005 333 10060 20022 91123 91215;
0101042010999992000082409004+77470-069220FM-12+001999999V0200201N003119999999N0300001N1+00241-00301100561ADDMA1999999100321MD1210051+9999REMSYN060AAXX  24094 04201 45/80 /0206 10024 21030 30032 40056 52005;
0101042010999992000082412004+77470-069220FM-12+001999999V0203401N000519999999N0250001N1+00401-00231100631ADDMA1999999100401MD1210081+9999REMSYN060AAXX  24124 04201 45/75 /3401 10040 21023 30040 40063 52008;
0101042010999992000082415004+77470-069220FM-12+001999999V0200801N005119999999N0300001N1+00311-00281100631ADDMA1999999100401MD1410001+9999REMSYN060AAXX  24154 04201 45/80 /0810 10031 21028 30040 40063 54000;
0143042010999992000082418004+77470-069220FM-12+001999999V0200901N006219999999N0400001N1+00301-00321100651ADDKA1120M+00441KA2999N+00141MA1999999100411MD1210011+9999REMSYN076AAXX  24184 04201 45/82 /0912 10030 21032 30041 40065 52001 333 10044 20014;
0101042010999992000082421004+77470-069220FM-12+001999999V0201101N004119999999N0300001N1+00381-00251100701ADDMA1999999100471MD1210061+9999REMSYN060AAXX  24214 04201 45/80 /1108 10038 21025 30047 40070 52006;
0101042010999992000082500004+77470-069220FM-12+001999999V0202301N001019999999N0350001N1+00171-00231100751ADDMA1999999100511MD1210041+9999REMSYN060AAXX  25004 04201 45/81 /2302 10017 21023 30051 40075 52004;
0101042010999992000082503004+77470-069220FM-12+001999999V0202901N000519999999N0080001N1+00031-00161100771ADDMA1999999100531MD1210021+9999REMSYN060AAXX  25034 04201 45/58 /2901 10003 21016 30053 40077 52002;
0143042010999992000082506004+77470-069220FM-12+001999999V0203101N000519999999N0350001N1+00071-00121100771ADDKA1120M+00571KA2999N+00011MA1999999100531MD1410001+9999REMSYN076AAXX  25064 04201 45/81 /3101 10007 21012 30053 40077 54000 333 10057 20001;
0101042010999992000082509004+77470-069220FM-12+001999999V0203301N001519999999N0450001N1+00131-00331100771ADDMA1999999100531MD1410001+9999REMSYN060AAXX  25094 04201 45/83 /3303 10013 21033 30053 40077 54000;
0101042010999992000082512004+77470-069220FM-12+001999999V0200501N001019999999N0350001N1+00321-00261100791ADDMA1999999100551MD1210021+9999REMSYN060AAXX  25124 04201 45/81 /0502 10032 21026 30055 40079 52002;
0101042010999992000082515004+77470-069220FM-12+001999999V0201601N001019999999N0260001N1+00211-00371100801ADDMA1999999100561MD1210011+9999REMSYN060AAXX  25154 04201 45/76 /1602 10021 21037 30056 40080 52001;
0143042010999992000082518004+77470-069220FM-12+001999999V0202101N001019999999N0300001N1+00321-00471100771ADDKA1120M+00571KA2999N+00001MA1999999100531MD1710031+9999REMSYN076AAXX  25184 04201 45/80 /2102 10032 21047 30053 40077 57003 333 10057 20000;
0101042010999992000082521004+77470-069220FM-12+001999999V0202301N001019999999N0350001N1+00361-00141100771ADDMA1999999100541MD1210011+9999REMSYN060AAXX  25214 04201 45/81 /2302 10036 21014 30054 40077 52001;
0101042010999992000082600004+77470-069220FM-12+001999999V0201001N002619999999N0400001N1+00231-00111100781ADDMA1999999100541MD1410001+9999REMSYN060AAXX  26004 04201 45/82 /1005 10023 21011 30054 40078 54000;
0107042010999992000082603004+77470-069220FM-12+001999999V0201401N004619999999N0350001N1+00271-00161100801ADDMA1999999100561MD1210021+9999REMSYN066AAXX  26034 04201 4//81 /1409 10027 21016 30056 40080 52002 72254;
0155042010999992000082606004+77470-069220FM-12+001999999V0200601N005119999999N0240001N1+00241-00151100801ADDKA1120M+00521KA2120N+00131MA1999999100561MD1410001+9999REMSYN088AAXX  26064 04201 4//74 /0610 10024 21015 30056 40080 54000 75254 333 10052 20013 91119;
0117042010999992000082609004+77470-069220FM-12+001999999V0201301N003119999999N0300001N1+00261-00151100871ADDMA1999999100631MD1210071+9999REMSYN076AAXX  26094 04201 4//80 /1306 10026 21015 30063 40087 52007 70055 333 91116;
0117042010999992000082612004+77470-069220FM-12+001999999V0201701N003119999999N0160001N1+00311-00111100921ADDMA1999999100681MD1210051+9999REMSYN076AAXX  26124 04201 4//66 /1706 10031 21011 30068 40092 52005 70055 333 91116;
0101042010999992000082615004+77470-069220FM-12+001999999V0201601N000519999999N0300001N1+00411-00141100911ADDMA1999999100681MD1410001+9999REMSYN060AAXX  26154 04201 45/80 /1601 10041 21014 30068 40091 54000;
0143042010999992000082618004+77470-069220FM-12+001999999V0201101N002619999999N0400001N1+00341-00131100891ADDKA1120M+00571KA2999N-00021MA1999999100651MD1710031+9999REMSYN076AAXX  26184 04201 45/82 /1105 10034 21013 30065 40089 57003 333 10057 21002;
0101042010999992000082621004+77470-069220FM-12+001999999V0201001N002119999999N0400001N1+00361-00161100841ADDMA1999999100611MD1710041+9999REMSYN060AAXX  26214 04201 45/82 /1004 10036 21016 30061 40084 57004;
0101042010999992000082700004+77470-069220FM-12+001999999V0200701N004119999999N0400001N1+00331-00201100831ADDMA1999999100591MD1710021+9999REMSYN060AAXX  27004 04201 45/82 /0708 10033 21020 30059 40083 57002;
0101042010999992000082703004+77470-069220FM-12+001999999V0200601N000519999999N0450001N1+00361-00231100791ADDMA1999999100561MD1710031+9999REMSYN060AAXX  27034 04201 45/83 /0601 10036 21023 30056 40079 57003;
0143042010999992000082706004+77470-069220FM-12+001999999V0200901N001519999999N0450001N1+00311-00181100751ADDKA1120M+00441KA2999N+00241MA1999999100511MD1710051+9999REMSYN076AAXX  27064 04201 45/83 /0903 10031 21018 30051 40075 57005 333 10044 20024;
0101042010999992000082709004+77470-069220FM-12+001999999V0201001N002119999999N0500001N1+00351-00151100731ADDMA1999999100501MD1710011+9999REMSYN060AAXX  27094 04201 45/84 /1004 10035 21015 30050 40073 57001;
0101042010999992000082712004+77470-069220FM-12+001999999V0200801N002619999999N0450001N1+00361-00171100731ADDMA1999999100501MD1410001+9999REMSYN060AAXX  27124 04201 45/83 /0805 10036 21017 30050 40073 54000;
0101042010999992000082715004+77470-069220FM-12+001999999V0200601N004619999999N0450001N1+00361-00221100721ADDMA1999999100491MD1710011+9999REMSYN060AAXX  27154 04201 45/83 /0609 10036 21022 30049 40072 57001;
0149042010999992000082718004+77470-069220FM-12+001999999V0200901N004119999999N0080001N1+00241-00071100751ADDKA1120M+00381KA2999N+00241MA1999999100511MD1210021+9999REMSYN082AAXX  27184 04201 4//58 /0908 10024 21007 30051 40075 52002 75254 333 10038 20024;
0107042010999992000082721004+77470-069220FM-12+001999999V0200601N000519999999N0050001N1+00091+00001100781ADDMA1999999100541MD1210031+9999REMSYN066AAXX  27214 04201 4//50 /0601 10009 20000 30054 40078 52003 76176;
0107042010999992000082800004+77470-069220FM-12+001999999V0200701N000519999999N0070001N1+00061+00011100751ADDMA1999999100511MD1710031+9999REMSYN066AAXX  28004 04201 4//57 /0701 10006 20001 30051 40075 57003 76776;
0107042010999992000082803004+77470-069220FM-12+001999999V0202801N001019999999N0027001N1-00031-00071100731ADDMA1999999100491MD1710021+9999REMSYN066AAXX  28034 04201 4//27 /2802 11003 21007 30049 40073 57002 77177;
0149042010999992000082806004+77470-069220FM-12+001999999V0209999C000019999999N0046001N1-00031-00061100701ADDKA1120M+00571KA2999N-00031MA1999999100461MD1710031+9999REMSYN082AAXX  28064 04201 4//46 /0000 11003 21006 30046 40070 57003 76777 333 10057 21003;
0107042010999992000082809004+77470-069220FM-12+001999999V0200901N001519999999N0120001N1-00021-00051100691ADDMA1999999100451MD1710011+9999REMSYN066AAXX  28094 04201 4//62 /0903 11002 21005 30045 40069 57001 77477;
0107042010999992000082812004+77470-069220FM-12+001999999V0200801N002119999999N0070001N1+00051+00021100691ADDMA1999999100451MD1410001+9999REMSYN066AAXX  28124 04201 4//57 /0804 10005 20002 30045 40069 54000 75277;
0107042010999992000082815004+77470-069220FM-12+001999999V0202101N000519999999N0120001N1+00051-00031100661ADDMA1999999100421MD1710031+9999REMSYN066AAXX  28154 04201 4//62 /2101 10005 21003 30042 40066 57003 75276;
0149042010999992000082818004+77470-069220FM-12+001999999V0202901N000519999999N0017001N1+00041-00041100661ADDKA1120M+00111KA2999N-00041MA1999999100421MD1410001+9999REMSYN082AAXX  28184 04201 4//17 /2901 10004 21004 30042 40066 54000 77176 333 10011 21004;
0107042010999992000082821004+77470-069220FM-12+001999999V0200701N005119999999N0110001N1+00231+00081100711ADDMA1999999100471MD1210051+9999REMSYN066AAXX  28214 04201 4//61 /0710 10023 20008 30047 40071 52005 75277;
0107042010999992000082900004+77470-069220FM-12+001999999V0200701N007219999999N0160001N1+00251+00041100771ADDMA1999999100531MD1210061+9999REMSYN066AAXX  29004 04201 4//66 /0714 10025 20004 30053 40077 52006 75277;
0117042010999992000082903004+77470-069220FM-12+001999999V0200601N004119999999N0450001N1+00381-00041100781ADDMA1999999100551MD1210021+9999REMSYN076AAXX  29034 04201 4//83 /0608 10038 21004 30055 40078 52002 77175 333 91219;
0149042010999992000082906004+77470-069220FM-12+001999999V0200601N005719999999N0450001N1+00431-00121100831ADDKA1120M+00521KA2999N-00021MA1999999100601MD1210051+9999REMSYN082AAXX  29064 04201 4//83 /0611 10043 21012 30060 40083 52005 70075 333 10052 21002;
0101042010999992000082909004+77470-069220FM-12+001999999V0200501N005119999999N0500001N1+00421-00131100901ADDMA1999999100671MD1210071+9999REMSYN060AAXX  29094 04201 45/84 /0510 10042 21013 30067 40090 52007;
0107042010999992000082912004+77470-069220FM-12+001999999V0200401N003619999999N0007001N1+00371-00211101001ADDMA1999999100761MD1210091+9999REMSYN066AAXX  29124 04201 4//07 /0407 10037 21021 30076 40100 52009 72254;
0107042010999992000082915004+77470-069220FM-12+001999999V0200501N007219999999N0400001N1+00311-00561101121ADDMA1999999100881MD1210121+9999REMSYN066AAXX  29154 04201 4//82 /0514 10031 21056 30088 40112 52012 70054;
0149042010999992000082918004+77470-069220FM-12+001999999V0200601N004619999999N0350001N1+00271-00491101231ADDKA1120M+00471KA2999N+00251MA1999999100991MD1210111+9999REMSYN082AAXX  29184 04201 4//81 /0609 10027 21049 30099 40123 52011 70054 333 10047 20025;
0101042010999992000082921004+77470-069220FM-12+001999999V0202301N002619999999N0300001N1+00241-00201101381ADDMA1999999101141MD1210151+9999REMSYN060AAXX  29214 04201 45/80 /2305 10024 21020 30114 40138 52015;
0101042010999992000083000004+77470-069220FM-12+001999999V0202501N001019999999N0160001N1+00151+00031101411ADDMA1999999101171MD1210031+9999REMSYN060AAXX  30004 04201 45/66 /2502 10015 20003 30117 40141 52003;
0101042010999992000083015004+77470-069220FM-12+001999999V0200801N003619999999N0300001N1+00081-00611100941ADDMA1999999100701MD1710151+9999REMSYN060AAXX  30154 04201 45/80 /0807 10008 21061 30070 40094 57015;
0143042010999992000083018004+77470-069220FM-12+001999999V0201001N004619999999N0400001N1+00091-00981100781ADDKA1120M+00121KA2999N-00131MA1999999100541MD1710161+9999REMSYN076AAXX  30184 04201 45/82 /1009 10009 21098 30054 40078 57016 333 10012 21013;
0101042010999992000083021004+77470-069220FM-12+001999999V0201001N004119999999N0350001N1+00221-00611100691ADDMA1999999100451MD1710091+9999REMSYN060AAXX  30214 04201 45/81 /1008 10022 21061 30045 40069 57009;
0101042010999992000083100004+77470-069220FM-12+001999999V0200801N003619999999N0450001N1+00041-00771100641ADDMA1999999100401MD1710051+9999REMSYN060AAXX  31004 04201 45/83 /0807 10004 21077 30040 40064 57005;
0101042010999992000083103004+77470-069220FM-12+001999999V0200501N007219999999N0500001N1-00041-00851100521ADDMA1999999100281MD1710121+9999REMSYN060AAXX  31034 04201 45/84 /0514 11004 21085 30028 40052 57012;
0143042010999992000083106004+77470-069220FM-12+001999999V0200601N004619999999N0450001N1-00131-00751100361ADDKA1120M+00271KA2999N-00171MA1999999100121MD1710161+9999REMSYN076AAXX  31064 04201 45/83 /0609 11013 21075 30012 40036 57016 333 10027 21017;
0101042010999992000083109004+77470-069220FM-12+001999999V0200501N004119999999N0450001N1-00131-00861100201ADDMA1999999099961MD1710161+9999REMSYN060AAXX  31094 04201 45/83 /0508 11013 21086 39996 40020 57016;
0101042010999992000083112004+77470-069220FM-12+001999999V0200301N008719999999N0350001N1-00031-00911100071ADDMA1999999099831MD1710131+9999REMSYN060AAXX  31124 04201 45/81 /0317 11003 21091 39983 40007 57013;
0111042010999992000083115004+77470-069220FM-12+001999999V0200701N004119999999N0290001N1+00141-00591099961ADDMA1999999099731MD1710101+9999REMSYN070AAXX  31154 04201 45/79 /0708 10014 21059 39973 49996 57010 333 91218;
0143042010999992000083118004+77470-069220FM-12+001999999V0201001N005119999999N0350001N1+00331-00661099901ADDKA1120M+00331KA2999N-00221MA1999999099671MD1710061+9999REMSYN076AAXX  31184 04201 45/81 /1010 10033 21066 39967 49990 57006 333 10033 21022;
0101042010999992000083121004+77470-069220FM-12+001999999V0202301N001519999999N0300001N1+00301-00271099971ADDMA1999999099741MD1210071+9999REMSYN060AAXX  31214 04201 45/80 /2303 10030 21027 39974 49997 52007;
0107042010999992000090100004+77470-069220FM-12+001999999V0200901N006219999999N0140001N1+00191-00121100091ADDMA1999999099861MD1210121+9999REMSYN066AAXX  01004 04201 4//64 /0912 10019 21012 39986 40009 52012 75254;
0107042010999992000090103004+77470-069220FM-12+001999999V0200701N005119999999N0230001N1+00221-00061100171ADDMA1999999099941MD1210081+9999REMSYN066AAXX  01034 04201 4//73 /0710 10022 21006 39994 40017 52008 76165;
0155042010999992000090106004+77470-069220FM-12+001999999V0202401N003119999999N0400001N1+00131-00011100341ADDKA1120M+00591KA2120N+00051MA1999999100101MD1210161+9999REMSYN088AAXX  01064 04201 4//82 /2406 10013 21001 30010 40034 52016 78065 333 10059 20005 91217;
0107042010999992000090109004+77470-069220FM-12+001999999V0200301N003119999999N0400001N1+00371-00121100451ADDMA1999999100221MD1210121+9999REMSYN066AAXX  01094 04201 4//82 /0306 10037 21012 30022 40045 52012 72274;
0117042010999992000090112004+77470-069220FM-12+001999999V0202601N002119999999N0300001N1+00151-00101100591ADDMA1999999100351MD1210131+9999REMSYN076AAXX  01124 04201 4//80 /2604 10015 21010 30035 40059 52013 70074 333 91214;
0101042010999992000090115004+77470-069220FM-12+001999999V0202201N002119999999N0230001N1+00241-00021100661ADDMA1999999100421MD1210071+9999REMSYN060AAXX  01154 04201 45/73 /2204 10024 21002 30042 40066 52007;
0143042010999992000090118004+77470-069220FM-12+001999999V0202701N002619999999N0280001N1+00351+00011100681ADDKA1120M+00401KA2999N+00101MA1999999100451MD1210031+9999REMSYN076AAXX  01184 04201 45/78 /2705 10035 20001 30045 40068 52003 333 10040 20010;
0101042010999992000090121004+77470-069220FM-12+001999999V0203001N002119999999N0180001N1+00231+00081100791ADDMA1999999100551MD1210101+9999REMSYN060AAXX  01214 04201 45/68 /3004 10023 20008 30055 40079 52010;
0101042010999992000090200004+77470-069220FM-12+001999999V0202701N001019999999N0170001N1+00031-00041100871ADDMA1999999100631MD1210081+9999REMSYN060AAXX  02004 04201 45/67 /2702 10003 21004 30063 40087 52008;
0101042010999992000090203004+77470-069220FM-12+001999999V0201001N001019999999N0400001N1+00081-00191100941ADDMA1999999100701MD1210071+9999REMSYN060AAXX  02034 04201 45/82 /1002 10008 21019 30070 40094 52007;
0143042010999992000090206004+77470-069220FM-12+001999999V0200101N000519999999N0400001N1+00051-00091101021ADDKA1120M+00491KA2999N-00021MA1999999100781MD1210081+9999REMSYN076AAXX  02064 04201 45/82 /0101 10005 21009 30078 40102 52008 333 10049 21002;
0101042010999992000090209004+77470-069220FM-12+001999999V0201001N004619999999N0450001N1+00091-00251101121ADDMA1999999100881MD1210101+9999REMSYN060AAXX  02094 04201 45/83 /1009 10009 21025 30088 40112 52010;
0101042010999992000090212004+77470-069220FM-12+001999999V0200601N004119999999N0400001N1+00261-00411101241ADDMA1999999101001MD1210121+9999REMSYN060AAXX  02124 04201 45/82 /0608 10026 21041 30100 40124 52012;
0101042010999992000090215004+77470-069220FM-12+001999999V0202601N001519999999N0350001N1+00241-00361101281ADDMA1999999101041MD1210041+9999REMSYN060AAXX  02154 04201 45/81 /2603 10024 21036 30104 40128 52004;
0143042010999992000090218004+77470-069220FM-12+001999999V0202201N003119999999N0180001N1+00231-00011101291ADDKA1120M+00401KA2999N-00021MA1999999101051MD1210011+9999REMSYN076AAXX  02184 04201 45/68 /2206 10023 21001 30105 40129 52001 333 10040 21002;
0101042010999992000090221004+77470-069220FM-12+001999999V0202301N004619999999N0300001N1+00281+00011101231ADDMA1999999100991MD1710061+9999REMSYN060AAXX  02214 04201 45/80 /2309 10028 20001 30099 40123 57006;
0101042010999992000090300004+77470-069220FM-12+001999999V0202601N003619999999N0400001N1+00031-00171101141ADDMA1999999100901MD1710091+9999REMSYN060AAXX  03004 04201 45/82 /2607 10003 21017 30090 40114 57009;
0101042010999992000090303004+77470-069220FM-12+001999999V0201901N000519999999N0450001N1-00101-00151100981ADDMA1999999100741MD1710161+9999REMSYN060AAXX  03034 04201 45/83 /1901 11010 21015 30074 40098 57016;
0143042010999992000090306004+77470-069220FM-12+001999999V0202701N000519999999N0400001N1-00151-00241100891ADDKA1120M+00431KA2999N-00321MA1999999100651MD1710091+9999REMSYN076AAXX  03064 04201 45/82 /2701 11015 21024 30065 40089 57009 333 10043 21032;
0101042010999992000090309004+77470-069220FM-12+001999999V0200501N002119999999N0450001N1-00131-00501100801ADDMA1999999100561MD1710091+9999REMSYN060AAXX  03094 04201 45/83 /0504 11013 21050 30056 40080 57009;
0101042010999992000090312004+77470-069220FM-12+001999999V0200801N005719999999N0400001N1-00101-00651100731ADDMA1999999100491MD1710071+9999REMSYN060AAXX  03124 04201 45/82 /0811 11010 21065 30049 40073 57007;
0101042010999992000090315004+77470-069220FM-12+001999999V0200601N006219999999N0350001N1+00001-00731100641ADDMA1999999100401MD1710091+9999REMSYN060AAXX  03154 04201 45/81 /0612 10000 21073 30040 40064 57009;
0143042010999992000090318004+77470-069220FM-12+001999999V0201001N006719999999N0400001N1+00061-00701100641ADDKA1120M+00061KA2999N-00311MA1999999100401MD1410001+9999REMSYN076AAXX  03184 04201 45/82 /1013 10006 21070 30040 40064 54000 333 10006 21031;
0101042010999992000090321004+77470-069220FM-12+001999999V0201001N005719999999N0290001N1+00261-00591100641ADDMA1999999100401MD1410001+9999REMSYN060AAXX  03214 04201 45/79 /1011 10026 21059 30040 40064 54000;
0101042010999992000090400004+77470-069220FM-12+001999999V0200701N002619999999N0450001N1-00021-00741100661ADDMA1999999100421MD1210021+9999REMSYN060AAXX  04004 04201 45/83 /0705 11002 21074 30042 40066 52002;
0101042010999992000090403004+77470-069220FM-12+001999999V0200801N000519999999N0500001N1-00161-00631100611ADDMA1999999100371MD1710051+9999REMSYN060AAXX  04034 04201 45/84 /0801 11016 21063 30037 40061 57005;
0143042010999992000090406004+77470-069220FM-12+001999999V0200401N002619999999N0500001N1-00221-00831100501ADDKA1120M+00431KA2999N-00241MA1999999100261MD1710111+9999REMSYN076AAXX  04064 04201 45/84 /0405 11022 21083 30026 40050 57011 333 10043 21024;
0101042010999992000090409004+77470-069220FM-12+001999999V0200301N000519999999N0450001N1-00121-00751100361ADDMA1999999100121MD1710141+9999REMSYN060AAXX  04094 04201 45/83 /0301 11012 21075 30012 40036 57014;
0101042010999992000090412004+77470-069220FM-12+001999999V0203601N001019999999N0350001N1-00041-00871100151ADDMA1999999099911MD1710211+9999REMSYN060AAXX  04124 04201 45/81 /3602 11004 21087 39991 40015 57021;
0101042010999992000090415004+77470-069220FM-12+001999999V0200901N004619999999N0350001N1-00041-00961099871ADDMA1999999099631MD1710281+9999REMSYN060AAXX  04154 04201 45/81 /0909 11004 21096 39963 49987 57028;
0143042010999992000090418004+77470-069220FM-12+001999999V0201101N002619999999N0240001N1+00221-00751099641ADDKA1120M+00231KA2999N-00451MA1999999099411MD1710221+9999REMSYN076AAXX  04184 04201 45/74 /1105 10022 21075 39941 49964 57022 333 10023 21045;
0101042010999992000090421004+77470-069220FM-12+001999999V0201301N002619999999N0300001N1+00181-00321099531ADDMA1999999099301MD1710111+9999REMSYN060AAXX  04214 04201 45/80 /1305 10018 21032 39930 49953 57011;
0101042010999992000090500004+77470-069220FM-12+001999999V0201001N003119999999N0500001N1-00051-00461099521ADDMA1999999099281MD1710021+9999REMSYN060AAXX  05004 04201 45/84 /1006 11005 21046 39928 49952 57002;
0101042010999992000090503004+77470-069220FM-12+001999999V0203201N001019999999N0450001N1-00121-00511099521ADDMA1999999099281MD1410001+9999REMSYN060AAXX  05034 04201 45/83 /3202 11012 21051 39928 49952 54000;
0143042010999992000090506004+77470-069220FM-12+001999999V0201301N001019999999N0400001N1-00231-00681099611ADDKA1120M+00251KA2999N-00341MA1999999099371MD1210091+9999REMSYN076AAXX  05064 04201 45/82 /1302 11023 21068 39937 49961 52009 333 10025 21034;
0101042010999992000090509004+77470-069220FM-12+001999999V0200601N000519999999N0450001N1-00241-00741099691ADDMA1999999099451MD1210081+9999REMSYN060AAXX  05094 04201 45/83 /0601 11024 21074 39945 49969 52008;
0101042010999992000090512004+77470-069220FM-12+001999999V0200801N002619999999N0400001N1-00131-00511099751ADDMA1999999099511MD1210061+9999REMSYN060AAXX  05124 04201 45/82 /0805 11013 21051 39951 49975 52006;
0101042010999992000090515004+77470-069220FM-12+001999999V0201201N002119999999N0300001N1-00091-00421099801ADDMA1999999099561MD1210051+9999REMSYN060AAXX  05154 04201 45/80 /1204 11009 21042 39956 49980 52005;
0143042010999992000090518004+77470-069220FM-12+001999999V0202301N001519999999N0220001N1+00151-00161099861ADDKA1120M+00151KA2999N-00391MA1999999099631MD1210071+9999REMSYN076AAXX  05184 04201 45/72 /2303 10015 21016 39963 49986 52007 333 10015 21039;
0101042010999992000090521004+77470-069220FM-12+001999999V0202301N003119999999N0260001N1+00231-00091099911ADDMA1999999099681MD1210051+9999REMSYN060AAXX  05214 04201 45/76 /2306 10023 21009 39968 49991 52005;
0101042010999992000090600004+77470-069220FM-12+001999999V0202401N001519999999N0220001N1-00041-00221099961ADDMA1999999099721MD1210041+9999REMSYN060AAXX  06004 04201 45/72 /2403 11004 21022 39972 49996 52004;
0101042010999992000090603004+77470-069220FM-12+001999999V0209999C000019999999N0200001N1-00241-00281099951ADDMA1999999099711MD1710011+9999REMSYN060AAXX  06034 04201 45/70 /0000 11024 21028 39971 49995 57001;
0143042010999992000090606004+77470-069220FM-12+001999999V0200601N001519999999N0400001N1-00331-00631099981ADDKA1120M+00351KA2999N-00451MA1999999099741MD1210031+9999REMSYN076AAXX  06064 04201 45/82 /0603 11033 21063 39974 49998 52003 333 10035 21045;
0101042010999992000090609004+77470-069220FM-12+001999999V0200601N000519999999N0450001N1-00311-00791100001ADDMA1999999099761MD1210021+9999REMSYN060AAXX  06094 04201 45/83 /0601 11031 21079 39976 40000 52002;
0101042010999992000090612004+77470-069220FM-12+001999999V0201901N001019999999N0350001N1-00211-00801099961ADDMA1999999099721MD1710041+9999REMSYN060AAXX  06124 04201 45/81 /1902 11021 21080 39972 49996 57004;
0101042010999992000090615004+77470-069220FM-12+001999999V0201401N001519999999N0300001N1-00221-00751099861ADDMA1999999099621MD1710101+9999REMSYN060AAXX  06154 04201 45/80 /1403 11022 21075 39962 49986 57010;
0143042010999992000090618004+77470-069220FM-12+001999999V0202201N001019999999N0250001N1-00041-00721099751ADDKA1120M-00011KA2999N-00521MA1999999099511MD1710111+9999REMSYN076AAXX  06184 04201 45/75 /2202 11004 21072 39951 49975 57011 333 11001 21052;
0101042010999992000090621004+77470-069220FM-12+001999999V0201601N001019999999N0350001N1+00131-00411099701ADDMA1999999099471MD1710041+9999REMSYN060AAXX  06214 04201 45/81 /1602 10013 21041 39947 49970 57004;
0101042010999992000090700004+77470-069220FM-12+001999999V0201101N002119999999N0400001N1-00151-00381099731ADDMA1999999099491MD1210021+9999REMSYN060AAXX  07004 04201 45/82 /1104 11015 21038 39949 49973 52002;
0101042010999992000090703004+77470-069220FM-12+001999999V0200901N001519999999N0500001N1-00291-00581099791ADDMA1999999099551MD1210061+9999REMSYN060AAXX  07034 04201 45/84 /0903 11029 21058 39955 49979 52006;
0143042010999992000090706004+77470-069220FM-12+001999999V0200701N004119999999N0450001N1-00261-00661099841ADDKA1120M+00181KA2999N-00431MA1999999099601MD1210051+9999REMSYN076AAXX  07064 04201 45/83 /0708 11026 21066 39960 49984 52005 333 10018 21043;
0101042010999992000090709004+77470-069220FM-12+001999999V0200401N000519999999N0450001N1-00271-00701099931ADDMA1999999099691MD1210091+9999REMSYN060AAXX  07094 04201 45/83 /0401 11027 21070 39969 49993 52009;
0101042010999992000090712004+77470-069220FM-12+001999999V0200901N000519999999N0450001N1-00221-00731100001ADDMA1999999099761MD1210071+9999REMSYN060AAXX  07124 04201 45/83 /0901 11022 21073 39976 40000 52007;
0107042010999992000090715004+77470-069220FM-12+001999999V0202701N000519999999N0270001N1-00161-00731100011ADDMA1999999099771MD1210011+9999REMSYN066AAXX  07154 04201 4//77 /2701 11016 21073 39977 40001 52001 72474;
0149042010999992000090718004+77470-069220FM-12+001999999V0200701N001519999999N0400001N1-00161-00621100021ADDKA1120M-00011KA2999N-00591MA1999999099781MD1210011+9999REMSYN082AAXX  07184 04201 4//82 /0703 11016 21062 39978 40002 52001 78574 333 11001 21059;
0107042010999992000090721004+77470-069220FM-12+001999999V0200801N004119999999N0450001N1-00131-00861100021ADDMA1999999099781MD1410001+9999REMSYN066AAXX  07214 04201 4//83 /0808 11013 21086 39978 40002 54000 72144;
0107042010999992000090800004+77470-069220FM-12+001999999V0200701N004119999999N0450001N1-00131-00671100021ADDMA1999999099781MD1410001+9999REMSYN066AAXX  08004 04201 4//83 /0708 11013 21067 39978 40002 54000 78074;
0107042010999992000090803004+77470-069220FM-12+001999999V0200501N004619999999N0016001N1-00221-00481100091ADDMA1999999099851MD1210071+9999REMSYN066AAXX  08034 04201 4//16 /0509 11022 21048 39985 40009 52007 78574;
0149042010999992000090806004+77470-069220FM-12+001999999V0200601N005119999999N0500001N1-00111-00741100111ADDKA1120M-00011KA2999N-00341MA1999999099871MD1210021+9999REMSYN082AAXX  08064 04201 4//84 /0610 11011 21074 39987 40011 52002 72274 333 11001 21034;
0101042010999992000090809004+77470-069220FM-12+001999999V0200601N005719999999N0500001N1-00131-00621100181ADDMA1999999099941MD1210071+9999REMSYN060AAXX  08094 04201 45/84 /0611 11013 21062 39994 40018 52007;
0101042010999992000090812004+77470-069220FM-12+001999999V0200701N005119999999N0450001N1-00131-00731100231ADDMA1999999099991MD1210051+9999REMSYN060AAXX  08124 04201 45/83 /0710 11013 21073 39999 40023 52005;
0101042010999992000090815004+77470-069220FM-12+001999999V0200701N007219999999N0300001N1+00011-00571100201ADDMA1999999099961MD1710031+9999REMSYN060AAXX  08154 04201 45/80 /0714 10001 21057 39996 40020 57003;
0149042010999992000090818004+77470-069220FM-12+001999999V0202001N002119999999N0400001N1+00001-00661100271ADDKA1120M+00151KA2120N-00311MA1999999100031MD1210071+9999REMSYN082AAXX  08184 04201 45/82 /2004 10000 21066 30003 40027 52007 333 10015 21031 91216;
0101042010999992000090821004+77470-069220FM-12+001999999V0202701N003119999999N0400001N1-00021-00501100301ADDMA1999999100061MD1210031+9999REMSYN060AAXX  08214 04201 45/82 /2706 11002 21050 30006 40030 52003;
0101042010999992000090900004+77470-069220FM-12+001999999V0202801N001019999999N0500001N1-00041-00451100361ADDMA1999999100121MD1210061+9999REMSYN060AAXX  09004 04201 45/84 /2802 11004 21045 30012 40036 52006;
0101042010999992000090903004+77470-069220FM-12+001999999V0201101N001019999999N0500001N1-00041-00641100381ADDMA1999999100141MD1210021+9999REMSYN060AAXX  09034 04201 45/84 /1102 11004 21064 30014 40038 52002;
0143042010999992000090906004+77470-069220FM-12+001999999V0200701N007219999999N0450001N1+00051-00551100391ADDKA1120M+00201KA2999N-00121MA1999999100151MD1210011+9999REMSYN076AAXX  09064 04201 45/83 /0714 10005 21055 30015 40039 52001 333 10020 21012;
0111042010999992000090909004+77470-069220FM-12+001999999V0200301N001519999999N0500001N1+00041-00671100431ADDMA1999999100191MD1210041+9999REMSYN070AAXX  09094 04201 45/84 /0303 10004 21067 30019 40043 52004 333 91215;
0111042010999992000090912004+77470-069220FM-12+001999999V0203001N001019999999N0450001N1+00041-00511100551ADDMA1999999100311MD1210121+9999REMSYN070AAXX  09124 04201 45/83 /3002 10004 21051 30031 40055 52012 333 91215;
0101042010999992000090915004+77470-069220FM-12+001999999V0202101N001019999999N0400001N1+00051-00521100611ADDMA1999999100371MD1210061+9999REMSYN060AAXX  09154 04201 45/82 /2102 10005 21052 30037 40061 52006;
0143042010999992000090918004+77470-069220FM-12+001999999V0202201N001019999999N0350001N1+00031-00271100691ADDKA1120M+00281KA2999N-00041MA1999999100451MD1210081+9999REMSYN076AAXX  09184 04201 45/81 /2202 10003 21027 30045 40069 52008 333 10028 21004;
0101042010999992000090921004+77470-069220FM-12+001999999V0201501N000519999999N0500001N1-00021-00221100781ADDMA1999999100541MD1210091+9999REMSYN060AAXX  09214 04201 45/84 /1501 11002 21022 30054 40078 52009;
0101042010999992000091000004+77470-069220FM-12+001999999V0202501N002119999999N0300001N1-00021-00101100851ADDMA1999999100611MD1210071+9999REMSYN060AAXX  10004 04201 45/80 /2504 11002 21010 30061 40085 52007;
0107042010999992000091003004+77470-069220FM-12+001999999V0202001N000519999999N0400001N1-00051-00121100921ADDMA1999999100681MD1210071+9999REMSYN066AAXX  10034 04201 4//82 /2001 11005 21012 30068 40092 52007 72274;
0149042010999992000091006004+77470-069220FM-12+001999999V0209999C000019999999N0120001N1-00091-00161100941ADDKA1120M+00281KA2999N-00161MA1999999100701MD1210021+9999REMSYN082AAXX  10064 04201 4//62 /0000 11009 21016 30070 40094 52002 75274 333 10028 21016;
0107042010999992000091009004+77470-069220FM-12+001999999V0202501N000519999999N0090001N1-00101-00141101031ADDMA1999999100791MD1210091+9999REMSYN066AAXX  10094 04201 4//59 /2501 11010 21014 30079 40103 52009 75275;
0107042010999992000091012004+77470-069220FM-12+001999999V0202501N001019999999N0180001N1-00091-00121101121ADDMA1999999100881MD1210091+9999REMSYN066AAXX  10124 04201 4//68 /2502 11009 21012 30088 40112 52009 77775;
0107042010999992000091015004+77470-069220FM-12+001999999V0201801N001019999999N0300001N1-00051-00101101191ADDMA1999999100951MD1210071+9999REMSYN066AAXX  10154 04201 4//80 /1802 11005 21010 30095 40119 52007 72175;
0149042010999992000091018004+77470-069220FM-12+001999999V0202301N002119999999N0400001N1-00041-00101101251ADDKA1120M-00011KA2999N-00161MA1999999101011MD1210061+9999REMSYN082AAXX  10184 04201 4//82 /2304 11004 21010 30101 40125 52006 70075 333 11001 21016;
0101042010999992000091021004+77470-069220FM-12+001999999V0202201N002119999999N0400001N1-00051-00121101321ADDMA1999999101081MD1210071+9999REMSYN060AAXX  10214 04201 45/82 /2204 11005 21012 30108 40132 52007;
0101042010999992000091100004+77470-069220FM-12+001999999V0202201N001019999999N0240001N1-00081-00111101331ADDMA1999999101091MD1210011+9999REMSYN060AAXX  11004 04201 45/74 /2202 11008 21011 30109 40133 52001;
0107042010999992000091103004+77470-069220FM-12+001999999V0202701N001019999999N0027001N1-00121-00141101341ADDMA1999999101101MD1210011+9999REMSYN066AAXX  11034 04201 4//27 /2702 11012 21014 30110 40134 52001 71010;
0149042010999992000091106004+77470-069220FM-12+001999999V0200801N001019999999N0450001N1-00111-00131101281ADDKA1120M+00011KA2999N-00121MA1999999101041MD1710061+9999REMSYN082AAXX  11064 04201 4//83 /0802 11011 21013 30104 40128 57006 70010 333 10001 21012;
0101042010999992000091109004+77470-069220FM-12+001999999V0202301N000519999999N0500001N1-00121-00181101251ADDMA1999999101011MD1710031+9999REMSYN060AAXX  11094 04201 45/84 /2301 11012 21018 30101 40125 57003;
0101042010999992000091112004+77470-069220FM-12+001999999V0202701N001019999999N0450001N1-00051-00181101191ADDMA1999999100951MD1710061+9999REMSYN060AAXX  11124 04201 45/83 /2702 11005 21018 30095 40119 57006;
0101042010999992000091115004+77470-069220FM-12+001999999V0200601N006719999999N0300001N1-00071-00511101121ADDMA1999999100881MD1710071+9999REMSYN060AAXX  11154 04201 45/80 /0613 11007 21051 30088 40112 57007;
0143042010999992000091118004+77470-069220FM-12+001999999V0200801N006219999999N0400001N1-00121-00711101011ADDKA1120M+00041KA2999N-00161MA1999999100771MD1710111+9999REMSYN076AAXX  11184 04201 45/82 /0812 11012 21071 30077 40101 57011 333 10004 21016;
0101042010999992000091121004+77470-069220FM-12+001999999V0200801N004619999999N0350001N1-00161-00741100961ADDMA1999999100721MD1710051+9999REMSYN060AAXX  11214 04201 45/81 /0809 11016 21074 30072 40096 57005;
0111042010999992000091200004+77470-069220FM-12+001999999V0202001N000519999999N0500001N1-00161-00641100921ADDMA1999999100681MD1710041+9999REMSYN070AAXX  12004 04201 45/84 /2001 11016 21064 30068 40092 57004 333 91212;
0101042010999992000091203004+77470-069220FM-12+001999999V0200501N007719999999N0450001N1-00241-00971100821ADDMA1999999100581MD1710101+9999REMSYN060AAXX  12034 04201 45/83 /0515 11024 21097 30058 40082 57010;
0143042010999992000091206004+77470-069220FM-12+001999999V0200501N007219999999N0450001N1-00291-01021100771ADDKA1120M-00011KA2999N-00591MA1999999100531MD1710051+9999REMSYN076AAXX  12064 04201 45/83 /0514 11029 21102 30053 40077 57005 333 11001 21059;
0101042010999992000091209004+77470-069220FM-12+001999999V0200601N005119999999N0450001N1-00311-01071100741ADDMA1999999100501MD1710031+9999REMSYN060AAXX  12094 04201 45/83 /0610 11031 21107 30050 40074 57003;
0111042010999992000091212004+77470-069220FM-12+001999999V0200701N003119999999N0400001N1-00261-01001100711ADDMA1999999100471MD1710031+9999REMSYN070AAXX  12124 04201 45/82 /0706 11026 21100 30047 40071 57003 333 91217;
0101042010999992000091215004+77470-069220FM-12+001999999V0201401N001019999999N0300001N1-00191-01021100641ADDMA1999999100401MD1710071+9999REMSYN060AAXX  12154 04201 45/80 /1402 11019 21102 30040 40064 57007;
0143042010999992000091218004+77470-069220FM-12+001999999V0202101N003119999999N0350001N1-00191-00841100601ADDKA1120M-00081KA2999N-00591MA1999999100361MD1710041+9999REMSYN076AAXX  12184 04201 45/81 /2106 11019 21084 30036 40060 57004 333 11008 21059;
0101042010999992000091221004+77470-069220FM-12+001999999V0202301N003619999999N0300001N1-00071-00441100561ADDMA1999999100321MD1710041+9999REMSYN060AAXX  12214 04201 45/80 /2307 11007 21044 30032 40056 57004;
0081042010999992000091303004+77470-069220FM-12+001999999V0200801N003619999999N0450001N1-00391-00631100441ADDMA1999999100201REMSYN054AAXX  13034 04201 45/83 /0807 11039 21063 30020 40044;
0143042010999992000091306004+77470-069220FM-12+001999999V0200701N003119999999N0450001N1-00471-00881100331ADDKA1120M-00381KA2999N-00521MA1999999100091MD1710111+9999REMSYN076AAXX  13064 04201 45/83 /0706 11047 21088 30009 40033 57011 333 11038 21052;
0101042010999992000091309004+77470-069220FM-12+001999999V0200601N004619999999N0500001N1-00481-00991100251ADDMA1999999100011MD1710081+9999REMSYN060AAXX  13094 04201 45/84 /0609 11048 21099 30001 40025 57008;
0101042010999992000091312004+77470-069220FM-12+001999999V0200801N003119999999N0400001N1-00431-01061100231ADDMA1999999099991MD1710021+9999REMSYN060AAXX  13124 04201 45/82 /0806 11043 21106 39999 40023 57002;
0101042010999992000091315004+77470-069220FM-12+001999999V0200801N004619999999N0350001N1-00381-01261100121ADDMA1999999099881MD1710111+9999REMSYN060AAXX  13154 04201 45/81 /0809 11038 21126 39988 40012 57011;
0143042010999992000091318004+77470-069220FM-12+001999999V0201001N003119999999N0350001N1-00411-01361100091ADDKA1120M-00151KA2999N-00591MA1999999099851MD1710031+9999REMSYN076AAXX  13184 04201 45/81 /1006 11041 21136 39985 40009 57003 333 11015 21059;
0101042010999992000091321004+77470-069220FM-12+001999999V0201801N000519999999N0400001N1-00171-01191100041ADDMA1999999099801MD1710051+9999REMSYN060AAXX  13214 04201 45/82 /1801 11017 21119 39980 40004 57005;
0101042010999992000091400004+77470-069220FM-12+001999999V0201001N003619999999N0400001N1-00391-00861099881ADDMA1999999099641MD1710161+9999REMSYN060AAXX  14004 04201 45/82 /1007 11039 21086 39964 49988 57016;
0101042010999992000091403004+77470-069220FM-12+001999999V0200701N002619999999N0500001N1-00491-01041099641ADDMA1999999099401MD1710241+9999REMSYN060AAXX  14034 04201 45/84 /0705 11049 21104 39940 49964 57024;
0143042010999992000091406004+77470-069220FM-12+001999999V0201001N004119999999N0450001N1-00551-01161099361ADDKA1120M-00021KA2999N-00601MA1999999099121MD1710281+9999REMSYN076AAXX  14064 04201 45/83 /1008 11055 21116 39912 49936 57028 333 11002 21060;
0111042010999992000091409004+77470-069220FM-12+001999999V0202701N002119999999N0450001N1-00481-01341099151ADDMA1999999098911MD1710211+9999REMSYN070AAXX  14094 04201 45/83 /2704 11048 21134 39891 49915 57021 333 91113;
0111042010999992000091412004+77470-069220FM-12+001999999V0203601N005119999999N0450001N1-00441-01601099071ADDMA1999999098831MD1710081+9999REMSYN070AAXX  14124 04201 45/83 /3610 11044 21160 39883 49907 57008 333 91131;
0081042010999992000091415004+77470-069220FM-12+001999999V0200201N006219999999N0280001N1-00481+99999999999ADDOA149901601REMSYN058AAXX  14154 04201 4//78 /0212 11048 70010 333 91131 91028;
0152042010999992000091418004+77470-069220FM-12+001999999V0200501N002619999999N0350001N1-00271-01711099241ADDKA1120M-00261KA2120N-00631MA1999999099001OA149901601REMSYN088AAXX  14184 04201 4//81 /0505 11027 21171 39900 49924 70010 333 11026 21063 91131 91219;
0101042010999992000091421004+77470-069220FM-12+001999999V0201501N001519999999N0300001N1-00151-01311099461ADDMA1999999099221MD1210221+9999REMSYN060AAXX  14214 04201 45/80 /1503 11015 21131 39922 49946 52022;
0111042010999992000091500004+77470-069220FM-12+001999999V0200701N005719999999N0500001N1-00491-01481099751ADDMA1999999099511MD1210291+9999REMSYN070AAXX  15004 04201 45/84 /0711 11049 21148 39951 49975 52029 333 91117;
0101042010999992000091503004+77470-069220FM-12+001999999V0200501N006719999999N0500001N1-00641-01661099921ADDMA1999999099681MD1210171+9999REMSYN060AAXX  15034 04201 45/84 /0513 11064 21166 39968 49992 52017;
0143042010999992000091506004+77470-069220FM-12+001999999V0200601N005119999999N0450001N1-00651-01631100061ADDKA1120M-00011KA2999N-00671MA1999999099821MD1210141+9999REMSYN076AAXX  15064 04201 45/83 /0610 11065 21163 39982 40006 52014 333 11001 21067;
0101042010999992000091509004+77470-069220FM-12+001999999V0200401N002619999999N0500001N1-00601-01581100161ADDMA1999999099921MD1210101+9999REMSYN060AAXX  15094 04201 45/84 /0405 11060 21158 39992 40016 52010;
0107042010999992000091512004+77470-069220FM-12+001999999V0203001N001519999999N0180001N1-00561-01481100201ADDMA1999999099961MD1210041+9999REMSYN066AAXX  15124 04201 4//68 /3003 11056 21148 39996 40020 52004 77174;
0107042010999992000091515004+77470-069220FM-12+001999999V0202601N001019999999N0300001N1-00511-01101100231ADDMA1999999099991MD1210031+9999REMSYN066AAXX  15154 04201 4//80 /2602 11051 21110 39999 40023 52003 72277;
0149042010999992000091518004+77470-069220FM-12+001999999V0201701N001019999999N0210001N1-00471-00831100291ADDKA1120M-00431KA2999N-00871MA1999999100051MD1210061+9999REMSYN082AAXX  15184 04201 4//71 /1702 11047 21083 30005 40029 52006 78577 333 11043 21087;
0107042010999992000091521004+77470-069220FM-12+001999999V0203601N000519999999N0250001N1-00461-00751100431ADDMA1999999100191MD1210141+9999REMSYN066AAXX  15214 04201 4//75 /3601 11046 21075 30019 40043 52014 78577;
0107042010999992000091600004+77470-069220FM-12+001999999V0202101N009319999999N0170001N1-00591-01011100651ADDMA1999999100411MD1210221+9999REMSYN066AAXX  16004 04201 4//67 /2118 11059 21101 30041 40065 52022 70077;
0117042010999992000091603004+77470-069220FM-12+001999999V0202401N006719999999N0080001N1-00711-01141100881ADDMA1999999100641MD1210231+9999REMSYN076AAXX  16034 04201 4//58 /2413 11071 21114 30064 40088 52023 78574 333 91124;
0155042010999992000091606004+77470-069220FM-12+001999999V0202801N004119999999N0060001N1-00711-01151101061ADDKA1120M-00301KA2120N-00821MA1999999100821MD1210181+9999REMSYN088AAXX  16064 04201 4//56 /2808 11071 21115 30082 40106 52018 78574 333 11030 21082 91124;
0107042010999992000091609004+77470-069220FM-12+001999999V0202801N001519999999N0450001N1-00681-01221101251ADDMA1999999101001MD1210181+9999REMSYN066AAXX  16094 04201 4//83 /2803 11068 21122 30100 40125 52018 70077;
0107042010999992000091612004+77470-069220FM-12+001999999V0200401N003119999999N0400001N1-00671-01061101451ADDMA1999999101201MD1210201+9999REMSYN066AAXX  16124 04201 4//82 /0406 11067 21106 30120 40145 52020 78577;
0101042010999992000091615004+77470-069220FM-12+001999999V0200701N005119999999N0400001N1-00641-01221101611ADDMA1999999101361MD1210161+9999REMSYN060AAXX  16154 04201 45/82 /0710 11064 21122 30136 40161 52016;
0143042010999992000091618004+77470-069220FM-12+001999999V0200701N006719999999N0350001N1-00621-01281101811ADDKA1120M-00581KA2999N-00731MA1999999101561MD1210201+9999REMSYN076AAXX  16184 04201 45/81 /0713 11062 21128 30156 40181 52020 333 11058 21073;
0107042010999992000091621004+77470-069220FM-12+001999999V0200501N011819999999N0026001N1-00621-00841101921ADDMA1999999101671MD1210111+9999REMSYN066AAXX  16214 04201 4//26 /0523 11062 21084 30167 40192 52011 77174;
0117042010999992000091700004+77470-069220FM-12+001999999V0200601N012319999999N0013001N1-00541-00731101951ADDMA1999999101701MD1210031+9999REMSYN076AAXX  17004 04201 4//13 /0624 11054 21073 30170 40195 52003 77174 333 91135;
0117042010999992000091703004+77470-069220FM-12+001999999V0200601N011819999999N0038001N1-00301-00761102031ADDMA1999999101791MD1210091+9999REMSYN076AAXX  17034 04201 4//38 /0623 11030 21076 30179 40203 52009 77177 333 91135;
0155042010999992000091706004+77470-069220FM-12+001999999V0201201N010319999999N0120001N1-00221-00811102261ADDKA1120M-00171KA2120N-00681MA1999999102021MD1210231+9999REMSYN088AAXX  17064 04201 4//62 /1220 11022 21081 30202 40226 52023 74177 333 11017 21068 91135;
0117042010999992000091709004+77470-069220FM-12+001999999V0201001N012919999999N0290001N1-00251-00831102281ADDMA1999999102041MD1210021+9999REMSYN076AAXX  17094 04201 4//79 /1025 11025 21083 30204 40228 52002 70044 333 91125;
0117042010999992000091712004+77470-069220FM-12+001999999V0200701N007719999999N0400001N1-00241-00871102261ADDMA1999999102021MD1710021+9999REMSYN076AAXX  17124 04201 4//82 /0715 11024 21087 30202 40226 57002 70044 333 91133;
0117042010999992000091715004+77470-069220FM-12+001999999V0200701N006719999999N0400001N1-00191-00871102221ADDMA1999999101981MD1710041+9999REMSYN076AAXX  17154 04201 4//82 /0713 11019 21087 30198 40222 57004 72140 333 91122;
0155042010999992000091718004+77470-069220FM-12+001999999V0200501N011319999999N0019001N1-00321-00631102191ADDKA1120M-00151KA2120N-00321MA1999999101951MD1710031+9999REMSYN088AAXX  17184 04201 4//19 /0522 11032 21063 30195 40219 57003 77174 333 11015 21032 91122;
0107042010999992000091721004+77470-069220FM-12+001999999V0200401N010319999999N0018001N1-00351-00611102041ADDMA1999999101801MD1710151+9999REMSYN066AAXX  17214 04201 4//18 /0420 11035 21061 30180 40204 57015 77177;
0107042010999992000091800004+77470-069220FM-12+001999999V0200501N010319999999N0037001N1-00271-00751101861ADDMA1999999101621MD1710181+9999REMSYN066AAXX  18004 04201 4//37 /0520 11027 21075 30162 40186 57018 77177;
0107042010999992000091803004+77470-069220FM-12+001999999V0200601N007219999999N0140001N1-00281-00801101641ADDMA1999999101401MD1710221+9999REMSYN066AAXX  18034 04201 4//64 /0614 11028 21080 30140 40164 57022 78577;
0149042010999992000091806004+77470-069220FM-12+001999999V0200601N008719999999N0450001N1-00271-00981101401ADDKA1120M-00151KA2999N-00451MA1999999101161MD1710241+9999REMSYN082AAXX  18064 04201 4//83 /0617 11027 21098 30116 40140 57024 70077 333 11015 21045;
0101042010999992000091809004+77470-069220FM-12+001999999V0200701N008219999999N0450001N1-00331-00941101151ADDMA1999999100911MD1710251+9999REMSYN060AAXX  18094 04201 45/83 /0716 11033 21094 30091 40115 57025;
0101042010999992000091812004+77470-069220FM-12+001999999V0200701N006719999999N0450001N1-00401-00961100881ADDMA1999999100641MD1710271+9999REMSYN060AAXX  18124 04201 45/83 /0713 11040 21096 30064 40088 57027;
0101042010999992000091815004+77470-069220FM-12+001999999V0200701N004619999999N0400001N1-00401-01021100651ADDMA1999999100411MD1710231+9999REMSYN060AAXX  18154 04201 45/82 /0709 11040 21102 30041 40065 57023;
0143042010999992000091818004+77470-069220FM-12+001999999V0200701N005719999999N0350001N1-00341-01091100291ADDKA1120M-00271KA2999N-00461MA1999999100051MD1710361+9999REMSYN076AAXX  18184 04201 45/81 /0711 11034 21109 30005 40029 57036 333 11027 21046;
0111042010999992000091821004+77470-069220FM-12+001999999V0209999C000019999999N0450001N1-00411-00941100071ADDMA1999999099831MD1710221+9999REMSYN070AAXX  18214 04201 45/83 /0000 11041 21094 39983 40007 57022 333 91213;
0117042010999992000091900004+77470-069220FM-12+001999999V0200601N001019999999N0035001N1-00471-00771099881ADDMA1999999099641MD1710191+9999REMSYN076AAXX  19004 04201 4//35 /0602 11047 21077 39964 49988 57019 77174 333 91213;
0107042010999992000091903004+77470-069220FM-12+001999999V0201001N001019999999N0008001N1-00521-00561099651ADDMA1999999099411MD1710231+9999REMSYN066AAXX  19034 04201 4//08 /1002 11052 21056 39941 49965 57023 77177;
0149042010999992000091906004+77470-069220FM-12+001999999V0202601N002119999999N0012001N1-00541-00581099301ADDKA1120M-00291KA2999N-00591MA1999999099061MD1710351+9999REMSYN082AAXX  19064 04201 4//12 /2604 11054 21058 39906 49930 57035 77177 333 11029 21059;
0107042010999992000091909004+77470-069220FM-12+001999999V0202601N003119999999N0023001N1-00471-00531099141ADDMA1999999098901MD1710161+9999REMSYN066AAXX  19094 04201 4//23 /2606 11047 21053 39890 49914 57016 77177;
0107042010999992000091912004+77470-069220FM-12+001999999V0201301N001019999999N0021001N1-00431-00481099301ADDMA1999999099061MD1210161+9999REMSYN066AAXX  19124 04201 4//21 /1302 11043 21048 39906 49930 52016 77177;
0107042010999992000091915004+77470-069220FM-12+001999999V0202501N002119999999N0022001N1-00381-00481099441ADDMA1999999099201MD1210141+9999REMSYN066AAXX  19154 04201 4//22 /2504 11038 21048 39920 49944 52014 77177;
0149042010999992000091918004+77470-069220FM-12+001999999V0202701N003119999999N0160001N1-00401-00501099641ADDKA1120M-00351KA2999N-00661MA1999999099401MD1210201+9999REMSYN082AAXX  19184 04201 4//66 /2706 11040 21050 39940 49964 52020 72477 333 11035 21066;
0107042010999992000091921004+77470-069220FM-12+001999999V0202801N001519999999N0013001N1-00401-00461099821ADDMA1999999099581MD1210181+9999REMSYN066AAXX  19214 04201 4//13 /2803 11040 21046 39958 49982 52018 77174;
0107042010999992000092000004+77470-069220FM-12+001999999V0202201N004619999999N0080001N1-00431-00691099951ADDMA1999999099711MD1210131+9999REMSYN066AAXX  20004 04201 4//58 /2209 11043 21069 39971 49995 52013 77174;
0107042010999992000092003004+77470-069220FM-12+001999999V0202301N004619999999N0450001N1-00481-00831099971ADDMA1999999099731MD1210021+9999REMSYN066AAXX  20034 04201 4//83 /2309 11048 21083 39973 49997 52002 72477;
0149042010999992000092006004+77470-069220FM-12+001999999V0202901N003619999999N0350001N1-00501-01061100061ADDKA1120M-00391KA2999N-00531MA1999999099821MD1210091+9999REMSYN082AAXX  20064 04201 4//81 /2907 11050 21106 39982 40006 52009 78077 333 11039 21053;
0101042010999992000092009004+77470-069220FM-12+001999999V0202801N002619999999N0500001N1-00561-01131100251ADDMA1999999100011MD1210191+9999REMSYN060AAXX  20094 04201 45/84 /2805 11056 21113 30001 40025 52019;
0117042010999992000092012004+77470-069220FM-12+001999999V0202401N004119999999N0450001N1-00591-01231100521ADDMA1999999100281MD1210271+9999REMSYN076AAXX  20124 04201 4//83 /2408 11059 21123 30028 40052 52027 72474 333 91121;
0101042010999992000092015004+77470-069220FM-12+001999999V0203201N002619999999N0350001N1-00571-01281100781ADDMA1999999100541MD1210261+9999REMSYN060AAXX  20154 04201 45/81 /3205 11057 21128 30054 40078 52026;
0143042010999992000092018004+77470-069220FM-12+001999999V0203001N003119999999N0400001N1-00751-01431100981ADDKA1120M-00441KA2999N-00871MA1999999100731MD1210191+9999REMSYN076AAXX  20184 04201 45/82 /3006 11075 21143 30073 40098 52019 333 11044 21087;
0101042010999992000092021004+77470-069220FM-12+001999999V0202701N002119999999N0300001N1-00601-01241101141ADDMA1999999100901MD1210171+9999REMSYN060AAXX  20214 04201 45/80 /2704 11060 21124 30090 40114 52017;
0107042010999992000092100004+77470-069220FM-12+001999999V0203301N001519999999N0350001N1-00621-01241101241ADDMA1999999101001MD1210101+9999REMSYN066AAXX  21004 04201 4//81 /3303 11062 21124 30100 40124 52010 78574;
0149042010999992000092106004+77470-069220FM-12+001999999V0200701N005719999999N0400001N1-00651-01071101231ADDKA1120M-00561KA2999N-00841MA1999999100991MD1710011+9999REMSYN082AAXX  21064 04201 4//82 /0711 11065 21107 30099 40123 57001 78077 333 11056 21084;
0107042010999992000092109004+77470-069220FM-12+001999999V0200801N006719999999N0450001N1-00711-01191101271ADDMA1999999101021MD1210031+9999REMSYN066AAXX  21094 04201 4//83 /0813 11071 21119 30102 40127 52003 70074;
0107042010999992000092112004+77470-069220FM-12+001999999V0200601N007719999999N0400001N1-00761-01281101301ADDMA1999999101051MD1210031+9999REMSYN066AAXX  21124 04201 4//82 /0615 11076 21128 30105 40130 52003 70074;
0107042010999992000092115004+77470-069220FM-12+001999999V0200701N007219999999N0350001N1-00781-01351101321ADDMA1999999101071MD1210021+9999REMSYN066AAXX  21154 04201 4//81 /0714 11078 21135 30107 40132 52002 70070;
0149042010999992000092118004+77470-069220FM-12+001999999V0200701N006219999999N0450001N1-00781-01351101321ADDKA1120M-00651KA2999N-00801MA1999999101071MD1410001+9999REMSYN082AAXX  21184 04201 4//83 /0712 11078 21135 30107 40132 54000 70070 333 11065 21080;
0101042010999992000092121004+77470-069220FM-12+001999999V0200701N005719999999N0450001N1-00781-01371101371ADDMA1999999101121MD1210051+9999REMSYN060AAXX  21214 04201 45/83 /0711 11078 21137 30112 40137 52005;
0101042010999992000092200004+77470-069220FM-12+001999999V0200701N008219999999N0400001N1-00771-01291101301ADDMA1999999101051MD1710071+9999REMSYN060AAXX  22004 04201 45/82 /0716 11077 21129 30105 40130 57007;
0101042010999992000092203004+77470-069220FM-12+001999999V0200701N009819999999N0300001N1-00741-01361101191ADDMA1999999100941MD1710111+9999REMSYN060AAXX  22034 04201 45/80 /0719 11074 21136 30094 40119 57011;
0087042010999992000092221004+77470-069220FM-12+001999999V0200601N009319999999N0048001N1-00641-01161100781ADDMA1999999100541REMSYN060AAXX  22214 04201 4//48 /0618 11064 21116 30054 40078 78570;
0107042010999992000092300004+77470-069220FM-12+001999999V0200701N009819999999N0025001N1-00611-01121100721ADDMA1999999100481MD1710061+9999REMSYN066AAXX  23004 04201 4//25 /0719 11061 21112 30048 40072 57006 77170;
0107042010999992000092303004+77470-069220FM-12+001999999V0200701N008719999999N0011001N1-00651-00821100571ADDMA1999999100331MD1710151+9999REMSYN066AAXX  23034 04201 4//11 /0717 11065 21082 30033 40057 57015 77177;
0149042010999992000092306004+77470-069220FM-12+001999999V0200601N009319999999N0015001N1-00661-00971100421ADDKA1120M-00581KA2999N-00701MA1999999100181MD1710151+9999REMSYN082AAXX  23064 04201 4//15 /0618 11066 21097 30018 40042 57015 77777 333 11058 21070;
0107042010999992000092309004+77470-069220FM-12+001999999V0200701N009819999999N0450001N1-00701-01261100291ADDMA1999999100051MD1710131+9999REMSYN066AAXX  23094 04201 4//83 /0719 11070 21126 30005 40029 57013 70077;
0107042010999992000092312004+77470-069220FM-12+001999999V0200601N009319999999N0400001N1-00761-01341100111ADDMA1999999099871MD1710181+9999REMSYN066AAXX  23124 04201 4//82 /0618 11076 21134 39987 40011 57018 72477;
0101042010999992000092315004+77470-069220FM-12+001999999V0200701N007219999999N0220001N1-00811-01451099951ADDMA1999999099711MD1710161+9999REMSYN060AAXX  23154 04201 45/72 /0714 11081 21145 39971 49995 57016;
0149042010999992000092318004+77470-069220FM-12+001999999V0201001N004119999999N0300001N1-00651-01211099951ADDKA1120M-00581KA2120N-01021MA1999999099711MD1410001+9999REMSYN082AAXX  23184 04201 45/80 /1008 11065 21121 39971 49995 54000 333 11058 21102 91219;
0101042010999992000092321004+77470-069220FM-12+001999999V0200601N004619999999N0300001N1-00561-01131100051ADDMA1999999099811MD1210101+9999REMSYN060AAXX  23214 04201 45/80 /0609 11056 21113 39981 40005 52010;
0101042010999992000092400004+77470-069220FM-12+001999999V0200701N005719999999N0450001N1-00691-01291100031ADDMA1999999099791MD1710021+9999REMSYN060AAXX  24004 04201 45/83 /0711 11069 21129 39979 40003 57002;
0101042010999992000092403004+77470-069220FM-12+001999999V0200801N006219999999N0450001N1-00721-01391100021ADDMA1999999099781MD1710011+9999REMSYN060AAXX  24034 04201 45/83 /0812 11072 21139 39978 40002 57001;
0149042010999992000092406004+77470-069220FM-12+001999999V0200701N003119999999N0500001N1-00771-01411100051ADDKA1120M-00481KA2120N-00831MA1999999099811MD1210031+9999REMSYN082AAXX  24064 04201 45/84 /0706 11077 21141 39981 40005 52003 333 11048 21083 91217;
0101042010999992000092409004+77470-069220FM-12+001999999V0200501N001519999999N0500001N1-00751-01391100101ADDMA1999999099861MD1210051+9999REMSYN060AAXX  24094 04201 45/84 /0503 11075 21139 39986 40010 52005;
0101042010999992000092412004+77470-069220FM-12+001999999V0200801N001019999999N0450001N1-00721-01431100091ADDMA1999999099851MD1710011+9999REMSYN060AAXX  24124 04201 45/83 /0802 11072 21143 39985 40009 57001;
0101042010999992000092415004+77470-069220FM-12+001999999V0200601N000519999999N0260001N1-00741-01541100061ADDMA1999999099821MD1710031+9999REMSYN060AAXX  24154 04201 45/76 /0601 11074 21154 39982 40006 57003;
0129042010999992000092506004+77470-069220FM-12+001999999V0203401N000519999999N0028001N1-00641-00761100411ADDKA1120M-00581KA2999N-00661MA1999999100171REMSYN076AAXX  25064 04201 4//28 /3401 11064 21076 30017 40041 77174 333 11058 21066;
0107042010999992000092509004+77470-069220FM-12+001999999V0200701N000519999999N0021001N1-00541-00581100451ADDMA1999999100211MD1210041+9999REMSYN066AAXX  25094 04201 4//21 /0701 11054 21058 30021 40045 52004 77177;
0107042010999992000092512004+77470-069220FM-12+001999999V0202401N001519999999N0110001N1-00451-00491100521ADDMA1999999100281MD1210071+9999REMSYN066AAXX  25124 04201 4//61 /2403 11045 21049 30028 40052 52007 76777;
0107042010999992000092515004+77470-069220FM-12+001999999V0202401N003119999999N0300001N1-00301-00431100541ADDMA1999999100301MD1210021+9999REMSYN066AAXX  25154 04201 4//80 /2406 11030 21043 30030 40054 52002 72277;
0149042010999992000092518004+77470-069220FM-12+001999999V0202001N004119999999N0280001N1-00381-00451100481ADDKA1120M-00131KA2999N-00641MA1999999100241MD1710061+9999REMSYN082AAXX  25184 04201 4//78 /2008 11038 21045 30024 40048 57006 70077 333 11013 21064;
0107042010999992000092521004+77470-069220FM-12+001999999V0202401N005119999999N0120001N1-00381-00431100381ADDMA1999999100141MD1710101+9999REMSYN066AAXX  25214 04201 4//62 /2410 11038 21043 30014 40038 57010 70010;
0107042010999992000092600004+77470-069220FM-12+001999999V0203201N001019999999N0150001N1-00421-00491100241ADDMA1999999100001MD1710141+9999REMSYN066AAXX  26004 04201 4//65 /3202 11042 21049 30000 40024 57014 70010;
0101042010999992000092603004+77470-069220FM-12+001999999V0200701N004119999999N0400001N1-00401-00571100091ADDMA1999999099851MD1710151+9999REMSYN060AAXX  26034 04201 45/82 /0708 11040 21057 39985 40009 57015;
0143042010999992000092606004+77470-069220FM-12+001999999V0200501N002619999999N0400001N1-00471-00611100101ADDKA1120M-00331KA2999N-00561MA1999999099861MD1210011+9999REMSYN076AAXX  26064 04201 45/82 /0505 11047 21061 39986 40010 52001 333 11033 21056;
0101042010999992000092609004+77470-069220FM-12+001999999V0200701N005719999999N0450001N1-00421-00841100111ADDMA1999999099871MD1210011+9999REMSYN060AAXX  26094 04201 45/83 /0711 11042 21084 39987 40011 52001;
0128042010999992000092612004+77470-069220FM-12+001999999V0200901N001019999999N0450001N1-00481-00831100201ADDMA1999999099961MD1210091+9999OA149900821REMSYN076AAXX  26124 04201 45/83 /0902 11048 21083 39996 40020 52009 333 91116 91217;
0101042010999992000092615004+77470-069220FM-12+001999999V0202401N003619999999N0350001N1-00391-00731100141ADDMA1999999099901MD1710061+9999REMSYN060AAXX  26154 04201 45/81 /2407 11039 21073 39990 40014 57006;
0143042010999992000092618004+77470-069220FM-12+001999999V0202701N002619999999N0300001N1-00391-00861100031ADDKA1120M-00291KA2999N-00611MA1999999099791MD1710111+9999REMSYN076AAXX  26184 04201 45/80 /2705 11039 21086 39979 40003 57011 333 11029 21061;
0101042010999992000092621004+77470-069220FM-12+001999999V0202801N001019999999N0300001N1-00311-00841099971ADDMA1999999099731MD1710061+9999REMSYN060AAXX  26214 04201 45/80 /2802 11031 21084 39973 49997 57006;
0101042010999992000092700004+77470-069220FM-12+001999999V0200701N001519999999N0400001N1-00481-00781099981ADDMA1999999099741MD1210011+9999REMSYN060AAXX  27004 04201 45/82 /0703 11048 21078 39974 49998 52001;
0101042010999992000092703004+77470-069220FM-12+001999999V0203301N000519999999N0500001N1-00561-00931100001ADDMA1999999099761MD1210021+9999REMSYN060AAXX  27034 04201 45/84 /3301 11056 21093 39976 40000 52002;
0143042010999992000092706004+77470-069220FM-12+001999999V0200101N001019999999N0450001N1-00501-00831100101ADDKA1120M-00191KA2999N-00631MA1999999099861MD1210101+9999REMSYN076AAXX  27064 04201 45/83 /0102 11050 21083 39986 40010 52010 333 11019 21063;
0101042010999992000092709004+77470-069220FM-12+001999999V0200201N001019999999N0450001N1-00491-00851100251ADDMA1999999100011MD1210151+9999REMSYN060AAXX  27094 04201 45/83 /0202 11049 21085 30001 40025 52015;
0101042010999992000092712004+77470-069220FM-12+001999999V0203401N000519999999N0400001N1-00501-00771100421ADDMA1999999100181MD1210171+9999REMSYN060AAXX  27124 04201 45/82 /3401 11050 21077 30018 40042 52017;
0101042010999992000092715004+77470-069220FM-12+001999999V0200201N000519999999N0400001N1-00431-00761100511ADDMA1999999100271MD1210091+9999REMSYN060AAXX  27154 04201 45/82 /0201 11043 21076 30027 40051 52009;
0143042010999992000092718004+77470-069220FM-12+001999999V0202601N002619999999N0190001N1-00421-00651100561ADDKA1120M-00301KA2999N-00591MA1999999100321MD1210051+9999REMSYN076AAXX  27184 04201 45/69 /2605 11042 21065 30032 40056 52005 333 11030 21059;
0101042010999992000092721004+77470-069220FM-12+001999999V0201801N004119999999N0230001N1-00401-00541100521ADDMA1999999100281MD1710041+9999REMSYN060AAXX  27214 04201 45/73 /1808 11040 21054 30028 40052 57004;
0101042010999992000092800004+77470-069220FM-12+001999999V0202601N003119999999N0300001N1-00421-00531100461ADDMA1999999100221MD1710061+9999REMSYN060AAXX  28004 04201 45/80 /2606 11042 21053 30022 40046 57006;
0101042010999992000092803004+77470-069220FM-12+001999999V0209999C000019999999N0400001N1-00431-00571100321ADDMA1999999100081MD1710141+9999REMSYN060AAXX  28034 04201 45/82 /0000 11043 21057 30008 40032 57014;
0143042010999992000092806004+77470-069220FM-12+001999999V0200901N003119999999N0400001N1-00531-00681100211ADDKA1120M-00401KA2999N-00551MA1999999099971MD1710111+9999REMSYN076AAXX  28064 04201 45/82 /0906 11053 21068 39997 40021 57011 333 11040 21055;
0101042010999992000092809004+77470-069220FM-12+001999999V0203601N000519999999N0450001N1-00471-00621100141ADDMA1999999099901MD1710071+9999REMSYN060AAXX  28094 04201 45/83 /3601 11047 21062 39990 40014 57007;
0101042010999992000092812004+77470-069220FM-12+001999999V0200601N004619999999N0350001N1-00401-00451100181ADDMA1999999099941MD1210041+9999REMSYN060AAXX  28124 04201 45/81 /0609 11040 21045 39994 40018 52004;
0101042010999992000092815004+77470-069220FM-12+001999999V0202901N001519999999N0300001N1-00381-00531100231ADDMA1999999099991MD1210051+9999REMSYN060AAXX  28154 04201 45/80 /2903 11038 21053 39999 40023 52005;
0172042010999992000092818004+77470-069220FM-12+001999999V0202401N001519999999N0070001N1-00321-00511100301ADDKA1120M-00011KA2120N-00601MA1999999100061MD1210071+9999OA149900881REMSYN094AAXX  28184 04201 4//57 /2403 11032 21051 30006 40030 52007 70065 333 11001 21060 91117 91216;
0107042010999992000092821004+77470-069220FM-12+001999999V0200601N008219999999N0140001N1-00071-00451100341ADDMA1999999100101MD1210041+9999REMSYN066AAXX  28214 04201 4//64 /0616 11007 21045 30010 40034 52004 75265;
0107042010999992000092900004+77470-069220FM-12+001999999V0200601N006719999999N0400001N1-00041-00701100381ADDMA1999999100141MD1210041+9999REMSYN066AAXX  29004 04201 4//82 /0613 11004 21070 30014 40038 52004 70065;
0155042010999992000092906004+77470-069220FM-12+001999999V0203201N001519999999N0450001N1-00391-00651100021ADDKA1120M+00011KA2120N-00391MA1999999099781MD1710231+9999REMSYN088AAXX  29064 04201 4//83 /3203 11039 21065 39978 40002 57023 70065 333 10001 21039 91214;
0101042010999992000092912004+77470-069220FM-12+001999999V0200801N005119999999N0500001N1-00381-00711099251ADDMA1999999099011MD1710351+9999REMSYN060AAXX  29124 04201 45/84 /0810 11038 21071 39901 49925 57035;
0101042010999992000092915004+77470-069220FM-12+001999999V0200601N007719999999N0450001N1-00401-01071099151ADDMA1999999098911MD1710101+9999REMSYN060AAXX  29154 04201 45/83 /0615 11040 21107 39891 49915 57010;
0143042010999992000092918004+77470-069220FM-12+001999999V0200401N008719999999N0300001N1-00251-01061099261ADDKA1120M-00181KA2999N-00591MA1999999099021MD1210111+9999REMSYN076AAXX  29184 04201 45/80 /0417 11025 21106 39902 49926 52011 333 11018 21059;
0101042010999992000092921004+77470-069220FM-12+001999999V0200601N004119999999N0450001N1-00291-00981099421ADDMA1999999099181MD1210161+9999REMSYN060AAXX  29214 04201 45/83 /0608 11029 21098 39918 49942 52016;
0111042010999992000093000004+77470-069220FM-12+001999999V0202701N001019999999N0450001N1-00431-00911099591ADDMA1999999099351MD1210171+9999REMSYN070AAXX  30004 04201 45/83 /2702 11043 21091 39935 49959 52017 333 91217;
0101042010999992000093003004+77470-069220FM-12+001999999V0200401N003619999999N0500001N1-00481-01011099691ADDMA1999999099451MD1210101+9999REMSYN060AAXX  30034 04201 45/84 /0407 11048 21101 39945 49969 52010;
0143042010999992000093006004+77470-069220FM-12+001999999V0203401N002119999999N0500001N1-00561-01121099781ADDKA1120M-00191KA2999N-00641MA1999999099541MD1210091+9999REMSYN076AAXX  30064 04201 45/84 /3404 11056 21112 39954 49978 52009 333 11019 21064;
0101042010999992000093009004+77470-069220FM-12+001999999V0203601N001519999999N0500001N1-00551-01071099881ADDMA1999999099641MD1210101+9999REMSYN060AAXX  30094 04201 45/84 /3603 11055 21107 39964 49988 52010;
0101042010999992000093012004+77470-069220FM-12+001999999V0200201N000519999999N0500001N1-00561-01041100011ADDMA1999999099771MD1210131+9999REMSYN060AAXX  30124 04201 45/84 /0201 11056 21104 39977 40001 52013;
0101042010999992000093015004+77470-069220FM-12+001999999V0200601N004619999999N0290001N1-00531-01071100071ADDMA1999999099831MD1210061+9999REMSYN060AAXX  30154 04201 45/79 /0609 11053 21107 39983 40007 52006;
0143042010999992000093018004+77470-069220FM-12+001999999V0200801N004119999999N0300001N1-00561-01131100111ADDKA1120M-00491KA2999N-00631MA1999999099871MD1210041+9999REMSYN076AAXX  30184 04201 45/80 /0808 11056 21113 39987 40011 52004 333 11049 21063;
0101042010999992000093021004+77470-069220FM-12+001999999V0200601N001519999999N0450001N1-00381-00971100141ADDMA1999999099901MD1210031+9999REMSYN060AAXX  30214 04201 45/83 /0603 11038 21097 39990 40014 52003;
0101042010999992000100100004+77470-069220FM-12+001999999V0203601N002119999999N0450001N1-00641-01131100161ADDMA1999999099921MD1210021+9999REMSYN060AAXX  01004 04201 45/83 /3604 11064 21113 39992 40016 52002;
0101042010999992000100103004+77470-069220FM-12+001999999V0200501N002619999999N0500001N1-00741-01211100061ADDMA1999999099821MD1710101+9999REMSYN060AAXX  01034 04201 45/84 /0505 11074 21121 39982 40006 57010;
0143042010999992000100106004+77470-069220FM-12+001999999V0200501N003119999999N0450001N1-00811-01291099981ADDKA1120M-00231KA2999N-00841MA1999999099741MD1710081+9999REMSYN076AAXX  01064 04201 45/83 /0506 11081 21129 39974 49998 57008 333 11023 21084;
0101042010999992000100109004+77470-069220FM-12+001999999V0200701N003619999999N0500001N1-00771-01221099951ADDMA1999999099711MD1710031+9999REMSYN060AAXX  01094 04201 45/84 /0707 11077 21122 39971 49995 57003;
0101042010999992000100112004+77470-069220FM-12+001999999V0203501N001019999999N0500001N1-00721-01071099951ADDMA1999999099711MD1410001+9999REMSYN060AAXX  01124 04201 45/84 /3502 11072 21107 39971 49995 54000;
0101042010999992000100115004+77470-069220FM-12+001999999V0200701N003619999999N0350001N1-00831-01261099911ADDMA1999999099671MD1710041+9999REMSYN060AAXX  01154 04201 45/81 /0707 11083 21126 39967 49991 57004;
0143042010999992000100118004+77470-069220FM-12+001999999V0200901N003619999999N0400001N1-00511-00991099971ADDKA1120M-00511KA2999N-00871MA1999999099731MD1210061+9999REMSYN076AAXX  01184 04201 45/82 /0907 11051 21099 39973 49997 52006 333 11051 21087;
0101042010999992000100121004+77470-069220FM-12+001999999V0201001N002619999999N0450001N1-00541-01021100071ADDMA1999999099831MD1210101+9999REMSYN060AAXX  01214 04201 45/83 /1005 11054 21102 39983 40007 52010;
0101042010999992000100200004+77470-069220FM-12+001999999V0200601N003119999999N0450001N1-00701-01161100281ADDMA1999999100041MD1210211+9999REMSYN060AAXX  02004 04201 45/83 /0606 11070 21116 30004 40028 52021;
0101042010999992000100203004+77470-069220FM-12+001999999V0200601N002619999999N0500001N1-00751-01261100461ADDMA1999999100221MD1210181+9999REMSYN060AAXX  02034 04201 45/84 /0605 11075 21126 30022 40046 52018;
0143042010999992000100206004+77470-069220FM-12+001999999V0200701N006219999999N0500001N1-00721-01341100631ADDKA1120M-00441KA2999N-00801MA1999999100391MD1210171+9999REMSYN076AAXX  02064 04201 45/84 /0712 11072 21134 30039 40063 52017 333 11044 21080;
0101042010999992000100209004+77470-069220FM-12+001999999V0200701N005719999999N0500001N1-00761-01421100841ADDMA1999999100601MD1210211+9999REMSYN060AAXX  02094 04201 45/84 /0711 11076 21142 30060 40084 52021;
0101042010999992000100212004+77470-069220FM-12+001999999V0200601N005119999999N0500001N1-00751-01421101011ADDMA1999999100761MD1210161+9999REMSYN060AAXX  02124 04201 45/84 /0610 11075 21142 30076 40101 52016;
0101042010999992000100215004+77470-069220FM-12+001999999V0200601N003619999999N0300001N1-00811-01481101111ADDMA1999999100861MD1210101+9999REMSYN060AAXX  02154 04201 45/80 /0607 11081 21148 30086 40111 52010;
0143042010999992000100218004+77470-069220FM-12+001999999V0203201N002119999999N0300001N1-00501-01191101151ADDKA1120M-00481KA2999N-00951MA1999999100911MD1210051+9999REMSYN076AAXX  02184 04201 45/80 /3204 11050 21119 30091 40115 52005 333 11048 21095;
0101042010999992000100221004+77470-069220FM-12+001999999V0200701N001519999999N0500001N1-00621-01111101221ADDMA1999999100981MD1210071+9999REMSYN060AAXX  02214 04201 45/84 /0703 11062 21111 30098 40122 52007;
0101042010999992000100300004+77470-069220FM-12+001999999V0200601N000519999999N0500001N1-00641-01031101231ADDMA1999999100991MD1210011+9999REMSYN060AAXX  03004 04201 45/84 /0601 11064 21103 30099 40123 52001;
0101042010999992000100303004+77470-069220FM-12+001999999V0200101N001019999999N0500001N1-00671-01061101111ADDMA1999999100871MD1710121+9999REMSYN060AAXX  03034 04201 45/84 /0102 11067 21106 30087 40111 57012;
0143042010999992000100306004+77470-069220FM-12+001999999V0203301N001019999999N0450001N1-00661-01111101041ADDKA1120M-00451KA2999N-00791MA1999999100801MD1710071+9999REMSYN076AAXX  03064 04201 45/83 /3302 11066 21111 30080 40104 57007 333 11045 21079;
0101042010999992000100309004+77470-069220FM-12+001999999V0200401N001519999999N0500001N1-00641-01001100961ADDMA1999999100721MD1710081+9999REMSYN060AAXX  03094 04201 45/84 /0403 11064 21100 30072 40096 57008;
0107042010999992000100315004+77470-069220FM-12+001999999V0200801N003619999999N0220001N1-00721-01191100731ADDMA1999999100491MD1710141+9999REMSYN066AAXX  03154 04201 4//72 /0807 11072 21119 30049 40073 57014 77174;
0149042010999992000100318004+77470-069220FM-12+001999999V0200701N003619999999N0500001N1-00721-01281100681ADDKA1120M-00581KA2999N-00741MA1999999100441MD1710051+9999REMSYN082AAXX  03184 04201 4//84 /0707 11072 21128 30044 40068 57005 70074 333 11058 21074;
0107042010999992000100321004+77470-069220FM-12+001999999V0200801N001519999999N0450001N1-00821-01471100711ADDMA1999999100461MD1210021+9999REMSYN066AAXX  03214 04201 4//83 /0803 11082 21147 30046 40071 52002 70074;
0107042010999992000100400004+77470-069220FM-12+001999999V0200101N003119999999N0450001N1-00781-01401100731ADDMA1999999100491MD1210031+9999REMSYN066AAXX  04004 04201 4//83 /0106 11078 21140 30049 40073 52003 70074;
0101042010999992000100403004+77470-069220FM-12+001999999V0200301N002619999999N0450001N1-00841-01511100711ADDMA1999999100461MD1710031+9999REMSYN060AAXX  04034 04201 45/83 /0305 11084 21151 30046 40071 57003;
0143042010999992000100406004+77470-069220FM-12+001999999V0203601N002619999999N0500001N1-00841-01491100711ADDKA1120M-00651KA2999N-00961MA1999999100461MD1410001+9999REMSYN076AAXX  04064 04201 45/84 /3605 11084 21149 30046 40071 54000 333 11065 21096;
0101042010999992000100409004+77470-069220FM-12+001999999V0200201N001019999999N0500001N1-00831-01451100741ADDMA1999999100491MD1210031+9999REMSYN060AAXX  04094 04201 45/84 /0202 11083 21145 30049 40074 52003;
0101042010999992000100412004+77470-069220FM-12+001999999V0200601N004119999999N0500001N1-00901-01461100751ADDMA1999999100501MD1210011+9999REMSYN060AAXX  04124 04201 45/84 /0608 11090 21146 30050 40075 52001;
0101042010999992000100415004+77470-069220FM-12+001999999V0200601N003119999999N0290001N1-00911-01491100691ADDMA1999999100441MD1710061+9999REMSYN060AAXX  04154 04201 45/79 /0606 11091 21149 30044 40069 57006;
0143042010999992000100418004+77470-069220FM-12+001999999V0201001N004619999999N0300001N1-00681-01211100681ADDKA1120M-00581KA2999N-01161MA1999999100441MD1410001+9999REMSYN076AAXX  04184 04201 45/80 /1009 11068 21121 30044 40068 54000 333 11058 21116;
0101042010999992000100421004+77470-069220FM-12+001999999V0200701N005119999999N0450001N1-00771-01271100661ADDMA1999999100421MD1710021+9999REMSYN060AAXX  04214 04201 45/83 /0710 11077 21127 30042 40066 57002;
0101042010999992000100500004+77470-069220FM-12+001999999V0200601N004619999999N0500001N1-00851-01441100651ADDMA1999999100401MD1710021+9999REMSYN060AAXX  05004 04201 45/84 /0609 11085 21144 30040 40065 57002;
0101042010999992000100503004+77470-069220FM-12+001999999V0200101N003119999999N0500001N1-00951-01521100531ADDMA1999999100281MD1710121+9999REMSYN060AAXX  05034 04201 45/84 /0106 11095 21152 30028 40053 57012;
0143042010999992000100506004+77470-069220FM-12+001999999V0200201N002619999999N0500001N1-00971-01611100491ADDKA1120M-00651KA2999N-01021MA1999999100241MD1710041+9999REMSYN076AAXX  05064 04201 45/84 /0205 11097 21161 30024 40049 57004 333 11065 21102;
0111042010999992000100509004+77470-069220FM-12+001999999V0200401N004119999999N0500001N1-00991-01671100481ADDMA1999999100231MD1710011+9999REMSYN070AAXX  05094 04201 45/84 /0408 11099 21167 30023 40048 57001 333 91115;
0111042010999992000100512004+77470-069220FM-12+001999999V0200701N004619999999N0450001N1-01021-01671100481ADDMA1999999100231MD1410001+9999REMSYN070AAXX  05124 04201 45/83 /0709 11102 21167 30023 40048 54000 333 91115;
0101042010999992000100515004+77470-069220FM-12+001999999V0200201N003619999999N0300001N1-01021-01801100431ADDMA1999999100181MD1710051+9999REMSYN060AAXX  05154 04201 45/80 /0207 11102 21180 30018 40043 57005;
0143042010999992000100518004+77470-069220FM-12+001999999V0200801N002119999999N0400001N1-00891-01521100391ADDKA1120M-00861KA2999N-01161MA1999999100151MD1710031+9999REMSYN076AAXX  05184 04201 45/82 /0804 11089 21152 30015 40039 57003 333 11086 21116;
0101042010999992000100521004+77470-069220FM-12+001999999V0200401N003119999999N0500001N1-00871-01541100451ADDMA1999999100211MD1210061+9999REMSYN060AAXX  05214 04201 45/84 /0406 11087 21154 30021 40045 52006;
0101042010999992000100600004+77470-069220FM-12+001999999V0200401N003619999999N0450001N1-01071-01771100431ADDMA1999999100181MD1710031+9999REMSYN060AAXX  06004 04201 45/83 /0407 11107 21177 30018 40043 57003;
0101042010999992000100603004+77470-069220FM-12+001999999V0200501N005119999999N0450001N1-01101-01731100311ADDMA1999999100061MD1710121+9999REMSYN060AAXX  06034 04201 45/83 /0510 11110 21173 30006 40031 57012;
0143042010999992000100606004+77470-069220FM-12+001999999V0200601N003619999999N0500001N1-01141-01701100191ADDKA1120M-00801KA2999N-01161MA1999999099941MD1710121+9999REMSYN076AAXX  06064 04201 45/84 /0607 11114 21170 39994 40019 57012 333 11080 21116;
0101042010999992000100609004+77470-069220FM-12+001999999V0200601N005119999999N0450001N1-01111-01641100101ADDMA1999999099851MD1710091+9999REMSYN060AAXX  06094 04201 45/83 /0610 11111 21164 39985 40010 57009;
0101042010999992000100612004+77470-069220FM-12+001999999V0200701N004119999999N0500001N1-01161-01681099971ADDMA1999999099721MD1710131+9999REMSYN060AAXX  06124 04201 45/84 /0708 11116 21168 39972 49997 57013;
0101042010999992000100615004+77470-069220FM-12+001999999V0200401N002619999999N0350001N1-01171-01711099831ADDMA1999999099581MD1710141+9999REMSYN060AAXX  06154 04201 45/81 /0405 11117 21171 39958 49983 57014;
0143042010999992000100618004+77470-069220FM-12+001999999V0200801N001019999999N0350001N1-00971-01491099701ADDKA1120M-00951KA2999N-01441MA1999999099461MD1710121+9999REMSYN076AAXX  06184 04201 45/81 /0802 11097 21149 39946 49970 57012 333 11095 21144;
0107042010999992000100621004+77470-069220FM-12+001999999V0200301N002119999999N0450001N1-01081-01511099641ADDMA1999999099401MD1710061+9999REMSYN066AAXX  06214 04201 4//83 /0304 11108 21151 39940 49964 57006 70070;
0107042010999992000100700004+77470-069220FM-12+001999999V0200701N004119999999N0500001N1-01111-01541099551ADDMA1999999099311MD1710091+9999REMSYN066AAXX  07004 04201 4//84 /0708 11111 21154 39931 49955 57009 70070;
0101042010999992000100703004+77470-069220FM-12+001999999V0200701N004119999999N0450001N1-01171-01601099441ADDMA1999999099191MD1710121+9999REMSYN060AAXX  07034 04201 45/83 /0708 11117 21160 39919 49944 57012;
0143042010999992000100706004+77470-069220FM-12+001999999V0200701N002619999999N0450001N1-01201-01591099401ADDKA1120M-00961KA2999N-01241MA1999999099151MD1710041+9999REMSYN076AAXX  07064 04201 45/83 /0705 11120 21159 39915 49940 57004 333 11096 21124;
0107042010999992000100709004+77470-069220FM-12+001999999V0200701N008719999999N0500001N1-01161-01691099401ADDMA1999999099151MD1410001+9999REMSYN066AAXX  07094 04201 4//84 /0717 11116 21169 39915 49940 54000 70070;
0107042010999992000100712004+77470-069220FM-12+001999999V0200801N006719999999N0450001N1-01161-01741099441ADDMA1999999099191MD1210041+9999REMSYN066AAXX  07124 04201 4//83 /0813 11116 21174 39919 49944 52004 70070;
0101042010999992000100715004+77470-069220FM-12+001999999V0200701N009319999999N0400001N1-01051-01701099441ADDMA1999999099201MD1210011+9999REMSYN060AAXX  07154 04201 45/82 /0718 11105 21170 39920 49944 52001;
0149042010999992000100718004+77470-069220FM-12+001999999V0200801N010319999999N0300001N1-01011-01701099561ADDKA1120M-00931KA2999N-01441MA1999999099321MD1210121+9999REMSYN082AAXX  07184 04201 4//80 /0820 11101 21170 39932 49956 52012 72470 333 11093 21144;
0087042010999992000100803004+77470-069220FM-12+001999999V0200801N005119999999N0026001N1-00871-01201099711ADDMA1999999099471REMSYN060AAXX  08034 04201 4//26 /0810 11087 21120 39947 49971 77177;
0149042010999992000100806004+77470-069220FM-12+001999999V0203001N005719999999N0070001N1-00891-01021099751ADDKA1120M-00861KA2999N-00891MA1999999099511MD1210041+9999REMSYN082AAXX  08064 04201 4//57 /3011 11089 21102 39951 49975 52004 77177 333 11086 21089;
0107042010999992000100809004+77470-069220FM-12+001999999V0202901N005719999999N0080001N1-01091-01321099881ADDMA1999999099631MD1210121+9999REMSYN066AAXX  08094 04201 4//58 /2911 11109 21132 39963 49988 52012 77777;
0107042010999992000100812004+77470-069220FM-12+001999999V0203201N002619999999N0060001N1-01041-01361099961ADDMA1999999099711MD1210081+9999REMSYN066AAXX  08124 04201 4//56 /3205 11104 21136 39971 49996 52008 77777;
0107042010999992000100815004+77470-069220FM-12+001999999V0200301N005119999999N0400001N1-01111-01571099971ADDMA1999999099721MD1210011+9999REMSYN066AAXX  08154 04201 4//82 /0310 11111 21157 39972 49997 52001 70077;
0149042010999992000100818004+77470-069220FM-12+001999999V0200201N004619999999N0400001N1-01161-01741100061ADDKA1120M-00871KA2999N-01211MA1999999099811MD1210091+9999REMSYN082AAXX  08184 04201 4//82 /0209 11116 21174 39981 40006 52009 70077 333 11087 21121;
0134042010999992000100821004+77470-069220FM-12+001999999V0200301N008719999999N0003001N1-00991-01671100211ADDMA1999999099961MD1210151+9999OA149901701REMSYN082AAXX  08214 04201 4//03 /0317 11099 21167 39996 40021 52015 78571 333 91133 91033;
0134042010999992000100900004+77470-069220FM-12+001999999V0200401N011319999999N0009001N1-01051-01741100381ADDMA1999999100131MD1210171+9999OA149902011REMSYN082AAXX  09004 04201 4//09 /0422 11105 21174 30013 40038 52017 78571 333 91139 91035;
0134042010999992000100903004+77470-069220FM-12+001999999V0200201N003119999999N0500001N1-01011-01871100531ADDMA1999999100281MD1210151+9999OA149902521REMSYN082AAXX  09034 04201 4//84 /0206 11101 21187 30028 40053 52015 70077 333 91149 91224;
0172042010999992000100906004+77470-069220FM-12+001999999V0200301N006219999999N0500001N1-01081-01951100671ADDKA1120M-00901KA2120N-01241MA1999999100421MD1210141+9999OA149902521REMSYN094AAXX  09064 04201 4//84 /0312 11108 21195 30042 40067 52014 70077 333 11090 21124 91149 91224;
0101042010999992000100909004+77470-069220FM-12+001999999V0202701N001519999999N0500001N1-01121-01931100801ADDMA1999999100551MD1210131+9999REMSYN060AAXX  09094 04201 45/84 /2703 11112 21193 30055 40080 52013;
0111042010999992000100912004+77470-069220FM-12+001999999V0200801N006219999999N0450001N1-01221-01871100961ADDMA1999999100711MD1210161+9999REMSYN070AAXX  09124 04201 45/83 /0812 11122 21187 30071 40096 52016 333 91118;
0101042010999992000100915004+77470-069220FM-12+001999999V0200601N004619999999N0400001N1-01271-01831101091ADDMA1999999100841MD1210131+9999REMSYN060AAXX  09154 04201 45/82 /0609 11127 21183 30084 40109 52013;
0143042010999992000100918004+77470-069220FM-12+001999999V0200901N005119999999N0350001N1-01201-01651101241ADDKA1120M-01021KA2999N-01311MA1999999100991MD1210151+9999REMSYN076AAXX  09184 04201 45/81 /0910 11120 21165 30099 40124 52015 333 11102 21131;
0101042010999992000100921004+77470-069220FM-12+001999999V0200701N005119999999N0500001N1-01311-01691101411ADDMA1999999101161MD1210171+9999REMSYN060AAXX  09214 04201 45/84 /0710 11131 21169 30116 40141 52017;
0101042010999992000101000004+77470-069220FM-12+001999999V0200801N007219999999N0500001N1-01281-01691101551ADDMA1999999101301MD1210141+9999REMSYN060AAXX  10004 04201 45/84 /0814 11128 21169 30130 40155 52014;
0101042010999992000101003004+77470-069220FM-12+001999999V0200701N006719999999N0500001N1-01261-01721101681ADDMA1999999101431MD1210131+9999REMSYN060AAXX  10034 04201 45/84 /0713 11126 21172 30143 40168 52013;
0143042010999992000101006004+77470-069220FM-12+001999999V0200801N009819999999N0500001N1-01231-01761101821ADDKA1120M-01151KA2999N-01441MA1999999101571MD1210141+9999REMSYN076AAXX  10064 04201 45/84 /0819 11123 21176 30157 40182 52014 333 11115 21144;
0101042010999992000101009004+77470-069220FM-12+001999999V0200801N012319999999N0450001N1-01171-01751101911ADDMA1999999101661MD1210091+9999REMSYN060AAXX  10094 04201 45/83 /0824 11117 21175 30166 40191 52009;
0101042010999992000101012004+77470-069220FM-12+001999999V0200801N012319999999N0400001N1-01121-01681102011ADDMA1999999101761MD1210101+9999REMSYN060AAXX  10124 04201 45/82 /0824 11112 21168 30176 40201 52010;
0101042010999992000101015004+77470-069220FM-12+001999999V0200801N010319999999N0350001N1-01051-01661102151ADDMA1999999101901MD1210141+9999REMSYN060AAXX  10154 04201 45/81 /0820 11105 21166 30190 40215 52014;
0143042010999992000101018004+77470-069220FM-12+001999999V0200801N008719999999N0300001N1-00911-01521102351ADDKA1120M-00901KA2999N-01251MA1999999102101MD1210201+9999REMSYN076AAXX  10184 04201 45/80 /0817 11091 21152 30210 40235 52020 333 11090 21125;
0101042010999992000101021004+77470-069220FM-12+001999999V0200801N009819999999N0450001N1-00891-01581102551ADDMA1999999102301MD1210201+9999REMSYN060AAXX  10214 04201 45/83 /0819 11089 21158 30230 40255 52020;
0111042010999992000101100004+77470-069220FM-12+001999999V0200801N008719999999N0500001N1-00871-01731102731ADDMA1999999102481MD1210181+9999REMSYN070AAXX  11004 04201 45/84 /0817 11087 21173 30248 40273 52018 333 91125;
0149042010999992000101106004+77470-069220FM-12+001999999V0200801N009819999999N0500001N1-00881-01791102951ADDKA1120M-00831KA2120N-01021MA1999999102701MD1210091+9999REMSYN082AAXX  11064 04201 45/84 /0819 11088 21179 30270 40295 52009 333 11083 21102 91126;
0101042010999992000101109004+77470-069220FM-12+001999999V0200801N010319999999N0500001N1-00841-01741103001ADDMA1999999102751MD1210051+9999REMSYN060AAXX  11094 04201 45/84 /0820 11084 21174 30275 40300 52005;
0101042010999992000101112004+77470-069220FM-12+001999999V0200801N010819999999N0500001N1-00831-01701103051ADDMA1999999102801MD1210051+9999REMSYN060AAXX  11124 04201 45/84 /0821 11083 21170 30280 40305 52005;
0101042010999992000101115004+77470-069220FM-12+001999999V0200801N011319999999N0400001N1-00841-01721102991ADDMA1999999102741MD1710061+9999REMSYN060AAXX  11154 04201 45/82 /0822 11084 21172 30274 40299 57006;
0143042010999992000101118004+77470-069220FM-12+001999999V0200801N009319999999N0450001N1-00811-01721102941ADDKA1120M-00811KA2999N-00891MA1999999102691MD1710051+9999REMSYN076AAXX  11184 04201 45/83 /0818 11081 21172 30269 40294 57005 333 11081 21089;
0101042010999992000101121004+77470-069220FM-12+001999999V0200701N009319999999N0500001N1-00821-01721102831ADDMA1999999102581MD1710111+9999REMSYN060AAXX  11214 04201 45/84 /0718 11082 21172 30258 40283 57011;
0101042010999992000101200004+77470-069220FM-12+001999999V0200901N009319999999N0500001N1-00851-01651102691ADDMA1999999102441MD1710141+9999REMSYN060AAXX  12004 04201 45/84 /0918 11085 21165 30244 40269 57014;
0101042010999992000101203004+77470-069220FM-12+001999999V0200801N007219999999N0500001N1-00861-01601102511ADDMA1999999102261MD1710181+9999REMSYN060AAXX  12034 04201 45/84 /0814 11086 21160 30226 40251 57018;
0081042010999992000101221004+77470-069220FM-12+001999999V0200501N002619999999N0450001N1-00891-01471100731ADDMA1999999100481REMSYN054AAXX  12214 04201 45/83 /0505 11089 21147 30048 40073;
0101042010999992000101300004+77470-069220FM-12+001999999V0200601N001519999999N0450001N1-00951-01521100351ADDMA1999999100101MD1710381+9999REMSYN060AAXX  13004 04201 45/83 /0603 11095 21152 30010 40035 57038;
0101042010999992000101303004+77470-069220FM-12+001999999V0200701N001019999999N0450001N1-00911-01481100071ADDMA1999999099831MD1710271+9999REMSYN060AAXX  13034 04201 45/83 /0702 11091 21148 39983 40007 57027;
0143042010999992000101306004+77470-069220FM-12+001999999V0200401N003119999999N0500001N1-00951-01501099981ADDKA1120M-00841KA2999N-01011MA1999999099741MD1710091+9999REMSYN076AAXX  13064 04201 45/84 /0406 11095 21150 39974 49998 57009 333 11084 21101;
0101042010999992000101312004+77470-069220FM-12+001999999V0200801N006219999999N0500001N1-00971-01501100291ADDMA1999999100041MD1210181+9999REMSYN060AAXX  13124 04201 45/84 /0812 11097 21150 30004 40029 52018;
0107042010999992000101315004+77470-069220FM-12+001999999V0200801N004619999999N0230001N1-00981-01331100391ADDMA1999999100141MD1210101+9999REMSYN066AAXX  13154 04201 4//73 /0809 11098 21133 30014 40039 52010 78570;
0149042010999992000101318004+77470-069220FM-12+001999999V0201001N002619999999N0450001N1-00921-01371100391ADDKA1120M-00871KA2999N-01161MA1999999100141MD1410001+9999REMSYN082AAXX  13184 04201 4//83 /1005 11092 21137 30014 40039 54000 70070 333 11087 21116;
0101042010999992000101321004+77470-069220FM-12+001999999V0200601N002619999999N0500001N1-01021-01671100401ADDMA1999999100151MD1210011+9999REMSYN060AAXX  13214 04201 45/84 /0605 11102 21167 30015 40040 52001;
0101042010999992000101400004+77470-069220FM-12+001999999V0200201N002619999999N0500001N1-01031-01641100381ADDMA1999999100131MD1710021+9999REMSYN060AAXX  14004 04201 45/84 /0205 11103 21164 30013 40038 57002;
0101042010999992000101403004+77470-069220FM-12+001999999V0203601N002619999999N0500001N1-01001-01521100291ADDMA1999999100041MD1710091+9999REMSYN060AAXX  14034 04201 45/84 /3605 11100 21152 30004 40029 57009;
0149042010999992000101406004+77470-069220FM-12+001999999V0203601N000519999999N0400001N1-01021-01471100191ADDKA1120M-00911KA2999N-01101MA1999999099941MD1710101+9999REMSYN082AAXX  14064 04201 4//82 /3601 11102 21147 39994 40019 57010 72470 333 11091 21110;
0107042010999992000101409004+77470-069220FM-12+001999999V0200701N005119999999N0500001N1-01131-01571100201ADDMA1999999099951MD1210011+9999REMSYN066AAXX  14094 04201 4//84 /0710 11113 21157 39995 40020 52001 70070;
0107042010999992000101412004+77470-069220FM-12+001999999V0200801N007219999999N0450001N1-01141-01731100161ADDMA1999999099911MD1710041+9999REMSYN066AAXX  14124 04201 4//83 /0814 11114 21173 39991 40016 57004 70070;
0101042010999992000101415004+77470-069220FM-12+001999999V0200901N006719999999N0500001N1-01101-01741100101ADDMA1999999099851MD1710061+9999REMSYN060AAXX  14154 04201 45/84 /0913 11110 21174 39985 40010 57006;
0149042010999992000101418004+77470-069220FM-12+001999999V0200601N002619999999N0450001N1-01051-01631100031ADDKA1120M-00971KA2120N-01171MA1999999099781MD1710071+9999REMSYN082AAXX  14184 04201 45/83 /0605 11105 21163 39978 40003 57007 333 11097 21117 91217;
0101042010999992000101421004+77470-069220FM-12+001999999V0200701N003619999999N0500001N1-01031-01581100011ADDMA1999999099761MD1710021+9999REMSYN060AAXX  14214 04201 45/84 /0707 11103 21158 39976 40001 57002;
0101042010999992000101500004+77470-069220FM-12+001999999V0200801N004119999999N0500001N1-01021-01631100021ADDMA1999999099771MD1210011+9999REMSYN060AAXX  15004 04201 45/84 /0808 11102 21163 39977 40002 52001;
0101042010999992000101503004+77470-069220FM-12+001999999V0203601N001519999999N0500001N1-01061-01731100121ADDMA1999999099871MD1210101+9999REMSYN060AAXX  15034 04201 45/84 /3603 11106 21173 39987 40012 52010;
0143042010999992000101506004+77470-069220FM-12+001999999V0200101N001519999999N0500001N1-01021-01741100191ADDKA1120M-00871KA2999N-01161MA1999999099941MD1210071+9999REMSYN076AAXX  15064 04201 45/84 /0103 11102 21174 39994 40019 52007 333 11087 21116;
0101042010999992000101509004+77470-069220FM-12+001999999V0203501N002119999999N0500001N1-00951-01591100251ADDMA1999999100001MD1210061+9999REMSYN060AAXX  15094 04201 45/84 /3504 11095 21159 30000 40025 52006;
0101042010999992000101512004+77470-069220FM-12+001999999V0203601N001519999999N0500001N1-00901-01401100291ADDMA1999999100051MD1210051+9999REMSYN060AAXX  15124 04201 45/84 /3603 11090 21140 30005 40029 52005;
0101042010999992000101515004+77470-069220FM-12+001999999V0200101N001019999999N0450001N1-00901-01351100301ADDMA1999999100061MD1210011+9999REMSYN060AAXX  15154 04201 45/83 /0102 11090 21135 30006 40030 52001;
0143042010999992000101518004+77470-069220FM-12+001999999V0203501N001019999999N0450001N1-00811-01501100291ADDKA1120M-00801KA2999N-01041MA1999999100051MD1710011+9999REMSYN076AAXX  15184 04201 45/83 /3502 11081 21150 30005 40029 57001 333 11080 21104;
0101042010999992000101521004+77470-069220FM-12+001999999V0200701N002119999999N0500001N1-00851-01281100331ADDMA1999999100091MD1210041+9999REMSYN060AAXX  15214 04201 45/84 /0704 11085 21128 30009 40033 52004;
0101042010999992000101600004+77470-069220FM-12+001999999V0200401N001519999999N0500001N1-00831-01311100331ADDMA1999999100091MD1410001+9999REMSYN060AAXX  16004 04201 45/84 /0403 11083 21131 30009 40033 54000;
0101042010999992000101603004+77470-069220FM-12+001999999V0203501N000519999999N0450001N1-00761-01271100331ADDMA1999999100091MD1410001+9999REMSYN060AAXX  16034 04201 45/83 /3501 11076 21127 30009 40033 54000;
0143042010999992000101606004+77470-069220FM-12+001999999V0200301N000519999999N0500001N1-00711-01321100331ADDKA1120M-00711KA2999N-00911MA1999999100091MD1410001+9999REMSYN076AAXX  16064 04201 45/84 /0301 11071 21132 30009 40033 54000 333 11071 21091;
0101042010999992000101609004+77470-069220FM-12+001999999V0200201N000519999999N0500001N1-00721-01221100341ADDMA1999999100101MD1210011+9999REMSYN060AAXX  16094 04201 45/84 /0201 11072 21122 30010 40034 52001;
0101042010999992000101612004+77470-069220FM-12+001999999V0203401N001519999999N0450001N1-00721-01281100381ADDMA1999999100141MD1210041+9999REMSYN060AAXX  16124 04201 45/83 /3403 11072 21128 30014 40038 52004;
0101042010999992000101615004+77470-069220FM-12+001999999V0203601N002119999999N0500001N1-00691-01211100371ADDMA1999999100131MD1710011+9999REMSYN060AAXX  16154 04201 45/84 /3604 11069 21121 30013 40037 57001;
0143042010999992000101618004+77470-069220FM-12+001999999V0203301N001519999999N0450001N1-00681-01131100361ADDKA1120M-00671KA2999N-00781MA1999999100121MD1710011+9999REMSYN076AAXX  16184 04201 45/83 /3303 11068 21113 30012 40036 57001 333 11067 21078;
0101042010999992000101621004+77470-069220FM-12+001999999V0203601N001519999999N0500001N1-00651-01101100361ADDMA1999999100121MD1410001+9999REMSYN060AAXX  16214 04201 45/84 /3603 11065 21110 30012 40036 54000;
0101042010999992000101700004+77470-069220FM-12+001999999V0209999C000019999999N0500001N1-00701-01061100331ADDMA1999999100091MD1710031+9999REMSYN060AAXX  17004 04201 45/84 /0000 11070 21106 30009 40033 57003;
0101042010999992000101703004+77470-069220FM-12+001999999V0200601N005119999999N0450001N1-00721-01131100271ADDMA1999999100031MD1710061+9999REMSYN060AAXX  17034 04201 45/83 /0610 11072 21113 30003 40027 57006;
0143042010999992000101706004+77470-069220FM-12+001999999V0200301N001019999999N0450001N1-00751-01151100251ADDKA1120M-00621KA2999N-00871MA1999999100011MD1710021+9999REMSYN076AAXX  17064 04201 45/83 /0302 11075 21115 30001 40025 57002 333 11062 21087;
0101042010999992000101709004+77470-069220FM-12+001999999V0200801N004119999999N0450001N1-00791-01231100271ADDMA1999999100031MD1210021+9999REMSYN060AAXX  17094 04201 45/83 /0808 11079 21123 30003 40027 52002;
0101042010999992000101712004+77470-069220FM-12+001999999V0200601N002119999999N0450001N1-00891-01371100251ADDMA1999999100011MD1710021+9999REMSYN060AAXX  17124 04201 45/83 /0604 11089 21137 30001 40025 57002;
0101042010999992000101715004+77470-069220FM-12+001999999V0203601N001019999999N0400001N1-00941-01441100251ADDMA1999999100001MD1710011+9999REMSYN060AAXX  17154 04201 45/82 /3602 11094 21144 30000 40025 57001;
0143042010999992000101718004+77470-069220FM-12+001999999V0203601N001019999999N0400001N1-00771-01351100251ADDKA1120M-00711KA2999N-00961MA1999999100011MD1210011+9999REMSYN076AAXX  17184 04201 45/82 /3602 11077 21135 30001 40025 52001 333 11071 21096;
0101042010999992000101721004+77470-069220FM-12+001999999V0200301N001019999999N0450001N1-00921-01411100341ADDMA1999999100091MD1210081+9999REMSYN060AAXX  17214 04201 45/83 /0302 11092 21141 30009 40034 52008;
0101042010999992000101800004+77470-069220FM-12+001999999V0203601N001519999999N0450001N1-00951-01471100351ADDMA1999999100101MD1210011+9999REMSYN060AAXX  18004 04201 45/83 /3603 11095 21147 30010 40035 52001;
0101042010999992000101803004+77470-069220FM-12+001999999V0203501N001519999999N0500001N1-00971-01551100391ADDMA1999999100141MD1210041+9999REMSYN060AAXX  18034 04201 45/84 /3503 11097 21155 30014 40039 52004;
0143042010999992000101806004+77470-069220FM-12+001999999V0200301N001519999999N0500001N1-00951-01571100471ADDKA1120M-00721KA2999N-01021MA1999999100221MD1210081+9999REMSYN076AAXX  18064 04201 45/84 /0303 11095 21157 30022 40047 52008 333 11072 21102;
0101042010999992000101809004+77470-069220FM-12+001999999V0200601N004119999999N0500001N1-00881-01531100611ADDMA1999999100361MD1210141+9999REMSYN060AAXX  18094 04201 45/84 /0608 11088 21153 30036 40061 52014;
0101042010999992000101812004+77470-069220FM-12+001999999V0200601N003119999999N0500001N1-00941-01581100701ADDMA1999999100451MD1210091+9999REMSYN060AAXX  18124 04201 45/84 /0606 11094 21158 30045 40070 52009;
0101042010999992000101815004+77470-069220FM-12+001999999V0200801N005119999999N0450001N1-00971-01561100741ADDMA1999999100491MD1210041+9999REMSYN060AAXX  18154 04201 45/83 /0810 11097 21156 30049 40074 52004;
0143042010999992000101818004+77470-069220FM-12+001999999V0200701N005119999999N0400001N1-00841-01481100781ADDKA1120M-00791KA2999N-01021MA1999999100531MD1210041+9999REMSYN076AAXX  18184 04201 45/82 /0710 11084 21148 30053 40078 52004 333 11079 21102;
0101042010999992000101821004+77470-069220FM-12+001999999V0200801N004619999999N0450001N1-00911-01551100841ADDMA1999999100591MD1210061+9999REMSYN060AAXX  18214 04201 45/83 /0809 11091 21155 30059 40084 52006;
0123042010999992000101906004+77470-069220FM-12+001999999V0200901N006719999999N0500001N1-00951-01581100931ADDKA1120M-00931KA2999N-00981MA1999999100681REMSYN070AAXX  19064 04201 45/84 /0913 11095 21158 30068 40093 333 11093 21098;
0101042010999992000101909004+77470-069220FM-12+001999999V0200801N006719999999N0500001N1-00871-01591100971ADDMA1999999100721MD1210041+9999REMSYN060AAXX  19094 04201 45/84 /0813 11087 21159 30072 40097 52004;
0101042010999992000101912004+77470-069220FM-12+001999999V0200901N006219999999N0450001N1-00871-01491100941ADDMA1999999100691MD1710031+9999REMSYN060AAXX  19124 04201 45/83 /0912 11087 21149 30069 40094 57003;
0101042010999992000101915004+77470-069220FM-12+001999999V0200601N005119999999N0450001N1-00851-01451100941ADDMA1999999100691MD1410001+9999REMSYN060AAXX  19154 04201 45/83 /0610 11085 21145 30069 40094 54000;
0149042010999992000101918004+77470-069220FM-12+001999999V0200801N006719999999N0450001N1-00831-01371100961ADDKA1120M-00801KA2120N-01051MA1999999100711MD1210021+9999REMSYN082AAXX  19184 04201 45/83 /0813 11083 21137 30071 40096 52002 333 11080 21105 91117;
0101042010999992000101921004+77470-069220FM-12+001999999V0200801N006219999999N0450001N1-00801-01331100971ADDMA1999999100721MD1210011+9999REMSYN060AAXX  19214 04201 45/83 /0812 11080 21133 30072 40097 52001;
0101042010999992000102000004+77470-069220FM-12+001999999V0200801N006219999999N0500001N1-00721-01261100951ADDMA1999999100711MD1710011+9999REMSYN060AAXX  20004 04201 45/84 /0812 11072 21126 30071 40095 57001;
0101042010999992000102003004+77470-069220FM-12+001999999V0200601N003119999999N0500001N1-00761-01261100931ADDMA1999999100681MD1710031+9999REMSYN060AAXX  20034 04201 45/84 /0606 11076 21126 30068 40093 57003;
0166042010999992000102006004+77470-069220FM-12+001999999V0200701N003119999999N0500001N1-00741-01241100901ADDKA1120M-00701KA2120N-00871MA1999999100661MD1710021+9999OA149900771REMSYN088AAXX  20064 04201 45/84 /0706 11074 21124 30066 40090 57002 333 11070 21087 91115 91216;
0111042010999992000102009004+77470-069220FM-12+001999999V0202701N001519999999N0500001N1-00751-01221100921ADDMA1999999100681MD1210021+9999REMSYN070AAXX  20094 04201 45/84 /2703 11075 21122 30068 40092 52002 333 91214;
0111042010999992000102012004+77470-069220FM-12+001999999V0200201N001519999999N0400001N1-00741-01181100921ADDMA1999999100681MD1410001+9999REMSYN070AAXX  20124 04201 45/82 /0203 11074 21118 30068 40092 54000 333 91214;
0101042010999992000102015004+77470-069220FM-12+001999999V0200101N001019999999N0500001N1-00791-01281100911ADDMA1999999100661MD1710021+9999REMSYN060AAXX  20154 04201 45/84 /0102 11079 21128 30066 40091 57002;
0101042010999992000102021004+77470-069220FM-12+001999999V0203301N003619999999N0500001N1-00701-01211100781ADDMA1999999100541MD1710051+9999REMSYN060AAXX  20214 04201 45/84 /3307 11070 21121 30054 40078 57005;
0101042010999992000102100004+77470-069220FM-12+001999999V0200301N001519999999N0500001N1-00841-01301100691ADDMA1999999100441MD1710101+9999REMSYN060AAXX  21004 04201 45/84 /0303 11084 21130 30044 40069 57010;
0101042010999992000102103004+77470-069220FM-12+001999999V0200401N002119999999N0450001N1-00871-01361100551ADDMA1999999100301MD1710141+9999REMSYN060AAXX  21034 04201 45/83 /0404 11087 21136 30030 40055 57014;
0143042010999992000102106004+77470-069220FM-12+001999999V0200701N003119999999N0450001N1-00881-01451100461ADDKA1120M-00651KA2999N-01021MA1999999100211MD1710091+9999REMSYN076AAXX  21064 04201 45/83 /0706 11088 21145 30021 40046 57009 333 11065 21102;
0101042010999992000102109004+77470-069220FM-12+001999999V0200701N006219999999N0500001N1-00841-01341100431ADDMA1999999100191MD1710021+9999REMSYN060AAXX  21094 04201 45/84 /0712 11084 21134 30019 40043 57002;
0101042010999992000102112004+77470-069220FM-12+001999999V0203601N001519999999N0500001N1-00891-01401100471ADDMA1999999100221MD1210031+9999REMSYN060AAXX  21124 04201 45/84 /3603 11089 21140 30022 40047 52003;
0101042010999992000102115004+77470-069220FM-12+001999999V0203301N002619999999N0400001N1-00891-01461100481ADDMA1999999100231MD1210011+9999REMSYN060AAXX  21154 04201 45/82 /3305 11089 21146 30023 40048 52001;
0143042010999992000102118004+77470-069220FM-12+001999999V0203501N001519999999N0500001N1-00901-01481100481ADDKA1120M-00751KA2999N-01021MA1999999100231MD1410001+9999REMSYN076AAXX  21184 04201 45/84 /3503 11090 21148 30023 40048 54000 333 11075 21102;
0101042010999992000102121004+77470-069220FM-12+001999999V0200101N002119999999N0500001N1-00901-01411100481ADDMA1999999100231MD1410001+9999REMSYN060AAXX  21214 04201 45/84 /0104 11090 21141 30023 40048 54000;
0101042010999992000102200004+77470-069220FM-12+001999999V0200201N001519999999N0500001N1-00881-01461100491ADDMA1999999100241MD1210011+9999REMSYN060AAXX  22004 04201 45/84 /0203 11088 21146 30024 40049 52001;
0101042010999992000102203004+77470-069220FM-12+001999999V0203301N001019999999N0500001N1-00851-01461100481ADDMA1999999100241MD1410001+9999REMSYN060AAXX  22034 04201 45/84 /3302 11085 21146 30024 40048 54000;
0143042010999992000102206004+77470-069220FM-12+001999999V0200901N004119999999N0500001N1-00911-01451100551ADDKA1120M-00781KA2999N-01161MA1999999100301MD1210061+9999REMSYN076AAXX  22064 04201 45/84 /0908 11091 21145 30030 40055 52006 333 11078 21116;
0111042010999992000102209004+77470-069220FM-12+001999999V0200501N001019999999N0450001N1-00861-01451100691ADDMA1999999100441MD1210141+9999REMSYN070AAXX  22094 04201 45/83 /0502 11086 21145 30044 40069 52014 333 91214;
0111042010999992000102212004+77470-069220FM-12+001999999V0200601N001519999999N0450001N1-00841-01451100841ADDMA1999999100591MD1210151+9999REMSYN070AAXX  22124 04201 45/83 /0603 11084 21145 30059 40084 52015 333 91214;
0101042010999992000102215004+77470-069220FM-12+001999999V0203401N002119999999N0450001N1-00791-01421100891ADDMA1999999100641MD1210051+9999REMSYN060AAXX  22154 04201 45/83 /3404 11079 21142 30064 40089 52005;
0149042010999992000102218004+77470-069220FM-12+001999999V0202901N001019999999N0500001N1-00821-01451100881ADDKA1120M-00671KA2120N-00971MA1999999100631MD1710011+9999REMSYN082AAXX  22184 04201 45/84 /2902 11082 21145 30063 40088 57001 333 11067 21097 91214;
0101042010999992000102221004+77470-069220FM-12+001999999V0203401N001519999999N0250001N1-00801-01411100841ADDMA1999999100591MD1710041+9999REMSYN060AAXX  22214 04201 45/75 /3403 11080 21141 30059 40084 57004;
0101042010999992000102300004+77470-069220FM-12+001999999V0200201N000519999999N0300001N1-00801-01361100691ADDMA1999999100451MD1710141+9999REMSYN060AAXX  23004 04201 45/80 /0201 11080 21136 30045 40069 57014;
0101042010999992000102303004+77470-069220FM-12+001999999V0203501N001019999999N0500001N1-00721-01341100481ADDMA1999999100241MD1710211+9999REMSYN060AAXX  23034 04201 45/84 /3502 11072 21134 30024 40048 57021;
0143042010999992000102306004+77470-069220FM-12+001999999V0200801N002619999999N0500001N1-00711-01181100361ADDKA1120M-00651KA2999N-00871MA1999999100121MD1710121+9999REMSYN076AAXX  23064 04201 45/84 /0805 11071 21118 30012 40036 57012 333 11065 21087;
0107042010999992000102309004+77470-069220FM-12+001999999V0200701N002119999999N0050001N1-00721-01041100301ADDMA1999999100061MD1710061+9999REMSYN066AAXX  23094 04201 4//50 /0704 11072 21104 30006 40030 57006 77770;
0107042010999992000102312004+77470-069220FM-12+001999999V0200701N007219999999N0400001N1-00641-00951100211ADDMA1999999099971MD1710091+9999REMSYN066AAXX  23124 04201 4//82 /0714 11064 21095 39997 40021 57009 72470;
0107042010999992000102315004+77470-069220FM-12+001999999V0200801N007219999999N0500001N1-00621-01121100161ADDMA1999999099921MD1710051+9999REMSYN066AAXX  23154 04201 4//84 /0814 11062 21112 39992 40016 57005 72470;
0149042010999992000102318004+77470-069220FM-12+001999999V0200801N008219999999N0500001N1-00611-01191100111ADDKA1120M-00401KA2999N-00761MA1999999099871MD1710051+9999REMSYN082AAXX  23184 04201 4//84 /0816 11061 21119 39987 40011 57005 70070 333 11040 21076;
0107042010999992000102321004+77470-069220FM-12+001999999V0200701N006219999999N0250001N1-00631-01121100141ADDMA1999999099901MD1210031+9999REMSYN066AAXX  23214 04201 4//75 /0712 11063 21112 39990 40014 52003 72270;
0107042010999992000102400004+77470-069220FM-12+001999999V0200801N006219999999N0500001N1-00621-01091100161ADDMA1999999099921MD1210021+9999REMSYN066AAXX  24004 04201 4//84 /0812 11062 21109 39992 40016 52002 70070;
0107042010999992000102403004+77470-069220FM-12+001999999V0200701N004619999999N0042001N1-00731-01061100331ADDMA1999999100091MD1210171+9999REMSYN066AAXX  24034 04201 4//42 /0709 11073 21106 30009 40033 52017 78570;
0149042010999992000102406004+77470-069220FM-12+001999999V0202201N002619999999N0027001N1-00741-00941100381ADDKA1120M-00561KA2999N-00761MA1999999100141MD1210051+9999REMSYN082AAXX  24064 04201 4//27 /2205 11074 21094 30014 40038 52005 78570 333 11056 21076;
0107042010999992000102409004+77470-069220FM-12+001999999V0202101N003619999999N0500001N1-00781-01071100451ADDMA1999999100211MD1210071+9999REMSYN066AAXX  24094 04201 4//84 /2107 11078 21107 30021 40045 52007 72477;
0107042010999992000102412004+77470-069220FM-12+001999999V0203601N001519999999N0060001N1-00881-01191100431ADDMA1999999100191MD1710021+9999REMSYN066AAXX  24124 04201 4//56 /3603 11088 21119 30019 40043 57002 77177;
0107042010999992000102415004+77470-069220FM-12+001999999V0202701N001519999999N0450001N1-00951-01271100441ADDMA1999999100191MD1410001+9999REMSYN066AAXX  24154 04201 4//83 /2703 11095 21127 30019 40044 54000 70077;
0149042010999992000102418004+77470-069220FM-12+001999999V0202901N000519999999N0039001N1-00911-01201100421ADDKA1120M-00731KA2999N-01011MA1999999100171MD1710021+9999REMSYN082AAXX  24184 04201 4//39 /2901 11091 21120 30017 40042 57002 77777 333 11073 21101;
0107042010999992000102421004+77470-069220FM-12+001999999V0200201N000519999999N0240001N1-00951-01231100401ADDMA1999999100151MD1710021+9999REMSYN066AAXX  24214 04201 4//74 /0201 11095 21123 30015 40040 57002 72277;
0107042010999992000102500004+77470-069220FM-12+001999999V0201101N001519999999N0050001N1-00911-01101100301ADDMA1999999100061MD1710091+9999REMSYN066AAXX  25004 04201 4//50 /1103 11091 21110 30006 40030 57009 77177;
0107042010999992000102503004+77470-069220FM-12+001999999V0200901N003619999999N0400001N1-00921-01241100231ADDMA1999999099991MD1710071+9999REMSYN066AAXX  25034 04201 4//82 /0907 11092 21124 39999 40023 57007 72477;
0149042010999992000102506004+77470-069220FM-12+001999999V0200101N002619999999N0500001N1-01041-01491100201ADDKA1120M-00861KA2999N-01161MA1999999099951MD1710041+9999REMSYN082AAXX  25064 04201 4//84 /0105 11104 21149 39995 40020 57004 70077 333 11086 21116;
0101042010999992000102509004+77470-069220FM-12+001999999V0200401N003119999999N0500001N1-01121-01611100211ADDMA1999999099961MD1210011+9999REMSYN060AAXX  25094 04201 45/84 /0406 11112 21161 39996 40021 52001;
0101042010999992000102512004+77470-069220FM-12+001999999V0200601N004119999999N0500001N1-01231-01711100241ADDMA1999999099991MD1210031+9999REMSYN060AAXX  25124 04201 45/84 /0608 11123 21171 39999 40024 52003;
0101042010999992000102515004+77470-069220FM-12+001999999V0200601N004619999999N0500001N1-01171-01681100241ADDMA1999999099991MD1410001+9999REMSYN060AAXX  25154 04201 45/84 /0609 11117 21168 39999 40024 54000;
0143042010999992000102518004+77470-069220FM-12+001999999V0200601N004119999999N0500001N1-01241-01721100261ADDKA1120M-01041KA2999N-01281MA1999999100011MD1210021+9999REMSYN076AAXX  25184 04201 45/84 /0608 11124 21172 30001 40026 52002 333 11104 21128;
0101042010999992000102521004+77470-069220FM-12+001999999V0200601N003619999999N0500001N1-01301-01761100291ADDMA1999999100041MD1210031+9999REMSYN060AAXX  25214 04201 45/84 /0607 11130 21176 30004 40029 52003;
0101042010999992000102600004+77470-069220FM-12+001999999V0200401N003119999999N0500001N1-01321-01781100331ADDMA1999999100081MD1210041+9999REMSYN060AAXX  26004 04201 45/84 /0406 11132 21178 30008 40033 52004;
0101042010999992000102603004+77470-069220FM-12+001999999V0200101N002119999999N0500001N1-01301-01761100351ADDMA1999999100101MD1210021+9999REMSYN060AAXX  26034 04201 45/84 /0104 11130 21176 30010 40035 52002;
0143042010999992000102606004+77470-069220FM-12+001999999V0200101N002119999999N0500001N1-01371-01841100441ADDKA1120M-01151KA2999N-01451MA1999999100191MD1210091+9999REMSYN076AAXX  26064 04201 45/84 /0104 11137 21184 30019 40044 52009 333 11115 21145;
0101042010999992000102609004+77470-069220FM-12+001999999V0200601N003119999999N0500001N1-01401-01891100551ADDMA1999999100301MD1210111+9999REMSYN060AAXX  26094 04201 45/84 /0606 11140 21189 30030 40055 52011;
0101042010999992000102612004+77470-069220FM-12+001999999V0200701N002619999999N0500001N1-01401-01871100581ADDMA1999999100331MD1210031+9999REMSYN060AAXX  26124 04201 45/84 /0705 11140 21187 30033 40058 52003;
0101042010999992000102615004+77470-069220FM-12+001999999V0200701N002619999999N0500001N1-01381-01861100581ADDMA1999999100331MD1410001+9999REMSYN060AAXX  26154 04201 45/84 /0705 11138 21186 30033 40058 54000;
0123042010999992000102618004+77470-069220FM-12+001999999V0200801N002619999999N0500001N1-01421-01841100561ADDKA1120M-01291KA2999N-01451MA1999999100311REMSYN070AAXX  26184 04201 45/84 /0805 11142 21184 30031 40056 333 11129 21145;
0101042010999992000102621004+77470-069220FM-12+001999999V0200101N002119999999N0500001N1-01381-01881100561ADDMA1999999100311MD1410001+9999REMSYN060AAXX  26214 04201 45/84 /0104 11138 21188 30031 40056 54000;
0101042010999992000102700004+77470-069220FM-12+001999999V0200101N001519999999N0500001N1-01491-01981100561ADDMA1999999100311MD1410001+9999REMSYN060AAXX  27004 04201 45/84 /0103 11149 21198 30031 40056 54000;
0101042010999992000102703004+77470-069220FM-12+001999999V0200801N005719999999N0500001N1-01401-01861100571ADDMA1999999100321MD1210011+9999REMSYN060AAXX  27034 04201 45/84 /0811 11140 21186 30032 40057 52001;
0101042010999992000102709004+77470-069220FM-12+001999999V0200801N006219999999N0500001N1-01301-01821100821ADDMA1999999100571MD1210161+9999REMSYN060AAXX  27094 04201 45/84 /0812 11130 21182 30057 40082 52016;
0101042010999992000102712004+77470-069220FM-12+001999999V0200901N009319999999N0500001N1-01221-01651101001ADDMA1999999100751MD1210181+9999REMSYN060AAXX  27124 04201 45/84 /0918 11122 21165 30075 40100 52018;
0101042010999992000102715004+77470-069220FM-12+001999999V0200801N010319999999N0110001N1-01101-01681101031ADDMA1999999100781MD1210031+9999REMSYN060AAXX  27154 04201 45/61 /0820 11110 21168 30078 40103 52003;
0143042010999992000102718004+77470-069220FM-12+001999999V0200901N008219999999N0300001N1-00971-01481101021ADDKA1120M-00961KA2999N-01511MA1999999100771MD1710011+9999REMSYN076AAXX  27184 04201 45/80 /0916 11097 21148 30077 40102 57001 333 11096 21151;
0107042010999992000102721004+77470-069220FM-12+001999999V0201101N006219999999N0090001N1-00871-01151101031ADDMA1999999100781MD1210011+9999REMSYN066AAXX  27214 04201 4//59 /1112 11087 21115 30078 40103 52001 77770;
0107042010999992000102800004+77470-069220FM-12+001999999V0200801N006219999999N0027001N1-00861-01201100981ADDMA1999999100731MD1710051+9999REMSYN066AAXX  28004 04201 4//27 /0812 11086 21120 30073 40098 57005 77770;
0107042010999992000102803004+77470-069220FM-12+001999999V0200701N007219999999N0500001N1-00851-01331100971ADDMA1999999100721MD1710011+9999REMSYN066AAXX  28034 04201 4//84 /0714 11085 21133 30072 40097 57001 72477;
0149042010999992000102806004+77470-069220FM-12+001999999V0200801N008719999999N0450001N1-00921-01411101001ADDKA1120M-00801KA2999N-01161MA1999999100751MD1210031+9999REMSYN082AAXX  28064 04201 4//83 /0817 11092 21141 30075 40100 52003 70077 333 11080 21116;
0107042010999992000102809004+77470-069220FM-12+001999999V0200801N009319999999N0240001N1-00951-01451101051ADDMA1999999100801MD1210051+9999REMSYN066AAXX  28094 04201 4//74 /0818 11095 21145 30080 40105 52005 71170;
0107042010999992000102812004+77470-069220FM-12+001999999V0200801N010319999999N0180001N1-00971-01541101061ADDMA1999999100811MD1210011+9999REMSYN066AAXX  28124 04201 4//68 /0820 11097 21154 30081 40106 52001 71170;
0107042010999992000102815004+77470-069220FM-12+001999999V0200901N009819999999N0230001N1-01021-01551101031ADDMA1999999100781MD1710031+9999REMSYN066AAXX  28154 04201 4//73 /0919 11102 21155 30078 40103 57003 77177;
0149042010999992000102818004+77470-069220FM-12+001999999V0200901N009319999999N0450001N1-01031-01551101031ADDKA1120M-00901KA2999N-01041MA1999999100781MD1410001+9999REMSYN082AAXX  28184 04201 4//83 /0918 11103 21155 30078 40103 54000 72477 333 11090 21104;
0101042010999992000102821004+77470-069220FM-12+001999999V0200901N009319999999N0500001N1-01021-01481101021ADDMA1999999100771MD1710011+9999REMSYN060AAXX  28214 04201 45/84 /0918 11102 21148 30077 40102 57001;
0101042010999992000102900004+77470-069220FM-12+001999999V0200901N006219999999N0450001N1-01011-01471101101ADDMA1999999100851MD1210081+9999REMSYN060AAXX  29004 04201 45/83 /0912 11101 21147 30085 40110 52008;
0129042010999992000102906004+77470-069220FM-12+001999999V0200701N006719999999N0260001N1-00971-01501101551ADDKA1120M-00951KA2999N-01101MA1999999101301REMSYN076AAXX  29064 04201 4//76 /0713 11097 21150 30130 40155 71170 333 11095 21110;
0107042010999992000102909004+77470-069220FM-12+001999999V0200801N010819999999N0450001N1-01021-01671101691ADDMA1999999101441MD1210141+9999REMSYN066AAXX  29094 04201 4//83 /0821 11102 21167 30144 40169 52014 72477;
0107042010999992000102912004+77470-069220FM-12+001999999V0200801N008219999999N0500001N1-01161-01801101681ADDMA1999999101431MD1710011+9999REMSYN066AAXX  29124 04201 4//84 /0816 11116 21180 30143 40168 57001 70077;
0101042010999992000102915004+77470-069220FM-12+001999999V0200801N007719999999N0500001N1-01181-01801101591ADDMA1999999101341MD1710091+9999REMSYN060AAXX  29154 04201 45/84 /0815 11118 21180 30134 40159 57009;
0149042010999992000102918004+77470-069220FM-12+001999999V0200701N003119999999N0500001N1-01311-01891101521ADDKA1120M-00941KA2120N-01351MA1999999101271MD1710071+9999REMSYN082AAXX  29184 04201 45/84 /0706 11131 21189 30127 40152 57007 333 11094 21135 91218;
0101042010999992000102921004+77470-069220FM-12+001999999V0200901N000519999999N0500001N1-01321-01881101471ADDMA1999999101221MD1710051+9999REMSYN060AAXX  29214 04201 45/84 /0901 11132 21188 30122 40147 57005;
0101042010999992000103000004+77470-069220FM-12+001999999V0200201N001019999999N0450001N1-01341-02001101431ADDMA1999999101181MD1710041+9999REMSYN060AAXX  30004 04201 45/83 /0202 11134 21200 30118 40143 57004;
0101042010999992000103003004+77470-069220FM-12+001999999V0200801N001019999999N0500001N1-01311-01981101361ADDMA1999999101111MD1710071+9999REMSYN060AAXX  30034 04201 45/84 /0802 11131 21198 30111 40136 57007;
0123042010999992000103006004+77470-069220FM-12+001999999V0203601N001519999999N0500001N1-01361-02021101361ADDKA1120M-01261KA2999N-01401MA1999999101111REMSYN070AAXX  30064 04201 45/84 /3603 11136 21202 30111 40136 333 11126 21140;
0101042010999992000103009004+77470-069220FM-12+001999999V0203401N000519999999N0450001N1-01221-01931101451ADDMA1999999101201MD1210091+9999REMSYN060AAXX  30094 04201 45/83 /3401 11122 21193 30120 40145 52009;
0101042010999992000103012004+77470-069220FM-12+001999999V0200201N001519999999N0500001N1-01321-01991101521ADDMA1999999101271MD1210071+9999REMSYN060AAXX  30124 04201 45/84 /0203 11132 21199 30127 40152 52007;
0101042010999992000103015004+77470-069220FM-12+001999999V0203601N001519999999N0500001N1-01321-02011101611ADDMA1999999101361MD1210091+9999REMSYN060AAXX  30154 04201 45/84 /3603 11132 21201 30136 40161 52009;
0143042010999992000103018004+77470-069220FM-12+001999999V0203601N002119999999N0450001N1-01241-01821101821ADDKA1120M-01151KA2999N-01441MA1999999101571MD1210211+9999REMSYN076AAXX  30184 04201 45/83 /3604 11124 21182 30157 40182 52021 333 11115 21144;
0101042010999992000103021004+77470-069220FM-12+001999999V0200101N002619999999N0500001N1-01201-01651102011ADDMA1999999101761MD1210191+9999REMSYN060AAXX  30214 04201 45/84 /0105 11120 21165 30176 40201 52019;
0101042010999992000103100004+77470-069220FM-12+001999999V0200301N003619999999N0500001N1-01091-01501102151ADDMA1999999101901MD1210141+9999REMSYN060AAXX  31004 04201 45/84 /0307 11109 21150 30190 40215 52014;
0107042010999992000103103004+77470-069220FM-12+001999999V0200901N005719999999N0500001N1-01161-01621102331ADDMA1999999102081MD1210181+9999REMSYN066AAXX  31034 04201 4//84 /0911 11116 21162 30208 40233 52018 72470;
0149042010999992000103106004+77470-069220FM-12+001999999V0200801N005719999999N0450001N1-01191-01741102471ADDKA1120M-01071KA2999N-01301MA1999999102221MD1210141+9999REMSYN082AAXX  31064 04201 4//83 /0811 11119 21174 30222 40247 52014 70070 333 11107 21130;
0101042010999992000103109004+77470-069220FM-12+001999999V0200801N007219999999N0500001N1-01351-01921102591ADDMA1999999102341MD1210121+9999REMSYN060AAXX  31094 04201 45/84 /0814 11135 21192 30234 40259 52012;
0101042010999992000103112004+77470-069220FM-12+001999999V0200801N006719999999N0500001N1-01251-01831102601ADDMA1999999102351MD1210011+9999REMSYN060AAXX  31124 04201 45/84 /0813 11125 21183 30235 40260 52001;
0111042010999992000103115004+77470-069220FM-12+001999999V0200901N006219999999N0500001N1-01111-01691102631ADDMA1999999102381MD1210031+9999REMSYN070AAXX  31154 04201 45/84 /0912 11111 21169 30238 40263 52003 333 91119;
0149042010999992000103118004+77470-069220FM-12+001999999V0200701N004619999999N0500001N1-01001-01541102681ADDKA1120M-00951KA2120N-01441MA1999999102431MD1210051+9999REMSYN082AAXX  31184 04201 45/84 /0709 11100 21154 30243 40268 52005 333 11095 21144 91119;
0101042010999992000103121004+77470-069220FM-12+001999999V0200601N004619999999N0500001N1-00961-01501102701ADDMA1999999102451MD1210021+9999REMSYN060AAXX  31214 04201 45/84 /0609 11096 21150 30245 40270 52002;
0107042010999992000110100004+77470-069220FM-12+001999999V0200801N005119999999N0500001N1-00971-01491102721ADDMA1999999102471MD1210021+9999REMSYN066AAXX  01004 04201 4//84 /0810 11097 21149 30247 40272 52002 72470;
0101042010999992000110103004+77470-069220FM-12+001999999V0200801N003619999999N0500001N1-00941-01521102671ADDMA1999999102421MD1710051+9999REMSYN060AAXX  01034 04201 45/84 /0807 11094 21152 30242 40267 57005;
0149042010999992000110106004+77470-069220FM-12+001999999V0200801N006219999999N0070001N1-00891-01341102601ADDKA1120M-00881KA2999N-01161MA1999999102351MD1710071+9999REMSYN082AAXX  01064 04201 4//57 /0812 11089 21134 30235 40260 57007 71170 333 11088 21116;
0107042010999992000110109004+77470-069220FM-12+001999999V0200801N006719999999N0049001N1-00871-01321102581ADDMA1999999102331MD1710021+9999REMSYN066AAXX  01094 04201 4//49 /0813 11087 21132 30233 40258 57002 71177;
0107042010999992000110112004+77470-069220FM-12+001999999V0200801N004119999999N0450001N1-00861-01351102501ADDMA1999999102251MD1710081+9999REMSYN066AAXX  01124 04201 4//83 /0808 11086 21135 30225 40250 57008 70077;
0101042010999992000110115004+77470-069220FM-12+001999999V0200501N002119999999N0500001N1-00921-01431102411ADDMA1999999102161MD1710091+9999REMSYN060AAXX  01154 04201 45/84 /0504 11092 21143 30216 40241 57009;
0143042010999992000110118004+77470-069220FM-12+001999999V0203501N002119999999N0500001N1-00931-01431102241ADDKA1120M-00831KA2999N-00981MA1999999101991MD1710171+9999REMSYN076AAXX  01184 04201 45/84 /3504 11093 21143 30199 40224 57017 333 11083 21098;
0101042010999992000110121004+77470-069220FM-12+001999999V0200201N001019999999N0450001N1-01001-01481102131ADDMA1999999101881MD1710111+9999REMSYN060AAXX  01214 04201 45/83 /0202 11100 21148 30188 40213 57011;
0101042010999992000110200004+77470-069220FM-12+001999999V0200601N002119999999N0500001N1-00961-01501101961ADDMA1999999101711MD1710171+9999REMSYN060AAXX  02004 04201 45/84 /0604 11096 21150 30171 40196 57017;
0101042010999992000110203004+77470-069220FM-12+001999999V0202701N000519999999N0500001N1-01041-01531101791ADDMA1999999101541MD1710171+9999REMSYN060AAXX  02034 04201 45/84 /2701 11104 21153 30154 40179 57017;
0143042010999992000110206004+77470-069220FM-12+001999999V0200101N001519999999N0500001N1-01081-01581101631ADDKA1120M-00871KA2999N-01121MA1999999101381MD1710161+9999REMSYN076AAXX  02064 04201 45/84 /0103 11108 21158 30138 40163 57016 333 11087 21112;
0101042010999992000110209004+77470-069220FM-12+001999999V0200201N001519999999N0500001N1-01121-01581101471ADDMA1999999101221MD1710161+9999REMSYN060AAXX  02094 04201 45/84 /0203 11112 21158 30122 40147 57016;
0101042010999992000110212004+77470-069220FM-12+001999999V0200101N002119999999N0500001N1-01091-01491101331ADDMA1999999101081MD1710141+9999REMSYN060AAXX  02124 04201 45/84 /0104 11109 21149 30108 40133 57014;
0101042010999992000110215004+77470-069220FM-12+001999999V0203601N001519999999N0500001N1-01131-01461101181ADDMA1999999100931MD1710151+9999REMSYN060AAXX  02154 04201 45/84 /3603 11113 21146 30093 40118 57015;
0143042010999992000110218004+77470-069220FM-12+001999999V0200101N002119999999N0500001N1-01171-01491101161ADDKA1120M-01061KA2999N-01471MA1999999100911MD1710021+9999REMSYN076AAXX  02184 04201 45/84 /0104 11117 21149 30091 40116 57002 333 11106 21147;
0107042010999992000110221004+77470-069220FM-12+001999999V0200601N003119999999N0500001N1-01221-01511101211ADDMA1999999100961MD1210051+9999REMSYN066AAXX  02214 04201 4//84 /0606 11122 21151 30096 40121 52005 72470;
0107042010999992000110300004+77470-069220FM-12+001999999V0200701N003119999999N0500001N1-01241-01521101301ADDMA1999999101051MD1210091+9999REMSYN066AAXX  03004 04201 4//84 /0706 11124 21152 30105 40130 52009 72470;
0101042010999992000110303004+77470-069220FM-12+001999999V0203601N001019999999N0500001N1-01291-01641101391ADDMA1999999101141MD1210091+9999REMSYN060AAXX  03034 04201 45/84 /3602 11129 21164 30114 40139 52009;
0123042010999992000110306004+77470-069220FM-12+001999999V0200601N004619999999N0500001N1-01281-01701101471ADDKA1120M-01181KA2999N-01311MA1999999101221REMSYN070AAXX  03064 04201 45/84 /0609 11128 21170 30122 40147 333 11118 21131;
0101042010999992000110309004+77470-069220FM-12+001999999V0201101N002119999999N0500001N1-01221-01691101591ADDMA1999999101341MD1210121+9999REMSYN060AAXX  03094 04201 45/84 /1104 11122 21169 30134 40159 52012;
0111042010999992000110312004+77470-069220FM-12+001999999V0201301N001019999999N0500001N1-01351-01791101641ADDMA1999999101391MD1210051+9999REMSYN070AAXX  03124 04201 45/84 /1302 11135 21179 30139 40164 52005 333 91214;
0101042010999992000110315004+77470-069220FM-12+001999999V0203201N001019999999N0500001N1-01261-01751101691ADDMA1999999101441MD1210051+9999REMSYN060AAXX  03154 04201 45/84 /3202 11126 21175 30144 40169 52005;
0143042010999992000110318004+77470-069220FM-12+001999999V0203101N001019999999N0450001N1-01221-01651101811ADDKA1120M-01141KA2999N-01451MA1999999101561MD1210121+9999REMSYN076AAXX  03184 04201 45/83 /3102 11122 21165 30156 40181 52012 333 11114 21145;
0111042010999992000110321004+77470-069220FM-12+001999999V0200901N009319999999N0450001N1-00941-01441101921ADDMA1999999101671MD1210111+9999REMSYN070AAXX  03214 04201 45/83 /0918 11094 21144 30167 40192 52011 333 91121;
0111042010999992000110400004+77470-069220FM-12+001999999V0200801N009819999999N0450001N1-00911-01401102011ADDMA1999999101761MD1210091+9999REMSYN070AAXX  04004 04201 45/83 /0819 11091 21140 30176 40201 52009 333 91121;
0101042010999992000110403004+77470-069220FM-12+001999999V0200901N008719999999N0500001N1-00861-01371102081ADDMA1999999101831MD1210071+9999REMSYN060AAXX  04034 04201 45/84 /0917 11086 21137 30183 40208 52007;
0143042010999992000110406004+77470-069220FM-12+001999999V0200801N009819999999N0450001N1-00871-01341102131ADDKA1120M-00841KA2999N-01241MA1999999101881MD1210051+9999REMSYN076AAXX  04064 04201 45/83 /0819 11087 21134 30188 40213 52005 333 11084 21124;
0101042010999992000110409004+77470-069220FM-12+001999999V0200901N008719999999N0450001N1-00871-01361102201ADDMA1999999101951MD1210071+9999REMSYN060AAXX  04094 04201 45/83 /0917 11087 21136 30195 40220 52007;
0107042010999992000110412004+77470-069220FM-12+001999999V0200801N008719999999N0450001N1-00871-01321102291ADDMA1999999102041MD1210091+9999REMSYN066AAXX  04124 04201 4//83 /0817 11087 21132 30204 40229 52009 72470;
0101042010999992000110415004+77470-069220FM-12+001999999V0200701N009819999999N0500001N1-00871-01351102371ADDMA1999999102121MD1210081+9999REMSYN060AAXX  04154 04201 45/84 /0719 11087 21135 30212 40237 52008;
0143042010999992000110418004+77470-069220FM-12+001999999V0200801N008719999999N0450001N1-00881-01401102411ADDKA1120M-00581KA2999N-01161MA1999999102161MD1210041+9999REMSYN076AAXX  04184 04201 45/83 /0817 11088 21140 30216 40241 52004 333 11058 21116;
0101042010999992000110421004+77470-069220FM-12+001999999V0200801N007719999999N0500001N1-00891-01401102451ADDMA1999999102201MD1210041+9999REMSYN060AAXX  04214 04201 45/84 /0815 11089 21140 30220 40245 52004;
0101042010999992000110500004+77470-069220FM-12+001999999V0200801N007219999999N0450001N1-00911-01411102411ADDMA1999999102161MD1710041+9999REMSYN060AAXX  05004 04201 45/83 /0814 11091 21141 30216 40241 57004;
0101042010999992000110503004+77470-069220FM-12+001999999V0200701N006219999999N0500001N1-01011-01461102331ADDMA1999999102081MD1710081+9999REMSYN060AAXX  05034 04201 45/84 /0712 11101 21146 30208 40233 57008;
0143042010999992000110506004+77470-069220FM-12+001999999V0200801N006719999999N0500001N1-01021-01521102091ADDKA1120M-00861KA2999N-01161MA1999999101841MD1710241+9999REMSYN076AAXX  05064 04201 45/84 /0813 11102 21152 30184 40209 57024 333 11086 21116;
0111042010999992000110509004+77470-069220FM-12+001999999V0203201N001019999999N0500001N1-01091-01601101951ADDMA1999999101701MD1710141+9999REMSYN070AAXX  05094 04201 45/84 /3202 11109 21160 30170 40195 57014 333 91213;
0111042010999992000110512004+77470-069220FM-12+001999999V0203001N001019999999N0500001N1-01041-01561101831ADDMA1999999101581MD1710121+9999REMSYN070AAXX  05124 04201 45/84 /3002 11104 21156 30158 40183 57012 333 91213;
0101042010999992000110515004+77470-069220FM-12+001999999V0203401N001019999999N0450001N1-00911-01501101741ADDMA1999999101491MD1710091+9999REMSYN060AAXX  05154 04201 45/83 /3402 11091 21150 30149 40174 57009;
0143042010999992000110518004+77470-069220FM-12+001999999V0202801N002119999999N0400001N1-00901-01441101601ADDKA1120M-00831KA2999N-01101MA1999999101351MD1710141+9999REMSYN076AAXX  05184 04201 45/82 /2804 11090 21144 30135 40160 57014 333 11083 21110;
0107042010999992000110521004+77470-069220FM-12+001999999V0202301N002119999999N0450001N1-00821-01141101391ADDMA1999999101141MD1710211+9999REMSYN066AAXX  05214 04201 4//83 /2304 11082 21114 30114 40139 57021 70070;
0107042010999992000110600004+77470-069220FM-12+001999999V0203501N002119999999N0100001N1-00671-00931101061ADDMA1999999100821MD1710321+9999REMSYN066AAXX  06004 04201 4//60 /3504 11067 21093 30082 40106 57032 77770;
0107042010999992000110603004+77470-069220FM-12+001999999V0201001N001519999999N0045001N1-00521-00741100781ADDMA1999999100541MD1710281+9999REMSYN066AAXX  06034 04201 4//45 /1003 11052 21074 30054 40078 57028 77177;
0149042010999992000110606004+77470-069220FM-12+001999999V0201301N001019999999N0023001N1-00641-00711100591ADDKA1120M-00431KA2999N-00901MA1999999100351MD1710191+9999REMSYN082AAXX  06064 04201 4//23 /1302 11064 21071 30035 40059 57019 77177 333 11043 21090;
0107042010999992000110609004+77470-069220FM-12+001999999V0202701N001019999999N0450001N1-00511-00641100501ADDMA1999999100261MD1710091+9999REMSYN066AAXX  06094 04201 4//83 /2702 11051 21064 30026 40050 57009 70077;
0107042010999992000110612004+77470-069220FM-12+001999999V0200701N008719999999N0450001N1-00351-00971100481ADDMA1999999100241MD1710021+9999REMSYN066AAXX  06124 04201 4//83 /0717 11035 21097 30024 40048 57002 70077;
0117042010999992000110615004+77470-069220FM-12+001999999V0201201N007719999999N0450001N1-00531-00921100721ADDMA1999999100481MD1210241+9999REMSYN076AAXX  06154 04201 4//83 /1215 11053 21092 30048 40072 52024 70074 333 91130;
0155042010999992000110618004+77470-069220FM-12+001999999V0201001N006219999999N0300001N1-00641-01081100921ADDKA1120M-00041KA2120N-00661MA1999999100681MD1210201+9999REMSYN088AAXX  06184 04201 4//80 /1012 11064 21108 30068 40092 52020 78574 333 11004 21066 91130;
0101042010999992000110621004+77470-069220FM-12+001999999V0200901N009319999999N0400001N1-00741-01281101251ADDMA1999999101001MD1210321+9999REMSYN060AAXX  06214 04201 45/82 /0918 11074 21128 30100 40125 52032;
0101042010999992000110700004+77470-069220FM-12+001999999V0201101N008219999999N0450001N1-00771-01301101301ADDMA1999999101051MD1210051+9999REMSYN060AAXX  07004 04201 45/83 /1116 11077 21130 30105 40130 52005;
0101042010999992000110703004+77470-069220FM-12+001999999V0201101N005719999999N0450001N1-00761-01311101201ADDMA1999999100951MD1710101+9999REMSYN060AAXX  07034 04201 45/83 /1111 11076 21131 30095 40120 57010;
0149042010999992000110706004+77470-069220FM-12+001999999V0200601N005119999999N0050001N1-00701-01251101081ADDKA1120M-00631KA2999N-00801MA1999999100841MD1710111+9999REMSYN082AAXX  07064 04201 4//50 /0610 11070 21125 30084 40108 57011 78570 333 11063 21080;
0117042010999992000110709004+77470-069220FM-12+001999999V0200801N007719999999N0027001N1-00721-01061100841ADDMA1999999100601MD1710241+9999REMSYN076AAXX  07094 04201 4//27 /0815 11072 21106 30060 40084 57024 77177 333 91120;
0117042010999992000110712004+77470-069220FM-12+001999999V0200701N007219999999N0230001N1-00641-01181100641ADDMA1999999100401MD1710201+9999REMSYN076AAXX  07124 04201 4//73 /0714 11064 21118 30040 40064 57020 70077 333 91120;
0117042010999992000110715004+77470-069220FM-12+001999999V0202501N001519999999N0500001N1-00801-01021100501ADDMA1999999100261MD1710141+9999REMSYN076AAXX  07154 04201 4//84 /2503 11080 21102 30026 40050 57014 70074 333 91216;
0155042010999992000110718004+77470-069220FM-12+001999999V0203601N001019999999N0400001N1-01021-01301100431ADDKA1120M-00581KA2120N-01021MA1999999100181MD1710081+9999REMSYN088AAXX  07184 04201 4//82 /3602 11102 21130 30018 40043 57008 70074 333 11058 21102 91216;
0101042010999992000110721004+77470-069220FM-12+001999999V0209999C000019999999N0500001N1-00801-01151100511ADDMA1999999100271MD1210091+9999REMSYN060AAXX  07214 04201 45/84 /0000 11080 21115 30027 40051 52009;
0149042010999992000110806004+77470-069220FM-12+001999999V0202501N000519999999N0014001N1-00871-00911100851ADDKA1120M-00651KA2999N-01021MA1999999100601MD1210151+9999REMSYN082AAXX  08064 04201 4//14 /2501 11087 21091 30060 40085 52015 77177 333 11065 21102;
0107042010999992000110809004+77470-069220FM-12+001999999V0202301N003119999999N0011001N1-00951-01031101071ADDMA1999999100821MD1210221+9999REMSYN066AAXX  08094 04201 4//11 /2306 11095 21103 30082 40107 52022 77177;
0107042010999992000110812004+77470-069220FM-12+001999999V0202301N005719999999N0020001N1-00961-01061101241ADDMA1999999100991MD1210171+9999REMSYN066AAXX  08124 04201 4//20 /2311 11096 21106 30099 40124 52017 77177;
0107042010999992000110815004+77470-069220FM-12+001999999V0202201N006719999999N0048001N1-00981-01141101391ADDMA1999999101141MD1210151+9999REMSYN066AAXX  08154 04201 4//48 /2213 11098 21114 30114 40139 52015 78577;
0155042010999992000110818004+77470-069220FM-12+001999999V0202301N005119999999N0160001N1-00951-01131101551ADDKA1120M-00871KA2120N-01161MA1999999101301MD1210161+9999REMSYN088AAXX  08184 04201 4//66 /2310 11095 21113 30130 40155 52016 78577 333 11087 21116 91115;
0117042010999992000110821004+77470-069220FM-12+001999999V0202701N002619999999N0260001N1-00981-01211101741ADDMA1999999101491MD1210191+9999REMSYN076AAXX  08214 04201 4//76 /2705 11098 21121 30149 40174 52019 70070 333 91217;
0107042010999992000110900004+77470-069220FM-12+001999999V0202301N007719999999N0160001N1-00971-01181101881ADDMA1999999101631MD1210141+9999REMSYN066AAXX  09004 04201 4//66 /2315 11097 21118 30163 40188 52014 77170;
0107042010999992000110903004+77470-069220FM-12+001999999V0202101N005719999999N0180001N1-01001-01221102001ADDMA1999999101751MD1210121+9999REMSYN066AAXX  09034 04201 4//68 /2111 11100 21122 30175 40200 52012 71177;
0149042010999992000110906004+77470-069220FM-12+001999999V0202301N006219999999N0045001N1-01011-01221102131ADDKA1120M-00941KA2999N-01161MA1999999101881MD1210131+9999REMSYN082AAXX  09064 04201 4//45 /2312 11101 21122 30188 40213 52013 71177 333 11094 21116;
0107042010999992000110909004+77470-069220FM-12+001999999V0202301N003119999999N0009001N1-01071-01181102281ADDMA1999999102031MD1210151+9999REMSYN066AAXX  09094 04201 4//09 /2306 11107 21118 30203 40228 52015 77177;
0107042010999992000110912004+77470-069220FM-12+001999999V0202901N003119999999N0060001N1-01161-01321102411ADDMA1999999102161MD1210131+9999REMSYN066AAXX  09124 04201 4//56 /2906 11116 21132 30216 40241 52013 77777;
0149042010999992000110918004+77470-069220FM-12+001999999V0202801N003619999999N0090001N1-01231-01381102781ADDKA1120M-01011KA2999N-01231MA1999999102531MD1210191+9999REMSYN082AAXX  09184 04201 4//59 /2807 11123 21138 30253 40278 52019 77177 333 11101 21123;
0107042010999992000110921004+77470-069220FM-12+001999999V0203101N002619999999N0026001N1-01251-01411102961ADDMA1999999102711MD1210181+9999REMSYN066AAXX  09214 04201 4//26 /3105 11125 21141 30271 40296 52018 77177;
0107042010999992000111000004+77470-069220FM-12+001999999V0200901N005119999999N0047001N1-01111-01351103101ADDMA1999999102851MD1210141+9999REMSYN066AAXX  10004 04201 4//47 /0910 11111 21135 30285 40310 52014 77177;
0107042010999992000111003004+77470-069220FM-12+001999999V0201501N005119999999N0500001N1-01061-01661103241ADDMA1999999102991MD1210141+9999REMSYN066AAXX  10034 04201 4//84 /1510 11106 21166 30299 40324 52014 70077;
0149042010999992000111006004+77470-069220FM-12+001999999V0200801N008219999999N0050001N1-01111-01451103321ADDKA1120M-01051KA2999N-01341MA1999999103071MD1210081+9999REMSYN082AAXX  10064 04201 4//50 /0816 11111 21145 30307 40332 52008 72477 333 11105 21134;
0107042010999992000111009004+77470-069220FM-12+001999999V0200701N006219999999N0500001N1-01141-01521103361ADDMA1999999103111MD1210041+9999REMSYN066AAXX  10094 04201 4//84 /0712 11114 21152 30311 40336 52004 70071;
0107042010999992000111012004+77470-069220FM-12+001999999V0200701N005719999999N0450001N1-01141-01711103331ADDMA1999999103081MD1710031+9999REMSYN066AAXX  10124 04201 4//83 /0711 11114 21171 30308 40333 57003 70071;
0101042010999992000111015004+77470-069220FM-12+001999999V0200701N007719999999N0500001N1-01071-01671103221ADDMA1999999102971MD1710111+9999REMSYN060AAXX  10154 04201 45/84 /0715 11107 21167 30297 40322 57011;
0143042010999992000111018004+77470-069220FM-12+001999999V0200801N007219999999N0350001N1-01021-01591103101ADDKA1120M-00931KA2999N-01241MA1999999102851MD1710121+9999REMSYN076AAXX  10184 04201 45/81 /0814 11102 21159 30285 40310 57012 333 11093 21124;
0101042010999992000111021004+77470-069220FM-12+001999999V0200901N007219999999N0400001N1-00981-01651102941ADDMA1999999102691MD1710161+9999REMSYN060AAXX  10214 04201 45/82 /0914 11098 21165 30269 40294 57016;
0101042010999992000111100004+77470-069220FM-12+001999999V0201001N007219999999N0300001N1-00961-01601102681ADDMA1999999102431MD1710261+9999REMSYN060AAXX  11004 04201 45/80 /1014 11096 21160 30243 40268 57026;
0111042010999992000111103004+77470-069220FM-12+001999999V0203601N001519999999N0500001N1-00971-01651102411ADDMA1999999102161MD1710271+9999REMSYN070AAXX  11034 04201 45/84 /3603 11097 21165 30216 40241 57027 333 91216;
0143042010999992000111106004+77470-069220FM-12+001999999V0201001N005719999999N0450001N1-00821-01581102051ADDKA1120M-00801KA2999N-01091MA1999999101801MD1710361+9999REMSYN076AAXX  11064 04201 45/83 /1011 11082 21158 30180 40205 57036 333 11080 21109;
0101042010999992000111109004+77470-069220FM-12+001999999V0201101N007719999999N0400001N1-00861-01391101741ADDMA1999999101491MD1710311+9999REMSYN060AAXX  11094 04201 45/82 /1115 11086 21139 30149 40174 57031;
0101042010999992000111112004+77470-069220FM-12+001999999V0200801N007719999999N0270001N1-00641-01351101451ADDMA1999999101201MD1710291+9999REMSYN060AAXX  11124 04201 45/77 /0815 11064 21135 30120 40145 57029;
0117042010999992000111115004+77470-069220FM-12+001999999V0200801N009319999999N0090001N1-00561-01211101191ADDMA1999999100951MD1710251+9999REMSYN076AAXX  11154 04201 4//59 /0818 11056 21121 30095 40119 57025 72470 333 91126;
0172042010999992000111118004+77470-069220FM-12+001999999V0200801N013419999999N0010001N1-00531-01241100811ADDKA1120M-00511KA2120N-00871MA1999999100571MD1710381+9999OA149901901REMSYN094AAXX  11184 04201 4//10 /0826 11053 21124 30057 40081 57038 78570 333 11051 21087 91137 91037;
0134042010999992000111121004+77470-069220FM-12+001999999V0200701N011819999999N0039001N1-00551-01301100561ADDMA1999999100321MD1710251+9999OA149902161REMSYN082AAXX  11214 04201 4//39 /0723 11055 21130 30032 40056 57025 72477 333 91142 91034;
0117042010999992000111200004+77470-069220FM-12+001999999V0200801N014419999999N0080001N1-00501-01301100181ADDMA1999999099941MD1710381+9999REMSYN076AAXX  12004 04201 4//58 /0828 11050 21130 39994 40018 57038 70077 333 91142;
0134042010999992000111203004+77470-069220FM-12+001999999V0200701N011319999999N0450001N1-00531-01321099931ADDMA1999999099691MD1710251+9999OA149902011REMSYN082AAXX  12034 04201 4//83 /0722 11053 21132 39969 49993 57025 70074 333 91139 91035;
0172042010999992000111206004+77470-069220FM-12+001999999V0202001N007219999999N0260001N1-00811-01211099921ADDKA1120M-00301KA2120N-00931MA1999999099681MD1710011+9999OA149902011REMSYN094AAXX  12064 04201 4//76 /2014 11081 21121 39968 49992 57001 70074 333 11030 21093 91139 91229;
0140042010999992000111209004+77470-069220FM-12+001999999V0202401N007219999999N0180001N1-01041-01331100641ADDMA1999999100391MD1210711+9999OA149901601REMSYN088AAXX  12094 04201 4//68 /2414 11104 21133 30039 40064 52071 72270 333 91131 91024 91226;
0117042010999992000111212004+77470-069220FM-12+001999999V0201901N010819999999N0300001N1-01311-01731101451ADDMA1999999101201MD1210811+9999REMSYN076AAXX  12124 04201 4//80 /1921 11131 21173 30120 40145 52081 70070 333 91131;
0111042010999992000111215004+77470-069220FM-12+001999999V0201801N008219999999N0450001N1-01431-01911102141ADDMA1999999101891MD1210691+9999REMSYN070AAXX  12154 04201 45/83 /1816 11143 21191 30189 40214 52069 333 91128;
0166042010999992000111218004+77470-069220FM-12+001999999V0201601N004619999999N0450001N1-01521-02081102431ADDKA1120M-00721KA2120N-01531MA1999999102171MD1210281+9999OA149901441REMSYN088AAXX  12184 04201 45/83 /1609 11152 21208 30217 40243 52028 333 11072 21153 91128 91222;
0111042010999992000111221004+77470-069220FM-12+001999999V0201701N002619999999N0450001N1-01511-02051102281ADDMA1999999102021MD1710151+9999REMSYN070AAXX  12214 04201 45/83 /1705 11151 21205 30202 40228 57015 333 91216;
0101042010999992000111300004+77470-069220FM-12+001999999V0201101N003119999999N0100001N1-01391-01981101931ADDMA1999999101681MD1710341+9999REMSYN060AAXX  13004 04201 45/60 /1106 11139 21198 30168 40193 57034;
0107042010999992000111303004+77470-069220FM-12+001999999V0200401N001519999999N0021001N1-01411-01731101691ADDMA1999999101441MD1710241+9999REMSYN066AAXX  13034 04201 4//21 /0403 11141 21173 30144 40169 57024 77770;
0149042010999992000111318004+77470-069220FM-12+001999999V0200801N013919999999N0070001N1-01151-01741100481ADDKA1120M-01131KA2999N-01261MA1999999100231MD1710271+9999REMSYN082AAXX  13184 04201 4//57 /0827 11115 21174 30023 40048 57027 78571 333 11113 21126;
0117042010999992000111321004+77470-069220FM-12+001999999V0200801N010819999999N0450001N1-01011-01641100261ADDMA1999999100011MD1710221+9999REMSYN076AAXX  13214 04201 4//83 /0821 11101 21164 30001 40026 57022 72471 333 91132;
0117042010999992000111400004+77470-069220FM-12+001999999V0200801N009819999999N0039001N1-00951-01351100031ADDMA1999999099791MD1710221+9999REMSYN076AAXX  14004 04201 4//39 /0819 11095 21135 39979 40003 57022 77771 333 91132;
0107042010999992000111403004+77470-069220FM-12+001999999V0200801N008719999999N0450001N1-00911-01441099921ADDMA1999999099681MD1710111+9999REMSYN066AAXX  14034 04201 4//83 /0817 11091 21144 39968 49992 57011 70077;
0149042010999992000111406004+77470-069220FM-12+001999999V0200801N008219999999N0500001N1-00841-01371099831ADDKA1120M-00581KA2999N-01161MA1999999099591MD1710091+9999REMSYN082AAXX  14064 04201 4//84 /0816 11084 21137 39959 49983 57009 70077 333 11058 21116;
0107042010999992000111409004+77470-069220FM-12+001999999V0200701N007219999999N0060001N1-00891-01301099861ADDMA1999999099621MD1210031+9999REMSYN066AAXX  14094 04201 4//56 /0714 11089 21130 39962 49986 52003 71010;
0107042010999992000111412004+77470-069220FM-12+001999999V0200801N007719999999N0450001N1-00881-01351099891ADDMA1999999099651MD1210031+9999REMSYN066AAXX  14124 04201 4//83 /0815 11088 21135 39965 49989 52003 70010;
0101042010999992000111415004+77470-069220FM-12+001999999V0200801N006219999999N0450001N1-00901-01391099981ADDMA1999999099741MD1210091+9999REMSYN060AAXX  14154 04201 45/83 /0812 11090 21139 39974 49998 52009;
0081042010999992000111500004+77470-069220FM-12+001999999V0200701N006719999999N0500001N1-01081-01601100131ADDMA1999999099881REMSYN054AAXX  15004 04201 45/84 /0713 11108 21160 39988 40013;
0101042010999992000111503004+77470-069220FM-12+001999999V0200801N006719999999N0450001N1-01141-01681100121ADDMA1999999099871MD1710011+9999REMSYN060AAXX  15034 04201 45/83 /0813 11114 21168 39987 40012 57001;
0143042010999992000111506004+77470-069220FM-12+001999999V0200801N007719999999N0450001N1-01231-01781100201ADDKA1120M-00961KA2999N-01231MA1999999099951MD1210081+9999REMSYN076AAXX  15064 04201 45/83 /0815 11123 21178 39995 40020 52008 333 11096 21123;
0101042010999992000111509004+77470-069220FM-12+001999999V0200801N008219999999N0500001N1-01221-01841100391ADDMA1999999100141MD1210191+9999REMSYN060AAXX  15094 04201 45/84 /0816 11122 21184 30014 40039 52019;
0101042010999992000111512004+77470-069220FM-12+001999999V0200801N009319999999N0500001N1-01241-01811100621ADDMA1999999100371MD1210231+9999REMSYN060AAXX  15124 04201 45/84 /0818 11124 21181 30037 40062 52023;
0101042010999992000111515004+77470-069220FM-12+001999999V0200901N008219999999N0500001N1-01161-01771100871ADDMA1999999100621MD1210251+9999REMSYN060AAXX  15154 04201 45/84 /0916 11116 21177 30062 40087 52025;
0149042010999992000111518004+77470-069220FM-12+001999999V0200901N007719999999N0150001N1-01101-01551101011ADDKA1120M-01091KA2999N-01261MA1999999100761MD1210141+9999REMSYN082AAXX  15184 04201 4//65 /0915 11110 21155 30076 40101 52014 71170 333 11109 21126;
0107042010999992000111521004+77470-069220FM-12+001999999V0200901N007219999999N0050001N1-01061-01381101181ADDMA1999999100931MD1210171+9999REMSYN066AAXX  15214 04201 4//50 /0914 11106 21138 30093 40118 52017 77170;
0107042010999992000111600004+77470-069220FM-12+001999999V0200801N007219999999N0090001N1-01041-01371101331ADDMA1999999101081MD1210151+9999REMSYN066AAXX  16004 04201 4//59 /0814 11104 21137 30108 40133 52015 77170;
0117042010999992000111603004+77470-069220FM-12+001999999V0201501N001519999999N0080001N1-01081-01381101421ADDMA1999999101171MD1210091+9999REMSYN076AAXX  16034 04201 4//58 /1503 11108 21138 30117 40142 52009 77777 333 91214;
0155042010999992000111606004+77470-069220FM-12+001999999V0203001N001019999999N0120001N1-01171-01501101511ADDKA1120M-01011KA2120N-01181MA1999999101261MD1210091+9999REMSYN088AAXX  16064 04201 4//62 /3002 11117 21150 30126 40151 52009 77777 333 11101 21118 91214;
0107042010999992000111609004+77470-069220FM-12+001999999V0200901N005719999999N0350001N1-01191-01581101641ADDMA1999999101391MD1210131+9999REMSYN066AAXX  16094 04201 4//81 /0911 11119 21158 30139 40164 52013 71177;
0107042010999992000111612004+77470-069220FM-12+001999999V0200901N007219999999N0450001N1-01241-01701101751ADDMA1999999101501MD1210111+9999REMSYN066AAXX  16124 04201 4//83 /0914 11124 21170 30150 40175 52011 70077;
0101042010999992000111615004+77470-069220FM-12+001999999V0200901N006719999999N0450001N1-01231-01771101931ADDMA1999999101681MD1210181+9999REMSYN060AAXX  16154 04201 45/83 /0913 11123 21177 30168 40193 52018;
0149042010999992000111618004+77470-069220FM-12+001999999V0200801N008219999999N0039001N1-01241-01671102091ADDKA1120M-01151KA2999N-01261MA1999999101841MD1210161+9999REMSYN082AAXX  16184 04201 4//39 /0816 11124 21167 30184 40209 52016 71170 333 11115 21126;
0107042010999992000111621004+77470-069220FM-12+001999999V0200801N009319999999N0013001N1-01241-01581102281ADDMA1999999102031MD1210191+9999REMSYN066AAXX  16214 04201 4//13 /0818 11124 21158 30203 40228 52019 77777;
0107042010999992000111700004+77470-069220FM-12+001999999V0200801N008719999999N0030001N1-01241-01541102411ADDMA1999999102161MD1210131+9999REMSYN066AAXX  17004 04201 4//30 /0817 11124 21154 30216 40241 52013 71177;
0107042010999992000111703004+77470-069220FM-12+001999999V0200801N009819999999N0016001N1-01271-01511102471ADDMA1999999102221MD1210061+9999REMSYN066AAXX  17034 04201 4//16 /0819 11127 21151 30222 40247 52006 77777;
0149042010999992000111706004+77470-069220FM-12+001999999V0200901N010319999999N0012001N1-01281-01601102501ADDKA1120M-01151KA2999N-01301MA1999999102251MD1210031+9999REMSYN082AAXX  17064 04201 4//12 /0920 11128 21160 30225 40250 52003 71177 333 11115 21130;
0107042010999992000111709004+77470-069220FM-12+001999999V0200801N008719999999N0300001N1-01331-01761102421ADDMA1999999102171MD1710081+9999REMSYN066AAXX  17094 04201 4//80 /0817 11133 21176 30217 40242 57008 70077;
0107042010999992000111712004+77470-069220FM-12+001999999V0200801N008719999999N0500001N1-01371-01831102201ADDMA1999999101951MD1710221+9999REMSYN066AAXX  17124 04201 4//84 /0817 11137 21183 30195 40220 57022 70077;
0101042010999992000111715004+77470-069220FM-12+001999999V0200801N007219999999N0500001N1-01451-01851101991ADDMA1999999101741MD1710211+9999REMSYN060AAXX  17154 04201 45/84 /0814 11145 21185 30174 40199 57021;
0143042010999992000111718004+77470-069220FM-12+001999999V0200901N005119999999N0500001N1-01501-01921101741ADDKA1120M-01281KA2999N-01611MA1999999101491MD1710251+9999REMSYN076AAXX  17184 04201 45/84 /0910 11150 21192 30149 40174 57025 333 11128 21161;
0101042010999992000111721004+77470-069220FM-12+001999999V0201001N004119999999N0500001N1-01581-02011101591ADDMA1999999101341MD1710151+9999REMSYN060AAXX  17214 04201 45/84 /1008 11158 21201 30134 40159 57015;
0101042010999992000111800004+77470-069220FM-12+001999999V0200901N004619999999N0450001N1-01621-02051101501ADDMA1999999101251MD1710091+9999REMSYN060AAXX  18004 04201 45/83 /0909 11162 21205 30125 40150 57009;
0101042010999992000111803004+77470-069220FM-12+001999999V0200801N003119999999N0500001N1-01621-02061101391ADDMA1999999101141MD1710111+9999REMSYN060AAXX  18034 04201 45/84 /0806 11162 21206 30114 40139 57011;
0143042010999992000111806004+77470-069220FM-12+001999999V0200801N004619999999N0500001N1-01591-02161101291ADDKA1120M-01501KA2999N-01721MA1999999101041MD1710101+9999REMSYN076AAXX  18064 04201 45/84 /0809 11159 21216 30104 40129 57010 333 11150 21172;
0101042010999992000111809004+77470-069220FM-12+001999999V0200801N004119999999N0500001N1-01651-02181101191ADDMA1999999100941MD1710101+9999REMSYN060AAXX  18094 04201 45/84 /0808 11165 21218 30094 40119 57010;
0101042010999992000111812004+77470-069220FM-12+001999999V0203501N001519999999N0500001N1-01701-02171101161ADDMA1999999100911MD1710031+9999REMSYN060AAXX  18124 04201 45/84 /3503 11170 21217 30091 40116 57003;
0101042010999992000111815004+77470-069220FM-12+001999999V0200501N001519999999N0500001N1-01711-02181101231ADDMA1999999100981MD1210071+9999REMSYN060AAXX  18154 04201 45/84 /0503 11171 21218 30098 40123 52007;
0143042010999992000111818004+77470-069220FM-12+001999999V0200801N006219999999N0500001N1-01721-02191101351ADDKA1120M-01561KA2999N-01851MA1999999101091MD1210111+9999REMSYN076AAXX  18184 04201 45/84 /0812 11172 21219 30109 40135 52011 333 11156 21185;
0101042010999992000111821004+77470-069220FM-12+001999999V0200801N004119999999N0500001N1-01771-02291101391ADDMA1999999101131MD1210041+9999REMSYN060AAXX  18214 04201 45/84 /0808 11177 21229 30113 40139 52004;
0111042010999992000111900004+77470-069220FM-12+001999999V0201501N000519999999N0500001N1-01691-02241101241ADDMA1999999100991MD1710141+9999REMSYN070AAXX  19004 04201 45/84 /1501 11169 21224 30099 40124 57014 333 91216;
0101042010999992000111903004+77470-069220FM-12+001999999V0203401N000519999999N0500001N1-01671-02171100981ADDMA1999999100731MD1710261+9999REMSYN060AAXX  19034 04201 45/84 /3401 11167 21217 30073 40098 57026;
0143042010999992000111906004+77470-069220FM-12+001999999V0203601N001019999999N0450001N1-01631-02161100731ADDKA1120M-01601KA2999N-01831MA1999999100481MD1710251+9999REMSYN076AAXX  19064 04201 45/83 /3602 11163 21216 30048 40073 57025 333 11160 21183;
0101042010999992000111909004+77470-069220FM-12+001999999V0200301N000519999999N0500001N1-01671-02181100471ADDMA1999999100221MD1710261+9999REMSYN060AAXX  19094 04201 45/84 /0301 11167 21218 30022 40047 57026;
0101042010999992000111912004+77470-069220FM-12+001999999V0200301N000519999999N0500001N1-01511-02091100291ADDMA1999999100041MD1710181+9999REMSYN060AAXX  19124 04201 45/84 /0301 11151 21209 30004 40029 57018;
0101042010999992000111915004+77470-069220FM-12+001999999V0201001N000519999999N0500001N1-01491-02081100101ADDMA1999999099851MD1710191+9999REMSYN060AAXX  19154 04201 45/84 /1001 11149 21208 39985 40010 57019;
0143042010999992000111918004+77470-069220FM-12+001999999V0203301N001019999999N0500001N1-01431-02051099881ADDKA1120M-01381KA2999N-01751MA1999999099631MD1710221+9999REMSYN076AAXX  19184 04201 45/84 /3302 11143 21205 39963 49988 57022 333 11138 21175;
0101042010999992000111921004+77470-069220FM-12+001999999V0203101N002619999999N0500001N1-01431-01781099671ADDMA1999999099421MD1710211+9999REMSYN060AAXX  19214 04201 45/84 /3105 11143 21178 39942 49967 57021;
0101042010999992000112000004+77470-069220FM-12+001999999V0201101N002119999999N0500001N1-01371-01921099661ADDMA1999999099411MD1710011+9999REMSYN060AAXX  20004 04201 45/84 /1104 11137 21192 39941 49966 57001;
0101042010999992000112003004+77470-069220FM-12+001999999V0200801N004119999999N0500001N1-01231-01561099701ADDMA1999999099451MD1210041+9999REMSYN060AAXX  20034 04201 45/84 /0808 11123 21156 39945 49970 52004;
0143042010999992000112006004+77470-069220FM-12+001999999V0203201N000519999999N0500001N1-01341-01781099781ADDKA1120M-01151KA2999N-01601MA1999999099531MD1210081+9999REMSYN076AAXX  20064 04201 45/84 /3201 11134 21178 39953 49978 52008 333 11115 21160;
0101042010999992000112009004+77470-069220FM-12+001999999V0200101N001519999999N0500001N1-01331-01791099931ADDMA1999999099681MD1210151+9999REMSYN060AAXX  20094 04201 45/84 /0103 11133 21179 39968 49993 52015;
0101042010999992000112012004+77470-069220FM-12+001999999V0203101N002119999999N0400001N1-01251-01571100121ADDMA1999999099871MD1210191+9999REMSYN060AAXX  20124 04201 45/82 /3104 11125 21157 39987 40012 52019;
0068042010999992000112015004+77470-069220FM-12+001999999V0200501N002119999999N0500001N1-01241+99999999999REMSYN059AAXX  20154 04201 45/84 /0504 11124 2158 30005 40030 52018;
0143042010999992000112018004+77470-069220FM-12+001999999V0200701N000519999999N0500001N1-01171-01461100391ADDKA1120M-01151KA2999N-01351MA1999999100141MD1210091+9999REMSYN076AAXX  20184 04201 45/84 /0701 11117 21146 30014 40039 52009 333 11115 21135;
0101042010999992000112021004+77470-069220FM-12+001999999V0203301N001519999999N0500001N1-01211-01541100521ADDMA1999999100271MD1210131+9999REMSYN060AAXX  20214 04201 45/84 /3303 11121 21154 30027 40052 52013;
0081042010999992000112100004+77470-069220FM-12+001999999V0203301N000519999999N0500001N1-01311-01611100691ADDMA1999999100441REMSYN054AAXX  21004 04201 45/84 /3301 11131 21161 30044 40069;
0101042010999992000112103004+77470-069220FM-12+001999999V0200801N004119999999N0450001N1-01221-01491100751ADDMA1999999100501MD1210061+9999REMSYN060AAXX  21034 04201 45/83 /0808 11122 21149 30050 40075 52006;
0143042010999992000112106004+77470-069220FM-12+001999999V0203201N002119999999N0450001N1-01101-01511100791ADDKA1120M-01051KA2999N-01311MA1999999100541MD1210041+9999REMSYN076AAXX  21064 04201 45/83 /3204 11110 21151 30054 40079 52004 333 11105 21131;
0101042010999992000112109004+77470-069220FM-12+001999999V0203201N000519999999N0500001N1-01181-01591100791ADDMA1999999100541MD1410001+9999REMSYN060AAXX  21094 04201 45/84 /3201 11118 21159 30054 40079 54000;
0101042010999992000112112004+77470-069220FM-12+001999999V0203201N001019999999N0500001N1-01031-01431100791ADDMA1999999100541MD1410001+9999REMSYN060AAXX  21124 04201 45/84 /3202 11103 21143 30054 40079 54000;
0101042010999992000112115004+77470-069220FM-12+001999999V0209999C000019999999N0500001N1-01051-01381100761ADDMA1999999100511MD1710031+9999REMSYN060AAXX  21154 04201 45/84 /0000 11105 21138 30051 40076 57003;
0143042010999992000112118004+77470-069220FM-12+001999999V0209999C000019999999N0350001N1-01041-01291100691ADDKA1120M-00951KA2999N-01191MA1999999100441MD1710071+9999REMSYN076AAXX  21184 04201 45/81 /0000 11104 21129 30044 40069 57007 333 11095 21119;
0101042010999992000112121004+77470-069220FM-12+001999999V0201101N001519999999N0500001N1-00951-01181100691ADDMA1999999100441MD1410001+9999REMSYN060AAXX  21214 04201 45/84 /1103 11095 21118 30044 40069 54000;
0107042010999992000112203004+77470-069220FM-12+001999999V0202601N002619999999N0050001N1-00851-01051100701ADDMA1999999100451MD1410001+9999REMSYN066AAXX  22034 04201 4//50 /2605 11085 21105 30045 40070 54000 77170;
0149042010999992000112206004+77470-069220FM-12+001999999V0203301N001019999999N0450001N1-00811-00861100821ADDKA1120M-00681KA2999N-01161MA1999999100571MD1210121+9999REMSYN082AAXX  22064 04201 4//83 /3302 11081 21086 30057 40082 52012 72270 333 11068 21116;
0117042010999992000112212004+77470-069220FM-12+001999999V0200101N001519999999N0450001N1-00391-00891101141ADDMA1999999100901MD1210141+9999REMSYN076AAXX  22124 04201 4//83 /0103 11039 21089 30090 40114 52014 70070 333 91216;
0101042010999992000112215004+77470-069220FM-12+001999999V0202601N002119999999N0450001N1-00711-01171101111ADDMA1999999100861MD1710041+9999REMSYN060AAXX  22154 04201 45/83 /2604 11071 21117 30086 40111 57004;
0149042010999992000112218004+77470-069220FM-12+001999999V0202501N001519999999N0150001N1-00801-00901101111ADDKA1120M-00241KA2999N-00871MA1999999100861MD1410001+9999REMSYN082AAXX  22184 04201 4//65 /2503 11080 21090 30086 40111 54000 70010 333 11024 21087;
0101042010999992000112221004+77470-069220FM-12+001999999V0201001N003119999999N0500001N1-00671-00971101141ADDMA1999999100901MD1210041+9999REMSYN060AAXX  22214 04201 45/84 /1006 11067 21097 30090 40114 52004;
0101042010999992000112300004+77470-069220FM-12+001999999V0200801N004619999999N0500001N1-00561-01081101101ADDMA1999999100861MD1710041+9999REMSYN060AAXX  23004 04201 45/84 /0809 11056 21108 30086 40110 57004;
0107042010999992000112303004+77470-069220FM-12+001999999V0200701N007719999999N0180001N1-00511-00981101021ADDMA1999999100781MD1710081+9999REMSYN066AAXX  23034 04201 4//68 /0715 11051 21098 30078 40102 57008 74040;
0155042010999992000112306004+77470-069220FM-12+001999999V0203001N000519999999N0021001N1-00691-00811101001ADDKA1120M-00431KA2120N-00811MA1999999100761MD1710021+9999REMSYN088AAXX  23064 04201 4//21 /3001 11069 21081 30076 40100 57002 78574 333 11043 21081 91216;
0107042010999992000112309004+77470-069220FM-12+001999999V0202501N002119999999N0043001N1-00921-00991100971ADDMA1999999100721MD1710041+9999REMSYN066AAXX  23094 04201 4//43 /2504 11092 21099 30072 40097 57004 77177;
0107042010999992000112312004+77470-069220FM-12+001999999V0202401N001519999999N0048001N1-00981-01041100971ADDMA1999999100721MD1410001+9999REMSYN066AAXX  23124 04201 4//48 /2403 11098 21104 30072 40097 54000 77177;
0107042010999992000112315004+77470-069220FM-12+001999999V0200401N000519999999N0200001N1-00971-01031100911ADDMA1999999100661MD1710061+9999REMSYN066AAXX  23154 04201 4//70 /0401 11097 21103 30066 40091 57006 71177;
0149042010999992000112318004+77470-069220FM-12+001999999V0202401N003619999999N0023001N1-01031-01121100911ADDKA1120M-00691KA2999N-01031MA1999999100661MD1410001+9999REMSYN082AAXX  23184 04201 4//23 /2407 11103 21112 30066 40091 54000 77177 333 11069 21103;
0107042010999992000112321004+77470-069220FM-12+001999999V0202801N001519999999N0040001N1-01051-01131100921ADDMA1999999100671MD1210011+9999REMSYN066AAXX  23214 04201 4//40 /2803 11105 21113 30067 40092 52001 77177;
0107042010999992000112400004+77470-069220FM-12+001999999V0202401N002119999999N0032001N1-01061-01121100931ADDMA1999999100681MD1210011+9999REMSYN066AAXX  24004 04201 4//32 /2404 11106 21112 30068 40093 52001 77177;
0107042010999992000112403004+77470-069220FM-12+001999999V0203401N001019999999N0036001N1-01101-01201100931ADDMA1999999100681MD1410001+9999REMSYN066AAXX  24034 04201 4//36 /3402 11110 21120 30068 40093 54000 78577;
0149042010999992000112406004+77470-069220FM-12+001999999V0202601N000519999999N0300001N1-01101-01181100931ADDKA1120M-01021KA2999N-01121MA1999999100681MD1410001+9999REMSYN082AAXX  24064 04201 4//80 /2601 11110 21118 30068 40093 54000 72477 333 11102 21112;
0107042010999992000112409004+77470-069220FM-12+001999999V0200201N001019999999N0048001N1-01081-01161100961ADDMA1999999100711MD1210031+9999REMSYN066AAXX  24094 04201 4//48 /0202 11108 21116 30071 40096 52003 78570;
0107042010999992000112412004+77470-069220FM-12+001999999V0202601N000519999999N0090001N1-01111-01191100941ADDMA1999999100691MD1710021+9999REMSYN066AAXX  24124 04201 4//59 /2601 11111 21119 30069 40094 57002 78570;
0107042010999992000112415004+77470-069220FM-12+001999999V0200301N001019999999N0220001N1-01171-01251100911ADDMA1999999100661MD1710031+9999REMSYN066AAXX  24154 04201 4//72 /0302 11117 21125 30066 40091 57003 78574;
0149042010999992000112418004+77470-069220FM-12+001999999V0202201N001019999999N0130001N1-01211-01271100881ADDKA1120M-00871KA2999N-01231MA1999999100631MD1710031+9999REMSYN082AAXX  24184 04201 4//63 /2202 11121 21127 30063 40088 57003 78574 333 11087 21123;
0107042010999992000112421004+77470-069220FM-12+001999999V0202901N001019999999N0050001N1-01221-01281100881ADDMA1999999100631MD1410001+9999REMSYN066AAXX  24214 04201 4//50 /2902 11122 21128 30063 40088 54000 77170;
0107042010999992000112500004+77470-069220FM-12+001999999V0202801N002619999999N0210001N1-01241-01301100841ADDMA1999999100591MD1710041+9999REMSYN066AAXX  25004 04201 4//71 /2805 11124 21130 30059 40084 57004 77170;
0107042010999992000112503004+77470-069220FM-12+001999999V0202901N002119999999N0250001N1-01241-01311100781ADDMA1999999100531MD1710061+9999REMSYN066AAXX  25034 04201 4//75 /2904 11124 21131 30053 40078 57006 78577;
0149042010999992000112506004+77470-069220FM-12+001999999V0202901N003619999999N0028001N1-01261-01341100741ADDKA1120M-01151KA2999N-01441MA1999999100491MD1710041+9999REMSYN082AAXX  25064 04201 4//28 /2907 11126 21134 30049 40074 57004 77177 333 11115 21144;
0107042010999992000112509004+77470-069220FM-12+001999999V0203101N001019999999N0008001N1-01171-01271100781ADDMA1999999100531MD1210041+9999REMSYN066AAXX  25094 04201 4//08 /3102 11117 21127 30053 40078 52004 77177;
0107042010999992000112512004+77470-069220FM-12+001999999V0203101N001019999999N0012001N1-01171-01251100921ADDMA1999999100671MD1210141+9999REMSYN066AAXX  25124 04201 4//12 /3102 11117 21125 30067 40092 52014 77177;
0107042010999992000112515004+77470-069220FM-12+001999999V0201001N002619999999N0450001N1-01201-01341101061ADDMA1999999100811MD1210141+9999REMSYN066AAXX  25154 04201 4//83 /1005 11120 21134 30081 40106 52014 72277;
0149042010999992000112518004+77470-069220FM-12+001999999V0201101N001519999999N0350001N1-01221-01341101211ADDKA1120M-01151KA2999N-01331MA1999999100961MD1210151+9999REMSYN082AAXX  25184 04201 4//81 /1103 11122 21134 30096 40121 52015 78577 333 11115 21133;
0101042010999992000112521004+77470-069220FM-12+001999999V0200501N001019999999N0500001N1-01311-01621101371ADDMA1999999101121MD1210161+9999REMSYN060AAXX  25214 04201 45/84 /0502 11131 21162 30112 40137 52016;
0101042010999992000112600004+77470-069220FM-12+001999999V0203601N002119999999N0500001N1-01361-01721101461ADDMA1999999101211MD1210091+9999REMSYN060AAXX  26004 04201 45/84 /3604 11136 21172 30121 40146 52009;
0101042010999992000112603004+77470-069220FM-12+001999999V0202701N001519999999N0500001N1-01731-01981101601ADDMA1999999101341MD1210131+9999REMSYN060AAXX  26034 04201 45/84 /2703 11173 21198 30134 40160 52013;
0143042010999992000112606004+77470-069220FM-12+001999999V0201001N000519999999N0450001N1-01571-01851101661ADDKA1120M-01181KA2999N-01731MA1999999101411MD1210071+9999REMSYN076AAXX  26064 04201 45/83 /1001 11157 21185 30141 40166 52007 333 11118 21173;
0101042010999992000112609004+77470-069220FM-12+001999999V0201101N003619999999N0500001N1-01591-01811101791ADDMA1999999101531MD1210121+9999REMSYN060AAXX  26094 04201 45/84 /1107 11159 21181 30153 40179 52012;
0101042010999992000112612004+77470-069220FM-12+001999999V0200901N001519999999N0500001N1-01621-01791101831ADDMA1999999101571MD1210041+9999REMSYN060AAXX  26124 04201 45/84 /0903 11162 21179 30157 40183 52004;
0107042010999992000112615004+77470-069220FM-12+001999999V0202801N001519999999N0300001N1-01521-01691101831ADDMA1999999101581MD1210011+9999REMSYN066AAXX  26154 04201 4//80 /2803 11152 21169 30158 40183 52001 77770;
0149042010999992000112618004+77470-069220FM-12+001999999V0203101N002119999999N0450001N1-01471-01631101811ADDKA1120M-01421KA2999N-01781MA1999999101561MD1710021+9999REMSYN082AAXX  26184 04201 4//83 /3104 11147 21163 30156 40181 57002 70070 333 11142 21178;
0101042010999992000112621004+77470-069220FM-12+001999999V0203001N001519999999N0450001N1-01421-01581101831ADDMA1999999101581MD1210021+9999REMSYN060AAXX  26214 04201 45/83 /3003 11142 21158 30158 40183 52002;
0101042010999992000112700004+77470-069220FM-12+001999999V0203001N001519999999N0500001N1-01361-01571101811ADDMA1999999101561MD1710021+9999REMSYN060AAXX  27004 04201 45/84 /3003 11136 21157 30156 40181 57002;
0101042010999992000112703004+77470-069220FM-12+001999999V0209999C000019999999N0450001N1-01541-01771101741ADDMA1999999101491MD1710071+9999REMSYN060AAXX  27034 04201 45/83 /0000 11154 21177 30149 40174 57007;
0143042010999992000112706004+77470-069220FM-12+001999999V0202601N000519999999N0500001N1-01521-01831101691ADDKA1120M-01151KA2999N-01721MA1999999101441MD1710051+9999REMSYN076AAXX  27064 04201 45/84 /2601 11152 21183 30144 40169 57005 333 11115 21172;
0101042010999992000112709004+77470-069220FM-12+001999999V0200801N002119999999N0500001N1-01381-01671101641ADDMA1999999101391MD1710051+9999REMSYN060AAXX  27094 04201 45/84 /0804 11138 21167 30139 40164 57005;
0101042010999992000112712004+77470-069220FM-12+001999999V0200301N001019999999N0500001N1-01491-01841101551ADDMA1999999101301MD1710091+9999REMSYN060AAXX  27124 04201 45/84 /0302 11149 21184 30130 40155 57009;
0101042010999992000112715004+77470-069220FM-12+001999999V0200201N000519999999N0500001N1-01531-01881101511ADDMA1999999101261MD1710041+9999REMSYN060AAXX  27154 04201 45/84 /0201 11153 21188 30126 40151 57004;
0143042010999992000112718004+77470-069220FM-12+001999999V0202901N000519999999N0500001N1-01861-02211101531ADDKA1120M-01291KA2999N-01861MA1999999101271MD1210011+9999REMSYN076AAXX  27184 04201 45/84 /2901 11186 21221 30127 40153 52001 333 11129 21186;
0101042010999992000112721004+77470-069220FM-12+001999999V0203001N001519999999N0500001N1-01711-01991101601ADDMA1999999101341MD1210071+9999REMSYN060AAXX  27214 04201 45/84 /3003 11171 21199 30134 40160 52007;
0101042010999992000112800004+77470-069220FM-12+001999999V0201301N001019999999N0500001N1-01561-01911101601ADDMA1999999101351MD1210011+9999REMSYN060AAXX  28004 04201 45/84 /1302 11156 21191 30135 40160 52001;
0101042010999992000112803004+77470-069220FM-12+001999999V0203001N001519999999N0500001N1-01781-01901101611ADDMA1999999101351MD1410001+9999REMSYN060AAXX  28034 04201 45/84 /3003 11178 21190 30135 40161 54000;
0143042010999992000112806004+77470-069220FM-12+001999999V0203301N001019999999N0500001N1-01561-01951101641ADDKA1120M-01461KA2999N-01911MA1999999101391MD1210041+9999REMSYN076AAXX  28064 04201 45/84 /3302 11156 21195 30139 40164 52004 333 11146 21191;
0101042010999992000112809004+77470-069220FM-12+001999999V0200601N000519999999N0500001N1-01591-01961101691ADDMA1999999101441MD1210051+9999REMSYN060AAXX  28094 04201 45/84 /0601 11159 21196 30144 40169 52005;
0101042010999992000112812004+77470-069220FM-12+001999999V0203501N001019999999N0500001N1-01591-01891101751ADDMA1999999101491MD1210051+9999REMSYN060AAXX  28124 04201 45/84 /3502 11159 21189 30149 40175 52005;
0101042010999992000112815004+77470-069220FM-12+001999999V0203601N001519999999N0400001N1-01581-01751101791ADDMA1999999101531MD1210041+9999REMSYN060AAXX  28154 04201 45/82 /3603 11158 21175 30153 40179 52004;
0081042010999992000112903004+77470-069220FM-12+001999999V0203501N001019999999N0500001N1-01721-02021101571ADDMA1999999101311REMSYN054AAXX  29034 04201 45/84 /3502 11172 21202 30131 40157;
0143042010999992000112906004+77470-069220FM-12+001999999V0201001N000519999999N0500001N1-01551-02091101431ADDKA1120M-01441KA2999N-01781MA1999999101181MD1710131+9999REMSYN076AAXX  29064 04201 45/84 /1001 11155 21209 30118 40143 57013 333 11144 21178;
0129042010999992000112918004+77470-069220FM-12+001999999V0200701N004619999999N0500001N1-01311-02031100941ADDKA1120M-01251KA2120N-01571MA1999999100691REMSYN076AAXX  29184 04201 45/84 /0709 11131 21203 30069 40094 333 11125 21157 91116;
0101042010999992000112921004+77470-069220FM-12+001999999V0200401N000519999999N0090001N1-01381-01981100981ADDMA1999999100731MD1210041+9999REMSYN060AAXX  29214 04201 45/59 /0401 11138 21198 30073 40098 52004;
0101042010999992000113000004+77470-069220FM-12+001999999V0200101N001519999999N0500001N1-01321-01981100961ADDMA1999999100711MD1710021+9999REMSYN060AAXX  30004 04201 45/84 /0103 11132 21198 30071 40096 57002;
0101042010999992000113003004+77470-069220FM-12+001999999V0200901N006719999999N0500001N1-01211-01901100801ADDMA1999999100551MD1710161+9999REMSYN060AAXX  30034 04201 45/84 /0913 11121 21190 30055 40080 57016;
0143042010999992000113006004+77470-069220FM-12+001999999V0203201N003619999999N0450001N1-01301-01951100761ADDKA1120M-01181KA2999N-01481MA1999999100511MD1710041+9999REMSYN076AAXX  30064 04201 45/83 /3207 11130 21195 30051 40076 57004 333 11118 21148;
0101042010999992000113009004+77470-069220FM-12+001999999V0203301N001519999999N0500001N1-01311-01901100701ADDMA1999999100451MD1710061+9999REMSYN060AAXX  30094 04201 45/84 /3303 11131 21190 30045 40070 57006;
0101042010999992000113012004+77470-069220FM-12+001999999V0200701N003119999999N0500001N1-01031-01621100571ADDMA1999999100321MD1710131+9999REMSYN060AAXX  30124 04201 45/84 /0706 11103 21162 30032 40057 57013;
0128042010999992000113015004+77470-069220FM-12+001999999V0203101N002119999999N0500001N1-01081-01671100441ADDMA1999999100191MD1710131+9999OA149901081REMSYN076AAXX  30154 04201 45/84 /3104 11108 21167 30019 40044 57013 333 91121 91216;
0149042010999992000113018004+77470-069220FM-12+001999999V0200701N003619999999N0300001N1-01031-01461100341ADDKA1120M-00941KA2120N-01331MA1999999100091MD1710101+9999REMSYN082AAXX  30184 04201 45/80 /0707 11103 21146 30009 40034 57010 333 11094 21133 91121;
0111042010999992000113021004+77470-069220FM-12+001999999V0200901N009819999999N0190001N1-00941-01521100291ADDMA1999999100041MD1710051+9999REMSYN070AAXX  30214 04201 45/69 /0919 11094 21152 30004 40029 57005 333 91121;
0111042010999992000120100004+77470-069220FM-12+001999999V0201001N010319999999N0130001N1-00921-01481100311ADDMA1999999100061MD1210021+9999REMSYN070AAXX  01004 04201 45/63 /1020 11092 21148 30006 40031 52002 333 91121;
0107042010999992000120103004+77470-069220FM-12+001999999V0200801N009319999999N0170001N1-00751-01181100321ADDMA1999999100081MD1210021+9999REMSYN066AAXX  01034 04201 4//67 /0818 11075 21118 30008 40032 52002 71170;
0149042010999992000120106004+77470-069220FM-12+001999999V0200701N009819999999N0011001N1-00721-01041100411ADDKA1120M-00581KA2999N-01161MA1999999100171MD1210091+9999REMSYN082AAXX  01064 04201 4//11 /0719 11072 21104 30017 40041 52009 77770 333 11058 21116;
0107042010999992000120115004+77470-069220FM-12+001999999V0200901N010319999999N0028001N1-00821-01101100411ADDMA1999999100171MD1710011+9999REMSYN066AAXX  01154 04201 4//28 /0920 11082 21110 30017 40041 57001 77177;
0149042010999992000120118004+77470-069220FM-12+001999999V0200801N011319999999N0026001N1-00951-01271100341ADDKA1120M-00681KA2999N-00961MA1999999100091MD1710081+9999REMSYN082AAXX  01184 04201 4//26 /0822 11095 21127 30009 40034 57008 71177 333 11068 21096;
0107042010999992000120121004+77470-069220FM-12+001999999V0200801N009319999999N0500001N1-01011-01551100311ADDMA1999999100061MD1710031+9999REMSYN066AAXX  01214 04201 4//84 /0818 11101 21155 30006 40031 57003 70077;
0117042010999992000120200004+77470-069220FM-12+001999999V0200801N004119999999N0500001N1-00971-01561100261ADDMA1999999100011MD1710051+9999REMSYN076AAXX  02004 04201 4//84 /0808 11097 21156 30001 40026 57005 70077 333 91223;
0111042010999992000120203004+77470-069220FM-12+001999999V0200601N002619999999N0450001N1-01081-01621100171ADDMA1999999099921MD1710091+9999REMSYN070AAXX  02034 04201 45/83 /0605 11108 21162 39992 40017 57009 333 91113;
0149042010999992000120206004+77470-069220FM-12+001999999V0200601N002619999999N0500001N1-01031-01601100081ADDKA1120M-00871KA2120N-01161MA1999999099831MD1710091+9999REMSYN082AAXX  02064 04201 45/84 /0605 11103 21160 39983 40008 57009 333 11087 21116 91113;
0111042010999992000120209004+77470-069220FM-12+001999999V0203001N002119999999N0500001N1-01101-01551100041ADDMA1999999099791MD1710041+9999REMSYN070AAXX  02094 04201 45/84 /3004 11110 21155 39979 40004 57004 333 91119;
0117042010999992000120212004+77470-069220FM-12+001999999V0200801N009319999999N0060001N1-00701-01221099861ADDMA1999999099621MD1710171+9999REMSYN076AAXX  02124 04201 4//56 /0818 11070 21122 39962 49986 57017 72470 333 91124;
0134042010999992000120215004+77470-069220FM-12+001999999V0200701N011819999999N0031001N1-00671-01361099801ADDMA1999999099561MD1710061+9999OA149901801REMSYN082AAXX  02154 04201 4//31 /0723 11067 21136 39956 49980 57006 72470 333 91135 91035;
0155042010999992000120218004+77470-069220FM-12+001999999V0201101N011819999999N0080001N1-00741-01381099791ADDKA1120M-00581KA2120N-01101MA1999999099551MD1710011+9999REMSYN088AAXX  02184 04201 4//58 /1123 11074 21138 39955 49979 57001 70070 333 11058 21110 91135;
0134042010999992000120221004+77470-069220FM-12+001999999V0201701N007719999999N0400001N1-00921-01511100091ADDMA1999999099851MD1210301+9999OA149901901REMSYN082AAXX  02214 04201 4//82 /1715 11092 21151 39985 40009 52030 72470 333 91137 91227;
0134042010999992000120300004+77470-069220FM-12+001999999V0201901N006219999999N0280001N1-01171-01671100311ADDMA1999999100061MD1210211+9999OA149901901REMSYN082AAXX  03004 04201 4//78 /1912 11117 21167 30006 40031 52021 70070 333 91137 91227;
0111042010999992000120303004+77470-069220FM-12+001999999V0201001N001019999999N0300001N1-01231-01771100331ADDMA1999999100081MD1210021+9999REMSYN070AAXX  03034 04201 45/80 /1002 11123 21177 30008 40033 52002 333 91212;
0149042010999992000120306004+77470-069220FM-12+001999999V0202501N002619999999N0022001N1-01311-01511100391ADDKA1120M-00741KA2999N-01311MA1999999100141MD1210061+9999REMSYN082AAXX  03064 04201 4//22 /2505 11131 21151 30014 40039 52006 77770 333 11074 21131;
0107042010999992000120309004+77470-069220FM-12+001999999V0202401N003119999999N0027001N1-01441-01581100481ADDMA1999999100231MD1210091+9999REMSYN066AAXX  03094 04201 4//27 /2406 11144 21158 30023 40048 52009 77777;
0107042010999992000120312004+77470-069220FM-12+001999999V0202301N003619999999N0060001N1-01521-01681100511ADDMA1999999100261MD1210031+9999REMSYN066AAXX  03124 04201 4//56 /2307 11152 21168 30026 40051 52003 77777;
0107042010999992000120315004+77470-069220FM-12+001999999V0202501N004619999999N0044001N1-01781-01941100581ADDMA1999999100331MD1210071+9999REMSYN066AAXX  03154 04201 4//44 /2509 11178 21194 30033 40058 52007 77777;
0149042010999992000120318004+77470-069220FM-12+001999999V0202401N005119999999N0019001N1-01851-01991100661ADDKA1120M-01311KA2999N-01881MA1999999100411MD1210081+9999REMSYN082AAXX  03184 04201 4//19 /2410 11185 21199 30041 40066 52008 77177 333 11131 21188;
0107042010999992000120321004+77470-069220FM-12+001999999V0203001N002119999999N0025001N1-01971-02141100861ADDMA1999999100601MD1210191+9999REMSYN066AAXX  03214 04201 4//25 /3004 11197 21214 30060 40086 52019 77777;
0107042010999992000120400004+77470-069220FM-12+001999999V0203001N001019999999N0080001N1-01991-02181101011ADDMA1999999100751MD1210151+9999REMSYN066AAXX  04004 04201 4//58 /3002 11199 21218 30075 40101 52015 78577;
0107042010999992000120403004+77470-069220FM-12+001999999V0202401N001519999999N0400001N1-02121-02341101131ADDMA1999999100871MD1210121+9999REMSYN066AAXX  04034 04201 4//82 /2403 11212 21234 30087 40113 52012 70077;
0149042010999992000120406004+77470-069220FM-12+001999999V0203101N001019999999N0450001N1-02341-02571101161ADDKA1120M-01811KA2999N-02361MA1999999100901MD1210031+9999REMSYN082AAXX  04064 04201 4//83 /3102 11234 21257 30090 40116 52003 70077 333 11181 21236;
0101042010999992000120409004+77470-069220FM-12+001999999V0203501N001019999999N0450001N1-02441-02671101261ADDMA1999999101001MD1210101+9999REMSYN060AAXX  04094 04201 45/83 /3502 11244 21267 30100 40126 52010;
0101042010999992000120412004+77470-069220FM-12+001999999V0203401N002119999999N0200001N1-02521-02721101401ADDMA1999999101141MD1210141+9999REMSYN060AAXX  04124 04201 45/70 /3404 11252 21272 30114 40140 52014;
0107042010999992000120415004+77470-069220FM-12+001999999V0203501N002119999999N0500001N1-02561-02791101521ADDMA1999999101261MD1210121+9999REMSYN066AAXX  04154 04201 4//84 /3504 11256 21279 30126 40152 52012 70070;
0149042010999992000120418004+77470-069220FM-12+001999999V0201001N001519999999N0500001N1-02451-02671101561ADDKA1120M-02331KA2999N-02581MA1999999101301MD1210041+9999REMSYN082AAXX  04184 04201 4//84 /1003 11245 21267 30130 40156 52004 72270 333 11233 21258;
0107042010999992000120421004+77470-069220FM-12+001999999V0203601N001519999999N0130001N1-02561-02781101581ADDMA1999999101321MD1210021+9999REMSYN066AAXX  04214 04201 4//63 /3603 11256 21278 30132 40158 52002 70070;
0107042010999992000120500004+77470-069220FM-12+001999999V0203501N001519999999N0250001N1-02561-02811101611ADDMA1999999101351MD1210031+9999REMSYN066AAXX  05004 04201 4//75 /3503 11256 21281 30135 40161 52003 70070;
0101042010999992000120503004+77470-069220FM-12+001999999V0200401N001519999999N0500001N1-02591-02821101651ADDMA1999999101381MD1210031+9999REMSYN060AAXX  05034 04201 45/84 /0403 11259 21282 30138 40165 52003;
0143042010999992000120506004+77470-069220FM-12+001999999V0200101N001019999999N0200001N1-02601-02831101661ADDKA1120M-02401KA2999N-02641MA1999999101391MD1210011+9999REMSYN076AAXX  05064 04201 45/70 /0102 11260 21283 30139 40166 52001 333 11240 21264;
0101042010999992000120509004+77470-069220FM-12+001999999V0200201N001519999999N0500001N1-02621-02841101651ADDMA1999999101381MD1710011+9999REMSYN060AAXX  05094 04201 45/84 /0203 11262 21284 30138 40165 57001;
0101042010999992000120512004+77470-069220FM-12+001999999V0200101N001019999999N0450001N1-02581-02801101611ADDMA1999999101351MD1710031+9999REMSYN060AAXX  05124 04201 45/83 /0102 11258 21280 30135 40161 57003;
0107042010999992000120515004+77470-069220FM-12+001999999V0200201N000519999999N0038001N1-02621-02821101561ADDMA1999999101291MD1710061+9999REMSYN066AAXX  05154 04201 4//38 /0201 11262 21282 30129 40156 57006 71010;
0149042010999992000120518004+77470-069220FM-12+001999999V0200701N001019999999N0046001N1-02531-02741101491ADDKA1120M-02511KA2999N-02641MA1999999101231MD1710061+9999REMSYN082AAXX  05184 04201 4//46 /0702 11253 21274 30123 40149 57006 71071 333 11251 21264;
0107042010999992000120521004+77470-069220FM-12+001999999V0203401N000519999999N0450001N1-02491-02701101431ADDMA1999999101171MD1710061+9999REMSYN066AAXX  05214 04201 4//83 /3401 11249 21270 30117 40143 57006 70011;
0107042010999992000120600004+77470-069220FM-12+001999999V0203101N000519999999N0500001N1-02491-02681101341ADDMA1999999101081MD1710091+9999REMSYN066AAXX  06004 04201 4//84 /3101 11249 21268 30108 40134 57009 70011;
0101042010999992000120603004+77470-069220FM-12+001999999V0209999C000019999999N0450001N1-02431-02651101221ADDMA1999999100961MD1710121+9999REMSYN060AAXX  06034 04201 45/83 /0000 11243 21265 30096 40122 57012;
0143042010999992000120606004+77470-069220FM-12+001999999V0209999C000019999999N0500001N1-02391-02611101121ADDKA1120M-02261KA2999N-02561MA1999999100861MD1710101+9999REMSYN076AAXX  06064 04201 45/84 /0000 11239 21261 30086 40112 57010 333 11226 21256;
0101042010999992000120609004+77470-069220FM-12+001999999V0203201N000519999999N0500001N1-02331-02591101101ADDMA1999999100841MD1710021+9999REMSYN060AAXX  06094 04201 45/84 /3201 11233 21259 30084 40110 57002;
0101042010999992000120612004+77470-069220FM-12+001999999V0209999C000019999999N0500001N1-02221-02511101121ADDMA1999999100861MD1210021+9999REMSYN060AAXX  06124 04201 45/84 /0000 11222 21251 30086 40112 52002;
0101042010999992000120615004+77470-069220FM-12+001999999V0209999C000019999999N0450001N1-02131-02461101251ADDMA1999999100991MD1210131+9999REMSYN060AAXX  06154 04201 45/83 /0000 11213 21246 30099 40125 52013;
0143042010999992000120618004+77470-069220FM-12+001999999V0209999C000019999999N0500001N1-02021-02431101401ADDKA1120M-02011KA2999N-02561MA1999999101141MD1210151+9999REMSYN076AAXX  06184 04201 45/84 /0000 11202 21243 30114 40140 52015 333 11201 21256;
0101042010999992000120621004+77470-069220FM-12+001999999V0202801N000519999999N0290001N1-01961-02351101621ADDMA1999999101361MD1210221+9999REMSYN060AAXX  06214 04201 45/79 /2801 11196 21235 30136 40162 52022;
0101042010999992000120700004+77470-069220FM-12+001999999V0202901N002619999999N0500001N1-01861-02231101801ADDMA1999999101541MD1210181+9999REMSYN060AAXX  07004 04201 45/84 /2905 11186 21223 30154 40180 52018;
0101042010999992000120703004+77470-069220FM-12+001999999V0203001N001519999999N0500001N1-01951-02271101891ADDMA1999999101631MD1210091+9999REMSYN060AAXX  07034 04201 45/84 /3003 11195 21227 30163 40189 52009;
0143042010999992000120706004+77470-069220FM-12+001999999V0209999C000019999999N0450001N1-01951-02281101921ADDKA1120M-01851KA2999N-02061MA1999999101661MD1210031+9999REMSYN076AAXX  07064 04201 45/83 /0000 11195 21228 30166 40192 52003 333 11185 21206;
0101042010999992000120709004+77470-069220FM-12+001999999V0209999C000019999999N0500001N1-01851-02241101961ADDMA1999999101701MD1210041+9999REMSYN060AAXX  07094 04201 45/84 /0000 11185 21224 30170 40196 52004;
0101042010999992000120712004+77470-069220FM-12+001999999V0200901N001019999999N0500001N1-01831-02241101961ADDMA1999999101701MD1410001+9999REMSYN060AAXX  07124 04201 45/84 /0902 11183 21224 30170 40196 54000;
0101042010999992000120715004+77470-069220FM-12+001999999V0202901N000519999999N0450001N1-01911-02281101931ADDMA1999999101671MD1710031+9999REMSYN060AAXX  07154 04201 45/83 /2901 11191 21228 30167 40193 57003;
0123042010999992000120718004+77470-069220FM-12+001999999V0209999C000019999999N0500001N1-01911-02301101961ADDKA1120M-01851KA2999N-01931MA1999999101701REMSYN070AAXX  07184 04201 45/84 /0000 11191 21230 30170 40196 333 11185 21193;
0101042010999992000120721004+77470-069220FM-12+001999999V0202701N000519999999N0060001N1-01871-02221102001ADDMA1999999101741MD1210041+9999REMSYN060AAXX  07214 04201 45/56 /2701 11187 21222 30174 40200 52004;
0107042010999992000120800004+77470-069220FM-12+001999999V0203501N000519999999N0160001N1-01881-02261102061ADDMA1999999101801MD1210061+9999REMSYN066AAXX  08004 04201 4//66 /3501 11188 21226 30180 40206 52006 70010;
0101042010999992000120803004+77470-069220FM-12+001999999V0201201N001519999999N0500001N1-01861-02231102071ADDMA1999999101811MD1210011+9999REMSYN060AAXX  08034 04201 45/84 /1203 11186 21223 30181 40207 52001;
0143042010999992000120806004+77470-069220FM-12+001999999V0203401N000519999999N0500001N1-01821-02231102031ADDKA1120M-01711KA2999N-02001MA1999999101771MD1710041+9999REMSYN076AAXX  08064 04201 45/84 /3401 11182 21223 30177 40203 57004 333 11171 21200;
0101042010999992000120809004+77470-069220FM-12+001999999V0201501N000519999999N0500001N1-01861-02281102051ADDMA1999999101791MD1210021+9999REMSYN060AAXX  08094 04201 45/84 /1501 11186 21228 30179 40205 52002;
0101042010999992000120812004+77470-069220FM-12+001999999V0200501N001019999999N0500001N1-01761-02231102051ADDMA1999999101791MD1410001+9999REMSYN060AAXX  08124 04201 45/84 /0502 11176 21223 30179 40205 54000;
0101042010999992000120815004+77470-069220FM-12+001999999V0200101N001019999999N0500001N1-01641-02171102001ADDMA1999999101741MD1710051+9999REMSYN060AAXX  08154 04201 45/84 /0102 11164 21217 30174 40200 57005;
0143042010999992000120818004+77470-069220FM-12+001999999V0202901N001019999999N0450001N1-01861-02291101981ADDKA1120M-01631KA2999N-02091MA1999999101721MD1710021+9999REMSYN076AAXX  08184 04201 45/83 /2902 11186 21229 30172 40198 57002 333 11163 21209;
0101042010999992000120821004+77470-069220FM-12+001999999V0201701N001519999999N0500001N1-01971-02381101961ADDMA1999999101701MD1710021+9999REMSYN060AAXX  08214 04201 45/84 /1703 11197 21238 30170 40196 57002;
0101042010999992000120900004+77470-069220FM-12+001999999V0200901N002619999999N0500001N1-01691-02171101871ADDMA1999999101611MD1710091+9999REMSYN060AAXX  09004 04201 45/84 /0905 11169 21217 30161 40187 57009;
0111042010999992000120903004+77470-069220FM-12+001999999V0200901N002119999999N0450001N1-01251-01951101781ADDMA1999999101531MD1710081+9999REMSYN070AAXX  09034 04201 45/83 /0904 11125 21195 30153 40178 57008 333 91116;
0172042010999992000120906004+77470-069220FM-12+001999999V0200701N011819999999N0001001N1-01291-01581101721ADDKA1120M-01121KA2120N-02271MA1999999101471MD1710061+9999OA149902261REMSYN094AAXX  09064 04201 4//01 /0723 11129 21158 30147 40172 57006 78670 333 11112 21227 91144 91044;
0134042010999992000120909004+77470-069220FM-12+001999999V0201001N002119999999N0450001N1-01521-02011101781ADDMA1999999101531MD1210061+9999OA149902731REMSYN082AAXX  09094 04201 4//83 /1004 11152 21201 30153 40178 52006 70077 333 91153 91239;
0140042010999992000120912004+77470-069220FM-12+001999999V0200501N006219999999N0006001N1-01251-01681101841ADDMA1999999101591MD1210061+9999OA149902731REMSYN088AAXX  09124 04201 4//06 /0512 11125 21168 30159 40184 52006 77777 333 91153 91028 91239;
0117042010999992000120915004+77470-069220FM-12+001999999V0201101N004619999999N0130001N1-01641-02151101911ADDMA1999999101651MD1210061+9999REMSYN076AAXX  09154 04201 4//63 /1109 11164 21215 30165 40191 52006 70071 333 91128;
0172042010999992000120918004+77470-069220FM-12+001999999V0203601N001019999999N0500001N1-01681-02141102001ADDKA1120M-01211KA2120N-01851MA1999999101741MD1210091+9999OA149901441REMSYN094AAXX  09184 04201 4//84 /3602 11168 21214 30174 40200 52009 70071 333 11121 21185 91128 91217;
0101042010999992000120921004+77470-069220FM-12+001999999V0201101N002119999999N0500001N1-01801-02231102091ADDMA1999999101831MD1210091+9999REMSYN060AAXX  09214 04201 45/84 /1104 11180 21223 30183 40209 52009;
0101042010999992000121000004+77470-069220FM-12+001999999V0201301N001519999999N0500001N1-01901-02301102101ADDMA1999999101841MD1210011+9999REMSYN060AAXX  10004 04201 45/84 /1303 11190 21230 30184 40210 52001;
0101042010999992000121003004+77470-069220FM-12+001999999V0200901N003619999999N0500001N1-01691-02221102091ADDMA1999999101831MD1710011+9999REMSYN060AAXX  10034 04201 45/84 /0907 11169 21222 30183 40209 57001;
0143042010999992000121006004+77470-069220FM-12+001999999V0201001N003619999999N0500001N1-01781-02311102111ADDKA1120M-01471KA2999N-02031MA1999999101851MD1210021+9999REMSYN076AAXX  10064 04201 45/84 /1007 11178 21231 30185 40211 52002 333 11147 21203;
0101042010999992000121009004+77470-069220FM-12+001999999V0203101N001019999999N0500001N1-01891-02331102151ADDMA1999999101891MD1210041+9999REMSYN060AAXX  10094 04201 45/84 /3102 11189 21233 30189 40215 52004;
0101042010999992000121012004+77470-069220FM-12+001999999V0203201N000519999999N0500001N1-01851-02351102191ADDMA1999999101931MD1210041+9999REMSYN060AAXX  10124 04201 45/84 /3201 11185 21235 30193 40219 52004;
0101042010999992000121015004+77470-069220FM-12+001999999V0200901N000519999999N0500001N1-02031-02491102191ADDMA1999999101931MD1410001+9999REMSYN060AAXX  10154 04201 45/84 /0901 11203 21249 30193 40219 54000;
0143042010999992000121018004+77470-069220FM-12+001999999V0202101N000519999999N0500001N1-02051-02401102191ADDKA1120M-01691KA2999N-02161MA1999999101931MD1410001+9999REMSYN076AAXX  10184 04201 45/84 /2101 11205 21240 30193 40219 54000 333 11169 21216;
0101042010999992000121021004+77470-069220FM-12+001999999V0203301N000519999999N0500001N1-01921-02381102201ADDMA1999999101941MD1210011+9999REMSYN060AAXX  10214 04201 45/84 /3301 11192 21238 30194 40220 52001;
0101042010999992000121100004+77470-069220FM-12+001999999V0203301N001019999999N0500001N1-01911-02441102191ADDMA1999999101931MD1710011+9999REMSYN060AAXX  11004 04201 45/84 /3302 11191 21244 30193 40219 57001;
0101042010999992000121103004+77470-069220FM-12+001999999V0209999C000019999999N0500001N1-02031-02471102191ADDMA1999999101931MD1410001+9999REMSYN060AAXX  11034 04201 45/84 /0000 11203 21247 30193 40219 54000;
0143042010999992000121106004+77470-069220FM-12+001999999V0203001N001019999999N0450001N1-02081-02521102231ADDKA1120M-01821KA2999N-02161MA1999999101971MD1210041+9999REMSYN076AAXX  11064 04201 45/83 /3002 11208 21252 30197 40223 52004 333 11182 21216;
0101042010999992000121109004+77470-069220FM-12+001999999V0202801N000519999999N0450001N1-01951-02441102191ADDMA1999999101931MD1710041+9999REMSYN060AAXX  11094 04201 45/83 /2801 11195 21244 30193 40219 57004;
0101042010999992000121112004+77470-069220FM-12+001999999V0203001N001519999999N0500001N1-02141-02561102201ADDMA1999999101941MD1210011+9999REMSYN060AAXX  11124 04201 45/84 /3003 11214 21256 30194 40220 52001;
0101042010999992000121115004+77470-069220FM-12+001999999V0200801N005119999999N0500001N1-01931-02511102091ADDMA1999999101831MD1710111+9999REMSYN060AAXX  11154 04201 45/84 /0810 11193 21251 30183 40209 57011;
0143042010999992000121118004+77470-069220FM-12+001999999V0200901N008719999999N0500001N1-02001-02581101981ADDKA1120M-01861KA2999N-02201MA1999999101721MD1710111+9999REMSYN076AAXX  11184 04201 45/84 /0917 11200 21258 30172 40198 57011 333 11186 21220;
0101042010999992000121121004+77470-069220FM-12+001999999V0200901N008219999999N0500001N1-01921-02531101911ADDMA1999999101651MD1710071+9999REMSYN060AAXX  11214 04201 45/84 /0916 11192 21253 30165 40191 57007;
0128042010999992000121200004+77470-069220FM-12+001999999V0202701N001519999999N0450001N1-01981-02491101841ADDMA1999999101581MD1710071+9999OA149900821REMSYN076AAXX  12004 04201 45/83 /2703 11198 21249 30158 40184 57007 333 91116 91218;
0101042010999992000121203004+77470-069220FM-12+001999999V0200901N007719999999N0500001N1-01931-02551101731ADDMA1999999101471MD1710111+9999REMSYN060AAXX  12034 04201 45/84 /0915 11193 21255 30147 40173 57011;
0149042010999992000121206004+77470-069220FM-12+001999999V0201101N000519999999N0500001N1-01951-02551101621ADDKA1120M-01801KA2120N-02131MA1999999101361MD1710111+9999REMSYN082AAXX  12064 04201 45/84 /1101 11195 21255 30136 40162 57011 333 11180 21213 91216;
0101042010999992000121209004+77470-069220FM-12+001999999V0201701N000519999999N0450001N1-02131-02591101581ADDMA1999999101321MD1710041+9999REMSYN060AAXX  12094 04201 45/83 /1701 11213 21259 30132 40158 57004;
0101042010999992000121212004+77470-069220FM-12+001999999V0201101N001019999999N0500001N1-02081-02531101481ADDMA1999999101221MD1710101+9999REMSYN060AAXX  12124 04201 45/84 /1102 11208 21253 30122 40148 57010;
0101042010999992000121215004+77470-069220FM-12+001999999V0203101N000519999999N0450001N1-02101-02521101391ADDMA1999999101131MD1710091+9999REMSYN060AAXX  12154 04201 45/83 /3101 11210 21252 30113 40139 57009;
0143042010999992000121218004+77470-069220FM-12+001999999V0202801N000519999999N0450001N1-02111-02541101291ADDKA1120M-01931KA2999N-02271MA1999999101031MD1710101+9999REMSYN076AAXX  12184 04201 45/83 /2801 11211 21254 30103 40129 57010 333 11193 21227;
0101042010999992000121221004+77470-069220FM-12+001999999V0200901N005119999999N0500001N1-02001-02591101291ADDMA1999999101031MD1410001+9999REMSYN060AAXX  12214 04201 45/84 /0910 11200 21259 30103 40129 54000;
0101042010999992000121300004+77470-069220FM-12+001999999V0200901N007219999999N0500001N1-02061-02661101371ADDMA1999999101111MD1210081+9999REMSYN060AAXX  13004 04201 45/84 /0914 11206 21266 30111 40137 52008;
0101042010999992000121303004+77470-069220FM-12+001999999V0200801N008719999999N0500001N1-02031-02621101461ADDMA1999999101201MD1210091+9999REMSYN060AAXX  13034 04201 45/84 /0817 11203 21262 30120 40146 52009;
0143042010999992000121306004+77470-069220FM-12+001999999V0200901N006719999999N0500001N1-02041-02631101561ADDKA1120M-01841KA2999N-02161MA1999999101301MD1210101+9999REMSYN076AAXX  13064 04201 45/84 /0913 11204 21263 30130 40156 52010 333 11184 21216;
0111042010999992000121309004+77470-069220FM-12+001999999V0203301N001019999999N0500001N1-02121-02701101741ADDMA1999999101481MD1210181+9999REMSYN070AAXX  13094 04201 45/84 /3302 11212 21270 30148 40174 52018 333 91215;
0101042010999992000121312004+77470-069220FM-12+001999999V0200501N003119999999N0500001N1-02081-02711101801ADDMA1999999101541MD1210061+9999REMSYN060AAXX  13124 04201 45/84 /0506 11208 21271 30154 40180 52006;
0101042010999992000121315004+77470-069220FM-12+001999999V0200501N004119999999N0500001N1-02121-02741101841ADDMA1999999101581MD1210041+9999REMSYN060AAXX  13154 04201 45/84 /0508 11212 21274 30158 40184 52004;
0149042010999992000121318004+77470-069220FM-12+001999999V0200601N006219999999N0500001N1-01971-02651101831ADDKA1120M-01961KA2120N-02221MA1999999101571MD1710011+9999REMSYN082AAXX  13184 04201 45/84 /0612 11197 21265 30157 40183 57001 333 11196 21222 91118;
0111042010999992000121321004+77470-069220FM-12+001999999V0203001N001019999999N0450001N1-02221-02681101791ADDMA1999999101531MD1710041+9999REMSYN070AAXX  13214 04201 45/83 /3002 11222 21268 30153 40179 57004 333 91212;
0111042010999992000121400004+77470-069220FM-12+001999999V0209999C000019999999N0500001N1-02261-02681101611ADDMA1999999101351MD1710181+9999REMSYN070AAXX  14004 04201 45/84 /0000 11226 21268 30135 40161 57018 333 91212;
0101042010999992000121403004+77470-069220FM-12+001999999V0201201N002119999999N0500001N1-02331-02701101301ADDMA1999999101041MD1710311+9999REMSYN060AAXX  14034 04201 45/84 /1204 11233 21270 30104 40130 57031;
0143042010999992000121406004+77470-069220FM-12+001999999V0202901N001019999999N0500001N1-02181-02651100791ADDKA1120M-01971KA2999N-02401MA1999999100531MD1710511+9999REMSYN076AAXX  14064 04201 45/84 /2902 11218 21265 30053 40079 57051 333 11197 21240;
0101042010999992000121409004+77470-069220FM-12+001999999V0200801N000519999999N0500001N1-02181-02661100351ADDMA1999999100091MD1710441+9999REMSYN060AAXX  14094 04201 45/84 /0801 11218 21266 30009 40035 57044;
0101042010999992000121412004+77470-069220FM-12+001999999V0200801N000519999999N0500001N1-02151-02641099971ADDMA1999999099711MD1710381+9999REMSYN060AAXX  14124 04201 45/84 /0801 11215 21264 39971 49997 57038;
0111042010999992000121415004+77470-069220FM-12+001999999V0201101N002119999999N0450001N1-02121-02591099631ADDMA1999999099381MD1710331+9999REMSYN070AAXX  14154 04201 45/83 /1104 11212 21259 39938 49963 57033 333 91113;
0149042010999992000121418004+77470-069220FM-12+001999999V0201101N000519999999N0500001N1-02111-02591099511ADDKA1120M-02001KA2120N-02351MA1999999099261MD1710121+9999REMSYN082AAXX  14184 04201 45/84 /1101 11211 21259 39926 49951 57012 333 11200 21235 91113;
0101042010999992000121421004+77470-069220FM-12+001999999V0202801N001019999999N0500001N1-02101-02571099571ADDMA1999999099321MD1210061+9999REMSYN060AAXX  14214 04201 45/84 /2802 11210 21257 39932 49957 52006;
0101042010999992000121500004+77470-069220FM-12+001999999V0201401N000519999999N0500001N1-01911-02411099711ADDMA1999999099461MD1210141+9999REMSYN060AAXX  15004 04201 45/84 /1401 11191 21241 39946 49971 52014;
0101042010999992000121503004+77470-069220FM-12+001999999V0200501N000519999999N0500001N1-01771-02281099751ADDMA1999999099501MD1210041+9999REMSYN060AAXX  15034 04201 45/84 /0501 11177 21228 39950 49975 52004;
0143042010999992000121506004+77470-069220FM-12+001999999V0209999C000019999999N0500001N1-01721-02261099781ADDKA1120M-01651KA2999N-02161MA1999999099531MD1210031+9999REMSYN076AAXX  15064 04201 45/84 /0000 11172 21226 39953 49978 52003 333 11165 21216;
0101042010999992000121509004+77470-069220FM-12+001999999V0200901N000519999999N0500001N1-01671-02221099781ADDMA1999999099531MD1410001+9999REMSYN060AAXX  15094 04201 45/84 /0901 11167 21222 39953 49978 54000;
0143042010999992000121518004+77470-069220FM-12+001999999V0202601N000519999999N0450001N1-01721-02131099741ADDKA1120M-01431KA2999N-01911MA1999999099491MD1710061+9999REMSYN076AAXX  15184 04201 45/83 /2601 11172 21213 39949 49974 57006 333 11143 21191;
0101042010999992000121521004+77470-069220FM-12+001999999V0201201N000519999999N0500001N1-01471-01951099701ADDMA1999999099451MD1710041+9999REMSYN060AAXX  15214 04201 45/84 /1201 11147 21195 39945 49970 57004;
0101042010999992000121600004+77470-069220FM-12+001999999V0200901N000519999999N0500001N1-01321-01801099571ADDMA1999999099321MD1710131+9999REMSYN060AAXX  16004 04201 45/84 /0901 11132 21180 39932 49957 57013;
0101042010999992000121603004+77470-069220FM-12+001999999V0201101N001519999999N0500001N1-01441-01891099361ADDMA1999999099111MD1710211+9999REMSYN060AAXX  16034 04201 45/84 /1103 11144 21189 39911 49936 57021;
0143042010999992000121606004+77470-069220FM-12+001999999V0201201N001519999999N0500001N1-01451-01831099181ADDKA1120M-01241KA2999N-01991MA1999999098931MD1710181+9999REMSYN076AAXX  16064 04201 45/84 /1203 11145 21183 39893 49918 57018 333 11124 21199;
0101042010999992000121609004+77470-069220FM-12+001999999V0201201N000519999999N0450001N1-01461-01851099251ADDMA1999999099001MD1210071+9999REMSYN060AAXX  16094 04201 45/83 /1201 11146 21185 39900 49925 52007;
0128042010999992000121612004+77470-069220FM-12+001999999V0203001N003119999999N0500001N1-01151-01681099451ADDMA1999999099201MD1210201+9999OA149901031REMSYN076AAXX  16124 04201 45/84 /3006 11115 21168 39920 49945 52020 333 91120 91222;
0128042010999992000121615004+77470-069220FM-12+001999999V0202901N002119999999N0450001N1-00981-01601099591ADDMA1999999099351MD1210151+9999OA149901031REMSYN076AAXX  16154 04201 45/83 /2904 11098 21160 39935 49959 52015 333 91120 91214;
0166042010999992000121618004+77470-069220FM-12+001999999V0202801N002119999999N0450001N1-01031-01551099691ADDKA1120M-00481KA2120N-01561MA1999999099451MD1210101+9999OA149901031REMSYN088AAXX  16184 04201 45/83 /2804 11103 21155 39945 49969 52010 333 11048 21156 91120 91214;
0111042010999992000121621004+77470-069220FM-12+001999999V0200501N007219999999N0500001N1-00781-01531099791ADDMA1999999099551MD1210101+9999REMSYN070AAXX  16214 04201 45/84 /0514 11078 21153 39955 49979 52010 333 91123;
0111042010999992000121700004+77470-069220FM-12+001999999V0200901N012319999999N0500001N1-01041-01721099881ADDMA1999999099631MD1210081+9999REMSYN070AAXX  17004 04201 45/84 /0924 11104 21172 39963 49988 52008 333 91125;
0101042010999992000121703004+77470-069220FM-12+001999999V0200801N011819999999N0500001N1-00951-01651099921ADDMA1999999099681MD1210051+9999REMSYN060AAXX  17034 04201 45/84 /0823 11095 21165 39968 49992 52005;
0143042010999992000121706004+77470-069220FM-12+001999999V0200901N011819999999N0500001N1-01071-01701099981ADDKA1120M-00581KA2999N-01121MA1999999099731MD1210051+9999REMSYN076AAXX  17064 04201 45/84 /0923 11107 21170 39973 49998 52005 333 11058 21112;
0111042010999992000121709004+77470-069220FM-12+001999999V0200701N009319999999N0500001N1-00921-01601099981ADDMA1999999099741MD1210011+9999REMSYN070AAXX  17094 04201 45/84 /0718 11092 21160 39974 49998 52001 333 91126;
0128042010999992000121712004+77470-069220FM-12+001999999V0201001N006719999999N0400001N1-01001-01631100211ADDMA1999999099961MD1210221+9999OA149901391REMSYN076AAXX  17124 04201 45/82 /1013 11100 21163 39996 40021 52022 333 91127 91225;
0134042010999992000121715004+77470-069220FM-12+001999999V0201601N005719999999N0090001N1-01101-01661100481ADDMA1999999100231MD1210271+9999OA149901181REMSYN082AAXX  17154 04201 4//59 /1611 11110 21166 30023 40048 52027 78570 333 91123 91023;
0155042010999992000121718004+77470-069220FM-12+001999999V0201401N006219999999N0270001N1-01171-01751100781ADDKA1120M-00781KA2120N-01191MA1999999100531MD1210301+9999REMSYN088AAXX  17184 04201 4//77 /1412 11117 21175 30053 40078 52030 70070 333 11078 21119 91123;
0101042010999992000121721004+77470-069220FM-12+001999999V0201301N004619999999N0230001N1-01241-01801101141ADDMA1999999100891MD1210361+9999REMSYN060AAXX  17214 04201 45/73 /1309 11124 21180 30089 40114 52036;
0101042010999992000121800004+77470-069220FM-12+001999999V0200801N004619999999N0350001N1-01251-01841101381ADDMA1999999101131MD1210241+9999REMSYN060AAXX  18004 04201 45/81 /0809 11125 21184 30113 40138 52024;
0087042010999992000121812004+77470-069220FM-12+001999999V0201101N003619999999N0050001N1-01131-01461101781ADDMA1999999101531REMSYN060AAXX  18124 04201 4//50 /1107 11113 21146 30153 40178 70010;
0107042010999992000121815004+77470-069220FM-12+001999999V0203001N000519999999N0400001N1-01241-01401101791ADDMA1999999101541MD1210011+9999REMSYN066AAXX  18154 04201 4//82 /3001 11124 21140 30154 40179 52001 70070;
0149042010999992000121818004+77470-069220FM-12+001999999V0203401N000519999999N0050001N1-01381-01501101811ADDKA1120M-01071KA2999N-01411MA1999999101561MD1210021+9999REMSYN082AAXX  18184 04201 4//50 /3401 11138 21150 30156 40181 52002 78570 333 11107 21141;
0107042010999992000121821004+77470-069220FM-12+001999999V0201001N000519999999N0270001N1-01451-01561101831ADDMA1999999101581MD1210021+9999REMSYN066AAXX  18214 04201 4//77 /1001 11145 21156 30158 40183 52002 70077;
0117042010999992000121900004+77470-069220FM-12+001999999V0200901N006219999999N0100001N1-01221-01701101811ADDMA1999999101561MD1710021+9999REMSYN076AAXX  19004 04201 4//60 /0912 11122 21170 30156 40181 57002 71177 333 91116;
0107042010999992000121903004+77470-069220FM-12+001999999V0203301N001519999999N0031001N1-01401-01581101831ADDMA1999999101581MD1210021+9999REMSYN066AAXX  19034 04201 4//31 /3303 11140 21158 30158 40183 52002 77777;
0155042010999992000121906004+77470-069220FM-12+001999999V0202301N001019999999N0300001N1-01551-01721101731ADDKA1120M-01151KA2120N-01581MA1999999101481MD1710101+9999REMSYN088AAXX  19064 04201 4//80 /2302 11155 21172 30148 40173 57010 72287 333 11115 21158 91212;
0101042010999992000121909004+77470-069220FM-12+001999999V0203101N001519999999N0350001N1-01611-01831101601ADDMA1999999101351MD1710131+9999REMSYN060AAXX  19094 04201 45/81 /3103 11161 21183 30135 40160 57013;
0101042010999992000121912004+77470-069220FM-12+001999999V0200701N001019999999N0400001N1-01621-01881101461ADDMA1999999101211MD1710141+9999REMSYN060AAXX  19124 04201 45/82 /0702 11162 21188 30121 40146 57014;
0101042010999992000121915004+77470-069220FM-12+001999999V0200601N001019999999N0450001N1-01711-02021101391ADDMA1999999101131MD1710081+9999REMSYN060AAXX  19154 04201 45/83 /0602 11171 21202 30113 40139 57008;
0143042010999992000121918004+77470-069220FM-12+001999999V0200601N001519999999N0280001N1-01721-01921101381ADDKA1120M-01511KA2999N-01861MA1999999101121MD1710011+9999REMSYN076AAXX  19184 04201 45/78 /0603 11172 21192 30112 40138 57001 333 11151 21186;
0101042010999992000121921004+77470-069220FM-12+001999999V0200901N002119999999N0350001N1-01801-01981101561ADDMA1999999101301MD1210181+9999REMSYN060AAXX  19214 04201 45/81 /0904 11180 21198 30130 40156 52018;
0101042010999992000122000004+77470-069220FM-12+001999999V0201001N003619999999N0500001N1-01891-02271101711ADDMA1999999101451MD1210151+9999REMSYN060AAXX  20004 04201 45/84 /1007 11189 21227 30145 40171 52015;
0101042010999992000122003004+77470-069220FM-12+001999999V0201001N007719999999N0500001N1-01701-02361101841ADDMA1999999101581MD1210131+9999REMSYN060AAXX  20034 04201 45/84 /1015 11170 21236 30158 40184 52013;
0149042010999992000122006004+77470-069220FM-12+001999999V0201001N006719999999N0500001N1-01661-02221102111ADDKA1120M-01631KA2999N-02021MA1999999101851MD1210271+9999REMSYN082AAXX  20064 04201 4//84 /1013 11166 21222 30185 40211 52027 72270 333 11163 21202;
0117042010999992000122009004+77470-069220FM-12+001999999V0201701N004119999999N0040001N1-01651-01921102371ADDMA1999999102111MD1210261+9999REMSYN076AAXX  20094 04201 4//40 /1708 11165 21192 30211 40237 52026 77170 333 91124;
0134042010999992000122012004+77470-069220FM-12+001999999V0203301N002619999999N0015001N1-01681-01871102541ADDMA1999999102281MD1210171+9999OA149901241REMSYN082AAXX  20124 04201 4//15 /3305 11168 21187 30228 40254 52017 77170 333 91124 91216;
0107042010999992000122015004+77470-069220FM-12+001999999V0201101N002119999999N0060001N1-01561-01851102621ADDMA1999999102361MD1210081+9999REMSYN066AAXX  20154 04201 4//56 /1104 11156 21185 30236 40262 52008 77777;
0149042010999992000122018004+77470-069220FM-12+001999999V0209999C000019999999N0017001N1-01621-01791102621ADDKA1120M-01521KA2999N-01751MA1999999102361MD1410001+9999REMSYN082AAXX  20184 04201 4//17 /0000 11162 21179 30236 40262 54000 77777 333 11152 21175;
0107042010999992000122021004+77470-069220FM-12+001999999V0202801N001019999999N0027001N1-01671-01801102591ADDMA1999999102331MD1710031+9999REMSYN066AAXX  20214 04201 4//27 /2802 11167 21180 30233 40259 57003 77777;
0107042010999992000122100004+77470-069220FM-12+001999999V0203001N002619999999N0070001N1-01651-01781102521ADDMA1999999102261MD1710071+9999REMSYN066AAXX  21004 04201 4//57 /3005 11165 21178 30226 40252 57007 77777;
0107042010999992000122103004+77470-069220FM-12+001999999V0203201N000519999999N0050001N1-01621-01781102361ADDMA1999999102101MD1710161+9999REMSYN066AAXX  21034 04201 4//50 /3201 11162 21178 30210 40236 57016 77777;
0149042010999992000122106004+77470-069220FM-12+001999999V0203101N001019999999N0043001N1-01701-01831102231ADDKA1120M-01571KA2999N-01761MA1999999101971MD1710131+9999REMSYN082AAXX  21064 04201 4//43 /3102 11170 21183 30197 40223 57013 77177 333 11157 21176;
0107042010999992000122109004+77470-069220FM-12+001999999V0203201N000519999999N0150001N1-01781-01921102111ADDMA1999999101851MD1710121+9999REMSYN066AAXX  21094 04201 4//65 /3201 11178 21192 30185 40211 57012 78577;
0107042010999992000122112004+77470-069220FM-12+001999999V0201201N000519999999N0450001N1-01781-01951102001ADDMA1999999101741MD1710111+9999REMSYN066AAXX  21124 04201 4//83 /1201 11178 21195 30174 40200 57011 70077;
0068042010999992000122115004+77470-069220FM-12+001999999V0203401N000519999999N0450001N1-02051-02211999999REMSYN059AAXX  21154 04201 45/83 /3401 11205 21221 3016 40191 57009;
0143042010999992000122118004+77470-069220FM-12+001999999V0203601N000519999999N0500001N1-02041-02201101911ADDKA1120M-01671KA2999N-02271MA1999999101651MD1410001+9999REMSYN076AAXX  21184 04201 45/84 /3601 11204 21220 30165 40191 54000 333 11167 21227;
0101042010999992000122121004+77470-069220FM-12+001999999V0201001N004119999999N0500001N1-01801-01931102111ADDMA1999999101851MD1210201+9999REMSYN060AAXX  21214 04201 45/84 /1008 11180 21193 30185 40211 52020;
0101042010999992000122200004+77470-069220FM-12+001999999V0200901N004619999999N0500001N1-01791-01921102411ADDMA1999999102151MD1210301+9999REMSYN060AAXX  22004 04201 45/84 /0909 11179 21192 30215 40241 52030;
0101042010999992000122203004+77470-069220FM-12+001999999V0200901N003119999999N0500001N1-01791-01941102621ADDMA1999999102361MD1210211+9999REMSYN060AAXX  22034 04201 45/84 /0906 11179 21194 30236 40262 52021;
0149042010999992000122206004+77470-069220FM-12+001999999V0202201N000519999999N0500001N1-01841-02011102831ADDKA1120M-01711KA2120N-02131MA1999999102571MD1210211+9999REMSYN082AAXX  22064 04201 45/84 /2201 11184 21201 30257 40283 52021 333 11171 21213 91211;
0101042010999992000122212004+77470-069220FM-12+001999999V0201801N000519999999N0350001N1-01741-01951103021ADDMA1999999102761MD1210021+9999REMSYN060AAXX  22124 04201 45/81 /1801 11174 21195 30276 40302 52002;
0101042010999992000122215004+77470-069220FM-12+001999999V0209999C000019999999N0450001N1-01721-01901103001ADDMA1999999102741MD1710021+9999REMSYN060AAXX  22154 04201 45/83 /0000 11172 21190 30274 40300 57002;
0149042010999992000122218004+77470-069220FM-12+001999999V0201901N000519999999N0260001N1-01691-01851102961ADDKA1120M-01631KA2999N-01911MA1999999102701MD1710041+9999REMSYN082AAXX  22184 04201 4//76 /1901 11169 21185 30270 40296 57004 77770 333 11163 21191;
0107042010999992000122221004+77470-069220FM-12+001999999V0203001N002119999999N0200001N1-01661-01841102911ADDMA1999999102651MD1710051+9999REMSYN066AAXX  22214 04201 4//70 /3004 11166 21184 30265 40291 57005 77777;
0107042010999992000122300004+77470-069220FM-12+001999999V0202801N001519999999N0270001N1-01691-01861102861ADDMA1999999102601MD1710051+9999REMSYN066AAXX  23004 04201 4//77 /2803 11169 21186 30260 40286 57005 72277;
0107042010999992000122303004+77470-069220FM-12+001999999V0203201N001019999999N0130001N1-01761-01911102841ADDMA1999999102581MD1710021+9999REMSYN066AAXX  23034 04201 4//63 /3202 11176 21191 30258 40284 57002 77770;
0149042010999992000122306004+77470-069220FM-12+001999999V0201001N002119999999N0190001N1-01681-01861102821ADDKA1120M-01651KA2999N-01851MA1999999102561MD1710021+9999REMSYN082AAXX  23064 04201 4//69 /1004 11168 21186 30256 40282 57002 77770 333 11165 21185;
0107042010999992000122309004+77470-069220FM-12+001999999V0209999C000019999999N0300001N1-01671-01861102821ADDMA1999999102561MD1410001+9999REMSYN066AAXX  23094 04201 4//80 /0000 11167 21186 30256 40282 54000 77777;
0107042010999992000122312004+77470-069220FM-12+001999999V0203001N001019999999N0400001N1-01741-01921102821ADDMA1999999102561MD1410001+9999REMSYN066AAXX  23124 04201 4//82 /3002 11174 21192 30256 40282 54000 70077;
0101042010999992000122315004+77470-069220FM-12+001999999V0202701N001019999999N0450001N1-01851-02011102831ADDMA1999999102571MD1210011+9999REMSYN060AAXX  23154 04201 45/83 /2702 11185 21201 30257 40283 52001;
0149042010999992000122318004+77470-069220FM-12+001999999V0202701N000519999999N0120001N1-01801-01951102861ADDKA1120M-01431KA2999N-01991MA1999999102601MD1210031+9999REMSYN082AAXX  23184 04201 4//62 /2701 11180 21195 30260 40286 52003 70070 333 11143 21199;
0101042010999992000122321004+77470-069220FM-12+001999999V0209999C000019999999N0450001N1-01821-01981102911ADDMA1999999102651MD1210051+9999REMSYN060AAXX  23214 04201 45/83 /0000 11182 21198 30265 40291 52005;
0101042010999992000122400004+77470-069220FM-12+001999999V0202501N000519999999N0500001N1-02021-02191102971ADDMA1999999102711MD1210061+9999REMSYN060AAXX  24004 04201 45/84 /2501 11202 21219 30271 40297 52006;
0101042010999992000122403004+77470-069220FM-12+001999999V0201301N000519999999N0450001N1-01931-02081103011ADDMA1999999102751MD1210041+9999REMSYN060AAXX  24034 04201 45/83 /1301 11193 21208 30275 40301 52004;
0143042010999992000122406004+77470-069220FM-12+001999999V0209999C000019999999N0500001N1-01971-02141103041ADDKA1120M-01751KA2999N-02111MA1999999102781MD1210031+9999REMSYN076AAXX  24064 04201 45/84 /0000 11197 21214 30278 40304 52003 333 11175 21211;
0101042010999992000122409004+77470-069220FM-12+001999999V0201401N000519999999N0500001N1-01981-02121103101ADDMA1999999102841MD1210061+9999REMSYN060AAXX  24094 04201 45/84 /1401 11198 21212 30284 40310 52006;
0101042010999992000122412004+77470-069220FM-12+001999999V0203001N000519999999N0500001N1-02071-02201103071ADDMA1999999102811MD1710031+9999REMSYN060AAXX  24124 04201 45/84 /3001 11207 21220 30281 40307 57003;
0101042010999992000122415004+77470-069220FM-12+001999999V0202601N000519999999N0500001N1-02041-02191102971ADDMA1999999102711MD1710101+9999REMSYN060AAXX  24154 04201 45/84 /2601 11204 21219 30271 40297 57010;
0143042010999992000122418004+77470-069220FM-12+001999999V0201501N000519999999N0500001N1-02031-02171102871ADDKA1120M-01811KA2999N-02191MA1999999102611MD1710101+9999REMSYN076AAXX  24184 04201 45/84 /1501 11203 21217 30261 40287 57010 333 11181 21219;
0101042010999992000122421004+77470-069220FM-12+001999999V0203101N001019999999N0500001N1-01961-02101102771ADDMA1999999102511MD1710101+9999REMSYN060AAXX  24214 04201 45/84 /3102 11196 21210 30251 40277 57010;
0101042010999992000122500004+77470-069220FM-12+001999999V0202901N000519999999N0400001N1-01951-02081102601ADDMA1999999102341MD1710171+9999REMSYN060AAXX  25004 04201 45/82 /2901 11195 21208 30234 40260 57017;
0101042010999992000122503004+77470-069220FM-12+001999999V0201901N000519999999N0500001N1-01731-01891102451ADDMA1999999102191MD1710151+9999REMSYN060AAXX  25034 04201 45/84 /1901 11173 21189 30219 40245 57015;
0149042010999992000122506004+77470-069220FM-12+001999999V0203201N001019999999N0025001N1-01591-01761102341ADDKA1120M-01591KA2999N-02161MA1999999102081MD1710111+9999REMSYN082AAXX  25064 04201 4//25 /3202 11159 21176 30208 40234 57011 77170 333 11159 21216;
0107042010999992000122509004+77470-069220FM-12+001999999V0202901N000519999999N0008001N1-01461-01571102241ADDMA1999999101991MD1710091+9999REMSYN066AAXX  25094 04201 4//08 /2901 11146 21157 30199 40224 57009 77177;
0107042010999992000122512004+77470-069220FM-12+001999999V0202901N001019999999N0020001N1-01441-01551102091ADDMA1999999101841MD1710151+9999REMSYN066AAXX  25124 04201 4//20 /2902 11144 21155 30184 40209 57015 77177;
0107042010999992000122515004+77470-069220FM-12+001999999V0202801N001019999999N0032001N1-01401-01511101971ADDMA1999999101721MD1710121+9999REMSYN066AAXX  25154 04201 4//32 /2802 11140 21151 30172 40197 57012 77177;
0149042010999992000122518004+77470-069220FM-12+001999999V0201201N002119999999N0010001N1-01361-01461101921ADDKA1120M-01361KA2999N-01591MA1999999101671MD1710051+9999REMSYN082AAXX  25184 04201 4//10 /1204 11136 21146 30167 40192 57005 77177 333 11136 21159;
0107042010999992000122521004+77470-069220FM-12+001999999V0203101N000519999999N0006001N1-01311-01401101811ADDMA1999999101561MD1710111+9999REMSYN066AAXX  25214 04201 4//06 /3101 11131 21140 30156 40181 57011 77277;
0087042010999992000122600004+77470-069220FM-12+001999999V0209999C000019999999N0011001N1-01251-01341101631ADDMA1999999101381REMSYN060AAXX  26004 04201 4//11 /0000 11125 21134 30138 40163 77177;
0107042010999992000122603004+77470-069220FM-12+001999999V0209999C000019999999N0006001N1-01211-01291101341ADDMA1999999101091MD1710291+9999REMSYN066AAXX  26034 04201 4//06 /0000 11121 21129 30109 40134 57029 77277;
0149042010999992000122606004+77470-069220FM-12+001999999V0209999C000019999999N0028001N1-01041-01101101141ADDKA1120M-01041KA2999N-01301MA1999999100891MD1710201+9999REMSYN082AAXX  26064 04201 4//28 /0000 11104 21110 30089 40114 57020 77177 333 11104 21130;
0107042010999992000122609004+77470-069220FM-12+001999999V0209999C000019999999N0023001N1-00561-00611101111ADDMA1999999100871MD1710021+9999REMSYN066AAXX  26094 04201 4//23 /0000 11056 21061 30087 40111 57002 77177;
0107042010999992000122612004+77470-069220FM-12+001999999V0202501N002119999999N0450001N1-00901-01021101231ADDMA1999999100981MD1210111+9999REMSYN066AAXX  26124 04201 4//83 /2504 11090 21102 30098 40123 52011 70077;
0117042010999992000122615004+77470-069220FM-12+001999999V0202301N005119999999N0032001N1-01261-01361101511ADDMA1999999101261MD1210281+9999REMSYN076AAXX  26154 04201 4//32 /2310 11126 21136 30126 40151 52028 77170 333 91119;
0172042010999992000122618004+77470-069220FM-12+001999999V0203401N001519999999N0070001N1-01401-01541101861ADDKA1120M-00511KA2120N-01521MA1999999101611MD1210351+9999OA149900981REMSYN094AAXX  26184 04201 4//57 /3403 11140 21154 30161 40186 52035 77770 333 11051 21152 91119 91214;
0107042010999992000122621004+77470-069220FM-12+001999999V0203001N003119999999N0300001N1-01561-01821102201ADDMA1999999101941MD1210331+9999REMSYN066AAXX  26214 04201 4//80 /3006 11156 21182 30194 40220 52033 72477;
0107042010999992000122700004+77470-069220FM-12+001999999V0202601N002119999999N0160001N1-01941-02141102471ADDMA1999999102211MD1210271+9999REMSYN066AAXX  27004 04201 4//66 /2604 11194 21214 30221 40247 52027 70077;
0107042010999992000122703004+77470-069220FM-12+001999999V0203101N001519999999N0080001N1-02301-02431102611ADDMA1999999102351MD1210141+9999REMSYN066AAXX  27034 04201 4//58 /3103 11230 21243 30235 40261 52014 78570;
0149042010999992000122706004+77470-069220FM-12+001999999V0203001N002119999999N0070001N1-02391-02521102751ADDKA1120M-01381KA2999N-02421MA1999999102481MD1210131+9999REMSYN082AAXX  27064 04201 4//57 /3004 11239 21252 30248 40275 52013 77170 333 11138 21242;
0107042010999992000122709004+77470-069220FM-12+001999999V0203401N001519999999N0033001N1-02371-02521102851ADDMA1999999102581MD1210101+9999REMSYN066AAXX  27094 04201 4//33 /3403 11237 21252 30258 40285 52010 71177;
0107042010999992000122712004+77470-069220FM-12+001999999V0200501N001019999999N0100001N1-02551-02731102941ADDMA1999999102671MD1210091+9999REMSYN066AAXX  27124 04201 4//60 /0502 11255 21273 30267 40294 52009 72477;
0107042010999992000122715004+77470-069220FM-12+001999999V0201601N000519999999N0070001N1-02671-02871103071ADDMA1999999102801MD1210131+9999REMSYN066AAXX  27154 04201 4//57 /1601 11267 21287 30280 40307 52013 70070;
0149042010999992000122718004+77470-069220FM-12+001999999V0209999C000019999999N0014001N1-02841-02991103251ADDKA1120M-02341KA2999N-03081MA1999999102981MD1210181+9999REMSYN082AAXX  27184 04201 4//14 /0000 11284 21299 30298 40325 52018 71070 333 11234 21308;
0107042010999992000122721004+77470-069220FM-12+001999999V0200301N000519999999N0060001N1-02941-03081103391ADDMA1999999103121MD1210141+9999REMSYN066AAXX  27214 04201 4//56 /0301 11294 21308 30312 40339 52014 71011;
0107042010999992000122800004+77470-069220FM-12+001999999V0200901N005119999999N0120001N1-02231-02501103441ADDMA1999999103171MD1210051+9999REMSYN066AAXX  28004 04201 4//62 /0910 11223 21250 30317 40344 52005 70011;
0134042010999992000122803004+77470-069220FM-12+001999999V0203501N002119999999N0080001N1-02271-02691103391ADDMA1999999103121MD1710051+9999OA149900931REMSYN082AAXX  28034 04201 4//58 /3504 11227 21269 30312 40339 57005 70010 333 91118 91216;
0155042010999992000122806004+77470-069220FM-12+001999999V0200201N003119999999N0210001N1-02301-02751103321ADDKA1120M-02111KA2120N-03411MA1999999103051MD1710071+9999REMSYN088AAXX  28064 04201 4//71 /0206 11230 21275 30305 40332 57007 70010 333 11211 21341 91119;
0101042010999992000122809004+77470-069220FM-12+001999999V0203101N001519999999N0350001N1-02451-02801103321ADDMA1999999103051MD1410001+9999REMSYN060AAXX  28094 04201 45/81 /3103 11245 21280 30305 40332 54000;
0111042010999992000122812004+77470-069220FM-12+001999999V0202901N001019999999N0300001N1-02501-02871103241ADDMA1999999102971MD1710081+9999REMSYN070AAXX  28124 04201 45/80 /2902 11250 21287 30297 40324 57008 333 91217;
0134042010999992000122815004+77470-069220FM-12+001999999V0202601N001019999999N0450001N1-02291-02791103111ADDMA1999999102841MD1710131+9999OA149900881REMSYN082AAXX  28154 04201 4//83 /2602 11229 21279 30284 40311 57013 70010 333 91117 91219;
0172042010999992000122818004+77470-069220FM-12+001999999V0202701N001019999999N0260001N1-02451-02731103031ADDKA1120M-01781KA2120N-02621MA1999999102761MD1710081+9999OA149900881REMSYN094AAXX  28184 04201 4//76 /2702 11245 21273 30276 40303 57008 70010 333 11178 21262 91117 91219;
0101042010999992000122821004+77470-069220FM-12+001999999V0202801N002119999999N0400001N1-02211-02581102971ADDMA1999999102711MD1710051+9999REMSYN060AAXX  28214 04201 45/82 /2804 11221 21258 30271 40297 57005;
0101042010999992000122900004+77470-069220FM-12+001999999V0202801N000519999999N0450001N1-02041-02461102881ADDMA1999999102621MD1710091+9999REMSYN060AAXX  29004 04201 45/83 /2801 11204 21246 30262 40288 57009;
0101042010999992000122903004+77470-069220FM-12+001999999V0201301N000519999999N0450001N1-02021-02501102791ADDMA1999999102531MD1710091+9999REMSYN060AAXX  29034 04201 45/83 /1301 11202 21250 30253 40279 57009;
0143042010999992000122906004+77470-069220FM-12+001999999V0202801N000519999999N0450001N1-02191-02641102701ADDKA1120M-01911KA2999N-02451MA1999999102441MD1710091+9999REMSYN076AAXX  29064 04201 45/83 /2801 11219 21264 30244 40270 57009 333 11191 21245;
0101042010999992000122909004+77470-069220FM-12+001999999V0209999C000019999999N0450001N1-02111-02521102591ADDMA1999999102331MD1710111+9999REMSYN060AAXX  29094 04201 45/83 /0000 11211 21252 30233 40259 57011;
0101042010999992000122912004+77470-069220FM-12+001999999V0201501N000519999999N0450001N1-02181-02591102461ADDMA1999999102201MD1710131+9999REMSYN060AAXX  29124 04201 45/83 /1501 11218 21259 30220 40246 57013;
0101042010999992000122915004+77470-069220FM-12+001999999V0200501N001019999999N0450001N1-02201-02581102361ADDMA1999999102101MD1710101+9999REMSYN060AAXX  29154 04201 45/83 /0502 11220 21258 30210 40236 57010;
0143042010999992000122918004+77470-069220FM-12+001999999V0209999C000019999999N0350001N1-02161-02541102231ADDKA1120M-01871KA2999N-02481MA1999999101971MD1710131+9999REMSYN076AAXX  29184 04201 45/81 /0000 11216 21254 30197 40223 57013 333 11187 21248;
0101042010999992000122921004+77470-069220FM-12+001999999V0203001N001019999999N0400001N1-02241-02541102101ADDMA1999999101841MD1710131+9999REMSYN060AAXX  29214 04201 45/82 /3002 11224 21254 30184 40210 57013;
0101042010999992000123000004+77470-069220FM-12+001999999V0202801N000519999999N0450001N1-02071-02401101981ADDMA1999999101721MD1710121+9999REMSYN060AAXX  30004 04201 45/83 /2801 11207 21240 30172 40198 57012;
0101042010999992000123003004+77470-069220FM-12+001999999V0202601N000519999999N0400001N1-02181-02471101911ADDMA1999999101651MD1710071+9999REMSYN060AAXX  30034 04201 45/82 /2601 11218 21247 30165 40191 57007;
0143042010999992000123006004+77470-069220FM-12+001999999V0203001N001519999999N0350001N1-01971-02301101791ADDKA1120M-01711KA2999N-02391MA1999999101531MD1710121+9999REMSYN076AAXX  30064 04201 45/81 /3003 11197 21230 30153 40179 57012 333 11171 21239;
0107042010999992000123009004+77470-069220FM-12+001999999V0200701N000519999999N0035001N1-01981-02181101731ADDMA1999999101471MD1710061+9999REMSYN066AAXX  30094 04201 4//35 /0701 11198 21218 30147 40173 57006 77770;
0107042010999992000123012004+77470-069220FM-12+001999999V0200401N000519999999N0027001N1-01801-01941101651ADDMA1999999101391MD1710081+9999REMSYN066AAXX  30124 04201 4//27 /0401 11180 21194 30139 40165 57008 77170;
0107042010999992000123015004+77470-069220FM-12+001999999V0202701N000519999999N0036001N1-01781-01901101561ADDMA1999999101301MD1710091+9999REMSYN066AAXX  30154 04201 4//36 /2701 11178 21190 30130 40156 57009 77177;
0149042010999992000123018004+77470-069220FM-12+001999999V0203001N001019999999N0020001N1-01771-01891101471ADDKA1120M-01641KA2999N-02031MA1999999101211MD1710091+9999REMSYN082AAXX  30184 04201 4//20 /3002 11177 21189 30121 40147 57009 77177 333 11164 21203;
0107042010999992000123021004+77470-069220FM-12+001999999V0202801N001019999999N0028001N1-01731-01851101381ADDMA1999999101121MD1710091+9999REMSYN066AAXX  30214 04201 4//28 /2802 11173 21185 30112 40138 57009 77177;
0107042010999992000123100004+77470-069220FM-12+001999999V0203001N001019999999N0016001N1-01701-01811101241ADDMA1999999100991MD1710131+9999REMSYN066AAXX  31004 04201 4//16 /3002 11170 21181 30099 40124 57013 77177;
0107042010999992000123103004+77470-069220FM-12+001999999V0209999C000019999999N0048001N1-01711-01821101071ADDMA1999999100821MD1710171+9999REMSYN066AAXX  31034 04201 4//48 /0000 11171 21182 30082 40107 57017 77177;
0149042010999992000123106004+77470-069220FM-12+001999999V0202801N001019999999N0027001N1-01761-01861100911ADDKA1120M-01431KA2999N-01861MA1999999100661MD1710161+9999REMSYN082AAXX  31064 04201 4//27 /2802 11176 21186 30066 40091 57016 77177 333 11143 21186;
0107042010999992000123109004+77470-069220FM-12+001999999V0203001N001019999999N0019001N1-01801-01911100821ADDMA1999999100571MD1710091+9999REMSYN066AAXX  31094 04201 4//19 /3002 11180 21191 30057 40082 57009 77177;
0107042010999992000123112004+77470-069220FM-12+001999999V0201101N004119999999N0030001N1-01761-01911100931ADDMA1999999100681MD1210111+9999REMSYN066AAXX  31124 04201 4//30 /1108 11176 21191 30068 40093 52011 77777;
0107042010999992000123115004+77470-069220FM-12+001999999V0201201N001519999999N0021001N1-01661-01801101031ADDMA1999999100781MD1210101+9999REMSYN066AAXX  31154 04201 4//21 /1203 11166 21180 30078 40103 52010 77777;
0149042010999992000123118004+77470-069220FM-12+001999999V0201001N005119999999N0190001N1-01701-02051101141ADDKA1120M-01491KA2999N-01971MA1999999100891MD1210111+9999REMSYN082AAXX  31184 04201 4//69 /1010 11170 21205 30089 40114 52011 78577 333 11149 21197;
0107042010999992000123121004+77470-069220FM-12+001999999V0203301N000519999999N0400001N1-01781-02111101311ADDMA1999999101051MD1210161+9999REMSYN066AAXX  31214 04201 4//82 /3301 11178 21211 30105 40131 52016 70010;
