0139072553999992000010319004+47030+005430FM-15+0196LFGJ V0201801N001012200019N0080001N1+00101+00101999999ADDGA1021+069009999GF102991999999999999999999MA1102711999999MW1001REMMET045LFGJ 031900Z 18002KT 8000 FEW230 01/01 Q1027;EQDQ01+000000PRSWM2
0139072553999992000010320004+47030+005430FM-15+0196LFGJ V0201801N002112200019N0080001N1+00101+00101999999ADDGA1021+069009999GF102991999999999999999999MA1102811999999MW1001REMMET045LFGJ 032000Z 18004KT 8000 FEW230 01/01 Q1028;EQDQ01+000000PRSWM2
0139072553999992000010321004+47030+005430FM-15+0196LFGJ V0201601N003112200019N0060001N1+00101+00001999999ADDGA1021+069009999GF102991999999999999999999MA1102811999999MW1001REMMET045LFGJ 032100Z 16006KT 6000 FEW230 01/00 Q1028;EQDQ01+000000PRSWM2
0162072553999992000010322004+47030+005430FM-15+0196LFGJ V0201801N001012200019N0040001N1+00101+00101999999ADDGA1021+009009999GA2021+069009999GF104991999999999999999999MA1102811999999MW1001REMMET052LFGJ 032200Z 18002KT 4000 FEW030 SCT230 01/01 Q1028;EQDQ01+000000PRSWM2
0139072553999992000010323004+47030+005430FM-15+0196LFGJ V0201501N002110096019N0040001N1+00101+00101999999ADDGA1071+009609999GF107991999999999999999999MA1102711999999MW1001REMMET045LFGJ 032300Z 15004KT 4000 BKN032 01/01 Q1027;EQDQ01+000000PRSWM2
0162072553999992000010400004+47030+005430FM-15+0196LFGJ V0202101N001012200019N0040001N1+00101+00101999999ADDGA1021+009609999GA2021+069009999GF104991999999999999999999MA1102711999999MW1001REMMET052LFGJ 040000Z 21002KT 4000 FEW032 SCT230 01/01 Q1027;EQDQ01+000000PRSWM2
0139072553999992000010401004+47030+005430FM-15+0196LFGJ V0201901N001512200019N0040001N1+00101+00101999999ADDGA1021+010809999GF104991999999999999999999MA1102711999999MW1001REMMET045LFGJ 040100Z 19003KT 4000 SCT036 01/01 Q1027;EQDQ01+000000PRSWM2
0162072553999992000010419004+47030+005430FM-15+0196LFGJ V0201901N005110087019N0090001N1+00701+00501999999ADDGA1021+006009999GA2081+008709999GF108991999999999999999999MA1102401999999MW1001REMMET052LFGJ 041900Z 19010KT 9000 FEW020 OVC029 07/05 Q1024;EQDQ01+000000PRSWM2
0139072553999992000010420004+47030+005430FM-15+0196LFGJ V0201901N007210069019N0090001N1+00701+00601999999ADDGA1081+006909999GF108991999999999999999999MA1102401999999MW1001REMMET045LFGJ 042000Z 19014KT 9000 OVC023 07/06 Q1024;EQDQ01+000000PRSWM2
0139072553999992000010421004+47030+005430FM-15+0196LFGJ V0201901N006710069019N0112651N1+00701+00601999999ADDGA1081+006909999GF108991999999999999999999MA1102511999999MW1001REMMET045LFGJ 042100Z 19013KT 9999 OVC023 07/06 Q1025;EQDQ01+000000PRSWM2
0139072553999992000010422004+47030+005430FM-15+0196LFGJ V0201901N005710063019N0112651N1+00701+00601999999ADDGA1081+006309999GF108991999999999999999999MA1102401999999MW1001REMMET045LFGJ 042200Z 19011KT 9999 OVC021 07/06 Q1024;EQDQ01+000000PRSWM2
0162072553999992000010423004+47030+005430FM-15+0196LFGJ V0201901N006210102019N0112651N1+00801+00601999999ADDGA1021+006609999GA2081+010209999GF108991999999999999999999MA1102401999999MW1001REMMET052LFGJ 042300Z 19012KT 9999 SCT022 OVC034 08/06 Q1024;EQDQ01+000000PRSWM2
0162072553999992000010500004+47030+005430FM-15+0196LFGJ V0201901N005110066019N0112651N1+00801+00601999999ADDGA1071+006609999GA2081+009309999GF108991999999999999999999MA1102401999999MW1001REMMET052LFGJ 050000Z 19010KT 9999 BKN022 OVC031 08/06 Q1024;EQDQ01+000000PRSWM2
0139072553999992000010501004+47030+005430FM-15+0196LFGJ V0202101N004110066019N0112651N1+00701+00601999999ADDGA1081+006609999GF108991999999999999999999MA1102401999999MW1001REMMET045LFGJ 050100Z 21008KT 9999 OVC022 07/06 Q1024;EQDQ01+000000PRSWM2
0136072553999992000010519004+47030+005430FM-15+0196LFGJ V0200701N002612200019N0030001N1+00401+00401999999ADDGF100991999999999999999999MA1102101999999MW1001REMMET058LFGJ 051900Z 07005KT 3000 R06/0800VP2000U SKC 04/04 Q1021;EQDQ01+000000PRSWM2
0092072553999992000010521004+47030+005430FM-15+0196LFGJ V0200801N002112200019N0150001N1+99999+99999999999ADDMW1001REMMET055LFGJ 052100Z 08004KT 150 R06/0300 FG VV/// 02/01 Q1021;EQDQ01+000000PRSWM2
0092072553999992000010522004+47030+005430FM-15+0196LFGJ V0200701N002112200019N0150001N1+99999+99999999999ADDMW1001REMMET055LFGJ 052200Z 07004KT 150 R06/0370 FG VV/// 01/01 Q1020;EQDQ01+000000PRSWM2
0095072553999992000010601004+47030+005430FM-15+0196LFGJ V0200201N001012200019N0150001N1+99999+99999999999ADDMW1001REMMET058LFGJ 060100Z 02002KT 150 R06/1200 FG BKN001 M01/M01 Q1020;EQDQ01+000000PRSWM2
0160072553999992000010620004+47030+005430FM-15+0196LFGJ V0201601N002612200019N0060001N1+00301+00301999999ADDGA1021+069009999GF102991999999999999999999MA1102401999999MW1121REMMET050LFGJ 062000Z 16005KT 6000 MIFG FEW230 03/03 Q1024;EQDQ01+000003PRSWM1Q02    003PRSWM1
0162072553999992000010621004+47030+005430FM-15+0196LFGJ V0201401N001510690019N0050001N1+00301+00301999999ADDGA1021+030009999GA2071+069009999GF107991999999999999999999MA1102401999999MW1001REMMET052LFGJ 062100Z 14003KT 5000 FEW100 BKN230 03/03 Q1024;EQDQ01+000000PRSWM2
0185072553999992000010622004+47030+005430FM-15+0196LFGJ V0201501N001510690019N0060001N1+00301+00301999999ADDGA1021+009909999GA2021+030009999GA3071+069009999GF107991999999999999999999MA1102511999999MW1001REMMET059LFGJ 062200Z 15003KT 6000 FEW033 SCT100 BKN230 03/03 Q1025;EQDQ01+000000PRSWM2
0162072553999992000010623004+47030+005430FM-15+0196LFGJ V0200901N001010690019N0060001N1+00301+00301999999ADDGA1021+030009999GA2071+069009999GF107991999999999999999999MA1102401999999MW1001REMMET052LFGJ 062300Z 09002KT 6000 SCT100 BKN230 03/03 Q1024;EQDQ01+000000PRSWM2
0162072553999992000010700004+47030+005430FM-15+0196LFGJ V0203101N001010690019N0060001N1+00301+00301999999ADDGA1021+030009999GA2071+069009999GF107991999999999999999999MA1102511999999MW1001REMMET052LFGJ 070000Z 31002KT 6000 FEW100 BKN230 03/03 Q1025;EQDQ01+000000PRSWM2
0139072553999992000010701004+47030+005430FM-15+0196LFGJ V0201501N001010147019N0060001N1+00301+00301999999ADDGA1071+014709999GF107991999999999999999999MA1102511999999MW1001REMMET045LFGJ 070100Z 15002KT 6000 BKN049 03/03 Q1025;EQDQ01+000000PRSWM2
0204072553999992000010719004+47030+005430FM-15+0196LFGJ V0209999C000010096019N0020001N1+00501+00501999999ADDGA1021+002409999GA2021+004809999GA3081+009609999GF108991999999999999999999MA1102511999999MW1101REMMET062LFGJ 071900Z 00000KT 2000 BR FEW008 SCT016 OVC032 05/05 Q1025;EQDQ01+000003PRSWM1Q02    003PRSWM1
0215072553999992000010720004+47030+005430FM-15+0196LFGJ V0209999C000010048019N0015001N1+00501+00501999999ADDGA1021+002409999GA2071+004809999GA3081+009309999GF108991999999999999999999MA1102511999999MW1101MW2121REMMET067LFGJ 072000Z 00000KT 1500 MIFG BR FEW008 BKN016 OVC031 05/05 Q1025;EQDQ01+000003PRSWM1Q02    003PRSWM1
0184072553999992000010721004+47030+005430FM-15+0196LFGJ V0209999C000010012019N0015001N1+00501+00501999999ADDGA1071+001209999GF107991999999999999999999MA1102511999999MW1101MW2121REMMET068LFGJ 072100Z 00000KT 1500 R06/1200V2000D MIFG BR BKN004 05/05 Q1025;EQDQ01+000003PRSWM1Q02    003PRSWM1
0190072553999992000010722004+47030+005430FM-15+0196LFGJ V0209999C000010012019N0010001N1+00501+00501999999ADDED199U07009GA1081+001209999GF108991999999999999999999MA1102401999999MW1101MW2121REMMET063LFGJ 072200Z 00000KT 1000 R06/0700N MIFG BR OVC004 05/05 Q1024;EQDQ01+000003PRSWM1Q02    003PRSWM1
0178072553999992000010723004+47030+005430FM-15+0196LFGJ V0209999C000010024019N0015001N1+00501+00501999999ADDED199U12009GA1081+002409999GF108991999999999999999999MA1102401999999MW1101REMMET057LFGJ 072300Z 00000KT 1500 R06/1200 BR OVC008 05/05 Q1024;EQDQ01+000003PRSWM1Q02    003PRSWM1
0158072553999992000010800004+47030+005430FM-15+0196LFGJ V0202301N002110024019N0040001N1+00501+00501999999ADDGA1081+002409999GF108991999999999999999999MA1102401999999MW1101REMMET048LFGJ 080000Z 23004KT 4000 BR OVC008 05/05 Q1024;EQDQ01+000003PRSWM1Q02    003PRSWM1
0179072553999992000010801004+47030+005430FM-15+0196LFGJ V0202301N001510030019N0008001N1+00501+00501999999ADDED199U20009GA1081+003009999GF108991999999999999999999MA1102401999999MW1441REMMET058LFGJ 080100Z 23003KT 0800 R06/P2000 FG OVC010 05/05 Q1024;EQDQ01+000003PRSWM1Q02    003PRSWM1
0162072553999992000011019004+47030+005430FM-15+0196LFGJ V0200101N004110108019N0112651N1+00301+00201999999ADDGA1021+006909999GA2081+010809999GF108991999999999999999999MA1103391999999MW1001REMMET052LFGJ 101900Z 01008KT 9999 SCT023 OVC036 03/02 Q1034;EQDQ01+000000PRSWM2
0162072553999992000011020004+47030+005430FM-15+0196LFGJ V0200201N002110108019N0112651N1+00301+00201999999ADDGA1021+006009999GA2081+010809999GF108991999999999999999999MA1103391999999MW1001REMMET052LFGJ 102000Z 02004KT 9999 SCT020 OVC036 03/02 Q1034;EQDQ01+000000PRSWM2
0139072553999992000011021004+47030+005430FM-15+0196LFGJ V0200101N003110057019N0112651N1+00301+00101999999ADDGA1081+005709999GF108991999999999999999999MA1103491999999MW1001REMMET045LFGJ 102100Z 01006KT 9999 OVC019 03/01 Q1035;EQDQ01+000000PRSWM2
0139072553999992000011022004+47030+005430FM-15+0196LFGJ V0200301N002110036019N0112651N1+00301+00201999999ADDGA1071+003609999GF107991999999999999999999MA1103491999999MW1001REMMET045LFGJ 102200Z 03004KT 9999 BKN012 03/02 Q1035;EQDQ01+000000PRSWM2
0139072553999992000011023004+47030+005430FM-15+0196LFGJ V0200101N003110039019N0112651N1+00301+00101999999ADDGA1071+003909999GF107991999999999999999999MA1103391999999MW1001REMMET045LFGJ 102300Z 01006KT 9999 BKN013 03/01 Q1034;EQDQ01+000000PRSWM2
0139072553999992000011100004+47030+005430FM-15+0196LFGJ V0203601N003112200019N0112651N1+00201+00101999999ADDGA1021+003909999GF104991999999999999999999MA1103391999999MW1001REMMET045LFGJ 110000Z 36006KT 9999 SCT013 02/01 Q1034;EQDQ01+000000PRSWM2
0139072553999992000011101004+47030+005430FM-15+0196LFGJ V0203601N003112200019N0080001N1+00201+00101999999ADDGA1021+003609999GF104991999999999999999999MA1103491999999MW1001REMMET045LFGJ 110100Z 36006KT 8000 SCT012 02/01 Q1035;EQDQ01+000000PRSWM2
0139072553999992000011119004+47030+005430FM-15+0196LFGJ V0200101N003110054019N0112651N1+00401+00201999999ADDGA1081+005409999GF108991999999999999999999MA1103491999999MW1001REMMET045LFGJ 111900Z 01006KT 9999 OVC018 04/02 Q1035;EQDQ01+000000PRSWM2
0162072553999992000011120004+47030+005430FM-15+0196LFGJ V0200101N004110075019N0090001N1+00401+00201999999ADDGA1021+004509999GA2081+007509999GF108991999999999999999999MA1103491999999MW1001REMMET052LFGJ 112000Z 01008KT 9000 FEW015 OVC025 04/02 Q1035;EQDQ01+000000PRSWM2
0139072553999992000011121004+47030+005430FM-15+0196LFGJ V0200201N004110084019N0112651N1+00301+00201999999ADDGA1081+008409999GF108991999999999999999999MA1103491999999MW1001REMMET045LFGJ 112100Z 02008KT 9999 OVC028 03/02 Q1035;EQDQ01+000000PRSWM2
0139072553999992000011122004+47030+005430FM-15+0196LFGJ V0203601N004110069019N0112651N1+00301+00201999999ADDGA1081+006909999GF108991999999999999999999MA1103391999999MW1001REMMET045LFGJ 112200Z 36008KT 9999 OVC023 03/02 Q1034;EQDQ01+000000PRSWM2
0139072553999992000011123004+47030+005430FM-15+0196LFGJ V0200101N003610075019N0112651N1+00301+00201999999ADDGA1081+007509999GF108991999999999999999999MA1103391999999MW1001REMMET045LFGJ 112300Z 01007KT 9999 OVC025 03/02 Q1034;EQDQ01+000000PRSWM2
0139072553999992000011200004+47030+005430FM-15+0196LFGJ V0200101N003110078019N0112651N1+00301+00201999999ADDGA1081+007809999GF108991999999999999999999MA1103391999999MW1001REMMET045LFGJ 120000Z 01006KT 9999 OVC026 03/02 Q1034;EQDQ01+000000PRSWM2
0139072553999992000011201004+47030+005430FM-15+0196LFGJ V0200101N002110093019N0112651N1+00301+00201999999ADDGA1081+009309999GF108991999999999999999999MA1103291999999MW1001REMMET045LFGJ 120100Z 01004KT 9999 OVC031 03/02 Q1033;EQDQ01+000000PRSWM2
0139072553999992000011219004+47030+005430FM-15+0196LFGJ V0200901N001010081019N0112651N1+00401+00101999999ADDGA1081+008109999GF108991999999999999999999MA1102611999999MW1001REMMET045LFGJ 121900Z 09002KT 9999 OVC027 04/01 Q1026;EQDQ01+000000PRSWM2
0139072553999992000011220004+47030+005430FM-15+0196LFGJ V0209999C000010081019N0112651N1+00401+00101999999ADDGA1081+008109999GF108991999999999999999999MA1102611999999MW1001REMMET045LFGJ 122000Z 00000KT 9999 OVC027 04/01 Q1026;EQDQ01+000000PRSWM2
0139072553999992000011221004+47030+005430FM-15+0196LFGJ V0200801N001510069019N0112651N1+00201+00101999999ADDGA1081+006909999GF108991999999999999999999MA1102611999999MW1001REMMET045LFGJ 122100Z 08003KT 9999 OVC023 02/01 Q1026;EQDQ01+000000PRSWM2
0140072553999992000011222004+47030+005430FM-15+0196LFGJ V0200801N002112200019N0112651N1+00101+00001999999ADDGA1021+006909999GF102991999999999999999999MA1102511999999MW1001REMMET046LFGJ 122200Z 08004KT 9999 FEW023 01/M00 Q1025;EQDQ01+000000PRSWM2
0141072553999992000011223004+47030+005430FM-15+0196LFGJ V0201001N002112200019N0080001N1+00001-00101999999ADDGA1021+006909999GF102991999999999999999999MA1102401999999MW1001REMMET047LFGJ 122300Z 10004KT 8000 FEW023 M00/M01 Q1024;EQDQ01+000000PRSWM2
0122072553999992000011300004+47030+005430FM-15+0196LFGJ V0201001N002112200019N0070001N1-00101-00101999999ADDGF100991999999999999999999MA1102401999999MW1001REMMET044LFGJ 130000Z 10004KT 7000 SKC M01/M01 Q1024;EQDQ01+000000PRSWM2
0122072553999992000011301004+47030+005430FM-15+0196LFGJ V0200901N002112200019N0070001N1-00101-00201999999ADDGF100991999999999999999999MA1102301999999MW1001REMMET044LFGJ 130100Z 09004KT 7000 SKC M01/M02 Q1023;EQDQ01+000000PRSWM2
0139072553999992000011319004+47030+005430FM-15+0196LFGJ V0201001N002112200019N0070001N1+00001+00001999999ADDGA1021+012009999GF104991999999999999999999MA1101801999999MW1001REMMET045LFGJ 131900Z 10004KT 7000 SCT040 00/00 Q1018;EQDQ01+000000PRSWM2
0140072553999992000011320004+47030+005430FM-15+0196LFGJ V0200901N003112200019N0060001N1+00001+00001999999ADDGA1021+012009999GF102991999999999999999999MA1101801999999MW1001REMMET046LFGJ 132000Z 09006KT 6000 FEW040 00/M00 Q1018;EQDQ01+000000PRSWM2
0122072553999992000011321004+47030+005430FM-15+0196LFGJ V0200901N002112200019N0060001N1+00001-00101999999ADDGF100991999999999999999999MA1101801999999MW1001REMMET044LFGJ 132100Z 09004KT 6000 SKC M00/M01 Q1018;EQDQ01+000000PRSWM2
0122072553999992000011322004+47030+005430FM-15+0196LFGJ V0200801N002112200019N0050001N1-00101-00101999999ADDGF100991999999999999999999MA1101801999999MW1001REMMET044LFGJ 132200Z 08004KT 5000 SKC M01/M01 Q1018;EQDQ01+000000PRSWM2
0122072553999992000011323004+47030+005430FM-15+0196LFGJ V0200901N002112200019N0050001N1-00201-00201999999ADDGF100991999999999999999999MA1101801999999MW1001REMMET044LFGJ 132300Z 09004KT 5000 SKC M02/M02 Q1018;EQDQ01+000000PRSWM2
0122072553999992000011400004+47030+005430FM-15+0196LFGJ V0200501N002112200019N0070001N1-00201-00201999999ADDGF100991999999999999999999MA1101801999999MW1001REMMET044LFGJ 140000Z 05004KT 7000 SKC M02/M02 Q1018;EQDQ01+000000PRSWM2
0143072553999992000011401004+47030+005430FM-15+0196LFGJ V0200901N001012200019N0040001N1-00301-00301999999ADDGF100991999999999999999999MA1101801999999MW1101REMMET049LFGJ 140100Z 09002KT 4000SW BR SKC M03/M03 Q1018;EQDQ01+000003PRSWM1Q02    003PRSWM1
0092072553999992000011419004+47030+005430FM-15+0196LFGJ V0200401N00311220001CN0099001N1+00201-00101999999ADDMA1102001999999MW1001REMMET040LFGJ 141900Z 04006KT CAVOK 02/M01 Q1020;EQDQ01+000000PRSWM2
0121072553999992000011420004+47030+005430FM-15+0196LFGJ V0200401N004112200019N0090001N1+00201-00101999999ADDGF100991999999999999999999MA1102001999999MW1001REMMET043LFGJ 142000Z 04008KT 9000 SKC 02/M01 Q1020;EQDQ01+000000PRSWM2
0092072553999992000011421004+47030+005430FM-15+0196LFGJ V0200301N00311220001CN0099001N1+00201-00101999999ADDMA1102001999999MW1001REMMET040LFGJ 142100Z 03006KT CAVOK 02/M01 Q1020;EQDQ01+000000PRSWM2
0092072553999992000011422004+47030+005430FM-15+0196LFGJ V0200701N00211220001CN0099001N1+00101-00201999999ADDMA1102101999999MW1001REMMET040LFGJ 142200Z 07004KT CAVOK 01/M02 Q1021;EQDQ01+000000PRSWM2
0092072553999992000011423004+47030+005430FM-15+0196LFGJ V0200201N00311220001CN0099001N1+00101-00201999999ADDMA1102101999999MW1001REMMET040LFGJ 142300Z 02006KT CAVOK 01/M02 Q1021;EQDQ01+000000PRSWM2
0092072553999992000011500004+47030+005430FM-15+0196LFGJ V0200501N00211220001CN0099001N1+00101-00201999999ADDMA1102201999999MW1001REMMET040LFGJ 150000Z 05004KT CAVOK 01/M02 Q1022;EQDQ01+000000PRSWM2
0092072553999992000011501004+47030+005430FM-15+0196LFGJ V0200201N00511220001CN0099001N1+00101-00101999999ADDMA1102201999999MW1001REMMET040LFGJ 150100Z 02010KT CAVOK 01/M01 Q1022;EQDQ01+000000PRSWM2
0139072553999992000011719004+47030+005430FM-15+0196LFGJ V0201501N002110042019N0040001N1+00101+00101999999ADDGA1081+004209999GF108991999999999999999999MA1103121999999MW1001REMMET045LFGJ 171900Z 15004KT 4000 OVC014 01/01 Q1031;EQDQ01+000000PRSWM2
0181072553999992000011720004+47030+005430FM-15+0196LFGJ V0200301N001010030019N0035001N1+00101+00101999999ADDGA1071+003009999GA2071+004509999GF107991999999999999999999MA1103121999999MW1101REMMET055LFGJ 172000Z 03002KT 3500 BR BKN010 BKN015 01/01 Q1031;EQDQ01+000003PRSWM1Q02    003PRSWM1
0181072553999992000011721004+47030+005430FM-15+0196LFGJ V0202501N001010093019N0030001N1+00101+00101999999ADDGA1021+003009999GA2081+009309999GF108991999999999999999999MA1103121999999MW1101REMMET055LFGJ 172100Z 25002KT 3000 BR FEW010 OVC031 01/01 Q1031;EQDQ01+000003PRSWM1Q02    003PRSWM1
0181072553999992000011722004+47030+005430FM-15+0196LFGJ V0209999C000010096019N0030001N1+00101+00101999999ADDGA1021+004509999GA2081+009609999GF108991999999999999999999MA1103121999999MW1101REMMET055LFGJ 172200Z 00000KT 3000 BR FEW015 OVC032 01/01 Q1031;EQDQ01+000003PRSWM1Q02    003PRSWM1
0158072553999992000011723004+47030+005430FM-15+0196LFGJ V0201101N000510084019N0025001N1+00101+00101999999ADDGA1081+008409999GF108991999999999999999999MA1103011999999MW1101REMMET048LFGJ 172300Z 11001KT 2500 BR OVC028 01/01 Q1030;EQDQ01+000003PRSWM1Q02    003PRSWM1
0158072553999992000011800004+47030+005430FM-15+0196LFGJ V0201301N001010081019N0035001N1+00201+00201999999ADDGA1081+008109999GF108991999999999999999999MA1103011999999MW1101REMMET048LFGJ 180000Z 13002KT 3500 BR OVC027 02/02 Q1030;EQDQ01+000003PRSWM1Q02    003PRSWM1
0158072553999992000011801004+47030+005430FM-15+0196LFGJ V0201501N001010084019N0030001N1+00201+00101999999ADDGA1081+008409999GF108991999999999999999999MA1103011999999MW1101REMMET048LFGJ 180100Z 15002KT 3000 BR OVC028 02/01 Q1030;EQDQ01+000003PRSWM1Q02    003PRSWM1
0185072553999992000011819004+47030+005430FM-15+0196LFGJ V0203501N002110087019N0070001N1+00501+00401999999ADDGA1021+004809999GA2021+006909999GA3071+008709999GF107991999999999999999999MA1102511999999MW1001REMMET059LFGJ 181900Z 35004KT 7000 FEW016 SCT023 BKN029 05/04 Q1025;EQDQ01+000000PRSWM2
0162072553999992000011820004+47030+005430FM-15+0196LFGJ V0203501N004112200019N0112651N1+00401+00401999999ADDGA1021+007809999GA2021+030009999GF104991999999999999999999MA1102511999999MW1001REMMET052LFGJ 182000Z 35008KT 9999 FEW026 SCT100 04/04 Q1025;EQDQ01+000000PRSWM2
0091072553999992000011821004+47030+005430FM-15+0196LFGJ V0203601N00511220001CN0099001N1+00501+00401999999ADDMA1102611999999MW1001REMMET039LFGJ 182100Z 36010KT CAVOK 05/04 Q1026;EQDQ01+000000PRSWM2
0091072553999992000011822004+47030+005430FM-15+0196LFGJ V0200101N00311220001CN0099001N1+00401+00401999999ADDMA1102511999999MW1001REMMET039LFGJ 182200Z 01006KT CAVOK 04/04 Q1025;EQDQ01+000000PRSWM2
0182072553999992000011823004+47030+005430FM-15+0196LFGJ V0200101N005110180019N0112651N1+00501+00401999999ADDGA1021+003609999GA2071+018009999GF107991999999999999999999MA1102511999999MW1611REMMET056LFGJ 182300Z 01010KT 9999 -RA FEW012 BKN066 05/04 Q1025;EQDQ01+000003PRSWM1Q02    003PRSWM1
0185072553999992000011901004+47030+005430FM-15+0196LFGJ V0200101N004110180019N0112651N1+00401+00301999999ADDGA1021+004509999GA2021+014709999GA3071+018009999GF107991999999999999999999MA1102611999999MW1001REMMET059LFGJ 190100Z 01008KT 9999 FEW015 SCT049 BKN066 04/03 Q1026;EQDQ01+000000PRSWM2
0140072553999992000011919004+47030+005430FM-15+0196LFGJ V0200201N005112200019N0112651N1+00201-00101999999ADDGA1021+013809999GF102991999999999999999999MA1103121999999MW1001REMMET046LFGJ 191900Z 02010KT 9999 FEW046 02/M01 Q1031;EQDQ01+000000PRSWM2
0092072553999992000011920004+47030+005430FM-15+0196LFGJ V0200401N00411220001CN0099001N1+00101-00101999999ADDMA1103121999999MW1001REMMET040LFGJ 192000Z 04008KT CAVOK 01/M01 Q1031;EQDQ01+000000PRSWM2
0140072553999992000011921004+47030+005430FM-15+0196LFGJ V0200301N004110129019N0112651N1+00101-00101999999ADDGA1071+012909999GF107991999999999999999999MA1103121999999MW1001REMMET046LFGJ 192100Z 03008KT 9999 BKN043 01/M01 Q1031;EQDQ01+000000PRSWM2
0140072553999992000011922004+47030+005430FM-15+0196LFGJ V0200201N004110120019N0112651N1+00101-00101999999ADDGA1071+012009999GF107991999999999999999999MA1103121999999MW1001REMMET046LFGJ 192200Z 02008KT 9999 BKN040 01/M01 Q1031;EQDQ01+000000PRSWM2
0092072553999992000011923004+47030+005430FM-15+0196LFGJ V0200101N00411220001CN0099001N1+00101-00101999999ADDMA1103121999999MW1001REMMET040LFGJ 192300Z 01008KT CAVOK 01/M01 Q1031;EQDQ01+000000PRSWM2
0092072553999992000012000004+47030+005430FM-15+0196LFGJ V0200101N00411220001CN0099001N1+00101-00101999999ADDMA1103121999999MW1001REMMET040LFGJ 200000Z 01008KT CAVOK 01/M01 Q1031;EQDQ01+000000PRSWM2
0092072553999992000012001004+47030+005430FM-15+0196LFGJ V0203601N00411220001CN0099001N1+00001-00101999999ADDMA1103121999999MW1001REMMET040LFGJ 200100Z 36008KT CAVOK 00/M01 Q1031;EQDQ01+000000PRSWM2
0140072553999992000012019004+47030+005430FM-15+0196LFGJ V0202201N001010105019N0112651N1+00201-00101999999ADDGA1081+010509999GF108991999999999999999999MA1103121999999MW1001REMMET046LFGJ 201900Z 22002KT 9999 OVC035 02/M01 Q1031;EQDQ01+000000PRSWM2
0140072553999992000012020004+47030+005430FM-15+0196LFGJ V0202601N001510102019N0112651N1+00101+00001999999ADDGA1081+010209999GF108991999999999999999999MA1103121999999MW1001REMMET046LFGJ 202000Z 26003KT 9999 OVC034 01/M00 Q1031;EQDQ01+000000PRSWM2
0140072553999992000012021004+47030+005430FM-15+0196LFGJ V0202701N001010108019N0112651N1+00101+00001999999ADDGA1081+010809999GF108991999999999999999999MA1103121999999MW1001REMMET046LFGJ 202100Z 27002KT 9999 OVC036 01/M00 Q1031;EQDQ01+000000PRSWM2
0139072553999992000012022004+47030+005430FM-15+0196LFGJ V0209999C000010099019N0112651N1+00101+00001999999ADDGA1081+009909999GF108991999999999999999999MA1103121999999MW1001REMMET045LFGJ 202200Z 00000KT 9999 OVC033 01/00 Q1031;EQDQ01+000000PRSWM2
0140072553999992000012023004+47030+005430FM-15+0196LFGJ V0202801N001010105019N0112651N1+00101+00001999999ADDGA1081+010509999GF108991999999999999999999MA1103121999999MW1001REMMET046LFGJ 202300Z 28002KT 9999 OVC035 01/M00 Q1031;EQDQ01+000000PRSWM2
0140072553999992000012100004+47030+005430FM-15+0196LFGJ V0202001N001010111019N0112651N1+00101+00001999999ADDGA1081+011109999GF108991999999999999999999MA1103121999999MW1001REMMET046LFGJ 210000Z 20002KT 9999 OVC037 01/M00 Q1031;EQDQ01+000000PRSWM2
0140072553999992000012101004+47030+005430FM-15+0196LFGJ V0201701N001510120019N0112651N1+00001+00001999999ADDGA1081+012009999GF108991999999999999999999MA1103011999999MW1001REMMET046LFGJ 210100Z 17003KT 9999 OVC040 00/M00 Q1030;EQDQ01+000000PRSWM2
0139072553999992000012119004+47030+005430FM-15+0196LFGJ V0201501N000510042019N0060001N1+00201+00201999999ADDGA1081+004209999GF108991999999999999999999MA1102911999999MW1001REMMET045LFGJ 211900Z 15001KT 6000 OVC014 02/02 Q1029;EQDQ01+000000PRSWM2
0139072553999992000012120004+47030+005430FM-15+0196LFGJ V0209999C000010045019N0060001N1+00201+00201999999ADDGA1081+004509999GF108991999999999999999999MA1102911999999MW1001REMMET045LFGJ 212000Z 00000KT 6000 OVC015 02/02 Q1029;EQDQ01+000000PRSWM2
0185072553999992000012121004+47030+005430FM-15+0196LFGJ V0209999C000010180019N0070001N1+00201+00201999999ADDGA1021+004209999GA2021+012309999GA3081+018009999GF108991999999999999999999MA1102811999999MW1001REMMET059LFGJ 212100Z 00000KT 7000 SCT014 SCT041 OVC060 02/02 Q1028;EQDQ01+000000PRSWM2
0139072553999992000012122004+47030+005430FM-15+0196LFGJ V0202601N001510072019N0045001N1+00201+00201999999ADDGA1081+007209999GF108991999999999999999999MA1102711999999MW1001REMMET045LFGJ 212200Z 26003KT 4500 OVC024 02/02 Q1027;EQDQ01+000000PRSWM2
0139072553999992000012123004+47030+005430FM-15+0196LFGJ V0209999C000010051019N0045001N1+00201+00101999999ADDGA1081+005109999GF108991999999999999999999MA1102711999999MW1001REMMET045LFGJ 212300Z 00000KT 4500 OVC017 02/01 Q1027;EQDQ01+000000PRSWM2
0158072553999992000012200004+47030+005430FM-15+0196LFGJ V0201401N001010048019N0040001N1+00201+00201999999ADDGA1081+004809999GF108991999999999999999999MA1102711999999MW1101REMMET048LFGJ 220000Z 14002KT 4000 BR OVC016 02/02 Q1027;EQDQ01+000003PRSWM1Q02    003PRSWM1
0093072553999992000012419004+47030+005430FM-15+0196LFGJ V0200401N00671220001CN0099001N1-00301-00701999999ADDMA1102101999999MW1001REMMET041LFGJ 241900Z 04013KT CAVOK M03/M07 Q1021;EQDQ01+000000PRSWM2
0099072553999992000012421004+47030+005430FM-15+0196LFGJ V0200301N00621220001CN0099001N1-00401-00701999999ADDMA1102201999999MW1001REMMET047LFGJ 242100Z 03012KT CAVOK M04/M07 Q1022 NOSIG;EQDQ01+000000PRSWM2
0093072553999992000012422004+47030+005430FM-15+0196LFGJ V0200401N00511220001CN0099001N1-00501-00701999999ADDMA1102201999999MW1001REMMET041LFGJ 242200Z 04010KT CAVOK M05/M07 Q1022;EQDQ01+000000PRSWM2
0093072553999992000012423004+47030+005430FM-15+0196LFGJ V0200301N00461220001CN0099001N1-00501-00801999999ADDMA1102201999999MW1001REMMET041LFGJ 242300Z 03009KT CAVOK M05/M08 Q1022;EQDQ01+000000PRSWM2
0093072553999992000012501004+47030+005430FM-15+0196LFGJ V0200301N00571220001CN0099001N1-00501-00901999999ADDMA1102201999999MW1001REMMET041LFGJ 250100Z 03011KT CAVOK M05/M09 Q1022;EQDQ01+000000PRSWM2
0093072553999992000012520004+47030+005430FM-15+0196LFGJ V0200401N00311220001CN0099001N1-00501-00901999999ADDMA1102711999999MW1001REMMET041LFGJ 252000Z 04006KT CAVOK M05/M09 Q1027;EQDQ01+000000PRSWM2
0093072553999992000012521004+47030+005430FM-15+0196LFGJ V0200101N00211220001CN0099001N1-00601-01001999999ADDMA1102811999999MW1001REMMET041LFGJ 252100Z 01004KT CAVOK M06/M10 Q1028;EQDQ01+000000PRSWM2
0093072553999992000012522004+47030+005430FM-15+0196LFGJ V0200201N00101220001CN0099001N1-00601-01001999999ADDMA1102811999999MW1001REMMET041LFGJ 252200Z 02002KT CAVOK M06/M10 Q1028;EQDQ01+000000PRSWM2
0093072553999992000012619004+47030+005430FM-15+0196LFGJ V0200301N00101220001CN0099001N1-00401-00601999999ADDMA1103181999999MW1001REMMET041LFGJ 261900Z 03002KT CAVOK M04/M06 Q1032;EQDQ01+000000PRSWM2
0122072553999992000012620004+47030+005430FM-15+0196LFGJ V0200401N001012200019N0080001N1-00401-00601999999ADDGF100991999999999999999999MA1103291999999MW1001REMMET044LFGJ 262000Z 04002KT 8000 SKC M04/M06 Q1033;EQDQ01+000000PRSWM2
0122072553999992000012621004+47030+005430FM-15+0196LFGJ V0209999C000012200019N0080001N1-00601-00701999999ADDGF100991999999999999999999MA1103291999999MW1001REMMET044LFGJ 262100Z 00000KT 8000 SKC M06/M07 Q1033;EQDQ01+000000PRSWM2
0122072553999992000012622004+47030+005430FM-15+0196LFGJ V0202001N001012200019N0050001N1-00701-00801999999ADDGF100991999999999999999999MA1103291999999MW1001REMMET044LFGJ 262200Z 20002KT 5000 SKC M07/M08 Q1033;EQDQ01+000000PRSWM2
0122072553999992000012623004+47030+005430FM-15+0196LFGJ V0209999C000012200019N0050001N1-00801-00801999999ADDGF100991999999999999999999MA1103291999999MW1001REMMET044LFGJ 262300Z 00000KT 5000 SKC M08/M08 Q1033;EQDQ01+000000PRSWM2
0122072553999992000012700004+47030+005430FM-15+0196LFGJ V0200701N001012200019N0050001N1-00801-00901999999ADDGF100991999999999999999999MA1103291999999MW1001REMMET044LFGJ 270000Z 07002KT 5000 SKC M08/M09 Q1033;EQDQ01+000000PRSWM2
0122072553999992000012701004+47030+005430FM-15+0196LFGJ V0201101N001512200019N0050001N1-00801-00901999999ADDGF100991999999999999999999MA1103291999999MW1001REMMET044LFGJ 270100Z 11003KT 5000 SKC M08/M09 Q1033;EQDQ01+000000PRSWM2
0122072553999992000012719004+47030+005430FM-15+0196LFGJ V0201101N001512200019N0080001N1-00301-00301999999ADDGF100991999999999999999999MA1102911999999MW1001REMMET044LFGJ 271900Z 11003KT 8000 SKC M03/M03 Q1029;EQDQ01+000000PRSWM2
0122072553999992000012720004+47030+005430FM-15+0196LFGJ V0201001N001012200019N0070001N1-00301-00401999999ADDGF100991999999999999999999MA1102911999999MW1001REMMET044LFGJ 272000Z 10002KT 7000 SKC M03/M04 Q1029;EQDQ01+000000PRSWM2
0122072553999992000012721004+47030+005430FM-15+0196LFGJ V0200601N001012200019N0080001N1-00401-00401999999ADDGF100991999999999999999999MA1102911999999MW1001REMMET044LFGJ 272100Z 06002KT 8000 SKC M04/M04 Q1029;EQDQ01+000000PRSWM2
0122072553999992000012722004+47030+005430FM-15+0196LFGJ V0200801N002112200019N0080001N1-00401-00501999999ADDGF100991999999999999999999MA1102911999999MW1001REMMET044LFGJ 272200Z 08004KT 8000 SKC M04/M05 Q1029;EQDQ01+000000PRSWM2
0122072553999992000012723004+47030+005430FM-15+0196LFGJ V0201101N002112200019N0080001N1-00501-00501999999ADDGF100991999999999999999999MA1102811999999MW1001REMMET044LFGJ 272300Z 11004KT 8000 SKC M05/M05 Q1028;EQDQ01+000000PRSWM2
0122072553999992000012800004+47030+005430FM-15+0196LFGJ V0209999C000012200019N0070001N1-00501-00601999999ADDGF100991999999999999999999MA1102811999999MW1001REMMET044LFGJ 280000Z 00000KT 7000 SKC M05/M06 Q1028;EQDQ01+000000PRSWM2
0122072553999992000012801004+47030+005430FM-15+0196LFGJ V0200401N001012200019N0070001N1-00601-00601999999ADDGF100991999999999999999999MA1102811999999MW1001REMMET044LFGJ 280100Z 04002KT 7000 SKC M06/M06 Q1028;EQDQ01+000000PRSWM2
0162072553999992000012819004+47030+005430FM-15+0196LFGJ V0202101N002612200019N0112651N1+00201+00001999999ADDGA1021+012009999GA2021+075009999GF104991999999999999999999MA1102301999999MW1001REMMET052LFGJ 281900Z 21005KT 9999 FEW040 SCT250 02/00 Q1023;EQDQ01+000000PRSWM2
0153072553999992000012820004+47030+005430FM-15+0196LFGJ V0201901N00621220001CN0112651N1+00301+00001999999ADDGA1071+013809999GA2021+075009999MA1102201999999MW1001REMMET053LFGJ 282000Z 19012KT 9999 BKN046 SCT250 03/M00 Q1022;EQDQ01+000042SCOTCVQ02+000000PRSWM2
0163072553999992000012821004+47030+005430FM-15+0196LFGJ V0201901N006210750019N0112651N1+00301+00001999999ADDGA1021+012009999GA2071+075009999GF107991999999999999999999MA1102201999999MW1001REMMET053LFGJ 282100Z 19012KT 9999 FEW040 BKN250 03/M00 Q1022;EQDQ01+000000PRSWM2
0163072553999992000012822004+47030+005430FM-15+0196LFGJ V0202101N003610750019N0112651N1+00201-00101999999ADDGA1021+012909999GA2071+075009999GF107991999999999999999999MA1102201999999MW1001REMMET053LFGJ 282200Z 21007KT 9999 FEW043 BKN250 02/M01 Q1022;EQDQ01+000000PRSWM2
0140072553999992000012823004+47030+005430FM-15+0196LFGJ V0202101N003110111019N0112651N1+00201-00101999999ADDGA1071+011109999GF107991999999999999999999MA1102201999999MW1001REMMET046LFGJ 282300Z 21006KT 9999 BKN037 02/M01 Q1022;EQDQ01+000000PRSWM2
0140072553999992000012900004+47030+005430FM-15+0196LFGJ V0202001N004110099019N0112651N1+00301+00001999999ADDGA1071+009909999GF107991999999999999999999MA1102201999999MW1001REMMET046LFGJ 290000Z 20008KT 9999 BKN033 03/M00 Q1022;EQDQ01+000000PRSWM2
0162072553999992000012901004+47030+005430FM-15+0196LFGJ V0201901N004610300019N0112651N1+00301+00001999999ADDGA1021+009909999GA2081+030009999GF108991999999999999999999MA1102101999999MW1001REMMET052LFGJ 290100Z 19009KT 9999 SCT033 OVC100 03/00 Q1021;EQDQ01+000000PRSWM2
0139072553999992000013119004+47030+005430FM-15+0196LFGJ V0202101N001010057019N0112651N1+00801+00601999999ADDGA1081+005709999GF108991999999999999999999MA1102911999999MW1001REMMET045LFGJ 311900Z 21002KT 9999 OVC019 08/06 Q1029;EQDQ01+000000PRSWM2
0139072553999992000013120004+47030+005430FM-15+0196LFGJ V0201101N001010051019N0112651N1+00701+00601999999ADDGA1081+005109999GF108991999999999999999999MA1102911999999MW1001REMMET045LFGJ 312000Z 11002KT 9999 OVC017 07/06 Q1029;EQDQ01+000000PRSWM2
0139072553999992000013121004+47030+005430FM-15+0196LFGJ V0200901N002110051019N0112651N1+00601+00501999999ADDGA1081+005109999GF108991999999999999999999MA1102811999999MW1001REMMET045LFGJ 312100Z 09004KT 9999 OVC017 06/05 Q1028;EQDQ01+000000PRSWM2
0139072553999992000013122004+47030+005430FM-15+0196LFGJ V0200901N001012200019N0112651N1+00501+00501999999ADDGA1021+004809999GF102991999999999999999999MA1102811999999MW1001REMMET045LFGJ 312200Z 09002KT 9999 FEW016 05/05 Q1028;EQDQ01+000000PRSWM2
0141072553999992000013123004+47030+005430FM-15+0196LFGJ V0200701N001012200019N0112651N1+00401+00401999999ADDGF100991999999999999999999MA1102811999999MW1121REMMET047LFGJ 312300Z 07002KT 9999 MIFG SKC 04/04 Q1028;EQDQ01+000003PRSWM1Q02    003PRSWM1
0090072553999992000020100004+47030+005430FM-15+0196LFGJ V0202201N001012200019N0800001N1+99999+99999999999ADDMW1001REMMET053LFGJ 010000Z 22002KT 800 R06/0800 FG SKC 01/01 Q1027;EQDQ01+000000PRSWM2
0093072553999992000020101004+47030+005430FM-15+0196LFGJ V0209999C000012200019N0150001N1+99999+99999999999ADDMW1001REMMET056LFGJ 010100Z 00000KT 150 R06/0550 FG BKN001 01/01 Q1027;EQDQ01+000000PRSWM2
0141072553999992000020119004+47030+005430FM-15+0196LFGJ V0202101N001012200019N0060001N1+00501+00401999999ADDGF100991999999999999999999MA1102101999999MW1401REMMET047LFGJ 011900Z 21002KT 6000 VCFG SKC 05/04 Q1021;EQDQ01+000003PRSWM1Q02    003PRSWM1
0141072553999992000020120004+47030+005430FM-15+0196LFGJ V0209999C000012200019N0050001N1+00401+00401999999ADDGF100991999999999999999999MA1102101999999MW1401REMMET047LFGJ 012000Z 00000KT 5000 VCFG SKC 04/04 Q1021;EQDQ01+000003PRSWM1Q02    003PRSWM1
0120072553999992000020121004+47030+005430FM-15+0196LFGJ V0202501N001012200019N0090001N1+00401+00401999999ADDGF100991999999999999999999MA1102101999999MW1001REMMET042LFGJ 012100Z 25002KT 9000 SKC 04/04 Q1021;EQDQ01+000000PRSWM2
0091072553999992000020122004+47030+005430FM-15+0196LFGJ V0202201N00311220001CN0099001N1+00401+00301999999ADDMA1102201999999MW1001REMMET039LFGJ 012200Z 22006KT CAVOK 04/03 Q1022;EQDQ01+000000PRSWM2
0091072553999992000020123004+47030+005430FM-15+0196LFGJ V0202101N00211220001CN0099001N1+00501+00401999999ADDMA1102201999999MW1001REMMET039LFGJ 012300Z 21004KT CAVOK 05/04 Q1022;EQDQ01+000000PRSWM2
0091072553999992000020200004+47030+005430FM-15+0196LFGJ V0202101N00311220001CN0099001N1+00601+00501999999ADDMA1102101999999MW1001REMMET039LFGJ 020000Z 21006KT CAVOK 06/05 Q1021;EQDQ01+000000PRSWM2
0091072553999992000020201004+47030+005430FM-15+0196LFGJ V0202101N00211220001CN0099001N1+00601+00501999999ADDMA1102101999999MW1001REMMET039LFGJ 020100Z 21004KT CAVOK 06/05 Q1021;EQDQ01+000000PRSWM2
0162072553999992000020219004+47030+005430FM-15+0196LFGJ V0203401N004110036019N0050001N1+00901+00801999999ADDGA1071+003609999GA2081+003909999GF108991999999999999999999MA1102401999999MW1001REMMET052LFGJ 021900Z 34008KT 5000 BKN012 OVC013 09/08 Q1024;EQDQ01+000000PRSWM2
0162072553999992000020220004+47030+005430FM-15+0196LFGJ V0203401N005110030019N0090001N1+00901+00801999999ADDGA1071+003009999GA2081+004509999GF108991999999999999999999MA1102611999999MW1001REMMET052LFGJ 022000Z 34010KT 9000 BKN010 OVC015 09/08 Q1026;EQDQ01+000000PRSWM2
0139072553999992000020221004+47030+005430FM-15+0196LFGJ V0203501N005110033019N0090001N1+00801+00701999999ADDGA1081+003309999GF108991999999999999999999MA1102711999999MW1001REMMET045LFGJ 022100Z 35010KT 9000 OVC011 08/07 Q1027;EQDQ01+000000PRSWM2
0139072553999992000020222004+47030+005430FM-15+0196LFGJ V0200101N002110060019N0112651N1+00801+00701999999ADDGA1081+006009999GF108991999999999999999999MA1102811999999MW1001REMMET045LFGJ 022200Z 01004KT 9999 OVC020 08/07 Q1028;EQDQ01+000000PRSWM2
0162072553999992000020223004+47030+005430FM-15+0196LFGJ V0203501N007210048019N0112651N1+00701+00501999999ADDGA1021+003009999GA2081+004809999GF108991999999999999999999MA1102911999999MW1001REMMET052LFGJ 022300Z 35014KT 9999 FEW010 OVC016 07/05 Q1029;EQDQ01+000000PRSWM2
0139072553999992000020300004+47030+005430FM-15+0196LFGJ V0203601N006212200019N0112651N1+00601+00301999999ADDGA1021+007509999GF102991999999999999999999MA1103011999999MW1001REMMET045LFGJ 030000Z 36012KT 9999 FEW025 06/03 Q1030;EQDQ01+000000PRSWM2
0139072553999992000020301004+47030+005430FM-15+0196LFGJ V0203501N005112200019N0112651N1+00501+00201999999ADDGA1021+008109999GF104991999999999999999999MA1103121999999MW1001REMMET045LFGJ 030100Z 35010KT 9999 SCT027 05/02 Q1031;EQDQ01+000000PRSWM2
0139072553999992000020319004+47030+005430FM-15+0196LFGJ V0203501N004110108019N0112651N1+00601+00001999999ADDGA1081+010809999GF108991999999999999999999MA1103691999999MW1001REMMET045LFGJ 031900Z 35008KT 9999 OVC036 06/00 Q1037;EQDQ01+000000PRSWM2
0139072553999992000020320004+47030+005430FM-15+0196LFGJ V0203401N003110108019N0112651N1+00501+00101999999ADDGA1081+010809999GF108991999999999999999999MA1103791999999MW1001REMMET045LFGJ 032000Z 34006KT 9999 OVC036 05/01 Q1038;EQDQ01+000000PRSWM2
0139072553999992000020321004+47030+005430FM-15+0196LFGJ V0203401N003110108019N0112651N1+00501+00101999999ADDGA1081+010809999GF108991999999999999999999MA1103791999999MW1001REMMET045LFGJ 032100Z 34006KT 9999 OVC036 05/01 Q1038;EQDQ01+000000PRSWM2
0139072553999992000020322004+47030+005430FM-15+0196LFGJ V0203601N003110114019N0112651N1+00401+00101999999ADDGA1071+011409999GF107991999999999999999999MA1103791999999MW1001REMMET045LFGJ 032200Z 36006KT 9999 BKN038 04/01 Q1038;EQDQ01+000000PRSWM2
0091072553999992000020323004+47030+005430FM-15+0196LFGJ V0203601N00311220001CN0099001N1+00401+00001999999ADDMA1103791999999MW1001REMMET039LFGJ 032300Z 36006KT CAVOK 04/00 Q1038;EQDQ01+000000PRSWM2
0091072553999992000020419004+47030+005430FM-15+0196LFGJ V0209999C00001220001CN0099001N1+00201+00101999999ADDMA1103691999999MW1001REMMET039LFGJ 041900Z 00000KT CAVOK 02/01 Q1037;EQDQ01+000000PRSWM2
0091072553999992000020420004+47030+005430FM-15+0196LFGJ V0200601N00101220001CN0099001N1+00101+00101999999ADDMA1103691999999MW1001REMMET039LFGJ 042000Z 06002KT CAVOK 01/01 Q1037;EQDQ01+000000PRSWM2
0160072553999992000020421004+47030+005430FM-15+0196LFGJ V0200801N001012200019N0060001N1+00001+00001999999ADDGA1021+069009999GF104991999999999999999999MA1103691999999MW1401REMMET050LFGJ 042100Z 08002KT 6000 VCFG SCT230 00/00 Q1037;EQDQ01+000003PRSWM1Q02    003PRSWM1
0160072553999992000020422004+47030+005430FM-15+0196LFGJ V0201101N000510690019N0060001N1+00001+00001999999ADDGA1071+069009999GF107991999999999999999999MA1103691999999MW1401REMMET050LFGJ 042200Z 11001KT 6000 VCFG BKN230 00/00 Q1037;EQDQ01+000003PRSWM1Q02    003PRSWM1
0160072553999992000020423004+47030+005430FM-15+0196LFGJ V0200501N001010690019N0060001N1+00001+00001999999ADDGA1071+069009999GF107991999999999999999999MA1103691999999MW1401REMMET050LFGJ 042300Z 05002KT 6000 VCFG BKN230 00/00 Q1037;EQDQ01+000003PRSWM1Q02    003PRSWM1
0158072553999992000020500004+47030+005430FM-15+0196LFGJ V0201001N001010690019N0040001N1+00001+00001999999ADDGA1071+069009999GF107991999999999999999999MA1103691999999MW1101REMMET048LFGJ 050000Z 10002KT 4000 BR BKN230 00/00 Q1037;EQDQ01+000003PRSWM1Q02    003PRSWM1
0140072553999992000020501004+47030+005430FM-15+0196LFGJ V0200901N001510690019N0080001N1+00001+00001999999ADDGA1071+069009999GF107991999999999999999999MA1103591999999MW1001REMMET046LFGJ 050100Z 09003KT 8000 BKN230 00/M00 Q1036;EQDQ01+000000PRSWM2
0205072553999992000020719004+47030+005430FM-15+0196LFGJ V0202001N005110330019N0112651N1+00801+00501999999ADDGA1021+003609999GA2021+013509999GA3081+033009999GF108991999999999999999999MA1102301999999MW1611REMMET063LFGJ 071900Z 20010KT 9999 -RA FEW012 SCT045 OVC110 08/05 Q1023;EQDQ01+000003PRSWM1Q02    003PRSWM1
0185072553999992000020720004+47030+005430FM-15+0196LFGJ V0202101N006210330019N0112651N1+00801+00601999999ADDGA1021+008709999GA2021+012009999GA3081+033009999GF108991999999999999999999MA1102301999999MW1001REMMET059LFGJ 072000Z 21012KT 9999 FEW029 SCT040 OVC110 08/06 Q1023;EQDQ01+000000PRSWM2
0162072553999992000020721004+47030+005430FM-15+0196LFGJ V0202101N007710102019N0112651N1+00901+00501999999ADDGA1021+007809999GA2071+010209999GF107991999999999999999999MA1102301999999MW1001REMMET052LFGJ 072100Z 21015KT 9999 FEW026 BKN034 09/05 Q1023;EQDQ01+000000PRSWM2
0159072553999992000020722004+47030+005430FM-15+0196LFGJ V0202001N009310087019N0112651N1+00801+00601999999ADDGA1081+008709999GF108991999999999999999999MA1102201999999MW1611REMMET049LFGJ 072200Z 20018KT 9999 -RA OVC029 08/06 Q1022;EQDQ01+000003PRSWM1Q02    003PRSWM1
0159072553999992000020723004+47030+005430FM-15+0196LFGJ V0202001N008210075019N0112651N1+00801+00601999999ADDGA1081+007509999GF108991999999999999999999MA1102201999999MW1611REMMET049LFGJ 072300Z 20016KT 9999 -RA OVC025 08/06 Q1022;EQDQ01+000003PRSWM1Q02    003PRSWM1
0162072553999992000020800004+47030+005430FM-15+0196LFGJ V0202001N008210066019N0112651N1+00801+00601999999ADDGA1021+003309999GA2081+006609999GF108991999999999999999999MA1102201999999MW1001REMMET052LFGJ 080000Z 20016KT 9999 FEW011 OVC022 08/06 Q1022;EQDQ01+000000PRSWM2
0162072553999992000020801004+47030+005430FM-15+0196LFGJ V0202001N009810057019N0112651N1+00801+00601999999ADDGA1021+001809999GA2081+005709999GF108991999999999999999999MA1102101999999MW1001REMMET052LFGJ 080100Z 20019KT 9999 FEW006 OVC019 08/06 Q1021;EQDQ01+000000PRSWM2
0159072553999992000020819004+47030+005430FM-15+0196LFGJ V0200901N011810048019N0090001N1+01101+01001999999ADDGA1071+004809999GF107991999999999999999999MA1101691999999MW1611REMMET049LFGJ 081900Z 09023KT 9000 -RA BKN016 11/10 Q1017;EQDQ01+000003PRSWM1Q02    003PRSWM1
0139072553999992000020820004+47030+005430FM-15+0196LFGJ V0202101N008210039019N0090001N1+01101+01001999999ADDGA1071+003909999GF107991999999999999999999MA1101691999999MW1001REMMET045LFGJ 082000Z 21016KT 9000 BKN013 11/10 Q1017;EQDQ01+000000PRSWM2
0159072553999992000020821004+47030+005430FM-15+0196LFGJ V0202301N008710030019N0070001N1+01101+01001999999ADDGA1071+003009999GF107991999999999999999999MA1101901999999MW1611REMMET049LFGJ 082100Z 23017KT 7000 -RA BKN010 11/10 Q1019;EQDQ01+000003PRSWM1Q02    003PRSWM1
0162072553999992000020822004+47030+005430FM-15+0196LFGJ V0202901N003110300019N0112651N1+01001+00701999999ADDGA1021+012309999GA2081+030009999GF108991999999999999999999MA1102001999999MW1001REMMET052LFGJ 082200Z 29006KT 9999 FEW041 OVC100 10/07 Q1020;EQDQ01+000000PRSWM2
0139072553999992000020823004+47030+005430FM-15+0196LFGJ V0202701N004112200019N0112651N1+01001+00601999999ADDGA1021+009009999GF104991999999999999999999MA1102201999999MW1001REMMET045LFGJ 082300Z 27008KT 9999 SCT030 10/06 Q1022;EQDQ01+000000PRSWM2
0139072553999992000020900004+47030+005430FM-15+0196LFGJ V0203101N005112200019N0112651N1+00901+00501999999ADDGA1021+012009999GF102991999999999999999999MA1102201999999MW1001REMMET045LFGJ 090000Z 31010KT 9999 FEW040 09/05 Q1022;EQDQ01+000000PRSWM2
0139072553999992000020901004+47030+005430FM-15+0196LFGJ V0202501N003112200019N0112651N1+00801+00401999999ADDGA1021+011709999GF102991999999999999999999MA1102401999999MW1001REMMET045LFGJ 090100Z 25006KT 9999 FEW039 08/04 Q1024;EQDQ01+000000PRSWM2
0139072553999992000020919004+47030+005430FM-15+0196LFGJ V0209999C000012200019N0112651N1+00401+00301999999ADDGA1021+014709999GF102991999999999999999999MA1103181999999MW1001REMMET045LFGJ 091900Z 00000KT 9999 FEW049 04/03 Q1032;EQDQ01+000000PRSWM2
0162072553999992000020920004+47030+005430FM-15+0196LFGJ V0201501N001010690019N0112651N1+00301+00201999999ADDGA1021+014709999GA2081+069009999GF108991999999999999999999MA1103181999999MW1001REMMET052LFGJ 092000Z 15002KT 9999 FEW049 OVC230 03/02 Q1032;EQDQ01+000000PRSWM2
0091072553999992000020921004+47030+005430FM-15+0196LFGJ V0201701N00311220001CN0099001N1+00301+00201999999ADDMA1103181999999MW1001REMMET039LFGJ 092100Z 17006KT CAVOK 03/02 Q1032;EQDQ01+000000PRSWM2
0091072553999992000020922004+47030+005430FM-15+0196LFGJ V0201701N00311220001CN0099001N1+00201+00201999999ADDMA1103181999999MW1001REMMET039LFGJ 092200Z 17006KT CAVOK 02/02 Q1032;EQDQ01+000000PRSWM2
0091072553999992000020923004+47030+005430FM-15+0196LFGJ V0201401N00101220001CN0099001N1+00101+00101999999ADDMA1103181999999MW1001REMMET039LFGJ 092300Z 14002KT CAVOK 01/01 Q1032;EQDQ01+000000PRSWM2
0091072553999992000021000004+47030+005430FM-15+0196LFGJ V0201001N00211220001CN0099001N1+00101+00001999999ADDMA1103121999999MW1001REMMET039LFGJ 100000Z 10004KT CAVOK 01/00 Q1031;EQDQ01+000000PRSWM2
0092072553999992000021001004+47030+005430FM-15+0196LFGJ V0200601N00101220001CN0099001N1+00001+00001999999ADDMA1103121999999MW1001REMMET040LFGJ 100100Z 06002KT CAVOK 00/M00 Q1031;EQDQ01+000000PRSWM2
0159072553999992000021019004+47030+005430FM-15+0196LFGJ V0202201N005110111019N0112651N1+00701+00501999999ADDGA1081+011109999GF108991999999999999999999MA1102201999999MW1611REMMET049LFGJ 101900Z 22010KT 9999 -RA OVC037 07/05 Q1022;EQDQ01+000003PRSWM1Q02    003PRSWM1
0159072553999992000021020004+47030+005430FM-15+0196LFGJ V0201901N004110087019N0080001N1+00701+00601999999ADDGA1081+008709999GF108991999999999999999999MA1102201999999MW1611REMMET049LFGJ 102000Z 19008KT 8000 -RA OVC029 07/06 Q1022;EQDQ01+000003PRSWM1Q02    003PRSWM1
0159072553999992000021021004+47030+005430FM-15+0196LFGJ V0201901N006210069019N0080001N1+00801+00601999999ADDGA1081+006909999GF108991999999999999999999MA1102201999999MW1611REMMET049LFGJ 102100Z 19012KT 8000 -RA OVC023 08/06 Q1022;EQDQ01+000003PRSWM1Q02    003PRSWM1
0159072553999992000021022004+47030+005430FM-15+0196LFGJ V0201801N006210060019N0080001N1+00701+00501999999ADDGA1071+006009999GF107991999999999999999999MA1102201999999MW1611REMMET049LFGJ 102200Z 18012KT 8000 -RA BKN020 07/05 Q1022;EQDQ01+000003PRSWM1Q02    003PRSWM1
0159072553999992000021023004+47030+005430FM-15+0196LFGJ V0201801N006210063019N0080001N1+00701+00601999999ADDGA1071+006309999GF107991999999999999999999MA1102201999999MW1611REMMET049LFGJ 102300Z 18012KT 8000 -RA BKN021 07/06 Q1022;EQDQ01+000003PRSWM1Q02    003PRSWM1
0159072553999992000021100004+47030+005430FM-15+0196LFGJ V0202101N004110045019N0080001N1+00701+00701999999ADDGA1081+004509999GF108991999999999999999999MA1102201999999MW1611REMMET049LFGJ 110000Z 21008KT 8000 -RA OVC015 07/07 Q1022;EQDQ01+000003PRSWM1Q02    003PRSWM1
0159072553999992000021101004+47030+005430FM-15+0196LFGJ V0202101N005110045019N0070001N1+00701+00701999999ADDGA1081+004509999GF108991999999999999999999MA1102201999999MW1611REMMET049LFGJ 110100Z 21010KT 7000 -RA OVC015 07/07 Q1022;EQDQ01+000003PRSWM1Q02    003PRSWM1
0092072553999992000021119004+47030+005430FM-15+0196LFGJ V0200501N00311220001CN0099001N1+00301+00001999999ADDMA1102811999999MW1001REMMET040LFGJ 111900Z 05006KT CAVOK 03/M00 Q1028;EQDQ01+000000PRSWM2
0092072553999992000021120004+47030+005430FM-15+0196LFGJ V0200201N00311220001CN0099001N1+00101-00101999999ADDMA1102811999999MW1001REMMET040LFGJ 112000Z 02006KT CAVOK 01/M01 Q1028;EQDQ01+000000PRSWM2
0092072553999992000021121004+47030+005430FM-15+0196LFGJ V0200101N00311220001CN0099001N1+00101+00001999999ADDMA1102811999999MW1001REMMET040LFGJ 112100Z 01006KT CAVOK 01/M00 Q1028;EQDQ01+000000PRSWM2
0092072553999992000021122004+47030+005430FM-15+0196LFGJ V0203601N00461220001CN0099001N1+00101+00001999999ADDMA1102811999999MW1001REMMET040LFGJ 112200Z 36009KT CAVOK 01/M00 Q1028;EQDQ01+000000PRSWM2
0092072553999992000021123004+47030+005430FM-15+0196LFGJ V0203601N00361220001CN0099001N1+00101-00101999999ADDMA1102711999999MW1001REMMET040LFGJ 112300Z 36007KT CAVOK 01/M01 Q1027;EQDQ01+000000PRSWM2
0140072553999992000021200004+47030+005430FM-15+0196LFGJ V0203501N003110090019N0112651N1+00101+00001999999ADDGA1071+009009999GF107991999999999999999999MA1102711999999MW1001REMMET046LFGJ 120000Z 35006KT 9999 BKN030 01/M00 Q1027;EQDQ01+000000PRSWM2
0140072553999992000021201004+47030+005430FM-15+0196LFGJ V0203501N005110090019N0112651N1+00101-00101999999ADDGA1071+009009999GF107991999999999999999999MA1102711999999MW1001REMMET046LFGJ 120100Z 35010KT 9999 BKN030 01/M01 Q1027;EQDQ01+000000PRSWM2
0162072553999992000021419004+47030+005430FM-15+0196LFGJ V0201901N003110300019N0112651N1+00801+00601999999ADDGA1021+007809999GA2081+030009999GF108991999999999999999999MA1102301999999MW1001REMMET052LFGJ 141900Z 19006KT 9999 SCT026 OVC100 08/06 Q1023;EQDQ01+000000PRSWM2
0139072553999992000021420004+47030+005430FM-15+0196LFGJ V0201901N004110084019N0112651N1+00801+00601999999ADDGA1071+008409999GF107991999999999999999999MA1102301999999MW1001REMMET045LFGJ 142000Z 19008KT 9999 BKN028 08/06 Q1023;EQDQ01+000000PRSWM2
0139072553999992000021421004+47030+005430FM-15+0196LFGJ V0201901N004110081019N0112651N1+00701+00601999999ADDGA1071+008109999GF107991999999999999999999MA1102301999999MW1001REMMET045LFGJ 142100Z 19008KT 9999 BKN027 07/06 Q1023;EQDQ01+000000PRSWM2
0139072553999992000021422004+47030+005430FM-15+0196LFGJ V0201901N005110078019N0112651N1+00701+00601999999ADDGA1071+007809999GF107991999999999999999999MA1102301999999MW1001REMMET045LFGJ 142200Z 19010KT 9999 BKN026 07/06 Q1023;EQDQ01+000000PRSWM2
0159072553999992000021423004+47030+005430FM-15+0196LFGJ V0202001N005110066019N0112651N1+00701+00601999999ADDGA1071+006609999GF107991999999999999999999MA1102301999999MW1611REMMET049LFGJ 142300Z 20010KT 9999 -RA BKN022 07/06 Q1023;EQDQ01+000003PRSWM1Q02    003PRSWM1
0139072553999992000021500004+47030+005430FM-15+0196LFGJ V0201901N006210051019N0112651N1+00701+00601999999ADDGA1071+005109999GF107991999999999999999999MA1102201999999MW1001REMMET045LFGJ 150000Z 19012KT 9999 BKN017 07/06 Q1022;EQDQ01+000000PRSWM2
0191072553999992000021501004+47030+005430FM-15+0196LFGJ V0202001N006710033019N0030001N1+00701+00601999999ADDGA1021+001809999GA2071+003309999GF107991999999999999999999MA1102201999999MW1101MW2611REMMET059LFGJ 150100Z 20013KT 3000 -RA BR FEW006 BKN011 07/06 Q1022;EQDQ01+000003PRSWM1Q02    003PRSWM1
0139072553999992000021519004+47030+005430FM-15+0196LFGJ V0202001N006210081019N0112651N1+00901+00601999999ADDGA1071+008109999GF107991999999999999999999MA1101691999999MW1001REMMET045LFGJ 151900Z 20012KT 9999 BKN027 09/06 Q1017;EQDQ01+000000PRSWM2
0139072553999992000021520004+47030+005430FM-15+0196LFGJ V0202001N007712200019N0112651N1+00901+00701999999ADDGA1021+008109999GF102991999999999999999999MA1101591999999MW1001REMMET045LFGJ 152000Z 20015KT 9999 FEW027 09/07 Q1016;EQDQ01+000000PRSWM2
0162072553999992000021521004+47030+005430FM-15+0196LFGJ V0202101N008710105019N0112651N1+00901+00701999999ADDGA1021+006309999GA2071+010509999GF107991999999999999999999MA1101491999999MW1001REMMET052LFGJ 152100Z 21017KT 9999 FEW021 BKN035 09/07 Q1015;EQDQ01+000000PRSWM2
0139072553999992000021522004+47030+005430FM-15+0196LFGJ V0202001N008710081019N0112651N1+00901+00701999999ADDGA1071+008109999GF107991999999999999999999MA1101391999999MW1001REMMET045LFGJ 152200Z 20017KT 9999 BKN027 09/07 Q1014;EQDQ01+000000PRSWM2
0162072553999992000021523004+47030+005430FM-15+0196LFGJ V0202001N008710117019N0112651N1+00801+00701999999ADDGA1021+005709999GA2071+011709999GF107991999999999999999999MA1101291999999MW1001REMMET052LFGJ 152300Z 20017KT 9999 FEW019 BKN039 08/07 Q1013;EQDQ01+000000PRSWM2
0139072553999992000021600004+47030+005430FM-15+0196LFGJ V0202001N008710075019N0112651N1+00801+00701999999ADDGA1071+007509999GF107991999999999999999999MA1101191999999MW1001REMMET045LFGJ 160000Z 20017KT 9999 BKN025 08/07 Q1012;EQDQ01+000000PRSWM2
0159072553999992000021601004+47030+005430FM-15+0196LFGJ V0202001N008710078019N0112651N1+00901+00701999999ADDGA1071+007809999GF107991999999999999999999MA1101081999999MW1611REMMET049LFGJ 160100Z 20017KT 9999 -RA BKN026 09/07 Q1011;EQDQ01+000003PRSWM1Q02    003PRSWM1
0185072553999992000021619004+47030+005430FM-15+0196LFGJ V0203201N002110132019N0112651N1+00301+00101999999ADDGA1021+002409999GA2021+007809999GA3071+013209999GF107991999999999999999999MA1101021999999MW1001REMMET059LFGJ 161900Z 32004KT 9999 FEW008 SCT026 BKN044 03/01 Q1010;EQDQ01+000000PRSWM2
0091072553999992000021620004+47030+005430FM-15+0196LFGJ V0202701N00211220001CN0099001N1+00201+00001999999ADDMA1101081999999MW1001REMMET039LFGJ 162000Z 27004KT CAVOK 02/00 Q1011;EQDQ01+000000PRSWM2
0093072553999992000021621004+47030+005430FM-15+0196LFGJ V0202201N00411220001CN0099001N1-00101-00101999999ADDMA1101081999999MW1001REMMET041LFGJ 162100Z 22008KT CAVOK M01/M01 Q1011;EQDQ01+000000PRSWM2
0164072553999992000021622004+47030+005430FM-15+0196LFGJ V0201801N003112200019N0112651N1+00001+00001999999ADDGA1021+013209999GA2021+030009999GF104991999999999999999999MA1101291999999MW1001REMMET054LFGJ 162200Z 18006KT 9999 FEW044 SCT100 M00/M00 Q1013;EQDQ01+000000PRSWM2
0162072553999992000021623004+47030+005430FM-15+0196LFGJ V0201901N003612200019N0112651N1+00001+00001999999ADDGA1021+008109999GA2021+030009999GF104991999999999999999999MA1101291999999MW1001REMMET052LFGJ 162300Z 19007KT 9999 FEW027 SCT100 00/00 Q1013;EQDQ01+000000PRSWM2
0185072553999992000021700004+47030+005430FM-15+0196LFGJ V0201901N005110300019N0112651N1+00101+00001999999ADDGA1021+006909999GA2021+014409999GA3071+030009999GF107991999999999999999999MA1101291999999MW1001REMMET059LFGJ 170000Z 19010KT 9999 FEW023 SCT048 BKN100 01/00 Q1013;EQDQ01+000000PRSWM2
0162072553999992000021701004+47030+005430FM-15+0196LFGJ V0202101N007210150019N0112651N1+00101+00001999999ADDGA1021+007209999GA2071+015009999GF107991999999999999999999MA1101291999999MW1001REMMET052LFGJ 170100Z 21014KT 9999 SCT024 BKN050 01/00 Q1013;EQDQ01+000000PRSWM2
0139072553999992000021719004+47030+005430FM-15+0196LFGJ V0201901N002112200019N0112651N1+00101+00001999999ADDGA1021+005709999GF102991999999999999999999MA1101801999999MW1001REMMET045LFGJ 171900Z 19004KT 9999 FEW019 01/00 Q1018;EQDQ01+000000PRSWM2
0163072553999992000021720004+47030+005430FM-15+0196LFGJ V0201501N001010300019N0112651N1+00001+00001999999ADDGA1021+004509999GA2071+030009999GF107991999999999999999999MA1101901999999MW1001REMMET053LFGJ 172000Z 15002KT 9999 FEW015 BKN100 00/M00 Q1019;EQDQ01+000000PRSWM2
0093072553999992000021721004+47030+005430FM-15+0196LFGJ V0201901N00151220001CN0099001N1+00001+00001999999ADDMA1101901999999MW1001REMMET041LFGJ 172100Z 19003KT CAVOK M00/M00 Q1019;EQDQ01+000000PRSWM2
0141072553999992000021722004+47030+005430FM-15+0196LFGJ V0201901N002110300019N0090001N1+00001+00001999999ADDGA1071+030009999GF107991999999999999999999MA1102001999999MW1001REMMET047LFGJ 172200Z 19004KT 9000 BKN100 M00/M00 Q1020;EQDQ01+000000PRSWM2
0141072553999992000021723004+47030+005430FM-15+0196LFGJ V0202001N002110300019N0080001N1+00001+00001999999ADDGA1081+030009999GF108991999999999999999999MA1102001999999MW1001REMMET047LFGJ 172300Z 20004KT 8000 OVC100 M00/M00 Q1020;EQDQ01+000000PRSWM2
0141072553999992000021800004+47030+005430FM-15+0196LFGJ V0201701N003110300019N0080001N1+00001+00001999999ADDGA1071+030009999GF107991999999999999999999MA1102001999999MW1001REMMET047LFGJ 180000Z 17006KT 8000 BKN100 M00/M00 Q1020;EQDQ01+000000PRSWM2
0139072553999992000021801004+47030+005430FM-15+0196LFGJ V0201801N004110300019N0070001N1+00101+00101999999ADDGA1071+030009999GF107991999999999999999999MA1101901999999MW1001REMMET045LFGJ 180100Z 18008KT 7000 BKN100 01/01 Q1019;EQDQ01+000000PRSWM2
0182072553999992000021819004+47030+005430FM-15+0196LFGJ V0201901N008210147019N0080001N1+00701+00701999999ADDGA1021+003309999GA2071+014709999GF107991999999999999999999MA1101021999999MW1611REMMET056LFGJ 181900Z 19016KT 8000 -RA FEW011 BKN049 07/07 Q1010;EQDQ01+000003PRSWM1Q02    003PRSWM1
0184072553999992000021820004+47030+005430FM-15+0196LFGJ V0202001N006710087019N0112651N1+00801+00701999999ADDGA1021+003609999GA2071+008709999GF107991999999999999999999MA1101021999999MW1801REMMET058LFGJ 182000Z 20013KT 9999 -SHRA FEW012 BKN029 08/07 Q1010;EQDQ01+000003PRSWM1Q02    003PRSWM1
0184072553999992000021821004+47030+005430FM-15+0196LFGJ V0202001N007210141019N0112651N1+00801+00701999999ADDGA1021+004809999GA2071+014109999GF107991999999999999999999MA1101021999999MW1801REMMET058LFGJ 182100Z 20014KT 9999 -SHRA FEW016 BKN047 08/07 Q1010;EQDQ01+000003PRSWM1Q02    003PRSWM1
0184072553999992000021822004+47030+005430FM-15+0196LFGJ V0202301N003110120019N0112651N1+00801+00801999999ADDGA1021+001509999GA2071+012009999GF107991999999999999999999MA1101021999999MW1801REMMET058LFGJ 182200Z 23006KT 9999 -SHRA FEW005 BKN040 08/08 Q1010;EQDQ01+000003PRSWM1Q02    003PRSWM1
0139072553999992000021823004+47030+005430FM-15+0196LFGJ V0202301N005710105019N0112651N1+00701+00601999999ADDGA1071+010509999GF107991999999999999999999MA1101021999999MW1001REMMET045LFGJ 182300Z 23011KT 9999 BKN035 07/06 Q1010;EQDQ01+000000PRSWM2
0139072553999992000021900004+47030+005430FM-15+0196LFGJ V0202201N005110147019N0112651N1+00701+00601999999ADDGA1071+014709999GF107991999999999999999999MA1101021999999MW1001REMMET045LFGJ 190000Z 22010KT 9999 BKN049 07/06 Q1010;EQDQ01+000000PRSWM2
0162072553999992000021901004+47030+005430FM-15+0196LFGJ V0202101N005110300019N0112651N1+00701+00501999999ADDGA1021+009009999GA2071+030009999GF107991999999999999999999MA1101021999999MW1001REMMET052LFGJ 190100Z 21010KT 9999 SCT030 BKN100 07/05 Q1010;EQDQ01+000000PRSWM2
0092072553999992000022119004+47030+005430FM-15+0196LFGJ V0200101N00311220001CN0099001N1+00201-00301999999ADDMA1102811999999MW1001REMMET040LFGJ 211900Z 01006KT CAVOK 02/M03 Q1028;EQDQ01+000000PRSWM2
0092072553999992000022120004+47030+005430FM-15+0196LFGJ V0200401N00311220001CN0099001N1+00101-00301999999ADDMA1102811999999MW1001REMMET040LFGJ 212000Z 04006KT CAVOK 01/M03 Q1028;EQDQ01+000000PRSWM2
0092072553999992000022121004+47030+005430FM-15+0196LFGJ V0200501N00211220001CN0099001N1+00101-00201999999ADDMA1102711999999MW1001REMMET040LFGJ 212100Z 05004KT CAVOK 01/M02 Q1027;EQDQ01+000000PRSWM2
0093072553999992000022122004+47030+005430FM-15+0196LFGJ V0200901N00261220001CN0099001N1+00001-00301999999ADDMA1102711999999MW1001REMMET041LFGJ 212200Z 09005KT CAVOK M00/M03 Q1027;EQDQ01+000000PRSWM2
0093072553999992000022123004+47030+005430FM-15+0196LFGJ V0200301N00151220001CN0099001N1-00101-00401999999ADDMA1102611999999MW1001REMMET041LFGJ 212300Z 03003KT CAVOK M01/M04 Q1026;EQDQ01+000000PRSWM2
0093072553999992000022200004+47030+005430FM-15+0196LFGJ V0200901N00101220001CN0099001N1-00101-00301999999ADDMA1102611999999MW1001REMMET041LFGJ 220000Z 09002KT CAVOK M01/M03 Q1026;EQDQ01+000000PRSWM2
0093072553999992000022201004+47030+005430FM-15+0196LFGJ V0203401N00151220001CN0099001N1-00101-00401999999ADDMA1102711999999MW1001REMMET041LFGJ 220100Z 34003KT CAVOK M01/M04 Q1027;EQDQ01+000000PRSWM2
0092072553999992000022219004+47030+005430FM-15+0196LFGJ V0200201N00101220001CN0099001N1+00101-00301999999ADDMA1102401999999MW1001REMMET040LFGJ 221900Z 02002KT CAVOK 01/M03 Q1024;EQDQ01+000000PRSWM2
0092072553999992000022220004+47030+005430FM-15+0196LFGJ V0200201N00101220001CN0099001N1+00101-00301999999ADDMA1102401999999MW1001REMMET040LFGJ 222000Z 02002KT CAVOK 01/M03 Q1024;EQDQ01+000000PRSWM2
0093072553999992000022221004+47030+005430FM-15+0196LFGJ V0200901N00101220001CN0099001N1+00001-00201999999ADDMA1102511999999MW1001REMMET041LFGJ 222100Z 09002KT CAVOK M00/M02 Q1025;EQDQ01+000000PRSWM2
0093072553999992000022222004+47030+005430FM-15+0196LFGJ V0200401N00211220001CN0099001N1-00101-00201999999ADDMA1102511999999MW1001REMMET041LFGJ 222200Z 04004KT CAVOK M01/M02 Q1025;EQDQ01+000000PRSWM2
0093072553999992000022223004+47030+005430FM-15+0196LFGJ V0203601N00101220001CN0099001N1-00201-00301999999ADDMA1102511999999MW1001REMMET041LFGJ 222300Z 36002KT CAVOK M02/M03 Q1025;EQDQ01+000000PRSWM2
0092072553999992000022319004+47030+005430FM-15+0196LFGJ V0201201N00211220001CN0099001N1+00301-00201999999ADDMA1102811999999MW1001REMMET040LFGJ 231900Z 12004KT CAVOK 03/M02 Q1028;EQDQ01+000000PRSWM2
0092072553999992000022321004+47030+005430FM-15+0196LFGJ V0200401N00101220001CN0099001N1+00101-00201999999ADDMA1102811999999MW1001REMMET040LFGJ 232100Z 04002KT CAVOK 01/M02 Q1028;EQDQ01+000000PRSWM2
0093072553999992000022322004+47030+005430FM-15+0196LFGJ V0201001N00101220001CN0099001N1-00101-00201999999ADDMA1102811999999MW1001REMMET041LFGJ 232200Z 10002KT CAVOK M01/M02 Q1028;EQDQ01+000000PRSWM2
0093072553999992000022323004+47030+005430FM-15+0196LFGJ V0200701N00101220001CN0099001N1-00101-00201999999ADDMA1102911999999MW1001REMMET041LFGJ 232300Z 07002KT CAVOK M01/M02 Q1029;EQDQ01+000000PRSWM2
0093072553999992000022400004+47030+005430FM-15+0196LFGJ V0200901N00211220001CN0099001N1-00101-00201999999ADDMA1102911999999MW1001REMMET041LFGJ 240000Z 09004KT CAVOK M01/M02 Q1029;EQDQ01+000000PRSWM2
0093072553999992000022401004+47030+005430FM-15+0196LFGJ V0200901N00211220001CN0099001N1-00201-00301999999ADDMA1102911999999MW1001REMMET041LFGJ 240100Z 09004KT CAVOK M02/M03 Q1029;EQDQ01+000000PRSWM2
0162072553999992000022419004+47030+005430FM-15+0196LFGJ V0201901N003110300019N0112651N1+00801+00401999999ADDGA1021+004509999GA2081+030009999GF108991999999999999999999MA1102911999999MW1001REMMET052LFGJ 241900Z 19006KT 9999 SCT015 OVC100 08/04 Q1029;EQDQ01+000000PRSWM2
0162072553999992000022421004+47030+005430FM-15+0196LFGJ V0202201N002110063019N0112651N1+00701+00501999999ADDGA1021+002109999GA2071+006309999GF107991999999999999999999MA1102911999999MW1001REMMET052LFGJ 242100Z 22004KT 9999 FEW007 BKN021 07/05 Q1029;EQDQ01+000000PRSWM2
0162072553999992000022423004+47030+005430FM-15+0196LFGJ V0201901N003610117019N0112651N1+00701+00501999999ADDGA1021+006309999GA2081+011709999GF108991999999999999999999MA1102811999999MW1001REMMET052LFGJ 242300Z 19007KT 9999 FEW021 OVC039 07/05 Q1028;EQDQ01+000000PRSWM2
0162072553999992000022500004+47030+005430FM-15+0196LFGJ V0202001N003110102019N0112651N1+00801+00501999999ADDGA1021+007809999GA2081+010209999GF108991999999999999999999MA1102811999999MW1001REMMET052LFGJ 250000Z 20006KT 9999 FEW026 OVC034 08/05 Q1028;EQDQ01+000000PRSWM2
0147072553999992000022501004+47030+005430FM-15+0196LFGJ V0202201N003610099019N0112651N1+00801+00501999999ADDGA1081+009909999GF108991999999999999999999MA1102811999999MW1001REMMET053LFGJ 250100Z 22007KT 180V270 9999 OVC033 08/05 Q1028;EQDQ01+000000PRSWM2
0182072553999992000022519004+47030+005430FM-15+0196LFGJ V0200301N004110042019N0070001N1+00701+00701999999ADDGA1021+001809999GA2081+004209999GF108991999999999999999999MA1103121999999MW1611REMMET056LFGJ 251900Z 03008KT 7000 -RA FEW006 OVC014 07/07 Q1031;EQDQ01+000003PRSWM1Q02    003PRSWM1
0182072553999992000022520004+47030+005430FM-15+0196LFGJ V0200201N003110057019N0070001N1+00701+00701999999ADDGA1021+002409999GA2081+005709999GF108991999999999999999999MA1103121999999MW1611REMMET056LFGJ 252000Z 02006KT 7000 -RA FEW008 OVC019 07/07 Q1031;EQDQ01+000003PRSWM1Q02    003PRSWM1
0191072553999992000022521004+47030+005430FM-15+0196LFGJ V0200101N002110069019N0040001N1+00701+00701999999ADDGA1021+003609999GA2081+006909999GF108991999999999999999999MA1103121999999MW1101MW2611REMMET059LFGJ 252100Z 01004KT 4000 -RA BR FEW012 OVC023 07/07 Q1031;EQDQ01+000003PRSWM1Q02    003PRSWM1
0162072553999992000022522004+47030+005430FM-15+0196LFGJ V0200101N002110075019N0050001N1+00701+00701999999ADDGA1021+002709999GA2071+007509999GF107991999999999999999999MA1103121999999MW1001REMMET052LFGJ 252200Z 01004KT 5000 FEW009 BKN025 07/07 Q1031;EQDQ01+000000PRSWM2
0139072553999992000022523004+47030+005430FM-15+0196LFGJ V0200101N002110078019N0050001N1+00601+00601999999ADDGA1071+007809999GF107991999999999999999999MA1103121999999MW1001REMMET045LFGJ 252300Z 01004KT 5000 BKN026 06/06 Q1031;EQDQ01+000000PRSWM2
0139072553999992000022600004+47030+005430FM-15+0196LFGJ V0200101N003110078019N0050001N1+00601+00601999999ADDGA1071+007809999GF107991999999999999999999MA1103121999999MW1001REMMET045LFGJ 260000Z 01006KT 5000 BKN026 06/06 Q1031;EQDQ01+000000PRSWM2
0158072553999992000022601004+47030+005430FM-15+0196LFGJ V0203401N003112200019N0040001N1+00501+00501999999ADDGA1021+008109999GF102991999999999999999999MA1103121999999MW1101REMMET048LFGJ 260100Z 34006KT 4000 BR FEW027 05/05 Q1031;EQDQ01+000003PRSWM1Q02    003PRSWM1
0185072553999992000022819004+47030+005430FM-15+0196LFGJ V0202301N006210240019N0112651N1+01101+00901999999ADDGA1021+008109999GA2021+013209999GA3081+024009999GF108991999999999999999999MA1102301999999MW1001REMMET059LFGJ 281900Z 23012KT 9999 FEW027 SCT044 OVC080 11/09 Q1023;EQDQ01+000000PRSWM2
0191072553999992000022820004+47030+005430FM-15+0196LFGJ V0202201N004110108019N0040001N1+01001+00901999999ADDGA1021+007809999GA2071+010809999GF107991999999999999999999MA1102301999999MW1101MW2611REMMET059LFGJ 282000Z 22008KT 4000 -RA BR FEW026 BKN036 10/09 Q1023;EQDQ01+000003PRSWM1Q02    003PRSWM1
0222072553999992000022821004+47030+005430FM-15+0196LFGJ V0202201N003110045019N0030001N1+01001+01001999999ADDGA1021+002109999GA2071+004509999GA3071+011709999GF107991999999999999999999MA1102401999999MW1101MW2611REMMET074LFGJ 282100Z 22006KT 180V250 3000 -RA BR FEW007 BKN015 BKN039 10/10 Q1024;EQDQ01+000003PRSWM1Q02    003PRSWM1
0214072553999992000022822004+47030+005430FM-15+0196LFGJ V0202001N005110138019N0035001N1+00901+00901999999ADDGA1021+008709999GA2021+011409999GA3081+013809999GF108991999999999999999999MA1102401999999MW1101MW2611REMMET066LFGJ 282200Z 20010KT 3500 -RA BR FEW029 SCT038 OVC046 09/09 Q1024;EQDQ01+000003PRSWM1Q02    003PRSWM1
0214072553999992000022823004+47030+005430FM-15+0196LFGJ V0202001N004110132019N0035001N1+00901+00901999999ADDGA1021+008409999GA2021+010509999GA3071+013209999GF107991999999999999999999MA1102401999999MW1101MW2611REMMET066LFGJ 282300Z 20008KT 3500 -RA BR FEW028 SCT035 BKN044 09/09 Q1024;EQDQ01+000003PRSWM1Q02    003PRSWM1
0214072553999992000022900004+47030+005430FM-15+0196LFGJ V0202401N005110081019N0040001N1+00901+00801999999ADDGA1021+001809999GA2021+004809999GA3081+008109999GF108991999999999999999999MA1102401999999MW1101MW2611REMMET066LFGJ 290000Z 24010KT 4000 -RA BR FEW006 SCT016 OVC027 09/08 Q1024;EQDQ01+000003PRSWM1Q02    003PRSWM1
0159072553999992000022901004+47030+005430FM-15+0196LFGJ V0202101N004110114019N0112651N1+00801+00801999999ADDGA1071+011409999GF107991999999999999999999MA1102401999999MW1611REMMET049LFGJ 290100Z 21008KT 9999 -RA BKN038 08/08 Q1024;EQDQ01+000003PRSWM1Q02    003PRSWM1
0182072553999992000022919004+47030+005430FM-15+0196LFGJ V0202001N009810123019N0080001N1+00901+00801999999ADDGA1021+005709999GA2071+012309999GF107991999999999999999999MA1101191999999MW1611REMMET056LFGJ 291900Z 20019KT 8000 -RA FEW019 BKN041 09/08 Q1012;EQDQ01+000003PRSWM1Q02    003PRSWM1
0193072553999992000022920004+47030+005430FM-15+0196LFGJ V0202101N010810102019N0050001N1+00901+00801999999ADDGA1021+005709999GA2081+010209999GF108991999999999999999999MA1101081999999MW1611OC101701REMMET059LFGJ 292000Z 21021G33KT 5000 -RA FEW019 OVC034 09/08 Q1011;EQDQ01+000003PRSWM1Q02    003PRSWM1
0182072553999992000022921004+47030+005430FM-15+0196LFGJ V0202101N010810102019N0112651N1+00901+00701999999ADDGA1021+006009999GA2081+010209999GF108991999999999999999999MA1101081999999MW1611REMMET056LFGJ 292100Z 21021KT 9999 -RA FEW020 OVC034 09/07 Q1011;EQDQ01+000003PRSWM1Q02    003PRSWM1
0170072553999992000022922004+47030+005430FM-15+0196LFGJ V0202001N010810108019N0112651N1+00901+00701999999ADDGA1081+010809999GF108991999999999999999999MA1101021999999MW1611OC101801REMMET052LFGJ 292200Z 20021G35KT 9999 -RA OVC036 09/07 Q1010;EQDQ01+000003PRSWM1Q02    003PRSWM1
0162072553999992000022923004+47030+005430FM-15+0196LFGJ V0202001N009810102019N0080001N1+00901+00801999999ADDGA1021+004809999GA2081+010209999GF108991999999999999999999MA1100911999999MW1001REMMET052LFGJ 292300Z 20019KT 8000 FEW016 OVC034 09/08 Q1009;EQDQ01+000000PRSWM2
0159072553999992000030100004+47030+005430FM-15+0196LFGJ V0202101N009810099019N0080001N1+00901+00701999999ADDGA1081+009909999GF108991999999999999999999MA1100911999999MW1611REMMET049LFGJ 010000Z 21019KT 8000 -RA OVC033 09/07 Q1009;EQDQ01+000003PRSWM1Q02    003PRSWM1
0182072553999992000030101004+47030+005430FM-15+0196LFGJ V0202301N008710114019N0112651N1+00801+00601999999ADDGA1021+003009999GA2081+011409999GF108991999999999999999999MA1100911999999MW1611REMMET056LFGJ 010100Z 23017KT 9999 -RA FEW010 OVC038 08/06 Q1009;EQDQ01+000003PRSWM1Q02    003PRSWM1
0162072553999992000030119004+47030+005430FM-15+0196LFGJ V0203201N004610180019N0112651N1+00501+00301999999ADDGA1021+004809999GA2071+018009999GF107991999999999999999999MA1101391999999MW1001REMMET052LFGJ 011900Z 32009KT 9999 FEW016 BKN066 05/03 Q1014;EQDQ01+000000PRSWM2
0185072553999992000030120004+47030+005430FM-15+0196LFGJ V0203301N002110690019N0112651N1+00401+00301999999ADDGA1021+004809999GA2021+018009999GA3071+069009999GF107991999999999999999999MA1101491999999MW1001REMMET059LFGJ 012000Z 33004KT 9999 FEW016 SCT066 BKN230 04/03 Q1015;EQDQ01+000000PRSWM2
0162072553999992000030121004+47030+005430FM-15+0196LFGJ V0202601N001510180019N0112651N1+00401+00301999999ADDGA1021+009909999GA2071+018009999GF107991999999999999999999MA1101691999999MW1001REMMET052LFGJ 012100Z 26003KT 9999 FEW033 BKN066 04/03 Q1017;EQDQ01+000000PRSWM2
0091072553999992000030123004+47030+005430FM-15+0196LFGJ V0202901N00211220001CN0099001N1+00301+00201999999ADDMA1101901999999MW1001REMMET039LFGJ 012300Z 29004KT CAVOK 03/02 Q1019;EQDQ01+000000PRSWM2
0091072553999992000030200004+47030+005430FM-15+0196LFGJ V0203001N00211220001CN0099001N1+00401+00201999999ADDMA1102001999999MW1001REMMET039LFGJ 020000Z 30004KT CAVOK 04/02 Q1020;EQDQ01+000000PRSWM2
0091072553999992000030201004+47030+005430FM-15+0196LFGJ V0203101N00311220001CN0099001N1+00301+00201999999ADDMA1102101999999MW1001REMMET039LFGJ 020100Z 31006KT CAVOK 03/02 Q1021;EQDQ01+000000PRSWM2
0145072553999992000030219004+47030+005430FM-15+0196LFGJ V0202001N004112200019N0112651N1+00301+00001999999ADDGA1021+021009999GF102991999999999999999999MA1102611999999MW1001REMMET051LFGJ 021900Z 20008KT 9999 FEW070 03/00 Q1026 NOSIG;EQDQ01+000000PRSWM2
0091072553999992000030220004+47030+005430FM-15+0196LFGJ V0201901N00311220001CN0099001N1+00301-00101999999ADDMA1102611999999MW1001REMMET039LFGJ 022000Z 19006KTCAVOK 03/M01 Q1026;EQDQ01+000000PRSWM2
0140072553999992000030221004+47030+005430FM-15+0196LFGJ V0201901N005110141019N0112651N1+00401+00001999999ADDGA1071+014109999GF107991999999999999999999MA1102611999999MW1001REMMET046LFGJ 022100Z 19010KT 9999 BKN047 04/M00 Q1026;EQDQ01+000000PRSWM2
0140072553999992000030222004+47030+005430FM-15+0196LFGJ V0201901N005110144019N0112651N1+00401+00001999999ADDGA1071+014409999GF107991999999999999999999MA1102611999999MW1001REMMET046LFGJ 022200Z 19010KT 9999 BKN048 04/M00 Q1026;EQDQ01+000000PRSWM2
0163072553999992000030223004+47030+005430FM-15+0196LFGJ V0201901N006212200019N0112651N1+00401-00101999999ADDGA1021+014709999GA2021+069009999GF104991999999999999999999MA1102511999999MW1001REMMET053LFGJ 022300Z 19012KT 9999 FEW049 SCT230 04/M01 Q1025;EQDQ01+000000PRSWM2
0092072553999992000030300004+47030+005430FM-15+0196LFGJ V0202001N00621220001CN0099001N1+00401-00101999999ADDMA1102401999999MW1001REMMET040LFGJ 030000Z 20012KT CAVOK 04/M01 Q1024;EQDQ01+000000PRSWM2
0091072553999992000030301004+47030+005430FM-15+0196LFGJ V0202001N00571220001CN0099001N1+00401+00001999999ADDMA1102301999999MW1001REMMET039LFGJ 030100Z 20011KT CAVOK 04/00 Q1023;EQDQ01+000000PRSWM2
0139072553999992000030319004+47030+005430FM-15+0196LFGJ V0202001N008210102019N0112651N1+00901+00301999999ADDGA1081+010209999GF108991999999999999999999MA1101691999999MW1001REMMET045LFGJ 031900Z 20016KT 9999 OVC034 09/03 Q1017;EQDQ01+000000PRSWM2
0139072553999992000030320004+47030+005430FM-15+0196LFGJ V0202101N008210096019N0112651N1+00901+00301999999ADDGA1081+009609999GF108991999999999999999999MA1101591999999MW1001REMMET045LFGJ 032000Z 21016KT 9999 OVC032 09/03 Q1016;EQDQ01+000000PRSWM2
0139072553999992000030321004+47030+005430FM-15+0196LFGJ V0202101N008710102019N0112651N1+00901+00301999999ADDGA1081+010209999GF108991999999999999999999MA1101591999999MW1001REMMET045LFGJ 032100Z 21017KT 9999 OVC034 09/03 Q1016;EQDQ01+000000PRSWM2
0139072553999992000030322004+47030+005430FM-15+0196LFGJ V0202001N008710096019N0112651N1+00801+00301999999ADDGA1071+009609999GF107991999999999999999999MA1101491999999MW1001REMMET045LFGJ 032200Z 20017KT 9999 BKN032 08/03 Q1015;EQDQ01+000000PRSWM2
0159072553999992000030323004+47030+005430FM-15+0196LFGJ V0202001N008710093019N0112651N1+00801+00401999999ADDGA1081+009309999GF108991999999999999999999MA1101491999999MW1611REMMET049LFGJ 032300Z 20017KT 9999 -RA OVC031 08/04 Q1015;EQDQ01+000003PRSWM1Q02    003PRSWM1
0182072553999992000030400004+47030+005430FM-15+0196LFGJ V0202101N010810084019N0112651N1+00801+00401999999ADDGA1021+005109999GA2081+008409999GF108991999999999999999999MA1101391999999MW1611REMMET056LFGJ 040000Z 21021KT 9999 -RA FEW017 OVC028 08/04 Q1014;EQDQ01+000003PRSWM1Q02    003PRSWM1
0182072553999992000030401004+47030+005430FM-15+0196LFGJ V0202101N008710075019N0112651N1+00701+00501999999ADDGA1021+005109999GA2081+007509999GF108991999999999999999999MA1101391999999MW1611REMMET056LFGJ 040100Z 21017KT 9999 -RA FEW017 OVC025 07/05 Q1014;EQDQ01+000003PRSWM1Q02    003PRSWM1
0092072553999992000030619004+47030+005430FM-15+0196LFGJ V0209999C00001220001CN0099001N1+00401-00101999999ADDMA1102911999999MW1001REMMET040LFGJ 061900Z 00000KT CAVOK 04/M01 Q1029;EQDQ01+000000PRSWM2
0092072553999992000030621004+47030+005430FM-15+0196LFGJ V0200901N00211220001CN0099001N1+00101-00101999999ADDMA1102911999999MW1001REMMET040LFGJ 062100Z 09004KT CAVOK 01/M01 Q1029;EQDQ01+000000PRSWM2
0092072553999992000030622004+47030+005430FM-15+0196LFGJ V0200701N00211220001CN0099001N1+00001-00101999999ADDMA1102911999999MW1001REMMET040LFGJ 062200Z 07004KT CAVOK 00/M01 Q1029;EQDQ01+000000PRSWM2
0092072553999992000030623004+47030+005430FM-15+0196LFGJ V0200801N00101220001CN0099001N1+00101+00001999999ADDMA1102911999999MW1001REMMET040LFGJ 062300Z 08002KT CAVOK 01/M00 Q1029;EQDQ01+000000PRSWM2
0093072553999992000030700004+47030+005430FM-15+0196LFGJ V0200501N00151220001CN0099001N1+00001-00201999999ADDMA1102911999999MW1001REMMET041LFGJ 070000Z 05003KT CAVOK M00/M02 Q1029;EQDQ01+000000PRSWM2
0093072553999992000030701004+47030+005430FM-15+0196LFGJ V0200701N00211220001CN0099001N1-00101-00201999999ADDMA1102911999999MW1001REMMET041LFGJ 070100Z 07004KT CAVOK M01/M02 Q1029;EQDQ01+000000PRSWM2
0092072553999992000030719004+47030+005430FM-15+0196LFGJ V0209999C00001220001CN0099001N1+00501+00001999999ADDMA1102911999999MW1001REMMET040LFGJ 071900Z 00000KT CAVOK 05/M00 Q1029;EQDQ01+000000PRSWM2
0091072553999992000030720004+47030+005430FM-15+0196LFGJ V0200801N00101220001CN0099001N1+00401+00001999999ADDMA1102911999999MW1001REMMET039LFGJ 072000Z 08002KT CAVOK 04/00 Q1029;EQDQ01+000000PRSWM2
0091072553999992000030721004+47030+005430FM-15+0196LFGJ V0200801N00151220001CN0099001N1+00201+00001999999ADDMA1103011999999MW1001REMMET039LFGJ 072100Z 08003KT CAVOK 02/00 Q1030;EQDQ01+000000PRSWM2
0092072553999992000030722004+47030+005430FM-15+0196LFGJ V0200701N00211220001CN0099001N1+00201+00001999999ADDMA1103011999999MW1001REMMET040LFGJ 072200Z 07004KT CAVOK 02/M00 Q1030;EQDQ01+000000PRSWM2
0092072553999992000030723004+47030+005430FM-15+0196LFGJ V0200801N00211220001CN0099001N1+00101-00101999999ADDMA1103011999999MW1001REMMET040LFGJ 072300Z 08004KT CAVOK 01/M01 Q1030;EQDQ01+000000PRSWM2
0093072553999992000030800004+47030+005430FM-15+0196LFGJ V0200901N00211220001CN0099001N1+00001-00101999999ADDMA1103011999999MW1001REMMET041LFGJ 080000Z 09004KT CAVOK M00/M01 Q1030;EQDQ01+000000PRSWM2
0093072553999992000030801004+47030+005430FM-15+0196LFGJ V0200801N00211220001CN0099001N1+00001-00101999999ADDMA1103121999999MW1001REMMET041LFGJ 080100Z 08004KT CAVOK M00/M01 Q1031;EQDQ01+000000PRSWM2
0091072553999992000030819004+47030+005430FM-15+0196LFGJ V0202001N00311220001CN0099001N1+01101+00601999999ADDMA1103121999999MW1001REMMET039LFGJ 081900Z 20006KT CAVOK 11/06 Q1031;EQDQ01+000000PRSWM2
0091072553999992000030820004+47030+005430FM-15+0196LFGJ V0202101N00411220001CN0099001N1+00901+00501999999ADDMA1103121999999MW1001REMMET039LFGJ 082000Z 21008KT CAVOK 09/05 Q1031;EQDQ01+000000PRSWM2
0091072553999992000030821004+47030+005430FM-15+0196LFGJ V0202101N00311220001CN0099001N1+01001+00501999999ADDMA1103121999999MW1001REMMET039LFGJ 082100Z 21006KT CAVOK 10/05 Q1031;EQDQ01+000000PRSWM2
0091072553999992000030822004+47030+005430FM-15+0196LFGJ V0201901N00311220001CN0099001N1+00801+00501999999ADDMA1103181999999MW1001REMMET039LFGJ 082200Z 19006KT CAVOK 08/05 Q1032;EQDQ01+000000PRSWM2
0091072553999992000030823004+47030+005430FM-15+0196LFGJ V0201801N00311220001CN0099001N1+00801+00501999999ADDMA1103121999999MW1001REMMET039LFGJ 082300Z 18006KT CAVOK 08/05 Q1031;EQDQ01+000000PRSWM2
0091072553999992000030900004+47030+005430FM-15+0196LFGJ V0201901N00411220001CN0099001N1+01001+00501999999ADDMA1103121999999MW1001REMMET039LFGJ 090000Z 19008KT CAVOK 10/05 Q1031;EQDQ01+000000PRSWM2
0091072553999992000030901004+47030+005430FM-15+0196LFGJ V0201901N00411220001CN0099001N1+00801+00501999999ADDMA1103121999999MW1001REMMET039LFGJ 090100Z 19008KT CAVOK 08/05 Q1031;EQDQ01+000000PRSWM2
0139072553999992000030919004+47030+005430FM-15+0196LFGJ V0202501N002612200019N0112651N1+01401+00601999999ADDGA1021+014109999GF104991999999999999999999MA1102811999999MW1001REMMET045LFGJ 091900Z 25005KT 9999 SCT047 14/06 Q1028;EQDQ01+000000PRSWM2
0139072553999992000030920004+47030+005430FM-15+0196LFGJ V0202401N001010114019N0112651N1+01301+00701999999ADDGA1071+011409999GF107991999999999999999999MA1102811999999MW1001REMMET045LFGJ 092000Z 24002KT 9999 BKN038 13/07 Q1028;EQDQ01+000000PRSWM2
0139072553999992000030921004+47030+005430FM-15+0196LFGJ V0202701N003110105019N0112651N1+01301+00701999999ADDGA1071+010509999GF107991999999999999999999MA1102911999999MW1001REMMET045LFGJ 092100Z 27006KT 9999 BKN035 13/07 Q1029;EQDQ01+000000PRSWM2
0139072553999992000030922004+47030+005430FM-15+0196LFGJ V0202601N001010117019N0112651N1+01301+00901999999ADDGA1071+011709999GF107991999999999999999999MA1102911999999MW1001REMMET045LFGJ 092200Z 26002KT 9999 BKN039 13/09 Q1029;EQDQ01+000000PRSWM2
0139072553999992000030923004+47030+005430FM-15+0196LFGJ V0203401N002110087019N0112651N1+01301+00901999999ADDGA1071+008709999GF107991999999999999999999MA1102911999999MW1001REMMET045LFGJ 092300Z 34004KT 9999 BKN029 13/09 Q1029;EQDQ01+000000PRSWM2
0162072553999992000031000004+47030+005430FM-15+0196LFGJ V0200101N002110096019N0112651N1+01201+01001999999ADDGA1021+003009999GA2071+009609999GF107991999999999999999999MA1102911999999MW1001REMMET052LFGJ 100000Z 01004KT 9999 FEW010 BKN032 12/10 Q1029;EQDQ01+000000PRSWM2
0162072553999992000031001004+47030+005430FM-15+0196LFGJ V0202201N001010135019N0112651N1+01001+01001999999ADDGA1021+007209999GA2071+013509999GF107991999999999999999999MA1102911999999MW1001REMMET052LFGJ 100100Z 22002KT 9999 FEW024 BKN045 10/10 Q1029;EQDQ01+000000PRSWM2
0091072553999992000031019004+47030+005430FM-15+0196LFGJ V0201701N00101220001CN0099001N1+00801+00601999999ADDMA1102811999999MW1001REMMET039LFGJ 101900Z 17002KT CAVOK 08/06 Q1028;EQDQ01+000000PRSWM2
0091072553999992000031020004+47030+005430FM-15+0196LFGJ V0200901N00101220001CN0099001N1+00601+00501999999ADDMA1102711999999MW1001REMMET039LFGJ 102000Z 09002KT CAVOK 06/05 Q1027;EQDQ01+000000PRSWM2
0139072553999992000031021004+47030+005430FM-15+0196LFGJ V0201001N001512200019N0080001N1+00601+00501999999ADDGA1021+069009999GF102991999999999999999999MA1102711999999MW1001REMMET045LFGJ 102100Z 10003KT 8000 FEW230 06/05 Q1027;EQDQ01+000000PRSWM2
0160072553999992000031022004+47030+005430FM-15+0196LFGJ V0200501N001012200019N0060001N1+00501+00401999999ADDGA1021+069009999GF102991999999999999999999MA1102711999999MW1401REMMET050LFGJ 102200Z 05002KT 6000 VCFG FEW230 05/04 Q1027;EQDQ01+000003PRSWM1Q02    003PRSWM1
0160072553999992000031023004+47030+005430FM-15+0196LFGJ V0200701N001012200019N0030001N1+00401+00401999999ADDGA1021+069009999GF102991999999999999999999MA1102611999999MW1121REMMET050LFGJ 102300Z 07002KT 3000 MIFG FEW230 04/04 Q1026;EQDQ01+000003PRSWM1Q02    003PRSWM1
0160072553999992000031100004+47030+005430FM-15+0196LFGJ V0200801N001012200019N0030001N1+00201+00201999999ADDGA1021+069009999GF102991999999999999999999MA1102611999999MW1121REMMET050LFGJ 110000Z 08002KT 3000 MIFG FEW230 02/02 Q1026;EQDQ01+000003PRSWM1Q02    003PRSWM1
0180072553999992000031101004+47030+005430FM-15+0196LFGJ V0201001N001012200019N0020001N1+00201+00201999999ADDED199U05509GA1021+069009999GF102991999999999999999999MA1102611999999MW1121REMMET059LFGJ 110100Z 10002KT 2000 R06/0550 MIFG FEW230 02/02 Q1026;EQDQ01+000003PRSWM1Q02    003PRSWM1
0091072553999992000031319004+47030+005430FM-15+0196LFGJ V0200501N00211220001CN0099001N1+00901+00301999999ADDMA1102511999999MW1001REMMET039LFGJ 131900Z 05004KT CAVOK 09/03 Q1025;EQDQ01+000000PRSWM2
0091072553999992000031320004+47030+005430FM-15+0196LFGJ V0200201N00211220001CN0099001N1+00701+00301999999ADDMA1102511999999MW1001REMMET039LFGJ 132000Z 02004KT CAVOK 07/03 Q1025;EQDQ01+000000PRSWM2
0091072553999992000031321004+47030+005430FM-15+0196LFGJ V0203101N00101220001CN0099001N1+00801+00301999999ADDMA1102611999999MW1001REMMET039LFGJ 132100Z 31002KT CAVOK 08/03 Q1026;EQDQ01+000000PRSWM2
0091072553999992000031322004+47030+005430FM-15+0196LFGJ V0200101N00311220001CN0099001N1+00901+00301999999ADDMA1102611999999MW1001REMMET039LFGJ 132200Z 01006KT CAVOK 09/03 Q1026;EQDQ01+000000PRSWM2
0091072553999992000031323004+47030+005430FM-15+0196LFGJ V0203501N00411220001CN0099001N1+00901+00301999999ADDMA1102611999999MW1001REMMET039LFGJ 132300Z 35008KT CAVOK 09/03 Q1026;EQDQ01+000000PRSWM2
0056072553999992000031400004+47030+005430FM-16+0196LFGJ V02099999999992200019N0112651N1+99999+99999999999ADDMW1001REMMET019LFGJ 140000Z CAVOK;EQDQ01+000000PRSWM2
0091072553999992000031401004+47030+005430FM-15+0196LFGJ V0203601N00311220001CN0099001N1+00901+00401999999ADDMA1102611999999MW1001REMMET039LFGJ 140100Z 36006KT CAVOK 09/04 Q1026;EQDQ01+000000PRSWM2
0162072553999992000031419004+47030+005430FM-15+0196LFGJ V0202101N006210300019N0112651N1+01301+00901999999ADDGA1021+013809999GA2071+030009999GF107991999999999999999999MA1102301999999MW1001REMMET052LFGJ 141900Z 21012KT 9999 SCT046 BKN100 13/09 Q1023;EQDQ01+000000PRSWM2
0091072553999992000031420004+47030+005430FM-15+0196LFGJ V0202101N00621220001CN0099001N1+01301+00901999999ADDMA1102201999999MW1001REMMET039LFGJ 142000Z 21012KT CAVOK 13/09 Q1022;EQDQ01+000000PRSWM2
0162072553999992000031421004+47030+005430FM-15+0196LFGJ V0202301N005110138019N0112651N1+01201+00901999999ADDGA1021+010809999GA2071+013809999GF107991999999999999999999MA1102201999999MW1001REMMET052LFGJ 142100Z 23010KT 9999 SCT036 BKN046 12/09 Q1022;EQDQ01+000000PRSWM2
0162072553999992000031422004+47030+005430FM-15+0196LFGJ V0203301N005110240019N0112651N1+01201+00801999999ADDGA1021+007809999GA2071+024009999GF107991999999999999999999MA1102301999999MW1001REMMET052LFGJ 142200Z 33010KT 9999 FEW026 BKN083 12/08 Q1023;EQDQ01+000000PRSWM2
0162072553999992000031423004+47030+005430FM-15+0196LFGJ V0203401N005110123019N0112651N1+01001+00801999999ADDGA1021+007509999GA2071+012309999GF107991999999999999999999MA1102401999999MW1001REMMET052LFGJ 142300Z 34010KT 9999 FEW025 BKN041 10/08 Q1024;EQDQ01+000000PRSWM2
0185072553999992000031500004+47030+005430FM-15+0196LFGJ V0203601N003110147019N0112651N1+01001+00701999999ADDGA1021+006009999GA2021+008109999GA3071+014709999GF107991999999999999999999MA1102401999999MW1001REMMET059LFGJ 150000Z 36006KT 9999 FEW020 SCT027 BKN049 10/07 Q1024;EQDQ01+000000PRSWM2
0162072553999992000031501004+47030+005430FM-15+0196LFGJ V0200201N007710084019N0112651N1+00701+00301999999ADDGA1021+005709999GA2081+008409999GF108991999999999999999999MA1102511999999MW1001REMMET052LFGJ 150100Z 02015KT 9999 FEW019 OVC028 07/03 Q1025;EQDQ01+000000PRSWM2
0092072553999992000031519004+47030+005430FM-15+0196LFGJ V0200201N00411220001CN0099001N1+00301-00301999999ADDMA1103181999999MW1001REMMET040LFGJ 151900Z 02008KT CAVOK 03/M03 Q1032;EQDQ01+000000PRSWM2
0092072553999992000031520004+47030+005430FM-15+0196LFGJ V0200101N00311220001CN0099001N1+00401-00301999999ADDMA1103181999999MW1001REMMET040LFGJ 152000Z 01006KT CAVOK 04/M03 Q1032;EQDQ01+000000PRSWM2
0092072553999992000031522004+47030+005430FM-15+0196LFGJ V0200101N00511220001CN0099001N1+00401-00201999999ADDMA1103181999999MW1001REMMET040LFGJ 152200Z 01010KT CAVOK 04/M02 Q1032;EQDQ01+000000PRSWM2
0092072553999992000031523004+47030+005430FM-15+0196LFGJ V0200101N00411220001CN0099001N1+00301-00201999999ADDMA1103181999999MW1001REMMET040LFGJ 152300Z 01008KT CAVOK 03/M02 Q1032;EQDQ01+000000PRSWM2
0056072553999992000031600004+47030+005430FM-16+0196LFGJ V02099999999992200019N0064371N1+99999+99999999999ADDMW1001REMMET019LFGJ 160000Z CAVOK;EQDQ01+000000PRSWM2
0162072553999992000031619004+47030+005430FM-15+0196LFGJ V0200201N004610300019N0112651N1+00901+00401999999ADDGA1021+011409999GA2071+030009999GF107991999999999999999999MA1103121999999MW1001REMMET052LFGJ 161900Z 02009KT 9999 FEW038 BKN100 09/04 Q1031;EQDQ01+000000PRSWM2
0091072553999992000031620004+47030+005430FM-15+0196LFGJ V0200201N00411220001CN0099001N1+00801+00401999999ADDMA1103121999999MW1001REMMET039LFGJ 162000Z 02008KT CAVOK 08/04 Q1031;EQDQ01+000000PRSWM2
0091072553999992000031621004+47030+005430FM-15+0196LFGJ V0200201N00361220001CN0099001N1+00801+00401999999ADDMA1103121999999MW1001REMMET039LFGJ 162100Z 02007KT CAVOK 08/04 Q1031;EQDQ01+000000PRSWM2
0091072553999992000031622004+47030+005430FM-15+0196LFGJ V0200201N00411220001CN0099001N1+00801+00401999999ADDMA1103011999999MW1001REMMET039LFGJ 162200Z 02008KT CAVOK 08/04 Q1030;EQDQ01+000000PRSWM2
0162072553999992000031623004+47030+005430FM-15+0196LFGJ V0200201N005110300019N0112651N1+00801+00401999999ADDGA1021+010809999GA2071+030009999GF107991999999999999999999MA1103011999999MW1001REMMET052LFGJ 162300Z 02010KT 9999 FEW036 BKN100 08/04 Q1030;EQDQ01+000000PRSWM2
0162072553999992000031700004+47030+005430FM-15+0196LFGJ V0200201N003110240019N0112651N1+00701+00401999999ADDGA1021+008409999GA2071+024009999GF107991999999999999999999MA1103011999999MW1001REMMET052LFGJ 170000Z 02006KT 9999 FEW028 BKN083 07/04 Q1030;EQDQ01+000000PRSWM2
0185072553999992000031701004+47030+005430FM-15+0196LFGJ V0200401N002110240019N0112651N1+00701+00501999999ADDGA1021+010509999GA2021+013809999GA3071+024009999GF107991999999999999999999MA1102911999999MW1001REMMET059LFGJ 170100Z 04004KT 9999 FEW035 SCT046 BKN083 07/05 Q1029;EQDQ01+000000PRSWM2
0139072553999992000031719004+47030+005430FM-15+0196LFGJ V0200101N005110102019N0112651N1+01001+00501999999ADDGA1081+010209999GF108991999999999999999999MA1102711999999MW1001REMMET045LFGJ 171900Z 01010KT 9999 OVC034 10/05 Q1027;EQDQ01+000000PRSWM2
0139072553999992000031720004+47030+005430FM-15+0196LFGJ V0200101N005110117019N0112651N1+01001+00501999999ADDGA1081+011709999GF108991999999999999999999MA1102711999999MW1001REMMET045LFGJ 172000Z 01010KT 9999 OVC039 10/05 Q1027;EQDQ01+000000PRSWM2
0139072553999992000031721004+47030+005430FM-15+0196LFGJ V0203601N004110129019N0112651N1+00901+00501999999ADDGA1081+012909999GF108991999999999999999999MA1102711999999MW1001REMMET045LFGJ 172100Z 36008KT 9999 OVC043 09/05 Q1027;EQDQ01+000000PRSWM2
0139072553999992000031722004+47030+005430FM-15+0196LFGJ V0203601N003610123019N0112651N1+00901+00501999999ADDGA1081+012309999GF108991999999999999999999MA1102711999999MW1001REMMET045LFGJ 172200Z 36007KT 9999 OVC041 09/05 Q1027;EQDQ01+000000PRSWM2
0139072553999992000031723004+47030+005430FM-15+0196LFGJ V0203601N004110120019N0112651N1+00801+00501999999ADDGA1081+012009999GF108991999999999999999999MA1102711999999MW1001REMMET045LFGJ 172300Z 36008KT 9999 OVC040 08/05 Q1027;EQDQ01+000000PRSWM2
0139072553999992000031800004+47030+005430FM-15+0196LFGJ V0200201N004110120019N0080001N1+00801+00501999999ADDGA1081+012009999GF108991999999999999999999MA1102711999999MW1001REMMET045LFGJ 180000Z 02008KT 8000 OVC040 08/05 Q1027;EQDQ01+000000PRSWM2
0139072553999992000031801004+47030+005430FM-15+0196LFGJ V0203601N004110120019N0080001N1+00801+00501999999ADDGA1081+012009999GF108991999999999999999999MA1102711999999MW1001REMMET045LFGJ 180100Z 36008KT 8000 OVC040 08/05 Q1027;EQDQ01+000000PRSWM2
0092072553999992000032019004+47030+005430FM-15+0196LFGJ V0200201N00411220001CN0099001N1+00801+00001999999ADDMA1102101999999MW1001REMMET040LFGJ 201900Z 02008KT CAVOK 08/M00 Q1021;EQDQ01+000000PRSWM2
0092072553999992000032020004+47030+005430FM-15+0196LFGJ V0200301N00411220001CN0099001N1+00801+00001999999ADDMA1102101999999MW1001REMMET040LFGJ 202000Z 03008KT CAVOK 08/M00 Q1021;EQDQ01+000000PRSWM2
0092072553999992000032021004+47030+005430FM-15+0196LFGJ V0200501N00511220001CN0099001N1+00701+00001999999ADDMA1102101999999MW1001REMMET040LFGJ 202100Z 05010KT CAVOK 07/M00 Q1021;EQDQ01+000000PRSWM2
0092072553999992000032022004+47030+005430FM-15+0196LFGJ V0200501N00511220001CN0099001N1+00601+00001999999ADDMA1102101999999MW1001REMMET040LFGJ 202200Z 05010KT CAVOK 06/M00 Q1021;EQDQ01+000000PRSWM2
0092072553999992000032023004+47030+005430FM-15+0196LFGJ V0200401N00511220001CN0099001N1+00601-00101999999ADDMA1102101999999MW1001REMMET040LFGJ 202300Z 04010KT CAVOK 06/M01 Q1021;EQDQ01+000000PRSWM2
0056072553999992000032100004+47030+005430FM-16+0196LFGJ V02099999999992200019N0048281N1+99999+99999999999ADDMW1001REMMET019LFGJ 210000Z CAVOK;EQDQ01+000000PRSWM2
0092072553999992000032101004+47030+005430FM-15+0196LFGJ V0200101N00151220001CN0099001N1+00301-00101999999ADDMA1102101999999MW1001REMMET040LFGJ 210100Z 01003KT CAVOK 03/M01 Q1021;EQDQ01+000000PRSWM2
0091072553999992000032119004+47030+005430FM-15+0196LFGJ V0200401N00151220001CN0099001N1+00701+00101999999ADDMA1101801999999MW1001REMMET039LFGJ 211900Z 04003KT CAVOK 07/01 Q1018;EQDQ01+000000PRSWM2
0091072553999992000032120004+47030+005430FM-15+0196LFGJ V0200501N00101220001CN0099001N1+00601+00101999999ADDMA1101801999999MW1001REMMET039LFGJ 212000Z 05002KT CAVOK 06/01 Q1018;EQDQ01+000000PRSWM2
0091072553999992000032121004+47030+005430FM-15+0196LFGJ V0200801N00151220001CN0099001N1+00401+00001999999ADDMA1101901999999MW1001REMMET039LFGJ 212100Z 08003KT CAVOK 04/00 Q1019;EQDQ01+000000PRSWM2
0091072553999992000032122004+47030+005430FM-15+0196LFGJ V0200601N00101220001CN0099001N1+00401+00201999999ADDMA1101901999999MW1001REMMET039LFGJ 212200Z 06002KT CAVOK 04/02 Q1019;EQDQ01+000000PRSWM2
0092072553999992000032123004+47030+005430FM-15+0196LFGJ V0200701N00311220001CN0099001N1+00201+00001999999ADDMA1101901999999MW1001REMMET040LFGJ 212300Z 07006KT CAVOK 02/M00 Q1019;EQDQ01+000000PRSWM2
0092072553999992000032200004+47030+005430FM-15+0196LFGJ V0200801N00211220001CN0099001N1+00201+00001999999ADDMA1101901999999MW1001REMMET040LFGJ 220000Z 08004KT CAVOK 02/M00 Q1019;EQDQ01+000000PRSWM2
0092072553999992000032201004+47030+005430FM-15+0196LFGJ V0200801N00211220001CN0099001N1+00101+00001999999ADDMA1101901999999MW1001REMMET040LFGJ 220100Z 08004KT CAVOK 01/M00 Q1019;EQDQ01+000000PRSWM2
0091072553999992000032219004+47030+005430FM-15+0196LFGJ V0201601N00211220001CN0099001N1+01101+00101999999ADDMA1101591999999MW1001REMMET039LFGJ 221900Z 16004KT CAVOK 11/01 Q1016;EQDQ01+000000PRSWM2
0091072553999992000032220004+47030+005430FM-15+0196LFGJ V0201401N00101220001CN0099001N1+00801+00301999999ADDMA1101591999999MW1001REMMET039LFGJ 222000Z 14002KT CAVOK 08/03 Q1016;EQDQ01+000000PRSWM2
0091072553999992000032221004+47030+005430FM-15+0196LFGJ V0201701N00211220001CN0099001N1+00601+00201999999ADDMA1101691999999MW1001REMMET039LFGJ 222100Z 17004KT CAVOK 06/02 Q1017;EQDQ01+000000PRSWM2
0091072553999992000032222004+47030+005430FM-15+0196LFGJ V0201701N00211220001CN0099001N1+00601+00201999999ADDMA1101691999999MW1001REMMET039LFGJ 222200Z 17004KT CAVOK 06/02 Q1017;EQDQ01+000000PRSWM2
0091072553999992000032223004+47030+005430FM-15+0196LFGJ V0201901N00311220001CN0099001N1+00701+00201999999ADDMA1101691999999MW1001REMMET039LFGJ 222300Z 19006KT CAVOK 07/02 Q1017;EQDQ01+000000PRSWM2
0056072553999992000032300004+47030+005430FM-16+0196LFGJ V02099999999992200019N0100001N1+99999+99999999999ADDMW1001REMMET019LFGJ 230000Z CAVOK;EQDQ01+000000PRSWM2
0091072553999992000032301004+47030+005430FM-15+0196LFGJ V0202001N00311220001CN0099001N1+00801+00401999999ADDMA1101591999999MW1001REMMET039LFGJ 230100Z 20006KT CAVOK 08/04 Q1016;EQDQ01+000000PRSWM2
0091072553999992000032319004+47030+005430FM-15+0196LFGJ V0201301N00311220001CN0099001N1+00901+00301999999ADDMA1101081999999MW1001REMMET039LFGJ 231900Z 13006KT CAVOK 09/03 Q1011;EQDQ01+000000PRSWM2
0091072553999992000032320004+47030+005430FM-15+0196LFGJ V0201401N00411220001CN0099001N1+01101+00301999999ADDMA1101081999999MW1001REMMET039LFGJ 232000Z 14008KT CAVOK 11/03 Q1011;EQDQ01+000000PRSWM2
0091072553999992000032321004+47030+005430FM-15+0196LFGJ V0201601N00411220001CN0099001N1+01101+00401999999ADDMA1101081999999MW1001REMMET039LFGJ 232100Z 16008KT CAVOK 11/04 Q1011;EQDQ01+000000PRSWM2
0091072553999992000032322004+47030+005430FM-15+0196LFGJ V0201601N00211220001CN0099001N1+00901+00501999999ADDMA1101081999999MW1001REMMET039LFGJ 232200Z 16004KT CAVOK 09/05 Q1011;EQDQ01+000000PRSWM2
0091072553999992000032323004+47030+005430FM-15+0196LFGJ V0201801N00411220001CN0099001N1+01001+00501999999ADDMA1101081999999MW1001REMMET039LFGJ 232300Z 18008KT CAVOK 10/05 Q1011;EQDQ01+000000PRSWM2
0162072553999992000032400004+47030+005430FM-15+0196LFGJ V0202001N006210240019N0112651N1+01001+00701999999ADDGA1021+013809999GA2081+024009999GF108991999999999999999999MA1101081999999MW1001REMMET052LFGJ 240000Z 20012KT 9999 FEW046 OVC083 10/07 Q1011;EQDQ01+000000PRSWM2
0205072553999992000032401004+47030+005430FM-15+0196LFGJ V0201901N001010180019N0040001N1+00901+00701999999ADDGA1021+008709999GA2021+011709999GA3081+018009999GF108991999999999999999999MA1101081999999MW1611REMMET063LFGJ 240100Z 19002KT 4000 -RA FEW029 SCT039 OVC060 09/07 Q1011;EQDQ01+000003PRSWM1Q02    003PRSWM1
0091072553999992000032419004+47030+005430FM-15+0196LFGJ V0201401N00211220001CN0099001N1+00701+00601999999ADDMA1101491999999MW1001REMMET039LFGJ 241900Z 14004KT CAVOK 07/06 Q1015;EQDQ01+000000PRSWM2
0090072553999992000032419304+47030+005430FM-15+0196LFGJ V0200901N00051220001CN0099001N1+00601+00501999999ADDMA1101491999999MW1001REMMET038LFGJ 242030 09001KT CAVOK 06/05 Q1015;EQDQ01+000000PRSWM2
0091072553999992000032421004+47030+005430FM-15+0196LFGJ V0200901N00151220001CN0099001N1+00601+00601999999ADDMA1101591999999MW1001REMMET039LFGJ 242100Z 09003KT CAVOK 06/06 Q1016;EQDQ01+000000PRSWM2
0091072553999992000032422004+47030+005430FM-15+0196LFGJ V0209999C00001220001CN0099001N1+00601+00601999999ADDMA1101591999999MW1001REMMET039LFGJ 242200Z 00000KT CAVOK 06/06 Q1016;EQDQ01+000000PRSWM2
0091072553999992000032423004+47030+005430FM-15+0196LFGJ V0209999C00001220001CN0099001N1+00601+00601999999ADDMA1101591999999MW1001REMMET039LFGJ 242300Z 00000KT CAVOK 06/06 Q1016;EQDQ01+000000PRSWM2
0091072553999992000032500004+47030+005430FM-15+0196LFGJ V0201501N00101220001CN0099001N1+00601+00601999999ADDMA1101691999999MW1001REMMET039LFGJ 250000Z 15002KT CAVOK 06/06 Q1017;EQDQ01+000000PRSWM2
0091072553999992000032501004+47030+005430FM-15+0196LFGJ V0201701N00101220001CN0099001N1+00701+00601999999ADDMA1101691999999MW1001REMMET039LFGJ 250100Z 17002KT CAVOK 07/06 Q1017;EQDQ01+000000PRSWM2
0091072553999992000032718004+47030+005430FM-15+0196LFGJ V0201801N00211220001CN0099001N1+00601+00401999999ADDMA1100811999999MW1001REMMET039LFGJ 271800Z 18004KT CAVOK 06/04 Q1008;EQDQ01+000000PRSWM2
0091072553999992000032719004+47030+005430FM-15+0196LFGJ V0200901N00101220001CN0099001N1+00501+00301999999ADDMA1100811999999MW1001REMMET039LFGJ 271900Z 09002KT CAVOK 05/03 Q1008;EQDQ01+000000PRSWM2
0091072553999992000032720004+47030+005430FM-15+0196LFGJ V0201101N00101220001CN0099001N1+00301+00201999999ADDMA1100911999999MW1001REMMET039LFGJ 272000Z 11002KT CAVOK 03/02 Q1009;EQDQ01+000000PRSWM2
0091072553999992000032721004+47030+005430FM-15+0196LFGJ V0201101N00211220001CN0099001N1+00101+00101999999ADDMA1100911999999MW1001REMMET039LFGJ 272100Z 11004KT CAVOK 01/01 Q1009;EQDQ01+000000PRSWM2
0091072553999992000032722004+47030+005430FM-15+0196LFGJ V0200101N00211220001CN0099001N1+00201+00101999999ADDMA1100911999999MW1001REMMET039LFGJ 272200Z 01004KT CAVOK 02/01 Q1009;EQDQ01+000000PRSWM2
0091072553999992000032723004+47030+005430FM-15+0196LFGJ V0200601N00101220001CN0099001N1+00001+00001999999ADDMA1100911999999MW1001REMMET039LFGJ 272300Z 06002KT CAVOK 00/00 Q1009;EQDQ01+000000PRSWM2
0056072553999992000032800004+47030+005430FM-16+0196LFGJ V02099999999992200019N0300001N1+99999+99999999999ADDMW1001REMMET019LFGJ 280000Z CAVOK;EQDQ01+000000PRSWM2
0162072553999992000032818004+47030+005430FM-15+0196LFGJ V0200101N006210300019N0112651N1+00601+00401999999ADDGA1021+014709999GA2071+030009999GF107991999999999999999999MA1100811999999MW1001REMMET052LFGJ 281800Z 01012KT 9999 FEW049 BKN100 06/04 Q1008;EQDQ01+000000PRSWM2
0091072553999992000032819004+47030+005430FM-15+0196LFGJ V0200101N00511220001CN0099001N1+00601+00401999999ADDMA1100811999999MW1001REMMET039LFGJ 281900Z 01010KT CAVOK 06/04 Q1008;EQDQ01+000000PRSWM2
0091072553999992000032820004+47030+005430FM-15+0196LFGJ V0200301N00411220001CN0099001N1+00501+00301999999ADDMA1100811999999MW1001REMMET039LFGJ 282000Z 03008KT CAVOK 05/03 Q1008;EQDQ01+000000PRSWM2
0091072553999992000032821004+47030+005430FM-15+0196LFGJ V0200201N00411220001CN0099001N1+00401+00301999999ADDMA1100711999999MW1001REMMET039LFGJ 282100Z 02008KT CAVOK 04/03 Q1007;EQDQ01+000000PRSWM2
0091072553999992000032822004+47030+005430FM-15+0196LFGJ V0200101N00511220001CN0099001N1+00401+00301999999ADDMA1100711999999MW1001REMMET039LFGJ 282200Z 01010KT CAVOK 04/03 Q1007;EQDQ01+000000PRSWM2
0091072553999992000032823004+47030+005430FM-15+0196LFGJ V0203601N00511220001CN0099001N1+00401+00201999999ADDMA1100611999999MW1001REMMET039LFGJ 282300Z 36010KT CAVOK 04/02 Q1006;EQDQ01+000000PRSWM2
0139072553999992000032900004+47030+005430FM-15+0196LFGJ V0200101N004110690019N0080001N1+00401+00201999999ADDGA1071+069009999GF107991999999999999999999MA1100611999999MW1001REMMET045LFGJ 290000Z 01008KT 8000 BKN230 04/02 Q1006;EQDQ01+000000PRSWM2
0162072553999992000032918004+47030+005430FM-15+0196LFGJ V0202301N003610039019N0112651N1+00401+00301999999ADDGA1021+001809999GA2081+003909999GF108991999999999999999999MA1101021999999MW1001REMMET052LFGJ 291800Z 23007KT 9999 FEW006 OVC013 04/03 Q1010;EQDQ01+000000PRSWM2
0182072553999992000032919004+47030+005430FM-15+0196LFGJ V0202101N004110060019N0080001N1+00401+00301999999ADDGA1021+003909999GA2081+006009999GF108991999999999999999999MA1101021999999MW1611REMMET056LFGJ 291900Z 21008KT 8000 -RA FEW013 OVC020 04/03 Q1010;EQDQ01+000003PRSWM1Q02    003PRSWM1
0159072553999992000032920004+47030+005430FM-15+0196LFGJ V0201801N003110057019N0080001N1+00301+00301999999ADDGA1081+005709999GF108991999999999999999999MA1101081999999MW1611REMMET049LFGJ 292000Z 18006KT 8000 -RA OVC019 03/03 Q1011;EQDQ01+000003PRSWM1Q02    003PRSWM1
0159072553999992000032921004+47030+005430FM-15+0196LFGJ V0202001N005110081019N0080001N1+00301+00301999999ADDGA1071+008109999GF107991999999999999999999MA1101081999999MW1611REMMET049LFGJ 292100Z 20010KT 8000 -RA BKN027 03/03 Q1011;EQDQ01+000003PRSWM1Q02    003PRSWM1
0139072553999992000032922004+47030+005430FM-15+0196LFGJ V0202001N005110051019N0060001N1+00301+00301999999ADDGA1071+005109999GF107991999999999999999999MA1101191999999MW1001REMMET045LFGJ 292200Z 20010KT 6000 BKN017 03/03 Q1012;EQDQ01+000000PRSWM2
0139072553999992000032923004+47030+005430FM-15+0196LFGJ V0202001N005110063019N0060001N1+00401+00301999999ADDGA1071+006309999GF107991999999999999999999MA1101191999999MW1001REMMET045LFGJ 292300Z 20010KT 6000 BKN021 04/03 Q1012;EQDQ01+000000PRSWM2
0182072553999992000033000004+47030+005430FM-15+0196LFGJ V0202001N004110048019N0060001N1+00401+00301999999ADDGA1021+002109999GA2071+004809999GF107991999999999999999999MA1101291999999MW1611REMMET056LFGJ 300000Z 20008KT 6000 -RA FEW007 BKN016 04/03 Q1013;EQDQ01+000003PRSWM1Q02    003PRSWM1
0162072553999992000033018004+47030+005430FM-15+0196LFGJ V0202601N002110300019N0112651N1+00801+00401999999ADDGA1021+013809999GA2071+030009999GF107991999999999999999999MA1101291999999MW1001REMMET052LFGJ 301800Z 26004KT 9999 SCT046 BKN100 08/04 Q1013;EQDQ01+000000PRSWM2
0091072553999992000033019004+47030+005430FM-15+0196LFGJ V0201901N00311220001CN0099001N1+00501+00301999999ADDMA1101391999999MW1001REMMET039LFGJ 301900Z 19006KT CAVOK 05/03 Q1014;EQDQ01+000000PRSWM2
0091072553999992000033020004+47030+005430FM-15+0196LFGJ V0209999C00001220001CN0099001N1+00301+00201999999ADDMA1101391999999MW1001REMMET039LFGJ 302000Z 00000KT CAVOK 03/02 Q1014;EQDQ01+000000PRSWM2
0091072553999992000033021004+47030+005430FM-15+0196LFGJ V0201001N00101220001CN0099001N1+00201+00201999999ADDMA1101391999999MW1001REMMET039LFGJ 302100Z 10002KT CAVOK 02/02 Q1014;EQDQ01+000000PRSWM2
0091072553999992000033023004+47030+005430FM-15+0196LFGJ V0200901N00101220001CN0099001N1+00001+00001999999ADDMA1101291999999MW1001REMMET039LFGJ 302300Z 09002KT CAVOK 00/00 Q1013;EQDQ01+000000PRSWM2
0093072553999992000033100004+47030+005430FM-15+0196LFGJ V0201101N00211220001CN0099001N1+00001+00001999999ADDMA1101291999999MW1001REMMET041LFGJ 310000Z 11004KT CAVOK M00/M00 Q1013;EQDQ01+000000PRSWM2
0091072553999992000033118004+47030+005430FM-15+0196LFGJ V0201501N00361220001CN0099001N1+01101+00301999999ADDMA1100411999999MW1001REMMET039LFGJ 311800Z 15007KT CAVOK 11/03 Q1004;EQDQ01+000000PRSWM2
0162072553999992000033119004+47030+005430FM-15+0196LFGJ V0202301N008210144019N0112651N1+01001+00501999999ADDGA1021+009309999GA2071+014409999GF107991999999999999999999MA1100511999999MW1001REMMET052LFGJ 311900Z 23016KT 9999 FEW031 BKN048 10/05 Q1005;EQDQ01+000000PRSWM2
0182072553999992000033120004+47030+005430FM-15+0196LFGJ V0202401N004610072019N0112651N1+00901+00601999999ADDGA1071+007209999GA2081+012009999GF108991999999999999999999MA1100611999999MW1611REMMET056LFGJ 312000Z 24009KT 9999 -RA BKN024 OVC040 09/06 Q1006;EQDQ01+000003PRSWM1Q02    003PRSWM1
0162072553999992000033121004+47030+005430FM-15+0196LFGJ V0202001N004110114019N0112651N1+00801+00601999999ADDGA1021+006309999GA2081+011409999GF108991999999999999999999MA1100611999999MW1001REMMET052LFGJ 312100Z 20008KT 9999 FEW021 OVC038 08/06 Q1006;EQDQ01+000000PRSWM2
0182072553999992000033123004+47030+005430FM-15+0196LFGJ V0202901N001510093019N0080001N1+00701+00601999999ADDGA1071+009309999GA2071+011709999GF107991999999999999999999MA1100611999999MW1611REMMET056LFGJ 312300Z 29003KT 8000 -RA BKN031 BKN039 07/06 Q1006;EQDQ01+000003PRSWM1Q02    003PRSWM1
0139072553999992000040100004+47030+005430FM-15+0196LFGJ V0202201N002110087019N0112651N1+00601+00601999999ADDGA1071+008709999GF107991999999999999999999MA1100611999999MW1001REMMET045LFGJ 010000Z 22004KT 9999 BKN029 06/06 Q1006;EQDQ01+000000PRSWM2
0164072553999992000040318004+47030+005430FM-15+0196LFGJ V0202701N003612200019N0112651N1+01201+00801999999ADDGA1021+007809999GA2021+012909099GF102991999999999999999999MA1098981999999MW1001REMMET054LFGJ 031800Z 27007KT 9999 FEW026 FEW043CB 12/08 Q0990;EQDQ01+000000PRSWM2
0091072553999992000040319004+47030+005430FM-15+0196LFGJ V0203301N00151220001CN0099001N1+00901+00701999999ADDMA1099091999999MW1001REMMET039LFGJ 031900Z 33003KT CAVOK 09/07 Q0991;EQDQ01+000000PRSWM2
0091072553999992000040320004+47030+005430FM-15+0196LFGJ V0201601N00151220001CN0099001N1+00701+00601999999ADDMA1099091999999MW1001REMMET039LFGJ 032000Z 16003KT CAVOK 07/06 Q0991;EQDQ01+000000PRSWM2
0091072553999992000040321004+47030+005430FM-15+0196LFGJ V0201601N00211220001CN0099001N1+00601+00601999999ADDMA1099191999999MW1001REMMET039LFGJ 032100Z 16004KT CAVOK 06/06 Q0992;EQDQ01+000000PRSWM2
0141072553999992000040322004+47030+005430FM-15+0196LFGJ V0201501N001512200019N0112651N1+00501+00501999999ADDGF100991999999999999999999MA1099191999999MW1121REMMET047LFGJ 032200Z 15003KT 9999 MIFG SKC 05/05 Q0992;EQDQ01+000003PRSWM1Q02    003PRSWM1
0091072553999992000040323004+47030+005430FM-15+0196LFGJ V0201801N00311220001CN0099001N1+00501+00501999999ADDMA1099291999999MW1001REMMET039LFGJ 032300Z 18006KT CAVOK 05/05 Q0993;EQDQ01+000000PRSWM2
0091072553999992000040400004+47030+005430FM-15+0196LFGJ V0201901N00311220001CN0099001N1+00501+00401999999ADDMA1099191999999MW1001REMMET039LFGJ 040000Z 19006KT CAVOK 05/04 Q0992;EQDQ01+000000PRSWM2
0056072553999992000040418004+47030+005430FM-16+0196LFGJ V02099999999992200019N0750001N1+99999+99999999999ADDMW1001REMMET019LFGJ 041800Z CAVOK;EQDQ01+000000PRSWM2
0162072553999992000040419004+47030+005430FM-15+0196LFGJ V0202201N006212200019N0112651N1+01101+00701999999ADDGA1021+011109999GA2021+014409999GF104991999999999999999999MA1099491999999MW1001REMMET052LFGJ 041900Z 22012KT 9999 FEW037 SCT048 11/07 Q0995;EQDQ01+000000PRSWM2
0182072553999992000040420004+47030+005430FM-15+0196LFGJ V0202601N002110105019N0080001N1+00901+00701999999ADDGA1021+003609999GA2071+010509999GF107991999999999999999999MA1099491999999MW1611REMMET056LFGJ 042000Z 26004KT 8000 -RA FEW012 BKN035 09/07 Q0995;EQDQ01+000003PRSWM1Q02    003PRSWM1
0162072553999992000040421004+47030+005430FM-15+0196LFGJ V0201001N001010111019N0112651N1+00801+00801999999ADDGA1021+008409999GA2071+011109999GF107991999999999999999999MA1099591999999MW1001REMMET052LFGJ 042100Z 10002KT 9999 FEW028 BKN037 08/08 Q0996;EQDQ01+000000PRSWM2
0162072553999992000040423004+47030+005430FM-15+0196LFGJ V0201501N004110150019N0112651N1+00901+00801999999ADDGA1021+009009999GA2071+015009999GF107991999999999999999999MA1099591999999MW1001REMMET052LFGJ 042300Z 15008KT 9999 FEW030 BKN050 09/08 Q0996;EQDQ01+000000PRSWM2
0184072553999992000040500004+47030+005430FM-15+0196LFGJ V0201401N002110123019N0112651N1+00801+00801999999ADDGA1021+006609999GA2071+012309999GF107991999999999999999999MA1099701999999MW1801REMMET058LFGJ 050000Z 14004KT 9999 -SHRA SCT022 BKN041 08/08 Q0997;EQDQ01+000003PRSWM1Q02    003PRSWM1
0162072553999992000040518004+47030+005430FM-15+0196LFGJ V0203001N001010072019N0112651N1+00601+00501999999ADDGA1021+004209999GA2081+007209999GF108991999999999999999999MA1101191999999MW1001REMMET052LFGJ 051800Z 30002KT 9999 FEW014 OVC024 06/05 Q1012;EQDQ01+000000PRSWM2
0159072553999992000040519004+47030+005430FM-15+0196LFGJ V0202801N002110057019N0080001N1+00601+00501999999ADDGA1081+005709999GF108991999999999999999999MA1101291999999MW1611REMMET049LFGJ 051900Z 28004KT 8000 -RA OVC019 06/05 Q1013;EQDQ01+000003PRSWM1Q02    003PRSWM1
0182072553999992000040520004+47030+005430FM-15+0196LFGJ V0202801N001510069019N0080001N1+00601+00601999999ADDGA1021+005109999GA2081+006909999GF108991999999999999999999MA1101391999999MW1611REMMET056LFGJ 052000Z 28003KT 8000 -RA FEW017 OVC023 06/06 Q1014;EQDQ01+000003PRSWM1Q02    003PRSWM1
0159072553999992000040521004+47030+005430FM-15+0196LFGJ V0202601N001010072019N0080001N1+00601+00601999999ADDGA1071+007209999GF107991999999999999999999MA1101491999999MW1611REMMET049LFGJ 052100Z 26002KT 8000 -RA BKN024 06/06 Q1015;EQDQ01+000003PRSWM1Q02    003PRSWM1
0182072553999992000040522004+47030+005430FM-15+0196LFGJ V0202601N001010060019N0112651N1+00601+00501999999ADDGA1021+003909999GA2081+006009999GF108991999999999999999999MA1101491999999MW1511REMMET056LFGJ 052200Z 26002KT 9999 -DZ FEW013 OVC020 06/05 Q1015;EQDQ01+000003PRSWM1Q02    003PRSWM1
0182072553999992000040523004+47030+005430FM-15+0196LFGJ V0202701N001010042019N0090001N1+00601+00501999999ADDGA1021+001809999GA2081+004209999GF108991999999999999999999MA1101491999999MW1511REMMET056LFGJ 052300Z 27002KT 9000 -DZ FEW006 OVC014 06/05 Q1015;EQDQ01+000003PRSWM1Q02    003PRSWM1
0182072553999992000040600004+47030+005430FM-15+0196LFGJ V0202901N002110036019N0090001N1+00601+00501999999ADDGA1021+001509999GA2081+003609999GF108991999999999999999999MA1101591999999MW1511REMMET056LFGJ 060000Z 29004KT 9000 -DZ FEW005 OVC012 06/05 Q1016;EQDQ01+000003PRSWM1Q02    003PRSWM1
0139072553999992000040618004+47030+005430FM-15+0196LFGJ V0200501N006210117019N0112651N1+00701+00201999999ADDGA1071+011709999GF107991999999999999999999MA1102401999999MW1001REMMET045LFGJ 061800Z 05012KT 9999 BKN039 07/02 Q1024;EQDQ01+000000PRSWM2
0162072553999992000040619004+47030+005430FM-15+0196LFGJ V0200501N005110117019N0112651N1+00601+00201999999ADDGA1021+008109999GA2071+011709999GF107991999999999999999999MA1102511999999MW1001REMMET052LFGJ 061900Z 05010KT 9999 FEW027 BKN039 06/02 Q1025;EQDQ01+000000PRSWM2
0139072553999992000040620004+47030+005430FM-15+0196LFGJ V0200601N005112200019N0112651N1+00601+00101999999ADDGA1021+011709999GF104991999999999999999999MA1102611999999MW1001REMMET045LFGJ 062000Z 06010KT 9999 SCT039 06/01 Q1026;EQDQ01+000000PRSWM2
0139072553999992000040621004+47030+005430FM-15+0196LFGJ V0200301N005112200019N0112651N1+00401+00101999999ADDGA1021+012009999GF102991999999999999999999MA1102611999999MW1001REMMET045LFGJ 062100Z 03010KT 9999 FEW040 04/01 Q1026;EQDQ01+000000PRSWM2
0140072553999992000040622004+47030+005430FM-15+0196LFGJ V0200101N006212200019N0112651N1+00401+00001999999ADDGA1021+013809999GF102991999999999999999999MA1102611999999MW1001REMMET046LFGJ 062200Z 01012KT 9999 FEW046 04/M00 Q1026;EQDQ01+000000PRSWM2
0092072553999992000040623004+47030+005430FM-15+0196LFGJ V0200101N00511220001CN0099001N1+00301+00001999999ADDMA1102611999999MW1001REMMET040LFGJ 062300Z 01010KT CAVOK 03/M00 Q1026;EQDQ01+000000PRSWM2
0056072553999992000040700004+47030+005430FM-16+0196LFGJ V02099999999992200019N9999999N1+99999+99999999999ADDMW1001REMMET019LFGJ 070000Z CAVOK;EQDQ01+000000PRSWM2
0092072553999992000040718004+47030+005430FM-15+0196LFGJ V0200401N00571220001CN0099001N1+01201-00101999999ADDMA1102401999999MW1001REMMET040LFGJ 071800Z 04011KT CAVOK 12/M01 Q1024;EQDQ01+000000PRSWM2
0091072553999992000040719004+47030+005430FM-15+0196LFGJ V0200701N00311220001CN0099001N1+00801+00101999999ADDMA1102511999999MW1001REMMET039LFGJ 071900Z 07006KT CAVOK 08/01 Q1025;EQDQ01+000000PRSWM2
0091072553999992000040720004+47030+005430FM-15+0196LFGJ V0200401N00461220001CN0099001N1+00801+00001999999ADDMA1102511999999MW1001REMMET039LFGJ 072000Z 04009KT CAVOK 08/00 Q1025;EQDQ01+000000PRSWM2
0091072553999992000040721004+47030+005430FM-15+0196LFGJ V0200401N00361220001CN0099001N1+00801+00101999999ADDMA1102511999999MW1001REMMET039LFGJ 072100Z 04007KT CAVOK 08/01 Q1025;EQDQ01+000000PRSWM2
0091072553999992000040722004+47030+005430FM-15+0196LFGJ V0200401N00411220001CN0099001N1+00701+00101999999ADDMA1102511999999MW1001REMMET039LFGJ 072200Z 04008KT CAVOK 07/01 Q1025;EQDQ01+000000PRSWM2
0091072553999992000040723004+47030+005430FM-15+0196LFGJ V0200701N00101220001CN0099001N1+00501+00101999999ADDMA1102511999999MW1001REMMET039LFGJ 072300Z 07002KT CAVOK 05/01 Q1025;EQDQ01+000000PRSWM2
0056072553999992000040800004+47030+005430FM-16+0196LFGJ V02099999999992200019N9999999N1+99999+99999999999ADDMW1001REMMET019LFGJ 080000Z CAVOK;EQDQ01+000000PRSWM2
0091072553999992000041018004+47030+005430FM-15+0196LFGJ V0200401N00101220001CN0099001N1+01301+00801999999ADDMA1100311999999MW1001REMMET039LFGJ 101800Z 04002KT CAVOK 13/08 Q1003;EQDQ01+000000PRSWM2
0139072553999992000041019004+47030+005430FM-15+0196LFGJ V0201001N001512200019N0112651N1+01201+00901999999ADDGA1021+014109999GF102991999999999999999999MA1100411999999MW1001REMMET045LFGJ 101900Z 10003KT 9999 FEW047 12/09 Q1004;EQDQ01+000000PRSWM2
0211072553999992000041020004+47030+005430FM-15+0196LFGJ V0200101N002110360019N0112651N1+01101+00901999999ADDGA1021+010809999GA2021+015009999GA3071+036009999GF107991999999999999999999MA1100411999999MW1611REMMET069LFGJ 102000Z 01004KT 9999 -RA FEW036 SCT050 BKN120 11/09 Q1004 NOSIG;EQDQ01+000003PRSWM1Q02    003PRSWM1
0185072553999992000041021004+47030+005430FM-15+0196LFGJ V0200101N002610330019N0112651N1+01101+00801999999ADDGA1021+010209999GA2021+015009999GA3081+033009999GF108991999999999999999999MA1100411999999MW1001REMMET059LFGJ 102100Z 01005KT 9999 FEW034 SCT050 OVC110 11/08 Q1004;EQDQ01+000000PRSWM2
0091072553999992000041022004+47030+005430FM-15+0196LFGJ V0203501N00261220001CN0099001N1+01001+00801999999ADDMA1100311999999MW1001REMMET039LFGJ 102200Z 35005KT CAVOK 10/08 Q1003;EQDQ01+000000PRSWM2
0182072553999992000041023004+47030+005430FM-15+0196LFGJ V0203301N003610330019N0112651N1+01001+00801999999ADDGA1021+014409999GA2081+033009999GF108991999999999999999999MA1100311999999MW1611REMMET056LFGJ 102300Z 33007KT 9999 -RA SCT048 OVC110 10/08 Q1003;EQDQ01+000003PRSWM1Q02    003PRSWM1
0182072553999992000041100004+47030+005430FM-15+0196LFGJ V0203501N003610150019N0112651N1+00901+00801999999ADDGA1021+009909999GA2071+015009999GF107991999999999999999999MA1100311999999MW1611REMMET056LFGJ 110000Z 35007KT 9999 -RA FEW033 BKN050 09/08 Q1003;EQDQ01+000003PRSWM1Q02    003PRSWM1
0185072553999992000041118004+47030+005430FM-15+0196LFGJ V0201901N005110150019N0112651N1+01301+00901999999ADDGA1021+013809999GA2071+015009999GA3081+075009999GF108991999999999999999999MA1099391999999MW1001REMMET059LFGJ 111800Z 19010KT 9999 FEW046 BKN050 OVC250 13/09 Q0994;EQDQ01+000000PRSWM2
0187072553999992000041119004+47030+005430FM-15+0196LFGJ V0201901N006210150019N0112651N1+01101+00701999999ADDGA1021+013809099GA2071+015009999GA3081+075009999GF108991999999999999999999MA1099391999999MW1001REMMET061LFGJ 111900Z 19012KT 9999 FEW046CB BKN050 OVC250 11/07 Q0994;EQDQ01+000000PRSWM2
0185072553999992000041120004+47030+005430FM-15+0196LFGJ V0202001N006710150019N0112651N1+01101+00801999999ADDGA1021+012009999GA2071+015009999GA3081+075009999GF108991999999999999999999MA1099391999999MW1001REMMET059LFGJ 112000Z 20013KT 9999 FEW040 BKN050 OVC250 11/08 Q0994;EQDQ01+000000PRSWM2
0162072553999992000041121004+47030+005430FM-15+0196LFGJ V0202301N007710147019N0112651N1+01101+00501999999ADDGA1071+014709999GA2081+075009999GF108991999999999999999999MA1099391999999MW1001REMMET052LFGJ 112100Z 23015KT 9999 BKN049 OVC250 11/05 Q0994;EQDQ01+000000PRSWM2
0185072553999992000041122004+47030+005430FM-15+0196LFGJ V0202201N005110330019N0112651N1+00901+00601999999ADDGA1021+005109999GA2021+014409999GA3081+033009999GF108991999999999999999999MA1099391999999MW1001REMMET059LFGJ 112200Z 22010KT 9999 FEW017 SCT048 OVC110 09/06 Q0994;EQDQ01+000000PRSWM2
0185072553999992000041123004+47030+005430FM-15+0196LFGJ V0202001N006710330019N0112651N1+00901+00601999999ADDGA1021+007809999GA2021+015009999GA3081+033009999GF108991999999999999999999MA1099291999999MW1001REMMET059LFGJ 112300Z 20013KT 9999 FEW026 SCT050 OVC110 09/06 Q0993;EQDQ01+000000PRSWM2
0182072553999992000041200004+47030+005430FM-15+0196LFGJ V0202001N007210135019N0112651N1+00901+00601999999ADDGA1021+007509999GA2071+013509999GF107991999999999999999999MA1099191999999MW1611REMMET056LFGJ 120000Z 20014KT 9999 -RA FEW025 BKN045 09/06 Q0992;EQDQ01+000003PRSWM1Q02    003PRSWM1
0162072553999992000041219004+47030+005430FM-15+0196LFGJ V0202401N003110150019N0112651N1+00801+00501999999ADDGA1021+010809999GA2071+015009999GF107991999999999999999999MA1099701999999MW1001REMMET052LFGJ 121900Z 24006KT 9999 FEW036 BKN050 08/05 Q0997;EQDQ01+000000PRSWM2
0162072553999992000041220004+47030+005430FM-15+0196LFGJ V0202701N003112200019N0112651N1+00601+00501999999ADDGA1021+004509999GA2021+009909999GF104991999999999999999999MA1099901999999MW1001REMMET052LFGJ 122000Z 27006KT 9999 FEW015 SCT033 06/05 Q0999;EQDQ01+000000PRSWM2
0184072553999992000041221004+47030+005430FM-15+0196LFGJ V0202501N005110123019N0112651N1+00601+00501999999ADDGA1021+009309999GA2071+012309999GF107991999999999999999999MA1099901999999MW1801REMMET058LFGJ 122100Z 25010KT 9999 -SHRA FEW031 BKN041 06/05 Q0999;EQDQ01+000003PRSWM1Q02    003PRSWM1
0162072553999992000041222004+47030+005430FM-15+0196LFGJ V0202001N003112200019N0112651N1+00501+00401999999ADDGA1021+003909999GA2021+012909999GF104991999999999999999999MA1099901999999MW1001REMMET052LFGJ 122200Z 20006KT 9999 FEW013 SCT043 05/04 Q0999;EQDQ01+000000PRSWM2
0162072553999992000041223004+47030+005430FM-15+0196LFGJ V0201801N004110750019N0112651N1+00501+00401999999ADDGA1021+013809999GA2071+075009999GF107991999999999999999999MA1100001999999MW1001REMMET052LFGJ 122300Z 18008KT 9999 SCT046 BKN250 05/04 Q1000;EQDQ01+000000PRSWM2
0184072553999992000041300004+47030+005430FM-15+0196LFGJ V0202101N003112200019N0112651N1+00501+00501999999ADDGA1021+004809999GA2021+011709999GF104991999999999999999999MA1100001999999MW1801REMMET058LFGJ 130000Z 21006KT 9999 -SHRA FEW016 SCT039 05/05 Q1000;EQDQ01+000003PRSWM1Q02    003PRSWM1
0091072553999992000041318004+47030+005430FM-15+0196LFGJ V0202301N00361220001CN0099001N1+01201+00701999999ADDMA1100001999999MW1001REMMET039LFGJ 131800Z 23007KT CAVOK 12/07 Q1000;EQDQ01+000000PRSWM2
0091072553999992000041319004+47030+005430FM-15+0196LFGJ V0202501N00621220001CN0099001N1+01201+00501999999ADDMA1100101999999MW1001REMMET039LFGJ 131900Z 25012KT CAVOK 12/05 Q1001;EQDQ01+000000PRSWM2
0182072553999992000041320004+47030+005430FM-15+0196LFGJ V0202401N003110330019N0112651N1+00901+00601999999ADDGA1021+013209999GA2071+033009999GF107991999999999999999999MA1100201999999MW1611REMMET056LFGJ 132000Z 24006KT 9999 -RA SCT044 BKN110 09/06 Q1002;EQDQ01+000003PRSWM1Q02    003PRSWM1
0091072553999992000041321004+47030+005430FM-15+0196LFGJ V0202601N00211220001CN0099001N1+01001+00601999999ADDMA1100311999999MW1001REMMET039LFGJ 132100Z 26004KT CAVOK 10/06 Q1003;EQDQ01+000000PRSWM2
0091072553999992000041322004+47030+005430FM-15+0196LFGJ V0202101N00211220001CN0099001N1+00901+00601999999ADDMA1100311999999MW1001REMMET039LFGJ 132200Z 21004KT CAVOK 09/06 Q1003;EQDQ01+000000PRSWM2
0091072553999992000041323004+47030+005430FM-15+0196LFGJ V0201801N00101220001CN0099001N1+00801+00601999999ADDMA1100411999999MW1001REMMET039LFGJ 132300Z 18002KT CAVOK 08/06 Q1004;EQDQ01+000000PRSWM2
0162072553999992000041400004+47030+005430FM-15+0196LFGJ V0201501N002110180019N0112651N1+00801+00601999999ADDGA1021+014409999GA2071+018009999GF107991999999999999999999MA1100311999999MW1001REMMET052LFGJ 140000Z 15004KT 9999 FEW048 BKN060 08/06 Q1003;EQDQ01+000000PRSWM2
0091072553999992000041418004+47030+005430FM-15+0196LFGJ V0202001N00721220001CN0099001N1+01601+00601999999ADDMA1099591999999MW1001REMMET039LFGJ 141800Z 20014KT CAVOK 16/06 Q0996;EQDQ01+000000PRSWM2
0091072553999992000041419004+47030+005430FM-15+0196LFGJ V0201901N00621220001CN0099001N1+01501+00701999999ADDMA1099701999999MW1001REMMET039LFGJ 141900Z 19012KT CAVOK 15/07 Q0997;EQDQ01+000000PRSWM2
0091072553999992000041420004+47030+005430FM-15+0196LFGJ V0201901N00511220001CN0099001N1+01401+00701999999ADDMA1099701999999MW1001REMMET039LFGJ 142000Z 19010KT CAVOK 14/07 Q0997;EQDQ01+000000PRSWM2
0091072553999992000041421004+47030+005430FM-15+0196LFGJ V0201701N00311220001CN0099001N1+01101+00701999999ADDMA1099701999999MW1001REMMET039LFGJ 142100Z 17006KT CAVOK 11/07 Q0997;EQDQ01+000000PRSWM2
0091072553999992000041422004+47030+005430FM-15+0196LFGJ V0201901N00411220001CN0099001N1+01301+00801999999ADDMA1099701999999MW1001REMMET039LFGJ 142200Z 19008KT CAVOK 13/08 Q0997;EQDQ01+000000PRSWM2
0091072553999992000041423004+47030+005430FM-15+0196LFGJ V0202101N00511220001CN0099001N1+01301+00701999999ADDMA1099801999999MW1001REMMET039LFGJ 142300Z 21010KT CAVOK 13/07 Q0998;EQDQ01+000000PRSWM2
0182072553999992000041500004+47030+005430FM-15+0196LFGJ V0202101N005110330019N0090001N1+01201+00901999999ADDGA1021+018009999GA2071+033009999GF107991999999999999999999MA1099801999999MW1611REMMET056LFGJ 150000Z 21010KT 9000 -RA SCT060 BKN110 12/09 Q0998;EQDQ01+000003PRSWM1Q02    003PRSWM1
0091072553999992000041718004+47030+005430FM-15+0196LFGJ V0201801N00311220001CN0099001N1+01001+00701999999ADDMA1100911999999MW1001REMMET039LFGJ 171800Z 18006KT CAVOK 10/07 Q1009;EQDQ01+000000PRSWM2
0091072553999992000041719004+47030+005430FM-15+0196LFGJ V0202001N00311220001CN0099001N1+00901+00601999999ADDMA1101021999999MW1001REMMET039LFGJ 171900Z 20006KT CAVOK 09/06 Q1010;EQDQ01+000000PRSWM2
0091072553999992000041720004+47030+005430FM-15+0196LFGJ V0202001N00461220001CN0099001N1+01001+00601999999ADDMA1101021999999MW1001REMMET039LFGJ 172000Z 20009KT CAVOK 10/06 Q1010;EQDQ01+000000PRSWM2
0162072553999992000041721004+47030+005430FM-15+0196LFGJ V0202301N002110750019N0112651N1+00901+00601999999ADDGA1021+014409999GA2071+075009999GF107991999999999999999999MA1101081999999MW1001REMMET052LFGJ 172100Z 23004KT 9999 SCT048 BKN250 09/06 Q1011;EQDQ01+000000PRSWM2
0139072553999992000041722004+47030+005430FM-15+0196LFGJ V0201701N003110132019N0112651N1+00901+00701999999ADDGA1071+013209999GF107991999999999999999999MA1101081999999MW1001REMMET045LFGJ 172200Z 17006KT 9999 BKN044 09/07 Q1011;EQDQ01+000000PRSWM2
0162072553999992000041723004+47030+005430FM-15+0196LFGJ V0201701N003110750019N0112651N1+00901+00701999999ADDGA1021+012009999GA2081+075009999GF108991999999999999999999MA1101081999999MW1001REMMET052LFGJ 172300Z 17006KT 9999 FEW040 OVC250 09/07 Q1011;EQDQ01+000000PRSWM2
0091072553999992000041800004+47030+005430FM-15+0196LFGJ V0201801N00211220001CN0099001N1+00801+00701999999ADDMA1101191999999MW1001REMMET039LFGJ 180000Z 18004KT CAVOK 08/07 Q1012;EQDQ01+000000PRSWM2
0091072553999992000041818004+47030+005430FM-15+0196LFGJ V0200201N00311220001CN0099001N1+01401+00701999999ADDMA1100611999999MW1001REMMET039LFGJ 181800Z 02006KT CAVOK 14/07 Q1006;EQDQ01+000000PRSWM2
0091072553999992000041819004+47030+005430FM-15+0196LFGJ V0200301N00311220001CN0099001N1+01101+00801999999ADDMA1100611999999MW1001REMMET039LFGJ 181900Z 03006KT CAVOK 11/08 Q1006;EQDQ01+000000PRSWM2
0091072553999992000041820004+47030+005430FM-15+0196LFGJ V0200301N00311220001CN0099001N1+01001+00701999999ADDMA1100611999999MW1001REMMET039LFGJ 182000Z 03006KT CAVOK 10/07 Q1006;EQDQ01+000000PRSWM2
0091072553999992000041821004+47030+005430FM-15+0196LFGJ V0200801N00311220001CN0099001N1+00801+00601999999ADDMA1100611999999MW1001REMMET039LFGJ 182100Z 08006KT CAVOK 08/06 Q1006;EQDQ01+000000PRSWM2
0091072553999992000041822004+47030+005430FM-15+0196LFGJ V0201001N00101220001CN0099001N1+00701+00601999999ADDMA1100711999999MW1001REMMET039LFGJ 182200Z 10002KT CAVOK 07/06 Q1007;EQDQ01+000000PRSWM2
0091072553999992000041823004+47030+005430FM-15+0196LFGJ V0201001N00211220001CN0099001N1+00701+00601999999ADDMA1100711999999MW1001REMMET039LFGJ 182300Z 10004KT CAVOK 07/06 Q1007;EQDQ01+000000PRSWM2
0091072553999992000041900004+47030+005430FM-15+0196LFGJ V0201301N00101220001CN0099001N1+00601+00501999999ADDMA1100811999999MW1001REMMET039LFGJ 190000Z 13002KT CAVOK 06/05 Q1008;EQDQ01+000000PRSWM2
0091072553999992000041918004+47030+005430FM-15+0196LFGJ V0202401N00101220001CN0099001N1+01301+00601999999ADDMA1101491999999MW1001REMMET039LFGJ 191800Z 24002KT CAVOK 13/06 Q1015;EQDQ01+000000PRSWM2
0091072553999992000041919004+47030+005430FM-15+0196LFGJ V0200501N00101220001CN0099001N1+00901+00601999999ADDMA1101491999999MW1001REMMET039LFGJ 191900Z 05002KT CAVOK 09/06 Q1015;EQDQ01+000000PRSWM2
0091072553999992000041920004+47030+005430FM-15+0196LFGJ V0200101N00101220001CN0099001N1+00701+00601999999ADDMA1101491999999MW1001REMMET039LFGJ 192000Z 01002KT CAVOK 07/06 Q1015;EQDQ01+000000PRSWM2
0091072553999992000041921004+47030+005430FM-15+0196LFGJ V0200501N00211220001CN0099001N1+00501+00501999999ADDMA1101491999999MW1001REMMET039LFGJ 192100Z 05004KT CAVOK 05/05 Q1015;EQDQ01+000000PRSWM2
0091072553999992000041922004+47030+005430FM-15+0196LFGJ V0200801N00101220001CN0099001N1+00401+00401999999ADDMA1101491999999MW1001REMMET039LFGJ 192200Z 08002KT CAVOK 04/04 Q1015;EQDQ01+000000PRSWM2
0091072553999992000041923004+47030+005430FM-15+0196LFGJ V0200801N00211220001CN0099001N1+00401+00301999999ADDMA1101491999999MW1001REMMET039LFGJ 192300Z 08004KT CAVOK 04/03 Q1015;EQDQ01+000000PRSWM2
0091072553999992000042000004+47030+005430FM-15+0196LFGJ V0200701N00211220001CN0099001N1+00301+00301999999ADDMA1101491999999MW1001REMMET039LFGJ 200000Z 07004KT CAVOK 03/03 Q1015;EQDQ01+000000PRSWM2
0091072553999992000042018004+47030+005430FM-15+0196LFGJ V0202101N00101220001CN0099001N1+01801+00801999999ADDMA1101191999999MW1001REMMET039LFGJ 201800Z 21002KT CAVOK 18/08 Q1012;EQDQ01+000000PRSWM2
0091072553999992000042019004+47030+005430FM-15+0196LFGJ V0202201N00101220001CN0099001N1+01501+00901999999ADDMA1101291999999MW1001REMMET039LFGJ 201900Z 22002KT CAVOK 15/09 Q1013;EQDQ01+000000PRSWM2
0091072553999992000042020004+47030+005430FM-15+0196LFGJ V0209999C00001220001CN0099001N1+01201+00901999999ADDMA1101291999999MW1001REMMET039LFGJ 202000Z 00000KT CAVOK 12/09 Q1013;EQDQ01+000000PRSWM2
0091072553999992000042021004+47030+005430FM-15+0196LFGJ V0200901N00101220001CN0099001N1+01001+00901999999ADDMA1101291999999MW1001REMMET039LFGJ 202100Z 09002KT CAVOK 10/09 Q1013;EQDQ01+000000PRSWM2
0091072553999992000042023004+47030+005430FM-15+0196LFGJ V0201001N00311220001CN0099001N1+00901+00801999999ADDMA1101291999999MW1001REMMET039LFGJ 202300Z 10006KT CAVOK 09/08 Q1013;EQDQ01+000000PRSWM2
0091072553999992000042118004+47030+005430FM-15+0196LFGJ V0200401N00311220001CN0099001N1+01801+01301999999ADDMA1101491999999MW1001REMMET039LFGJ 211800Z 04006KT CAVOK 18/13 Q1015;EQDQ01+000000PRSWM2
0091072553999992000042119004+47030+005430FM-15+0196LFGJ V0200501N00411220001CN0099001N1+01701+01201999999ADDMA1101491999999MW1001REMMET039LFGJ 211900Z 05008KT CAVOK 17/12 Q1015;EQDQ01+000000PRSWM2
0091072553999992000042120004+47030+005430FM-15+0196LFGJ V0200401N00311220001CN0099001N1+01401+01201999999ADDMA1101491999999MW1001REMMET039LFGJ 212000Z 04006KT CAVOK 14/12 Q1015;EQDQ01+000000PRSWM2
0091072553999992000042121004+47030+005430FM-15+0196LFGJ V0200301N00311220001CN0099001N1+01301+01101999999ADDMA1101391999999MW1001REMMET039LFGJ 212100Z 03006KT CAVOK 13/11 Q1014;EQDQ01+000000PRSWM2
0056072553999992000042122004+47030+005430FM-16+0196LFGJ V02099999999992200019N0064371N1+99999+99999999999ADDMW1001REMMET019LFGJ 212200Z CAVOK;EQDQ01+000000PRSWM2
0091072553999992000042123004+47030+005430FM-15+0196LFGJ V0200501N00101220001CN0099001N1+01401+01201999999ADDMA1101391999999MW1001REMMET039LFGJ 212300Z 05002KT CAVOK 14/12 Q1014;EQDQ01+000000PRSWM2
0091072553999992000042200004+47030+005430FM-15+0196LFGJ V0200301N00101220001CN0099001N1+01401+01201999999ADDMA1101391999999MW1001REMMET039LFGJ 220000Z 03002KT CAVOK 14/12 Q1014;EQDQ01+000000PRSWM2
0091072553999992000042518004+47030+005430FM-15+0196LFGJ V0209999C00001220001CN0099001N1+02101+00801999999ADDMA1100911999999MW1001REMMET039LFGJ 251800Z 00000KT CAVOK 21/08 Q1009;EQDQ01+000000PRSWM2
0091072553999992000042519004+47030+005430FM-15+0196LFGJ V0200501N00101220001CN0099001N1+01501+01001999999ADDMA1100911999999MW1001REMMET039LFGJ 251900Z 05002KT CAVOK 15/10 Q1009;EQDQ01+000000PRSWM2
0091072553999992000042520004+47030+005430FM-15+0196LFGJ V0200401N00101220001CN0099001N1+01201+00901999999ADDMA1101021999999MW1001REMMET039LFGJ 252000Z 04002KT CAVOK 12/09 Q1010;EQDQ01+000000PRSWM2
0091072553999992000042521004+47030+005430FM-15+0196LFGJ V0200701N00211220001CN0099001N1+01001+00901999999ADDMA1100911999999MW1001REMMET039LFGJ 252100Z 07004KT CAVOK 10/09 Q1009;EQDQ01+000000PRSWM2
0091072553999992000042522004+47030+005430FM-15+0196LFGJ V0201201N00261220001CN0099001N1+01001+00801999999ADDMA1101021999999MW1001REMMET039LFGJ 252200Z 12005KT CAVOK 10/08 Q1010;EQDQ01+000000PRSWM2
0091072553999992000042523004+47030+005430FM-15+0196LFGJ V0201901N00411220001CN0099001N1+01201+00901999999ADDMA1100911999999MW1001REMMET039LFGJ 252300Z 19008KT CAVOK 12/09 Q1009;EQDQ01+000000PRSWM2
0091072553999992000042618004+47030+005430FM-15+0196LFGJ V0201801N00571220001CN0099001N1+02101+00801999999ADDMA1100911999999MW1001REMMET039LFGJ 261800Z 18011KT CAVOK 21/08 Q1009;EQDQ01+000000PRSWM2
0091072553999992000042619004+47030+005430FM-15+0196LFGJ V0202001N00411220001CN0099001N1+01901+00801999999ADDMA1101021999999MW1001REMMET039LFGJ 261900Z 20008KT CAVOK 19/08 Q1010;EQDQ01+000000PRSWM2
0099072553999992000042620004+47030+005430FM-15+0196LFGJ V0203001N00261220001CN0099001N1+01601+00901999999ADDMA1101081999999MW1001REMMET047LFGJ 262000Z 30005KT 250V350 CAVOK 16/09 Q1011;EQDQ01+000000PRSWM2
0091072553999992000042621004+47030+005430FM-15+0196LFGJ V0203501N00411220001CN0099001N1+01401+00801999999ADDMA1101081999999MW1001REMMET039LFGJ 262100Z 35008KT CAVOK 14/08 Q1011;EQDQ01+000000PRSWM2
0091072553999992000042622004+47030+005430FM-15+0196LFGJ V0203601N00461220001CN0099001N1+01401+00801999999ADDMA1101191999999MW1001REMMET039LFGJ 262200Z 36009KT CAVOK 14/08 Q1012;EQDQ01+000000PRSWM2
0091072553999992000042623004+47030+005430FM-15+0196LFGJ V0200101N00211220001CN0099001N1+01201+00701999999ADDMA1101191999999MW1001REMMET039LFGJ 262300Z 01004KT CAVOK 12/07 Q1012;EQDQ01+000000PRSWM2
0091072553999992000042700004+47030+005430FM-15+0196LFGJ V0209999C00001220001CN0099001N1+01101+00801999999ADDMA1101191999999MW1001REMMET039LFGJ 270000Z 00000KT CAVOK 11/08 Q1012;EQDQ01+000000PRSWM2
0091072553999992000042718004+47030+005430FM-15+0196LFGJ V0202101N00311220001CN0099001N1+01701+01301999999ADDMA1100311999999MW1001REMMET039LFGJ 271800Z 21006KT CAVOK 17/13 Q1003;EQDQ01+000000PRSWM2
0091072553999992000042719004+47030+005430FM-15+0196LFGJ V0201801N00261220001CN0099001N1+01501+01301999999ADDMA1100411999999MW1001REMMET039LFGJ 271900Z 18005KT CAVOK 15/13 Q1004;EQDQ01+000000PRSWM2
0091072553999992000042720004+47030+005430FM-15+0196LFGJ V0202801N00101220001CN0099001N1+01601+01301999999ADDMA1100511999999MW1001REMMET039LFGJ 272000Z 28002KT CAVOK 16/13 Q1005;EQDQ01+000000PRSWM2
0091072553999992000042721004+47030+005430FM-15+0196LFGJ V0200101N00101220001CN0099001N1+01501+01301999999ADDMA1100511999999MW1001REMMET039LFGJ 272100Z 01002KT CAVOK 15/13 Q1005;EQDQ01+000000PRSWM2
0091072553999992000042722004+47030+005430FM-15+0196LFGJ V0202301N00211220001CN0099001N1+01401+01301999999ADDMA1100611999999MW1001REMMET039LFGJ 272200Z 23004KT CAVOK 14/13 Q1006;EQDQ01+000000PRSWM2
0091072553999992000042723004+47030+005430FM-15+0196LFGJ V0202001N00101220001CN0099001N1+01401+01301999999ADDMA1100511999999MW1001REMMET039LFGJ 272300Z 20002KT CAVOK 14/13 Q1005;EQDQ01+000000PRSWM2
0139072553999992000042800004+47030+005430FM-15+0196LFGJ V0202001N002110138019N0112651N1+01301+01301999999ADDGA1071+013809999GF107991999999999999999999MA1100611999999MW1001REMMET045LFGJ 280000Z 20004KT 9999 BKN046 13/13 Q1006;EQDQ01+000000PRSWM2
0139072553999992000042818004+47030+005430FM-15+0196LFGJ V0202101N003110054019N0112651N1+01101+01001999999ADDGA1071+005409999GF107991999999999999999999MA1101191999999MW1001REMMET045LFGJ 281800Z 21006KT 9999 BKN018 11/10 Q1012;EQDQ01+000000PRSWM2
0162072553999992000042819004+47030+005430FM-15+0196LFGJ V0202401N003110180019N0112651N1+01101+00901999999ADDGA1021+003909999GA2071+018009999GF107991999999999999999999MA1101291999999MW1001REMMET052LFGJ 281900Z 24006KT 9999 FEW013 BKN060 11/09 Q1013;EQDQ01+000000PRSWM2
0091072553999992000042820004+47030+005430FM-15+0196LFGJ V0202301N00211220001CN0099001N1+00901+00901999999ADDMA1101291999999MW1001REMMET039LFGJ 282000Z 23004KT CAVOK 09/09 Q1013;EQDQ01+000000PRSWM2
0091072553999992000042821004+47030+005430FM-15+0196LFGJ V0202101N00211220001CN0099001N1+00901+00901999999ADDMA1101291999999MW1001REMMET039LFGJ 282100Z 21004KT CAVOK 09/09 Q1013;EQDQ01+000000PRSWM2
0091072553999992000042822004+47030+005430FM-15+0196LFGJ V0202101N00311220001CN0099001N1+00801+00801999999ADDMA1101291999999MW1001REMMET039LFGJ 282200Z 21006KT CAVOK 08/08 Q1013;EQDQ01+000000PRSWM2
0091072553999992000042900004+47030+005430FM-15+0196LFGJ V0202001N00101220001CN0099001N1+00901+00801999999ADDMA1101391999999MW1001REMMET039LFGJ 290000Z 20002KT CAVOK 09/08 Q1014;EQDQ01+000000PRSWM2
0091072553999992000050218004+47030+005430FM-15+0196LFGJ V0203601N00361220001CN0099001N1+02001+01501999999ADDMA1101391999999MW1001REMMET039LFGJ 021800Z 36007KT CAVOK 20/15 Q1014;EQDQ01+000000PRSWM2
0165072553999992000050219004+47030+005430FM-15+0196LFGJ V0209999C000012200019N0112651N1+01801+01401999999ADDGA1021+009909029GA2021+069009999GF104991999999999999999999MA1101491999999MW1001REMMET055LFGJ 021900Z 00000KT 9999 FEW033TCU SCT230 18/14 Q1015;EQDQ01+000000PRSWM2
0091072553999992000050220004+47030+005430FM-15+0196LFGJ V0200101N00101220001CN0099001N1+01601+01301999999ADDMA1101491999999MW1001REMMET039LFGJ 022000Z 01002KT CAVOK 16/13 Q1015;EQDQ01+000000PRSWM2
0091072553999992000050221004+47030+005430FM-15+0196LFGJ V0200101N00211220001CN0099001N1+01601+01401999999ADDMA1101591999999MW1001REMMET039LFGJ 022100Z 01004KT CAVOK 16/14 Q1016;EQDQ01+000000PRSWM2
0091072553999992000050222004+47030+005430FM-15+0196LFGJ V0209999C00001220001CN0099001N1+01301+01301999999ADDMA1101591999999MW1001REMMET039LFGJ 022200Z 00000KT CAVOK 13/13 Q1016;EQDQ01+000000PRSWM2
0091072553999992000050223004+47030+005430FM-15+0196LFGJ V0203501N00211220001CN0099001N1+01401+01301999999ADDMA1101591999999MW1001REMMET039LFGJ 022300Z 35004KT CAVOK 14/13 Q1016;EQDQ01+000000PRSWM2
0091072553999992000050300004+47030+005430FM-15+0196LFGJ V0203401N00101220001CN0099001N1+01301+01301999999ADDMA1101591999999MW1001REMMET039LFGJ 030000Z 34002KT CAVOK 13/13 Q1016;EQDQ01+000000PRSWM2
0091072553999992000050318004+47030+005430FM-15+0196LFGJ V0200501N00261220001CN0099001N1+01601+01401999999ADDMA1101591999999MW1001REMMET039LFGJ 031800Z 05005KT CAVOK 16/14 Q1016;EQDQ01+000000PRSWM2
0091072553999992000050320004+47030+005430FM-15+0196LFGJ V0200401N00151220001CN0099001N1+01501+01401999999ADDMA1101591999999MW1001REMMET039LFGJ 032000Z 04003KT CAVOK 15/14 Q1016;EQDQ01+000000PRSWM2
0091072553999992000050321004+47030+005430FM-15+0196LFGJ V0200601N00261220001CN0099001N1+01401+01301999999ADDMA1101691999999MW1001REMMET039LFGJ 032100Z 06005KT CAVOK 14/13 Q1017;EQDQ01+000000PRSWM2
0091072553999992000050322004+47030+005430FM-15+0196LFGJ V0209999C00001220001CN0099001N1+01401+01301999999ADDMA1101691999999MW1001REMMET039LFGJ 032200Z 00000KT CAVOK 14/13 Q1017;EQDQ01+000000PRSWM2
0160072553999992000050323004+47030+005430FM-15+0196LFGJ V0202801N001512200019N0112651N1+01401+01401999999ADDGA1021+007809099GF104991999999999999999999MA1101691999999MW1171REMMET050LFGJ 032300Z 28003KT 9999 TS SCT026CB 14/14 Q1017;EQDQ01+000003PRSWM1Q02    003PRSWM1
0183072553999992000050400004+47030+005430FM-15+0196LFGJ V0201301N002610180019N0112651N1+01201+01201999999ADDGA1021+007809099GA2071+018009999GF107991999999999999999999MA1101691999999MW1171REMMET057LFGJ 040000Z 13005KT 9999 TS SCT026CB BKN060 12/12 Q1017;EQDQ01+000003PRSWM1Q02    003PRSWM1
0091072553999992000050418004+47030+005430FM-15+0196LFGJ V0200301N00151220001CN0099001N1+02301+01401999999ADDMA1101291999999MW1001REMMET039LFGJ 041800Z 03003KT CAVOK 23/14 Q1013;EQDQ01+000000PRSWM2
0091072553999992000050419004+47030+005430FM-15+0196LFGJ V0200801N00211220001CN0099001N1+01801+01501999999ADDMA1101291999999MW1001REMMET039LFGJ 041900Z 08004KT CAVOK 18/15 Q1013;EQDQ01+000000PRSWM2
0091072553999992000050420004+47030+005430FM-15+0196LFGJ V0200501N00261220001CN0099001N1+01501+01401999999ADDMA1101291999999MW1001REMMET039LFGJ 042000Z 05005KT CAVOK 15/14 Q1013;EQDQ01+000000PRSWM2
0091072553999992000050421004+47030+005430FM-15+0196LFGJ V0200801N00261220001CN0099001N1+01501+01301999999ADDMA1101391999999MW1001REMMET039LFGJ 042100Z 08005KT CAVOK 15/13 Q1014;EQDQ01+000000PRSWM2
0091072553999992000050422004+47030+005430FM-15+0196LFGJ V0200801N00211220001CN0099001N1+01401+01201999999ADDMA1101391999999MW1001REMMET039LFGJ 042200Z 08004KT CAVOK 14/12 Q1014;EQDQ01+000000PRSWM2
0091072553999992000050423004+47030+005430FM-15+0196LFGJ V0200501N00311220001CN0099001N1+01301+01201999999ADDMA1101391999999MW1001REMMET039LFGJ 042300Z 05006KT CAVOK 13/12 Q1014;EQDQ01+000000PRSWM2
0091072553999992000050500004+47030+005430FM-15+0196LFGJ V0200701N00211220001CN0099001N1+01301+01101999999ADDMA1101391999999MW1001REMMET039LFGJ 050000Z 07004KT CAVOK 13/11 Q1014;EQDQ01+000000PRSWM2
0091072553999992000050518004+47030+005430FM-15+0196LFGJ V0201001N00101220001CN0099001N1+02101+01501999999ADDMA1101081999999MW1001REMMET039LFGJ 051800Z 10002KT CAVOK 21/15 Q1011;EQDQ01+000000PRSWM2
0091072553999992000050519004+47030+005430FM-15+0196LFGJ V0201401N00311220001CN0099001N1+01901+01101999999ADDMA1101081999999MW1001REMMET039LFGJ 051900Z 14006KT CAVOK 19/11 Q1011;EQDQ01+000000PRSWM2
0091072553999992000050520004+47030+005430FM-15+0196LFGJ V0200901N00311220001CN0099001N1+01601+01201999999ADDMA1101081999999MW1001REMMET039LFGJ 052000Z 09006KT CAVOK 16/12 Q1011;EQDQ01+000000PRSWM2
0091072553999992000050521004+47030+005430FM-15+0196LFGJ V0200801N00101220001CN0099001N1+01501+01101999999ADDMA1101081999999MW1001REMMET039LFGJ 052100Z 08002KT CAVOK 15/11 Q1011;EQDQ01+000000PRSWM2
0091072553999992000050522004+47030+005430FM-15+0196LFGJ V0203001N00211220001CN0099001N1+01601+01001999999ADDMA1101191999999MW1001REMMET039LFGJ 052200Z 30004KT CAVOK 16/10 Q1012;EQDQ01+000000PRSWM2
0091072553999992000050523004+47030+005430FM-15+0196LFGJ V0201701N00211220001CN0099001N1+01501+01101999999ADDMA1101191999999MW1001REMMET039LFGJ 052300Z 17004KT CAVOK 15/11 Q1012;EQDQ01+000000PRSWM2
0091072553999992000050600004+47030+005430FM-15+0196LFGJ V0201501N00051220001CN0099001N1+01501+01201999999ADDMA1101191999999MW1001REMMET039LFGJ 060000Z 15001KT CAVOK 15/12 Q1012;EQDQ01+000000PRSWM2
0091072553999992000050918004+47030+005430FM-15+0196LFGJ V0203601N00211220001CN0099001N1+02201+01501999999ADDMA1101291999999MW1001REMMET039LFGJ 091800Z 36004KT CAVOK 22/15 Q1013;EQDQ01+000000PRSWM2
0203072553999992000050919004+47030+005430FM-15+0196LFGJ V0202101N011810180019N0112651N1+01701+01201999999ADDGA1021+009009099GA2071+018009999GF107991999999999999999999MA1101692999999MW1801MW2951OC101801REMMET063LFGJ 091900Z 21023G35KT 9999 -TSRA SCT030CB BKN060 17/12 Q1017;EQDQ01+000003PRSWM1Q02    003PRSWM1
0182072553999992000050920004+47030+005430FM-15+0196LFGJ V0202401N004110180019N0112651N1+01601+01401999999ADDGA1021+009009999GA2081+018009999GF108991999999999999999999MA1101691999999MW1611REMMET056LFGJ 092000Z 24008KT 9999 -RA FEW030 OVC060 16/14 Q1017;EQDQ01+000003PRSWM1Q02    003PRSWM1
0162072553999992000050921004+47030+005430FM-15+0196LFGJ V0203501N001010300019N0112651N1+01501+01401999999ADDGA1021+013809999GA2081+030009999GF108991999999999999999999MA1101591999999MW1001REMMET052LFGJ 092100Z 35002KT 9999 FEW046 OVC100 15/14 Q1016;EQDQ01+000000PRSWM2
0091072553999992000050922004+47030+005430FM-15+0196LFGJ V0202101N00621220001CN0099001N1+01501+01401999999ADDMA1101691999999MW1001REMMET039LFGJ 092200Z 21012KT CAVOK 15/14 Q1017;EQDQ01+000000PRSWM2
0091072553999992000050923004+47030+005430FM-15+0196LFGJ V0201801N00151220001CN0099001N1+01501+01501999999ADDMA1101591999999MW1001REMMET039LFGJ 092300Z 18003KT CAVOK 15/15 Q1016;EQDQ01+000000PRSWM2
0162072553999992000051000004+47030+005430FM-15+0196LFGJ V0201001N001012200019N0112651N1+01401+01401999999ADDGA1021+003009999GA2021+018009999GF104991999999999999999999MA1101591999999MW1001REMMET052LFGJ 100000Z 10002KT 9999 FEW010 SCT060 14/14 Q1016;EQDQ01+000000PRSWM2
0182072553999992000051018004+47030+005430FM-15+0196LFGJ V0201901N006210240019N0112651N1+01601+01501999999ADDGA1021+010809999GA2071+024009999GF107991999999999999999999MA1101491999999MW1611REMMET056LFGJ 101800Z 19012KT 9999 -RA FEW036 BKN083 16/15 Q1015;EQDQ01+000003PRSWM1Q02    003PRSWM1
0162072553999992000051019004+47030+005430FM-15+0196LFGJ V0201201N002110180019N0112651N1+01601+01501999999ADDGA1021+009009999GA2071+018009999GF107991999999999999999999MA1101491999999MW1001REMMET052LFGJ 101900Z 12004KT 9999 FEW030 BKN060 16/15 Q1015;EQDQ01+000000PRSWM2
0091072553999992000051020004+47030+005430FM-15+0196LFGJ V0201801N00101220001CN0099001N1+01501+01501999999ADDMA1101491999999MW1001REMMET039LFGJ 102000Z 18002KT CAVOK 15/15 Q1015;EQDQ01+000000PRSWM2
0091072553999992000051021004+47030+005430FM-15+0196LFGJ V0201201N00211220001CN0099001N1+01501+01401999999ADDMA1101391999999MW1001REMMET039LFGJ 102100Z 12004KT CAVOK 15/14 Q1014;EQDQ01+000000PRSWM2
0139072553999992000051022004+47030+005430FM-15+0196LFGJ V0200501N002110300019N0080001N1+01401+01401999999ADDGA1071+030009999GF107991999999999999999999MA1101291999999MW1001REMMET045LFGJ 102200Z 05004KT 8000 BKN100 14/14 Q1013;EQDQ01+000000PRSWM2
0091072553999992000051023004+47030+005430FM-15+0196LFGJ V0200801N00101220001CN0099001N1+01401+01401999999ADDMA1101291999999MW1001REMMET039LFGJ 102300Z 08002KT CAVOK 14/14 Q1013;EQDQ01+000000PRSWM2
0091072553999992000051100004+47030+005430FM-15+0196LFGJ V0200201N00101220001CN0099001N1+01401+01401999999ADDMA1101391999999MW1001REMMET039LFGJ 110000Z 02002KT CAVOK 14/14 Q1014;EQDQ01+000000PRSWM2
0185072553999992000051118004+47030+005430FM-15+0196LFGJ V0202401N002110240019N0112651N1+02201+01601999999ADDGA1021+009009099GA2071+024009999GF107991999999999999999999MA1101491999999MW1171REMMET059LFGJ 111800Z 24004KT 9999 VCTS FEW030CB BKN083 22/16 Q1015;EQDQ01+000003PRSWM1Q02    003PRSWM1
0203072553999992000051119004+47030+005430FM-15+0196LFGJ V0201901N005710180019N0112651N1+02001+01701999999ADDGA1021+009009099GA2071+018009999GF107991999999999999999999MA1101591999999MW1801MW2951OC101081REMMET063LFGJ 111900Z 19011G21KT 9999 -TSRA SCT030CB BKN060 20/17 Q1016;EQDQ01+000003PRSWM1Q02    003PRSWM1
0181072553999992000051120004+47030+005430FM-15+0196LFGJ V0201801N008210180019N0112651N1+01601+01301999999ADDGA1021+010209999GA2081+018009999GF108991999999999999999999MA1101801999999MW1631REMMET055LFGJ 112000Z 18016KT 9999 RA FEW034 OVC066 16/13 Q1018;EQDQ01+000003PRSWM1Q02    003PRSWM1
0162072553999992000051121004+47030+005430FM-15+0196LFGJ V0201701N002110240019N0112651N1+01501+01301999999ADDGA1021+009909999GA2081+024009999GF108991999999999999999999MA1101801999999MW1001REMMET052LFGJ 112100Z 17004KT 9999 FEW033 OVC083 15/13 Q1018;EQDQ01+000000PRSWM2
0091072553999992000051122004+47030+005430FM-15+0196LFGJ V0201001N00411220001CN0099001N1+01401+01301999999ADDMA1101801999999MW1001REMMET039LFGJ 112200Z 10008KT CAVOK 14/13 Q1018;EQDQ01+000000PRSWM2
0091072553999992000051123004+47030+005430FM-15+0196LFGJ V0200901N00261220001CN0099001N1+01401+01301999999ADDMA1101801999999MW1001REMMET039LFGJ 112300Z 09005KT CAVOK 14/13 Q1018;EQDQ01+000000PRSWM2
0091072553999992000051200004+47030+005430FM-15+0196LFGJ V0200501N00211220001CN0099001N1+01401+01301999999ADDMA1101901999999MW1001REMMET039LFGJ 120000Z 05004KT CAVOK 14/13 Q1019;EQDQ01+000000PRSWM2
0165072553999992000051218004+47030+005430FM-15+0196LFGJ V0200301N004112200019N0112651N1+01901+01601999999ADDGA1021+010809029GA2021+024009999GF104991999999999999999999MA1101901999999MW1001REMMET055LFGJ 121800Z 03008KT 9999 SCT036TCU SCT083 19/16 Q1019;EQDQ01+000000PRSWM2
0091072553999992000051219004+47030+005430FM-15+0196LFGJ V0200601N00311220001CN0099001N1+01701+01401999999ADDMA1101901999999MW1001REMMET039LFGJ 121900Z 06006KT CAVOK 17/14 Q1019;EQDQ01+000000PRSWM2
0091072553999992000051220004+47030+005430FM-15+0196LFGJ V0200401N00311220001CN0099001N1+01501+01301999999ADDMA1101901999999MW1001REMMET039LFGJ 122000Z 04006KT CAVOK 15/13 Q1019;EQDQ01+000000PRSWM2
0091072553999992000051222004+47030+005430FM-15+0196LFGJ V0200301N00101220001CN0099001N1+01401+01201999999ADDMA1102001999999MW1001REMMET039LFGJ 122200Z 03002KT CAVOK 14/12 Q1020;EQDQ01+000000PRSWM2
0091072553999992000051223004+47030+005430FM-15+0196LFGJ V0203601N00101220001CN0099001N1+01401+01301999999ADDMA1102001999999MW1001REMMET039LFGJ 122300Z 36002KT CAVOK 14/13 Q1020;EQDQ01+000000PRSWM2
0091072553999992000051300004+47030+005430FM-15+0196LFGJ V0203501N00101220001CN0099001N1+01201+01201999999ADDMA1101901999999MW1001REMMET039LFGJ 130000Z 35002KT CAVOK 12/12 Q1019;EQDQ01+000000PRSWM2
0091072553999992000051518004+47030+005430FM-15+0196LFGJ V0202101N00211220001CN0099001N1+02501+01701999999ADDMA1101801999999MW1001REMMET039LFGJ 151800Z 21004KT CAVOK 25/17 Q1018;EQDQ01+000000PRSWM2
0091072553999992000051519004+47030+005430FM-15+0196LFGJ V0201501N00151220001CN0099001N1+02301+01701999999ADDMA1101801999999MW1001REMMET039LFGJ 151900Z 15003KT CAVOK 23/17 Q1018;EQDQ01+000000PRSWM2
0091072553999992000051520004+47030+005430FM-15+0196LFGJ V0201301N00101220001CN0099001N1+01901+01701999999ADDMA1101801999999MW1001REMMET039LFGJ 152000Z 13002KT CAVOK 19/17 Q1018;EQDQ01+000000PRSWM2
0091072553999992000051521004+47030+005430FM-15+0196LFGJ V0200901N00151220001CN0099001N1+01701+01601999999ADDMA1101801999999MW1001REMMET039LFGJ 152100Z 09003KT CAVOK 17/16 Q1018;EQDQ01+000000PRSWM2
0091072553999992000051522004+47030+005430FM-15+0196LFGJ V0200501N00211220001CN0099001N1+01701+01601999999ADDMA1101801999999MW1001REMMET039LFGJ 152200Z 05004KT CAVOK 17/16 Q1018;EQDQ01+000000PRSWM2
0091072553999992000051523004+47030+005430FM-15+0196LFGJ V0200801N00211220001CN0099001N1+01601+01501999999ADDMA1101801999999MW1001REMMET039LFGJ 152300Z 08004KT CAVOK 16/15 Q1018;EQDQ01+000000PRSWM2
0091072553999992000051600004+47030+005430FM-15+0196LFGJ V0200701N00211220001CN0099001N1+01501+01501999999ADDMA1101801999999MW1001REMMET039LFGJ 160000Z 07004KT CAVOK 15/15 Q1018;EQDQ01+000000PRSWM2
0142072553999992000051618004+47030+005430FM-15+0196LFGJ V0201801N003112200019N0112651N1+02401+01301999999ADDGA1021+014409029GF102991999999999999999999MA1101391999999MW1001REMMET048LFGJ 161800Z 18006KT 9999 FEW048TCU 24/13 Q1014;EQDQ01+000000PRSWM2
0142072553999992000051619004+47030+005430FM-15+0196LFGJ V0201701N002612200019N0112651N1+02101+01201999999ADDGA1021+014409029GF102991999999999999999999MA1101391999999MW1001REMMET048LFGJ 161900Z 17005KT 9999 FEW048TCU 21/12 Q1014;EQDQ01+000000PRSWM2
0142072553999992000051620004+47030+005430FM-15+0196LFGJ V0201801N004612200019N0112651N1+01901+01101999999ADDGA1021+014409029GF102991999999999999999999MA1101391999999MW1001REMMET048LFGJ 162000Z 18009KT 9999 FEW048TCU 19/11 Q1014;EQDQ01+000000PRSWM2
0091072553999992000051621004+47030+005430FM-15+0196LFGJ V0201701N00411220001CN0099001N1+01901+01001999999ADDMA1101391999999MW1001REMMET039LFGJ 162100Z 17008KT CAVOK 19/10 Q1014;EQDQ01+000000PRSWM2
0091072553999992000051622004+47030+005430FM-15+0196LFGJ V0201801N00411220001CN0099001N1+01901+01001999999ADDMA1101491999999MW1001REMMET039LFGJ 162200Z 18008KT CAVOK 19/10 Q1015;EQDQ01+000000PRSWM2
0091072553999992000051700004+47030+005430FM-15+0196LFGJ V0202001N00621220001CN0099001N1+01801+01101999999ADDMA1101391999999MW1001REMMET039LFGJ 170000Z 20012KT CAVOK 18/11 Q1014;EQDQ01+000000PRSWM2
0139072553999992000051718004+47030+005430FM-15+0196LFGJ V0201801N003110126019N0112651N1+01401+01401999999ADDGA1071+012609999GF107991999999999999999999MA1101691999999MW1001REMMET045LFGJ 171800Z 18006KT 9999 BKN042 14/14 Q1017;EQDQ01+000000PRSWM2
0182072553999992000051719004+47030+005430FM-15+0196LFGJ V0201801N003110111019N0060001N1+01401+01401999999ADDGA1021+007209999GA2071+011109999GF107991999999999999999999MA1101591999999MW1611REMMET056LFGJ 171900Z 18006KT 6000 -RA FEW024 BKN037 14/14 Q1016;EQDQ01+000003PRSWM1Q02    003PRSWM1
0139072553999992000051720004+47030+005430FM-15+0196LFGJ V0202001N003110138019N0080001N1+01401+01401999999ADDGA1071+013809999GF107991999999999999999999MA1101691999999MW1001REMMET045LFGJ 172000Z 20006KT 8000 BKN046 14/14 Q1017;EQDQ01+000000PRSWM2
0139072553999992000051721004+47030+005430FM-15+0196LFGJ V0202101N003110138019N0080001N1+01401+01401999999ADDGA1071+013809999GF107991999999999999999999MA1101691999999MW1001REMMET045LFGJ 172100Z 21006KT 8000 BKN046 14/14 Q1017;EQDQ01+000000PRSWM2
0162072553999992000051722004+47030+005430FM-15+0196LFGJ V0202001N003110120019N0080001N1+01401+01301999999ADDGA1021+008109999GA2071+012009999GF107991999999999999999999MA1101591999999MW1001REMMET052LFGJ 172200Z 20006KT 8000 FEW027 BKN040 14/13 Q1016;EQDQ01+000000PRSWM2
0162072553999992000051723004+47030+005430FM-15+0196LFGJ V0202001N003110117019N0080001N1+01301+01301999999ADDGA1021+004809999GA2071+011709999GF107991999999999999999999MA1101591999999MW1001REMMET052LFGJ 172300Z 20006KT 8000 FEW016 BKN039 13/13 Q1016;EQDQ01+000000PRSWM2
0162072553999992000051800004+47030+005430FM-15+0196LFGJ V0202201N002110240019N0080001N1+01301+01301999999ADDGA1021+013809999GA2071+024009999GF107991999999999999999999MA1101591999999MW1001REMMET052LFGJ 180000Z 22004KT 8000 SCT046 BKN083 13/13 Q1016;EQDQ01+000000PRSWM2
0162072553999992000051818004+47030+005430FM-15+0196LFGJ V0202101N004110180019N0112651N1+01401+00901999999ADDGA1021+010209999GA2071+018009999GF107991999999999999999999MA1101191999999MW1001REMMET052LFGJ 181800Z 21008KT 9999 FEW034 BKN060 14/09 Q1012;EQDQ01+000000PRSWM2
0162072553999992000051819004+47030+005430FM-15+0196LFGJ V0202001N004110180019N0112651N1+01401+00901999999ADDGA1021+011709999GA2071+018009999GF107991999999999999999999MA1101191999999MW1001REMMET052LFGJ 181900Z 20008KT 9999 SCT039 BKN060 14/09 Q1012;EQDQ01+000000PRSWM2
0162072553999992000051820004+47030+005430FM-15+0196LFGJ V0202401N004110180019N0112651N1+01301+01001999999ADDGA1021+012309999GA2071+018009999GF107991999999999999999999MA1101291999999MW1001REMMET052LFGJ 182000Z 24008KT 9999 SCT041 BKN060 13/10 Q1013;EQDQ01+000000PRSWM2
0184072553999992000051821004+47030+005430FM-15+0196LFGJ V0202701N006212200019N0080001N1+01101+01001999999ADDGA1021+005409999GA2021+009009999GF104991999999999999999999MA1101291999999MW1801REMMET058LFGJ 182100Z 27012KT 8000 -SHRA FEW018 SCT030 11/10 Q1013;EQDQ01+000003PRSWM1Q02    003PRSWM1
0185072553999992000051822004+47030+005430FM-15+0196LFGJ V0202301N002110180019N0112651N1+01001+01001999999ADDGA1021+010509999GA2021+011409999GA3071+018009999GF107991999999999999999999MA1101291999999MW1001REMMET059LFGJ 182200Z 23004KT 9999 FEW035 SCT038 BKN060 10/10 Q1013;EQDQ01+000000PRSWM2
0162072553999992000051823004+47030+005430FM-15+0196LFGJ V0201901N002110180019N0112651N1+00901+00901999999ADDGA1021+006309999GA2071+018009999GF107991999999999999999999MA1101391999999MW1001REMMET052LFGJ 182300Z 19004KT 9999 FEW021 BKN060 09/09 Q1014;EQDQ01+000000PRSWM2
0139072553999992000051900004+47030+005430FM-15+0196LFGJ V0202001N001012200019N0112651N1+00901+00901999999ADDGA1021+006309999GF102991999999999999999999MA1101391999999MW1001REMMET045LFGJ 190000Z 20002KT 9999 FEW021 09/09 Q1014;EQDQ01+000000PRSWM2
0091072553999992000051918004+47030+005430FM-15+0196LFGJ V0202401N00411220001CN0099001N1+01301+00701999999ADDMA1101291999999MW1001REMMET039LFGJ 191800Z 24008KT CAVOK 13/07 Q1013;EQDQ01+000000PRSWM2
0162072553999992000051919004+47030+005430FM-15+0196LFGJ V0202201N004110180019N0112651N1+01101+00801999999ADDGA1021+014709999GA2071+018009999GF107991999999999999999999MA1101291999999MW1001REMMET052LFGJ 191900Z 22008KT 9999 FEW049 BKN060 11/08 Q1013;EQDQ01+000000PRSWM2
0091072553999992000051920004+47030+005430FM-15+0196LFGJ V0202001N00261220001CN0099001N1+01001+00901999999ADDMA1101391999999MW1001REMMET039LFGJ 192000Z 20005KT CAVOK 10/09 Q1014;EQDQ01+000000PRSWM2
0091072553999992000051921004+47030+005430FM-15+0196LFGJ V0202301N00511220001CN0099001N1+01101+00801999999ADDMA1101391999999MW1001REMMET039LFGJ 192100Z 23010KT CAVOK 11/08 Q1014;EQDQ01+000000PRSWM2
0091072553999992000051922004+47030+005430FM-15+0196LFGJ V0202301N00311220001CN0099001N1+01001+00701999999ADDMA1101391999999MW1001REMMET039LFGJ 192200Z 23006KT CAVOK 10/07 Q1014;EQDQ01+000000PRSWM2
0091072553999992000051923004+47030+005430FM-15+0196LFGJ V0202101N00311220001CN0099001N1+00901+00801999999ADDMA1101491999999MW1001REMMET039LFGJ 192300Z 21006KT CAVOK 09/08 Q1015;EQDQ01+000000PRSWM2
0091072553999992000052000004+47030+005430FM-15+0196LFGJ V0201901N00211220001CN0099001N1+00801+00701999999ADDMA1101491999999MW1001REMMET039LFGJ 200000Z 19004KT CAVOK 08/07 Q1015;EQDQ01+000000PRSWM2
0162072553999992000052218004+47030+005430FM-15+0196LFGJ V0203401N004112200019N0112651N1+01501+00601999999ADDGA1021+012009999GA2021+030009999GF104991999999999999999999MA1102101999999MW1001REMMET052LFGJ 221800Z 34008KT 9999 FEW040 SCT100 15/06 Q1021;EQDQ01+000000PRSWM2
0091072553999992000052219004+47030+005430FM-15+0196LFGJ V0203601N00311220001CN0099001N1+01201+00701999999ADDMA1102101999999MW1001REMMET039LFGJ 221900Z 36006KT CAVOK 12/07 Q1021;EQDQ01+000000PRSWM2
0056072553999992000052220004+47030+005430FM-16+0196LFGJ V02099999999992200019N0128741N1+99999+99999999999ADDMW1001REMMET019LFGJ 222000Z CAVOK;EQDQ01+000000PRSWM2
0091072553999992000052221004+47030+005430FM-15+0196LFGJ V0200201N00101220001CN0099001N1+00801+00701999999ADDMA1102101999999MW1001REMMET039LFGJ 222100Z 02002KT CAVOK 08/07 Q1021;EQDQ01+000000PRSWM2
0091072553999992000052222004+47030+005430FM-15+0196LFGJ V0200901N00101220001CN0099001N1+00701+00501999999ADDMA1102101999999MW1001REMMET039LFGJ 222200Z 09002KT CAVOK 07/05 Q1021;EQDQ01+000000PRSWM2
0091072553999992000052223004+47030+005430FM-15+0196LFGJ V0200601N00101220001CN0099001N1+00601+00501999999ADDMA1102101999999MW1001REMMET039LFGJ 222300Z 06002KT CAVOK 06/05 Q1021;EQDQ01+000000PRSWM2
0091072553999992000052300004+47030+005430FM-15+0196LFGJ V0200801N00101220001CN0099001N1+00501+00501999999ADDMA1102101999999MW1001REMMET039LFGJ 230000Z 08002KT CAVOK 05/05 Q1021;EQDQ01+000000PRSWM2
0091072553999992000052318004+47030+005430FM-15+0196LFGJ V0202801N00151220001CN0099001N1+02001+00801999999ADDMA1101801999999MW1001REMMET039LFGJ 231800Z 28003KT CAVOK 20/08 Q1018;EQDQ01+000000PRSWM2
0091072553999992000052319004+47030+005430FM-15+0196LFGJ V0202701N00101220001CN0099001N1+01701+00901999999ADDMA1101801999999MW1001REMMET039LFGJ 231900Z 27002KT CAVOK 17/09 Q1018;EQDQ01+000000PRSWM2
0091072553999992000052320004+47030+005430FM-15+0196LFGJ V0201401N00101220001CN0099001N1+01301+01001999999ADDMA1101901999999MW1001REMMET039LFGJ 232000Z 14002KT CAVOK 13/10 Q1019;EQDQ01+000000PRSWM2
0091072553999992000052321004+47030+005430FM-15+0196LFGJ V0201101N00101220001CN0099001N1+01101+00901999999ADDMA1101901999999MW1001REMMET039LFGJ 232100Z 11002KT CAVOK 11/09 Q1019;EQDQ01+000000PRSWM2
0091072553999992000052323004+47030+005430FM-15+0196LFGJ V0200701N00151220001CN0099001N1+00801+00801999999ADDMA1101901999999MW1001REMMET039LFGJ 232300Z 07003KT CAVOK 08/08 Q1019;EQDQ01+000000PRSWM2
0091072553999992000052400004+47030+005430FM-15+0196LFGJ V0200801N00101220001CN0099001N1+00701+00701999999ADDMA1101901999999MW1001REMMET039LFGJ 240000Z 08002KT CAVOK 07/07 Q1019;EQDQ01+000000PRSWM2
0091072553999992000052418004+47030+005430FM-15+0196LFGJ V0202101N00211220001CN0099001N1+02301+01301999999ADDMA1101491999999MW1001REMMET039LFGJ 241800Z 21004KT CAVOK 23/13 Q1015;EQDQ01+000000PRSWM2
0091072553999992000052419004+47030+005430FM-15+0196LFGJ V0201601N00211220001CN0099001N1+01801+01301999999ADDMA1101491999999MW1001REMMET039LFGJ 241900Z 16004KT CAVOK 18/13 Q1015;EQDQ01+000000PRSWM2
0091072553999992000052420004+47030+005430FM-15+0196LFGJ V0209999C00001220001CN0099001N1+01601+01201999999ADDMA1101491999999MW1001REMMET039LFGJ 242000Z 00000KT CAVOK 16/12 Q1015;EQDQ01+000000PRSWM2
0091072553999992000052421004+47030+005430FM-15+0196LFGJ V0201101N00101220001CN0099001N1+01301+01201999999ADDMA1101491999999MW1001REMMET039LFGJ 242100Z 11002KT CAVOK 13/12 Q1015;EQDQ01+000000PRSWM2
0091072553999992000052422004+47030+005430FM-15+0196LFGJ V0200801N00211220001CN0099001N1+01201+01101999999ADDMA1101491999999MW1001REMMET039LFGJ 242200Z 08004KT CAVOK 12/11 Q1015;EQDQ01+000000PRSWM2
0091072553999992000052423004+47030+005430FM-15+0196LFGJ V0200801N00101220001CN0099001N1+01201+01101999999ADDMA1101391999999MW1001REMMET039LFGJ 242300Z 08002KT CAVOK 12/11 Q1014;EQDQ01+000000PRSWM2
0162072553999992000052518004+47030+005430FM-15+0196LFGJ V0202801N002110300019N0112651N1+02001+01301999999ADDGA1021+010509999GA2071+030009999GF107991999999999999999999MA1101801999999MW1001REMMET052LFGJ 251800Z 28004KT 9999 FEW035 BKN100 20/13 Q1018;EQDQ01+000000PRSWM2
0183072553999992000052519004+47030+005430FM-15+0196LFGJ V0201901N001010123019N0112651N1+01801+01401999999ADDGA1071+012309999GA2071+069009999GF107991999999999999999999MA1101801999999MW1161REMMET057LFGJ 251900Z 19002KT 9999 VCSH BKN041 BKN230 18/14 Q1018;EQDQ01+000003PRSWM1Q02    003PRSWM1
0091072553999992000052520004+47030+005430FM-15+0196LFGJ V0200301N00101220001CN0099001N1+01401+01301999999ADDMA1101901999999MW1001REMMET039LFGJ 252000Z 03002KT CAVOK 14/13 Q1019;EQDQ01+000000PRSWM2
0091072553999992000052521004+47030+005430FM-15+0196LFGJ V0200701N00261220001CN0099001N1+01301+01201999999ADDMA1101901999999MW1001REMMET039LFGJ 252100Z 07005KT CAVOK 13/12 Q1019;EQDQ01+000000PRSWM2
0091072553999992000052522004+47030+005430FM-15+0196LFGJ V0200301N00261220001CN0099001N1+01201+01101999999ADDMA1101901999999MW1001REMMET039LFGJ 252200Z 03005KT CAVOK 12/11 Q1019;EQDQ01+000000PRSWM2
0091072553999992000052523004+47030+005430FM-15+0196LFGJ V0200201N00261220001CN0099001N1+01101+01101999999ADDMA1101901999999MW1001REMMET039LFGJ 252300Z 02005KT CAVOK 11/11 Q1019;EQDQ01+000000PRSWM2
0091072553999992000052600004+47030+005430FM-15+0196LFGJ V0200301N00211220001CN0099001N1+01101+01101999999ADDMA1101901999999MW1001REMMET039LFGJ 260000Z 03004KT CAVOK 11/11 Q1019;EQDQ01+000000PRSWM2
0091072553999992000052618004+47030+005430FM-15+0196LFGJ V0201701N00311220001CN0099001N1+02201+01501999999ADDMA1100911999999MW1001REMMET039LFGJ 261800Z 17006KT CAVOK 22/15 Q1009;EQDQ01+000000PRSWM2
0164072553999992000052619004+47030+005430FM-15+0196LFGJ V0201701N003110300019N0112651N1+02001+01501999999ADDGA1021+009909099GA2071+030009999GF107991999999999999999999MA1100911999999MW1001REMMET054LFGJ 261900Z 17006KT 9999 SCT033CB BKN100 20/15 Q1009;EQDQ01+000000PRSWM2
0185072553999992000052620004+47030+005430FM-15+0196LFGJ V0202201N005110180019N0040001N1+01701+01601999999ADDGA1021+009609099GA2071+018009999GF107991999999999999999999MA1101081999999MW1101MW2801MW3951REMMET063LFGJ 262000Z 22010KT 4000 -TSRA BR SCT032CB BKN060 17/16 Q1011;EQDQ01+000003PRSWM1
0164072553999992000052621004+47030+005430FM-15+0196LFGJ V0201901N004110180019N0112651N1+01701+01601999999ADDGA1021+009909099GA2071+018009999GF107991999999999999999999MA1101191999999MW1001REMMET054LFGJ 262100Z 19008KT 9999 FEW033CB BKN060 17/16 Q1012;EQDQ01+000000PRSWM2
0162072553999992000052622004+47030+005430FM-15+0196LFGJ V0201701N006210180019N0112651N1+01601+01601999999ADDGA1021+004809999GA2071+018009999GF107991999999999999999999MA1101191999999MW1001REMMET052LFGJ 262200Z 17012KT 9999 FEW016 BKN066 16/16 Q1012;EQDQ01+000000PRSWM2
0205072553999992000052623004+47030+005430FM-15+0196LFGJ V0201901N006210240019N0112651N1+01601+01501999999ADDGA1021+003909999GA2021+012609999GA3081+024009999GF108991999999999999999999MA1101291999999MW1611REMMET063LFGJ 262300Z 19012KT 9999 -RA FEW013 SCT042 OVC083 16/15 Q1013;EQDQ01+000003PRSWM1Q02    003PRSWM1
0181072553999992000052700004+47030+005430FM-15+0196LFGJ V0202301N007210180019N0050001N1+01601+01501999999ADDGA1021+009609999GA2081+018009999GF108991999999999999999999MA1101291999999MW1631REMMET055LFGJ 270000Z 23014KT 5000 RA FEW032 OVC060 16/15 Q1013;EQDQ01+000003PRSWM1Q02    003PRSWM1
0091072553999992000052918004+47030+005430FM-15+0196LFGJ V0202301N00261220001CN0099001N1+01501+00801999999ADDMA1101901999999MW1001REMMET039LFGJ 291800Z 23005KT CAVOK 15/08 Q1019;EQDQ01+000000PRSWM2
0091072553999992000052919004+47030+005430FM-15+0196LFGJ V0202301N00211220001CN0099001N1+01301+00901999999ADDMA1101901999999MW1001REMMET039LFGJ 291900Z 23004KT CAVOK 13/09 Q1019;EQDQ01+000000PRSWM2
0091072553999992000052920004+47030+005430FM-15+0196LFGJ V0202301N00211220001CN0099001N1+01101+00901999999ADDMA1102001999999MW1001REMMET039LFGJ 292000Z 23004KT CAVOK 11/09 Q1020;EQDQ01+000000PRSWM2
0091072553999992000052921004+47030+005430FM-15+0196LFGJ V0201901N00101220001CN0099001N1+01001+00801999999ADDMA1102001999999MW1001REMMET039LFGJ 292100Z 19002KT CAVOK 10/08 Q1020;EQDQ01+000000PRSWM2
0091072553999992000052922004+47030+005430FM-15+0196LFGJ V0209999C00001220001CN0099001N1+00801+00701999999ADDMA1102001999999MW1001REMMET039LFGJ 292200Z 00000KT CAVOK 08/07 Q1020;EQDQ01+000000PRSWM2
0091072553999992000052923004+47030+005430FM-15+0196LFGJ V0200901N00101220001CN0099001N1+00701+00601999999ADDMA1102001999999MW1001REMMET039LFGJ 292300Z 09002KT CAVOK 07/06 Q1020;EQDQ01+000000PRSWM2
0091072553999992000053000004+47030+005430FM-15+0196LFGJ V0200601N00101220001CN0099001N1+00601+00501999999ADDMA1101901999999MW1001REMMET039LFGJ 300000Z 06002KT CAVOK 06/05 Q1019;EQDQ01+000000PRSWM2
0162072553999992000053018004+47030+005430FM-15+0196LFGJ V0202201N005710240019N0112651N1+01801+01401999999ADDGA1021+009909999GA2071+024009999GF107991999999999999999999MA1101291999999MW1001REMMET052LFGJ 301800Z 22011KT 9999 FEW033 BKN083 18/14 Q1013;EQDQ01+000000PRSWM2
0162072553999992000053019004+47030+005430FM-15+0196LFGJ V0202301N008210240019N0112651N1+01801+01201999999ADDGA1021+009909999GA2071+024009999GF107991999999999999999999MA1101291999999MW1001REMMET052LFGJ 301900Z 23016KT 9999 FEW033 BKN083 18/12 Q1013;EQDQ01+000000PRSWM2
0182072553999992000053020004+47030+005430FM-15+0196LFGJ V0202301N006210240019N0112651N1+01701+01301999999ADDGA1021+009909999GA2071+024009999GF107991999999999999999999MA1101391999999MW1611REMMET056LFGJ 302000Z 23012KT 9999 -RA SCT033 BKN083 17/13 Q1014;EQDQ01+000003PRSWM1Q02    003PRSWM1
0182072553999992000053021004+47030+005430FM-15+0196LFGJ V0202201N006210240019N0112651N1+01501+01301999999ADDGA1021+006609999GA2071+024009999GF107991999999999999999999MA1101491999999MW1611REMMET056LFGJ 302100Z 22012KT 9999 -RA FEW022 BKN083 15/13 Q1015;EQDQ01+000003PRSWM1Q02    003PRSWM1
0162072553999992000053022004+47030+005430FM-15+0196LFGJ V0202101N004110240019N0112651N1+01401+01301999999ADDGA1021+004209999GA2081+024009999GF108991999999999999999999MA1101391999999MW1001REMMET052LFGJ 302200Z 21008KT 9999 FEW014 OVC083 14/13 Q1014;EQDQ01+000000PRSWM2
0182072553999992000053023004+47030+005430FM-15+0196LFGJ V0202201N006210240019N0112651N1+01401+01201999999ADDGA1021+009609999GA2081+024009999GF108991999999999999999999MA1101391999999MW1611REMMET056LFGJ 302300Z 22012KT 9999 -RA FEW032 OVC083 14/12 Q1014;EQDQ01+000003PRSWM1Q02    003PRSWM1
0139072553999992000053100004+47030+005430FM-15+0196LFGJ V0202201N005110108019N0112651N1+01401+01201999999ADDGA1081+010809999GF108991999999999999999999MA1101391999999MW1001REMMET045LFGJ 310000Z 22010KT 9999 OVC036 14/12 Q1014;EQDQ01+000000PRSWM2
0091072553999992000060218004+47030+005430FM-15+0196LFGJ V0201901N00101220001CN0099001N1+02701+01701999999ADDMA1101801999999MW1001REMMET039LFGJ 021800Z 19002KT CAVOK 27/17 Q1018;EQDQ01+000000PRSWM2
0091072553999992000060219004+47030+005430FM-15+0196LFGJ V0201101N00151220001CN0099001N1+02401+02001999999ADDMA1101801999999MW1001REMMET039LFGJ 021900Z 11003KT CAVOK 24/20 Q1018;EQDQ01+000000PRSWM2
0164072553999992000060220004+47030+005430FM-15+0196LFGJ V0201001N002112200019N0112651N1+02001+01801999999ADDGA1021+009009099GA2021+024009999GF104991999999999999999999MA1101801999999MW1001REMMET054LFGJ 022000Z 10004KT 9999 FEW030CB SCT083 20/18 Q1018;EQDQ01+000000PRSWM2
0091072553999992000060221004+47030+005430FM-15+0196LFGJ V0200901N00211220001CN0099001N1+01801+01701999999ADDMA1101901999999MW1001REMMET039LFGJ 022100Z 09004KT CAVOK 18/17 Q1019;EQDQ01+000000PRSWM2
0091072553999992000060222004+47030+005430FM-15+0196LFGJ V0200801N00101220001CN0099001N1+01801+01801999999ADDMA1101901999999MW1001REMMET039LFGJ 022200Z 08002KT CAVOK 18/18 Q1019;EQDQ01+000000PRSWM2
0091072553999992000060300004+47030+005430FM-15+0196LFGJ V0201001N00311220001CN0099001N1+01601+01501999999ADDMA1101901999999MW1001REMMET039LFGJ 030000Z 10006KT CAVOK 16/15 Q1019;EQDQ01+000000PRSWM2
0139072553999992000060518004+47030+005430FM-15+0196LFGJ V0202901N006210117019N0112651N1+02001+01301999999ADDGA1071+011709999GF107991999999999999999999MA1101691999999MW1001REMMET045LFGJ 051800Z 29012KT 9999 BKN039 20/13 Q1017;EQDQ01+000000PRSWM2
0162072553999992000060519004+47030+005430FM-15+0196LFGJ V0202801N005710240019N0112651N1+01801+01201999999ADDGA1021+009909999GA2071+024009999GF107991999999999999999999MA1101691999999MW1001REMMET052LFGJ 051900Z 28011KT 9999 SCT033 BKN083 18/12 Q1017;EQDQ01+000000PRSWM2
0170072553999992000060520004+47030+005430FM-15+0196LFGJ V0202801N003610090019N0112651N1+01701+01101999999ADDGA1021+007209999GA2081+009009999GF108991999999999999999999MA1101901999999MW1001REMMET060LFGJ 052000Z 28007KT 230V340 9999 FEW024 OVC030 17/11 Q1019;EQDQ01+000000PRSWM2
0139072553999992000060521004+47030+005430FM-15+0196LFGJ V0203101N005110087019N0112651N1+01501+01001999999ADDGA1081+008709999GF108991999999999999999999MA1102001999999MW1001REMMET045LFGJ 052100Z 31010KT 9999 OVC029 15/10 Q1020;EQDQ01+000000PRSWM2
0139072553999992000060522004+47030+005430FM-15+0196LFGJ V0203001N002110105019N0112651N1+01501+01001999999ADDGA1071+010509999GF107991999999999999999999MA1102001999999MW1001REMMET045LFGJ 052200Z 30004KT 9999 BKN035 15/10 Q1020;EQDQ01+000000PRSWM2
0162072553999992000060523004+47030+005430FM-15+0196LFGJ V0203001N003110300019N0112651N1+01401+01001999999ADDGA1021+011409999GA2071+030009999GF107991999999999999999999MA1102001999999MW1001REMMET052LFGJ 052300Z 30006KT 9999 FEW038 BKN100 14/10 Q1020;EQDQ01+000000PRSWM2
0162072553999992000060600004+47030+005430FM-15+0196LFGJ V0202601N002110300019N0112651N1+01301+01001999999ADDGA1021+009309999GA2071+030009999GF107991999999999999999999MA1102001999999MW1001REMMET052LFGJ 060000Z 26004KT 9999 SCT031 BKN100 13/10 Q1020;EQDQ01+000000PRSWM2
0162072553999992000060618004+47030+005430FM-15+0196LFGJ V0200101N002110180019N0112651N1+01701+01201999999ADDGA1021+012009999GA2071+018009999GF107991999999999999999999MA1102201999999MW1001REMMET052LFGJ 061800Z 01004KT 9999 SCT040 BKN066 17/12 Q1022;EQDQ01+000000PRSWM2
0162072553999992000060619004+47030+005430FM-15+0196LFGJ V0200101N001010180019N0112651N1+01601+01201999999ADDGA1021+012009999GA2071+018009999GF107991999999999999999999MA1102201999999MW1001REMMET052LFGJ 061900Z 01002KT 9999 FEW040 BKN066 16/12 Q1022;EQDQ01+000000PRSWM2
0162072553999992000060620004+47030+005430FM-15+0196LFGJ V0203201N002110180019N0112651N1+01501+01101999999ADDGA1021+011709999GA2071+018009999GF107991999999999999999999MA1102301999999MW1001REMMET052LFGJ 062000Z 32004KT 9999 FEW039 BKN066 15/11 Q1023;EQDQ01+000000PRSWM2
0162072553999992000060621004+47030+005430FM-15+0196LFGJ V0202801N001010180019N0112651N1+01301+01101999999ADDGA1021+012009999GA2071+018009999GF107991999999999999999999MA1102301999999MW1001REMMET052LFGJ 062100Z 28002KT 9999 FEW040 BKN066 13/11 Q1023;EQDQ01+000000PRSWM2
0091072553999992000060622004+47030+005430FM-15+0196LFGJ V0202801N00101220001CN0099001N1+01301+01101999999ADDMA1102301999999MW1001REMMET039LFGJ 062200Z 28002KT CAVOK 13/11 Q1023;EQDQ01+000000PRSWM2
0091072553999992000060623004+47030+005430FM-15+0196LFGJ V0200101N00101220001CN0099001N1+01101+01001999999ADDMA1102301999999MW1001REMMET039LFGJ 062300Z 01002KT CAVOK 11/10 Q1023;EQDQ01+000000PRSWM2
0139072553999992000060700004+47030+005430FM-15+0196LFGJ V0203501N003112200019N0112651N1+01201+01101999999ADDGA1021+010209999GF104991999999999999999999MA1102401999999MW1001REMMET045LFGJ 070000Z 35006KT 9999 SCT034 12/11 Q1024;EQDQ01+000000PRSWM2
0091072553999992000060718004+47030+005430FM-15+0196LFGJ V0200201N00511220001CN0099001N1+01801+00801999999ADDMA1102201999999MW1001REMMET039LFGJ 071800Z 02010KT CAVOK 18/08 Q1022;EQDQ01+000000PRSWM2
0091072553999992000060719004+47030+005430FM-15+0196LFGJ V0200101N00311220001CN0099001N1+01601+00901999999ADDMA1102201999999MW1001REMMET039LFGJ 071900Z 01006KT CAVOK 16/09 Q1022;EQDQ01+000000PRSWM2
0091072553999992000060720004+47030+005430FM-15+0196LFGJ V0200201N00411220001CN0099001N1+01301+00901999999ADDMA1102201999999MW1001REMMET039LFGJ 072000Z 02008KT CAVOK 13/09 Q1022;EQDQ01+000000PRSWM2
0091072553999992000060721004+47030+005430FM-15+0196LFGJ V0200301N00311220001CN0099001N1+01201+00801999999ADDMA1102201999999MW1001REMMET039LFGJ 072100Z 03006KT CAVOK 12/08 Q1022;EQDQ01+000000PRSWM2
0091072553999992000060722004+47030+005430FM-15+0196LFGJ V0200201N00411220001CN0099001N1+01101+00801999999ADDMA1102201999999MW1001REMMET039LFGJ 072200Z 02008KT CAVOK 11/08 Q1022;EQDQ01+000000PRSWM2
0091072553999992000060723004+47030+005430FM-15+0196LFGJ V0200201N00411220001CN0099001N1+01001+00801999999ADDMA1102101999999MW1001REMMET039LFGJ 072300Z 02008KT CAVOK 10/08 Q1021;EQDQ01+000000PRSWM2
0091072553999992000060800004+47030+005430FM-15+0196LFGJ V0203601N00311220001CN0099001N1+01001+00801999999ADDMA1102101999999MW1001REMMET039LFGJ 080000Z 36006KT CAVOK 10/08 Q1021;EQDQ01+000000PRSWM2
0091072553999992000060818004+47030+005430FM-15+0196LFGJ V0201601N00311220001CN0099001N1+02601+01801999999ADDMA1101291999999MW1001REMMET039LFGJ 081800Z 16006KT CAVOK 26/18 Q1013;EQDQ01+000000PRSWM2
0091072553999992000060819004+47030+005430FM-15+0196LFGJ V0201401N00211220001CN0099001N1+02401+01701999999ADDMA1101291999999MW1001REMMET039LFGJ 081900Z 14004KT CAVOK 24/17 Q1013;EQDQ01+000000PRSWM2
0091072553999992000060820004+47030+005430FM-15+0196LFGJ V0201501N00361220001CN0099001N1+02101+01601999999ADDMA1101291999999MW1001REMMET039LFGJ 082000Z 15007KT CAVOK 21/16 Q1013;EQDQ01+000000PRSWM2
0091072553999992000060821004+47030+005430FM-15+0196LFGJ V0201701N00411220001CN0099001N1+02101+01601999999ADDMA1101291999999MW1001REMMET039LFGJ 082100Z 17008KT CAVOK 21/16 Q1013;EQDQ01+000000PRSWM2
0091072553999992000060822004+47030+005430FM-15+0196LFGJ V0201801N00511220001CN0099001N1+02301+01601999999ADDMA1101291999999MW1001REMMET039LFGJ 082200Z 18010KT CAVOK 23/16 Q1013;EQDQ01+000000PRSWM2
0091072553999992000060823004+47030+005430FM-15+0196LFGJ V0201701N00411220001CN0099001N1+02101+01601999999ADDMA1101391999999MW1001REMMET039LFGJ 082300Z 17008KT CAVOK 21/16 Q1014;EQDQ01+000000PRSWM2
0091072553999992000060900004+47030+005430FM-15+0196LFGJ V0201901N00511220001CN0099001N1+02101+01601999999ADDMA1101391999999MW1001REMMET039LFGJ 090000Z 19010KT CAVOK 21/16 Q1014;EQDQ01+000000PRSWM2
0091072553999992000060918004+47030+005430FM-15+0196LFGJ V0201701N00261220001CN0099001N1+02701+01801999999ADDMA1101081999999MW1001REMMET039LFGJ 091800Z 17005KT CAVOK 27/18 Q1011;EQDQ01+000000PRSWM2
0091072553999992000060919004+47030+005430FM-15+0196LFGJ V0201101N00211220001CN0099001N1+02501+01801999999ADDMA1101191999999MW1001REMMET039LFGJ 091900Z 11004KT CAVOK 25/18 Q1012;EQDQ01+000000PRSWM2
0091072553999992000060920004+47030+005430FM-15+0196LFGJ V0201101N00311220001CN0099001N1+02201+01701999999ADDMA1101191999999MW1001REMMET039LFGJ 092000Z 11006KT CAVOK 22/17 Q1012;EQDQ01+000000PRSWM2
0185072553999992000060921004+47030+005430FM-15+0196LFGJ V0201201N004112200019N0112651N1+02001+01601999999ADDGA1021+015009099GA2021+015009999GF104991999999999999999999MA1101191999999MW1171REMMET059LFGJ 092100Z 12008KT 9999 VCTS FEW050CB SCT050 20/16 Q1012;EQDQ01+000003PRSWM1Q02    003PRSWM1
0185072553999992000060922004+47030+005430FM-15+0196LFGJ V0201001N003112200019N0112651N1+01901+01601999999ADDGA1021+015009099GA2021+015009999GF104991999999999999999999MA1101291999999MW1171REMMET059LFGJ 092200Z 10006KT 9999 VCTS FEW050CB SCT050 19/16 Q1013;EQDQ01+000003PRSWM1Q02    003PRSWM1
0091072553999992000060923004+47030+005430FM-15+0196LFGJ V0201301N00211220001CN0099001N1+02001+01601999999ADDMA1101291999999MW1001REMMET039LFGJ 092300Z 13004KT CAVOK 20/16 Q1013;EQDQ01+000000PRSWM2
0091072553999992000061000004+47030+005430FM-15+0196LFGJ V0202401N00311220001CN0099001N1+02101+01601999999ADDMA1101291999999MW1001REMMET039LFGJ 100000Z 24006KT CAVOK 21/16 Q1013;EQDQ01+000000PRSWM2
0091072553999992000061318004+47030+005430FM-15+0196LFGJ V0202701N00211220001CN0099001N1+02501+01801999999ADDMA1102301999999MW1001REMMET039LFGJ 131800Z 27004KT CAVOK 25/18 Q1023;EQDQ01+000000PRSWM2
0139072553999992000061320004+47300+005430FM-15+0196LFGJ V0203401N004112200019N0112651N1+02101+01601999999ADDGA1021+012609999GF104991999999999999999999MA1102401999999MW1001REMMET045LFGJ 132000Z 34008KT 9999 SCT042 21/16 Q1024;EQDQ01+000000PRSWM2
0091072553999992000061321004+47300+005430FM-15+0196LFGJ V0200501N00151220001CN0099001N1+02001+01601999999ADDMA1102401999999MW1001REMMET039LFGJ 132100Z 05003KT CAVOK 20/16 Q1024;EQDQ01+000000PRSWM2
0091072553999992000061322004+47300+005430FM-15+0196LFGJ V0200101N00311220001CN0099001N1+01901+01501999999ADDMA1102401999999MW1001REMMET039LFGJ 132200Z 01006KT CAVOK 19/15 Q1024;EQDQ01+000000PRSWM2
0099072553999992000061323004+47300+005430FM-15+0196LFGJ V0203601N00261220001CN0099001N1+01901+01601999999ADDMA1102511999999MW1001REMMET047LFGJ 132300Z 36005KT 340V080 CAVOK 19/16 Q1025;EQDQ01+000000PRSWM2
0091072553999992000061400004+47300+005430FM-15+0196LFGJ V0200101N00211220001CN0099001N1+01901+01601999999ADDMA1102511999999MW1001REMMET039LFGJ 140000Z 01004KT CAVOK 19/16 Q1025;EQDQ01+000000PRSWM2
0091072553999992000061418004+47300+005430FM-15+0196LFGJ V0203401N00411220001CN0099001N1+02501+01401999999ADDMA1102301999999MW1001REMMET039LFGJ 141800Z 34008KT CAVOK 25/14 Q1023;EQDQ01+000000PRSWM2
0142072553999992000061419004+47300+005430FM-15+0196LFGJ V0203501N004112200019N0112651N1+02201+01501999999ADDGA1021+015009029GF102991999999999999999999MA1102401999999MW1001REMMET048LFGJ 141900Z 35008KT 9999 FEW050TCU 22/15 Q1024;EQDQ01+000000PRSWM2
0091072553999992000061420004+47300+005430FM-15+0196LFGJ V0203501N00411220001CN0099001N1+02101+01601999999ADDMA1102511999999MW1001REMMET039LFGJ 142000Z 35008KT CAVOK 21/16 Q1025;EQDQ01+000000PRSWM2
0091072553999992000061421004+47300+005430FM-15+0196LFGJ V0200201N00311220001CN0099001N1+01801+01601999999ADDMA1102511999999MW1001REMMET039LFGJ 142100Z 02006KT CAVOK 18/16 Q1025;EQDQ01+000000PRSWM2
0091072553999992000061422004+47300+005430FM-15+0196LFGJ V0203501N00361220001CN0099001N1+01801+01601999999ADDMA1102511999999MW1001REMMET039LFGJ 142200Z 35007KT CAVOK 18/16 Q1025;EQDQ01+000000PRSWM2
0091072553999992000061423004+47300+005430FM-15+0196LFGJ V0203501N00361220001CN0099001N1+01701+01501999999ADDMA1102511999999MW1001REMMET039LFGJ 142300Z 35007KT CAVOK 17/15 Q1025;EQDQ01+000000PRSWM2
0091072553999992000061500004+47300+005430FM-15+0196LFGJ V0200401N00211220001CN0099001N1+01601+01501999999ADDMA1102511999999MW1001REMMET039LFGJ 150000Z 04004KT CAVOK 16/15 Q1025;EQDQ01+000000PRSWM2
0091072553999992000061518004+47300+005430FM-15+0196LFGJ V0200101N00511220001CN0099001N1+02501+01501999999ADDMA1102401999999MW1001REMMET039LFGJ 151800Z 01010KT CAVOK 25/15 Q1024;EQDQ01+000000PRSWM2
0091072553999992000061519004+47300+005430FM-15+0196LFGJ V0200101N00411220001CN0099001N1+02201+01601999999ADDMA1102401999999MW1001REMMET039LFGJ 151900Z 01008KT CAVOK 22/16 Q1024;EQDQ01+000000PRSWM2
0091072553999992000061520004+47300+005430FM-15+0196LFGJ V0200101N00461220001CN0099001N1+02001+01501999999ADDMA1102401999999MW1001REMMET039LFGJ 152000Z 01009KT CAVOK 20/15 Q1024;EQDQ01+000000PRSWM2
0091072553999992000061521144+47300+005430FM-15+0196LFGJ V0200301N00411220001CN0099001N1+01801+01501999999ADDMA1102511999999MW1001REMMET039LFGJ 152114Z 03008KT CAVOK 18/15 Q1025;EQDQ01+000000PRSWM2
0091072553999992000061522004+47300+005430FM-15+0196LFGJ V0200301N00311220001CN0099001N1+01701+01501999999ADDMA1102511999999MW1001REMMET039LFGJ 152200Z 03006KT CAVOK 17/15 Q1025;EQDQ01+000000PRSWM2
0091072553999992000061523004+47300+005430FM-15+0196LFGJ V0200401N00261220001CN0099001N1+01601+01401999999ADDMA1102511999999MW1001REMMET039LFGJ 152300Z 04005KT CAVOK 16/14 Q1025;EQDQ01+000000PRSWM2
0091072553999992000061600004+47300+005430FM-15+0196LFGJ V0200401N00211220001CN0099001N1+01501+01401999999ADDMA1102511999999MW1001REMMET039LFGJ 160000Z 04004KT CAVOK 15/14 Q1025;EQDQ01+000000PRSWM2
0091072553999992000061618004+47300+005430FM-15+0196LFGJ V0200201N00511220001CN0099001N1+02201+01001999999ADDMA1102401999999MW1001REMMET039LFGJ 161800Z 02010KT CAVOK 22/10 Q1024;EQDQ01+000000PRSWM2
0091072553999992000061619004+47300+005430FM-15+0196LFGJ V0200201N00511220001CN0099001N1+01901+01001999999ADDMA1102401999999MW1001REMMET039LFGJ 161900Z 02010KT CAVOK 19/10 Q1024;EQDQ01+000000PRSWM2
0091072553999992000061620004+47300+005430FM-15+0196LFGJ V0200301N00511220001CN0099001N1+01801+00901999999ADDMA1102401999999MW1001REMMET039LFGJ 162000Z 03010KT CAVOK 18/09 Q1024;EQDQ01+000000PRSWM2
0091072553999992000061621004+47300+005430FM-15+0196LFGJ V0200301N00411220001CN0099001N1+01601+00901999999ADDMA1102511999999MW1001REMMET039LFGJ 162100Z 03008KT CAVOK 16/09 Q1025;EQDQ01+000000PRSWM2
0091072553999992000061622004+47300+005430FM-15+0196LFGJ V0200301N00511220001CN0099001N1+01601+00901999999ADDMA1102511999999MW1001REMMET039LFGJ 162200Z 03010KT CAVOK 16/09 Q1025;EQDQ01+000000PRSWM2
0091072553999992000061623004+47300+005430FM-15+0196LFGJ V0200401N00511220001CN0099001N1+01501+00901999999ADDMA1102511999999MW1001REMMET039LFGJ 162300Z 04010KT CAVOK 15/09 Q1025;EQDQ01+000000PRSWM2
0091072553999992000061700004+47300+005430FM-15+0196LFGJ V0200301N00411220001CN0099001N1+01301+00901999999ADDMA1102511999999MW1001REMMET039LFGJ 170000Z 03008KT CAVOK 13/09 Q1025;EQDQ01+000000PRSWM2
0141072553999992000061918004+47300+005430FM-15+0196LFGJ V0201901N004112200019N0112651N1+02901+01301999999ADDGA1021+009909099GF102991999999999999999999MA1101901999999MW1001REMMET047LFGJ 191800Z 19008KT 9999 FEW033CB 29/13 Q1019;EQDQ01+000000PRSWM2
0139072553999992000061919004+47300+005430FM-15+0196LFGJ V0201901N003112200019N0112651N1+02601+01401999999ADDGA1021+009909999GF102991999999999999999999MA1101901999999MW1001REMMET045LFGJ 191900Z 19006KT 9999 FEW033 26/14 Q1019;EQDQ01+000000PRSWM2
0091072553999992000061920004+47300+005430FM-15+0196LFGJ V0201901N00311220001CN0099001N1+02201+01401999999ADDMA1101901999999MW1001REMMET039LFGJ 192000Z 19006KT CAVOK 22/14 Q1019;EQDQ01+000000PRSWM2
0091072553999992000061921004+47300+005430FM-15+0196LFGJ V0201401N00211220001CN0099001N1+02001+01401999999ADDMA1101901999999MW1001REMMET039LFGJ 192100Z 14004KT CAVOK 20/14 Q1019;EQDQ01+000000PRSWM2
0091072553999992000061922004+47300+005430FM-15+0196LFGJ V0200801N00101220001CN0099001N1+01701+01401999999ADDMA1101901999999MW1001REMMET039LFGJ 192200Z 08002KT CAVOK 17/14 Q1019;EQDQ01+000000PRSWM2
0091072553999992000061923004+47300+005430FM-15+0196LFGJ V0200401N00211220001CN0099001N1+01601+01301999999ADDMA1101901999999MW1001REMMET039LFGJ 192300Z 04004KT CAVOK 16/13 Q1019;EQDQ01+000000PRSWM2
0091072553999992000062000004+47300+005430FM-15+0196LFGJ V0200801N00101220001CN0099001N1+01501+01301999999ADDMA1101901999999MW1001REMMET039LFGJ 200000Z 08002KT CAVOK 15/13 Q1019;EQDQ01+000000PRSWM2
0141072553999992000062018004+47300+005430FM-15+0196LFGJ V0201901N005112200019N0112651N1+02801+01101999999ADDGA1021+009909099GF102991999999999999999999MA1101491999999MW1001REMMET047LFGJ 201800Z 19010KT 9999 FEW033CB 28/11 Q1015;EQDQ01+000000PRSWM2
0141072553999992000062019004+47300+005430FM-15+0196LFGJ V0201901N005112200019N0112651N1+02801+01101999999ADDGA1021+009909099GF102991999999999999999999MA1101491999999MW1001REMMET047LFGJ 201900Z 19010KT 9999 FEW033CB 28/11 Q1015;EQDQ01+000000PRSWM2
0141072553999992000062020004+47300+005430FM-15+0196LFGJ V0201601N002612200019N0112651N1+02001+01101999999ADDGA1021+009909099GF102991999999999999999999MA1101591999999MW1001REMMET047LFGJ 202000Z 16005KT 9999 FEW033CB 20/11 Q1016;EQDQ01+000000PRSWM2
0139072553999992000062021004+47300+005430FM-15+0196LFGJ V0201701N003112200019N0112651N1+01901+01101999999ADDGA1021+009909999GF102991999999999999999999MA1101591999999MW1001REMMET045LFGJ 202100Z 17006KT 9999 FEW033 19/11 Q1016;EQDQ01+000000PRSWM2
0091072553999992000062022004+47300+005430FM-15+0196LFGJ V0201701N00311220001CN0099001N1+01801+01101999999ADDMA1101691999999MW1001REMMET039LFGJ 202200Z 17006KT CAVOK 18/11 Q1017;EQDQ01+000000PRSWM2
0091072553999992000070418004+47300+005430FM-15+0196LFGJ V0202401N00981220001CN0099001N1+02201+01201999999ADDMA1101081999999MW1001REMMET039LFGJ 041800Z 24019KT CAVOK 22/12 Q1011;EQDQ01+000000PRSWM2
0091072553999992000070420004+47300+005430FM-15+0196LFGJ V0202301N00311220001CN0099001N1+01901+01201999999ADDMA1101291999999MW1001REMMET039LFGJ 042000Z 23006KT CAVOK 19/12 Q1013;EQDQ01+000000PRSWM2
0091072553999992000070422004+47300+005430FM-15+0196LFGJ V0201801N00261220001CN0099001N1+01501+01301999999ADDMA1101391999999MW1001REMMET039LFGJ 042200Z 18005KT CAVOK 15/13 Q1014;EQDQ01+000000PRSWM2
0182072553999992000070500004+47300+005430FM-15+0196LFGJ V0202401N004110180019N0112651N1+01601+01501999999ADDGA1021+012309999GA2071+018009999GF107991999999999999999999MA1101491999999MW1611REMMET056LFGJ 050000Z 24008KT 9999 -RA FEW041 BKN066 16/15 Q1015;EQDQ01+000003PRSWM1Q02    003PRSWM1
0091072553999992000070518004+47300+005430FM-15+0196LFGJ V0202701N00261220001CN0099001N1+02301+01201999999ADDMA1101801999999MW1001REMMET039LFGJ 051800Z 27005KT CAVOK 23/12 Q1018;EQDQ01+000000PRSWM2
0091072553999992000070520004+47300+005430FM-15+0196LFGJ V0200301N00051220001CN0099001N1+01801+01401999999ADDMA1101901999999MW1001REMMET039LFGJ 052000Z 03001KT CAVOK 18/14 Q1019;EQDQ01+000000PRSWM2
0091072553999992000070521004+47300+005430FM-15+0196LFGJ V0209999C00001220001CN0099001N1+01501+01401999999ADDMA1102001999999MW1001REMMET039LFGJ 052100Z 00000KT CAVOK 15/14 Q1020;EQDQ01+000000PRSWM2
0091072553999992000070522004+47300+005430FM-15+0196LFGJ V0200801N00211220001CN0099001N1+01401+01301999999ADDMA1101901999999MW1001REMMET039LFGJ 052200Z 08004KT CAVOK 14/13 Q1019;EQDQ01+000000PRSWM2
0091072553999992000070523004+47300+005430FM-15+0196LFGJ V0200701N00211220001CN0099001N1+01401+01401999999ADDMA1102001999999MW1001REMMET039LFGJ 052300Z 07004KT CAVOK 14/14 Q1020;EQDQ01+000000PRSWM2
0091072553999992000070600004+47300+005430FM-15+0196LFGJ V0200701N00151220001CN0099001N1+01301+01201999999ADDMA1102001999999MW1001REMMET039LFGJ 060000Z 07003KT CAVOK 13/12 Q1020;EQDQ01+000000PRSWM2
0091072553999992000070618004+47300+005430FM-15+0196LFGJ V0200501N00571220001CN0099001N1+02701+01501999999ADDMA1101291999999MW1001REMMET039LFGJ 061800Z 05011KT CAVOK 27/15 Q1013;EQDQ01+000000PRSWM2
0091072553999992000070619004+47300+005430FM-15+0196LFGJ V0200401N00511220001CN0099001N1+02501+01501999999ADDMA1101191999999MW1001REMMET039LFGJ 061900Z 04010KT CAVOK 25/15 Q1012;EQDQ01+000000PRSWM2
0164072553999992000070620004+47300+005430FM-15+0196LFGJ V0200401N007212200019N0112651N1+02301+01601999999ADDGA1021+018009099GA2021+030009999GF104991999999999999999999MA1101191999999MW1001REMMET054LFGJ 062000Z 04014KT 9999 FEW060CB SCT100 23/16 Q1012;EQDQ01+000000PRSWM2
0141072553999992000070621004+47300+005430FM-15+0196LFGJ V0200701N002612200019N0112651N1+02101+01601999999ADDGA1021+018009099GF102991999999999999999999MA1101081999999MW1001REMMET047LFGJ 062100Z 07005KT 9999 FEW060CB 21/16 Q1011;EQDQ01+000000PRSWM2
0091072553999992000070622004+47300+005430FM-15+0196LFGJ V0201001N00211220001CN0099001N1+01901+01601999999ADDMA1101021999999MW1001REMMET039LFGJ 062200Z 10004KT CAVOK 19/16 Q1010;EQDQ01+000000PRSWM2
0091072553999992000070623004+47300+005430FM-15+0196LFGJ V0200501N00211220001CN0099001N1+01901+01601999999ADDMA1101081999999MW1001REMMET039LFGJ 062300Z 05004KT CAVOK 19/16 Q1011;EQDQ01+000000PRSWM2
0164072553999992000070700004+47300+005430FM-15+0196LFGJ V0200601N001512200019N0112651N1+01801+01601999999ADDGA1021+012009099GA2021+018009999GF104991999999999999999999MA1101021999999MW1001REMMET054LFGJ 070000Z 06003KT 9999 FEW040CB SCT060 18/16 Q1010;EQDQ01+000000PRSWM2
0091072553999992000070718004+47300+005430FM-15+0196LFGJ V0202601N00621220001CN0099001N1+02001+01301999999ADDMA1101081999999MW1001REMMET039LFGJ 071800Z 26012KT CAVOK 20/13 Q1011;EQDQ01+000000PRSWM2
0091072553999992000070719004+47300+005430FM-15+0196LFGJ V0202301N00411220001CN0099001N1+01901+01401999999ADDMA1101291999999MW1001REMMET039LFGJ 071900Z 23008KT CAVOK 19/14 Q1013;EQDQ01+000000PRSWM2
0091072553999992000070720004+47300+005430FM-15+0196LFGJ V0202301N00311220001CN0099001N1+01701+01401999999ADDMA1101291999999MW1001REMMET039LFGJ 072000Z 23006KT CAVOK 17/14 Q1013;EQDQ01+000000PRSWM2
0091072553999992000070721004+47300+005430FM-15+0196LFGJ V0201901N00311220001CN0099001N1+01601+01401999999ADDMA1101391999999MW1001REMMET039LFGJ 072100Z 19006KT CAVOK 16/14 Q1014;EQDQ01+000000PRSWM2
0162072553999992000070722004+47300+005430FM-15+0196LFGJ V0202101N002110180019N0112651N1+01701+01501999999ADDGA1021+009009999GA2071+018009999GF107991999999999999999999MA1101391999999MW1001REMMET052LFGJ 072200Z 21004KT 9999 FEW030 BKN060 17/15 Q1014;EQDQ01+000000PRSWM2
0162072553999992000070800004+47300+005430FM-15+0196LFGJ V0203201N005110063019N0112651N1+01701+01301999999ADDGA1021+004509999GA2071+006309999GF107991999999999999999999MA1101391999999MW1001REMMET052LFGJ 080000Z 32010KT 9999 FEW015 BKN021 17/13 Q1014;EQDQ01+000000PRSWM2
0091072553999992000071018004+47300+005430FM-15+0196LFGJ V0202201N00461220001CN0099001N1+01901+01101999999ADDMA1100101999999MW1001REMMET039LFGJ 101800Z 22009KT CAVOK 19/11 Q1001;EQDQ01+000000PRSWM2
0091072553999992000071019004+47300+005430FM-15+0196LFGJ V0202401N00411220001CN0099001N1+01801+01101999999ADDMA1100101999999MW1001REMMET039LFGJ 101900Z 24008KT CAVOK 18/11 Q1001;EQDQ01+000000PRSWM2
0164072553999992000071020004+47300+005430FM-15+0196LFGJ V0202501N002110180019N0112651N1+01601+01101999999ADDGA1021+015009099GA2071+018009999GF107991999999999999999999MA1100101999999MW1001REMMET054LFGJ 102000Z 25004KT 9999 FEW050CB BKN060 16/11 Q1001;EQDQ01+000000PRSWM2
0164072553999992000071021004+47300+005430FM-15+0196LFGJ V0202501N006710180019N0112651N1+01601+01101999999ADDGA1021+015009099GA2071+018009999GF107991999999999999999999MA1100201999999MW1001REMMET054LFGJ 102100Z 25013KT 9999 FEW050CB BKN060 16/11 Q1002;EQDQ01+000000PRSWM2
0091072553999992000071022004+47300+005430FM-15+0196LFGJ V0202601N00411220001CN0099001N1+01501+01001999999ADDMA1100201999999MW1001REMMET039LFGJ 102200Z 26008KT CAVOK 15/10 Q1002;EQDQ01+000000PRSWM2
0091072553999992000071023004+47300+005430FM-15+0196LFGJ V0202301N00311220001CN0099001N1+01401+01101999999ADDMA1100201999999MW1001REMMET039LFGJ 102300Z 23006KT CAVOK 14/11 Q1002;EQDQ01+000000PRSWM2
0091072553999992000071100004+47300+005430FM-15+0196LFGJ V0202001N00361220001CN0099001N1+01301+01101999999ADDMA1100201999999MW1001REMMET039LFGJ 110000Z 20007KT CAVOK 13/11 Q1002;EQDQ01+000000PRSWM2
0091072553999992000071118004+47300+005430FM-15+0196LFGJ V0202201N00211220001CN0099001N1+01201+01101999999ADDMA1100811999999MW1001REMMET039LFGJ 111800Z 22004KT CAVOK 12/11 Q1008;EQDQ01+000000PRSWM2
0091072553999992000071119004+47300+005430FM-15+0196LFGJ V0202201N00101220001CN0099001N1+01201+01201999999ADDMA1100811999999MW1001REMMET039LFGJ 111900Z 22002KT CAVOK 12/12 Q1008;EQDQ01+000000PRSWM2
0162072553999992000071120004+47300+005430FM-15+0196LFGJ V0201401N002110150019N0080001N1+01201+01101999999ADDGA1021+003009999GA2071+015009999GF107991999999999999999999MA1100911999999MW1001REMMET052LFGJ 112000Z 14004KT 8000 FEW010 BKN050 12/11 Q1009;EQDQ01+000000PRSWM2
0162072553999992000071121004+47300+005430FM-15+0196LFGJ V0201801N001510150019N0080001N1+01201+01201999999ADDGA1021+003009999GA2071+015009999GF107991999999999999999999MA1101021999999MW1001REMMET052LFGJ 112100Z 18003KT 8000 FEW010 BKN050 12/12 Q1010;EQDQ01+000000PRSWM2
0162072553999992000071122004+47300+005430FM-15+0196LFGJ V0202001N001010300019N0070001N1+01201+01101999999ADDGA1021+015009999GA2071+030009999GF107991999999999999999999MA1101021999999MW1001REMMET052LFGJ 112200Z 20002KT 7000 SCT050 BKN100 12/11 Q1010;EQDQ01+000000PRSWM2
0091072553999992000071123004+47300+005430FM-15+0196LFGJ V0202101N00101220001CN0099001N1+01101+01101999999ADDMA1101021999999MW1001REMMET039LFGJ 112300Z 21002KT CAVOK 11/11 Q1010;EQDQ01+000000PRSWM2
0185072553999992000071200004+47300+005430FM-15+0196LFGJ V0202601N001010300019N0112651N1+01101+01001999999ADDGA1021+006309999GA2021+011709999GA3071+030009999GF107991999999999999999999MA1101081999999MW1001REMMET059LFGJ 120000Z 26002KT 9999 FEW021 SCT039 BKN100 11/10 Q1011;EQDQ01+000000PRSWM2
0091072553999992000071218004+47300+005430FM-15+0196LFGJ V0201701N00311220001CN0099001N1+01501+01101999999ADDMA1102001999999MW1001REMMET039LFGJ 121800Z 17006KT CAVOK 15/11 Q1020;EQDQ01+000000PRSWM2
0091072553999992000071220004+47300+005430FM-15+0196LFGJ V0203001N00151220001CN0099001N1+01401+00901999999ADDMA1102001999999MW1001REMMET039LFGJ 122000Z 30003KT CAVOK 14/09 Q1020;EQDQ01+000000PRSWM2
0091072553999992000071221004+47300+005430FM-15+0196LFGJ V0202101N00101220001CN0099001N1+01301+01101999999ADDMA1102001999999MW1001REMMET039LFGJ 122100Z 21002KT CAVOK 13/11 Q1020;EQDQ01+000000PRSWM2
0091072553999992000071222004+47300+005430FM-15+0196LFGJ V0201801N00211220001CN0099001N1+01201+01101999999ADDMA1102001999999MW1001REMMET039LFGJ 122200Z 18004KT CAVOK 12/11 Q1020;EQDQ01+000000PRSWM2
0091072553999992000071223004+47300+005430FM-15+0196LFGJ V0201701N00211220001CN0099001N1+01101+01001999999ADDMA1102001999999MW1001REMMET039LFGJ 122300Z 17004KT CAVOK 11/10 Q1020;EQDQ01+000000PRSWM2
0091072553999992000071223474+47300+005430FM-15+0196LFGJ V0209999C00001220001CN0099001N1+01001+01001999999ADDMA1102001999999MW1001REMMET039LFGJ 122347Z 00000KT CAVOK 10/10 Q1020;EQDQ01+000000PRSWM2
0091072553999992000071522004+47030+005430FM-15+0196LFGJ V0200301N00311220001CN0099001N1+01701+01501999999ADDMA1102511999999MW1001REMMET039LFGJ 152200Z 03006KT CAVOK 17/15 Q1025;EQDQ01+000000PRSWM2
0091072553999992000071718004+47300+005430FM-15+0196LFGJ V0203601N00411220001CN0099001N1+02001+00701999999ADDMA1101801999999MW1001REMMET039LFGJ 171800Z 36008KT CAVOK 20/07 Q1018;EQDQ01+000000PRSWM2
0091072553999992000071719004+47300+005430FM-15+0196LFGJ V0200101N00261220001CN0099001N1+01801+00901999999ADDMA1101801999999MW1001REMMET039LFGJ 171900Z 01005KT CAVOK 18/09 Q1018;EQDQ01+000000PRSWM2
0091072553999992000071720004+47300+005430FM-15+0196LFGJ V0203501N00211220001CN0099001N1+01501+01001999999ADDMA1101801999999MW1001REMMET039LFGJ 172000Z 35004KT CAVOK 15/10 Q1018;EQDQ01+000000PRSWM2
0091072553999992000071721004+47030+005430FM-15+0196LFGJ V0203601N00211220001CN0099001N1+01401+01101999999ADDMA1101901999999MW1001REMMET039LFGJ 172100Z 36004KT CAVOK 14/11 Q1019;EQDQ01+000000PRSWM2
0091072553999992000071722004+47030+005430FM-15+0196LFGJ V0200101N00211220001CN0099001N1+01401+01001999999ADDMA1101901999999MW1001REMMET039LFGJ 172200Z 01004KT CAVOK 14/10 Q1019;EQDQ01+000000PRSWM2
0091072553999992000071723004+47030+005430FM-15+0196LFGJ V0203601N00151220001CN0099001N1+01301+01001999999ADDMA1101901999999MW1001REMMET039LFGJ 172300Z 36003KT CAVOK 13/10 Q1019;EQDQ01+000000PRSWM2
0091072553999992000071800004+47030+005430FM-15+0196LFGJ V0203601N00211220001CN0099001N1+01201+01001999999ADDMA1101901999999MW1001REMMET039LFGJ 180000Z 36004KT CAVOK 12/10 Q1019;EQDQ01+000000PRSWM2
0091072553999992000071818004+47030+005430FM-15+0196LFGJ V0200101N00311220001CN0099001N1+02301+01001999999ADDMA1101801999999MW1001REMMET039LFGJ 181800Z 01006KT CAVOK 23/10 Q1018;EQDQ01+000000PRSWM2
0091072553999992000071819004+47030+005430FM-15+0196LFGJ V0200501N00211220001CN0099001N1+01901+01101999999ADDMA1101801999999MW1001REMMET039LFGJ 181900Z 05004KT CAVOK 19/11 Q1018;EQDQ01+000000PRSWM2
0091072553999992000071820004+47030+005430FM-15+0196LFGJ V0200201N00101220001CN0099001N1+01501+01101999999ADDMA1101801999999MW1001REMMET039LFGJ 182000Z 02002KT CAVOK 15/11 Q1018;EQDQ01+000000PRSWM2
0091072553999992000071821004+47030+005430FM-15+0196LFGJ V0203601N00311220001CN0099001N1+01501+01201999999ADDMA1101901999999MW1001REMMET039LFGJ 182100Z 36006KT CAVOK 15/12 Q1019;EQDQ01+000000PRSWM2
0091072553999992000071822004+47030+005430FM-15+0196LFGJ V0200101N00411220001CN0099001N1+01501+01101999999ADDMA1101901999999MW1001REMMET039LFGJ 182200Z 01008KT CAVOK 15/11 Q1019;EQDQ01+000000PRSWM2
0091072553999992000071823004+47030+005430FM-15+0196LFGJ V0200301N00211220001CN0099001N1+01301+01101999999ADDMA1101901999999MW1001REMMET039LFGJ 182300Z 03004KT CAVOK 13/11 Q1019;EQDQ01+000000PRSWM2
0091072553999992000071900004+47030+005430FM-15+0196LFGJ V0200301N00101220001CN0099001N1+01401+01001999999ADDMA1101901999999MW1001REMMET039LFGJ 190000Z 03002KT CAVOK 14/10 Q1019;EQDQ01+000000PRSWM2
0091072553999992000071918004+47030+005430FM-15+0196LFGJ V0200201N00621220001CN0099001N1+02101+01101999999ADDMA1101901999999MW1001REMMET039LFGJ 191800Z 02012KT CAVOK 21/11 Q1019;EQDQ01+000000PRSWM2
0091072553999992000071919004+47030+005430FM-15+0196LFGJ V0200301N00571220001CN0099001N1+01901+01101999999ADDMA1101901999999MW1001REMMET039LFGJ 191900Z 03011KT CAVOK 19/11 Q1019;EQDQ01+000000PRSWM2
0091072553999992000071920004+47030+005430FM-15+0196LFGJ V0200301N00621220001CN0099001N1+01801+01101999999ADDMA1101901999999MW1001REMMET039LFGJ 192000Z 03012KT CAVOK 18/11 Q1019;EQDQ01+000000PRSWM2
0091072553999992000071921004+47030+005430FM-15+0196LFGJ V0200401N00411220001CN0099001N1+01601+01101999999ADDMA1101901999999MW1001REMMET039LFGJ 192100Z 04008KT CAVOK 16/11 Q1019;EQDQ01+000000PRSWM2
0091072553999992000071922004+47030+005430FM-15+0196LFGJ V0200401N00311220001CN0099001N1+01501+01001999999ADDMA1101901999999MW1001REMMET039LFGJ 192200Z 04006KT CAVOK 15/10 Q1019;EQDQ01+000000PRSWM2
0091072553999992000071923004+47030+005430FM-15+0196LFGJ V0203401N00311220001CN0099001N1+01401+01101999999ADDMA1101901999999MW1001REMMET039LFGJ 192300Z 34006KT CAVOK 14/11 Q1019;EQDQ01+000000PRSWM2
0091072553999992000072000004+47030+005430FM-15+0196LFGJ V0203501N00411220001CN0099001N1+01301+01101999999ADDMA1101901999999MW1001REMMET039LFGJ 200000Z 35008KT CAVOK 13/11 Q1019;EQDQ01+000000PRSWM2
0091072553999992000072018004+47030+005430FM-15+0196LFGJ V0200101N01401220001CN0099001N1+02301+01101999999ADDMA1101901999999MW1001REMMET039LFGJ 201800Z 01014KT CAVOK 23/11 Q1019;EQDQ01+000000PRSWM2
0091072553999992000072019004+47030+005430FM-15+0196LFGJ V0200201N00701220001CN0099001N1+02101+01101999999ADDMA1102001999999MW1001REMMET039LFGJ 201900Z 02007KT CAVOK 21/11 Q1020;EQDQ01+000000PRSWM2
0091072553999992000072020004+47030+005430FM-15+0196LFGJ V0200201N00601220001CN0099001N1+01801+01101999999ADDMA1102001999999MW1001REMMET039LFGJ 202000Z 02006KT CAVOK 18/11 Q1020;EQDQ01+000000PRSWM2
0091072553999992000072021004+47030+005430FM-15+0196LFGJ V0200301N00601220001CN0099001N1+01601+01101999999ADDMA1102001999999MW1001REMMET039LFGJ 202100Z 03006KT CAVOK 16/11 Q1020;EQDQ01+000000PRSWM2
0091072553999992000072022004+47030+005430FM-15+0196LFGJ V0200301N00601220001CN0099001N1+01401+01101999999ADDMA1102001999999MW1001REMMET039LFGJ 202200Z 03006KT CAVOK 14/11 Q1020;EQDQ01+000000PRSWM2
0091072553999992000072023004+47030+005430FM-15+0196LFGJ V0200501N00401220001CN0099001N1+01301+01101999999ADDMA1102101999999MW1001REMMET039LFGJ 202300Z 05004KT CAVOK 13/11 Q1021;EQDQ01+000000PRSWM2
0091072553999992000072100004+47030+005430FM-15+0196LFGJ V0200601N00501220001CN0099001N1+01201+01101999999ADDMA1102001999999MW1001REMMET039LFGJ 210000Z 06005KT CAVOK 12/11 Q1020;EQDQ01+000000PRSWM2
0091072553999992000072118004+47030+005430FM-15+0196LFGJ V0200301N00621220001CN0099001N1+02501+01001999999ADDMA1101801999999MW1001REMMET039LFGJ 211800Z 03012KT CAVOK 25/10 Q1018;EQDQ01+000000PRSWM2
0091072553999992000072119004+47030+005430FM-15+0196LFGJ V0200201N00511220001CN0099001N1+02201+01101999999ADDMA1101801999999MW1001REMMET039LFGJ 211900Z 02010KT CAVOK 22/11 Q1018;EQDQ01+000000PRSWM2
0091072553999992000072120004+47030+005430FM-15+0196LFGJ V0200301N00311220001CN0099001N1+01901+01101999999ADDMA1101901999999MW1001REMMET039LFGJ 212000Z 03006KT CAVOK 19/11 Q1019;EQDQ01+000000PRSWM2
0091072553999992000072121004+47030+005430FM-15+0196LFGJ V0200401N00311220001CN0099001N1+01801+01101999999ADDMA1101901999999MW1001REMMET039LFGJ 212100Z 04006KT CAVOK 18/11 Q1019;EQDQ01+000000PRSWM2
0091072553999992000072122004+47030+005430FM-15+0196LFGJ V0200801N00211220001CN0099001N1+01701+01001999999ADDMA1101801999999MW1001REMMET039LFGJ 212200Z 08004KT CAVOK 17/10 Q1018;EQDQ01+000000PRSWM2
0091072553999992000072123004+47030+005430FM-15+0196LFGJ V0200601N00101220001CN0099001N1+01501+01001999999ADDMA1101801999999MW1001REMMET039LFGJ 212300Z 06002KT CAVOK 15/10 Q1018;EQDQ01+000000PRSWM2
0091072553999992000072200004+47030+005430FM-15+0196LFGJ V0200301N00101220001CN0099001N1+01501+01001999999ADDMA1101801999999MW1001REMMET039LFGJ 220000Z 03002KT CAVOK 15/10 Q1018;EQDQ01+000000PRSWM2
0167072553999992000072418004+47030+005430FM-15+0196LFGJ V0202601N004112200019N0112651N1+02301+01401999999ADDGA1021+013809099GA2021+015009029GF102991999999999999999999MA1100711999999MW1001REMMET057LFGJ 241800Z 26008KT 9999 FEW046CB FEW050TCU 23/14 Q1007;EQDQ01+000000PRSWM2
0189072553999992000072419004+47030+005430FM-15+0196LFGJ V0202701N003612200019N0112651N1+02101+01501999999ADDGA1021+013809099GA2021+015009029GF102991999999999999999999MA1100811999999MW1801REMMET063LFGJ 241900Z 27007KT 9999 -SHRA FEW046CB FEW050TCU 21/15 Q1008;EQDQ01+000003PRSWM1Q02    003PRSWM1
0164072553999992000072420004+47030+005430FM-15+0196LFGJ V0202401N002612200019N0112651N1+01801+01501999999ADDGA1021+013809099GA2021+013809999GF102991999999999999999999MA1100811999999MW1001REMMET054LFGJ 242000Z 24005KT 9999 FEW046CB FEW046 18/15 Q1008;EQDQ01+000000PRSWM2
0091072553999992000072421004+47030+005430FM-15+0196LFGJ V0202201N00211220001CN0099001N1+01601+01401999999ADDMA1100911999999MW1001REMMET039LFGJ 242100Z 22004KT CAVOK 16/14 Q1009;EQDQ01+000000PRSWM2
0091072553999992000072422004+47030+005430FM-15+0196LFGJ V0201801N00261220001CN0099001N1+01601+01501999999ADDMA1100911999999MW1001REMMET039LFGJ 242200Z 18005KT CAVOK 16/15 Q1009;EQDQ01+000000PRSWM2
0091072553999992000072423004+47030+005430FM-15+0196LFGJ V0201801N00311220001CN0099001N1+01601+01401999999ADDMA1100911999999MW1001REMMET039LFGJ 242300Z 18006KT CAVOK 16/14 Q1009;EQDQ01+000000PRSWM2
0091072553999992000072500004+47030+005430FM-15+0196LFGJ V0201901N00261220001CN0099001N1+01501+01401999999ADDMA1100911999999MW1001REMMET039LFGJ 250000Z 19005KT CAVOK 15/14 Q1009;EQDQ01+000000PRSWM2
0185072553999992000072518004+47030+005430FM-15+0196LFGJ V0201201N002110150019N0112651N1+02101+01701999999ADDGA1021+013809999GA2071+015009999GA3071+075009999GF107991999999999999999999MA1100811999999MW1001REMMET059LFGJ 251800Z 12004KT 9999 FEW046 BKN050 BKN250 21/17 Q1008;EQDQ01+000000PRSWM2
0091072553999992000072519004+47030+005430FM-15+0196LFGJ V0200901N00151220001CN0099001N1+01901+01701999999ADDMA1100811999999MW1001REMMET039LFGJ 251900Z 09003KT CAVOK 19/17 Q1008;EQDQ01+000000PRSWM2
0091072553999992000072520004+47030+005430FM-15+0196LFGJ V0200701N00151220001CN0099001N1+01801+01701999999ADDMA1100811999999MW1001REMMET039LFGJ 252000Z 07003KT CAVOK 18/17 Q1008;EQDQ01+000000PRSWM2
0162072553999992000072521004+47030+005430FM-15+0196LFGJ V0201401N001010750019N0112651N1+01801+01701999999ADDGA1021+014409999GA2071+075009999GF107991999999999999999999MA1100811999999MW1001REMMET052LFGJ 252100Z 14002KT 9999 SCT048 BKN250 18/17 Q1008;EQDQ01+000000PRSWM2
0182072553999992000072522004+47030+005430FM-15+0196LFGJ V0202001N004610105019N0112651N1+01801+01701999999ADDGA1021+007509999GA2071+010509999GF107991999999999999999999MA1100811999999MW1611REMMET056LFGJ 252200Z 20009KT 9999 -RA FEW025 BKN035 18/17 Q1008;EQDQ01+000003PRSWM1Q02    003PRSWM1
0181072553999992000072523004+47030+005430FM-15+0196LFGJ V0201801N004110123019N0070001N1+01701+01701999999ADDGA1021+006909999GA2071+012309999GF107991999999999999999999MA1100811999999MW1631REMMET055LFGJ 252300Z 18008KT 7000 RA FEW023 BKN041 17/17 Q1008;EQDQ01+000003PRSWM1Q02    003PRSWM1
0182072553999992000072600004+47030+005430FM-15+0196LFGJ V0202001N004612200019N0080001N1+01701+01601999999ADDGA1021+001809999GA2021+012309999GF104991999999999999999999MA1100811999999MW1611REMMET056LFGJ 260000Z 20009KT 8000 -RA FEW006 SCT041 17/16 Q1008;EQDQ01+000003PRSWM1Q02    003PRSWM1
0091072553999992000072618004+47030+005430FM-15+0196LFGJ V0202201N00411220001CN0099001N1+02301+01401999999ADDMA1101391999999MW1001REMMET039LFGJ 261800Z 22008KT CAVOK 23/14 Q1014;EQDQ01+000000PRSWM2
0164072553999992000072619004+47030+005430FM-15+0196LFGJ V0202101N002112200019N0112651N1+02101+01601999999ADDGA1021+014409099GA2021+015009999GF104991999999999999999999MA1101391999999MW1001REMMET054LFGJ 261900Z 21004KT 9999 FEW048CB SCT050 21/16 Q1014;EQDQ01+000000PRSWM2
0164072553999992000072620004+47030+005430FM-15+0196LFGJ V0202401N001012200019N0112651N1+02101+01501999999ADDGA1021+015009099GA2021+018009999GF104991999999999999999999MA1101491999999MW1001REMMET054LFGJ 262000Z 24002KT 9999 SCT050CB SCT060 21/15 Q1015;EQDQ01+000000PRSWM2
0091072553999992000072621004+47030+005430FM-15+0196LFGJ V0202001N00211220001CN0099001N1+01801+01501999999ADDMA1101591999999MW1001REMMET039LFGJ 262100Z 20004KT CAVOK 18/15 Q1016;EQDQ01+000000PRSWM2
0091072553999992000072622004+47030+005430FM-15+0196LFGJ V0209999C00001220001CN0099001N1+01801+01601999999ADDMA1101591999999MW1001REMMET039LFGJ 262200Z 00000KT CAVOK 18/16 Q1016;EQDQ01+000000PRSWM2
0091072553999992000072623004+47030+005430FM-15+0196LFGJ V0201801N00101220001CN0099001N1+01801+01601999999ADDMA1101591999999MW1001REMMET039LFGJ 262300Z 18002KT CAVOK 18/16 Q1016;EQDQ01+000000PRSWM2
0091072553999992000072700004+47030+005430FM-15+0196LFGJ V0202101N00101220001CN0099001N1+01701+01601999999ADDMA1101591999999MW1001REMMET039LFGJ 270000Z 21002KT CAVOK 17/16 Q1016;EQDQ01+000000PRSWM2
0187072553999992000072718004+47030+005430FM-15+0196LFGJ V0201301N001010180019N0112651N1+02001+01601999999ADDGA1021+015009099GA2021+015009999GA3071+018009999GF107991999999999999999999MA1101591999999MW1001REMMET061LFGJ 271800Z 13002KT 9999 FEW050CB FEW050 BKN060 20/16 Q1016;EQDQ01+000000PRSWM2
0186072553999992000072719004+47030+005430FM-15+0196LFGJ V0203001N001010150019N0112651N1+01901+01701999999ADDGA1021+014409099GA2071+015009999GF107991999999999999999999MA1101591999999MW1801REMMET060LFGJ 271900Z 30002KT 9999 -SHRA FEW048CB BKN050 19/17 Q1016;EQDQ01+000003PRSWM1Q02    003PRSWM1
0164072553999992000072720004+47030+005430FM-15+0196LFGJ V0203401N001010150019N0112651N1+01801+01701999999ADDGA1021+014409099GA2071+015009999GF107991999999999999999999MA1101591999999MW1001REMMET054LFGJ 272000Z 34002KT 9999 FEW048CB BKN050 18/17 Q1016;EQDQ01+000000PRSWM2
0186072553999992000072721004+47030+005430FM-15+0196LFGJ V0203201N002610150019N0090001N1+01701+01601999999ADDGA1021+014409099GA2071+015009999GF107991999999999999999999MA1101691999999MW1801REMMET060LFGJ 272100Z 32005KT 9000 -SHRA FEW048CB BKN050 17/16 Q1017;EQDQ01+000003PRSWM1Q02    003PRSWM1
0162072553999992000072722004+47030+005430FM-15+0196LFGJ V0201301N002110300019N0112651N1+01701+01601999999ADDGA1021+013209999GA2081+030009999GF108991999999999999999999MA1101691999999MW1001REMMET052LFGJ 272200Z 13004KT 9999 SCT044 OVC100 17/16 Q1017;EQDQ01+000000PRSWM2
0139072553999992000072723004+47030+005430FM-15+0196LFGJ V0202001N002110108019N0112651N1+01701+01601999999ADDGA1071+010809999GF107991999999999999999999MA1101691999999MW1001REMMET045LFGJ 272300Z 20004KT 9999 BKN036 17/16 Q1017;EQDQ01+000000PRSWM2
0162072553999992000072800004+47030+005430FM-15+0196LFGJ V0202201N001010300019N0112651N1+01701+01601999999ADDGA1021+010809999GA2071+030009999GF107991999999999999999999MA1101591999999MW1001REMMET052LFGJ 280000Z 22002KT 9999 SCT036 BKN100 17/16 Q1016;EQDQ01+000000PRSWM2
0091072553999992000072818004+47030+005430FM-15+0196LFGJ V0201701N00151220001CN0099001N1+02001+01401999999ADDMA1101801999999MW1001REMMET039LFGJ 281800Z 17003KT CAVOK 20/14 Q1018;EQDQ01+000000PRSWM2
0091072553999992000072821004+47030+005430FM-15+0196LFGJ V0201001N00151220001CN0099001N1+01601+01401999999ADDMA1101901999999MW1001REMMET039LFGJ 282100Z 10003KT CAVOK 16/14 Q1019;EQDQ01+000000PRSWM2
0091072553999992000073118004+47030+005430FM-15+0196LFGJ V0200701N00311220001CN0099001N1+02501+01201999999ADDMA1102201999999MW1001REMMET039LFGJ 311800Z 07006KT CAVOK 25/12 Q1022;EQDQ01+000000PRSWM2
0091072553999992000080118004+47030+005430FM-15+0196LFGJ V0201901N00211220001CN0099001N1+02901+01601999999ADDMA1101691999999MW1001REMMET039LFGJ 011800Z 19004KT CAVOK 29/16 Q1017;EQDQ01+000000PRSWM2
0091072553999992000080119004+47030+005430FM-15+0196LFGJ V0201501N00211220001CN0099001N1+02601+01701999999ADDMA1101691999999MW1001REMMET039LFGJ 011900Z 15004KT CAVOK 26/17 Q1017;EQDQ01+000000PRSWM2
0091072553999992000080120004+47030+005430FM-15+0196LFGJ V0200701N00101220001CN0099001N1+02201+01801999999ADDMA1101801999999MW1001REMMET039LFGJ 012000Z 07002KT CAVOK 22/18 Q1018;EQDQ01+000000PRSWM2
0091072553999992000080121004+47030+005430FM-15+0196LFGJ V0201601N00311220001CN0099001N1+02001+01701999999ADDMA1101801999999MW1001REMMET039LFGJ 012100Z 16006KT CAVOK 20/17 Q1018;EQDQ01+000000PRSWM2
0091072553999992000080122004+47030+005430FM-15+0196LFGJ V0200801N00101220001CN0099001N1+01901+01701999999ADDMA1101801999999MW1001REMMET039LFGJ 012200Z 08002KT CAVOK 19/17 Q1018;EQDQ01+000000PRSWM2
0091072553999992000080123004+47030+005430FM-15+0196LFGJ V0201301N00211220001CN0099001N1+01801+01601999999ADDMA1101801999999MW1001REMMET039LFGJ 012300Z 13004KT CAVOK 18/16 Q1018;EQDQ01+000000PRSWM2
0091072553999992000080200004+47030+005430FM-15+0196LFGJ V0201801N00211220001CN0099001N1+01701+01601999999ADDMA1101691999999MW1001REMMET039LFGJ 020000Z 18004KT CAVOK 17/16 Q1017;EQDQ01+000000PRSWM2
0162072553999992000080318004+47030+005430FM-15+0196LFGJ V0201301N002112200019N0112651N1+01601+01401999999ADDGA1021+007509999GA2021+024009999GF104991999999999999999999MA1102001999999MW1001REMMET052LFGJ 031800Z 13004KT 9999 FEW025 SCT083 16/14 Q1020;EQDQ01+000000PRSWM2
0091072553999992000080319004+47030+005430FM-15+0196LFGJ V0201701N00211220001CN0099001N1+01601+01401999999ADDMA1102001999999MW1001REMMET039LFGJ 031900Z 17004KT CAVOK 16/14 Q1020;EQDQ01+000000PRSWM2
0091072553999992000080320004+47030+005430FM-15+0196LFGJ V0200601N00101220001CN0099001N1+01401+01401999999ADDMA1102001999999MW1001REMMET039LFGJ 032000Z 06002KT CAVOK 14/14 Q1020;EQDQ01+000000PRSWM2
0091072553999992000080321004+47030+005430FM-15+0196LFGJ V0200901N00151220001CN0099001N1+01301+01301999999ADDMA1102001999999MW1001REMMET039LFGJ 032100Z 09003KT CAVOK 13/13 Q1020;EQDQ01+000000PRSWM2
0156072553999992000080322004+47030+005430FM-15+0196LFGJ V0200801N001012200019N0112651N1+01201+01201999999ADDGF100991999999999999999999MA1102101999999MW1121REMMET062LFGJ 032200Z 08002KT 9999 R06/0800V1800U MIFG SKC 12/12 Q1021;EQDQ01+000003PRSWM1Q02    003PRSWM1
0141072553999992000080323004+47030+005430FM-15+0196LFGJ V0200901N001512200019N0112651N1+01101+01101999999ADDGF100991999999999999999999MA1102001999999MW1121REMMET047LFGJ 032300Z 09003KT 9999 MIFG SKC 11/11 Q1020;EQDQ01+000003PRSWM1Q02    003PRSWM1
0139072553999992000080400004+47030+005430FM-15+0196LFGJ V0201301N002112200019N0080001N1+01101+01101999999ADDGA1021+003909999GF102991999999999999999999MA1102001999999MW1001REMMET045LFGJ 040000Z 13004KT 8000 FEW013 11/11 Q1020;EQDQ01+000000PRSWM2
0165072553999992000080418004+47030+005430FM-15+0196LFGJ V0203601N003112200019N0112651N1+02001+01301999999ADDGA1021+009009999GA2021+015009029GF104991999999999999999999MA1102001999999MW1001REMMET055LFGJ 041800Z 36006KT 9999 FEW030 SCT050TCU 20/13 Q1020;EQDQ01+000000PRSWM2
0164072553999992000080420004+47030+005430FM-15+0196LFGJ V0203601N002112200019N0112651N1+01601+01301999999ADDGA1021+009009099GA2021+024009999GF104991999999999999999999MA1102001999999MW1001REMMET054LFGJ 042000Z 36004KT 9999 FEW030CB SCT083 16/13 Q1020;EQDQ01+000000PRSWM2
0091072553999992000080421004+47030+005430FM-15+0196LFGJ V0203401N00151220001CN0099001N1+01501+01301999999ADDMA1102101999999MW1001REMMET039LFGJ 042100Z 34003KT CAVOK 15/13 Q1021;EQDQ01+000000PRSWM2
0091072553999992000080422004+47030+005430FM-15+0196LFGJ V0203501N00211220001CN0099001N1+01501+01301999999ADDMA1102101999999MW1001REMMET039LFGJ 042200Z 35004KT CAVOK 15/13 Q1021;EQDQ01+000000PRSWM2
0091072553999992000080423004+47030+005430FM-15+0196LFGJ V0203601N00211220001CN0099001N1+01401+01301999999ADDMA1102101999999MW1001REMMET039LFGJ 042300Z 36004KT CAVOK 14/13 Q1021;EQDQ01+000000PRSWM2
0091072553999992000080500004+47030+005430FM-15+0196LFGJ V0203601N00361220001CN0099001N1+01401+01301999999ADDMA1102001999999MW1001REMMET039LFGJ 050000Z 36007KT CAVOK 14/13 Q1020;EQDQ01+000000PRSWM2
0141072553999992000080718004+47030+005430FM-15+0196LFGJ V0203601N004112200019N0112651N1+02401+01501999999ADDGA1021+015009099GF102991999999999999999999MA1102201999999MW1001REMMET047LFGJ 071800Z 36008KT 9999 FEW050CB 24/15 Q1022;EQDQ01+000000PRSWM2
0091072553999992000080719004+47030+005430FM-15+0196LFGJ V0200101N00311220001CN0099001N1+02001+01501999999ADDMA1102201999999MW1001REMMET039LFGJ 071900Z 01006KT CAVOK 20/15 Q1022;EQDQ01+000000PRSWM2
0091072553999992000080720004+47030+005430FM-15+0196LFGJ V0200201N00151220001CN0099001N1+01901+01501999999ADDMA1102201999999MW1001REMMET039LFGJ 072000Z 02003KT CAVOK 19/15 Q1022;EQDQ01+000000PRSWM2
0091072553999992000080721004+47030+005430FM-15+0196LFGJ V0200601N00151220001CN0099001N1+01801+01501999999ADDMA1102201999999MW1001REMMET039LFGJ 072100Z 06003KT CAVOK 18/15 Q1022;EQDQ01+000000PRSWM2
0091072553999992000080722004+47030+005430FM-15+0196LFGJ V0200401N00051220001CN0099001N1+01601+01501999999ADDMA1102201999999MW1001REMMET039LFGJ 072200Z 04001KT CAVOK 16/15 Q1022;EQDQ01+000000PRSWM2
0091072553999992000080723004+47030+005430FM-15+0196LFGJ V0200901N00151220001CN0099001N1+01501+01401999999ADDMA1102201999999MW1001REMMET039LFGJ 072300Z 09003KT CAVOK 15/14 Q1022;EQDQ01+000000PRSWM2
0091072553999992000080800004+47030+005430FM-15+0196LFGJ V0200401N00101220001CN0099001N1+01401+01401999999ADDMA1102201999999MW1001REMMET039LFGJ 080000Z 04002KT CAVOK 14/14 Q1022;EQDQ01+000000PRSWM2
0091072553999992000080818004+47030+005430FM-15+0196LFGJ V0200401N00311220001CN0099001N1+02301+01501999999ADDMA1102001999999MW1001REMMET039LFGJ 081800Z 04006KT CAVOK 23/15 Q1020;EQDQ01+000000PRSWM2
0091072553999992000080819004+47030+005430FM-15+0196LFGJ V0200801N00211220001CN0099001N1+02101+01601999999ADDMA1102001999999MW1001REMMET039LFGJ 081900Z 08004KT CAVOK 21/16 Q1020;EQDQ01+000000PRSWM2
0091072553999992000080820004+47030+005430FM-15+0196LFGJ V0200301N00151220001CN0099001N1+02001+01601999999ADDMA1102101999999MW1001REMMET039LFGJ 082000Z 03003KT CAVOK 20/16 Q1021;EQDQ01+000000PRSWM2
0091072553999992000080821004+47030+005430FM-15+0196LFGJ V0200601N00101220001CN0099001N1+01901+01701999999ADDMA1102101999999MW1001REMMET039LFGJ 082100Z 06002KT CAVOK 19/17 Q1021;EQDQ01+000000PRSWM2
0091072553999992000080822004+47030+005430FM-15+0196LFGJ V0201101N00101220001CN0099001N1+01801+01601999999ADDMA1102101999999MW1001REMMET039LFGJ 082200Z 11002KT CAVOK 18/16 Q1021;EQDQ01+000000PRSWM2
0097072553999992000080918004+47030+005430FM-15+0196LFGJ V0200101N00211220001CN0099001N1+02601+01401999999ADDMA1101901999999MW1001REMMET045LFGJ 091800Z 01004KT CAVOK 26/14 Q1019 NOSIG;EQDQ01+000000PRSWM2
0091072553999992000080919004+47030+005430FM-15+0196LFGJ V0200501N00101220001CN0099001N1+02401+01601999999ADDMA1101901999999MW1001REMMET039LFGJ 091900Z 05002KT CAVOK 24/16 Q1019;EQDQ01+000000PRSWM2
0091072553999992000080920004+47030+005430FM-15+0196LFGJ V0200501N00101220001CN0099001N1+02001+01601999999ADDMA1102001999999MW1001REMMET039LFGJ 092000Z 05002KT CAVOK 20/16 Q1020;EQDQ01+000000PRSWM2
0091072553999992000080921004+47030+005430FM-15+0196LFGJ V0200601N00101220001CN0099001N1+01901+01601999999ADDMA1102001999999MW1001REMMET039LFGJ 092100Z 06002KT CAVOK 19/16 Q1020;EQDQ01+000000PRSWM2
0091072553999992000080922004+47030+005430FM-15+0196LFGJ V0200501N00101220001CN0099001N1+01701+01601999999ADDMA1102001999999MW1001REMMET039LFGJ 092200Z 05002KT CAVOK 17/16 Q1020;EQDQ01+000000PRSWM2
0091072553999992000080923004+47030+005430FM-15+0196LFGJ V0200801N00211220001CN0099001N1+01701+01501999999ADDMA1102001999999MW1001REMMET039LFGJ 092300Z 08004KT CAVOK 17/15 Q1020;EQDQ01+000000PRSWM2
0091072553999992000081020004+47030+005430FM-15+0196LFGJ V0209999C00001220001CN0099001N1+02201+01701999999ADDMA1101691999999MW1001REMMET039LFGJ 102000Z 00000KT CAVOK 22/17 Q1017;EQDQ01+000000PRSWM2
0091072553999992000081021004+47030+005430FM-15+0196LFGJ V0200801N00101220001CN0099001N1+01901+01601999999ADDMA1101691999999MW1001REMMET039LFGJ 102100Z 08002KT CAVOK 19/16 Q1017;EQDQ01+000000PRSWM2
0091072553999992000081022004+47030+005430FM-15+0196LFGJ V0200701N00211220001CN0099001N1+01801+01601999999ADDMA1101691999999MW1001REMMET039LFGJ 102200Z 07004KT CAVOK 18/16 Q1017;EQDQ01+000000PRSWM2
0091072553999992000081023004+47030+005430FM-15+0196LFGJ V0200801N00151220001CN0099001N1+01701+01601999999ADDMA1101691999999MW1001REMMET039LFGJ 102300Z 08003KT CAVOK 17/16 Q1017;EQDQ01+000000PRSWM2
0091072553999992000081100004+47030+005430FM-15+0196LFGJ V0200801N00211220001CN0099001N1+01601+01501999999ADDMA1101691999999MW1001REMMET039LFGJ 110000Z 08004KT CAVOK 16/15 Q1017;EQDQ01+000000PRSWM2
0091072553999992000081119004+47030+005430FM-15+0196LFGJ V0200801N00101220001CN0099001N1+02601+01801999999ADDMA1101191999999MW1001REMMET039LFGJ 111900Z 08002KT CAVOK 26/18 Q1012;EQDQ01+000000PRSWM2
0091072553999992000081121004+47030+005430FM-15+0196LFGJ V0200701N00151220001CN0099001N1+02101+01801999999ADDMA1101291999999MW1001REMMET039LFGJ 112100Z 07003KT CAVOK 21/18 Q1013;EQDQ01+000000PRSWM2
0091072553999992000081122004+47030+005430FM-15+0196LFGJ V0200701N00151220001CN0099001N1+02001+01801999999ADDMA1101291999999MW1001REMMET039LFGJ 112200Z 07003KT CAVOK 20/18 Q1013;EQDQ01+000000PRSWM2
0091072553999992000081123004+47030+005430FM-15+0196LFGJ V0200801N00211220001CN0099001N1+01901+01801999999ADDMA1101291999999MW1001REMMET039LFGJ 112300Z 08004KT CAVOK 19/18 Q1013;EQDQ01+000000PRSWM2
0091072553999992000081200004+47030+005430FM-15+0196LFGJ V0200101N00151220001CN0099001N1+01801+01701999999ADDMA1101291999999MW1001REMMET039LFGJ 120000Z 01003KT CAVOK 18/17 Q1013;EQDQ01+000000PRSWM2
0091072553999992000081618004+47030+005430FM-15+0196LFGJ V0202001N00211220001CN0099001N1+02801+01701999999ADDMA1101491999999MW1001REMMET039LFGJ 161800Z 20004KT CAVOK 28/17 Q1015;EQDQ01+000000PRSWM2
0091072553999992000081619004+47030+005430FM-15+0196LFGJ V0202001N00101220001CN0099001N1+02501+01701999999ADDMA1101491999999MW1001REMMET039LFGJ 161900Z 20002KT CAVOK 25/17 Q1015;EQDQ01+000000PRSWM2
0091072553999992000081620004+47030+005430FM-15+0196LFGJ V0200601N00101220001CN0099001N1+02101+01601999999ADDMA1101491999999MW1001REMMET039LFGJ 162000Z 06002KT CAVOK 21/16 Q1015;EQDQ01+000000PRSWM2
0091072553999992000081621004+47030+005430FM-15+0196LFGJ V0200801N00211220001CN0099001N1+01901+01701999999ADDMA1101491999999MW1001REMMET039LFGJ 162100Z 08004KT CAVOK 19/17 Q1015;EQDQ01+000000PRSWM2
0091072553999992000081622004+47030+005430FM-15+0196LFGJ V0200801N00211220001CN0099001N1+01901+01701999999ADDMA1101491999999MW1001REMMET039LFGJ 162200Z 08004KT CAVOK 19/17 Q1015;EQDQ01+000000PRSWM2
0091072553999992000081718004+47030+005430FM-15+0196LFGJ V0202101N00151220001CN0099001N1+02401+01701999999ADDMA1101491999999MW1001REMMET039LFGJ 171800Z 21003KT CAVOK 24/17 Q1015;EQDQ01+000000PRSWM2
0091072553999992000081719004+47030+005430FM-15+0196LFGJ V0201601N00211220001CN0099001N1+02301+01801999999ADDMA1101491999999MW1001REMMET039LFGJ 171900Z 16004KT CAVOK 23/18 Q1015;EQDQ01+000000PRSWM2
0185072553999992000081720004+47030+005430FM-15+0196LFGJ V0209999C00001220001CN0112651N1+02201+01601999999ADDGA1021+015009099GA2071+015009999GF107991999999999999999999MA1101491999999MW1171REMMET059LFGJ 172000Z 00000KT 9999 VCTS SCT050CB BKN050 22/16 Q1015;EQDQ01+000003PRSWM1Q02    003PRSWM1
0185072553999992000081721004+47030+005430FM-15+0196LFGJ V0209999C00001220001CN0112651N1+02001+01801999999ADDGA1021+015009099GA2071+015009999GF107991999999999999999999MA1101591999999MW1171REMMET059LFGJ 172100Z 00000KT 9999 VCTS SCT050CB BKN050 20/18 Q1016;EQDQ01+000003PRSWM1Q02    003PRSWM1
0192072553999992000081722004+47030+005430FM-15+0196LFGJ V0200701N001010150019N0060001N1+02001+01901999999ADDGA1021+003909999GA2071+015009099GF107991999999999999999999MA1101491999999MW1801MW2951REMMET060LFGJ 172200Z 07002KT 6000 -TSRA FEW013 BKN050CB 20/19 Q1015;EQDQ01+000003PRSWM1Q02    003PRSWM1
0091072553999992000081723004+47030+005430FM-15+0196LFGJ V0200201N00211220001CN0099001N1+02001+01701999999ADDMA1101591999999MW1001REMMET039LFGJ 172300Z 02004KT CAVOK 20/17 Q1016;EQDQ01+000000PRSWM2
0208072553999992000081800004+47030+005430FM-15+0196LFGJ V0200901N002110330019N0112651N1+01901+01801999999ADDGA1021+015009099GA2021+015009999GA3071+033009999GF107991999999999999999999MA1101491999999MW1171REMMET066LFGJ 180000Z 09004KT 9999 VCTS FEW050CB SCT050 BKN110 19/18 Q1015;EQDQ01+000003PRSWM1Q02    003PRSWM1
0091072553999992000081818004+47030+005430FM-15+0196LFGJ V0201201N00211220001CN0099001N1+02501+02101999999ADDMA1101021999999MW1001REMMET039LFGJ 181800Z 12004KT CAVOK 25/21 Q1010;EQDQ01+000000PRSWM2
0187072553999992000081819004+47030+005430FM-15+0196LFGJ V0200301N002110750019N0112651N1+02401+02001999999ADDGA1021+015009099GA2021+015009999GA3081+075009999GF108991999999999999999999MA1101081999999MW1001REMMET061LFGJ 181900Z 03004KT 9999 FEW050CB SCT050 OVC250 24/20 Q1011;EQDQ01+000000PRSWM2
0091072553999992000081820004+47030+005430FM-15+0196LFGJ V0200501N00101220001CN0099001N1+02101+02001999999ADDMA1101081999999MW1001REMMET039LFGJ 182000Z 05002KT CAVOK 21/20 Q1011;EQDQ01+000000PRSWM2
0091072553999992000081821004+47030+005430FM-15+0196LFGJ V0201301N00261220001CN0099001N1+02001+01901999999ADDMA1101081999999MW1001REMMET039LFGJ 182100Z 13005KT CAVOK 20/19 Q1011;EQDQ01+000000PRSWM2
0091072553999992000081822004+47030+005430FM-15+0196LFGJ V0201801N00151220001CN0099001N1+02001+01701999999ADDMA1101191999999MW1001REMMET039LFGJ 182200Z 18003KT CAVOK 20/17 Q1012;EQDQ01+000000PRSWM2
0091072553999992000081823004+47030+005430FM-15+0196LFGJ V0201901N00261220001CN0099001N1+02001+01401999999ADDMA1101191999999MW1001REMMET039LFGJ 182300Z 19005KT CAVOK 20/14 Q1012;EQDQ01+000000PRSWM2
0091072553999992000081900004+47030+005430FM-15+0196LFGJ V0201701N00151220001CN0099001N1+01701+01501999999ADDMA1101191999999MW1001REMMET039LFGJ 190000Z 17003KT CAVOK 17/15 Q1012;EQDQ01+000000PRSWM2
0187072553999992000082118004+47030+005430FM-15+0196LFGJ V0201701N006210180019N0112651N1+01701+01601999999ADDGA1021+013809099GA2071+018009999GA3081+030009999GF108991999999999999999999MA1101591999999MW1001REMMET061LFGJ 211800Z 17012KT 9999 FEW046CB BKN060 OVC100 17/16 Q1016;EQDQ01+000000PRSWM2
0185072553999992000082119004+47030+005430FM-15+0196LFGJ V0202601N003110069019N0112651N1+01701+01601999999ADDGA1021+002109999GA2071+006909999GA3081+030009999GF108991999999999999999999MA1101691999999MW1001REMMET059LFGJ 211900Z 26006KT 9999 FEW007 BKN023 OVC100 17/16 Q1017;EQDQ01+000000PRSWM2
0162072553999992000082120004+47030+005430FM-15+0196LFGJ V0202101N006210300019N0112651N1+01701+01601999999ADDGA1021+002709999GA2081+030009999GF108991999999999999999999MA1101801999999MW1001REMMET052LFGJ 212000Z 21012KT 9999 FEW009 OVC100 17/16 Q1018;EQDQ01+000000PRSWM2
0139072553999992000082121004+47030+005430FM-15+0196LFGJ V0201801N003112200019N0112651N1+01601+01601999999ADDGA1021+002709999GF102991999999999999999999MA1101801999999MW1001REMMET045LFGJ 212100Z 18006KT 9999 FEW009 16/16 Q1018;EQDQ01+000000PRSWM2
0139072553999992000082122004+47030+005430FM-15+0196LFGJ V0202001N003112200019N0112651N1+01501+01501999999ADDGA1021+001809999GF104991999999999999999999MA1101901999999MW1001REMMET045LFGJ 212200Z 20006KT 9999 SCT006 15/15 Q1019;EQDQ01+000000PRSWM2
0139072553999992000082123004+47030+005430FM-15+0196LFGJ V0202001N002112200019N0080001N1+01401+01401999999ADDGA1021+001809999GF102991999999999999999999MA1101901999999MW1001REMMET045LFGJ 212300Z 20004KT 8000 FEW006 14/14 Q1019;EQDQ01+000000PRSWM2
0091072553999992000082200004+47030+005430FM-15+0196LFGJ V0209999C000012200019N0500001N1+99999+99999999999ADDMW1001REMMET054LFGJ 220000Z 00000KT 500N R06/1000 FG SKC 13/13 Q1020;EQDQ01+000000PRSWM2
0091072553999992000082218004+47030+005430FM-15+0196LFGJ V0200701N00311220001CN0099001N1+02201+01601999999ADDMA1101691999999MW1001REMMET039LFGJ 221800Z 07006KT CAVOK 22/16 Q1017;EQDQ01+000000PRSWM2
0091072553999992000082219004+47030+005430FM-15+0196LFGJ V0203601N00211220001CN0099001N1+01901+01501999999ADDMA1101691999999MW1001REMMET039LFGJ 221900Z 36004KT CAVOK 19/15 Q1017;EQDQ01+000000PRSWM2
0091072553999992000082220004+47030+005430FM-15+0196LFGJ V0200101N00261220001CN0099001N1+01701+01501999999ADDMA1101801999999MW1001REMMET039LFGJ 222000Z 01005KT CAVOK 17/15 Q1018;EQDQ01+000000PRSWM2
0091072553999992000082221004+47030+005430FM-15+0196LFGJ V0200201N00411220001CN0099001N1+01701+01401999999ADDMA1101691999999MW1001REMMET039LFGJ 222100Z 02008KT CAVOK 17/14 Q1017;EQDQ01+000000PRSWM2
0091072553999992000082222004+47030+005430FM-15+0196LFGJ V0200701N00261220001CN0099001N1+01601+01401999999ADDMA1101691999999MW1001REMMET039LFGJ 222200Z 07005KT CAVOK 16/14 Q1017;EQDQ01+000000PRSWM2
0091072553999992000082223004+47030+005430FM-15+0196LFGJ V0200601N00151220001CN0099001N1+01601+01401999999ADDMA1101691999999MW1001REMMET039LFGJ 222300Z 06003KT CAVOK 16/14 Q1017;EQDQ01+000000PRSWM2
0091072553999992000082300004+47030+005430FM-15+0196LFGJ V0203601N00101220001CN0099001N1+01401+01401999999ADDMA1101691999999MW1001REMMET039LFGJ 230000Z 36002KT CAVOK 14/14 Q1017;EQDQ01+000000PRSWM2
0091072553999992000082318004+47030+005430FM-15+0196LFGJ V0200401N00411220001CN0099001N1+02501+01601999999ADDMA1101801999999MW1001REMMET039LFGJ 231800Z 04008KT CAVOK 25/16 Q1018;EQDQ01+000000PRSWM2
0091072553999992000082319004+47030+005430FM-15+0196LFGJ V0200201N00311220001CN0099001N1+02201+01601999999ADDMA1101801999999MW1001REMMET039LFGJ 231900Z 02006KT CAVOK 22/16 Q1018;EQDQ01+000000PRSWM2
0091072553999992000082320004+47030+005430FM-15+0196LFGJ V0200301N00101220001CN0099001N1+02001+01501999999ADDMA1101901999999MW1001REMMET039LFGJ 232000Z 03002KT CAVOK 20/15 Q1019;EQDQ01+000000PRSWM2
0091072553999992000082321004+47030+005430FM-15+0196LFGJ V0200101N00101220001CN0099001N1+01901+01601999999ADDMA1101901999999MW1001REMMET039LFGJ 232100Z 01002KT CAVOK 19/16 Q1019;EQDQ01+000000PRSWM2
0091072553999992000082322004+47030+005430FM-15+0196LFGJ V0203601N00101220001CN0099001N1+01801+01601999999ADDMA1101901999999MW1001REMMET039LFGJ 232200Z 36002KT CAVOK 18/16 Q1019;EQDQ01+000000PRSWM2
0091072553999992000082323004+47030+005430FM-15+0196LFGJ V0200301N00101220001CN0099001N1+01701+01601999999ADDMA1101901999999MW1001REMMET039LFGJ 232300Z 03002KT CAVOK 17/16 Q1019;EQDQ01+000000PRSWM2
0091072553999992000082400004+47030+005430FM-15+0196LFGJ V0203401N00151220001CN0099001N1+01601+01501999999ADDMA1102001999999MW1001REMMET039LFGJ 240000Z 34003KT CAVOK 16/15 Q1020;EQDQ01+000000PRSWM2
0091072553999992000082418004+47030+005430FM-15+0196LFGJ V0200601N00261220001CN0099001N1+02601+01801999999ADDMA1102101999999MW1001REMMET039LFGJ 241800Z 06005KT CAVOK 26/18 Q1021;EQDQ01+000000PRSWM2
0091072553999992000082419004+47030+005430FM-15+0196LFGJ V0200101N00311220001CN0099001N1+02201+01601999999ADDMA1102101999999MW1001REMMET039LFGJ 241900Z 01006KT CAVOK 22/16 Q1021;EQDQ01+000000PRSWM2
0091072553999992000082420004+47030+005430FM-15+0196LFGJ V0200401N00411220001CN0099001N1+02001+01601999999ADDMA1102101999999MW1001REMMET039LFGJ 242000Z 04008KT CAVOK 20/16 Q1021;EQDQ01+000000PRSWM2
0091072553999992000082421004+47030+005430FM-15+0196LFGJ V0200601N00411220001CN0099001N1+02001+01701999999ADDMA1102101999999MW1001REMMET039LFGJ 242100Z 06008KT CAVOK 20/17 Q1021;EQDQ01+000000PRSWM2
0091072553999992000082422004+47030+005430FM-15+0196LFGJ V0200801N00311220001CN0099001N1+01901+01701999999ADDMA1102001999999MW1001REMMET039LFGJ 242200Z 08006KT CAVOK 19/17 Q1020;EQDQ01+000000PRSWM2
0091072553999992000082423004+47030+005430FM-15+0196LFGJ V0200401N00211220001CN0099001N1+01801+01601999999ADDMA1102101999999MW1001REMMET039LFGJ 242300Z 04004KT CAVOK 18/16 Q1021;EQDQ01+000000PRSWM2
0091072553999992000082500004+47030+005430FM-15+0196LFGJ V0200601N00311220001CN0099001N1+01701+01601999999ADDMA1102001999999MW1001REMMET039LFGJ 250000Z 06006KT CAVOK 17/16 Q1020;EQDQ01+000000PRSWM2
0091072553999992000082518004+47030+005430FM-15+0196LFGJ V0200601N00411220001CN0099001N1+02701+01601999999ADDMA1101491999999MW1001REMMET039LFGJ 251800Z 06008KT CAVOK 27/16 Q1015;EQDQ01+000000PRSWM2
0091072553999992000082519004+47030+005430FM-15+0196LFGJ V0200601N00411220001CN0099001N1+02401+01601999999ADDMA1101491999999MW1001REMMET039LFGJ 251900Z 06008KT CAVOK 24/16 Q1015;EQDQ01+000000PRSWM2
0091072553999992000082520004+47030+005430FM-15+0196LFGJ V0200601N00511220001CN0099001N1+02301+01601999999ADDMA1101391999999MW1001REMMET039LFGJ 252000Z 06010KT CAVOK 23/16 Q1014;EQDQ01+000000PRSWM2
0091072553999992000082521004+47030+005430FM-15+0196LFGJ V0200501N00411220001CN0099001N1+02201+01601999999ADDMA1101391999999MW1001REMMET039LFGJ 252100Z 05008KT CAVOK 22/16 Q1014;EQDQ01+000000PRSWM2
0091072553999992000082522004+47030+005430FM-15+0196LFGJ V0200501N00411220001CN0099001N1+02101+01601999999ADDMA1101391999999MW1001REMMET039LFGJ 252200Z 05008KT CAVOK 21/16 Q1014;EQDQ01+000000PRSWM2
0091072553999992000082523004+47030+005430FM-15+0196LFGJ V0200701N00311220001CN0099001N1+01901+01601999999ADDMA1101391999999MW1001REMMET039LFGJ 252300Z 07006KT CAVOK 19/16 Q1014;EQDQ01+000000PRSWM2
0091072553999992000082600004+47030+005430FM-15+0196LFGJ V0200601N00261220001CN0099001N1+01801+01601999999ADDMA1101291999999MW1001REMMET039LFGJ 260000Z 06005KT CAVOK 18/16 Q1013;EQDQ01+000000PRSWM2
0091072553999992000082818004+47030+005430FM-15+0196LFGJ V0200101N00151220001CN0099001N1+02001+01301999999ADDMA1102101999999MW1001REMMET039LFGJ 281800Z 01003KT CAVOK 20/13 Q1021;EQDQ01+000000PRSWM2
0091072553999992000082819004+47030+005430FM-15+0196LFGJ V0200501N00101220001CN0099001N1+01701+01401999999ADDMA1102101999999MW1001REMMET039LFGJ 281900Z 05002KT CAVOK 17/14 Q1021;EQDQ01+000000PRSWM2
0091072553999992000082820004+47030+005430FM-15+0196LFGJ V0201501N00051220001CN0099001N1+01601+01501999999ADDMA1102101999999MW1001REMMET039LFGJ 282000Z 15001KT CAVOK 16/15 Q1021;EQDQ01+000000PRSWM2
0091072553999992000082821004+47030+005430FM-15+0196LFGJ V0209999C00001220001CN0099001N1+01501+01401999999ADDMA1102101999999MW1001REMMET039LFGJ 282100Z 00000KT CAVOK 15/14 Q1021;EQDQ01+000000PRSWM2
0091072553999992000082822004+47030+005430FM-15+0196LFGJ V0200601N00101220001CN0099001N1+01501+01401999999ADDMA1102101999999MW1001REMMET039LFGJ 282200Z 06002KT CAVOK 15/14 Q1021;EQDQ01+000000PRSWM2
0091072553999992000082823004+47030+005430FM-15+0196LFGJ V0200501N00101220001CN0099001N1+01401+01301999999ADDMA1102101999999MW1001REMMET039LFGJ 282300Z 05002KT CAVOK 14/13 Q1021;EQDQ01+000000PRSWM2
0091072553999992000082900004+47030+005430FM-15+0196LFGJ V0200101N00051220001CN0099001N1+01301+01201999999ADDMA1102101999999MW1001REMMET039LFGJ 290000Z 01001KT CAVOK 13/12 Q1021;EQDQ01+000000PRSWM2
0091072553999992000082918004+47030+005430FM-15+0196LFGJ V0200301N00211220001CN0099001N1+02001+01401999999ADDMA1101801999999MW1001REMMET039LFGJ 291800Z 03004KT CAVOK 20/14 Q1018;EQDQ01+000000PRSWM2
0091072553999992000082919004+47030+005430FM-15+0196LFGJ V0200201N00211220001CN0099001N1+01801+01401999999ADDMA1101801999999MW1001REMMET039LFGJ 291900Z 02004KT CAVOK 18/14 Q1018;EQDQ01+000000PRSWM2
0091072553999992000082920004+47030+005430FM-15+0196LFGJ V0200301N00211220001CN0099001N1+01701+01301999999ADDMA1101801999999MW1001REMMET039LFGJ 292000Z 03004KT CAVOK 17/13 Q1018;EQDQ01+000000PRSWM2
0091072553999992000082921004+47030+005430FM-15+0196LFGJ V0200601N00211220001CN0099001N1+01601+01401999999ADDMA1101801999999MW1001REMMET039LFGJ 292100Z 06004KT CAVOK 16/14 Q1018;EQDQ01+000000PRSWM2
0091072553999992000082922004+47030+005430FM-15+0196LFGJ V0200501N00311220001CN0099001N1+01701+01401999999ADDMA1101801999999MW1001REMMET039LFGJ 292200Z 05006KT CAVOK 17/14 Q1018;EQDQ01+000000PRSWM2
0091072553999992000082923004+47030+005430FM-15+0196LFGJ V0200401N00311220001CN0099001N1+01701+01301999999ADDMA1101691999999MW1001REMMET039LFGJ 292300Z 04006KT CAVOK 17/13 Q1017;EQDQ01+000000PRSWM2
0091072553999992000083000004+47030+005430FM-15+0196LFGJ V0201001N00211220001CN0099001N1+01701+01301999999ADDMA1101691999999MW1001REMMET039LFGJ 300000Z 10004KT CAVOK 17/13 Q1017;EQDQ01+000000PRSWM2
0162072553999992000083018004+47030+005430FM-15+0196LFGJ V0201301N001010180019N0112651N1+01901+01701999999ADDGA1021+010809999GA2071+018009999GF107991999999999999999999MA1101191999999MW1001REMMET052LFGJ 301800Z 13002KT 9999 FEW036 BKN060 19/17 Q1012;EQDQ01+000000PRSWM2
0162072553999992000083019004+47030+005430FM-15+0196LFGJ V0200201N000510180019N0112651N1+01801+01701999999ADDGA1021+009609999GA2071+018009999GF107991999999999999999999MA1101291999999MW1001REMMET052LFGJ 301900Z 02001KT 9999 FEW032 BKN060 18/17 Q1013;EQDQ01+000000PRSWM2
0159072553999992000083020004+47030+005430FM-15+0196LFGJ V0203001N001010102019N0112651N1+01801+01701999999ADDGA1071+010209999GF107991999999999999999999MA1101291999999MW1611REMMET049LFGJ 302000Z 30002KT 9999 -RA BKN034 18/17 Q1013;EQDQ01+000003PRSWM1Q02    003PRSWM1
0162072553999992000083021004+47030+005430FM-15+0196LFGJ V0201401N003110180019N0112651N1+01701+01701999999ADDGA1021+008109999GA2071+018009999GF107991999999999999999999MA1101291999999MW1001REMMET052LFGJ 302100Z 14006KT 9999 FEW027 BKN060 17/17 Q1013;EQDQ01+000000PRSWM2
0159072553999992000083022004+47030+005430FM-15+0196LFGJ V0202901N001010069019N0080001N1+01701+01701999999ADDGA1071+006909999GF107991999999999999999999MA1101191999999MW1611REMMET049LFGJ 302200Z 29002KT 8000 -RA BKN023 17/17 Q1012;EQDQ01+000003PRSWM1Q02    003PRSWM1
0185072553999992000083023004+47030+005430FM-15+0196LFGJ V0201001N001010180019N0060001N1+01601+01601999999ADDGA1021+013209999GA2071+018009999GA3081+030009999GF108991999999999999999999MA1101081999999MW1001REMMET059LFGJ 302300Z 10002KT 6000 FEW044 BKN060 OVC100 16/16 Q1011;EQDQ01+000000PRSWM2
0139072553999992000083100004+47030+005430FM-15+0196LFGJ V0209999C000010108019N0060001N1+01701+01601999999ADDGA1081+010809999GF108991999999999999999999MA1101081999999MW1001REMMET045LFGJ 310000Z 00000KT 6000 OVC036 17/16 Q1011;EQDQ01+000000PRSWM2
0162072553999992000083118004+47030+005430FM-15+0196LFGJ V0202201N002110144019N0112651N1+01701+01601999999ADDGA1021+007209999GA2071+014409999GF107991999999999999999999MA1101081999999MW1001REMMET052LFGJ 311800Z 22004KT 9999 FEW024 BKN048 17/16 Q1011;EQDQ01+000000PRSWM2
0162072553999992000083119004+47030+005430FM-15+0196LFGJ V0201901N002112200019N0112651N1+01601+01601999999ADDGA1021+010509999GA2021+012909999GF104991999999999999999999MA1101081999999MW1001REMMET052LFGJ 311900Z 19004KT 9999 FEW035 SCT043 16/16 Q1011;EQDQ01+000000PRSWM2
0160072553999992000083120004+47030+005430FM-15+0196LFGJ V0201601N002112200019N0080001N1+01501+01501999999ADDGA1021+069009999GF102991999999999999999999MA1101191999999MW1401REMMET050LFGJ 312000Z 16004KT 8000 VCFG FEW230 15/15 Q1012;EQDQ01+000003PRSWM1Q02    003PRSWM1
0189072553999992000083121004+47030+005430FM-15+0196LFGJ V0201601N001012200019N0040001N1+01501+01401999999ADDED199U08009GA1021+069009999GF102991999999999999999999MA1101191999999MW1101MW2121REMMET062LFGJ 312100Z 16002KT 4000 R06/0800 MIFG BR FEW230 15/14 Q1012;EQDQ01+000003PRSWM1Q02    003PRSWM1
0169072553999992000083122004+47030+005430FM-15+0196LFGJ V0201601N001012200019N0040001N1+01401+01401999999ADDGA1021+007809999GF102991999999999999999999MA1101191999999MW1101MW2121REMMET053LFGJ 312200Z 16002KT 4000 MIFG BR FEW026 14/14 Q1012;EQDQ01+000003PRSWM1Q02    003PRSWM1
0158072553999992000083123004+47030+005430FM-15+0196LFGJ V0202101N001012200019N0040001N1+01401+01401999999ADDGA1021+008709999GF104991999999999999999999MA1101191999999MW1101REMMET048LFGJ 312300Z 21002KT 4000 BR SCT029 14/14 Q1012;EQDQ01+000003PRSWM1Q02    003PRSWM1
0173072553999992000090100004+47030+005430FM-15+0196LFGJ V0201401N001012200019N0040001N1+01401+01401999999ADDGA1021+018009999GF104991999999999999999999MA1101191999999MW1101REMMET063LFGJ 010000Z 14002KT 4000 R06/1400VP2000 BR SCT060 14/14 Q1012;EQDQ01+000003PRSWM1Q02    003PRSWM1
0091072553999992000090118004+47030+005430FM-15+0196LFGJ V0202701N00511220001CN0099001N1+01801+01201999999ADDMA1100911999999MW1001REMMET039LFGJ 011800Z 27010KT CAVOK 18/12 Q1009;EQDQ01+000000PRSWM2
0162072553999992000090119004+47030+005430FM-15+0196LFGJ V0202501N003110180019N0112651N1+01601+01301999999ADDGA1021+012909999GA2071+018009999GF107991999999999999999999MA1101021999999MW1001REMMET052LFGJ 011900Z 25006KT 9999 FEW043 BKN060 16/13 Q1010;EQDQ01+000000PRSWM2
0162072553999992000090120004+47030+005430FM-15+0196LFGJ V0202101N003110180019N0112651N1+01501+01301999999ADDGA1021+012909999GA2071+018009999GF107991999999999999999999MA1101081999999MW1001REMMET052LFGJ 012000Z 21006KT 9999 FEW043 BKN060 15/13 Q1011;EQDQ01+000000PRSWM2
0091072553999992000090121004+47030+005430FM-15+0196LFGJ V0202401N00261220001CN0099001N1+01401+01301999999ADDMA1101081999999MW1001REMMET039LFGJ 012100Z 24005KT CAVOK 14/13 Q1011;EQDQ01+000000PRSWM2
0091072553999992000090122004+47030+005430FM-15+0196LFGJ V0202001N00361220001CN0099001N1+01401+01201999999ADDMA1101191999999MW1001REMMET039LFGJ 012200Z 20007KT CAVOK 14/12 Q1012;EQDQ01+000000PRSWM2
0091072553999992000090123004+47030+005430FM-15+0196LFGJ V0201901N00261220001CN0099001N1+01401+01301999999ADDMA1101191999999MW1001REMMET039LFGJ 012300Z 19005KT CAVOK 14/13 Q1012;EQDQ01+000000PRSWM2
0091072553999992000090200004+47030+005430FM-15+0196LFGJ V0202001N00311220001CN0099001N1+01401+01201999999ADDMA1101191999999MW1001REMMET039LFGJ 020000Z 20006KT CAVOK 14/12 Q1012;EQDQ01+000000PRSWM2
0091072553999992000090418004+47030+005430FM-15+0196LFGJ V0200201N00211220001CN0099001N1+01501+01001999999ADDMA1102201999999MW1001REMMET039LFGJ 041800Z 02004KT CAVOK 15/10 Q1022;EQDQ01+000000PRSWM2
0091072553999992000090419004+47030+005430FM-15+0196LFGJ V0200101N00311220001CN0099001N1+01301+01001999999ADDMA1102301999999MW1001REMMET039LFGJ 041900Z 01006KT CAVOK 13/10 Q1023;EQDQ01+000000PRSWM2
0091072553999992000090420004+47030+005430FM-15+0196LFGJ V0200301N00211220001CN0099001N1+01301+01001999999ADDMA1102301999999MW1001REMMET039LFGJ 042000Z 03004KT CAVOK 13/10 Q1023;EQDQ01+000000PRSWM2
0139072553999992000090421004+47030+005430FM-15+0196LFGJ V0203301N003112200019N0112651N1+01301+01001999999ADDGA1021+013509999GF102991999999999999999999MA1102401999999MW1001REMMET045LFGJ 042100Z 33006KT 9999 FEW045 13/10 Q1024;EQDQ01+000000PRSWM2
0091072553999992000090422004+47030+005430FM-15+0196LFGJ V0200301N00211220001CN0099001N1+01201+01001999999ADDMA1102401999999MW1001REMMET039LFGJ 042200Z 03004KT CAVOK 12/10 Q1024;EQDQ01+000000PRSWM2
0091072553999992000090423004+47030+005430FM-15+0196LFGJ V0203601N00211220001CN0099001N1+01101+01001999999ADDMA1102401999999MW1001REMMET039LFGJ 042300Z 36004KT CAVOK 11/10 Q1024;EQDQ01+000000PRSWM2
0091072553999992000090500004+47030+005430FM-15+0196LFGJ V0200201N00311220001CN0099001N1+01101+01001999999ADDMA1102401999999MW1001REMMET039LFGJ 050000Z 02006KT CAVOK 11/10 Q1024;EQDQ01+000000PRSWM2
0091072553999992000090518004+47030+005430FM-15+0196LFGJ V0200201N00211220001CN0099001N1+01701+01101999999ADDMA1102301999999MW1001REMMET039LFGJ 051800Z 02004KT CAVOK 17/11 Q1023;EQDQ01+000000PRSWM2
0091072553999992000090519004+47030+005430FM-15+0196LFGJ V0200501N00151220001CN0099001N1+01401+01101999999ADDMA1102301999999MW1001REMMET039LFGJ 051900Z 05003KT CAVOK 14/11 Q1023;EQDQ01+000000PRSWM2
0091072553999992000090520004+47030+005430FM-15+0196LFGJ V0200501N00101220001CN0099001N1+01301+01101999999ADDMA1102301999999MW1001REMMET039LFGJ 052000Z 05002KT CAVOK 13/11 Q1023;EQDQ01+000000PRSWM2
0091072553999992000090521004+47030+005430FM-15+0196LFGJ V0200701N00211220001CN0099001N1+01101+01001999999ADDMA1102301999999MW1001REMMET039LFGJ 052100Z 07004KT CAVOK 11/10 Q1023;EQDQ01+000000PRSWM2
0091072553999992000090522004+47030+005430FM-15+0196LFGJ V0200801N00101220001CN0099001N1+01101+01001999999ADDMA1102201999999MW1001REMMET039LFGJ 052200Z 08002KT CAVOK 11/10 Q1022;EQDQ01+000000PRSWM2
0091072553999992000090523004+47030+005430FM-15+0196LFGJ V0209999C00001220001CN0099001N1+01001+01001999999ADDMA1102201999999MW1001REMMET039LFGJ 052300Z 00000KT CAVOK 10/10 Q1022;EQDQ01+000000PRSWM2
0091072553999992000090600004+47030+005430FM-15+0196LFGJ V0209999C00001220001CN0099001N1+01001+01001999999ADDMA1102201999999MW1001REMMET039LFGJ 060000Z 00000KT CAVOK 10/10 Q1022;EQDQ01+000000PRSWM2
0091072553999992000090618004+47030+005430FM-15+0196LFGJ V0201701N00311220001CN0099001N1+01601+01401999999ADDMA1101591999999MW1001REMMET039LFGJ 061800Z 17006KT CAVOK 16/14 Q1016;EQDQ01+000000PRSWM2
0091072553999992000090619004+47030+005430FM-15+0196LFGJ V0201801N00361220001CN0099001N1+01601+01401999999ADDMA1101591999999MW1001REMMET039LFGJ 061900Z 18007KT CAVOK 16/14 Q1016;EQDQ01+000000PRSWM2
0091072553999992000090620004+47030+005430FM-15+0196LFGJ V0201901N00461220001CN0099001N1+01601+01301999999ADDMA1101491999999MW1001REMMET039LFGJ 062000Z 19009KT CAVOK 16/13 Q1015;EQDQ01+000000PRSWM2
0091072553999992000090621004+47030+005430FM-15+0196LFGJ V0202001N00261220001CN0099001N1+01601+01301999999ADDMA1101491999999MW1001REMMET039LFGJ 062100Z 20005KT CAVOK 16/13 Q1015;EQDQ01+000000PRSWM2
0182072553999992000090622004+47030+005430FM-15+0196LFGJ V0202101N003110111019N0070001N1+01601+01401999999ADDGA1021+004509999GA2071+011109999GF107991999999999999999999MA1101491999999MW1611REMMET056LFGJ 062200Z 21006KT 7000 -RA FEW015 BKN037 16/14 Q1015;EQDQ01+000003PRSWM1Q02    003PRSWM1
0159072553999992000090623004+47030+005430FM-15+0196LFGJ V0201901N003110099019N0080001N1+01501+01401999999ADDGA1071+009909999GF107991999999999999999999MA1101491999999MW1611REMMET049LFGJ 062300Z 19006KT 8000 -RA BKN033 15/14 Q1015;EQDQ01+000003PRSWM1Q02    003PRSWM1
0162072553999992000090700004+47030+005430FM-15+0196LFGJ V0201901N004110300019N0112651N1+01501+01401999999ADDGA1021+010509999GA2081+030009999GF108991999999999999999999MA1101491999999MW1001REMMET052LFGJ 070000Z 19008KT 9999 SCT035 OVC100 15/14 Q1015;EQDQ01+000000PRSWM2
0091072553999992000090718004+47030+005430FM-15+0196LFGJ V0200701N00211220001CN0099001N1+01801+01201999999ADDMA1101801999999MW1001REMMET039LFGJ 071800Z 07004KT CAVOK 18/12 Q1018;EQDQ01+000000PRSWM2
0091072553999992000090719004+47030+005430FM-15+0196LFGJ V0203601N00211220001CN0099001N1+01701+01201999999ADDMA1101901999999MW1001REMMET039LFGJ 071900Z 36004KT CAVOK 17/12 Q1019;EQDQ01+000000PRSWM2
0091072553999992000090720004+47030+005430FM-15+0196LFGJ V0203601N00211220001CN0099001N1+01601+01101999999ADDMA1102001999999MW1001REMMET039LFGJ 072000Z 36004KT CAVOK 16/11 Q1020;EQDQ01+000000PRSWM2
0091072553999992000090721004+47030+005430FM-15+0196LFGJ V0200101N00211220001CN0099001N1+01501+01201999999ADDMA1102001999999MW1001REMMET039LFGJ 072100Z 01004KT CAVOK 15/12 Q1020;EQDQ01+000000PRSWM2
0091072553999992000090722004+47030+005430FM-15+0196LFGJ V0200401N00211220001CN0099001N1+01401+01201999999ADDMA1102001999999MW1001REMMET039LFGJ 072200Z 04004KT CAVOK 14/12 Q1020;EQDQ01+000000PRSWM2
0091072553999992000090723004+47030+005430FM-15+0196LFGJ V0200201N00211220001CN0099001N1+01401+01201999999ADDMA1102101999999MW1001REMMET039LFGJ 072300Z 02004KT CAVOK 14/12 Q1021;EQDQ01+000000PRSWM2
0091072553999992000090800004+47030+005430FM-15+0196LFGJ V0200301N00101220001CN0099001N1+01301+01101999999ADDMA1102101999999MW1001REMMET039LFGJ 080000Z 03002KT CAVOK 13/11 Q1021;EQDQ01+000000PRSWM2
0091072553999992000090819004+47030+005430FM-15+0196LFGJ V0200301N00211220001CN0099001N1+01701+01101999999ADDMA1102201999999MW1001REMMET039LFGJ 081900Z 03004KT CAVOK 17/11 Q1022;EQDQ01+000000PRSWM2
0091072553999992000090821004+47030+005430FM-15+0196LFGJ V0200901N00151220001CN0099001N1+01401+01201999999ADDMA1102201999999MW1001REMMET039LFGJ 082100Z 09003KT CAVOK 14/12 Q1022;EQDQ01+000000PRSWM2
0091072553999992000090822004+47030+005430FM-15+0196LFGJ V0200601N00151220001CN0099001N1+01401+01201999999ADDMA1102201999999MW1001REMMET039LFGJ 082200Z 06003KT CAVOK 14/12 Q1022;EQDQ01+000000PRSWM2
0091072553999992000090823004+47030+005430FM-15+0196LFGJ V0200301N00051220001CN0099001N1+01301+01201999999ADDMA1102201999999MW1001REMMET039LFGJ 082300Z 03001KT CAVOK 13/12 Q1022;EQDQ01+000000PRSWM2
0091072553999992000090900004+47030+005430FM-15+0196LFGJ V0209999C00001220001CN0099001N1+01201+01101999999ADDMA1102201999999MW1001REMMET039LFGJ 090000Z 00000KT CAVOK 12/11 Q1022;EQDQ01+000000PRSWM2
0091072553999992000091118004+47030+005430FM-15+0196LFGJ V0200401N00151220001CN0099001N1+02401+01701999999ADDMA1101391999999MW1001REMMET039LFGJ 111800Z 04003KT CAVOK 24/17 Q1014;EQDQ01+000000PRSWM2
0091072553999992000091119004+47030+005430FM-15+0196LFGJ V0200301N00101220001CN0099001N1+02101+01701999999ADDMA1101391999999MW1001REMMET039LFGJ 111900Z 03002KT CAVOK 21/17 Q1014;EQDQ01+000000PRSWM2
0091072553999992000091120004+47030+005430FM-15+0196LFGJ V0209999C00001220001CN0099001N1+02001+01701999999ADDMA1101391999999MW1001REMMET039LFGJ 112000Z 00000KT CAVOK 20/17 Q1014;EQDQ01+000000PRSWM2
0091072553999992000091121004+47030+005430FM-15+0196LFGJ V0200801N00101220001CN0099001N1+01901+01601999999ADDMA1101391999999MW1001REMMET039LFGJ 112100Z 08002KT CAVOK 19/16 Q1014;EQDQ01+000000PRSWM2
0091072553999992000091122004+47030+005430FM-15+0196LFGJ V0200901N00101220001CN0099001N1+01701+01601999999ADDMA1101391999999MW1001REMMET039LFGJ 112200Z 09002KT CAVOK 17/16 Q1014;EQDQ01+000000PRSWM2
0091072553999992000091123004+47030+005430FM-15+0196LFGJ V0200801N00101220001CN0099001N1+01601+01501999999ADDMA1101391999999MW1001REMMET039LFGJ 112300Z 08002KT CAVOK 16/15 Q1014;EQDQ01+000000PRSWM2
0091072553999992000091200004+47030+005430FM-15+0196LFGJ V0201001N00101220001CN0099001N1+01601+01501999999ADDMA1101391999999MW1001REMMET039LFGJ 120000Z 10002KT CAVOK 16/15 Q1014;EQDQ01+000000PRSWM2
0091072553999992000091218004+47030+005430FM-15+0196LFGJ V0201701N00211220001CN0099001N1+02301+01701999999ADDMA1101191999999MW1001REMMET039LFGJ 121800Z 17004KT CAVOK 23/17 Q1012;EQDQ01+000000PRSWM2
0194072553999992000091219004+47030+005430FM-15+0196LFGJ V0202201N006210300019N0112651N1+02301+01701999999ADDGA1021+018009099GA2071+030009999GF107991999999999999999999MA1101291999999MW1171OC101291REMMET060LFGJ 121900Z 22012G25KT 9999 TS SCT060CB BKN100 23/17 Q1013;EQDQ01+000003PRSWM1Q02    003PRSWM1
0192072553999992000091220004+47030+005430FM-15+0196LFGJ V0201901N006210300019N0112651N1+01901+01701999999ADDGA1021+018009099GA2071+030009999GF107991999999999999999999MA1101391999999MW1801MW2951REMMET060LFGJ 122000Z 19012KT 9999 -TSRA SCT060CB BKN100 19/17 Q1014;EQDQ01+000003PRSWM1Q02    003PRSWM1
0169072553999992000091221004+47030+005430FM-15+0196LFGJ V0202401N003610180019N0112651N1+01901+01701999999ADDGA1071+018009099GF107991999999999999999999MA1101491999999MW1801MW2951REMMET053LFGJ 122100Z 24007KT 9999 -TSRA BKN060CB 19/17 Q1015;EQDQ01+000003PRSWM1Q02    003PRSWM1
0193072553999992000091222004+47030+005430FM-15+0196LFGJ V0203001N003110180019N0080001N1+01701+01701999999ADDGA1021+009909099GA2071+018009099GF107991999999999999999999MA1101591999999MW1811MW2951REMMET061LFGJ 122200Z 30006KT 8000 TSRA FEW033CB BKN060CB 17/17 Q1016;EQDQ01+000003PRSWM1Q02    003PRSWM1
0182072553999992000091223004+47030+005430FM-15+0196LFGJ V0201501N002110180019N0050001N1+01701+01701999999ADDGA1021+013809999GA2081+018009999GF108991999999999999999999MA1101491999999MW1651REMMET056LFGJ 122300Z 15004KT 5000 +RA FEW046 OVC066 17/17 Q1015;EQDQ01+000003PRSWM1Q02    003PRSWM1
0182072553999992000091300004+47030+005430FM-15+0196LFGJ V0201201N003110180019N0080001N1+01701+01701999999ADDGA1021+013509999GA2081+018009999GF108991999999999999999999MA1101491999999MW1611REMMET056LFGJ 130000Z 12006KT 8000 -RA FEW045 OVC066 17/17 Q1015;EQDQ01+000003PRSWM1Q02    003PRSWM1
0091072553999992000091318004+47030+005430FM-15+0196LFGJ V0200601N00211220001CN0099001N1+01901+01701999999ADDMA1101491999999MW1001REMMET039LFGJ 131800Z 06004KT CAVOK 19/17 Q1015;EQDQ01+000000PRSWM2
0091072553999992000091319004+47030+005430FM-15+0196LFGJ V0200201N00151220001CN0099001N1+01801+01701999999ADDMA1101491999999MW1001REMMET039LFGJ 131900Z 02003KT CAVOK 18/17 Q1015;EQDQ01+000000PRSWM2
0091072553999992000091320004+47030+005430FM-15+0196LFGJ V0200101N00411220001CN0099001N1+01801+01501999999ADDMA1101591999999MW1001REMMET039LFGJ 132000Z 01008KT CAVOK 18/15 Q1016;EQDQ01+000000PRSWM2
0091072553999992000091321004+47030+005430FM-15+0196LFGJ V0200701N00101220001CN0099001N1+01701+01501999999ADDMA1101591999999MW1001REMMET039LFGJ 132100Z 07002KT CAVOK 17/15 Q1016;EQDQ01+000000PRSWM2
0091072553999992000091322004+47030+005430FM-15+0196LFGJ V0203401N00101220001CN0099001N1+01601+01501999999ADDMA1101591999999MW1001REMMET039LFGJ 132200Z 34002KT CAVOK 16/15 Q1016;EQDQ01+000000PRSWM2
0091072553999992000091323004+47030+005430FM-15+0196LFGJ V0203601N00101220001CN0099001N1+01501+01501999999ADDMA1101591999999MW1001REMMET039LFGJ 132300Z 36002KT CAVOK 15/15 Q1016;EQDQ01+000000PRSWM2
0091072553999992000091400004+47030+005430FM-15+0196LFGJ V0200201N00051220001CN0099001N1+01401+01401999999ADDMA1101591999999MW1001REMMET039LFGJ 140000Z 02001KT CAVOK 14/14 Q1016;EQDQ01+000000PRSWM2
0091072553999992000091418004+47030+005430FM-15+0196LFGJ V0209999C00001220001CN0099001N1+02201+01901999999ADDMA1101491999999MW1001REMMET039LFGJ 141800Z 00000KT CAVOK 22/19 Q1015;EQDQ01+000000PRSWM2
0091072553999992000091419004+47030+005430FM-15+0196LFGJ V0200201N00211220001CN0099001N1+01901+01801999999ADDMA1101591999999MW1001REMMET039LFGJ 141900Z 02004KT CAVOK 19/18 Q1016;EQDQ01+000000PRSWM2
0091072553999992000091420004+47030+005430FM-15+0196LFGJ V0200201N00211220001CN0099001N1+01901+01701999999ADDMA1101591999999MW1001REMMET039LFGJ 142000Z 02004KT CAVOK 19/17 Q1016;EQDQ01+000000PRSWM2
0162072553999992000091421004+47030+005430FM-15+0196LFGJ V0200801N002110690019N0060001N1+01801+01701999999ADDGA1021+024009999GA2071+069009999GF107991999999999999999999MA1101591999999MW1001REMMET052LFGJ 142100Z 08004KT 6000 FEW083 BKN230 18/17 Q1016;EQDQ01+000000PRSWM2
0139072553999992000091422004+47030+005430FM-15+0196LFGJ V0200701N001512200019N0060001N1+01701+01601999999ADDGA1021+069009999GF104991999999999999999999MA1101591999999MW1001REMMET045LFGJ 142200Z 07003KT 6000 SCT230 17/16 Q1016;EQDQ01+000000PRSWM2
0158072553999992000091423004+47030+005430FM-15+0196LFGJ V0200601N002612200019N0040001N1+01701+01601999999ADDGA1021+069009999GF104991999999999999999999MA1101491999999MW1101REMMET048LFGJ 142300Z 06005KT 4000 BR SCT230 17/16 Q1015;EQDQ01+000003PRSWM1Q02    003PRSWM1
0091072553999992000091518004+47030+005430FM-15+0196LFGJ V0201301N00151220001CN0099001N1+02401+01801999999ADDMA1100911999999MW1001REMMET039LFGJ 151800Z 13003KT CAVOK 24/18 Q1009;EQDQ01+000000PRSWM2
0091072553999992000091519004+47030+005430FM-15+0196LFGJ V0202001N00621220001CN0099001N1+02401+01701999999ADDMA1101021999999MW1001REMMET039LFGJ 151900Z 20012KT CAVOK 24/17 Q1010;EQDQ01+000000PRSWM2
0091072553999992000091521004+47030+005430FM-15+0196LFGJ V0202101N00511220001CN0099001N1+02201+01701999999ADDMA1101191999999MW1001REMMET039LFGJ 152100Z 21010KT CAVOK 22/17 Q1012;EQDQ01+000000PRSWM2
0091072553999992000091522004+47030+005430FM-15+0196LFGJ V0202001N00511220001CN0099001N1+02101+01701999999ADDMA1101191999999MW1001REMMET039LFGJ 152200Z 20010KT CAVOK 21/17 Q1012;EQDQ01+000000PRSWM2
0091072553999992000091600004+47030+005430FM-15+0196LFGJ V0202101N00671220001CN0099001N1+02101+01601999999ADDMA1101291999999MW1001REMMET039LFGJ 160000Z 21013KT CAVOK 21/16 Q1013;EQDQ01+000000PRSWM2
0091072553999992000091818004+47030+005430FM-15+0196LFGJ V0201401N00151220001CN0099001N1+01701+01201999999ADDMA1100711999999MW1001REMMET039LFGJ 181800Z 14003KT CAVOK 17/12 Q1007;EQDQ01+000000PRSWM2
0091072553999992000091819004+47030+005430FM-15+0196LFGJ V0201001N00151220001CN0099001N1+01501+01101999999ADDMA1100711999999MW1001REMMET039LFGJ 181900Z 10003KT CAVOK 15/11 Q1007;EQDQ01+000000PRSWM2
0081072553999992000091820004+47030+005430FM-15+0196LFGJ V0200701N001512200019N0112651N1+99999+99999999999ADDMW1001REMMET044LFGJ 182000Z 07003KT 9999 CAVOK 14/12 Q1007;EQDQ01+000000PRSWM2
0091072553999992000091821004+47030+005430FM-15+0196LFGJ V0200801N00211220001CN0099001N1+01301+01101999999ADDMA1100711999999MW1001REMMET039LFGJ 182100Z 08004KT CAVOK 13/11 Q1007;EQDQ01+000000PRSWM2
0091072553999992000091822004+47030+005430FM-15+0196LFGJ V0200701N00211220001CN0099001N1+01201+01101999999ADDMA1100711999999MW1001REMMET039LFGJ 182200Z 07004KT CAVOK 12/11 Q1007;EQDQ01+000000PRSWM2
0091072553999992000091823004+47030+005430FM-15+0196LFGJ V0200601N00211220001CN0099001N1+01201+01101999999ADDMA1100611999999MW1001REMMET039LFGJ 182300Z 06004KT CAVOK 12/11 Q1006;EQDQ01+000000PRSWM2
0056072553999992000091900004+47030+005430FM-15+0196LFGJ V02099999999992200019N0112651N1+99999+99999999999ADDMW1001REMMET019LFGJ 190000Z CAVOK;EQDQ01+000000PRSWM2
0091072553999992000091918004+47030+005430FM-15+0196LFGJ V0201301N00101220001CN0099001N1+01801+01601999999ADDMA1100001999999MW1001REMMET039LFGJ 191800Z 13002KT CAVOK 18/16 Q1000;EQDQ01+000000PRSWM2
0162072553999992000091919004+47030+005430FM-15+0196LFGJ V0202001N002110180019N0112651N1+01801+01601999999ADDGA1021+010509999GA2071+018009999GF107991999999999999999999MA1100101999999MW1001REMMET052LFGJ 191900Z 20004KT 9999 FEW035 BKN060 18/16 Q1001;EQDQ01+000000PRSWM2
0159072553999992000091920004+47030+005430FM-15+0196LFGJ V0202201N004110111019N0112651N1+01601+01401999999ADDGA1071+011109999GF107991999999999999999999MA1100201999999MW1611REMMET049LFGJ 192000Z 22008KT 9999 -RA BKN037 16/14 Q1002;EQDQ01+000003PRSWM1Q02    003PRSWM1
0182072553999992000091921004+47030+005430FM-15+0196LFGJ V0202201N004110117019N0112651N1+01501+01401999999ADDGA1021+003309999GA2081+011709999GF108991999999999999999999MA1100311999999MW1611REMMET056LFGJ 192100Z 22008KT 9999 -RA FEW011 OVC039 15/14 Q1003;EQDQ01+000003PRSWM1Q02    003PRSWM1
0162072553999992000091922004+47030+005430FM-15+0196LFGJ V0201801N002110123019N0112651N1+01401+01301999999ADDGA1021+003309999GA2081+012309999GF108991999999999999999999MA1100411999999MW1001REMMET052LFGJ 192200Z 18004KT 9999 FEW011 OVC041 14/13 Q1004;EQDQ01+000000PRSWM2
0192072553999992000091923004+47030+005430FM-15+0196LFGJ V0201801N004110180019N0050001N1+01401+01301999999ADDGA1021+014109099GA2081+018009999GF108991999999999999999999MA1100511999999MW1821MW2971REMMET060LFGJ 192300Z 18008KT 5000 +TSRA SCT047CB OVC060 14/13 Q1005;EQDQ01+000003PRSWM1Q02    003PRSWM1
0162072553999992000092000004+47030+005430FM-15+0196LFGJ V0201501N002110300019N0112651N1+01301+01301999999ADDGA1021+012009999GA2071+030009999GF107991999999999999999999MA1100411999999MW1001REMMET052LFGJ 200000Z 15004KT 9999 FEW040 BKN100 13/13 Q1004;EQDQ01+000000PRSWM2
0162072553999992000092018004+47030+005430FM-15+0196LFGJ V0200101N001510180019N0112651N1+01401+01301999999ADDGA1021+012009999GA2071+018009999GF107991999999999999999999MA1100911999999MW1001REMMET052LFGJ 201800Z 01003KT 9999 FEW040 BKN060 14/13 Q1009;EQDQ01+000000PRSWM2
0091072553999992000092019004+47030+005430FM-15+0196LFGJ V0200601N00211220001CN0099001N1+01301+01201999999ADDMA1100911999999MW1001REMMET039LFGJ 201900Z 06004KT CAVOK 13/12 Q1009;EQDQ01+000000PRSWM2
0091072553999992000092020004+47030+005430FM-15+0196LFGJ V0202901N00101220001CN0099001N1+01301+01201999999ADDMA1101021999999MW1001REMMET039LFGJ 202000Z 29002KT CAVOK 13/12 Q1010;EQDQ01+000000PRSWM2
0091072553999992000092021004+47030+005430FM-15+0196LFGJ V0203001N00101220001CN0099001N1+01301+01201999999ADDMA1101081999999MW1001REMMET039LFGJ 202100Z 30002KT CAVOK 13/12 Q1011;EQDQ01+000000PRSWM2
0091072553999992000092022004+47030+005430FM-15+0196LFGJ V0202401N00211220001CN0099001N1+01201+01101999999ADDMA1101191999999MW1001REMMET039LFGJ 202200Z 24004KT CAVOK 12/11 Q1012;EQDQ01+000000PRSWM2
0091072553999992000092023004+47030+005430FM-15+0196LFGJ V0209999C00001220001CN0099001N1+01201+01201999999ADDMA1101191999999MW1001REMMET039LFGJ 202300Z 00000KT CAVOK 12/12 Q1012;EQDQ01+000000PRSWM2
0162072553999992000092100004+47030+005430FM-15+0196LFGJ V0202301N003110240019N0112651N1+01101+01101999999ADDGA1021+014409999GA2071+024009999GF107991999999999999999999MA1101191999999MW1001REMMET052LFGJ 210000Z 23006KT 9999 FEW048 BKN083 11/11 Q1012;EQDQ01+000000PRSWM2
0091072553999992000092118004+47030+005430FM-15+0196LFGJ V0201601N00211220001CN0099001N1+01501+01101999999ADDMA1102101999999MW1001REMMET039LFGJ 211800Z 16004KT CAVOK 15/11 Q1021;EQDQ01+000000PRSWM2
0091072553999992000092119004+47030+005430FM-15+0196LFGJ V0201301N00101220001CN0099001N1+01301+01101999999ADDMA1102101999999MW1001REMMET039LFGJ 211900Z 13002KT CAVOK 13/11 Q1021;EQDQ01+000000PRSWM2
0091072553999992000092120004+47030+005430FM-15+0196LFGJ V0200801N00101220001CN0099001N1+01201+01101999999ADDMA1102201999999MW1001REMMET039LFGJ 212000Z 08002KT CAVOK 12/11 Q1022;EQDQ01+000000PRSWM2
0091072553999992000092121004+47030+005430FM-15+0196LFGJ V0200801N00211220001CN0099001N1+01101+01101999999ADDMA1102201999999MW1001REMMET039LFGJ 212100Z 08004KT CAVOK 11/11 Q1022;EQDQ01+000000PRSWM2
0091072553999992000092122004+47030+005430FM-15+0196LFGJ V0200801N00211220001CN0099001N1+01101+01001999999ADDMA1102201999999MW1001REMMET039LFGJ 212200Z 08004KT CAVOK 11/10 Q1022;EQDQ01+000000PRSWM2
0091072553999992000092123004+47030+005430FM-15+0196LFGJ V0200801N00211220001CN0099001N1+01101+01001999999ADDMA1102201999999MW1001REMMET039LFGJ 212300Z 08004KT CAVOK 11/10 Q1022;EQDQ01+000000PRSWM2
0056072553999992000092200004+47030+005430FM-15+0196LFGJ V02099999999992200019N0099001N1+99999+99999999999ADDMW1001REMMET019LFGJ 220000Z CAVOK;EQDQ01+000000PRSWM2
0091072553999992000092218004+47030+005430FM-15+0196LFGJ V0200301N00311220001CN0099001N1+01801+01501999999ADDMA1102201999999MW1001REMMET039LFGJ 221800Z 03006KT CAVOK 18/15 Q1022;EQDQ01+000000PRSWM2
0091072553999992000092219004+47030+005430FM-15+0196LFGJ V0200701N00261220001CN0099001N1+01701+01401999999ADDMA1102201999999MW1001REMMET039LFGJ 221900Z 07005KT CAVOK 17/14 Q1022;EQDQ01+000000PRSWM2
0091072553999992000092220004+47030+005430FM-15+0196LFGJ V0200501N00311220001CN0099001N1+01501+01401999999ADDMA1102201999999MW1001REMMET039LFGJ 222000Z 05006KT CAVOK 15/14 Q1022;EQDQ01+000000PRSWM2
0091072553999992000092221004+47030+005430FM-15+0196LFGJ V0200601N00361220001CN0099001N1+01601+01401999999ADDMA1102201999999MW1001REMMET039LFGJ 222100Z 06007KT CAVOK 16/14 Q1022;EQDQ01+000000PRSWM2
0091072553999992000092222004+47030+005430FM-15+0196LFGJ V0200601N00361220001CN0099001N1+01501+01401999999ADDMA1102201999999MW1001REMMET039LFGJ 222200Z 06007KT CAVOK 15/14 Q1022;EQDQ01+000000PRSWM2
0091072553999992000092223004+47030+005430FM-15+0196LFGJ V0200401N00411220001CN0099001N1+01501+01301999999ADDMA1102201999999MW1001REMMET039LFGJ 222300Z 04008KT CAVOK 15/13 Q1022;EQDQ01+000000PRSWM2
0091072553999992000092300004+47030+005430FM-15+0196LFGJ V0200301N00211220001CN0099001N1+01401+01301999999ADDMA1102101999999MW1001REMMET039LFGJ 230000Z 03004KT CAVOK 14/13 Q1021;EQDQ01+000000PRSWM2
0091072553999992000092518004+47030+005430FM-15+0196LFGJ V0200801N00211220001CN0099001N1+01801+01601999999ADDMA1102201999999MW1001REMMET039LFGJ 251800Z 08004KT CAVOK 18/16 Q1022;EQDQ01+000000PRSWM2
0091072553999992000092519004+47030+005430FM-15+0196LFGJ V0200701N00261220001CN0099001N1+01701+01601999999ADDMA1102201999999MW1001REMMET039LFGJ 251900Z 07005KT CAVOK 17/16 Q1022;EQDQ01+000000PRSWM2
0160072553999992000092719004+47030+005430FM-15+0196LFGJ V0200901N002112200019N0090001N1+01601+01501999999ADDGA1021+069009999GF102991999999999999999999MA1101691999999MW1121REMMET050LFGJ 271900Z 09004KT 9000 MIFG FEW230 16/15 Q1017;EQDQ01+000003PRSWM1Q02    003PRSWM1
0160072553999992000092720004+47030+005430FM-15+0196LFGJ V0200601N001012200019N0080001N1+01501+01501999999ADDGA1021+069009999GF102991999999999999999999MA1101691999999MW1121REMMET050LFGJ 272000Z 06002KT 8000 MIFG FEW230 15/15 Q1017;EQDQ01+000003PRSWM1Q02    003PRSWM1
0169072553999992000092721004+47030+005430FM-15+0196LFGJ V0200701N001012200019N0040001N1+01501+01401999999ADDGA1021+069009999GF102991999999999999999999MA1101591999999MW1101MW2121REMMET053LFGJ 272100Z 07002KT 4000 BR MIFG FEW230 15/14 Q1016;EQDQ01+000003PRSWM1Q02    003PRSWM1
0158072553999992000092722004+47030+005430FM-15+0196LFGJ V0200901N001012200019N0040001N1+01401+01401999999ADDGA1021+069009999GF102991999999999999999999MA1101491999999MW1101REMMET048LFGJ 272200Z 09002KT 4000 BR FEW230 14/14 Q1015;EQDQ01+000003PRSWM1Q02    003PRSWM1
0162072553999992000100218004+47030+005430FM-15+0196LFGJ V0202201N002110135019N0112651N1+01201+01101999999ADDGA1021+008109999GA2071+013509999GF107991999999999999999999MA1101691999999MW1001REMMET052LFGJ 021800Z 22004KT 9999 FEW027 BKN045 12/11 Q1017;EQDQ01+000000PRSWM2
0162072553999992000100219004+47030+005430FM-15+0196LFGJ V0202101N002110081019N0112651N1+01201+01101999999ADDGA1071+008109999GA2071+013509999GF107991999999999999999999MA1101801999999MW1001REMMET052LFGJ 021900Z 21004KT 9999 BKN027 BKN045 12/11 Q1018;EQDQ01+000000PRSWM2
0162072553999992000100220004+47030+005430FM-15+0196LFGJ V0202301N003110081019N0112651N1+01201+01101999999ADDGA1071+008109999GA2071+011709999GF107991999999999999999999MA1101901999999MW1001REMMET052LFGJ 022000Z 23006KT 9999 BKN027 BKN039 12/11 Q1019;EQDQ01+000000PRSWM2
0162072553999992000100221004+47030+005430FM-15+0196LFGJ V0202401N002112200019N0112651N1+01201+01101999999ADDGA1021+006909999GA2021+014709999GF104991999999999999999999MA1101901999999MW1001REMMET052LFGJ 022100Z 24004KT 9999 FEW023 SCT049 12/11 Q1019;EQDQ01+000000PRSWM2
0162072553999992000100222004+47030+005430FM-15+0196LFGJ V0202401N002110240019N0112651N1+01201+01101999999ADDGA1021+014709999GA2081+024009999GF108991999999999999999999MA1102001999999MW1001REMMET052LFGJ 022200Z 24004KT 9999 FEW049 OVC083 12/11 Q1020;EQDQ01+000000PRSWM2
0162072553999992000100223004+47030+005430FM-15+0196LFGJ V0202601N002110141019N0112651N1+01201+01101999999ADDGA1021+010209999GA2071+014109999GF107991999999999999999999MA1102001999999MW1001REMMET052LFGJ 022300Z 26004KT 9999 SCT034 BKN047 12/11 Q1020;EQDQ01+000000PRSWM2
0162072553999992000100300004+47030+005430FM-15+0196LFGJ V0202301N002110240019N0112651N1+01101+01101999999ADDGA1021+014109999GA2071+024009999GF107991999999999999999999MA1102101999999MW1001REMMET052LFGJ 030000Z 23004KT 9999 SCT047 BKN083 11/11 Q1021;EQDQ01+000000PRSWM2
0091072553999992000100318004+47030+005430FM-15+0196LFGJ V0200201N00261220001CN0099001N1+01301+01001999999ADDMA1102101999999MW1001REMMET039LFGJ 031800Z 02005KT CAVOK 13/10 Q1021;EQDQ01+000000PRSWM2
0091072553999992000100319004+47030+005430FM-15+0196LFGJ V0200301N00311220001CN0099001N1+01101+01001999999ADDMA1102101999999MW1001REMMET039LFGJ 031900Z 03006KT CAVOK 11/10 Q1021;EQDQ01+000000PRSWM2
0091072553999992000100320004+47030+005430FM-15+0196LFGJ V0203501N00211220001CN0099001N1+01101+01001999999ADDMA1102101999999MW1001REMMET039LFGJ 032000Z 35004KT CAVOK 11/10 Q1021;EQDQ01+000000PRSWM2
0091072553999992000100321004+47030+005430FM-15+0196LFGJ V0203501N00311220001CN0099001N1+01101+01001999999ADDMA1102101999999MW1001REMMET039LFGJ 032100Z 35006KT CAVOK 11/10 Q1021;EQDQ01+000000PRSWM2
0091072553999992000100322004+47030+005430FM-15+0196LFGJ V0203501N00411220001CN0099001N1+01101+01001999999ADDMA1102101999999MW1001REMMET039LFGJ 032200Z 35008KT CAVOK 11/10 Q1021;EQDQ01+000000PRSWM2
0091072553999992000100323004+47030+005430FM-15+0196LFGJ V0203501N00461220001CN0099001N1+01101+01001999999ADDMA1102101999999MW1001REMMET039LFGJ 032300Z 35009KT CAVOK 11/10 Q1021;EQDQ01+000000PRSWM2
0056072553999992000100400004+47030+005430FM-15+0196LFGJ V02099999999992200019N0099001N1+99999+99999999999ADDMW1001REMMET019LFGJ 040000Z CAVOK;EQDQ01+000000PRSWM2
0139072553999992000100418004+47030+005430FM-15+0196LFGJ V0200501N002110132019N0112651N1+01501+01201999999ADDGA1071+013209999GF107991999999999999999999MA1102001999999MW1001REMMET045LFGJ 041800Z 05004KT 9999 BKN044 15/12 Q1020;EQDQ01+000000PRSWM2
0139072553999992000100419004+47030+005430FM-15+0196LFGJ V0200901N001512200019N0112651N1+01401+01201999999ADDGA1021+013209999GF104991999999999999999999MA1102001999999MW1001REMMET045LFGJ 041900Z 09003KT 9999 SCT044 14/12 Q1020;EQDQ01+000000PRSWM2
0091072553999992000100420004+47030+005430FM-15+0196LFGJ V0200501N00211220001CN0099001N1+01201+01101999999ADDMA1102001999999MW1001REMMET039LFGJ 042000Z 05004KT CAVOK 12/11 Q1020;EQDQ01+000000PRSWM2
0091072553999992000100421004+47030+005430FM-15+0196LFGJ V0200501N00101220001CN0099001N1+01101+01001999999ADDMA1102001999999MW1001REMMET039LFGJ 042100Z 05002KT CAVOK 11/10 Q1020;EQDQ01+000000PRSWM2
0091072553999992000100422004+47030+005430FM-15+0196LFGJ V0209999C00001220001CN0099001N1+01101+01001999999ADDMA1102001999999MW1001REMMET039LFGJ 042200Z 00000KT CAVOK 11/10 Q1020;EQDQ01+000000PRSWM2
0120072553999992000100423004+47030+005430FM-15+0196LFGJ V0200301N001012200019N0090001N1+01001+00901999999ADDGF100991999999999999999999MA1101901999999MW1001REMMET042LFGJ 042300Z 03002KT 9000 SKC 10/09 Q1019;EQDQ01+000000PRSWM2
0156072553999992000100500004+47030+005430FM-15+0196LFGJ V0200601N001012200019N0050001N1+00901+00901999999ADDGF100991999999999999999999MA1101901999999MW1121REMMET062LFGJ 050000Z 06002KT 5000 R06/0900VP2000 MIFG SKC 09/09 Q1019;EQDQ01+000003PRSWM1Q02    003PRSWM1
0182072553999992000100518004+47030+005430FM-15+0196LFGJ V0202301N002110090019N0112651N1+01301+01301999999ADDGA1021+001809999GA2071+009009999GF107991999999999999999999MA1102001999999MW1611REMMET056LFGJ 051800Z 23004KT 9999 -RA FEW006 BKN030 13/13 Q1020;EQDQ01+000003PRSWM1Q02    003PRSWM1
0162072553999992000100519004+47030+005430FM-15+0196LFGJ V0203101N002110114019N0080001N1+01301+01301999999ADDGA1021+002109999GA2071+011409999GF107991999999999999999999MA1102001999999MW1001REMMET052LFGJ 051900Z 31004KT 8000 FEW007 BKN038 13/13 Q1020;EQDQ01+000000PRSWM2
0162072553999992000100520004+47030+005430FM-15+0196LFGJ V0202401N002110120019N0080001N1+01301+01201999999ADDGA1021+006909999GA2071+012009999GF107991999999999999999999MA1102101999999MW1001REMMET052LFGJ 052000Z 24004KT 8000 FEW023 BKN040 13/12 Q1021;EQDQ01+000000PRSWM2
0162072553999992000100521004+47030+005430FM-15+0196LFGJ V0202101N001010240019N0080001N1+01201+01201999999ADDGA1021+012009999GA2071+024009999GF107991999999999999999999MA1102101999999MW1001REMMET052LFGJ 052100Z 21002KT 8000 FEW040 BKN083 12/12 Q1021;EQDQ01+000000PRSWM2
0139072553999992000100522004+47030+005430FM-15+0196LFGJ V0201701N002112200019N0080001N1+01201+01201999999ADDGA1021+009009999GF104991999999999999999999MA1102101999999MW1001REMMET045LFGJ 052200Z 17004KT 8000 SCT030 12/12 Q1021;EQDQ01+000000PRSWM2
0139072553999992000100523004+47030+005430FM-15+0196LFGJ V0202401N002110075019N0080001N1+01201+01201999999ADDGA1071+007509999GF107991999999999999999999MA1102101999999MW1001REMMET045LFGJ 052300Z 24004KT 8000 BKN025 12/12 Q1021;EQDQ01+000000PRSWM2
0159072553999992000100600004+47030+005430FM-15+0196LFGJ V0203301N004110036019N0080001N1+01101+00901999999ADDGA1071+003609999GF107991999999999999999999MA1102201999999MW1611REMMET049LFGJ 060000Z 33008KT 8000 -RA BKN012 11/09 Q1022;EQDQ01+000003PRSWM1Q02    003PRSWM1
0091072553999992000100618004+47030+005430FM-15+0196LFGJ V0203501N00211220001CN0099001N1+00901+00601999999ADDMA1102511999999MW1001REMMET039LFGJ 061800Z 35004KT CAVOK 09/06 Q1025;EQDQ01+000000PRSWM2
0091072553999992000100619004+47030+005430FM-15+0196LFGJ V0200501N00101220001CN0099001N1+00701+00601999999ADDMA1102511999999MW1001REMMET039LFGJ 061900Z 05002KT CAVOK 07/06 Q1025;EQDQ01+000000PRSWM2
0091072553999992000100620004+47030+005430FM-15+0196LFGJ V0209999C00001220001CN0099001N1+00601+00501999999ADDMA1102611999999MW1001REMMET039LFGJ 062000Z 00000KT CAVOK 06/05 Q1026;EQDQ01+000000PRSWM2
0091072553999992000100621004+47030+005430FM-15+0196LFGJ V0209999C00001220001CN0099001N1+00501+00401999999ADDMA1102511999999MW1001REMMET039LFGJ 062100Z 00000KT CAVOK 05/04 Q1025;EQDQ01+000000PRSWM2
0091072553999992000100622004+47030+005430FM-15+0196LFGJ V0200601N00101220001CN0099001N1+00401+00401999999ADDMA1102511999999MW1001REMMET039LFGJ 062200Z 06002KT CAVOK 04/04 Q1025;EQDQ01+000000PRSWM2
0120072553999992000100623004+47030+005430FM-15+0196LFGJ V0200201N001512200019N0050001N1+00301+00301999999ADDGF100991999999999999999999MA1102511999999MW1001REMMET042LFGJ 062300Z 02003KT 5000 SKC 03/03 Q1025;EQDQ01+000000PRSWM2
0161072553999992000100700004+47030+005430FM-15+0196LFGJ V0200701N001012200019N0050001N1+00301+00201999999ADDED199U11009GF100991999999999999999999MA1102511999999MW1121REMMET056LFGJ 070000Z 07002KT 5000 R06/1100 MIFG SKC 03/02 Q1025;EQDQ01+000003PRSWM1Q02    003PRSWM1
0091072553999992000100918004+47030+005430FM-15+0196LFGJ V0201701N00101220001CN0099001N1+01001+00801999999ADDMA1100811999999MW1001REMMET039LFGJ 091800Z 17002KT CAVOK 10/08 Q1008;EQDQ01+000000PRSWM2
0091072553999992000100919004+47030+005430FM-15+0196LFGJ V0201401N00211220001CN0099001N1+00801+00801999999ADDMA1100611999999MW1001REMMET039LFGJ 091900Z 14004KT CAVOK 08/08 Q1006;EQDQ01+000000PRSWM2
0091072553999992000100920004+47030+005430FM-15+0196LFGJ V0201701N00261220001CN0099001N1+00901+00801999999ADDMA1100511999999MW1001REMMET039LFGJ 092000Z 17005KT CAVOK 09/08 Q1005;EQDQ01+000000PRSWM2
0091072553999992000100921004+47030+005430FM-15+0196LFGJ V0201701N00411220001CN0099001N1+01001+00801999999ADDMA1100411999999MW1001REMMET039LFGJ 092100Z 17008KT CAVOK 10/08 Q1004;EQDQ01+000000PRSWM2
0159072553999992000100922004+47030+005430FM-15+0196LFGJ V0201801N005110240019N0112651N1+01101+00801999999ADDGA1081+024009999GF108991999999999999999999MA1100201999999MW1611REMMET049LFGJ 092200Z 18010KT 9999 -RA OVC083 11/08 Q1002;EQDQ01+000003PRSWM1Q02    003PRSWM1
0159072553999992000100923004+47030+005430FM-15+0196LFGJ V0201901N006710240019N0112651N1+01101+00901999999ADDGA1081+024009999GF108991999999999999999999MA1100001999999MW1611REMMET049LFGJ 092300Z 19013KT 9999 -RA OVC086 11/09 Q1000;EQDQ01+000003PRSWM1Q02    003PRSWM1
0159072553999992000101000004+47030+005430FM-15+0196LFGJ V0201901N007210126019N0080001N1+01101+01001999999ADDGA1071+012609999GF107991999999999999999999MA1099901999999MW1611REMMET049LFGJ 100000Z 19014KT 8000 -RA BKN042 11/10 Q0999;EQDQ01+000003PRSWM1Q02    003PRSWM1
0162072553999992000101018004+47030+005430FM-15+0196LFGJ V0202001N003110180019N0112651N1+01001+00801999999ADDGA1021+014409999GA2071+018009999GF107991999999999999999999MA1100001999999MW1001REMMET052LFGJ 101800Z 20006KT 9999 FEW048 BKN060 10/08 Q1000;EQDQ01+000000PRSWM2
0091072553999992000101019004+47030+005430FM-15+0196LFGJ V0201901N00101220001CN0099001N1+01001+00801999999ADDMA1099901999999MW1001REMMET039LFGJ 101900Z 19002KT CAVOK 10/08 Q0999;EQDQ01+000000PRSWM2
0091072553999992000101020004+47030+005430FM-15+0196LFGJ V0201801N00461220001CN0099001N1+01001+00701999999ADDMA1099801999999MW1001REMMET039LFGJ 102000Z 18009KT CAVOK 10/07 Q0998;EQDQ01+000000PRSWM2
0091072553999992000101021004+47030+005430FM-15+0196LFGJ V0201801N00511220001CN0099001N1+01001+00501999999ADDMA1099591999999MW1001REMMET039LFGJ 102100Z 18010KT CAVOK 10/05 Q0996;EQDQ01+000000PRSWM2
0091072553999992000101022004+47030+005430FM-15+0196LFGJ V0201901N00721220001CN0099001N1+01101+00401999999ADDMA1099391999999MW1001REMMET039LFGJ 102200Z 19014KT CAVOK 11/04 Q0994;EQDQ01+000000PRSWM2
0102072553999992000101023004+47030+005430FM-15+0196LFGJ V0201901N01181220001CN0099001N1+01201+00401999999ADDMA1099191999999MW1001OC101901REMMET042LFGJ 102300Z 19023G37KT CAVOK 12/04 Q0992;EQDQ01+000000PRSWM2
0056072553999992000101100004+47030+005430FM-15+0196LFGJ V02099999999992200019N0321861N1+99999+99999999999ADDMW1001REMMET019LFGJ 110000Z CAVOK;EQDQ01+000000PRSWM2
0091072553999992000101118004+47030+005430FM-15+0196LFGJ V0201901N00721220001CN0099001N1+01301+01001999999ADDMA1099291999999MW1001REMMET039LFGJ 111800Z 19014KT CAVOK 13/10 Q0993;EQDQ01+000000PRSWM2
0091072553999992000101119004+47030+005430FM-15+0196LFGJ V0201901N00821220001CN0099001N1+01301+01001999999ADDMA1099291999999MW1001REMMET039LFGJ 111900Z 19016KT CAVOK 13/10 Q0993;EQDQ01+000000PRSWM2
0091072553999992000101120004+47030+005430FM-15+0196LFGJ V0201901N00721220001CN0099001N1+01201+01001999999ADDMA1099391999999MW1001REMMET039LFGJ 112000Z 19014KT CAVOK 12/10 Q0994;EQDQ01+000000PRSWM2
0162072553999992000101121004+47030+005430FM-15+0196LFGJ V0201901N007710180019N0112651N1+01201+01001999999ADDGA1021+014709999GA2071+018009999GF107991999999999999999999MA1099491999999MW1001REMMET052LFGJ 112100Z 19015KT 9999 FEW049 BKN060 12/10 Q0995;EQDQ01+000000PRSWM2
0162072553999992000101122004+47030+005430FM-15+0196LFGJ V0201901N005710144019N0112651N1+01201+01001999999ADDGA1021+012009999GA2071+014409999GF107991999999999999999999MA1099491999999MW1001REMMET052LFGJ 112200Z 19011KT 9999 FEW040 BKN048 12/10 Q0995;EQDQ01+000000PRSWM2
0162072553999992000101123004+47030+005430FM-15+0196LFGJ V0201901N007210210019N0112651N1+01101+00901999999ADDGA1021+013809999GA2071+021009999GF107991999999999999999999MA1099591999999MW1001REMMET052LFGJ 112300Z 19014KT 9999 FEW046 BKN073 11/09 Q0996;EQDQ01+000000PRSWM2
0162072553999992000101200004+47030+005430FM-15+0196LFGJ V0201801N005110240019N0112651N1+01101+01001999999ADDGA1021+014709999GA2071+024009999GF107991999999999999999999MA1099591999999MW1001REMMET052LFGJ 120000Z 18010KT 9999 FEW049 BKN080 11/10 Q0996;EQDQ01+000000PRSWM2
0182072553999992000101218004+47030+005430FM-15+0196LFGJ V0201701N003610180019N0080001N1+01201+01101999999ADDGA1021+013509999GA2081+018009999GF108991999999999999999999MA1100311999999MW1611REMMET056LFGJ 121800Z 17007KT 8000 -RA FEW045 OVC066 12/11 Q1003;EQDQ01+000003PRSWM1Q02    003PRSWM1
0181072553999992000101219004+47030+005430FM-15+0196LFGJ V0201201N004110180019N0080001N1+01101+01101999999ADDGA1021+013209999GA2081+018009999GF108991999999999999999999MA1100311999999MW1631REMMET055LFGJ 121900Z 12008KT 8000 RA SCT044 OVC066 11/11 Q1003;EQDQ01+000003PRSWM1Q02    003PRSWM1
0182072553999992000101220004+47030+005430FM-15+0196LFGJ V0201201N005110180019N0080001N1+01101+01101999999ADDGA1021+009309999GA2081+018009999GF108991999999999999999999MA1100411999999MW1611REMMET056LFGJ 122000Z 12010KT 8000 -RA FEW031 OVC066 11/11 Q1004;EQDQ01+000003PRSWM1Q02    003PRSWM1
0182072553999992000101221004+47030+005430FM-15+0196LFGJ V0201301N002610180019N0080001N1+01101+01001999999ADDGA1021+012909999GA2081+018009999GF108991999999999999999999MA1100511999999MW1611REMMET056LFGJ 122100Z 13005KT 8000 -RA FEW043 OVC066 11/10 Q1005;EQDQ01+000003PRSWM1Q02    003PRSWM1
0205072553999992000101222004+47030+005430FM-15+0196LFGJ V0201401N003110180019N0080001N1+01001+01001999999ADDGA1021+009009999GA2021+012609999GA3081+018009999GF108991999999999999999999MA1100611999999MW1611REMMET063LFGJ 122200Z 14006KT 8000 -RA FEW030 SCT042 OVC066 10/10 Q1006;EQDQ01+000003PRSWM1Q02    003PRSWM1
0182072553999992000101223004+47030+005430FM-15+0196LFGJ V0201501N004110180019N0112651N1+01001+01001999999ADDGA1021+014109999GA2081+018009999GF108991999999999999999999MA1100711999999MW1611REMMET056LFGJ 122300Z 15008KT 9999 -RA FEW047 OVC066 10/10 Q1007;EQDQ01+000003PRSWM1Q02    003PRSWM1
0182072553999992000101300004+47030+005430FM-15+0196LFGJ V0201501N004110180019N0112651N1+01001+00901999999ADDGA1021+009309999GA2081+018009999GF108991999999999999999999MA1100811999999MW1611REMMET056LFGJ 130000Z 15008KT 9999 -RA FEW031 OVC066 10/09 Q1008;EQDQ01+000003PRSWM1Q02    003PRSWM1
0182072553999992000101318004+47030+005430FM-15+0196LFGJ V0200101N004110180019N0080001N1+01001+01001999999ADDGA1021+007209999GA2081+018009999GF108991999999999999999999MA1101391999999MW1611REMMET056LFGJ 131800Z 01008KT 8000 -RA FEW024 OVC066 10/10 Q1014;EQDQ01+000003PRSWM1Q02    003PRSWM1
0159072553999992000101319004+47030+005430FM-15+0196LFGJ V0200201N004110240019N0080001N1+01001+01001999999ADDGA1081+024009999GF108991999999999999999999MA1101291999999MW1611REMMET049LFGJ 131900Z 02008KT 8000 -RA OVC080 10/10 Q1013;EQDQ01+000003PRSWM1Q02    003PRSWM1
0162072553999992000101320004+47030+005430FM-15+0196LFGJ V0200301N004110240019N0112651N1+01001+01001999999ADDGA1021+012009999GA2071+024009999GF107991999999999999999999MA1101291999999MW1001REMMET052LFGJ 132000Z 03008KT 9999 SCT040 BKN080 10/10 Q1013;EQDQ01+000000PRSWM2
0139072553999992000101321004+47030+005430FM-15+0196LFGJ V0200101N003110021019N0112651N1+00901+00901999999ADDGA1071+002109999GF107991999999999999999999MA1101291999999MW1001REMMET045LFGJ 132100Z 01006KT 9999 BKN007 09/09 Q1013;EQDQ01+000000PRSWM2
0139072553999992000101322004+47030+005430FM-15+0196LFGJ V0203601N003110027019N0112651N1+01001+00901999999ADDGA1071+002709999GF107991999999999999999999MA1101291999999MW1001REMMET045LFGJ 132200Z 36006KT 9999 BKN009 10/09 Q1013;EQDQ01+000000PRSWM2
0139072553999992000101323004+47030+005430FM-15+0196LFGJ V0203601N007210015019N0112651N1+01001+00901999999ADDGA1071+001509999GF107991999999999999999999MA1101291999999MW1001REMMET045LFGJ 132300Z 36014KT 9999 BKN005 10/09 Q1013;EQDQ01+000000PRSWM2
0162072553999992000101400004+47030+005430FM-15+0196LFGJ V0203601N007210240019N0112651N1+01001+00901999999ADDGA1021+001509999GA2071+024009999GF107991999999999999999999MA1101191999999MW1001REMMET052LFGJ 140000Z 36014KT 9999 SCT005 BKN080 10/09 Q1012;EQDQ01+000000PRSWM2
0159072553999992000101618004+47030+005430FM-15+0196LFGJ V0202401N004110096019N0112651N1+01301+01101999999ADDGA1071+009609999GF107991999999999999999999MA1101591999999MW1611REMMET049LFGJ 161800Z 24008KT 9999 -RA BKN032 13/11 Q1016;EQDQ01+000003PRSWM1Q02    003PRSWM1
0159072553999992000101619004+47030+005430FM-15+0196LFGJ V0202301N004110096019N0112651N1+01201+01001999999ADDGA1071+009609999GF107991999999999999999999MA1101691999999MW1611REMMET049LFGJ 161900Z 23008KT 9999 -RA BKN032 12/10 Q1017;EQDQ01+000003PRSWM1Q02    003PRSWM1
0182072553999992000101620004+47030+005430FM-15+0196LFGJ V0202001N003110126019N0080001N1+01201+01101999999ADDGA1021+009909999GA2071+012609999GF107991999999999999999999MA1101801999999MW1611REMMET056LFGJ 162000Z 20006KT 8000 -RA FEW033 BKN042 12/11 Q1018;EQDQ01+000003PRSWM1Q02    003PRSWM1
0162072553999992000101621004+47030+005430FM-15+0196LFGJ V0201901N003112200019N0090001N1+01201+01101999999ADDGA1021+003609999GA2021+014409999GF104991999999999999999999MA1101901999999MW1001REMMET052LFGJ 162100Z 19006KT 9000 FEW012 SCT048 12/11 Q1019;EQDQ01+000000PRSWM2
0182072553999992000101622004+47030+005430FM-15+0196LFGJ V0202101N004110180019N0080001N1+01101+01001999999ADDGA1021+002709999GA2071+018009999GF107991999999999999999999MA1102001999999MW1611REMMET056LFGJ 162200Z 21008KT 8000 -RA SCT009 BKN060 11/10 Q1020;EQDQ01+000003PRSWM1Q02    003PRSWM1
0185072553999992000101623004+47030+005430FM-15+0196LFGJ V0202001N003110180019N0080001N1+01101+01001999999ADDGA1021+003609999GA2021+011109999GA3081+018009999GF108991999999999999999999MA1102101999999MW1001REMMET059LFGJ 162300Z 20006KT 8000 FEW012 SCT037 OVC066 11/10 Q1021;EQDQ01+000000PRSWM2
0185072553999992000101700004+47030+005430FM-15+0196LFGJ V0201901N004110180019N0080001N1+01101+01001999999ADDGA1021+005409999GA2021+009909999GA3081+018009999GF108991999999999999999999MA1102101999999MW1001REMMET059LFGJ 170000Z 19008KT 8000 SCT018 SCT033 OVC066 11/10 Q1021;EQDQ01+000000PRSWM2
0091072553999992000101718004+47030+005430FM-15+0196LFGJ V0201001N00211220001CN0099001N1+01001+00901999999ADDMA1102611999999MW1001REMMET039LFGJ 171800Z 10004KT CAVOK 10/09 Q1026;EQDQ01+000000PRSWM2
0141072553999992000101719004+47030+005430FM-15+0196LFGJ V0200801N001012200019N0112651N1+00901+00901999999ADDGF100991999999999999999999MA1102611999999MW1121REMMET047LFGJ 171900Z 08002KT 9999 MIFG SKC 09/09 Q1026;EQDQ01+000003PRSWM1Q02    003PRSWM1
0162072553999992000101720004+47030+005430FM-15+0196LFGJ V0200701N001512200019N0090001N1+00801+00801999999ADDED199U11009GF100991999999999999999999MA1102711999999MW1121REMMET057LFGJ 172000Z 07003KT 9000 R06/1100U MIFG SKC 08/08 Q1027;EQDQ01+000003PRSWM1Q02    003PRSWM1
0160072553999992000101721004+47030+005430FM-15+0196LFGJ V0200601N002112200019N0080001N1+00801+00801999999ADDGA1021+048009999GF102991999999999999999999MA1102711999999MW1121REMMET050LFGJ 172100Z 06004KT 8000 MIFG FEW160 08/08 Q1027;EQDQ01+000003PRSWM1Q02    003PRSWM1
0169072553999992000101722004+47030+005430FM-15+0196LFGJ V0200701N002112200019N0035001N1+00801+00701999999ADDGA1021+075009999GF102991999999999999999999MA1102711999999MW1101MW2121REMMET053LFGJ 172200Z 07004KT 3500 BR MIFG FEW250 08/07 Q1027;EQDQ01+000003PRSWM1Q02    003PRSWM1
0192072553999992000101723004+47030+005430FM-15+0196LFGJ V0200901N002110750019N0035001N1+00701+00701999999ADDGA1021+018009999GA2071+075009999GF107991999999999999999999MA1102611999999MW1101MW2121REMMET060LFGJ 172300Z 09004KT 3500 BR MIFG SCT060 BKN250 07/07 Q1026;EQDQ01+000003PRSWM1Q02    003PRSWM1
0183072553999992000101800004+47030+005430FM-15+0196LFGJ V0200601N002110750019N0050001N1+00701+00701999999ADDGA1021+018009999GA2071+075009999GF107991999999999999999999MA1102611999999MW1121REMMET057LFGJ 180000Z 06004KT 5000 MIFG SCT060 BKN250 07/07 Q1026;EQDQ01+000003PRSWM1Q02    003PRSWM1
0091072553999992000101818004+47030+005430FM-15+0196LFGJ V0201001N00101220001CN0099001N1+01301+01101999999ADDMA1102201999999MW1001REMMET039LFGJ 181800Z 10002KT CAVOK 13/11 Q1022;EQDQ01+000000PRSWM2
0091072553999992000101819004+47030+005430FM-15+0196LFGJ V0200801N00211220001CN0099001N1+01201+01001999999ADDMA1102201999999MW1001REMMET039LFGJ 181900Z 08004KT CAVOK 12/10 Q1022;EQDQ01+000000PRSWM2
0091072553999992000101820004+47030+005430FM-15+0196LFGJ V0200801N00101220001CN0099001N1+01101+01001999999ADDMA1102201999999MW1001REMMET039LFGJ 182000Z 08002KT CAVOK 11/10 Q1022;EQDQ01+000000PRSWM2
0091072553999992000101821004+47030+005430FM-15+0196LFGJ V0200801N00101220001CN0099001N1+01101+01001999999ADDMA1102101999999MW1001REMMET039LFGJ 182100Z 08002KT CAVOK 11/10 Q1021;EQDQ01+000000PRSWM2
0091072553999992000101822004+47030+005430FM-15+0196LFGJ V0201101N00101220001CN0099001N1+01101+00901999999ADDMA1102101999999MW1001REMMET039LFGJ 182200Z 11002KT CAVOK 11/09 Q1021;EQDQ01+000000PRSWM2
0091072553999992000101823004+47030+005430FM-15+0196LFGJ V0201301N00211220001CN0099001N1+01001+00901999999ADDMA1102101999999MW1001REMMET039LFGJ 182300Z 13004KT CAVOK 10/09 Q1021;EQDQ01+000000PRSWM2
0091072553999992000101900004+47030+005430FM-15+0196LFGJ V0209999C00001220001CN0099001N1+00901+00901999999ADDMA1102001999999MW1001REMMET039LFGJ 190000Z 00000KT CAVOK 09/09 Q1020;EQDQ01+000000PRSWM2
0159072553999992000101918004+47030+005430FM-15+0196LFGJ V0200501N001010105019N0070001N1+01201+01201999999ADDGA1071+010509999GF107991999999999999999999MA1102201999999MW1611REMMET049LFGJ 191800Z 05002KT 7000 -RA BKN035 12/12 Q1022;EQDQ01+000003PRSWM1Q02    003PRSWM1
0180072553999992000101919004+47030+005430FM-15+0196LFGJ V0200201N001010105019N0060001N1+01201+01101999999ADDED199U09009GA1071+010509999GF107991999999999999999999MA1102201999999MW1121REMMET059LFGJ 191900Z 02002KT 6000 R06/0900 MIFG BKN035 12/11 Q1022;EQDQ01+000003PRSWM1Q02    003PRSWM1
0171072553999992000101920004+47030+005430FM-15+0196LFGJ V0200701N002112200019N0030001N1+01101+01001999999ADDED199U07509GF100991999999999999999999MA1102201999999MW1101MW2121REMMET060LFGJ 192000Z 07004KT 3000 R06/0750U BR MIFG SKC 11/10 Q1022;EQDQ01+000003PRSWM1Q02    003PRSWM1
0156072553999992000101921004+47030+005430FM-15+0196LFGJ V0209999C000012200019N0003001N1+01001+00901999999ADDGF100991999999999999999999MA1102201999999MW1411REMMET062LFGJ 192100Z 00000KT 0300 R06/0350V0600N BCFG SKC 10/09 Q1022;EQDQ01+000003PRSWM1Q02    003PRSWM1
0092072553999992000101922004+47030+005430FM-15+0196LFGJ V0203601N001012200019N0200001N1+99999+99999999999ADDMW1001REMMET055LFGJ 192200Z 36002KT 200 R06/0300 FG VV/// 10/10 Q1021;EQDQ01+000000PRSWM2
0092072553999992000101923004+47030+005430FM-15+0196LFGJ V0201001N001012200019N0250001N1+99999+99999999999ADDMW1001REMMET055LFGJ 192300Z 10002KT 250 R06/0450 FG VV/// 10/10 Q1021;EQDQ01+000000PRSWM2
0091072553999992000102018004+47030+005430FM-15+0196LFGJ V0201201N00211220001CN0099001N1+01401+01201999999ADDMA1101691999999MW1001REMMET039LFGJ 201800Z 12004KT CAVOK 14/12 Q1017;EQDQ01+000000PRSWM2
0091072553999992000102019004+47030+005430FM-15+0196LFGJ V0201101N00211220001CN0099001N1+01401+01201999999ADDMA1101691999999MW1001REMMET039LFGJ 201900Z 11004KT CAVOK 14/12 Q1017;EQDQ01+000000PRSWM2
0091072553999992000102020004+47030+005430FM-15+0196LFGJ V0200901N00311220001CN0099001N1+01201+01101999999ADDMA1101691999999MW1001REMMET039LFGJ 202000Z 09006KT CAVOK 12/11 Q1017;EQDQ01+000000PRSWM2
0091072553999992000102021004+47030+005430FM-15+0196LFGJ V0201101N00211220001CN0099001N1+01301+01101999999ADDMA1101691999999MW1001REMMET039LFGJ 202100Z 11004KT CAVOK 13/11 Q1017;EQDQ01+000000PRSWM2
0091072553999992000102022004+47030+005430FM-15+0196LFGJ V0201101N00311220001CN0099001N1+01201+01001999999ADDMA1101801999999MW1001REMMET039LFGJ 202200Z 11006KT CAVOK 12/10 Q1018;EQDQ01+000000PRSWM2
0091072553999992000102023004+47030+005430FM-15+0196LFGJ V0201501N00311220001CN0099001N1+01001+00901999999ADDMA1101801999999MW1001REMMET039LFGJ 202300Z 15006KT CAVOK 10/09 Q1018;EQDQ01+000000PRSWM2
0056072553999992000102100004+47030+005430FM-15+0196LFGJ V02099999999992200019N0112651N1+99999+99999999999ADDMW1001REMMET019LFGJ 210000Z CAVOK;EQDQ01+000000PRSWM2
0091072553999992000102318004+47030+005430FM-15+0196LFGJ V0201601N00101220001CN0099001N1+01501+01201999999ADDMA1102401999999MW1001REMMET039LFGJ 231800Z 16002KT CAVOK 15/12 Q1024;EQDQ01+000000PRSWM2
0091072553999992000102319004+47030+005430FM-15+0196LFGJ V0201801N00411220001CN0099001N1+01701+01201999999ADDMA1102401999999MW1001REMMET039LFGJ 231900Z 18008KT CAVOK 17/12 Q1024;EQDQ01+000000PRSWM2
0091072553999992000102320004+47030+005430FM-15+0196LFGJ V0201901N00511220001CN0099001N1+01701+01201999999ADDMA1102401999999MW1001REMMET039LFGJ 232000Z 19010KT CAVOK 17/12 Q1024;EQDQ01+000000PRSWM2
0091072553999992000102321004+47030+005430FM-15+0196LFGJ V0201901N00621220001CN0099001N1+01701+01201999999ADDMA1102401999999MW1001REMMET039LFGJ 232100Z 19012KT CAVOK 17/12 Q1024;EQDQ01+000000PRSWM2
0091072553999992000102322004+47030+005430FM-15+0196LFGJ V0202201N00411220001CN0099001N1+01601+01301999999ADDMA1102401999999MW1001REMMET039LFGJ 232200Z 22008KT CAVOK 16/13 Q1024;EQDQ01+000000PRSWM2
0091072553999992000102323004+47030+005430FM-15+0196LFGJ V0202001N00411220001CN0099001N1+01601+01201999999ADDMA1102401999999MW1001REMMET039LFGJ 232300Z 20008KT CAVOK 16/12 Q1024;EQDQ01+000000PRSWM2
0162072553999992000102400004+47030+005430FM-15+0196LFGJ V0202101N005110240019N0112651N1+01601+01201999999ADDGA1021+014109999GA2081+024009999GF108991999999999999999999MA1102401999999MW1001REMMET052LFGJ 240000Z 21010KT 9999 FEW047 OVC083 16/12 Q1024;EQDQ01+000000PRSWM2
0183072553999992000102418004+47030+005430FM-15+0196LFGJ V0209999C000010126019N0080001N1+01401+01301999999ADDGA1071+012609999GA2081+030009999GF108991999999999999999999MA1102301999999MW1121REMMET057LFGJ 241800Z 00000KT 8000 MIFG BKN042 OVC100 14/13 Q1023;EQDQ01+000003PRSWM1Q02    003PRSWM1
0192072553999992000102419004+47030+005430FM-15+0196LFGJ V0201101N001010300019N0045001N1+01301+01301999999ADDGA1021+013509999GA2071+030009999GF107991999999999999999999MA1102301999999MW1101MW2121REMMET060LFGJ 241900Z 11002KT 4500 BR MIFG FEW045 BKN100 13/13 Q1023;EQDQ01+000003PRSWM1Q02    003PRSWM1
0090072553999992000102420004+47030+005430FM-15+0196LFGJ V0209999C000012200019N0900001N1+99999+99999999999ADDMW1001REMMET053LFGJ 242000Z 00000KT 900 R06/0300 FG SKC 12/11 Q1022;EQDQ01+000000PRSWM2
0090072553999992000102421004+47030+005430FM-15+0196LFGJ V0200401N001012200019N0200001N1+99999+99999999999ADDMW1001REMMET053LFGJ 242100Z 04002KT 200 R06/0500 FG SKC 11/10 Q1022;EQDQ01+000000PRSWM2
0090072553999992000102422004+47030+005430FM-15+0196LFGJ V0200401N002112200019N0200001N1+99999+99999999999ADDMW1001REMMET053LFGJ 242200Z 04004KT 200 R06/0500 FG SKC 10/10 Q1022;EQDQ01+000000PRSWM2
0090072553999992000102423004+47030+005430FM-15+0196LFGJ V0200801N001012200019N0200001N1+99999+99999999999ADDMW1001REMMET053LFGJ 242300Z 08002KT 200 R06/0500 FG SKC 09/09 Q1021;EQDQ01+000000PRSWM2
0091072553999992000102518004+47030+005430FM-15+0196LFGJ V0201901N00461220001CN0099001N1+01501+01001999999ADDMA1101491999999MW1001REMMET039LFGJ 251800Z 19009KT CAVOK 15/10 Q1015;EQDQ01+000000PRSWM2
0091072553999992000102519004+47030+005430FM-15+0196LFGJ V0202001N00511220001CN0099001N1+01501+00901999999ADDMA1101491999999MW1001REMMET039LFGJ 251900Z 20010KT CAVOK 15/09 Q1015;EQDQ01+000000PRSWM2
0091072553999992000102520004+47030+005430FM-15+0196LFGJ V0202001N00511220001CN0099001N1+01501+00901999999ADDMA1101591999999MW1001REMMET039LFGJ 252000Z 20010KT CAVOK 15/09 Q1016;EQDQ01+000000PRSWM2
0091072553999992000102521004+47030+005430FM-15+0196LFGJ V0201901N00721220001CN0099001N1+01501+01001999999ADDMA1101591999999MW1001REMMET039LFGJ 252100Z 19014KT CAVOK 15/10 Q1016;EQDQ01+000000PRSWM2
0091072553999992000102522004+47030+005430FM-15+0196LFGJ V0201901N00621220001CN0099001N1+01401+01001999999ADDMA1101591999999MW1001REMMET039LFGJ 252200Z 19012KT CAVOK 14/10 Q1016;EQDQ01+000000PRSWM2
0091072553999992000102523004+47030+005430FM-15+0196LFGJ V0201901N00621220001CN0099001N1+01401+01101999999ADDMA1101591999999MW1001REMMET039LFGJ 252300Z 19012KT CAVOK 14/11 Q1016;EQDQ01+000000PRSWM2
0162072553999992000102600004+47030+005430FM-15+0196LFGJ V0202101N006212200019N0112651N1+01501+01101999999ADDGA1021+010809999GA2021+013509999GF104991999999999999999999MA1101591999999MW1001REMMET052LFGJ 260000Z 21012KT 9999 FEW036 SCT045 15/11 Q1016;EQDQ01+000000PRSWM2
0139072553999992000102618004+47030+005430FM-15+0196LFGJ V0201601N001010063019N0112651N1+01101+01001999999ADDGA1071+006309999GF107991999999999999999999MA1101901999999MW1001REMMET045LFGJ 261800Z 16002KT 9999 BKN021 11/10 Q1019;EQDQ01+000000PRSWM2
0139072553999992000102619004+47030+005430FM-15+0196LFGJ V0209999C000010063019N0112651N1+01101+01001999999ADDGA1071+006309999GF107991999999999999999999MA1102001999999MW1001REMMET045LFGJ 261900Z 00000KT 9999 BKN021 11/10 Q1020;EQDQ01+000000PRSWM2
0162072553999992000102620004+47030+005430FM-15+0196LFGJ V0200401N001010090019N0112651N1+01101+01001999999ADDGA1021+003309999GA2071+009009999GF107991999999999999999999MA1102001999999MW1001REMMET052LFGJ 262000Z 04002KT 9999 FEW011 BKN030 11/10 Q1020;EQDQ01+000000PRSWM2
0162072553999992000102621004+47030+005430FM-15+0196LFGJ V0202401N001510069019N0112651N1+01101+01001999999ADDGA1021+002709999GA2071+006909999GF107991999999999999999999MA1102001999999MW1001REMMET052LFGJ 262100Z 24003KT 9999 FEW009 BKN023 11/10 Q1020;EQDQ01+000000PRSWM2
0162072553999992000102622004+47030+005430FM-15+0196LFGJ V0202101N002110099019N0112651N1+01101+01001999999ADDGA1021+007209999GA2081+009909999GF108991999999999999999999MA1102101999999MW1001REMMET052LFGJ 262200Z 21004KT 9999 FEW024 OVC033 11/10 Q1021;EQDQ01+000000PRSWM2
0162072553999992000102623004+47030+005430FM-15+0196LFGJ V0202501N001010108019N0112651N1+01101+01001999999ADDGA1021+006309999GA2081+010809999GF108991999999999999999999MA1102101999999MW1001REMMET052LFGJ 262300Z 25002KT 9999 SCT021 OVC036 11/10 Q1021;EQDQ01+000000PRSWM2
0139072553999992000102700004+47030+005430FM-15+0196LFGJ V0202101N002110120019N0112651N1+01001+00901999999ADDGA1071+012009999GF107991999999999999999999MA1102101999999MW1001REMMET045LFGJ 270000Z 21004KT 9999 BKN040 10/09 Q1021;EQDQ01+000000PRSWM2
0091072553999992000102718004+47030+005430FM-15+0196LFGJ V0201701N00101220001CN0099001N1+00901+00801999999ADDMA1102201999999MW1001REMMET039LFGJ 271800Z 17002KT CAVOK 09/08 Q1022;EQDQ01+000000PRSWM2
0091072553999992000102719004+47030+005430FM-15+0196LFGJ V0201801N00151220001CN0099001N1+00801+00701999999ADDMA1102201999999MW1001REMMET039LFGJ 271900Z 18003KT CAVOK 08/07 Q1022;EQDQ01+000000PRSWM2
0091072553999992000102720004+47030+005430FM-15+0196LFGJ V0200601N00101220001CN0099001N1+00701+00601999999ADDMA1102301999999MW1001REMMET039LFGJ 272000Z 06002KT CAVOK 07/06 Q1023;EQDQ01+000000PRSWM2
0091072553999992000102721004+47030+005430FM-15+0196LFGJ V0200801N00211220001CN0099001N1+00601+00601999999ADDMA1102301999999MW1001REMMET039LFGJ 272100Z 08004KT CAVOK 06/06 Q1023;EQDQ01+000000PRSWM2
0091072553999992000102722004+47030+005430FM-15+0196LFGJ V0200801N00101220001CN0099001N1+00601+00501999999ADDMA1102301999999MW1001REMMET039LFGJ 272200Z 08002KT CAVOK 06/05 Q1023;EQDQ01+000000PRSWM2
0091072553999992000102723004+47030+005430FM-15+0196LFGJ V0200701N00211220001CN0099001N1+00601+00501999999ADDMA1102301999999MW1001REMMET039LFGJ 272300Z 07004KT CAVOK 06/05 Q1023;EQDQ01+000000PRSWM2
0120072553999992000102800004+47030+005430FM-15+0196LFGJ V0201301N002112200019N0090001N1+00501+00401999999ADDGF100991999999999999999999MA1102301999999MW1001REMMET042LFGJ 280000Z 13004KT 9000 SKC 05/04 Q1023;EQDQ01+000000PRSWM2
0193072553999992000103019004+47030+005430FM-15+0196LFGJ V0202001N011810108019N0112651N1+01701+01201999999ADDGA1071+010809999GA2081+024009999GF108991999999999999999999MA1099901999999MW1611OC101801REMMET059LFGJ 301900Z 20023G35KT 9999 -RA BKN036 OVC083 17/12 Q0999;EQDQ01+000003PRSWM1Q02    003PRSWM1
0182072553999992000103020004+47030+005430FM-15+0196LFGJ V0201901N012310108019N0112651N1+01601+01301999999ADDGA1071+010809999GA2081+024009999GF108991999999999999999999MA1099901999999MW1611REMMET056LFGJ 302000Z 19024KT 9999 -RA BKN036 OVC083 16/13 Q0999;EQDQ01+000003PRSWM1Q02    003PRSWM1
0159072553999992000103021004+47030+005430FM-15+0196LFGJ V0202001N009810108019N0090001N1+01501+01301999999ADDGA1071+010809999GF107991999999999999999999MA1099901999999MW1611REMMET049LFGJ 302100Z 20019KT 9000 -RA BKN036 15/13 Q0999;EQDQ01+000003PRSWM1Q02    003PRSWM1
0159072553999992000103022004+47030+005430FM-15+0196LFGJ V0202701N004610099019N0090001N1+01201+01101999999ADDGA1071+009909999GF107991999999999999999999MA1099901999999MW1611REMMET049LFGJ 302200Z 27009KT 9000 -RA BKN033 12/11 Q0999;EQDQ01+000003PRSWM1Q02    003PRSWM1
0158072553999992000103023004+47030+005430FM-15+0196LFGJ V0202701N005110099019N0060001N1+01101+01001999999ADDGA1081+009909999GF108991999999999999999999MA1100001999999MW1631REMMET048LFGJ 302300Z 27010KT 6000 RA OVC033 11/10 Q1000;EQDQ01+000003PRSWM1Q02    003PRSWM1
0159072553999992000103100004+47030+005430FM-15+0196LFGJ V0202401N002610078019N0090001N1+01001+00901999999ADDGA1071+007809999GF107991999999999999999999MA1100001999999MW1611REMMET049LFGJ 310000Z 24005KT 9000 -RA BKN026 10/09 Q1000;EQDQ01+000003PRSWM1Q02    003PRSWM1
0159072553999992000103101004+47030+005430FM-15+0196LFGJ V0201801N004110078019N0080001N1+01001+00901999999ADDGA1071+007809999GF107991999999999999999999MA1100101999999MW1611REMMET049LFGJ 310100Z 18008KT 8000 -RA BKN026 10/09 Q1001;EQDQ01+000003PRSWM1Q02    003PRSWM1
0091072553999992000110219004+47030+005430FM-15+0196LFGJ V0201901N00821220001CN0099001N1+01201+00901999999ADDMA1100201999999MW1001REMMET039LFGJ 021900Z 19016KT CAVOK 12/09 Q1002;EQDQ01+000000PRSWM2
0091072553999992000110220004+47030+005430FM-15+0196LFGJ V0201901N00721220001CN0099001N1+01201+00901999999ADDMA1100201999999MW1001REMMET039LFGJ 022000Z 19014KT CAVOK 12/09 Q1002;EQDQ01+000000PRSWM2
0139072553999992000110221004+47030+005430FM-15+0196LFGJ V0202101N006212200019N0112651N1+01201+00901999999ADDGA1021+012609999GF102991999999999999999999MA1100311999999MW1001REMMET045LFGJ 022100Z 21012KT 9999 FEW042 12/09 Q1003;EQDQ01+000000PRSWM2
0162072553999992000110222004+47030+005430FM-15+0196LFGJ V0201801N004110300019N0112651N1+01101+00901999999ADDGA1021+012609999GA2071+030009999GF107991999999999999999999MA1100201999999MW1001REMMET052LFGJ 022200Z 18008KT 9999 FEW042 BKN100 11/09 Q1002;EQDQ01+000000PRSWM2
0205072553999992000110223004+47030+005430FM-15+0196LFGJ V0201801N004110240019N0112651N1+01101+00901999999ADDGA1021+007509999GA2021+011709999GA3071+024009999GF107991999999999999999999MA1100201999999MW1611REMMET063LFGJ 022300Z 18008KT 9999 -RA FEW025 SCT039 BKN083 11/09 Q1002;EQDQ01+000003PRSWM1Q02    003PRSWM1
0205072553999992000110300004+47030+005430FM-15+0196LFGJ V0201701N005110240019N0112651N1+01101+01001999999ADDGA1021+001509999GA2021+013209999GA3081+024009999GF108991999999999999999999MA1100101999999MW1611REMMET063LFGJ 030000Z 17010KT 9999 -RA FEW005 SCT044 OVC080 11/10 Q1001;EQDQ01+000003PRSWM1Q02    003PRSWM1
0205072553999992000110301004+47030+005430FM-15+0196LFGJ V0201801N006210240019N0090001N1+01101+01001999999ADDGA1021+011109999GA2021+014109999GA3081+024009999GF108991999999999999999999MA1100001999999MW1611REMMET063LFGJ 030100Z 18012KT 9000 -RA FEW037 SCT047 OVC080 11/10 Q1000;EQDQ01+000003PRSWM1Q02    003PRSWM1
0085072553999992000110319004+47030+005430FM-15+0196LFGJ V0201801N00311220001CN0099001N1+99999+99999999999ADDMA1100511999999MW1001REMMET033LFGJ 031900Z 18006KT CAVOK Q1005;EQDQ01+000000PRSWM2
0162072553999992000110320004+47030+005430FM-15+0196LFGJ V0201901N005112200019N0112651N1+00601+00501999999ADDGA1021+014109999GA2021+024009999GF104991999999999999999999MA1100611999999MW1001REMMET052LFGJ 032000Z 19010KT 9999 FEW047 SCT083 06/05 Q1006;EQDQ01+000000PRSWM2
0139072553999992000110321004+47030+005430FM-15+0196LFGJ V0202301N006212200019N0112651N1+00701+00501999999ADDGA1021+014109999GF102991999999999999999999MA1100711999999MW1001REMMET045LFGJ 032100Z 23012KT 9999 FEW047 07/05 Q1007;EQDQ01+000000PRSWM2
0091072553999992000110322004+47030+005430FM-15+0196LFGJ V0202201N00511220001CN0099001N1+00601+00401999999ADDMA1100711999999MW1001REMMET039LFGJ 032200Z 22010KT CAVOK 06/04 Q1007;EQDQ01+000000PRSWM2
0139072553999992000110323004+47030+005430FM-15+0196LFGJ V0202201N005112200019N0112651N1+00701+00501999999ADDGA1021+010509999GF104991999999999999999999MA1100811999999MW1001REMMET045LFGJ 032300Z 22010KT 9999 SCT035 07/05 Q1008;EQDQ01+000000PRSWM2
0139072553999992000110400004+47030+005430FM-15+0196LFGJ V0202101N005110117019N0112651N1+00701+00501999999ADDGA1071+011709999GF107991999999999999999999MA1100911999999MW1001REMMET045LFGJ 040000Z 21010KT 9999 BKN039 07/05 Q1009;EQDQ01+000000PRSWM2
0139072553999992000110401004+47030+005430FM-15+0196LFGJ V0202201N006212200019N0112651N1+00701+00501999999ADDGA1021+014109999GF104991999999999999999999MA1100911999999MW1001REMMET045LFGJ 040100Z 22012KT 9999 SCT047 07/05 Q1009;EQDQ01+000000PRSWM2
0162072553999992000110619004+47030+005430FM-15+0196LFGJ V0201901N008710240019N0112651N1+01201+00601999999ADDGA1021+014709999GA2071+024009999GF107991999999999999999999MA1098211999999MW1001REMMET052LFGJ 061900Z 19017KT 9999 FEW049 BKN083 12/06 Q0982;EQDQ01+000000PRSWM2
0091072553999992000110620004+47030+005430FM-15+0196LFGJ V0201901N01181220001CN0099001N1+01201+00601999999ADDMA1098311999999MW1001REMMET039LFGJ 062000Z 19023KT CAVOK 12/06 Q0983;EQDQ01+000000PRSWM2
0162072553999992000110621004+47030+005430FM-15+0196LFGJ V0201901N009810180019N0112651N1+01201+00501999999ADDGA1021+009909999GA2071+018009999GF107991999999999999999999MA1098311999999MW1001REMMET052LFGJ 062100Z 19019KT 9999 FEW033 BKN060 12/05 Q0983;EQDQ01+000000PRSWM2
0102072553999992000110622004+47030+005430FM-15+0196LFGJ V0201901N01081220001CN0099001N1+01201+00401999999ADDMA1098311999999MW1001OC101801REMMET042LFGJ 062200Z 19021G35KT CAVOK 12/04 Q0983;EQDQ01+000000PRSWM2
0102072553999992000110623004+47030+005430FM-15+0196LFGJ V0201901N01181220001CN0099001N1+01201+00501999999ADDMA1098311999999MW1001OC101801REMMET042LFGJ 062300Z 19023G35KT CAVOK 12/05 Q0983;EQDQ01+000000PRSWM2
0173072553999992000110700004+47030+005430FM-15+0196LFGJ V0201901N013910180019N0112651N1+01101+00401999999ADDGA1021+012609999GA2071+018009999GF107991999999999999999999MA1098311999999MW1001OC102111REMMET055LFGJ 070000Z 19027G41KT 9999 FEW042 BKN060 11/04 Q0983;EQDQ01+000000PRSWM2
0173072553999992000110701004+47030+005430FM-15+0196LFGJ V0201901N013910180019N0112651N1+01101+00401999999ADDGA1021+008709999GA2071+018009999GF107991999999999999999999MA1098311999999MW1001OC102111REMMET055LFGJ 070100Z 19027G41KT 9999 FEW029 BKN060 11/04 Q0983;EQDQ01+000000PRSWM2
0162072553999992000110719004+47030+005430FM-15+0196LFGJ V0202001N008210111019N0112651N1+00801+00601999999ADDGA1021+002409999GA2071+011109999GF107991999999999999999999MA1099291999999MW1001REMMET052LFGJ 071900Z 20016KT 9999 FEW008 BKN037 08/06 Q0993;EQDQ01+000000PRSWM2
0162072553999992000110720004+47030+005430FM-15+0196LFGJ V0202001N007210108019N0112651N1+00801+00601999999ADDGA1021+001809999GA2081+010809999GF108991999999999999999999MA1099291999999MW1001REMMET052LFGJ 072000Z 20014KT 9999 FEW006 OVC036 08/06 Q0993;EQDQ01+000000PRSWM2
0162072553999992000110722004+47030+005430FM-15+0196LFGJ V0202001N008710114019N0112651N1+00801+00501999999ADDGA1021+006909999GA2081+011409999GF108991999999999999999999MA1099391999999MW1001REMMET052LFGJ 072200Z 20017KT 9999 FEW023 OVC038 08/05 Q0994;EQDQ01+000000PRSWM2
0162072553999992000110723004+47030+005430FM-15+0196LFGJ V0202001N008710105019N0112651N1+00801+00501999999ADDGA1021+007509999GA2081+010509999GF108991999999999999999999MA1099491999999MW1001REMMET052LFGJ 072300Z 20017KT 9999 FEW025 OVC035 08/05 Q0995;EQDQ01+000000PRSWM2
0162072553999992000110801004+47030+005430FM-15+0196LFGJ V0201901N009810120019N0112651N1+00901+00401999999ADDGA1071+012009999GA2081+014409999GF108991999999999999999999MA1099491999999MW1001REMMET052LFGJ 080100Z 19019KT 9999 BKN040 OVC048 09/04 Q0995;EQDQ01+000000PRSWM2
0139072553999992000110819004+47030+005430FM-15+0196LFGJ V0202001N007210105019N0112651N1+00801+00501999999ADDGA1081+010509999GF108991999999999999999999MA1100201999999MW1001REMMET045LFGJ 081900Z 20014KT 9999 OVC035 08/05 Q1002;EQDQ01+000000PRSWM2
0162072553999992000110820004+47030+005430FM-15+0196LFGJ V0202001N007210180019N0112651N1+00801+00501999999ADDGA1021+011109999GA2071+018009999GF107991999999999999999999MA1100201999999MW1001REMMET052LFGJ 082000Z 20014KT 9999 FEW037 BKN060 08/05 Q1002;EQDQ01+000000PRSWM2
0162072553999992000110821004+47030+005430FM-15+0196LFGJ V0202001N007210147019N0112651N1+00801+00501999999ADDGA1021+010809999GA2071+014709999GF107991999999999999999999MA1100311999999MW1001REMMET052LFGJ 082100Z 20014KT 9999 SCT036 BKN049 08/05 Q1003;EQDQ01+000000PRSWM2
0139072553999992000110822004+47030+005430FM-15+0196LFGJ V0201901N008210090019N0112651N1+00801+00501999999ADDGA1071+009009999GF107991999999999999999999MA1100411999999MW1001REMMET045LFGJ 082200Z 19016KT 9999 BKN030 08/05 Q1004;EQDQ01+000000PRSWM2
0162072553999992000110823004+47030+005430FM-15+0196LFGJ V0201901N008210120019N0112651N1+00801+00601999999ADDGA1021+009909999GA2071+012009999GF107991999999999999999999MA1100411999999MW1001REMMET052LFGJ 082300Z 19016KT 9999 SCT033 BKN040 08/06 Q1004;EQDQ01+000000PRSWM2
0162072553999992000110900004+47030+005430FM-15+0196LFGJ V0201901N007210096019N0112651N1+00801+00601999999ADDGA1021+003009999GA2071+009609999GF107991999999999999999999MA1100511999999MW1001REMMET052LFGJ 090000Z 19014KT 9999 FEW010 BKN032 08/06 Q1005;EQDQ01+000000PRSWM2
0139072553999992000110901004+47030+005430FM-15+0196LFGJ V0202001N007210096019N0112651N1+00801+00601999999ADDGA1071+009609999GF107991999999999999999999MA1100511999999MW1001REMMET045LFGJ 090100Z 20014KT 9999 BKN032 08/06 Q1005;EQDQ01+000000PRSWM2
0091072553999992000110919004+47030+005430FM-15+0196LFGJ V0201701N00311220001CN0099001N1+00501+00201999999ADDMA1101591999999MW1001REMMET039LFGJ 091900Z 17006KT CAVOK 05/02 Q1016;EQDQ01+000000PRSWM2
0091072553999992000110920004+47030+005430FM-15+0196LFGJ V0201301N00101220001CN0099001N1+00301+00201999999ADDMA1101591999999MW1001REMMET039LFGJ 092000Z 13002KT CAVOK 03/02 Q1016;EQDQ01+000000PRSWM2
0091072553999992000110921004+47030+005430FM-15+0196LFGJ V0200901N00211220001CN0099001N1+00301+00201999999ADDMA1101691999999MW1001REMMET039LFGJ 092100Z 09004KT CAVOK 03/02 Q1017;EQDQ01+000000PRSWM2
0091072553999992000110922004+47030+005430FM-15+0196LFGJ V0200701N00101220001CN0099001N1+00201+00201999999ADDMA1101691999999MW1001REMMET039LFGJ 092200Z 07002KT CAVOK 02/02 Q1017;EQDQ01+000000PRSWM2
0091072553999992000110923004+47030+005430FM-15+0196LFGJ V0200701N00101220001CN0099001N1+00201+00101999999ADDMA1101691999999MW1001REMMET039LFGJ 092300Z 07002KT CAVOK 02/01 Q1017;EQDQ01+000000PRSWM2
0091072553999992000111000004+47030+005430FM-15+0196LFGJ V0200901N00101220001CN0099001N1+00301+00301999999ADDMA1101691999999MW1001REMMET039LFGJ 100000Z 09002KT CAVOK 03/03 Q1017;EQDQ01+000000PRSWM2
0162072553999992000111001004+47030+005430FM-15+0196LFGJ V0201001N001010300019N0112651N1+00301+00201999999ADDGA1021+014709999GA2071+030009999GF107991999999999999999999MA1101801999999MW1001REMMET052LFGJ 100100Z 10002KT 9999 FEW049 BKN100 03/02 Q1018;EQDQ01+000000PRSWM2
0158072553999992000111319004+47030+005430FM-15+0196LFGJ V0201901N003110135019N0070001N1+01001+00901999999ADDGA1071+013509999GF107991999999999999999999MA1100411999999MW1631REMMET048LFGJ 131900Z 19006KT 7000 RA BKN045 10/09 Q1004;EQDQ01+000003PRSWM1Q02    003PRSWM1
0181072553999992000111320004+47030+005430FM-15+0196LFGJ V0201701N003610138019N0070001N1+01001+00901999999ADDGA1021+008709999GA2071+013809999GF107991999999999999999999MA1100411999999MW1631REMMET055LFGJ 132000Z 17007KT 7000 RA FEW029 BKN046 10/09 Q1004;EQDQ01+000003PRSWM1Q02    003PRSWM1
0158072553999992000111321004+47030+005430FM-15+0196LFGJ V0201501N003110084019N0070001N1+00901+00801999999ADDGA1071+008409999GF107991999999999999999999MA1100411999999MW1631REMMET048LFGJ 132100Z 15006KT 7000 RA BKN028 09/08 Q1004;EQDQ01+000003PRSWM1Q02    003PRSWM1
0181072553999992000111322004+47030+005430FM-15+0196LFGJ V0201801N005110126019N0060001N1+00901+00801999999ADDGA1021+008109999GA2071+012609999GF107991999999999999999999MA1100511999999MW1631REMMET055LFGJ 132200Z 18010KT 6000 RA FEW027 BKN042 09/08 Q1005;EQDQ01+000003PRSWM1Q02    003PRSWM1
0162072553999992000111323004+47030+005430FM-15+0196LFGJ V0201801N004110144019N0070001N1+00901+00801999999ADDGA1021+000909999GA2071+014409999GF107991999999999999999999MA1100511999999MW1001REMMET052LFGJ 132300Z 18008KT 7000 FEW003 BKN048 09/08 Q1005;EQDQ01+000000PRSWM2
0159072553999992000111400004+47030+005430FM-15+0196LFGJ V0201801N005110090019N0090001N1+00901+00801999999ADDGA1071+009009999GF107991999999999999999999MA1100611999999MW1611REMMET049LFGJ 140000Z 18010KT 9000 -RA BKN030 09/08 Q1006;EQDQ01+000003PRSWM1Q02    003PRSWM1
0182072553999992000111401004+47030+005430FM-15+0196LFGJ V0201701N003610126019N0090001N1+00901+00801999999ADDGA1021+006609999GA2071+012609999GF107991999999999999999999MA1100511999999MW1611REMMET056LFGJ 140100Z 17007KT 9000 -RA FEW022 BKN042 09/08 Q1005;EQDQ01+000003PRSWM1Q02    003PRSWM1
0091072553999992000111419004+47030+005430FM-15+0196LFGJ V0201901N00311220001CN0099001N1+00601+00501999999ADDMA1101191999999MW1001REMMET039LFGJ 141900Z 19006KT CAVOK 06/05 Q1012;EQDQ01+000000PRSWM2
0091072553999992000111420004+47030+005430FM-15+0196LFGJ V0201701N00311220001CN0099001N1+00601+00501999999ADDMA1101191999999MW1001REMMET039LFGJ 142000Z 17006KT CAVOK 06/05 Q1012;EQDQ01+000000PRSWM2
0139072553999992000111421004+47030+005430FM-15+0196LFGJ V0201801N003112200019N0112651N1+00501+00401999999ADDGA1021+013509999GF102991999999999999999999MA1101291999999MW1001REMMET045LFGJ 142100Z 18006KT 9999 FEW045 05/04 Q1013;EQDQ01+000000PRSWM2
0139072553999992000111422004+47030+005430FM-15+0196LFGJ V0201701N003112200019N0112651N1+00501+00401999999ADDGA1021+013509999GF102991999999999999999999MA1101291999999MW1001REMMET045LFGJ 142200Z 17006KT 9999 FEW045 05/04 Q1013;EQDQ01+000000PRSWM2
0139072553999992000111423004+47030+005430FM-15+0196LFGJ V0201801N003110144019N0112651N1+00501+00401999999ADDGA1071+014409999GF107991999999999999999999MA1101391999999MW1001REMMET045LFGJ 142300Z 18006KT 9999 BKN048 05/04 Q1014;EQDQ01+000000PRSWM2
0139072553999992000111500004+47030+005430FM-15+0196LFGJ V0201901N002110144019N0112651N1+00501+00501999999ADDGA1071+014409999GF107991999999999999999999MA1101391999999MW1001REMMET045LFGJ 150000Z 19004KT 9999 BKN048 05/05 Q1014;EQDQ01+000000PRSWM2
0139072553999992000111501004+47030+005430FM-15+0196LFGJ V0201901N001510114019N0112651N1+00601+00501999999ADDGA1071+011409999GF107991999999999999999999MA1101391999999MW1001REMMET045LFGJ 150100Z 19003KT 9999 BKN038 06/05 Q1014;EQDQ01+000000PRSWM2
0091072553999992000111519004+47030+005430FM-15+0196LFGJ V0201701N00211220001CN0099001N1+00501+00401999999ADDMA1101591999999MW1001REMMET039LFGJ 151900Z 17004KT CAVOK 05/04 Q1016;EQDQ01+000000PRSWM2
0139072553999992000111520004+47030+005430FM-15+0196LFGJ V0201201N001012200019N0112651N1+00501+00401999999ADDGA1021+014109999GF104991999999999999999999MA1101691999999MW1001REMMET045LFGJ 152000Z 12002KT 9999 SCT047 05/04 Q1017;EQDQ01+000000PRSWM2
0139072553999992000111521004+47030+005430FM-15+0196LFGJ V0201201N001012200019N0112651N1+00501+00501999999ADDGA1021+013209999GF104991999999999999999999MA1101691999999MW1001REMMET045LFGJ 152100Z 12002KT 9999 SCT044 05/05 Q1017;EQDQ01+000000PRSWM2
0139072553999992000111522004+47030+005430FM-15+0196LFGJ V0201801N001012200019N0112651N1+00501+00401999999ADDGA1021+013809999GF104991999999999999999999MA1101691999999MW1001REMMET045LFGJ 152200Z 18002KT 9999 SCT046 05/04 Q1017;EQDQ01+000000PRSWM2
0139072553999992000111523004+47030+005430FM-15+0196LFGJ V0201801N000512200019N0112651N1+00501+00401999999ADDGA1021+013209999GF104991999999999999999999MA1101691999999MW1001REMMET045LFGJ 152300Z 18001KT 9999 SCT044 05/04 Q1017;EQDQ01+000000PRSWM2
0091072553999992000111600004+47030+005430FM-15+0196LFGJ V0202001N00101220001CN0099001N1+00401+00401999999ADDMA1101691999999MW1001REMMET039LFGJ 160000Z 20002KT CAVOK 04/04 Q1017;EQDQ01+000000PRSWM2
0141072553999992000111601004+47030+005430FM-15+0196LFGJ V0201501N001012200019N0080001N1+00201+00201999999ADDGF100991999999999999999999MA1101691999999MW1121REMMET047LFGJ 160100Z 15002KT 8000 MIFG SKC 02/02 Q1017;EQDQ01+000003PRSWM1Q02    003PRSWM1
0120072553999992000111620004+47030+005430FM-15+0196LFGJ V0201001N001012200019N0080001N1+00201+00101999999ADDGF100991999999999999999999MA1101191999999MW1001REMMET042LFGJ 162000Z 10002KT 8000 SKC 02/01 Q1012;EQDQ01+000000PRSWM2
0139072553999992000111621004+47030+005430FM-15+0196LFGJ V0200801N001012200019N0080001N1+00201+00101999999ADDGA1021+015009999GF102991999999999999999999MA1101191999999MW1001REMMET045LFGJ 162100Z 08002KT 8000 FEW050 02/01 Q1012;EQDQ01+000000PRSWM2
0139072553999992000111622004+47030+005430FM-15+0196LFGJ V0201001N001010120019N0080001N1+00301+00201999999ADDGA1071+012009999GF107991999999999999999999MA1101191999999MW1001REMMET045LFGJ 162200Z 10002KT 8000 BKN040 03/02 Q1012;EQDQ01+000000PRSWM2
0139072553999992000111623004+47030+005430FM-15+0196LFGJ V0201101N001510120019N0070001N1+00301+00301999999ADDGA1071+012009999GF107991999999999999999999MA1101291999999MW1001REMMET045LFGJ 162300Z 11003KT 7000 BKN040 03/03 Q1013;EQDQ01+000000PRSWM2
0139072553999992000111700004+47030+005430FM-15+0196LFGJ V0201401N001010102019N0070001N1+00401+00301999999ADDGA1071+010209999GF107991999999999999999999MA1101291999999MW1001REMMET045LFGJ 170000Z 14002KT 7000 BKN034 04/03 Q1013;EQDQ01+000000PRSWM2
0162072553999992000111701004+47030+005430FM-15+0196LFGJ V0200901N000510102019N0070001N1+00401+00401999999ADDGA1021+006909999GA2081+010209999GF108991999999999999999999MA1101191999999MW1001REMMET052LFGJ 170100Z 09001KT 7000 SCT023 OVC034 04/04 Q1012;EQDQ01+000000PRSWM2
0091072553999992000111719004+47030+005430FM-15+0196LFGJ V0202701N00101220001CN0099001N1+00401+00201999999ADDMA1101691999999MW1001REMMET039LFGJ 171900Z 27002KT CAVOK 04/02 Q1017;EQDQ01+000000PRSWM2
0139072553999992000111720004+47030+005430FM-15+0196LFGJ V0209999C000010108019N0112651N1+00401+00301999999ADDGA1071+010809999GF107991999999999999999999MA1101801999999MW1001REMMET045LFGJ 172000Z 00000KT 9999 BKN036 04/03 Q1018;EQDQ01+000000PRSWM2
0139072553999992000111721004+47030+005430FM-15+0196LFGJ V0201501N001510090019N0112651N1+00401+00401999999ADDGA1071+009009999GF107991999999999999999999MA1101801999999MW1001REMMET045LFGJ 172100Z 15003KT 9999 BKN030 04/04 Q1018;EQDQ01+000000PRSWM2
0139072553999992000111722004+47030+005430FM-15+0196LFGJ V0201601N001510117019N0112651N1+00401+00301999999ADDGA1071+011709999GF107991999999999999999999MA1101801999999MW1001REMMET045LFGJ 172200Z 16003KT 9999 BKN039 04/03 Q1018;EQDQ01+000000PRSWM2
0162072553999992000111723004+47030+005430FM-15+0196LFGJ V0201701N001510141019N0112651N1+00401+00301999999ADDGA1021+008709999GA2071+014109999GF107991999999999999999999MA1101801999999MW1001REMMET052LFGJ 172300Z 17003KT 9999 FEW029 BKN047 04/03 Q1018;EQDQ01+000000PRSWM2
0182072553999992000111800004+47030+005430FM-15+0196LFGJ V0202101N002110078019N0070001N1+00401+00301999999ADDGA1021+002109999GA2081+007809999GF108991999999999999999999MA1101801999999MW1611REMMET056LFGJ 180000Z 21004KT 7000 -RA FEW007 OVC026 04/03 Q1018;EQDQ01+000003PRSWM1Q02    003PRSWM1
0162072553999992000111801004+47030+005430FM-15+0196LFGJ V0201901N001510072019N0112651N1+00401+00301999999ADDGA1021+001809999GA2071+007209999GF107991999999999999999999MA1101801999999MW1001REMMET052LFGJ 180100Z 19003KT 9999 FEW006 BKN024 04/03 Q1018;EQDQ01+000000PRSWM2
0091072553999992000112019004+47030+005430FM-15+0196LFGJ V0200801N00101220001CN0099001N1+00401+00301999999ADDMA1100511999999MW1001REMMET039LFGJ 201900Z 08002KT CAVOK 04/03 Q1005;EQDQ01+000000PRSWM2
0091072553999992000112020004+47030+005430FM-15+0196LFGJ V0201401N00151220001CN0099001N1+00401+00301999999ADDMA1100511999999MW1001REMMET039LFGJ 202000Z 14003KT CAVOK 04/03 Q1005;EQDQ01+000000PRSWM2
0162072553999992000112021004+47030+005430FM-15+0196LFGJ V0203401N001510180019N0112651N1+00501+00401999999ADDGA1021+004809999GA2071+018009999GF107991999999999999999999MA1100511999999MW1001REMMET052LFGJ 202100Z 34003KT 9999 SCT016 BKN060 05/04 Q1005;EQDQ01+000000PRSWM2
0139072553999992000112022004+47030+005430FM-15+0196LFGJ V0200801N001010036019N0112651N1+00501+00401999999ADDGA1081+003609999GF108991999999999999999999MA1100511999999MW1001REMMET045LFGJ 202200Z 08002KT 9999 OVC012 05/04 Q1005;EQDQ01+000000PRSWM2
0162072553999992000112023004+47030+005430FM-15+0196LFGJ V0200401N001010027019N0112651N1+00501+00401999999ADDGA1021+001209999GA2071+002709999GF107991999999999999999999MA1100511999999MW1001REMMET052LFGJ 202300Z 04002KT 9999 FEW004 BKN009 05/04 Q1005;EQDQ01+000000PRSWM2
0162072553999992000112100004+47030+005430FM-15+0196LFGJ V0202401N006210087019N0112651N1+00601+00501999999ADDGA1021+006309999GA2081+008709999GF108991999999999999999999MA1100611999999MW1001REMMET052LFGJ 210000Z 24012KT 9999 SCT021 OVC029 06/05 Q1006;EQDQ01+000000PRSWM2
0162072553999992000112101004+47030+005430FM-15+0196LFGJ V0202201N005110084019N0112651N1+00501+00401999999ADDGA1021+002109999GA2081+008409999GF108991999999999999999999MA1100611999999MW1001REMMET052LFGJ 210100Z 22010KT 9999 SCT007 OVC028 05/04 Q1006;EQDQ01+000000PRSWM2
0182072553999992000112119004+47030+005430FM-15+0196LFGJ V0201901N009810240019N0112651N1+00901+00301999999ADDGA1021+014709999GA2081+024009999GF108991999999999999999999MA1100611999999MW1611REMMET056LFGJ 211900Z 19019KT 9999 -RA FEW049 OVC080 09/03 Q1006;EQDQ01+000003PRSWM1Q02    003PRSWM1
0139072553999992000112120004+47030+005430FM-15+0196LFGJ V0201901N010810132019N0112651N1+00801+00401999999ADDGA1071+013209999GF107991999999999999999999MA1100711999999MW1001REMMET045LFGJ 212000Z 19021KT 9999 BKN044 08/04 Q1007;EQDQ01+000000PRSWM2
0159072553999992000112121004+47030+005430FM-15+0196LFGJ V0202001N010810120019N0112651N1+00801+00501999999ADDGA1081+012009999GF108991999999999999999999MA1100811999999MW1611REMMET049LFGJ 212100Z 20021KT 9999 -RA OVC040 08/05 Q1008;EQDQ01+000003PRSWM1Q02    003PRSWM1
0139072553999992000112122004+47030+005430FM-15+0196LFGJ V0202001N009810111019N0112651N1+00801+00501999999ADDGA1081+011109999GF108991999999999999999999MA1100811999999MW1001REMMET045LFGJ 212200Z 20019KT 9999 OVC037 08/05 Q1008;EQDQ01+000000PRSWM2
0150072553999992000112123004+47030+005430FM-15+0196LFGJ V0202001N009810087019N0112651N1+00901+00501999999ADDGA1081+008709999GF108991999999999999999999MA1100911999999MW1001OC101541REMMET048LFGJ 212300Z 20019G30KT 9999 OVC029 09/05 Q1009;EQDQ01+000000PRSWM2
0139072553999992000112200004+47030+005430FM-15+0196LFGJ V0201901N009810111019N0112651N1+00801+00501999999ADDGA1071+011109999GF107991999999999999999999MA1101021999999MW1001REMMET045LFGJ 220000Z 19019KT 9999 BKN037 08/05 Q1010;EQDQ01+000000PRSWM2
0139072553999992000112201004+47030+005430FM-15+0196LFGJ V0201901N009310096019N0112651N1+00801+00501999999ADDGA1071+009609999GF107991999999999999999999MA1101021999999MW1001REMMET045LFGJ 220100Z 19018KT 9999 BKN032 08/05 Q1010;EQDQ01+000000PRSWM2
0182072553999992000112219004+47030+005430FM-15+0196LFGJ V0201701N006210300019N0112651N1+01001+00901999999ADDGA1021+012909999GA2081+030009999GF108991999999999999999999MA1101081999999MW1611REMMET056LFGJ 221900Z 17012KT 9999 -RA FEW043 OVC100 10/09 Q1011;EQDQ01+000003PRSWM1Q02    003PRSWM1
0182072553999992000112220004+47030+005430FM-15+0196LFGJ V0201401N003110120019N0080001N1+01001+00901999999ADDGA1021+005409999GA2071+012009999GF107991999999999999999999MA1101081999999MW1611REMMET056LFGJ 222000Z 14006KT 8000 -RA FEW018 BKN040 10/09 Q1011;EQDQ01+000003PRSWM1Q02    003PRSWM1
0182072553999992000112221004+47030+005430FM-15+0196LFGJ V0200801N002110138019N0060001N1+00901+00801999999ADDGA1021+004209999GA2071+013809999GF107991999999999999999999MA1101021999999MW1611REMMET056LFGJ 222100Z 08004KT 6000 -RA FEW014 BKN046 09/08 Q1010;EQDQ01+000003PRSWM1Q02    003PRSWM1
0182072553999992000112222004+47030+005430FM-15+0196LFGJ V0200901N003110240019N0080001N1+00901+00801999999ADDGA1021+012309999GA2071+024009999GF107991999999999999999999MA1100911999999MW1611REMMET056LFGJ 222200Z 09006KT 8000 -RA FEW041 BKN080 09/08 Q1009;EQDQ01+000003PRSWM1Q02    003PRSWM1
0162072553999992000112223004+47030+005430FM-15+0196LFGJ V0201001N004110240019N0112651N1+00901+00801999999ADDGA1021+013809999GA2071+024009999GF107991999999999999999999MA1100911999999MW1001REMMET052LFGJ 222300Z 10008KT 9999 FEW046 BKN080 09/08 Q1009;EQDQ01+000000PRSWM2
0162072553999992000112300004+47030+005430FM-15+0196LFGJ V0201001N004110240019N0112651N1+00901+00801999999ADDGA1021+014409999GA2071+024009999GF107991999999999999999999MA1100711999999MW1001REMMET052LFGJ 230000Z 10008KT 9999 FEW048 BKN080 09/08 Q1007;EQDQ01+000000PRSWM2
0182072553999992000112301004+47030+005430FM-15+0196LFGJ V0201001N002110240019N0112651N1+00901+00801999999ADDGA1021+014409999GA2071+024009999GF107991999999999999999999MA1100711999999MW1611REMMET056LFGJ 230100Z 10004KT 9999 -RA FEW048 BKN080 09/08 Q1007;EQDQ01+000003PRSWM1Q02    003PRSWM1
0205072553999992000112319004+47030+005430FM-15+0196LFGJ V0202501N004110123019N0080001N1+00801+00701999999ADDGA1021+005409999GA2021+009909999GA3081+012309999GF108991999999999999999999MA1100311999999MW1611REMMET063LFGJ 231900Z 25008KT 8000 -RA FEW018 SCT033 OVC041 08/07 Q1003;EQDQ01+000003PRSWM1Q02    003PRSWM1
0205072553999992000112320004+47030+005430FM-15+0196LFGJ V0202101N003610126019N0112651N1+00801+00701999999ADDGA1021+002109999GA2021+009309999GA3081+012609999GF108991999999999999999999MA1100511999999MW1611REMMET063LFGJ 232000Z 21007KT 9999 -RA FEW007 SCT031 OVC042 08/07 Q1005;EQDQ01+000003PRSWM1Q02    003PRSWM1
0182072553999992000112321004+47030+005430FM-15+0196LFGJ V0202101N006210105019N0112651N1+00801+00701999999ADDGA1021+007809999GA2071+010509999GF107991999999999999999999MA1100611999999MW1611REMMET056LFGJ 232100Z 21012KT 9999 -RA FEW026 BKN035 08/07 Q1006;EQDQ01+000003PRSWM1Q02    003PRSWM1
0205072553999992000112322004+47030+005430FM-15+0196LFGJ V0202101N004110120019N0112651N1+00701+00601999999ADDGA1021+006909999GA2021+009309999GA3081+012009999GF108991999999999999999999MA1100711999999MW1611REMMET063LFGJ 232200Z 21008KT 9999 -RA FEW023 SCT031 OVC040 07/06 Q1007;EQDQ01+000003PRSWM1Q02    003PRSWM1
0091072553999992000112419004+47030+005430FM-15+0196LFGJ V0201101N00101220001CN0099001N1+00301+00301999999ADDMA1101191999999MW1001REMMET039LFGJ 241900Z 11002KT CAVOK 03/03 Q1012;EQDQ01+000000PRSWM2
0120072553999992000112420004+47030+005430FM-15+0196LFGJ V0200701N001512200019N0060001N1+00301+00201999999ADDGF100991999999999999999999MA1101191999999MW1001REMMET042LFGJ 242000Z 07003KT 6000 SKC 03/02 Q1012;EQDQ01+000000PRSWM2
0139072553999992000112421004+47030+005430FM-15+0196LFGJ V0200901N001512200019N0040001N1+00201+00101999999ADDGF100991999999999999999999MA1101191999999MW1101REMMET045LFGJ 242100Z 09003KT 4000 BR SKC 02/01 Q1012;EQDQ01+000003PRSWM1Q02    003PRSWM1
0139072553999992000112422004+47030+005430FM-15+0196LFGJ V0200801N001512200019N0020001N1+00101+00101999999ADDGF100991999999999999999999MA1101191999999MW1101REMMET045LFGJ 242200Z 08003KT 2000 BR SKC 01/01 Q1012;EQDQ01+000003PRSWM1Q02    003PRSWM1
0091072553999992000112423004+47030+005430FM-15+0196LFGJ V0200401N001012200019N0500001N1+99999+99999999999ADDMW1001REMMET054LFGJ 242300Z 04002KT 500 R06/0700 FG SKC 00/M00 Q1011;EQDQ01+000000PRSWM2
0092072553999992000112500004+47030+005430FM-15+0196LFGJ V0200901N002112200019N0400001N1+99999+99999999999ADDMW1001REMMET055LFGJ 250000Z 09004KT 400 R06/P2000 FG SKC 00/M00 Q1011;EQDQ01+000000PRSWM2
0092072553999992000112501004+47030+005430FM-15+0196LFGJ V0200801N002112200019N0500001N1+99999+99999999999ADDMW1001REMMET055LFGJ 250100Z 08004KT 500 R6/P2000 FG SKC M00/M00 Q1011;EQDQ01+000000PRSWM2
0091072553999992000112719004+47030+005430FM-15+0196LFGJ V0201801N00311220001CN0099001N1+00901+00601999999ADDMA1101901999999MW1001REMMET039LFGJ 271900Z 18006KT CAVOK 09/06 Q1019;EQDQ01+000000PRSWM2
0205072553999992000112720004+47030+005430FM-15+0196LFGJ V0201901N006210087019N0080001N1+00801+00601999999ADDGA1021+003909999GA2071+008709999GA3081+030009999GF108991999999999999999999MA1101901999999MW1611REMMET063LFGJ 272000Z 19012KT 8000 -RA FEW013 BKN029 OVC100 08/06 Q1019;EQDQ01+000003PRSWM1Q02    003PRSWM1
0182072553999992000112721004+47030+005430FM-15+0196LFGJ V0202001N007210057019N0070001N1+00901+00701999999ADDGA1021+003609999GA2071+005709999GF107991999999999999999999MA1101901999999MW1611REMMET056LFGJ 272100Z 20014KT 7000 -RA FEW012 BKN019 09/07 Q1019;EQDQ01+000003PRSWM1Q02    003PRSWM1
0159072553999992000112722004+47030+005430FM-15+0196LFGJ V0201901N007210018019N0050001N1+00801+00801999999ADDGA1071+001809999GF107991999999999999999999MA1101901999999MW1611REMMET049LFGJ 272200Z 19014KT 5000 -RA BKN006 08/08 Q1019;EQDQ01+000003PRSWM1Q02    003PRSWM1
0159072553999992000112723004+47030+005430FM-15+0196LFGJ V0201901N008210012019N0050001N1+00801+00801999999ADDGA1081+001209999GF108991999999999999999999MA1101901999999MW1611REMMET049LFGJ 272300Z 19016KT 5000 -RA OVC004 08/08 Q1019;EQDQ01+000003PRSWM1Q02    003PRSWM1
0159072553999992000112800004+47030+005430FM-15+0196LFGJ V0201901N009810018019N0050001N1+00901+00801999999ADDGA1081+001809999GF108991999999999999999999MA1101901999999MW1611REMMET049LFGJ 280000Z 19019KT 5000 -RA OVC006 09/08 Q1019;EQDQ01+000003PRSWM1Q02    003PRSWM1
0162072553999992000112801004+47030+005430FM-15+0196LFGJ V0201901N009810030019N0090001N1+00901+00901999999ADDGA1021+000909999GA2081+003009999GF108991999999999999999999MA1101901999999MW1001REMMET052LFGJ 280100Z 19019KT 9000 SCT003 OVC010 09/09 Q1019;EQDQ01+000000PRSWM2
0091072553999992000112823004+47030+005430FM-15+0196LFGJ V0201901N00621220001CN0099001N1+01401+00901999999ADDMA1101491999999MW1001REMMET039LFGJ 282300Z 19012KT CAVOK 14/09 Q1015;EQDQ01+000000PRSWM2
0056072553999992000112900004+47030+005430FM-15+0196LFGJ V02099999999992200019N0250001N1+99999+99999999999ADDMW1001REMMET019LFGJ 290000Z CAVOK;EQDQ01+000000PRSWM2
0091072553999992000112901004+47030+005430FM-15+0196LFGJ V0202101N00511220001CN0099001N1+01201+00901999999ADDMA1101391999999MW1001REMMET039LFGJ 290100Z 21010KT CAVOK 12/09 Q1014;EQDQ01+000000PRSWM2
0162072553999992000120419004+47030+005430FM-15+0196LFGJ V0201901N006210240019N0112651N1+01001+00701999999ADDGA1021+010809999GA2081+024009999GF108991999999999999999999MA1101901999999MW1001REMMET052LFGJ 041900Z 19012KT 9999 FEW036 OVC080 10/07 Q1019;EQDQ01+000000PRSWM2
0162072553999992000120420004+47030+005430FM-15+0196LFGJ V0201701N003110240019N0112651N1+00901+00701999999ADDGA1021+008709999GA2081+024009999GF108991999999999999999999MA1101901999999MW1001REMMET052LFGJ 042000Z 17006KT 9999 FEW029 OVC080 09/07 Q1019;EQDQ01+000000PRSWM2
0162072553999992000120421004+47030+005430FM-15+0196LFGJ V0201701N004110240019N0112651N1+01001+00701999999ADDGA1021+009009999GA2081+024009999GF108991999999999999999999MA1101901999999MW1001REMMET052LFGJ 042100Z 17008KT 9999 FEW030 OVC080 10/07 Q1019;EQDQ01+000000PRSWM2
0091072553999992000120422004+47030+005430FM-15+0196LFGJ V0202101N00211220001CN0099001N1+00901+00701999999ADDMA1102001999999MW1001REMMET039LFGJ 042200Z 21004KT CAVOK 09/07 Q1020;EQDQ01+000000PRSWM2
0091072553999992000120423004+47030+005430FM-15+0196LFGJ V0201601N00101220001CN0099001N1+00701+00601999999ADDMA1101901999999MW1001REMMET039LFGJ 042300Z 16002KT CAVOK 07/06 Q1019;EQDQ01+000000PRSWM2
0056072553999992000120500004+47030+005430FM-15+0196LFGJ V02099999999992200019N0099001N1+99999+99999999999ADDMW1001REMMET019LFGJ 050000Z CAVOK;EQDQ01+000000PRSWM2
0091072553999992000120501004+47030+005430FM-15+0196LFGJ V0200201N00101220001CN0099001N1+00501+00401999999ADDMA1101901999999MW1001REMMET039LFGJ 050100Z 02002KT CAVOK 05/04 Q1019;EQDQ01+000000PRSWM2
0091072553999992000120519004+47030+005430FM-15+0196LFGJ V0202001N00671220001CN0099001N1+01201+00701999999ADDMA1101491999999MW1001REMMET039LFGJ 051900Z 20013KT CAVOK 12/07 Q1015;EQDQ01+000000PRSWM2
0091072553999992000120520004+47030+005430FM-15+0196LFGJ V0201901N00821220001CN0099001N1+01201+00701999999ADDMA1101491999999MW1001REMMET039LFGJ 052000Z 19016KT CAVOK 12/07 Q1015;EQDQ01+000000PRSWM2
0091072553999992000120521004+47030+005430FM-15+0196LFGJ V0202101N00721220001CN0099001N1+01201+00701999999ADDMA1101491999999MW1001REMMET039LFGJ 052100Z 21014KT CAVOK 12/07 Q1015;EQDQ01+000000PRSWM2
0091072553999992000120522004+47030+005430FM-15+0196LFGJ V0202001N00621220001CN0099001N1+01201+00701999999ADDMA1101491999999MW1001REMMET039LFGJ 052200Z 20012KT CAVOK 12/07 Q1015;EQDQ01+000000PRSWM2
0091072553999992000120523004+47030+005430FM-15+0196LFGJ V0201901N00721220001CN0099001N1+01301+00701999999ADDMA1101491999999MW1001REMMET039LFGJ 052300Z 19014KT CAVOK 13/07 Q1015;EQDQ01+000000PRSWM2
0056072553999992000120600004+47030+005430FM-15+0196LFGJ V02099999999992200019N0400001N1+99999+99999999999ADDMW1001REMMET019LFGJ 060000Z CAVOK;EQDQ01+000000PRSWM2
0102072553999992000120601004+47030+005430FM-15+0196LFGJ V0201901N00771220001CN0099001N1+01301+00701999999ADDMA1101491999999MW1001OC101291REMMET042LFGJ 060100Z 19015G25KT CAVOK 13/07 Q1015;EQDQ01+000000PRSWM2
0162072553999992000120619004+47030+005430FM-15+0196LFGJ V0201901N004110180019N0112651N1+01201+00901999999ADDGA1021+014709999GA2071+018009999GF107991999999999999999999MA1101491999999MW1001REMMET052LFGJ 061900Z 19008KT 9999 FEW049 BKN060 12/09 Q1015;EQDQ01+000000PRSWM2
0091072553999992000120620004+47030+005430FM-15+0196LFGJ V0202001N00511220001CN0099001N1+01201+00901999999ADDMA1101491999999MW1001REMMET039LFGJ 062000Z 20010KT CAVOK 12/09 Q1015;EQDQ01+000000PRSWM2
0162072553999992000120621004+47030+005430FM-15+0196LFGJ V0202001N005110180019N0112651N1+01201+00901999999ADDGA1021+014709999GA2071+018009999GF107991999999999999999999MA1101591999999MW1001REMMET052LFGJ 062100Z 20010KT 9999 FEW049 BKN060 12/09 Q1016;EQDQ01+000000PRSWM2
0162072553999992000120622004+47030+005430FM-15+0196LFGJ V0201901N004110240019N0112651N1+01101+00901999999ADDGA1021+014709999GA2071+024009999GF107991999999999999999999MA1101491999999MW1001REMMET052LFGJ 062200Z 19008KT 9999 FEW049 BKN080 11/09 Q1015;EQDQ01+000000PRSWM2
0162072553999992000120623004+47030+005430FM-15+0196LFGJ V0201901N005110240019N0112651N1+01201+00901999999ADDGA1021+004809999GA2071+024009999GF107991999999999999999999MA1101491999999MW1001REMMET052LFGJ 062300Z 19010KT 9999 FEW016 BKN080 12/09 Q1015;EQDQ01+000000PRSWM2
0162072553999992000120700004+47030+005430FM-15+0196LFGJ V0201801N004110240019N0112651N1+01201+00901999999ADDGA1021+006309999GA2071+024009999GF107991999999999999999999MA1101391999999MW1001REMMET052LFGJ 070000Z 18008KT 9999 FEW021 BKN080 12/09 Q1014;EQDQ01+000000PRSWM2
0091072553999992000120701004+47030+005430FM-15+0196LFGJ V0201901N00261220001CN0099001N1+01201+00901999999ADDMA1101391999999MW1001REMMET039LFGJ 070100Z 19005KT CAVOK 12/09 Q1014;EQDQ01+000000PRSWM2
0091072553999992000120719004+47030+005430FM-15+0196LFGJ V0202001N01031220001CN0099001N1+01701+00601999999ADDMA1100311999999MW1001REMMET039LFGJ 071900Z 20020KT CAVOK 17/06 Q1003;EQDQ01+000000PRSWM2
0102072553999992000120720004+47030+005430FM-15+0196LFGJ V0202001N01081220001CN0099001N1+01601+00601999999ADDMA1100311999999MW1001OC101701REMMET042LFGJ 072000Z 20021G33KT CAVOK 16/06 Q1003;EQDQ01+000000PRSWM2
0091072553999992000120721004+47030+005430FM-15+0196LFGJ V0202001N00721220001CN0099001N1+01501+00701999999ADDMA1100311999999MW1001REMMET039LFGJ 072100Z 20014KT CAVOK 15/07 Q1003;EQDQ01+000000PRSWM2
0102072553999992000120722004+47030+005430FM-15+0196LFGJ V0202001N00981220001CN0099001N1+01601+00701999999ADDMA1100311999999MW1001OC101491REMMET042LFGJ 072200Z 20019G29KT CAVOK 16/07 Q1003;EQDQ01+000000PRSWM2
0091072553999992000120723004+47030+005430FM-15+0196LFGJ V0202001N00981220001CN0099001N1+01601+00601999999ADDMA1100311999999MW1001REMMET039LFGJ 072300Z 20019KT CAVOK 16/06 Q1003;EQDQ01+000000PRSWM2
0056072553999992000120800004+47030+005430FM-15+0196LFGJ V02099999999992200019N0120001N1+99999+99999999999ADDMW1001REMMET019LFGJ 080000Z CAVOK;EQDQ01+000000PRSWM2
0091072553999992000120801004+47030+005430FM-15+0196LFGJ V0202001N00981220001CN0099001N1+01601+00601999999ADDMA1100411999999MW1001REMMET039LFGJ 080100Z 20019KT CAVOK 16/06 Q1004;EQDQ01+000000PRSWM2
0162072553999992000120819004+47030+005430FM-15+0196LFGJ V0201901N003110180019N0112651N1+00801+00701999999ADDGA1021+014109999GA2071+018009999GF107991999999999999999999MA1101291999999MW1001REMMET052LFGJ 081900Z 19006KT 9999 FEW047 BKN060 08/07 Q1013;EQDQ01+000000PRSWM2
0162072553999992000120820004+47030+005430FM-15+0196LFGJ V0202101N001010240019N0112651N1+00901+00801999999ADDGA1021+014109999GA2071+024009999GF107991999999999999999999MA1101291999999MW1001REMMET052LFGJ 082000Z 21002KT 9999 FEW047 BKN080 09/08 Q1013;EQDQ01+000000PRSWM2
0091072553999992000120821004+47030+005430FM-15+0196LFGJ V0201701N00211220001CN0099001N1+00901+00801999999ADDMA1101291999999MW1001REMMET039LFGJ 082100Z 17004KT CAVOK 09/08 Q1013;EQDQ01+000000PRSWM2
0091072553999992000120822004+47030+005430FM-15+0196LFGJ V0201901N00311220001CN0099001N1+00901+00901999999ADDMA1101391999999MW1001REMMET039LFGJ 082200Z 19006KT CAVOK 09/09 Q1014;EQDQ01+000000PRSWM2
0091072553999992000120823004+47030+005430FM-15+0196LFGJ V0202001N00361220001CN0099001N1+00901+00801999999ADDMA1101391999999MW1001REMMET039LFGJ 082300Z 20007KT CAVOK 09/08 Q1014;EQDQ01+000000PRSWM2
0056072553999992000120900004+47030+005430FM-15+0196LFGJ V02099999999992200019N0112651N1+99999+99999999999ADDMW1001REMMET019LFGJ 090000Z CAVOK;EQDQ01+000000PRSWM2
0139072553999992000121119004+47030+005430FM-15+0196LFGJ V0202001N002110126019N0112651N1+01001+00701999999ADDGA1081+012609999GF108991999999999999999999MA1102811999999MW1001REMMET045LFGJ 111900Z 20004KT 9999 OVC042 10/07 Q1028;EQDQ01+000000PRSWM2
0139072553999992000121120004+47030+005430FM-15+0196LFGJ V0201901N002110126019N0112651N1+01001+00601999999ADDGA1071+012609999GF107991999999999999999999MA1102811999999MW1001REMMET045LFGJ 112000Z 19004KT 9999 BKN042 10/06 Q1028;EQDQ01+000000PRSWM2
0162072553999992000121121004+47030+005430FM-15+0196LFGJ V0201901N002110330019N0112651N1+00801+00601999999ADDGA1021+012609999GA2071+033009999GF107991999999999999999999MA1102811999999MW1001REMMET052LFGJ 112100Z 19004KT 9999 FEW042 BKN110 08/06 Q1028;EQDQ01+000000PRSWM2
0091072553999992000121122004+47030+005430FM-15+0196LFGJ V0201401N00211220001CN0099001N1+00801+00501999999ADDMA1102711999999MW1001REMMET039LFGJ 112200Z 14004KT CAVOK 08/05 Q1027;EQDQ01+000000PRSWM2
0091072553999992000121123004+47030+005430FM-15+0196LFGJ V0202001N00211220001CN0099001N1+00801+00401999999ADDMA1102711999999MW1001REMMET039LFGJ 112300Z 20004KT CAVOK 08/04 Q1027;EQDQ01+000000PRSWM2
0091072553999992000121200004+47030+005430FM-15+0196LFGJ V0202601N00101220001CN0099001N1+00701+00401999999ADDMA1102711999999MW1001REMMET039LFGJ 120000Z 26002KT CAVOK 07/04 Q1027;EQDQ01+000000PRSWM2
0091072553999992000121201004+47030+005430FM-15+0196LFGJ V0209999C00001220001CN0099001N1+00501+00401999999ADDMA1102711999999MW1001REMMET039LFGJ 120100Z 00000KT CAVOK 05/04 Q1027;EQDQ01+000000PRSWM2
0091072553999992000121219004+47030+005430FM-15+0196LFGJ V0202101N00821220001CN0099001N1+01201+00801999999ADDMA1102101999999MW1001REMMET039LFGJ 121900Z 21016KT CAVOK 12/08 Q1021;EQDQ01+000000PRSWM2
0091072553999992000121220004+47030+005430FM-15+0196LFGJ V0201901N00821220001CN0099001N1+01201+00801999999ADDMA1102001999999MW1001REMMET039LFGJ 122000Z 19016KT CAVOK 12/08 Q1020;EQDQ01+000000PRSWM2
0091072553999992000121221004+47030+005430FM-15+0196LFGJ V0201901N00981220001CN0099001N1+01201+00801999999ADDMA1102001999999MW1001REMMET039LFGJ 122100Z 19019KT CAVOK 12/08 Q1020;EQDQ01+000000PRSWM2
0091072553999992000121222004+47030+005430FM-15+0196LFGJ V0202101N00821220001CN0099001N1+01201+00801999999ADDMA1102001999999MW1001REMMET039LFGJ 122200Z 21016KT CAVOK 12/08 Q1020;EQDQ01+000000PRSWM2
0091072553999992000121223004+47030+005430FM-15+0196LFGJ V0202001N00821220001CN0099001N1+01201+00801999999ADDMA1102001999999MW1001REMMET039LFGJ 122300Z 20016KT CAVOK 12/08 Q1020;EQDQ01+000000PRSWM2
0056072553999992000121300004+47030+005430FM-15+0196LFGJ V02099999999992200019N0099001N1+99999+99999999999ADDMW1001REMMET019LFGJ 130000Z CAVOK;EQDQ01+000000PRSWM2
0091072553999992000121301004+47030+005430FM-15+0196LFGJ V0202001N00871220001CN0099001N1+01201+00801999999ADDMA1102101999999MW1001REMMET039LFGJ 130100Z 20017KT CAVOK 12/08 Q1021;EQDQ01+000000PRSWM2
0091072553999992000121319004+47030+005430FM-15+0196LFGJ V0202001N00411220001CN0099001N1+00901+00701999999ADDMA1102301999999MW1001REMMET039LFGJ 131900Z 20008KT CAVOK 09/07 Q1023;EQDQ01+000000PRSWM2
0091072553999992000121320004+47030+005430FM-15+0196LFGJ V0201901N00411220001CN0099001N1+00901+00601999999ADDMA1102301999999MW1001REMMET039LFGJ 132000Z 19008KT CAVOK 09/06 Q1023;EQDQ01+000000PRSWM2
0091072553999992000121321004+47030+005430FM-15+0196LFGJ V0202201N00411220001CN0099001N1+00901+00601999999ADDMA1102201999999MW1001REMMET039LFGJ 132100Z 22008KT CAVOK 09/06 Q1022;EQDQ01+000000PRSWM2
0091072553999992000121322004+47030+005430FM-15+0196LFGJ V0202101N00511220001CN0099001N1+00901+00501999999ADDMA1102201999999MW1001REMMET039LFGJ 132200Z 21010KT CAVOK 09/05 Q1022;EQDQ01+000000PRSWM2
0091072553999992000121323004+47030+005430FM-15+0196LFGJ V0202001N00511220001CN0099001N1+00901+00501999999ADDMA1102201999999MW1001REMMET039LFGJ 132300Z 20010KT CAVOK 09/05 Q1022;EQDQ01+000000PRSWM2
0056072553999992000121400004+47030+005430FM-15+0196LFGJ V02099999999992200019N0060001N1+99999+99999999999ADDMW1001REMMET019LFGJ 140000Z CAVOK;EQDQ01+000000PRSWM2
0162072553999992000121401004+47030+005430FM-15+0196LFGJ V0202001N005110300019N0112651N1+00901+00501999999ADDGA1021+012609999GA2081+030009999GF108991999999999999999999MA1102001999999MW1001REMMET052LFGJ 140100Z 20010KT 9999 SCT042 OVC100 09/05 Q1020;EQDQ01+000000PRSWM2
0139072553999992000121419004+47030+005430FM-15+0196LFGJ V0201901N006210078019N0112651N1+00801+00701999999ADDGA1071+007809999GF107991999999999999999999MA1101021999999MW1001REMMET045LFGJ 141900Z 19012KT 9999 BKN026 08/07 Q1010;EQDQ01+000000PRSWM2
0139072553999992000121420004+47030+005430FM-15+0196LFGJ V0202001N006210081019N0112651N1+00901+00701999999ADDGA1071+008109999GF107991999999999999999999MA1100911999999MW1001REMMET045LFGJ 142000Z 20012KT 9999 BKN027 09/07 Q1009;EQDQ01+000000PRSWM2
0162072553999992000121421004+47030+005430FM-15+0196LFGJ V0202101N007210099019N0112651N1+00901+00701999999ADDGA1021+006909999GA2071+009909999GF107991999999999999999999MA1100911999999MW1001REMMET052LFGJ 142100Z 21014KT 9999 FEW023 BKN033 09/07 Q1009;EQDQ01+000000PRSWM2
0162072553999992000121422004+47030+005430FM-15+0196LFGJ V0202101N006710078019N0112651N1+00901+00701999999ADDGA1021+001809999GA2071+007809999GF107991999999999999999999MA1100911999999MW1001REMMET052LFGJ 142200Z 21013KT 9999 FEW006 BKN026 09/07 Q1009;EQDQ01+000000PRSWM2
0162072553999992000121423004+47030+005430FM-15+0196LFGJ V0202201N007210093019N0112651N1+00901+00701999999ADDGA1021+001209999GA2071+009309999GF107991999999999999999999MA1100911999999MW1001REMMET052LFGJ 142300Z 22014KT 9999 FEW004 BKN031 09/07 Q1009;EQDQ01+000000PRSWM2
0162072553999992000121500004+47030+005430FM-15+0196LFGJ V0202301N006210300019N0112651N1+00801+00701999999ADDGA1021+006309999GA2071+030009999GF107991999999999999999999MA1100911999999MW1001REMMET052LFGJ 150000Z 23012KT 9999 FEW021 BKN100 08/07 Q1009;EQDQ01+000000PRSWM2
0162072553999992000121501004+47030+005430FM-15+0196LFGJ V0202301N005110300019N0112651N1+00801+00601999999ADDGA1021+006309999GA2081+030009999GF108991999999999999999999MA1100911999999MW1001REMMET052LFGJ 150100Z 23010KT 9999 FEW021 OVC100 08/06 Q1009;EQDQ01+000000PRSWM2
0205072553999992000121519004+47030+005430FM-15+0196LFGJ V0202301N003110240019N0112651N1+00501+00401999999ADDGA1021+004209999GA2021+009609999GA3081+024009999GF108991999999999999999999MA1101391999999MW1611REMMET063LFGJ 151900Z 23006KT 9999 -RA FEW014 SCT032 OVC083 05/04 Q1014;EQDQ01+000003PRSWM1Q02    003PRSWM1
0185072553999992000121520004+47030+005430FM-15+0196LFGJ V0202101N003110240019N0112651N1+00501+00401999999ADDGA1021+001209999GA2021+013809999GA3081+024009999GF108991999999999999999999MA1101391999999MW1001REMMET059LFGJ 152000Z 21006KT 9999 FEW004 SCT046 OVC083 05/04 Q1014;EQDQ01+000000PRSWM2
0205072553999992000121521004+47030+005430FM-15+0196LFGJ V0202401N003110141019N0112651N1+00501+00401999999ADDGA1021+001809999GA2021+009909999GA3081+014109999GF108991999999999999999999MA1101491999999MW1611REMMET063LFGJ 152100Z 24006KT 9999 -RA FEW006 SCT033 OVC047 05/04 Q1015;EQDQ01+000003PRSWM1Q02    003PRSWM1
0162072553999992000121522004+47030+005430FM-15+0196LFGJ V0202101N003110144019N0112651N1+00401+00301999999ADDGA1021+001509999GA2071+014409999GF107991999999999999999999MA1101491999999MW1001REMMET052LFGJ 152200Z 21006KT 9999 FEW005 BKN048 04/03 Q1015;EQDQ01+000000PRSWM2
0162072553999992000121523004+47030+005430FM-15+0196LFGJ V0202101N003112200019N0112651N1+00401+00301999999ADDGA1021+014709999GA2021+024009999GF104991999999999999999999MA1101491999999MW1001REMMET052LFGJ 152300Z 21006KT 9999 FEW049 SCT083 04/03 Q1015;EQDQ01+000000PRSWM2
0056072553999992000121600004+47030+005430FM-15+0196LFGJ V02099999999992200019N0160931N1+99999+99999999999ADDMW1001REMMET019LFGJ 160000Z CAVOK;EQDQ01+000000PRSWM2
0091072553999992000121601004+47030+005430FM-15+0196LFGJ V0202101N00411220001CN0099001N1+00401+00301999999ADDMA1101491999999MW1001REMMET039LFGJ 160100Z 21008KT CAVOK 04/03 Q1015;EQDQ01+000000PRSWM2
0091072553999992000121819004+47030+005430FM-15+0196LFGJ V0201301N00101220001CN0099001N1+00401+00301999999ADDMA1102001999999MW1001REMMET039LFGJ 181900Z 13002KT CAVOK 04/03 Q1020;EQDQ01+000000PRSWM2
0091072553999992000121820004+47030+005430FM-15+0196LFGJ V0201001N00211220001CN0099001N1+00401+00301999999ADDMA1102001999999MW1001REMMET039LFGJ 182000Z 10004KT CAVOK 04/03 Q1020;EQDQ01+000000PRSWM2
0091072553999992000121821004+47030+005430FM-15+0196LFGJ V0201501N00101220001CN0099001N1+00301+00201999999ADDMA1102001999999MW1001REMMET039LFGJ 182100Z 15002KT CAVOK 03/02 Q1020;EQDQ01+000000PRSWM2
0091072553999992000121822004+47030+005430FM-15+0196LFGJ V0200901N00101220001CN0099001N1+00401+00301999999ADDMA1102001999999MW1001REMMET039LFGJ 182200Z 09002KT CAVOK 04/03 Q1020;EQDQ01+000000PRSWM2
0091072553999992000121823004+47030+005430FM-15+0196LFGJ V0201501N00101220001CN0099001N1+00301+00201999999ADDMA1102001999999MW1001REMMET039LFGJ 182300Z 15002KT CAVOK 03/02 Q1020;EQDQ01+000000PRSWM2
0091072553999992000121900004+47030+005430FM-15+0196LFGJ V0201701N00151220001CN0099001N1+00401+00201999999ADDMA1102001999999MW1001REMMET039LFGJ 190000Z 17003KT CAVOK 04/02 Q1020;EQDQ01+000000PRSWM2
0091072553999992000121901004+47030+005430FM-15+0196LFGJ V0201701N00151220001CN0099001N1+00401+00201999999ADDMA1102001999999MW1001REMMET039LFGJ 190100Z 17003KT CAVOK 04/02 Q1020;EQDQ01+000000PRSWM2
0091072553999992000121919004+47030+005430FM-15+0196LFGJ V0200501N00101220001CN0099001N1+00701+00501999999ADDMA1101801999999MW1001REMMET039LFGJ 191900Z 05002KT CAVOK 07/05 Q1018;EQDQ01+000000PRSWM2
0091072553999992000121920004+47030+005430FM-15+0196LFGJ V0203401N00101220001CN0099001N1+00601+00501999999ADDMA1101801999999MW1001REMMET039LFGJ 192000Z 34002KT CAVOK 06/05 Q1018;EQDQ01+000000PRSWM2
0139072553999992000121921004+47030+005430FM-15+0196LFGJ V0203001N001012200019N0060001N1+00501+00401999999ADDGA1021+069009999GF104991999999999999999999MA1101691999999MW1001REMMET045LFGJ 192100Z 30002KT 6000 SCT230 05/04 Q1017;EQDQ01+000000PRSWM2
0139072553999992000121922004+47030+005430FM-15+0196LFGJ V0200101N002112200019N0060001N1+00401+00401999999ADDGA1021+069009999GF104991999999999999999999MA1101591999999MW1001REMMET045LFGJ 192200Z 01004KT 6000 SCT230 04/04 Q1016;EQDQ01+000000PRSWM2
0139072553999992000121923004+47030+005430FM-15+0196LFGJ V0202401N002112200019N0060001N1+00401+00301999999ADDGA1021+069009999GF104991999999999999999999MA1101591999999MW1001REMMET045LFGJ 192300Z 24004KT 6000 SCT230 04/03 Q1016;EQDQ01+000000PRSWM2
0158072553999992000122000004+47030+005430FM-15+0196LFGJ V0200101N001012200019N0045001N1+00401+00401999999ADDGA1021+069009999GF104991999999999999999999MA1101591999999MW1101REMMET048LFGJ 200000Z 01002KT 4500 BR SCT230 04/04 Q1016;EQDQ01+000003PRSWM1Q02    003PRSWM1
0158072553999992000122001004+47030+005430FM-15+0196LFGJ V0209999C000012200019N0035001N1+00301+00201999999ADDGA1021+069009999GF104991999999999999999999MA1101591999999MW1101REMMET048LFGJ 200100Z 00000KT 3500 BR SCT230 03/02 Q1016;EQDQ01+000003PRSWM1Q02    003PRSWM1
0139072553999992000122019004+47030+005430FM-15+0196LFGJ V0200701N004112200019N0090001N1+00401+00301999999ADDGA1021+069009999GF102991999999999999999999MA1101591999999MW1001REMMET045LFGJ 201900Z 07008KT 9000 FEW230 04/03 Q1016;EQDQ01+000000PRSWM2
0139072553999992000122020004+47030+005430FM-15+0196LFGJ V0200801N002612200019N0080001N1+00301+00201999999ADDGA1021+069009999GF102991999999999999999999MA1101591999999MW1001REMMET045LFGJ 202000Z 08005KT 8000 FEW230 03/02 Q1016;EQDQ01+000000PRSWM2
0139072553999992000122021004+47030+005430FM-15+0196LFGJ V0200701N003112200019N0080001N1+00301+00201999999ADDGA1021+069009999GF102991999999999999999999MA1101591999999MW1001REMMET045LFGJ 202100Z 07006KT 8000 FEW230 03/02 Q1016;EQDQ01+000000PRSWM2
0139072553999992000122022004+47030+005430FM-15+0196LFGJ V0200701N005112200019N0060001N1+00301+00201999999ADDGA1021+069009999GF102991999999999999999999MA1101591999999MW1001REMMET045LFGJ 202200Z 07010KT 6000 FEW230 03/02 Q1016;EQDQ01+000000PRSWM2
0139072553999992000122023004+47030+005430FM-15+0196LFGJ V0200601N004112200019N0060001N1+00301+00201999999ADDGA1021+069009999GF102991999999999999999999MA1101591999999MW1001REMMET045LFGJ 202300Z 06008KT 6000 FEW230 03/02 Q1016;EQDQ01+000000PRSWM2
0139072553999992000122100004+47030+005430FM-15+0196LFGJ V0200601N004112200019N0060001N1+00301+00201999999ADDGA1021+069009999GF102991999999999999999999MA1101591999999MW1001REMMET045LFGJ 210000Z 06008KT 6000 FEW230 03/02 Q1016;EQDQ01+000000PRSWM2
0139072553999992000122101004+47030+005430FM-15+0196LFGJ V0200501N003112200019N0050001N1+00201+00101999999ADDGA1021+069009999GF102991999999999999999999MA1101691999999MW1001REMMET045LFGJ 210100Z 05006KT 5000 FEW230 02/01 Q1017;EQDQ01+000000PRSWM2
0139072553999992000122119004+47030+005430FM-15+0196LFGJ V0200401N004112200019N0060001N1+00301+00201999999ADDGA1021+069009999GF102991999999999999999999MA1101691999999MW1001REMMET045LFGJ 211900Z 04008KT 6000 FEW230 03/02 Q1017;EQDQ01+000000PRSWM2
0139072553999992000122120004+47030+005430FM-15+0196LFGJ V0200101N003112200019N0060001N1+00301+00101999999ADDGA1021+069009999GF102991999999999999999999MA1101801999999MW1001REMMET045LFGJ 212000Z 01006KT 6000 FEW230 03/01 Q1018;EQDQ01+000000PRSWM2
0139072553999992000122121004+47030+005430FM-15+0196LFGJ V0203501N002112200019N0050001N1+00201+00101999999ADDGA1021+060009999GF102991999999999999999999MA1101801999999MW1001REMMET045LFGJ 212100Z 35004KT 5000 FEW200 02/01 Q1018;EQDQ01+000000PRSWM2
0158072553999992000122122004+47030+005430FM-15+0196LFGJ V0203501N003112200019N0045001N1+00101+00101999999ADDGA1021+060009999GF102991999999999999999999MA1101801999999MW1101REMMET048LFGJ 212200Z 35006KT 4500 BR FEW200 01/01 Q1018;EQDQ01+000003PRSWM1Q02    003PRSWM1
0158072553999992000122123004+47030+005430FM-15+0196LFGJ V0203501N003112200019N0040001N1+00101+00001999999ADDGA1021+060009999GF102991999999999999999999MA1101801999999MW1101REMMET048LFGJ 212300Z 35006KT 4000 BR FEW200 01/00 Q1018;EQDQ01+000003PRSWM1Q02    003PRSWM1
0159072553999992000122200004+47030+005430FM-15+0196LFGJ V0203501N003112200019N0035001N1+00001+00001999999ADDGA1021+060009999GF102991999999999999999999MA1101691999999MW1101REMMET049LFGJ 220000Z 35006KT 3500 BR FEW200 00/M00 Q1017;EQDQ01+000003PRSWM1Q02    003PRSWM1
0159072553999992000122201004+47030+005430FM-15+0196LFGJ V0203601N003112200019N0030001N1+00001+00001999999ADDGA1021+060009999GF102991999999999999999999MA1101691999999MW1101REMMET049LFGJ 220100Z 36006KT 3000 BR FEW200 00/M00 Q1017;EQDQ01+000003PRSWM1Q02    003PRSWM1
0091072553999992000122219004+47030+005430FM-15+0196LFGJ V0201301N001012200019N0100001N1+99999+99999999999ADDMW1001REMMET054LFGJ 221900Z 13002KT 100 R06/0320 VV/// M00/M00 Q1015;EQDQ01+000000PRSWM2
0096072553999992000122220004+47030+005430FM-15+0196LFGJ V0209999C000012200019N0100001N1+99999+99999999999ADDMW1001REMMET059LFGJ 222000Z 00000KT 100 R06/0370 FZFG VV/// M01/M01 Q1015;EQDQ01+000000PRSWM2
0096072553999992000122221004+47030+005430FM-15+0196LFGJ V0202501N001012200019N0100001N1+99999+99999999999ADDMW1001REMMET059LFGJ 222100Z 25002KT 100 R06/0400 FZFG VV/// M02/M02 Q1015;EQDQ01+000000PRSWM2
0096072553999992000122222004+47030+005430FM-15+0196LFGJ V0202301N001012200019N0100001N1+99999+99999999999ADDMW1001REMMET059LFGJ 222200Z 23002KT 100 R06/0370 FZFG VV/// M02/M02 Q1015;EQDQ01+000000PRSWM2
0097072553999992000122223004+47030+005430FM-15+0196LFGJ V0202101N001012200019N0100001N1+99999+99999999999ADDMW1001REMMET060LFGJ 222300Z 21002KT 100 R06/0400 FZFG OVC001 M02/M02 Q1015;EQDQ01+000000PRSWM2
0091072553999992000122619004+47030+005430FM-15+0196LFGJ V0201901N00211220001CN0099001N1+00501+00401999999ADDMA1098921999999MW1001REMMET039LFGJ 261900Z 19004KT CAVOK 05/04 Q0989;EQDQ01+000000PRSWM2
0139072553999992000122620004+47030+005430FM-15+0196LFGJ V0202301N002112200019N0112651N1+00601+00501999999ADDGA1021+012009999GF104991999999999999999999MA1098921999999MW1001REMMET045LFGJ 262000Z 23004KT 9999 SCT040 06/05 Q0989;EQDQ01+000000PRSWM2
0139072553999992000122621004+47030+005430FM-15+0196LFGJ V0201501N001512200019N0112651N1+00501+00401999999ADDGA1021+012009999GF102991999999999999999999MA1098921999999MW1001REMMET045LFGJ 262100Z 15003KT 9999 FEW040 05/04 Q0989;EQDQ01+000000PRSWM2
0091072553999992000122622004+47030+005430FM-15+0196LFGJ V0200801N00101220001CN0099001N1+00401+00401999999ADDMA1098921999999MW1001REMMET039LFGJ 262200Z 08002KT CAVOK 04/04 Q0989;EQDQ01+000000PRSWM2
0170072553999992000122623004+47030+005430FM-15+0196LFGJ V0202001N002110180019N0112651N1+00501+00501999999ADDGA1021+004809999GA2081+018009999GF108991999999999999999999MA1098981999999MW1001REMMET060LFGJ 262300Z 20004KT 160V250 9999 FEW016 OVC066 05/05 Q0990;EQDQ01+000000PRSWM2
0056072553999992000122700004+47030+005430FM-15+0196LFGJ V02099999999992200019N0112651N1+99999+99999999999ADDMW1001REMMET019LFGJ 270000Z CAVOK;EQDQ01+000000PRSWM2
0091072553999992000122701004+47030+005430FM-15+0196LFGJ V0201901N00461220001CN0099001N1+00701+00601999999ADDMA1098921999999MW1001REMMET039LFGJ 270100Z 19009KT CAVOK 07/06 Q0989;EQDQ01+000000PRSWM2
0091072553999992000122719004+47030+005430FM-15+0196LFGJ V0202101N00311220001CN0099001N1+00801+00601999999ADDMA1099191999999MW1001REMMET039LFGJ 271900Z 21006KT CAVOK 08/06 Q0992;EQDQ01+000000PRSWM2
0092072553999992000122720004+47030+005430FM-15+0196LFGJ V0202101N00311220001CN0099001N1+00701+99999999999ADDMW1001REMMET039LFGJ 272000Z 21006KT CAVOK 07/// Q0920;EQDQ01+092013APOA  Q02+000000PRSWM2
0162072553999992000122721004+47030+005430FM-15+0196LFGJ V0202201N002110300019N0112651N1+00701+00601999999ADDGA1021+010509999GA2081+030009999GF108991999999999999999999MA1099291999999MW1001REMMET052LFGJ 272100Z 22004KT 9999 FEW035 OVC100 07/06 Q0993;EQDQ01+000000PRSWM2
0162072553999992000122722004+47030+005430FM-15+0196LFGJ V0202201N003110300019N0112651N1+00701+00501999999ADDGA1021+010509999GA2081+030009999GF108991999999999999999999MA1099291999999MW1001REMMET052LFGJ 272200Z 22006KT 9999 FEW035 OVC100 07/05 Q0993;EQDQ01+000000PRSWM2
0162072553999992000122723004+47030+005430FM-15+0196LFGJ V0202301N002112200019N0112651N1+00701+00501999999ADDGA1021+011709999GA2021+030009999GF104991999999999999999999MA1099391999999MW1001REMMET052LFGJ 272300Z 23004KT 9999 FEW039 SCT100 07/05 Q0994;EQDQ01+000000PRSWM2
0139072553999992000122800004+47030+005430FM-15+0196LFGJ V0202301N002110117019N0112651N1+00701+00501999999ADDGA1071+011709999GF107991999999999999999999MA1099391999999MW1001REMMET045LFGJ 280000Z 23004KT 9999 BKN039 07/05 Q0994;EQDQ01+000000PRSWM2
0185072553999992000122801004+47030+005430FM-15+0196LFGJ V0202401N003110141019N0112651N1+00701+00501999999ADDGA1021+001809999GA2021+006609999GA3081+014109999GF108991999999999999999999MA1099491999999MW1001REMMET059LFGJ 280100Z 24006KT 9999 FEW006 SCT022 OVC047 07/05 Q0995;EQDQ01+000000PRSWM2
0092072553999992000122819004+47030+005430FM-15+0196LFGJ V0200701N00101220001CN0099001N1+00001-00101999999ADDMA1099901999999MW1001REMMET040LFGJ 281900Z 07002KT CAVOK 00/M01 Q0999;EQDQ01+000000PRSWM2
0092072553999992000122820004+47030+005430FM-15+0196LFGJ V0201001N00211220001CN0099001N1+00001-00101999999ADDMA1099801999999MW1001REMMET040LFGJ 282000Z 10004KT CAVOK 00/M01 Q0998;EQDQ01+000000PRSWM2
0092072553999992000122821004+47030+005430FM-15+0196LFGJ V0201101N00261220001CN0099001N1+00001-00101999999ADDMA1099701999999MW1001REMMET040LFGJ 282100Z 11005KT CAVOK 00/M01 Q0997;EQDQ01+000000PRSWM2
0092072553999992000122822004+47030+005430FM-15+0196LFGJ V0200601N00211220001CN0099001N1+00001-00101999999ADDMA1099591999999MW1001REMMET040LFGJ 282200Z 06004KT CAVOK 00/M01 Q0996;EQDQ01+000000PRSWM2
0092072553999992000122823004+47030+005430FM-15+0196LFGJ V0209999C00001220001CN0099001N1+00001-00101999999ADDMA1099701999999MW1001REMMET040LFGJ 282300Z 00000KT CAVOK 00/M01 Q0997;EQDQ01+000000PRSWM2
0056072553999992000122900004+47030+005430FM-15+0196LFGJ V02099999999992200019N0112651N1+99999+99999999999ADDMW1001REMMET019LFGJ 290000Z CAVOK;EQDQ01+000000PRSWM2
0092072553999992000122901004+47030+005430FM-15+0196LFGJ V0200201N00311220001CN0099001N1+00101-00101999999ADDMA1099591999999MW1001REMMET040LFGJ 290100Z 02006KT CAVOK 01/M01 Q0996;EQDQ01+000000PRSWM2
0162072553999992000122919004+47030+005430FM-15+0196LFGJ V0201901N004610300019N0112651N1+00301+00101999999ADDGA1021+010809999GA2071+030009999GF107991999999999999999999MA1100311999999MW1001REMMET052LFGJ 291900Z 19009KT 9999 SCT036 BKN100 03/01 Q1003;EQDQ01+000000PRSWM2
0162072553999992000122920004+47030+005430FM-15+0196LFGJ V0201801N005110300019N0112651N1+00301+00001999999ADDGA1021+009609999GA2081+030009999GF108991999999999999999999MA1100201999999MW1001REMMET052LFGJ 292000Z 18010KT 9999 SCT032 OVC100 03/00 Q1002;EQDQ01+000000PRSWM2
0162072553999992000122921004+47030+005430FM-15+0196LFGJ V0201901N007210300019N0112651N1+00301+00101999999ADDGA1021+009609999GA2081+030009999GF108991999999999999999999MA1100201999999MW1001REMMET052LFGJ 292100Z 19014KT 9999 SCT032 OVC100 03/01 Q1002;EQDQ01+000000PRSWM2
0162072553999992000122922004+47030+005430FM-15+0196LFGJ V0202001N006210087019N0112651N1+00301+00101999999ADDGA1021+005109999GA2071+008709999GF107991999999999999999999MA1100101999999MW1001REMMET052LFGJ 292200Z 20012KT 9999 FEW017 BKN029 03/01 Q1001;EQDQ01+000000PRSWM2
0182072553999992000122923004+47030+005430FM-15+0196LFGJ V0202001N008210081019N0080001N1+00301+00101999999ADDGA1021+002109999GA2081+008109999GF108991999999999999999999MA1100001999999MW1611REMMET056LFGJ 292300Z 20016KT 8000 -RA FEW007 OVC027 03/01 Q1000;EQDQ01+000003PRSWM1Q02    003PRSWM1
0182072553999992000123000004+47030+005430FM-15+0196LFGJ V0201901N008210090019N0112651N1+00201+00101999999ADDGA1021+001509999GA2071+009009999GF107991999999999999999999MA1100001999999MW1611REMMET056LFGJ 300000Z 19016KT 9999 -RA FEW005 BKN030 02/01 Q1000;EQDQ01+000003PRSWM1Q02    003PRSWM1
