0163080230999992000010100004+43470-003820FM-12+006599999V0202201N005712200019N0200001N1+00881+00421102931ADDAA106000091GF104991041051008001999999MA1999999102201MD1210041+9999REMSYN066AAXX  01004 08023 32570 42211 10088 20042 30220 40293 52004 845//;EQDQ01  00002PRCP06
0133080230999992000010103004+43470-003820FM-12+006599999V0202001N005110075019N0200001N1+00791+00341102921ADDGF105991051051008001001001MA1999999102191MD1610011+9999REMSYN066AAXX  01034 08023 42570 52010 10079 20034 30219 40292 56001 85500;
0198080230999992000010106004+43470-003820FM-12+006599999V0202001N004110120019N0200001N1+00721+00231102891ADDAA106000091GF105991051051012501001001KA1120N+00721MA1999999102161MD1710031+9999REMSYN088AAXX  01064 08023 32670 52008 10072 20023 30216 40289 57003 85500 333 20072 50043 55022;EQDQ01  00002PRCP06
0133080230999992000010109004+43470-003820FM-12+006599999V0202101N004610090019N0300001N1+00791+00231103031ADDGF106991051081004501041001MA1999999102301MD1310141+9999REMSYN066AAXX  01094 08023 42480 62109 10079 20023 30230 40303 53014 85840;
0163080230999992000010112004+43470-003820FM-12+006599999V0202101N002610360019N0150001N1+01101+00401103001ADDAA106000091GF105991041081008001041001MA1999999102281MD1810021+9999REMSYN066AAXX  01124 08023 32565 52105 10110 20040 30228 40300 58002 84840;EQDQ01  00002PRCP06
0133080230999992000010115004+43470-003820FM-12+006599999V0203501N002612200019N0120001N1+01161+00701102921ADDGF104991021051008001081001MA1999999102201MD1510081+9999REMSYN066AAXX  01154 08023 42562 43505 10116 20070 30220 40292 55008 82580;
0196080230999992000010118004+43470-003820FM-12+006599999V0201101N002112200019N0150001N1+00961+00661103011ADDAA106000091GA1001+999999999GF100991001001999999001001KA1999M+01301MA1999999102281MD1110081+9999REMSYN070AAXX  01184 08023 32965 01104 10096 20066 30228 40301 51008 333 10130;EQDQ01  00002PRCP06
0143080230999992000010121004+43470-003820FM-12+006599999V0201801N004112200019N0120001N1+00821+00601103041ADDGA1001+999999999GF100991001001999999001001MA1999999102311MD1110031+9999REMSYN060AAXX  01214 08023 42962 01808 10082 20060 30231 40304 51003;
0173080230999992000010200004+43470-003820FM-12+006599999V0202201N004612200019N0100001N1+00681+00541103051ADDAA106000091GA1001+999999999GF100991001001999999001001MA1999999102321MD1410001+9999REMSYN060AAXX  02004 08023 32960 02209 10068 20054 30232 40305 54001;EQDQ01  00002PRCP06
0143080230999992000010203004+43470-003820FM-12+006599999V0202101N005112200019N0100001N1+00701+00471103011ADDGA1001+999999999GF100991001001999999001001MA1999999102281MD1810041+9999REMSYN060AAXX  02034 08023 42960 02110 10070 20047 30228 40301 58004;
0198080230999992000010206004+43470-003820FM-12+006599999V0201801N002610075019N0100001N1+00721+00491102991ADDAA106000091GF107991071051008001999999KA1120N+00641MA1999999102261MD1710021+9999REMSYN088AAXX  02064 08023 32560 71805 10072 20049 30226 40299 57002 875// 333 20064 50083 55059;EQDQ01  00002PRCP06
0133080230999992000010209004+43470-003820FM-12+006599999V0201701N003110075019N0200001N1+00801+00501103001ADDGF107991071051008001001001MA1999999102271MD1310011+9999REMSYN066AAXX  02094 08023 42570 71706 10080 20050 30227 40300 53001 87500;
0163080230999992000010212004+43470-003820FM-12+006599999V0200301N002112200019N0120001N1+01041+00791102911ADDAA106000091GF101991011051012501001001MA1999999102191MD1810081+9999REMSYN066AAXX  02124 08023 32662 10304 10104 20079 30219 40291 58008 81500;EQDQ01  00002PRCP06
0133080230999992000010215004+43470-003820FM-12+006599999V0200801N006212200019N0120001N1+01161+00881102781ADDGF104991031051012501001051MA1999999102061MD1710131+9999REMSYN066AAXX  02154 08023 42662 40812 10116 20088 30206 40278 57013 83505;
0186080230999992000010218004+43470-003820FM-12+006599999V0200801N007212200019N0120001N1+01061+00921102791ADDAA106000091GF102991001001999999001011KA1999M+01221MA1999999102071MD1010011+9999REMSYN076AAXX  02184 08023 32962 20814 10106 20092 30207 40279 50001 80001 333 10122;EQDQ01  00002PRCP06
0161080230999992000010221004+43470-003820FM-12+006599999V0201001N004112200019N0080001N1+01001+00981102841ADDAY101031AY201031GF102991001001999999001011MA1999999102121MD1010051+9999MW1101REMSYN072AAXX  02214 08023 41958 21008 10100 20098 30212 40284 50005 71000 80001;
0163080230999992000010300004+43470-003820FM-12+006599999V0201601N003112200019N0100001N1+00761+00671102811ADDAA106000091GF102991001001999999001011MA1999999102081MD1610041+9999REMSYN066AAXX  03004 08023 32960 21606 10076 20067 30208 40281 56004 80001;EQDQ01  00002PRCP06
0133080230999992000010303004+43470-003820FM-12+006599999V0202201N004612200019N0100001N1+00781+00301102771ADDGF101991001001999999001011MA1999999102041MD1610041+9999REMSYN066AAXX  03034 08023 42960 12209 10078 20030 30204 40277 56004 80001;
0198080230999992000010306004+43470-003820FM-12+006599999V0202301N005112200019N0120001N1+00691+00221102771ADDAA106000091GF101991001001999999001011KA1120N+00671MA1999999102041MD1410001+9999REMSYN088AAXX  03064 08023 32962 12310 10069 20022 30204 40277 54000 80001 333 20067 50143 55047;EQDQ01  00002PRCP06
0133080230999992000010309004+43470-003820FM-12+006599999V0202101N005112200019N0200001N1+00751+00121102801ADDGF102991001001999999001011MA1999999102071MD1110031+9999REMSYN066AAXX  03094 08023 42970 22110 10075 20012 30207 40280 51003 80001;
0163080230999992000010312004+43470-003820FM-12+006599999V0202201N003112200019N0250001N1+01221+00361102781ADDAA106000091GF103991001001999999001051MA1999999102061MD1810011+9999REMSYN066AAXX  03124 08023 32975 32206 10122 20036 30206 40278 58001 80005;EQDQ01  00002PRCP06
0133080230999992000010315004+43470-003820FM-12+006599999V0200801N001512200019N0150001N1+01161+00651102671ADDGF104991001001999999001041MA1999999101951MD1610111+9999REMSYN066AAXX  03154 08023 42965 40803 10116 20065 30195 40267 56011 80004;
0186080230999992000010318004+43470-003820FM-12+006599999V0202401N002612200019N0120001N1+01021+00701102711ADDAA106000091GF104991001001999999001041KA1999M+01321MA1999999101991MD1310041+9999REMSYN076AAXX  03184 08023 32962 42405 10102 20070 30199 40271 53004 80004 333 10132;EQDQ01  00002PRCP06
0171080230999992000010321004+43470-003820FM-12+006599999V0202101N004112200019N0090001N1+00921+00611102751ADDAY111031AY201031GA1001+999999999GF100991001001999999001001MA1999999102021MD1110031+9999MW1101REMSYN066AAXX  03214 08023 41959 02108 10092 20061 30202 40275 51003 71010;
0163080230999992000010400004+43470-003820FM-12+006599999V0201801N003112200019N0100001N1+00821+00301102711ADDAA106000091GF101991001001999999001011MA1999999101981MD1710041+9999REMSYN066AAXX  04004 08023 32960 11806 10082 20030 30198 40271 57004 80001;EQDQ01  00002PRCP06
0133080230999992000010403004+43470-003820FM-12+006599999V0202401N004612200019N0100001N1+00681+00181102671ADDGF101991001001999999001011MA1999999101941MD1510041+9999REMSYN066AAXX  04034 08023 42960 12409 10068 20018 30194 40267 55004 80001;
0133080230999992000010409004+43470-003820FM-12+006599999V0202001N007210900019N0250001N1+01001+00241102681ADDGF105991021051008001031081MA1999999101961MD1210061+9999REMSYN066AAXX  04094 08023 42575 52014 10100 20024 30196 40268 52006 82538;
0163080230999992000010412004+43470-003820FM-12+006599999V0202201N006210360019N0200001N1+01371+00481102621ADDAA106000091GF106991011051012501031091MA1999999101911MD1610051+9999REMSYN066AAXX  04124 08023 32670 62212 10137 20048 30191 40262 56005 81539;EQDQ01  00002PRCP06
0133080230999992000010415004+43470-003820FM-12+006599999V0202001N005110360019N0120001N1+01391+00511102591ADDGF107991021051012501031091MA1999999101881MD1610031+9999REMSYN066AAXX  04154 08023 42662 72010 10139 20051 30188 40259 56003 82539;
0186080230999992000010418004+43470-003820FM-12+006599999V0202701N005110360019N0150001N1+01141+00631102781ADDAA106000091GF107991021051012501031081KA1999M+01541MA1999999102061MD1210181+9999REMSYN076AAXX  04184 08023 32665 72710 10114 20063 30206 40278 52018 82538 333 10154;EQDQ01  00002PRCP06
0133080230999992000010421004+43470-003820FM-12+006599999V0202001N005110360019N0100001N1+01071+00731102801ADDGF107991041051012501031999MA1999999102081MD1110021+9999REMSYN066AAXX  04214 08023 42660 72010 10107 20073 30208 40280 51002 8453/;
0163080230999992000010500004+43470-003820FM-12+006599999V0202001N005110360019N0100001N1+01141+00501102701ADDAA106000091GF106991041051012501031001MA1999999101981MD1610101+9999REMSYN066AAXX  05004 08023 32660 62010 10114 20050 30198 40270 56010 84530;EQDQ01  00002PRCP06
0133080230999992000010503004+43470-003820FM-12+006599999V0201701N005112200019N0100001N1+01081+00681102561ADDGF103991011051012501031001MA1999999101841MD1610141+9999REMSYN066AAXX  05034 08023 42660 31710 10108 20068 30184 40256 56014 81530;
0198080230999992000010506004+43470-003820FM-12+006599999V0201401N004612200019N0100001N1+00951+00671102331ADDAA106000091GF102991011051012501041001KA1120N+00941MA1999999101611MD1710231+9999REMSYN088AAXX  05064 08023 32660 21409 10095 20067 30161 40233 57023 81540 333 20094 50183 55038;EQDQ01  00002PRCP06
0133080230999992000010509004+43470-003820FM-12+006599999V0201501N003110900019N0300001N1+00981+00611102221ADDGF105991031001017501071051MA1999999101501MD1610111+9999REMSYN066AAXX  05094 08023 42780 51506 10098 20061 30150 40222 56011 83075;
0163080230999992000010512004+43470-003820FM-12+006599999V0200601N001510900019N0250001N1+01211+00911102041ADDAA106000091GF107991031001017501071081MA1999999101331MD1810171+9999REMSYN066AAXX  05124 08023 32775 70603 10121 20091 30133 40204 58017 83078;EQDQ01  00002PRCP06
0133080230999992000010515004+43470-003820FM-12+006599999V0202001N008710900019N0300001N1+01451+00321101681ADDGF107991041001022501071081MA1999999100971MD1710361+9999REMSYN066AAXX  05154 08023 42880 72017 10145 20032 30097 40168 57036 84078;
0133080230999992000010521004+43470-003820FM-12+006599999V0202001N009812200019N0150001N1+01101-00191101661ADDGF104991011001017501041081MA1999999100951MD1310021+9999REMSYN066AAXX  05214 08023 42765 42019 10110 21019 30095 40166 53002 81048;
0133080230999992000010603004+43470-003820FM-12+006599999V0202101N008212200019N0100001N1+01081-00011101811ADDGF102991001001999999001081MA1999999101091MD1210031+9999REMSYN066AAXX  06034 08023 42960 22116 10108 21001 30109 40181 52003 80008;
0198080230999992000010606004+43470-003820FM-12+006599999V0202101N008712200019N0150001N1+01031+00011101871ADDAA106000091GF104991001001999999001081KA1120N+01031MA1999999101151MD1310061+9999REMSYN088AAXX  06064 08023 32965 42117 10103 20001 30115 40187 53006 80008 333 20103 50343 55010;EQDQ01  00002PRCP06
0133080230999992000010609004+43470-003820FM-12+006599999V0202101N009319999999N0200001N1+01061+00021102091ADDGF106991001001999999001061MA1999999101371MD1210221+9999REMSYN066AAXX  06094 08023 42970 62118 10106 20002 30137 40209 52022 80006;
0163080230999992000010612004+43470-003820FM-12+006599999V0202201N005112200019N0150001N1+01521+00271102261ADDAA106000091GF103991001001999999001011MA1999999101551MD1110181+9999REMSYN066AAXX  06124 08023 32965 32210 10152 20027 30155 40226 51018 80001;EQDQ01  00002PRCP06
0161080230999992000010615004+43470-003820FM-12+006599999V0200701N002110900019N0030001N1+01381+00821102341ADDAY121031AY221031GF107991041001017501041061MA1999999101631MD1310081+9999MW1051REMSYN072AAXX  06154 08023 41730 70704 10138 20082 30163 40234 53008 70522 84046;
0133080230999992000010621004+43470-003820FM-12+006599999V0202501N003612200019N0060001N1+01101+00581102641ADDGF104991041001017501041001MA1999999101921MD1210161+9999REMSYN066AAXX  06214 08023 42756 42507 10110 20058 30192 40264 52016 84040;
0173080230999992000010700004+43470-003820FM-12+006599999V0209999C000012200019N0100001N1+00981+00381102681ADDAA106000091GA1001+999999999GF100991001001999999001001MA1999999101961MD1210041+9999REMSYN060AAXX  07004 08023 32960 00000 10098 20038 30196 40268 52004;EQDQ01  00002PRCP06
0143080230999992000010703004+43470-003820FM-12+006599999V0202501N003112200019N0100001N1+01001+00461102681ADDGA1001+999999999GF100991001001999999001001MA1999999101961MD1410001+9999REMSYN060AAXX  07034 08023 42960 02506 10100 20046 30196 40268 54000;
0208080230999992000010706004+43470-003820FM-12+006599999V0202001N004612200019N0100001N1+00981+00161102681ADDAA106000091GA1001+999999999GF100991001001999999001001KA1120N+00921MA1999999101961MD1410001+9999REMSYN082AAXX  07064 08023 32960 02009 10098 20016 30196 40268 54000 333 20092 50103 55060;EQDQ01  00002PRCP06
0161080230999992000010709004+43470-003820FM-12+006599999V0202201N004112200019N0050001N1+01051+00161102711ADDAY101031AY201031GF101991011001999999031001MA1999999101991MD1310031+9999MW1121REMSYN072AAXX  07094 08023 41950 12208 10105 20016 30199 40271 53003 71200 81030;
0191080230999992000010712004+43470-003820FM-12+006599999V0202501N003112200019N0080001N1+01391+00451102661ADDAA106000091AY101061AY201061GF101991011001999999041001MA1999999101951MD1810041+9999MW1051REMSYN072AAXX  07124 08023 31958 12506 10139 20045 30195 40266 58004 70500 81040;EQDQ01  00002PRCP06
0143080230999992000010715004+43470-003820FM-12+006599999V0202901N001512200019N0100001N1+01401+00391102511ADDGA1001+999999999GF100991001001999999001001MA1999999101801MD1610151+9999REMSYN060AAXX  07154 08023 42960 02903 10140 20039 30180 40251 56015;
0186080230999992000010718004+43470-003820FM-12+006599999V0209999C000012200019N0200001N1+01171+00461102561ADDAA106000091GF101991011001999999071001KA1999M+01501MA1999999101841MD1310041+9999REMSYN076AAXX  07184 08023 32970 10000 10117 20046 30184 40256 53004 81070 333 10150;EQDQ01  00002PRCP06
0133080230999992000010721004+43470-003820FM-12+006599999V0202001N003110150019N0100001N1+01181+00371102581ADDGF107991071051017501001001MA1999999101861MD1210021+9999REMSYN066AAXX  07214 08023 42760 72006 10118 20037 30186 40258 52002 87500;
0163080230999992000010800004+43470-003820FM-12+006599999V0202001N002110150019N0150001N1+01201+00451102551ADDAA106000091GF107991071051017501001001MA1999999101831MD1810031+9999REMSYN066AAXX  08004 08023 32765 72004 10120 20045 30183 40255 58003 87500;EQDQ01  00002PRCP06
0133080230999992000010803004+43470-003820FM-12+006599999V0201601N002110150019N0100001N1+01041+00511102521ADDGF107991071051017501001001MA1999999101801MD1710031+9999REMSYN066AAXX  08034 08023 42760 71604 10104 20051 30180 40252 57003 87500;
0198080230999992000010806004+43470-003820FM-12+006599999V0202201N003610150019N0150001N1+01141+00371102481ADDAA106000091GF107991071051017501001001KA1120N+01001MA1999999101761MD1710041+9999REMSYN088AAXX  08064 08023 32765 72207 10114 20037 30176 40248 57004 87500 333 20100 50073 55083;EQDQ01  00002PRCP06
0133080230999992000010809004+43470-003820FM-12+006599999V0202001N005110210019N0200001N1+01281+00651102471ADDGF108991081001022501031001MA1999999101761MD1510001+9999REMSYN066AAXX  08094 08023 42870 82010 10128 20065 30176 40247 55000 88030;
0163080230999992000010812004+43470-003820FM-12+006599999V0202501N002112200019N0120001N1+01481+00581102451ADDAA106000091GF102991021001017501031001MA1999999101741MD1810021+9999REMSYN066AAXX  08124 08023 32762 22504 10148 20058 30174 40245 58002 82030;EQDQ01  00002PRCP06
0133080230999992000010815004+43470-003820FM-12+006599999V0202601N004610150019N0100001N1+01261+00901102371ADDGF106991061001017501031001MA1999999101661MD1610081+9999REMSYN066AAXX  08154 08023 42760 62609 10126 20090 30166 40237 56008 86030;
0186080230999992000010818004+43470-003820FM-12+006599999V0202401N001010150019N0100001N1+01311+00661102421ADDAA106000091GF106991061001017501031001KA1999M+01551MA1999999101711MD1310051+9999REMSYN076AAXX  08184 08023 32760 62402 10131 20066 30171 40242 53005 86030 333 10155;EQDQ01  00002PRCP06
0161080230999992000010821004+43470-003820FM-12+006599999V0202501N002110360019N0080001N1+01171+00931102411ADDAY121031AY221031GF108991031081008001031001MA1999999101691MD1510021+9999MW1211REMSYN072AAXX  08214 08023 41558 82504 10117 20093 30169 40241 55002 72122 83830;
0178080230999992000010900004+43470-003820FM-12+006599999V0202401N004610360019N0030001N1+01031+00891102431ADDAA106000791AY121061AY221061GF108991031081008001071999MA1999999101711MD1310021+9999MW1201REMSYN078AAXX  09004 08023 11530 82409 10103 20089 30171 40243 53002 69901 72022 8387/;
0140080230999992000010903004+43470-003820FM-12+006599999V0202401N007210360019N0100001N1+01041+00881102411ADDAY151031AY221031GF108991031081008001071999MD1110021+9999MW1021REMSYN066AAXX  09034 08023 41560 82414 10104 20088 40241 51002 70252 8387/;
0161080230999992000010909004+43470-003820FM-12+006599999V0200201N006710042019N0080001N1+01021+00771102901ADDAY151031AY221031GF107991071071004501999999MA1999999102181MD1210341+9999MW1161REMSYN072AAXX  09094 08023 41458 70213 10102 20077 30218 40290 52034 71652 877//;
0178080230999992000010912004+43470-003820FM-12+006599999V0200801N002110120019N0150001N1+00841+00801103001ADDAA106007991AY181061AY231061GF107991071081008001999999MA1999999102271MD1110091+9999MW1251REMSYN078AAXX  09124 08023 11565 70804 10084 20080 30227 40300 51009 60081 72583 878//;
0161080230999992000010915004+43470-003820FM-12+006599999V0200301N002610150019N0150001N1+00861+00501103001ADDAY161031AY221031GF107991051081012501071999MA1999999102271MD1410001+9999MW1601REMSYN072AAXX  09154 08023 41665 70305 10086 20050 30227 40300 54000 76062 8587/;
0220080230999992000010918004+43470-003820FM-12+006599999V0200201N009310360019N0150001N1+00921+00521103171ADDAA112007991AY181061AY221061GF105991031081008001071001KA1120M+01051KA2999N+00781MA1999999102441MD1310171+9999MW1151REMSYN094AAXX  09184 08023 11565 50218 10092 20052 30244 40317 53017 60082 71582 83870 333 10105 20078;
0133080230999992000010921004+43470-003820FM-12+006599999V0200501N005712200019N0150001N1+00881+00371103281ADDGF104991021081012501071001MA1999999102551MD1210111+9999REMSYN066AAXX  09214 08023 42665 40511 10088 20037 30255 40328 52011 82870;
0178080230999992000011000004+43470-003820FM-12+006599999V0201201N002610360019N0150001N1+00941+00161103291ADDAA106000591AY181061AY221061GF105991031081008001071001MA1999999102561MD1010011+9999MW1251REMSYN078AAXX  10004 08023 11565 51205 10094 20016 30256 40329 50001 69941 72582 83870;
0133080230999992000011003004+43470-003820FM-12+006599999V0203601N007710360019N0150001N1+00871+00161103331ADDGF106991031081008001071001MA1999999102601MD1310041+9999REMSYN066AAXX  10034 08023 42565 63615 10087 20016 30260 40333 53004 83870;
0209080230999992000011006004+43470-003820FM-12+006599999V0200501N006710120019N0150001N1+00851+00301103331ADDAA112000591GF106991051081008001071001IA1099IA2999+00009KA1120N+00531MA1999999102601MD1410001+9999REMSYN100AAXX  10064 08023 12565 60513 10085 20030 30260 40333 54000 69942 85870 333 20053 31000 50133 55007;
0161080230999992000011009004+43470-003820FM-12+006599999V0202001N001512200019N0080001N1+00671+00281103521ADDAY181031AY221031GF104991041081008001001001MA1999999102781MD1210181+9999MW1051REMSYN072AAXX  10094 08023 41558 42003 10067 20028 30278 40352 52018 70582 84800;
0178080230999992000011012004+43470-003820FM-12+006599999V0200601N005110120019N0100001N1+00921+00071103571ADDAA106000791AY181061AY221061GF106991061081008001001001MA1999999102841MD1010061+9999MW1021REMSYN078AAXX  10124 08023 11560 60610 10092 20007 30284 40357 50006 69901 70282 86800;
0133080230999992000011015004+43470-003820FM-12+006599999V0200401N005712200019N0300001N1+00911+00091103521ADDGF104991041081008001001001MA1999999102791MD1510051+9999REMSYN066AAXX  10154 08023 42580 40411 10091 20009 30279 40352 55005 84800;
0173080230999992000011018004+43470-003820FM-12+006599999V0200601N005112200019N0200001N1+00811-00121103601ADDAA112000191GF103991031081008001001001KA1999M+01041MA1999999102861MD1210071+9999REMSYN082AAXX  10184 08023 12570 30610 10081 21012 30286 40360 52007 69912 83800 333 10104;
0133080230999992000011021004+43470-003820FM-12+006599999V0201401N003112200019N0200001N1+00671+00081103611ADDGF102991021021008001001001MA1999999102871MD1110011+9999REMSYN066AAXX  10214 08023 42570 21406 10067 20008 30287 40361 51001 82200;
0163080230999992000011100004+43470-003820FM-12+006599999V0201801N002612200019N0200001N1+00591-00051103621ADDAA106000091GF101991011021008001001001MA1999999102881MD1410001+9999REMSYN066AAXX  11004 08023 32570 11805 10059 21005 30288 40362 54001 81200;EQDQ01  00002PRCP06
0133080230999992000011103004+43470-003820FM-12+006599999V0201901N002112200019N0200001N1+00481-00061103621ADDGF101991011021008001001001MA1999999102881MD1510001+9999REMSYN066AAXX  11034 08023 42570 11904 10048 21006 30288 40362 55000 81200;
0198080230999992000011106004+43470-003820FM-12+006599999V0201801N003612200019N0200001N1+00371-00071103651ADDAA106000091GF101991011021008001001001KA1120N+00361MA1999999102901MD1110021+9999REMSYN088AAXX  11064 08023 32570 11807 10037 21007 30290 40365 51002 81200 333 20036 50153 55061;EQDQ01  00002PRCP06
0133080230999992000011109004+43470-003820FM-12+006599999V0201701N003612200019N0150001N1+00421-00011103711ADDGF102991021011008001001001MA1999999102961MD1310061+9999REMSYN066AAXX  11094 08023 42565 21707 10042 21001 30296 40371 53006 82100;
0163080230999992000011112004+43470-003820FM-12+006599999V0201101N003612200019N0150001N1+00791+00081103611ADDAA106000091GF101991011011008001001001MA1999999102871MD1810091+9999REMSYN066AAXX  11124 08023 32565 11107 10079 20008 30287 40361 58009 81100;EQDQ01  00002PRCP06
0133080230999992000011115004+43470-003820FM-12+006599999V0200701N006712200019N0120001N1+00761+00161103411ADDGF101991011011008001001001MA1999999102681MD1710191+9999REMSYN066AAXX  11154 08023 42562 10713 10076 20016 30268 40341 57019 81100;
0186080230999992000011118004+43470-003820FM-12+006599999V0200601N005112200019N0120001N1+00671+00201103461ADDAA106000091GF101991011011008001001001KA1999M+00841MA1999999102721MD1310041+9999REMSYN076AAXX  11184 08023 32562 10610 10067 20020 30272 40346 53004 81100 333 10084;EQDQ01  00002PRCP06
0133080230999992000011121004+43470-003820FM-12+006599999V0201301N004112200019N0120001N1+00481+00121103421ADDGF101991011011008001001001MA1999999102681MD1810041+9999REMSYN066AAXX  11214 08023 42562 11308 10048 20012 30268 40342 58004 81100;
0163080230999992000011200004+43470-003820FM-12+006599999V0201301N004112200019N0100001N1+00421+00051103371ADDAA106000091GF101991011011008001001001MA1999999102631MD1710051+9999REMSYN066AAXX  12004 08023 32560 11308 10042 20005 30263 40337 57005 81100;EQDQ01  00002PRCP06
0143080230999992000011203004+43470-003820FM-12+006599999V0201501N002612200019N0100001N1+00381+00061103281ADDGA1001+999999999GF100991001001999999001001MA1999999102541MD1710091+9999REMSYN060AAXX  12034 08023 42960 01505 10038 20006 30254 40328 57009;
0208080230999992000011206004+43470-003820FM-12+006599999V0201501N004112200019N0100001N1+00361-00111103121ADDAA106000091GA1001+999999999GF100991001001999999001001KA1120N+00341MA1999999102381MD1710161+9999REMSYN082AAXX  12064 08023 32960 01508 10036 21011 30238 40312 57016 333 20034 50003 55077;EQDQ01  00002PRCP06
0161080230999992000011209004+43470-003820FM-12+006599999V0201501N003112200019N0090001N1+00561-00161103121ADDAY101031AY201031GF101991001001999999001011MA1999999102381MD1410001+9999MW1051REMSYN072AAXX  12094 08023 41959 11506 10056 21016 30238 40312 54000 70500 80001;
0163080230999992000011212004+43470-003820FM-12+006599999V0203301N001012200019N0040001N1+00861+00231103011ADDAA106000091GF101991001001999999001011MA1999999102281MD1710101+9999REMSYN066AAXX  12124 08023 31940 13302 10086 20023 30228 40301 57010 80001;EQDQ01  00002PRCP06
0133080230999992000011215004+43470-003820FM-12+006599999V0202701N003112200019N0180001N1+00981+00221102841ADDGF101991001001999999001011MA1999999102111MD1710171+9999REMSYN066AAXX  12154 08023 42968 12706 10098 20022 30211 40284 57017 80001;
0186080230999992000011218004+43470-003820FM-12+006599999V0201701N001012200019N0100001N1+00871+00581102791ADDAA106000091GF101991001001999999001011KA1999M+01021MA1999999102061MD1710051+9999REMSYN076AAXX  12184 08023 32960 11702 10087 20058 30206 40279 57005 80001 333 10102;EQDQ01  00002PRCP06
0143080230999992000011221004+43470-003820FM-12+006599999V0201801N005112200019N0100001N1+00731+00161102611ADDGA1001+999999999GF100991001001999999001001MA1999999101881MD1710181+9999REMSYN060AAXX  12214 08023 42960 01810 10073 20016 30188 40261 57018;
0173080230999992000011300004+43470-003820FM-12+006599999V0201901N006212200019N0100001N1+00621-00041102431ADDAA106000091GA1001+999999999GF100991001001999999001001MA1999999101701MD1710181+9999REMSYN060AAXX  13004 08023 32960 01912 10062 21004 30170 40243 57018;EQDQ01  00002PRCP06
0143080230999992000011303004+43470-003820FM-12+006599999V0201901N006212200019N0170001N1+00741+00111102181ADDGA1001+999999999GF100991001001999999001001MA1999999101451MD1710251+9999REMSYN060AAXX  13034 08023 42967 01912 10074 20011 30145 40218 57025;
0198080230999992000011306004+43470-003820FM-12+006599999V0201701N005112200019N0170001N1+00791-00141102031ADDAA106000091GF104991011051008001031011KA1120N+00601MA1999999101311MD1710141+9999REMSYN088AAXX  13064 08023 32567 41710 10079 21014 30131 40203 57014 81531 333 20060 50173 55084;EQDQ01  00002PRCP06
0133080230999992000011309004+43470-003820FM-12+006599999V0200901N001010360019N0150001N1+00921+00201101891ADDGF107991011051017501031011MA1999999101171MD1710141+9999REMSYN066AAXX  13094 08023 42765 70902 10092 20020 30117 40189 57014 81531;
0163080230999992000011312004+43470-003820FM-12+006599999V0202001N007710360019N0200001N1+01041+00091101631ADDAA106000091GF107991011051017501071081MA1999999100911MD1710261+9999REMSYN066AAXX  13124 08023 32770 72015 10104 20009 30091 40163 57026 81578;EQDQ01  00002PRCP06
0133080230999992000011315004+43470-003820FM-12+006599999V0202001N007710360019N0250001N1+01121+00081101421ADDGF106991011051022501071001MA1999999100711MD1710201+9999REMSYN066AAXX  13154 08023 42875 62015 10112 20008 30071 40142 57020 81570;
0186080230999992000011318004+43470-003820FM-12+006599999V0202101N007210360019N0250001N1+00981+00041101411ADDAA106000091GF107991011051017501071999KA1999M+01191MA1999999100691MD1510021+9999REMSYN076AAXX  13184 08023 32775 72114 10098 20004 30069 40141 55002 8157/ 333 10119;EQDQ01  00002PRCP06
0137080230999992000011321004+43470-003820FM-12+006599999V0202101N005710900019N0150001N1+00911+00101101381ADDGF108991041001017501071071MA1999999100661MD1610031+9999REMSYN070    AAXX  13214 08023 42765 82111 10091 20010 30066 40138 56003 84077;
0182080230999992000011400004+43470-003820FM-12+006599999V0201801N005110150019N0200001N1+00861+00271101311ADDAA106000791AY161061AY221061GF108991061001017501071071MA1999999100591MD1810071+9999MW1601REMSYN082    AAXX  14004 08023 11770 81810 10086 20027 30059 40131 58007 69901 76062 86077;
0165080230999992000011403004+43470-003820FM-12+006599999V0201901N002610210019N0200001N1+00861+00101101191ADDAY161031AY221031GF108991081001022501071999MA1999999100471MD1610121+9999MW1601REMSYN076    AAXX  14034 08023 41870 81905 10086 20010 30047 40119 56012 76062 8807/;
0217080230999992000011406004+43470-003820FM-12+006599999V0201901N002110210019N0150001N1+00761+00341101091ADDAA112000791AY161061AY221061GF108991081001022501071999KA1120N+00761MA1999999100371MD1610101+9999MW1021REMSYN104    AAXX  14064 08023 11865 81904 10076 20034 30037 40109 56010 69902 70262 8807/ 333 20076 50143 55025;
0165080230999992000011409004+43470-003820FM-12+006599999V0202601N000510042019N0030001N1+00661+00481101131ADDAY161031AY221031GF108991081071004501999999MA1999999100411MD1310041+9999MW1611REMSYN076    AAXX  14094 08023 41430 82601 10066 20048 30041 40113 53004 76162 887//;
0182080230999992000011412004+43470-003820FM-12+006599999V0201001N007210075019N0050001N1+00821+00321101051ADDAA106002091AY161061AY221061GF108991081071008001999999MA1999999100331MD1810081+9999MW1051REMSYN082    AAXX  14124 08023 11550 81014 10082 20032 30033 40105 58008 60021 70562 887//;
0137080230999992000011415004+43470-003820FM-12+006599999V0201001N006210150019N0100001N1+00961+00521100921ADDGF108991081001017501071999MA1999999100211MD1710121+9999REMSYN070    AAXX  14154 08023 42760 81012 10096 20052 30021 40092 57012 8807/;
0205080230999992000011418004+43470-003820FM-12+006599999V0201101N007710360019N0060001N1+00921+00261101101ADDAA112002091AY161061AY221061GF108991031051008001071999KA1999M+01001MA1999999100391MD1310181+9999MW1801REMSYN092    AAXX  14184 08023 11556 81115 10092 20026 30039 40110 53018 60022 78062 8357/ 333 10100;
0137080230999992000011421004+43470-003820FM-12+006599999V0201001N007710360019N0100001N1+00921+00311101251ADDGF108991021051008001071999MA1999999100531MD1210141+9999REMSYN070    AAXX  14214 08023 42560 81015 10092 20031 30053 40125 52014 8257/;
0182080230999992000011500004+43470-003820FM-12+006599999V0200901N007710210019N0100001N1+00981+00221101401ADDAA106000791AY161061AY221061GF108991081001022501071999MA1999999100691MD1210161+9999MW1021REMSYN082    AAXX  15004 08023 11860 80915 10098 20022 30069 40140 52016 69901 70262 8807/;
0137080230999992000011503004+43470-003820FM-12+006599999V0201001N006710210019N0100001N1+00961+00201101531ADDGF108991081001022501071999MA1999999100811MD1110121+9999REMSYN070    AAXX  15034 08023 42860 81013 10096 20020 30081 40153 51012 8807/;
0189080230999992000011506004+43470-003820FM-12+006599999V0201201N005110210019N0100001N1+00961+00071101691ADDAA112000791GF108991081001022501071999KA1120N+00861MA1999999100971MD1210161+9999REMSYN098    AAXX  15064 08023 12860 81210 10096 20007 30097 40169 52016 69902 8807/ 333 20086 50123 55000;
0137080230999992000011509004+43470-003820FM-12+006599999V0201001N005710360019N0150001N1+00981+00281101931ADDGF107991031021008001071011MA1999999101211MD1210241+9999REMSYN070    AAXX  15094 08023 42565 71011 10098 20028 30121 40193 52024 83271;
0167080230999992000011512004+43470-003820FM-12+006599999V0200701N006210900019N0150001N1+01141+00401102091ADDAA199000091GF105991021081008001041011MA1999999101371MD1110181+9999REMSYN070    AAXX  15124 08023 32565 50712 10114 20040 30137 40209 51018 82841;EQDQ01  00002PRCP99
0165080230999992000011515004+43470-003820FM-12+006599999V0200701N007710900019N0090001N1+01041+00751102171ADDAY111031AY211031GF105991011021008001071021MA1999999101451MD1110081+9999MW1101REMSYN076    AAXX  15154 08023 41559 50715 10104 20075 30145 40217 51008 71011 81272;
0218080230999992000011518004+43470-003820FM-12+006599999V0200801N007212200019N0090001N1+00981+00681102311ADDAA199000091AY111061AY211061GF102991011011008001071011KA1999M+01201MA1999999101591MD1210141+9999MW1101REMSYN086    AAXX  15184 08023 32559 20814 10098 20068 30159 40231 52014 71011 81171 333 10120;EQDQ01  00002PRCP99
0147080230999992000011521004+43470-003820FM-12+006599999V0201401N003112200019N0100001N1+00831+00631102511ADDGA1001+999999999GF100991001001999999001001MA1999999101781MD1210191+9999REMSYN064    AAXX  15214 08023 42960 01406 10083 20063 30178 40251 52019;
0177080230999992000011600004+43470-003820FM-12+006599999V0201001N004112200019N0090001N1+00781+00481102611ADDAA199000091GA1001+999999999GF100991001001999999001001MA1999999101881MD1110101+9999REMSYN064    AAXX  16004 08023 32959 01008 10078 20048 30188 40261 51010;EQDQ01  00002PRCP99
0175080230999992000011603004+43470-003820FM-12+006599999V0201601N002112200019N0090001N1+00701+00371102641ADDAY101031AY201031GA1001+999999999GF100991001001999999001001MA1999999101911MD1210031+9999MW1051REMSYN070    AAXX  16034 08023 42959 01604 10070 20037 30191 40264 52003 70500;
0230080230999992000011606004+43470-003820FM-12+006599999V0209999C000010075019N0090001N1+00691+00331102731ADDAA199000091AY111061AY211061GF107991071061008001999999KA1120N+00621MA1999999102001MD1210091+9999MW1051REMSYN098    AAXX  16064 08023 31559 70000 10069 20033 30200 40273 52009 70511 876// 333 20062 50093 55035;EQDQ01  00002PRCP99
0165080230999992000011609004+43470-003820FM-12+006599999V0202301N002610042019N0090001N1+00781+00411102911ADDAY121031AY221031GF107991071061004501999999MA1999999102181MD1210181+9999MW1051REMSYN076    AAXX  16094 08023 41459 72305 10078 20041 30218 40291 52018 70522 876//;
0195080230999992000011612004+43470-003820FM-12+006599999V0200301N006210042019N0090001N1+00921+00641102951ADDAA199000091AY121061AY221061GF108991081061004501999999MA1999999102221MD1110041+9999MW1101REMSYN076    AAXX  16124 08023 31459 80312 10092 20064 30222 40295 51004 71022 886//;EQDQ01  00002PRCP99
0165080230999992000011615004+43470-003820FM-12+006599999V0200401N006210042019N0070001N1+00811+00341102911ADDAY121031AY221031GF108991081061004501001001MA1999999102181MD1810041+9999MW1051REMSYN076    AAXX  16154 08023 41457 80412 10081 20034 30218 40291 58004 70522 88600;
0218080230999992000011618004+43470-003820FM-12+006599999V0200601N003610042019N0090001N1+00771+00231103031ADDAA199000091AY121061AY221061GF108991081061004501999999KA1999M+00941MA1999999102301MD1110121+9999MW1051REMSYN086    AAXX  16184 08023 31459 80607 10077 20023 30230 40303 51012 70522 886// 333 10094;EQDQ01  00002PRCP99
0165080230999992000011621004+43470-003820FM-12+006599999V0200301N004110042019N0090001N1+00801+00131103111ADDAY121031AY221031GF107991071061004501999999MA1999999102381MD1210081+9999MW1051REMSYN076    AAXX  16214 08023 41459 70308 10080 20013 30238 40311 52008 70522 876//;
0158080230999992000011700004+43470-003820FM-12+006599999V0201701N003119999999N0090001N1+99999+99999999999ADDAA199000091AY121061AY221061MD1710862+9999MW1051REMSYN064    AAXX  17004 08023 31459 /1706 20021 40/17 57086 70522 85///;EQDQ01+000862APC3  Q02  00002PRCP99
0137080230999992000011703004+43470-003820FM-12+006599999V0201801N002610042019N0100001N1+00681+00291103211ADDGF108991081061004501999999MA1999999102471MD1210031+9999REMSYN070    AAXX  17034 08023 42460 81805 10068 20029 30247 40321 52003 886//;
0202080230999992000011706004+43470-003820FM-12+006599999V0201901N002110042019N0100001N1+00671+00141103221ADDAA199000091GF108991081061004501999999KA1120N+00651MA1999999102481MD1310011+9999REMSYN092    AAXX  17064 08023 32460 81904 10067 20014 30248 40322 53001 886// 333 20065 50093 55000;EQDQ01  00002PRCP99
0137080230999992000011709004+43470-003820FM-12+006599999V0201801N002110075019N0150001N1+00691+00111103321ADDGF107991071051008001001001MA1999999102581MD1210101+9999REMSYN070    AAXX  17094 08023 42565 71804 10069 20011 30258 40332 52010 87500;
0167080230999992000011712004+43470-003820FM-12+006599999V0200601N002610120019N0180001N1+00801+00271103401ADDAA199000091GF108991081081008001999999MA1999999102671MD1110091+9999REMSYN070    AAXX  17124 08023 32568 80605 10080 20027 30267 40340 51009 888//;EQDQ01  00002PRCP99
0137080230999992000011715004+43470-003820FM-12+006599999V0209999V001010120019N0180001N1+00861+00201103331ADDGF106991061081008001001001MA1999999102601MD1710071+9999REMSYN070    AAXX  17154 08023 42568 69902 10086 20020 30260 40333 57007 86800;
0190080230999992000011718004+43470-003820FM-12+006599999V0200301N003112200019N0140001N1+00721+00231103371ADDAA199000091GF101991011011008001001001KA1999M+00921MA1999999102631MD1310031+9999REMSYN080    AAXX  17184 08023 32564 10306 10072 20023 30263 40337 53003 81100 333 10092;EQDQ01  00002PRCP99
0195080230999992000011800004+43470-003820FM-12+006599999V0201801N002110075019N0090001N1+00571+00301103341ADDAA199000091AY121061AY211061GF106991061051008001001001MA1999999102601MD1610041+9999MW1101REMSYN076    AAXX  18004 08023 31559 61804 10057 20030 30260 40334 56004 71021 86500;EQDQ01  00002PRCP99
0137080230999992000011803004+43470-003820FM-12+006599999V0202101N002110075019N0100001N1+00641+00191103321ADDGF108991081051008001999999MA1999999102581MD1810021+9999REMSYN070    AAXX  18034 08023 42560 82104 10064 20019 30258 40332 58002 885//;
0202080230999992000011806004+43470-003820FM-12+006599999V0202201N003610075019N0100001N1+00641+00131103181ADDAA199000091GF108991081051008001999999KA1120N+00551MA1999999102441MD1710141+9999REMSYN092    AAXX  18064 08023 32560 82207 10064 20013 30244 40318 57014 885// 333 20055 50073 55014;EQDQ01  00002PRCP99
0137080230999992000011809004+43470-003820FM-12+006599999V0202001N002610075019N0100001N1+00701+00291103211ADDGF107991071051008001999999MA1999999102481MD1310031+9999REMSYN070    AAXX  18094 08023 42560 72005 10070 20029 30248 40321 53003 875//;
0167080230999992000011812004+43470-003820FM-12+006599999V0202101N002610075019N0100001N1+00891+00381103161ADDAA199000091GF107991071051008001999999MA1999999102431MD1810051+9999REMSYN070    AAXX  18124 08023 32560 72105 10089 20038 30243 40316 58005 875//;EQDQ01  00002PRCP99
0137080230999992000011815004+43470-003820FM-12+006599999V0209999C000010120019N0100001N1+00921+00471102971ADDGF108991081051012501999999MA1999999102241MD1710191+9999REMSYN070    AAXX  18154 08023 42660 80000 10092 20047 30224 40297 57019 885//;
0190080230999992000011818004+43470-003820FM-12+006599999V0200501N006210075019N0100001N1+00881+00541103011ADDAA199000091GF107991071051008001999999KA1999M+00951MA1999999102281MD1310041+9999REMSYN080    AAXX  18184 08023 32560 70512 10088 20054 30228 40301 53004 875// 333 10095;EQDQ01  00002PRCP99
0137080230999992000011821004+43470-003820FM-12+006599999V0200501N005710075019N0150001N1+00871+00331103091ADDGF107991071051008001001001MA1999999102361MD1210081+9999REMSYN070    AAXX  18214 08023 42565 70511 10087 20033 30236 40309 52008 87500;
0167080230999992000011900004+43470-003820FM-12+006599999V0200601N006210075019N0150001N1+00841+00321103051ADDAA199000091GF108991081051008001999999MA1999999102321MD1810041+9999REMSYN070    AAXX  19004 08023 32565 80612 10084 20032 30232 40305 58004 885//;EQDQ01  00002PRCP99
0137080230999992000011903004+43470-003820FM-12+006599999V0201401N003110075019N0150001N1+00761+00331103051ADDGF108991081061008001999999MA1999999102321MD1410001+9999REMSYN070    AAXX  19034 08023 42565 81406 10076 20033 30232 40305 54000 886//;
0165080230999992000011909004+43470-003820FM-12+006599999V0202001N000510042019N0050001N1+00791+00471103171ADDAY121031AY221031GF108991081061004501001001MA1999999102441MD1210101+9999MW1101REMSYN076    AAXX  19094 08023 41450 82001 10079 20047 30244 40317 52010 71022 88600;
0167080230999992000011912004+43470-003820FM-12+006599999V0200601N008210075019N0120001N1+00961+00191103161ADDAA199000091GF108991081051008001001001MA1999999102431MD1810011+9999REMSYN070    AAXX  19124 08023 32562 80616 10096 20019 30243 40316 58001 88500;EQDQ01  00002PRCP99
0137080230999992000011915004+43470-003820FM-12+006599999V0200701N005110120019N0200001N1+00941+00221103111ADDGF107991071081008001001001MA1999999102381MD1610051+9999REMSYN070    AAXX  19154 08023 42570 70710 10094 20022 30238 40311 56005 87800;
0186080230999992000011918004+43470-003820FM-12+006599999V0200401N008210075019N0120001N1+00931+00291103171ADDAA199000091GF108991081051008001001001KA1999M+01001MA1999999102441MD1210061+9999REMSYN076AAXX  19184 08023 32562 80416 10093 20029 30244 40317 52006 88500 333 10100;EQDQ01  00002PRCP99
0133080230999992000011921004+43470-003820FM-12+006599999V0200701N005110075019N0120001N1+00861+00171103211ADDGF108991081051008001001001MA1999999102481MD1210041+9999REMSYN066AAXX  19214 08023 42562 80710 10086 20017 30248 40321 52004 88500;
0163080230999992000012000004+43470-003820FM-12+006599999V0200501N005110075019N0100001N1+00831+00141103191ADDAA199000091GF108991081061008001001001MA1999999102461MD1610021+9999REMSYN066AAXX  20004 08023 32560 80510 10083 20014 30246 40319 56002 88600;EQDQ01  00002PRCP99
0198080230999992000012006004+43470-003820FM-12+006599999V0200501N005710075019N0170001N1+00781+00131103211ADDAA199000091GF108991081061008001001001KA1120N+00741MA1999999102481MD1410001+9999REMSYN088AAXX  20064 08023 32567 80511 10078 20013 30248 40321 54000 88600 333 20074 50223 55002;EQDQ01  00002PRCP99
0133080230999992000012009004+43470-003820FM-12+006599999V0200601N004610075019N0150001N1+00781+00041103321ADDGF108991081051008001001001MA1999999102591MD1310111+9999REMSYN066AAXX  20094 08023 42565 80609 10078 20004 30259 40332 53011 88500;
0163080230999992000012012004+43470-003820FM-12+006599999V0200801N003110075019N0150001N1+00751+00061103351ADDAA199000091GF108991081051008001001001MA1999999102621MD1210031+9999REMSYN066AAXX  20124 08023 32565 80806 10075 20006 30262 40335 52003 88500;EQDQ01  00002PRCP99
0133080230999992000012015004+43470-003820FM-12+006599999V0201101N002110075019N0200001N1+00831+00171103291ADDGF107991071051008001999999MA1999999102561MD1810061+9999REMSYN066AAXX  20154 08023 42570 71104 10083 20017 30256 40329 58006 875//;
0205080230999992000012018004+43470-003820FM-12+006599999V0201201N002110075019N0200001N1+00701+00091103341ADDAA199000091GF107991071051008001001001KA1120M+00851KA2999N+00701MA1999999102601MD1310041+9999REMSYN082AAXX  20184 08023 32570 71204 10070 20009 30260 40334 53004 87500 333 10085 20070;EQDQ01  00002PRCP99
0133080230999992000012021004+43470-003820FM-12+006599999V0201101N002110075019N0200001N1+00671+00111103411ADDGF107991071051008001001001MA1999999102671MD1210071+9999REMSYN066AAXX  20214 08023 42570 71104 10067 20011 30267 40341 52007 87500;
0163080230999992000012100004+43470-003820FM-12+006599999V0202001N002610075019N0150001N1+00621+00081103381ADDAA199000091GF108991081051008001999999MA1999999102641MD1810031+9999REMSYN066AAXX  21004 08023 32565 82005 10062 20008 30264 40338 58003 885//;EQDQ01  00002PRCP99
0133080230999992000012103004+43470-003820FM-12+006599999V0202001N002110075019N0150001N1+00621+00361103301ADDGF107991071051008001999999MA1999999102561MD1710081+9999REMSYN066AAXX  21034 08023 42565 72004 10062 20036 30256 40330 57008 875//;
0192080230999992000012106004+43470-003820FM-12+006599999V0201901N003110075019N0150001N1+00601+00021103321ADDAA199000091GF108991081051008001999999KA1120N+00591MA1999999102581MD1310021+9999REMSYN082AAXX  21064 08023 32565 81906 10060 20002 30258 40332 53002 885// 333 20059 55001;EQDQ01  00002PRCP99
0133080230999992000012109004+43470-003820FM-12+006599999V0201901N003110075019N0150001N1+00641+00071103381ADDGF108991081051008001999999MA1999999102641MD1210061+9999REMSYN066AAXX  21094 08023 42565 81906 10064 20007 30264 40338 52006 885//;
0163080230999992000012112004+43470-003820FM-12+006599999V0200301N002610075019N0120001N1+00701+00151103381ADDAA199000091GF108991081051008001999999MA1999999102641MD1010001+9999REMSYN066AAXX  21124 08023 32562 80305 10070 20015 30264 40338 50000 885//;EQDQ01  00002PRCP99
0133080230999992000012115004+43470-003820FM-12+006599999V0201201N005110075019N0120001N1+00711+00251103261ADDGF108991081051008001999999MA1999999102521MD1610121+9999REMSYN066AAXX  21154 08023 42562 81210 10071 20025 30252 40326 56012 885//;
0186080230999992000012118004+43470-003820FM-12+006599999V0201201N004610075019N0120001N1+00661+00161103241ADDAA199000091GF108991081051008001999999KA1999M+00761MA1999999102501MD1610021+9999REMSYN076AAXX  21184 08023 32562 81209 10066 20016 30250 40324 56002 885// 333 10076;EQDQ01  00002PRCP99
0133080230999992000012121004+43470-003820FM-12+006599999V0201401N003110075019N0120001N1+00621+00051103201ADDGF108991081051008001999999MA1999999102461MD1710041+9999REMSYN066AAXX  21214 08023 42562 81406 10062 20005 30246 40320 57004 885//;
0163080230999992000012200004+43470-003820FM-12+006599999V0201401N005110075019N0100001N1+00591+00101103101ADDAA199000091GF108991081051008001999999MA1999999102361MD1710101+9999REMSYN066AAXX  22004 08023 32560 81410 10059 20010 30236 40310 57010 885//;EQDQ01  00002PRCP99
0133080230999992000012203004+43470-003820FM-12+006599999V0201501N004110075019N0100001N1+00601+00091102921ADDGF108991081051008001999999MA1999999102181MD1610181+9999REMSYN066AAXX  22034 08023 42560 81508 10060 20009 30218 40292 56018 885//;
0198080230999992000012206004+43470-003820FM-12+006599999V0201801N002610075019N0100001N1+00601-00041102841ADDAA199000091GF108991081051008001999999KA1120N+00561MA1999999102101MD1610081+9999REMSYN088AAXX  22064 08023 32560 81805 10060 21004 30210 40284 56008 885// 333 20056 50043 55000;EQDQ01  00002PRCP99
0133080230999992000012209004+43470-003820FM-12+006599999V0201901N001010120019N0120001N1+00651+00061102931ADDGF108991081081008001999999MA1999999102201MD1310101+9999REMSYN066AAXX  22094 08023 42562 81902 10065 20006 30220 40293 53010 888//;
0163080230999992000012212004+43470-003820FM-12+006599999V0202401N003110120019N0120001N1+00671+00081102931ADDAA199000091GF108991081081008001999999MA1999999102201MD1410001+9999REMSYN066AAXX  22124 08023 32562 82406 10067 20008 30220 40293 54000 888//;EQDQ01  00002PRCP99
0161080230999992000012215004+43470-003820FM-12+006599999V0202201N003610120019N0080001N1+00711+00131102771ADDAY121031AY221031GF108991081081008001999999MA1999999102041MD1810161+9999MW1051REMSYN072AAXX  22154 08023 41558 82207 10071 20013 30204 40277 58016 70522 888//;
0186080230999992000012218004+43470-003820FM-12+006599999V0202801N005110120019N0100001N1+00821+00301102761ADDAA199000091GF108991081081008001999999KA1999M+00821MA1999999102031MD1610011+9999REMSYN076AAXX  22184 08023 32560 82810 10082 20030 30203 40276 56001 888// 333 10082;EQDQ01  00002PRCP99
0161080230999992000012221004+43470-003820FM-12+006599999V0203401N007210120019N0100001N1+01021+00531102711ADDAY151031AY221031GF108991081081008001999999MA1999999101991MD1810041+9999MW1021REMSYN072AAXX  22214 08023 41560 83414 10102 20053 30199 40271 58004 70252 888//;
0178080230999992000012300004+43470-003820FM-12+006599999V0203001N008210360019N0100001N1+00951+00371102621ADDAA106000791AY151061AY221061GF107991021081008001071999MA1999999101901MD1710091+9999MW1021REMSYN078AAXX  23004 08023 11560 73016 10095 20037 30190 40262 57009 69901 70252 8287/;
0161080230999992000012303004+43470-003820FM-12+006599999V0203501N007210075019N0100001N1+00881+00571102551ADDAY161031AY221031GF108991081051008001999999MA1999999101821MD1710081+9999MW1611REMSYN072AAXX  23034 08023 41560 83514 10088 20057 30182 40255 57008 76162 885//;
0213080230999992000012306004+43470-003820FM-12+006599999V0200301N007210120019N0100001N1+00921+00471102481ADDAA112000891AY161061AY221061GF108991051081008001071999KA1120N+00801MA1999999101761MD1710061+9999MW1601REMSYN100AAXX  23064 08023 11560 80314 10092 20047 30176 40248 57006 69982 76062 8587/ 333 20080 50023 55000;
0161080230999992000012309004+43470-003820FM-12+006599999V0200601N007210120019N0200001N1+00941+00191102561ADDAY161031AY221031GF108991071081008001071999MA1999999101841MD1210081+9999MW1021REMSYN072AAXX  23094 08023 41570 80614 10094 20019 30184 40256 52008 70262 8787/;
0178080230999992000012312004+43470-003820FM-12+006599999V0200701N004110120019N0200001N1+00901+00111102531ADDAA106000791AY161061AY221061GF108991071081008001071999MA1999999101801MD1810041+9999MW1021REMSYN078AAXX  23124 08023 11570 80708 10090 20011 30180 40253 58004 69901 70262 8787/;
0133080230999992000012315004+43470-003820FM-12+006599999V0200501N001010120019N0200001N1+00871+00131102511ADDGF107991071081008001999999MA1999999101781MD1610021+9999REMSYN066AAXX  23154 08023 42570 70502 10087 20013 30178 40251 56002 878//;
0201080230999992000012318004+43470-003820FM-12+006599999V0203301N003110120019N0100001N1+00761+00491102521ADDAA112002091AY161061AY221061GF107991071081008001999999KA1999M+01001MA1999999101791MD1110011+9999MW1601REMSYN088AAXX  23184 08023 11560 73306 10076 20049 30179 40252 51001 60022 76062 878// 333 10100;
0161080230999992000012321004+43470-003820FM-12+006599999V0200501N004610120019N0150001N1+00811+00341102521ADDAY161031AY221031GF107991071081008001999999MA1999999101791MD1010001+9999MW1021REMSYN072AAXX  23214 08023 41565 70509 10081 20034 30179 40252 50000 70262 878//;
0178080230999992000012400004+43470-003820FM-12+006599999V0201901N002110120019N0150001N1+00681+00351102531ADDAA106001091AY161061AY221061GF107991071081008001999999MA1999999101801MD1010011+9999MW1021REMSYN078AAXX  24004 08023 11565 71904 10068 20035 30180 40253 50001 69991 70262 878//;
0161080230999992000012403004+43470-003820FM-12+006599999V0201501N002610120019N0150001N1+00621+00221102471ADDAY161031AY221031GF107991071081008001999999MA1999999101741MD1710061+9999MW1021REMSYN072AAXX  24034 08023 41565 71505 10062 20022 30174 40247 57006 70262 878//;
0213080230999992000012406004+43470-003820FM-12+006599999V0202401N001510120019N0150001N1+00591+00321102431ADDAA112001091AY161061AY221061GF107991071081008001999999KA1120N+00501MA1999999101701MD1710041+9999MW1501REMSYN100AAXX  24064 08023 11565 72403 10059 20032 30170 40243 57004 60012 75062 878// 333 20050 50093 55000;
0133080230999992000012409004+43470-003820FM-12+006599999V0202001N003110360019N0100001N1+00561+00371102441ADDGF107991021021008001031001MA1999999101711MD1110011+9999REMSYN066AAXX  24094 08023 42560 72006 10056 20037 30171 40244 51001 82230;
0144080230999992000012412004+43470-003820FM-12+006599999V0209999C000010120019N0100001N1+00781+00131102381ADDAA199000021GF108991061081008001041999MA1999999101651MD1810061+9999REMSYN066AAXX  24124 08023 32560 80000 10078 20013 30165 40238 58006 8684/;
0133080230999992000012415004+43470-003820FM-12+006599999V0200601N006210120019N0150001N1+00731+00381102221ADDGF108991071081008001041001MA1999999101491MD1710161+9999REMSYN066AAXX  24154 08023 42565 80612 10073 20038 30149 40222 57016 87840;
0167080230999992000012418004+43470-003820FM-12+006599999V0201501N003110360019N0100001N1+00561+00261102241ADDAA199000021GF108991011051008001031999KA1999M+00841MA1999999101511MD1310021+9999REMSYN076AAXX  24184 08023 32560 81506 10056 20026 30151 40224 53002 8153/ 333 10084;
0161080230999992000012421004+43470-003820FM-12+006599999V0201501N002610360019N0100001N1+00521+00171102221ADDAY181031AY221031GF108991031051008001031999MA1999999101491MD1810021+9999MW1021REMSYN072AAXX  24214 08023 42560 81505 10052 20017 30149 40222 58002 70282 8353/;
0178080230999992000012500004+43470-003820FM-12+006599999V0201701N003112200019N0100001N1+00481+00001102221ADDAA106000791AY181061AY221061GF102991021001022501031001MA1999999101491MD1410001+9999MW1021REMSYN078AAXX  25004 08023 11860 21706 10048 20000 30149 40222 54000 69901 70282 82030;
0133080230999992000012503004+43470-003820FM-12+006599999V0201801N003610075019N0100001N1+00441+00241102181ADDGF108991051051008001041999MA1999999101451MD1710041+9999REMSYN066AAXX  25034 08023 42560 81807 10044 20024 30145 40218 57004 8554/;
0213080230999992000012506004+43470-003820FM-12+006599999V0201101N001510360019N0070001N1+00421+00221102181ADDAA112002091AY181061AY221061GF108991041071008001041999KA1120N+00381MA1999999101451MD1410001+9999MW1611REMSYN100AAXX  25064 08023 11557 81103 10042 20022 30145 40218 54000 60022 76182 8474/ 333 20038 50063 55008;
0161080230999992000012509004+43470-003820FM-12+006599999V0209999C000010042019N0100001N1+00421+00161102241ADDAY161031AY221031GF107991071071004501999999MA1999999101501MD1110051+9999MW1501REMSYN072AAXX  25094 08023 41460 70000 10042 20016 30150 40224 51005 75062 877//;
0178080230999992000012512004+43470-003820FM-12+006599999V0200801N006210090019N0120001N1+00551+00091102241ADDAA106001091AY161061AY251061GF106991061081004501001001MA1999999101511MD1010011+9999MW1021REMSYN078AAXX  25124 08023 11462 60812 10055 20009 30151 40224 50001 69991 70265 86800;
0133080230999992000012515004+43470-003820FM-12+006599999V0200801N005710120019N0180001N1+00561-00151102141ADDGF106991061041012501001001MA1999999101411MD1610101+9999REMSYN066AAXX  25154 08023 42668 60811 10056 21015 30141 40214 56010 86400;
0192080230999992000012518004+43470-003820FM-12+006599999V0200801N005110075019N0150001N1+00461-00221102271ADDAA112001091GF105991051041008001001001KA1120M+00651KA2999N+00341MA1999999101531MD1310121+9999REMSYN088AAXX  25184 08023 12565 50810 10046 21022 30153 40227 53012 69992 85400 333 10065 20034;
0133080230999992000012521004+43470-003820FM-12+006599999V0201401N004112200019N0150001N1+00381-00251102311ADDGF104991041081004501001001MA1999999101571MD1210041+9999REMSYN066AAXX  25214 08023 42465 41408 10038 21025 30157 40231 52004 84800;
0173080230999992000012600004+43470-003820FM-12+006599999V0201301N005112200019N0150001N1+00231-00311102271ADDAA199000091GA1001+999999999GF100991001001999999001001MA1999999101531MD1710041+9999REMSYN060AAXX  26004 08023 32965 01310 10023 21031 30153 40227 57004;EQDQ01  00002PRCP99
0143080230999992000012603004+43470-003820FM-12+006599999V0201601N002112200019N0150001N1+00051-00351102221ADDGA1001+999999999GF100991001001999999001001MA1999999101471MD1610061+9999REMSYN060AAXX  26034 08023 42965 01604 10005 21035 30147 40222 56006;
0192080230999992000012606004+43470-003820FM-12+006599999V0201501N004612200019N0150001N1+00061-00341102201ADDAA199000091GF103991001001999999001051KA1120N+00011MA1999999101451MD1610021+9999REMSYN082AAXX  26064 08023 32965 31509 10006 21034 30145 40220 56002 80005 333 20001 55015;EQDQ01  00002PRCP99
0133080230999992000012609004+43470-003820FM-12+006599999V0201401N003112200019N0150001N1+00241-00401102271ADDGF104991031001999999041011MA1999999101531MD1210081+9999REMSYN066AAXX  26094 08023 42965 41406 10024 21040 30153 40227 52008 83041;
0163080230999992000012612004+43470-003820FM-12+006599999V0201401N003619999999N0150001N1+00791-00071102281ADDAA199000091GF105991021001999999041011MA1999999101551MD1010021+9999REMSYN066AAXX  26124 08023 32965 51407 10079 21007 30155 40228 50002 82041;EQDQ01  00002PRCP99
0133080230999992000012615004+43470-003820FM-12+006599999V0201101N004112200019N0150001N1+01091+00161102261ADDGF103991011001999999041011MA1999999101541MD1810011+9999REMSYN066AAXX  26154 08023 42965 31108 10109 20016 30154 40226 58001 81041;
0186080230999992000012618004+43470-003820FM-12+006599999V0201201N003612200019N0100001N1+00821-00031102361ADDAA199000091GF101991011011008001041001KA1999M+01181MA1999999101631MD1210091+9999REMSYN076AAXX  26184 08023 32560 11207 10082 21003 30163 40236 52009 81140 333 10118;EQDQ01  00002PRCP99
0133080230999992000012621004+43470-003820FM-12+006599999V0201501N005112200019N0150001N1+00791-00041102481ADDGF101991011001022501041001MA1999999101751MD1210121+9999REMSYN066AAXX  26214 08023 42865 11510 10079 21004 30175 40248 52012 81040;
0163080230999992000012700004+43470-003820FM-12+006599999V0201301N004112200019N0150001N1+00731+00071102571ADDAA199000091GF105991021001022501041011MA1999999101841MD1110091+9999REMSYN066AAXX  27004 08023 32865 51308 10073 20007 30184 40257 51009 82041;EQDQ01  00002PRCP99
0133080230999992000012703004+43470-003820FM-12+006599999V0201601N004112200019N0150001N1+00871+00101102561ADDGF104991041001022501041001MA1999999101831MD1710011+9999REMSYN066AAXX  27034 08023 42865 41608 10087 20010 30183 40256 57001 84040;
0198080230999992000012706004+43470-003820FM-12+006599999V0202001N005112200019N0150001N1+00941+00161102541ADDAA199000091GF102991021001022501041001KA1120N+00691MA1999999101821MD1510011+9999REMSYN088AAXX  27064 08023 32865 22010 10094 20016 30182 40254 55001 82040 333 20069 50133 55048;EQDQ01  00002PRCP99
0133080230999992000012709004+43470-003820FM-12+006599999V0201901N005119999999N0250001N1+00971+00111102631ADDGF105991011001999999071091MA1999999101911MD1210091+9999REMSYN066AAXX  27094 08023 42975 51910 10097 20011 30191 40263 52009 81079;
0133080230999992000012715004+43470-003820FM-12+006599999V0203201N002619999999N0200001N1+01181+00631102601ADDGF107991001001999999001021MA1999999101881MD1810031+9999REMSYN066AAXX  27154 08023 42970 73205 10118 20063 30188 40260 58003 80002;
0186080230999992000012718004+43470-003820FM-12+006599999V0200701N001512200019N0200001N1+01001+00721102681ADDAA199000091GF104991001001999999001021KA1999M+01441MA1999999101961MD1310081+9999REMSYN076AAXX  27184 08023 32970 40703 10100 20072 30196 40268 53008 80002 333 10144;EQDQ01  00002PRCP99
0133080230999992000012721004+43470-003820FM-12+006599999V0201901N003112200019N0200001N1+00921+00571102721ADDGF103991001001999999001021MA1999999101991MD1110031+9999REMSYN066AAXX  27214 08023 42970 31906 10092 20057 30199 40272 51003 80002;
0173080230999992000012800004+43470-003820FM-12+006599999V0202401N002112200019N0200001N1+00901+00341102731ADDAA199000091GA1001+999999999GF100991001001999999001001MA1999999102001MD1310011+9999REMSYN060AAXX  28004 08023 32970 02404 10090 20034 30200 40273 53001;EQDQ01  00002PRCP99
0133080230999992000012803004+43470-003820FM-12+006599999V0202401N002112200019N0200001N1+00861+00231102731ADDGF104991001001999999001011MA1999999102001MD1410001+9999REMSYN066AAXX  28034 08023 42970 42404 10086 20023 30200 40273 54000 80001;
0208080230999992000012806004+43470-003820FM-12+006599999V0202201N004112200019N0180001N1+00801+00101102731ADDAA199000091GA1001+999999999GF100991001001999999001001KA1120N+00761MA1999999102001MD1410001+9999REMSYN082AAXX  28064 08023 32968 02208 10080 20010 30200 40273 54000 333 20076 50173 55065;EQDQ01  00002PRCP99
0143080230999992000012809004+43470-003820FM-12+006599999V0202201N002612200019N0400001N1+00881+00141102771ADDGA1001+999999999GF100991001001999999001001MA1999999102041MD1310041+9999REMSYN060AAXX  28094 08023 42982 02205 10088 20014 30204 40277 53004;
0173080230999992000012812004+43470-003820FM-12+006599999V0200301N001012200019N0200001N1+01111+00441102721ADDAA199000091GA1001+999999999GF100991001001999999001001MA1999999102001MD1810041+9999REMSYN060AAXX  28124 08023 32970 00302 10111 20044 30200 40272 58004;EQDQ01  00002PRCP99
0186080230999992000012818004+43470-003820FM-12+006599999V0202501N004112200019N0180001N1+01001+00411102701ADDAA199000091GF101991001001999999001021KA1999M+01361MA1999999101981MD1310041+9999REMSYN076AAXX  28184 08023 32968 12508 10100 20041 30198 40270 53004 80002 333 10136;EQDQ01  00002PRCP99
0133080230999992000012821004+43470-003820FM-12+006599999V0202401N005112200019N0150001N1+01001+00411102781ADDGF102991021051012501001001MA1999999102061MD1310081+9999REMSYN066AAXX  28214 08023 42665 22410 10100 20041 30206 40278 53008 82500;
0163080230999992000012900004+43470-003820FM-12+006599999V0202201N004612200019N0150001N1+00891+00271102801ADDAA199000091GF103991031051017501001001MA1999999102071MD1110011+9999REMSYN066AAXX  29004 08023 32765 32209 10089 20027 30207 40280 51001 83500;EQDQ01  00002PRCP99
0133080230999992000012903004+43470-003820FM-12+006599999V0202401N006712200019N0150001N1+00901+00591102801ADDGF103991031051017501001001MA1999999102071MD1410001+9999REMSYN066AAXX  29034 08023 42765 32413 10090 20059 30207 40280 54000 83500;
0208080230999992000012906004+43470-003820FM-12+006599999V0202301N006712200019N0150001N1+00891+00461102791ADDAA199000091GA1001+999999999GF100991001001999999001001KA1120N+00851MA1999999102061MD1410001+9999REMSYN082AAXX  29064 08023 32965 02313 10089 20046 30206 40279 54001 333 20085 50053 55085;EQDQ01  00002PRCP99
0133080230999992000012909004+43470-003820FM-12+006599999V0202301N007210150019N0120001N1+01011+00641102911ADDGF106991061001017501051001MA1999999102191MD1310131+9999REMSYN066AAXX  29094 08023 42762 62314 10101 20064 30219 40291 53013 86050;
0163080230999992000012912004+43470-003820FM-12+006599999V0202401N006710150019N0120001N1+01231+00351102991ADDAA199000091GF108991081001017501071999MA1999999102271MD1110081+9999REMSYN066AAXX  29124 08023 32762 82413 10123 20035 30227 40299 51008 8807/;EQDQ01  00002PRCP99
0133080230999992000012915004+43470-003820FM-12+006599999V0202601N007210150019N0250001N1+01251+00731102901ADDGF108991081001017501071999MA1999999102181MD1710091+9999REMSYN066AAXX  29154 08023 42775 82614 10125 20073 30218 40290 57009 8807/;
0186080230999992000012918004+43470-003820FM-12+006599999V0202501N006210150019N0200001N1+01181+00811103001ADDAA199000091GF107991051001017501071021KA1999M+01351MA1999999102281MD1310101+9999REMSYN076AAXX  29184 08023 32770 72512 10118 20081 30228 40300 53010 85072 333 10135;EQDQ01  00002PRCP99
0133080230999992000012921004+43470-003820FM-12+006599999V0202401N007210150019N0100001N1+01151+00841103201ADDGF105991051001017501071001MA1999999102481MD1210201+9999REMSYN066AAXX  29214 08023 42760 52414 10115 20084 30248 40320 52020 85070;
0163080230999992000013000004+43470-003820FM-12+006599999V0202401N007212200019N0100001N1+01161+00651103301ADDAA199000091GF102991001001999999001021MA1999999102581MD1210101+9999REMSYN066AAXX  30004 08023 32960 22414 10116 20065 30258 40330 52010 80002;EQDQ01  00002PRCP99
0133080230999992000013003004+43470-003820FM-12+006599999V0202401N006210900019N0100001N1+01181+00851103381ADDGF106991031001017501071021MA1999999102661MD1310081+9999REMSYN066AAXX  30034 08023 42760 62412 10118 20085 30266 40338 53008 83072;
0198080230999992000013006004+43470-003820FM-12+006599999V0202401N006210075019N0100001N1+01141+00621103401ADDAA199000091GF108991051051008001071999KA1120N+01141MA1999999102681MD1310021+9999REMSYN088AAXX  30064 08023 32560 82412 10114 20062 30268 40340 53002 8557/ 333 20114 50173 55007;EQDQ01  00002PRCP99
0133080230999992000013009004+43470-003820FM-12+006599999V0202401N005710075019N0150001N1+01171+00681103481ADDGF107991071051008001999999MA1999999102761MD1210081+9999REMSYN066AAXX  30094 08023 42565 72411 10117 20068 30276 40348 52008 875//;
0163080230999992000013012004+43470-003820FM-12+006599999V0202501N003610075019N0100001N1+01321+00771103511ADDAA199000091GF107991071061008001999999MA1999999102791MD1010031+9999REMSYN066AAXX  30124 08023 32560 72507 10132 20077 30279 40351 50003 876//;EQDQ01  00002PRCP99
0133080230999992000013015004+43470-003820FM-12+006599999V0200601N003112200019N0200001N1+01301+00771103261ADDGF101991001001999999001011MA1999999102541MD1810251+9999REMSYN066AAXX  30154 08023 42970 10606 10130 20077 30254 40326 58025 80001;
0214080230999992000013018004+43470-003820FM-12+006599999V0200701N006712200019N0090001N1+01131+00991103201ADDAA199000091AY101061AY201061GF103991021061008001001011KA1999M+01441MA1999999102481MD1610061+9999MW1101REMSYN082AAXX  30184 08023 31559 30713 10113 20099 30248 40320 56006 71000 82601 333 10144;EQDQ01  00002PRCP99
0161080230999992000013021004+43470-003820FM-12+006599999V0200701N003110075019N0070001N1+01131+00951103311ADDAY111031AY211031GF106991061061008001001001MA1999999102591MD1210111+9999MW1101REMSYN072AAXX  30214 08023 41557 60706 10113 20095 30259 40331 52011 71011 86600;
0191080230999992000013100004+43470-003820FM-12+006599999V0201801N001010042019N0050001N1+01081+00921103321ADDAA199000091AY121061AY221061GF108991081061004501999999MA1999999102601MD1110011+9999MW1101REMSYN072AAXX  31004 08023 31450 81802 10108 20092 30260 40332 51001 71022 886//;EQDQ01  00002PRCP99
0161080230999992000013103004+43470-003820FM-12+006599999V0202001N003110042019N0070001N1+01021+00901103211ADDAY121031AY221031GF108991081061004501999999MA1999999102481MD1710111+9999MW1101REMSYN072AAXX  31034 08023 41457 82006 10102 20090 30248 40321 57011 71022 886//;
0236080230999992000013106004+43470-003820FM-12+006599999V0201301N003112200019N0050001N1+00951+00871103011ADDAA199000091AY111061AY211061GA1001+999999999GF100991001001999999001001KA1120N+00951MA1999999102281MD1710201+9999MW1101REMSYN088AAXX  31064 08023 31950 01306 10095 20087 30228 40301 57020 71011 333 20095 50093 55043;EQDQ01  00002PRCP99
0161080230999992000013109004+43470-003820FM-12+006599999V0201201N005112200019N0070001N1+00961+00811102961ADDAY111031AY211031GF104991021061004501001011MA1999999102231MD1710051+9999MW1101REMSYN072AAXX  31094 08023 41457 41210 10096 20081 30223 40296 57005 71011 82601;
0191080230999992000013112004+43470-003820FM-12+006599999V0200701N005112200019N0050001N1+01201+00961102881ADDAA199000091AY111061AY211061GF104991021061004501001081MA1999999102161MD1710071+9999MW1101REMSYN072AAXX  31124 08023 31450 40710 10120 20096 30216 40288 57007 71011 82608;EQDQ01  00002PRCP99
0161080230999992000013115004+43470-003820FM-12+006599999V0200301N002110042019N0040001N1+01061+00921102761ADDAY111031AY211031GF107991061061004501001081MA1999999102041MD1610121+9999MW1101REMSYN072AAXX  31154 08023 41440 70304 10106 20092 30204 40276 56012 71011 86608;
0233080230999992000013118004+43470-003820FM-12+006599999V0209999C000010042019N0040001N1+01041+00881102701ADDAA199000091AY121061AY211061GF107991061061004501001081KA1120M+01231KA2999N+00931MA1999999101981MD1710061+9999MW1101REMSYN088AAXX  31184 08023 31440 70000 10104 20088 30198 40270 57006 71021 86608 333 10123 20093;EQDQ01  00002PRCP99
0161080230999992000013121004+43470-003820FM-12+006599999V0202801N001012200019N0040001N1+00951+00851102681ADDAY121031AY221031GF106991041061004501001011MA1999999101961MD1710021+9999MW1101REMSYN072AAXX  31214 08023 41440 62802 10095 20085 30196 40268 57002 71022 84601;
0191080230999992000020100004+43470-003820FM-12+006599999V0201701N002610021019N0008001N1+00821+00781102641ADDAA199000091AY121061AY221061GF108991081061002501999999MA1999999101911MD1710051+9999MW1441REMSYN072AAXX  01004 08023 31308 81705 10082 20078 30191 40264 57005 74422 886//;EQDQ01  00002PRCP99
0161080230999992000020103004+43470-003820FM-12+006599999V0201101N002110021019N0004001N1+00811+00791102421ADDAY121031AY221031GF108991081061002501999999MA1999999101691MD1710221+9999MW1441REMSYN072AAXX  01034 08023 41304 81104 10081 20079 30169 40242 57022 74422 886//;
0226080230999992000020106004+43470-003820FM-12+006599999V0203001N001512200019N0040001N1+00831+00791102301ADDAA199000091AY121061AY221061GF103991031061004501001001KA1120N+00721MA1999999101581MD1710111+9999MW1101REMSYN094AAXX  01064 08023 31440 33003 10083 20079 30158 40230 57011 71022 83600 333 20072 50173 55045;EQDQ01  00002PRCP99
0133080230999992000020109004+43470-003820FM-12+006599999V0202001N007210900019N0100001N1+01441+00731102251ADDGF105991011051012501031011MA1999999101541MD1710041+9999REMSYN066AAXX  01094 08023 42660 52014 10144 20073 30154 40225 57004 81531;
0163080230999992000020112004+43470-003820FM-12+006599999V0202101N014910360019N0250001N1+01671+00751102071ADDAA199000091GF107991021051012501041001MA1999999101371MD1710171+9999REMSYN066AAXX  01124 08023 32675 72129 10167 20075 30137 40207 57017 82540;EQDQ01  00002PRCP99
0161080230999992000020115004+43470-003820FM-12+006599999V0202101N009310360019N0250001N1+01741+00801101991ADDAY161031AY221031GF107991011051017501071081MA1999999101291MD1610081+9999MW1021REMSYN072AAXX  01154 08023 41775 72118 10174 20080 30129 40199 56008 70262 81578;
0201080230999992000020118004+43470-003820FM-12+006599999V0202501N003110360019N0100001N1+01461+00931102241ADDAA112000791AY161061AY221061GF107991011051017501071001KA1999M+01821MA1999999101531MD1210241+9999MW1021REMSYN088AAXX  01184 08023 11760 72506 10146 20093 30153 40224 52024 69902 70262 81570 333 10182;
0161080230999992000020121004+43470-003820FM-12+006599999V0200201N002110360019N0100001N1+01451+00851102291ADDAY161031AY221031GF108991021051012501071001MA1999999101581MD1210051+9999MW1601REMSYN072AAXX  01214 08023 41660 80204 10145 20085 30158 40229 52005 76062 82570;
0178080230999992000020200004+43470-003820FM-12+006599999V0200601N000510120019N0100001N1+01321+01051102361ADDAA106000791AY161061AY221061GF108991051051012501071001MA1999999101651MD1210071+9999MW1021REMSYN078AAXX  02004 08023 11660 80601 10132 20105 30165 40236 52007 69901 70262 85570;
0133080230999992000020203004+43470-003820FM-12+006599999V0202101N002110120019N0100001N1+01331+01121102401ADDGF108991051051012501071001MA1999999101691MD1110041+9999REMSYN066AAXX  02034 08023 42660 82104 10133 20112 30169 40240 51004 85570;
0179080230999992000020206004+43470-003820FM-12+006599999V0202701N003610075019N0100001N1+01311+01021102511ADDAA199000021GF108991061051008001071001KA1120N+01231MA1999999101801MD1210111+9999REMSYN088AAXX  02064 08023 32560 82707 10131 20102 30180 40251 52011 86570 333 20123 50133 55015;
0161080230999992000020209004+43470-003820FM-12+006599999V0202401N005110075019N0120001N1+01301+01151102741ADDAY181031AY261031GF108991061051008001071999MA1999999102031MD1210231+9999MW1601REMSYN072AAXX  02094 08023 41562 82410 10130 20115 30203 40274 52023 76086 8657/;
0178080230999992000020212004+43470-003820FM-12+006599999V0202701N010310075019N0200001N1+01301+01111102921ADDAA106001091AY181061AY261061GF108991071071008001999999MA1999999102201MD1110171+9999MW1021REMSYN078AAXX  02124 08023 11570 82720 10130 20111 30220 40292 51017 60011 70286 877//;
0161080230999992000020215004+43470-003820FM-12+006599999V0202901N009810150019N0250001N1+01261+01171103021ADDAY151031AY221031GF108991081071017501999999MA1999999102301MD1310101+9999MW1501REMSYN072AAXX  02154 08023 41775 82919 10126 20117 30230 40302 53010 75052 887//;
0201080230999992000020218004+43470-003820FM-12+006599999V0203301N009810090019N0100001N1+01181+01001103311ADDAA112000191AY161061AY221061GF107991071081004501999999KA1999M+01381MA1999999102591MD1210291+9999MW1021REMSYN088AAXX  02184 08023 11460 73319 10118 20100 30259 40331 52029 69912 70262 878// 333 10138;
0133080230999992000020221004+43470-003820FM-12+006599999V0203501N006710090019N0100001N1+01171+00871103581ADDGF108991081081004501999999MA1999999102861MD1210271+9999REMSYN066AAXX  02214 08023 42460 83513 10117 20087 30286 40358 52027 888//;
0144080230999992000020300004+43470-003820FM-12+006599999V0203601N002610120019N0120001N1+01151+00801103691ADDAA199000021GF108991081081008001999999MA1999999102961MD1210101+9999REMSYN066AAXX  03004 08023 32562 83605 10115 20080 30296 40369 52010 888//;
0133080230999992000020303004+43470-003820FM-12+006599999V0201401N001510120019N0120001N1+01091+00751103691ADDGF108991081081008001999999MA1999999102961MD1510001+9999REMSYN066AAXX  03034 08023 42562 81403 10109 20075 30296 40369 55000 888//;
0198080230999992000020306004+43470-003820FM-12+006599999V0201301N003610075019N0150001N1+00981+00751103711ADDAA199000091GF105991051051008001001001KA1120N+00961MA1999999102981MD1310021+9999REMSYN088AAXX  03064 08023 32565 51307 10098 20075 30298 40371 53002 85500 333 20096 50153 55000;EQDQ01  00002PRCP99
0133080230999992000020309004+43470-003820FM-12+006599999V0201101N002612200019N0100001N1+01061+00811103771ADDGF101991011021008001001001MA1999999103041MD1210061+9999REMSYN066AAXX  03094 08023 42560 11105 10106 20081 30304 40377 52006 81200;
0163080230999992000020312004+43470-003820FM-12+006599999V0200801N007212200019N0150001N1+01201+00791103771ADDAA199000091GF101991011011008001001001MA1999999103041MD1010001+9999REMSYN066AAXX  03124 08023 32565 10814 10120 20079 30304 40377 50000 81100;EQDQ01  00002PRCP99
0133080230999992000020315004+43470-003820FM-12+006599999V0200801N007712200019N0120001N1+01191+00681103631ADDGF101991001001999999001011MA1999999102911MD1710131+9999REMSYN066AAXX  03154 08023 42962 10815 10119 20068 30291 40363 57013 80001;
0196080230999992000020318004+43470-003820FM-12+006599999V0201001N005712200019N0100001N1+01041+00701103611ADDAA199000091GA1001+999999999GF100991001001999999001001KA1999M+01261MA1999999102881MD1610031+9999REMSYN070AAXX  03184 08023 32960 01011 10104 20070 30288 40361 56003 333 10126;EQDQ01  00002PRCP99
0143080230999992000020321004+43470-003820FM-12+006599999V0201101N004112200019N0100001N1+00951+00741103631ADDGA1001+999999999GF100991001001999999001001MA1999999102901MD1310021+9999REMSYN060AAXX  03214 08023 42960 01108 10095 20074 30290 40363 53002;
0201080230999992000020400004+43470-003820FM-12+006599999V0201101N004112200019N0080001N1+00861+00691103631ADDAA199000091AY101061AY201061GA1001+999999999GF100991001001999999001001MA1999999102871MD1810031+9999MW1101REMSYN066AAXX  04004 08023 31958 01108 10086 20069 30287 40363 58003 71000;EQDQ01  00002PRCP99
0171080230999992000020403004+43470-003820FM-12+006599999V0201101N003112200019N0080001N1+00701+00521103481ADDAY101031AY201031GA1001+999999999GF100991001001999999001001MA1999999102741MD1710131+9999MW1101REMSYN066AAXX  04034 08023 41958 01106 10070 20052 30274 40348 57013 71000;
0208080230999992000020406004+43470-003820FM-12+006599999V0201301N005712200019N0100001N1+00661+00371103421ADDAA199000091GA1001+999999999GF100991001001999999001001KA1120N+00601MA1999999102681MD1710061+9999REMSYN082AAXX  04064 08023 32960 01311 10066 20037 30268 40342 57006 333 20060 50033 55090;EQDQ01  00002PRCP99
0133080230999992000020409004+43470-003820FM-12+006599999V0201201N004612200019N0200001N1+00861+00231103401ADDGF102991001001999999001041MA1999999102671MD1510011+9999REMSYN066AAXX  04094 08023 42970 21209 10086 20023 30267 40340 55001 80004;
0163080230999992000020412004+43470-003820FM-12+006599999V0200801N007219999999N0150001N1+01241+00771103361ADDAA199000091GF106991001001999999001081MA1999999102641MD1810031+9999REMSYN066AAXX  04124 08023 32965 60814 10124 20077 30264 40336 58003 80008;EQDQ01  00002PRCP99
0161080230999992000020415004+43470-003820FM-12+006599999V0200901N004119999999N0090001N1+01301+00861103071ADDAY121031AY201031GF106991001001999999001081MA1999999102351MD1710291+9999MW1051REMSYN072AAXX  04154 08023 41959 60908 10130 20086 30235 40307 57029 70520 80008;
0186080230999992000020418004+43470-003820FM-12+006599999V0201201N002119999999N0090001N1+01061+00851103121ADDAA199000091GF107991001001999999001081KA1999M+01301MA1999999102401MD1310051+9999REMSYN076AAXX  04184 08023 31959 71204 10106 20085 30240 40312 53005 80008 333 10130;EQDQ01  00002PRCP99
0133080230999992000020421004+43470-003820FM-12+006599999V0209999C000019999999N0120001N1+01061+00531103161ADDGF106991001001999999001081MA1999999102441MD1110041+9999REMSYN066AAXX  04214 08023 42962 60000 10106 20053 30244 40316 51004 80008;
0163080230999992000020500004+43470-003820FM-12+006599999V0209999C000019999999N0120001N1+01041+00611103131ADDAA199000091GF106991001001999999001081MA1999999102401MD1810041+9999REMSYN066AAXX  05004 08023 32962 60000 10104 20061 30240 40313 58004 80008;EQDQ01  00002PRCP99
0133080230999992000020503004+43470-003820FM-12+006599999V0202801N001519999999N0120001N1+01041+00561102981ADDGF108991001001999999001071MA1999999102261MD1710141+9999REMSYN066AAXX  05034 08023 42962 82803 10104 20056 30226 40298 57014 80007;
0198080230999992000020506004+43470-003820FM-12+006599999V0202601N003119999999N0150001N1+01041+00561102881ADDAA199000091GF108991001001999999001071KA1120N+00941MA1999999102161MD1610101+9999REMSYN088AAXX  05064 08023 32965 82606 10104 20056 30216 40288 56010 80007 333 20094 50073 55078;EQDQ01  00002PRCP99
0133080230999992000020509004+43470-003820FM-12+006599999V0202501N004619999999N0120001N1+01171+00321103001ADDGF105991001001999999001081MA1999999102281MD1310121+9999REMSYN066AAXX  05094 08023 42962 52509 10117 20032 30228 40300 53012 80008;
0163080230999992000020512004+43470-003820FM-12+006599999V0202801N006219999999N0120001N1+01361+00491103061ADDAA199000091GF106991001001999999001081MA1999999102341MD1010061+9999REMSYN066AAXX  05124 08023 32962 62812 10136 20049 30234 40306 50006 80008;EQDQ01  00002PRCP99
0133080230999992000020515004+43470-003820FM-12+006599999V0202701N003619999999N0100001N1+01451+00451102951ADDGF107991001001999999001081MA1999999102241MD1710101+9999REMSYN066AAXX  05154 08023 42960 72707 10145 20045 30224 40295 57010 80008;
0186080230999992000020518004+43470-003820FM-12+006599999V0201201N002119999999N0120001N1+01241+00501102991ADDAA199000091GF106991001001999999001081KA1999M+01501MA1999999102271MD1310031+9999REMSYN076AAXX  05184 08023 32962 61204 10124 20050 30227 40299 53003 80008 333 10150;EQDQ01  00002PRCP99
0133080230999992000020521004+43470-003820FM-12+006599999V0200401N001012200019N0120001N1+01261+00121103041ADDGF104991001001999999001081MA1999999102321MD1110051+9999REMSYN066AAXX  05214 08023 42962 40402 10126 20012 30232 40304 51005 80008;
0163080230999992000020600004+43470-003820FM-12+006599999V0202001N001012200019N0120001N1+01241+00391103021ADDAA199000091GF104991001001999999001081MA1999999102301MD1810021+9999REMSYN066AAXX  06004 08023 32962 42002 10124 20039 30230 40302 58002 80008;EQDQ01  00002PRCP99
0133080230999992000020603004+43470-003820FM-12+006599999V0202501N004612200019N0120001N1+01011+00071102971ADDGF103991001001999999001011MA1999999102241MD1610061+9999REMSYN066AAXX  06034 08023 42962 32509 10101 20007 30224 40297 56006 80001;
0198080230999992000020606004+43470-003820FM-12+006599999V0202301N004619999999N0120001N1+01061+00201102901ADDAA199000091GF106991001001999999001081KA1120N+00951MA1999999102181MD1710061+9999REMSYN088AAXX  06064 08023 32962 62309 10106 20020 30218 40290 57006 80008 333 20095 50233 55061;EQDQ01  00002PRCP99
0133080230999992000020609004+43470-003820FM-12+006599999V0202401N003119999999N0100001N1+01121+00041102881ADDGF108991051001999999071071MA1999999102161MD1610021+9999REMSYN066AAXX  06094 08023 42960 82406 10112 20004 30216 40288 56002 85077;
0191080230999992000020612004+43470-003820FM-12+006599999V0202501N002619999999N0060001N1+01261+00521102831ADDAA199000091AY121061AY221061GF108991031001999999071071MA1999999102111MD1810051+9999MW1051REMSYN072AAXX  06124 08023 31956 82505 10126 20052 30211 40283 58005 70522 83077;EQDQ01  00002PRCP99
0161080230999992000020615004+43470-003820FM-12+006599999V0202501N004619999999N0080001N1+01261+00991102781ADDAY121031AY221031GF105991021001999999071021MA1999999102061MD1710051+9999MW1101REMSYN072AAXX  06154 08023 41958 52509 10126 20099 30206 40278 57005 71022 82072;
0186080230999992000020618004+43470-003820FM-12+006599999V0209999V001010150019N0100001N1+01221+00621102801ADDAA199000091GF107991061051017501071001KA1999M+01381MA1999999102081MD1310021+9999REMSYN076AAXX  06184 08023 32760 79902 10122 20062 30208 40280 53002 86570 333 10138;EQDQ01  00002PRCP99
0161080230999992000020621004+43470-003820FM-12+006599999V0202101N005710120019N0100001N1+01241+00501102861ADDAY151031AY221031GF106991061051012501001001MA1999999102141MD1210061+9999MW1021REMSYN072AAXX  06214 08023 41660 62111 10124 20050 30214 40286 52006 70252 86500;
0178080230999992000020700004+43470-003820FM-12+006599999V0202801N007210075019N0080001N1+01221+00981103001ADDAA106000791AY161061AY251061GF108991081071008001999999MA1999999102281MD1210141+9999MW1501REMSYN078AAXX  07004 08023 11558 82814 10122 20098 30228 40300 52014 69901 75065 887//;
0161080230999992000020703004+43470-003820FM-12+006599999V0202601N003610120019N0100001N1+01241+01051103081ADDAY151031AY221031GF106991061081008001001001MA1999999102361MD1210081+9999MW1021REMSYN072AAXX  07034 08023 41560 62607 10124 20105 30236 40308 52008 70252 86800;
0213080230999992000020706004+43470-003820FM-12+006599999V0202101N004112200019N0100001N1+01181+00901103001ADDAA112000791AY151061AY221061GF103991031011008001001001KA1120N+01161MA1999999102281MD1710081+9999MW1021REMSYN100AAXX  07064 08023 11560 32108 10118 20090 30228 40300 57008 69902 70252 83100 333 20116 50113 55020;
0133080230999992000020709004+43470-003820FM-12+006599999V0202001N005719999999N0150001N1+01261+00621103101ADDGF107991041001999999051081MA1999999102381MD1310101+9999REMSYN066AAXX  07094 08023 42965 72011 10126 20062 30238 40310 53010 84058;
0144080230999992000020712004+43470-003820FM-12+006599999V0202101N003619999999N0180001N1+01541+00751102991ADDAA199000021GF107991061001999999021071MA1999999102281MD1810111+9999REMSYN066AAXX  07124 08023 32968 72107 10154 20075 30228 40299 58011 86027;
0161080230999992000020715004+43470-003820FM-12+006599999V0202301N005110210019N0100001N1+01541+00681102971ADDAY121031AY221031GF108991081001022501071999MA1999999102261MD1510021+9999MW1601REMSYN072AAXX  07154 08023 41860 82310 10154 20068 30226 40297 55002 76022 8807/;
0201080230999992000020718004+43470-003820FM-12+006599999V0202101N002110120019N0080001N1+01281+00921103101ADDAA112001091AY161061AY221061GF108991061051012501071001KA1999M+01621MA1999999102381MD1210131+9999MW1611REMSYN088AAXX  07184 08023 11658 82104 10128 20092 30238 40310 52013 60012 76162 86570 333 10162;
0161080230999992000020721004+43470-003820FM-12+006599999V0202101N006710360019N0100001N1+01361+00841103001ADDAY161031AY221031GF106991041051017501071001MA1999999102281MD1810101+9999MW1021REMSYN072AAXX  07214 08023 41760 62113 10136 20084 30228 40300 58010 70262 84570;
0150080230999992000020800004+43470-003820FM-12+006599999V0202201N004610360019N0150001N1+01481+00951102911ADDAA106000791GF105991041051017501071001MA1999999102201MD1710081+9999REMSYN072AAXX  08004 08023 12765 52209 10148 20095 30220 40291 57008 69901 84570;
0133080230999992000020803004+43470-003820FM-12+006599999V0202501N003112200019N0150001N1+01381+01071102791ADDGF104991011051017501071001MA1999999102081MD1710121+9999REMSYN066AAXX  08034 08023 42765 42506 10138 20107 30208 40279 57012 81570;
0195080230999992000020806004+43470-003820FM-12+006599999V0202501N002612200019N0150001N1+01221+00981102831ADDAA112000791GA1001+999999999GF100991001001999999001001KA1120N+01181MA1999999102121MD1310041+9999REMSYN088AAXX  08064 08023 12965 02505 10122 20098 30212 40283 53004 69902 333 20118 50043 55000;
0133080230999992000020809004+43470-003820FM-12+006599999V0201701N003110900019N0120001N1+01281+00971102881ADDGF105991031001017501041021MA1999999102161MD1110051+9999REMSYN066AAXX  08094 08023 42762 51706 10128 20097 30216 40288 51005 83042;
0163080230999992000020812004+43470-003820FM-12+006599999V0202301N002110900019N0100001N1+01521+01151102971ADDAA199000091GF107991041001017501071021MA1999999102261MD1110101+9999REMSYN066AAXX  08124 08023 32760 72304 10152 20115 30226 40297 51010 84072;EQDQ01  00002PRCP99
0133080230999992000020815004+43470-003820FM-12+006599999V0202301N006210150019N0250001N1+01701+00741102751ADDGF108991071001017501071999MA1999999102041MD1610221+9999REMSYN066AAXX  08154 08023 42775 82312 10170 20074 30204 40275 56022 8707/;
0201080230999992000020818004+43470-003820FM-12+006599999V0202801N008210120019N0100001N1+01321+01211102981ADDAA112000891AY161061AY221061GF108991051081008001071999KA1999M+01701MA1999999102261MD1210221+9999MW1211REMSYN088AAXX  08184 08023 11560 82816 10132 20121 30226 40298 52022 69972 72162 8587/ 333 10170;
0133080230999992000020820004+43470-003820FM-12+006599999V0202901N007710120019N0100001N1+01251+01191103231ADDGF108991061081008001071999MA1999999102511MD1210251+9999REMSYN066AAXX  08204 08023 42560 82915 10125 20119 30251 40323 52025 8687/;
0133080230999992000020821004+43470-003820FM-12+006599999V0202901N007710120019N0100001N1+01251+01191103231ADDGF108991061081008001071999MA1999999102511MD1210251+9999REMSYN066AAXX  08214 08023 42560 82915 10125 20119 30251 40323 52025 8687/;
0178080230999992000020900004+43470-003820FM-12+006599999V0202601N005110120019N0080001N1+01201+01081103391ADDAA106000591AY161061AY221061GF108991051081008001071999MA1999999102671MD1210161+9999MW1101REMSYN078AAXX  09004 08023 11558 82610 10120 20108 30267 40339 52016 69941 71062 8587/;
0161080230999992000020903004+43470-003820FM-12+006599999V0203001N005110360019N0080001N1+01181+00941103401ADDAY121031AY221031GF106991021021008001061001MA1999999102681MD1110011+9999MW1101REMSYN072AAXX  09034 08023 41558 63010 10118 20094 30268 40340 51001 71022 82260;
0213080230999992000020906004+43470-003820FM-12+006599999V0202301N002612200019N0080001N1+01071+00871103431ADDAA112000591AY121061AY221061GF101991011001017501051001KA1120N+01071MA1999999102701MD1110021+9999MW1101REMSYN100AAXX  09064 08023 11758 12305 10107 20087 30270 40343 51002 69942 71022 81050 333 20107 50123 55034;
0133080230999992000020909004+43470-003820FM-12+006599999V0201901N002612200019N0100001N1+01081+00811103521ADDGF103991011061004501031011MA1999999102791MD1310091+9999REMSYN066AAXX  09094 08023 42460 31905 10108 20081 30279 40352 53009 81631;
0191080230999992000020912004+43470-003820FM-12+006599999V0200801N002612200019N0090001N1+01381+00951103581ADDAA199000091AY101061AY201061GF103991011011004501031011MA1999999102861MD1010071+9999MW1051REMSYN072AAXX  09124 08023 31459 30805 10138 20095 30286 40358 50007 70500 81131;EQDQ01  00002PRCP99
0143080230999992000020915004+43470-003820FM-12+006599999V0200801N004112200019N0100001N1+01301+00941103201ADDGA1001+999999999GF100991001001999999001001MA1999999102481MD1810381+9999REMSYN060AAXX  09154 08023 42960 00808 10130 20094 30248 40320 58038;
0233080230999992000020918004+43470-003820FM-12+006599999V0201001N006712200019N0050001N1+01101+00811103121ADDAA199000091AY101061AY201061GF102991001001999999001011KA1120M+01401KA2999N+01001MA1999999102401MD1610081+9999MW1101REMSYN088AAXX  09184 08023 31950 21013 10110 20081 30240 40312 56008 71000 80001 333 10140 20100;EQDQ01  00002PRCP99
0161080230999992000020921004+43470-003820FM-12+006599999V0201301N004612200019N0090001N1+01021+00861103171ADDAY101031AY201031GF101991001001999999001011MA1999999102441MD1110041+9999MW1101REMSYN072AAXX  09214 08023 41959 11309 10102 20086 30244 40317 51004 71000 80001;
0173080230999992000021000004+43470-003820FM-12+006599999V0201601N004112200019N0100001N1+00841+00641103001ADDAA199000091GA1001+999999999GF100991001001999999001001MA1999999102271MD1810171+9999REMSYN060AAXX  10004 08023 32960 01608 10084 20064 30227 40300 58017;EQDQ01  00002PRCP99
0143080230999992000021003004+43470-003820FM-12+006599999V0201701N004612200019N0120001N1+01091+00331102841ADDGA1001+999999999GF100991001001999999001001MA1999999102121MD1710151+9999REMSYN060AAXX  10034 08023 42962 01709 10109 20033 30212 40284 57015;
0208080230999992000021006004+43470-003820FM-12+006599999V0202001N007212200019N0120001N1+01301+00361102661ADDAA199000091GA1001+999999999GF100991001001999999001001KA1120N+00841MA1999999101941MD1610181+9999REMSYN082AAXX  10064 08023 32962 02014 10130 20036 30194 40266 56018 333 20084 50163 55094;EQDQ01  00002PRCP99
0133080230999992000021009004+43470-003820FM-12+006599999V0202101N007210210019N0300001N1+01521+00551102671ADDGF107991071001022501071999MA1999999101961MD1310021+9999REMSYN066AAXX  10094 08023 42880 72114 10152 20055 30196 40267 53002 8707/;
0163080230999992000021012004+43470-003820FM-12+006599999V0201701N001512200019N0200001N1+01781+01051102641ADDAA199000091GF105991021001022501031081MA1999999101941MD1810021+9999REMSYN066AAXX  10124 08023 32870 51703 10178 20105 30194 40264 58002 82038;EQDQ01  00002PRCP99
0133080230999992000021015004+43470-003820FM-12+006599999V0203301N004610360019N0150001N1+01501+01001102581ADDGF107991011051008001071081MA1999999101871MD1610071+9999REMSYN066AAXX  10154 08023 42565 73309 10150 20100 30187 40258 56007 81578;
0186080230999992000021018004+43470-003820FM-12+006599999V0201901N001510360019N0150001N1+01421+01041102701ADDAA199000091GF108991011051008001071081KA1999M+01861MA1999999101991MD1310121+9999REMSYN076AAXX  10184 08023 32565 81903 10142 20104 30199 40270 53012 81578 333 10186;EQDQ01  00002PRCP99
0161080230999992000021021004+43470-003820FM-12+006599999V0202801N005110120019N0100001N1+01321+01111102781ADDAY121031AY221031GF108991051081008001071999MA1999999102071MD1210081+9999MW1611REMSYN072AAXX  10214 08023 41560 82810 10132 20111 30207 40278 52008 76122 8587/;
0178080230999992000021100004+43470-003820FM-12+006599999V0203001N002610042019N0050001N1+01161+01101102791ADDAA106000591AY161061AY221061GF108991061071004501071999MA1999999102071MD1410001+9999MW1511REMSYN078AAXX  11004 08023 11450 83005 10116 20110 30207 40279 54000 69961 75162 8677/;
0161080230999992000021103004+43470-003820FM-12+006599999V0200601N009310075019N0100001N1+01031+00971102871ADDAY151031AY251031GF108991051071008001071999MA1999999102151MD1310081+9999MW1501REMSYN072AAXX  11034 08023 41560 80618 10103 20097 30215 40287 53008 75055 8577/;
0213080230999992000021106004+43470-003820FM-12+006599999V0200901N006210075019N0100001N1+00871+00791103011ADDAA112004191AY151061AY251061GF108991051071008001071999KA1120N+00701MA1999999102281MD1210131+9999MW1501REMSYN100AAXX  11064 08023 11560 80912 10087 20079 30228 40301 52013 60042 75055 8577/ 333 20070 50033 55022;
0161080230999992000021109004+43470-003820FM-12+006599999V0200901N006710075019N0100001N1+00921+00641103121ADDAY151031AY221031GF108991061071008001071001MA1999999102391MD1210111+9999MW1021REMSYN072AAXX  11094 08023 41560 80913 10092 20064 30239 40312 52011 70252 86770;
0178080230999992000021112004+43470-003820FM-12+006599999V0201101N004610075019N0100001N1+00941+00681103091ADDAA106000791AY151061AY221061GF108991061071008001071001MA1999999102361MD1810031+9999MW1501REMSYN078AAXX  11124 08023 11560 81109 10094 20068 30236 40309 58003 69901 75052 86770;
0161080230999992000021115004+43470-003820FM-12+006599999V0201001N005710042019N0090001N1+00931+00651103011ADDAY151031AY221031GF108991061071004501071999MA1999999102281MD1710081+9999MW1501REMSYN072AAXX  11154 08023 41459 81011 10093 20065 30228 40301 57008 75052 8677/;
0201080230999992000021118004+43470-003820FM-12+006599999V0200801N007210042019N0100001N1+00861+00401103051ADDAA112000791AY151061AY221061GF108991071071004501071001KA1999M+01021MA1999999102321MD1110041+9999MW1021REMSYN088AAXX  11184 08023 11460 80814 10086 20040 30232 40305 51004 69902 70252 87770 333 10102;
0133080230999992000021121004+43470-003820FM-12+006599999V0200801N005110075019N0100001N1+00861+00521103091ADDGF108991081051008001001001MA1999999102361MD1210041+9999REMSYN066AAXX  11214 08023 42560 80810 10086 20052 30236 40309 52004 88500;
0144080230999992000021200004+43470-003820FM-12+006599999V0200701N003110075019N0100001N1+00861+00551103161ADDAA199000021GF108991081051008001001001MA1999999102431MD1210071+9999REMSYN066AAXX  12004 08023 32560 80706 10086 20055 30243 40316 52007 88500;
0226080230999992000021206004+43470-003820FM-12+006599999V0202201N002110360019N0080001N1+00801+00621103311ADDAA199000091AY121061AY221061GF108991041051008001071001KA1120N+00791MA1999999102581MD1210101+9999MW1101REMSYN094AAXX  12064 08023 31558 82204 10080 20062 30258 40331 52010 71022 84570 333 20079 50273 55000;EQDQ01  00002PRCP99
0133080230999992000021209004+43470-003820FM-12+006599999V0202201N003110120019N0100001N1+00811+00421103361ADDGF107991071081008001999999MA1999999102631MD1210051+9999REMSYN066AAXX  12094 08023 42560 72206 10081 20042 30263 40336 52005 878//;
0163080230999992000021212004+43470-003820FM-12+006599999V0202801N001010120019N0150001N1+00981+00411103491ADDAA199000091GF107991061081008001071999MA1999999102761MD1210131+9999REMSYN066AAXX  12124 08023 32565 72802 10098 20041 30276 40349 52013 8687/;EQDQ01  00002PRCP99
0133080230999992000021215004+43470-003820FM-12+006599999V0200301N001512200019N0250001N1+01041+00401103411ADDGF101991011081012501001001MA1999999102681MD1810081+9999REMSYN066AAXX  12154 08023 42675 10303 10104 20040 30268 40341 58008 81800;
0205080230999992000021218004+43470-003820FM-12+006599999V0209999V001010900019N0200001N1+00861+00291103401ADDAA199000091GF105991011041008001071011KA1120M+01081KA2999N+00761MA1999999102671MD1510011+9999REMSYN082AAXX  12184 08023 32570 59902 10086 20029 30267 40340 55001 81471 333 10108 20076;EQDQ01  00002PRCP99
0133080230999992000021221004+43470-003820FM-12+006599999V0202001N003112200019N0200001N1+00781+00301103451ADDGF103991011051008001071999MA1999999102721MD1010051+9999REMSYN066AAXX  12214 08023 42570 32006 10078 20030 30272 40345 50005 8157/;
0163080230999992000021300004+43470-003820FM-12+006599999V0202001N003112200019N0200001N1+00781+00301103451ADDAA199000091GF103991011051999999071999MA1999999102721MD1010051+9999REMSYN066AAXX  13004 08023 32970 32006 10078 20030 30272 40345 50005 8157/;EQDQ01  00002PRCP99
0163080230999992000021303004+43470-003820FM-12+006599999V0202001N004112200019N0150001N1+00661+00271103161ADDAA199000091GF103991031001999999071999MA1999999102421MD1010181+9999REMSYN066AAXX  13034 08023 32965 32008 10066 20027 30242 40316 50018 8307/;EQDQ01  00002PRCP99
0198080230999992000021306004+43470-003820FM-12+006599999V0202301N005710360019N0200001N1+00761+00381103111ADDAA199000091GF107991011051008001071999KA1120N+00661MA1999999102381MD1610041+9999REMSYN088AAXX  13064 08023 32570 72311 10076 20038 30238 40311 56004 8157/ 333 20066 50103 55060;EQDQ01  00002PRCP99
0133080230999992000021309004+43470-003820FM-12+006599999V0202301N006210150019N0100001N1+00921+00411103121ADDGF106991051001017501041051MA1999999102391MD1310011+9999REMSYN066AAXX  13094 08023 42760 62312 10092 20041 30239 40312 53001 85045;
0178080230999992000021312004+43470-003820FM-12+006599999V0202601N008210360019N0070001N1+01141+00721103101ADDAA106000791AY121061AY221061GF108991031051008001071999MA1999999102381MD1810011+9999MW1511REMSYN078AAXX  13124 08023 11557 82616 10114 20072 30238 40310 58001 69901 75122 8357/;
0161080230999992000021315004+43470-003820FM-12+006599999V0202601N008210075019N0060001N1+01121+00881103021ADDAY151031AY221031GF108991081071008001999999MA1999999102301MD1610081+9999MW1801REMSYN072AAXX  13154 08023 41556 82616 10112 20088 30230 40302 56008 78052 887//;
0201080230999992000021318004+43470-003820FM-12+006599999V0202701N009310360019N0050001N1+01201+01001103021ADDAA112002091AY151061AY221061GF108991021071008001071999KA1999M+01231MA1999999102301MD1510001+9999MW1511REMSYN088AAXX  13184 08023 11550 82718 10120 20100 30230 40302 55000 60022 75152 8277/ 333 10123;
0161080230999992000021321004+43470-003820FM-12+006599999V0202801N011810075019N0050001N1+01201+01041103031ADDAY151031AY221031GF108991081071008001999999MA1999999102311MD1110011+9999MW1511REMSYN072AAXX  13214 08023 41550 82823 10120 20104 30231 40303 51001 75152 887//;
0178080230999992000021400004+43470-003820FM-12+006599999V0202801N009810360019N0080001N1+01221+01021103031ADDAA106000591AY151061AY221061GF108991021071008001071999MA1999999102311MD1410001+9999MW1101REMSYN078AAXX  14004 08023 11558 82819 10122 20102 30231 40303 54000 69961 71052 8277/;
0213080230999992000021406004+43470-003820FM-12+006599999V0202701N011310075019N0070001N1+01181+01101103001ADDAA112002091AY161061AY221061GF108991051071008001071999KA1120N+01151MA1999999102281MD1710021+9999MW1101REMSYN100AAXX  14064 08023 11557 82722 10118 20110 30228 40300 57002 60022 71062 8577/ 333 20115 50013 55005;
0161080230999992000021409004+43470-003820FM-12+006599999V0202801N009310360019N0090001N1+01201+01121103141ADDAY121031AY221031GF108991031071004501071999MA1999999102421MD1310141+9999MW1101REMSYN072AAXX  14094 08023 41459 82818 10120 20112 30242 40314 53014 71022 8377/;
0163080230999992000021412004+43470-003820FM-12+006599999V0202701N008210042019N0100001N1+01241+01131103231ADDAA199000091GF108991081071004501999999MA1999999102511MD1110091+9999REMSYN066AAXX  14124 08023 32460 82716 10124 20113 30251 40323 51009 887//;EQDQ01  00002PRCP99
0186080230999992000021418004+43470-003820FM-12+006599999V0202701N006210075019N0150001N1+01221+01121103191ADDAA199000091GF108991071071008001071999KA1999M+01361MA1999999102471MD1310121+9999REMSYN076AAXX  14184 08023 32565 82712 10122 20112 30247 40319 53012 8777/ 333 10136;EQDQ01  00002PRCP99
0161080230999992000021421004+43470-003820FM-12+006599999V0202801N005710075019N0150001N1+01201+01161103231ADDAY151031AY221031GF108991061071008001071999MA1999999102511MD1110041+9999MW1021REMSYN072AAXX  14214 08023 41565 82811 10120 20116 30251 40323 51004 70252 8677/;
0178080230999992000021500004+43470-003820FM-12+006599999V0202301N005110120019N0100001N1+01121+01041103181ADDAA106000791AY151061AY221061GF108991061071012501071999MA1999999102461MD1810051+9999MW1021REMSYN078AAXX  15004 08023 11660 82310 10112 20104 30246 40318 58005 69901 70252 8677/;
0133080230999992000021503004+43470-003820FM-12+006599999V0202301N003610360019N0100001N1+01141+00981103121ADDGF108991021051012501071999MA1999999102401MD1610061+9999REMSYN066AAXX  15034 08023 42660 82307 10114 20098 30240 40312 56006 8257/;
0213080230999992000021506004+43470-003820FM-12+006599999V0202301N004610075019N0100001N1+01091+01031103121ADDAA112000791AY121061AY221061GF108991071071008001071999KA1120N+01091MA1999999102401MD1410001+9999MW1201REMSYN100AAXX  15064 08023 11560 82309 10109 20103 30240 40312 54000 69902 72022 8777/ 333 20109 50063 55012;
0133080230999992000021509004+43470-003820FM-12+006599999V0202401N005110120019N0100001N1+01111+00951103111ADDGF107991071081008001001001MA1999999102391MD1510011+9999REMSYN066AAXX  15094 08023 42560 72410 10111 20095 30239 40311 55001 87800;
0144080230999992000021512004+43470-003820FM-12+006599999V0202401N005112200019N0100001N1+01361+01011103061ADDAA199000021GF104991041081008001001001MA1999999102341MD1810051+9999REMSYN066AAXX  15124 08023 32560 42410 10136 20101 30234 40306 58005 84800;
0133080230999992000021515004+43470-003820FM-12+006599999V0202801N005110120019N0100001N1+01261+01071102841ADDGF108991051081008001071999MA1999999102121MD1710221+9999REMSYN066AAXX  15154 08023 42560 82810 10126 20107 30212 40284 57022 8587/;
0167080230999992000021518004+43470-003820FM-12+006599999V0202501N005110120019N0100001N1+01221+01001102761ADDAA199000021GF108991081081008001999999KA1999M+01491MA1999999102041MD1610081+9999REMSYN076AAXX  15184 08023 32560 82510 10122 20100 30204 40276 56008 888// 333 10149;
0133080230999992000021521004+43470-003820FM-12+006599999V0202401N006710120019N0100001N1+01241+01051102701ADDGF107991071081008001999999MA1999999101981MD1810061+9999REMSYN066AAXX  15214 08023 42560 72413 10124 20105 30198 40270 58006 878//;
0163080230999992000021600004+43470-003820FM-12+006599999V0203101N017010090019N0100001N1+01141+00981102591ADDAA199000091GF108991081081004501999999MA1999999101871MD1510111+9999REMSYN066AAXX  16004 08023 32460 83133 10114 20098 30187 40259 55011 888//;EQDQ01  00002PRCP99
0161080230999992000021603004+43470-003820FM-12+006599999V0202701N011810090019N0100001N1+01201+01001102541ADDAY181031AY221031GF108991081081004501999999MA1999999101821MD1810051+9999MW1021REMSYN072AAXX  16034 08023 41460 82723 10120 20100 30182 40254 58005 70282 888//;
0213080230999992000021606004+43470-003820FM-12+006599999V0202801N010810090019N0100001N1+01161+00881102561ADDAA112000791AY181061AY221061GF108991081081004501999999KA1120N+01091MA1999999101841MD1210021+9999MW1801REMSYN100AAXX  16064 08023 11460 82821 10116 20088 30184 40256 52002 69902 78082 888// 333 20109 50133 55018;
0161080230999992000021609004+43470-003820FM-12+006599999V0202801N009810042019N0060001N1+01051+00931102581ADDAY181031AY221031GF108991081071004501999999MA1999999101861MD1310021+9999MW1801REMSYN072AAXX  16094 08023 41456 82819 10105 20093 30186 40258 53002 78082 887//;
0178080230999992000021612004+43470-003820FM-12+006599999V0202901N014410120019N0120001N1+01081+00861102601ADDAA106004191AY181061AY221061GF106991051081008001071999MA1999999101881MD1310021+9999MW1021REMSYN078AAXX  16124 08023 11562 62928 10108 20086 30188 40260 53002 60041 70282 8587/;
0161080230999992000021615004+43470-003820FM-12+006599999V0202801N013910042019N0050001N1+01071+00871102521ADDAY181031AY221031GF107991061071004501071001MA1999999101801MD1610081+9999MW1151REMSYN072AAXX  16154 08023 41450 72827 10107 20087 30180 40252 56008 71582 86770;
0201080230999992000021618004+43470-003820FM-12+006599999V0202901N015910900019N0150001N1+01081+00811102591ADDAA112004191AY181061AY221061GF105991041081004501001021KA1999M+01191MA1999999101871MD1310071+9999MW1251REMSYN088AAXX  16184 08023 11465 52931 10108 20081 30187 40259 53007 60042 72582 84802 333 10119;
0133080230999992000021621004+43470-003820FM-12+006599999V0202901N014910120019N0150001N1+01101+00861102621ADDGF105991051081008001001001MA1999999101901MD1310031+9999REMSYN066AAXX  16214 08023 42565 52929 10110 20086 30190 40262 53003 85800;
0178080230999992000021700004+43470-003820FM-12+006599999V0202801N014910120019N0100001N1+01081+00861102621ADDAA106000791AY161061AY221061GF107991071081008001999999MA1999999101901MD1510001+9999MW1601REMSYN078AAXX  17004 08023 11560 72829 10108 20086 30190 40262 55000 69901 76062 878//;
0161080230999992000021703004+43470-003820FM-12+006599999V0202801N015910120019N0100001N1+01161+01161102541ADDAY161031AY221031GF107991071081008001999999MA1999999101821MD1810081+9999MW1021REMSYN072AAXX  17034 08023 41560 72831 10116 20116 30182 40254 58008 70262 878//;
0213080230999992000021706004+43470-003820FM-12+006599999V0202801N016410360019N0120001N1+01241+01031102361ADDAA112000791AY161061AY221061GF107991041081012501071999KA1120N+01061MA1999999101651MD1710171+9999MW1601REMSYN100AAXX  17064 08023 11662 72832 10124 20103 30165 40236 57017 69902 76062 8487/ 333 20106 50063 55007;
0205080230999992000021709004+43470-003820FM-12+006599999V0202801N015910042019N0020001N1+01221+01141102401ADDAY161031AY221031GF108991081071004501999999MA1999999101691MD1310041+9999MW1601OA149902631OA259901701REMSYN094AAXX  17094 08023 41420 82831 10122 20114 30169 40240 53004 76062 887// 333 91151 91233 91528;
0222080230999992000021712004+43470-003820FM-12+006599999V0202901N012910042019N0015001N1+01241+01201102601ADDAA106002091AY161061AY221061GF108991081071004501999999MA1999999101881MD1210191+9999MW1611OA149902631OA259901701REMSYN100AAXX  17124 08023 11415 82925 10124 20120 30188 40260 52019 60021 76162 887// 333 91151 91233 91528;
0161080230999992000021715004+43470-003820FM-12+006599999V0203001N010810042019N0030001N1+01241+01201102621ADDAY161031AY221031GF108991081071004501999999MA1999999101901MD1310021+9999MW1211REMSYN072AAXX  17154 08023 41430 83021 10124 20120 30190 40262 53002 72162 887//;
0201080230999992000021718004+43470-003820FM-12+006599999V0202801N010310042019N0030001N1+01221+01181102701ADDAA112003091AY161061AY221061GF108991081071004501999999KA1999M+01351MA1999999101981MD1210081+9999MW1211REMSYN088AAXX  17184 08023 11430 82820 10122 20118 30198 40270 52008 60032 72162 887// 333 10135;
0161080230999992000021721004+43470-003820FM-12+006599999V0202801N009810042019N0040001N1+01221+01181102801ADDAY161031AY221031GF108991081071004501999999MA1999999102081MD1210101+9999MW1211REMSYN072AAXX  17214 08023 41440 82819 10122 20118 30208 40280 52010 72162 887//;
0178080230999992000021800004+43470-003820FM-12+006599999V0202701N009310042019N0040001N1+01221+01141102801ADDAA106001091AY161061AY221061GF108991081071004501999999MA1999999102081MD1010001+9999MW1211REMSYN078AAXX  18004 08023 11440 82718 10122 20114 30208 40280 50000 69991 72162 887//;
0161080230999992000021803004+43470-003820FM-12+006599999V0202701N008210075019N0060001N1+01201+01121102721ADDAY161031AY221031GF108991081051008001999999MA1999999102001MD1710081+9999MW1101REMSYN072AAXX  18034 08023 41556 82716 10120 20112 30200 40272 57008 71062 885//;
0213080230999992000021806004+43470-003820FM-12+006599999V0202701N008210075019N0060001N1+01181+01101102711ADDAA112001091AY161061AY221061GF108991081051008001999999KA1120N+01181MA1999999101991MD1610011+9999MW1101REMSYN100AAXX  18064 08023 11556 82716 10118 20110 30199 40271 56001 60012 71062 885// 333 20118 50023 55000;
0144080230999992000021812004+43470-003820FM-12+006599999V0202801N008710075019N0100001N1+01251+01161102701ADDAA199000021GF108991081051008001999999MA1999999101981MD1810041+9999REMSYN066AAXX  18124 08023 32560 82817 10125 20116 30198 40270 58004 885//;
0161080230999992000021815004+43470-003820FM-12+006599999V0202701N008210075019N0080001N1+01261+01151102631ADDAY121031AY221031GF107991071051008001001001MA1999999101921MD1710061+9999MW1101REMSYN072AAXX  18154 08023 41558 72716 10126 20115 30192 40263 57006 71022 87500;
0201080230999992000021818004+43470-003820FM-12+006599999V0202601N006710360019N0080001N1+01251+01061102661ADDAA112000191AY121061AY221061GF107991041051008001071001KA1999M+01321MA1999999101941MD1310021+9999MW1101REMSYN088AAXX  18184 08023 11558 72613 10125 20106 30194 40266 53002 69922 71022 84570 333 10132;
0133080230999992000021821004+43470-003820FM-12+006599999V0202501N007210360019N0100001N1+01241+01131102661ADDGF106991021051008001071001MA1999999101941MD1410001+9999REMSYN066AAXX  18214 08023 42560 62514 10124 20113 30194 40266 54000 82570;
0163080230999992000021900004+43470-003820FM-12+006599999V0202601N008210360019N0100001N1+01211+01131102621ADDAA199000091GF106991021051008001071001MA1999999101901MD1810041+9999REMSYN066AAXX  19004 08023 32560 62616 10121 20113 30190 40262 58004 82570;EQDQ01  00002PRCP99
0133080230999992000021903004+43470-003820FM-12+006599999V0202701N008710360019N0100001N1+01161+01061102561ADDGF106991021051008001071001MA1999999101841MD1710061+9999REMSYN066AAXX  19034 08023 42560 62717 10116 20106 30184 40256 57006 82570;
0198080230999992000021906004+43470-003820FM-12+006599999V0202801N008710360019N0100001N1+01181+01061102591ADDAA199000091GF107991021051008001071001KA1120N+01141MA1999999101871MD1310031+9999REMSYN088AAXX  19064 08023 32560 72817 10118 20106 30187 40259 53003 82570 333 20114 50023 55000;EQDQ01  00002PRCP99
0161080230999992000021909004+43470-003820FM-12+006599999V0202701N010810360019N0120001N1+01181+01001102601ADDAY151031AY221031GF107991031081004501071999MA1999999101881MD1310011+9999MW1021REMSYN072AAXX  19094 08023 41462 72721 10118 20100 30188 40260 53001 70252 8387/;
0178080230999992000021912004+43470-003820FM-12+006599999V0202801N009810360019N0120001N1+01271+01041102681ADDAA106000791AY151061AY221061GF107991031081004501071999MA1999999101961MD1110081+9999MW1021REMSYN078AAXX  19124 08023 11462 72819 10127 20104 30196 40268 51008 69901 70252 8387/;
0133080230999992000021915004+43470-003820FM-12+006599999V0202901N010310360019N0200001N1+01251+01141102591ADDGF108991011051008001071999MA1999999101881MD1810081+9999REMSYN066AAXX  19154 08023 42570 82920 10125 20114 30188 40259 58008 8157/;
0201080230999992000021918004+43470-003820FM-12+006599999V0203001N008210075019N0200001N1+01211+01111102621ADDAA112000191AY151061AY221061GF107991071051008001999999KA1999M+01381MA1999999101901MD1310021+9999MW1021REMSYN088AAXX  19184 08023 11570 73016 10121 20111 30190 40262 53002 69912 70252 875// 333 10138;
0161080230999992000021921004+43470-003820FM-12+006599999V0203301N007210042019N0030001N1+01121+01121102711ADDAY151031AY221031GF108991081071004501999999MA1999999101991MD1210091+9999MW1501REMSYN072AAXX  19214 08023 41430 83314 10112 20112 30199 40271 52009 75052 887//;
0178080230999992000022000004+43470-003820FM-12+006599999V0200201N002110042019N0080001N1+01031+00951102791ADDAA106001091AY151061AY221061GF108991081071004501999999MA1999999102071MD1210081+9999MW1501REMSYN078AAXX  20004 08023 11458 80204 10103 20095 30207 40279 52008 60011 75052 887//;
0161080230999992000022003004+43470-003820FM-12+006599999V0201701N002610075019N0080001N1+00931+00911102711ADDAY151031AY221031GF108991081061008001999999MA1999999101991MD1810081+9999MW1021REMSYN072AAXX  20034 08023 41558 81705 10093 20091 30199 40271 58008 70252 886//;
0201080230999992000022006004+43470-003820FM-12+006599999V0201601N003110075019N0100001N1+00941+00771102721ADDAA112001091AY151061AY221061GF108991081061008001999999KA1999N+00921MA1999999102001MD1410001+9999MW1021REMSYN088AAXX  20064 08023 11560 81606 10094 20077 30200 40272 54001 60012 70252 886// 333 20092;
0133080230999992000022009004+43470-003820FM-12+006599999V0201401N002610120019N0100001N1+01041+00831102801ADDGF107991071081008001999999MA1999999102081MD1310081+9999REMSYN066AAXX  20094 08023 42560 71405 10104 20083 30208 40280 53008 878//;
0144080230999992000022012004+43470-003820FM-12+006599999V0200801N003612200019N0150001N1+01321+00601102801ADDAA199000021GF103991031011008001001001MA1999999102081MD1410001+9999REMSYN066AAXX  20124 08023 32565 30807 10132 20060 30208 40280 54000 83100;
0133080230999992000022015004+43470-003820FM-12+006599999V0200801N007712200019N0300001N1+01201+00631102711ADDGF101991011011008001001011MA1999999101991MD1710091+9999REMSYN066AAXX  20154 08023 42580 10815 10120 20063 30199 40271 57009 81101;
0186080230999992000022018004+43470-003820FM-12+006599999V0200901N007712200019N0200001N1+01001+00561102641ADDAA199000091GF103991001001999999001041KA1999M+01351MA1999999101921MD1610071+9999REMSYN076AAXX  20184 08023 32970 30915 10100 20056 30192 40264 56007 80004 333 10135;EQDQ01  00002PRCP99
0133080230999992000022021004+43470-003820FM-12+006599999V0200901N005712200019N0100001N1+00981+00591102681ADDGF103991001001999999001011MA1999999101961MD1310041+9999REMSYN066AAXX  20214 08023 42960 30911 10098 20059 30196 40268 53004 80001;
0163080230999992000022100004+43470-003820FM-12+006599999V0201101N003612200019N0100001N1+00821+00691102731ADDAA199000091GF101991001001999999001011MA1999999102001MD1110041+9999REMSYN066AAXX  21004 08023 32960 11107 10082 20069 30200 40273 51004 80001;EQDQ01  00002PRCP99
0133080230999992000022103004+43470-003820FM-12+006599999V0202001N003112200019N0100001N1+00641+00451102731ADDGF102991001001999999001021MA1999999102001MD1410001+9999REMSYN066AAXX  21034 08023 41960 22006 10064 20045 30200 40273 54000 80002;
0198080230999992000022106004+43470-003820FM-12+006599999V0201501N004112200019N0100001N1+00601+00441102711ADDAA199000091GF103991001001999999001021KA1120N+00551MA1999999101981MD1810021+9999REMSYN088AAXX  21064 08023 32960 31508 10060 20044 30198 40271 58002 80002 333 20055 50273 55063;EQDQ01  00002PRCP99
0161080230999992000022109004+43470-003820FM-12+006599999V0201501N002119999999N0080001N1+00881+00571102811ADDAY121031AY211031GF106991001001999999001091MA1999999102081MD1210101+9999MW1101REMSYN072AAXX  21094 08023 41958 61504 10088 20057 30208 40281 52010 71021 80009;
0163080230999992000022112004+43470-003820FM-12+006599999V0200801N003612200019N0100001N1+01101+00681102791ADDAA199000091GF104991011011008001001021MA1999999102071MD1610011+9999REMSYN066AAXX  21124 08023 32560 40807 10110 20068 30207 40279 56001 81102;EQDQ01  00002PRCP99
0133080230999992000022115004+43470-003820FM-12+006599999V0200801N004612200019N0250001N1+01121+00551102721ADDGF102991011051008001001051MA1999999102001MD1610071+9999REMSYN066AAXX  21154 08023 42575 20809 10112 20055 30200 40272 56007 81505;
0186080230999992000022118004+43470-003820FM-12+006599999V0200901N003612200019N0100001N1+00901+00661102811ADDAA199000091GF103991011051008001001021KA1999M+01201MA1999999102081MD1010081+9999REMSYN076AAXX  21184 08023 32560 30907 10090 20066 30208 40281 50008 81502 333 10120;EQDQ01  00002PRCP99
0133080230999992000022121004+43470-003820FM-12+006599999V0201501N001012200019N0100001N1+00821+00351102831ADDGF102991011051008001031011MA1999999102101MD1110021+9999REMSYN066AAXX  21214 08023 42560 21502 10082 20035 30210 40283 51002 81531;
0163080230999992000022200004+43470-003820FM-12+006599999V0202201N002112200019N0100001N1+00851+00411102831ADDAA199000091GF103991011001022501031011MA1999999102101MD1410001+9999REMSYN066AAXX  22004 08023 32860 32204 10085 20041 30210 40283 54000 81031;EQDQ01  00002PRCP99
0133080230999992000022203004+43470-003820FM-12+006599999V0202101N001512200019N0100001N1+00861+00401102811ADDGF103991011001022501031011MA1999999102081MD1610021+9999REMSYN066AAXX  22034 08023 42860 32103 10086 20040 30208 40281 56002 81031;
0198080230999992000022206004+43470-003820FM-12+006599999V0202201N002112200019N0100001N1+00821+00501102771ADDAA199000091GF103991011001022501031011KA1120N+00801MA1999999102041MD1610041+9999REMSYN088AAXX  22064 08023 32860 32204 10082 20050 30204 40277 56004 81031 333 20080 50183 55072;EQDQ01  00002PRCP99
0133080230999992000022209004+43470-003820FM-12+006599999V0202201N002610360019N0100001N1+00941+00681102801ADDGF108991031051012501031071MA1999999102071MD1310031+9999REMSYN066AAXX  22094 08023 42660 82205 10094 20068 30207 40280 53003 83537;
0163080230999992000022212004+43470-003820FM-12+006599999V0202401N003610075019N0100001N1+01051+00591102761ADDAA199000091GF108991051051008001021999MA1999999102041MD1810031+9999REMSYN066AAXX  22124 08023 32560 82407 10105 20059 30204 40276 58003 8552/;EQDQ01  00002PRCP99
0161080230999992000022215004+43470-003820FM-12+006599999V0202501N003110075019N0040001N1+00931+00851102661ADDAY161031AY221031GF108991081071008001999999MA1999999101941MD1710101+9999MW1611REMSYN072AAXX  22154 08023 41540 82506 10093 20085 30194 40266 57010 76162 887//;
0201080230999992000022218004+43470-003820FM-12+006599999V0201801N002110075019N0150001N1+00861+00781102611ADDAA112000191AY161061AY221061GF107991071061008001999999KA1999M+01071MA1999999101881MD1710061+9999MW1021REMSYN088AAXX  22184 08023 11565 71804 10086 20078 30188 40261 57006 69912 70262 876// 333 10107;
0133080230999992000022221004+43470-003820FM-12+006599999V0202101N003610075019N0100001N1+01021+01021102641ADDGF107991071051008001999999MA1999999101921MD1310041+9999REMSYN066AAXX  22214 08023 42560 72107 10102 20102 30192 40264 53004 875//;
0178080230999992000022300004+43470-003820FM-12+006599999V0202301N003110021019N0020001N1+01041+01041102681ADDAA106000191AY151061AY221061GF108991081061002501999999MA1999999101961MD1110041+9999MW1501REMSYN078AAXX  23004 08023 11320 82306 10104 20104 30196 40268 51004 69911 75052 886//;
0161080230999992000022303004+43470-003820FM-12+006599999V0202901N004610042019N0050001N1+01191+01191102661ADDAY151031AY221031GF108991081061004501999999MA1999999101941MD1710021+9999MW1101REMSYN072AAXX  23034 08023 41450 82909 10119 20119 30194 40266 57002 71052 886//;
0223080230999992000022306004+43470-003820FM-12+006599999V0203201N002610003019N0005001N1+01191+01191102711ADDAA112002091AY151061AY221061GA1091+999999999GF109991091999999999999999KA1120N+00891MA1999999101991MD1310051+9999MW1531REMSYN094AAXX  23064 08023 11/05 93205 10119 20119 30199 40271 53005 60022 75352 333 20089 50483 55000;
0161080230999992000022309004+43470-003820FM-12+006599999V0203001N009810021019N0005001N1+01221+01221102881ADDAY151031AY251031GF108991081071002501999999MA1999999102161MD1210171+9999MW1521REMSYN072AAXX  23094 08023 41305 83019 10122 20122 30216 40288 52017 75255 887//;
0178080230999992000022312004+43470-003820FM-12+006599999V0202901N008210042019N0050001N1+01241+01161103021ADDAA106002091AY151061AY261061GF108991081071004501999999MA1999999102301MD1210141+9999MW1151REMSYN078AAXX  23124 08023 11450 82916 10124 20116 30230 40302 52014 60021 71556 887//;
0161080230999992000022315004+43470-003820FM-12+006599999V0202901N009310042019N0060001N1+01301+01191103041ADDAY121031AY221031GF105991051061004501001001MA1999999102321MD1310021+9999MW1101REMSYN072AAXX  23154 08023 41456 52918 10130 20119 30232 40304 53002 71022 85600;
0201080230999992000022318004+43470-003820FM-12+006599999V0203201N003110090019N0080001N1+01221+01181103081ADDAA112002091AY121061AY221061GF108991081081004501999999KA1999M+01361MA1999999102361MD1210041+9999MW1101REMSYN088AAXX  23184 08023 11458 83206 10122 20118 30236 40308 52004 60022 71022 888// 333 10136;
0161080230999992000022321004+43470-003820FM-12+006599999V0202701N006210042019N0080001N1+01201+01161103191ADDAY151031AY221031GF108991081051004501999999MA1999999102471MD1210111+9999MW1101REMSYN072AAXX  23214 08023 41458 82712 10120 20116 30247 40319 52011 71052 885//;
0178080230999992000022400004+43470-003820FM-12+006599999V0202701N005110042019N0060001N1+01201+01201103191ADDAA106002091AY151061AY221061GF108991051051004501071999MA1999999102471MD1410001+9999MW1101REMSYN078AAXX  24004 08023 11456 82710 10120 20120 30247 40319 54000 60021 71052 8557/;
0161080230999992000022403004+43470-003820FM-12+006599999V0202901N002610042019N0050001N1+01201+01201103191ADDAY151031AY221031GF108991081051004501999999MA1999999102471MD1410001+9999MW1101REMSYN072AAXX  24034 08023 41450 82905 10120 20120 30247 40319 54000 71052 885//;
0213080230999992000022406004+43470-003820FM-12+006599999V0202201N002610042019N0080001N1+01161+01161103181ADDAA112003091AY151061AY221061GF108991061051004501071999KA1120N+01161MA1999999102461MD1610011+9999MW1101REMSYN100AAXX  24064 08023 11458 82205 10116 20116 30246 40318 56001 60032 71052 8657/ 333 20116 50283 55013;
0161080230999992000022409004+43470-003820FM-12+006599999V0209999C000010090019N0030001N1+01241+01201103241ADDAY121031AY221031GF107991071081004501001001MA1999999102521MD1310061+9999MW1101REMSYN072AAXX  24094 08023 41430 70000 10124 20120 30252 40324 53006 71022 87800;
0163080230999992000022412004+43470-003820FM-12+006599999V0200801N003612200019N0120001N1+01411+01321103181ADDAA199000091GF103991021081004501001011MA1999999102471MD1810051+9999REMSYN066AAXX  24124 08023 32462 30807 10141 20132 30247 40318 58005 82801;EQDQ01  00002PRCP99
0133080230999992000022415004+43470-003820FM-12+006599999V0200801N007212200019N0100001N1+01341+01251103001ADDGF101991011081008001001001MA1999999102281MD1710191+9999REMSYN066AAXX  24154 08023 42560 10814 10134 20125 30228 40300 57019 81800;
0186080230999992000022418004+43470-003820FM-12+006599999V0200901N005112200019N0100001N1+01201+01161102981ADDAA199000091GF102991001001999999001011KA1999M+01491MA1999999102261MD1610021+9999REMSYN076AAXX  24184 08023 32960 20910 10120 20116 30226 40298 56002 80001 333 10149;EQDQ01  00002PRCP99
0171080230999992000022421004+43470-003820FM-12+006599999V0201401N002112200019N0090001N1+01061+01061102981ADDAY101031AY201031GA1001+999999999GF100991001001999999001001MA1999999102261MD1410001+9999MW1101REMSYN066AAXX  24214 08023 41959 01404 10106 20106 30226 40298 54000 71000;
0191080230999992000022500004+43470-003820FM-12+006599999V0202201N000512200019N0050001N1+01111+01111102911ADDAA199000091AY101061AY201061GF102991001001999999001011MA1999999102191MD1810071+9999MW1101REMSYN072AAXX  25004 08023 31950 22201 10111 20111 30219 40291 58007 71000 80001;EQDQ01  00002PRCP99
0171080230999992000022503004+43470-003820FM-12+006599999V0202401N004110001519N0000001N1+01021+01021102921ADDAY101031AY201031GA1091+999999999GF109991091999999999999999MA1999999102201MD1310011+9999MW1451REMSYN066AAXX  25034 08023 41/00 92408 10102 20102 30220 40292 53001 74500;
0226080230999992000022506004+43470-003820FM-12+006599999V0202401N003610021019N0020001N1+01041+01041103001ADDAA199000091AY141061AY221061GF108991081061002501999999KA1120N+01001MA1999999102281MD1310081+9999MW1101REMSYN094AAXX  25064 08023 31320 82407 10104 20104 30228 40300 53008 71042 886// 333 20100 50193 55077;EQDQ01  00002PRCP99
0161080230999992000022509004+43470-003820FM-12+006599999V0202501N002110006019N0015001N1+01101+01061103151ADDAY151031AY241031GF108991081061000751999999MA1999999102431MD1210151+9999MW1101REMSYN072AAXX  25094 08023 41115 82504 10110 20106 30243 40315 52015 71054 886//;
0161080230999992000022515004+43470-003820FM-12+006599999V0200701N004110012019N0030001N1+01191+01131103081ADDAY121031AY221031GF108991081061001501999999MA1999999102361MD1710121+9999MW1101REMSYN072AAXX  25154 08023 41230 80708 10119 20113 30236 40308 57012 71022 886//;
0214080230999992000022518004+43470-003820FM-12+006599999V0200701N004610042019N0040001N1+01131+01011103021ADDAA199000091AY121061AY221061GF108991081061004501999999KA1999M+01261MA1999999102301MD1610061+9999MW1101REMSYN082AAXX  25184 08023 31440 80709 10113 20101 30230 40302 56006 71022 886// 333 10126;EQDQ01  00002PRCP99
0161080230999992000022521004+43470-003820FM-12+006599999V0201101N003110021019N0060001N1+01121+01001103021ADDAY121031AY221031GF108991081061002501999999MA1999999102341MD1410001+9999MW1101REMSYN072AAXX  25214 08023 41356 81106 10112 20100 30234 40302 54000 71022 886//;
0191080230999992000022600004+43470-003820FM-12+006599999V0200801N004110021019N0050001N1+01101+01001102961ADDAA199000091AY121061AY221061GF108991081061002501999999MA1999999102241MD1810101+9999MW1101REMSYN072AAXX  26004 08023 31350 80808 10110 20100 30224 40296 58010 71022 886//;EQDQ01  00002PRCP99
0161080230999992000022603004+43470-003820FM-12+006599999V0201201N003110021019N0060001N1+01081+00961102841ADDAY121031AY221031GF106991061061002501999999MA1999999102121MD1710101+9999MW1101REMSYN072AAXX  26034 08023 41356 61206 10108 20096 30212 40284 57010 71022 866//;
0226080230999992000022606004+43470-003820FM-12+006599999V0201401N002610012019N0040001N1+01041+01001102791ADDAA199000091AY121061AY221061GF106991061061001501999999KA1120N+01041MA1999999102071MD1610051+9999MW1101REMSYN094AAXX  26064 08023 31240 61405 10104 20100 30207 40279 56005 71022 866// 333 20104 50203 55000;EQDQ01  00002PRCP99
0161080230999992000022609004+43470-003820FM-12+006599999V0201701N001010021019N0010001N1+01041+01001102911ADDAY141031AY221031GF108991081061002501999999MA1999999102191MD1310121+9999MW1101REMSYN072AAXX  26094 08023 41310 81702 10104 20100 30219 40291 53012 71042 886//;
0191080230999992000022612004+43470-003820FM-12+006599999V0209999V002110042019N0010001N1+01081+01001102881ADDAA199000091AY141061AY221061GF108991081061004501999999MA1999999102161MD1810031+9999MW1101REMSYN072AAXX  26124 08023 31410 89904 10108 20100 30216 40288 58003 71042 886//;EQDQ01  00002PRCP99
0161080230999992000022615004+43470-003820FM-12+006599999V0200501N002110042019N0030001N1+01081+00961102781ADDAY121031AY221031GF108991081061004501999999MA1999999102061MD1710101+9999MW1101REMSYN072AAXX  26154 08023 41430 80504 10108 20096 30206 40278 57010 71022 886//;
0214080230999992000022618004+43470-003820FM-12+006599999V0201301N002110021019N0015001N1+01071+01011102711ADDAA199000091AY121061AY221061GF107991061061002501031001KA1999M+01151MA1999999101991MD1810071+9999MW1101REMSYN082AAXX  26184 08023 31315 71304 10107 20101 30199 40271 58007 71022 86630 333 10115;EQDQ01  00002PRCP99
0161080230999992000022621004+43470-003820FM-12+006599999V0200801N002110012019N0010001N1+01061+01021102721ADDAY121031AY221031GF108991081061001501999999MA1999999102001MD1010011+9999MW1101REMSYN072AAXX  26214 08023 41210 80804 10106 20102 30200 40272 50001 71022 886//;
0191080230999992000022700004+43470-003820FM-12+006599999V0202601N005110012019N0010001N1+01001+00961102781ADDAA199000091AY121061AY221061GF108991081061001501999999MA1999999102061MD1310061+9999MW1101REMSYN072AAXX  27004 08023 31210 82610 10100 20096 30206 40278 53006 71022 886//;EQDQ01  00002PRCP99
0161080230999992000022703004+43470-003820FM-12+006599999V0203001N003110006019N0020001N1+01001+00961102621ADDAY121031AY221031GF108991081061000751999999MA1999999101901MD1710161+9999MW1101REMSYN072AAXX  27034 08023 41120 83006 10100 20096 30190 40262 57016 71022 886//;
0226080230999992000022706004+43470-003820FM-12+006599999V0202201N001510012019N0020001N1+01001+00961102601ADDAA199000091AY121061AY221061GF108991081061001501999999KA1120N+00991MA1999999101881MD1610021+9999MW1101REMSYN094AAXX  27064 08023 31220 82203 10100 20096 30188 40260 56002 71022 886// 333 20099 50033 55000;EQDQ01  00002PRCP99
0161080230999992000022709004+43470-003820FM-12+006599999V0201801N001010012019N0020001N1+01011+00951102681ADDAY141031AY221031GF108991081061001501999999MA1999999101961MD1310081+9999MW1101REMSYN072AAXX  27094 08023 41220 81802 10101 20095 30196 40268 53008 71042 886//;
0191080230999992000022712004+43470-003820FM-12+006599999V0200401N001010021019N0025001N1+01081+00901102601ADDAA199000091AY141061AY221061GF108991081061002501999999MA1999999101881MD1810081+9999MW1101REMSYN072AAXX  27124 08023 31325 80402 10108 20090 30188 40260 58008 71042 886//;EQDQ01  00002PRCP99
0161080230999992000022715004+43470-003820FM-12+006599999V0202701N002110021019N0010001N1+01061+00961102521ADDAY121031AY221031GF108991081061002501999999MA1999999101801MD1810081+9999MW1101REMSYN072AAXX  27154 08023 41310 82704 10106 20096 30180 40252 58008 71022 886//;
0214080230999992000022718004+43470-003820FM-12+006599999V0202901N002610021019N0030001N1+01041+00941102501ADDAA199000091AY141061AY221061GF108991081061002501999999KA1999M+01101MA1999999101781MD1510021+9999MW1101REMSYN082AAXX  27184 08023 31330 82905 10104 20094 30178 40250 55002 71042 886// 333 10110;EQDQ01  00002PRCP99
0161080230999992000022721004+43470-003820FM-12+006599999V0202201N002110021019N0030001N1+01071+00931102511ADDAY141031AY221031GF108991081061002501999999MA1999999101791MD1110011+9999MW1101REMSYN072AAXX  27214 08023 41330 82204 10107 20093 30179 40251 51001 71042 886//;
0191080230999992000022800004+43470-003820FM-12+006599999V0202201N001010021019N0050001N1+01061+00941102441ADDAA199000091AY141061AY221061GF108991081061002501999999MA1999999101721MD1610071+9999MW1101REMSYN072AAXX  28004 08023 31350 82202 10106 20094 30172 40244 56007 71042 886//;EQDQ01  00002PRCP99
0161080230999992000022803004+43470-003820FM-12+006599999V0202701N003610021019N0050001N1+01041+00921102391ADDAY141031AY221031GF108991081061002501999999MA1999999101671MD1710051+9999MW1101REMSYN072AAXX  28034 08023 41350 82707 10104 20092 30167 40239 57005 71042 886//;
0226080230999992000022806004+43470-003820FM-12+006599999V0201801N005112200019N0060001N1+00951+00781102391ADDAA199000091AY141061AY221061GF104991011061004501041041KA1120N+00941MA1999999101671MD1410001+9999MW1101REMSYN094AAXX  28064 08023 31456 41810 10095 20078 30167 40239 54000 71042 81644 333 20094 50023 55000;EQDQ01  00002PRCP99
0161080230999992000022809004+43470-003820FM-12+006599999V0201601N005110360019N0060001N1+01301+00811102401ADDAY121031AY221031GF108991041051012501071999MA1999999101691MD1110021+9999MW1051REMSYN072AAXX  28094 08023 41656 81610 10130 20081 30169 40240 51002 70522 8457/;
0163080230999992000022812004+43470-003820FM-12+006599999V0202901N008710120019N0100001N1+01321+01131102671ADDAA199000091GF108991081081008001999999MA1999999101961MD1210271+9999REMSYN066AAXX  28124 08023 32560 82917 10132 20113 30196 40267 52027 888//;EQDQ01  00002PRCP99
0161080230999992000022815004+43470-003820FM-12+006599999V0202601N006710360019N0080001N1+01121+01001102791ADDAY121031AY221031GF108991031021004501071999MA1999999102071MD1310111+9999MW1101REMSYN072AAXX  28154 08023 41458 82613 10112 20100 30207 40279 53011 71022 8327/;
0201080230999992000022818004+43470-003820FM-12+006599999V0202201N003110120019N0120001N1+01111+00841102791ADDAA112000891AY151061AY221061GF108991061081008001071999KA1999M+01671MA1999999102071MD1010001+9999MW1021REMSYN088AAXX  28184 08023 11562 82206 10111 20084 30207 40279 50000 69972 70252 8687/ 333 10167;
0133080230999992000022821004+43470-003820FM-12+006599999V0202401N003610120019N0120001N1+01101+00811102871ADDGF108991051081008001071999MA1999999102151MD1110081+9999REMSYN066AAXX  28214 08023 42562 82407 10110 20081 30215 40287 51008 8587/;
0163080230999992000022900004+43470-003820FM-12+006599999V0202001N003110360019N0120001N1+01071+00761102801ADDAA199000091GF107991011051008001031999MA1999999102081MD1810071+9999REMSYN066AAXX  29004 08023 32562 72006 10107 20076 30208 40280 58007 8153/;EQDQ01  00002PRCP99
0133080230999992000022903004+43470-003820FM-12+006599999V0202101N002612200019N0120001N1+00951+00621102621ADDGF104991011001017501031021MA1999999101901MD1710181+9999REMSYN066AAXX  29034 08023 42762 42105 10095 20062 30190 40262 57018 81032;
0198080230999992000022906004+43470-003820FM-12+006599999V0202401N005112200019N0120001N1+00901+00641102581ADDAA199000091GF101991001001999999001021KA1120N+00881MA1999999101861MD1510041+9999REMSYN088AAXX  29064 08023 32962 12410 10090 20064 30186 40258 55004 80002 333 20088 50213 55004;EQDQ01  00002PRCP99
0133080230999992000022909004+43470-003820FM-12+006599999V0202201N005119999999N0120001N1+01041+00751102601ADDGF106991031001999999071071MA1999999101881MD1110021+9999REMSYN066AAXX  29094 08023 41962 62210 10104 20075 30188 40260 51002 83077;
0163080230999992000022912004+43470-003820FM-12+006599999V0202601N009310900019N0250001N1+01391+00561102551ADDAA199000091GF105991021001022501041071MA1999999101841MD1810051+9999REMSYN066AAXX  29124 08023 32875 52618 10139 20056 30184 40255 58005 82047;EQDQ01  00002PRCP99
0133080230999992000022915004+43470-003820FM-12+006599999V0203001N005110360019N0250001N1+01321+00881102361ADDGF107991011051012501071071MA1999999101651MD1710191+9999REMSYN066AAXX  29154 08023 42675 73010 10132 20088 30165 40236 57019 81577;
0186080230999992000022918004+43470-003820FM-12+006599999V0202601N006210150019N0200001N1+01271+00891102281ADDAA199000091GF107991061051017501071999KA1999M+01481MA1999999101571MD1510081+9999REMSYN076AAXX  29184 08023 32770 72612 10127 20089 30157 40228 55008 8657/ 333 10148;EQDQ01  00002PRCP99
0133080230999992000022921004+43470-003820FM-12+006599999V0202301N005710360019N0150001N1+01201+00921102281ADDGF105991031051017501071001MA1999999101571MD1410001+9999REMSYN066AAXX  29214 08023 42765 52311 10120 20092 30157 40228 54000 83570;
0163080230999992000030100004+43470-003820FM-12+006599999V0202301N007210150019N0180001N1+01271+00731102161ADDAA199000091GF107991051081012501071999MA1999999101451MD1710121+9999REMSYN066AAXX  01004 08023 32668 72314 10127 20073 30145 40216 57012 8587/;EQDQ01  00002PRCP99
0133080230999992000030103004+43470-003820FM-12+006599999V0202701N007210120019N0150001N1+01061+00721102081ADDGF107991051061012501071999MA1999999101371MD1710081+9999REMSYN066AAXX  01034 08023 42665 72714 10106 20072 30137 40208 57008 8567/;
0213080230999992000030106004+43470-003820FM-12+006599999V0202801N012310150019N0180001N1+01281+01011101981ADDAA112000791AY121061AY221061GF107991061081012501071999KA1120N+01191MA1999999101271MD1510101+9999MW1211REMSYN100AAXX  01064 08023 11668 72824 10128 20101 30127 40198 55010 69902 72122 8687/ 333 20119 50403 55049;
0161080230999992000030109004+43470-003820FM-12+006599999V0202801N012310150019N0040001N1+01081+01041102191ADDAY181031AY261031GF108991071081012501071001MA1999999101471MD1210201+9999MW1801REMSYN072AAXX  01094 08023 41640 82824 10108 20104 30147 40219 52020 78086 87870;
0178080230999992000030112004+43470-003820FM-12+006599999V0202801N012910120019N0060001N1+01171+01071102341ADDAA106002091AY181061AY261061GF107991061081008001071001MA1999999101621MD1210151+9999MW1601REMSYN078AAXX  01124 08023 11556 72825 10117 20107 30162 40234 52015 60021 76086 86870;
0161080230999992000030115004+43470-003820FM-12+006599999V0203001N011810120019N0090001N1+01201+01001102481ADDAY181031AY221031GF106991051081008001071001MA1999999101761MD1310141+9999MW1101REMSYN072AAXX  01154 08023 41559 63023 10120 20100 30176 40248 53014 71082 85870;
0201080230999992000030118004+43470-003820FM-12+006599999V0203301N009310120019N0100001N1+01141+00791102791ADDAA112002091AY181061AY221061GF106991051081008001071001KA1999M+01361MA1999999102071MD1210311+9999MW1021REMSYN088AAXX  01184 08023 11560 63318 10114 20079 30207 40279 52031 60022 70282 85870 333 10136;
0133080230999992000030121004+43470-003820FM-12+006599999V0203301N008210360019N0100001N1+01111+00571103031ADDGF105991041081008001071001MA1999999102311MD1210241+9999REMSYN066AAXX  01214 08023 42560 53316 10111 20057 30231 40303 52024 84870;
0144080230999992000030200004+43470-003820FM-12+006599999V0203301N005112200019N0100001N1+01071+00521103121ADDAA199000021GF103991031051008001001001MA1999999102401MD1210091+9999REMSYN066AAXX  02004 08023 32560 33310 10107 20052 30240 40312 52009 83500;
0133080230999992000030203004+43470-003820FM-12+006599999V0203301N005112200019N0100001N1+01071+00621103141ADDGF104991041081008001001001MA1999999102421MD1110021+9999REMSYN066AAXX  02034 08023 42560 43310 10107 20062 30242 40314 51002 84800;
0213080230999992000030206004+43470-003820FM-12+006599999V0202101N004112200019N0100001N1+00811+00681103131ADDAA112002091AY181061AY221061GF104991021081008001061001KA1120N+00801MA1999999102401MD1610021+9999MW1021REMSYN100AAXX  02064 08023 11560 42108 10081 20068 30240 40313 56002 60022 70282 82860 333 20080 50043 55011;
0133080230999992000030209004+43470-003820FM-12+006599999V0202001N003612200019N0150001N1+00981+00721103241ADDGF102991021051008001001001MA1999999102511MD1310111+9999REMSYN066AAXX  02094 08023 42565 22007 10098 20072 30251 40324 53011 82500;
0163080230999992000030212004+43470-003820FM-12+006599999V0200701N002612200019N0200001N1+01281+00791103191ADDAA199000091GF103991031081008001001001MA1999999102471MD1810051+9999REMSYN066AAXX  02124 08023 32570 30705 10128 20079 30247 40319 58005 83800;EQDQ01  00002PRCP99
0143080230999992000030215004+43470-003820FM-12+006599999V0200701N005712200019N0200001N1+01181+00621102981ADDGA1001+999999999GF100991001001999999001001MA1999999102261MD1710211+9999REMSYN060AAXX  02154 08023 42970 00711 10118 20062 30226 40298 57021;
0186080230999992000030218004+43470-003820FM-12+006599999V0200901N004112200019N0250001N1+01041+00631102881ADDAA199000091GF101991001001999999001011KA1999M+01321MA1999999102161MD1710101+9999REMSYN076AAXX  02184 08023 32975 10908 10104 20063 30216 40288 57010 80001 333 10132;EQDQ01  00002PRCP99
0143080230999992000030221004+43470-003820FM-12+006599999V0201501N002612200019N0200001N1+00901+00621102871ADDGA1001+999999999GF100991001001999999001001MA1999999102141MD1710021+9999REMSYN060AAXX  02214 08023 42970 01505 10090 20062 30214 40287 57002;
0173080230999992000030300004+43470-003820FM-12+006599999V0201601N002612200019N0200001N1+00761+00581102731ADDAA199000091GA1001+999999999GF100991001001999999001001MA1999999102001MD1710141+9999REMSYN060AAXX  03004 08023 32970 01605 10076 20058 30200 40273 57014;EQDQ01  00002PRCP99
0143080230999992000030303004+43470-003820FM-12+006599999V0202401N003112200019N0200001N1+00801+00621102591ADDGA1001+999999999GF100991001001999999001001MA1999999101861MD1710141+9999REMSYN060AAXX  03034 08023 42970 02406 10080 20062 30186 40259 57014;
0208080230999992000030306004+43470-003820FM-12+006599999V0202301N004112200019N0200001N1+00741+00561102551ADDAA199000091GA1001+999999999GF100991001001999999001001KA1120N+00641MA1999999101821MD1710041+9999REMSYN082AAXX  03064 08023 32970 02308 10074 20056 30182 40255 57004 333 20064 50163 55094;EQDQ01  00002PRCP99
0161080230999992000030309004+43470-003820FM-12+006599999V0202501N004112200019N0090001N1+00941+00731102601ADDAY101031AY201031GF102991001001999999001091MA1999999101881MD1310061+9999MW1101REMSYN072AAXX  03094 08023 41959 22508 10094 20073 30188 40260 53006 71000 80009;
0191080230999992000030312004+43470-003820FM-12+006599999V0202801N005712200019N0090001N1+01191+01011102591ADDAA199000091AY101061AY201061GF103991031081008001001011MA1999999101871MD1410001+9999MW1101REMSYN072AAXX  03124 08023 31559 32811 10119 20101 30187 40259 54001 71000 83801;EQDQ01  00002PRCP99
0133080230999992000030315004+43470-003820FM-12+006599999V0202701N006212200019N0150001N1+01181+00861102521ADDGF105991021081008001001081MA1999999101801MD1810071+9999REMSYN066AAXX  03154 08023 42565 52712 10118 20086 30180 40252 58007 82808;
0186080230999992000030318004+43470-003820FM-12+006599999V0202501N004610900019N0150001N1+01051+00821102551ADDAA199000091GF106991011001022501071081KA1999M+01281MA1999999101831MD1310031+9999REMSYN076AAXX  03184 08023 32865 62509 10105 20082 30183 40255 53003 81078 333 10128;EQDQ01  00002PRCP99
0133080230999992000030321004+43470-003820FM-12+006599999V0202401N006219999999N0150001N1+01081+00601102581ADDGF107991001001999999001071MA1999999101861MD1110031+9999REMSYN066AAXX  03214 08023 42965 72412 10108 20060 30186 40258 51003 80007;
0163080230999992000030400004+43470-003820FM-12+006599999V0202401N006212200019N0200001N1+01081+00631102561ADDAA199000091GF101991001001999999001011MA1999999101841MD1810021+9999REMSYN066AAXX  04004 08023 32970 12412 10108 20063 30184 40256 58002 80001;EQDQ01  00002PRCP99
0152080230999992000030403004+43470-003820FM-12+006599999V0202401N007212200019N0200001N1+01101+00721102561ADDGF103991999001022501051001MA1999999101841MD1510001+9999REMSYN066AAXX  04034 08023 42870 32414 10110 20072 30184 40256 55000 80050;EQDQ01+000002SCOTLC
0198080230999992000030406004+43470-003820FM-12+006599999V0202401N007210120019N0200001N1+01121+00811102601ADDAA199000091GF106991061081008001001001KA1120N+01011MA1999999101881MD1310041+9999REMSYN088AAXX  04064 08023 32570 62414 10112 20081 30188 40260 53004 86800 333 20101 50163 55095;EQDQ01  00002PRCP99
0133080230999992000030409004+43470-003820FM-12+006599999V0202501N007212200019N0100001N1+01221+00881102681ADDGF102991021061008001001001MA1999999101961MD1310081+9999REMSYN066AAXX  04094 08023 42560 22514 10122 20088 30196 40268 53008 82600;
0191080230999992000030412004+43470-003820FM-12+006599999V0202701N007210075019N0080001N1+01291+00981102791ADDAA199000091AY121061AY221061GF108991081061008001999999MA1999999102071MD1210111+9999MW1101REMSYN072AAXX  04124 08023 31558 82714 10129 20098 30207 40279 52011 71022 886//;EQDQ01  00002PRCP99
0161080230999992000030415004+43470-003820FM-12+006599999V0200701N007210021019N0030001N1+01081+01081102791ADDAY151031AY221031GF108991081071002501999999MA1999999102071MD1410001+9999MW1581REMSYN072AAXX  04154 08023 41330 80714 10108 20108 30207 40279 54000 75852 887//;
0201080230999992000030418004+43470-003820FM-12+006599999V0201101N004610042019N0050001N1+00961+00881102921ADDAA112002091AY151061AY261061GF108991081051004501999999KA1999M+01351MA1999999102191MD1210121+9999MW1101REMSYN088AAXX  04184 08023 11450 81109 10096 20088 30219 40292 52012 60022 71056 885// 333 10135;
0161080230999992000030421004+43470-003820FM-12+006599999V0201101N004610075019N0070001N1+00941+00681103041ADDAY121031AY221031GF107991071051008001001001MA1999999102311MD1210121+9999MW1101REMSYN072AAXX  04214 08023 41557 71109 10094 20068 30231 40304 52012 71022 87500;
0144080230999992000030500004+43470-003820FM-12+006599999V0200801N008210075019N0100001N1+01001+00511103121ADDAA199000021GF107991071051008001999999MA1999999102391MD1110081+9999REMSYN066AAXX  05004 08023 32560 70816 10100 20051 30239 40312 51008 875//;
0143080230999992000030503004+43470-003820FM-12+006599999V0201001N005112200019N0100001N1+00901+00681103091ADDGA1001+999999999GF100991001001999999001001MA1999999102361MD1810031+9999REMSYN060AAXX  05034 08023 42960 01010 10090 20068 30236 40309 58003;
0179080230999992000030505004+43470-003820FM-12+006599999V0201101N006212200019N0100001N1+00741+00461103121ADDAA199000091GF101991011051008001001001MA1999999102391MD1310031+9999REMSYN082AAXX  05054 08023 32560 11112 10074 20046 30239 40312 53003 81500 333 2007/ 55010;EQDQ01  00002PRCP99
0198080230999992000030506004+43470-003820FM-12+006599999V0201101N006212200019N0100001N1+00741+00461103121ADDAA199000091GF101991011051008001001001KA1120N+00741MA1999999102391MD1310031+9999REMSYN088AAXX  05064 08023 32560 11112 10074 20046 30239 40312 53003 81500 333 20074 50143 55010;EQDQ01  00002PRCP99
0143080230999992000030509004+43470-003820FM-12+006599999V0200901N008212200019N0300001N1+00921+00361103121ADDGA1001+999999999GF100991001001999999001001MA1999999102391MD1510001+9999REMSYN060AAXX  05094 08023 42980 00916 10092 20036 30239 40312 55000;
0173080230999992000030512004+43470-003820FM-12+006599999V0200901N009812200019N0300001N1+01031+00521103091ADDAA199000091GA1001+999999999GF100991001001999999001001MA1999999102361MD1810031+9999REMSYN060AAXX  05124 08023 32980 00919 10103 20052 30236 40309 58003;EQDQ01  00002PRCP99
0143080230999992000030515004+43470-003820FM-12+006599999V0200901N012312200019N0300001N1+01021+00581102841ADDGA1001+999999999GF100991001001999999001001MA1999999102121MD1710241+9999REMSYN060AAXX  05154 08023 42980 00924 10102 20058 30212 40284 57024;
0205080230999992000030518004+43470-003820FM-12+006599999V0201001N009312200019N0300001N1+00911+00431102881ADDAA199000091GF101991001001999999001011KA1120M+01061KA2999N+00701MA1999999102151MD1310031+9999REMSYN082AAXX  05184 08023 32980 11018 10091 20043 30215 40288 53003 80001 333 10106 20070;EQDQ01  00002PRCP99
0143080230999992000030521004+43470-003820FM-12+006599999V0201201N004112200019N0200001N1+00831+00541102891ADDGA1001+999999999GF100991001001999999001001MA1999999102161MD1110011+9999REMSYN060AAXX  05214 08023 42970 01208 10083 20054 30216 40289 51001;
0173080230999992000030600004+43470-003820FM-12+006599999V0201401N004112200019N0200001N1+00741+00461102851ADDAA199000091GA1001+999999999GF100991001001999999001001MA1999999102121MD1810041+9999REMSYN060AAXX  06004 08023 32970 01408 10074 20046 30212 40285 58004;EQDQ01  00002PRCP99
0143080230999992000030603004+43470-003820FM-12+006599999V0201301N002612200019N0150001N1+00681+00471102841ADDGA1001+999999999GF100991001001999999001001MA1999999102111MD1710011+9999REMSYN060AAXX  06034 08023 42965 01305 10068 20047 30211 40284 57001;
0198080230999992000030606004+43470-003820FM-12+006599999V0201601N002112200019N0100001N1+00711+00461102791ADDAA199000091GF101991001001999999001011KA1120N+00641MA1999999102061MD1610051+9999REMSYN088AAXX  06064 08023 32960 11604 10071 20046 30206 40279 56005 80001 333 20064 50293 55100;EQDQ01  00002PRCP99
0161080230999992000030609004+43470-003820FM-12+006599999V0200801N002112200019N0070001N1+00971+00711102801ADDAY101031AY201031GF102991021001999999031001MA1999999102081MD1310021+9999MW1101REMSYN072AAXX  06094 08023 41957 20804 10097 20071 30208 40280 53002 71000 82030;
0171080230999992000030615004+43470-003820FM-12+006599999V0200501N002112200019N0080001N1+01241+00921102741ADDAY101031AY201031GA1001+999999999GF100991001001999999001001MA1999999102021MD1810041+9999MW1101REMSYN066AAXX  06154 08023 41958 00504 10124 20092 30202 40274 58004 71000;
0186080230999992000030618004+43470-003820FM-12+006599999V0200701N002612200019N0100001N1+01121+01001102781ADDAA199000091GF103991001001999999001081KA1999M+01271MA1999999102061MD1310041+9999REMSYN076AAXX  06184 08023 32960 30705 10112 20100 30206 40278 53004 80008 333 10127;EQDQ01  00002PRCP99
0133080230999992000030621004+43470-003820FM-12+006599999V0200401N003112200019N0100001N1+00981+00941102801ADDGF101991001001999999001011MA1999999102081MD1110021+9999REMSYN066AAXX  06214 08023 42960 10406 10098 20094 30208 40280 51002 80001;
0163080230999992000030700004+43470-003820FM-12+006599999V0201001N001012200019N0100001N1+00981+00941102841ADDAA199000091GF101991001001999999001011MA1999999102121MD1210041+9999REMSYN066AAXX  07004 08023 32960 11002 10098 20094 30212 40284 52004 80001;EQDQ01  00002PRCP99
0171080230999992000030703004+43470-003820FM-12+006599999V0209999C000012200019N0070001N1+00971+00951102841ADDAY101031AY201031GA1001+999999999GF100991001001999999001001MA1999999102121MD1410001+9999MW1101REMSYN066AAXX  07034 08023 41957 00000 10097 20095 30212 40284 54000 71000;
0236080230999992000030706004+43470-003820FM-12+006599999V0209999C000012200019N0070001N1+00961+00941102881ADDAA199000091AY101061AY201061GA1001+999999999GF100991001001999999001001KA1120N+00941MA1999999102161MD1310041+9999MW1101REMSYN088AAXX  07064 08023 31957 00000 10096 20094 30216 40288 53004 71000 333 20094 50173 55090;EQDQ01  00002PRCP99
0171080230999992000030709004+43470-003820FM-12+006599999V0201401N002112200019N0030001N1+01101+00981102981ADDAY101031AY201031GA1001+999999999GF100991001001999999001001MA1999999102261MD1210101+9999MW1101REMSYN066AAXX  07094 08023 41930 01404 10110 20098 30226 40298 52010 71000;
0201080230999992000030712004+43470-003820FM-12+006599999V0200501N003112200019N0080001N1+01291+01081103071ADDAA199000091AY101061AY201061GA1001+999999999GF100991001001999999001001MA1999999102351MD1210091+9999MW1101REMSYN066AAXX  07124 08023 31958 00506 10129 20108 30235 40307 52009 71000;EQDQ01  00002PRCP99
0143080230999992000030715004+43470-003820FM-12+006599999V0200701N004112200019N0100001N1+01281+00991103001ADDGA1001+999999999GF100991001001999999001001MA1999999102281MD1710071+9999REMSYN060AAXX  07154 08023 42960 00708 10128 20099 30228 40300 57007;
0196080230999992000030718004+43470-003820FM-12+006599999V0200801N005112200019N0120001N1+01141+00961103041ADDAA199000091GA1001+999999999GF100991001001999999001001KA1999M+01351MA1999999102321MD1310041+9999REMSYN070AAXX  07184 08023 32962 00810 10114 20096 30232 40304 53004 333 10135;EQDQ01  00002PRCP99
0143080230999992000030721004+43470-003820FM-12+006599999V0201201N004112200019N0120001N1+01001+00921103091ADDGA1001+999999999GF100991001001999999001001MA1999999102361MD1110041+9999REMSYN060AAXX  07214 08023 42962 01208 10100 20092 30236 40309 51004;
0173080230999992000030800004+43470-003820FM-12+006599999V0201101N004612200019N0100001N1+00961+00841103161ADDAA199000091GA1001+999999999GF100991001001999999001001MA1999999102431MD1110071+9999REMSYN060AAXX  08004 08023 32960 01109 10096 20084 30243 40316 51007;EQDQ01  00002PRCP99
0143080230999992000030803004+43470-003820FM-12+006599999V0201401N003612200019N0100001N1+00861+00731103121ADDGA1001+999999999GF100991001001999999001001MA1999999102391MD1810041+9999REMSYN060AAXX  08034 08023 42960 01407 10086 20073 30239 40312 58004;
0236080230999992000030806004+43470-003820FM-12+006599999V0201201N002612200019N0080001N1+00781+00671103111ADDAA199000091AY101061AY201061GA1001+999999999GF100991001001999999001001KA1120N+00781MA1999999102381MD1610011+9999MW1101REMSYN088AAXX  08064 08023 31958 01205 10078 20067 30238 40311 56001 71000 333 20078 50163 55094;EQDQ01  00002PRCP99
0171080230999992000030809004+43470-003820FM-12+006599999V0200901N002612200019N0070001N1+01121+00801103201ADDAY101031AY201031GA1001+999999999GF100991001001999999001001MA1999999102481MD1310101+9999MW1101REMSYN066AAXX  08094 08023 41957 00905 10112 20080 30248 40320 53010 71000;
0201080230999992000030812004+43470-003820FM-12+006599999V0200801N006712200019N0080001N1+01361+00971103191ADDAA199000091AY101061AY201061GA1001+999999999GF100991001001999999001001MA1999999102471MD1810011+9999MW1051REMSYN066AAXX  08124 08023 31958 00813 10136 20097 30247 40319 58001 70500;EQDQ01  00002PRCP99
0143080230999992000030815004+43470-003820FM-12+006599999V0200801N007712200019N0120001N1+01381+01031103081ADDGA1001+999999999GF100991001001999999001001MA1999999102361MD1610111+9999REMSYN060AAXX  08154 08023 42962 00815 10138 20103 30236 40308 56011;
0196080230999992000030818004+43470-003820FM-12+006599999V0201001N007712200019N0120001N1+01241+00831103071ADDAA199000091GA1001+999999999GF100991001001999999001001KA1999M+01431MA1999999102351MD1510011+9999REMSYN070AAXX  08184 08023 32962 01015 10124 20083 30235 40307 55001 333 10143;EQDQ01  00002PRCP99
0171080230999992000030821004+43470-003820FM-12+006599999V0201001N005112200019N0090001N1+01171+00821103101ADDAY101031AY201031GA1001+999999999GF100991001001999999001001MA1999999102381MD1210031+9999MW1051REMSYN066AAXX  08214 08023 41959 01010 10117 20082 30238 40310 52003 70500;
0173080230999992000030900004+43470-003820FM-12+006599999V0201201N004112200019N0100001N1+01121+00451103101ADDAA199000091GA1001+999999999GF100991001001999999001001MA1999999102381MD1410001+9999REMSYN060AAXX  09004 08023 32960 01208 10112 20045 30238 40310 54000;EQDQ01  00002PRCP99
0143080230999992000030903004+43470-003820FM-12+006599999V0201401N001012200019N0100001N1+01031+00521103091ADDGA1001+999999999GF100991001001999999001001MA1999999102361MD1610021+9999REMSYN060AAXX  09034 08023 42960 01402 10103 20052 30236 40309 56002;
0236080230999992000030906004+43470-003820FM-12+006599999V0201301N001512200019N0080001N1+00951+00581103131ADDAA199000091AY101061AY201061GA1001+999999999GF100991001001999999001001KA1120N+00761MA1999999102401MD1210041+9999MW1051REMSYN088AAXX  09064 08023 31958 01303 10095 20058 30240 40313 52004 70500 333 20076 50253 55105;EQDQ01  00002PRCP99
0171080230999992000030909004+43470-003820FM-12+006599999V0201401N002112200019N0060001N1+01301+00901103201ADDAY101031AY201031GA1001+999999999GF100991001001999999001001MA1999999102481MD1110081+9999MW1051REMSYN066AAXX  09094 08023 41956 01404 10130 20090 30248 40320 51008 70500;
0201080230999992000030912004+43470-003820FM-12+006599999V0200801N007212200019N0070001N1+01401+00971103191ADDAA199000091AY101061AY201061GA1001+999999999GF100991001001999999001001MA1999999102471MD1610011+9999MW1051REMSYN066AAXX  09124 08023 31957 00814 10140 20097 30247 40319 56001 70500;EQDQ01  00002PRCP99
0171080230999992000030915004+43470-003820FM-12+006599999V0200801N004612200019N0040001N1+01401+01211103111ADDAY101031AY201031GA1001+999999999GF100991001001999999001001MA1999999102401MD1710071+9999MW1101REMSYN066AAXX  09154 08023 41940 00809 10140 20121 30240 40311 57007 71000;
0224080230999992000030918004+43470-003820FM-12+006599999V0200901N006712200019N0080001N1+01301+00941103141ADDAA199000091AY101061AY201061GA1001+999999999GF100991001001999999001001KA1999M+01461MA1999999102421MD1310021+9999MW1051REMSYN076AAXX  09184 08023 31958 00913 10130 20094 30242 40314 53002 70500 333 10146;EQDQ01  00002PRCP99
0171080230999992000030921004+43470-003820FM-12+006599999V0200901N005112200019N0080001N1+01181+00901103181ADDAY101031AY201031GA1001+999999999GF100991001001999999001001MA1999999102461MD1310041+9999MW1101REMSYN066AAXX  09214 08023 41958 00910 10118 20090 30246 40318 53004 71000;
0173080230999992000031000004+43470-003820FM-12+006599999V0201201N004112200019N0100001N1+01061+00581103201ADDAA199000091GA1001+999999999GF100991001001999999001001MA1999999102471MD1110011+9999REMSYN060AAXX  10004 08023 32960 01208 10106 20058 30247 40320 51001;EQDQ01  00002PRCP99
0143080230999992000031003004+43470-003820FM-12+006599999V0200701N003112200019N0100001N1+00921+00471103191ADDGA1001+999999999GF100991001001999999001001MA1999999102461MD1810011+9999REMSYN060AAXX  10034 08023 42960 00706 10092 20047 30246 40319 58001;
0208080230999992000031006004+43470-003820FM-12+006599999V0201401N004112200019N0100001N1+00901+00591103091ADDAA199000091GA1001+999999999GF100991001001999999001001KA1120N+00871MA1999999102361MD1710101+9999REMSYN082AAXX  10064 08023 32960 01408 10090 20059 30236 40309 57010 333 20087 50153 55103;EQDQ01  00002PRCP99
0143080230999992000031009004+43470-003820FM-12+006599999V0200801N003612200019N0100001N1+01181+00811103141ADDGA1001+999999999GF100991001001999999001001MA1999999102421MD1310061+9999REMSYN060AAXX  10094 08023 42960 00807 10118 20081 30242 40314 53006;
0173080230999992000031012004+43470-003820FM-12+006599999V0200801N007712200019N0150001N1+01341+01031103111ADDAA199000091GA1001+999999999GF100991001001999999001001MA1999999102391MD1810031+9999REMSYN060AAXX  10124 08023 32965 00815 10134 20103 30239 40311 58003;EQDQ01  00002PRCP99
0133080230999992000031015004+43470-003820FM-12+006599999V0200901N006212200019N0200001N1+01341+01071102871ADDGF101991011001022501031001MA1999999102161MD1710231+9999REMSYN066AAXX  10154 08023 42870 10912 10134 20107 30216 40287 57023 81030;
0214080230999992000031018004+43470-003820FM-12+006599999V0200901N007712200019N0080001N1+01221+01071102801ADDAA199000091AY101061AY201061GF101991001001999999001021KA1999M+01401MA1999999102081MD1610081+9999MW1101REMSYN082AAXX  10184 08023 31958 10915 10122 20107 30208 40280 56008 71000 80002 333 10140;EQDQ01  00002PRCP99
0171080230999992000031021004+43470-003820FM-12+006599999V0200901N007712200019N0060001N1+01201+01121102801ADDAY101031AY201031GA1001+999999999GF100991001001999999001001MA1999999102081MD1410001+9999MW1101REMSYN066AAXX  10214 08023 41956 00915 10120 20112 30208 40280 54000 71000;
0201080230999992000031100004+43470-003820FM-12+006599999V0200901N006212200019N0040001N1+01161+01101102751ADDAA199000091AY101061AY201061GA1001+999999999GF100991001001999999001001MA1999999102031MD1810051+9999MW1101REMSYN066AAXX  11004 08023 31940 00912 10116 20110 30203 40275 58005 71000;EQDQ01  00002PRCP99
0171080230999992000031103004+43470-003820FM-12+006599999V0201001N007212200019N0040001N1+01141+01101102561ADDAY101031AY201031GA1001+999999999GF100991001001999999001001MA1999999101841MD1710191+9999MW1101REMSYN066AAXX  11034 08023 41940 01014 10114 20110 30184 40256 57019 71000;
0226080230999992000031106004+43470-003820FM-12+006599999V0201001N006210003019N0010001N1+01061+01061102511ADDAA199000091AY141061AY211061GF108991081061000251999999KA1120N+01061MA1999999101791MD1610061+9999MW1401REMSYN094AAXX  11064 08023 31010 81012 10106 20106 30179 40251 56006 74041 886// 333 20106 50153 55103;EQDQ01  00002PRCP99
0161080230999992000031109004+43470-003820FM-12+006599999V0201001N006210075019N0003001N1+01051+01051102511ADDAY141031AY241031GF108991081061008001999999MA1999999101791MD1510001+9999MW1441REMSYN072AAXX  11094 08023 41503 81012 10105 20105 30179 40251 55000 74444 886//;
0191080230999992000031112004+43470-003820FM-12+006599999V0200801N006710042019N0040001N1+01241+01131102431ADDAA199000091AY121061AY221061GF108991081061004501999999MA1999999101721MD1810071+9999MW1101REMSYN072AAXX  11124 08023 31440 80813 10124 20113 30172 40243 58007 71022 886//;EQDQ01  00002PRCP99
0161080230999992000031115004+43470-003820FM-12+006599999V0200701N006710021019N0030001N1+01181+01101102291ADDAY121031AY221031GF108991081061002501999999MA1999999101581MD1710141+9999MW1101REMSYN072AAXX  11154 08023 41330 80713 10118 20110 30158 40229 57014 71022 886//;
0214080230999992000031118004+43470-003820FM-12+006599999V0200801N006210021019N0030001N1+01111+01051102291ADDAA199000091AY121061AY221061GF108991081061002501999999KA1999M+01271MA1999999101571MD1510011+9999MW1101REMSYN082AAXX  11184 08023 31330 80812 10111 20105 30157 40229 55001 71022 886// 333 10127;EQDQ01  00002PRCP99
0161080230999992000031121004+43470-003820FM-12+006599999V0200801N004110042019N0060001N1+01101+01041102301ADDAY121031AY221031GF108991081061004501999999MA1999999101581MD1110011+9999MW1101REMSYN072AAXX  11214 08023 41456 80808 10110 20104 30158 40230 51001 71022 886//;
0191080230999992000031200004+43470-003820FM-12+006599999V0200801N003110042019N0070001N1+01041+00961102271ADDAA199000091AY121061AY221061GF108991081061004501999999MA1999999101551MD1810031+9999MW1101REMSYN072AAXX  12004 08023 31457 80806 10104 20096 30155 40227 58003 71022 886//;EQDQ01  00002PRCP99
0161080230999992000031203004+43470-003820FM-12+006599999V0201201N002610042019N0080001N1+01001+00921102191ADDAY121031AY221031GF108991081061004501999999MA1999999101471MD1710081+9999MW1101REMSYN072AAXX  12034 08023 41458 81205 10100 20092 30147 40219 57008 71022 886//;
0226080230999992000031206004+43470-003820FM-12+006599999V0201201N002610042019N0080001N1+00971+00911102151ADDAA199000091AY121061AY221061GF108991081061004501999999KA1120N+00971MA1999999101431MD1710041+9999MW1101REMSYN094AAXX  12064 08023 31458 81205 10097 20091 30143 40215 57004 71022 886// 333 20097 50193 55000;EQDQ01  00002PRCP99
0161080230999992000031209004+43470-003820FM-12+006599999V0200801N002610021019N0040001N1+01011+00931102171ADDAY121031AY221031GF108991081061002501001001MA1999999101451MD1210021+9999MW1101REMSYN072AAXX  12094 08023 41340 80805 10101 20093 30145 40217 52002 71022 88600;
0191080230999992000031212004+43470-003820FM-12+006599999V0200501N003610042019N0060001N1+01221+01011102161ADDAA199000091AY121061AY221061GF107991071061004501001001MA1999999101451MD1410001+9999MW1101REMSYN072AAXX  12124 08023 31456 70507 10122 20101 30145 40216 54000 71022 87600;EQDQ01  00002PRCP99
0161080230999992000031215004+43470-003820FM-12+006599999V0203601N002110360019N0090001N1+01161+01021102091ADDAY121031AY221031GF107991031061004501081081MA1999999101381MD1610071+9999MW1101REMSYN072AAXX  12154 08023 41459 73604 10116 20102 30138 40209 56007 71022 83688;
0214080230999992000031218004+43470-003820FM-12+006599999V0200801N002110360019N0080001N1+01121+01001102191ADDAA199000091AY121061AY221061GF107991041061004501081091KA1999M+01301MA1999999101471MD1310091+9999MW1101REMSYN082AAXX  12184 08023 31458 70804 10112 20100 30147 40219 53009 71022 84689 333 10130;EQDQ01  00002PRCP99
0161080230999992000031221004+43470-003820FM-12+006599999V0202401N002110042019N0050001N1+01081+00961102291ADDAY121031AY221031GF108991081061004501001001MA1999999101571MD1210101+9999MW1101REMSYN072AAXX  12214 08023 41450 82404 10108 20096 30157 40229 52010 71022 88600;
0191080230999992000031300004+43470-003820FM-12+006599999V0202401N004110042019N0050001N1+01041+00961102381ADDAA199000091AY121061AY221061GF108991081061004501001001MA1999999101661MD1210091+9999MW1101REMSYN072AAXX  13004 08023 31450 82408 10104 20096 30166 40238 52009 71022 88600;EQDQ01  00002PRCP99
0161080230999992000031303004+43470-003820FM-12+006599999V0202401N004110042019N0050001N1+00961+00881102411ADDAY121031AY221031GF107991071061004501001001MA1999999101691MD1110031+9999MW1101REMSYN072AAXX  13034 08023 41450 72408 10096 20088 30169 40241 51003 71022 87600;
0226080230999992000031306004+43470-003820FM-12+006599999V0202401N005110042019N0060001N1+01041+00941102501ADDAA199000091AY121061AY221061GF107991061061004501031001KA1120N+00961MA1999999101781MD1210091+9999MW1101REMSYN094AAXX  13064 08023 31456 72410 10104 20094 30178 40250 52009 71022 86630 333 20096 50143 55034;EQDQ01  00002PRCP99
0133080230999992000031309004+43470-003820FM-12+006599999V0202701N005710075019N0100001N1+01171+01011102661ADDGF106991051021008001031001MA1999999101941MD1210161+9999REMSYN066AAXX  13094 08023 42560 62711 10117 20101 30194 40266 52016 85230;
0163080230999992000031312004+43470-003820FM-12+006599999V0203301N003612200019N0150001N1+01301+00951102781ADDAA199000091GF102991021011008001001001MA1999999102061MD1210121+9999REMSYN066AAXX  13124 08023 32565 23307 10130 20095 30206 40278 52012 82100;EQDQ01  00002PRCP99
0133080230999992000031315004+43470-003820FM-12+006599999V0203501N004112200019N0180001N1+01261+00961102711ADDGF101991011081012501001001MA1999999101991MD1810071+9999REMSYN066AAXX  13154 08023 42668 13508 10126 20096 30199 40271 58007 81800;
0186080230999992000031318004+43470-003820FM-12+006599999V0203301N003112200019N0120001N1+01151+00891102841ADDAA199000091GF101991011061004501001001KA1999M+01331MA1999999102121MD1310131+9999REMSYN076AAXX  13184 08023 32462 13306 10115 20089 30212 40284 53013 81600 333 10133;EQDQ01  00002PRCP99
0133080230999992000031321004+43470-003820FM-12+006599999V0202501N002612200019N0100001N1+01061+00861103001ADDGF103991031061004501001001MA1999999102281MD1210161+9999REMSYN066AAXX  13214 08023 42460 32505 10106 20086 30228 40300 52016 83600;
0163080230999992000031400004+43470-003820FM-12+006599999V0202401N005112200019N0100001N1+00981+00811103091ADDAA199000091GF102991021061004501001001MA1999999102361MD1110081+9999REMSYN066AAXX  14004 08023 32460 22410 10098 20081 30236 40309 51008 82600;EQDQ01  00002PRCP99
0133080230999992000031403004+43470-003820FM-12+006599999V0202301N004612200019N0100001N1+00921+00791103051ADDGF102991021061004501001001MA1999999102321MD1810041+9999REMSYN066AAXX  14034 08023 42460 22309 10092 20079 30232 40305 58004 82600;
0198080230999992000031406004+43470-003820FM-12+006599999V0202201N004112200019N0100001N1+00861+00691103081ADDAA199000091GF101991011061004501001001KA1120N+00861MA1999999102351MD1310031+9999REMSYN088AAXX  14064 08023 32460 12208 10086 20069 30235 40308 53003 81600 333 20086 50303 55075;EQDQ01  00002PRCP99
0161080230999992000031409004+43470-003820FM-12+006599999V0202501N003112200019N0080001N1+01111+00841103161ADDAY101031AY201031GF101991011061004501001001MA1999999102441MD1210091+9999MW1101REMSYN072AAXX  14094 08023 41458 12506 10111 20084 30244 40316 52009 71000 81600;
0191080230999992000031412004+43470-003820FM-12+006599999V0203001N003612200019N0080001N1+01211+00971103201ADDAA199000091AY101061AY201061GF102991011061004501001011MA1999999102481MD1210041+9999MW1101REMSYN072AAXX  14124 08023 31458 23007 10121 20097 30248 40320 52004 71000 81601;EQDQ01  00002PRCP99
0171080230999992000031415004+43470-003820FM-12+006599999V0203001N003112200019N0080001N1+01301+01111103241ADDAY101031AY201031GA1001+999999999GF100991001001999999001001MA1999999102521MD1010041+9999MW1101REMSYN066AAXX  14154 08023 41958 03006 10130 20111 30252 40324 50004 71000;
0214080230999992000031418004+43470-003820FM-12+006599999V0202501N003112200019N0080001N1+01221+01121103201ADDAA199000091AY101061AY201061GF101991011061004501001001KA1999M+01341MA1999999102481MD1810041+9999MW1101REMSYN082AAXX  14184 08023 31458 12506 10122 20112 30248 40320 58004 71000 81600 333 10134;EQDQ01  00002PRCP99
0171080230999992000031421004+43470-003820FM-12+006599999V0202401N004112200019N0080001N1+01111+01051103281ADDAY101031AY201031GA1001+999999999GF100991001001999999001001MA1999999102561MD1310081+9999MW1101REMSYN066AAXX  14214 08023 41958 02408 10111 20105 30256 40328 53008 71000;
0201080230999992000031500004+43470-003820FM-12+006599999V0202501N003112200019N0080001N1+01021+00941103321ADDAA199000091AY101061AY201061GA1001+999999999GF100991001001999999001001MA1999999102591MD1210031+9999MW1101REMSYN066AAXX  15004 08023 31958 02506 10102 20094 30259 40332 52003 71000;EQDQ01  00002PRCP99
0171080230999992000031503004+43470-003820FM-12+006599999V0202301N004112200019N0080001N1+01041+00941103291ADDAY101031AY201031GA1001+999999999GF100991001001999999001001MA1999999102561MD1810031+9999MW1101REMSYN066AAXX  15034 08023 41958 02308 10104 20094 30256 40329 58003 71000;
0213080230999992000031506004+43470-003820FM-12+006599999V0202501N004110042019N0060001N1+01021+00941103331ADDAA112000791AY121061AY201061GF108991081071004501999999KA1120N+01021MA1999999102601MD1310041+9999MW1501REMSYN100AAXX  15064 08023 11456 82508 10102 20094 30260 40333 53004 69902 75020 887// 333 20102 50123 55084;
0133080230999992000031509004+43470-003820FM-12+006599999V0200301N004110075019N0200001N1+01171+00911103401ADDGF107991071051008001999999MA1999999102681MD1210081+9999REMSYN066AAXX  15094 08023 42570 70308 10117 20091 30268 40340 52008 875//;
0144080230999992000031512004+43470-003820FM-12+006599999V0200101N003610120019N0200001N1+01261+00981103481ADDAA199000021GF105991051081008001001001MA1999999102761MD1110081+9999REMSYN066AAXX  15124 08023 32570 50107 10126 20098 30276 40348 51008 85800;
0133080230999992000031515004+43470-003820FM-12+006599999V0200701N005112200019N0200001N1+01221+00811103441ADDGF103991031041008001001001MA1999999102721MD1610041+9999REMSYN066AAXX  15154 08023 42570 30710 10122 20081 30272 40344 56004 83400;
0167080230999992000031518004+43470-003820FM-12+006599999V0200701N005112200019N0200001N1+01061+00481103431ADDAA199000021GF101991011051012501001001KA1999M+01341MA1999999102701MD1610021+9999REMSYN076AAXX  15184 08023 32670 10710 10106 20048 30270 40343 56002 81500 333 10134;
0143080230999992000031521004+43470-003820FM-12+006599999V0200701N004112200019N0200001N1+01011+00501103511ADDGA1001+999999999GF100991001001999999001001MA1999999102781MD1310081+9999REMSYN060AAXX  15214 08023 42970 00708 10101 20050 30278 40351 53008;
0163080230999992000031600004+43470-003820FM-12+006599999V0201601N002110120019N0200001N1+00871+00581103491ADDAA199000091GF105991051081008001001001MA1999999102761MD1010021+9999REMSYN066AAXX  16004 08023 32570 51604 10087 20058 30276 40349 50002 85800;EQDQ01  00002PRCP99
0133080230999992000031603004+43470-003820FM-12+006599999V0201901N002612200019N0200001N1+00871+00481103411ADDGF104991041051008001001001MA1999999102681MD1710081+9999REMSYN066AAXX  16034 08023 42570 41905 10087 20048 30268 40341 57008 84500;
0198080230999992000031606004+43470-003820FM-12+006599999V0202101N003112200019N0150001N1+00761+00381103391ADDAA199000091GF103991031051008001001011KA1120N+00721MA1999999102661MD1610021+9999REMSYN088AAXX  16064 08023 32565 32106 10076 20038 30266 40339 56002 83501 333 20072 50123 55061;EQDQ01  00002PRCP99
0133080230999992000031609004+43470-003820FM-12+006599999V0200301N001012200019N0100001N1+00981+00631103411ADDGF101991011011008001001001MA1999999102681MD1210021+9999REMSYN066AAXX  16094 08023 42560 10302 10098 20063 30268 40341 52002 81100;
0163080230999992000031612004+43470-003820FM-12+006599999V0200801N007712200019N0120001N1+01241+00601103381ADDAA199000091GF101991001001999999001011MA1999999102661MD1810021+9999REMSYN066AAXX  16124 08023 32962 10815 10124 20060 30266 40338 58002 80001;EQDQ01  00002PRCP99
0143080230999992000031615004+43470-003820FM-12+006599999V0200701N009312200019N0150001N1+01161+00471103231ADDGA1001+999999999GF100991001001999999001001MA1999999102511MD1710151+9999REMSYN060AAXX  16154 08023 42965 00718 10116 20047 30251 40323 57015;
0196080230999992000031618004+43470-003820FM-12+006599999V0200801N007212200019N0100001N1+01021+00481103201ADDAA199000091GA1001+999999999GF100991001001999999001001KA1999M+01301MA1999999102471MD1610041+9999REMSYN070AAXX  16184 08023 32960 00814 10102 20048 30247 40320 56004 333 10130;EQDQ01  00002PRCP99
0143080230999992000031621004+43470-003820FM-12+006599999V0201001N005112200019N0100001N1+00941+00591103271ADDGA1001+999999999GF100991001001999999001001MA1999999102541MD1110071+9999REMSYN060AAXX  16214 08023 42960 01010 10094 20059 30254 40327 51007;
0173080230999992000031700004+43470-003820FM-12+006599999V0201501N004112200019N0100001N1+00811+00471103211ADDAA199000091GA1001+999999999GF100991001001999999001001MA1999999102481MD1810061+9999REMSYN060AAXX  17004 08023 32960 01508 10081 20047 30248 40321 58006;EQDQ01  00002PRCP99
0143080230999992000031703004+43470-003820FM-12+006599999V0201601N003112200019N0100001N1+00751+00451103161ADDGA1001+999999999GF100991001001999999001001MA1999999102431MD1810051+9999REMSYN060AAXX  17034 08023 42960 01606 10075 20045 30243 40316 58005;
0236080230999992000031706004+43470-003820FM-12+006599999V0202001N003112200019N0090001N1+00741+00361103121ADDAA199000091AY101061AY201061GA1001+999999999GF100991001001999999001001KA1120N+00701MA1999999102391MD1610041+9999MW1051REMSYN088AAXX  17064 08023 31959 02006 10074 20036 30239 40312 56004 70500 333 20070 50443 55098;EQDQ01  00002PRCP99
0171080230999992000031709004+43470-003820FM-12+006599999V0209999C000012200019N0080001N1+01041+00651103121ADDAY101031AY201031GA1001+999999999GF100991001001999999001001MA1999999102401MD1310011+9999MW1051REMSYN066AAXX  17094 08023 41958 00000 10104 20065 30240 40312 53001 70500;
0191080230999992000031712004+43470-003820FM-12+006599999V0203501N002112200019N0090001N1+01201+00881103141ADDAA199000091AY101061AY201061GF101991011081008001001001MA1999999102421MD1110021+9999MW1101REMSYN072AAXX  17124 08023 31559 13504 10120 20088 30242 40314 51002 71000 81800;EQDQ01  00002PRCP99
0161080230999992000031715004+43470-003820FM-12+006599999V0200501N004112200019N0090001N1+01271+00931103061ADDAY101031AY201031GF101991011041008001001001MA1999999102341MD1710081+9999MW1101REMSYN072AAXX  17154 08023 41559 10508 10127 20093 30234 40306 57008 71000 81400;
0161080230999992000031721004+43470-003820FM-12+006599999V0200501N003110075019N0070001N1+01081+00721103101ADDAY111031AY201031GF107991071061008001001001MA1999999102381MD1310061+9999MW1051REMSYN072AAXX  17214 08023 41557 70506 10108 20072 30238 40310 53006 70510 87600;
0191080230999992000031800004+43470-003820FM-12+006599999V0200601N003110075019N0060001N1+01071+00711103101ADDAA199000091AY121061AY221061GF107991071061008001001001MA1999999102381MD1410001+9999MW1051REMSYN072AAXX  18004 08023 31556 70606 10107 20071 30238 40310 54000 70522 87600;EQDQ01  00002PRCP99
0161080230999992000031803004+43470-003820FM-12+006599999V0202801N001510075019N0070001N1+01031+00711103061ADDAY121031AY221031GF107991071061008001001001MA1999999102341MD1810041+9999MW1101REMSYN072AAXX  18034 08023 41557 72803 10103 20071 30234 40306 58004 71022 87600;
0226080230999992000031806004+43470-003820FM-12+006599999V0202501N003110120019N0060001N1+00981+00811103051ADDAA199000091AY121061AY221061GF108991081081008001999999KA1120N+00981MA1999999102321MD1610021+9999MW1101REMSYN094AAXX  18064 08023 31556 82506 10098 20081 30232 40305 56002 71022 888// 333 20098 50303 55095;EQDQ01  00002PRCP99
0161080230999992000031809004+43470-003820FM-12+006599999V0202401N002610075019N0050001N1+01071+00781103101ADDAY121031AY221031GF108991081061008001999999MA1999999102381MD1310061+9999MW1101REMSYN072AAXX  18094 08023 41550 82405 10107 20078 30238 40310 53006 71022 886//;
0191080230999992000031812004+43470-003820FM-12+006599999V0200801N002610120019N0050001N1+01251+00951103101ADDAA199000091AY121061AY221061GF107991071081008001001001MA1999999102381MD1410001+9999MW1101REMSYN072AAXX  18124 08023 31550 70805 10125 20095 30238 40310 54000 71022 87800;EQDQ01  00002PRCP99
0161080230999992000031815004+43470-003820FM-12+006599999V0200501N004110120019N0070001N1+01141+00881103031ADDAY121031AY221031GF108991081081008001999999MA1999999102311MD1810071+9999MW1101REMSYN072AAXX  18154 08023 41557 80508 10114 20088 30231 40303 58007 71022 888//;
0214080230999992000031818004+43470-003820FM-12+006599999V0200401N005710120019N0080001N1+01101+00741103041ADDAA199000091AY121061AY221061GF106991061081008001001001KA1999M+01321MA1999999102321MD1310011+9999MW1051REMSYN082AAXX  18184 08023 31558 60411 10110 20074 30232 40304 53001 70522 86800 333 10132;EQDQ01  00002PRCP99
0161080230999992000031821004+43470-003820FM-12+006599999V0200401N007710075019N0080001N1+01061+00561103101ADDAY121031AY221031GF107991071051008001001001MA1999999102381MD1310061+9999MW1051REMSYN072AAXX  18214 08023 41558 70415 10106 20056 30238 40310 53006 70522 87500;
0191080230999992000031900004+43470-003820FM-12+006599999V0200501N005710120019N0080001N1+01061+00581103111ADDAA199000091AY121061AY221061GF107991071081008001001001MA1999999102391MD1210011+9999MW1051REMSYN072AAXX  19004 08023 31558 70511 10106 20058 30239 40311 52001 70522 87800;EQDQ01  00002PRCP99
0161080230999992000031903004+43470-003820FM-12+006599999V0200501N004110120019N0080001N1+01021+00531103051ADDAY121031AY221031GF107991071081008001001001MA1999999102321MD1810071+9999MW1051REMSYN072AAXX  19034 08023 41558 70508 10102 20053 30232 40305 58007 70522 87800;
0226080230999992000031906004+43470-003820FM-12+006599999V0200701N006710120019N0080001N1+01021+00581102961ADDAA199000091AY121061AY221061GF107991071081008001001001KA1120N+01001MA1999999102241MD1710081+9999MW1051REMSYN094AAXX  19064 08023 31558 70713 10102 20058 30224 40296 57008 70522 87800 333 20100 50543 55000;EQDQ01  00002PRCP99
0161080230999992000031909004+43470-003820FM-12+006599999V0200601N007710120019N0100001N1+01041+00631102961ADDAY121031AY221031GF107991071081008001999999MA1999999102241MD1410001+9999MW1251REMSYN072AAXX  19094 08023 41560 70615 10104 20063 30224 40296 54000 72522 878//;
0178080230999992000031912004+43470-003820FM-12+006599999V0200501N007710075019N0150001N1+01061+00721102951ADDAA106000791AY181061AY221061GF106991061021008001001001MA1999999102231MD1410001+9999MW1021REMSYN078AAXX  19124 08023 11565 60515 10106 20072 30223 40295 54001 69901 70282 86200;
0133080230999992000031915004+43470-003820FM-12+006599999V0200601N008210120019N0120001N1+00931+00721102791ADDGF107991071081008001001001MA1999999102061MD1710171+9999REMSYN066AAXX  19154 08023 42562 70616 10093 20072 30206 40279 57017 87800;
0220080230999992000031918004+43470-003820FM-12+006599999V0200501N004110120019N0120001N1+00861+00451102681ADDAA112000791AY121061AY211061GF108991081081008001999999KA1120M+01141KA2999N+00801MA1999999101951MD1610111+9999MW1801REMSYN094AAXX  19184 08023 11562 80508 10086 20045 30195 40268 56011 69902 78021 888// 333 10114 20080;
0133080230999992000031921004+43470-003820FM-12+006599999V0200501N005110120019N0120001N1+00781+00601102611ADDGF108991081081008001999999MA1999999101881MD1710071+9999REMSYN066AAXX  19214 08023 42562 80510 10078 20060 30188 40261 57007 888//;
0178080230999992000032000004+43470-003820FM-12+006599999V0202301N003110120019N0150001N1+00661+00431102531ADDAA106000791AY181061AY221061GF107991071081008001999999MA1999999101801MD1610081+9999MW1021REMSYN078AAXX  20004 08023 11565 72306 10066 20043 30180 40253 56008 69901 70282 878//;
0133080230999992000032003004+43470-003820FM-12+006599999V0202101N003110120019N0150001N1+00641+00351102311ADDGF105991051081008001001001MA1999999101581MD1810221+9999REMSYN066AAXX  20034 08023 42565 52106 10064 20035 30158 40231 58022 85800;
0179080230999992000032006004+43470-003820FM-12+006599999V0201801N001012200019N0100001N1+00681+00271102191ADDAA199000021GF101991011001999999041001KA1120N+00601MA1999999101461MD1610121+9999REMSYN088AAXX  20064 08023 32960 11802 10068 20027 30146 40219 56012 81040 333 20060 50163 55027;
0143080230999992000032009004+43470-003820FM-12+006599999V0201201N003112200019N0100001N1+01021+00681102181ADDGA1001+999999999GF100991001001999999001001MA1999999101461MD1410001+9999REMSYN060AAXX  20094 08023 42960 01206 10102 20068 30146 40218 54000;
0163080230999992000032012004+43470-003820FM-12+006599999V0200701N006212200019N0100001N1+01181+00881102091ADDAA199000091GF102991001001999999001021MA1999999101381MD1810081+9999REMSYN066AAXX  20124 08023 32960 20712 10118 20088 30138 40209 58008 80002;EQDQ01  00002PRCP99
0133080230999992000032015004+43470-003820FM-12+006599999V0200701N006210150019N0100001N1+01081+00831101841ADDGF108991081001017501071999MA1999999101131MD1710251+9999REMSYN066AAXX  20154 08023 42760 80712 10108 20083 30113 40184 57025 8807/;
0186080230999992000032018004+43470-003820FM-12+006599999V0200701N005112200019N0100001N1+00961+00681101811ADDAA199000091GF106991041081008001001011KA1999M+01241MA1999999101091MD1610041+9999REMSYN076AAXX  20184 08023 32560 60710 10096 20068 30109 40181 56004 84801 333 10124;EQDQ01  00002PRCP99
0133080230999992000032021004+43470-003820FM-12+006599999V0201401N001012200019N0100001N1+00861+00571101811ADDGF102991011051008001001011MA1999999101091MD1410001+9999REMSYN066AAXX  20214 08023 42560 21402 10086 20057 30109 40181 54000 81501;
0163080230999992000032100004+43470-003820FM-12+006599999V0202001N003110150019N0100001N1+00741+00581101621ADDAA199000091GF105991051001017501031001MA1999999100901MD1710191+9999REMSYN066AAXX  21004 08023 32760 52006 10074 20058 30090 40162 57019 85030;EQDQ01  00002PRCP99
0133080230999992000032103004+43470-003820FM-12+006599999V0201601N003112200019N0100001N1+00641+00551101491ADDGF102991001001999999001011MA1999999100771MD1710131+9999REMSYN066AAXX  21034 08023 42960 21606 10064 20055 30077 40149 57013 80001;
0226080230999992000032106004+43470-003820FM-12+006599999V0201601N004619999999N0080001N1+00661+00621101381ADDAA199000091AY121061AY201061GF107991001001999999001061KA1120N+00641MA1999999100661MD1710111+9999MW1101REMSYN094AAXX  21064 08023 31958 71609 10066 20062 30066 40138 57011 71020 80006 333 20064 50273 55063;EQDQ01  00002PRCP99
0161080230999992000032109004+43470-003820FM-12+006599999V0201401N002110360019N0100001N1+01051+00741101381ADDAY121031AY221031GF107991021081008001041001MA1999999100671MD1310011+9999MW1601REMSYN072AAXX  21094 08023 41560 71404 10105 20074 30067 40138 53001 76022 82840;
0178080230999992000032112004+43470-003820FM-12+006599999V0202001N007712200019N0300001N1+01591+00871101351ADDAA106000791AY161061AY221061GF105991041001022501041011MA1999999100651MD1810021+9999MW1011REMSYN078AAXX  21124 08023 11880 52015 10159 20087 30065 40135 58002 69901 70162 84041;
0161080230999992000032115004+43470-003820FM-12+006599999V0200301N002610900019N0050001N1+01311+01161101271ADDAY121031AY221031GF105991021021008001041081MA1999999100571MD1810081+9999MW1101REMSYN072AAXX  21154 08023 41550 50305 10131 20116 30057 40127 58008 71022 82248;
0201080230999992000032118004+43470-003820FM-12+006599999V0201501N006710360019N0150001N1+01521+00811101281ADDAA112000791AY161061AY221061GF107991021051008001071081KA1999M+01701MA1999999100581MD1310011+9999MW1021REMSYN088AAXX  21184 08023 11565 71513 10152 20081 30058 40128 53001 69902 70262 82578 333 10170;
0161080230999992000032121004+43470-003820FM-12+006599999V0201801N007210042019N0090001N1+01261+01031101381ADDAY121031AY221031GF108991051071004501071999MA1999999100671MD1310091+9999MW1611REMSYN072AAXX  21214 08023 41459 81814 10126 20103 30067 40138 53009 76122 8577/;
0178080230999992000032200004+43470-003820FM-12+006599999V0201701N003612200019N0200001N1+01211+00831101301ADDAA106000891AY161061AY211061GF103991031001022501041001MA1999999100591MD1810081+9999MW1011REMSYN078AAXX  22004 08023 12870 31707 10121 20083 30059 40130 58008 69971 70161 83040;
0133080230999992000032203004+43470-003820FM-12+006599999V0209999C000010360019N0180001N1+01211+00951101211ADDGF107991021051017501071999MA1999999100501MD1710091+9999REMSYN066AAXX  22034 08023 42768 70000 10121 20095 30050 40121 57009 8257/;
0185080230999992000032206004+43470-003820FM-12+006599999V0202001N008210360019N0200001N1+01371+00791101211ADDAA112000891GF107991021051017501071999KA1120N+01101MA1999999100501MD1410001+9999REMSYN094AAXX  22064 08023 12770 72016 10137 20079 30050 40121 54000 69972 8257/ 333 20110 50243 55032;
0133080230999992000032209004+43470-003820FM-12+006599999V0202001N008210360019N0120001N1+01461+00851101241ADDGF107991021051017501071001MA1999999100541MD1110041+9999REMSYN066AAXX  22094 08023 42762 72016 10146 20085 30054 40124 51004 82570;
0178080230999992000032212004+43470-003820FM-12+006599999V0201501N004110360019N0200001N1+01481+01021101291ADDAA106000791AY121061AY221061GF108991031051017501071001MA1999999100591MD1310051+9999MW1601REMSYN078AAXX  22124 08023 11770 81508 10148 20102 30059 40129 53005 69901 76022 83570;
0133080230999992000032215004+43470-003820FM-12+006599999V0202701N003610360019N0100001N1+01311+01291101241ADDGF108991011051017501041071MA1999999100541MD1610051+9999REMSYN066AAXX  22154 08023 42760 82707 10131 20129 30054 40124 56005 81547;
0201080230999992000032218004+43470-003820FM-12+006599999V0202601N006210360019N0040001N1+01211+01191101201ADDAA112000791AY121061AY221061GF108991011051017501041001KA1999M+01701MA1999999100491MD1610051+9999MW1101REMSYN088AAXX  22184 08023 11740 82612 10121 20119 30049 40120 56005 69902 71022 81540 333 10170;
0161080230999992000032221004+43470-003820FM-12+006599999V0202501N001010360019N0080001N1+01191+01131101181ADDAY121031AY221031GF108991021051017501071001MA1999999100471MD1610021+9999MW1101REMSYN072AAXX  22214 08023 41758 82502 10119 20113 30047 40118 56002 71022 82570;
0178080230999992000032300004+43470-003820FM-12+006599999V0201601N002110360019N0050001N1+01181+01161101131ADDAA106000191AY181061AY221061GF108991021051017501071001MA1999999100421MD1710051+9999MW1101REMSYN078AAXX  23004 08023 11750 81604 10118 20116 30042 40113 57005 69911 71082 82570;
0161080230999992000032303004+43470-003820FM-12+006599999V0202801N003110360019N0060001N1+01131+01091101001ADDAY121031AY221031GF108991021051017501071001MA1999999100291MD1710131+9999MW1101REMSYN072AAXX  23034 08023 41756 82806 10113 20109 30029 40100 57013 71022 82570;
0226080230999992000032306004+43470-003820FM-12+006599999V0202401N005110360019N0030001N1+01101+01101100981ADDAA199000091AY121061AY221061GF108991031071008001071001KA1120N+01021MA1999999100271MD1810021+9999MW1101REMSYN094AAXX  23064 08023 31530 82410 10110 20110 30027 40098 58002 71022 83770 333 20102 50123 55000;EQDQ01  00002PRCP99
0161080230999992000032309004+43470-003820FM-12+006599999V0202401N003610360019N0030001N1+01191+01151101041ADDAY161031AY221031GF107991031071008001071001MA1999999100331MD1210061+9999MW1601REMSYN072AAXX  23094 08023 41530 72407 10119 20115 30033 40104 52006 76062 83770;
0178080230999992000032312004+43470-003820FM-12+006599999V0202801N006710360019N0040001N1+01291+01221101071ADDAA106000891AY161061AY221061GF107991041071008001071001MA1999999100371MD1110041+9999MW1211REMSYN078AAXX  23124 08023 11540 72813 10129 20122 30037 40107 51004 69981 72162 84770;
0161080230999992000032315004+43470-003820FM-12+006599999V0202701N006710042019N0030001N1+01061+01061101121ADDAY161031AY221031GF108991061071004501021999MA1999999100411MD1210051+9999MW1611REMSYN072AAXX  23154 08023 41430 82713 10106 20106 30041 40112 52005 76162 8672/;
0201080230999992000032318004+43470-003820FM-12+006599999V0202801N005710042019N0040001N1+01001+00981101281ADDAA112008991AY161061AY221061GF108991051071004501021001KA1999M+01311MA1999999100571MD1210161+9999MW1601REMSYN088AAXX  23184 08023 11440 82811 10100 20098 30057 40128 52016 60092 76062 85720 333 10131;
0161080230999992000032321004+43470-003820FM-12+006599999V0202201N005110210019N0080001N1+01041+00941101401ADDAY161031AY221031GF108991081001022501071999MA1999999100691MD1210121+9999MW1101REMSYN072AAXX  23214 08023 41858 82210 10104 20094 30069 40140 52012 71062 8807/;
0178080230999992000032400004+43470-003820FM-12+006599999V0202201N005110360019N0100001N1+01071+00781101451ADDAA106000591AY161061AY221061GF108991031051008001071999MA1999999100741MD1110051+9999MW1021REMSYN078AAXX  24004 08023 11560 82210 10107 20078 30074 40145 51005 69951 70262 8357/;
0133080230999992000032403004+43470-003820FM-12+006599999V0202001N003610120019N0150001N1+01051+00781101461ADDGF106991061081008001001001MA1999999100751MD1110011+9999REMSYN066AAXX  24034 08023 42565 62007 10105 20078 30075 40146 51001 86800;
0185080230999992000032406004+43470-003820FM-12+006599999V0201801N004110120019N0150001N1+01001+00681101451ADDAA112000591GF106991061051012501001001KA1120N+00971MA1999999100741MD1610011+9999REMSYN094AAXX  24064 08023 12665 61808 10100 20068 30074 40145 56001 69952 86500 333 20097 50093 55001;
0133080230999992000032409004+43470-003820FM-12+006599999V0202201N003612200019N0150001N1+01341+00821101571ADDGF102991021001017501031001MA1999999100861MD1210121+9999REMSYN066AAXX  24094 08023 42765 22207 10134 20082 30086 40157 52012 82030;
0163080230999992000032412004+43470-003820FM-12+006599999V0200901N002112200019N0200001N1+01641+00861101591ADDAA199000091GF102991011011008001031001MA1999999100891MD1110031+9999REMSYN066AAXX  24124 08023 32570 20904 10164 20086 30089 40159 51003 81130;EQDQ01  00002PRCP99
0133080230999992000032415004+43470-003820FM-12+006599999V0200901N005110900019N0250001N1+01501+01051101481ADDGF105991011021017501061061MA1999999100781MD1610111+9999REMSYN066AAXX  24154 08023 42775 50910 10150 20105 30078 40148 56011 81266;
0186080230999992000032418004+43470-003820FM-12+006599999V0201101N005110900019N0200001N1+01341+01031101491ADDAA199000091GF105991031001017501071051KA1999M+01661MA1999999100781MD1510001+9999REMSYN076AAXX  24184 08023 32770 51110 10134 20103 30078 40149 55000 83075 333 10166;EQDQ01  00002PRCP99
0143080230999992000032421004+43470-003820FM-12+006599999V0203501N003612200019N0100001N1+01201+01121101621ADDGA1001+999999999GF100991001001999999001001MA1999999100911MD1210131+9999REMSYN060AAXX  24214 08023 42960 03507 10120 20112 30091 40162 52013;
0163080230999992000032500004+43470-003820FM-12+006599999V0203401N004610075019N0100001N1+01161+01001101721ADDAA199000091GF106991061051008001001001MA1999999101011MD1210101+9999REMSYN066AAXX  25004 08023 32560 63409 10116 20100 30101 40172 52010 86500;EQDQ01  00002PRCP99
0161080230999992000032503004+43470-003820FM-12+006599999V0203001N006710075019N0060001N1+00961+00881101771ADDAY151031AY221031GF108991081071008001999999MA1999999101051MD1110041+9999MW1511REMSYN072AAXX  25034 08023 41556 83013 10096 20088 30105 40177 51004 75152 887//;
0213080230999992000032506004+43470-003820FM-12+006599999V0203001N006710120019N0050001N1+00961+00881101831ADDAA112002091AY151061AY221061GF108991081081008001999999KA1120N+00941MA1999999101111MD1310061+9999MW1581REMSYN100AAXX  25064 08023 11550 83013 10096 20088 30111 40183 53006 60022 75852 888// 333 20094 50203 55093;
0161080230999992000032509004+43470-003820FM-12+006599999V0202101N003110120019N0120001N1+00981+00881101981ADDAY161031AY251031GF108991081081008001999999MA1999999101261MD1210151+9999MW1601REMSYN072AAXX  25094 08023 41562 82106 10098 20088 30126 40198 52015 76065 888//;
0178080230999992000032512004+43470-003820FM-12+006599999V0202801N006710120019N0150001N1+01191+00571102011ADDAA106002091AY161061AY251061GF107991061081008001071999MA1999999101301MD1210041+9999MW1021REMSYN078AAXX  25124 08023 11565 72813 10119 20057 30130 40201 52004 60021 70265 8687/;
0141080230999992000032514004+43470-003820FM-12+006599999V0202801N007210360019N0200001N1+01101+00791102171ADDGF106991041081008001031011KA1999M+01321MD1310061+9999REMSYN076AAXX  25144 08023 1/570 62814 10110 20079 301/9 40217 53006 84831 333 10132;
0133080230999992000032515004+43470-003820FM-12+006599999V0203001N006710360019N0200001N1+01241+00921102041ADDGF107991021081008001071021MA1999999101331MD1110031+9999REMSYN066AAXX  25154 08023 42570 73013 10124 20092 30133 40204 51003 82872;
0173080230999992000032518004+43470-003820FM-12+006599999V0202801N007210360019N0200001N1+01101+00791102111ADDAA112002091GF106991041081008001031011KA1999M+01321MA1999999101391MD1310061+9999REMSYN082AAXX  25184 08023 12570 62814 10110 20079 30139 40211 53006 60022 84831 333 10132;
0161080230999992000032521004+43470-003820FM-12+006599999V0202801N009310120019N0080001N1+00991+00851102251ADDAY161031AY221031GF108991081081008001999999MA1999999101531MD1210141+9999MW1621REMSYN072AAXX  25214 08023 41558 82818 10099 20085 30153 40225 52014 76262 888//;
0178080230999992000032600004+43470-003820FM-12+006599999V0202501N006712200019N0150001N1+00871+00741102291ADDAA106002091AY161061AY221061GF104991041081008001001001MA1999999101571MD1110041+9999MW1021REMSYN078AAXX  26004 08023 11565 42513 10087 20074 30157 40229 51004 60021 70262 84800;
0161080230999992000032603004+43470-003820FM-12+006599999V0202801N009810120019N0050001N1+00931+00761102211ADDAY161031AY221031GF108991081081008001999999MA1999999101491MD1810081+9999MW1601REMSYN072AAXX  26034 08023 41550 82819 10093 20076 30149 40221 58008 76062 888//;
0213080230999992000032606004+43470-003820FM-12+006599999V0202801N012310120019N0150001N1+00981+00681102211ADDAA112006191AY161061AY221061GF108991081081008001999999KA1120N+00851MA1999999101491MD1410001+9999MW1021REMSYN100AAXX  26064 08023 11565 82824 10098 20068 30149 40221 54000 60062 70262 888// 333 20085 50303 55036;
0161080230999992000032609004+43470-003820FM-12+006599999V0202701N012910120019N0120001N1+01011+00781102261ADDAY161031AY221031GF108991061081008001071999MA1999999101541MD1310051+9999MW1251REMSYN072AAXX  26094 08023 41562 82725 10101 20078 30154 40226 53005 72562 8687/;
0178080230999992000032612004+43470-003820FM-12+006599999V0202801N012310360019N0120001N1+01191+00871102201ADDAA106000191AY181061AY221061GF107991031081004501031081MA1999999101491MD1810051+9999MW1021REMSYN078AAXX  26124 08023 11462 72824 10119 20087 30149 40220 58005 69911 70282 83838;
0161080230999992000032615004+43470-003820FM-12+006599999V0202801N011310120019N0120001N1+01181+00981102161ADDAY181031AY221031GF108991061081008001071999MA1999999101451MD1710041+9999MW1801REMSYN072AAXX  26154 08023 41562 82822 10118 20098 30145 40216 57004 78082 8687/;
0201080230999992000032618004+43470-003820FM-12+006599999V0202901N011810090019N0120001N1+01121+01021102131ADDAA112000591AY181061AY221061GF108991081081004501999999KA1999M+01261MA1999999101411MD1510041+9999MW1801REMSYN088AAXX  26184 08023 11462 82923 10112 20102 30141 40213 55004 69942 78082 888// 333 10126;
0161080230999992000032621004+43470-003820FM-12+006599999V0202901N011810090019N0090001N1+01161+00901102121ADDAY181031AY221031GF108991081081004501999999MA1999999101411MD1010001+9999MW1801REMSYN072AAXX  26214 08023 41459 82923 10116 20090 30141 40212 50000 78082 888//;
0178080230999992000032700004+43470-003820FM-12+006599999V0202701N012910090019N0100001N1+01061+00961102011ADDAA106002091AY181061AY221061GF108991081081004501999999MA1999999101291MD1810121+9999MW1251REMSYN078AAXX  27004 08023 11460 82725 10106 20096 30129 40201 58012 60021 72582 888//;
0161080230999992000032703004+43470-003820FM-12+006599999V0202701N013910090019N0100001N1+01021+00881101811ADDAY181031AY221031GF108991081081004501999999MA1999999101091MD1810201+9999MW1801REMSYN072AAXX  27034 08023 41460 82727 10102 20088 30109 40181 58020 78082 888//;
0213080230999992000032706004+43470-003820FM-12+006599999V0202801N015410090019N0040001N1+00981+00901101661ADDAA112006191AY181061AY221061GF108991081081004501999999KA1120N+00951MA1999999100941MD1610151+9999MW1801REMSYN100AAXX  27064 08023 11440 82830 10098 20090 30094 40166 56015 60062 78082 888// 333 20095 50183 55015;
0161080230999992000032709004+43470-003820FM-12+006599999V0202701N014910042019N0030001N1+01001+00961101601ADDAY161031AY221031GF108991061071004501021999MA1999999100891MD1710051+9999MW1611REMSYN072AAXX  27094 08023 41430 82729 10100 20096 30089 40160 57005 76162 8672/;
0178080230999992000032712004+43470-003820FM-12+006599999V0203601N005110042019N0030001N1+00881+00841101551ADDAA106026991AY161061AY221061GF108991061071004501021999MA1999999100831MD1710061+9999MW1631REMSYN078AAXX  27124 08023 11430 83610 10088 20084 30083 40155 57006 60271 76362 8672/;
0161080230999992000032715004+43470-003820FM-12+006599999V0202801N005110042019N0040001N1+00811+00771101531ADDAY161031AY261031GF108991051071004501021001MA1999999100811MD1710021+9999MW1611REMSYN072AAXX  27154 08023 41440 82810 10081 20077 30081 40153 57002 76166 85720;
0201080230999992000032718004+43470-003820FM-12+006599999V0202701N006210120019N0200001N1+00831+00721101531ADDAA112039191AY161061AY221061GF107991051081008001071001KA1999M+01041MA1999999100811MD1510001+9999MW1251REMSYN088AAXX  27184 08023 11570 72712 10083 20072 30081 40153 55000 60392 72562 85870 333 10104;
0161080230999992000032721004+43470-003820FM-12+006599999V0203601N006212200019N0200001N1+00941+00591101571ADDAY181031AY221031GF104991041021008001001001MA1999999100851MD1210041+9999MW1291REMSYN072AAXX  27214 08023 41570 43612 10094 20059 30085 40157 52004 72982 84200;
0178080230999992000032800004+43470-003820FM-12+006599999V0203301N008210360019N0200001N1+00981+00491101491ADDAA106000591AY191061AY281061GF105991031021008001061001MA1999999100771MD1810081+9999MW1131REMSYN078AAXX  28004 08023 11570 53316 10098 20049 30077 40149 58008 69961 71398 83260;
0161080230999992000032803004+43470-003820FM-12+006599999V0200401N004610120019N0250001N1+00851+00561101411ADDAY181031AY221031GF105991051081008001001001MA1999999100691MD1710081+9999MW1131REMSYN072AAXX  28034 08023 41575 50409 10085 20056 30069 40141 57008 71382 85800;
0243080230999992000032806004+43470-003820FM-12+006599999V0203501N006210075019N0250001N1+00801+00481101391ADDAA112002091AY191061AY281061GA1011+008009099GF107991071091008001001001GJ100009KA1120N+00561MA1999999100671MD1610021+9999MW1131REMSYN106AAXX  28064 08023 11575 73512 10080 20048 30067 40139 56002 60022 71398 87900 333 20056 5///3 55000 81995;
0161080230999992000032809004+43470-003820FM-12+006599999V0201301N005110075019N0200001N1+00701+00591101421ADDAY181031AY221031GF106991061021008001071999MA1999999100701MD1310031+9999MW1021REMSYN072AAXX  28094 08023 41570 61310 10070 20059 30070 40142 53003 70282 8627/;
0178080230999992000032812004+43470-003820FM-12+006599999V0202001N003610120019N0150001N1+00701+00591101451ADDAA106006191AY191061AY281061GF107991061081008001071999MA1999999100731MD1110031+9999MW1271REMSYN078AAXX  28124 08023 11565 72007 10070 20059 30073 40145 51003 60061 72798 8687/;
0161080230999992000032815004+43470-003820FM-12+006599999V0202501N005110120019N0150001N1+00781+00651101411ADDAY181031AY221031GF107991061081008001071021MA1999999100691MD1810041+9999MW1021REMSYN072AAXX  28154 08023 41565 72510 10078 20065 30069 40141 58004 70282 86872;
0201080230999992000032818004+43470-003820FM-12+006599999V0203001N005110120019N0180001N1+00741+00441101431ADDAA112008991AY181061AY221061GF106991051081008001071021KA1999M+00881MA1999999100711MD1310021+9999MW1161REMSYN088AAXX  28184 08023 11568 63010 10074 20044 30071 40143 53002 60092 71682 85872 333 10088;
0215080230999992000032821004+43470-003820FM-12+006599999V0202801N00931007501CN0120001N1+00781+00651101461ADDAY181031AY221031GA1021+007509089GA2021+008409069GF107991061091008001071001MA1999999100741MD1110031+9999MW1951REMSYN094AAXX  28214 08023 41562 72818 10078 20065 30074 40146 51003 79582 86970 333 82825 82628 84930;
0178080230999992000032900004+43470-003820FM-12+006599999V0202401N006210042019N0100001N1+00621+00571101471ADDAA106005191AY191061AY281061GF107991071071004501999999MA1999999100751MD1010011+9999MW1611REMSYN078AAXX  29004 08023 11460 72412 10062 20057 30075 40147 50001 60051 76198 877//;
0193080230999992000032903004+43470-003820FM-12+006599999V0201301N00411007501CN0150001N1+00511+00421101441ADDAY191031AY281031GA1041+009009069GF108991061091008001071999MA1999999100711MD1710041+9999MW1951REMSYN088AAXX  29034 08023 41565 81308 10051 20042 30071 40144 57004 79598 8697/ 333 84630 84932;
0249080230999992000032906004+43470-003820FM-12+006599999V0202201N00621007501CN0080001N1+00361+00341101461ADDAA112017091AY191061AY281061GA1021+009609099GF107991061091008001071999GJ100309KA1120N+00321MA1999999100731MD1310021+9999MW1951REMSYN112AAXX  29064 08023 11558 72212 10036 20034 30073 40146 53002 60172 79598 8697/ 333 20032 50153 55005 82932 85628;
0133080230999992000032909004+43470-003820FM-12+006599999V0202401N009310090019N0140001N1+00621+00531101491ADDGF106991051081004501061001MA1999999100771MD1110041+9999REMSYN066AAXX  29094 08023 42464 62418 10062 20053 30077 40149 51004 85860;
0150080230999992000032912004+43470-003820FM-12+006599999V0202801N008210090019N0140001N1+00901+00641101471ADDAA106000791GF108991061081004501071999MA1999999100751MD1610021+9999REMSYN072AAXX  29124 08023 12464 82816 10090 20064 30075 40147 56002 69901 8687/;
0133080230999992000032915004+43470-003820FM-12+006599999V0203301N006710120019N0150001N1+00881+00661101431ADDGF106991061081008001041001MA1999999100711MD1810041+9999REMSYN066AAXX  29154 08023 42565 63313 10088 20066 30071 40143 58004 86840;
0201080230999992000032918004+43470-003820FM-12+006599999V0203001N003612200019N0140001N1+00871+00681101491ADDAA112001091AY181061AY221061GF103991031081008001001001KA1999M+01021MA1999999100771MD1310061+9999MW1021REMSYN088AAXX  29184 08023 11564 33007 10087 20068 30077 40149 53006 60012 70282 83800 333 10102;
0133080230999992000032921004+43470-003820FM-12+006599999V0202201N004112200019N0100001N1+00781+00601101511ADDGF103991031081008001001001MA1999999100791MD1110021+9999REMSYN066AAXX  29214 08023 42560 32208 10078 20060 30079 40151 51002 83800;
0163080230999992000033000004+43470-003820FM-12+006599999V0202101N004112200019N0100001N1+00701+00521101491ADDAA199000091GF104991041001017501031001MA1999999100771MD1810021+9999REMSYN066AAXX  30004 08023 32760 42108 10070 20052 30077 40149 58002 84030;EQDQ01  00002PRCP99
0143080230999992000033003004+43470-003820FM-12+006599999V0201601N003612200019N0100001N1+00621+00431101471ADDGA1001+999999999GF100991001001999999001001MA1999999100751MD1710021+9999REMSYN060AAXX  30034 08023 42960 01607 10062 20043 30075 40147 57002;
0208080230999992000033006004+43470-003820FM-12+006599999V0201501N002112200019N0140001N1+00621+00331101421ADDAA199000091GA1001+999999999GF100991001001999999001001KA1120N+00531MA1999999100701MD1610051+9999REMSYN082AAXX  30064 08023 32964 01504 10062 20033 30070 40142 56005 333 20053 50223 55042;EQDQ01  00002PRCP99
0133080230999992000033009004+43470-003820FM-12+006599999V0209999C000012200019N0100001N1+00891+00651101461ADDGF101991001001999999001011MA1999999100741MD1210041+9999REMSYN066AAXX  30094 08023 42960 10000 10089 20065 30074 40146 52004 80001;
0133080230999992000033015004+43470-003820FM-12+006599999V0200301N003112200019N0200001N1+01141+00861101361ADDGF102991011021012501001011MA1999999100651MD1710021+9999REMSYN066AAXX  30154 08023 42670 20306 10114 20086 30065 40136 57002 81201;
0186080230999992000033018004+43470-003820FM-12+006599999V0203601N002110900019N0200001N1+01071+00641101291ADDAA199000091GF106991031001022501081081KA1999M+01181MA1999999100581MD1710071+9999REMSYN076AAXX  30184 08023 32870 63604 10107 20064 30058 40129 57007 83088 333 10118;EQDQ01  00002PRCP99
0133080230999992000033021004+43470-003820FM-12+006599999V0202301N003610120019N0100001N1+00981+00681101381ADDGF105991051051012501001001MA1999999100671MD1310091+9999REMSYN066AAXX  30214 08023 42660 52307 10098 20068 30067 40138 53009 85500;
0163080230999992000033100004+43470-003820FM-12+006599999V0202401N002110120019N0100001N1+00961+00711101321ADDAA199000091GF108991081051012501999999MA1999999100611MD1810061+9999REMSYN066AAXX  31004 08023 32660 82404 10096 20071 30061 40132 58006 885//;EQDQ01  00002PRCP99
0161080230999992000033103004+43470-003820FM-12+006599999V0202101N003610120019N0100001N1+00861+00601101261ADDAY121031AY221031GF108991081081008001999999MA1999999100541MD1710071+9999MW1251REMSYN072AAXX  31034 08023 41560 82107 10086 20060 30054 40126 57007 72522 888//;
0213080230999992000033106004+43470-003820FM-12+006599999V0202301N005710120019N0100001N1+00821+00511101221ADDAA112000591AY181061AY221061GF106991061081008001001001KA1120N+00781MA1999999100501MD1610041+9999MW1021REMSYN100AAXX  31064 08023 11560 62311 10082 20051 30050 40122 56004 69942 70282 86800 333 20078 50293 55093;
0133080230999992000033109004+43470-003820FM-12+006599999V0202801N008710120019N0200001N1+01021+00771101261ADDGF106991051081008001001081MA1999999100551MD1310051+9999REMSYN066AAXX  31094 08023 42570 62817 10102 20077 30055 40126 53005 85808;
0144080230999992000033112004+43470-003820FM-12+006599999V0202901N008710360019N0300001N1+01111+00871101291ADDAA199000021GF106991031021008001031011MA1999999100581MD1210031+9999REMSYN066AAXX  31124 08023 32580 62917 10111 20087 30058 40129 52003 83231;
0133080230999992000033115004+43470-003820FM-12+006599999V0203101N010810360019N0200001N1+01171+00891101321ADDGF105991031081008001041081MA1999999100611MD1010031+9999REMSYN066AAXX  31154 08023 42570 53121 10117 20089 30061 40132 50003 83848;
0186080230999992000033118004+43470-003820FM-12+006599999V0203001N008210360019N0100001N1+01091+00801101301ADDAA199000091GF106991031081008001041001KA1999M+01201MA1999999100591MD1810021+9999REMSYN076AAXX  31184 08023 32560 63016 10109 20080 30059 40130 58002 83840 333 10120;EQDQ01  00002PRCP99
0133080230999992000033121004+43470-003820FM-12+006599999V0202801N006212200019N0100001N1+01001+00841101361ADDGF103991031011008001001001MA1999999100651MD1310061+9999REMSYN066AAXX  31214 08023 42560 32812 10100 20084 30065 40136 53006 83100;
0163080230999992000040100004+43470-003820FM-12+006599999V0202201N003610360019N0100001N1+00971+00801101321ADDAA199000091GF106991031081008001071001MA1999999100611MD1810041+9999REMSYN066AAXX  01004 08023 32560 62207 10097 20080 30061 40132 58004 83870;EQDQ01  00002PRCP99
0161080230999992000040103004+43470-003820FM-12+006599999V0202101N004112200019N0100001N1+00901+00731101201ADDAY121031AY221031GF104991021081008001041001MA1999999100491MD1710121+9999MW1251REMSYN072AAXX  01034 08023 41560 42108 10090 20073 30049 40120 57012 72522 82840;
0213080230999992000040106004+43470-003820FM-12+006599999V0202101N004110360019N0100001N1+00861+00551101011ADDAA112000791AY181061AY221061GF106991021081008001051001KA1120N+00781MA1999999100301MD1710191+9999MW1021REMSYN100AAXX  01064 08023 11560 62108 10086 20055 30030 40101 57019 69902 70282 82850 333 20078 50283 55039;
0133080230999992000040109004+43470-003820FM-12+006599999V0201501N003112200019N0170001N1+01221+00791100911ADDGF102991011081008001031051MA1999999100211MD1710091+9999REMSYN066AAXX  01094 08023 42567 21506 10122 20079 30021 40091 57009 81835;
0144080230999992000040112004+43470-003820FM-12+006599999V0200701N006212200019N0150001N1+01381+01081100691ADDAA199000021GF104991011011008001001051MA1999999099991MD1710221+9999REMSYN066AAXX  01124 08023 32565 40712 10138 20108 39999 40069 57022 81105;
0133080230999992000040115004+43470-003820FM-12+006599999V0200801N009319999999N0200001N1+01281+01011100351ADDGF107991031001999999071081MA1999999099651MD1710341+9999REMSYN066AAXX  01154 08023 42970 70818 10128 20101 39965 40035 57034 83078;
0186080230999992000040118004+43470-003820FM-12+006599999V0201001N005119999999N0120001N1+01201+01071100031ADDAA199000091GF107991031001999999071081KA1999M+01441MA1999999099331MD1710321+9999REMSYN076AAXX  01184 08023 32962 71010 10120 20107 39933 40003 57032 83078 333 10144;EQDQ01  00002PRCP99
0133080230999992000040121004+43470-003820FM-12+006599999V0201401N005712200019N0150001N1+01201+00801099761ADDGF102991021001999999061001MA1999999099061MD1710271+9999REMSYN066AAXX  01214 08023 42965 21411 10120 20080 39906 49976 57027 82060;
0163080230999992000040200004+43470-003820FM-12+006599999V0201301N005119999999N0150001N1+01391+00751099421ADDAA199000091GF107991071001999999071001MA1999999098731MD1710331+9999REMSYN066AAXX  02004 08023 32965 71310 10139 20075 39873 49942 57033 87070;EQDQ01  00002PRCP99
0133080230999992000040203004+43470-003820FM-12+006599999V0201701N005719999999N0200001N1+01651+00721099101ADDGF106991061001999999041001MA1999999098421MD1710311+9999REMSYN066AAXX  02034 08023 42970 61711 10165 20072 39842 49910 57031 86040;
0198080230999992000040206004+43470-003820FM-12+006599999V0201801N008210360019N0500001N1+01541+00721098851ADDAA199000091GF108991031081012501071081KA1120N+01051MA1999999098171MD1710251+9999REMSYN088AAXX  02064 08023 32684 81816 10154 20072 39817 49885 57025 83878 333 20105 50313 55083;EQDQ01  00002PRCP99
0133080230999992000040209004+43470-003820FM-12+006599999V0201901N009310360019N0750001N1+01611+00901098731ADDGF107991041081012501071081MA1999999098051MD1610121+9999REMSYN066AAXX  02094 08023 42689 71918 10161 20090 39805 49873 56012 84878;
0163080230999992000040212004+43470-003820FM-12+006599999V0201901N011810360019N0750001N1+01861+00991098561ADDAA199000091GF107991041051012501041071MA1999999097891MD1810161+9999REMSYN066AAXX  02124 08023 32689 71923 10186 20099 39789 49856 58016 84547;EQDQ01  00002PRCP99
0133080230999992000040215004+43470-003820FM-12+006599999V0202001N009310360019N0400001N1+01941+00961098251ADDGF106991011051017501041021MA1999999097581MD1710311+9999REMSYN066AAXX  02154 08023 42782 62018 10194 20096 39758 49825 57031 81542;
0186080230999992000040218004+43470-003820FM-12+006599999V0202001N006710360019N0300001N1+01921+00981098211ADDAA199000091GF107991011051017501041021KA1999M+02031MA1999999097541MD1610041+9999REMSYN076AAXX  02184 08023 32780 72013 10192 20098 39754 49821 56004 81542 333 10203;EQDQ01  00002PRCP99
0133080230999992000040221004+43470-003820FM-12+006599999V0201601N002610210019N0200001N1+01541+00951098181ADDGF105991051001022501041001MA1999999097501MD1810041+9999REMSYN066AAXX  02214 08023 42870 51605 10154 20095 39750 49818 58004 85040;
0163080230999992000040300004+43470-003820FM-12+006599999V0202001N011810210019N0200001N1+01411+00731098151ADDAA199000091GF106991061001022501041001MA1999999097471MD1810031+9999REMSYN066AAXX  03004 08023 32870 62023 10141 20073 39747 49815 58003 86040;EQDQ01  00002PRCP99
0133080230999992000040303004+43470-003820FM-12+006599999V0202101N009310360019N0200001N1+01271+00631098171ADDGF107991011051012501041011MA1999999097491MD1310021+9999REMSYN066AAXX  03034 08023 42670 72118 10127 20063 39749 49817 53002 81541;
0213080230999992000040306004+43470-003820FM-12+006599999V0202201N007210075019N0100001N1+01041+00571098301ADDAA112000591AY191061AY281061GF107991051071008001071999KA1120N+00971MA1999999097611MD1310121+9999MW1601REMSYN100AAXX  03064 08023 11560 72214 10104 20057 39761 49830 53012 69942 76098 8577/ 333 20097 50503 55021;
0161080230999992000040309004+43470-003820FM-12+006599999V0202201N012910360019N0750001N1+01301+00521098251ADDAY181031AY221031GF108991031081008001071999MA1999999097571MD1710041+9999MW1021REMSYN072AAXX  03094 08023 41589 82225 10130 20052 39757 49825 57004 70282 8387/;
0150080230999992000040312004+43470-003820FM-12+006599999V0202201N015910360019N0750001N1+01421+00601098211ADDAA106000191GF107991021081008001071001MA1999999097531MD1710041+9999REMSYN072AAXX  03124 08023 12589 72231 10142 20060 39753 49821 57004 69921 82870;
0161080230999992000040315004+43470-003820FM-12+006599999V0202001N005110075019N0120001N1+01081+00961098281ADDAY121031AY221031GF108991081071008001999999MA1999999097591MD1310061+9999MW1611REMSYN072AAXX  03154 08023 41562 82010 10108 20096 39759 49828 53006 76122 887//;
0201080230999992000040318004+43470-003820FM-12+006599999V0202401N009310042019N0030001N1+01021+00861098421ADDAA112006191AY161061AY221061GF108991081071004501999999KA1999M+01461MA1999999097731MD1210141+9999MW1611REMSYN088AAXX  03184 08023 11430 82418 10102 20086 39773 49842 52014 60062 76162 887// 333 10146;
0161080230999992000040321004+43470-003820FM-12+006599999V0202601N017010042019N0030001N1+01041+01001098661ADDAY161031AY261031GF108991081071004501999999MA1999999097971MD1210241+9999MW1621REMSYN072AAXX  03214 08023 41430 82633 10104 20100 39797 49866 52024 76266 887//;
0178080230999992000040400004+43470-003820FM-12+006599999V0202701N017510042019N0060001N1+01021+00981098881ADDAA106009991AY161061AY221061GF108991081071004501999999MA1999999098191MD1210221+9999MW1601REMSYN078AAXX  04004 08023 11456 82734 10102 20098 39819 49888 52022 60101 76062 887//;
0161080230999992000040403004+43470-003820FM-12+006599999V0202701N018510042019N0050001N1+01001+00961099051ADDAY161031AY221031GF108991081071004501999999MA1999999098351MD1210161+9999MW1101REMSYN072AAXX  04034 08023 41450 82736 10100 20096 39835 49905 52016 71062 887//;
0213080230999992000040406004+43470-003820FM-12+006599999V0202701N014910042019N0060001N1+00981+00901099351ADDAA112013091AY181061AY261061GF108991081021004501999999KA1120N+00951MA1999999098651MD1210301+9999MW1601REMSYN100AAXX  04064 08023 11456 82729 10098 20090 39865 49935 52030 60132 76086 882// 333 20095 50023 55005;
0161080230999992000040409004+43470-003820FM-12+006599999V0202701N012910120019N0060001N1+00901+00861099691ADDAY181031AY261031GF108991051081008001071999MA1999999098991MD1210341+9999MW1801REMSYN072AAXX  04094 08023 41556 82725 10090 20086 39899 49969 52034 78086 8587/;
0178080230999992000040412004+43470-003820FM-12+006599999V0202701N015410360019N0060001N1+00901+00731100041ADDAA106004191AY181061AY261061GF107991041081008001071001MA1999999099331MD1210341+9999MW1251REMSYN078AAXX  04124 08023 11556 72730 10090 20073 39933 40004 52034 60041 72586 84870;
0161080230999992000040415004+43470-003820FM-12+006599999V0202701N014910360019N0090001N1+00981+00821100291ADDAY181031AY221031GF106991021081008001071011MA1999999099581MD1210251+9999MW1251REMSYN072AAXX  04154 08023 41559 62729 10098 20082 39958 40029 52025 72582 82871;
0220080230999992000040418004+43470-003820FM-12+006599999V0202801N012910360019N0090001N1+00891+00761100561ADDAA112005191AY181061AY221061GF106991021081008001071011KA1120M+01041KA2999N+00831MA1999999099851MD1210271+9999MW1801REMSYN094AAXX  04184 08023 11559 62825 10089 20076 39985 40056 52027 60052 78082 82871 333 10104 20083;
0161080230999992000040421004+43470-003820FM-12+006599999V0202801N012910075019N0060001N1+00821+00741100851ADDAY161031AY221031GF108991051071008001071999MA1999999100141MD1210291+9999MW1601REMSYN072AAXX  04214 08023 41556 82825 10082 20074 30014 40085 52029 76062 8577/;
0178080230999992000040500004+43470-003820FM-12+006599999V0202801N011310120019N0060001N1+00801+00711101021ADDAA106005191AY161061AY261061GF108991081081008001999999MA1999999100301MD1210161+9999MW1601REMSYN078AAXX  05004 08023 11556 82822 10080 20071 30030 40102 52016 60051 76066 888//;
0161080230999992000040503004+43470-003820FM-12+006599999V0202901N009810120019N0100001N1+00891+00611101121ADDAY181031AY261031GF107991071081008001999999MA1999999100411MD1110111+9999MW1271REMSYN072AAXX  05034 08023 41560 72919 10089 20061 30041 40112 51011 72786 878//;
0213080230999992000040506004+43470-003820FM-12+006599999V0202701N010810120019N0150001N1+00791+00641101311ADDAA112008991AY181061AY261061GF108991061081008001071999KA1120N+00741MA1999999100591MD1110181+9999MW1601REMSYN100AAXX  05064 08023 11565 82721 10079 20064 30059 40131 51018 60092 76086 8687/ 333 20074 50173 55021;
0161080230999992000040509004+43470-003820FM-12+006599999V0202701N009310090019N0120001N1+00821+00621101591ADDAY181031AY261031GF107991071081004501001001MA1999999100871MD1110281+9999MW1801REMSYN072AAXX  05094 08023 41462 72718 10082 20062 30087 40159 51028 78086 87800;
0178080230999992000040512004+43470-003820FM-12+006599999V0203301N007210090019N0120001N1+00681+00591101781ADDAA106007991AY181061AY261061GF108991081081004501999999MA1999999101061MD1210191+9999MW1611REMSYN078AAXX  05124 08023 11462 83314 10068 20059 30106 40178 52019 60081 76186 888//;
0161080230999992000040515004+43470-003820FM-12+006599999V0203201N007710090019N0100001N1+00701+00571101871ADDAY161031AY261031GF108991081081004501999999MA1999999101151MD1210091+9999MW1611REMSYN072AAXX  05154 08023 41460 83215 10070 20057 30115 40187 52009 76166 888//;
0220080230999992000040518004+43470-003820FM-12+006599999V0203001N002610090019N0120001N1+00871+00631102011ADDAA112009991AY181061AY261061GF107991061081004501061001KA1120M+00931KA2999N+00581MA1999999101291MD1210141+9999MW1021REMSYN094AAXX  05184 08023 11462 73005 10087 20063 30129 40201 52014 60102 70286 86860 333 10093 20058;
0133080230999992000040521004+43470-003820FM-12+006599999V0202501N003612200019N0100001N1+00731+00571102181ADDGF104991041081004501001001MA1999999101451MD1210161+9999REMSYN066AAXX  05214 08023 42460 42507 10073 20057 30145 40218 52016 84800;
0144080230999992000040600004+43470-003820FM-12+006599999V0202001N004110090019N0100001N1+00641+00501102221ADDAA199000021GF106991061081004501001001MA1999999101491MD1110041+9999REMSYN066AAXX  06004 08023 32460 62008 10064 20050 30149 40222 51004 86800;
0133080230999992000040603004+43470-003820FM-12+006599999V0202001N003112200019N0120001N1+00601+00441102221ADDGF102991021081004501001001MA1999999101491MD1410001+9999REMSYN066AAXX  06034 08023 42462 22006 10060 20044 30149 40222 54000 82800;
0198080230999992000040606004+43470-003820FM-12+006599999V0201601N004112200019N0120001N1+00521+00381102231ADDAA199000091GF103991021021008001061001KA1120N+00491MA1999999101501MD1310011+9999REMSYN088AAXX  06064 08023 32562 31608 10052 20038 30150 40223 53001 82260 333 20049 50133 55009;EQDQ01  00002PRCP99
0133080230999992000040609004+43470-003820FM-12+006599999V0201301N003112200019N0250001N1+01021+00461102291ADDGF101991011041008001001001MA1999999101571MD1110071+9999REMSYN066AAXX  06094 08023 42575 11306 10102 20046 30157 40229 51007 81400;
0163080230999992000040612004+43470-003820FM-12+006599999V0200701N007712200019N0200001N1+01101+00431102291ADDAA199000091GF101991011011008001001001MA1999999101571MD1410001+9999REMSYN066AAXX  06124 08023 32570 10715 10110 20043 30157 40229 54000 81100;EQDQ01  00002PRCP99
0133080230999992000040615004+43470-003820FM-12+006599999V0200801N010812200019N0120001N1+01081+00611102211ADDGF101991011011008001001011MA1999999101491MD1710081+9999REMSYN066AAXX  06154 08023 42562 10821 10108 20061 30149 40221 57008 81101;
0186080230999992000040618004+43470-003820FM-12+006599999V0200801N012912200019N0250001N1+00981+00391102191ADDAA199000091GF101991001001999999001011KA1999M+01161MA1999999101471MD1510021+9999REMSYN076AAXX  06184 08023 32975 10825 10098 20039 30147 40219 55002 80001 333 10116;EQDQ01  00002PRCP99
0143080230999992000040621004+43470-003820FM-12+006599999V0201001N008212200019N0200001N1+00901+00501102251ADDGA1001+999999999GF100991001001999999001001MA1999999101531MD1110061+9999REMSYN060AAXX  06214 08023 42970 01016 10090 20050 30153 40225 51006;
0173080230999992000040700004+43470-003820FM-12+006599999V0201101N006212200019N0200001N1+00841+00481102331ADDAA199000091GA1001+999999999GF100991001001999999001001MA1999999101611MD1110081+9999REMSYN060AAXX  07004 08023 32970 01112 10084 20048 30161 40233 51008;EQDQ01  00002PRCP99
0143080230999992000040703004+43470-003820FM-12+006599999V0201101N007212200019N0200001N1+00801+00431102281ADDGA1001+999999999GF100991001001999999001001MA1999999101551MD1810061+9999REMSYN060AAXX  07034 08023 42970 01114 10080 20043 30155 40228 58006;
0198080230999992000040706004+43470-003820FM-12+006599999V0201001N006712200019N0180001N1+00801+00481102221ADDAA199000091GF103991011051004501001011KA1120N+00781MA1999999101501MD1610051+9999REMSYN088AAXX  07064 08023 32468 31013 10080 20048 30150 40222 56005 81501 333 20078 50453 55120;EQDQ01  00002PRCP99
0133080230999992000040709004+43470-003820FM-12+006599999V0200901N008212200019N0150001N1+01021+00541102211ADDGF101991001001999999001011MA1999999101491MD1810011+9999REMSYN066AAXX  07094 08023 42965 10916 10102 20054 30149 40221 58001 80001;
0163080230999992000040712004+43470-003820FM-12+006599999V0200801N011812200019N0200001N1+01161+00701102081ADDAA199000091GF102991001001999999001081MA1999999101371MD1710121+9999REMSYN066AAXX  07124 08023 32970 20823 10116 20070 30137 40208 57012 80008;EQDQ01  00002PRCP99
0133080230999992000040715004+43470-003820FM-12+006599999V0200901N012919999999N0200001N1+01201+00811101811ADDGF106991001001999999001081MA1999999101101MD1710271+9999REMSYN066AAXX  07154 08023 42970 60925 10120 20081 30110 40181 57027 80008;
0186080230999992000040718004+43470-003820FM-12+006599999V0200901N008219999999N0200001N1+01171+00871101801ADDAA199000091GF106991011001999999041081KA1999M+01251MA1999999101091MD1810011+9999REMSYN076AAXX  07184 08023 32970 60916 10117 20087 30109 40180 58001 81048 333 10125;EQDQ01  00002PRCP99
0133080230999992000040721004+43470-003820FM-12+006599999V0201001N009812200019N0200001N1+01141+00901101741ADDGF103991001001999999001081MA1999999101031MD1610061+9999REMSYN066AAXX  07214 08023 42970 31019 10114 20090 30103 40174 56006 80008;
0163080230999992000040800004+43470-003820FM-12+006599999V0201101N005119999999N0200001N1+01151+00891101561ADDAA199000091GF106991001001999999001081MA1999999100851MD1810181+9999REMSYN066AAXX  08004 08023 32970 61110 10115 20089 30085 40156 58018 80008;EQDQ01  00002PRCP99
0133080230999992000040803004+43470-003820FM-12+006599999V0201401N004110900019N0160001N1+01201+00651101301ADDGF107991041001017501071081MA1999999100591MD1510261+9999REMSYN066AAXX  08034 08023 42766 71408 10120 20065 30059 40130 55026 84078;
0198080230999992000040806004+43470-003820FM-12+006599999V0201301N004110150019N0140001N1+01201+00351101171ADDAA199000091GF107991051001017501071081KA1120N+01121MA1999999100461MD1710131+9999REMSYN088AAXX  08064 08023 32764 71308 10120 20035 30046 40117 57013 85078 333 20112 50393 55092;EQDQ01  00002PRCP99
0133080230999992000040809004+43470-003820FM-12+006599999V0201601N003110150019N0200001N1+01351+00411101111ADDGF108991081001017501071999MA1999999100411MD1610051+9999REMSYN066AAXX  08094 08023 42770 81606 10135 20041 30041 40111 56005 8807/;
0178080230999992000040812004+43470-003820FM-12+006599999V0202101N006210360019N0200001N1+01381+00581101151ADDAA106000791AY181061AY221061GF108991041081008001071999MA1999999100451MD1310041+9999MW1801REMSYN078AAXX  08124 08023 11570 82112 10138 20058 30045 40115 53004 69901 78082 8487/;
0161080230999992000040815004+43470-003820FM-12+006599999V0201201N006710360019N0120001N1+01101+00771101131ADDAY151031AY221031GF108991041071008001071999MA1999999100421MD1610031+9999MW1501REMSYN072AAXX  08154 08023 41562 81213 10110 20077 30042 40113 56003 75052 8477/;
0201080230999992000040818004+43470-003820FM-12+006599999V0201301N006210120019N0140001N1+01001+00791101041ADDAA112000591AY151061AY221061GF108991051081008001071999KA1999M+01421MA1999999100331MD1710091+9999MW1501REMSYN088AAXX  08184 08023 11564 81312 10100 20079 30033 40104 57009 69942 75052 8587/ 333 10142;
0161080230999992000040821004+43470-003820FM-12+006599999V0201301N004110360019N0120001N1+01061+00811101061ADDAY151031AY221031GF108991041081008001071999MA1999999100351MD1310021+9999MW1021REMSYN072AAXX  08214 08023 41562 81308 10106 20081 30035 40106 53002 70252 8487/;
0178080230999992000040900004+43470-003820FM-12+006599999V0201301N002110360019N0100001N1+01021+00811100961ADDAA106000191AY151061AY221061GF108991041071008001071999MA1999999100251MD1810101+9999MW1501REMSYN078AAXX  09004 08023 11560 81304 10102 20081 30025 40096 58010 69911 75052 8477/;
0161080230999992000040903004+43470-003820FM-12+006599999V0201201N001010360019N0100001N1+01081+00841100781ADDAY121031AY221031GF108991041071008001071999MA1999999100071MD1610181+9999MW1511REMSYN072AAXX  09034 08023 41560 81202 10108 20084 30007 40078 56018 75122 8477/;
0213080230999992000040906004+43470-003820FM-12+006599999V0202501N003112200019N0100001N1+00991+00781100691ADDAA112000591AY151061AY221061GF104991031001017501041091KA1120N+00981MA1999999099981MD1610091+9999MW1011REMSYN100AAXX  09064 08023 11760 42506 10099 20078 39998 40069 56009 69952 70152 83049 333 20098 50103 55000;
0133080230999992000040909004+43470-003820FM-12+006599999V0202601N004610360019N0100001N1+01321+01011100671ADDGF106991011051017501071001MA1999999099971MD1810011+9999REMSYN066AAXX  09094 08023 42760 62609 10132 20101 39997 40067 58001 81570;
0144080230999992000040912004+43470-003820FM-12+006599999V0203001N005110360019N0100001N1+01321+01051100631ADDAA199000021GF106991011071004501041001MA1999999099931MD1710041+9999REMSYN066AAXX  09124 08023 32460 63010 10132 20105 39993 40063 57004 81740;
0161080230999992000040915004+43470-003820FM-12+006599999V0203101N004110360019N0090001N1+01251+01081100531ADDAY121031AY221031GF108991031081004501071999MA1999999099831MD1710101+9999MW1101REMSYN072AAXX  09154 08023 41459 83108 10125 20108 39983 40053 57010 71022 8387/;
0201080230999992000040918004+43470-003820FM-12+006599999V0202901N003110360019N0050001N1+01141+01061100491ADDAA112000191AY161061AY221061GF108991031071004501021999KA1999M+01401MA1999999099791MD1710041+9999MW1601REMSYN088AAXX  09184 08023 11450 82906 10114 20106 39979 40049 57004 69922 76062 8372/ 333 10140;
0161080230999992000040921004+43470-003820FM-12+006599999V0209999C000010021019N0030001N1+01121+01041100431ADDAY161031AY221031GF108991051071002501021999MA1999999099731MD1610061+9999MW1621REMSYN072AAXX  09214 08023 41330 80000 10112 20104 39973 40043 56006 76262 8572/;
0178080230999992000041000004+43470-003820FM-12+006599999V0202601N004110012019N0020001N1+01061+01021100391ADDAA106020191AY161061AY261061GF108991081071001501999999MA1999999099691MD1710041+9999MW1631REMSYN078AAXX  10004 08023 11220 82608 10106 20102 39969 40039 57004 60201 76366 887//;
0161080230999992000041003004+43470-003820FM-12+006599999V0202401N005710360019N0150001N1+00861+00781100401ADDAY161031AY261031GF108991011071004501071999MA1999999099691MD1410001+9999MW1211REMSYN072AAXX  10034 08023 41465 82411 10086 20078 39969 40040 54000 72166 8177/;
0213080230999992000041006004+43470-003820FM-12+006599999V0202501N003610360019N0060001N1+00821+00651100441ADDAA112027991AY161061AY261061GF108991031081004501071999KA1120N+00821MA1999999099731MD1310041+9999MW1611REMSYN100AAXX  10064 08023 11456 82507 10082 20065 39973 40044 53004 60282 76166 8387/ 333 20082 50483 55065;
0161080230999992000041009004+43470-003820FM-12+006599999V0202501N006710090019N0060001N1+00811+00701100501ADDAY161031AY261031GF108991061081004501071999MA1999999099791MD1210061+9999MW1611REMSYN072AAXX  10094 08023 41456 82513 10081 20070 39979 40050 52006 76166 8687/;
0178080230999992000041012004+43470-003820FM-12+006599999V0202501N008210090019N0050001N1+00801+00691100571ADDAA106009991AY161061AY261061GF108991061081004501071999MA1999999099861MD1210071+9999MW1611REMSYN078AAXX  10124 08023 11450 82516 10080 20069 39986 40057 52007 60101 76166 8687/;
0161080230999992000041015004+43470-003820FM-12+006599999V0202401N008210042019N0030001N1+00721+00591100571ADDAY161031AY251031GF108991081071004501999999MA1999999099851MD1810011+9999MW1511REMSYN072AAXX  10154 08023 41430 82416 10072 20059 39985 40057 58001 75165 887//;
0220080230999992000041018004+43470-003820FM-12+006599999V0202801N010310042019N0050001N1+01031+00911100561ADDAA112018091AY161061AY251061GF107991051071004501071001KA1120M+01301KA2999N+00721MA1999999099851MD1410001+9999MW1511REMSYN094AAXX  10184 08023 11450 72820 10103 20091 39985 40056 54000 60182 75165 85770 333 10130 20072;
0161080230999992000041021004+43470-003820FM-12+006599999V0200401N007210042019N0080001N1+01061+01001100801ADDAY161031AY251031GF107991051071004501071001MA1999999100091MD1210241+9999MW1211REMSYN072AAXX  10214 08023 41458 70414 10106 20100 30009 40080 52024 72165 85770;
0178080230999992000041100004+43470-003820FM-12+006599999V0200201N005710042019N0060001N1+01061+01001100841ADDAA106000591AY161061AY221061GF108991051071004501071999MA1999999100131MD1210041+9999MW1601REMSYN078AAXX  11004 08023 11456 80211 10106 20100 30013 40084 52004 69961 76062 8577/;
0161080230999992000041103004+43470-003820FM-12+006599999V0203401N009810042019N0060001N1+01041+00981100821ADDAY161031AY261031GF108991081071004501999999MA1999999100111MD1810021+9999MW1601REMSYN072AAXX  11034 08023 41456 83419 10104 20098 30011 40082 58002 76066 887//;
0213080230999992000041106004+43470-003820FM-12+006599999V0203201N006710042019N0060001N1+01031+00931100931ADDAA112005191AY161061AY261061GF108991081071004501999999KA1120N+01031MA1999999100221MD1310111+9999MW1211REMSYN100AAXX  11064 08023 11456 83213 10103 20093 30022 40093 53011 60052 72166 887// 333 20103 51053 55000;
0161080230999992000041109004+43470-003820FM-12+006599999V0202901N013910042019N0120001N1+01051+00801101081ADDAY161031AY221031GF108991081071004501001001MA1999999100371MD1210151+9999MW1211REMSYN072AAXX  11094 08023 41462 82927 10105 20080 30037 40108 52015 72162 88700;
0178080230999992000041112004+43470-003820FM-12+006599999V0202801N012910360019N0120001N1+01081+00881101091ADDAA106000791AY161061AY221061GF107991041081008001061091MA1999999100381MD1010011+9999MW1021REMSYN078AAXX  11124 08023 11562 72825 10108 20088 30038 40109 50001 69901 70262 84869;
0133080230999992000041115004+43470-003820FM-12+006599999V0202801N010310150019N0200001N1+01281+01091100871ADDGF107991061051017501071081MA1999999100171MD1710211+9999REMSYN066AAXX  11154 08023 42770 72820 10128 20109 30017 40087 57021 86578;
0173080230999992000041118004+43470-003820FM-12+006599999V0203001N013910150019N0100001N1+01191+01081100601ADDAA112000791GF107991051051017501071081KA1999M+01311MA1999999099901MD1710271+9999REMSYN082AAXX  11184 08023 12760 73027 10119 20108 39990 40060 57027 69902 85578 333 10131;
0161080230999992000041121004+43470-003820FM-12+006599999V0203001N014910360019N0070001N1+01081+00961100541ADDAY121031AY221031GF108991041051012501071001MA1999999099831MD1710071+9999MW1601REMSYN072AAXX  11214 08023 41657 83029 10108 20096 39983 40054 57007 76022 84570;
0178080230999992000041200004+43470-003820FM-12+006599999V0202701N014910075019N0100001N1+01151+01031100391ADDAA106000791AY161061AY221061GF108991051071008001071001MA1999999099691MD1710141+9999MW1021REMSYN078AAXX  12004 08023 11560 82729 10115 20103 39969 40039 57014 69901 70262 85770;
0161080230999992000041203004+43470-003820FM-12+006599999V0202801N012910075019N0060001N1+00881+00781100401ADDAY161031AY221031GF108991061071008001071001MA1999999099691MD1410001+9999MW1611REMSYN072AAXX  12034 08023 41556 82825 10088 20078 39969 40040 54000 76162 86770;
0213080230999992000041206004+43470-003820FM-12+006599999V0202801N009810042019N0050001N1+00881+00841100381ADDAA112005191AY161061AY261061GF108991081071004501001001KA1120N+00781MA1999999099671MD1610021+9999MW1611REMSYN100AAXX  12064 08023 11450 82819 10088 20084 39967 40038 56002 60052 76166 88700 333 20078 50243 55029;
0161080230999992000041209004+43470-003820FM-12+006599999V0202701N009810090019N0150001N1+00901+00711100321ADDAY181031AY261031GF108991071081004501071999MA1999999099611MD1610061+9999MW1601REMSYN072AAXX  12094 08023 41465 82719 10090 20071 39961 40032 56006 76086 8787/;
0178080230999992000041212004+43470-003820FM-12+006599999V0202701N008710090019N0150001N1+01101+00981100311ADDAA106003091AY181061AY261061GF108991071081004501071999MA1999999099611MD1410001+9999MW1021REMSYN078AAXX  12124 08023 11465 82717 10110 20098 39961 40031 54000 60031 70286 8787/;
0161080230999992000041215004+43470-003820FM-12+006599999V0203001N007210042019N0080001N1+00981+00901100251ADDAY181031AY221031GF108991051071004501071999MA1999999099541MD1810071+9999MW1801REMSYN072AAXX  12154 08023 41458 83014 10098 20090 39954 40025 58007 78082 8577/;
0201080230999992000041218004+43470-003820FM-12+006599999V0202901N008710042019N0100001N1+00871+00871100321ADDAA112005191AY181061AY261061GF108991081071004501999999KA1999M+01151MA1999999099611MD1310071+9999MW1611REMSYN088AAXX  12184 08023 11460 82917 10087 20087 39961 40032 53007 60052 76186 887// 333 10115;
0161080230999992000041221004+43470-003820FM-12+006599999V0202201N004610042019N0100001N1+00801+00781100331ADDAY161031AY261031GF108991081071004501999999MA1999999099621MD1110011+9999MW1601REMSYN072AAXX  12214 08023 41460 82209 10080 20078 39962 40033 51001 76066 887//;
0178080230999992000041300004+43470-003820FM-12+006599999V0202201N004110075019N0150001N1+00801+00781100331ADDAA106001091AY161061AY261061GF108991061071008001071999MA1999999099621MD1410001+9999MW1601REMSYN078AAXX  13004 08023 11565 82208 10080 20078 39962 40033 54000 60011 76066 8677/;
0161080230999992000041303004+43470-003820FM-12+006599999V0202001N003610075019N0100001N1+00771+00661100321ADDAY161031AY261031GF108991061071008001071999MA1999999099611MD1610011+9999MW1611REMSYN072AAXX  13034 08023 41560 82007 10077 20066 39961 40032 56001 76166 8677/;
0213080230999992000041306004+43470-003820FM-12+006599999V0202001N003610075019N0150001N1+00821+00651100321ADDAA112003091AY161061AY221061GF108991081061008001999999KA1120N+00751MA1999999099611MD1510001+9999MW1021REMSYN100AAXX  13064 08023 11565 82007 10082 20065 39961 40032 55000 60032 70262 886// 333 20075 50063 55008;
0161080230999992000041309004+43470-003820FM-12+006599999V0202401N002110150019N0100001N1+00981+00681100401ADDAY161031AY221031GF108991081001017501071999MA1999999099691MD1210081+9999MW1021REMSYN072AAXX  13094 08023 41760 82404 10098 20068 39969 40040 52008 70262 8807/;
0150080230999992000041312004+43470-003820FM-12+006599999V0202901N002110150019N0150001N1+01121+00701100451ADDAA106000791GF108991081001017501071999MA1999999099751MD1010061+9999REMSYN072AAXX  13124 08023 12765 82904 10112 20070 39975 40045 50006 69901 8807/;
0133080230999992000041315004+43470-003820FM-12+006599999V0200801N002610360019N0250001N1+01231+00831100351ADDGF107991021081012501071999MA1999999099651MD1710101+9999REMSYN066AAXX  13154 08023 41675 70805 10123 20083 39965 40035 57010 8287/;
0173080230999992000041318004+43470-003820FM-12+006599999V0200801N005110075019N0200001N1+01051+00781100191ADDAA112000791GF108991051051008001071999KA1999M+01241MA1999999099491MD1710161+9999REMSYN082AAXX  13184 08023 12570 80810 10105 20078 39949 40019 57016 69902 8557/ 333 10124;
0133080230999992000041321004+43470-003820FM-12+006599999V0201201N006210150019N0100001N1+01001+00841099921ADDGF107991071001017501071999MA1999999099221MD1710271+9999REMSYN066AAXX  13214 08023 42760 71212 10100 20084 39922 49992 57027 8707/;
0163080230999992000041400004+43470-003820FM-12+006599999V0202701N003610150019N0100001N1+00921+00801099711ADDAA199000091GF107991071001017501071999MA1999999099011MD1710211+9999REMSYN066AAXX  14004 08023 32760 72707 10092 20080 39901 49971 57021 8707/;EQDQ01  00002PRCP99
0133080230999992000041403004+43470-003820FM-12+006599999V0202201N009310150019N0100001N1+01621+00981099291ADDGF105991051001017501071001MA1999999098611MD1710401+9999REMSYN066AAXX  14034 08023 42760 52218 10162 20098 39861 49929 57040 85070;
0198080230999992000041406004+43470-003820FM-12+006599999V0201901N006210360019N0300001N1+01501+00921099231ADDAA199000091GF105991021021008001041001KA1120N+00881MA1999999098541MD1710071+9999REMSYN088AAXX  14064 08023 32580 51912 10150 20092 39854 49923 57007 82240 333 20088 50323 55004;EQDQ01  00002PRCP99
0133080230999992000041409004+43470-003820FM-12+006599999V0202201N013412200019N0750001N1+01841+00991099051ADDGF103991011051008001041011MA1999999098371MD1710171+9999REMSYN066AAXX  14094 08023 42589 32226 10184 20099 39837 49905 57017 81541;
0161080230999992000041415004+43470-003820FM-12+006599999V0202801N013910120019N0150001N1+01201+00921099631ADDAY161031AY221031GF107991061081008001031001MA1999999098931MD1210341+9999MW1021REMSYN072AAXX  14154 08023 41565 72827 10120 20092 39893 49963 52034 70262 86830;
0201080230999992000041418004+43470-003820FM-12+006599999V0202901N013910120019N0200001N1+01141+00841099871ADDAA112000391AY161061AY221061GF106991051081008001031001KA1999M+02011MA1999999099171MD1210241+9999MW1021REMSYN088AAXX  14184 08023 11570 62927 10114 20084 39917 49987 52024 69932 70262 85830 333 10201;
0133080230999992000041421004+43470-003820FM-12+006599999V0202901N012910120019N0200001N1+01141+00631100191ADDGF106991061081008001001001MA1999999099491MD1210321+9999REMSYN066AAXX  14214 08023 42570 62925 10114 20063 39949 40019 52032 86800;
0163080230999992000041500004+43470-003820FM-12+006599999V0202801N008712200019N0200001N1+01051+00741100411ADDAA199000091GF102991021081008001001001MA1999999099701MD1210211+9999REMSYN066AAXX  15004 08023 32570 22817 10105 20074 39970 40041 52021 82800;EQDQ01  00002PRCP99
0133080230999992000041503004+43470-003820FM-12+006599999V0202201N005712200019N0200001N1+00881+00501100421ADDGF101991011001022501041001MA1999999099711MD1110011+9999REMSYN066AAXX  15034 08023 42870 12211 10088 20050 39971 40042 51001 81040;
0198080230999992000041506004+43470-003820FM-12+006599999V0202101N005112200019N0750001N1+00871+00341100521ADDAA199000091GF101991011081008001001011KA1120N+00801MA1999999099811MD1310101+9999REMSYN088AAXX  15064 08023 32589 12110 10087 20034 39981 40052 53010 81801 333 20080 50483 55075;EQDQ01  00002PRCP99
0133080230999992000041509004+43470-003820FM-12+006599999V0202401N002612200019N0500001N1+01271+00521100601ADDGF102991011051008001001011MA1999999099901MD1210091+9999REMSYN066AAXX  15094 08023 42584 22405 10127 20052 39990 40060 52009 81501;
0163080230999992000041512004+43470-003820FM-12+006599999V0200701N005110900019N0300001N1+01331+00791100521ADDAA199000091GF106991011051008001001081MA1999999099821MD1810081+9999REMSYN066AAXX  15124 08023 32580 60710 10133 20079 39982 40052 58008 81508;EQDQ01  00002PRCP99
0133080230999992000041515004+43470-003820FM-12+006599999V0200901N009310900019N0200001N1+01211+00831100271ADDGF108991011011008001001071MA1999999099571MD1710251+9999REMSYN066AAXX  15154 08023 42570 80918 10121 20083 39957 40027 57025 81107;
0186080230999992000041518004+43470-003820FM-12+006599999V0201101N005110360019N0300001N1+01181+00941100071ADDAA199000091GF108991011011008001041071KA1999M+01411MA1999999099371MD1710201+9999REMSYN076AAXX  15184 08023 32580 81110 10118 20094 39937 40007 57020 81147 333 10141;EQDQ01  00002PRCP99
0161080230999992000041521004+43470-003820FM-12+006599999V0201001N002610360019N0200001N1+01181+00901099961ADDAY121031AY221031GF108991011041017501021999MA1999999099261MD1710111+9999MW1581REMSYN072AAXX  15214 08023 41770 81005 10118 20090 39926 49996 57011 75822 8142/;
0178080230999992000041600004+43470-003820FM-12+006599999V0201401N005110360019N0200001N1+01221+00861099501ADDAA106000791AY161061AY221061GF108991021041017501071999MA1999999098811MD1710451+9999MW1211REMSYN078AAXX  16004 08023 11770 81410 10122 20086 39881 49950 57045 69901 72162 8247/;
0185080230999992000041606004+43470-003820FM-12+006599999V0202301N005112200019N0300001N1+01101+00821099351ADDAA112000791GF102991011081017501041021KA1120N+01061MA1999999098651MD1310041+9999REMSYN094AAXX  16064 08023 12780 22310 10110 20082 39865 49935 53004 69902 81842 333 20106 50363 55055;
0133080230999992000041609004+43470-003820FM-12+006599999V0202801N003112200019N0300001N1+01321+00711099381ADDGF101991011011012501001001MA1999999098691MD1210041+9999REMSYN066AAXX  16094 08023 42680 12806 10132 20071 39869 49938 52004 81100;
0144080230999992000041612004+43470-003820FM-12+006599999V0200601N005112200019N0300001N1+01421+00871099421ADDAA199000021GF102991011041017501031081MA1999999098731MD1210041+9999REMSYN066AAXX  16124 08023 32780 20610 10142 20087 39873 49942 52004 81438;
0161080230999992000041615004+43470-003820FM-12+006599999V0203101N003110360019N0250001N1+01321+01111099621ADDAY111031AY201031GF106991041031012501031001MA1999999098891MD1210161+9999MW1251REMSYN072AAXX  16154 08023 41675 63106 10132 20111 39889 49962 52016 72510 84330;
0201080230999992000041618004+43470-003820FM-12+006599999V0202901N005710120019N0200001N1+01241+00751099961ADDAA112000191AY191061AY281061GF107991051021012501061001KA1999M+01481MA1999999099261MD1210331+9999MW1161REMSYN088AAXX  16184 08023 11670 72911 10124 20075 39926 49996 52033 69912 71698 85260 333 10148;
0161080230999992000041621004+43470-003820FM-12+006599999V0202801N006212200019N0250001N1+01101+00771100291ADDAY181031AY221031GF104991021021008001031001MA1999999099591MD1210331+9999MW1011REMSYN072AAXX  16214 08023 41575 42812 10110 20077 39959 40029 52033 70182 82230;
0178080230999992000041700004+43470-003820FM-12+006599999V0202801N007212200019N0250001N1+01041+00751100461ADDAA106001091AY181061AY211061GF102991021001999999031001MA1999999099751MD1210161+9999MW1021REMSYN078AAXX  17004 08023 11975 22814 10104 20075 39975 40046 52016 60011 70281 82030;
0133080230999992000041703004+43470-003820FM-12+006599999V0202101N004112200019N0200001N1+01061+00611100601ADDGF103991031051017501001001MA1999999099891MD1210141+9999REMSYN066AAXX  17034 08023 42770 32108 10106 20061 39989 40060 52014 83500;
0185080230999992000041706004+43470-003820FM-12+006599999V0202101N005110150019N0400001N1+01061+00221100801ADDAA112001091GF105991051051017501001001KA1120N+00941MA1999999100091MD1210201+9999REMSYN094AAXX  17064 08023 12782 52110 10106 20022 30009 40080 52020 60012 85500 333 20094 50383 55065;
0133080230999992000041709004+43470-003820FM-12+006599999V0202001N002612200019N0300001N1+01501+00531100991ADDGF103991031051017501001001MA1999999100291MD1210201+9999REMSYN066AAXX  17094 08023 42780 32005 10150 20053 30029 40099 52020 83500;
0163080230999992000041712004+43470-003820FM-12+006599999V0200601N003612200019N0300001N1+01471+00791101071ADDAA199000091GF103991011051017501001021MA1999999100371MD1110081+9999REMSYN066AAXX  17124 08023 32780 30607 10147 20079 30037 40107 51008 81502;EQDQ01  00002PRCP99
0133080230999992000041715004+43470-003820FM-12+006599999V0203601N002612200019N0300001N1+01491+00881101151ADDGF104991031051012501031021MA1999999100451MD1110081+9999REMSYN066AAXX  17154 08023 42680 43605 10149 20088 30045 40115 51008 83532;
0186080230999992000041718004+43470-003820FM-12+006599999V0202801N003610150019N0250001N1+01281+00951101321ADDAA199000091GF106991051081012501031021KA1999M+01551MA1999999100611MD1210161+9999REMSYN076AAXX  17184 08023 32675 62807 10128 20095 30061 40132 52016 85832 333 10155;EQDQ01  00002PRCP99
0163080230999992000041800004+43470-003820FM-12+006599999V0201201N003612200019N0180001N1+01091+00551101281ADDAA199000091GF103991011001999999031041MA1999999100571MD1810061+9999REMSYN066AAXX  18004 08023 32968 31207 10109 20055 30057 40128 58006 81034;EQDQ01  00002PRCP99
0133080230999992000041803004+43470-003820FM-12+006599999V0201901N006212200019N0200001N1+01201+00561101001ADDGF102991001001999999001041MA1999999100291MD1710281+9999REMSYN066AAXX  18034 08023 42970 21912 10120 20056 30029 40100 57028 80004;
0168080230999992000041806004+43470-003820FM-12+006599999V0202101N010810900019N0300001N1+01421+00401100691ADDGF106991011051012501041061KA1120N+00931MA1999999099991MD1710311+9999REMSYN088AAXX  18064 08023 42680 62121 10142 20040 39999 40069 57031 81546 333 20093 50373 55094;
0161080230999992000041809004+43470-003820FM-12+006599999V0202101N014910075019N0250001N1+01501+00591100481ADDAY151031AY221031GF108991051051008001071999MA1999999099781MD1710211+9999MW1021REMSYN072AAXX  18094 08023 41575 82129 10150 20059 39978 40048 57021 70252 8557/;
0178080230999992000041812004+43470-003820FM-12+006599999V0202901N004110120019N0150001N1+01341+01071100831ADDAA106001091AY181061AY221061GF106991061081008001001001MA1999999100131MD1010351+9999MW1021REMSYN078AAXX  18124 08023 11565 62908 10134 20107 30013 40083 50035 60011 70282 86800;
0133080230999992000041815004+43470-003820FM-12+006599999V0202801N009810120019N0100001N1+01441+01021100961ADDGF107991061081008001041001MA1999999100261MD1210131+9999REMSYN066AAXX  18154 08023 42560 72819 10144 20102 30026 40096 52013 86840;
0201080230999992000041818004+43470-003820FM-12+006599999V0202701N008210360019N0120001N1+01301+00991101201ADDAA112001091AY121061AY221061GF107991041051008001031021KA1999M+01551MA1999999100501MD1210241+9999MW1151REMSYN088AAXX  18184 08023 11562 72716 10130 20099 30050 40120 52024 60012 71522 84532 333 10155;
0133080230999992000041821004+43470-003820FM-12+006599999V0202401N004110360019N0100001N1+01261+01031101371ADDGF107991021081008001071999MA1999999100661MD1210161+9999REMSYN066AAXX  18214 08023 42560 72408 10126 20103 30066 40137 52016 8287/;
0163080230999992000041900004+43470-003820FM-12+006599999V0202201N003110360019N0100001N1+01251+00741101401ADDAA199000091GF108991021051008001071999MA1999999100691MD1110031+9999REMSYN066AAXX  19004 08023 32560 82206 10125 20074 30069 40140 51003 8257/;EQDQ01  00002PRCP99
0133080230999992000041903004+43470-003820FM-12+006599999V0201201N001510360019N0100001N1+01201+00841101321ADDGF108991031051008001071999MA1999999100611MD1810081+9999REMSYN066AAXX  19034 08023 42560 81203 10120 20084 30061 40132 58008 8357/;
0213080230999992000041906004+43470-003820FM-12+006599999V0201501N003110075019N0100001N1+01131+00891101361ADDAA112000391AY151061AY221061GF108991061051008001071999KA1120N+01131MA1999999100651MD1310041+9999MW1501REMSYN100AAXX  19064 08023 11560 81506 10113 20089 30065 40136 53004 69932 75052 8657/ 333 20113 50303 55050;
0161080230999992000041909004+43470-003820FM-12+006599999V0201601N004110360019N0400001N1+01481+01151101371ADDAY161031AY221031GF107991011041017501071001MA1999999100671MD1110021+9999MW1011REMSYN072AAXX  19094 08023 41782 71608 10148 20115 30067 40137 51002 70162 81470;
0150080230999992000041912004+43470-003820FM-12+006599999V0200901N005712200019N0300001N1+01721+01291101391ADDAA106000591GF103991011021017501031051MA1999999100691MD1110021+9999REMSYN072AAXX  19124 08023 12780 30911 10172 20129 30069 40139 51002 69941 81235;
0133080230999992000041915004+43470-003820FM-12+006599999V0201001N008212200019N0300001N1+01731+01281101231ADDGF103991011011017501071021MA1999999100541MD1610151+9999REMSYN066AAXX  19154 08023 42780 31016 10173 20128 30054 40123 56015 81172;
0167080230999992000041918004+43470-003820FM-12+006599999V0202001N006210360019N0300001N1+01521+01191101171ADDAA199000021GF106991011081008001071001KA1999M+01781MA1999999100471MD1610071+9999REMSYN076AAXX  19184 08023 32580 62012 10152 20119 30047 40117 56007 81870 333 10178;
0133080230999992000041921004+43470-003820FM-12+006599999V0202001N004119999999N0200001N1+01671+01121101181ADDGF107991051001999999031081MA1999999100491MD1310021+9999REMSYN066AAXX  19214 08023 42970 72008 10167 20112 30049 40118 53002 85038;
0163080230999992000042000004+43470-003820FM-12+006599999V0202201N006219999999N0200001N1+01871+00701101161ADDAA199000091GF108991051001999999031071MA1999999100471MD1610021+9999REMSYN066AAXX  20004 08023 32970 82212 10187 20070 30047 40116 56002 85037;EQDQ01  00002PRCP99
0161080230999992000042003004+43470-003820FM-12+006599999V0202001N008210360019N0150001N1+01691+01031101141ADDAY121031AY221031GF108991021061008001071071MA1999999100451MD1710021+9999MW1601REMSYN072AAXX  20034 08023 41565 82016 10169 20103 30045 40114 57002 76022 82677;
0213080230999992000042006004+43470-003820FM-12+006599999V0202001N005110360019N0200001N1+01721+00851101041ADDAA112000591AY161061AY221061GF106991011051008001041001KA1120N+01471MA1999999100351MD1710101+9999MW1021REMSYN100AAXX  20064 08023 11570 62010 10172 20085 30035 40104 57010 69942 70262 81540 333 20147 50403 55069;
0133080230999992000042009004+43470-003820FM-12+006599999V0202001N006710900019N0300001N1+01891+00901101041ADDGF105991011051008001041011MA1999999100351MD1410001+9999REMSYN066AAXX  20094 08023 42580 52013 10189 20090 30035 40104 54000 81541;
0144080230999992000042012004+43470-003820FM-12+006599999V0202001N008210900019N0300001N1+02231+01061101021ADDAA199000021GF106991031001022501041081MA1999999100341MD1710011+9999REMSYN066AAXX  20124 08023 32880 62016 10223 20106 30034 40102 57001 83048;
0133080230999992000042015004+43470-003820FM-12+006599999V0203101N003110360019N0150001N1+01341+01271101231ADDGF107991031051008001051011MA1999999100531MD1310191+9999REMSYN066AAXX  20154 08023 42565 73106 10134 20127 30053 40123 53019 83551;
0205080230999992000042018004+43470-003820FM-12+006599999V0200401N004610360019N0100001N1+01281+01131101361ADDAA199000091GF107991021051008001071999KA1120M+02301KA2999N+01251MA1999999100651MD1210121+9999REMSYN082AAXX  20184 08023 32560 70409 10128 20113 30065 40136 52012 8257/ 333 10230 20125;EQDQ01  00002PRCP99
0133080230999992000042021004+43470-003820FM-12+006599999V0201201N004112200019N0050001N1+01191+01091101521ADDGF104991011051012501031021MA1999999100811MD1210161+9999REMSYN066AAXX  20214 08023 42650 41208 10119 20109 30081 40152 52016 81532;
0133080230999992000042103004+43470-003820FM-12+006599999V0201101N006210900019N0150001N1+01301+01151101491ADDGF105991011051012501031071MA1999999100781MD1810071+9999REMSYN066AAXX  21034 08023 42665 51112 10130 20115 30078 40149 58007 81537;
0226080230999992000042106004+43470-003820FM-12+006599999V0201101N002119999999N0090001N1+01201+01161101481ADDAA199000091AY121061AY221061GF106991021001999999041071KA1120N+01151MA1999999100771MD1610011+9999MW1101REMSYN094AAXX  21064 08023 31959 61104 10120 20116 30077 40148 56001 71022 82047 333 20115 50393 55079;EQDQ01  00002PRCP99
0133080230999992000042109004+43470-003820FM-12+006599999V0209999V001519999999N0600001N1+01501+00781101391ADDGF105991011001999999041081MA1999999100691MD1810081+9999REMSYN066AAXX  21094 08023 42986 59903 10150 20078 30069 40139 58008 81048;
0163080230999992000042112004+43470-003820FM-12+006599999V0203001N003110360019N0300001N1+01701+01151101351ADDAA199000091GF105991011041017501041051MA1999999100651MD1710041+9999REMSYN066AAXX  21124 08023 32780 53006 10170 20115 30065 40135 57004 81445;EQDQ01  00002PRCP99
0133080230999992000042115004+43470-003820FM-12+006599999V0202501N005110360019N0300001N1+01981+01021101151ADDGF106991021051017501041001MA1999999100461MD1710191+9999REMSYN066AAXX  21154 08023 42780 62510 10198 20102 30046 40115 57019 82540;
0186080230999992000042118004+43470-003820FM-12+006599999V0202101N006710360019N0300001N1+02141+00911100951ADDAA199000091GF106991021051017501091021KA1999M+02261MA1999999100271MD1710191+9999REMSYN076AAXX  21184 08023 32780 62113 10214 20091 30027 40095 57019 82592 333 10226;EQDQ01  00002PRCP99
0133080230999992000042121004+43470-003820FM-12+006599999V0202001N00671036001CN0200001N1+02041+00911100991ADDGF106991021051017501071999MA1999999100301MD1310031+9999REMSYN066AAXX  21214 08023 42770 62013 10204 20091 30030 40099 53003 8257/;
0191080230999992000042200004+43470-003820FM-12+006599999V0202701N003110360019N0080001N1+01281+01051101211ADDAA199000091AY121061AY221061GF107991021051012501071999MA1999999100511MD1110211+9999MW1101REMSYN072AAXX  22004 08023 31658 72706 10128 20105 30051 40121 51021 71022 8257/;EQDQ01  00002PRCP99
0161080230999992000042203004+43470-003820FM-12+006599999V0201201N00261036001CN0080001N1+01221+01031101121ADDAY121031AY221031GF106991021051012501071999MA1999999100411MD1810101+9999MW1101REMSYN072AAXX  22034 08023 41658 61205 10122 20103 30041 40112 58010 71022 8257/;
0198080230999992000042206004+43470-003820FM-12+006599999V0200901N008710360019N0150001N1+01281+01051101001ADDAA199000091GF107991021051012501071999KA1120N+01161MA1999999100301MD1710111+9999REMSYN088AAXX  22064 08023 32665 70917 10128 20105 30030 40100 57011 8257/ 333 20116 50443 55072;EQDQ01  00002PRCP99
0161080230999992000042209004+43470-003820FM-12+006599999V0200701N006210120019N0150001N1+01291+01141101111ADDAY181031AY221031GF108991061081008001071001MA1999999100411MD1310111+9999MW1021REMSYN072AAXX  22094 08023 41565 80712 10129 20114 30041 40111 53011 70282 86870;
0161080230999992000042215004+43470-003820FM-12+006599999V0200401N007710021019N0150001N1+01301+01131101071ADDAY161031AY221031GF107991071071002501999999MA1999999100371MD1510001+9999MW1211REMSYN072AAXX  22154 08023 41365 70415 10130 20113 30037 40107 55000 72162 877//;
0201080230999992000042218004+43470-003820FM-12+006599999V0203601N001010120019N0200001N1+01061+00921101331ADDAA112000891AY181061AY221061GF107991051081008001071001KA1999M+01991MA1999999100621MD1210251+9999MW1021REMSYN088AAXX  22184 08023 11570 73602 10106 20092 30062 40133 52025 69972 70282 85870 333 10199;
0161080230999992000042221004+43470-003820FM-12+006599999V0202201N004110120019N0150001N1+00961+00711101571ADDAY161031AY221031GF108991061081008001071999MA1999999100851MD1210231+9999MW1021REMSYN072AAXX  22214 08023 41565 82208 10096 20071 30085 40157 52023 70262 8687/;
0178080230999992000042300004+43470-003820FM-12+006599999V0202301N006212200019N0200001N1+01001+00631101611ADDAA106001091AY161061AY211061GF101991011001022501071001MA1999999100891MD1210041+9999MW1011REMSYN078AAXX  23004 08023 11870 12312 10100 20063 30089 40161 52004 69991 70161 81070;
0133080230999992000042303004+43470-003820FM-12+006599999V0202201N005110210019N0200001N1+00991+00501101631ADDGF105991051001022501031001MA1999999100911MD1210021+9999REMSYN066AAXX  23034 08023 42870 52210 10099 20050 30091 40163 52002 85030;
0185080230999992000042306004+43470-003820FM-12+006599999V0202101N005112200019N0750001N1+00981+00441101711ADDAA112001091GF101991011001022501071001KA1120N+00931MA1999999100991MD1310081+9999REMSYN094AAXX  23064 08023 12889 12110 10098 20044 30099 40171 53008 69992 81070 333 20093 50293 55017;
0133080230999992000042309004+43470-003820FM-12+006599999V0202601N005112200019N0750001N1+01361+00501101881ADDGF102991011021017501031001MA1999999101171MD1210181+9999REMSYN066AAXX  23094 08023 42789 22610 10136 20050 30117 40188 52018 81230;
0163080230999992000042312004+43470-003820FM-12+006599999V0203001N006212200019N0300001N1+01401+00731101891ADDAA199000091GF103991011021012501061001MA1999999101181MD1110011+9999REMSYN066AAXX  23124 08023 32680 33012 10140 20073 30118 40189 51001 81260;EQDQ01  00002PRCP99
0133080230999992000042315004+43470-003820FM-12+006599999V0202901N007712200019N0200001N1+01471+00881101961ADDGF104991021021012501031001MA1999999101251MD1310071+9999REMSYN066AAXX  23154 08023 42670 42915 10147 20088 30125 40196 53007 82230;
0214080230999992000042318004+43470-003820FM-12+006599999V0202701N004110120019N0200001N1+01251+00731102081ADDAA199000091AY121061AY211061GF107991061051012501071001KA1999M+01501MA1999999101371MD1210121+9999MW1151REMSYN082AAXX  23184 08023 31670 72708 10125 20073 30137 40208 52012 71521 86570 333 10150;EQDQ01  00002PRCP99
0133080230999992000042321004+43470-003820FM-12+006599999V0202201N002612200019N0200001N1+01201+00701102101ADDGF103991021051012501031001MA1999999101391MD1110021+9999REMSYN066AAXX  23214 08023 42670 32205 10120 20070 30139 40210 51002 82530;
0163080230999992000042400004+43470-003820FM-12+006599999V0201401N003619999999N0150001N1+01081+00631101891ADDAA199000091GF106991031001999999071061MA1999999101171MD1810221+9999REMSYN066AAXX  24004 08023 32965 61407 10108 20063 30117 40189 58022 83076;EQDQ01  00002PRCP99
0133080230999992000042403004+43470-003820FM-12+006599999V0201201N002112200019N0200001N1+01021+00731101561ADDGF101991011001999999041001MA1999999100851MD1710321+9999REMSYN066AAXX  24034 08023 42970 11204 10102 20073 30085 40156 57032 81040;
0226080230999992000042406004+43470-003820FM-12+006599999V0201901N007710120019N0400001N1+01351+00491101361ADDAA199000091AY111061AY211061GF107991051051012501071001KA1120N+00981MA1999999100651MD1610201+9999MW1141REMSYN094AAXX  24064 08023 31682 71915 10135 20049 30065 40136 56020 71411 85570 333 20098 50503 55105;EQDQ01  00002PRCP99
0133080230999992000042409004+43470-003820FM-12+006599999V0202001N010310360019N0300001N1+01581+00761101211ADDGF107991031051012501071001MA1999999100511MD1710141+9999REMSYN066AAXX  24094 08023 42680 72020 10158 20076 30051 40121 57014 83570;
0133080230999992000042415004+43470-003820FM-12+006599999V0202101N012310360019N0400001N1+01821+01211100981ADDGF106991021051017501091021MA1999999100291MD1710121+9999REMSYN066AAXX  24154 08023 42782 62124 10182 20121 30029 40098 57012 82592;
0201080230999992000042418004+43470-003820FM-12+006599999V0202101N012910150019N0300001N1+01751+01461100871ADDAA112000791AY161061AY221061GF107991051051017501071021KA1999M+01901MA1999999100181MD1710111+9999MW1021REMSYN088AAXX  24184 08023 11780 72125 10175 20146 30018 40087 57011 69902 70262 85572 333 10190;
0161080230999992000042421004+43470-003820FM-12+006599999V0202101N012312200019N0200001N1+01761+01121100941ADDAY121031AY221031GF104991011051017501071001MA1999999100251MD1310071+9999MW1601REMSYN072AAXX  24214 08023 41770 42124 10176 20112 30025 40094 53007 76022 81570;
0178080230999992000042500004+43470-003820FM-12+006599999V0202101N010812200019N0200001N1+01771+01091100861ADDAA106000791AY161061AY221061GF103991031001022501071001MA1999999100171MD1810081+9999MW1021REMSYN078AAXX  25004 08023 11870 32121 10177 20109 30017 40086 58008 69901 70262 83070;
0133080230999992000042503004+43470-003820FM-12+006599999V0202401N008212200019N0200001N1+01401+01141100871ADDGF103991031001022501071001MA1999999100171MD1410001+9999REMSYN066AAXX  25034 08023 42870 32416 10140 20114 30017 40087 54000 83070;
0185080230999992000042506004+43470-003820FM-12+006599999V0201101N004110360019N0200001N1+01271+01141100911ADDAA112000791GF106991021041017501071001KA1120N+01221MA1999999100211MD1310041+9999REMSYN094AAXX  25064 08023 12770 61108 10127 20114 30021 40091 53004 69902 82470 333 20122 50533 55019;
0133080230999992000042509004+43470-003820FM-12+006599999V0200901N004610900019N0200001N1+01561+01351100831ADDGF105991021041012501031011MA1999999100141MD1810071+9999REMSYN066AAXX  25094 08023 42670 50909 10156 20135 30014 40083 58007 82431;
0163080230999992000042512004+43470-003820FM-12+006599999V0202001N010810360019N0200001N1+02191+01181100611ADDAA199000091GF105991041041012501041011MA1999999099931MD1710211+9999REMSYN066AAXX  25124 08023 32670 52021 10219 20118 39993 40061 57021 84441;EQDQ01  00002PRCP99
0133080230999992000042515004+43470-003820FM-12+006599999V0203501N009310075019N0100001N1+01321+01091100671ADDGF106991051051008001031001MA1999999099971MD1310041+9999REMSYN066AAXX  25154 08023 42560 63518 10132 20109 39997 40067 53004 85530;
0201080230999992000042518004+43470-003820FM-12+006599999V0200501N001010075019N0150001N1+01151+00951100851ADDAA112000791AY181061AY221061GF107991051051008001031999KA1999M+02351MA1999999100141MD1210171+9999MW1021REMSYN088AAXX  25184 08023 11565 70502 10115 20095 30014 40085 52017 69902 70282 8553/ 333 10235;
0161080230999992000042521004+43470-003820FM-12+006599999V0201101N006710120019N0080001N1+01121+01021100861ADDAY161031AY221031GF108991081081008001999999MA1999999100151MD1310011+9999MW1601REMSYN072AAXX  25214 08023 41558 81113 10112 20102 30015 40086 53001 76062 888//;
0178080230999992000042600004+43470-003820FM-12+006599999V0202201N009312200019N0150001N1+01361+00801100711ADDAA106002091AY161061AY211061GF103991011081008001071001MA1999999100011MD1810141+9999MW1011REMSYN078AAXX  26004 08023 11565 32218 10136 20080 30001 40071 58014 60021 70161 81870;
0133080230999992000042603004+43470-003820FM-12+006599999V0202401N004610120019N0150001N1+01241+00841100851ADDGF107991071081008001001001MA1999999100151MD1310141+9999REMSYN066AAXX  26034 08023 42565 72409 10124 20084 30015 40085 53014 87800;
0185080230999992000042606004+43470-003820FM-12+006599999V0202101N001510120019N0200001N1+01181+00861100981ADDAA112002091GF106991061051012501001001KA1120N+01101MA1999999100271MD1210121+9999REMSYN094AAXX  26064 08023 12670 62103 10118 20086 30027 40098 52012 60022 86500 333 20110 50373 55065;
0163080230999992000042612004+43470-003820FM-12+006599999V0203601N003612200019N0250001N1+01401+00931101151ADDAA199000091GF102991011021008001041001MA1999999100451MD1210041+9999REMSYN066AAXX  26124 08023 32575 23607 10140 20093 30045 40115 52004 81240;EQDQ01  00002PRCP99
0133080230999992000042615004+43470-003820FM-12+006599999V0203601N002612200019N0250001N1+01321+00861101161ADDGF104991031081012501041001MA1999999100461MD1310011+9999REMSYN066AAXX  26154 08023 42675 43605 10132 20086 30046 40116 53001 83840;
0186080230999992000042618004+43470-003820FM-12+006599999V0203501N002110150019N0200001N1+01281+00931101161ADDAA199000091GF108991081001017501071999KA1999M+01461MA1999999100461MD1410001+9999REMSYN076AAXX  26184 08023 32770 83504 10128 20093 30046 40116 54000 8807/ 333 10146;EQDQ01  00002PRCP99
0133080230999992000042621004+43470-003820FM-12+006599999V0209999C000010360019N0100001N1+01221+00901101251ADDGF108991031061004501071999MA1999999100541MD1210081+9999REMSYN066AAXX  26214 08023 42460 80000 10122 20090 30054 40125 52008 8367/;
0178080230999992000042700004+43470-003820FM-12+006599999V0202701N004610021019N0100001N1+01061+00981101181ADDAA106000791AY151061AY221061GF108991051071002501071999MA1999999100471MD1810061+9999MW1501REMSYN078AAXX  27004 08023 11360 82709 10106 20098 30047 40118 58006 69901 75052 8577/;
0161080230999992000042703004+43470-003820FM-12+006599999V0202801N004110021019N0100001N1+01041+00961101081ADDAY151031AY221031GF108991061071002501071999MA1999999100371MD1710101+9999MW1501REMSYN072AAXX  27034 08023 41360 82808 10104 20096 30037 40108 57010 75052 8677/;
0213080230999992000042706004+43470-003820FM-12+006599999V0203301N003110060019N0020001N1+01041+01001101061ADDAA112014091AY161061AY221061GF108991081081002501999999KA1120N+01001MA1999999100351MD1610021+9999MW1621REMSYN100AAXX  27064 08023 11320 83306 10104 20100 30035 40106 56002 60142 76262 888// 333 20100 50443 55076;
0133080230999992000042709004+43470-003820FM-12+006599999V0202401N004610021019N0040001N1+00951+00911101081ADDGF108991071071002501021999MA1999999100371MD1310021+9999REMSYN066AAXX  27094 08023 41340 82409 10095 20091 30037 40108 53002 8772/;
0178080230999992000042712004+43470-003820FM-12+006599999V0202701N008210021019N0070001N1+01001+00861101101ADDAA106030091AY181061AY261061GF108991051071002501021999MA1999999100381MD1110021+9999MW1611REMSYN078AAXX  27124 08023 11357 82716 10100 20086 30038 40110 51002 60301 76186 8572/;
0220080230999992000042718004+43470-003820FM-12+006599999V0203101N007210360019N0100001N1+01111+00951101201ADDAA112031091AY181061AY221061GF106991041081004501031021KA1120M+01301KA2999N+00901MA1999999100491MD1310101+9999MW1811REMSYN094AAXX  27184 08023 11460 63114 10111 20095 30049 40120 53010 60312 78182 84832 333 10130 20090;
0161080230999992000042721004+43470-003820FM-12+006599999V0202901N006712200019N0200001N1+01081+00721101341ADDAY181031AY211031GF103991021081004501031001MA1999999100631MD1210141+9999MW1011REMSYN072AAXX  27214 08023 41470 32913 10108 20072 30063 40134 52014 70181 82830;
0178080230999992000042800004+43470-003820FM-12+006599999V0202701N009310120019N0150001N1+01041+00841101291ADDAA106000891AY181061AY211061GF106991061081008001001001MA1999999100581MD1610051+9999MW1251REMSYN078AAXX  28004 08023 11565 62718 10104 20084 30058 40129 56005 69971 72581 86800;
0133080230999992000042803004+43470-003820FM-12+006599999V0202701N009310090019N0150001N1+01061+00861101281ADDGF107991071081004501999999MA1999999100571MD1410001+9999REMSYN066AAXX  28034 08023 42465 72718 10106 20086 30057 40128 54001 878//;
0179080230999992000042806004+43470-003820FM-12+006599999V0202301N005710360019N0250001N1+99999+99999101321ADDAA112000891GF105991041081008001031001KA1120N+00941MA1999999100611MD1310021+9999REMSYN088AAXX  28064 08023 12575 52311 20065 30061 40132 53002 69972 84830 333 20094 50413 55028;
0133080230999992000042809004+43470-003820FM-12+006599999V0202801N005112200019N0300001N1+01201+00701101401ADDGF103991011021008001001041MA1999999100691MD1210071+9999REMSYN066AAXX  28094 08023 42580 32810 10120 20070 30069 40140 52007 81204;
0144080230999992000042812004+43470-003820FM-12+006599999V0203101N005112200019N0300001N1+01261+00681101381ADDAA199000021GF102991011081008001001041MA1999999100671MD1810021+9999REMSYN066AAXX  28124 08023 32580 23110 10126 20068 30067 40138 58002 81804;
0133080230999992000042815004+43470-003820FM-12+006599999V0200401N003112200019N0200001N1+01301+01071101341ADDGF103991011021008001041001MA1999999100631MD1610041+9999REMSYN066AAXX  28154 08023 42570 30406 10130 20107 30063 40134 56004 81240;
0186080230999992000042818004+43470-003820FM-12+006599999V0200901N004612200019N0250001N1+01181+00721101341ADDAA199000091GF103991011051008001031001KA1999M+01361MA1999999100631MD1410001+9999REMSYN076AAXX  28184 08023 32575 30909 10118 20072 30063 40134 54000 81530 333 10136;EQDQ01  00002PRCP99
0133080230999992000042821004+43470-003820FM-12+006599999V0201101N006212200019N0200001N1+01081+00791101281ADDGF104991011051008001071999MA1999999100571MD1810061+9999REMSYN066AAXX  28214 08023 42570 41112 10108 20079 30057 40128 58006 8157/;
0163080230999992000042900004+43470-003820FM-12+006599999V0201401N003110360019N0200001N1+01041+00791101141ADDAA199000091GF108991021051012501071999MA1999999100431MD1610141+9999REMSYN066AAXX  29004 08023 32670 81406 10104 20079 30043 40114 56014 8257/;EQDQ01  00002PRCP99
0133080230999992000042903004+43470-003820FM-12+006599999V0202001N009310360019N0300001N1+01381+00531100971ADDGF107991021051012501071001MA1999999100271MD1810161+9999REMSYN066AAXX  29034 08023 42680 72018 10138 20053 30027 40097 58016 82570;
0198080230999992000042906004+43470-003820FM-12+006599999V0202001N009310360019N0400001N1+01381+00581100931ADDAA199000091GF106991021051012501071021KA1120N+01041MA1999999100231MD1510041+9999REMSYN088AAXX  29064 08023 32682 62018 10138 20058 30023 40093 55004 82572 333 20104 50423 55108;EQDQ01  00002PRCP99
0133080230999992000042909004+43470-003820FM-12+006599999V0202001N009812200019N0500001N1+01641+00841101001ADDGF103991011021008001041021MA1999999100311MD1310081+9999REMSYN066AAXX  29094 08023 42584 32019 10164 20084 30031 40100 53008 81242;
0163080230999992000042912004+43470-003820FM-12+006599999V0201901N009312200019N0500001N1+01921+00941100981ADDAA199000091GF102991011051008001001011MA1999999100291MD1810021+9999REMSYN066AAXX  29124 08023 32584 21918 10192 20094 30029 40098 58002 81501;EQDQ01  00002PRCP99
0133080230999992000042915004+43470-003820FM-12+006599999V0202001N007212200019N0500001N1+02051+01041100951ADDGF102991011011008001001021MA1999999100271MD1810021+9999REMSYN066AAXX  29154 08023 42584 22014 10205 20104 30027 40095 58002 81102;
0186080230999992000042918004+43470-003820FM-12+006599999V0201901N004112200019N0200001N1+01951+01031101021ADDAA199000091GF103991011011008001041021KA1999M+02091MA1999999100331MD1310061+9999REMSYN076AAXX  29184 08023 32570 31908 10195 20103 30033 40102 53006 81142 333 10209;EQDQ01  00002PRCP99
0133080230999992000042921004+43470-003820FM-12+006599999V0201701N004112200019N0150001N1+01731+00951101151ADDGF104991011011008001041021MA1999999100461MD1210131+9999REMSYN066AAXX  29214 08023 42565 41708 10173 20095 30046 40115 52013 81142;
0163080230999992000043000004+43470-003820FM-12+006599999V0201501N002612200019N0150001N1+01571+00911101171ADDAA199000091GF104991011011008001001021MA1999999100471MD1210011+9999REMSYN066AAXX  30004 08023 32565 41505 10157 20091 30047 40117 52001 81102;EQDQ01  00002PRCP99
0133080230999992000043003004+43470-003820FM-12+006599999V0202001N007210900019N0150001N1+01601+00951101201ADDGF105991011011008001031021MA1999999100501MD1210031+9999REMSYN066AAXX  30034 08023 42565 52014 10160 20095 30050 40120 52003 81132;
0198080230999992000043006004+43470-003820FM-12+006599999V0201901N007210900019N0500001N1+01601+00971101231ADDAA199000091GF105991021051008001041021KA1120N+01461MA1999999100531MD1210031+9999REMSYN088AAXX  30064 08023 32584 51914 10160 20097 30053 40123 52003 82542 333 20146 50773 55123;EQDQ01  00002PRCP99
0133080230999992000043009004+43470-003820FM-12+006599999V0202101N005112200019N0500001N1+01941+01161101341ADDGF102991011011008001041001MA1999999100651MD1110121+9999REMSYN066AAXX  30094 08023 42584 22110 10194 20116 30065 40134 51012 81140;
0163080230999992000043012004+43470-003820FM-12+006599999V0200201N002112200019N0500001N1+01631+01511101391ADDAA199000091GF104991021011008001001011MA1999999100691MD1110041+9999REMSYN066AAXX  30124 08023 32584 40204 10163 20151 30069 40139 51004 82101;EQDQ01  00002PRCP99
0133080230999992000043015004+43470-003820FM-12+006599999V0200701N003110360019N0200001N1+01721+01511101361ADDGF107991011011008001051081MA1999999100671MD1610021+9999REMSYN066AAXX  30154 08023 42570 70706 10172 20151 30067 40136 56002 81158;
0186080230999992000043018004+43470-003820FM-12+006599999V0202601N006710360019N0100001N1+01591+01571101331ADDAA199000091GF108991021081008001051081KA1999M+02001MA1999999100631MD1610041+9999REMSYN076AAXX  30184 08023 32560 82613 10159 20157 30063 40133 56004 82858 333 10200;EQDQ01  00002PRCP99
0133080230999992000043021004+43470-003820FM-12+006599999V0202401N002112200019N0100001N1+01521+01381101431ADDGF105991031001017501071081MA1999999100731MD1310101+9999REMSYN066AAXX  30214 08023 42760 52404 10152 20138 30073 40143 53010 83078;
0191080230999992000050100004+43470-003820FM-12+006599999V0201201N002112200019N0080001N1+01401+01361101391ADDAA199000091AY121061AY221061GF104991021001017501071081MA1999999100691MD1810041+9999MW1101REMSYN072AAXX  01004 08023 31758 41204 10140 20136 30069 40139 58004 71022 82078;EQDQ01  00002PRCP99
0171080230999992000050103004+43470-003820FM-12+006599999V0202101N002112200019N0080001N1+01411+01321101351ADDAY101031AY201031GA1001+999999999GF100991001001999999001001MA1999999100651MD1610041+9999MW1101REMSYN066AAXX  01034 08023 41958 02104 10141 20132 30065 40135 56004 71000;
0198080230999992000050106004+43470-003820FM-12+006599999V0201401N001510900019N0120001N1+01461+01081101351ADDAA199000091GF108991021001017501041081KA1120N+01301MA1999999100651MD1410001+9999REMSYN088AAXX  01064 08023 32762 81403 10146 20108 30065 40135 54000 82048 333 20130 50433 55107;EQDQ01  00002PRCP99
0161080230999992000050109004+43470-003820FM-12+006599999V0200901N001010900019N0080001N1+01681+01251101361ADDAY121031AY221031GF107991021001022501041081MA1999999100661MD1110011+9999MW1051REMSYN072AAXX  01094 08023 41858 70902 10168 20125 30066 40136 51001 70522 82048;
0163080230999992000050112004+43470-003820FM-12+006599999V0200901N006210900019N0100001N1+01781+01061101301ADDAA199000091GF107991021001022501031081MA1999999100611MD1710051+9999REMSYN066AAXX  01124 08023 32860 70912 10178 20106 30061 40130 57005 82038;EQDQ01  00002PRCP99
0133080230999992000050115004+43470-003820FM-12+006599999V0200901N005119999999N0200001N1+01701+01231101261ADDGF107991021001999999071021MA1999999100571MD1610041+9999REMSYN066AAXX  01154 08023 42970 70910 10170 20123 30057 40126 56004 82072;
0214080230999992000050118004+43470-003820FM-12+006599999V0201001N005119999999N0080001N1+01541+01271101271ADDAA199000091AY121061AY221061GF106991021001999999071021KA1999M+01901MA1999999100571MD1410001+9999MW1101REMSYN082AAXX  01184 08023 31958 61010 10154 20127 30057 40127 54000 71022 82072 333 10190;EQDQ01  00002PRCP99
0133080230999992000050121004+43470-003820FM-12+006599999V0201201N005119999999N0100001N1+01571+01101101311ADDGF107991041001999999031081MA1999999100611MD1210041+9999REMSYN066AAXX  01214 08023 42960 71210 10157 20110 30061 40131 52004 84038;
0163080230999992000050200004+43470-003820FM-12+006599999V0200901N003112200019N0100001N1+01421+01161101271ADDAA199000091GF103991001001999999001021MA1999999100571MD1710041+9999REMSYN066AAXX  02004 08023 32960 30906 10142 20116 30057 40127 57004 80002;EQDQ01  00002PRCP99
0161080230999992000050203004+43470-003820FM-12+006599999V0203001N002119999999N0080001N1+01491+01271101271ADDAY121031AY211031GF106991041001999999061071MA1999999100571MD1410001+9999MW1101REMSYN072AAXX  02034 08023 41958 63004 10149 20127 30057 40127 54000 71021 84067;
0226080230999992000050206004+43470-003820FM-12+006599999V0202001N001019999999N0080001N1+01421+01181101351ADDAA199000091AY121061AY221061GF107991041001999999061081KA1120N+01351MA1999999100651MD1210081+9999MW1101REMSYN094AAXX  02064 08023 31958 72002 10142 20118 30065 40135 52008 71022 84068 333 20135 50303 55071;EQDQ01  00002PRCP99
0161080230999992000050209004+43470-003820FM-12+006599999V0200901N002619999999N0080001N1+01641+01281101431ADDAY121031AY221031GF107991051001999999061081MA1999999100731MD1310081+9999MW1051REMSYN072AAXX  02094 08023 41958 70905 10164 20128 30073 40143 53008 70522 85068;
0191080230999992000050212004+43470-003820FM-12+006599999V0202701N004110360019N0050001N1+01521+01401101511ADDAA199000091AY121061AY221061GF107991031061012501071081MA1999999100811MD1110081+9999MW1101REMSYN072AAXX  02124 08023 31650 72708 10152 20140 30081 40151 51008 71022 83678;EQDQ01  00002PRCP99
0161080230999992000050215004+43470-003820FM-12+006599999V0202901N004612200019N0060001N1+01561+01381101451ADDAY121031AY211031GF102991021021002501001001MA1999999100751MD1610061+9999MW1101REMSYN072AAXX  02154 08023 41356 22909 10156 20138 30075 40145 56006 71021 82200;
0214080230999992000050218004+43470-003820FM-12+006599999V0202701N006710360019N0080001N1+01481+01361101521ADDAA199000091AY121061AY221061GF107991041061012501081021KA1999M+02051MA1999999100821MD1310071+9999MW1101REMSYN082AAXX  02184 08023 31658 72713 10148 20136 30082 40152 53007 71022 84682 333 10205;EQDQ01  00002PRCP99
0133080230999992000050221004+43470-003820FM-12+006599999V0202501N003612200019N0100001N1+01411+01261101571ADDGF104991041001022501071011MA1999999100871MD1110051+9999REMSYN066AAXX  02214 08023 42860 42507 10141 20126 30087 40157 51005 84071;
0191080230999992000050300004+43470-003820FM-12+006599999V0202901N001010360019N0080001N1+01371+01301101571ADDAA199000091AY121061AY211061GF105991031061008001031001MA1999999100871MD1410001+9999MW1101REMSYN072AAXX  03004 08023 31558 52902 10137 20130 30087 40157 54000 71021 83630;EQDQ01  00002PRCP99
0171080230999992000050303004+43470-003820FM-12+006599999V0202001N001012200019N0050001N1+01261+01191101411ADDAY121031AY201031GA1001+999999999GF100991001001999999001001MA1999999100701MD1810171+9999MW1101REMSYN066AAXX  03034 08023 41950 02002 10126 20119 30070 40141 58017 71020;
0250080230999992000050306004+43470-003820FM-12+006599999V0200401N001510030019N0001001N1+01261+01191101521ADDAA199000091AY141061AY201061GA1091+003009999GF109991091999999999999999GJ103549KA1120N+01201MA1999999100811MD1410001+9999MW1451REMSYN094AAXX  03064 08023 31/01 90403 10126 20119 30081 40152 54000 74540 333 20120 50253 55059 89/10;EQDQ01  00002PRCP99
0171080230999992000050309004+43470-003820FM-12+006599999V0200701N003110006019N0010001N1+01321+01251101491ADDAY141031AY241031GA1091+999999999GF109991091999999999999999MA1999999100781MD1810031+9999MW1431REMSYN066AAXX  03094 08023 41/10 90706 10132 20125 30078 40149 58003 74344;
0201080230999992000050312004+43470-003820FM-12+006599999V0200801N007210006019N0006001N1+01481+01301101331ADDAA199000091AY141061AY201061GA1091+999999999GF109991091999999999999999MA1999999100631MD1710151+9999MW1451REMSYN066AAXX  03124 08023 31/06 90814 10148 20130 30063 40133 57015 74540;EQDQ01  00002PRCP99
0161080230999992000050315004+43470-003820FM-12+006599999V0200801N008210021019N0040001N1+01521+01341101191ADDAY141031AY221031GF107991061061002501001021MA1999999100491MD1710141+9999MW1101REMSYN072AAXX  03154 08023 41340 70816 10152 20134 30049 40119 57014 71042 86602;
0214080230999992000050318004+43470-003820FM-12+006599999V0200801N004612200019N0050001N1+01501+01361101031ADDAA199000091AY141061AY221061GF106991021001017501041061KA1999M+01621MA1999999100331MD1710161+9999MW1101REMSYN082AAXX  03184 08023 31750 60809 10150 20136 30033 40103 57016 71042 82046 333 10162;EQDQ01  00002PRCP99
0161080230999992000050321004+43470-003820FM-12+006599999V0202701N005110150019N0050001N1+01401+01331101081ADDAY121031AY221031GF108991081001017501071999MA1999999100381MD1110051+9999MW1101REMSYN072AAXX  03214 08023 41750 82710 10140 20133 30038 40108 51005 71022 8807/;
0201080230999992000050400004+43470-003820FM-12+006599999V0202701N004110006019N0010001N1+01361+01291101051ADDAA199000091AY121061AY221061GA1091+999999999GF109991091999999999999999MA1999999100351MD1810031+9999MW1451REMSYN066AAXX  04004 08023 31/10 92708 10136 20129 30035 40105 58003 74522;EQDQ01  00002PRCP99
0161080230999992000050403004+43470-003820FM-12+006599999V0202801N003110021019N0030001N1+01381+01311101081ADDAY141031AY221031GF108991081061002501999999MA1999999100381MD1010031+9999MW1101REMSYN072AAXX  04034 08023 41330 82806 10138 20131 30038 40108 50003 71042 886//;
0226080230999992000050406004+43470-003820FM-12+006599999V0201601N003612200019N0015001N1+01341+01301101081ADDAA199000091AY141061AY221061GF106991021081008001001061KA1120N+01281MA1999999100381MD1510001+9999MW1101REMSYN094AAXX  04064 08023 31515 61607 10134 20130 30038 40108 55000 71042 82806 333 20128 50333 55048;EQDQ01  00002PRCP99
0133080230999992000050409004+43470-003820FM-12+006599999V0202601N001510360019N0100001N1+01591+01211101001ADDGF108991031051008001071999MA1999999100301MD1510081+9999REMSYN066AAXX  04094 08023 42560 82603 10159 20121 30030 40100 55008 8357/;
0178080230999992000050412004+43470-003820FM-12+006599999V0201101N001010360019N0200001N1+01871+01141101061ADDAA106000791AY161061AY221061GF108991021051008001071999MA1999999100371MD1210071+9999MW1211REMSYN078AAXX  04124 08023 11570 81102 10187 20114 30037 40106 52007 69901 72162 8257/;
0133080230999992000050415004+43470-003820FM-12+006599999V0201001N003610360019N0300001N1+02161+01251100931ADDGF107991021051008001071999MA1999999100251MD1810121+9999REMSYN066AAXX  04154 08023 42580 71007 10216 20125 30025 40093 58012 8257/;
0201080230999992000050418004+43470-003820FM-12+006599999V0200301N005110360019N0200001N1+01661+01271100951ADDAA112000191AY161061AY221061GF108991031051008001071999KA1999M+02161MA1999999100261MD1310011+9999MW1601REMSYN088AAXX  04184 08023 11570 80310 10166 20127 30026 40095 53001 69912 76062 8357/ 333 10216;
0161080230999992000050421004+43470-003820FM-12+006599999V0202501N004610360019N0200001N1+01521+01321100971ADDAY181031AY261031GF108991041051008001071999MA1999999100271MD1010011+9999MW1021REMSYN072AAXX  04214 08023 41570 82509 10152 20132 30027 40097 50001 70286 8457/;
0178080230999992000050500004+43470-003820FM-12+006599999V0202101N003112200019N0100001N1+01441+01241100991ADDAA106002091AY181061AY261061GF104991041001022501071001MA1999999100291MD1110021+9999MW1021REMSYN078AAXX  05004 08023 11860 42106 10144 20124 30029 40099 51002 60021 70286 84070;
0143080230999992000050503004+43470-003820FM-12+006599999V0202501N004612200019N0100001N1+01411+01191100911ADDGA1001+999999999GF100991001001999999001001MA1999999100211MD1810081+9999REMSYN060AAXX  05034 08023 42960 02509 10141 20119 30021 40091 58008;
0213080230999992000050506004+43470-003820FM-12+006599999V0202701N002112200019N0080001N1+01381+01161100911ADDAA112002091AY111061AY201061GF103991011051012501071031KA1120N+01331MA1999999100211MD1410001+9999MW1101REMSYN100AAXX  05064 08023 11658 32704 10138 20116 30021 40091 54000 60022 71010 81573 333 20133 50113 55005;
0161080230999992000050509004+43470-003820FM-12+006599999V0202701N001012200019N0080001N1+01601+01241100901ADDAY111031AY211031GF103991011051012501041011MA1999999100211MD1410001+9999MW1051REMSYN072AAXX  05094 08023 41658 32702 10160 20124 30021 40090 54000 70511 81541;
0223080230999992000050512004+43470-003820FM-12+006599999V0202701N002612200019N0060001N1+01661+01381100901ADDAA199000091AY111061AY211061GA1011+004509089GF103991021091004501061011MA1999999100211MD1010001+9999MW1171REMSYN088AAXX  05124 08023 31456 32705 10166 20138 30021 40090 50000 71711 82961 333 81894 81995;EQDQ01  00002PRCP99
0193080230999992000050515004+43470-003820FM-12+006599999V0202501N005110360019N0050001N1+01541+01291101071ADDAY121031AY211031GA1011+003009079GF107991041091004501071031MA1999999100371MD1310161+9999MW1951REMSYN088AAXX  05154 08023 41450 72510 10154 20129 30037 40107 53016 79521 84973 333 81710 83940;
0229080230999992000050518004+43470-003820FM-12+006599999V0200101N002610900019N0120001N1+01681+01291100861ADDAA112001091AY191061AY281061GA1011+004509089GF106991021091004501071031KA1120M+01781MA1999999100171MD1610201+9999MW1021REMSYN100AAXX  05184 08023 11462 60105 10168 20129 30017 40086 56020 69992 70298 82973 333 10178 81894 81995;
0133080230999992000050521004+43470-003820FM-12+006599999V0209999V002610360019N0100001N1+01441+01301101001ADDGF107991011011004501071999MA1999999100301MD1210131+9999REMSYN066AAXX  05214 08023 42460 79905 10144 20130 30030 40100 52013 8117/;
0144080230999992000050600004+43470-003820FM-12+006599999V0202301N003110360019N0100001N1+01461+01221101071ADDAA199000021GF105991011011008001071001MA1999999100371MD1110071+9999REMSYN066AAXX  06004 08023 32560 52306 10146 20122 30037 40107 51007 81170;
0133080230999992000050603004+43470-003820FM-12+006599999V0202101N003612200019N0100001N1+01361+01141101001ADDGF102991011001022501031011MA1999999100301MD1810071+9999REMSYN066AAXX  06034 08023 42860 22107 10136 20114 30030 40100 58007 81031;
0198080230999992000050606004+43470-003820FM-12+006599999V0202401N002612200019N0120001N1+01321+01071101071ADDAA199000091GF103991021001022501031011KA1120N+01261MA1999999100371MD1310071+9999REMSYN088AAXX  06064 08023 32862 32405 10132 20107 30037 40107 53007 82031 333 20126 50373 55088;EQDQ01  00002PRCP99
0133080230999992000050609004+43470-003820FM-12+006599999V0203301N003112200019N0150001N1+01541+01211101111ADDGF102991011021012501001011MA1999999100411MD1310041+9999REMSYN066AAXX  06094 08023 42665 23306 10154 20121 30041 40111 53004 81201;
0191080230999992000050612004+43470-003820FM-12+006599999V0200301N002110042019N0080001N1+01501+01321101151ADDAA199000091AY141061AY221061GF107991071061004501001001MA1999999100451MD1110041+9999MW1101REMSYN072AAXX  06124 08023 31458 70304 10150 20132 30045 40115 51004 71042 87600;EQDQ01  00002PRCP99
0161080230999992000050615004+43470-003820FM-12+006599999V0200101N002110360019N0070001N1+01501+01301101151ADDAY121031AY221031GF106991041091008001061031MA1999999100451MD1410001+9999MW1101REMSYN072AAXX  06154 08023 41557 60104 10150 20130 30045 40115 54000 71022 84963;
0214080230999992000050618004+43470-003820FM-12+006599999V0200701N002610360019N0060001N1+01401+01251101071ADDAA199000091AY121061AY221061GF107991041061004501071031KA1999M+01581MA1999999100371MD1610081+9999MW1101REMSYN082AAXX  06184 08023 31456 70705 10140 20125 30037 40107 56008 71022 84673 333 10158;EQDQ01  00002PRCP99
0161080230999992000050621004+43470-003820FM-12+006599999V0200601N002610042019N0060001N1+01371+01241101211ADDAY121031AY221031GF107991071071004501999999MA1999999100511MD1310141+9999MW1101REMSYN072AAXX  06214 08023 41456 70605 10137 20124 30051 40121 53014 71022 877//;
0191080230999992000050700004+43470-003820FM-12+006599999V0203201N002610042019N0080001N1+01381+01161101271ADDAA199000091AY121061AY221061GF108991081061004501999999MA1999999100571MD1110061+9999MW1101REMSYN072AAXX  07004 08023 31458 83205 10138 20116 30057 40127 51006 71022 886//;EQDQ01  00002PRCP99
0161080230999992000050703004+43470-003820FM-12+006599999V0209999C000010042019N0070001N1+01351+01161101171ADDAY121031AY221031GF108991081061004501999999MA1999999100471MD1810101+9999MW1101REMSYN072AAXX  07034 08023 41457 80000 10135 20116 30047 40117 58010 71022 886//;
0226080230999992000050706004+43470-003820FM-12+006599999V0200801N002610042019N0040001N1+01351+01181101211ADDAA199000091AY121061AY221061GF108991081061004501999999KA1120N+01331MA1999999100511MD1310041+9999MW1101REMSYN094AAXX  07064 08023 31440 80805 10135 20118 30051 40121 53004 71022 886// 333 20133 50273 55065;EQDQ01  00002PRCP99
0161080230999992000050709004+43470-003820FM-12+006599999V0200501N002610075019N0090001N1+01421+01241101281ADDAY121031AY221031GF108991051061008001021999MA1999999100581MD1210071+9999MW1101REMSYN072AAXX  07094 08023 41559 80505 10142 20124 30058 40128 52007 71022 8562/;
0191080230999992000050712004+43470-003820FM-12+006599999V0200601N003110075019N0080001N1+01521+01271101291ADDAA199000091AY121061AY221061GF108991071061008001021999MA1999999100591MD1110011+9999MW1101REMSYN072AAXX  07124 08023 31558 80606 10152 20127 30059 40129 51001 71022 8762/;EQDQ01  00002PRCP99
0161080230999992000050715004+43470-003820FM-12+006599999V0200201N001510360019N0070001N1+01561+01271101271ADDAY121031AY221031GF106991041061008001071001MA1999999100571MD1610021+9999MW1101REMSYN072AAXX  07154 08023 41557 60203 10156 20127 30057 40127 56002 71022 84670;
0201080230999992000050718004+43470-003820FM-12+006599999V0200801N003610075019N0080001N1+01511+01391101271ADDAA112000191AY121061AY221061GF108991051061008001071999KA1999M+01641MA1999999100571MD1410001+9999MW1251REMSYN088AAXX  07184 08023 11558 80807 10151 20139 30057 40127 54000 69922 72522 8567/ 333 10164;
0161080230999992000050721004+43470-003820FM-12+006599999V0209999C000010360019N0080001N1+01471+01341101371ADDAY121031AY221031GF108991041061008001071999MA1999999100671MD1310101+9999MW1101REMSYN072AAXX  07214 08023 41558 80000 10147 20134 30067 40137 53010 71022 8467/;
0172080230999992000050800004+43470-003820FM-12+006599999V0201101N002610360019N0080001N1+01361+01271101371ADDAA199000021AY121061AY221061GF106991041061008001071001MA1999999100671MD1410001+9999MW1101REMSYN072AAXX  08004 08023 31558 61105 10136 20127 30067 40137 54000 71022 84670;
0171080230999992000050803004+43470-003820FM-12+006599999V0200901N002112200019N0090001N1+01321+01231101291ADDAY111031AY201031GA1001+999999999GF100991001001999999001001MA1999999100591MD1810081+9999MW1101REMSYN066AAXX  08034 08023 41959 00904 10132 20123 30059 40129 58008 71010;
0207080230999992000050806004+43470-003820FM-12+006599999V0201301N001512200019N0010001N1+01311+01251101371ADDAA199000021AY111061AY201061GF104991021061008001081091KA1120N+01251MA1999999100671MD1310081+9999MW1101REMSYN094AAXX  08064 08023 31510 41303 10131 20125 30067 40137 53008 71010 82689 333 20125 50233 55012;
0161080230999992000050809004+43470-003820FM-12+006599999V0200501N001510360019N0050001N1+01501+01301101471ADDAY141031AY221031GF105991021061004501071001MA1999999100771MD1210101+9999MW1101REMSYN072AAXX  08094 08023 41450 50503 10150 20130 30077 40147 52010 71042 82670;
0191080230999992000050812004+43470-003820FM-12+006599999V0200301N003612200019N0050001N1+01661+01421101471ADDAA199000091AY141061AY211061GF104991011021008001001041MA1999999100771MD1010001+9999MW1101REMSYN072AAXX  08124 08023 31550 40307 10166 20142 30077 40147 50000 71041 81204;EQDQ01  00002PRCP99
0161080230999992000050815004+43470-003820FM-12+006599999V0200601N002110360019N0050001N1+01681+01441101431ADDAY111031AY211031GF105991041091008001091031MA1999999100731MD1710041+9999MW1171REMSYN072AAXX  08154 08023 41550 50604 10168 20144 30073 40143 57004 71711 84993;
0229080230999992000050818004+43470-003820FM-12+006599999V0200401N00461036001CN0080001N1+01661+01421101411ADDAA112000791AY161061AY221061GA1021+015009069GF105991041091008001091001KA1120M+01781MA1999999100711MD1510021+9999MW1101REMSYN100AAXX  08184 08023 11558 50409 10166 20142 30071 40141 55002 69902 71062 84990 333 10178 82650 84940;
0161080230999992000050821004+43470-003820FM-12+006599999V0200701N003110900019N0090001N1+01471+01271101551ADDAY121031AY221031GF105991031001017501061021MA1999999100851MD1210141+9999MW1101REMSYN072AAXX  08214 08023 41759 50706 10147 20127 30085 40155 52014 71022 83062;
0191080230999992000050900004+43470-003820FM-12+006599999V0202401N005112200019N0090001N1+01411+01231101511ADDAA199000091AY101061AY201061GF103991011001017501031021MA1999999100811MD1710041+9999MW1101REMSYN072AAXX  09004 08023 31759 32410 10141 20123 30081 40151 57004 71000 81032;EQDQ01  00002PRCP99
0161080230999992000050903004+43470-003820FM-12+006599999V0201501N003110360019N0080001N1+01441+01261101521ADDAY121031AY201031GF107991031051008001071999MA1999999100821MD1310011+9999MW1101REMSYN072AAXX  09034 08023 41558 71506 10144 20126 30082 40152 53001 71020 8357/;
0220080230999992000050906004+43470-003820FM-12+006599999V0202001N002112200019N0060001N1+01421+01271101521ADDAA199000091AY101061AY201061GF104991011001017501041021KA1120N+01361MA1999999100821MD1410001+9999MW1101REMSYN088AAXX  09064 08023 31756 42004 10142 20127 30082 40152 54000 71000 81042 333 20136 55076;EQDQ01  00002PRCP99
0161080230999992000050909004+43470-003820FM-12+006599999V0203201N002112200019N0060001N1+01581+01371101511ADDAY111031AY201031GF104991011021008001041021MA1999999100811MD1410001+9999MW1101REMSYN072AAXX  09094 08023 41556 43204 10158 20137 30081 40151 54001 71010 81242;
0163080230999992000050912004+43470-003820FM-12+006599999V0200201N004112200019N0100001N1+01641+01361101511ADDAA199000091GF104991011021008001041021MA1999999100811MD1010001+9999REMSYN066AAXX  09124 08023 32560 40208 10164 20136 30081 40151 50000 81242;EQDQ01  00002PRCP99
0133080230999992000050915004+43470-003820FM-12+006599999V0200301N003112200019N0100001N1+01691+01451101431ADDGF103991021021008001041031MA1999999100731MD1710081+9999REMSYN066AAXX  09154 08023 42560 30306 10169 20145 30073 40143 57008 82243;
0214080230999992000050918004+43470-003820FM-12+006599999V0203501N00101004201CN0100001N1+01561+01381101411ADDAA199000091GA1011+004809069GF106991051091004501001031KA1120M+01751MA1999999100711MD1610021+9999REMSYN088AAXX  09184 08023 32460 63502 10156 20138 30071 40141 56002 85903 333 10175 81616 84932;EQDQ01  00002PRCP99
0133080230999992000050921004+43470-003820FM-12+006599999V0203501N002610090019N0100001N1+01501+01391101471ADDGF106991061081004501999999MA1999999100771MD1110061+9999REMSYN066AAXX  09214 08023 42460 63505 10150 20139 30077 40147 51006 868//;
0163080230999992000051000004+43470-003820FM-12+006599999V0200301N003110042019N0100001N1+01481+01371101431ADDAA199000091GF108991081051004501999999MA1999999100731MD1610041+9999REMSYN066AAXX  10004 08023 32460 80306 10148 20137 30073 40143 56004 885//;EQDQ01  00002PRCP99
0133080230999992000051003004+43470-003820FM-12+006599999V0209999C000010042019N0100001N1+01461+01351101351ADDGF108991081051004501999999MA1999999100651MD1610081+9999REMSYN066AAXX  10034 08023 42460 80000 10146 20135 30065 40135 56008 885//;
0213080230999992000051006004+43470-003820FM-12+006599999V0202401N002610360019N0060001N1+01401+01311101321ADDAA112001091AY161061AY221061GF108991031051004501071999KA1120N+01401MA1999999100621MD1710031+9999MW1581REMSYN100AAXX  10064 08023 11456 82405 10140 20131 30062 40132 57003 60012 75862 8357/ 333 20140 50193 55106;
0171080230999992000051009004+43470-003820FM-12+006599999V0202501N004610360019N0070001N1+01521+01381101391ADDAY161031AY221031GF107991041081008001071999MA1999999100691MD1310071+9999MW1211REMSYN082AAXX  10094 08023 41557 72509 10152 20138 30069 40139 53007 72162 8487/ 333 96010;
0178080230999992000051012004+43470-003820FM-12+006599999V0200101N004110360019N0070001N1+01501+01391101361ADDAA106000191AY161061AY221061GF108991041061004501071999MA1999999100661MD1810031+9999MW1101REMSYN078AAXX  10124 08023 11457 80108 10150 20139 30066 40136 58003 69911 71062 8467/;
0133080230999992000051015004+43470-003820FM-12+006599999V0203601N002610360019N0100001N1+01561+01311101291ADDGF107991041081008001071081MA1999999100591MD1710071+9999REMSYN066AAXX  10154 08023 42560 73605 10156 20131 30059 40129 57007 84878;
0173080230999992000051018004+43470-003820FM-12+006599999V0203001N003110360019N0100001N1+01491+01271101311ADDAA112000191GF107991041081008001031081KA1999M+01661MA1999999100611MD1310021+9999REMSYN082AAXX  10184 08023 12560 73006 10149 20127 30061 40131 53002 69912 84838 333 10166;
0133080230999992000051021004+43470-003820FM-12+006599999V0202801N004110360019N0100001N1+01461+01241101351ADDGF107991041081008001031081MA1999999100651MD1210041+9999REMSYN066AAXX  10214 08023 42560 72808 10146 20124 30065 40135 52004 84838;
0163080230999992000051100004+43470-003820FM-12+006599999V0202901N004110360019N0100001N1+01441+01201101351ADDAA199000091GF107991041081008001031081MA1999999100651MD1410001+9999REMSYN066AAXX  11004 08023 32560 72908 10144 20120 30065 40135 54000 84838;EQDQ01  00002PRCP99
0133080230999992000051103004+43470-003820FM-12+006599999V0202601N002610360019N0100001N1+01411+01191101391ADDGF108991041051008001071999MA1999999100631MD1210021+9999REMSYN066AAXX  11034 08023 42560 82605 10141 20119 30063 40139 52002 8457/;
0226080230999992000051106004+43470-003820FM-12+006599999V0202401N003610042019N0050001N1+01401+01231101391ADDAA199000091AY121061AY221061GF108991081061004501999999KA1120N+01381MA1999999100691MD1210061+9999MW1101REMSYN094AAXX  11064 08023 31450 82407 10140 20123 30069 40139 52006 71022 886// 333 20138 50453 55013;EQDQ01  00002PRCP99
0161080230999992000051109004+43470-003820FM-12+006599999V0202701N003610360019N0090001N1+01601+01301101471ADDAY121031AY221031GF106991031061008001051001MA1999999100771MD1110081+9999MW1101REMSYN072AAXX  11094 08023 41559 62707 10160 20130 30077 40147 51008 71022 83650;
0163080230999992000051112004+43470-003820FM-12+006599999V0203301N003110075019N0100001N1+01611+01311101511ADDAA199000091GF107991051061008001051001MA1999999100811MD1210041+9999REMSYN066AAXX  11124 08023 32560 73306 10161 20131 30081 40151 52004 85650;EQDQ01  00002PRCP99
0201080230999992000051118004+43470-003820FM-12+006599999V0203201N002110360019N0060001N1+01501+01321101671ADDAA112002091AY181061AY221061GF108991031081008001071001KA1999M+01691MA1999999100971MD1210141+9999MW1101REMSYN088AAXX  11184 08023 11556 83204 10150 20132 30097 40167 52014 60022 71082 83870 333 10169;
0161080230999992000051121004+43470-003820FM-12+006599999V0202401N001010360019N0080001N1+01411+01281101771ADDAY161031AY221031GF108991021081008001071001MA1999999101071MD1210101+9999MW1101REMSYN072AAXX  11214 08023 41558 82402 10141 20128 30107 40177 52010 71062 82870;
0178080230999992000051200004+43470-003820FM-12+006599999V0201101N002112200019N0060001N1+01321+01251101801ADDAA106003091AY161061AY221061GF102991021061004501001001MA1999999101091MD1010021+9999MW1101REMSYN078AAXX  12004 08023 11456 21104 10132 20125 30109 40180 50002 60031 71062 82600;
0161080230999992000051203004+43470-003820FM-12+006599999V0201401N002112200019N0060001N1+01231+01151101771ADDAY111031AY201031GF102991021061004501001001MA1999999101061MD1610031+9999MW1101REMSYN072AAXX  12034 08023 41456 21404 10123 20115 30106 40177 56003 71010 82600;
0226080230999992000051206004+43470-003820FM-12+006599999V0201201N002110360019N0050001N1+01281+01131101811ADDAA199000091AY121061AY211061GF106991031081012501031001KA1120N+01201MA1999999101101MD1210041+9999MW1101REMSYN094AAXX  12064 08023 31650 61204 10128 20113 30110 40181 52004 71021 83830 333 20120 50063 55030;EQDQ01  00002PRCP99
0161080230999992000051209004+43470-003820FM-12+006599999V0201201N001012200019N0080001N1+01601+01241101871ADDAY141031AY221031GF104991011081012501091051MA1999999101171MD1110071+9999MW1051REMSYN072AAXX  12094 08023 41658 41202 10160 20124 30117 40187 51007 70542 81895;
0191080230999992000051212004+43470-003820FM-12+006599999V0200701N005712200019N0060001N1+01741+01501101831ADDAA199000091AY111061AY221061GF104991021021012501041021MA1999999101131MD1810041+9999MW1101REMSYN072AAXX  12124 08023 31656 40711 10174 20150 30113 40183 58004 71012 82242;EQDQ01  00002PRCP99
0187080230999992000051215004+43470-003820FM-12+006599999V0203601N002610045019N0070001N1+01581+01371101771ADDAY121031AY211031GA1051+004509099GF107991061031008001041031MA1999999101071MD1810061+9999MW1101REMSYN082AAXX  12154 08023 41557 73605 10158 20137 30107 40177 58006 71021 86343 333 85994;
0236080230999992000051218004+43470-003820FM-12+006599999V0200101N001010360019N0070001N1+01601+01421101831ADDAA199000091AY121061AY211061GA1031+008009099GF105991041091008001041031KA1120M+01841MA1999999101131MD1310061+9999MW1101REMSYN088AAXX  12184 08023 31557 50102 10160 20142 30113 40183 53006 71021 84943 333 10184 83995;EQDQ01  00002PRCP99
0161080230999992000051221004+43470-003820FM-12+006599999V0201101N002612200019N0040001N1+01531+01481101871ADDAY121031AY211031GF104991041061004501001001MA1999999101171MD1210041+9999MW1101REMSYN072AAXX  12214 08023 41440 41105 10153 20148 30117 40187 52004 71021 84600;
0201080230999992000051300004+43470-003820FM-12+006599999V0201301N002612200019N0040001N1+01401+01351101901ADDAA199000091AY111061AY201061GA1001+999999999GF100991001001999999001001MA1999999101191MD1010021+9999MW1101REMSYN066AAXX  13004 08023 31940 01305 10140 20135 30119 40190 50002 71010;EQDQ01  00002PRCP99
0171080230999992000051303004+43470-003820FM-12+006599999V0201301N002112200019N0060001N1+01361+01321101881ADDAY101031AY201031GA1001+999999999GF100991001001999999001001MA1999999101171MD1610021+9999MW1101REMSYN066AAXX  13034 08023 41956 01304 10136 20132 30117 40188 56002 71000;
0236080230999992000051306004+43470-003820FM-12+006599999V0201901N001012200019N0050001N1+01371+01221101891ADDAA199000091AY141061AY201061GA1001+999999999GF100991001001999999001001KA1120N+01291MA1999999101181MD1410001+9999MW1111REMSYN088AAXX  13064 08023 31950 01902 10137 20122 30118 40189 54001 71140 333 20129 50363 55062;EQDQ01  00002PRCP99
0161080230999992000051309004+43470-003820FM-12+006599999V0200701N002112200019N0050001N1+01721+01441101911ADDAY101031AY201031GF101991001001999999001011MA1999999101211MD1110021+9999MW1101REMSYN072AAXX  13094 08023 41950 10704 10172 20144 30121 40191 51002 71000 80001;
0191080230999992000051312004+43470-003820FM-12+006599999V0200701N005112200019N0080001N1+01841+01501101871ADDAA199000091AY101061AY201061GF102991011021008001001011MA1999999101181MD1810031+9999MW1101REMSYN072AAXX  13124 08023 31558 20710 10184 20150 30118 40187 58003 71000 81201;EQDQ01  00002PRCP99
0133080230999992000051315004+43470-003820FM-12+006599999V0200701N006212200019N0100001N1+01841+01521101861ADDGF103991011021008001001011MA1999999101171MD1610011+9999REMSYN066AAXX  13154 08023 42560 30712 10184 20152 30117 40186 56001 81201;
0186080230999992000051318004+43470-003820FM-12+006599999V0200701N005112200019N0100001N1+01761+01521101851ADDAA199000091GF101991011011008001001001KA1999M+01921MA1999999101151MD1610021+9999REMSYN076AAXX  13184 08023 32560 10710 10176 20152 30115 40185 56002 81100 333 10192;EQDQ01  00002PRCP99
0143080230999992000051321004+43470-003820FM-12+006599999V0200701N002612200019N0100001N1+01621+01371101951ADDGA1001+999999999GF100991001001999999001001MA1999999101251MD1310101+9999REMSYN060AAXX  13214 08023 42960 00705 10162 20137 30125 40195 53010;
0173080230999992000051400004+43470-003820FM-12+006599999V0202501N004112200019N0100001N1+01561+01461101961ADDAA199000091GA1001+999999999GF100991001001999999001001MA1999999101261MD1410001+9999REMSYN060AAXX  14004 08023 32960 02508 10156 20146 30126 40196 54001;EQDQ01  00002PRCP99
0171080230999992000051403004+43470-003820FM-12+006599999V0202501N003610001519N0001001N1+01501+01501101921ADDAY141031AY201031GA1091+999999999GF109991091999999999999999MA1999999101221MD1710041+9999MW1451REMSYN066AAXX  14034 08023 41/01 92507 10150 20150 30122 40192 57004 74540;
0236080230999992000051406004+43470-003820FM-12+006599999V0202301N001010001519N0000001N1+01431+01411101931ADDAA199000091AY141061AY241061GA1091+999999999GF109991091999999999999999KA1120N+01431MA1999999101221MD1410001+9999MW1451REMSYN088AAXX  14064 08023 31/00 92302 10143 20141 30122 40193 54000 74544 333 20143 50433 55135;EQDQ01  00002PRCP99
0171080230999992000051409004+43470-003820FM-12+006599999V0202901N002110006019N0006001N1+01511+01481101951ADDAY141031AY241031GA1091+999999999GF109991091999999999999999MA1999999101251MD1110031+9999MW1431REMSYN066AAXX  14094 08023 41/06 92904 10151 20148 30125 40195 51003 74344;
0201080230999992000051412004+43470-003820FM-12+006599999V0202801N004110006019N0010001N1+01581+01461101921ADDAA199000091AY141061AY241061GA1091+999999999GF109991091999999999999999MA1999999101221MD1710031+9999MW1401REMSYN066AAXX  14124 08023 31/10 92808 10158 20146 30122 40192 57003 74044;EQDQ01  00002PRCP99
0161080230999992000051415004+43470-003820FM-12+006599999V0202901N004110021019N0050001N1+01571+01431101891ADDAY141031AY241031GF108991081061002501999999MA1999999101191MD1710031+9999MW1101REMSYN072AAXX  14154 08023 41350 82908 10157 20143 30119 40189 57003 71044 886//;
0214080230999992000051418004+43470-003820FM-12+006599999V0202701N006210021019N0020001N1+01481+01321101921ADDAA199000091AY121061AY221061GF108991081061002501001001KA1999M+01651MA1999999101221MD1210031+9999MW1101REMSYN082AAXX  14184 08023 31320 82712 10148 20132 30122 40192 52003 71022 88600 333 10165;EQDQ01  00002PRCP99
0161080230999992000051421004+43470-003820FM-12+006599999V0202601N007210021019N0040001N1+01511+01311102041ADDAY121031AY221031GF108991081061002501001001MA1999999101341MD1210121+9999MW1101REMSYN072AAXX  14214 08023 41340 82614 10151 20131 30134 40204 52012 71022 88600;
0191080230999992000051500004+43470-003820FM-12+006599999V0202501N005710021019N0060001N1+01481+01301101991ADDAA199000091AY121061AY221061GF108991081061002501001001MA1999999101291MD1810051+9999MW1101REMSYN072AAXX  15004 08023 31356 82511 10148 20130 30129 40199 58005 71022 88600;EQDQ01  00002PRCP99
0161080230999992000051503004+43470-003820FM-12+006599999V0202301N004110021019N0060001N1+01481+01301101951ADDAY121031AY221031GF108991081061002501001001MA1999999101251MD1710041+9999MW1101REMSYN072AAXX  15034 08023 41356 82308 10148 20130 30125 40195 57004 71022 88600;
0226080230999992000051506004+43470-003820FM-12+006599999V0202501N004610021019N0060001N1+01501+01301101961ADDAA199000091AY121061AY221061GF108991081061002501001001KA1120N+01451MA1999999101261MD1310011+9999MW1101REMSYN094AAXX  15064 08023 31356 82509 10150 20130 30126 40196 53001 71022 88600 333 20145 50213 55001;EQDQ01  00002PRCP99
0161080230999992000051509004+43470-003820FM-12+006599999V0202601N005710042019N0060001N1+01541+01321102011ADDAY161031AY221031GF108991081061004501999999MA1999999101311MD1110051+9999MW1101REMSYN072AAXX  15094 08023 41456 82611 10154 20132 30131 40201 51005 71062 886//;
0178080230999992000051512004+43470-003820FM-12+006599999V0202601N006210042019N0090001N1+01701+01381101951ADDAA106000791AY161061AY221061GF107991071061004501001001MA1999999101251MD1810061+9999MW1101REMSYN078AAXX  15124 08023 11459 72612 10170 20138 30125 40195 58006 69901 71062 87600;
0193080230999992000051515004+43470-003820FM-12+006599999V0202601N00511090001CN0060001N1+01661+01401101921ADDAY121031AY221031GA1021+004509079GF106991031031008001001081MA1999999101221MD1810031+9999MW1101REMSYN088AAXX  15154 08023 41556 62610 10166 20140 30122 40192 58003 71022 83308 333 82794 83995;
0201080230999992000051518004+43470-003820FM-12+006599999V0202601N006210042019N0080001N1+01541+01401101891ADDAA112000791AY121061AY221061GF108991081061004501999999KA1999M+01751MA1999999101191MD1710031+9999MW1101REMSYN088AAXX  15184 08023 11458 82612 10154 20140 30119 40189 57003 69902 71022 886// 333 10175;
0133080230999992000051521004+43470-003820FM-12+006599999V0202601N005710042019N0100001N1+01481+01301101951ADDGF105991051061004501001001MA1999999101251MD1110061+9999REMSYN066AAXX  15214 08023 42460 52611 10148 20130 30125 40195 51006 85600;
0191080230999992000051600004+43470-003820FM-12+006599999V0202501N004110042019N0090001N1+01461+01321101891ADDAA199000091AY121061AY221061GF108991081061004501999999MA1999999101191MD1810061+9999MW1101REMSYN072AAXX  16004 08023 31459 82508 10146 20132 30119 40189 58006 71022 886//;EQDQ01  00002PRCP99
0133080230999992000051603004+43470-003820FM-12+006599999V0202601N002612200019N0100001N1+01401+01251101801ADDGF104991021061004501001031MA1999999101091MD1810101+9999REMSYN066AAXX  16034 08023 42460 42605 10140 20125 30109 40180 58010 82603;
0198080230999992000051606004+43470-003820FM-12+006599999V0202401N001510120019N0100001N1+01441+01281101751ADDAA199000091GF107991061081008001001091KA1120N+01361MA1999999101051MD1610041+9999REMSYN088AAXX  16064 08023 32560 72403 10144 20128 30105 40175 56004 86809 333 20136 50383 55027;EQDQ01  00002PRCP99
0133080230999992000051609004+43470-003820FM-12+006599999V0209999V001510090019N0100001N1+01561+01311101751ADDGF108991081081004501999999MA1999999101051MD1010001+9999REMSYN066AAXX  16094 08023 42460 89903 10156 20131 30105 40175 50000 888//;
0163080230999992000051612004+43470-003820FM-12+006599999V0202701N004110090019N0120001N1+01551+01281101761ADDAA199000091GF108991081081004501999999MA1999999101061MD1110011+9999REMSYN066AAXX  16124 08023 32462 82708 10155 20128 30106 40176 51001 888//;EQDQ01  00002PRCP99
0161080230999992000051615004+43470-003820FM-12+006599999V0202501N005110090019N0050001N1+01471+01271101891ADDAY121031AY221031GF108991061081004501071001MA1999999101191MD1110131+9999MW1601REMSYN072AAXX  16154 08023 41450 82510 10147 20127 30119 40189 51013 76022 86870;
0201080230999992000051618004+43470-003820FM-12+006599999V0209999V005110360019N0120001N1+01391+01091101841ADDAA112001091AY161061AY221061GF108991031081004501071999KA1999M+01581MA1999999101131MD1510061+9999MW1021REMSYN088AAXX  16184 08023 11462 89910 10139 20109 30113 40184 55006 69992 70262 8387/ 333 10158;
0133080230999992000051621004+43470-003820FM-12+006599999V0202301N003110090019N0100001N1+01381+01161102001ADDGF108991061081004501071999MA1999999101291MD1310161+9999REMSYN066AAXX  16214 08023 42460 82306 10138 20116 30129 40200 53016 8687/;
0133080230999992000051703004+43470-003820FM-12+006599999V0202401N003110090019N0100001N1+01361+01111102041ADDGF108991061081004501071999MA1999999101331MD1410001+9999REMSYN066AAXX  17034 08023 42460 82406 10136 20111 30133 40204 54000 8687/;
0226080230999992000051706004+43470-003820FM-12+006599999V0202301N003110360019N0090001N1+01401+01121102081ADDAA199000091AY121061AY221061GF108991011081004501071999KA1120N+01351MA1999999101371MD1310041+9999MW1101REMSYN094AAXX  17064 08023 31459 82306 10140 20112 30137 40208 53004 71022 8187/ 333 20135 50183 55000;EQDQ01  00002PRCP99
0133080230999992000051709004+43470-003820FM-12+006599999V0202701N003610120019N0180001N1+01541+01251102171ADDGF107991071081008001999999MA1999999101471MD1210091+9999REMSYN066AAXX  17094 08023 42568 72707 10154 20125 30147 40217 52009 878//;
0163080230999992000051712004+43470-003820FM-12+006599999V0200201N003610090019N0180001N1+01511+01241102201ADDAA199000091GF108991081081004501999999MA1999999101491MD1110021+9999REMSYN066AAXX  17124 08023 32468 80207 10151 20124 30149 40220 51002 888//;EQDQ01  00002PRCP99
0161080230999992000051715004+43470-003820FM-12+006599999V0200101N003110090019N0100001N1+01441+01081102201ADDAY121031AY221031GF108991081081004501999999MA1999999101491MD1410001+9999MW1501REMSYN072AAXX  17154 08023 41460 80106 10144 20108 30149 40220 54000 75022 888//;
0201080230999992000051718004+43470-003820FM-12+006599999V0203301N002110090019N0180001N1+01431+00851102181ADDAA112000791AY151061AY221061GF108991081081004501999999KA1999M+01571MA1999999101471MD1810021+9999MW1021REMSYN088AAXX  17184 08023 11468 83304 10143 20085 30147 40218 58002 69902 70252 888// 333 10157;
0127080230999992000051721004+43470-003820FM-12+006599999V0202901N001010090019N0150001N1+01401+99999102221ADDGF108991081081004501999999MA1999999101511MD1310041+9999REMSYN060AAXX  17214 08023 42465 82902 10140 30151 40222 53004 888//;
0144080230999992000051800004+43470-003820FM-12+006599999V0202401N002110090019N0180001N1+01321+01071102161ADDAA199000021GF108991081081004501999999MA1999999101451MD1810061+9999REMSYN066AAXX  18004 08023 32468 82404 10132 20107 30145 40216 58006 888//;
0161080230999992000051803004+43470-003820FM-12+006599999V0202201N002610042019N0100001N1+01301+01111102081ADDAY121031AY221031GF108991081061004501999999MA1999999101371MD1710081+9999MW1501REMSYN072AAXX  18034 08023 41460 82205 10130 20111 30137 40208 57008 75022 886//;
0213080230999992000051806004+43470-003820FM-12+006599999V0202301N003110021019N0040001N1+01201+01061102041ADDAA112000791AY151061AY221061GF108991081061002501999999KA1120N+01181MA1999999101331MD1510041+9999MW1501REMSYN100AAXX  18064 08023 11340 82306 10120 20106 30133 40204 55004 69902 75052 886// 333 20118 50113 55000;
0161080230999992000051809004+43470-003820FM-12+006599999V0202101N002610090019N0120001N1+01301+01151102081ADDAY151031AY251031GF108991081081004501999999MA1999999101371MD1110041+9999MW1021REMSYN072AAXX  18094 08023 41462 82105 10130 20115 30137 40208 51004 70255 888//;
0178080230999992000051812004+43470-003820FM-12+006599999V0202601N003610360019N0120001N1+01461+01041102081ADDAA106000191AY151061AY221061GF106991041081004501031001MA1999999101371MD1410001+9999MW1021REMSYN078AAXX  18124 08023 11462 62607 10146 20104 30137 40208 54000 69911 70252 84830;
0133080230999992000051815004+43470-003820FM-12+006599999V0202601N005712200019N0200001N1+01561+00851102051ADDGF101991011011008001001001MA1999999101351MD1710021+9999REMSYN066AAXX  18154 08023 42570 12611 10156 20085 30135 40205 57002 81100;
0173080230999992000051818004+43470-003820FM-12+006599999V0203001N005110360019N0140001N1+01471+00881102051ADDAA112001091GF107991031081008001031999KA1999M+01651MA1999999101341MD1510011+9999REMSYN082AAXX  18184 08023 12564 73010 10147 20088 30134 40205 55001 60012 8383/ 333 10165;
0133080230999992000051821004+43470-003820FM-12+006599999V0203401N004610360019N0100001N1+01381+01141102081ADDGF107991031081008001031999MA1999999101371MD1310031+9999REMSYN066AAXX  18214 08023 42560 73409 10138 20114 30137 40208 53003 8383/;
0163080230999992000051900004+43470-003820FM-12+006599999V0202901N002110360019N0100001N1+01361+01091102091ADDAA199000091GF108991031011004501071999MA1999999101381MD1110011+9999REMSYN066AAXX  19004 08023 32460 82904 10136 20109 30138 40209 51001 8317/;EQDQ01  00002PRCP99
0198080230999992000051906004+43470-003820FM-12+006599999V0202301N002110090019N0140001N1+01281+00921102081ADDAA199000091GF108991061081004501071999KA1120N+01281MA1999999101371MD1310031+9999REMSYN088AAXX  19064 08023 32464 82304 10128 20092 30137 40208 53003 8687/ 333 20128 50243 55043;EQDQ01  00002PRCP99
0161080230999992000051909004+43470-003820FM-12+006599999V0203201N002610120019N0200001N1+01461+00821102101ADDAY181031AY221031GF106991061081008001001001MA1999999101391MD1110021+9999MW1011REMSYN072AAXX  19094 08023 41570 63205 10146 20082 30139 40210 51002 70182 86800;
0150080230999992000051912004+43470-003820FM-12+006599999V0203501N002612200019N0300001N1+01541+00831102071ADDAA106000791GF102991021081012501001001MA1999999101371MD1810021+9999REMSYN072AAXX  19124 08023 12680 23505 10154 20083 30137 40207 58002 69901 82800;
0133080230999992000051915004+43470-003820FM-12+006599999V0203601N003612200019N0250001N1+01591+00751102011ADDGF103991021081012501081041MA1999999101311MD1810061+9999REMSYN066AAXX  19154 08023 42675 33607 10159 20075 30131 40201 58006 82884;
0186080230999992000051918004+43470-003820FM-12+006599999V0200201N002612200019N0250001N1+01461+00821101971ADDAA199000091GF105991011041012501001061KA1999M+01641MA1999999101261MD1710051+9999REMSYN076AAXX  19184 08023 32675 50205 10146 20082 30126 40197 57005 81406 333 10164;EQDQ01  00002PRCP99
0133080230999992000051921004+43470-003820FM-12+006599999V0200601N002112200019N0200001N1+01341+00861101941ADDGF104991011051012501001081MA1999999101231MD1610031+9999REMSYN066AAXX  19214 08023 42670 40604 10134 20086 30123 40194 56003 81508;
0163080230999992000052000004+43470-003820FM-12+006599999V0201501N002612200019N0150001N1+01201+00791101921ADDAA199000091GF102991011051008001001011MA1999999101211MD1810021+9999REMSYN066AAXX  20004 08023 32565 21505 10120 20079 30121 40192 58002 81501;EQDQ01  00002PRCP99
0198080230999992000052006004+43470-003820FM-12+006599999V0201201N004112200019N0150001N1+01041+00791101731ADDAA199000091GF101991001001999999001021KA1120N+01001MA1999999100891MD1610131+9999REMSYN088AAXX  20064 08023 32965 11208 10104 20079 30089 40173 56013 80002 333 20100 50263 55104;EQDQ01  00002PRCP99
0133080230999992000052009004+43470-003820FM-12+006599999V0200701N006212200019N0150001N1+01561+00851101591ADDGF101991011011008001001001MA1999999100891MD1410001+9999REMSYN066AAXX  20094 08023 42565 10712 10156 20085 30089 40159 54000 81100;
0163080230999992000052012004+43470-003820FM-12+006599999V0200501N008212200019N0200001N1+01621+01061101481ADDAA199000091GF101991011011008001001001MA1999999100781MD1810111+9999REMSYN066AAXX  20124 08023 32570 10516 10162 20106 30078 40148 58011 81100;EQDQ01  00002PRCP99
0133080230999992000052015004+43470-003820FM-12+006599999V0200601N008212200019N0200001N1+01631+01051101391ADDGF101991011011012501001001MA1999999100691MD1710091+9999REMSYN066AAXX  20154 08023 42670 10616 10163 20105 30069 40139 57009 81100;
0186080230999992000052018004+43470-003820FM-12+006599999V0200601N005112200019N0150001N1+01551+01061101391ADDAA199000091GF104991011021008001031021KA1999M+01691MA1999999100691MD1410001+9999REMSYN076AAXX  20184 08023 32565 40610 10155 20106 30069 40139 54000 81232 333 10169;EQDQ01  00002PRCP99
0133080230999992000052021004+43470-003820FM-12+006599999V0200801N002610900019N0100001N1+01411+01131101481ADDGF105991011021008001031021MA1999999100781MD1310091+9999REMSYN066AAXX  20214 08023 42560 50805 10141 20113 30078 40148 53009 81232;
0178080230999992000052100004+43470-003820FM-12+006599999V0200501N001510075019N0100001N1+01471+01271101481ADDAA106000791AY121061AY211061GF108991061071008001071999MA1999999100781MD1410001+9999MW1501REMSYN078AAXX  21004 08023 11560 80503 10147 20127 30078 40148 54000 69901 75021 8677/;
0161080230999992000052103004+43470-003820FM-12+006599999V0200401N002110120019N0100001N1+01421+01221101471ADDAY151031AY221031GF107991051081008001071999MA1999999100771MD1810011+9999MW1021REMSYN072AAXX  21034 08023 41560 70404 10142 20122 30077 40147 58001 70252 8587/;
0213080230999992000052106004+43470-003820FM-12+006599999V0201501N001510360019N0100001N1+01381+01271101551ADDAA112000191AY151061AY221061GF108991021021008001071999KA1120N+01341MA1999999100851MD1310081+9999MW1021REMSYN100AAXX  21064 08023 11560 81503 10138 20127 30085 40155 53008 69922 70252 8227/ 333 20134 50333 55121;
0161080230999992000052109004+43470-003820FM-12+006599999V0200101N002110360019N0100001N1+01541+01231101691ADDAY151031AY221031GF106991041081008001051001MA1999999100991MD1210141+9999MW1021REMSYN072AAXX  21094 08023 41560 60104 10154 20123 30099 40169 52014 70252 84850;
0178080230999992000052112004+43470-003820FM-12+006599999V0203301N004110360019N0150001N1+01681+01211101771ADDAA106000191AY151061AY221061GF106991041081008001051001MA1999999101071MD1210081+9999MW1021REMSYN078AAXX  21124 08023 11565 63308 10168 20121 30107 40177 52008 69921 70252 84850;
0133080230999992000052115004+43470-003820FM-12+006599999V0200201N005110360019N0120001N1+01521+01231101841ADDGF105991031081008001031001MA1999999101141MD1210071+9999REMSYN066AAXX  21154 08023 42562 50210 10152 20123 30114 40184 52007 83830;
0173080230999992000052118004+43470-003820FM-12+006599999V0200201N004110120019N0120001N1+01451+00971101971ADDAA112000191GF107991051081008001031001KA1999M+01721MA1999999101261MD1210121+9999REMSYN082AAXX  21184 08023 12562 70208 10145 20097 30126 40197 52012 69922 85830 333 10172;
0133080230999992000052121004+43470-003820FM-12+006599999V0200501N002112200019N0100001N1+01341+00861102091ADDGF102991011051008001031001MA1999999101381MD1210121+9999REMSYN066AAXX  21214 08023 42560 20504 10134 20086 30138 40209 52012 81530;
0163080230999992000052200004+43470-003820FM-12+006599999V0201801N002112200019N0100001N1+01301+00861102101ADDAA199000091GF103991011051008001031001MA1999999101391MD1210011+9999REMSYN066AAXX  22004 08023 32560 31804 10130 20086 30139 40210 52001 81530;EQDQ01  00002PRCP99
0133080230999992000052203004+43470-003820FM-12+006599999V0201901N001012200019N0100001N1+01201+00941102081ADDGF102991011051008001031001MA1999999101371MD1710021+9999REMSYN066AAXX  22034 08023 42560 21902 10120 20094 30137 40208 57002 81530;
0198080230999992000052206004+43470-003820FM-12+006599999V0201701N002112200019N0100001N1+01141+00901102121ADDAA199000091GF101991011041008001001001KA1120N+01101MA1999999101411MD1210041+9999REMSYN088AAXX  22064 08023 32560 11704 10114 20090 30141 40212 52004 81400 333 20110 50403 55042;EQDQ01  00002PRCP99
0133080230999992000052209004+43470-003820FM-12+006599999V0200301N002112200019N0200001N1+01531+00931102201ADDGF101991011011008001001001MA1999999101491MD1210081+9999REMSYN066AAXX  22094 08023 42570 10304 10153 20093 30149 40220 52008 81100;
0163080230999992000052212004+43470-003820FM-12+006599999V0200501N005112200019N0200001N1+01681+01131102161ADDAA199000091GF102991011011008001001011MA1999999101461MD1810031+9999REMSYN066AAXX  22124 08023 32570 20510 10168 20113 30146 40216 58003 81101;EQDQ01  00002PRCP99
0133080230999992000052215004+43470-003820FM-12+006599999V0200501N007212200019N0200001N1+01661+01141102151ADDGF102991011011012501001021MA1999999101451MD1810011+9999REMSYN066AAXX  22154 08023 42670 20514 10166 20114 30145 40215 58001 81102;
0186080230999992000052218004+43470-003820FM-12+006599999V0200601N006712200019N0200001N1+01561+01071102151ADDAA199000091GF104991031001022501031081KA1999M+01731MA1999999101451MD1410001+9999REMSYN076AAXX  22184 08023 32870 40613 10156 20107 30145 40215 54000 83038 333 10173;EQDQ01  00002PRCP99
0133080230999992000052221004+43470-003820FM-12+006599999V0201001N003612200019N0200001N1+01341+01031102201ADDGF104991031001022501031011MA1999999101491MD1310041+9999REMSYN066AAXX  22214 08023 42870 41007 10134 20103 30149 40220 53004 83031;
0163080230999992000052300004+43470-003820FM-12+006599999V0201301N002112200019N0150001N1+01341+00971102181ADDAA199000091GF102991001001999999001011MA1999999101471MD1810021+9999REMSYN066AAXX  23004 08023 32965 21304 10134 20097 30147 40218 58002 80001;EQDQ01  00002PRCP99
0133080230999992000052303004+43470-003820FM-12+006599999V0200801N002112200019N0150001N1+01201+00961102131ADDGF101991001001999999001011MA1999999101421MD1710051+9999REMSYN066AAXX  23034 08023 42965 10804 10120 20096 30142 40213 57005 80001;
0226080230999992000052306004+43470-003820FM-12+006599999V0209999C000012200019N0090001N1+01261+00941102121ADDAA199000091AY101061AY201061GF101991001001999999001011KA1120N+01141MA1999999101411MD1510011+9999MW1101REMSYN094AAXX  23064 08023 31959 10000 10126 20094 30141 40212 55001 71000 80001 333 20114 50443 55127;EQDQ01  00002PRCP99
0178080230999992000052309004+43470-003820FM-12+006599999V0200601N002612200019N0100001N1+01661+01221102111ADDGA1001+999999999GF100991001001999999001001MA1999999101411MD1710011+9999REMSYN060AAXX  23094 08023 42960 00605 10166 20122 30141 40211 58000;EQDQ01+000082APCTENQ02+000002APC3  
0163080230999992000052312004+43470-003820FM-12+006599999V0200601N004612200019N0120001N1+01821+01401102051ADDAA199000091GF101991011021008001001001MA1999999101351MD1710061+9999REMSYN066AAXX  23124 08023 32562 10609 10182 20140 30135 40205 57006 81200;EQDQ01  00002PRCP99
0159080230999992000052315004+43470-003820FM-12+006599999V0200601N004112200019N0120001N1+01901+01531102001ADDGA1011+008009099GF101991011031008001001001MA1999999101311MD1810041+9999REMSYN076AAXX  23154 08023 42562 10608 10190 20153 30131 40200 58004 81300 333 81995;
0214080230999992000052318004+43470-003820FM-12+006599999V0200301N003112200019N0070001N1+01681+01541102011ADDAA199000091AY101061AY201061GF101991011021008001001001KA1999M+01941MA1999999101311MD1510001+9999MW1101REMSYN082AAXX  23184 08023 31557 10306 10168 20154 30131 40201 55000 71000 81200 333 10194;EQDQ01  00002PRCP99
0143080230999992000052321004+43470-003820FM-12+006599999V0203101N001512200019N0100001N1+01541+01401102111ADDGA1001+999999999GF100991001001999999001001MA1999999101411MD1210101+9999REMSYN060AAXX  23214 08023 42960 03103 10154 20140 30141 40211 52010;
0191080230999992000052400004+43470-003820FM-12+006599999V0202401N002110075019N0060001N1+01501+01391102071ADDAA199000091AY121061AY201061GF107991071061008001999999MA1999999101371MD1810041+9999MW1101REMSYN072AAXX  24004 08023 31556 72404 10150 20139 30137 40207 58004 71020 876//;EQDQ01  00002PRCP99
0161080230999992000052403004+43470-003820FM-12+006599999V0202401N002610075019N0050001N1+01461+01351101971ADDAY121031AY221031GF107991071061008001999999MA1999999101271MD1710101+9999MW1101REMSYN072AAXX  24034 08023 41550 72405 10146 20135 30127 40197 57010 71022 876//;
0226080230999992000052406004+43470-003820FM-12+006599999V0202301N003610075019N0030001N1+01441+01331102011ADDAA199000091AY121061AY221061GF108991071061008001999999KA1120N+01351MA1999999101301MD1310031+9999MW1101REMSYN094AAXX  24064 08023 31530 82307 10144 20133 30130 40201 53003 71022 876// 333 20135 50543 55140;EQDQ01  00002PRCP99
0161080230999992000052409004+43470-003820FM-12+006599999V0202501N004110075019N0030001N1+01621+01371101991ADDAY121031AY221031GF108991081061008001001001MA1999999101291MD1610011+9999MW1101REMSYN072AAXX  24094 08023 41530 82508 10162 20137 30129 40199 56001 71022 88600;
0191080230999992000052412004+43470-003820FM-12+006599999V0203001N004110075019N0030001N1+01721+01411101951ADDAA199000091AY121061AY221061GF106991051061008001031001MA1999999101251MD1610041+9999MW1101REMSYN072AAXX  24124 08023 31530 63008 10172 20141 30125 40195 56004 71022 85630;EQDQ01  00002PRCP99
0161080230999992000052415004+43470-003820FM-12+006599999V0203001N005112200019N0040001N1+01741+01391101951ADDAY121031AY211031GF105991041061004501001041MA1999999101251MD1510001+9999MW1101REMSYN072AAXX  24154 08023 41440 53010 10174 20139 30125 40195 55000 71021 84604;
0214080230999992000052418004+43470-003820FM-12+006599999V0209999C000010360019N0030001N1+01661+01361101951ADDAA199000091AY121061AY211061GF108991041061008001071001KA1999M+01841MA1999999101251MD1410001+9999MW1101REMSYN082AAXX  24184 08023 31530 80000 10166 20136 30125 40195 54000 71021 84670 333 10184;EQDQ01  00002PRCP99
0161080230999992000052421004+43470-003820FM-12+006599999V0200801N002110360019N0050001N1+01571+01451101961ADDAY161031AY221031GF108991021061008001071999MA1999999101261MD1310011+9999MW1601REMSYN072AAXX  24214 08023 41550 80804 10157 20145 30126 40196 53001 76062 8267/;
0178080230999992000052500004+43470-003820FM-12+006599999V0202401N002110210019N0080001N1+01671+01371101951ADDAA106000791AY161061AY221061GF108991081001022501071999MA1999999101251MD1810011+9999MW1601REMSYN078AAXX  25004 08023 11858 82404 10167 20137 30125 40195 58001 69901 76062 8807/;
0161080230999992000052503004+43470-003820FM-12+006599999V0202401N002610075019N0060001N1+01721+01331101951ADDAY161031AY221031GF108991061061008001071999MA1999999101251MD1410001+9999MW1051REMSYN072AAXX  25034 08023 41556 82405 10172 20133 30125 40195 54000 70562 8667/;
0213080230999992000052506004+43470-003820FM-12+006599999V0202901N006210075019N0100001N1+01621+01461102031ADDAA112000791AY161061AY221061GF107991051051008001071001KA1120N+01571MA1999999101331MD1210081+9999MW1601REMSYN100AAXX  25064 08023 11560 72912 10162 20146 30133 40203 52008 69902 76062 85570 333 20157 50303 55043;
0133080230999992000052509004+43470-003820FM-12+006599999V0203001N006710090019N0120001N1+01581+01271102171ADDGF108991071081004501071999MA1999999101471MD1110141+9999REMSYN066AAXX  25094 08023 42462 83013 10158 20127 30147 40217 51014 8787/;
0144080230999992000052512004+43470-003820FM-12+006599999V0203301N002110090019N0120001N1+01581+01211102271ADDAA199000021GF108991071081004501071999MA1999999101571MD1110101+9999REMSYN066AAXX  25124 08023 32462 83304 10158 20121 30157 40227 51010 8787/;
0133080230999992000052515004+43470-003820FM-12+006599999V0200301N001510090019N0150001N1+01571+01201102211ADDGF107991051081004501071999MA1999999101511MD1810061+9999REMSYN066AAXX  25154 08023 42465 70303 10157 20120 30151 40221 58006 8587/;
0167080230999992000052518004+43470-003820FM-12+006599999V0200501N003110360019N0120001N1+01541+01191102111ADDAA199000021GF108991011081004501071999KA1999M+01651MA1999999101411MD1710101+9999REMSYN076AAXX  25184 08023 32462 80506 10154 20119 30141 40211 57010 8187/ 333 10165;
0133080230999992000052521004+43470-003820FM-12+006599999V0200801N003110360019N0100001N1+01511+01271102041ADDGF108991041081008001071999MA1999999101341MD1610071+9999REMSYN066AAXX  25214 08023 42560 80806 10151 20127 30134 40204 56007 8487/;
0163080230999992000052600004+43470-003820FM-12+006599999V0201201N003110120019N0100001N1+01481+01341101831ADDAA199000091GF108991071081008001071999MA1999999101131MD1810211+9999REMSYN066AAXX  26004 08023 32560 81206 10148 20134 30113 40183 58021 8787/;EQDQ01  00002PRCP99
0133080230999992000052603004+43470-003820FM-12+006599999V0201501N002112200019N0100001N1+01401+01271101561ADDGF104991041001017501031001MA1999999100861MD1710271+9999REMSYN066AAXX  26034 08023 42760 41504 10140 20127 30086 40156 57027 84030;
0198080230999992000052606004+43470-003820FM-12+006599999V0201601N001012200019N0100001N1+01481+01341101471ADDAA199000091GF103991011041008001041011KA1120N+01361MA1999999100771MD1610091+9999REMSYN088AAXX  26064 08023 32560 31602 10148 20134 30077 40147 56009 81441 333 20136 50243 55000;EQDQ01  00002PRCP99
0161080230999992000052609004+43470-003820FM-12+006599999V0201101N003112200019N0090001N1+01971+01551101341ADDAY111031AY201031GF105991021021012501031091MA1999999100651MD1810121+9999MW1051REMSYN072AAXX  26094 08023 41659 51106 10197 20155 30065 40134 58012 70510 82239;
0191080230999992000052612004+43470-003820FM-12+006599999V0202801N004110120019N0090001N1+01831+01541101421ADDAA199000091AY121061AY211061GF107991051021012501071001MA1999999100731MD1310081+9999MW1101REMSYN072AAXX  26124 08023 31659 72808 10183 20154 30073 40142 53008 71021 85270;EQDQ01  00002PRCP99
0161080230999992000052615004+43470-003820FM-12+006599999V0202701N008710075019N0080001N1+01521+01231101801ADDAY161031AY221031GF108991081071008001001001MA1999999101101MD1210371+9999MW1601REMSYN072AAXX  26154 08023 41558 82717 10152 20123 30110 40180 52037 76062 88700;
0201080230999992000052618004+43470-003820FM-12+006599999V0202601N007210075019N0040001N1+01301+01211101971ADDAA112004191AY161061AY221061GF108991061071008001021999KA1999M+01991MA1999999101261MD1210161+9999MW1611REMSYN088AAXX  26184 08023 11540 82614 10130 20121 30126 40197 52016 60042 76162 8672/ 333 10199;
0161080230999992000052621004+43470-003820FM-12+006599999V0202901N007210360019N0200001N1+01421+01041102171ADDAY161031AY221031GF107991041021008001071001MA1999999101461MD1210201+9999MW1021REMSYN072AAXX  26214 08023 41570 72914 10142 20104 30146 40217 52020 70262 84270;
0178080230999992000052700004+43470-003820FM-12+006599999V0202901N007210150019N0200001N1+01381+00951102181ADDAA106002091AY161061AY221061GF106991061081012501001001MA1999999101471MD1110011+9999MW1021REMSYN078AAXX  27004 08023 11670 62914 10138 20095 30147 40218 51001 60021 70262 86800;
0168080230999992000052703004+43470-003820FM-12+006599999V0201501N002112200019N0100001N1+01401+01271101562ADDGF104991041001017501031001MA1999999100862MD1710271+9999REMSYN066AAXX  27034 08023 42760 41504 10140 20127 30086 40156 57027 84030;EQDQ01+100863APOSP Q02+101563APOSLP
0220080230999992000052706004+43470-003820FM-12+006599999V0202101N003610075019N0200001N1+01251+00951102202ADDAA112002091GF107991061041008001031001KA1120N+01241MA1999999101492MD1310021+9999REMSYN094AAXX  27064 08023 12570 72107 10125 20095 30149 40220 53002 60022 86430 333 20124 50323 55053;EQDQ01+101493APOSP Q02+102203APOSLP
0133080230999992000052709004+43470-003820FM-12+006599999V0202801N002110900019N0180001N1+01501+00961102181ADDGF107991021001022501031071MA1999999101471MD1810021+9999REMSYN066AAXX  27094 08023 42868 72804 10150 20096 30147 40218 58002 82037;
0163080230999992000052712004+43470-003820FM-12+006599999V0200201N003612200019N0200001N1+01541+01261101961ADDAA199000091GF103991011001022501031021MA1999999101261MD1710211+9999REMSYN066AAXX  27124 08023 32870 30207 10154 20126 30126 40196 57021 81032;EQDQ01  00002PRCP99
0133080230999992000052715004+43470-003820FM-12+006599999V0203601N003110360019N0120001N1+01511+01141101751ADDGF108991021051012501071999MA1999999101051MD1810211+9999REMSYN066AAXX  27154 08023 42662 83606 10151 20114 30105 40175 58021 8257/;
0186080230999992000052718004+43470-003820FM-12+006599999V0203601N001510210019N0150001N1+01441+01061101611ADDAA199000091GF108991081001022501021999KA1999M+01651MA1999999100911MD1810141+9999REMSYN076AAXX  27184 08023 32865 83603 10144 20106 30091 40161 58014 8802/ 333 10165;EQDQ01  00002PRCP99
0133080230999992000052721004+43470-003820FM-12+006599999V0201301N003610360019N0150001N1+01371+01131101471ADDGF107991021051017501071999MA1999999100771MD1710141+9999REMSYN066AAXX  27214 08023 42765 71307 10137 20113 30077 40147 57014 8257/;
0178080230999992000052800004+43470-003820FM-12+006599999V0209999C000010075019N0150001N1+01421+01311101311ADDAA106000791AY161061AY221061GF108991051071008001071999MA1999999100611MD1610161+9999MW1601REMSYN078AAXX  28004 08023 11565 80000 10142 20131 30061 40131 56016 69901 76062 8577/;
0161080230999992000052803004+43470-003820FM-12+006599999V0201701N002610075019N0150001N1+01431+01391101391ADDAY161031AY221031GF108991051071008001071999MA1999999100691MD1210081+9999MW1611REMSYN072AAXX  28034 08023 41565 81705 10143 20139 30069 40139 52008 76162 8577/;
0213080230999992000052806004+43470-003820FM-12+006599999V0201401N003110120019N0120001N1+01481+01411101481ADDAA112001091AY161061AY221061GF108991051071012501071999KA1120N+01361MA1999999100781MD1210091+9999MW1601REMSYN100AAXX  28064 08023 11662 81406 10148 20141 30078 40148 52009 60012 76062 8577/ 333 20136 50383 55051;
0133080230999992000052809004+43470-003820FM-12+006599999V0202701N002110360019N0100001N1+01621+01451101641ADDGF108991021051008001071999MA1999999100941MD1310161+9999REMSYN066AAXX  28094 08023 42560 82704 10162 20145 30094 40164 53016 8257/;
0144080230999992000052812004+43470-003820FM-12+006599999V0203501N003610006019N0150001N1+01541+01401101751ADDAA199000021GF108991081071000751999999MA1999999101051MD1210111+9999REMSYN066AAXX  28124 08023 32165 83507 10154 20140 30105 40175 52011 887//;
0133080230999992000052815004+43470-003820FM-12+006599999V0200301N001510360019N0200001N1+01581+01401101771ADDGF108991021051004501071999MA1999999101071MD1310021+9999REMSYN066AAXX  28154 08023 42470 80303 10158 20140 30107 40177 53002 8257/;
0201080230999992000052818004+43470-003820FM-12+006599999V0200901N002110360019N0150001N1+01521+01411101751ADDAA112000191AY161061AY221061GF108991021071004501071999KA1999M+01721MA1999999101051MD1810021+9999MW1211REMSYN088AAXX  28184 08023 11465 80904 10152 20141 30105 40175 58002 69912 72162 8277/ 333 10172;
0161080230999992000052821004+43470-003820FM-12+006599999V0202101N002110042019N0060001N1+01561+01511101791ADDAY161031AY221031GF108991081071004501999999MA1999999101091MD1110041+9999MW1501REMSYN072AAXX  28214 08023 41456 82104 10156 20151 30109 40179 51004 75062 887//;
0188080230999992000052900004+43470-003820FM-12+006599999V0202701N001010003019N0003001N1+01551+01551101851ADDAA106003091AY151061AY241061GA1091+999999999GF109991091999999999999999MA1999999101151MD1310061+9999MW1511REMSYN072AAXX  29004 08023 11/03 92702 10155 20155 30115 40185 53006 60031 75154;
0161080230999992000052903004+43470-003820FM-12+006599999V0202501N004610042019N0030001N1+01571+01541101891ADDAY151031AY251031GF108991081071004501001001MA1999999101191MD1210041+9999MW1511REMSYN072AAXX  29034 08023 41430 82509 10157 20154 30119 40189 52004 75155 88700;
0213080230999992000052906004+43470-003820FM-12+006599999V0202601N006710042019N0020001N1+01541+01511102071ADDAA112009991AY151061AY251061GF108991081061004501001001KA1120N+01401MA1999999101371MD1210181+9999MW1511REMSYN100AAXX  29064 08023 11420 82613 10154 20151 30137 40207 52018 60102 75155 88600 333 20140 50053 55000;
0161080230999992000052909004+43470-003820FM-12+006599999V0202701N003610042019N0030001N1+01541+01511102201ADDAY151031AY251031GF108991081071004501999999MA1999999101501MD1210131+9999MW1511REMSYN072AAXX  29094 08023 41430 82707 10154 20151 30150 40220 52013 75155 887//;
0178080230999992000052912004+43470-003820FM-12+006599999V0202501N005110042019N0070001N1+01621+01531102281ADDAA106004191AY151061AY221061GF108991071061004501021001MA1999999101581MD1210081+9999MW1101REMSYN078AAXX  29124 08023 11457 82510 10162 20153 30158 40228 52008 60041 71052 87620;
0161080230999992000052915004+43470-003820FM-12+006599999V0202801N004610120019N0050001N1+01741+01571102211ADDAY121031AY221031GF106991061081008001001001MA1999999101511MD1610071+9999MW1101REMSYN072AAXX  29154 08023 41550 62809 10174 20157 30151 40221 56007 71022 86800;
0201080230999992000052918004+43470-003820FM-12+006599999V0202601N003612200019N0060001N1+01761+01501102231ADDAA112002091AY121061AY221061GF102991011081008001031021KA1999M+01861MA1999999101531MD1010021+9999MW1101REMSYN088AAXX  29184 08023 11556 22607 10176 20150 30153 40223 50002 60022 71022 81832 333 10186;
0161080230999992000052921004+43470-003820FM-12+006599999V0209999V002112200019N0060001N1+01621+01411102251ADDAY101031AY201031GF101991011051008001001001MA1999999101551MD1110021+9999MW1101REMSYN072AAXX  29214 08023 41556 19904 10162 20141 30155 40225 51002 71000 81500;
0173080230999992000053000004+43470-003820FM-12+006599999V0202401N005112200019N0100001N1+01761+01451102231ADDAA199000091GA1001+999999999GF100991001001999999001001MA1999999101531MD1810021+9999REMSYN060AAXX  30004 08023 32960 02410 10176 20145 30153 40223 58002;EQDQ01  00002PRCP99
0152080230999992000053003004+43470-003820FM-12+006599999V0202401N004119999999N0100001N1+01681+01441102151ADDGF108991999051008001001001MA1999999101451MD1610081+9999REMSYN066AAXX  30034 08023 42560 82408 10168 20144 30145 40215 56008 82500;EQDQ01+000022SCOTLC
0191080230999992000053006004+43470-003820FM-12+006599999V0202401N002112200019N0060001N1+01621+01481102251ADDAA199000091AY101061AY201061GF101991011061004501001001MA1999999101551MD1310101+9999MW1101REMSYN072AAXX  30064 08023 31456 12404 10162 20148 30155 40225 53010 71000 81600;EQDQ01  00002PRCP99
0161080230999992000053009004+43470-003820FM-12+006599999V0203201N003110042019N0030001N1+01561+01491102271ADDAY121031AY221031GF108991081061004501001001MA1999999101571MD1210021+9999MW1101REMSYN072AAXX  30094 08023 41430 83206 10156 20149 30157 40227 52002 71022 88600;
0191080230999992000053012004+43470-003820FM-12+006599999V0202901N003610042019N0030001N1+01621+01531102271ADDAA199000091AY121061AY221061GF108991081061004501999999MA1999999101571MD1410001+9999MW1101REMSYN072AAXX  30124 08023 31430 82907 10162 20153 30157 40227 54000 71022 886//;EQDQ01  00002PRCP99
0161080230999992000053015004+43470-003820FM-12+006599999V0202801N004610042019N0040001N1+01681+01511102271ADDAY121031AY221031GF107991071061004501001001MA1999999101571MD1410001+9999MW1101REMSYN072AAXX  30154 08023 41440 72809 10168 20151 30157 40227 54000 71022 87600;
0214080230999992000053018004+43470-003820FM-12+006599999V0202601N003612200019N0070001N1+01641+01431102241ADDAA199000091AY121061AY221061GF104991011061004501001081KA1999M+01801MA1999999101541MD1810031+9999MW1101REMSYN082AAXX  30184 08023 31457 42607 10164 20143 30154 40224 58003 71022 81608 333 10180;EQDQ01  00002PRCP99
0161080230999992000053021004+43470-003820FM-12+006599999V0202701N003112200019N0080001N1+01481+01391102341ADDAY121031AY221031GF104991011061008001001081MA1999999101631MD1310091+9999MW1101REMSYN072AAXX  30214 08023 41558 42706 10148 20139 30163 40234 53009 71022 81608;
0191080230999992000053100004+43470-003820FM-12+006599999V0202601N004610900019N0090001N1+01511+01331102361ADDAA199000091AY121061AY221061GF106991021061008001001081MA1999999101651MD1210021+9999MW1101REMSYN072AAXX  31004 08023 31559 62609 10151 20133 30165 40236 52002 71022 82608;EQDQ01  00002PRCP99
0161080230999992000053103004+43470-003820FM-12+006599999V0202901N004110900019N0090001N1+01451+01291102321ADDAY121031AY221031GF106991021061008001001081MA1999999101611MD1810041+9999MW1101REMSYN072AAXX  31034 08023 41559 62908 10145 20129 30161 40232 58004 71022 82608;
0213080230999992000053106004+43470-003820FM-12+006599999V0203101N003610042019N0030001N1+01441+01371102381ADDAA112000191AY121061AY221061GF108991081061004501999999KA1120N+01421MA1999999101671MD1310061+9999MW1511REMSYN100AAXX  31064 08023 11430 83107 10144 20137 30167 40238 53006 69912 75122 886// 333 20142 50113 55040;
0161080230999992000053109004+43470-003820FM-12+006599999V0202901N002110042019N0030001N1+01471+01341102461ADDAY151031AY221031GF108991081061004501999999MA1999999101751MD1010081+9999MW1101REMSYN072AAXX  31094 08023 41430 82904 10147 20134 30175 40246 50008 71052 886//;
0178080230999992000053112004+43470-003820FM-12+006599999V0203501N002112200019N0060001N1+01641+01371102451ADDAA106000791AY151061AY221061GF104991031061004501031021MA1999999101751MD1410001+9999MW1101REMSYN078AAXX  31124 08023 11456 43504 10164 20137 30175 40245 54000 69901 71052 83632;
0133080230999992000053115004+43470-003820FM-12+006599999V0200201N003610360019N0100001N1+01621+01221102441ADDGF108991031061008001011999MA1999999101741MD1810011+9999REMSYN066AAXX  31154 08023 42560 80207 10162 20122 30174 40244 58001 8361/;
0201080230999992000053118004+43470-003820FM-12+006599999V0200601N003610075019N0060001N1+01621+01261102391ADDAA112000791AY121061AY221061GF108991061061008001011999KA1999M+01721MA1999999101691MD1710051+9999MW1051REMSYN088AAXX  31184 08023 11556 80607 10162 20126 30169 40239 57005 69902 70522 8661/ 333 10172;
0161080230999992000053121004+43470-003820FM-12+006599999V0200801N004110075019N0080001N1+01541+01271102381ADDAY121031AY221031GF108991061061008001011001MA1999999101671MD1610021+9999MW1101REMSYN072AAXX  31214 08023 41558 80808 10154 20127 30167 40238 56002 71022 86610;
0191080230999992000060100004+43470-003820FM-12+006599999V0201001N003110075019N0060001N1+01501+01281102281ADDAA199000091AY121061AY221061GF108991061061008001011001MA1999999101571MD1710101+9999MW1101REMSYN072AAXX  01004 08023 31556 81006 10150 20128 30157 40228 57010 71022 86610;EQDQ01  00002PRCP99
0161080230999992000060103004+43470-003820FM-12+006599999V0201001N004110075019N0080001N1+01511+01311102111ADDAY121031AY221031GF108991061061008001011999MA1999999101411MD1710161+9999MW1101REMSYN072AAXX  01034 08023 41558 81008 10151 20131 30141 40211 57016 71022 8661/;
0226080230999992000060106004+43470-003820FM-12+006599999V0201401N001510042019N0040001N1+01501+01321102081ADDAA199000091AY121061AY221061GF107991071061004501999999KA1120N+01451MA1999999101381MD1610031+9999MW1101REMSYN094AAXX  01064 08023 31440 71403 10150 20132 30138 40208 56003 71022 876// 333 20145 50133 55011;EQDQ01  00002PRCP99
0161080230999992000060109004+43470-003820FM-12+006599999V0200601N002610120019N0050001N1+01741+01431102011ADDAY121031AY221031GF107991071061012501999999MA1999999101311MD1710071+9999MW1101REMSYN072AAXX  01094 08023 41650 70605 10174 20143 30131 40201 57007 71022 876//;
0201080230999992000060112004+43470-003820FM-12+006599999V0200301N004112200019N0060001N1+01821+01551101871ADDAA199000091AY121061AY201061GA1001+999999999GF100991001001999999001001MA1999999101181MD1710131+9999MW1101REMSYN066AAXX  01124 08023 31956 00308 10182 20155 30118 40187 57013 71020;EQDQ01  00002PRCP99
0161080230999992000060115004+43470-003820FM-12+006599999V0200501N004110360019N0070001N1+01771+01621101811ADDAY121031AY211031GF107991011051017501071999MA1999999101111MD1510071+9999MW1101REMSYN072AAXX  01154 08023 41757 70508 10177 20162 30111 40181 55007 71021 8157/;
0214080230999992000060118004+43470-003820FM-12+006599999V0203001N000510120019N0040001N1+01691+01521101871ADDAA199000091AY121061AY221061GF107991071021012501999999KA1999M+01951MA1999999101171MD1010061+9999MW1101REMSYN082AAXX  01184 08023 31640 73001 10169 20152 30117 40187 50006 71022 872// 333 10195;EQDQ01  00002PRCP99
0161080230999992000060121004+43470-003820FM-12+006599999V0202401N003110042019N0050001N1+01641+01501102031ADDAY121031AY221031GF107991071061004501001001MA1999999101331MD1210161+9999MW1101REMSYN072AAXX  01214 08023 41450 72406 10164 20150 30133 40203 52016 71022 87600;
0191080230999992000060200004+43470-003820FM-12+006599999V0202601N003610042019N0050001N1+01591+01541102071ADDAA199000091AY121061AY221061GF107991071061004501001001MA1999999101371MD1310041+9999MW1101REMSYN072AAXX  02004 08023 31450 72607 10159 20154 30137 40207 53004 71022 87600;EQDQ01  00002PRCP99
0161080230999992000060203004+43470-003820FM-12+006599999V0203401N002610042019N0050001N1+01571+01451102001ADDAY121031AY221031GF108991081061004501999999MA1999999101301MD1710071+9999MW1101REMSYN072AAXX  02034 08023 41450 83405 10157 20145 30130 40200 57007 71022 886//;
0226080230999992000060206004+43470-003820FM-12+006599999V0200401N002610042019N0020001N1+01541+01471101971ADDAA199000091AY121061AY221061GF108991081061004501001001KA1120N+01501MA1999999101271MD1510031+9999MW1101REMSYN094AAXX  02064 08023 31420 80405 10154 20147 30127 40197 55003 71022 88600 333 20150 50413 55060;EQDQ01  00002PRCP99
0161080230999992000060209004+43470-003820FM-12+006599999V0200501N003110042019N0030001N1+01581+01481101991ADDAY151031AY221031GF108991081061004501999999MA1999999101291MD1310021+9999MW1101REMSYN072AAXX  02094 08023 41430 80506 10158 20148 30129 40199 53002 71052 886//;
0178080230999992000060212004+43470-003820FM-12+006599999V0200501N004110042019N0020001N1+01601+01531101971ADDAA106000791AY151061AY221061GF108991081061004501999999MA1999999101271MD1810021+9999MW1101REMSYN078AAXX  02124 08023 11420 80508 10160 20153 30127 40197 58002 69901 71052 886//;
0161080230999992000060215004+43470-003820FM-12+006599999V0203501N002110042019N0040001N1+01621+01521102041ADDAY121031AY221031GF108991081061004501999999MA1999999101341MD1310071+9999MW1101REMSYN072AAXX  02154 08023 41440 83504 10162 20152 30134 40204 53007 71022 886//;
0214080230999992000060218004+43470-003820FM-12+006599999V0203301N002110021019N0020001N1+01561+01491102031ADDAA199000091AY121061AY221061GF108991081061002501999999KA1999M+01671MA1999999101331MD1810011+9999MW1101REMSYN082AAXX  02184 08023 31320 83304 10156 20149 30133 40203 58001 71022 886// 333 10167;EQDQ01  00002PRCP99
0161080230999992000060221004+43470-003820FM-12+006599999V0203001N002110042019N0030001N1+01561+01461102081ADDAY121031AY221031GF108991081061004501999999MA1999999101381MD1310051+9999MW1101REMSYN072AAXX  02214 08023 41430 83004 10156 20146 30138 40208 53005 71022 886//;
0178080230999992000060300004+43470-003820FM-12+006599999V0209999C000010042019N0030001N1+01551+01461102001ADDAA106000891AY191061AY281061GF108991081061004501999999MA1999999101301MD1810081+9999MW1251REMSYN078AAXX  03004 08023 11430 80000 10155 20146 30130 40200 58008 69971 72598 886//;
0161080230999992000060303004+43470-003820FM-12+006599999V0200401N003610021019N0015001N1+01561+01461101891ADDAY151031AY221031GF108991081071002501999999MA1999999101191MD1510111+9999MW1101REMSYN072AAXX  03034 08023 41315 80407 10156 20146 30119 40189 55011 71052 887//;
0161080230999992000060309004+43470-003820FM-12+006599999V0200101N002610042019N0020001N1+01501+01431101971ADDAY151031AY221031GF108991081071004501999999MA1999999101271MD1210051+9999MW1501REMSYN072AAXX  03094 08023 41420 80105 10150 20143 30127 40197 52005 75052 887//;
0178080230999992000060312004+43470-003820FM-12+006599999V0203601N001010042019N0040001N1+01621+01461102031ADDAA106000791AY151061AY221061GF108991081071004501999999MA1999999101331MD1010061+9999MW1101REMSYN078AAXX  03124 08023 11440 83602 10162 20146 30133 40203 50006 69901 71052 887//;
0161080230999992000060315004+43470-003820FM-12+006599999V0203101N003610042019N0080001N1+01581+01291102011ADDAY121031AY221031GF108991081061004501999999MA1999999101311MD1510021+9999MW1101REMSYN072AAXX  03154 08023 41458 83107 10158 20129 30131 40201 55002 71022 886//;
0201080230999992000060318004+43470-003820FM-12+006599999V0202901N003110042019N0080001N1+01571+01261102071ADDAA112000791AY121061AY221061GF108991081061004501999999KA1999M+01681MA1999999101371MD1210061+9999MW1101REMSYN088AAXX  03184 08023 11458 82906 10157 20126 30137 40207 52006 69902 71022 886// 333 10168;
0161080230999992000060321004+43470-003820FM-12+006599999V0202401N002610042019N0080001N1+01511+01351102151ADDAY121031AY221031GF108991081061004501999999MA1999999101451MD1210081+9999MW1101REMSYN072AAXX  03214 08023 41458 82405 10151 20135 30145 40215 52008 71022 886//;
0191080230999992000060400004+43470-003820FM-12+006599999V0202101N003110042019N0050001N1+01451+01321102161ADDAA199000091AY121061AY221061GF108991081061004501001001MA1999999101451MD1410001+9999MW1101REMSYN072AAXX  04004 08023 31450 82106 10145 20132 30145 40216 54000 71022 88600;EQDQ01  00002PRCP99
0161080230999992000060403004+43470-003820FM-12+006599999V0202201N002610042019N0050001N1+01441+01331102091ADDAY121031AY221031GF108991081061004501999999MA1999999101381MD1710071+9999MW1101REMSYN072AAXX  04034 08023 41450 82205 10144 20133 30138 40209 57007 71022 886//;
0213080230999992000060406004+43470-003820FM-12+006599999V0202101N002610042019N0050001N1+01441+01331102091ADDAA112000391AY191061AY261061GF108991081061004501999999KA1120N+01401MA1999999101381MD1510001+9999MW1601REMSYN100AAXX  04064 08023 11450 82105 10144 20133 30138 40209 55000 69932 76096 886// 333 20140 50123 55000;
0161080230999992000060409004+43470-003820FM-12+006599999V0202701N002610021019N0015001N1+01401+01361102041ADDAY151031AY221031GF108991081071002501999999MA1999999101331MD1810051+9999MW1511REMSYN072AAXX  04094 08023 41315 82705 10140 20136 30133 40204 58005 75152 887//;
0178080230999992000060412004+43470-003820FM-12+006599999V0200201N002610042019N0060001N1+01461+01391101991ADDAA106003091AY161061AY251061GF108991081071004501999999MA1999999101291MD1810041+9999MW1611REMSYN078AAXX  04124 08023 11456 80205 10146 20139 30129 40199 58004 60031 76165 887//;
0161080230999992000060415004+43470-003820FM-12+006599999V0200301N005110090019N0040001N1+01451+01411102001ADDAY161031AY221031GF108991081081004501001001MA1999999101291MD1010001+9999MW1611REMSYN072AAXX  04154 08023 41440 80310 10145 20141 30129 40200 50000 76162 88800;
0201080230999992000060418004+43470-003820FM-12+006599999V0200201N006710021019N0030001N1+01441+01401102001ADDAA112014091AY161061AY221061GF108991081071002501999999KA1999M+01501MA1999999101291MD1510001+9999MW1631REMSYN088AAXX  04184 08023 11330 80213 10144 20140 30129 40200 55000 60142 76362 887// 333 10150;
0161080230999992000060421004+43470-003820FM-12+006599999V0200201N004110021019N0100001N1+01401+01291102101ADDAY161031AY221031GF108991081061002501999999MA1999999101391MD1310101+9999MW1021REMSYN072AAXX  04214 08023 41360 80208 10140 20129 30139 40210 53010 70262 886//;
0178080230999992000060500004+43470-003820FM-12+006599999V0203401N002610021019N0040001N1+01321+01261102171ADDAA106007191AY161061AY251061GF108991081071002501999999MA1999999101461MD1010071+9999MW1511REMSYN078AAXX  05004 08023 11340 83405 10132 20126 30146 40217 50007 60071 75165 887//;
0161080230999992000060503004+43470-003820FM-12+006599999V0203201N003110042019N0100001N1+01321+01111102121ADDAY161031AY251031GF108991081061004501999999MA1999999101411MD1810051+9999MW1021REMSYN072AAXX  05034 08023 41460 83206 10132 20111 30141 40212 58005 70265 886//;
0213080230999992000060506004+43470-003820FM-12+006599999V0202601N003610042019N0060001N1+01271+01201102201ADDAA112007191AY161061AY251061GF108991081071004501999999KA1120N+01251MA1999999101491MD1210081+9999MW1501REMSYN100AAXX  05064 08023 11456 82607 10127 20120 30149 40220 52008 60072 75065 887// 333 20125 50003 55000;
0161080230999992000060509004+43470-003820FM-12+006599999V0202501N004110042019N0040001N1+01281+01131102251ADDAY161031AY251031GF108991081071004501999999MA1999999101541MD1310051+9999MW1581REMSYN072AAXX  05094 08023 41440 82508 10128 20113 30154 40225 53005 75865 887//;
0178080230999992000060512004+43470-003820FM-12+006599999V0202701N003110120019N0200001N1+01441+01141102321ADDAA106002091AY161061AY251061GF107991051081008001071001MA1999999101611MD1110071+9999MW1021REMSYN078AAXX  05124 08023 11570 72706 10144 20114 30161 40232 51007 60021 70265 85870;
0133080230999992000060515004+43470-003820FM-12+006599999V0202901N005710120019N0250001N1+01521+00891102451ADDGF107991061081008001031001MA1999999101741MD1210131+9999REMSYN066AAXX  05154 08023 42575 72911 10152 20089 30174 40245 52013 86830;
0173080230999992000060518004+43470-003820FM-12+006599999V0203001N004610120019N0250001N1+01501+00981102491ADDAA112002091GF107991071081008001001001KA1999M+01611MA1999999101781MD1210041+9999REMSYN082AAXX  05184 08023 12575 73009 10150 20098 30178 40249 52004 60022 87800 333 10161;
0133080230999992000060521004+43470-003820FM-12+006599999V0203101N004612200019N0300001N1+01441+00951102581ADDGF104991041081008001001001MA1999999101871MD1210091+9999REMSYN066AAXX  05214 08023 42580 43109 10144 20095 30187 40258 52009 84800;
0163080230999992000060600004+43470-003820FM-12+006599999V0202901N003112200019N0250001N1+01381+00911102711ADDAA199000091GF103991031011008001001001MA1999999102001MD1110131+9999REMSYN066AAXX  06004 08023 32575 32906 10138 20091 30200 40271 51013 83100;EQDQ01  00002PRCP99
0133080230999992000060603004+43470-003820FM-12+006599999V0202301N004110120019N0250001N1+01261+00941102681ADDGF106991061081008001001001MA1999999101961MD1610041+9999REMSYN066AAXX  06034 08023 42575 62308 10126 20094 30196 40268 56004 86800;
0198080230999992000060606004+43470-003820FM-12+006599999V0202201N003112200019N0200001N1+01271+00981102711ADDAA199000091GF104991041041008001001001KA1120N+01201MA1999999101991MD1310031+9999REMSYN088AAXX  06064 08023 32570 42206 10127 20098 30199 40271 53003 84400 333 20120 50203 55011;EQDQ01  00002PRCP99
0133080230999992000060609004+43470-003820FM-12+006599999V0202901N002612200019N0200001N1+01571+01141102831ADDGF103991031081008001001001MA1999999102121MD1210131+9999REMSYN066AAXX  06094 08023 42570 32905 10157 20114 30212 40283 52013 83800;
0163080230999992000060612004+43470-003820FM-12+006599999V0203401N003612200019N0250001N1+01621+01201102891ADDAA199000091GF101991011011012501001001MA1999999102181MD1110061+9999REMSYN066AAXX  06124 08023 32675 13407 10162 20120 30218 40289 51006 81100;EQDQ01  00002PRCP99
0133080230999992000060615004+43470-003820FM-12+006599999V0209999V003112200019N0300001N1+01671+01131102871ADDGF101991011041012501001001MA1999999102161MD1810021+9999REMSYN066AAXX  06154 08023 42680 19906 10167 20113 30216 40287 58002 81400;
0186080230999992000060618004+43470-003820FM-12+006599999V0200201N001512200019N0250001N1+01601+01071102861ADDAA199000091GF101991011041012501001001KA1999M+01701MA1999999102151MD1810011+9999REMSYN076AAXX  06184 08023 32675 10203 10160 20107 30215 40286 58001 81400 333 10170;EQDQ01  00002PRCP99
0133080230999992000060621004+43470-003820FM-12+006599999V0200201N001012200019N0200001N1+01431+00981102911ADDGF101991011041012501001001MA1999999102201MD1310051+9999REMSYN066AAXX  06214 08023 42670 10202 10143 20098 30220 40291 53005 81400;
0133080230999992000060703004+43470-003820FM-12+006599999V0201501N002612200019N0180001N1+01211+01051102801ADDGF101991011051012501001001MA1999999102081MD1710071+9999REMSYN066AAXX  07034 08023 42668 11505 10121 20105 30208 40280 57007 81500;
0198080230999992000060706004+43470-003820FM-12+006599999V0201601N002612200019N0250001N1+01251+01001102721ADDAA199000091GF101991001001999999001011KA1120N+01121MA1999999102001MD1710081+9999REMSYN088AAXX  07064 08023 32975 11605 10125 20100 30200 40272 57008 80001 333 20112 50403 55133;EQDQ01  00002PRCP99
0143080230999992000060709004+43470-003820FM-12+006599999V0201001N006712200019N0200001N1+01701+01111102601ADDGA1001+999999999GF100991001001999999001001MA1999999101901MD1710101+9999REMSYN060AAXX  07094 08023 42970 01013 10170 20111 30190 40260 57010;
0163080230999992000060712004+43470-003820FM-12+006599999V0200701N009812200019N0200001N1+01721+01171102421ADDAA199000091GF101991001001999999001021MA1999999101721MD1710181+9999REMSYN066AAXX  07124 08023 32970 10719 10172 20117 30172 40242 57018 80002;EQDQ01  00002PRCP99
0143080230999992000060715004+43470-003820FM-12+006599999V0200701N010812200019N0200001N1+01721+01211102161ADDGA1001+999999999GF100991001001999999001001MA1999999101461MD1710261+9999REMSYN060AAXX  07154 08023 42970 00721 10172 20121 30146 40216 57026;
0196080230999992000060718004+43470-003820FM-12+006599999V0200701N008712200019N0150001N1+01661+01261101951ADDAA199000091GA1001+999999999GF100991001001999999001001KA1999M+01781MA1999999101251MD1710211+9999REMSYN070AAXX  07184 08023 32965 00717 10166 20126 30125 40195 57021 333 10178;EQDQ01  00002PRCP99
0143080230999992000060721004+43470-003820FM-12+006599999V0201001N006212200019N0150001N1+01561+01351101831ADDGA1001+999999999GF100991001001999999001001MA1999999101131MD1710121+9999REMSYN060AAXX  07214 08023 42965 01012 10156 20135 30113 40183 57012;
0173080230999992000060800004+43470-003820FM-12+006599999V0201001N003612200019N0100001N1+01481+01261101591ADDAA199000091GA1001+999999999GF100991001001999999001001MA1999999100891MD1710241+9999REMSYN060AAXX  08004 08023 32960 01007 10148 20126 30089 40159 57024;EQDQ01  00002PRCP99
0143080230999992000060803004+43470-003820FM-12+006599999V0201401N002112200019N0100001N1+01381+01191101351ADDGA1001+999999999GF100991001001999999001001MA1999999100651MD1710241+9999REMSYN060AAXX  08034 08023 42960 01404 10138 20119 30065 40135 57024;
0208080230999992000060806004+43470-003820FM-12+006599999V0209999C000012200019N0100001N1+01531+01301101191ADDAA199000091GA1001+999999999GF100991001001999999001001KA1120N+01341MA1999999100491MD1710161+9999REMSYN082AAXX  08064 08023 32960 00000 10153 20130 30049 40119 57016 333 20134 50553 55134;EQDQ01  00002PRCP99
0143080230999992000060809004+43470-003820FM-12+006599999V0202401N004112200019N0100001N1+01881+01431101161ADDGA1001+999999999GF100991001001999999001001MA1999999100471MD1710021+9999REMSYN060AAXX  08094 08023 42960 02408 10188 20143 30047 40116 57002;
0201080230999992000060812004+43470-003820FM-12+006599999V0202501N006712200019N0080001N1+01811+01571101121ADDAA199000091AY101061AY201061GA1001+999999999GF100991001001999999001001MA1999999100431MD1710041+9999MW1101REMSYN066AAXX  08124 08023 31958 02513 10181 20157 30043 40112 57004 71000;EQDQ01  00002PRCP99
0161080230999992000060815004+43470-003820FM-12+006599999V0202701N007712200019N0080001N1+01781+01471101061ADDAY111031AY201031GF101991011061008001001001MA1999999100371MD1610061+9999MW1101REMSYN072AAXX  08154 08023 41558 12715 10178 20147 30037 40106 56006 71010 81600;
0214080230999992000060818004+43470-003820FM-12+006599999V0202601N007210900019N0080001N1+01651+01391101031ADDAA199000091AY111061AY201061GF106991031061008001001091KA1999M+02051MA1999999100341MD1710031+9999MW1101REMSYN082AAXX  08184 08023 31558 62614 10165 20139 30034 40103 57003 71010 83609 333 10205;EQDQ01  00002PRCP99
0161080230999992000060821004+43470-003820FM-12+006599999V0202601N008210360019N0100001N1+01481+01361101161ADDAY121031AY211031GF108991031071008001071999MA1999999100461MD1310121+9999MW1801REMSYN072AAXX  08214 08023 41560 82616 10148 20136 30046 40116 53012 78021 8377/;
0164080230999992000060900004+43470-003820FM-12+006599999V0203001N009810075019N0200001N1+01561+01171999999ADDAA199000021GF106991051021008001031001MD1210091+9999REMSYN066AAXX  10124 08023 32570 63019 10156 20117 30178 40249 52009 85230;EQDQ01+101783APOSP Q02+102493APOSLP
0133080230999992000060903004+43470-003820FM-12+006599999V0202601N003110360019N0100001N1+01381+01141101071ADDGF108991031061008001071999MA1999999100371MD1710091+9999REMSYN066AAXX  09034 08023 42560 82606 10138 20114 30037 40107 57009 8367/;
0213080230999992000060906004+43470-003820FM-12+006599999V0202301N003110150019N0100001N1+01501+01211101171ADDAA112000191AY181061AY221061GF107991071001017501071999KA1120N+01351MA1999999100471MD1310101+9999MW1021REMSYN100AAXX  09064 08023 11760 72306 10150 20121 30047 40117 53010 69912 70282 8707/ 333 20135 50503 55104;
0161080230999992000060909004+43470-003820FM-12+006599999V0202701N007710042019N0100001N1+01341+01191101371ADDAY121031AY221031GF108991051071004501021999MA1999999100671MD1210201+9999MW1601REMSYN072AAXX  09094 08023 41460 82715 10134 20119 30067 40137 52020 76022 8572/;
0178080230999992000060912004+43470-003820FM-12+006599999V0202701N007710120019N0150001N1+01441+01021101571ADDAA106000791AY161061AY221061GF108991051081008001071999MA1999999100871MD1110201+9999MW1151REMSYN078AAXX  09124 08023 11565 82715 10144 20102 30087 40157 51020 69901 71562 8587/;
0161080230999992000060915004+43470-003820FM-12+006599999V0202501N008210075019N0080001N1+01321+01191101721ADDAY121031AY221031GF108991061071008001071999MA1999999101011MD1210141+9999MW1611REMSYN072AAXX  09154 08023 41558 82516 10132 20119 30101 40172 52014 76122 8677/;
0201080230999992000060918004+43470-003820FM-12+006599999V0202901N008210360019N0080001N1+01341+00991101801ADDAA112005191AY161061AY221061GF108991031021008001071999KA1999M+01621MA1999999101091MD1210081+9999MW1251REMSYN088AAXX  09184 08023 11558 82916 10134 20099 30109 40180 52008 60052 72562 8327/ 333 10162;
0161080230999992000060921004+43470-003820FM-12+006599999V0202801N008210360019N0200001N1+01441+00981101981ADDAY181031AY221031GF106991031021008001071001MA1999999101271MD1210181+9999MW1021REMSYN072AAXX  09214 08023 41570 62816 10144 20098 30127 40198 52018 70282 83270;
0178080230999992000061000004+43470-003820FM-12+006599999V0203001N010312200019N0200001N1+01381+00991102061ADDAA106000591AY181061AY211061GF102991021021008001001001MA1999999101351MD1110081+9999MW1011REMSYN078AAXX  10004 08023 11570 23020 10138 20099 30135 40206 51008 69941 70181 82200;
0161080230999992000061003004+43470-003820FM-12+006599999V0203301N007210360019N0050001N1+01121+01001102171ADDAY181031AY211031GF107991031031008001071999MA1999999101451MD1110101+9999MW1811REMSYN072AAXX  10034 08023 41550 73314 10112 20100 30145 40217 51010 78181 8337/;
0213080230999992000061006004+43470-003820FM-12+006599999V0203001N010810360019N0300001N1+01421+00911102201ADDAA112003091AY181061AY221061GF106991041021008001061001KA1120N+01081MA1999999101491MD1210051+9999MW1151REMSYN100AAXX  10064 08023 11580 63021 10142 20091 30149 40220 52005 60032 71582 84260 333 20108 50173 55000;
0133080230999992000061009004+43470-003820FM-12+006599999V0203001N008210360019N0170001N1+01511+00991102401ADDGF105991041081008001031001MA1999999101691MD1210201+9999REMSYN066AAXX  10094 08023 42567 53016 10151 20099 30169 40240 52020 84830;
0133080230999992000061015004+43470-003820FM-12+006599999V0202901N008712200019N0250001N1+01601+01311102411ADDGF102991021041012501001001MA1999999101711MD1810081+9999REMSYN066AAXX  10154 08023 42675 22917 10160 20131 30171 40241 58008 82400;
0186080230999992000061018004+43470-003820FM-12+006599999V0203101N004112200019N0200001N1+01601+01371102451ADDAA199000091GF103991031041012501001001KA1999M+01691MA1999999101751MD1210041+9999REMSYN076AAXX  10184 08023 32670 33108 10160 20137 30175 40245 52004 83400 333 10169;EQDQ01  00002PRCP99
0133080230999992000061021004+43470-003820FM-12+006599999V0202401N003112200019N0100001N1+01421+01241102461ADDGF103991021041012501051001MA1999999101751MD1410001+9999REMSYN066AAXX  10214 08023 42660 32406 10142 20124 30175 40246 54000 82450;
0163080230999992000061100004+43470-003820FM-12+006599999V0202101N003612200019N0100001N1+01431+01131102431ADDAA199000091GF104991041041012501031001MA1999999101721MD1610031+9999REMSYN066AAXX  11004 08023 32660 42107 10143 20113 30172 40243 56003 84430;EQDQ01  00002PRCP99
0133080230999992000061103004+43470-003820FM-12+006599999V0202401N003110075019N0100001N1+01481+01181102451ADDGF106991061051008001001001MA1999999101741MD1110021+9999REMSYN066AAXX  11034 08023 42560 62406 10148 20118 30174 40245 51002 86500;
0198080230999992000061106004+43470-003820FM-12+006599999V0202301N004110360019N0170001N1+01541+01251102491ADDAA199000091GF106991041051012501031001KA1120N+01421MA1999999101781MD1210041+9999REMSYN088AAXX  11064 08023 32667 62308 10154 20125 30178 40249 52004 84530 333 20142 50433 55119;EQDQ01  00002PRCP99
0133080230999992000061109004+43470-003820FM-12+006599999V0202801N007710120019N0200001N1+01721+01531102601ADDGF106991051081008001071001MA1999999101901MD1210121+9999REMSYN066AAXX  11094 08023 42570 62815 10172 20153 30190 40260 52012 85870;
0163080230999992000061112004+43470-003820FM-12+006599999V0203101N004110120019N0250001N1+01711+01571102731ADDAA199000091GF107991071081008001999999MA1999999102031MD1110131+9999REMSYN066AAXX  11124 08023 32575 73108 10171 20157 30203 40273 51013 878//;EQDQ01  00002PRCP99
0133080230999992000061115004+43470-003820FM-12+006599999V0202601N005710360019N0300001N1+01761+01261102771ADDGF106991021081008001071021MA1999999102071MD1310041+9999REMSYN066AAXX  11154 08023 42580 62611 10176 20126 30207 40277 53004 82872;
0186080230999992000061118004+43470-003820FM-12+006599999V0202801N004612200019N0300001N1+01721+01251102851ADDAA199000091GF104991041081008001001001KA1999M+01841MA1999999102151MD1310081+9999REMSYN076AAXX  11184 08023 32580 42809 10172 20125 30215 40285 53008 84800 333 10184;EQDQ01  00002PRCP99
0133080230999992000061121004+43470-003820FM-12+006599999V0202901N003610120019N0200001N1+01541+01251102971ADDGF105991051081008001001011MA1999999102261MD1210111+9999REMSYN066AAXX  11214 08023 42570 52907 10154 20125 30226 40297 52011 85801;
0163080230999992000061200004+43470-003820FM-12+006599999V0203001N004610120019N0200001N1+01521+01171103031ADDAA199000091GF106991061081008001001001MA1999999102321MD1210061+9999REMSYN066AAXX  12004 08023 32570 63009 10152 20117 30232 40303 52006 86800;EQDQ01  00002PRCP99
0133080230999992000061203004+43470-003820FM-12+006599999V0203001N003610075019N0200001N1+01461+01081102991ADDGF105991051021008001001001MA1999999102281MD1710041+9999REMSYN066AAXX  12034 08023 42570 53007 10146 20108 30228 40299 57004 85200;
0198080230999992000061206004+43470-003820FM-12+006599999V0203001N002610075019N0200001N1+01481+01101103031ADDAA199000091GF107991071051008001001001KA1120N+01421MA1999999102321MD1310041+9999REMSYN088AAXX  12064 08023 32570 73005 10148 20110 30232 40303 53004 87500 333 20142 50443 55071;EQDQ01  00002PRCP99
0133080230999992000061209004+43470-003820FM-12+006599999V0203601N001510075019N0200001N1+01641+01161103171ADDGF106991061051008001001001MA1999999102461MD1210141+9999REMSYN066AAXX  12094 08023 42570 63603 10164 20116 30246 40317 52014 86500;
0163080230999992000061212004+43470-003820FM-12+006599999V0200101N002112200019N0200001N1+01681+01081103191ADDAA199000091GF101991011011008001001001MA1999999102481MD1010021+9999REMSYN066AAXX  12124 08023 32570 10104 10168 20108 30248 40319 50002 81100;EQDQ01  00002PRCP99
0143080230999992000061215004+43470-003820FM-12+006599999V0200401N004112200019N0200001N1+01741+01191103131ADDGA1001+999999999GF100991001001999999001001MA1999999102421MD1710061+9999REMSYN060AAXX  12154 08023 42970 00408 10174 20119 30242 40313 57006;
0196080230999992000061218004+43470-003820FM-12+006599999V0200501N004112200019N0200001N1+01661+01141103071ADDAA199000091GA1001+999999999GF100991001001999999001001KA1999M+01801MA1999999102361MD1710061+9999REMSYN070AAXX  12184 08023 32970 00508 10166 20114 30236 40307 57006 333 10180;EQDQ01  00002PRCP99
0143080230999992000061221004+43470-003820FM-12+006599999V0200801N004112200019N0200001N1+01501+01161103101ADDGA1001+999999999GF100991001001999999001001MA1999999102391MD1510031+9999REMSYN060AAXX  12214 08023 42970 00808 10150 20116 30239 40310 55003;
0173080230999992000061300004+43470-003820FM-12+006599999V0200401N003112200019N0100001N1+01351+01161103041ADDAA199000091GA1001+999999999GF100991001001999999001001MA1999999102321MD1710071+9999REMSYN060AAXX  13004 08023 32960 00406 10135 20116 30232 40304 57007;EQDQ01  00002PRCP99
0143080230999992000061303004+43470-003820FM-12+006599999V0201101N003612200019N0100001N1+01281+01091102881ADDGA1001+999999999GF100991001001999999001001MA1999999102161MD1710161+9999REMSYN060AAXX  13034 08023 42960 01107 10128 20109 30216 40288 57016;
0208080230999992000061306004+43470-003820FM-12+006599999V0201301N003612200019N0100001N1+01381+01111102871ADDAA199000091GA1001+999999999GF100991001001999999001001KA1120N+01241MA1999999102161MD1410001+9999REMSYN082AAXX  13064 08023 32960 01307 10138 20111 30216 40287 54000 333 20124 50503 55117;EQDQ01  00002PRCP99
0143080230999992000061309004+43470-003820FM-12+006599999V0201301N006212200019N0150001N1+01761+01391102881ADDGA1001+999999999GF100991001001999999001001MA1999999102181MD1310011+9999REMSYN060AAXX  13094 08023 42965 01312 10176 20139 30218 40288 53001;
0173080230999992000061312004+43470-003820FM-12+006599999V0200501N005712200019N0180001N1+01821+01441102861ADDAA199000091GA1001+999999999GF100991001001999999001001MA1999999102161MD1810021+9999REMSYN060AAXX  13124 08023 32968 00511 10182 20144 30216 40286 58002;EQDQ01  00002PRCP99
0143080230999992000061315004+43470-003820FM-12+006599999V0200601N006212200019N0160001N1+01861+01521102781ADDGA1001+999999999GF100991001001999999001001MA1999999102081MD1710081+9999REMSYN060AAXX  13154 08023 42966 00612 10186 20152 30208 40278 57008;
0186080230999992000061318004+43470-003820FM-12+006599999V0200601N006712200019N0200001N1+01771+01551102821ADDAA199000091GF101991011051008001001001KA1999M+01901MA1999999102121MD1310041+9999REMSYN076AAXX  13184 08023 32570 10613 10177 20155 30212 40282 53004 81500 333 10190;EQDQ01  00002PRCP99
0143080230999992000061321004+43460-003810FM-12+006599999V0200601N004612200019N0180001N1+01641+01571102871ADDGA1001+999999999GF100991001001999999001001MA1999999102161MD1210041+9999REMSYN060AAXX  13214 08023 42968 00609 10164 20157 30216 40287 52004;
0163080230999992000061400004+43460-003810FM-12+006599999V0200901N004110042019N0150001N1+01631+01541102871ADDAA199000091GF106991061061004501001001MA1999999102161MD1510011+9999REMSYN066AAXX  14004 08023 32465 60908 10163 20154 30216 40287 55001 86600;EQDQ01  00002PRCP99
0143080230999992000061403004+43460-003810FM-12+006599999V0201201N002112200019N0150001N1+01501+01411102851ADDGA1001+999999999GF100991001001999999001001MA1999999102141MD1810021+9999REMSYN060AAXX  14034 08023 42965 01204 10150 20141 30214 40285 58002;
0226080230999992000061406004+43460-003810FM-12+006599999V0200901N002612200019N0030001N1+01571+01541102851ADDAA199000091AY121061AY211061GF102991021061002501001001KA1120N+01451MA1999999102141MD1410001+9999MW1101REMSYN094AAXX  14064 08023 31330 20905 10157 20154 30214 40285 54000 71021 82600 333 20145 50373 55112;EQDQ01  00002PRCP99
0133080230999992000061409004+43460-003810FM-12+006599999V0200601N006712200019N0120001N1+01851+01651102861ADDGF102991021061004501001001MA1999999102161MD1110021+9999REMSYN066AAXX  14094 08023 42462 20613 10185 20165 30216 40286 51002 82600;
0163080230999992000061412004+43460-003810FM-12+006599999V0200601N008212200019N0120001N1+01881+01631102821ADDAA199000091GF101991011011008001001001MA1999999102121MD1810041+9999REMSYN066AAXX  14124 08023 32562 10616 10188 20163 30212 40282 58004 81100;EQDQ01  00002PRCP99
0133080230999992000061415004+43460-003810FM-12+006599999V0200701N008212200019N0100001N1+01841+01641102801ADDGF101991011011008001001001MA1999999102101MD1610021+9999REMSYN066AAXX  14154 08023 42560 10716 10184 20164 30210 40280 56002 81100;
0186080230999992000061418004+43460-003810FM-12+006599999V0200801N007212200019N0100001N1+01751+01601102741ADDAA199000091GF101991011061004501001001KA1999M+01931MA1999999102041MD1810061+9999REMSYN076AAXX  14184 08023 32460 10814 10175 20160 30204 40274 58006 81600 333 10193;EQDQ01  00002PRCP99
0161080230999992000061421004+43460-003810FM-12+006599999V0200701N007212200019N0090001N1+01641+01611102751ADDAY101031AY201031GF101991011061002501001001MA1999999102041MD1410001+9999MW1101REMSYN072AAXX  14214 08023 41359 10714 10164 20161 30204 40275 54000 71000 81600;
0163080230999992000061500004+43460-003810FM-12+006599999V0201001N003612200019N0100001N1+01621+01591102771ADDAA199000091GF102991021061002501001001MA1999999102061MD1110021+9999REMSYN066AAXX  15004 08023 32360 21007 10162 20159 30206 40277 51002 82600;EQDQ01  00002PRCP99
0161080230999992000061503004+43460-003810FM-12+006599999V0200901N004112200019N0090001N1+01601+01601102671ADDAY101031AY201031GF101991011061004501001001MA1999999101961MD1810101+9999MW1101REMSYN072AAXX  15034 08023 41459 10908 10160 20160 30196 40267 58010 71000 81600;
0226080230999992000061506004+43460-003810FM-12+006599999V0200901N005710021019N0015001N1+01621+01621102581ADDAA199000091AY111061AY211061GF108991081061002501999999KA1120N+01581MA1999999101881MD1610081+9999MW1101REMSYN094AAXX  15064 08023 31315 80911 10162 20162 30188 40258 56008 71011 886// 333 20158 50633 55108;EQDQ01  00002PRCP99
0171080230999992000061509004+43460-003810FM-12+006599999V0200801N007210001519N0001001N1+01651+01651102541ADDAY141031AY241031GA1091+999999999GF109991091999999999999999MA1999999101841MD1810041+9999MW1471REMSYN066AAXX  15094 08023 41/01 90814 10165 20165 30184 40254 58004 74744;
0171080230999992000061512004+43460-003810FM-12+006599999V0200701N010810003019N0003001N1+01801+01751102501ADDAY141061AY241061GA1091+999999999GF109991091999999999999999MA1999999101801MD1710041+9999MW1431REMSYN066AAXX  15124 08023 41/03 90721 10180 20175 30180 40250 57004 74344;
0171080230999992000061515004+43460-003810FM-12+006599999V0200601N009812200019N0030001N1+01811+01731102401ADDAY141031AY241031GA1001+999999999GF100991001001999999001001MA1999999101701MD1710101+9999MW1101REMSYN066AAXX  15154 08023 41930 00619 10181 20173 30170 40240 57010 71044;
0224080230999992000061518004+43460-003810FM-12+006599999V0200701N008212200019N0005001N1+01681+01681102311ADDAA199000091AY141061AY241061GA1001+999999999GF100991001001999999001001KA1999M+01901MA1999999101611MD1710091+9999MW1411REMSYN076AAXX  15184 08023 31905 00716 10168 20168 30161 40231 57009 74144 333 10190;EQDQ01  00002PRCP99
0171080230999992000061521004+43460-003810FM-12+006599999V0201001N008212200019N0090001N1+01901+01741102331ADDAY141031AY201031GA1001+999999999GF100991001001999999001001MA1999999101631MD1310021+9999MW1101REMSYN066AAXX  15214 08023 41959 01016 10190 20174 30163 40233 53002 71040;
0201080230999992000061600004+43460-003810FM-12+006599999V0200801N005112200019N0080001N1+01841+01711102251ADDAA199000091AY141061AY201061GA1001+999999999GF100991001001999999001001MA1999999101551MD1810081+9999MW1101REMSYN066AAXX  16004 08023 31958 00810 10184 20171 30155 40225 58008 71040;EQDQ01  00002PRCP99
0171080230999992000061603004+43460-003810FM-12+006599999V0201101N005112200019N0070001N1+01781+01681102121ADDAY101031AY201031GA1001+999999999GF100991001001999999001001MA1999999101421MD1710131+9999MW1101REMSYN066AAXX  16034 08023 41957 01110 10178 20168 30142 40212 57013 71000;
0236080230999992000061606004+43460-003810FM-12+006599999V0201401N004112200019N0080001N1+02001+01581102111ADDAA199000091AY101061AY201061GA1001+999999999GF100991001001999999001001KA1120N+01641MA1999999101421MD1410001+9999MW1051REMSYN088AAXX  16064 08023 31958 01408 10200 20158 30142 40211 54000 70500 333 20164 50363 55046;EQDQ01  00002PRCP99
0133080230999992000061609004+43460-003810FM-12+006599999V0200701N003112200019N0100001N1+02491+01851102071ADDGF101991001001999999001011MA1999999101391MD1510031+9999REMSYN066AAXX  16094 08023 42960 10706 10249 20185 30139 40207 55003 80001;
0163080230999992000061612004+43460-003810FM-12+006599999V0200901N005112200019N0150001N1+02731+01981102001ADDAA199000091GF101991011011012501001011MA1999999101331MD1810061+9999REMSYN066AAXX  16124 08023 32665 10910 10273 20198 30133 40200 58006 81101;EQDQ01  00002PRCP99
0133080230999992000061615004+43460-003810FM-12+006599999V0200901N008212200019N0150001N1+02721+01811101901ADDGF101991011041008001001001MA1999999101231MD1710101+9999REMSYN066AAXX  16154 08023 42565 10916 10272 20181 30123 40190 57010 81400;
0186080230999992000061618004+43460-003810FM-12+006599999V0200801N008712200019N0180001N1+02241+02151101871ADDAA199000091GF102991001001999999001021KA1999M+02821MA1999999101191MD1610031+9999REMSYN076AAXX  16184 08023 32968 20817 10224 20215 30119 40187 56003 80002 333 10282;EQDQ01  00002PRCP99
0133080230999992000061621004+43460-003810FM-12+006599999V0201001N006712200019N0180001N1+02371+01521101901ADDGF102991001001999999001021MA1999999101221MD1310031+9999REMSYN066AAXX  16214 08023 42968 21013 10237 20152 30122 40190 53003 80002;
0173080230999992000061700004+43460-003810FM-12+006599999V0200901N003612200019N0150001N1+02171+01571101921ADDAA199000091GA1001+999999999GF100991001001999999001001MA1999999101231MD1410001+9999REMSYN060AAXX  17004 08023 32965 00907 10217 20157 30123 40192 54001;EQDQ01  00002PRCP99
0143080230999992000061703004+43460-003810FM-12+006599999V0200901N005112200019N0150001N1+02151+01551101881ADDGA1001+999999999GF100991001001999999001001MA1999999101191MD1810041+9999REMSYN060AAXX  17034 08023 42965 00910 10215 20155 30119 40188 58004;
0208080230999992000061706004+43460-003810FM-12+006599999V0209999C000012200019N0100001N1+02041+01591101911ADDAA199000091GA1001+999999999GF100991001001999999001001KA1120N+01861MA1999999101221MD1310031+9999REMSYN082AAXX  17064 08023 32960 00000 10204 20159 30122 40191 53003 333 20186 50763 55107;EQDQ01  00002PRCP99
0143080230999992000061709004+43460-003810FM-12+006599999V0200901N005112200019N0100001N1+02311+01601101931ADDGA1001+999999999GF100991001001999999001001MA1999999101251MD1110031+9999REMSYN060AAXX  17094 08023 42960 00910 10231 20160 30125 40193 51003;
0173080230999992000061712004+43460-003810FM-12+006599999V0200801N008212200019N0120001N1+02141+01681101901ADDAA199000091GA1001+999999999GF100991001001999999001001MA1999999101211MD1810041+9999REMSYN060AAXX  17124 08023 32962 00816 10214 20168 30121 40190 58004;EQDQ01  00002PRCP99
0143080230999992000061715004+43460-003810FM-12+006599999V0200901N008712200019N0120001N1+02241+01721101711ADDGA1001+999999999GF100991001001999999001001MA1999999101031MD1710181+9999REMSYN060AAXX  17154 08023 42962 00917 10224 20172 30103 40171 57018;
0196080230999992000061718004+43460-003810FM-12+006599999V0201001N008712200019N0120001N1+02401+01581101591ADDAA199000091GA1001+999999999GF100991001001999999001001KA1999M+02471MA1999999100911MD1710121+9999REMSYN070AAXX  17184 08023 32962 01017 10240 20158 30091 40159 57012 333 10247;EQDQ01  00002PRCP99
0143080230999992000061721004+43460-003810FM-12+006599999V0201001N006212200019N0100001N1+02241+01471101531ADDGA1001+999999999GF100991001001999999001001MA1999999100851MD1710061+9999REMSYN060AAXX  17214 08023 42960 01012 10224 20147 30085 40153 57006;
0173080230999992000061800004+43460-003810FM-12+006599999V0201201N006212200019N0100001N1+02301+01501101491ADDAA199000091GA1001+999999999GF100991001001999999001001MA1999999100811MD1810041+9999REMSYN060AAXX  18004 08023 32960 01212 10230 20150 30081 40149 58004;EQDQ01  00002PRCP99
0143080230999992000061803004+43460-003810FM-12+006599999V0202201N002112200019N0100001N1+02321+01481101451ADDGA1001+999999999GF100991001001999999001001MA1999999100771MD1710041+9999REMSYN060AAXX  18034 08023 42960 02204 10232 20148 30077 40145 57004;
0208080230999992000061806004+43460-003810FM-12+006599999V0202001N008712200019N0100001N1+02801+01011101421ADDAA199000091GA1001+999999999GF100991001001999999001001KA1120N+02001MA1999999100751MD1510021+9999REMSYN082AAXX  18064 08023 32960 02017 10280 20101 30075 40142 55002 333 20200 50753 55140;EQDQ01  00002PRCP99
0143080230999992000061809004+43460-003810FM-12+006599999V0201701N006212200019N0200001N1+03101+01061101451ADDGA1001+999999999GF100991001001999999001001MA1999999100791MD1110041+9999REMSYN060AAXX  18094 08023 42970 01712 10310 20106 30079 40145 51004;
0173080230999992000061812004+43460-003810FM-12+006599999V0202001N008212200019N0250001N1+03351+01381101471ADDAA199000091GA1001+999999999GF100991001001999999001001MA1999999100811MD1310021+9999REMSYN060AAXX  18124 08023 32975 02016 10335 20138 30081 40147 53002;EQDQ01  00002PRCP99
0143080230999992000061815004+43460-003810FM-12+006599999V0202601N008712200019N0120001N1+02162+01541101571ADDGA1001+999999999GF100991001001999999001001MA1999999100891MD1310081+9999REMSYN060AAXX  18154 08023 42962 02617 10216 20154 30089 40157 53008;
0186080230999992000061818004+43460-003810FM-12+006599999V0202601N006212200019N0120001N1+02181+01511101751ADDAA199000091GF101991011001999999081001KA1999M+03451MA1999999101061MD1210171+9999REMSYN076AAXX  18184 08023 32962 12612 10218 20151 30106 40175 52017 81080 333 10345;EQDQ01  00002PRCP99
0133080230999992000061821004+43460-003810FM-12+006599999V0202601N004612200019N0100001N1+01861+01631101901ADDGF101991011001999999081001MA1999999101211MD1110151+9999REMSYN066AAXX  18214 08023 42960 12609 10186 20163 30121 40190 51015 81080;
0173080230999992000061900004+43460-003810FM-12+006599999V0202201N002112200019N0100001N1+01861+01561101961ADDAA199000091GA1001+999999999GF100991001001999999001001MA1999999101271MD1110061+9999REMSYN060AAXX  19004 08023 32960 02204 10186 20156 30127 40196 51006;EQDQ01  00002PRCP99
0143080230999992000061903004+43460-003810FM-12+006599999V0201801N001012200019N0100001N1+01821+01481101841ADDGA1001+999999999GF100991001001999999001001MA1999999101151MD1810121+9999REMSYN060AAXX  19034 08023 42960 01802 10182 20148 30115 40184 58012;
0201080230999992000061906004+43460-003810FM-12+006599999V0201401N002112200019N0080001N1+01761+01521101831ADDAA199000091AY101061AY201061GA1001+999999999GF100991001001999999001001MA1999999101131MD1610021+9999MW1101REMSYN066AAXX  19064 08023 31958 01404 10176 20152 30113 40183 56002 71000;EQDQ01  00002PRCP99
0161080230999992000061909004+43460-003810FM-12+006599999V0200701N005112200019N0080001N1+01941+01661101821ADDAY101031AY201031GF101991001001999999001011MA1999999101131MD1410001+9999MW1101REMSYN072AAXX  19094 08023 41958 10710 10194 20166 30113 40182 54000 71000 80001;
0191080230999992000061912004+43460-003810FM-12+006599999V0200601N005712200019N0080001N1+01981+01791101641ADDAA199000091AY101061AY201061GF102991001001999999001011MA1999999100951MD1710181+9999MW1101REMSYN072AAXX  19124 08023 31958 20611 10198 20179 30095 40164 57018 71000 80001;EQDQ01  00002PRCP99
0161080230999992000061915004+43460-003810FM-12+006599999V0202901N004110075019N0050001N1+01961+01781101541ADDAY121031AY211031GF108991081061008001999999MA1999999100851MD1610101+9999MW1101REMSYN072AAXX  19154 08023 41550 82908 10196 20178 30085 40154 56010 71021 886//;
0214080230999992000061918004+43460-003810FM-12+006599999V0202601N005710075019N0050001N1+01851+01721101511ADDAA199000091AY121061AY211061GF108991081061008001001001KA1999M+02061MA1999999100821MD1710031+9999MW1101REMSYN082AAXX  19184 08023 31550 82611 10185 20172 30082 40151 57003 71021 88600 333 10206;EQDQ01  00002PRCP99
0161080230999992000061921004+43460-003810FM-12+006599999V0202601N007210075019N0080001N1+01781+01611101581ADDAY121031AY221031GF107991071061008001999999MA1999999100891MD1310071+9999MW1101REMSYN072AAXX  19214 08023 41558 72614 10178 20161 30089 40158 53007 71022 876//;
0191080230999992000062000004+43460-003810FM-12+006599999V0202601N007210075019N0090001N1+01781+01631101641ADDAA199000091AY121061AY221061GF108991081061008001999999MA1999999100951MD1310061+9999MW1101REMSYN072AAXX  20004 08023 31559 82614 10178 20163 30095 40164 53006 71022 886//;EQDQ01  00002PRCP99
0161080230999992000062003004+43460-003810FM-12+006599999V0202401N003110075019N0090001N1+01751+01601101601ADDAY121031AY221031GF108991081061008001999999MA1999999100911MD1810041+9999MW1101REMSYN072AAXX  20034 08023 41559 82406 10175 20160 30091 40160 58004 71022 886//;
0226080230999992000062006004+43460-003810FM-12+006599999V0202501N002110360019N0080001N1+01721+01551101641ADDAA199000091AY121061AY221061GF105991021061008001031001KA1120N+01721MA1999999100941MD1210031+9999MW1101REMSYN094AAXX  20064 08023 31558 52504 10172 20155 30094 40164 52003 71022 82630 333 20172 50463 55050;EQDQ01  00002PRCP99
0161080230999992000062009004+43460-003810FM-12+006599999V0203601N000510075019N0050001N1+01891+01641101641ADDAY121031AY221031GF107991071061008001001001MA1999999100951MD1110011+9999MW1101REMSYN072AAXX  20094 08023 41550 73601 10189 20164 30095 40164 51001 71022 87600;
0191080230999992000062012004+43460-003810FM-12+006599999V0200301N004110360019N0050001N1+01951+01701101601ADDAA199000091AY121061AY221061GF105991041061008001031001MA1999999100911MD1610041+9999MW1101REMSYN072AAXX  20124 08023 31550 50308 10195 20170 30091 40160 56004 71022 84630;EQDQ01  00002PRCP99
0161080230999992000062015004+43460-003810FM-12+006599999V0200601N005110360019N0050001N1+01961+01661101541ADDAY121031AY221031GF107991041061008001031021MA1999999100851MD1710061+9999MW1101REMSYN072AAXX  20154 08023 41550 70610 10196 20166 30085 40154 57006 71022 84632;
0214080230999992000062018004+43460-003810FM-12+006599999V0200701N004110075019N0050001N1+01831+01651101551ADDAA199000091AY121061AY221061GF108991081061008001001001KA1999M+02071MA1999999100861MD1110011+9999MW1101REMSYN082AAXX  20184 08023 31550 80708 10183 20165 30086 40155 51001 71022 88600 333 10207;EQDQ01  00002PRCP99
0161080230999992000062021004+43460-003810FM-12+006599999V0200601N002110075019N0050001N1+01811+01681101661ADDAY121031AY221031GF108991081061008001001001MA1999999100971MD1210111+9999MW1101REMSYN072AAXX  20214 08023 41550 80604 10181 20168 30097 40166 52011 71022 88600;
0191080230999992000062100004+43460-003810FM-12+006599999V0201001N002112200019N0050001N1+01721+01621101681ADDAA199000091AY121061AY211061GF103991031061008001001001MA1999999100981MD1110011+9999MW1101REMSYN072AAXX  21004 08023 31550 31004 10172 20162 30098 40168 51001 71021 83600;EQDQ01  00002PRCP99
0161080230999992000062103004+43460-003810FM-12+006599999V0201201N002112200019N0070001N1+01711+01591101671ADDAY121031AY211031GF104991021051008001031001MA1999999100971MD1610011+9999MW1101REMSYN072AAXX  21034 08023 41557 41204 10171 20159 30097 40167 56001 71021 82530;
0226080230999992000062106004+43460-003810FM-12+006599999V0202401N002110360019N0020001N1+01801+01631101781ADDAA199000091AY121061AY211061GF107991031051008001061001KA1120N+01691MA1999999101091MD1210121+9999MW1101REMSYN094AAXX  21064 08023 31520 72404 10180 20163 30109 40178 52012 71021 83560 333 20169 50073 55055;EQDQ01  00002PRCP99
0161080230999992000062109004+43460-003810FM-12+006599999V0202701N002610360019N0020001N1+01981+01741101941ADDAY121031AY221031GF107991031051012501051999MA1999999101251MD1210161+9999MW1101REMSYN072AAXX  21094 08023 41620 72705 10198 20174 30125 40194 52016 71022 8355/;
0163080230999992000062112004+43460-003810FM-12+006599999V0203101N005710120019N0150001N1+01761+01501102041ADDAA199000091GF108991081051012501999999MA1999999101341MD1210091+9999REMSYN066AAXX  21124 08023 32665 83111 10176 20150 30134 40204 52009 885//;EQDQ01  00002PRCP99
0161080230999992000062115004+43460-003810FM-12+006599999V0202601N003110042019N0080001N1+01721+01481102111ADDAY151031AY221031GF108991081071004501999999MA1999999101411MD1110071+9999MW1101REMSYN072AAXX  21154 08023 41458 82606 10172 20148 30141 40211 51007 71052 887//;
0201080230999992000062118004+43460-003810FM-12+006599999V0209999C000010150019N0100001N1+01701+01361102151ADDAA112000791AY151061AY221061GF108991081081012501999999KA1999M+02071MA1999999101451MD1210041+9999MW1501REMSYN088AAXX  21184 08023 11660 80000 10170 20136 30145 40215 52004 69902 75052 888// 333 10207;
0133080230999992000062121004+43460-003810FM-12+006599999V0202301N002110075019N0100001N1+01711+01391102251ADDGF108991081071008001999999MA1999999101551MD1210101+9999REMSYN066AAXX  21214 08023 42560 82304 10171 20139 30155 40225 52010 887//;
0144080230999992000062200004+43460-003810FM-12+006599999V0202201N002610360019N0100001N1+01691+01351102271ADDAA199000021GF108991041081008001071999MA1999999101571MD1110021+9999REMSYN066AAXX  22004 08023 32560 82205 10169 20135 30157 40227 51002 8487/;
0133080230999992000062203004+43460-003810FM-12+006599999V0202401N003110120019N0100001N1+01671+01271102271ADDGF108991051081008001071999MA1999999101571MD1510001+9999REMSYN066AAXX  22034 08023 42560 82406 10167 20127 30157 40227 55000 8587/;
0185080230999992000062206004+43460-003810FM-12+006599999V0202901N002610075019N0100001N1+01631+01331102351ADDAA112000791GF108991071051008001071999KA1120N+01601MA1999999101651MD1310081+9999REMSYN094AAXX  22064 08023 12560 82905 10163 20133 30165 40235 53008 69902 8757/ 333 20160 50163 55000;
0133080230999992000062209004+43460-003810FM-12+006599999V0202401N003610075019N0100001N1+01691+01241102441ADDGF108991071051008001071999MA1999999101741MD1210091+9999REMSYN066AAXX  22094 08023 42560 82407 10169 20124 30174 40244 52009 8757/;
0163080230999992000062212004+43460-003810FM-12+006599999V0202901N003110120019N0150001N1+01841+01251102451ADDAA199000091GF108991061051012501071999MA1999999101751MD1210011+9999REMSYN066AAXX  22124 08023 32665 82906 10184 20125 30175 40245 52001 8657/;EQDQ01  00002PRCP99
0133080230999992000062215004+43460-003810FM-12+006599999V0202901N003110120019N0150001N1+01821+01231102441ADDGF108991051051012501071999MA1999999101741MD1810011+9999REMSYN066AAXX  22154 08023 42665 82906 10182 20123 30174 40244 58001 8557/;
0186080230999992000062218004+43460-003810FM-12+006599999V0202901N003110120019N0150001N1+01751+01321102461ADDAA199000091GF108991071081008001071999KA1999M+01951MA1999999101761MD1310021+9999REMSYN076AAXX  22184 08023 32565 82906 10175 20132 30176 40246 53002 8787/ 333 10195;EQDQ01  00002PRCP99
0161080230999992000062221004+43460-003810FM-12+006599999V0202801N003610075019N0150001N1+01721+01171102581ADDAY151031AY221031GF108991051051008001071999MA1999999101881MD1210121+9999MW1021REMSYN072AAXX  22214 08023 41565 82807 10172 20117 30188 40258 52012 70252 8557/;
0178080230999992000062300004+43460-003810FM-12+006599999V0202301N004110120019N0150001N1+01571+01261102571ADDAA106000791AY151061AY221061GF108991051081008001071999MA1999999101861MD1810021+9999MW1021REMSYN078AAXX  23004 08023 11565 82308 10157 20126 30186 40257 58002 69901 70252 8587/;
0133080230999992000062303004+43460-003810FM-12+006599999V0202301N003610120019N0150001N1+01561+01171102571ADDGF108991051081008001071999MA1999999101861MD1410001+9999REMSYN066AAXX  23034 08023 42565 82307 10156 20117 30186 40257 54000 8587/;
0213080230999992000062306004+43460-003810FM-12+006599999V0202201N003610120019N0100001N1+01481+01301102621ADDAA112000191AY151061AY221061GF107991051081008001071999KA1120N+01441MA1999999101911MD1310051+9999MW1201REMSYN100AAXX  23064 08023 11560 72207 10148 20130 30191 40262 53005 69912 72052 8587/ 333 20144 50343 55011;
0133080230999992000062309004+43460-003810FM-12+006599999V0202601N004110360019N0150001N1+01731+01241102681ADDGF105991031081008001031001MA1999999101981MD1110071+9999REMSYN066AAXX  23094 08023 42565 52608 10173 20124 30198 40268 51007 83830;
0144080230999992000062312004+43460-003810FM-12+006599999V0203401N003110360019N0200001N1+01851+01181102701ADDAA199000021GF105991031081008001071001MA1999999102001MD1210021+9999REMSYN066AAXX  23124 08023 32570 53406 10185 20118 30200 40270 52002 83870;
0133080230999992000062315004+43460-003810FM-12+006599999V0209999V004112200019N0250001N1+01841+01271102701ADDGF104991031011008001031001MA1999999102001MD1410001+9999REMSYN066AAXX  23154 08023 42575 49908 10184 20127 30200 40270 54000 83130;
0167080230999992000062318004+43460-003810FM-12+006599999V0203401N003112200019N0250001N1+01821+01161102661ADDAA199000021GF102991021081008001001001KA1999M+01921MA1999999101961MD1710041+9999REMSYN076AAXX  23184 08023 32575 23406 10182 20116 30196 40266 57004 82800 333 10192;
0133080230999992000062321004+43460-003810FM-12+006599999V0203301N003110120019N0250001N1+01681+01211102751ADDGF106991061081008001001001MA1999999102041MD1310081+9999REMSYN066AAXX  23214 08023 42575 63306 10168 20121 30204 40275 53008 86800;
0163080230999992000062400004+43460-003810FM-12+006599999V0202401N001510120019N0150001N1+01681+01211102661ADDAA199000091GF107991071081008001001001MA1999999101961MD1810081+9999REMSYN066AAXX  24004 08023 32565 72403 10168 20121 30196 40266 58008 87800;EQDQ01  00002PRCP99
0133080230999992000062403004+43460-003810FM-12+006599999V0202401N002110120019N0150001N1+01571+01241102651ADDGF108991081081008001001001MA1999999101941MD1710021+9999REMSYN066AAXX  24034 08023 42565 82404 10157 20124 30194 40265 57002 88800;
0226080230999992000062406004+43460-003810FM-12+006599999V0202301N002610120019N0090001N1+01591+01261102661ADDAA199000091AY121061AY221061GF107991071081008001999999KA1120N+01541MA1999999101951MD1210011+9999MW1101REMSYN094AAXX  24064 08023 31559 72305 10159 20126 30195 40266 52001 71022 878// 333 20154 50463 55101;EQDQ01  00002PRCP99
0171080230999992000062409004+43460-003810FM-12+006599999V0202601N003110090019N0090001N1+01581+01331102671ADDAY181031AY221031GF107991071081004501999999MA1999999101961MD1110011+9999MW1501REMSYN082AAXX  24094 08023 41459 72606 10158 20133 30196 40267 51001 75082 878// 333 96010;
0178080230999992000062412004+43460-003810FM-12+006599999V0200101N002610090019N0200001N1+01861+01211102651ADDAA106000791AY181061AY251061GF105991051081004501001001MA1999999101951MD1810011+9999MW1011REMSYN078AAXX  24124 08023 11470 50105 10186 20121 30195 40265 58001 69901 70185 85800;
0133080230999992000062415004+43460-003810FM-12+006599999V0200201N004112200019N0300001N1+01821+01251102541ADDGF103991011041012501001051MA1999999101841MD1710111+9999REMSYN066AAXX  24154 08023 42680 30208 10182 20125 30184 40254 57011 81405;
0173080230999992000062418004+43460-003810FM-12+006599999V0200301N003610900019N0200001N1+01781+01241102461ADDAA112000791GF105991011081008001001051KA1999M+01941MA1999999101761MD1710081+9999REMSYN082AAXX  24184 08023 12570 50307 10178 20124 30176 40246 57008 69902 81805 333 10194;
0133080230999992000062421004+43460-003810FM-12+006599999V0200901N001010360019N0150001N1+01541+01151102471ADDGF105991031051012501031011MA1999999101761MD1510001+9999REMSYN066AAXX  24214 08023 42665 50902 10154 20115 30176 40247 55000 83531;
0163080230999992000062500004+43460-003810FM-12+006599999V0201401N002112200019N0150001N1+01481+01181102381ADDAA199000091GF102991011051012501001011MA1999999101671MD1810091+9999REMSYN066AAXX  25004 08023 32665 21404 10148 20118 30167 40238 58009 81501;EQDQ01  00002PRCP99
0133080230999992000062503004+43460-003810FM-12+006599999V0201501N002112200019N0150001N1+01451+01151102281ADDGF101991001001999999001011MA1999999101571MD1710101+9999REMSYN066AAXX  25034 08023 42965 11504 10145 20115 30157 40228 57010 80001;
0198080230999992000062506004+43460-003810FM-12+006599999V0201701N001512200019N0250001N1+01491+01211102201ADDAA199000091GF103991011011008001001091KA1120N+01341MA1999999101491MD1610081+9999REMSYN088AAXX  25064 08023 32575 31703 10149 20121 30149 40220 56008 81109 333 20134 50443 55075;EQDQ01  00002PRCP99
0133080230999992000062509004+43460-003810FM-12+006599999V0200401N002612200019N0250001N1+01801+01301102161ADDGF101991001001999999001091MA1999999101461MD1610031+9999REMSYN066AAXX  25094 08023 42975 10405 10180 20130 30146 40216 56003 80009;
0163080230999992000062512004+43460-003810FM-12+006599999V0200501N004112200019N0250001N1+01901+01341102121ADDAA199000091GF101991001001999999001011MA1999999101421MD1810041+9999REMSYN066AAXX  25124 08023 32975 10508 10190 20134 30142 40212 58004 80001;EQDQ01  00002PRCP99
0133080230999992000062515004+43460-003810FM-12+006599999V0200501N004612200019N0300001N1+01981+01431102041ADDGF101991001001999999001011MA1999999101351MD1710071+9999REMSYN066AAXX  25154 08023 42980 10509 10198 20143 30135 40204 57007 80001;
0186080230999992000062518004+43460-003810FM-12+006599999V0200501N005112200019N0180001N1+01901+01491101991ADDAA199000091GF102991001001999999001011KA1999M+02051MA1999999101301MD1610051+9999REMSYN076AAXX  25184 08023 32968 20510 10190 20149 30130 40199 56005 80001 333 10205;EQDQ01  00002PRCP99
0133080230999992000062521004+43460-003810FM-12+006599999V0200601N005112200019N0150001N1+01741+01501102011ADDGF102991011011008001001011MA1999999101311MD1310011+9999REMSYN066AAXX  25214 08023 42565 20610 10174 20150 30131 40201 53001 81101;
0163080230999992000062600004+43460-003810FM-12+006599999V0200601N006712200019N0150001N1+01721+01511101951ADDAA199000091GF104991041051012501001001MA1999999101251MD1810061+9999REMSYN066AAXX  26004 08023 32665 40613 10172 20151 30125 40195 58006 84500;EQDQ01  00002PRCP99
0133080230999992000062603004+43460-003810FM-12+006599999V0200901N003610075019N0120001N1+01761+01541101871ADDGF107991061051008001071001MA1999999101171MD1710081+9999REMSYN066AAXX  26034 08023 42562 70907 10176 20154 30117 40187 57008 86570;
0198080230999992000062606004+43460-003810FM-12+006599999V0201101N003110075019N0200001N1+01731+01491101771ADDAA199000091GF108991081051008001999999KA1120N+01701MA1999999101071MD1710101+9999REMSYN088AAXX  26064 08023 32570 81106 10173 20149 30107 40177 57010 885// 333 20170 50483 55124;EQDQ01  00002PRCP99
0133080230999992000062609004+43460-003810FM-12+006599999V0200701N008210120019N0150001N1+02001+01551101711ADDGF105991051081008001001001MA1999999101021MD1510051+9999REMSYN066AAXX  26094 08023 42565 50716 10200 20155 30102 40171 55005 85800;
0163080230999992000062612004+43460-003810FM-12+006599999V0200701N009819999999N0120001N1+02021+01661101621ADDAA199000091GF105991001001999999001081MA1999999100931MD1810091+9999REMSYN066AAXX  26124 08023 32962 50719 10202 20166 30093 40162 58009 80008;EQDQ01  00002PRCP99
0187080230999992000062615004+43460-003810FM-12+006599999V0200601N008710360019N0090001N1+01851+01691101381ADDAY181031AY221031GA1031+008009099GF107991041091012501081081MA1999999100691MD1710241+9999MW1951REMSYN082AAXX  26154 08023 41659 70617 10185 20169 30069 40138 57024 79582 84988 333 83995;
0229080230999992000062618004+43460-003810FM-12+006599999V0201101N00671004201CN0100001N1+01941+01791101501ADDAA112003091AY191061AY281061GA1031+004509099GF108991071091004501071031KA1120M+02161MA1999999100811MD1110121+9999MW1951REMSYN100AAXX  26184 08023 11460 81113 10194 20179 30081 40150 51012 60032 79598 87973 333 10216 83994 84695;
0133080230999992000062621004+43460-003810FM-12+006599999V0202601N002610360019N0200001N1+01881+01781101391ADDGF107991021091012501071999MA1999999100701MD1510091+9999REMSYN066AAXX  26214 08023 42670 72605 10188 20178 30070 40139 55009 8297/;
0178080230999992000062700004+43460-003810FM-12+006599999V0202601N008212200019N0080001N1+01821+01721101501ADDAA106000191AY121061AY211061GF101991011071004501001001MA1999999100811MD1210111+9999MW1101REMSYN078AAXX  27004 08023 11458 12616 10182 20172 30081 40150 52011 69921 71021 81700;
0161080230999992000062703004+43460-003810FM-12+006599999V0202601N007712200019N0080001N1+01741+01641101511ADDAY111031AY201031GF102991021061004501999999MA1999999100821MD1110011+9999MW1101REMSYN072AAXX  27034 08023 41458 22615 10174 20164 30082 40151 51001 71010 826//;
0207080230999992000062706004+43460-003810FM-12+006599999V0202301N006212200019N0050001N1+01801+01601101581ADDAA199000021AY101061AY201061GF101991011001999999041001KA1120N+01721MA1999999100891MD1210071+9999MW1101REMSYN094AAXX  27064 08023 31950 12312 10180 20160 30089 40158 52007 71000 81040 333 20172 50463 55063;
0133080230999992000062709004+43460-003810FM-12+006599999V0202501N005112200019N0120001N1+02381+01481101651ADDGF101991011001017501041001MA1999999100971MD1210081+9999REMSYN066AAXX  27094 08023 42762 12510 10238 20148 30097 40165 52008 81040;
0191080230999992000062712004+43460-003810FM-12+006599999V0202801N003612200019N0080001N1+02181+01641101741ADDAA199000091AY101061AY201061GF104991011051008001041011MA1999999101051MD1210081+9999MW1051REMSYN072AAXX  27124 08023 31558 42807 10218 20164 30105 40174 52008 70500 81541;EQDQ01  00002PRCP99
0161080230999992000062715004+43460-003810FM-12+006599999V0203301N002110150019N0060001N1+02121+01701101751ADDAY121031AY221031GF107991071001017501051001MA1999999101061MD1210011+9999MW1051REMSYN072AAXX  27154 08023 42756 73304 10212 20170 30106 40175 52001 70522 87050;
0186080230999992000062718004+43460-003810FM-12+006599999V0200601N002110150019N0100001N1+02081+01651101831ADDAA199000091GF108991081001017501071999KA1999M+02401MA1999999101141MD1210081+9999REMSYN076AAXX  27184 08023 32760 80604 10208 20165 30114 40183 52008 8807/ 333 10240;EQDQ01  00002PRCP99
0161080230999992000062721004+43460-003810FM-12+006599999V0200901N001510150019N0090001N1+01981+01601101991ADDAY121031AY221031GF107991071001017501071999MA1999999101301MD1210161+9999MW1051REMSYN072AAXX  27214 08023 41759 70903 10198 20160 30130 40199 52016 70522 8707/;
0163080230999992000062800004+43460-003810FM-12+006599999V0201401N003110360019N0100001N1+01981+01511101981ADDAA199000091GF108991041051008001071999MA1999999101291MD1810011+9999REMSYN066AAXX  28004 08023 32560 81406 10198 20151 30129 40198 58001 8457/;EQDQ01  00002PRCP99
0171080230999992000062803004+43460-003810FM-12+006599999V0201101N001012200019N0080001N1+01861+01471101941ADDAY121031AY201031GA1001+999999999GF100991001001999999001001MA1999999101251MD1610041+9999MW1051REMSYN066AAXX  28034 08023 41958 01102 10186 20147 30125 40194 56004 70520;
0226080230999992000062806004+43460-003810FM-12+006599999V0201201N001010150019N0080001N1+01891+01641102031ADDAA199000091AY121061AY201061GF107991051001017501051081KA1120N+01751MA1999999101341MD1310091+9999MW1101REMSYN094AAXX  28064 08023 31758 71202 10189 20164 30134 40203 53009 71020 85058 333 20175 50523 55074;EQDQ01  00002PRCP99
0133080230999992000062809004+43460-003810FM-12+006599999V0200501N001010150019N0100001N1+02021+01621102111ADDGF107991071081012501999999MA1999999101421MD1110081+9999REMSYN066AAXX  28094 08023 42660 70502 10202 20162 30142 40211 51008 878//;
0163080230999992000062812004+43460-003810FM-12+006599999V0200401N004110150019N0100001N1+02021+01761102111ADDAA199000091GF106991061081012501001001MA1999999101421MD1410001+9999REMSYN066AAXX  28124 08023 32660 60408 10202 20176 30142 40211 54000 86800;EQDQ01  00002PRCP99
0133080230999992000062815004+43460-003810FM-12+006599999V0200501N004612200019N0100001N1+02041+01681102111ADDGF104991031061012501001081MA1999999101421MD1510001+9999REMSYN066AAXX  28154 08023 42660 40509 10204 20168 30142 40211 55000 83608;
0186080230999992000062818004+43460-003810FM-12+006599999V0200601N002610075019N0180001N1+01941+01681102161ADDAA199000091GF108991081051008001999999KA1999M+02141MA1999999101471MD1110051+9999REMSYN076AAXX  28184 08023 32568 80605 10194 20168 30147 40216 51005 885// 333 10214;EQDQ01  00002PRCP99
0133080230999992000062821004+43460-003810FM-12+006599999V0201501N003110075019N0150001N1+01941+01611102231ADDGF108991081051008001999999MA1999999101541MD1310071+9999REMSYN066AAXX  28214 08023 42565 81506 10194 20161 30154 40223 53007 885//;
0191080230999992000062900004+43460-003810FM-12+006599999V0209999C000010075019N0080001N1+01861+01641102231ADDAA199000091AY121061AY221061GF108991081051008001999999MA1999999101531MD1810011+9999MW1101REMSYN072AAXX  29004 08023 31558 80000 10186 20164 30153 40223 58001 71022 885//;EQDQ01  00002PRCP99
0161080230999992000062903004+43460-003810FM-12+006599999V0200401N001010075019N0080001N1+01821+01701102151ADDAY121031AY221031GF108991081051008001999999MA1999999101451MD1810081+9999MW1101REMSYN072AAXX  29034 08023 41558 80402 10182 20170 30145 40215 58008 71022 885//;
0226080230999992000062906004+43460-003810FM-12+006599999V0201301N002610075019N0070001N1+01861+01591102151ADDAA199000091AY121061AY221061GF107991071051008001001001KA1120N+01801MA1999999101451MD1410001+9999MW1101REMSYN094AAXX  29064 08023 31557 71305 10186 20159 30145 40215 54000 71022 87500 333 20180 50383 55033;EQDQ01  00002PRCP99
0161080230999992000062909004+43460-003810FM-12+006599999V0200501N002119999999N0050001N1+02001+01601102141ADDAY121031AY221031GF107991071001008001031001MA1999999101451MD1410001+9999MW1051REMSYN072AAXX  29094 08023 41550 70504 10200 20160 30145 40214 54000 70522 87030;
0191080230999992000062912004+43460-003810FM-12+006599999V0200601N005112200019N0080001N1+02141+01721102101ADDAA199000091AY121061AY201061GF102991011021008001001011MA1999999101411MD1710041+9999MW1051REMSYN072AAXX  29124 08023 31558 20610 10214 20172 30141 40210 57004 70520 81201;EQDQ01  00002PRCP99
0161080230999992000062915004+43460-003810FM-12+006599999V0200601N005110900019N0090001N1+02101+01711102021ADDAY111031AY211031GF105991011011008001031011MA1999999101331MD1810081+9999MW1051REMSYN072AAXX  29154 08023 41559 50610 10210 20171 30133 40202 58008 70511 81131;
0214080230999992000062918004+43460-003810FM-12+006599999V0200501N003610360019N0080001N1+02001+01671102001ADDAA199000091AY121061AY221061GF107991011011008001031001KA1999M+02221MA1999999101311MD1710021+9999MW1101REMSYN082AAXX  29184 08023 31558 70507 10200 20167 30131 40200 57002 71022 81130 333 10222;EQDQ01  00002PRCP99
0161080230999992000062921004+43460-003810FM-12+006599999V0201101N003110150019N0080001N1+01941+01641102041ADDAY121031AY221031GF107991071001017501031001MA1999999101351MD1110041+9999MW1101REMSYN072AAXX  29214 08023 41758 71106 10194 20164 30135 40204 51004 71022 87030;
0173080230999992000063000004+43460-003810FM-12+006599999V0200601N003112200019N0100001N1+01771+01651101951ADDAA199000091GA1001+999999999GF100991001001999999001001MA1999999101251MD1710101+9999REMSYN060AAXX  30004 08023 32960 00606 10177 20165 30125 40195 57010;EQDQ01  00002PRCP99
0171080230999992000063003004+43460-003810FM-12+006599999V0201301N002612200019N0080001N1+01761+01561101751ADDAY101031AY201031GA1001+999999999GF100991001001999999001001MA1999999101051MD1710201+9999MW1101REMSYN066AAXX  30034 08023 41958 01305 10176 20156 30105 40175 57020 71000;
0230080230999992000063006004+43460-003810FM-12+006599999V0201301N002112200019N0060001N1+01781+01581101641ADDAA199000091AY101061AY201061GA1001+999999999GF100991001001999999001001KA1120N+01681MA1999999100951MD1610101+9999MW1101REMSYN082AAXX  30064 08023 31956 01304 10178 20158 30095 40164 56010 71000 333 20168 55065;EQDQ01  00002PRCP99
0171080230999992000063009004+43460-003810FM-12+006599999V0200601N004112200019N0050001N1+02061+01721101591ADDAY101031AY201031GA1001+999999999GF100991001001999999001001MA1999999100901MD1710051+9999MW1101REMSYN066AAXX  30094 08023 41950 00608 10206 20172 30090 40159 57005 71000;
0201080230999992000063012004+43460-003810FM-12+006599999V0200601N005712200019N0090001N1+02241+01781101511ADDAA199000091AY101061AY201061GA1001+999999999GF100991001001999999001001MA1999999100831MD1710071+9999MW1051REMSYN066AAXX  30124 08023 31959 00611 10224 20178 30083 40151 57007 70500;EQDQ01  00002PRCP99
0133080230999992000063015004+43460-003810FM-12+006599999V0200601N006712200019N0100001N1+02161+01741101311ADDGF102991011001999999081091MA1999999100631MD1710201+9999REMSYN066AAXX  30154 08023 42960 20613 10216 20174 30063 40131 57020 81089;
0214080230999992000063018004+43460-003810FM-12+006599999V0200201N004110360019N0080001N1+01911+01761101321ADDAA199000091AY121061AY211061GF107991021021012501061031KA1999M+02261MA1999999100631MD1010001+9999MW1291REMSYN082AAXX  30184 08023 31658 70208 10191 20176 30063 40132 50000 72921 82263 333 10226;EQDQ01  00002PRCP99
0161080230999992000063021004+43460-003810FM-12+006599999V0201301N003110900019N0090001N1+01851+01721101321ADDAY121031AY211031GF105991011021008001061081MA1999999100631MD1010001+9999MW1101REMSYN072AAXX  30214 08023 41559 51306 10185 20172 30063 40132 50000 71021 81268;
0191080230999992000070100004+43460-003810FM-12+006599999V0200701N004112200019N0090001N1+01841+01731101221ADDAA199000091AY111061AY211061GF104991031051008001031001MA1999999100531MD1710101+9999MW1101REMSYN072AAXX  01004 08023 31559 40708 10184 20173 30053 40122 57010 71011 83530;EQDQ01  00002PRCP99
0161080230999992000070103004+43460-003810FM-12+006599999V0202401N003112200019N0070001N1+01791+01671101141ADDAY111031AY201031GF101991011051008001001001MA1999999100451MD1710081+9999MW1101REMSYN072AAXX  01034 08023 41557 12406 10179 20167 30045 40114 57008 71010 81500;
0226080230999992000070106004+43460-003810FM-12+006599999V0202401N005110075019N0040001N1+01771+01641101191ADDAA199000091AY121061AY201061GF107991071061008001001001KA1120N+01671MA1999999100501MD1310051+9999MW1101REMSYN094AAXX  01064 08023 31540 72410 10177 20164 30050 40119 53005 71020 87600 333 20167 50403 55098;EQDQ01  00002PRCP99
0161080230999992000070109004+43460-003810FM-12+006599999V0203201N003610042019N0070001N1+01841+01671101321ADDAY121031AY221031GF108991081071004501999999MA1999999100631MD1210131+9999MW1501REMSYN072AAXX  01094 08023 41457 83207 10184 20167 30063 40132 52013 75022 887//;
0178080230999992000070112004+43460-003810FM-12+006599999V0203301N003110090019N0200001N1+01871+01531101351ADDAA106000791AY151061AY221061GF108991081081004501999999MA1999999100661MD1010031+9999MW1021REMSYN078AAXX  01124 08023 11470 83306 10187 20153 30066 40135 50003 69901 70252 888//;
0133080230999992000070115004+43460-003810FM-12+006599999V0203601N001010360019N0150001N1+01921+01551101341ADDGF108991041081008001061999MA1999999100651MD1610011+9999REMSYN066AAXX  01154 08023 42565 83602 10192 20155 30065 40134 56001 8486/;
0173080230999992000070118004+43460-003810FM-12+006599999V0203601N001010150019N0100001N1+01901+01561101351ADDAA112000791GF108991081081012501999999KA1999M+01991MA1999999100661MD1310011+9999REMSYN082AAXX  01184 08023 12660 83602 10190 20156 30066 40135 53001 69902 888// 333 10199;
0133080230999992000070121004+43460-003810FM-12+006599999V0201301N003610360019N0150001N1+01821+01511101341ADDGF107991021081012501071001MA1999999100651MD1610011+9999REMSYN066AAXX  01214 08023 42665 71307 10182 20151 30065 40134 56001 82870;
0163080230999992000070200004+43460-003810FM-12+006599999V0200601N002110120019N0150001N1+01771+01481101241ADDAA199000091GF107991071051012501999999MA1999999100551MD1810101+9999REMSYN066AAXX  02004 08023 32665 70604 10177 20148 30055 40124 58010 875//;EQDQ01  00002PRCP99
0133080230999992000070203004+43460-003810FM-12+006599999V0201001N003110120019N0150001N1+01731+01401101031ADDGF107991071051012501001001MA1999999100341MD1710211+9999REMSYN066AAXX  02034 08023 42665 71006 10173 20140 30034 40103 57021 87500;
0226080230999992000070206004+43460-003810FM-12+006599999V0201401N003110900019N0090001N1+01741+01501100961ADDAA199000091AY111061AY211061GF105991011051008001071011KA1120N+01631MA1999999100271MD1610071+9999MW1101REMSYN094AAXX  02064 08023 31559 51406 10174 20150 30027 40096 56007 71011 81571 333 20163 50123 55000;EQDQ01  00002PRCP99
0133080230999992000070209004+43460-003810FM-12+006599999V0202501N006712200019N0120001N1+01981+01321101081ADDGF104991011011008001041021MA1999999100391MD1310121+9999REMSYN066AAXX  02094 08023 42562 42513 10198 20132 30039 40108 53012 81142;
0191080230999992000070212004+43460-003810FM-12+006599999V0202801N003619999999N0070001N1+02061+01601101251ADDAA199000091AY111061AY211061GF105991001001999999001051MA1999999100571MD1210181+9999MW1051REMSYN072AAXX  02124 08023 31957 52807 10206 20160 30057 40125 52018 70511 80005;EQDQ01  00002PRCP99
0133080230999992000070215004+43460-003810FM-12+006599999V0200701N002610900019N0100001N1+02181+01621101291ADDGF106991011011008001041061MA1999999100611MD1210041+9999REMSYN066AAXX  02154 08023 41560 60705 10218 20162 30061 40129 52004 81146;
0186080230999992000070218004+43460-003810FM-12+006599999V0200601N005110150019N0150001N1+01961+01521101301ADDAA199000091GF105991051001017501071011KA1999M+02201MA1999999100611MD1010001+9999REMSYN076AAXX  02184 08023 32765 50610 10196 20152 30061 40130 50000 85071 333 10220;EQDQ01  00002PRCP99
0133080230999992000070221004+43460-003810FM-12+006599999V0200801N004119999999N0100001N1+01881+01611101311ADDGF108991081001012501071999MA1999999100621MD1310011+9999REMSYN066AAXX  02214 08023 42660 80808 10188 20161 30062 40131 53001 8807/;
0163080230999992000070300004+43460-003810FM-12+006599999V0201301N004110150019N0100001N1+01821+01581101271ADDAA199000091GF107991071001017501031999MA1999999100581MD1810041+9999REMSYN066AAXX  03004 08023 32760 71308 10182 20158 30058 40127 58004 8703/;EQDQ01  00002PRCP99
0133080230999992000070303004+43460-003810FM-12+006599999V0200901N004110150019N0100001N1+01721+01481101181ADDGF105991051001017501031001MA1999999100491MD1710111+9999REMSYN066AAXX  03034 08023 42760 50908 10172 20148 30049 40118 57011 85030;
0198080230999992000070306004+43460-003810FM-12+006599999V0209999C000012200019N0120001N1+01741+01391101041ADDAA199000091GF101991011021008001041001KA1120N+01621MA1999999100351MD1710141+9999REMSYN088AAXX  03064 08023 32562 10000 10174 20139 30035 40104 57014 81240 333 20162 50413 55096;EQDQ01  00002PRCP99
0133080230999992000070309004+43460-003810FM-12+006599999V0202601N008710360019N0150001N1+01901+01461101031ADDGF105991011021008001071001MA1999999100341MD1810011+9999REMSYN066AAXX  03094 08023 42565 52617 10190 20146 30034 40103 58001 81270;
0189080230999992000070312004+43460-003810FM-12+006599999V0202701N005712200019N0100001N1+02041+01681101051ADDAA199000091GA1011+008009099GF104991021031008001061001MA1999999100371MD1110031+9999REMSYN076AAXX  03124 08023 32560 42711 10204 20168 30037 40105 51003 82360 333 81995;EQDQ01  00002PRCP99
0133080230999992000070315004+43460-003810FM-12+006599999V0203601N003612200019N0300001N1+02061+01491101021ADDGF104991011081008001071021MA1999999100341MD1810031+9999REMSYN066AAXX  03154 08023 42580 43607 10206 20149 30034 40102 58003 81872;
0220080230999992000070318004+43460-003810FM-12+006599999V0202401N004610090019N0100001N1+01631+01581101221ADDAA112007991AY191061AY281061GF108991081081004501999999KA1120M+02081KA2999N+01591MA1999999100531MD1110191+9999MW1611REMSYN094AAXX  03184 08023 11460 82409 10163 20158 30053 40122 51019 60082 76198 888// 333 10208 20159;
0161080230999992000070321004+43460-003810FM-12+006599999V0202101N004610900019N0150001N1+01561+01291101271ADDAY181031AY221031GF105991021081004501071031MA1999999100571MD1310041+9999MW1021REMSYN072AAXX  03214 08023 41465 52109 10156 20129 30057 40127 53004 70282 82873;
0178080230999992000070400004+43460-003810FM-12+006599999V0202201N004610090019N0150001N1+01651+01191101351ADDAA106002091AY181061AY221061GF106991051081004501031001MA1999999100651MD1110081+9999MW1021REMSYN078AAXX  04004 08023 11465 62209 10165 20119 30065 40135 51008 60021 70282 85830;
0133080230999992000070403004+43460-003810FM-12+006599999V0202401N006210090019N0150001N1+01551+01321101351ADDGF105991051081004501001001MA1999999100651MD1410001+9999REMSYN066AAXX  04034 08023 42465 52412 10155 20132 30065 40135 54000 85800;
0213080230999992000070406004+43460-003810FM-12+006599999V0202301N004610360019N0200001N1+01621+01341101441ADDAA112002091AY181061AY221061GF106991041081004501031011KA1120N+01541MA1999999100741MD1210091+9999MW1021REMSYN100AAXX  04064 08023 11470 62309 10162 20134 30074 40144 52009 60022 70282 84831 333 20154 50493 55070;
0133080230999992000070409004+43460-003810FM-12+006599999V0202601N006212200019N0250001N1+01891+01311101541ADDGF102991021081008001001001MA1999999100851MD1210111+9999REMSYN066AAXX  04094 08023 42575 22612 10189 20131 30085 40154 52011 82800;
0163080230999992000070412004+43460-003810FM-12+006599999V0202801N006212200019N0250001N1+01991+01351101661ADDAA199000091GF104991021081008001061001MA1999999100971MD1210121+9999REMSYN066AAXX  04124 08023 32575 42812 10199 20135 30097 40166 52012 82860;EQDQ01  00002PRCP99
0133080230999992000070415004+43460-003810FM-12+006599999V0202901N005110360019N0140001N1+01951+01341101711ADDGF106991021051008001051001MA1999999101021MD1110051+9999REMSYN066AAXX  04154 08023 42564 62910 10195 20134 30102 40171 51005 82550;
0186080230999992000070418004+43460-003810FM-12+006599999V0202601N003610360019N0100001N1+01881+01371101741ADDAA199000091GF107991031081008001071999KA1999M+02071MA1999999101051MD1310031+9999REMSYN076AAXX  04184 08023 32560 72607 10188 20137 30105 40174 53003 8387/ 333 10207;EQDQ01  00002PRCP99
0163080230999992000070500004+43460-003810FM-12+006599999V0202301N003110360019N0150001N1+01781+01431101851ADDAA199000091GF108991041081008001071001MA1999999101151MD1210021+9999REMSYN066AAXX  05004 08023 32565 82306 10178 20143 30115 40185 52002 84870;EQDQ01  00002PRCP99
0133080230999992000070503004+43460-003810FM-12+006599999V0201901N002110210019N0150001N1+01731+01471101831ADDGF108991081001022501071999MA1999999101131MD1610021+9999REMSYN066AAXX  05034 08023 42865 81904 10173 20147 30113 40183 56002 8807/;
0226080230999992000070506004+43460-003810FM-12+006599999V0201401N001010210019N0090001N1+01691+01461101841ADDAA199000091AY121061AY221061GF107991071001022501031001KA1120N+01651MA1999999101141MD1210011+9999MW1101REMSYN094AAXX  05064 08023 31859 71402 10169 20146 30114 40184 52001 71022 87030 333 20165 50173 55059;EQDQ01  00002PRCP99
0133080230999992000070509004+43460-003810FM-12+006599999V0200601N003612200019N0200001N1+02071+01531101841ADDGF101991001001999999001051MA1999999101151MD1310011+9999REMSYN066AAXX  05094 08023 42970 10607 10207 20153 30115 40184 53001 80005;
0163080230999992000070512004+43460-003810FM-12+006599999V0200501N007212200019N0200001N1+02101+01571101791ADDAA199000091GF101991001001999999001011MA1999999101101MD1810051+9999REMSYN066AAXX  05124 08023 32970 10514 10210 20157 30110 40179 58005 80001;EQDQ01  00002PRCP99
0133080230999992000070515004+43460-003810FM-12+006599999V0200601N007212200019N0150001N1+02091+01651101741ADDGF104991011011008001001051MA1999999101051MD1610051+9999REMSYN066AAXX  05154 08023 42565 40614 10209 20165 30105 40174 56005 81105;
0186080230999992000070518004+43460-003810FM-12+006599999V0200601N005110360019N0200001N1+01961+01631101711ADDAA199000091GF107991041051008001031081KA1999M+02161MA1999999101021MD1810031+9999REMSYN076AAXX  05184 08023 32570 70610 10196 20163 30102 40171 58003 84538 333 10216;EQDQ01  00002PRCP99
0133080230999992000070521004+43460-003810FM-12+006599999V0200701N006210075019N0180001N1+01901+01671101741ADDGF107991051051008001031081MA1999999101051MD1310031+9999REMSYN066AAXX  05214 08023 42568 70712 10190 20167 30105 40174 53003 85538;
0163080230999992000070600004+43460-003810FM-12+006599999V0200601N004110075019N0120001N1+01881+01721101631ADDAA199000091GF108991061011008001031999MA1999999100941MD1810111+9999REMSYN066AAXX  06004 08023 32562 80608 10188 20172 30094 40163 58011 8613/;EQDQ01  00002PRCP99
0133080230999992000070603004+43460-003810FM-12+006599999V0201001N002110075019N0100001N1+01801+01701101441ADDGF106991061051008001001001MA1999999100751MD1710191+9999REMSYN066AAXX  06034 08023 42560 61004 10180 20170 30075 40144 57019 86500;
0198080230999992000070606004+43460-003810FM-12+006599999V0201401N003112200019N0150001N1+01821+01691101231ADDAA199000091GF104991041001999999081001KA1120N+01741MA1999999100541MD1610211+9999REMSYN088AAXX  06064 08023 32965 41406 10182 20169 30054 40123 56021 84080 333 20174 50423 55098;EQDQ01  00002PRCP99
0161080230999992000070609004+43460-003810FM-12+006599999V0202901N003110150019N0070001N1+01941+01781101191ADDAY121031AY221031GF105991051001017501081001MA1999999100501MD1810041+9999MW1101REMSYN072AAXX  06094 08023 41757 52906 10194 20178 30050 40119 58004 71022 85080;
0191080230999992000070612004+43460-003810FM-12+006599999V0202701N006712200019N0090001N1+02101+01851101131ADDAA199000091AY121061AY221061GF104991021081008001081001MA1999999100451MD1610051+9999MW1101REMSYN072AAXX  06124 08023 31559 42713 10210 20185 30045 40113 56005 71022 82880;EQDQ01  00002PRCP99
0161080230999992000070615004+43460-003810FM-12+006599999V0202601N006710120019N0070001N1+02091+01751101171ADDAY121031AY211031GF105991051081008001001001MA1999999100491MD1110041+9999MW1101REMSYN072AAXX  06154 08023 41557 52613 10209 20175 30049 40117 51004 71021 85800;
0214080230999992000070618004+43460-003810FM-12+006599999V0202601N008212200019N0080001N1+02051+01761101341ADDAA199000091AY121061AY221061GF104991021011008001031001KA1999M+02201MA1999999100651MD1310161+9999MW1101REMSYN082AAXX  06184 08023 31558 42616 10205 20176 30065 40134 53016 71022 82130 333 10220;EQDQ01  00002PRCP99
0161080230999992000070621004+43460-003810FM-12+006599999V0202301N004112200019N0070001N1+01881+01721101551ADDAY121031AY201031GF103991011011008001031001MA1999999100861MD1210211+9999MW1101REMSYN072AAXX  06214 08023 41557 32308 10188 20172 30086 40155 52021 71020 81130;
0191080230999992000070700004+43460-003810FM-12+006599999V0202401N003110360019N0080001N1+01821+01691101581ADDAA199000091AY121061AY201061GF106991031081008001031001MA1999999100891MD1210031+9999MW1101REMSYN072AAXX  07004 08023 31558 62406 10182 20169 30089 40158 52003 71020 83830;EQDQ01  00002PRCP99
0161080230999992000070703004+43460-003810FM-12+006599999V0202401N003110360019N0090001N1+01861+01701101641ADDAY121031AY221031GF107991021081008001031999MA1999999100951MD1210061+9999MW1101REMSYN072AAXX  07034 08023 41559 72406 10186 20170 30095 40164 52006 71022 8283/;
0198080230999992000070706004+43460-003810FM-12+006599999V0202301N003610360019N0100001N1+01841+01551101701ADDAA199000091GF106991041081008001031001KA1120N+01801MA1999999101011MD1210061+9999REMSYN088AAXX  07064 08023 32560 62307 10184 20155 30101 40170 52006 84830 333 20180 50393 55090;EQDQ01  00002PRCP99
0133080230999992000070709004+43460-003810FM-12+006599999V0202601N006212200019N0150001N1+02061+01561101841ADDGF102991021021008001001001MA1999999101151MD1210141+9999REMSYN066AAXX  07094 08023 42565 22612 10206 20156 30115 40184 52014 82200;
0178080230999992000070712004+43460-003810FM-12+006599999V0202701N007210090019N0090001N1+01961+01631102081ADDAA106000791AY161061AY221061GF107991051081004501071001MA1999999101391MD1210241+9999MW1151REMSYN078AAXX  07124 08023 11459 72714 10196 20163 30139 40208 52024 69901 71562 85870;
0152080230999992000070715004+43460-003810FM-12+006599999V0202801N007719999999N0150001N1+01961+01521102221ADDGF107991999021008001001001MA1999999101531MD1210141+9999REMSYN066AAXX  07154 08023 42565 72815 10196 20152 30153 40222 52014 82200;EQDQ01+000022SCOTLC
0201080230999992000070718004+43460-003810FM-12+006599999V0203001N009310075019N0150001N1+01841+01501102271ADDAA112000791AY161061AY221061GF107991051021008001071001KA1999M+02171MA1999999101571MD1310041+9999MW1151REMSYN088AAXX  07184 08023 11565 73018 10184 20150 30157 40227 53004 69902 71562 85270 333 10217;
0133080230999992000070721004+43460-003810FM-12+006599999V0202901N006210075019N0150001N1+01851+01541102351ADDGF106991051021008001071001MA1999999101651MD1210081+9999REMSYN066AAXX  07214 08023 42565 62912 10185 20154 30165 40235 52008 85270;
0178080230999992000070800004+43460-003810FM-12+006599999V0203101N006212200019N0150001N1+01801+01491102371ADDAA106000791AY161061AY221061GF104991041021008001001001MA1999999101671MD1110021+9999MW1021REMSYN078AAXX  08004 08023 11565 43112 10180 20149 30167 40237 51002 69901 70262 84200;
0088080230999992000070802004+43460-003810FM-16+006599999V02099999999992200019N0080461N1+99999+99999999999ADDMW1001REMMET051080238 KWYS 0802236Z 19003KT 30SM FEW050 23/ A3009;EQDQ01+000000PRSWM2
0133080230999992000070803004+43460-003810FM-12+006599999V0203201N006710120019N0150001N1+01821+01511102321ADDGF107991061081008001071999MA1999999101621MD1810051+9999REMSYN066AAXX  08034 08023 42565 73213 10182 20151 30162 40232 58005 8687/;
0226080230999992000070806004+43460-003810FM-12+006599999V0202701N004610075019N0080001N1+01701+01491102361ADDAA199000091AY121061AY221061GF106991061021008001999999KA1120N+01691MA1999999101661MD1310041+9999MW1151REMSYN094AAXX  08064 08023 31558 62709 10170 20149 30166 40236 53004 71522 862// 333 20169 50513 55084;EQDQ01  00002PRCP99
0193080230999992000070809004+43460-003810FM-12+006599999V0202801N00771004201CN0050001N1+01701+01461102451ADDAY181031AY221031GA1011+005409099GF108991061031004501071999MA1999999101751MD1110091+9999MW1801REMSYN088AAXX  08094 08023 41450 82815 10170 20146 30175 40245 51009 78082 8637/ 333 81918 85818;
0178080230999992000070812004+43460-003810FM-12+006599999V0203001N007710075019N0100001N1+01681+01441102541ADDAA106003091AY181061AY221061GF108991051021008001061999MA1999999101841MD1210091+9999MW1251REMSYN078AAXX  08124 08023 11560 83015 10168 20144 30184 40254 52009 60031 72582 8526/;
0161080230999992000070815004+43460-003810FM-12+006599999V0202601N006710120019N0150001N1+01891+01521102541ADDAY181031AY221031GF107991071081008001999999MA1999999101841MD1410001+9999MW1021REMSYN072AAXX  08154 08023 41565 72613 10189 20152 30184 40254 54000 70282 878//;
0201080230999992000070818004+43460-003810FM-12+006599999V0202901N004110360019N0150001N1+01841+01571102531ADDAA112005191AY181061AY221061GF105991021021008001061001KA1999M+01941MA1999999101831MD1810011+9999MW1011REMSYN088AAXX  08184 08023 11565 52908 10184 20157 30183 40253 58001 60052 70182 82260 333 10194;
0133080230999992000070821004+43460-003810FM-12+006599999V0202401N004112200019N0100001N1+01741+01531102531ADDGF102991021021008001001001MA1999999101831MD1410001+9999REMSYN066AAXX  08214 08023 42560 22408 10174 20153 30183 40253 54000 82200;
0166080230999992000070900004+43460-003810FM-12+006599999V0202401N005112200019N0080001N1+99999+99999102491ADDAA199000021AY101061AY201061GF102991021021008001001001MA1999999101791MD1810041+9999MW1101REMSYN066AAXX  09004 08023 32558 22410 20145 30179 40249 58004 71000 82200;
0180080230999992000070903004+43460-003810FM-12+006599999V0202201N003112200019N0080001N1+01641+01431102271ADDAY101031AY201031GF103991031021008001001001MA1999999102572MD1710221+9999MW1101REMSYN072AAXX  09034 08023 41558 32206 10164 20143 30257 40227 57022 71000 83200;EQDQ01+102573APOSP 
0242080230999992000070906004+43460-003810FM-12+006599999V0202201N005112200019N0080001N1+01621+01371102191ADDAA199000091AY101061AY201061GF103991031041008001001001KA1120M+99999MA1999999101491MD1610081+9999MW1101REMSYN094AAXX  09064 08023 31558 32210 10162 20137 30149 40219 56008 71000 83400 333 10156 50103 55025;EQDQ01  00002PRCP99Q02 +01562ATMX  
0161080230999992000070909004+43460-003810FM-12+006599999V0202601N006212200019N0090001N1+01881+01541102151ADDAY101031AY201031GF104991041081008001001001MA1999999101451MD1810041+9999MW1101REMSYN072AAXX  09094 08023 41559 42612 10188 20154 30145 40215 58004 71000 84800;
0191080230999992000070912004+43460-003810FM-12+006599999V0202901N006712200019N0090001N1+01921+01461101961ADDAA199000091AY101061AY201061GF101991011011008001001001MA1999999101271MD1710181+9999MW1051REMSYN072AAXX  09124 08023 31559 12913 10192 20146 30127 40196 57018 70500 81100;EQDQ01  00002PRCP99
0133080230999992000070915004+43460-003810FM-12+006599999V0202701N006710075019N0100001N1+01941+01521101781ADDGF106991061041008001001001MA1999999101091MD1710181+9999REMSYN066AAXX  09154 08023 42560 62713 10194 20152 30109 40178 57018 86400;
0186080230999992000070918004+43460-003810FM-12+006599999V0202601N006212200019N0100001N1+01921+01571101481ADDAA199000091GF102991011041008001001011KA1999M+02041MA1999999100791MD1710301+9999REMSYN076AAXX  09184 08023 32560 22612 10192 20157 30079 40148 57030 81401 333 10204;EQDQ01  00002PRCP99
0133080230999992000070921004+43460-003810FM-12+006599999V0202601N007710120019N0100001N1+01841+01671101391ADDGF108991081081008001999999MA1999999100701MD1710091+9999REMSYN066AAXX  09214 08023 42560 82615 10184 20167 30070 40139 57009 888//;
0163080230999992000071000004+43460-003810FM-12+006599999V0202601N008710120019N0100001N1+01851+01671101221ADDAA199000091GF108991081081008001999999MA1999999100531MD1710171+9999REMSYN066AAXX  10004 08023 32560 82617 10185 20167 30053 40122 57017 888//;EQDQ01  00002PRCP99
0161080230999992000071003004+43460-003810FM-12+006599999V0202601N008710120019N0100001N1+01831+01751101001ADDAY121031AY221031GF108991081081008001999999MA1999999100311MD1710221+9999MW1211REMSYN072AAXX  10034 08023 41560 82617 10183 20175 30031 40100 57022 72122 888//;
0213080230999992000071006004+43460-003810FM-12+006599999V0202801N006210042019N0060001N1+01551+01551100951ADDAA112008991AY161061AY261061GF108991061071004501071999KA1120N+01531MA1999999100251MD1710061+9999MW1611REMSYN100AAXX  10064 08023 11456 82812 10155 20155 30025 40095 57006 60092 76166 8677/ 333 20153 50123 55126;
0161080230999992000071009004+43460-003810FM-12+006599999V0202901N008710042019N0060001N1+01571+01381101071ADDAY161031AY251031GF108991061071004501071001MA1999999100371MD1210121+9999MW1511REMSYN072AAXX  10094 08023 41456 82917 10157 20138 30037 40107 52012 75165 86770;
0178080230999992000071012004+43460-003810FM-12+006599999V0202601N008710120019N0100001N1+01671+01281101121ADDAA106002091AY151061AY221061GF107991061081008001051001MA1999999100431MD1210061+9999MW1601REMSYN078AAXX  10124 08023 11560 72617 10167 20128 30043 40112 52006 60021 76052 86850;
0161080230999992000071015004+43460-003810FM-12+006599999V0202901N010810360019N0200001N1+01761+01311101141ADDAY121031AY221031GF106991041021008001061001MA1999999100451MD1110021+9999MW1251REMSYN072AAXX  10154 08023 41570 62921 10176 20131 30045 40114 51002 72522 84260;
0201080230999992000071018004+43460-003810FM-12+006599999V0202801N011310120019N0100001N1+01731+01231101141ADDAA112000391AY181061AY221061GF107991061081008001061001KA1999M+01901MA1999999100451MD1410001+9999MW1021REMSYN088AAXX  10184 08023 11560 72822 10173 20123 30045 40114 54000 69932 70282 86860 333 10190;
0161080230999992000071021004+43460-003810FM-12+006599999V0202901N011810120019N0100001N1+01651+01311101241ADDAY181031AY221031GF107991071081008001001001MA1999999100541MD1110091+9999MW1021REMSYN072AAXX  10214 08023 41560 72923 10165 20131 30054 40124 51009 70282 87800;
0178080230999992000071100004+43460-003810FM-12+006599999V0203301N010810120019N0100001N1+01661+01231101271ADDAA106000191AY181061AY221061GF106991061081008001001001MA1999999100571MD1110031+9999MW1021REMSYN078AAXX  11004 08023 11560 63321 10166 20123 30057 40127 51003 69911 70282 86800;
0133080230999992000071103004+43460-003810FM-12+006599999V0202901N010810120019N0100001N1+01661+01121101331ADDGF108991061081008001061001MA1999999100631MD1210061+9999REMSYN066AAXX  11034 08023 42560 82921 10166 20112 30063 40133 52006 86860;
0213080230999992000071106004+43460-003810FM-12+006599999V0203101N008710120019N0100001N1+01571+01141101471ADDAA112000591AY181061AY221061GF107991071081008001001001KA1120N+01551MA1999999100771MD1210141+9999MW1601REMSYN100AAXX  11064 08023 11560 73117 10157 20114 30077 40147 52014 69962 76082 87800 333 20155 50213 55027;
0161080230999992000071109004+43460-003810FM-12+006599999V0203001N009810120019N0200001N1+01721+01071101591ADDAY181031AY261031GF107991061081008001071999MA1999999100891MD1210121+9999MW1021REMSYN072AAXX  11094 08023 41570 73019 10172 20107 30089 40159 52012 70286 8687/;
0178080230999992000071112004+43460-003810FM-12+006599999V0202801N007710120019N0200001N1+01721+01211101751ADDAA106002091AY181061AY261061GF106991051081008001061021MA1999999101051MD1210161+9999MW1021REMSYN078AAXX  11124 08023 11570 62815 10172 20121 30105 40175 52016 60021 70286 85862;
0133080230999992000071115004+43460-003810FM-12+006599999V0202901N008210075019N0250001N1+01771+01171101841ADDGF105991051021008001001001MA1999999101141MD1110091+9999REMSYN066AAXX  11154 08023 42575 52916 10177 20117 30114 40184 51009 85200;
0173080230999992000071118004+43460-003810FM-12+006599999V0203001N009810120019N0200001N1+01701+01111101881ADDAA112002091GF106991061081008001001001KA1999M+01921MA1999999101181MD1310041+9999REMSYN082AAXX  11184 08023 12570 63019 10170 20111 30118 40188 53004 60022 86800 333 10192;
0133080230999992000071121004+43460-003810FM-12+006599999V0203001N009810120019N0200001N1+01681+01131102051ADDGF107991061081008001001011MA1999999101351MD1210171+9999REMSYN066AAXX  11214 08023 42570 73019 10168 20113 30135 40205 52017 86801;
0172080230999992000071200004+43460-003810FM-12+006599999V0202801N008210120019N0200001N1+01651+01191102081ADDAA199000021AY121061AY221061GF107991071081008001001001MA1999999101381MD1310031+9999MW1801REMSYN072AAXX  12004 08023 31570 72816 10165 20119 30138 40208 53003 78022 87800;
0161080230999992000071203004+43460-003810FM-12+006599999V0202801N007210120019N0200001N1+01641+01181102111ADDAY181031AY221031GF107991071081008001999999MA1999999101411MD1210031+9999MW1021REMSYN072AAXX  12034 08023 41570 72814 10164 20118 30141 40211 52003 70282 878//;
0213080230999992000071206004+43460-003810FM-12+006599999V0203201N005110120019N0200001N1+01581+01311102251ADDAA112000391AY181061AY221061GF107991071081008001999999KA1120N+01541MA1999999101551MD1210141+9999MW1021REMSYN100AAXX  12064 08023 11570 73210 10158 20131 30155 40225 52014 69932 70282 878// 333 20154 50743 55061;
0133080230999992000071209004+43460-003810FM-12+006599999V0203501N004110120019N0200001N1+01701+01351102371ADDGF108991081081008001999999MA1999999101671MD1210121+9999REMSYN066AAXX  12094 08023 42570 83508 10170 20135 30167 40237 52012 888//;
0178080230999992000071212004+43460-003810FM-12+006599999V0203601N002110120019N0200001N1+01761+01411102451ADDAA106000791AY181061AY221061GF107991071081008001001001MA1999999101751MD1210081+9999MW1021REMSYN078AAXX  12124 08023 11570 73604 10176 20141 30175 40245 52008 69901 70282 87800;
0133080230999992000071215004+43460-003810FM-12+006599999V0203201N002612200019N0300001N1+01841+01351102421ADDGF101991011081012501001001MA1999999101721MD1810031+9999REMSYN066AAXX  12154 08023 42680 13205 10184 20135 30172 40242 58003 81800;
0173080230999992000071218004+43460-003810FM-12+006599999V0203301N002612200019N0200001N1+01861+01331102421ADDAA112000191GF101991011051008001001001KA1999M+01901MA1999999101721MD1510001+9999REMSYN082AAXX  12184 08023 12570 13305 10186 20133 30172 40242 55000 69922 81500 333 10190;
0133080230999992000071221004+43460-003810FM-12+006599999V0202401N002612200019N0200001N1+01661+01301102461ADDGF101991011051008001001001MA1999999101761MD1210041+9999REMSYN066AAXX  12214 08023 42570 12405 10166 20130 30176 40246 52004 81500;
0173080230999992000071300004+43460-003810FM-12+006599999V0202201N003612200019N0100001N1+01601+01271102421ADDAA199000091GA1001+999999999GF100991001001999999001001MA1999999101721MD1810041+9999REMSYN060AAXX  13004 08023 32960 02207 10160 20127 30172 40242 58004;EQDQ01  00002PRCP99
0143080230999992000071303004+43460-003810FM-12+006599999V0202201N005112200019N0100001N1+01601+01271102411ADDGA1001+999999999GF100991001001999999001001MA1999999101711MD1710011+9999REMSYN060AAXX  13034 08023 42960 02210 10160 20127 30171 40241 57001;
0198080230999992000071306004+43460-003810FM-12+006599999V0202201N005110150019N0200001N1+01621+01301102411ADDAA199000091GF108991071001017501071999KA1120N+01551MA1999999101711MD1410001+9999REMSYN088AAXX  13064 08023 32770 82210 10162 20130 30171 40241 54000 8707/ 333 20155 50513 55061;EQDQ01  00002PRCP99
0132080230999992000071309004+43460-003810FM-12+006599999V0202601N005110120019N0150001N1+01751+01461102461ADDGF108991061081008001071999MA1999999101761MD1110051+9999REMSYN065AAXX  13094 08023 42565 82610 10175 20146 3017640246 51005 8687/;
0178080230999992000071312004+43460-003810FM-12+006599999V0202801N005710090019N0120001N1+01701+01651102561ADDAA106000591AY151061AY221061GF108991081081004501999999MA1999999101861MD1110101+9999MW1501REMSYN078AAXX  13124 08023 11462 82811 10170 20165 30186 40256 51010 69951 75052 888//;
0133080230999992000071315004+43460-003810FM-12+006599999V0202801N006210090019N0120001N1+01881+01651102561ADDGF108991081081004501999999MA1999999101861MD1410001+9999REMSYN066AAXX  13154 08023 42462 82812 10188 20165 30186 40256 54000 888//;
0201080230999992000071318004+43460-003810FM-12+006599999V0202601N005110090019N0120001N1+01821+01481102561ADDAA112000591AY151061AY221061GF107991061081004501001021KA1999M+01961MA1999999101861MD1410001+9999MW1021REMSYN088AAXX  13184 08023 11462 72610 10182 20148 30186 40256 54000 69952 70252 86802 333 10196;
0133080230999992000071321004+43460-003810FM-12+006599999V0202501N006210090019N0100001N1+01751+01511102561ADDGF107991071081004501001001MA1999999101861MD1510001+9999REMSYN066AAXX  13214 08023 42460 72512 10175 20151 30186 40256 55000 87800;
0144080230999992000071400004+43460-003810FM-12+006599999V0202401N004610090019N0100001N1+01681+01511102531ADDAA199000021GF107991071081004501999999MA1999999101831MD1610031+9999REMSYN066AAXX  14004 08023 32460 72409 10168 20151 30183 40253 56003 878//;
0133080230999992000071403004+43460-003810FM-12+006599999V0202701N007210090019N0100001N1+01761+01571102421ADDGF108991081081004501999999MA1999999101721MD1710111+9999REMSYN066AAXX  14034 08023 42460 82714 10176 20157 30172 40242 57011 888//;
0213080230999992000071406004+43460-003810FM-12+006599999V0202601N008210090019N0100001N1+01761+01631102411ADDAA112000791AY121061AY221061GF108991081081004501999999KA1120N+01681MA1999999101711MD1810011+9999MW1501REMSYN100AAXX  14064 08023 11460 82616 10176 20163 30171 40241 58001 69902 75022 888// 333 20168 50083 55008;
0161080230999992000071409004+43460-003810FM-12+006599999V0202801N008710120019N0150001N1+01781+01611102461ADDAY151031AY221031GF108991081081008001999999MA1999999101761MD1310051+9999MW1021REMSYN072AAXX  14094 08023 41565 82817 10178 20161 30176 40246 53005 70252 888//;
0178080230999992000071412004+43460-003810FM-12+006599999V0202801N009810120019N0150001N1+01841+01641102421ADDAA106000791AY151061AY221061GF108991071081008001071999MA1999999101721MD1810041+9999MW1021REMSYN078AAXX  14124 08023 11565 82819 10184 20164 30172 40242 58004 69901 70252 8787/;
0133080230999992000071415004+43460-003810FM-12+006599999V0202901N011310120019N0150001N1+01841+01671102391ADDGF108991071081008001071999MA1999999101691MD1710031+9999REMSYN066AAXX  14154 08023 42565 82922 10184 20167 30169 40239 57003 8787/;
0173080230999992000071418004+43460-003810FM-12+006599999V0202901N009810120019N0150001N1+01801+01721102351ADDAA112000791GF108991071081008001071001KA1999M+01891MA1999999101651MD1810041+9999REMSYN082AAXX  14184 08023 12565 82919 10180 20172 30165 40235 58004 69902 87870 333 10189;
0161080230999992000071421004+43460-003810FM-12+006599999V0203001N008210042019N0100001N1+01781+01681102421ADDAY151031AY221031GF108991071071004501071999MA1999999101721MD1210071+9999MW1021REMSYN072AAXX  14214 08023 41460 83016 10178 20168 30172 40242 52007 70252 8777/;
0178080230999992000071500004+43460-003810FM-12+006599999V0202901N008210042019N0100001N1+01761+01661102361ADDAA106000791AY151061AY221061GF108991081071004501999999MA1999999101661MD1810061+9999MW1021REMSYN078AAXX  15004 08023 11460 82916 10176 20166 30166 40236 58006 69901 70252 887//;
0161080230999992000071503004+43460-003810FM-12+006599999V0203001N008210042019N0100001N1+01711+01611102271ADDAY151031AY221031GF108991081071004501001001MA1999999101571MD1710091+9999MW1021REMSYN072AAXX  15034 08023 41460 83016 10171 20161 30157 40227 57009 70252 88700;
0213080230999992000071506004+43460-003810FM-12+006599999V0202901N008710090019N0150001N1+01731+01611102171ADDAA112000791AY151061AY221061GF108991081081004501999999KA1120N+01701MA1999999101471MD1610101+9999MW1501REMSYN100AAXX  15064 08023 11465 82917 10173 20161 30147 40217 56010 69902 75052 888// 333 20170 50133 55000;
0161080230999992000071509004+43460-003810FM-12+006599999V0203001N009810042019N0080001N1+01681+01651102171ADDAY151031AY221031GF108991081071004501999999MA1999999101471MD1510001+9999MW1501REMSYN072AAXX  15094 08023 41458 83019 10168 20165 30147 40217 55000 75052 887//;
0178080230999992000071512004+43460-003810FM-12+006599999V0202901N009310120019N0250001N1+01881+01611102151ADDAA106000191AY151061AY221061GF107991071081008001001001MA1999999101451MD1810021+9999MW1021REMSYN078AAXX  15124 08023 11575 72918 10188 20161 30145 40215 58002 69911 70252 87800;
0133080230999992000071515004+43460-003810FM-12+006599999V0202801N008210120019N0250001N1+01851+01601102041ADDGF108991061081008001071999MA1999999101341MD1710111+9999REMSYN066AAXX  15154 08023 42575 82816 10185 20160 30134 40204 57011 8687/;
0201080230999992000071518004+43460-003810FM-12+006599999V0202901N009810042019N0080001N1+01741+01641101971ADDAA112000891AY151061AY221061GF108991081071004501999999KA1999M+01921MA1999999101271MD1710071+9999MW1511REMSYN088AAXX  15184 08023 11458 82919 10174 20164 30127 40197 57007 69972 75152 887// 333 10192;
0178080230999992000071600004+43460-003810FM-12+006599999V0203601N003110042019N0060001N1+01641+01641101991ADDAA106003091AY151061AY221061GF108991081071004501999999MA1999999101291MD1810041+9999MW1511REMSYN078AAXX  16004 08023 11456 83606 10164 20164 30129 40199 58004 60031 75152 887//;
0161080230999992000071603004+43460-003810FM-12+006599999V0209999C000010120019N0080001N1+01641+01501101921ADDAY151031AY221031GF108991051081008001031999MA1999999101221MD1810071+9999MW1101REMSYN072AAXX  16034 08023 41558 80000 10164 20150 30122 40192 58007 71052 8583/;
0213080230999992000071606004+43460-003810FM-12+006599999V0202201N002110090019N0100001N1+01581+01531101911ADDAA112004191AY151061AY221061GF108991081081004501999999KA1120N+01581MA1999999101211MD1610011+9999MW1021REMSYN100AAXX  16064 08023 11460 82204 10158 20153 30121 40191 56001 60042 70252 888// 333 20158 50253 55000;
0133080230999992000071609004+43460-003810FM-12+006599999V0200501N001510120019N0200001N1+01761+01561101951ADDGF106991061081008001001001MA1999999101251MD1210041+9999REMSYN066AAXX  16094 08023 42570 60503 10176 20156 30125 40195 52004 86800;
0144080230999992000071612004+43460-003810FM-12+006599999V0200501N005112200019N0250001N1+01981+01541101871ADDAA199000021GF103991021081008001001041MA1999999101181MD1810071+9999REMSYN066AAXX  16124 08023 32575 30510 10198 20154 30118 40187 58007 82804;
0133080230999992000071615004+43460-003810FM-12+006599999V0200701N007712200019N0300001N1+02021+01601101781ADDGF102991011081008001001011MA1999999101091MD1710091+9999REMSYN066AAXX  16154 08023 42580 20715 10202 20160 30109 40178 57009 81801;
0158080230999992000071618004+43460-003810FM-12+006599999V0200701N008212200019N0250001N1+01881+01611999999ADDAA199000091GF101991999999012501999999MA1999999100971REMSYN075AAXX  16184 08023 32675 10716 10188 20161 30097 0166 57012 81501 333 10210;EQDQ01  00002PRCP99
0133080230999992000071621004+43460-003810FM-12+006599999V0200801N005112200019N0200001N1+01761+01501101711ADDGF103991031051012501001001MA1999999101011MD1310041+9999REMSYN066AAXX  16214 08023 42670 30810 10176 20150 30101 40171 53004 83500;
0173080230999992000071700004+43460-003810FM-12+006599999V0201001N004112200019N0200001N1+01671+01431101711ADDAA199000091GA1001+999999999GF100991001001999999001001MA1999999101011MD1410001+9999REMSYN060AAXX  17004 08023 32970 01008 10167 20143 30101 40171 54000;EQDQ01  00002PRCP99
0133080230999992000071703004+43460-003810FM-12+006599999V0201001N004112200019N0200001N1+01651+01351101611ADDGF104991021001999999031021MA1999999100911MD1710111+9999REMSYN066AAXX  17034 08023 42970 41008 10165 20135 30091 40161 57011 82032;
0198080230999992000071706004+43460-003810FM-12+006599999V0200801N004612200019N0150001N1+01731+01531101511ADDAA199000091GF103991001001999999001021KA1120N+01621MA1999999100821MD1710091+9999REMSYN088AAXX  17064 08023 32965 30809 10173 20153 30082 40151 57009 80002 333 20162 50383 55102;EQDQ01  00002PRCP99
0133080230999992000071709004+43460-003810FM-12+006599999V0200701N009812200019N0100001N1+01951+01621101471ADDGF102991001001999999001021MA1999999100781MD1610041+9999REMSYN066AAXX  17094 08023 42960 20719 10195 20162 30078 40147 56004 80002;
0173080230999992000071712004+43460-003810FM-12+006599999V0200601N009812200019N0120001N1+02071+01551101541ADDAA199000091GA1001+999999999GF100991001001999999001001MA1999999100851MD1310071+9999REMSYN060AAXX  17124 08023 32962 00619 10207 20155 30085 40154 53007;EQDQ01  00002PRCP99
0143080230999992000071715004+43460-003810FM-12+006599999V0200701N009312200019N0100001N1+02101+01601101521ADDGA1001+999999999GF100991001001999999001001MA1999999100831MD1810021+9999REMSYN060AAXX  17154 08023 42960 00718 10210 20160 30083 40152 58002;
0186080230999992000071718004+43460-003810FM-12+006599999V0200701N008212200019N0120001N1+01981+01561101551ADDAA199000091GF103991021001017501051021KA1999M+02141MA1999999100861MD1310031+9999REMSYN076AAXX  17184 08023 32762 30716 10198 20156 30086 40155 53003 82052 333 10214;EQDQ01  00002PRCP99
0133080230999992000071721004+43460-003810FM-12+006599999V0200801N006710150019N0100001N1+01921+01591101671ADDGF107991071001017501071999MA1999999100981MD1210121+9999REMSYN066AAXX  17214 08023 42760 70813 10192 20159 30098 40167 52012 8707/;
0204080230999992000071800004+43460-003810FM-12+006599999V0200701N004110360019N0100001N1+01901+01741101821ADDAA106000791AY121061AY221061GA1041+006909099GF108991041091008001031999MA1999999101131MD1310151+9999MW1951REMSYN088AAXX  18004 08023 11560 80708 10190 20174 30113 40182 53015 69901 79522 8493/ 333 84923;
0161080230999992000071803004+43460-003810FM-12+006599999V0200801N005110150019N0100001N1+01841+01671101621ADDAY191031AY281031GF108991081001017501071999MA1999999100931MD1610201+9999MW1021REMSYN072AAXX  18034 08023 41760 80810 10184 20167 30093 40162 56020 70298 8807/;
0213080230999992000071806004+43460-003810FM-12+006599999V0201101N003112200019N0100001N1+01771+01671101631ADDAA112001091AY191061AY281061GF102991021001017501061001KA1120N+01751MA1999999100941MD1310011+9999MW1021REMSYN100AAXX  18064 08023 11760 21106 10177 20167 30094 40163 53001 60012 70298 82060 333 20175 50483 55127;
0133080230999992000071809004+43460-003810FM-12+006599999V0200601N004612200019N0120001N1+02101+01911101661ADDGF102991021001022501081001MA1999999100971MD1110031+9999REMSYN066AAXX  18094 08023 42862 20609 10210 20191 30097 40166 51003 82080;
0144080230999992000071812004+43460-003810FM-12+006599999V0200501N006212200019N0150001N1+02181+01901101731ADDAA199000021GF101991011001999999031001MA1999999101051MD1310071+9999REMSYN066AAXX  18124 08023 32965 10512 10218 20190 30105 40173 53007 81030;
0133080230999992000071815004+43460-003810FM-12+006599999V0200601N006212200019N0200001N1+02101+01731101761ADDGF105991041001022501061061MA1999999101071MD1210021+9999REMSYN066AAXX  18154 08023 42870 50612 10210 20173 30107 40176 52002 84066;
0186080230999992000071818004+43460-003810FM-12+006599999V0200501N00461036001CN0200001N1+01981+01741101841ADDAA199000091GF106991011021017501091999KA1999M+02221MA1999999101151MD1210081+9999REMSYN076AAXX  18184 08023 32770 60509 10198 20174 30115 40184 52008 8129/ 333 10222;EQDQ01  00002PRCP99
0161080230999992000071821004+43460-003810FM-12+006599999V0200601N003610360019N0180001N1+01901+01701101951ADDAY161031AY221031GF106991031081012501091999MA1999999101261MD1210111+9999MW1021REMSYN072AAXX  18214 08023 41668 60607 10190 20170 30126 40195 52011 70262 8389/;
0150080230999992000071900004+43460-003810FM-12+006599999V0200501N003612200019N0150001N1+01851+01701101941ADDAA106000791GF103991031001999999061001MA1999999101251MD1810011+9999REMSYN072AAXX  19004 08023 12965 30507 10185 20170 30125 40194 58001 69901 83060;
0143080230999992000071903004+43460-003810FM-12+006599999V0209999C000012200019N0120001N1+01791+01691101871ADDGA1001+999999999GF100991001001999999001001MA1999999101171MD1810081+9999REMSYN060AAXX  19034 08023 42962 00000 10179 20169 30117 40187 58008;
0226080230999992000071906004+43460-003810FM-12+006599999V0201901N002112200019N0070001N1+01701+01651101811ADDAA199000091AY141061AY201061GF101991001001999999001011KA1120N+01701MA1999999101111MD1610061+9999MW1101REMSYN094AAXX  19064 08023 31957 11904 10170 20165 30111 40181 56006 71040 80001 333 20170 50443 55108;EQDQ01  00002PRCP99
0161080230999992000071909004+43460-003810FM-12+006599999V0200501N001510900019N0080001N1+02001+01771101781ADDAY111031AY211031GF106991011011008001001081MA1999999101091MD1710021+9999MW1101REMSYN072AAXX  19094 08023 41558 60503 10200 20177 30109 40178 57002 71011 81108;
0191080230999992000071912004+43460-003810FM-12+006599999V0203301N002612200019N0090001N1+02091+01831101841ADDAA199000091AY111061AY211061GF102991011011008001001011MA1999999101151MD1310061+9999MW1101REMSYN072AAXX  19124 08023 31559 23305 10209 20183 30115 40184 53006 71011 81101;EQDQ01  00002PRCP99
0133080230999992000071915004+43460-003810FM-12+006599999V0203301N002610360019N0100001N1+02101+01881101831ADDGF106991011011008001081021MA1999999101141MD1810011+9999REMSYN066AAXX  19154 08023 42560 63305 10210 20188 30114 40183 58001 81182;
0186080230999992000071918004+43460-003810FM-12+006599999V0200201N002610360019N0100001N1+02041+01901101801ADDAA199000091GF106991011011008001031091KA1999M+02191MA1999999101111MD1710031+9999REMSYN076AAXX  19184 08023 32560 60205 10204 20190 30111 40180 57003 81139 333 10219;EQDQ01  00002PRCP99
0133080230999992000071921004+43460-003810FM-12+006599999V0200601N001512200019N0100001N1+01921+01861101901ADDGF103991001001999999001091MA1999999101211MD1310101+9999REMSYN066AAXX  19214 08023 42960 30603 10192 20186 30121 40190 53010 80009;
0163080230999992000072000004+43460-003810FM-12+006599999V0209999C000012200019N0100001N1+01951+01841101861ADDAA199000091GF105991021001022501031091MA1999999101171MD1810041+9999REMSYN066AAXX  20004 08023 32860 50000 10195 20184 30117 40186 58004 82039;EQDQ01  00002PRCP99
0133080230999992000072003004+43460-003810FM-12+006599999V0200501N000510900019N0100001N1+01911+01811101821ADDGF106991021001022501031091MA1999999101131MD1710041+9999REMSYN066AAXX  20034 08023 42860 60501 10191 20181 30113 40182 57004 82039;
0236080230999992000072006004+43460-003810FM-12+006599999V0201501N002112200019N0060001N1+01841+01841101821ADDAA199000091AY111061AY211061GA1001+999999999GF100991001001999999001001KA1120N+01821MA1999999101131MD1410001+9999MW1101REMSYN088AAXX  20064 08023 31956 01504 10184 20184 30113 40182 54000 71011 333 20182 50153 55112;EQDQ01  00002PRCP99
0171080230999992000072009004+43460-003810FM-12+006599999V0200601N003112200019N0070001N1+02221+02001101821ADDAY101031AY201031GA1001+999999999GF100991001001999999001001MA1999999101141MD1110011+9999MW1101REMSYN066AAXX  20094 08023 41957 00606 10222 20200 30114 40182 51001 71000;
0173080230999992000072012004+43460-003810FM-12+006599999V0200601N007212200019N0100001N1+02221+02021101731ADDAA199000091GA1001+999999999GF100991001001999999001001MA1999999101051MD1710091+9999REMSYN060AAXX  20124 08023 32960 00614 10222 20202 30105 40173 57009;EQDQ01  00002PRCP99
0171080230999992000072015004+43460-003810FM-12+006599999V0200601N007712200019N0080001N1+02201+02051101671ADDAY101031AY201031GA1001+999999999GF100991001001999999001001MA1999999100991MD1710061+9999MW1101REMSYN066AAXX  20154 08023 41958 00615 10220 20205 30099 40167 57006 71000;
0224080230999992000072018004+43460-003810FM-12+006599999V0200601N007212200019N0080001N1+02081+01951101661ADDAA199000091AY101061AY201061GA1001+999999999GF100991001001999999001001KA1999M+02291MA1999999100971MD1710021+9999MW1101REMSYN076AAXX  20184 08023 31958 00614 10208 20195 30097 40166 57002 71000 333 10229;EQDQ01  00002PRCP99
0143080230999992000072021004+43460-003810FM-12+006599999V0200901N005112200019N0100001N1+02001+01721101701ADDGA1001+999999999GF100991001001999999001001MA1999999101011MD1210041+9999REMSYN060AAXX  20214 08023 42960 00910 10200 20172 30101 40170 52004;
0201080230999992000072100004+43460-003810FM-12+006599999V0200801N005112200019N0060001N1+01951+01931101631ADDAA199000091AY101061AY201061GA1001+999999999GF100991001001999999001001MA1999999100941MD1710071+9999MW1101REMSYN066AAXX  21004 08023 31956 00810 10195 20193 30094 40163 57007 71000;EQDQ01  00002PRCP99
0171080230999992000072103004+43460-003810FM-12+006599999V0200901N005112200019N0070001N1+01981+01671101501ADDAY101031AY201031GA1001+999999999GF100991001001999999001001MA1999999100811MD1710131+9999MW1101REMSYN066AAXX  21034 08023 41957 00910 10198 20167 30081 40150 57013 71000;
0236080230999992000072106004+43460-003810FM-12+006599999V0201001N005112200019N0090001N1+01971+01741101401ADDAA199000091AY101061AY201061GA1001+999999999GF100991001001999999001001KA1120N+01891MA1999999100711MD1710101+9999MW1101REMSYN088AAXX  21064 08023 31959 01010 10197 20174 30071 40140 57010 71000 333 20189 50433 55132;EQDQ01  00002PRCP99
0171080230999992000072109004+43460-003810FM-12+006599999V0200801N007712200019N0090001N1+02221+01941101301ADDAY101031AY201031GA1001+999999999GF100991001001999999001001MA1999999100621MD1710091+9999MW1101REMSYN066AAXX  21094 08023 41959 00815 10222 20194 30062 40130 57009 71000;
0201080230999992000072112004+43460-003810FM-12+006599999V0200801N007712200019N0080001N1+02251+02051101211ADDAA199000091AY101061AY201061GA1001+999999999GF100991001001999999001001MA1999999100531MD1710091+9999MW1101REMSYN066AAXX  21124 08023 31958 00815 10225 20205 30053 40121 57009 71000;EQDQ01  00002PRCP99
0133080230999992000072115004+43460-003810FM-12+006599999V0200801N008212200019N0120001N1+02321+02011101091ADDGF102991021001999999031001MA1999999100411MD1710121+9999REMSYN066AAXX  21154 08023 42962 20816 10232 20201 30041 40109 57012 82030;
0196080230999992000072118004+43460-003810FM-12+006599999V0200801N009812200019N0100001N1+02381+02031100841ADDAA199000091GA1001+999999999GF100991001001999999001001KA1999M+02501MA1999999100171MD1710241+9999REMSYN070AAXX  21184 08023 32960 00819 10238 20203 30017 40084 57024 333 10250;EQDQ01  00002PRCP99
0133080230999992000072121004+43460-003810FM-12+006599999V0200901N008212200019N0100001N1+02411+02041100781ADDGF103991031001022501031001MA1999999100111MD1710061+9999REMSYN066AAXX  21214 08023 42860 30916 10241 20204 30011 40078 57006 83030;
0201080230999992000072200004+43460-003810FM-12+006599999V0202501N007212200019N0050001N1+01931+01821100811ADDAA199000091AY101061AY201061GA1001+999999999GF100991001001999999001001MA1999999100131MD1010021+9999MW1101REMSYN066AAXX  22004 08023 31950 02514 10193 20182 30013 40081 50002 71000;EQDQ01  00002PRCP99
0161080230999992000072203004+43460-003810FM-12+006599999V0202601N008210075019N0040001N1+01841+01781100821ADDAY111031AY211031GF106991061061008001001001MA1999999100131MD1410001+9999MW1101REMSYN072AAXX  22034 08023 41540 62616 10184 20178 30013 40082 54000 71011 86600;
0226080230999992000072206004+43460-003810FM-12+006599999V0202601N008210021019N0020001N1+01801+01731101031ADDAA199000091AY121061AY211061GF108991081061002501001001KA1120N+01801MA1999999100341MD1310211+9999MW1101REMSYN094AAXX  22064 08023 31320 82616 10180 20173 30034 40103 53021 71021 88600 333 20180 50573 55128;EQDQ01  00002PRCP99
0161080230999992000072209004+43460-003810FM-12+006599999V0202701N005110021019N0030001N1+01921+01791101261ADDAY121031AY221031GF106991051051002501031001MA1999999100571MD1210231+9999MW1101REMSYN072AAXX  22094 08023 41330 62710 10192 20179 30057 40126 52023 71022 85530;
0191080230999992000072212004+43460-003810FM-12+006599999V0202701N002610360019N0040001N1+02041+01711101341ADDAA199000091AY121061AY221061GF105991031051002501041001MA1999999100651MD1210081+9999MW1101REMSYN072AAXX  22124 08023 31340 52705 10204 20171 30065 40134 52008 71022 83540;EQDQ01  00002PRCP99
0161080230999992000072215004+43460-003810FM-12+006599999V0200601N002110360019N0060001N1+02141+01791101331ADDAY121031AY221031GF108991031061004501041999MA1999999100651MD1410001+9999MW1101REMSYN072AAXX  22154 08023 41456 80604 10214 20179 30065 40133 54000 71022 8364/;
0186080230999992000072218004+43460-003810FM-12+006599999V0200801N004110150019N0100001N1+01981+01721101361ADDAA199000091GF108991081001017501071999KA1999M+02161MA1999999100671MD1010021+9999REMSYN076AAXX  22184 08023 32760 80808 10198 20172 30067 40136 50002 8807/ 333 10216;EQDQ01  00002PRCP99
0133080230999992000072221004+43460-003810FM-12+006599999V0201001N003610150019N0100001N1+01841+01611101381ADDGF107991071001017501071001MA1999999100691MD1310021+9999REMSYN066AAXX  22214 08023 42760 71007 10184 20161 30069 40138 53002 87070;
0163080230999992000072300004+43460-003810FM-12+006599999V0201201N002112200019N0100001N1+01781+01511101341ADDAA199000091GF104991041001017501031001MA1999999100651MD1810041+9999REMSYN066AAXX  23004 08023 32760 41204 10178 20151 30065 40134 58004 84030;EQDQ01  00002PRCP99
0161080230999992000072303004+43460-003810FM-12+006599999V0201101N003112200019N0080001N1+01661+01561101181ADDAY111031AY211031GF104991041001017501031001MA1999999100491MD1710161+9999MW1101REMSYN072AAXX  23034 08023 41758 41106 10166 20156 30049 40118 57016 71011 84030;
0226080230999992000072306004+43460-003810FM-12+006599999V0201201N003112200019N0080001N1+01621+01551101141ADDAA199000091AY111061AY211061GF104991011001017501041011KA1120N+01601MA1999999100451MD1710051+9999MW1101REMSYN094AAXX  23064 08023 31758 41206 10162 20155 30045 40114 57005 71011 81041 333 20160 50403 55033;EQDQ01  00002PRCP99
0133080230999992000072309004+43460-003810FM-12+006599999V0200601N006710360019N0120001N1+02051+01841101011ADDGF107991011011008001041081MA1999999100331MD1710121+9999REMSYN066AAXX  23094 08023 42562 70613 10205 20184 30033 40101 57012 81148;
0163080230999992000072312004+43460-003810FM-12+006599999V0200501N005710900019N0120001N1+02121+01931100941ADDAA199000091GF107991011011008001001081MA1999999100261MD1710071+9999REMSYN066AAXX  23124 08023 32562 70511 10212 20193 30026 40094 57007 81108;EQDQ01  00002PRCP99
0193080230999992000072315004+43460-003810FM-12+006599999V0203601N002610360019N0100001N1+01921+01761101041ADDAY111031AY201031GA1021+004509079GF108991041091004501071999MA1999999100351MD1310091+9999MW1951REMSYN088AAXX  23154 08023 41460 83605 10192 20176 30035 40104 53009 79510 8497/ 333 82715 82930;
0229080230999992000072318004+43460-003810FM-12+006599999V0201301N002110360019N0070001N1+01741+01671101111ADDAA112023191AY191061AY281061GA1021+004509079GF107991041091004501071031KA1120M+02251MA1999999100421MD1210071+9999MW1101REMSYN100AAXX  23184 08023 11457 71304 10174 20167 30042 40111 52007 60232 71098 84973 333 10225 82794 82994;
0161080230999992000072321004+43460-003810FM-12+006599999V0202301N004110360019N0150001N1+01751+01671101161ADDAY161031AY221031GF105991021081008001061001MA1999999100471MD1210051+9999MW1021REMSYN072AAXX  23214 08023 41565 52308 10175 20167 30047 40116 52005 70262 82860;
0178080230999992000072400004+43460-003810FM-12+006599999V0202101N004112200019N0150001N1+01741+01501101221ADDAA106000591AY161061AY211061GF104991041001022501031001MA1999999100531MD1210061+9999MW1021REMSYN078AAXX  24004 08023 11865 42108 10174 20150 30053 40122 52006 69961 70261 84030;
0133080230999992000072403004+43460-003810FM-12+006599999V0202201N003610210019N0200001N1+01801+01491101201ADDGF106991061001022501071001MA1999999100511MD1810021+9999REMSYN066AAXX  24034 08023 42870 62207 10180 20149 30051 40120 58002 86070;
0185080230999992000072406004+43460-003810FM-12+006599999V0201901N003110210019N0200001N1+01751+01531101201ADDAA112000591GF106991061001022501071001KA1120N+01691MA1999999100511MD1410001+9999REMSYN094AAXX  24064 08023 12870 61906 10175 20153 30051 40120 54000 69962 86070 333 20169 50543 55059;
0133080230999992000072409004+43460-003810FM-12+006599999V0200301N001510360019N0120001N1+02081+01391101211ADDGF105991011011008001031001MA1999999100531MD1110021+9999REMSYN066AAXX  24094 08023 42562 50303 10208 20139 30053 40121 51002 81130;
0163080230999992000072412004+43460-003810FM-12+006599999V0200601N004112200019N0120001N1+02221+01651101171ADDAA199000091GF104991011011008001031001MA1999999100491MD1810041+9999REMSYN066AAXX  24124 08023 32562 40608 10222 20165 30049 40117 58004 81130;EQDQ01  00002PRCP99
0133080230999992000072415004+43460-003810FM-12+006599999V0200601N004112200019N0200001N1+02191+01611101101ADDGF101991011011008001001001MA1999999100421MD1710071+9999REMSYN066AAXX  24154 08023 42570 10608 10219 20161 30042 40110 57007 81100;
0186080230999992000072418004+43460-003810FM-12+006599999V0200701N006710075019N0120001N1+01981+01581100951ADDAA199000091GF107991071051008001001001KA1999M+02271MA1999999100271MD1810151+9999REMSYN076AAXX  24184 08023 32562 70713 10198 20158 30027 40095 58015 87500 333 10227;EQDQ01  00002PRCP99
0133080230999992000072421004+43460-003810FM-12+006599999V0200801N00411036001CN0120001N1+01921+01621100881ADDGF106991021021008001071999MA1999999100191MD1610081+9999REMSYN066AAXX  24214 08023 42562 60808 10192 20162 30019 40088 56008 8227/;
0178080230999992000072500004+43460-003810FM-12+006599999V0201401N002112200019N0150001N1+01861+01631100741ADDAA106000791AY181061AY221061GF104991041001017501041001MA1999999100051MD1810141+9999MW1021REMSYN078AAXX  25004 08023 11765 41404 10186 20163 30005 40074 58014 69901 70282 84040;
0133080230999992000072503004+43460-003810FM-12+006599999V0200901N001010120019N0120001N1+01961+01581100511ADDGF107991071081008001999999MA1999999099831MD1610221+9999REMSYN066AAXX  25034 08023 42562 70902 10196 20158 39983 40051 56022 878//;
0213080230999992000072506004+43460-003810FM-12+006599999V0202301N003610360019N0120001N1+01801+01631100741ADDAA112002091AY191061AY281061GF107991041081008001071011KA1120N+01761MA1999999100051MD1110221+9999MW1021REMSYN100AAXX  25064 08023 11562 72307 10180 20163 30005 40074 51022 60022 70298 84871 333 20176 50553 55094;
0161080230999992000072509004+43460-003810FM-12+006599999V0203001N001010120019N0100001N1+01961+01661100731ADDAY121031AY221031GF108991081081008001999999MA1999999100051MD1410001+9999MW1801REMSYN072AAXX  25094 08023 41560 83002 10196 20166 30005 40073 54000 78022 888//;
0178080230999992000072512004+43460-003810FM-12+006599999V0200301N002610075019N0150001N1+02081+01651100781ADDAA106000791AY181061AY221061GF107991071051008001001001MA1999999100101MD1210051+9999MW1021REMSYN078AAXX  25124 08023 11565 70305 10208 20165 30010 40078 52005 69901 70282 87500;
0133080230999992000072515004+43460-003810FM-12+006599999V0200701N003110120019N0170001N1+02171+01721100901ADDGF107991051081008001061001MA1999999100221MD1210121+9999REMSYN066AAXX  25154 08023 42567 70706 10217 20172 30022 40090 52012 85860;
0201080230999992000072518004+43460-003810FM-12+006599999V0200801N003110120019N0150001N1+02041+01541100931ADDAA112000791AY121061AY221061GF107991071081008001001001KA1999M+02301MA1999999100251MD1210031+9999MW1151REMSYN088AAXX  25184 08023 11565 70806 10204 20154 30025 40093 52003 69902 71522 87800 333 10230;
0161080230999992000072521004+43460-003810FM-12+006599999V0201101N003110120019N0100001N1+01841+01571101031ADDAY191031AY281031GF107991071081008001999999MA1999999100341MD1210091+9999MW1801REMSYN072AAXX  25214 08023 41560 71106 10184 20157 30034 40103 52009 78098 878//;
0188080230999992000072600004+43460-003810FM-12+006599999V0201301N003612200019N0100001N1+01761+01381101071ADDAA106001091AY191061AY281061GA1001+999999999GF100991001001999999001001MA1999999100381MD1210041+9999MW1001REMSYN072AAXX  26004 08023 11960 01307 10176 20138 30038 40107 52004 60011 70098;
0133080230999992000072603004+43460-003810FM-12+006599999V0202201N001012200019N0100001N1+01761+01341101041ADDGF101991011051008001001001MA1999999100351MD1210031+9999REMSYN066AAXX  26034 08023 42560 12202 10176 20134 30035 40104 52003 81500;
0179080230999992000072606004+43460-003810FM-12+006599999V0202301N004110075019N0100001N1+01721+01291101151ADDAA199000021GF105991051051008001001001KA1120N+01721MA1999999100461MD1210111+9999REMSYN088AAXX  26064 08023 32560 52308 10172 20129 30046 40115 52011 85500 333 20172 50363 55043;
0133080230999992000072609004+43460-003810FM-12+006599999V0202401N003610360019N0120001N1+02101+01741101341ADDGF106991011011008001031001MA1999999100661MD1210201+9999REMSYN066AAXX  26094 08023 42562 62407 10210 20174 30066 40134 52020 81130;
0163080230999992000072612004+43460-003810FM-12+006599999V0203301N002612200019N0150001N1+02141+01541101501ADDAA199000091GF103991011011008001031001MA1999999100821MD1210161+9999REMSYN066AAXX  26124 08023 32565 33305 10214 20154 30082 40150 52016 81130;EQDQ01  00002PRCP99
0133080230999992000072615004+43460-003810FM-12+006599999V0203301N003110360019N0150001N1+02121+01631101591ADDGF107991031081008001031001MA1999999100901MD1210081+9999REMSYN066AAXX  26154 08023 42565 73306 10212 20163 30090 40159 52008 83830;
0186080230999992000072618004+43460-003810FM-12+006599999V0203401N001010360019N0100001N1+02111+01651101631ADDAA199000091GF108991021051008001031081KA1999M+02251MA1999999100941MD1110041+9999REMSYN076AAXX  26184 08023 32560 83402 10211 20165 30094 40163 51004 82538 333 10225;EQDQ01  00002PRCP99
0133080230999992000072621004+43460-003810FM-12+006599999V0209999C000010900019N0100001N1+01941+01681101741ADDGF107991021001017501031081MA1999999101051MD1310111+9999REMSYN066AAXX  26214 08023 42760 70000 10194 20168 30105 40174 53011 82038;
0163080230999992000072700004+43460-003810FM-12+006599999V0209999C000010150019N0100001N1+01941+01681101741ADDAA199000091GF107991071001017501071999MA1999999101051MD1010001+9999REMSYN066AAXX  27004 08023 32760 70000 10194 20168 30105 40174 50000 8707/;EQDQ01  00002PRCP99
0161080230999992000072703004+43460-003810FM-12+006599999V0202601N001010150019N0080001N1+01901+01701101641ADDAY121031AY221031GF107991071001017501071999MA1999999100951MD1610101+9999MW1101REMSYN072AAXX  27034 08023 41758 72602 10190 20170 30095 40164 56010 71022 8707/;
0226080230999992000072706004+43460-003810FM-12+006599999V0209999C000010150019N0070001N1+01871+01721101711ADDAA199000091AY121061AY221061GF108991081001017501071999KA1120N+01841MA1999999101021MD1310071+9999MW1101REMSYN094AAXX  27064 08023 31757 80000 10187 20172 30102 40171 53007 71022 8807/ 333 20184 50363 55056;EQDQ01  00002PRCP99
0161080230999992000072709004+43460-003810FM-12+006599999V0200701N003610360019N0100001N1+01971+01781101721ADDAY161031AY221031GF108991031061008001021999MA1999999101031MD1310011+9999MW1021REMSYN072AAXX  27094 08023 41560 80707 10197 20178 30103 40172 53001 70262 8362/;
0150080230999992000072712004+43460-003810FM-12+006599999V0200601N005712200019N0180001N1+02101+01691101721ADDAA106000791GF105991011051012501031091MA1999999101031MD1410001+9999REMSYN072AAXX  27124 08023 12668 50611 10210 20169 30103 40172 54000 69901 81539;
0133080230999992000072715004+43460-003810FM-12+006599999V0200501N005110150019N0150001N1+02121+01801101821ADDGF107991071001017501071001MA1999999101131MD1210101+9999REMSYN066AAXX  27154 08023 42765 70510 10212 20180 30113 40182 52010 87070;
0192080230999992000072718004+43460-003810FM-12+006599999V0209999C000010360019N0150001N1+02051+01791101921ADDAA112000791GF106991031041008001031999KA1120M+02231KA2999N+01801MA1999999101231MD1210101+9999REMSYN088AAXX  27184 08023 12565 60000 10205 20179 30123 40192 52010 69902 8343/ 333 10223 20180;
0133080230999992000072721004+43460-003810FM-12+006599999V0202401N001510360019N0120001N1+01961+01731102041ADDGF106991031041012501031999MA1999999101351MD1210121+9999REMSYN066AAXX  27214 08023 42662 62403 10196 20173 30135 40204 52012 8343/;
0163080230999992000072800004+43460-003810FM-12+006599999V0202301N00361036001CN0100001N1+01961+01681102061ADDAA199000091GF106991021051012501071999MA1999999101371MD1110021+9999REMSYN066AAXX  28004 08023 32660 62307 10196 20168 30137 40206 51002 8257/;EQDQ01  00002PRCP99
0133080230999992000072803004+43460-003810FM-12+006599999V0202401N002610120019N0100001N1+01911+01751102061ADDGF107991051051012501071999MA1999999101371MD1410001+9999REMSYN066AAXX  28034 08023 42660 72405 10191 20175 30137 40206 54000 8557/;
0226080230999992000072806004+43460-003810FM-12+006599999V0202401N002610360019N0090001N1+01871+01621102161ADDAA199000091AY121061AY221061GF106991041081008001081999KA1120N+01851MA1999999101461MD1210091+9999MW1101REMSYN094AAXX  28064 08023 31559 62405 10187 20162 30146 40216 52009 71022 8488/ 333 20185 50313 55025;EQDQ01  00002PRCP99
0161080230999992000072809004+43460-003810FM-12+006599999V0202901N002612200019N0150001N1+02021+01691102221ADDAY181031AY221031GF103991021021008001041001MA1999999101531MD1010071+9999MW1021REMSYN072AAXX  28094 08023 41565 32905 10202 20169 30153 40222 50007 70282 82240;
0150080230999992000072812004+43460-003810FM-12+006599999V0203501N002612200019N0200001N1+02141+01751102281ADDAA106000791GF103991011021008001031001MA1999999101591MD1310061+9999REMSYN072AAXX  28124 08023 12570 33505 10214 20175 30159 40228 53006 69901 81230;
0133080230999992000072815004+43460-003810FM-12+006599999V0203601N002112200019N0250001N1+02161+01721102321ADDGF102991011021008001001011MA1999999101631MD1210041+9999REMSYN066AAXX  28154 08023 42575 23604 10216 20172 30163 40232 52004 81201;
0186080230999992000072818004+43460-003810FM-12+006599999V0203301N002112200019N0200001N1+02081+01691102381ADDAA199000091GF101991011081008001001001KA1999M+02201MA1999999101691MD1110061+9999REMSYN076AAXX  28184 08023 32570 13304 10208 20169 30169 40238 51006 81800 333 10220;EQDQ01  00002PRCP99
0133080230999992000072821004+43460-003810FM-12+006599999V0202601N001010075019N0150001N1+01961+01661102461ADDGF106991061061008001999999MA1999999101761MD1110071+9999REMSYN066AAXX  28214 08023 42565 62602 10196 20166 30176 40246 51007 866//;
0163080230999992000072900004+43460-003810FM-12+006599999V0202301N002110042019N0100001N1+01941+01681102461ADDAA199000091GF106991061061004501999999MA1999999101761MD1410001+9999REMSYN066AAXX  29004 08023 32460 62304 10194 20168 30176 40246 54000 866//;EQDQ01  00002PRCP99
0133080230999992000072903004+43460-003810FM-12+006599999V0209999V001010042019N0100001N1+01921+01651102401ADDGF107991071061004501999999MA1999999101701MD1810061+9999REMSYN066AAXX  29034 08023 42460 79902 10192 20165 30170 40240 58006 876//;
0213080230999992000072906004+43460-003810FM-12+006599999V0209999V001010090019N0100001N1+01901+01701102391ADDAA112000791AY181061AY221061GF107991071081004501999999KA1120N+01881MA1999999101691MD1610011+9999MW1021REMSYN100AAXX  29064 08023 11460 79902 10190 20170 30169 40239 56001 69902 70282 878// 333 20188 50333 55111;
0133080230999992000072909004+43460-003810FM-12+006599999V0200701N001512200019N0150001N1+02171+01771102411ADDGF104991041081008001001001MA1999999101721MD1310031+9999REMSYN066AAXX  29094 08023 42565 40703 10217 20177 30172 40241 53003 84800;
0163080230999992000072912004+43460-003810FM-12+006599999V0200401N004112200019N0200001N1+02201+01681102391ADDAA199000091GF102991021081008001001001MA1999999101701MD1810021+9999REMSYN066AAXX  29124 08023 32570 20408 10220 20168 30170 40239 58002 82800;EQDQ01  00002PRCP99
0133080230999992000072915004+43460-003810FM-12+006599999V0200501N004612200019N0200001N1+02201+01641102411ADDGF101991011081008001001001MA1999999101721MD1310021+9999REMSYN066AAXX  29154 08023 42570 10509 10220 20164 30172 40241 53002 81800;
0186080230999992000072918004+43460-003810FM-12+006599999V0200501N004110150019N0200001N1+02041+01611102381ADDAA199000091GF106991061081012501001001KA1999M+02251MA1999999101691MD1810031+9999REMSYN076AAXX  29184 08023 32670 60508 10204 20161 30169 40238 58003 86800 333 10225;EQDQ01  00002PRCP99
0133080230999992000072921004+43460-003810FM-12+006599999V0200701N004110120019N0200001N1+01921+01581102421ADDGF105991051081008001001001MA1999999101721MD1310031+9999REMSYN066AAXX  29214 08023 42570 50708 10192 20158 30172 40242 53003 85800;
0163080230999992000073000004+43460-003810FM-12+006599999V0201001N003112200019N0200001N1+01811+01561102411ADDAA199000091GF101991011011008001001001MA1999999101711MD1810011+9999REMSYN066AAXX  30004 08023 32570 11006 10181 20156 30171 40241 58001 81100;EQDQ01  00002PRCP99
0143080230999992000073003004+43460-003810FM-12+006599999V0201001N002612200019N0200001N1+01751+01491102331ADDGA1001+999999999GF100991001001999999001001MA1999999101631MD1710081+9999REMSYN060AAXX  30034 08023 42970 01005 10175 20149 30163 40233 57008;
0198080230999992000073006004+43460-003810FM-12+006599999V0201101N004612200019N0100001N1+01731+01471102321ADDAA199000091GF101991011041008001001001KA1120N+01641MA1999999101621MD1810011+9999REMSYN088AAXX  30064 08023 32560 11109 10173 20147 30162 40232 58001 81400 333 20164 50643 55098;EQDQ01  00002PRCP99
0133080230999992000073009004+43460-003810FM-12+006599999V0200701N006212200019N0120001N1+02151+01621102341ADDGF101991011041008001001001MA1999999101651MD1110031+9999REMSYN066AAXX  30094 08023 42562 10712 10215 20162 30165 40234 51003 81400;
0173080230999992000073012004+43460-003810FM-12+006599999V0200601N010312200019N0120001N1+02211+01621102231ADDAA199000091GA1001+999999999GF100991001001999999001001MA1999999101541MD1710111+9999REMSYN060AAXX  30124 08023 32962 00620 10221 20162 30154 40223 57011;EQDQ01  00002PRCP99
0143080230999992000073015004+43460-003810FM-12+006599999V0200701N010812200019N0250001N1+02141+01541102221ADDGA1001+999999999GF100991001001999999001001MA1999999101531MD1810011+9999REMSYN060AAXX  30154 08023 42975 00721 10214 20154 30153 40222 58001;
0196080230999992000073018004+43460-003810FM-12+006599999V0200601N008212200019N0120001N1+02061+01631102221ADDAA199000091GA1001+999999999GF100991001001999999001001KA1999M+02221MA1999999101531MD1410001+9999REMSYN070AAXX  30184 08023 32962 00616 10206 20163 30153 40222 54000 333 10222;EQDQ01  00002PRCP99
0143080230999992000073021004+43460-003810FM-12+006599999V0200801N005712200019N0120001N1+01941+01741102261ADDGA1001+999999999GF100991001001999999001001MA1999999101571MD1110041+9999REMSYN060AAXX  30214 08023 42962 00811 10194 20174 30157 40226 51004;
0173080230999992000073100004+43460-003810FM-12+006599999V0201201N002112200019N0100001N1+01871+01721102241ADDAA199000091GA1001+999999999GF100991001001999999001001MA1999999101541MD1710031+9999REMSYN060AAXX  31004 08023 32960 01204 10187 20172 30154 40224 57003;EQDQ01  00002PRCP99
0171080230999992000073103004+43460-003810FM-12+006599999V0201201N004112200019N0080001N1+01841+01711102071ADDAY101031AY201031GA1001+999999999GF100991001001999999001001MA1999999101371MD1710171+9999MW1101REMSYN066AAXX  31034 08023 41958 01208 10184 20171 30137 40207 57017 71000;
0226080230999992000073106004+43460-003810FM-12+006599999V0209999C000012200019N0050001N1+01761+01661102051ADDAA199000091AY101061AY201061GF101991011061004501031001KA1120N+01731MA1999999101351MD1710021+9999MW1101REMSYN094AAXX  31064 08023 31450 10000 10176 20166 30135 40205 57002 71000 81630 333 20173 50533 55137;EQDQ01  00002PRCP99
0171080230999992000073109004+43460-003810FM-12+006599999V0203501N001512200019N0060001N1+01931+01701102031ADDAY101031AY201031GA1001+999999999GF100991001001999999001001MA1999999101341MD1510011+9999MW1101REMSYN066AAXX  31094 08023 41956 03503 10193 20170 30134 40203 55001 71000;
0201080230999992000073112004+43460-003810FM-12+006599999V0203201N001512200019N0050001N1+02131+01831102061ADDAA199000091AY101061AY201061GA1001+999999999GF100991001001999999001001MA1999999101371MD1210031+9999MW1101REMSYN066AAXX  31124 08023 31950 03203 10213 20183 30137 40206 52003 71000;EQDQ01  00002PRCP99
0171080230999992000073115004+43460-003810FM-12+006599999V0202801N005112200019N0090001N1+02261+01921102031ADDAY101031AY201031GA1001+999999999GF100991001001999999001001MA1999999101351MD1810021+9999MW1101REMSYN066AAXX  31154 08023 41959 02810 10226 20192 30135 40203 58002 71000;
0224080230999992000073118004+43460-003810FM-12+006599999V0202801N003612200019N0090001N1+02201+01901102081ADDAA199000091AY101061AY201061GA1001+999999999GF100991001001999999001001KA1999M+02331MA1999999101391MD1310041+9999MW1101REMSYN076AAXX  31184 08023 31959 02807 10220 20190 30139 40208 53004 71000 333 10233;EQDQ01  00002PRCP99
0161080230999992000073121004+43460-003810FM-12+006599999V0202601N006210075019N0070001N1+02081+01871102181ADDAY121031AY221031GF107991071061008001001001MA1999999101491MD1210101+9999MW1101REMSYN072AAXX  31214 08023 41557 72612 10208 20187 30149 40218 52010 71022 87600;
0191080230999992000080100004+43460-003810FM-12+006599999V0202601N005710042019N0070001N1+02011+01751102221ADDAA199000091AY121061AY221061GF108991081061004501999999MA1999999101531MD1210041+9999MW1101REMSYN072AAXX  01004 08023 31457 82611 10201 20175 30153 40222 52004 71022 886//;EQDQ01  00002PRCP99
0161080230999992000080103004+43460-003810FM-12+006599999V0202601N004110042019N0080001N1+01981+01791102151ADDAY121031AY221031GF108991081061004501999999MA1999999101461MD1810071+9999MW1101REMSYN072AAXX  01034 08023 41458 82608 10198 20179 30146 40215 58007 71022 886//;
0226080230999992000080106004+43460-003810FM-12+006599999V0202601N004610042019N0040001N1+01931+01801102141ADDAA199000091AY121061AY221061GF108991081061004501999999KA1120N+01931MA1999999101451MD1610011+9999MW1101REMSYN094AAXX  01064 08023 31440 82609 10193 20180 30145 40214 56001 71022 886// 333 20193 50403 55123;EQDQ01  00002PRCP99
0161080230999992000080109004+43460-003810FM-12+006599999V0202601N004110042019N0050001N1+02011+01781102141ADDAY121031AY221031GF108991081061004501001001MA1999999101451MD1410001+9999MW1101REMSYN072AAXX  01094 08023 41450 82608 10201 20178 30145 40214 54000 71022 88600;
0191080230999992000080112004+43460-003810FM-12+006599999V0202501N007210075019N0070001N1+02001+01811102221ADDAA199000091AY121061AY221061GF108991081061008001999999MA1999999101531MD1310081+9999MW1101REMSYN072AAXX  01124 08023 31557 82514 10200 20181 30153 40222 53008 71022 886//;EQDQ01  00002PRCP99
0161080230999992000080115004+43460-003810FM-12+006599999V0202701N005110042019N0080001N1+02081+01861102201ADDAY121031AY221031GF108991081061004501999999MA1999999101511MD1510021+9999MW1101REMSYN072AAXX  01154 08023 41458 82710 10208 20186 30151 40220 55002 71022 886//;
0201080230999992000080118004+43460-003810FM-12+006599999V0202901N004610360019N0150001N1+02021+01671102231ADDAA112000791AY151061AY221061GF108991041081008001071999KA1999M+02121MA1999999101541MD1310031+9999MW1021REMSYN088AAXX  01184 08023 11565 82909 10202 20167 30154 40223 53003 69902 70252 8487/ 333 10212;
0133080230999992000080121004+43460-003810FM-12+006599999V0202501N005710360019N0100001N1+01881+01661102351ADDGF108991041081008001071999MA1999999101651MD1210111+9999REMSYN066AAXX  01214 08023 42560 82511 10188 20166 30165 40235 52011 8487/;
0178080230999992000080200004+43460-003810FM-12+006599999V0202201N003610360019N0100001N1+01811+01681102361ADDAA106000191AY151061AY221061GF108991041081008001071999MA1999999101661MD1210011+9999MW1021REMSYN078AAXX  02004 08023 11560 82207 10181 20168 30166 40236 52001 69911 70252 8487/;
0161080230999992000080203004+43460-003810FM-12+006599999V0202301N003610075019N0100001N1+01821+01691102241ADDAY121031AY221031GF108991051061008001071999MA1999999101541MD1810121+9999MW1511REMSYN072AAXX  02034 08023 41560 82307 10182 20169 30154 40224 58012 75122 8567/;
0213080230999992000080206004+43460-003810FM-12+006599999V0202201N001510075019N0100001N1+01771+01721102351ADDAA112003091AY151061AY221061GF108991051061008001071999KA1120N+01761MA1999999101651MD1310111+9999MW1501REMSYN100AAXX  02064 08023 11560 82203 10177 20172 30165 40235 53011 60032 75052 8567/ 333 20176 50223 55000;
0161080230999992000080209004+43460-003810FM-12+006599999V0201101N001510120019N0100001N1+01891+01761102441ADDAY161031AY251031GF107991061081008001071999MA1999999101741MD1210091+9999MW1021REMSYN072AAXX  02094 08023 41560 71103 10189 20176 30174 40244 52009 70265 8687/;
0178080230999992000080212004+43460-003810FM-12+006599999V0200301N002610120019N0120001N1+02061+01501102531ADDAA106000591AY161061AY251061GF108991071081008001071999MA1999999101841MD1210101+9999MW1021REMSYN078AAXX  02124 08023 11562 80305 10206 20150 30184 40253 52010 69961 70265 8787/;
0144080230999992000080215004+43460-003810FM-12+006599999V0200101N002610120019N0250001N1+02061+01481102521ADDAA199000021GF108991081081008001999999MA1999999101831MD1810011+9999REMSYN066AAXX  02154 08023 32575 80105 10206 20148 30183 40252 58001 888//;
0173080230999992000080218004+43460-003810FM-12+006599999V0203301N002610120019N0200001N1+01971+01471102481ADDAA112000591GF107991061081008001071999KA1999M+02181MA1999999101781MD1710051+9999REMSYN082AAXX  02184 08023 12570 73305 10197 20147 30178 40248 57005 69962 8687/ 333 10218;
0161080230999992000080221004+43460-003810FM-12+006599999V0202501N003610120019N0100001N1+01761+01561102491ADDAY151031AY221031GF108991081081008001999999MA1999999101791MD1310011+9999MW1201REMSYN072AAXX  02214 08023 41560 82507 10176 20156 30179 40249 53001 72052 888//;
0178080230999992000080300004+43460-003810FM-12+006599999V0202201N004110120019N0100001N1+01741+01431102441ADDAA106000791AY151061AY221061GF108991081081008001999999MA1999999101741MD1810051+9999MW1021REMSYN078AAXX  03004 08023 11560 82208 10174 20143 30174 40244 58005 69901 70252 888//;
0133080230999992000080303004+43460-003810FM-12+006599999V0202201N004110120019N0100001N1+01741+01461102441ADDGF108991081081008001999999MA1999999101741MD1410001+9999REMSYN066AAXX  03034 08023 42560 82208 10174 20146 30174 40244 54000 888//;
0213080230999992000080306004+43460-003810FM-12+006599999V0202601N005110120019N0100001N1+01631+01491102411ADDAA112005191AY181061AY261061GF108991081081008001999999KA1120N+01621MA1999999101711MD1810031+9999MW1601REMSYN100AAXX  03064 08023 11560 82610 10163 20149 30171 40241 58003 60052 76086 888// 333 20162 50223 55000;
0161080230999992000080309004+43460-003810FM-12+006599999V0202401N007210090019N0150001N1+01641+01541102491ADDAY181031AY221031GF107991071081004501999999MA1999999101791MD1110081+9999MW1501REMSYN072AAXX  03094 08023 41465 72414 10164 20154 30179 40249 51008 75082 878//;
0178080230999992000080312004+43460-003810FM-12+006599999V0202601N007710090019N0150001N1+01961+01521102541ADDAA106002091AY181061AY251061GF106991051081004501061001MA1999999101841MD1110051+9999MW1021REMSYN078AAXX  03124 08023 11465 62615 10196 20152 30184 40254 51005 60021 70285 85860;
0161080230999992000080315004+43460-003810FM-12+006599999V0203101N006210120019N0150001N1+02001+01371102561ADDAY181031AY221031GF106991051081008001031001MA1999999101861MD1310021+9999MW1021REMSYN072AAXX  03154 08023 41565 63112 10200 20137 30186 40256 53002 70282 85830;
0229080230999992000080318004+43460-003810FM-12+006599999V0203001N006210360019N0150001N1+01941+01301102601ADDAA112003091AY181061AY221061GA1011+004509099GF105991041031004501061001KA1120M+02041MA1999999101901MD1310041+9999MW1021REMSYN100AAXX  03184 08023 11465 53012 10194 20130 30190 40260 53004 60032 70282 84360 333 10204 81994 83894;
0133080230999992000080321004+43460-003810FM-12+006599999V0203001N005110360019N0120001N1+01841+01231102641ADDGF105991041021004501061001MA1999999101941MD1310041+9999REMSYN066AAXX  03214 08023 42462 53010 10184 20123 30194 40264 53004 84260;
0178080230999992000080400004+43460-003810FM-12+006599999V0203301N005710090019N0020001N1+01801+01361102641ADDAA106002091AY181061AY221061GF107991071081004501999999MA1999999101941MD1010001+9999MW1251REMSYN078AAXX  04004 08023 11420 73311 10180 20136 30194 40264 50000 60021 72582 878//;
0161080230999992000080403004+43460-003810FM-12+006599999V0202701N003610090019N0120001N1+01641+01391102651ADDAY181031AY221031GF107991071081004501999999MA1999999101941MD1410001+9999MW1251REMSYN072AAXX  04034 08023 41462 72707 10164 20139 30194 40265 54000 72582 878//;
0249080230999992000080406004+43460-003810FM-12+006599999V0203301N00671004201CN0120001N1+01821+01261102651ADDAA112002091AY181061AY221061GA1021+004509099GF106991051031004501061001GJ103609KA1120N+01601MA1999999101951MD1310011+9999MW1161REMSYN112AAXX  04064 08023 11462 63313 10182 20126 30195 40265 53001 60022 71682 85360 333 20160 50353 55060 82994 83894;
0161080230999992000080409004+43460-003810FM-12+006599999V0202601N005110360019N0300001N1+01741+01271102761ADDAY111031AY211031GF106991041021008001061041MA1999999102061MD1110111+9999MW1151REMSYN072AAXX  04094 08023 41580 62610 10174 20127 30206 40276 51011 71511 84264;
0178080230999992000080412004+43460-003810FM-12+006599999V0203301N004610360019N0150001N1+01961+01201102781ADDAA106000191AY181061AY211061GF105991041021008001061001MA1999999102081MD1210021+9999MW1151REMSYN078AAXX  04124 08023 11565 53309 10196 20120 30208 40278 52002 69921 71581 84260;
0161080230999992000080415004+43460-003810FM-12+006599999V0203601N006210075019N0200001N1+01951+01281102761ADDAY181031AY221031GF106991051031008001061001MA1999999102061MD1810021+9999MW1021REMSYN072AAXX  04154 08023 41570 63612 10195 20128 30206 40276 58002 70282 85360;
0201080230999992000080418004+43460-003810FM-12+006599999V0203101N006210360019N0200001N1+01921+01471102741ADDAA112000191AY111061AY211061GF106991031021008001061001KA1999M+02061MA1999999102041MD1610021+9999MW1151REMSYN088AAXX  04184 08023 11570 63112 10192 20147 30204 40274 56002 69922 71511 83260 333 10206;
0161080230999992000080421004+43460-003810FM-12+006599999V0202901N006210360019N0150001N1+01701+01421102821ADDAY111031AY211031GF107991041021008001061999MA1999999102121MD1310081+9999MW1801REMSYN072AAXX  04214 08023 41565 72912 10170 20142 30212 40282 53008 78011 8426/;
0178080230999992000080500004+43460-003810FM-12+006599999V0202901N003110360019N0200001N1+01801+01301102781ADDAA106000791AY181061AY221061GF105991031021008001061999MA1999999102081MD1810041+9999MW1011REMSYN078AAXX  05004 08023 11570 52906 10180 20130 30208 40278 58004 69901 70182 8326/;
0161080230999992000080503004+43460-003810FM-12+006599999V0200101N004110360019N0150001N1+01781+01361102691ADDAY111031AY211031GF106991041021008001061999MA1999999101991MD1710091+9999MW1251REMSYN072AAXX  05034 08023 41565 60108 10178 20136 30199 40269 57009 72511 8426/;
0213080230999992000080506004+43460-003810FM-12+006599999V0202101N004110075019N0250001N1+01541+01361102671ADDAA112002091AY181061AY221061GF107991051021008001001041KA1120N+01541MA1999999101961MD1610031+9999MW1021REMSYN100AAXX  05064 08023 11575 72108 10154 20136 30196 40267 56003 60022 70282 85204 333 20154 50453 55097;
0133080230999992000080509004+43460-003810FM-12+006599999V0202301N004110900019N0250001N1+01701+01471102761ADDGF107991041081008001001081MA1999999102061MD1110101+9999REMSYN066AAXX  05094 08023 42575 72308 10170 20147 30206 40276 51010 84808;
0144080230999992000080512004+43460-003810FM-12+006599999V0203301N005110120019N0250001N1+01921+01421102741ADDAA199000021GF107991061081008001071999MA1999999102041MD1810021+9999REMSYN066AAXX  05124 08023 32575 73310 10192 20142 30204 40274 58002 8687/;
0161080230999992000080515004+43460-003810FM-12+006599999V0203301N005110120019N0250001N1+02001+01451102741ADDAY121031AY221031GF107991051081008001061011MA1999999102041MD1410001+9999MW1151REMSYN072AAXX  05154 08023 41575 73310 10200 20145 30204 40274 54000 71522 85861;
0201080230999992000080518004+43460-003810FM-12+006599999V0200301N003110120019N0250001N1+01941+01501102731ADDAA112002091AY181061AY221061GF107991061081008001061011KA1999M+02071MA1999999102031MD1710011+9999MW1021REMSYN088AAXX  05184 08023 11575 70306 10194 20150 30203 40273 57001 60022 70282 86861 333 10207;
0133080230999992000080521004+43460-003810FM-12+006599999V0201401N001512200019N0200001N1+01761+01451102781ADDGF103991031081008001001001MA1999999102081MD1310051+9999REMSYN066AAXX  05214 08023 42570 31403 10176 20145 30208 40278 53005 83800;
0163080230999992000080600004+43460-003810FM-12+006599999V0201901N002110075019N0200001N1+01731+01471102761ADDAA199000091GF105991051051008001001001MA1999999102061MD1810021+9999REMSYN066AAXX  06004 08023 32570 51904 10173 20147 30206 40276 58002 85500;EQDQ01  00002PRCP99
0133080230999992000080603004+43460-003810FM-12+006599999V0202201N004112200019N0200001N1+01661+01381102741ADDGF101991011051008001001001MA1999999102031MD1710031+9999REMSYN066AAXX  06034 08023 42570 12208 10166 20138 30203 40274 57003 81500;
0198080230999992000080606004+43460-003810FM-12+006599999V0202001N004110120019N0170001N1+01621+01351102781ADDAA199000091GF107991071081008001001001KA1120N+01611MA1999999102071MD1310041+9999REMSYN088AAXX  06064 08023 32567 72008 10162 20135 30207 40278 53004 87800 333 20161 50133 55037;EQDQ01  00002PRCP99
0133080230999992000080609004+43460-003810FM-12+006599999V0203401N001510120019N0250001N1+01901+01491102771ADDGF106991061081008001001001MA1999999102071MD1510001+9999REMSYN066AAXX  06094 08023 42575 63403 10190 20149 30207 40277 55000 86800;
0163080230999992000080612004+43460-003810FM-12+006599999V0200401N004112200019N0250001N1+02051+01531102741ADDAA199000091GF101991011021008001001001MA1999999102041MD1810031+9999REMSYN066AAXX  06124 08023 32575 10408 10205 20153 30204 40274 58003 81200;EQDQ01  00002PRCP99
0133080230999992000080615004+43460-003810FM-12+006599999V0200401N004612200019N0200001N1+02101+01531102751ADDGF101991011011008001001001MA1999999102061MD1110021+9999REMSYN066AAXX  06154 08023 42570 10409 10210 20153 30206 40275 51002 81100;
0186080230999992000080618004+43460-003810FM-12+006599999V0200501N002612200019N0250001N1+01981+01471102691ADDAA199000091GF101991011011008001001001KA1999M+02151MA1999999101991MD1810071+9999REMSYN076AAXX  06184 08023 32575 10505 10198 20147 30199 40269 58007 81100 333 10215;EQDQ01  00002PRCP99
0143080230999992000080621004+43460-003810FM-12+006599999V0201301N002112200019N0200001N1+01761+01451102731ADDGA1001+999999999GF100991001001999999001001MA1999999102031MD1310041+9999REMSYN060AAXX  06214 08023 42970 01304 10176 20145 30203 40273 53004;
0173080230999992000080700004+43460-003810FM-12+006599999V0201501N002112200019N0200001N1+01701+01421102731ADDAA199000091GA1001+999999999GF100991001001999999001001MA1999999102031MD1410001+9999REMSYN060AAXX  07004 08023 32970 01504 10170 20142 30203 40273 54000;EQDQ01  00002PRCP99
0143080230999992000080703004+43460-003810FM-12+006599999V0201601N003112200019N0200001N1+01561+01381102631ADDGA1001+999999999GF100991001001999999001001MA1999999101921MD1810111+9999REMSYN060AAXX  07034 08023 42970 01606 10156 20138 30192 40263 58011;
0198080230999992000080706004+43460-003810FM-12+006599999V0201501N002112200019N0200001N1+01581+01291102591ADDAA199000091GF101991011051008001001001KA1120N+01551MA1999999101881MD1710041+9999REMSYN088AAXX  07064 08023 32570 11504 10158 20129 30188 40259 57004 81500 333 20155 50513 55114;EQDQ01  00002PRCP99
0143080230999992000080709004+43460-003810FM-12+006599999V0200701N003612200019N0120001N1+02021+01591102561ADDGA1001+999999999GF100991001001999999001001MA1999999101871MD1610011+9999REMSYN060AAXX  07094 08023 42962 00707 10202 20159 30187 40256 56001;
0173080230999992000080712004+43460-003810FM-12+006599999V0200601N007212200019N0120001N1+02141+01651102491ADDAA199000091GA1001+999999999GF100991001001999999001001MA1999999101801MD1810071+9999REMSYN060AAXX  07124 08023 32962 00614 10214 20165 30180 40249 58007;EQDQ01  00002PRCP99
0127080230999992000080715004+43460-003810FM-12+006599999V0200601N008712200019N0250001N1+02151+01581102341ADDGF101991999999999999999999MA1999999101651MD1710151+9999REMSYN060AAXX  07154 08023 42975 10617 10215 20158 30165 40234 57015;
0196080230999992000080718004+43460-003810FM-12+006599999V0200701N006212200019N0150001N1+02031+01631102241ADDAA199000091GA1001+999999999GF100991001001999999001001KA1999M+02221MA1999999101551MD1710101+9999REMSYN070AAXX  07184 08023 32965 00712 10203 20163 30155 40224 57010 333 10222;EQDQ01  00002PRCP99
0143080230999992000080721004+43460-003810FM-12+006599999V0200701N007212200019N0100001N1+01961+01661102261ADDGA1001+999999999GF100991001001999999001001MA1999999101571MD1310021+9999REMSYN060AAXX  07214 08023 42960 00714 10196 20166 30157 40226 53002;
0173080230999992000080800004+43460-003810FM-12+006599999V0200701N006212200019N0100001N1+01891+01621102251ADDAA199000091GA1001+999999999GF100991001001999999001001MA1999999101551MD1810021+9999REMSYN060AAXX  08004 08023 32960 00712 10189 20162 30155 40225 58002;EQDQ01  00002PRCP99
0143080230999992000080803004+43460-003810FM-12+006599999V0201001N004112200019N0100001N1+01811+01561102151ADDGA1001+999999999GF100991001001999999001001MA1999999101451MD1810101+9999REMSYN060AAXX  08034 08023 42960 01008 10181 20156 30145 40215 58010;
0208080230999992000080806004+43460-003810FM-12+006599999V0200901N004112200019N0100001N1+01811+01631102111ADDAA199000091GA1001+999999999GF100991001001999999001001KA1120N+01751MA1999999101411MD1610041+9999REMSYN082AAXX  08064 08023 32960 00908 10181 20163 30141 40211 56004 333 20175 50543 55130;EQDQ01  00002PRCP99
0177080230999992000080809004+43460-003810FM-12+006599999V0200701N003112200019N0090001N1+02171+01731102111ADDAY101031AY201031GA1001+999999999GF100991001001999999001001MA1999999101421MD1310011+9999MW1051REMSYN072AAXX  08094 08023 41959 00706 10217 20173 30142 40211 53001 70500 80001;
0191080230999992000080812004+43460-003810FM-12+006599999V0200601N005112200019N0090001N1+02211+01931102031ADDAA199000091AY101061AY201061GF103991001001999999001041MA1999999101341MD1810081+9999MW1101REMSYN072AAXX  08124 08023 31959 30610 10221 20193 30134 40203 58008 71000 80004;EQDQ01  00002PRCP99
0133080230999992000080815004+43460-003810FM-12+006599999V0200601N005112200019N0100001N1+02321+02011101991ADDGF103991001001999999001021MA1999999101311MD1710031+9999REMSYN066AAXX  08154 08023 42960 30610 10232 20201 30131 40199 57003 80002;
0186080230999992000080818004+43460-003810FM-12+006599999V0200701N006212200019N0100001N1+02161+01971101961ADDAA199000091GF101991001001999999001011KA1999M+02411MA1999999101271MD1710041+9999REMSYN076AAXX  08184 08023 32960 10712 10216 20197 30127 40196 57004 80001 333 10241;EQDQ01  00002PRCP99
0161080230999992000080821004+43460-003810FM-12+006599999V0200701N004612200019N0090001N1+02041+01931102061ADDAY101031AY201031GF101991001001999999001011MA1999999101371MD1210101+9999MW1101REMSYN072AAXX  08214 08023 41959 10709 10204 20193 30137 40206 52010 71000 80001;
0201080230999992000080900004+43460-003810FM-12+006599999V0201001N002612200019N0090001N1+01941+01841102031ADDAA199000091AY101061AY201061GA1001+999999999GF100991001001999999001001MA1999999101341MD1710031+9999MW1101REMSYN066AAXX  09004 08023 31959 01005 10194 20184 30134 40203 57003 71000;EQDQ01  00002PRCP99
0171080230999992000080903004+43460-003810FM-12+006599999V0201001N003112200019N0090001N1+01881+01701102021ADDAY101031AY201031GA1001+999999999GF100991001001999999001001MA1999999101331MD1610011+9999MW1101REMSYN066AAXX  09034 08023 41959 01006 10188 20170 30133 40202 56001 71000;
0226080230999992000080906004+43460-003810FM-12+006599999V0201401N002112200019N0040001N1+01861+01681101981ADDAA199000091AY101061AY201061GF101991001001999999001011KA1120N+01811MA1999999101291MD1610041+9999MW1101REMSYN094AAXX  09064 08023 31940 11404 10186 20168 30129 40198 56004 71000 80001 333 20181 50383 55128;EQDQ01  00002PRCP99
0171080230999992000080909004+43460-003810FM-12+006599999V0200801N003112200019N0060001N1+02181+01761102001ADDAY101031AY201031GA1001+999999999GF100991001001999999001001MA1999999101311MD1110021+9999MW1051REMSYN066AAXX  09094 08023 41956 00806 10218 20176 30131 40200 51002 70500;
0201080230999992000080912004+43460-003810FM-12+006599999V0200601N007212200019N0060001N1+02331+02041101971ADDAA199000091AY101061AY201061GA1001+999999999GF100991001001999999001001MA1999999101291MD1610021+9999MW1101REMSYN066AAXX  09124 08023 31956 00614 10233 20204 30129 40197 56002 71000;EQDQ01  00002PRCP99
0143080230999992000080915004+43460-003810FM-12+006599999V0200701N007212200019N0100001N1+02321+02011101911ADDGA1001+999999999GF100991001001999999001001MA1999999101231MD1710061+9999REMSYN060AAXX  09154 08023 42960 00714 10232 20201 30123 40191 57006;
0224080230999992000080918004+43460-003810FM-12+006599999V0200901N006712200019N0080001N1+02251+01921101851ADDAA199000091AY101061AY201061GA1001+999999999GF100991001001999999001001KA1999M+02371MA1999999101171MD1710061+9999MW1101REMSYN076AAXX  09184 08023 31958 00913 10225 20192 30117 40185 57006 71000 333 10237;EQDQ01  00002PRCP99
0171080230999992000080921004+43460-003810FM-12+006599999V0200701N005712200019N0070001N1+02121+01981101911ADDAY101031AY201031GA1001+999999999GF100991001001999999001001MA1999999101221MD1110051+9999MW1101REMSYN066AAXX  09214 08023 41957 00711 10212 20198 30122 40191 51005 71000;
0201080230999992000081000004+43460-003810FM-12+006599999V0200801N003112200019N0070001N1+01951+01871101861ADDAA199000091AY101061AY201061GA1001+999999999GF100991001001999999001001MA1999999101171MD1710051+9999MW1101REMSYN066AAXX  10004 08023 31957 00806 10195 20187 30117 40186 57005 71000;EQDQ01  00002PRCP99
0171080230999992000081003004+43460-003810FM-12+006599999V0200901N003112200019N0050001N1+01881+01751101741ADDAY101031AY201031GA1001+999999999GF100991001001999999001001MA1999999101051MD1710121+9999MW1101REMSYN066AAXX  10034 08023 41950 00906 10188 20175 30105 40174 57012 71000;
0236080230999992000081006004+43460-003810FM-12+006599999V0201001N003112200019N0050001N1+01921+01721101711ADDAA199000091AY101061AY201061GA1001+999999999GF100991001001999999001001KA1120N+01821MA1999999101021MD1810031+9999MW1101REMSYN088AAXX  10064 08023 31950 01006 10192 20172 30102 40171 58003 71000 333 20182 50343 55131;EQDQ01  00002PRCP99
0171080230999992000081009004+43460-003810FM-12+006599999V0200701N002612200019N0090001N1+02261+01761101661ADDAY101031AY201031GA1001+999999999GF100991001001999999001001MA1999999100981MD1710041+9999MW1051REMSYN066AAXX  10094 08023 41959 00705 10226 20176 30098 40166 57004 70500;
0201080230999992000081012004+43460-003810FM-12+006599999V0200701N006212200019N0090001N1+02381+02011101571ADDAA199000091AY101061AY201061GA1001+999999999GF100991001001999999001001MA1999999100891MD1710091+9999MW1101REMSYN066AAXX  10124 08023 31959 00712 10238 20201 30089 40157 57009 71000;EQDQ01  00002PRCP99
0171080230999992000081015004+43460-003810FM-12+006599999V0200701N006212200019N0090001N1+02361+01991101411ADDAY101031AY201031GA1001+999999999GF100991001001999999001001MA1999999100731MD1710161+9999MW1101REMSYN066AAXX  10154 08023 41959 00712 10236 20199 30073 40141 57016 71000;
0214080230999992000081018004+43460-003810FM-12+006599999V0202601N007710120019N0050001N1+02191+02071101461ADDAA199000091AY121061AY201061GF107991061061012501081999KA1999M+02441MA1999999100781MD1310051+9999MW1101REMSYN082AAXX  10184 08023 31650 72615 10219 20207 30078 40146 53005 71020 8668/ 333 10244;EQDQ01  00002PRCP99
0161080230999992000081021004+43460-003810FM-12+006599999V0202301N004610042019N0050001N1+02171+02001101551ADDAY121031AY221031GF107991071061004501999999MA1999999100871MD1110091+9999MW1101REMSYN072AAXX  10214 08023 41450 72309 10217 20200 30087 40155 51009 71022 876//;
0191080230999992000081100004+43460-003810FM-12+006599999V0202501N006210042019N0050001N1+02021+01931101521ADDAA199000091AY121061AY221061GF107991071061004501999999MA1999999100831MD1810041+9999MW1101REMSYN072AAXX  11004 08023 31450 72512 10202 20193 30083 40152 58004 71022 876//;EQDQ01  00002PRCP99
0161080230999992000081103004+43460-003810FM-12+006599999V0202501N005710042019N0050001N1+02051+01881101421ADDAY121031AY221031GF108991081061004501001001MA1999999100731MD1710101+9999MW1101REMSYN072AAXX  11034 08023 41450 82511 10205 20188 30073 40142 57010 71022 88600;
0226080230999992000081106004+43460-003810FM-12+006599999V0202501N006710042019N0040001N1+02031+01841101421ADDAA199000091AY121061AY221061GF108991081061004501999999KA1120N+02011MA1999999100731MD1410001+9999MW1101REMSYN094AAXX  11064 08023 31440 82513 10203 20184 30073 40142 54000 71022 886// 333 20201 50443 55108;EQDQ01  00002PRCP99
0161080230999992000081109004+43460-003810FM-12+006599999V0202601N007210042019N0060001N1+02111+01841101411ADDAY141031AY221031GF108991081061004501999999MA1999999100731MD1410001+9999MW1101REMSYN072AAXX  11094 08023 41456 82614 10211 20184 30073 40141 54000 71042 886//;
0191080230999992000081112004+43460-003810FM-12+006599999V0202601N008710042019N0050001N1+02141+01921101411ADDAA199000091AY141061AY221061GF108991081071004501999999MA1999999100731MD1010001+9999MW1101REMSYN072AAXX  11124 08023 31450 82617 10214 20192 30073 40141 50000 71042 887//;EQDQ01  00002PRCP99
0270080230999992000081118004+43460-003810FM-12+006599999V0202501N009810075019N0050001N1+01951+01841101621ADDAA112002091AY191061AY281061GA1031+006009069GA2031+007509099GF108991061091004501021999KA1120M+02251KA2120N+01941MA1999999100931MD1210201+9999MW1621REMSYN112AAXX  11184 08023 11450 82519 10195 20184 30093 40162 52020 60022 76298 8692/ 333 10225 20194 83620 83925 85480;
0161080230999992000081121004+43460-003810FM-12+006599999V0202601N009310090019N0100001N1+01971+01661101621ADDAY181031AY261031GF105991051081004501021999MA1999999100931MD1510001+9999MW1021REMSYN072AAXX  11214 08023 41460 52618 10197 20166 30093 40162 55000 70286 8582/;
0178080230999992000081200004+43460-003810FM-12+006599999V0202901N009310090019N0120001N1+01971+01641101681ADDAA106000591AY161061AY221061GF107991051081004501021999MA1999999100991MD1010061+9999MW1021REMSYN078AAXX  12004 08023 11462 72918 10197 20164 30099 40168 50006 69961 70262 8582/;
0133080230999992000081203004+43460-003810FM-12+006599999V0202901N009810360019N0150001N1+01971+01601101661ADDGF107991041081008001021999MA1999999100971MD1610021+9999REMSYN066AAXX  12034 08023 42565 72919 10197 20160 30097 40166 56002 8482/;
0213080230999992000081206004+43460-003810FM-12+006599999V0202701N007710120019N0090001N1+01921+01691101701ADDAA112000591AY121061AY221061GF108991061081008001021999KA1120N+01921MA1999999101011MD1310041+9999MW1101REMSYN100AAXX  12064 08023 11559 82715 10192 20169 30101 40170 53004 69962 71022 8682/ 333 20192 50433 55004;
0161080230999992000081209004+43460-003810FM-12+006599999V0202301N006210075019N0080001N1+01861+01751101801ADDAY161031AY221031GF108991081071008001999999MA1999999101111MD1110101+9999MW1101REMSYN072AAXX  12094 08023 41558 82312 10186 20175 30111 40180 51010 71062 887//;
0115080230999992000081212004+43460-003810FM-12+006599999V0202701N002619999999N0100001N1+99999+99999999999ADDGF108991999999008001999999REMSYN077AAXX  12124 08023 11560 82705 0212 20173 30113 40182 51002 69991 70262 88600;
0173080230999992000081218004+43460-003810FM-12+006599999V0200701N005110075019N0200001N1+02081+01761101751ADDAA112001091GF107991071051008001999999KA1999M+02301MA1999999101061MD1710031+9999REMSYN082AAXX  12184 08023 12570 70710 10208 20176 30106 40175 57003 69992 875// 333 10230;
0133080230999992000081221004+43460-003810FM-12+006599999V0200801N002612200019N0150001N1+01931+01751101861ADDGF103991031051008001001001MA1999999101171MD1210111+9999REMSYN066AAXX  12214 08023 42565 30805 10193 20175 30117 40186 52011 83500;
0163080230999992000081300004+43460-003810FM-12+006599999V0201101N004112200019N0150001N1+01861+01731101821ADDAA199000091GF103991001001999999001091MA1999999101131MD1710041+9999REMSYN066AAXX  13004 08023 32965 31108 10186 20173 30113 40182 57004 80009;EQDQ01  00002PRCP99
0171080230999992000081303004+43460-003810FM-12+006599999V0201101N003612200019N0090001N1+01801+01701101701ADDAY101031AY201031GA1001+999999999GF100991001001999999001001MA1999999101011MD1610121+9999MW1101REMSYN066AAXX  13034 08023 41959 01107 10180 20170 30101 40170 56012 71000;
0226080230999992000081306004+43460-003810FM-12+006599999V0202401N002110210019N0050001N1+01791+01661101701ADDAA199000091AY111061AY211061GF106991061001022501031001KA1120N+01781MA1999999101011MD1510001+9999MW1101REMSYN094AAXX  13064 08023 31850 62404 10179 20166 30101 40170 55000 71011 86030 333 20178 50223 55041;EQDQ01  00002PRCP99
0161080230999992000081309004+43460-003810FM-12+006599999V0202401N002112200019N0080001N1+02141+01821101821ADDAY121031AY221031GF104991041001022501031001MA1999999101131MD1110121+9999MW1101REMSYN072AAXX  13094 08023 41858 42404 10214 20182 30113 40182 51012 71022 84030;
0191080230999992000081312004+43460-003810FM-12+006599999V0203601N002612200019N0070001N1+02221+01941101831ADDAA199000091AY101061AY201061GF101991001001999999001011MA1999999101151MD1310021+9999MW1101REMSYN072AAXX  13124 08023 31957 13605 10222 20194 30115 40183 53002 71000 80001;EQDQ01  00002PRCP99
0161080230999992000081315004+43460-003810FM-12+006599999V0203001N003612200019N0070001N1+02281+01891101901ADDAY101031AY201031GF102991001001999999001021MA1999999101221MD1210071+9999MW1051REMSYN072AAXX  13154 08023 41957 23007 10228 20189 30122 40190 52007 70500 80002;
0224080230999992000081318004+43460-003810FM-12+006599999V0209999C000012200019N0060001N1+02281+01971101941ADDAA199000091AY101061AY201061GA1001+999999999GF100991001001999999001001KA1999M+02351MA1999999101261MD1110041+9999MW1101REMSYN076AAXX  13184 08023 31956 00000 10228 20197 30126 40194 51004 71000 333 10235;EQDQ01  00002PRCP99
0161080230999992000081321004+43460-003810FM-12+006599999V0209999C000012200019N0060001N1+02121+01931102151ADDAY101031AY201031GF101991011001017501031001MA1999999101461MD1110201+9999MW1101REMSYN072AAXX  13214 08023 41756 10000 10212 20193 30146 40215 51020 71000 81030;
0201080230999992000081400004+43460-003810FM-12+006599999V0209999C000012200019N0050001N1+02061+01701102181ADDAA199000091AY101061AY201061GA1001+999999999GF100991001001999999001001MA1999999101491MD1110031+9999MW1101REMSYN066AAXX  14004 08023 31950 00000 10206 20170 30149 40218 51003 71000;EQDQ01  00002PRCP99
0171080230999992000081403004+43460-003810FM-12+006599999V0201001N001012200019N0050001N1+01981+01651102141ADDAY101031AY201031GA1001+999999999GF100991001001999999001001MA1999999101451MD1810041+9999MW1101REMSYN066AAXX  14034 08023 41950 01002 10198 20165 30145 40214 58004 71000;
0236080230999992000081406004+43460-003810FM-12+006599999V0201501N004112200019N0040001N1+01881+01651102151ADDAA199000091AY101061AY201061GA1001+999999999GF100991001001999999001001KA1120N+01881MA1999999101451MD1510001+9999MW1101REMSYN088AAXX  14064 08023 31940 01508 10188 20165 30145 40215 55000 71000 333 20188 50393 55101;EQDQ01  00002PRCP99
0171080230999992000081409004+43460-003810FM-12+006599999V0203601N000512200019N0050001N1+02181+01801102231ADDAY101031AY201031GA1001+999999999GF100991001001999999001001MA1999999101541MD1210091+9999MW1051REMSYN066AAXX  14094 08023 41950 03601 10218 20180 30154 40223 52009 70500;
0201080230999992000081412004+43460-003810FM-12+006599999V0203101N003612200019N0050001N1+02241+01791102301ADDAA199000091AY101061AY201061GA1001+999999999GF100991001001999999001001MA1999999101611MD1210071+9999MW1051REMSYN066AAXX  14124 08023 31950 03107 10224 20179 30161 40230 52007 70500;EQDQ01  00002PRCP99
0161080230999992000081415004+43460-003810FM-12+006599999V0203001N002110360019N0080001N1+02371+01811102371ADDAY101031AY201031GF107991021051012501051001MA1999999101691MD1210081+9999MW1051REMSYN072AAXX  14154 08023 41658 73004 10237 20181 30169 40237 52008 70500 82550;
0186080230999992000081418004+43460-003810FM-12+006599999V0203001N004110120019N0100001N1+02201+01951102411ADDAA199000091GF106991061061012501001001KA1999M+02421MA1999999101721MD1210031+9999REMSYN076AAXX  14184 08023 32660 63008 10220 20195 30172 40241 52003 86600 333 10242;EQDQ01  00002PRCP99
0133080230999992000081421004+43460-003810FM-12+006599999V0203001N002610360019N0100001N1+02131+01861102551ADDGF108991041061012501071999MA1999999101861MD1210141+9999REMSYN066AAXX  14214 08023 42660 83005 10213 20186 30186 40255 52014 8467/;
0163080230999992000081500004+43460-003810FM-12+006599999V0202601N004110075019N0100001N1+02081+01891102631ADDAA199000091GF108991081061008001999999MA1999999101941MD1010081+9999REMSYN066AAXX  15004 08023 32560 82608 10208 20189 30194 40263 50008 886//;EQDQ01  00002PRCP99
0161080230999992000081503004+43460-003810FM-12+006599999V0202001N000510075019N0100001N1+01991+01861102491ADDAY151031AY221031GF108991081061008001999999MA1999999101801MD1710141+9999MW1201REMSYN072AAXX  15034 08023 41560 82001 10199 20186 30180 40249 57014 72052 886//;
0213080230999992000081506004+43460-003810FM-12+006599999V0201201N001010120019N0100001N1+01961+01831102501ADDAA112000791AY151061AY221061GF108991081081008001999999KA1120N+01961MA1999999101801MD1510001+9999MW1021REMSYN100AAXX  15064 08023 11560 81202 10196 20183 30180 40250 55000 69902 70252 888// 333 20196 50423 55090;
0133080230999992000081509004+43460-003810FM-12+006599999V0200901N002110120019N0180001N1+02111+01821102521ADDGF107991071081008001001001MA1999999101831MD1110031+9999REMSYN066AAXX  15094 08023 42568 70904 10211 20182 30183 40252 51003 87800;
0144080230999992000081512004+43460-003810FM-12+006599999V0200601N004110120019N0180001N1+02331+01911102411ADDAA199000021GF107991071081008001001001MA1999999101721MD1810111+9999REMSYN066AAXX  15124 08023 32568 70608 10233 20191 30172 40241 58011 87800;
0161080230999992000081515004+43460-003810FM-12+006599999V0200601N005110120019N0090001N1+02281+01901102321ADDAY101031AY201031GF108991081081008001001001MA1999999101631MD1710091+9999MW1051REMSYN072AAXX  15154 08023 41559 80610 10228 20190 30163 40232 57009 70500 88800;
0186080230999992000081518004+43460-003810FM-12+006599999V0200601N005112200019N0180001N1+02151+01911102221ADDAA199000091GF103991031081012501001001KA1999M+02471MA1999999101531MD1710101+9999REMSYN076AAXX  15184 08023 32668 30610 10215 20191 30153 40222 57010 83800 333 10247;EQDQ01  00002PRCP99
0133080230999992000081521004+43460-003810FM-12+006599999V0200701N004112200019N0150001N1+02041+01911102221ADDGF102991021051012501001001MA1999999101531MD1510001+9999REMSYN066AAXX  15214 08023 42665 20708 10204 20191 30153 40222 55000 82500;
0163080230999992000081600004+43460-003810FM-12+006599999V0200701N002612200019N0150001N1+02011+01901102161ADDAA199000091GF101991011061004501001001MA1999999101471MD1810061+9999REMSYN066AAXX  16004 08023 32465 10705 10201 20190 30147 40216 58006 81600;EQDQ01  00002PRCP99
0161080230999992000081609004+43460-003810FM-12+006599999V0200201N001012200019N0040001N1+02061+01841101941ADDAY121031AY201031GF103991021011008001031001MA1999999101251MD1810051+9999MW1101REMSYN072AAXX  16094 08023 41540 30202 10206 20184 30125 40194 58005 71020 82130;
0191080230999992000081612004+43460-003810FM-12+006599999V0203501N001010150019N0070001N1+02281+01991101911ADDAA199000091AY121061AY221061GF107991071001017501031001MA1999999101231MD1610021+9999MW1101REMSYN072AAXX  16124 08023 31757 73502 10228 20199 30123 40191 56002 71022 87030;EQDQ01  00002PRCP99
0133080230999992000081615004+43460-003810FM-12+006599999V0200201N002110360019N0100001N1+02381+01981101901ADDGF105991031081008001031001MA1999999101221MD1610011+9999REMSYN066AAXX  16154 08023 42560 50204 10238 20198 30122 40190 56001 83830;
0186080230999992000081618004+43460-003810FM-12+006599999V0209999C000010360019N0120001N1+02181+01901101921ADDAA199000091GF107991021081008001031999KA1999M+02421MA1999999101231MD1110011+9999REMSYN076AAXX  16184 08023 32562 70000 10218 20190 30123 40192 51001 8283/ 333 10242;EQDQ01  00002PRCP99
0133080230999992000081621004+43460-003810FM-12+006599999V0202301N003110360019N0100001N1+02151+01911101961ADDGF107991021081008001031999MA1999999101271MD1310041+9999REMSYN066AAXX  16214 08023 42560 72306 10215 20191 30127 40196 53004 8283/;
0201080230999992000081700004+43460-003810FM-12+006599999V0202401N004112200019N0090001N1+01981+01771101921ADDAA199000091AY101061AY201061GA1001+999999999GF100991001001999999001001MA1999999101231MD1610041+9999MW1101REMSYN066AAXX  17004 08023 31959 02408 10198 20177 30123 40192 56004 71000;EQDQ01  00002PRCP99
0133080230999992000081703004+43460-003810FM-12+006599999V0202701N001010360019N0100001N1+02001+01811101861ADDGF105991021081008001031001MA1999999101171MD1710061+9999REMSYN066AAXX  17034 08023 42560 52702 10200 20181 30117 40186 57006 82830;
0198080230999992000081706004+43460-003810FM-12+006599999V0201901N001010090019N0100001N1+02021+01831101841ADDAA199000091GF108991081081004501999999KA1120N+01981MA1999999101151MD1610021+9999REMSYN088AAXX  17064 08023 32460 81902 10202 20183 30115 40184 56002 888// 333 20198 50333 55055;EQDQ01  00002PRCP99
0161080230999992000081709004+43460-003810FM-12+006599999V0202501N001010120019N0100001N1+02091+01851101841ADDAY151031AY221031GF108991081081008001001001MA1999999101151MD1410001+9999MW1021REMSYN072AAXX  17094 08023 41560 82502 10209 20185 30115 40184 54000 70252 88800;
0150080230999992000081712004+43460-003810FM-12+006599999V0200301N002610120019N0120001N1+02191+01821101821ADDAA106000791GF108991061081008001031001MA1999999101131MD1710021+9999REMSYN072AAXX  17124 08023 12562 80305 10219 20182 30113 40182 57002 69901 86830;
0133080230999992000081715004+43460-003810FM-12+006599999V0200701N005710120019N0200001N1+02281+01841101691ADDGF108991081081008001999999MA1999999101011MD1710121+9999REMSYN066AAXX  17154 08023 42570 80711 10228 20184 30101 40169 57012 888//;
0173080230999992000081718004+43460-003810FM-12+006599999V0200601N005110120019N0150001N1+02141+01871101701ADDAA112000791GF108991081081008001001001KA1999M+02321MA1999999101011MD1410001+9999REMSYN082AAXX  17184 08023 12565 80610 10214 20187 30101 40170 54000 69902 88800 333 10232;
0133080230999992000081721004+43460-003810FM-12+006599999V0200801N004110120019N0100001N1+02051+01841101701ADDGF108991081081008001001001MA1999999101011MD1410001+9999REMSYN066AAXX  17214 08023 42560 80808 10205 20184 30101 40170 54000 88800;
0163080230999992000081800004+43460-003810FM-12+006599999V0200801N002110075019N0100001N1+01951+01791101601ADDAA199000091GF108991081051008001001001MA1999999100911MD1710101+9999REMSYN066AAXX  18004 08023 32560 80804 10195 20179 30091 40160 57010 88500;EQDQ01  00002PRCP99
0161080230999992000081803004+43460-003810FM-12+006599999V0201201N003110075019N0070001N1+01951+01821101421ADDAY121031AY221031GF106991061051008001001001MA1999999100731MD1710181+9999MW1101REMSYN072AAXX  18034 08023 41557 61206 10195 20182 30073 40142 57018 71022 86500;
0226080230999992000081806004+43460-003810FM-12+006599999V0200801N004110075019N0090001N1+01981+01801101301ADDAA199000091AY121061AY221061GF108991081051008001001001KA1120N+01941MA1999999100611MD1710121+9999MW1101REMSYN094AAXX  18064 08023 31559 80808 10198 20180 30061 40130 57012 71022 88500 333 20194 50183 55008;EQDQ01  00002PRCP99
0133080230999992000081809004+43460-003810FM-12+006599999V0200501N002110900019N0100001N1+02231+01901101221ADDGF105991031081008001001021MA1999999100541MD1710071+9999REMSYN066AAXX  18094 08023 42560 50504 10223 20190 30054 40122 57007 83802;
0163080230999992000081812004+43460-003810FM-12+006599999V0200601N002610120019N0150001N1+02301+01931101211ADDAA199000091GF107991071081008001999999MA1999999100531MD1710011+9999REMSYN066AAXX  18124 08023 32565 70605 10230 20193 30053 40121 57001 878//;EQDQ01  00002PRCP99
0133080230999992000081815004+43460-003810FM-12+006599999V0200301N002110360019N0200001N1+02281+01851101211ADDGF107991011081008001031001MA1999999100531MD1410001+9999REMSYN066AAXX  18154 08023 42570 70304 10228 20185 30053 40121 54000 81830;
0186080230999992000081818004+43460-003810FM-12+006599999V0202901N002110360019N0200001N1+02151+01821101231ADDAA199000091GF107991011081008001071021KA1999M+02361MA1999999100551MD1310021+9999REMSYN076AAXX  18184 08023 32570 72904 10215 20182 30055 40123 53002 81872 333 10236;EQDQ01  00002PRCP99
0133080230999992000081821004+43460-003810FM-12+006599999V0202401N001510900019N0150001N1+02111+01811101331ADDGF106991031001022501031021MA1999999100651MD1210101+9999REMSYN066AAXX  18214 08023 42865 62403 10211 20181 30065 40133 52010 83032;
0163080230999992000081900004+43460-003810FM-12+006599999V0201301N001510210019N0150001N1+02031+01761101341ADDAA199000091GF107991051001022501071021MA1999999100651MD1410001+9999REMSYN066AAXX  19004 08023 32865 71303 10203 20176 30065 40134 54000 85072;EQDQ01  00002PRCP99
0133080230999992000081903004+43460-003810FM-12+006599999V0209999C000010210019N0150001N1+01981+01741101311ADDGF107991051001022501071021MA1999999100621MD1810031+9999REMSYN066AAXX  19034 08023 42865 70000 10198 20174 30062 40131 58003 85072;
0226080230999992000081906004+43460-003810FM-12+006599999V0201601N001510360019N0050001N1+01941+01781101321ADDAA199000091AY121061AY221061GF107991031081008001071081KA1120N+01921MA1999999100631MD1310011+9999MW1101REMSYN094AAXX  19064 08023 31550 71603 10194 20178 30063 40132 53001 71022 83878 333 20192 50293 55024;EQDQ01  00002PRCP99
0161080230999992000081909004+43460-003810FM-12+006599999V0200601N002612200019N0070001N1+02201+01891101331ADDAY111031AY211031GF104991011021008001081021MA1999999100651MD1110021+9999MW1101REMSYN072AAXX  19094 08023 41557 40605 10220 20189 30065 40133 51002 71011 81282;
0191080230999992000081912004+43460-003810FM-12+006599999V0200601N005712200019N0080001N1+02401+02071101171ADDAA199000091AY111061AY201061GF103991011011008001041001MA1999999100491MD1810161+9999MW1101REMSYN072AAXX  19124 08023 31558 30611 10240 20207 30049 40117 58016 71010 81140;EQDQ01  00002PRCP99
0133080230999992000081915004+43460-003810FM-12+006599999V0200301N005110075019N0150001N1+02301+01991101131ADDGF107991061051008001081001MA1999999100451MD1610041+9999REMSYN066AAXX  19154 08023 42565 70310 10230 20199 30045 40113 56004 86580;
0229080230999992000081918004+43460-003810FM-12+006599999V0203501N00461004201CN0100001N1+02201+01951101311ADDAA112000791AY111061AY211061GA1031+004809079GF107991071051004501001001KA1120M+02461MA1999999100631MD1310181+9999MW1801REMSYN100AAXX  19184 08023 11460 73509 10220 20195 30063 40131 53018 69902 78011 87500 333 10246 83716 87630;
0161080230999992000081921004+43460-003810FM-12+006599999V0200401N004110042019N0080001N1+02121+01961101421ADDAY121031AY211031GF108991081051004501999999MA1999999100741MD1110111+9999MW1101REMSYN072AAXX  19214 08023 41458 80408 10212 20196 30074 40142 51011 71021 885//;
0172080230999992000082000004+43460-003810FM-12+006599999V0200801N004110042019N0080001N1+02061+01871101421ADDAA199000021AY121061AY211061GF108991081051004501999999MA1999999100731MD1810011+9999MW1101REMSYN072AAXX  20004 08023 31458 80808 10206 20187 30073 40142 58001 71021 885//;
0161080230999992000082003004+43460-003810FM-12+006599999V0200801N005110360019N0080001N1+02041+01881101291ADDAY121031AY211031GF107991031051004501071999MA1999999100611MD1710121+9999MW1101REMSYN072AAXX  20034 08023 41458 70810 10204 20188 30061 40129 57012 71021 8357/;
0207080230999992000082006004+43460-003810FM-12+006599999V0201001N004110360019N0080001N1+02021+01891101151ADDAA199000021AY121061AY211061GF107991011061004501071081KA1120N+01961MA1999999100471MD1610141+9999MW1101REMSYN094AAXX  20064 08023 31458 71008 10202 20189 30047 40115 56014 71021 81678 333 20196 50333 55064;
0161080230999992000082009004+43460-003810FM-12+006599999V0202601N007212200019N0080001N1+02101+01911101211ADDAY111031AY201031GF103991031081008001001001MA1999999100531MD1210061+9999MW1101REMSYN072AAXX  20094 08023 41558 32614 10210 20191 30053 40121 52006 71010 83800;
0163080230999992000082012004+43460-003810FM-12+006599999V0202701N006712200019N0200001N1+02211+01711101461ADDAA199000091GF102991011081008001031001MA1999999100781MD1210251+9999REMSYN066AAXX  20124 08023 32570 22713 10221 20171 30078 40146 52025 81830;EQDQ01  00002PRCP99
0161080230999992000082015004+43460-003810FM-12+006599999V0202601N006710090019N0200001N1+02061+01631101641ADDAY121031AY211031GF107991071081004501001001MA1999999100951MD1210171+9999MW1601REMSYN072AAXX  20154 08023 41470 72613 10206 20163 30095 40164 52017 76021 87800;
0201080230999992000082018004+43460-003810FM-12+006599999V0202801N003610120019N0200001N1+02001+01561101721ADDAA112000791AY161061AY221061GF107991071081008001999999KA1999M+02321MA1999999101031MD1110081+9999MW1021REMSYN088AAXX  20184 08023 11570 72807 10200 20156 30103 40172 51008 69902 70262 878// 333 10232;
0133080230999992000082021004+43460-003810FM-12+006599999V0200101N002110120019N0150001N1+01961+01481101831ADDGF107991071081008001999999MA1999999101141MD1310111+9999REMSYN066AAXX  20214 08023 42565 70104 10196 20148 30114 40183 53011 878//;
0144080230999992000082100004+43460-003810FM-12+006599999V0202401N003110120019N0150001N1+01841+01591101791ADDAA199000021GF107991071081008001999999MA1999999101101MD1610041+9999REMSYN066AAXX  21004 08023 32565 72406 10184 20159 30110 40179 56004 878//;
0161080230999992000082103004+43460-003810FM-12+006599999V0203501N003110120019N0080001N1+01711+01591101751ADDAY161031AY221031GF108991081081008001999999MA1999999101051MD1610051+9999MW1601REMSYN072AAXX  21034 08023 41558 83506 10171 20159 30105 40175 56005 76062 888//;
0213080230999992000082106004+43460-003810FM-12+006599999V0202201N003610075019N0040001N1+01601+01531101751ADDAA112007991AY161061AY221061GF108991081071008001999999KA1120N+01601MA1999999101051MD1510001+9999MW1601REMSYN100AAXX  21064 08023 11540 82207 10160 20153 30105 40175 55000 60082 76062 887// 333 20160 50383 55060;
0161080230999992000082109004+43460-003810FM-12+006599999V0202501N004110120019N0100001N1+01691+01501101841ADDAY191031AY281031GF107991071081008001999999MA1999999101141MD1210091+9999MW1021REMSYN072AAXX  21094 08023 41560 72508 10169 20150 30114 40184 52009 70298 878//;
0178080230999992000082112004+43460-003810FM-12+006599999V0202301N003610360019N0200001N1+01691+01351101951ADDAA106009991AY191061AY281061GF107991041081008001071999MA1999999101251MD1210111+9999MW1601REMSYN078AAXX  21124 08023 11570 72307 10169 20135 30125 40195 52011 60101 76098 8487/;
0133080230999992000082115004+43460-003810FM-12+006599999V0202501N002110900019N0200001N1+01921+01241101941ADDGF105991021021008001031081MA1999999101251MD1410001+9999REMSYN066AAXX  21154 08023 42570 52504 10192 20124 30125 40194 54000 82238;
0167080230999992000082118004+43460-003810FM-12+006599999V0202801N001510900019N0250001N1+01891+01351101901ADDAA199000021GF105991021021008001031081KA1999M+02061MA1999999101211MD1810041+9999REMSYN076AAXX  21184 08023 32575 52803 10189 20135 30121 40190 58004 82238 333 10206;
0133080230999992000082121004+43460-003810FM-12+006599999V0201201N003112200019N0200001N1+01661+01361101931ADDGF104991031051008001031001MA1999999101231MD1310021+9999REMSYN066AAXX  21214 08023 42570 41206 10166 20136 30123 40193 53002 83530;
0144080230999992000082200004+43460-003810FM-12+006599999V0201401N003612200019N0200001N1+01521+01271101761ADDAA199000021GF102991021051008001001001MA1999999101061MD1810171+9999REMSYN066AAXX  22004 08023 32570 21407 10152 20127 30106 40176 58017 82500;
0133080230999992000082203004+43460-003810FM-12+006599999V0201501N002112200019N0200001N1+01501+01131101551ADDGF103991001001999999001011MA1999999100851MD1710211+9999REMSYN066AAXX  22034 08023 42970 31504 10150 20113 30085 40155 57021 80001;
0198080230999992000082206004+43460-003810FM-12+006599999V0209999C000019999999N0300001N1+01521+01071101431ADDAA199000091GF106991021001999999071091KA1120N+01451MA1999999100731MD1710121+9999REMSYN088AAXX  22064 08023 32980 60000 10152 20107 30073 40143 57012 82079 333 20145 50373 55034;EQDQ01  00002PRCP99
0133080230999992000082209004+43460-003810FM-12+006599999V0201901N008719999999N0250001N1+02151+00801101251ADDGF105991001001999999001081MA1999999100571MD1710161+9999REMSYN066AAXX  22094 08023 42975 51917 10215 20080 30057 40125 57016 80008;
0163080230999992000082212004+43460-003810FM-12+006599999V0202001N011810900019N0300001N1+02541+00651101041ADDAA199000091GF106991021001022501041021MA1999999100371MD1710201+9999REMSYN066AAXX  22124 08023 32880 62023 10254 20065 30037 40104 57020 82042;EQDQ01  00002PRCP99
0133080230999992000082215004+43460-003810FM-12+006599999V0201401N002610360019N0500001N1+02641+00891101001ADDGF106991011041017501071001MA1999999100331MD1610041+9999REMSYN066AAXX  22154 08023 42784 61405 10264 20089 30033 40100 56004 81470;
0186080230999992000082218004+43460-003810FM-12+006599999V0202601N001510360019N0300001N1+02231+01471100931ADDAA199000091GF106991011011008001071001KA1999M+02731MA1999999100251MD1610081+9999REMSYN076AAXX  22184 08023 32580 62603 10223 20147 30025 40093 56008 81170 333 10273;EQDQ01  00002PRCP99
0133080230999992000082221004+43460-003810FM-12+006599999V0202201N003112200019N0200001N1+01991+01421101111ADDGF106991031001022501071011MA1999999100421MD1210171+9999REMSYN066AAXX  22214 08023 42870 62206 10199 20142 30042 40111 52017 83071;
0163080230999992000082300004+43460-003810FM-12+006599999V0202401N007210210019N0150001N1+01861+01701101151ADDAA199000091GF106991051001022501071011MA1999999100461MD1110041+9999REMSYN066AAXX  23004 08023 32865 62414 10186 20170 30046 40115 51004 85071;EQDQ01  00002PRCP99
0133080230999992000082303004+43460-003810FM-12+006599999V0202401N003610210019N0150001N1+01881+01681101181ADDGF107991071001022501031001MA1999999100491MD1210031+9999REMSYN066AAXX  23034 08023 42865 72407 10188 20168 30049 40118 52003 87030;
0198080230999992000082306004+43460-003810FM-12+006599999V0201701N004610360019N0300001N1+01921+01591101201ADDAA199000091GF106991011051008001041001KA1120N+01851MA1999999100511MD1210021+9999REMSYN088AAXX  23064 08023 32580 61709 10192 20159 30051 40120 52002 81540 333 20185 50413 55070;EQDQ01  00002PRCP99
0133080230999992000082309004+43460-003810FM-12+006599999V0202001N008210360019N0300001N1+02201+00941101271ADDGF107991011081008001041001MA1999999100591MD1210081+9999REMSYN066AAXX  23094 08023 42580 72016 10220 20094 30059 40127 52008 81840;
0163080230999992000082312004+43460-003810FM-12+006599999V0202201N006212200019N0300001N1+02651+01131101401ADDAA199000091GF104991011081008001041001MA1999999100731MD1210141+9999REMSYN066AAXX  23124 08023 32580 42212 10265 20113 30073 40140 52014 81840;EQDQ01  00002PRCP99
0133080230999992000082315004+43460-003810FM-12+006599999V0201801N008212200019N0500001N1+02721+01211101401ADDGF102991021081008001001001MA1999999100731MD1410001+9999REMSYN066AAXX  23154 08023 42584 21816 10272 20121 30073 40140 54000 82800;
0201080230999992000082318004+43460-003810FM-12+006599999V0200701N006210120019N0300001N1+02141+01841101491ADDAA112000391AY121061AY211061GF106991061081008001001001KA1999M+02801MA1999999100811MD1210081+9999MW1801REMSYN088AAXX  23184 08023 11580 60712 10214 20184 30081 40149 52008 69932 78021 86800 333 10280;
0133080230999992000082321004+43460-003810FM-12+006599999V0201101N006212200019N0200001N1+02051+01941101621ADDGF103991031081008001001001MA1999999100931MD1210121+9999REMSYN066AAXX  23214 08023 42570 31112 10205 20194 30093 40162 52012 83800;
0178080230999992000082400004+43460-003810FM-12+006599999V0201101N005710360019N0150001N1+02061+01741101641ADDAA106000191AY121061AY221061GF105991041081008001031001MA1999999100951MD1210021+9999MW1251REMSYN078AAXX  24004 08023 11565 51111 10206 20174 30095 40164 52002 69921 72522 84830;
0133080230999992000082403004+43460-003810FM-12+006599999V0201001N003612200019N0150001N1+02011+01701101631ADDGF104991001001999999001081MA1999999100941MD1810011+9999REMSYN066AAXX  24034 08023 42965 41007 10201 20170 30094 40163 58001 80008;
0185080230999992000082406004+43460-003810FM-12+006599999V0201501N001512200019N0200001N1+01901+01491101661ADDAA112000191GF103991001001999999001021KA1120N+01881MA1999999100971MD1210031+9999REMSYN094AAXX  24064 08023 12970 31503 10190 20149 30097 40166 52003 69922 80002 333 20188 50763 55052;
0133080230999992000082409004+43460-003810FM-12+006599999V0200701N003112200019N0250001N1+02341+01661101691ADDGF102991011001999999081041MA1999999101011MD1310041+9999REMSYN066AAXX  24094 08023 42975 20706 10234 20166 30101 40169 53004 81084;
0144080230999992000082412004+43460-003810FM-12+006599999V0203301N003112200019N0180001N1+02241+01861101651ADDAA199000021GF101991001001999999001021MA1999999100971MD1810041+9999REMSYN066AAXX  24124 08023 32968 13306 10224 20186 30097 40165 58004 80002;
0133080230999992000082415004+43460-003810FM-12+006599999V0203401N002112200019N0100001N1+02351+02121101531ADDGF103991011061004501001021MA1999999100851MD1710121+9999REMSYN066AAXX  24154 08023 42460 33404 10235 20212 30085 40153 57012 81602;
0186080230999992000082418004+43460-003810FM-12+006599999V0200601N002119999999N0100001N1+02181+02031101501ADDAA199000091GF106991001001999999001021KA1999M+02441MA1999999100821MD1710031+9999REMSYN076AAXX  24184 08023 32960 60604 10218 20203 30082 40150 57003 80002 333 10244;EQDQ01  00002PRCP99
0133080230999992000082421004+43460-003810FM-12+006599999V0201601N002112200019N0100001N1+02081+01911101521ADDGF104991001001999999001021MA1999999100831MD1310011+9999REMSYN066AAXX  24214 08023 42960 41604 10208 20191 30083 40152 53001 80002;
0191080230999992000082500004+43460-003810FM-12+006599999V0202401N004612200019N0060001N1+01981+01921101521ADDAA199000091AY111061AY201061GF103991031061004501001001MA1999999100831MD1410001+9999MW1101REMSYN072AAXX  25004 08023 31456 32409 10198 20192 30083 40152 54000 71010 83600;EQDQ01  00002PRCP99
0161080230999992000082503004+43460-003810FM-12+006599999V0202401N004612200019N0060001N1+01981+01931101421ADDAY111031AY211031GF104991021061004501031001MA1999999100731MD1810101+9999MW1101REMSYN072AAXX  25034 08023 41456 42409 10198 20193 30073 40142 58010 71011 82630;
0226080230999992000082506004+43460-003810FM-12+006599999V0202401N003110075019N0070001N1+01971+01911101421ADDAA199000091AY121061AY211061GF107991061051008001001091KA1120N+01951MA1999999100731MD1410001+9999MW1101REMSYN094AAXX  25064 08023 31557 72406 10197 20191 30073 40142 54000 71021 86509 333 20195 50433 55109;EQDQ01  00002PRCP99
0133080230999992000082509004+43460-003810FM-12+006599999V0202801N003112200019N0100001N1+02141+01871101331ADDGF104991021081008001001051MA1999999100651MD1810081+9999REMSYN066AAXX  25094 08023 42560 42806 10214 20187 30065 40133 58008 82805;
0163080230999992000082512004+43460-003810FM-12+006599999V0202801N003110360019N0100001N1+02161+01931101311ADDAA199000091GF107991021081012501021071MA1999999100631MD1510021+9999REMSYN066AAXX  25124 08023 32660 72806 10216 20193 30063 40131 55002 82827;EQDQ01  00002PRCP99
0161080230999992000082515004+43460-003810FM-12+006599999V0202801N002110360019N0080001N1+02151+02001101291ADDAY181031AY221031GF108991041071012501021999MA1999999100611MD1510021+9999MW1801REMSYN072AAXX  25154 08023 41658 82804 10215 20200 30061 40129 55002 78082 8472/;
0201080230999992000082518004+43460-003810FM-12+006599999V0202601N006210360019N0100001N1+02071+01901101291ADDAA112000391AY181061AY221061GF106991041081012501011081KA1999M+02221MA1999999100611MD1510001+9999MW1021REMSYN088AAXX  25184 08023 11660 62612 10207 20190 30061 40129 55000 69932 70282 84818 333 10222;
0133080230999992000082521004+43460-003810FM-12+006599999V0202601N007210360019N0100001N1+02021+01791101401ADDGF107991041081008001011071MA1999999100711MD1210101+9999REMSYN066AAXX  25214 08023 42560 72614 10202 20179 30071 40140 52010 84817;
0232080230999992000082600004+43460-003810FM-12+006599999V0202601N008210042019N0150001N1+01961+01701101461ADDAA106000791AY121061AY221061GA1021+004509069GA2011+008009099GF106991051031004501011071MA1999999100771MD1310061+9999MW1211REMSYN100AAXX  26004 08023 11465 62616 10196 20170 30077 40146 53006 69901 72122 85317 333 82694 81995 96013;
0133080230999992000082603004+43460-003810FM-12+006599999V0202401N004110090019N0150001N1+01831+01611101401ADDGF106991061081004501001001MA1999999100711MD1810061+9999REMSYN066AAXX  26034 08023 42465 62408 10183 20161 30071 40140 58006 86800;
0185080230999992000082606004+43460-003810FM-12+006599999V0202301N006710090019N0150001N1+01821+01531101511ADDAA106000791GF107991071081004501001001KA1120N+01791MA1999999100821MD1310111+9999REMSYN094AAXX  26064 08023 12465 72313 10182 20153 30082 40151 53011 69901 87800 333 20179 50293 55044;
0133080230999992000082609004+43460-003810FM-12+006599999V0202701N009310360019N0150001N1+02041+01641101661ADDGF106991031021008001061001MA1999999100971MD1210151+9999REMSYN066AAXX  26094 08023 42565 62718 10204 20164 30097 40166 52015 83260;
0144080230999992000082612004+43460-003810FM-12+006599999V0202901N007710900019N0200001N1+02121+01661101761ADDAA199000021GF105991021031008001061021MA1999999101071MD1110101+9999REMSYN066AAXX  26124 08023 32570 52915 10212 20166 30107 40176 51010 82362;
0133080230999992000082615004+43460-003810FM-12+006599999V0202901N006210360019N0250001N1+02221+01631101831ADDGF106991021021008001061021MA1999999101141MD1110071+9999REMSYN066AAXX  26154 08023 42575 62912 10222 20163 30114 40183 51007 82262;
0186080230999992000082618004+43460-003810FM-12+006599999V0202601N004612200019N0200001N1+02061+01521101911ADDAA199000091GF104991031021008001041021KA1999M+02271MA1999999101221MD1310081+9999REMSYN076AAXX  26184 08023 32570 42609 10206 20152 30122 40191 53008 83242 333 10227;EQDQ01  00002PRCP99
0133080230999992000082621004+43460-003810FM-12+006599999V0202401N005112200019N0150001N1+01921+01511102031ADDGF104991021021008001061021MA1999999101341MD1210121+9999REMSYN066AAXX  26214 08023 42565 42410 10192 20151 30134 40203 52012 82262;
0178080230999992000082700004+43460-003810FM-12+006599999V0202601N008710120019N0150001N1+01831+01611102151ADDAA106000591AY121061AY221061GF108991051081008001061999MA1999999101451MD1210111+9999MW1291REMSYN078AAXX  27004 08023 11565 82617 10183 20161 30145 40215 52011 69951 72922 8586/;
0161080230999992000082703004+43460-003810FM-12+006599999V0202201N005110360019N0150001N1+01701+01511102111ADDAY191031AY281031GF106991041081008001061011MA1999999101411MD1810041+9999MW1021REMSYN072AAXX  27034 08023 41565 62210 10170 20151 30141 40211 58004 70298 84861;
0185080230999992000082706004+43460-003810FM-12+006599999V0202201N005712200019N0100001N1+01721+01291102161ADDAA112000591GF104991041081008001001011KA1120N+01681MA1999999101461MD1310051+9999REMSYN094AAXX  27064 08023 12560 42211 10172 20129 30146 40216 53005 69952 84801 333 20168 50473 55067;
0161080230999992000082709004+43460-003810FM-12+006599999V0202301N004110360019N0060001N1+01761+01451102391ADDAY181031AY221031GF107991041021004501071999MA1999999101691MD1210231+9999MW1151REMSYN072AAXX  27094 08023 41456 72308 10176 20145 30169 40239 52023 71582 8427/;
0178080230999992000082712004+43460-003810FM-12+006599999V0202801N007210120019N0300001N1+02061+01481102411ADDAA106004191AY181061AY221061GF106991061081008001001001MA1999999101721MD1110031+9999MW1011REMSYN078AAXX  27124 08023 11580 62814 10206 20148 30172 40241 51003 60041 70182 86800;
0133080230999992000082715004+43460-003810FM-12+006599999V0202801N004610120019N0200001N1+02101+01491102381ADDGF105991051081008001061001MA1999999101691MD1810031+9999REMSYN066AAXX  27154 08023 42570 52809 10210 20149 30169 40238 58003 85860;
0205080230999992000082718004+43460-003810FM-12+006599999V0203301N003110120019N0250001N1+01961+01331102371ADDAA199000091GF105991051081008001001001KA1120M+02181KA2999N+01561MA1999999101671MD1610021+9999REMSYN082AAXX  27184 08023 32575 53306 10196 20133 30167 40237 56002 85800 333 10218 20156;EQDQ01  00002PRCP99
0133080230999992000082721004+43460-003810FM-12+006599999V0200401N001010120019N0250001N1+01901+01301102411ADDGF107991071081008001999999MA1999999101711MD1110041+9999REMSYN066AAXX  27214 08023 42575 70402 10190 20130 30171 40241 51004 878//;
0163080230999992000082800004+43460-003810FM-12+006599999V0209999C000010075019N0200001N1+01881+01351102391ADDAA199000091GF106991061051008001999999MA1999999101691MD1810021+9999REMSYN066AAXX  28004 08023 32570 60000 10188 20135 30169 40239 58002 865//;EQDQ01  00002PRCP99
0143080230999992000082803004+43460-003810FM-12+006599999V0201501N002112200019N0200001N1+01701+01421102281ADDGA1001+999999999GF100991001001999999001001MA1999999101581MD1710111+9999REMSYN060AAXX  28034 08023 42970 01504 10170 20142 30158 40228 57011;
0198080230999992000082806004+43460-003810FM-12+006599999V0201501N002119999999N0150001N1+01541+01401102241ADDAA199000091GF107991001001999999001061KA1120N+01541MA1999999101541MD1610041+9999REMSYN088AAXX  28064 08023 32965 71504 10154 20140 30154 40224 56004 80006 333 20154 50373 55049;EQDQ01  00002PRCP99
0133080230999992000082809004+43460-003810FM-12+006599999V0200701N004119999999N0150001N1+02011+01561102191ADDGF106991001001999999001061MA1999999101501MD1710041+9999REMSYN066AAXX  28094 08023 42965 60708 10201 20156 30150 40219 57004 80006;
0163080230999992000082812004+43460-003810FM-12+006599999V0200601N007719999999N0200001N1+02161+01611102141ADDAA199000091GF106991001001999999001091MA1999999101451MD1710051+9999REMSYN066AAXX  28124 08023 32970 60615 10216 20161 30145 40214 57005 80009;EQDQ01  00002PRCP99
0133080230999992000082815004+43460-003810FM-12+006599999V0200601N007210900019N0250001N1+02101+01491102061ADDGF105991011011008001041021MA1999999101371MD1610081+9999REMSYN066AAXX  28154 08023 42575 50614 10210 20149 30137 40206 56008 81142;
0186080230999992000082818004+43460-003810FM-12+006599999V0200701N005112200019N0250001N1+02041+01421102061ADDAA199000091GF102991001001999999001011KA1999M+02221MA1999999101371MD1410001+9999REMSYN076AAXX  28184 08023 32975 20710 10204 20142 30137 40206 54000 80001 333 10222;EQDQ01  00002PRCP99
0143080230999992000082821004+43460-003810FM-12+006599999V0201001N003612200019N0100001N1+01901+01511102101ADDGA1001+999999999GF100991001001999999001001MA1999999101411MD1310041+9999REMSYN060AAXX  28214 08023 42960 01007 10190 20151 30141 40210 53004;
0163080230999992000082900004+43460-003810FM-12+006599999V0201201N004112200019N0100001N1+01781+01511102071ADDAA199000091GF101991001001999999001011MA1999999101371MD1810041+9999REMSYN066AAXX  29004 08023 32960 11208 10178 20151 30137 40207 58004 80001;EQDQ01  00002PRCP99
0143080230999992000082903004+43460-003810FM-12+006599999V0201301N004112200019N0100001N1+01731+01511101751ADDGA1001+999999999GF100991001001999999001001MA1999999101051MD1710321+9999REMSYN060AAXX  29034 08023 42960 01308 10173 20151 30105 40175 57032;
0198080230999992000082906004+43460-003810FM-12+006599999V0201301N004112200019N0100001N1+01641+01431101631ADDAA199000091GF102991011001999999041081KA1120N+01641MA1999999100931MD1710121+9999REMSYN088AAXX  29064 08023 32960 21308 10164 20143 30093 40163 57012 81048 333 20164 50343 55098;EQDQ01  00002PRCP99
0133080230999992000082909004+43460-003810FM-12+006599999V0202501N003612200019N0100001N1+01961+01611101621ADDGF103991021001022501031081MA1999999100931MD1410001+9999REMSYN066AAXX  29094 08023 42860 32507 10196 20161 30093 40162 54000 82038;
0163080230999992000082912004+43460-003810FM-12+006599999V0202601N007210900019N0100001N1+02151+01691101551ADDAA199000091GF106991011001022501031081MA1999999100871MD1610061+9999REMSYN066AAXX  29124 08023 32860 62614 10215 20169 30087 40155 56006 81038;EQDQ01  00002PRCP99
0133080230999992000082915004+43460-003810FM-12+006599999V0202601N007710360019N0100001N1+02121+01871101571ADDGF107991041061004501031081MA1999999100891MD1110021+9999REMSYN066AAXX  29154 08023 42460 72615 10212 20187 30089 40157 51002 84638;
0214080230999992000082918004+43460-003810FM-12+006599999V0202601N006710360019N0090001N1+02081+01841101581ADDAA199000091AY121061AY221061GF107991041061004501051081KA1999M+02251MA1999999100891MD1410001+9999MW1101REMSYN082AAXX  29184 08023 31459 72613 10208 20184 30089 40158 54000 71022 84658 333 10225;EQDQ01  00002PRCP99
0161080230999992000082921004+43460-003810FM-12+006599999V0202601N005710360019N0080001N1+02021+01831101641ADDAY121031AY221031GF107991041061004501051081MA1999999100951MD1110061+9999MW1101REMSYN072AAXX  29214 08023 41458 72611 10202 20183 30095 40164 51006 71022 84658;
0191080230999992000083000004+43460-003810FM-12+006599999V0202301N005110360019N0080001N1+01871+01671101631ADDAA199000091AY121061AY221061GF107991041061004501061001MA1999999100941MD1610011+9999MW1101REMSYN072AAXX  30004 08023 31458 72310 10187 20167 30094 40163 56001 71022 84660;EQDQ01  00002PRCP99
0161080230999992000083003004+43460-003810FM-12+006599999V0202201N005110360019N0060001N1+01831+01651101551ADDAY121031AY221031GF106991041081008001031001MA1999999100861MD1710081+9999MW1101REMSYN072AAXX  30034 08023 41556 62210 10183 20165 30086 40155 57008 71022 84830;
0226080230999992000083006004+43460-003810FM-12+006599999V0202301N005110120019N0060001N1+01841+01731101481ADDAA199000091AY121061AY221061GF108991081081008001001001KA1120N+01771MA1999999100791MD1810071+9999MW1101REMSYN094AAXX  30064 08023 31556 82310 10184 20173 30079 40148 58007 71022 88800 333 20177 50403 55///;EQDQ01  00002PRCP99
0161080230999992000083009004+43460-003810FM-12+006599999V0202401N001510120019N0050001N1+01761+01661101541ADDAY181031AY251031GF108991081081008001999999MA1999999100851MD1310061+9999MW1801REMSYN072AAXX  30094 08023 41550 82403 10176 20166 30085 40154 53006 78085 888//;
0178080230999992000083012004+43460-003810FM-12+006599999V0202301N002110120019N0070001N1+01801+01631101551ADDAA106015091AY181061AY281061GF108991081081008001999999MA1999999100861MD1210011+9999MW1811REMSYN078AAXX  30124 08023 11557 82304 10180 20163 30086 40155 52001 60151 78188 888//;
0161080230999992000083015004+43460-003810FM-12+006599999V0202701N006210075019N0150001N1+02031+01651101551ADDAY181031AY221031GF107991051021008001071001MA1999999100861MD1010001+9999MW1021REMSYN072AAXX  30154 08023 41565 72712 10203 20165 30086 40155 50000 70282 85270;
0201080230999992000083018004+43460-003810FM-12+006599999V0202601N006712200019N0250001N1+02011+01561101521ADDAA112018091AY181061AY221061GF102991021021008001001001KA1999M+02071MA1999999100831MD1710031+9999MW1021REMSYN088AAXX  30184 08023 11575 22613 10201 20156 30083 40152 57003 60182 70282 82200 333 10207;
0161080230999992000083021004+43460-003810FM-12+006599999V0202701N005110120019N0150001N1+01821+01641101591ADDAY181031AY221031GF107991071081008001999999MA1999999100901MD1210071+9999MW1021REMSYN072AAXX  30214 08023 41565 72710 10182 20164 30090 40159 52007 70282 878//;
0178080230999992000083100004+43460-003810FM-12+006599999V0202301N005110120019N0100001N1+01781+01581101601ADDAA106003091AY181061AY221061GF108991081081008001999999MA1999999100911MD1210011+9999MW1021REMSYN078AAXX  31004 08023 11560 82310 10178 20158 30091 40160 52001 60031 70282 888//;
0133080230999992000083103004+43460-003810FM-12+006599999V0202401N006210120019N0150001N1+01721+01481101591ADDGF105991051081008001001001MA1999999100891MD1710021+9999REMSYN066AAXX  31034 08023 42565 52412 10172 20148 30089 40159 57002 85800;
0185080230999992000083106004+43460-003810FM-12+006599999V0202401N006712200019N0150001N1+01671+01331101591ADDAA112003091GF102991011081008001001011KA1120N+01651MA1999999100891MD1410001+9999REMSYN094AAXX  31064 08023 12565 22413 10167 20133 30089 40159 54000 60032 81801 333 20165 53050 55034;
0133080230999992000083109004+43460-003810FM-12+006599999V0202001N005112200019N0200001N1+02001+01531101661ADDGF103991031021008001001001MA1999999100971MD1110081+9999REMSYN066AAXX  31094 08023 42570 32010 10200 20153 30097 40166 51008 83200;
0163080230999992000083112004+43460-003810FM-12+006599999V0202801N003612200019N0150001N1+02101+01711101621ADDAA199000091GF102991021021008001001001MA1999999100931MD1810041+9999REMSYN066AAXX  31124 08023 32565 22807 10210 20171 30093 40162 58004 82200;EQDQ01  00002PRCP99
0133080230999992000083115004+43460-003810FM-12+006599999V0203301N002612200019N0120001N1+02141+01681101531ADDGF101991011011008001001001MA1999999100851MD1710081+9999REMSYN066AAXX  31154 08023 42562 13305 10214 20168 30085 40153 57008 81100;
0186080230999992000083118004+43460-003810FM-12+006599999V0200301N001512200019N0120001N1+02061+01651101501ADDAA199000091GF104991011011008001031051KA1999M+02151MA1999999100811MD1610041+9999REMSYN076AAXX  31184 08023 32562 40303 10206 20165 30081 40150 56004 81135 333 10215;EQDQ01  00002PRCP99
0133080230999992000083121004+43460-003810FM-12+006599999V0209999C000012200019N0100001N1+01911+01591101511ADDGF102991021051012501001001MA1999999100821MD1310011+9999REMSYN066AAXX  31214 08023 42660 20000 10191 20159 30082 40151 53001 82500;
0173080230999992000090100004+43460-003810FM-12+006599999V0202301N001012200019N0120001N1+01861+01631101501ADDAA199000091GA1001+999999999GF100991001001999999001001MA1999999100811MD1610011+9999REMSYN060AAXX  01004 08023 32962 02302 10186 20163 30081 40150 56001;EQDQ01  00002PRCP99
0133080230999992000090103004+43460-003810FM-12+006599999V0202101N003612200019N0100001N1+01751+01581101441ADDGF102991021051012501001001MA1999999100751MD1710061+9999REMSYN066AAXX  01034 08023 42660 22107 10175 20158 30075 40144 57006 82500;
0226080230999992000090106004+43460-003810FM-12+006599999V0202301N004610075019N0080001N1+01761+01571101431ADDAA199000091AY111061AY201061GF106991061061008001001001KA1120N+01721MA1999999100741MD1610011+9999MW1101REMSYN094AAXX  01064 08023 31558 62309 10176 20157 30074 40143 56001 71010 86600 333 20172 50253 55117;EQDQ01  00002PRCP99
0161080230999992000090109004+43460-003810FM-12+006599999V0202601N006710120019N0090001N1+01981+01611101461ADDAY121031AY221031GF107991071081008001999999MA1999999100771MD1310031+9999MW1051REMSYN072AAXX  01094 08023 41559 72613 10198 20161 30077 40146 53003 70522 878//;
0178080230999992000090112004+43460-003810FM-12+006599999V0203301N007210120019N0100001N1+01821+01691101581ADDAA106000791AY181061AY221061GF108991081081008001999999MA1999999100891MD1210121+9999MW1801REMSYN078AAXX  01124 08023 11560 83314 10182 20169 30089 40158 52012 69901 78082 888//;
0133080230999992000090115004+43460-003810FM-12+006599999V0202901N007210120019N0150001N1+01961+01431101641ADDGF108991081081008001001001MA1999999100951MD1210061+9999REMSYN066AAXX  01154 08023 42565 82914 10196 20143 30095 40164 52006 88800;
0201080230999992000090118004+43460-003810FM-12+006599999V0202901N006710075019N0200001N1+01941+01351101701ADDAA112000191AY181061AY221061GF107991071051008001999999KA1999M+02051MA1999999101011MD1010061+9999MW1021REMSYN088AAXX  01184 08023 11570 72913 10194 20135 30101 40170 50006 69922 70282 875// 333 10205;
0133080230999992000090121004+43460-003810FM-12+006599999V0202801N007210075019N0200001N1+01921+01361101801ADDGF106991061051008001001001MA1999999101111MD1310101+9999REMSYN066AAXX  01214 08023 42570 62814 10192 20136 30111 40180 53010 86500;
0144080230999992000090200004+43460-003810FM-12+006599999V0202901N007210075019N0200001N1+01901+01381101831ADDAA199000021GF106991061051008001001001MA1999999101141MD1110031+9999REMSYN066AAXX  02004 08023 32570 62914 10190 20138 30114 40183 51003 86500;
0133080230999992000090203004+43460-003810FM-12+006599999V0202701N007210075019N0150001N1+01881+01321101831ADDGF105991051051008001001001MA1999999101141MD1010001+9999REMSYN066AAXX  02034 08023 42565 52714 10188 20132 30114 40183 50000 85500;
0198080230999992000090206004+43460-003810FM-12+006599999V0202301N005710075019N0120001N1+01781+01241101871ADDAA199000091GF107991071071008001999999KA1120N+01751MA1999999101171MD1310031+9999REMSYN088AAXX  02064 08023 32562 72311 10178 20124 30117 40187 53003 877// 333 20175 50183 55013;EQDQ01  00002PRCP99
0161080230999992000090209004+43460-003810FM-12+006599999V0202301N005110090019N0120001N1+01881+01351101941ADDAY151031AY221031GF108991081081004501999999MA1999999101251MD1310081+9999MW1021REMSYN072AAXX  02094 08023 41462 82310 10188 20135 30125 40194 53008 70252 888//;
0178080230999992000090212004+43460-003810FM-12+006599999V0202601N006710090019N0200001N1+02061+01501101941ADDAA106000791AY151061AY221061GF106991061081004501001001MA1999999101251MD1010001+9999MW1021REMSYN078AAXX  02124 08023 11470 62613 10206 20150 30125 40194 50000 69901 70252 86800;
0133080230999992000090215004+43460-003810FM-12+006599999V0202901N004112200019N0150001N1+02131+01641101941ADDGF104991021081008001031001MA1999999101251MD1410001+9999REMSYN066AAXX  02154 08023 42565 42908 10213 20164 30125 40194 54000 82830;
0201080230999992000090218004+43460-003810FM-12+006599999V0203201N002110090019N0120001N1+01981+01751102021ADDAA112000791AY121061AY221061GF107991071081004501999999KA1999M+02161MA1999999101331MD1310081+9999MW1801REMSYN088AAXX  02184 08023 11462 73204 10198 20175 30133 40202 53008 69902 78022 878// 333 10216;
0133080230999992000090221004+43460-003810FM-12+006599999V0202701N000510090019N0100001N1+01921+01691102041ADDGF107991071081004501999999MA1999999101351MD1110021+9999REMSYN066AAXX  02214 08023 42460 72701 10192 20169 30135 40204 51002 878//;
0144080230999992000090300004+43460-003810FM-12+006599999V0203601N002610090019N0100001N1+01911+01631102031ADDAA199000021GF107991071081004501999999MA1999999101341MD1610011+9999REMSYN066AAXX  03004 08023 32460 73605 10191 20163 30134 40203 56001 878//;
0161080230999992000090303004+43460-003810FM-12+006599999V0203601N002610090019N0100001N1+01871+01491101991ADDAY121031AY221031GF108991081081004501999999MA1999999101301MD1610041+9999MW1251REMSYN072AAXX  03034 08023 41460 83605 10187 20149 30130 40199 56004 72522 888//;
0213080230999992000090306004+43460-003810FM-12+006599999V0203501N001510090019N0150001N1+01861+01311102001ADDAA112000191AY181061AY221061GF106991051081004501061011KA1120N+01841MA1999999101301MD1410001+9999MW1021REMSYN100AAXX  03064 08023 11465 63503 10186 20131 30130 40200 54000 69912 70282 85861 333 20184 50343 55042;
0161080230999992000090309004+43460-003810FM-12+006599999V0200101N002110360019N0250001N1+01921+01511102101ADDAY121031AY221031GF107991041081008001061081MA1999999101411MD1310111+9999MW1151REMSYN072AAXX  03094 08023 41575 70104 10192 20151 30141 40210 53011 71522 84868;
0172080230999992000090312004+43460-003810FM-12+006599999V0203101N003110360019N0300001N1+02021+01571102121ADDAA199000021AY121061AY221061GF107991031041008001031091MA1999999101431MD1110021+9999MW1151REMSYN072AAXX  03124 08023 31580 73106 10202 20157 30143 40212 51002 71522 83439;
0133080230999992000090315004+43460-003810FM-12+006599999V0203501N001510360019N0150001N1+01961+01561102121ADDGF107991041021008001061091MA1999999101431MD1410001+9999REMSYN066AAXX  03154 08023 42565 73503 10196 20156 30143 40212 54000 84269;
0205080230999992000090318004+43460-003810FM-12+006599999V0200501N001510360019N0200001N1+01881+01511102111ADDAA199000091GF107991041081008001071001KA1120M+02101KA2999N+01811MA1999999101411MD1810021+9999REMSYN082AAXX  03184 08023 32570 70503 10188 20151 30141 40211 58002 84870 333 10210 20181;EQDQ01  00002PRCP99
0133080230999992000090321004+43460-003810FM-12+006599999V0202701N000510360019N0150001N1+01821+01461102191ADDGF106991021081008001031001MA1999999101491MD1310081+9999REMSYN066AAXX  03214 08023 42565 62701 10182 20146 30149 40219 53008 82830;
0163080230999992000090400004+43460-003810FM-12+006599999V0202701N001512200019N0150001N1+01831+01451102161ADDAA199000091GF104991011011008001031001MA1999999101461MD1810031+9999REMSYN066AAXX  04004 08023 32565 42703 10183 20145 30146 40216 58003 81130;EQDQ01  00002PRCP99
0133080230999992000090403004+43460-003810FM-12+006599999V0201101N001512200019N0100001N1+01731+01301102191ADDGF104991011081008001031001MA1999999101491MD1310031+9999REMSYN066AAXX  04034 08023 42560 41103 10173 20130 30149 40219 53003 81830;
0213080230999992000090406004+43460-003810FM-12+006599999V0201801N002112200019N0100001N1+01641+01501102231ADDAA112000191AY121061AY221061GF104991041081008001001001KA1120N+01641MA1999999101531MD1210041+9999MW1251REMSYN100AAXX  04064 08023 11560 41804 10164 20150 30153 40223 52004 69912 72522 84800 333 20164 50283 55026;
0133080230999992000090409004+43460-003810FM-12+006599999V0203401N001012200019N0200001N1+01971+01401102351ADDGF104991041021008001001001MA1999999101651MD1310121+9999REMSYN066AAXX  04094 08023 42570 43402 10197 20140 30165 40235 53012 84200;
0144080230999992000090412004+43460-003810FM-12+006599999V0203501N002112200019N0250001N1+02081+01451102391ADDAA199000021GF103991021081012501031001MA1999999101701MD1310051+9999REMSYN066AAXX  04124 08023 32675 33504 10208 20145 30170 40239 53005 82830;
0133080230999992000090415004+43460-003810FM-12+006599999V0200101N002112200019N0250001N1+02081+01491102341ADDGF102991021011008001001001MA1999999101651MD1710051+9999REMSYN066AAXX  04154 08023 42575 20104 10208 20149 30165 40234 57005 82100;
0167080230999992000090418004+43460-003810FM-12+006599999V0200601N004112200019N0250001N1+01971+01421102351ADDAA199000021GF102991011011008001001011KA1999M+02131MA1999999101651MD1410001+9999REMSYN076AAXX  04184 08023 32575 20608 10197 20142 30165 40235 54000 81101 333 10213;
0143080230999992000090421004+43460-003810FM-12+006599999V0201101N002612200019N0200001N1+01761+01451102491ADDGA1001+999999999GF100991001001999999001001MA1999999101791MD1210141+9999REMSYN060AAXX  04214 08023 42970 01105 10176 20145 30179 40249 52014;
0173080230999992000090500004+43460-003810FM-12+006599999V0201601N002612200019N0200001N1+01651+01391102501ADDAA199000091GA1001+999999999GF100991001001999999001001MA1999999101801MD1010011+9999REMSYN060AAXX  05004 08023 32970 01605 10165 20139 30180 40250 50001;EQDQ01  00002PRCP99
0143080230999992000090503004+43460-003810FM-12+006599999V0201701N003612200019N0180001N1+01571+01391102461ADDGA1001+999999999GF100991001001999999001001MA1999999101751MD1810051+9999REMSYN060AAXX  05034 08023 42968 01707 10157 20139 30175 40246 58005;
0198080230999992000090506004+43460-003810FM-12+006599999V0201501N003112200019N0200001N1+01501+01211102461ADDAA199000091GF101991011011012501001011KA1120N+01481MA1999999101751MD1410001+9999REMSYN088AAXX  05064 08023 32670 11506 10150 20121 30175 40246 54000 81101 333 20148 50333 55111;EQDQ01  00002PRCP99
0143080230999992000090509004+43460-003810FM-12+006599999V0201001N003112200019N0200001N1+02101+01601102491ADDGA1001+999999999GF100991001001999999001001MA1999999101801MD1210051+9999REMSYN060AAXX  05094 08023 42970 01006 10210 20160 30180 40249 52005;
0163080230999992000090512004+43460-003810FM-12+006599999V0200501N004612200019N0150001N1+02101+01411102451ADDAA199000091GF102991001001999999001021MA1999999101761MD1810041+9999REMSYN066AAXX  05124 08023 32965 20509 10210 20141 30176 40245 58004 80002;EQDQ01  00002PRCP99
0133080230999992000090515004+43460-003810FM-12+006599999V0200501N005112200019N0150001N1+02141+01301102341ADDGF102991001001999999001021MA1999999101651MD1710111+9999REMSYN066AAXX  05154 08023 42965 20510 10214 20130 30165 40234 57011 80002;
0186080230999992000090518004+43460-003810FM-12+006599999V0200701N005119999999N0150001N1+01971+01221102331ADDAA199000091GF105991001001999999001061KA1999M+02201MA1999999101631MD1610021+9999REMSYN076AAXX  05184 08023 32965 50710 10197 20122 30163 40233 56002 80006 333 10220;EQDQ01  00002PRCP99
0133080230999992000090521004+43460-003810FM-12+006599999V0201001N003112200019N0100001N1+01781+01281102391ADDGF103991001001999999001081MA1999999101691MD1310061+9999REMSYN066AAXX  05214 08023 42960 31006 10178 20128 30169 40239 53006 80008;
0173080230999992000090600004+43460-003810FM-12+006599999V0201301N003112200019N0100001N1+01641+01161102321ADDAA199000091GA1001+999999999GF100991001001999999001001MA1999999101621MD1710071+9999REMSYN060AAXX  06004 08023 32960 01306 10164 20116 30162 40232 57007;EQDQ01  00002PRCP99
0133080230999992000090603004+43460-003810FM-12+006599999V0201901N002612200019N0100001N1+01531+01301102251ADDGF102991001001999999001021MA1999999101541MD1710081+9999REMSYN066AAXX  06034 08023 42960 21905 10153 20130 30154 40225 57008 80002;
0198080230999992000090606004+43460-003810FM-12+006599999V0202201N002612200019N0120001N1+01501+01281102201ADDAA199000091GF102991001001999999001021KA1120N+01481MA1999999101491MD1610051+9999REMSYN088AAXX  06064 08023 32962 22205 10150 20128 30149 40220 56005 80002 333 20148 50443 55113;EQDQ01  00002PRCP99
0133080230999992000090609004+43460-003810FM-12+006599999V0202801N002112200019N0100001N1+01891+01401102171ADDGF102991001001999999001011MA1999999101471MD1710021+9999REMSYN066AAXX  06094 08023 42960 22804 10189 20140 30147 40217 57002 80001;
0163080230999992000090612004+43460-003810FM-12+006599999V0202701N005110900019N0150001N1+02081+01621102181ADDAA199000091GF105991011011008001001051MA1999999101491MD1210021+9999REMSYN066AAXX  06124 08023 32565 52710 10208 20162 30149 40218 52002 81105;EQDQ01  00002PRCP99
0133080230999992000090615004+43460-003810FM-12+006599999V0202701N003119999999N0200001N1+02081+01521102141ADDGF106991001001999999001061MA1999999101451MD1810041+9999REMSYN066AAXX  06154 08023 42970 62706 10208 20152 30145 40214 58004 80006;
0186080230999992000090618004+43460-003810FM-12+006599999V0202701N004110900019N0200001N1+01971+01481102141ADDAA199000091GF107991021081008001001071KA1999M+02151MA1999999101451MD1510001+9999REMSYN076AAXX  06184 08023 32570 72708 10197 20148 30145 40214 55000 82807 333 10215;EQDQ01  00002PRCP99
0133080230999992000090621004+43460-003810FM-12+006599999V0202101N004110900019N0100001N1+01871+01551102191ADDGF106991031081008001001081MA1999999101491MD1210041+9999REMSYN066AAXX  06214 08023 42560 62108 10187 20155 30149 40219 52004 83808;
0163080230999992000090700004+43460-003810FM-12+006599999V0202201N005110900019N0100001N1+01921+01571102161ADDAA199000091GF107991041051008001001081MA1999999101471MD1710021+9999REMSYN066AAXX  07004 08023 32560 72210 10192 20157 30147 40216 57002 84508;EQDQ01  00002PRCP99
0133080230999992000090703004+43460-003810FM-12+006599999V0202001N004610120019N0150001N1+01861+01561102161ADDGF105991051081008001001001MA1999999101461MD1610011+9999REMSYN066AAXX  07034 08023 42565 52009 10186 20156 30146 40216 56001 85800;
0198080230999992000090706004+43460-003810FM-12+006599999V0201801N004610120019N0120001N1+01891+01551102131ADDAA199000091GF107991061081008001001021KA1120N+01851MA1999999101431MD1710031+9999REMSYN088AAXX  07064 08023 32562 71809 10189 20155 30143 40213 57003 86802 333 20185 50323 55094;EQDQ01  00002PRCP99
0133080230999992000090709004+43460-003810FM-12+006599999V0202401N003610120019N0150001N1+02051+01491102161ADDGF106991051081008001031001MA1999999101471MD1310041+9999REMSYN066AAXX  07094 08023 42565 62407 10205 20149 30147 40216 53004 85830;
0163080230999992000090712004+43460-003810FM-12+006599999V0202701N002612200019N0150001N1+02161+01671102191ADDAA199000091GF102991011051008001001011MA1999999101501MD1210031+9999REMSYN066AAXX  07124 08023 32565 22705 10216 20167 30150 40219 52003 81501;EQDQ01  00002PRCP99
0133080230999992000090715004+43460-003810FM-12+006599999V0200401N003612200019N0150001N1+02181+01801102141ADDGF103991021021008001001011MA1999999101451MD1810051+9999REMSYN066AAXX  07154 08023 42565 30407 10218 20180 30145 40214 58005 82201;
0186080230999992000090718004+43460-003810FM-12+006599999V0200601N004112200019N0150001N1+02001+01741102221ADDAA199000091GF102991011011008001001011KA1999M+02211MA1999999101531MD1210081+9999REMSYN076AAXX  07184 08023 32565 20608 10200 20174 30153 40222 52008 81101 333 10221;EQDQ01  00002PRCP99
0133080230999992000090721004+43460-003810FM-12+006599999V0200901N004112200019N0100001N1+01901+01721102141ADDGF101991001001999999001011MA1999999101451MD1810081+9999REMSYN066AAXX  07214 08023 42960 10908 10190 20172 30145 40214 58008 80001;
0173080230999992000090800004+43460-003810FM-12+006599999V0201101N003112200019N0100001N1+01821+01721102121ADDAA199000091GA1001+999999999GF100991001001999999001001MA1999999101421MD1710031+9999REMSYN060AAXX  08004 08023 32960 01106 10182 20172 30142 40212 57003;EQDQ01  00002PRCP99
0143080230999992000090803004+43460-003810FM-12+006599999V0201001N003612200019N0100001N1+01771+01641102041ADDGA1001+999999999GF100991001001999999001001MA1999999101341MD1710081+9999REMSYN060AAXX  08034 08023 42960 01007 10177 20164 30134 40204 57008;
0226080230999992000090806004+43460-003810FM-12+006599999V0200801N006212200019N0090001N1+01821+01651102071ADDAA199000091AY101061AY201061GF101991011011008001001001KA1120N+01751MA1999999101371MD1310031+9999MW1101REMSYN094AAXX  08064 08023 31559 10812 10182 20165 30137 40207 53003 71000 81100 333 20175 50533 55088;EQDQ01  00002PRCP99
0133080230999992000090809004+43460-003810FM-12+006599999V0200801N007712200019N0200001N1+02121+01681102001ADDGF101991011051008001001001MA1999999101311MD1610061+9999REMSYN066AAXX  08094 08023 42570 10815 10212 20168 30131 40200 56006 81500;
0173080230999992000090812004+43460-003810FM-12+006599999V0200701N010312200019N0170001N1+02171+01751101921ADDAA199000091GA1001+999999999GF100991001001999999001001MA1999999101231MD1610081+9999REMSYN060AAXX  08124 08023 32967 00720 10217 20175 30123 40192 56008;EQDQ01  00002PRCP99
0143080230999992000090815004+43460-003810FM-12+006599999V0200701N010812200019N0200001N1+02121+01771101751ADDGA1001+999999999GF100991001001999999001001MA1999999101061MD1710171+9999REMSYN060AAXX  08154 08023 42970 00721 10212 20177 30106 40175 57017;
0224080230999992000090818004+43460-003810FM-12+006599999V0200701N006212200019N0090001N1+02071+01831101801ADDAA199000091AY101061AY201061GA1001+999999999GF100991001001999999001001KA1999M+02221MA1999999101111MD1210051+9999MW1101REMSYN076AAXX  08184 08023 31859 00712 10207 20183 30111 40180 52005 71000 333 10222;EQDQ01  00002PRCP99
0171080230999992000090821004+43460-003810FM-12+006599999V0200901N004112200019N0080001N1+01971+01861101901ADDAY101031AY201031GA1001+999999999GF100991001001999999001001MA1999999101211MD1210101+9999MW1101REMSYN066AAXX  08214 08023 41958 00908 10197 20186 30121 40190 52010 71000;
0201080230999992000090900004+43460-003810FM-12+006599999V0201601N001512200019N0038001N1+01961+01861101861ADDAA199000091AY101061AY201061GA1001+999999999GF100991001001999999001001MA1999999101171MD1710041+9999MW1101REMSYN066AAXX  09004 08023 31938 01603 10196 20186 30117 40186 57004 71000;EQDQ01  00002PRCP99
0171080230999992000090903004+43460-003810FM-12+006599999V0202201N002112200019N0050001N1+01851+01751101831ADDAY101031AY201031GA1001+999999999GF100991001001999999001001MA1999999101141MD1710031+9999MW1101REMSYN066AAXX  09034 08023 41950 02204 10185 20175 30114 40183 57003 71000;
0236080230999992000090906004+43460-003810FM-12+006599999V0202201N001012200019N0050001N1+01781+01711101831ADDAA199000091AY101061AY201061GA1001+999999999GF100991001001999999001001KA1120N+01781MA1999999101131MD1510011+9999MW1101REMSYN088AAXX  09064 08023 31950 02202 10178 20171 30113 40183 55001 71000 333 20178 50413 55115;EQDQ01  00002PRCP99
0171080230999992000090909004+43460-003810FM-12+006599999V0200101N002112200019N0040001N1+02021+01831101861ADDAY101031AY201031GA1001+999999999GF100991001001999999001001MA1999999101171MD1210041+9999MW1101REMSYN066AAXX  09094 08023 41940 00104 10202 20183 30117 40186 52004 71000;
0201080230999992000090912004+43460-003810FM-12+006599999V0200301N002112200019N0050001N1+02261+02051101821ADDAA199000091AY101061AY201061GA1001+999999999GF100991001001999999001001MA1999999101141MD1810031+9999MW1101REMSYN066AAXX  09124 08023 31950 00304 10226 20205 30114 40182 58003 71000;EQDQ01  00002PRCP99
0171080230999992000090915004+43460-003810FM-12+006599999V0200601N004612200019N0090001N1+02361+02121101751ADDAY101031AY201031GA1001+999999999GF100991001001999999001001MA1999999101071MD1610071+9999MW1101REMSYN066AAXX  09154 08023 41959 00609 10236 20212 30107 40175 56007 71000;
0186080230999992000090918004+43460-003810FM-12+006599999V0200601N003112200019N0100001N1+02221+02041101741ADDAA199000091GF101991011061008001041001KA1999M+02441MA1999999101061MD1610011+9999REMSYN076AAXX  09184 08023 32560 10606 10222 20204 30106 40174 56001 81640 333 10244;EQDQ01  00002PRCP99
0133080230999992000090921004+43460-003810FM-12+006599999V0200701N001012200019N0100001N1+02101+02021101831ADDGF101991011001022501081001MA1999999101141MD1210081+9999REMSYN066AAXX  09214 08023 42860 10702 10210 20202 30114 40183 52008 81080;
0201080230999992000091000004+43460-003810FM-12+006599999V0202301N002612200019N0050001N1+02061+02031101801ADDAA199000091AY101061AY201061GA1001+999999999GF100991001001999999001001MA1999999101111MD1810031+9999MW1101REMSYN066AAXX  10004 08023 31950 02305 10206 20203 30111 40180 58003 71000;EQDQ01  00002PRCP99
0171080230999992000091003004+43460-003810FM-12+006599999V0202401N003612200019N0010001N1+02041+02011101751ADDAY141031AY201031GA1001+999999999GF100991001001999999001001MA1999999101061MD1710051+9999MW1441REMSYN066AAXX  10034 08023 41910 02407 10204 20201 30106 40175 57005 74440;
0236080230999992000091006004+43460-003810FM-12+006599999V0201301N001012200019N0008001N1+01961+01931101701ADDAA199000091AY141061AY201061GA1001+999999999GF100991001001999999001001KA1120N+01941MA1999999101011MD1710051+9999MW1421REMSYN088AAXX  10064 08023 31908 01302 10196 20193 30101 40170 57005 74240 333 20194 50333 55103;EQDQ01  00002PRCP99
0201080230999992000091012004+43460-003810FM-12+006599999V0202801N002112200019N0006001N1+02281+02131101731ADDAA199000091AY101061AY201061GA1001+999999999GF100991001001999999001001MA1999999101051MD1010041+9999MW1461REMSYN066AAXX  10124 08023 31906 02804 10228 20213 30105 40173 50004 74600;EQDQ01  00002PRCP99
0171080230999992000091015004+43460-003810FM-12+006599999V0202601N004110006019N0008001N1+02121+02091101631ADDAY141031AY241031GA1091+999999999GF109991091999999999999999MA1999999100951MD1710101+9999MW1451REMSYN066AAXX  10154 08023 41/08 92608 10212 20209 30095 40163 57010 74544;
0214080230999992000091018004+43460-003810FM-12+006599999V0202601N007210042019N0010001N1+02031+01981101711ADDAA199000091AY141061AY241061GF108991081061004501999999KA1999M+02501MA1999999101021MD1310071+9999MW1101REMSYN082AAXX  10184 08023 31410 82614 10203 20198 30102 40171 53007 71044 886// 333 10250;EQDQ01  00002PRCP99
0161080230999992000091021004+43460-003810FM-12+006599999V0202501N006210042019N0015001N1+02061+01971101821ADDAY121031AY221031GF108991081061004501999999MA1999999101131MD1010111+9999MW1101REMSYN072AAXX  10214 08023 41415 82512 10206 20197 30113 40182 50011 71022 886//;
0191080230999992000091100004+43460-003810FM-12+006599999V0202401N002610042019N0010001N1+01981+01951101711ADDAA199000091AY121061AY221061GF108991081061004501999999MA1999999101021MD1610111+9999MW1101REMSYN072AAXX  11004 08023 31410 82405 10198 20195 30102 40171 56011 71022 886//;EQDQ01  00002PRCP99
0161080230999992000091103004+43460-003810FM-12+006599999V0200701N002110042019N0020001N1+02021+01971101511ADDAY121031AY221031GF108991081061004501999999MA1999999100821MD1810201+9999MW1101REMSYN072AAXX  11034 08023 41420 80704 10202 20197 30082 40151 58020 71022 886//;
0213080230999992000091106004+43460-003810FM-12+006599999V0202801N005110042019N0020001N1+02021+01961101501ADDAA112000191AY181061AY221061GF108991081061004501999999KA1120N+01981MA1999999100811MD1510011+9999MW1101REMSYN100AAXX  11064 08023 11420 82810 10202 20196 30081 40150 55001 69922 71082 886// 333 20198 50363 55049;
0193080230999992000091109004+43460-003810FM-12+006599999V0202501N00721004201CN0030001N1+01961+01911101621ADDAY191031AY281031GA1041+004509099GF108991071091004501021999MA1999999100931MD1010121+9999MW1951REMSYN088AAXX  11094 08023 41430 82514 10196 20191 30093 40162 50012 79598 8792/ 333 84994 83794;
0210080230999992000091112004+43460-003810FM-12+006599999V0201901N00261004201CN0100001N1+02211+01641101591ADDAA106006191AY191061AY281061GA1021+004509099GF108991061091004501071999MA1999999100911MD1510021+9999MW1021REMSYN094AAXX  11124 08023 11460 81905 10221 20164 30091 40159 55002 60061 70298 8697/ 333 82994 84594;
0161080230999992000091115004+43460-003810FM-12+006599999V0203401N003110042019N0070001N1+02091+01921101581ADDAY181031AY221031GF108991051061004501071999MA1999999100891MD1810021+9999MW1101REMSYN072AAXX  11154 08023 41457 83406 10209 20192 30089 40158 58002 71082 8567/;
0201080230999992000091118004+43460-003810FM-12+006599999V0202901N001510360019N0030001N1+02061+01931101521ADDAA112006191AY181061AY221061GF108991041061004501071999KA1999M+02261MA1999999100831MD1610061+9999MW1101REMSYN088AAXX  11184 08023 11430 82903 10206 20193 30083 40152 56006 60062 71082 8467/ 333 10226;
0161080230999992000091121004+43460-003810FM-12+006599999V0202101N003110360019N0050001N1+02021+01931101591ADDAY181031AY221031GF108991041061004501071999MA1999999100901MD1310071+9999MW1101REMSYN072AAXX  11214 08023 41450 82106 10202 20193 30090 40159 53007 71082 8467/;
0178080230999992000091200004+43460-003810FM-12+006599999V0202901N003110075019N0040001N1+02001+01911101601ADDAA106000791AY181061AY221061GF108991061061008001071999MA1999999100911MD1010011+9999MW1101REMSYN078AAXX  12004 08023 11540 82906 10200 20191 30091 40160 50001 69901 71082 8667/;
0161080230999992000091203004+43460-003810FM-12+006599999V0202301N002110120019N0050001N1+01981+01821101561ADDAY121031AY221031GF108991071061012501071999MA1999999100871MD1710041+9999MW1101REMSYN072AAXX  12034 08023 41650 82304 10198 20182 30087 40156 57004 71022 8767/;
0213080230999992000091206004+43460-003810FM-12+006599999V0202301N002110075019N0040001N1+01971+01811101581ADDAA112000791AY151061AY221061GF108991081061008001999999KA1120N+01971MA1999999100891MD1310021+9999MW1101REMSYN100AAXX  12064 08023 11540 82304 10197 20181 30089 40158 53002 69902 71052 886// 333 20197 50043 55001;
0161080230999992000091209004+43460-003810FM-12+006599999V0200201N000510042019N0040001N1+02061+01871101701ADDAY121031AY221031GF107991071061004501001001MA1999999101011MD1210121+9999MW1101REMSYN072AAXX  12094 08023 41440 70201 10206 20187 30101 40170 52012 71022 87600;
0191080230999992000091212004+43460-003810FM-12+006599999V0202501N002612200019N0040001N1+02181+01861101671ADDAA199000091AY111061AY211061GF104991041061004501001001MA1999999100991MD1810021+9999MW1101REMSYN072AAXX  12124 08023 31440 42505 10218 20186 30099 40167 58002 71011 84600;EQDQ01  00002PRCP99
0161080230999992000091215004+43460-003810FM-12+006599999V0200301N003110075019N0050001N1+02221+01741101581ADDAY121031AY211031GF107991071051008001999999MA1999999100901MD1710091+9999MW1051REMSYN072AAXX  12154 08023 41550 70306 10222 20174 30090 40158 57009 70521 875//;
0214080230999992000091218004+43460-003810FM-12+006599999V0200501N002110042019N0050001N1+02081+01791101631ADDAA199000091AY121061AY221061GF108991081061004501999999KA1999M+02301MA1999999100941MD1310041+9999MW1101REMSYN082AAXX  12184 08023 31450 80504 10208 20179 30094 40163 53004 71022 886// 333 10230;EQDQ01  00002PRCP99
0161080230999992000091221004+43460-003810FM-12+006599999V0201001N002110042019N0060001N1+02031+01791101681ADDAY121031AY221031GF108991081061004501999999MA1999999100991MD1310051+9999MW1101REMSYN072AAXX  12214 08023 41456 81004 10203 20179 30099 40168 53005 71022 886//;
0191080230999992000091300004+43460-003810FM-12+006599999V0200901N003110042019N0080001N1+02041+01831101631ADDAA199000091AY121061AY221061GF108991081061004501999999MA1999999100941MD1810051+9999MW1101REMSYN072AAXX  13004 08023 31458 80906 10204 20183 30094 40163 58005 71022 886//;EQDQ01  00002PRCP99
0161080230999992000091303004+43460-003810FM-12+006599999V0200701N003110042019N0070001N1+02001+01811101541ADDAY121031AY221031GF107991071061004501999999MA1999999100851MD1710091+9999MW1101REMSYN072AAXX  13034 08023 41457 70706 10200 20181 30085 40154 57009 71022 876//;
0226080230999992000091306004+43460-003810FM-12+006599999V0201101N003612200019N0030001N1+01941+01781101461ADDAA199000091AY121061AY221061GF106991041051008001001011KA1120N+01941MA1999999100771MD1710081+9999MW1101REMSYN094AAXX  13064 08023 31530 61107 10194 20178 30077 40146 57008 71022 84501 333 20194 50303 55029;EQDQ01  00002PRCP99
0161080230999992000091309004+43460-003810FM-12+006599999V0200701N005112200019N0040001N1+02221+01871101451ADDAY111031AY201031GF104991011061012501001051MA1999999100771MD1510001+9999MW1101REMSYN072AAXX  13094 08023 41640 40710 10222 20187 30077 40145 55000 71010 81605;
0191080230999992000091312004+43460-003810FM-12+006599999V0200401N004110075019N0050001N1+02261+01901101471ADDAA199000091AY121061AY211061GF106991061061008001001001MA1999999100791MD1110021+9999MW1101REMSYN072AAXX  13124 08023 31550 60408 10226 20190 30079 40147 51002 71021 86600;EQDQ01  00002PRCP99
0161080230999992000091315004+43460-003810FM-12+006599999V0200601N003612200019N0060001N1+02321+01901101461ADDAY121031AY221031GF105991031061008001001011MA1999999100781MD1810011+9999MW1051REMSYN072AAXX  13154 08023 41556 50607 10232 20190 30078 40146 58001 70522 83601;
0214080230999992000091318004+43460-003810FM-12+006599999V0200701N003612200019N0050001N1+02081+01871101511ADDAA199000091AY141061AY221061GF103991001001999999001021KA1999M+02371MA1999999100821MD1310041+9999MW1101REMSYN082AAXX  13184 08023 31950 30707 10208 20187 30082 40151 53004 71042 80002 333 10237;EQDQ01  00002PRCP99
0171080230999992000091321004+43460-003810FM-12+006599999V0200901N002612200019N0050001N1+01951+01851101621ADDAY141031AY201031GA1001+999999999GF100991001001999999001001MA1999999100931MD1110111+9999MW1101REMSYN066AAXX  13214 08023 41950 00905 10195 20185 30093 40162 51011 71040;
0201080230999992000091400004+43460-003810FM-12+006599999V0201301N002612200019N0050001N1+01891+01791101621ADDAA199000091AY141061AY201061GA1001+999999999GF100991001001999999001001MA1999999100931MD1410001+9999MW1101REMSYN066AAXX  14004 08023 31950 01305 10189 20179 30093 40162 54000 71040;EQDQ01  00002PRCP99
0161080230999992000091403004+43460-003810FM-12+006599999V0201401N003110075019N0050001N1+01861+01801101551ADDAY141031AY211031GF105991051061008001001001MA1999999100861MD1810071+9999MW1101REMSYN072AAXX  14034 08023 41550 51406 10186 20180 30086 40155 58007 71041 85600;
0226080230999992000091406004+43460-003810FM-12+006599999V0201101N003112200019N0030001N1+01781+01711101551ADDAA199000091AY141061AY211061GF102991011061004501001011KA1120N+01781MA1999999100861MD1410001+9999MW1101REMSYN094AAXX  14064 08023 31430 21106 10178 20171 30086 40155 54000 71041 81601 333 20178 50243 55081;EQDQ01  00002PRCP99
0161080230999992000091409004+43460-003810FM-12+006599999V0200801N003612200019N0040001N1+02121+01821101471ADDAY101031AY201031GF101991001001999999001011MA1999999100791MD1610071+9999MW1101REMSYN072AAXX  14094 08023 41940 10807 10212 20182 30079 40147 56007 71000 80001;
0191080230999992000091412004+43460-003810FM-12+006599999V0200701N007212200019N0050001N1+02271+01981101421ADDAA199000091AY101061AY201061GF101991001001999999001091MA1999999100741MD1810051+9999MW1101REMSYN072AAXX  14124 08023 31950 10714 10227 20198 30074 40142 58005 71000 80009;EQDQ01  00002PRCP99
0161080230999992000091415004+43460-003810FM-12+006599999V0200301N002112200019N0060001N1+02281+01921101391ADDAY101031AY201031GF101991001001999999001011MA1999999100711MD1510031+9999MW1101REMSYN072AAXX  14154 08023 41956 10304 10228 20192 30071 40139 55003 71000 80001;
0214080230999992000091418004+43460-003810FM-12+006599999V0202701N004110021019N0050001N1+02121+01931101531ADDAA199000091AY111061AY201061GF106991061061002501001001KA1999M+02361MA1999999100851MD1310141+9999MW1101REMSYN082AAXX  14184 08023 31350 62708 10212 20193 30085 40153 53014 71010 86600 333 10236;EQDQ01  00002PRCP99
0161080230999992000091421004+43460-003810FM-12+006599999V0202301N003610075019N0050001N1+02061+01801101661ADDAY111031AY211031GF106991061051008001001001MA1999999100971MD1110121+9999MW1101REMSYN072AAXX  14214 08023 41550 62307 10206 20180 30097 40166 51012 71011 86500;
0201080230999992000091500004+43460-003810FM-12+006599999V0202401N004112200019N0050001N1+02001+01761101561ADDAA199000091AY101061AY201061GA1001+999999999GF100991001001999999001001MA1999999100871MD1810101+9999MW1101REMSYN066AAXX  15004 08023 31950 02408 10200 20176 30087 40156 58010 71000;EQDQ01  00002PRCP99
0161080230999992000091503004+43460-003810FM-12+006599999V0201901N003110021019N0050001N1+02001+01761101541ADDAY101031AY201031GF108991081061002501999999MA1999999100851MD1610021+9999MW1101REMSYN072AAXX  15034 08023 41350 81906 10200 20176 30085 40154 56002 71000 886//;
0226080230999992000091506004+43460-003810FM-12+006599999V0202001N003112200019N0030001N1+01921+01591101541ADDAA199000091AY111061AY201061GF104991011061002501001011KA1120N+01901MA1999999100851MD1410001+9999MW1101REMSYN094AAXX  15064 08023 31330 42006 10192 20159 30085 40154 54000 71010 81601 333 20190 50313 55091;EQDQ01  00002PRCP99
0161080230999992000091509004+43460-003810FM-12+006599999V0202201N002110360019N0045001N1+02061+01681101641ADDAY121031AY221031GF107991031061004501031001MA1999999100951MD1310101+9999MW1051REMSYN072AAXX  15094 08023 41445 72204 10206 20168 30095 40164 53010 70522 83630;
0191080230999992000091512004+43460-003810FM-12+006599999V0200201N002112200019N0050001N1+02221+01821101571ADDAA199000091AY121061AY211061GF104991001001999999001011MA1999999100891MD1810061+9999MW1051REMSYN072AAXX  15124 08023 31950 40204 10222 20182 30089 40157 58006 70521 80001;EQDQ01  00002PRCP99
0161080230999992000091515004+43460-003810FM-12+006599999V0203401N002112200019N0050001N1+02231+01831101611ADDAY111031AY201031GF104991001001999999001021MA1999999100931MD1310041+9999MW1051REMSYN072AAXX  15154 08023 41950 43404 10223 20183 30093 40161 53004 70510 80002;
0214080230999992000091518004+43460-003810FM-12+006599999V0203401N002112200019N0040001N1+02121+01801101671ADDAA199000091AY111061AY201061GF103991001001999999001041KA1999M+02261MA1999999100981MD1210051+9999MW1101REMSYN082AAXX  15184 08023 31940 33404 10212 20180 30098 40167 52005 71010 80004 333 10226;EQDQ01  00002PRCP99
0161080230999992000091521004+43460-003810FM-12+006599999V0202501N001512200019N0040001N1+02001+01791101821ADDAY111031AY201031GF104991021061004501001041MA1999999101131MD1210151+9999MW1101REMSYN072AAXX  15214 08023 41440 42503 10200 20179 30113 40182 52015 71010 82604;
0191080230999992000091600004+43460-003810FM-12+006599999V0202001N003612200019N0040001N1+01961+01771101871ADDAA199000091AY101061AY201061GF103991021061004501001021MA1999999101181MD1110051+9999MW1101REMSYN072AAXX  16004 08023 31440 32007 10196 20177 30118 40187 51005 71000 82602;EQDQ01  00002PRCP99
0171080230999992000091603004+43460-003810FM-12+006599999V0201801N002112200019N0035001N1+01881+01721101861ADDAY101031AY201031GA1001+999999999GF100991001001999999001001MA1999999101171MD1810011+9999MW1101REMSYN066AAXX  16034 08023 41935 01804 10188 20172 30117 40186 58001 71000;
0236080230999992000091606004+43460-003810FM-12+006599999V0201501N002112200019N0025001N1+01781+01681101871ADDAA199000091AY101061AY201061GA1001+999999999GF100991001001999999001001KA1120N+01781MA1999999101171MD1410001+9999MW1101REMSYN088AAXX  16064 08023 31925 01504 10178 20168 30117 40187 54000 71000 333 20178 50353 55059;EQDQ01  00002PRCP99
0161080230999992000091609004+43460-003810FM-12+006599999V0209999V001010021019N0020001N1+01981+01751101951ADDAY101031AY201031GF107991071061002501999999MA1999999101261MD1310091+9999MW1101REMSYN072AAXX  16094 08023 41320 79902 10198 20175 30126 40195 53009 71000 876//;
0191080230999992000091612004+43460-003810FM-12+006599999V0200101N003112200019N0030001N1+02101+01811101871ADDAA199000091AY101061AY201061GF101991011001999999031001MA1999999101181MD1810081+9999MW1101REMSYN072AAXX  16124 08023 31930 10106 10210 20181 30118 40187 58008 71000 81030;EQDQ01  00002PRCP99
0161080230999992000091615004+43460-003810FM-12+006599999V0200501N004112200019N0050001N1+02231+01831101771ADDAY101031AY201031GF101991011061004501001011MA1999999101091MD1710091+9999MW1051REMSYN072AAXX  16154 08023 41450 10508 10223 20183 30109 40177 57009 70500 81601;
0186080230999992000091618004+43460-003810FM-12+006599999V0200401N005110090019N0120001N1+02081+01861101791ADDAA199000091GF107991071081004501999999KA1999M+02271MA1999999101101MD1310011+9999REMSYN076AAXX  16184 08023 32462 70410 10208 20186 30110 40179 53001 878// 333 10227;EQDQ01  00002PRCP99
0133080230999992000091621004+43460-003810FM-12+006599999V0200601N005110120019N0150001N1+02041+01821101861ADDGF107991071081008001999999MA1999999101171MD1110071+9999REMSYN066AAXX  16214 08023 42565 70610 10204 20182 30117 40186 51007 878//;
0163080230999992000091700004+43460-003810FM-12+006599999V0200601N005110120019N0150001N1+01961+01701101821ADDAA199000091GF107991071081008001999999MA1999999101131MD1810041+9999REMSYN066AAXX  17004 08023 32565 70610 10196 20170 30113 40182 58004 878//;EQDQ01  00002PRCP99
0133080230999992000091703004+43460-003810FM-12+006599999V0200601N004110120019N0150001N1+01961+01701101681ADDGF107991071081008001999999MA1999999100991MD1710141+9999REMSYN066AAXX  17034 08023 42565 70608 10196 20170 30099 40168 57014 878//;
0198080230999992000091706004+43460-003810FM-12+006599999V0200801N002610900019N0200001N1+01901+01671101591ADDAA199000091GF107991041081008001001081KA1120N+01901MA1999999100901MD1610091+9999REMSYN088AAXX  17064 08023 32570 70805 10190 20167 30090 40159 56009 84808 333 20190 50133 55052;EQDQ01  00002PRCP99
0133080230999992000091709004+43460-003810FM-12+006599999V0200701N004110360019N0250001N1+02141+01681101631ADDGF106991031081008001031001MA1999999100941MD1310041+9999REMSYN066AAXX  17094 08023 42575 60708 10214 20168 30094 40163 53004 83830;
0163080230999992000091712004+43460-003810FM-12+006599999V0200701N004610360019N0300001N1+02231+01691101611ADDAA199000091GF106991031081008001031001MA1999999100931MD1810011+9999REMSYN066AAXX  17124 08023 32580 60709 10223 20169 30093 40161 58001 83830;EQDQ01  00002PRCP99
0133080230999992000091715004+43460-003810FM-12+006599999V0200401N004112200019N0300001N1+02141+01611101511ADDGF102991021001017501031001MA1999999100831MD1710101+9999REMSYN066AAXX  17154 08023 42780 20408 10214 20161 30083 40151 57010 82030;
0186080230999992000091718004+43460-003810FM-12+006599999V0200701N003612200019N0300001N1+01931+01601101461ADDAA199000091GF102991011021008001041081KA1999M+02251MA1999999100771MD1610061+9999REMSYN076AAXX  17184 08023 32580 20707 10193 20160 30077 40146 56006 81248 333 10225;EQDQ01  00002PRCP99
0143080230999992000091721004+43460-003810FM-12+006599999V0201101N003612200019N0200001N1+01761+01561101471ADDGA1001+999999999GF100991001001999999001001MA1999999100781MD1110011+9999REMSYN060AAXX  17214 08023 42970 01107 10176 20156 30078 40147 51001;
0173080230999992000091800004+43460-003810FM-12+006599999V0202901N001512200019N0200001N1+01671+01501101351ADDAA199000091GA1001+999999999GF100991001001999999001001MA1999999100651MD1810131+9999REMSYN060AAXX  18004 08023 32970 02903 10167 20150 30065 40135 58013;EQDQ01  00002PRCP99
0133080230999992000091803004+43460-003810FM-12+006599999V0201201N001012200019N0200001N1+01581+01481101211ADDGF104991041001022501051001MA1999999100511MD1710141+9999REMSYN066AAXX  18034 08023 42870 41202 10158 20148 30051 40121 57014 84050;
0198080230999992000091806004+43460-003810FM-12+006599999V0202301N005710360019N0150001N1+01741+01541101151ADDAA199000091GF108991041051008001071999KA1120N+01561MA1999999100461MD1610051+9999REMSYN088AAXX  18064 08023 32565 82311 10174 20154 30046 40115 56005 8457/ 333 20156 50333 55080;EQDQ01  00002PRCP99
0161080230999992000091809004+43460-003810FM-12+006599999V0202601N004610360019N0150001N1+01881+01701101141ADDAY161031AY221031GF107991041051008001071001MA1999999100451MD1610011+9999MW1021REMSYN072AAXX  18094 08023 41565 72609 10188 20170 30045 40114 56001 70262 84570;
0178080230999992000091812004+43460-003810FM-12+006599999V0202801N004610360019N0150001N1+02041+01711100991ADDAA106000591AY161061AY221061GF107991041051008001071001MA1999999100311MD1710141+9999MW1021REMSYN078AAXX  18124 08023 11565 72809 10204 20171 30031 40099 57014 69951 70262 84570;
0133080230999992000091815004+43460-003810FM-12+006599999V0203201N001510150019N0200001N1+01981+01601100731ADDGF108991081081012501999999MA1999999100051MD1710261+9999REMSYN066AAXX  18154 08023 42670 83203 10198 20160 30005 40073 57026 888//;
0173080230999992000091818004+43460-003810FM-12+006599999V0200101N001010150019N0120001N1+01921+01551100621ADDAA112000591GF108991081081012501001001KA1999M+02081MA1999999099941MD1710111+9999REMSYN082AAXX  18184 08023 12662 80102 10192 20155 39994 40062 57011 69952 88800 333 10208;
0133080230999992000091821004+43460-003810FM-12+006599999V0202101N000510120019N0100001N1+01881+01601100501ADDGF108991081051012501001001MA1999999099821MD1710121+9999REMSYN066AAXX  18214 08023 42660 82101 10188 20160 39982 40050 57012 88500;
0163080230999992000091900004+43460-003810FM-12+006599999V0201701N003110120019N0100001N1+01841+01611100291ADDAA199000091GF108991081051012501001001MA1999999099611MD1710211+9999REMSYN066AAXX  19004 08023 32660 81706 10184 20161 39961 40029 57021 88500;EQDQ01  00002PRCP99
0161080230999992000091903004+43460-003810FM-12+006599999V0203001N012310075019N0100001N1+01661+01511100121ADDAY121031AY221031GF108991081071008001001001MA1999999099431MD1610181+9999MW1251REMSYN072AAXX  19034 08023 41560 83024 10166 20151 39943 40012 56018 72522 88700;
0213080230999992000091906004+43460-003810FM-12+006599999V0202401N007210120019N0100001N1+01321+01271100151ADDAA112018091AY181061AY261061GF108991081081008001001001KA1120N+01321MA1999999099451MD1010021+9999MW1611REMSYN100AAXX  19064 08023 11560 82414 10132 20127 39945 40015 50002 60182 76186 88800 333 20132 50413 55005;
0161080230999992000091909004+43460-003810FM-12+006599999V0202101N005110120019N0100001N1+01241+01171100231ADDAY161031AY261031GF107991071081008001999999MA1999999099531MD1210081+9999MW1601REMSYN072AAXX  19094 08023 41560 72110 10124 20117 39953 40023 52008 76066 878//;
0178080230999992000091912004+43460-003810FM-12+006599999V0202601N009812200019N0300001N1+01781+00831100221ADDAA106011991AY161061AY261061GF103991021081008001001061MA1999999099531MD1010001+9999MW1011REMSYN078AAXX  19124 08023 11580 32619 10178 20083 39953 40022 50000 60121 70166 82806;
0133080230999992000091915004+43460-003810FM-12+006599999V0202901N005112200019N0150001N1+01761+01061100201ADDGF103991021081008001001031MA1999999099511MD1610021+9999REMSYN066AAXX  19154 08023 42565 32910 10176 20106 39951 40020 56002 82803;
0223080230999992000091918004+43460-003810FM-12+006599999V0203001N004110075019N0200001N1+01381+01271100221ADDAA112016091AY191061AY281061GA1031+008009099GF107991051091008001061031KA1120M+01851MA1999999099531MD1310021+9999MW1291REMSYN094AAXX  19184 08023 11570 73008 10138 20127 39953 40022 53002 60162 72998 85963 333 10185 83995;
0187080230999992000091921004+43460-003810FM-12+006599999V0201501N001010075019N0200001N1+01401+01221100241ADDAY191031AY281031GA1031+008009099GF108991081091008001999999MA1999999099551MD1210021+9999MW1291REMSYN082AAXX  19214 08023 41570 81502 10140 20122 39955 40024 52002 72998 889// 333 83995;
0204080230999992000092000004+43460-003810FM-12+006599999V0202201N007710075019N0150001N1+01201+01121100351ADDAA106014091AY191061AY281061GA1021+008009099GF108991081091008001999999MA1999999099651MD1210101+9999MW1911REMSYN088AAXX  20004 08023 11565 82215 10120 20112 39965 40035 52010 60141 79198 889// 333 82995;
0161080230999992000092003004+43460-003810FM-12+006599999V0202601N009810120019N0150001N1+01451+00971100381ADDAY191031AY281031GF108991081081008001999999MA1999999099691MD1210041+9999MW1801REMSYN072AAXX  20034 08023 41565 82619 10145 20097 39969 40038 52004 78098 888//;
0213080230999992000092006004+43460-003810FM-12+006599999V0202401N008210075019N0200001N1+01221+00861100571ADDAA112015091AY191061AY281061GF107991051091008001061031KA1120N+01161MA1999999099871MD1210081+9999MW1251REMSYN100AAXX  20064 08023 11570 72416 10122 20086 39987 40057 52008 60152 72598 85963 333 20116 50573 55047;
0161080230999992000092009004+43460-003810FM-12+006599999V0202701N010810120019N0200001N1+01521+01071100871ADDAY181031AY221031GF107991051081008001071999MA1999999100171MD1210301+9999MW1151REMSYN072AAXX  20094 08023 41570 72721 10152 20107 30017 40087 52030 71582 8587/;
0133080230999992000092015004+43460-003810FM-12+006599999V0202901N007712200019N0250001N1+01841+01061101261ADDGF102991021021012501061001MA1999999100571MD1210111+9999REMSYN066AAXX  20154 08023 42675 22915 10184 20106 30057 40126 52011 82260;
0173080230999992000092018004+43460-003810FM-12+006599999V0202801N003112200019N0250001N1+01731+01121101431ADDAA112000891GF103991011041012501061001KA1999M+01901MA1999999100731MD1210161+9999REMSYN082AAXX  20184 08023 12675 32806 10173 20112 30073 40143 52016 69972 81460 333 10190;
0133080230999992000092021004+43460-003810FM-12+006599999V0201701N002112200019N0200001N1+01601+01201101671ADDGF103991011041012501031001MA1999999100971MD1110241+9999REMSYN066AAXX  20214 08023 42670 31704 10160 20120 30097 40167 51024 81430;
0173080230999992000092100004+43460-003810FM-12+006599999V0201601N003112200019N0150001N1+01461+01121101651ADDAA199000091GA1001+999999999GF100991001001999999001001MA1999999100951MD1810021+9999REMSYN060AAXX  21004 08023 32965 01606 10146 20112 30095 40165 58002;EQDQ01  00002PRCP99
0133080230999992000092103004+43460-003810FM-12+006599999V0202001N003612200019N0150001N1+01401+01101101641ADDGF102991021001999999031011MA1999999100941MD1610011+9999REMSYN066AAXX  21034 08023 42965 22007 10140 20110 30094 40164 56001 82031;
0198080230999992000092106004+43460-003810FM-12+006599999V0202001N004612200019N0250001N1+01501+00681101711ADDAA199000091GF103991031001999999071021KA1120N+01261MA1999999101011MD1310071+9999REMSYN088AAXX  21064 08023 32975 32009 10150 20068 30101 40171 53007 83072 333 20126 50223 55082;EQDQ01  00002PRCP99
0133080230999992000092109004+43460-003810FM-12+006599999V0201501N002112200019N0300001N1+01721+01001101791ADDGF104991021001999999031021MA1999999101091MD1210081+9999REMSYN066AAXX  21094 08023 42980 41504 10172 20100 30109 40179 52008 82032;
0163080230999992000092112004+43460-003810FM-12+006599999V0200701N003612200019N0300001N1+02311+01291101831ADDAA199000091GF101991011001999999041021MA1999999101151MD1210061+9999REMSYN066AAXX  21124 08023 32980 10707 10231 20129 30115 40183 52006 81042;EQDQ01  00002PRCP99
0133080230999992000092115004+43460-003810FM-12+006599999V0200601N005712200019N0400001N1+02231+01451101831ADDGF101991011001999999041001MA1999999101141MD1810011+9999REMSYN066AAXX  21154 08023 42982 10611 10223 20145 30114 40183 58001 81040;
0186080230999992000092118004+43460-003810FM-12+006599999V0200801N007212200019N0400001N1+02081+01331101831ADDAA199000091GF101991011001999999041011KA1999M+02411MA1999999101141MD1410001+9999REMSYN076AAXX  21184 08023 32982 10814 10208 20133 30114 40183 54000 81041 333 10241;EQDQ01  00002PRCP99
0143080230999992000092121004+43460-003810FM-12+006599999V0201101N005112200019N0200001N1+01961+01191101901ADDGA1001+999999999GF100991001001999999001001MA1999999101211MD1310071+9999REMSYN060AAXX  21214 08023 42970 01110 10196 20119 30121 40190 53007;
0173080230999992000092200004+43460-003810FM-12+006599999V0201501N003112200019N0200001N1+01841+01231101911ADDAA199000091GA1001+999999999GF100991001001999999001001MA1999999101211MD1410001+9999REMSYN060AAXX  22004 08023 32970 01506 10184 20123 30121 40191 54000;EQDQ01  00002PRCP99
0143080230999992000092203004+43460-003810FM-12+006599999V0202101N002112200019N0200001N1+01741+01351101871ADDGA1001+999999999GF100991001001999999001001MA1999999101171MD1710041+9999REMSYN060AAXX  22034 08023 42970 02104 10174 20135 30117 40187 57004;
0198080230999992000092206004+43460-003810FM-12+006599999V0202601N001512200019N0150001N1+01741+01271101911ADDAA199000091GF101991001001999999001011KA1120N+01741MA1999999101211MD1310041+9999REMSYN088AAXX  22064 08023 32965 12603 10174 20127 30121 40191 53004 80001 333 20174 50183 55090;EQDQ01  00002PRCP99
0133080230999992000092209004+43460-003810FM-12+006599999V0201201N001012200019N0400001N1+02071+01171101941ADDGF102991001001999999001051MA1999999101251MD1210041+9999REMSYN066AAXX  22094 08023 42982 21202 10207 20117 30125 40194 52004 80005;
0163080230999992000092212004+43460-003810FM-12+006599999V0200301N002612200019N0200001N1+02081+01651101901ADDAA199000091GF103991001001999999001011MA1999999101211MD1810041+9999REMSYN066AAXX  22124 08023 32970 30305 10208 20165 30121 40190 58004 80001;EQDQ01  00002PRCP99
0133080230999992000092215004+43460-003810FM-12+006599999V0203501N001012200019N0150001N1+02101+01671101711ADDGF102991001001999999001011MA1999999101021MD1710191+9999REMSYN066AAXX  22154 08023 42965 23502 10210 20167 30102 40171 57019 80001;
0186080230999992000092218004+43460-003810FM-12+006599999V0202601N002112200019N0120001N1+02001+01581101761ADDAA199000091GF104991011001022501031011KA1999M+02201MA1999999101071MD1110051+9999REMSYN076AAXX  22184 08023 32862 42604 10200 20158 30107 40176 51005 81031 333 10220;EQDQ01  00002PRCP99
0133080230999992000092221004+43460-003810FM-12+006599999V0209999C000012200019N0120001N1+01901+01701101741ADDGF103991011001022501031011MA1999999101051MD1410001+9999REMSYN066AAXX  22214 08023 42862 30000 10190 20170 30105 40174 54000 81031;
0163080230999992000092300004+43460-003810FM-12+006599999V0201501N003112200019N0120001N1+01681+01531101611ADDAA199000091GF102991001001999999001011MA1999999100911MD1810141+9999REMSYN066AAXX  23004 08023 32962 21506 10168 20153 30091 40161 58014 80001;EQDQ01  00002PRCP99
0143080230999992000092303004+43460-003810FM-12+006599999V0201301N001512200019N0120001N1+01731+01441101421ADDGA1001+999999999GF100991001001999999001001MA1999999100731MD1710181+9999REMSYN060AAXX  23034 08023 42962 01303 10173 20144 30073 40142 57018;
0198080230999992000092306004+43460-003810FM-12+006599999V0200601N001012200019N0120001N1+01801+01341101351ADDAA199000091GF102991001001999999001011KA1120N+01681MA1999999100661MD1610071+9999REMSYN088AAXX  23064 08023 32962 20602 10180 20134 30066 40135 56007 80001 333 20168 50303 55105;EQDQ01  00002PRCP99
0133080230999992000092309004+43460-003810FM-12+006599999V0201901N007212200019N0120001N1+02451+00751101331ADDGF101991011001999999041001MA1999999100651MD1610011+9999REMSYN066AAXX  23094 08023 42962 11914 10245 20075 30065 40133 56001 81040;
0163080230999992000092312004+43460-003810FM-12+006599999V0202701N004612200019N0120001N1+02111+02022101231ADDAA199000091GF104991031001017501041021MA1999999100551MD1610101+9999REMSYN066AAXX  23124 08023 32762 42709 10211 20202 30055 40123 56010 83042;EQDQ01  00002PRCP99
0161080230999992000092315004+43460-003810FM-12+006599999V0203401N001512200019N0050001N1+02221+01991101021ADDAY111031AY201031GF104991021001017501041051MA1999999100341MD1710211+9999MW1101REMSYN072AAXX  23154 08023 41750 43403 10222 20199 30034 40102 57021 71010 82045;
0187080230999992000092318004+43460-003810FM-12+006599999V0203301N001510360019N0150001N1+01781+01651101191ADDAA199000091GF107991011011008001071001KA1999M+02601MD1310271+9999REMSYN076AAXX  23184 08023 32565 73303 10178 20165 39729 40119 53027 81170 333 10260;EQDQ01+097293APOSP Q02  00002PRCP99
0161080230999992000092321004+43460-003810FM-12+006599999V0202701N008710150019N0050001N1+01921+01891101441ADDAY121031AY221031GF107991051001017501031021MA1999999100751MD1210381+9999MW1101REMSYN072AAXX  23214 08023 41750 72717 10192 20189 30075 40144 52038 71022 85032;
0178080230999992000092400004+43460-003810FM-12+006599999V0202801N007210075019N0060001N1+01831+01581101601ADDAA106000791AY121061AY221061GF108991061051008001031999MA1999999100911MD1210161+9999MW1501REMSYN078AAXX  24004 08023 11556 82814 10183 20158 30091 40160 52016 69901 75022 8653/;
0161080230999992000092403004+43460-003810FM-12+006599999V0202601N006710360019N0080001N1+01781+01431101631ADDAY121031AY221031GF108991041051008001031999MA1999999100941MD1110031+9999MW1101REMSYN072AAXX  24034 08023 41558 82613 10178 20143 30094 40163 51003 71022 8453/;
0185080230999992000092406004+43460-003810FM-12+006599999V0202201N005110120019N0120001N1+01691+01351101771ADDAA112000791GF108991061081008001071999KA1120N+01691MA1999999101071MD1210131+9999REMSYN094AAXX  24064 08023 12562 82210 10169 20135 30107 40177 52013 69902 8687/ 333 20169 50413 55097;
0133080230999992000092409004+43460-003810FM-12+006599999V0202001N004110360019N0300001N1+01741+01271101971ADDGF108991031081012501071001MA1999999101271MD1210201+9999REMSYN066AAXX  24094 08023 42680 82008 10174 20127 30127 40197 52020 83870;
0144080230999992000092412004+43460-003810FM-12+006599999V0202401N003610150019N0250001N1+01901+01361102041ADDAA199000021GF107991061081012501071001MA1999999101351MD1210081+9999REMSYN066AAXX  24124 08023 32675 72407 10190 20136 30135 40204 52008 86870;
0133080230999992000092415004+43460-003810FM-12+006599999V0203301N002110360019N0200001N1+01961+01411102021ADDGF105991031081012501051081MA1999999101331MD1510021+9999REMSYN066AAXX  24154 08023 42670 53304 10196 20141 30133 40202 55002 83858;
0186080230999992000092418004+43460-003810FM-12+006599999V0200101N002110360019N0300001N1+01841+01331102151ADDAA199000091GF106991041051012501031021KA1999M+02001MA1999999101451MD1310121+9999REMSYN076AAXX  24184 08023 32680 60104 10184 20133 30145 40215 53012 84532 333 10200;EQDQ01  00002PRCP99
0133080230999992000092421004+43460-003810FM-12+006599999V0201301N002612200019N0200001N1+01681+01381102231ADDGF102991011051012501031001MA1999999101531MD1210081+9999REMSYN066AAXX  24214 08023 42670 21305 10168 20138 30153 40223 52008 81530;
0173080230999992000092500004+43460-003810FM-12+006599999V0201201N003612200019N0200001N1+01671+01461102201ADDAA199000091GA1001+999999999GF100991001001999999001001MA1999999101501MD1810031+9999REMSYN060AAXX  25004 08023 32970 01207 10167 20146 30150 40220 58003;EQDQ01  00002PRCP99
0143080230999992000092503004+43460-003810FM-12+006599999V0201401N002112200019N0150001N1+01601+01421102131ADDGA1001+999999999GF100991001001999999001001MA1999999101431MD1710071+9999REMSYN060AAXX  25034 08023 42965 01404 10160 20142 30143 40213 57007;
0198080230999992000092506004+43460-003810FM-12+006599999V0201801N003112200019N0100001N1+01501+01431102081ADDAA199000091GF104991011001999999031041KA1120N+01501MA1999999101381MD1710051+9999REMSYN088AAXX  25064 08023 32960 41806 10150 20143 30138 40208 57005 81034 333 20150 50193 55020;EQDQ01  00002PRCP99
0161080230999992000092509004+43460-003810FM-12+006599999V0202901N002112200019N0090001N1+01821+01571102131ADDAY111031AY201031GF103991011001022501031041MA1999999101431MD1110051+9999MW1101REMSYN072AAXX  25094 08023 41859 32904 10182 20157 30143 40213 51005 71010 81034;
0163080230999992000092512004+43460-003810FM-12+006599999V0203301N002112200019N0120001N1+01911+01521102081ADDAA199000091GF102991001001999999001041MA1999999101391MD1610041+9999REMSYN066AAXX  25124 08023 32962 23304 10191 20152 30139 40208 56004 80004;EQDQ01  00002PRCP99
0133080230999992000092515004+43460-003810FM-12+006599999V0203001N003112200019N0100001N1+01981+01541102021ADDGF101991001001999999001011MA1999999101331MD1710061+9999REMSYN066AAXX  25154 08023 42960 13006 10198 20154 30133 40202 57006 80001;
0224080230999992000092518004+43460-003810FM-12+006599999V0209999C000012200019N0090001N1+01921+01651101981ADDAA199000091AY101061AY201061GA1001+999999999GF100991001001999999001001KA1999M+02011MA1999999101291MD1710041+9999MW1101REMSYN076AAXX  25184 08023 31959 00000 10192 20165 30129 40198 57004 71000 333 10201;EQDQ01  00002PRCP99
0143080230999992000092521004+43460-003810FM-12+006599999V0201501N002112200019N0100001N1+01761+01591102041ADDGA1001+999999999GF100991001001999999001001MA1999999101341MD1310051+9999REMSYN060AAXX  25214 08023 42960 01504 10176 20159 30134 40204 53005;
0173080230999992000092600004+43460-003810FM-12+006599999V0201801N002112200019N0100001N1+01721+01511101951ADDAA199000091GA1001+999999999GF100991001001999999001001MA1999999101251MD1810091+9999REMSYN060AAXX  26004 08023 32960 01804 10172 20151 30125 40195 58009;EQDQ01  00002PRCP99
0143080230999992000092603004+43460-003810FM-12+006599999V0201601N004612200019N0100001N1+01641+01541101791ADDGA1001+999999999GF100991001001999999001001MA1999999101091MD1710161+9999REMSYN060AAXX  26034 08023 42960 01609 10164 20154 30109 40179 57016;
0198080230999992000092606004+43460-003810FM-12+006599999V0202401N006212200019N0100001N1+01561+01381101891ADDAA199000091GF101991001001999999001021KA1120N+01531MA1999999101191MD1310101+9999REMSYN088AAXX  26064 08023 32960 12412 10156 20138 30119 40189 53010 80002 333 20153 50343 55110;EQDQ01  00002PRCP99
0133080230999992000092609004+43460-003810FM-12+006599999V0202401N004612200019N0120001N1+02061+01251102021ADDGF103991011001017501041081MA1999999101331MD1210141+9999REMSYN066AAXX  26094 08023 42762 32409 10206 20125 30133 40202 52014 81048;
0163080230999992000092612004+43460-003810FM-12+006599999V0202901N007210360019N0120001N1+02011+01921102141ADDAA199000091GF108991041081008001031999MA1999999101451MD1110121+9999REMSYN066AAXX  26124 08023 32562 82914 10201 20192 30145 40214 51012 8483/;EQDQ01  00002PRCP99
0133080230999992000092615004+43460-003810FM-12+006599999V0203101N004610090019N0120001N1+01921+01651102261ADDGF108991051081004501031999MA1999999101571MD1310121+9999REMSYN066AAXX  26154 08023 42462 83109 10192 20165 30157 40226 53012 8583/;
0201080230999992000092618004+43460-003810FM-12+006599999V0202501N003610042019N0040001N1+01661+01631102271ADDAA112001091AY161061AY221061GF108991081071004501999999KA1999M+02201MA1999999101571MD1310111+9999MW1611REMSYN088AAXX  26184 08023 11440 82507 10166 20163 30157 40227 53011 60012 76162 887// 333 10220;
0161080230999992000092621004+43460-003810FM-12+006599999V0202201N004610120019N0100001N1+01631+01601102331ADDAY161031AY221031GF108991051081008001031999MA1999999101631MD1310061+9999MW1021REMSYN072AAXX  26214 08023 41560 82209 10163 20160 30163 40233 53006 70262 8583/;
0150080230999992000092700004+43460-003810FM-12+006599999V0202301N003110360019N0100001N1+01601+01571102271ADDAA106001091GF108991041081008001031999MA1999999101571MD1810061+9999REMSYN072AAXX  27004 08023 12560 82306 10160 20157 30157 40227 58006 60011 8483/;
0133080230999992000092703004+43460-003810FM-12+006599999V0202101N003110120019N0100001N1+01641+01431102191ADDGF108991061081008001071999MA1999999101491MD1710081+9999REMSYN066AAXX  27034 08023 42560 82106 10164 20143 30149 40219 57008 8687/;
0185080230999992000092706004+43460-003810FM-12+006599999V0202201N003110120019N0140001N1+01681+01471102231ADDAA112001091GF107991071081008001999999KA1120N+01601MA1999999101531MD1310041+9999REMSYN094AAXX  27064 08023 12564 72206 10168 20147 30153 40223 53004 60012 878// 333 20160 50213 55035;
0133080230999992000092709004+43460-003810FM-12+006599999V0201801N002110120019N0200001N1+01861+01481102161ADDGF107991051081008001071999MA1999999101461MD1810071+9999REMSYN066AAXX  27094 08023 42570 71804 10186 20148 30146 40216 58007 8587/;
0163080230999992000092712004+43460-003810FM-12+006599999V0200801N003610900019N0200001N1+02051+01641102001ADDAA199000091GF106991021081008001001081MA1999999101311MD1710151+9999REMSYN066AAXX  27124 08023 32570 60807 10205 20164 30131 40200 57015 82808;EQDQ01  00002PRCP99
0133080230999992000092715004+43460-003810FM-12+006599999V0203601N003119999999N0100001N1+01971+01661101831ADDGF105991001001999999001081MA1999999101141MD1610171+9999REMSYN066AAXX  27154 08023 42960 53606 10197 20166 30114 40183 56017 80008;
0186080230999992000092718004+43460-003810FM-12+006599999V0209999C000010900019N0200001N1+01821+01581101781ADDAA199000091GF106991021081008001001081KA1999M+02121MA1999999101091MD1710051+9999REMSYN076AAXX  27184 08023 32570 60000 10182 20158 30109 40178 57005 82808 333 10212;EQDQ01  00002PRCP99
0133080230999992000092721004+43460-003810FM-12+006599999V0201101N002110900019N0100001N1+01711+01631101631ADDGF107991021081008001001081MA1999999100931MD1710161+9999REMSYN066AAXX  27214 08023 42560 71104 10171 20163 30093 40163 57016 82808;
0163080230999992000092800004+43460-003810FM-12+006599999V0202501N002110900019N0100001N1+01611+01611101351ADDAA199000091GF106991021081008001001081MA1999999100651MD1710281+9999REMSYN066AAXX  28004 08023 32560 62504 10161 20161 30065 40135 57028 82808;EQDQ01  00002PRCP99
0133080230999992000092803004+43460-003810FM-12+006599999V0202001N002610900019N0100001N1+01651+01571101041ADDGF106991021081008001001081MA1999999100351MD1710301+9999REMSYN066AAXX  28034 08023 42560 62005 10165 20157 30035 40104 57030 82808;
0226080230999992000092806004+43460-003810FM-12+006599999V0202501N004110042019N0070001N1+01611+01611101021ADDAA199000091AY121061AY221061GF108991051061004501071999KA1120N+01611MA1999999100331MD1710021+9999MW1101REMSYN094AAXX  28064 08023 31457 82508 10161 20161 30033 40102 57002 71022 8567/ 333 20161 50313 55064;EQDQ01  00002PRCP99
0161080230999992000092809004+43460-003810FM-12+006599999V0202101N005110360019N0050001N1+01641+01501101081ADDAY161031AY221031GF108991011071004501071999MA1999999100391MD1310061+9999MW1611REMSYN072AAXX  28094 08023 41450 82110 10164 20150 30039 40108 53006 76162 8177/;
0178080230999992000092812004+43460-003810FM-12+006599999V0201701N010310210019N0400001N1+01701+01231100681ADDAA106003091AY161061AY221061GF108991081001022501071999MA1999999099991MD1810401+9999MW1601REMSYN078AAXX  28124 08023 11882 81720 10170 20123 39999 40068 58040 60031 76062 8807/;
0161080230999992000092815004+43460-003810FM-12+006599999V0202601N007710360019N0200001N1+01921+01251100581ADDAY161031AY221031GF108991041081004501071999MA1999999099901MD1510091+9999MW1021REMSYN072AAXX  28154 08023 41470 82615 10192 20125 39990 40058 55009 70262 8487/;
0201080230999992000092818004+43460-003810FM-12+006599999V0202101N005110090019N0150001N1+01441+01181100691ADDAA112011991AY161061AY221061GF108991081081004501999999KA1999M+01961MA1999999099991MD1110091+9999MW1611REMSYN088AAXX  28184 08023 11465 82110 10144 20118 39999 40069 51009 60122 76162 888// 333 10196;
0161080230999992000092821004+43460-003810FM-12+006599999V0203001N005710120019N0100001N1+01421+01201100671ADDAY161031AY221031GF107991071081008001999999MA1999999099971MD1810021+9999MW1211REMSYN072AAXX  28214 08023 41560 73011 10142 20120 39997 40067 58002 72162 878//;
0161080230999992000092903004+43460-003810FM-12+006599999V0203001N012910120019N0050001N1+01421+01201100391ADDAY121031AY221031GF108991081081008001999999MA1999999099691MD1510011+9999MW1811REMSYN072AAXX  29034 08023 41550 83025 10142 20120 39969 40039 55001 78122 888//;
0213080230999992000092906004+43460-003810FM-12+006599999V0202401N007210360019N0300001N1+01361+00931100451ADDAA112005191AY181061AY221061GF105991041091012501061001KA1120N+01301MA1999999099751MD1210061+9999MW1151REMSYN100AAXX  29064 08023 11680 52414 10136 20093 39975 40045 52006 60052 71582 84960 333 20130 50523 55000;
0133080230999992000092915004+43460-003810FM-12+006599999V0203101N010812200019N0250001N1+01831+01051100851ADDGF103991031031012501061031MA1999999099851MD1410001+9999REMSYN066AAXX  29154 08023 42675 33121 10183 20105 39985 40085 54000 83363;
0173080230999992000092918004+43460-003810FM-12+006599999V0203001N009812200019N0200001N1+01721+01071100641ADDAA112000391GF104991031031008001071011KA1999M+01851MA1999999099951MD1110101+9999REMSYN082AAXX  29184 08023 12570 43019 10172 20107 39995 40064 51010 69932 83371 333 10185;
0161080230999992000092921004+43460-003810FM-12+006599999V0202401N007210360019N0150001N1+01441+01221100851ADDAY161031AY221031GF106991031081008001061001MA1999999100151MD1010201+9999MW1021REMSYN072AAXX  29214 08023 41565 62414 10144 20122 30015 40085 50020 70262 83860;
0178080230999992000093000004+43460-003810FM-12+006599999V0202401N008210360019N0150001N1+01361+01251100871ADDAA106004191AY161061AY221061GF106991031081008001061001MA1999999100171MD1110021+9999MW1601REMSYN078AAXX  30004 08023 11565 62416 10136 20125 30017 40087 51002 60041 76062 83860;
0161080230999992000093003004+43460-003810FM-12+006599999V0202601N011810360019N0070001N1+01441+01301100871ADDAY161031AY221031GF108991041081008001061001MA1999999100171MD1410001+9999MW1601REMSYN072AAXX  30034 08023 41557 82623 10144 20130 30017 40087 54000 76062 84860;
0213080230999992000093006004+43460-003810FM-12+006599999V0202301N008710120019N0100001N1+01321+01191100951ADDAA112013091AY161061AY221061GF106991061081008001001001KA1120N+01321MA1999999100251MD1210081+9999MW1021REMSYN100AAXX  30064 08023 11560 62317 10132 20119 30025 40095 52008 60132 70262 86800 333 20132 50063 55071;
0161080230999992000093009004+43460-003810FM-12+006599999V0202801N012910075019N0050001N1+01421+01311101091ADDAY181031AY211031GF107991061031008001061999MA1999999100391MD1210141+9999MW1811REMSYN072AAXX  30094 08023 41550 72825 10142 20131 30039 40109 52014 78181 8636/;
0178080230999992000093012004+43460-003810FM-12+006599999V0202501N010810360019N0100001N1+01541+01361101151ADDAA106008991AY181061AY221061GF107991041031008001071999MA1999999100451MD1010061+9999MW1251REMSYN078AAXX  30124 08023 11560 72521 10154 20136 30045 40115 50006 60091 72582 8437/;
0161080230999992000093015004+43460-003810FM-12+006599999V0202801N013410075019N0040001N1+01461+01281101161ADDAY181031AY221031GF107991061031008001061001MA1999999100461MD1310011+9999MW1811REMSYN072AAXX  30154 08023 41540 72826 10146 20128 30046 40116 53001 78182 86360;
0201080230999992000093018004+43460-003810FM-12+006599999V0202701N012310360019N0100001N1+01541+01361101191ADDAA112021191AY181061AY281061GF106991041021008001061001KA1999M+01701MA1999999100491MD1210031+9999MW1801REMSYN088AAXX  30184 08023 11560 62724 10154 20136 30049 40119 52003 60212 78088 84260 333 10170;
0161080230999992000093021004+43460-003810FM-12+006599999V0202601N010810360019N0100001N1+01461+01321101211ADDAY181031AY221031GF106991031021008001061001MA1999999100511MD1210021+9999MW1021REMSYN072AAXX  30214 08023 41560 62621 10146 20132 30051 40121 52002 70282 83260;
0178080230999992000100100004+43460-003810FM-12+006599999V0202801N013910120019N0070001N1+01401+01271101201ADDAA106029091AY181061AY281061GF108991061081008001061001MA1999999100501MD1610011+9999MW1611REMSYN078AAXX  01004 08023 11557 82827 10140 20127 30050 40120 56001 60291 76188 86860;
0161080230999992000100103004+43460-003810FM-12+006599999V0202801N013910120019N0070001N1+01411+01261101191ADDAY181031AY281031GF107991051081008001061001MA1999999100491MD1710011+9999MW1101REMSYN072AAXX  01034 08023 41557 72827 10141 20126 30049 40119 57001 71088 85860;
0207080230999992000100106004+43460-003810FM-12+006599999V0202801N009810120019N0080001N1+01561+01421101231ADDAA112023991AY181061AY221061GF107991061081008001061001KA1120N+01341MA1999999100531MD1310041+9999MW1101REMSYN094AAXX  01064 08023 11558 72819 10156 20142 30053 40123 53004 60242 71082 86860 333 20134 55011;
0161080230999992000100109004+43460-003810FM-12+006599999V0202901N012310120019N0150001N1+01621+01261101291ADDAY181031AY221031GF107991071081008001001001MA1999999100591MD1310061+9999MW1021REMSYN072AAXX  01094 08023 41565 72924 10162 20126 30059 40129 53006 70282 87800;
0178080230999992000100112004+43460-003810FM-12+006599999V0202801N008210120019N0200001N1+01721+01311101341ADDAA106000891AY181061AY221061GF108991051081008001071999MA1999999100651MD1110061+9999MW1021REMSYN078AAXX  01124 08023 11570 82816 10172 20131 30065 40134 51006 69971 70282 8587/;
0161080230999992000100115004+43460-003810FM-12+006599999V0202701N008210120019N0140001N1+01741+01431101281ADDAY121031AY221031GF108991061081008001071999MA1999999100591MD1810061+9999MW1601REMSYN072AAXX  01154 08023 41564 82716 10174 20143 30059 40128 58006 76022 8687/;
0201080230999992000100118004+43460-003810FM-12+006599999V0202201N006210042019N0050001N1+01621+01411101191ADDAA112002091AY161061AY221061GF108991081071004501001001KA1999M+01781MA1999999100491MD1610101+9999MW1601REMSYN088AAXX  01184 08023 11450 82212 10162 20141 30049 40119 56010 60022 76062 88700 333 10178;
0161080230999992000100121004+43460-003810FM-12+006599999V0203101N014910120019N0100001N1+01801+01341101461ADDAY161031AY221031GF106991061081008001001001MA1999999100771MD1210281+9999MW1021REMSYN072AAXX  01214 08023 41560 63129 10180 20134 30077 40146 52028 70262 86800;
0178080230999992000100200004+43460-003810FM-12+006599999V0203201N013910075019N0150001N1+01731+01041101761ADDAA106011991AY161061AY221061GF107991071051008001001001MA1999999101061MD1210291+9999MW1021REMSYN078AAXX  02004 08023 11565 73227 10173 20104 30106 40176 52029 60121 70262 87500;
0161080230999992000100203004+43460-003810FM-12+006599999V0203101N011810075019N0150001N1+01671+01291101911ADDAY161031AY221031GF107991071051008001999999MA1999999101211MD1110151+9999MW1801REMSYN072AAXX  02034 08023 41565 73123 10167 20129 30121 40191 51015 78062 875//;
0213080230999992000100206004+43460-003810FM-12+006599999V0202801N012910120019N0100001N1+01601+01261102071ADDAA112000791AY161061AY221061GF107991071081008001999999KA1120N+01591MA1999999101371MD1210161+9999MW1021REMSYN100AAXX  02064 08023 11560 72825 10160 20126 30137 40207 52016 69902 70262 878// 333 20159 50473 55004;
0161080230999992000100209004+43460-003810FM-12+006599999V0202801N012910075019N0120001N1+01581+01251102251ADDAY181031AY221031GF107991061041008001061001MA1999999101551MD1210181+9999MW1801REMSYN072AAXX  02094 08023 41562 72825 10158 20125 30155 40225 52018 78082 86460;
0178080230999992000100212004+43460-003810FM-12+006599999V0202801N010810075019N0180001N1+01801+01261102391ADDAA106001091AY181061AY221061GF107991051041008001001091MA1999999101691MD1210141+9999MW1021REMSYN078AAXX  02124 08023 11568 72821 10180 20126 30169 40239 52014 60011 70282 85409;
0133080230999992000100215004+43460-003810FM-12+006599999V0203101N008210120019N0180001N1+01761+01261102461ADDGF106991061081008001001001MA1999999101761MD1310071+9999REMSYN066AAXX  02154 08023 42568 63116 10176 20126 30176 40246 53007 86800;
0172080230999992000100218004+43460-003810FM-12+006599999V0203101N005110120019N0200001N1+01701+01191102461ADDAA112001091GF107991071081008001001001KA1999M+01851MA1999999101761MD1010001+9999REMSYN081AAXX  02184 08023 12570 73110 10170 2011930176 40246 50000 60012 87800 333 10185;
0133080230999992000100221004+43460-003810FM-12+006599999V0203201N003612200019N0200001N1+01641+01201102541ADDGF104991041001022501031001MA1999999101841MD1310081+9999REMSYN066AAXX  02214 08023 42870 43207 10164 20120 30184 40254 53008 84030;
0163080230999992000100300004+43460-003810FM-12+006599999V0201901N003110120019N0180001N1+01541+01251102511ADDAA199000091GF106991061051012501001001MA1999999101801MD1810041+9999REMSYN066AAXX  03004 08023 32668 61906 10154 20125 30180 40251 58004 86500;EQDQ01  00002PRCP99
0143080230999992000100303004+43460-003810FM-12+006599999V0201601N004112200019N0200001N1+01371+01001102401ADDGA1001+999999999GF100991001001999999001001MA1999999101691MD1710111+9999REMSYN060AAXX  03034 08023 42970 01608 10137 20100 30169 40240 57011;
0198080230999992000100306004+43460-003810FM-12+006599999V0201401N004612200019N0120001N1+01321+01031102321ADDAA199000091GF104991001001999999001021KA1120N+01301MA1999999101611MD1710081+9999REMSYN088AAXX  03064 08023 32962 41409 10132 20103 30161 40232 57008 80002 333 20130 50403 55040;EQDQ01  00002PRCP99
0133080230999992000100309004+43460-003810FM-12+006599999V0201401N001512200019N0250001N1+01681+01121102311ADDGF104991001001999999001021MA1999999101611MD1410001+9999REMSYN066AAXX  03094 08023 42975 41403 10168 20112 30161 40231 54000 80002;
0163080230999992000100312004+43460-003810FM-12+006599999V0200501N002612200019N0120001N1+01781+01361102271ADDAA199000091GF104991011001022501041021MA1999999101571MD1810041+9999REMSYN066AAXX  03124 08023 32862 40505 10178 20136 30157 40227 58004 81042;EQDQ01  00002PRCP99
0133080230999992000100315004+43460-003810FM-12+006599999V0200701N003112200019N0120001N1+01901+01451102151ADDGF104991011001022501081041MA1999999101451MD1610121+9999REMSYN066AAXX  03154 08023 42862 40706 10190 20145 30145 40215 56012 81084;
0186080230999992000100318004+43460-003810FM-12+006599999V0202501N004612200019N0120001N1+01751+01401102231ADDAA199000091GF104991011001022501041011KA1999M+01991MA1999999101531MD1310081+9999REMSYN076AAXX  03184 08023 32862 42509 10175 20140 30153 40223 53008 81041 333 10199;EQDQ01  00002PRCP99
0133080230999992000100321004+43460-003810FM-12+006599999V0202201N005112200019N0120001N1+01581+01371102271ADDGF104991001001999999001011MA1999999101571MD1010041+9999REMSYN066AAXX  03214 08023 42962 42210 10158 20137 30157 40227 50004 80001;
0163080230999992000100400004+43460-003810FM-12+006599999V0202101N005712200019N0120001N1+01571+01021102251ADDAA199000091GF103991001001999999001011MA1999999101551MD1810021+9999REMSYN066AAXX  04004 08023 32962 32111 10157 20102 30155 40225 58002 80001;EQDQ01  00002PRCP99
0133080230999992000100403004+43460-003810FM-12+006599999V0202101N005112200019N0100001N1+01581+00901102191ADDGF102991001001999999001011MA1999999101491MD1810061+9999REMSYN066AAXX  04034 08023 42960 22110 10158 20090 30149 40219 58006 80001;
0198080230999992000100406004+43460-003810FM-12+006599999V0209999C000012200019N0100001N1+01581+01231102151ADDAA199000091GF104991031001022501031011KA1120N+01451MA1999999101451MD1610041+9999REMSYN088AAXX  04064 08023 32860 40000 10158 20123 30145 40215 56004 83031 333 20145 50303 55087;EQDQ01  00002PRCP99
0133080230999992000100409004+43460-003810FM-12+006599999V0201401N002612200019N0150001N1+01881+01371102151ADDGF103991011001999999041011MA1999999101451MD1410001+9999REMSYN066AAXX  04094 08023 42965 31405 10188 20137 30145 40215 54000 81041;
0163080230999992000100412004+43460-003810FM-12+006599999V0200701N005112200019N0200001N1+01981+01511102081ADDAA199000091GF103991021001999999041021MA1999999101391MD1810061+9999REMSYN066AAXX  04124 08023 32970 30710 10198 20151 30139 40208 58006 82042;EQDQ01  00002PRCP99
0133080230999992000100415004+43460-003810FM-12+006599999V0200601N002619999999N0100001N1+01891+01611102061ADDGF106991031001999999041091MA1999999101371MD1610021+9999REMSYN066AAXX  04154 08023 42960 60605 10189 20161 30137 40206 56002 83049;
0186080230999992000100418004+43460-003810FM-12+006599999V0202801N002110120019N0100001N1+01801+01631102131ADDAA199000091GF108991061081008001071001KA1999M+02071MA1999999101431MD1310061+9999REMSYN076AAXX  04184 08023 32560 82804 10180 20163 30143 40213 53006 86870 333 10207;EQDQ01  00002PRCP99
0133080230999992000100421004+43460-003810FM-12+006599999V0202401N004110120019N0100001N1+01681+01581102191ADDGF107991061081008001071999MA1999999101491MD1210061+9999REMSYN066AAXX  04214 08023 42560 72408 10168 20158 30149 40219 52006 8687/;
0178080230999992000100500004+43460-003810FM-12+006599999V0200501N003110042019N0100001N1+01691+01621102191ADDAA106004191AY161061AY251061GF108991071071004501071999MA1999999101491MD1010001+9999MW1201REMSYN078AAXX  05004 08023 11460 80506 10169 20162 30149 40219 50000 60041 72065 8777/;
0161080230999992000100503004+43460-003810FM-12+006599999V0200401N005110360019N0150001N1+01741+01571102191ADDAY151031AY221031GF107991041081004501071999MA1999999101491MD1410001+9999MW1021REMSYN072AAXX  05034 08023 41465 70410 10174 20157 30149 40219 54000 70252 8487/;
0213080230999992000100506004+43460-003810FM-12+006599999V0200301N005110042019N0040001N1+01621+01551102251ADDAA112005191AY151061AY221061GF108991061071004501071999KA1120N+01601MA1999999101551MD1210061+9999MW1211REMSYN100AAXX  05064 08023 11440 80310 10162 20155 30155 40225 52006 60052 72152 8677/ 333 20160 50153 55062;
0161080230999992000100509004+43460-003810FM-12+006599999V0200701N003110075019N0090001N1+01631+01581102391ADDAY151031AY251031GF108991061071008001071999MA1999999101691MD1210141+9999MW1501REMSYN072AAXX  05094 08023 41559 80706 10163 20158 30169 40239 52014 75055 8677/;
0178080230999992000100512004+43460-003810FM-12+006599999V0202501N001010360019N0100001N1+01561+01471102491ADDAA106002091AY151061AY251061GF108991031071008001071999MA1999999101781MD1210091+9999MW1501REMSYN078AAXX  05124 08023 11560 82502 10156 20147 30178 40249 52009 60021 75055 8377/;
0161080230999992000100515004+43460-003810FM-12+006599999V0202701N004110360019N0090001N1+01711+01501102461ADDAY151031AY221031GF108991041081004501071999MA1999999101761MD1810021+9999MW1101REMSYN072AAXX  05154 08023 41459 82708 10171 20150 30176 40246 58002 71052 8487/;
0220080230999992000100518004+43460-003810FM-12+006599999V0203401N005110900019N0100001N1+01711+01261102541ADDAA112002091AY151061AY221061GF106991041081008001001081KA1120M+01801KA2999N+01501MA1999999101841MD1310081+9999MW1021REMSYN094AAXX  05184 08023 11560 63410 10171 20126 30184 40254 53008 60022 70252 84808 333 10180 20150;
0178080230999992000100600004+43460-003810FM-12+006599999V0202401N003110120019N0080001N1+01551+01321102711ADDAA106000791AY121061AY221061GF107991051081008001071999MA1999999102001MD1110021+9999MW1501REMSYN078AAXX  06004 08023 11558 72406 10155 20132 30200 40271 51002 69901 75022 8587/;
0161080230999992000100603004+43460-003810FM-12+006599999V0201001N003110120019N0070001N1+01531+01331102671ADDAY161031AY221031GF108991081081008001999999MA1999999101961MD1810041+9999MW1531REMSYN072AAXX  06034 08023 41557 81006 10153 20133 30196 40267 58004 75362 888//;
0213080230999992000100606004+43460-003810FM-12+006599999V0201901N002110075019N0120001N1+01551+01101102701ADDAA112002091AY151061AY221061GF107991051051008001031999KA1120N+01441MA1999999101991MD1310031+9999MW1021REMSYN100AAXX  06064 08023 11562 71904 10155 20110 30199 40270 53003 60022 70252 8553/ 333 20144 50113 55001;
0161080230999992000100609004+43460-003810FM-12+006599999V0200501N005110075019N0200001N1+01601+01071102871ADDAY181031AY221031GF107991071051008001999999MA1999999102161MD1210171+9999MW1021REMSYN072AAXX  06094 08023 41570 70510 10160 20107 30216 40287 52017 70282 875//;
0150080230999992000100612004+43460-003810FM-12+006599999V0200401N005712200019N0300001N1+01761+01131102901ADDAA106000791GF105991031081008001001061MA1999999102201MD1110041+9999REMSYN072AAXX  06124 08023 12580 50411 10176 20113 30220 40290 51004 69901 83806;
0161080230999992000100615004+43460-003810FM-12+006599999V0200601N006210120019N0250001N1+01641+01061102851ADDAY181031AY221031GF107991051081008001071001MA1999999102141MD1610061+9999MW1021REMSYN072AAXX  06154 08023 41575 70612 10164 20106 30214 40285 56006 70282 85870;
0173080230999992000100618004+43460-003810FM-12+006599999V0200701N005112200019N0250001N1+01521+00981102861ADDAA112000791GF104991031081008001041001KA1999M+01801MA1999999102151MD1310011+9999REMSYN082AAXX  06184 08023 12575 40710 10152 20098 30215 40286 53001 69902 83840 333 10180;
0133080230999992000100621004+43460-003810FM-12+006599999V0201401N003110120019N0200001N1+01461+01001102911ADDGF106991061081008001999999MA1999999102201MD1110051+9999REMSYN066AAXX  06214 08023 42570 61406 10146 20100 30220 40291 51005 868//;
0163080230999992000100700004+43460-003810FM-12+006599999V0201501N003110120019N0200001N1+01361+01051102901ADDAA199000091GF105991051081008001999999MA1999999102191MD1810011+9999REMSYN066AAXX  07004 08023 32570 51506 10136 20105 30219 40290 58001 858//;EQDQ01  00002PRCP99
0133080230999992000100703004+43460-003810FM-12+006599999V0201601N003612200019N0150001N1+01241+00961102821ADDGF102991021051008001001001MA1999999102101MD1610091+9999REMSYN066AAXX  07034 08023 42565 21607 10124 20096 30210 40282 56009 82500;
0198080230999992000100706004+43460-003810FM-12+006599999V0201801N004112200019N0300001N1+01141+00861102781ADDAA199000091GF101991011051012501001041KA1120N+01121MA1999999102061MD1610041+9999REMSYN088AAXX  07064 08023 32680 11808 10114 20086 30206 40278 56004 81504 333 20112 50133 55025;EQDQ01  00002PRCP99
0133080230999992000100709004+43460-003810FM-12+006599999V0201601N003112200019N0300001N1+01561+01191102851ADDGF104991011011008001001051MA1999999102141MD1310081+9999REMSYN066AAXX  07094 08023 42580 41606 10156 20119 30214 40285 53008 81105;
0163080230999992000100712004+43460-003810FM-12+006599999V0200701N004619999999N0250001N1+01751+01121102761ADDAA199000091GF105991001001999999001061MA1999999102061MD1810081+9999REMSYN066AAXX  07124 08023 32975 50709 10175 20112 30206 40276 58008 80006;EQDQ01  00002PRCP99
0133080230999992000100715004+43460-003810FM-12+006599999V0200801N006212200019N0150001N1+01721+01021102641ADDGF102991001001999999001021MA1999999101941MD1610121+9999REMSYN066AAXX  07154 08023 42965 20812 10172 20102 30194 40264 56012 80002;
0196080230999992000100718004+43460-003810FM-12+006599999V0201101N004612200019N0750001N1+01521+00941102651ADDAA199000091GA1001+999999999GF100991001001999999001001KA1999M+01781MA1999999101941MD1410001+9999REMSYN070AAXX  07184 08023 32989 01109 10152 20094 30194 40265 54000 333 10178;EQDQ01  00002PRCP99
0143080230999992000100721004+43460-003810FM-12+006599999V0201501N003612200019N0200001N1+01331+00891102621ADDGA1001+999999999GF100991001001999999001001MA1999999101911MD1810031+9999REMSYN060AAXX  07214 08023 42970 01507 10133 20089 30191 40262 58003;
0173080230999992000100800004+43460-003810FM-12+006599999V0202001N003112200019N0200001N1+01221+01001102541ADDAA199000091GA1001+999999999GF100991001001999999001001MA1999999101821MD1710091+9999REMSYN060AAXX  08004 08023 32970 02006 10122 20100 30182 40254 57009;EQDQ01  00002PRCP99
0133080230999992000100803004+43460-003810FM-12+006599999V0202301N004112200019N0200001N1+01201+01001102481ADDGF101991001001999999001021MA1999999101761MD1710061+9999REMSYN066AAXX  08034 08023 42970 12308 10120 20100 30176 40248 57006 80002;
0198080230999992000100806004+43460-003810FM-12+006599999V0202201N002112200019N0200001N1+01211+00871102331ADDAA199000091GF101991001001999999001011KA1120N+01121MA1999999101621MD1710141+9999REMSYN088AAXX  08064 08023 32970 12204 10121 20087 30162 40233 57014 80001 333 20112 50503 55100;EQDQ01  00002PRCP99
0133080230999992000100809004+43460-003810FM-12+006599999V0202301N003612200019N0150001N1+01411+00921102471ADDGF101991001001999999001011MA1999999101761MD1210141+9999REMSYN066AAXX  08094 08023 42965 12307 10141 20092 30176 40247 52014 80001;
0163080230999992000100812004+43460-003810FM-12+006599999V0202601N005712200019N0150001N1+01671+01331102401ADDAA199000091GF104991031081012501031021MA1999999101701MD1810061+9999REMSYN066AAXX  08124 08023 32665 42611 10167 20133 30170 40240 58006 83832;EQDQ01  00002PRCP99
0133080230999992000100815004+43460-003810FM-12+006599999V0203101N007210120019N0200001N1+01721+01371102371ADDGF106991051011012501001011MA1999999101671MD1610031+9999REMSYN066AAXX  08154 08023 42670 63114 10172 20137 30167 40237 56003 85101;
0186080230999992000100818004+43460-003810FM-12+006599999V0203101N005710150019N0100001N1+01631+01361102371ADDAA199000091GF108991081081012501001001KA1999M+01831MA1999999101671MD1410001+9999REMSYN076AAXX  08184 08023 32660 83111 10163 20136 30167 40237 54000 88800 333 10183;EQDQ01  00002PRCP99
0161080230999992000100821004+43460-003810FM-12+006599999V0202801N005110120019N0100001N1+01601+01531102391ADDAY161031AY221031GF108991081081008001001001MA1999999101691MD1210021+9999MW1021REMSYN072AAXX  08214 08023 41560 82810 10160 20153 30169 40239 52002 70262 88800;
0178080230999992000100900004+43460-003810FM-12+006599999V0202401N004110075019N0060001N1+01481+01481102371ADDAA106003091AY161061AY251061GF108991081071008001001001MA1999999101661MD1710031+9999MW1501REMSYN078AAXX  09004 08023 11556 82408 10148 20148 30166 40237 57003 60031 75065 88700;
0161080230999992000100903004+43460-003810FM-12+006599999V0202301N004110075019N0060001N1+01481+01441102201ADDAY151031AY221031GF108991051051008001081001MA1999999101491MD1710171+9999MW1101REMSYN072AAXX  09034 08023 41556 82308 10148 20144 30149 40220 57017 71052 85580;
0213080230999992000100906004+43460-003810FM-12+006599999V0202201N003110120019N0080001N1+01471+01401101991ADDAA112003091AY151061AY221061GF107991051081008001071001KA1120N+01471MA1999999101291MD1710201+9999MW1101REMSYN100AAXX  09064 08023 11558 72206 10147 20140 30129 40199 57020 60032 71052 85870 333 20147 50043 55087;
0133080230999992000100909004+43460-003810FM-12+006599999V0202301N004110120019N0100001N1+01601+01421101911ADDGF107991061081008001031001MA1999999101211MD1810081+9999REMSYN066AAXX  09094 08023 42560 72308 10160 20142 30121 40191 58008 86830;
0144080230999992000100912004+43460-003810FM-12+006599999V0203001N007212200019N0150001N1+01761+01321101711ADDAA199000021GF106991021081008001001061MA1999999101011MD1710201+9999REMSYN066AAXX  09124 08023 32565 63014 10176 20132 30101 40171 57020 82806;
0133080230999992000100915004+43460-003810FM-12+006599999V0202801N005719999999N0200001N1+01701+01271101371ADDGF108991031001999999051071MA1999999100671MD1710341+9999REMSYN066AAXX  09154 08023 42970 82811 10170 20127 30067 40137 57034 83057;
0201080230999992000100918004+43460-003810FM-12+006599999V0202301N005110210019N0080001N1+01651+01351101141ADDAA112000791AY161061AY221061GF108991081001022501071999KA1999M+01831MA1999999100451MD1710221+9999MW1601REMSYN088AAXX  09184 08023 11858 82310 10165 20135 30045 40114 57022 69902 76062 8807/ 333 10183;
0161080230999992000100921004+43460-003810FM-12+006599999V0202301N007710120019N0120001N1+01701+01531101001ADDAY161031AY221031GF108991081081008001999999MA1999999100311MD1710141+9999MW1601REMSYN072AAXX  09214 08023 41562 82315 10170 20153 30031 40100 57014 76062 888//;
0178080230999992000101000004+43460-003810FM-12+006599999V0203101N013910120019N0120001N1+01681+01291101061ADDAA106003091AY161061AY221061GF108991081081008001999999MA1999999100371MD1310061+9999MW1021REMSYN078AAXX  10004 08023 11562 83127 10168 20129 30037 40106 53006 60031 70262 888//;
0161080230999992000101003004+43460-003810FM-12+006599999V0203101N012910120019N0120001N1+01391+01261101121ADDAY181031AY221031GF108991081081008001999999MA1999999100421MD1010051+9999MW1021REMSYN072AAXX  10034 08023 41562 83125 10139 20126 30042 40112 50005 70282 888//;
0213080230999992000101006004+43460-003810FM-12+006599999V0202701N010810120019N0040001N1+01381+01181101151ADDAA112005191AY161061AY221061GF108991081081008001001001KA1120N+01381MA1999999100451MD1310031+9999MW1621REMSYN100AAXX  10064 08023 11540 82721 10138 20118 30045 40115 53003 60052 76262 88800 333 20138 50203 55057;
0161080230999992000101009004+43460-003810FM-12+006599999V0202801N014910090019N0120001N1+01381+01201101191ADDAY181031AY221031GF107991071081004501001001MA1999999100491MD1310041+9999MW1601REMSYN072AAXX  10094 08023 41462 72829 10138 20120 30049 40119 53004 76082 87800;
0178080230999992000101012004+43460-003810FM-12+006599999V0202801N012310360019N0120001N1+01731+00861100981ADDAA106006191AY181061AY261061GF106991021081008001061001MA1999999100291MD1810201+9999MW1021REMSYN078AAXX  10124 08023 11562 62824 10173 20086 30029 40098 58020 60061 70286 82860;
0133080230999992000101015004+43460-003810FM-12+006599999V0202201N003610120019N0120001N1+01811+01141100551ADDGF107991061081008001071001MA1999999099861MD1710431+9999REMSYN066AAXX  10154 08023 42562 72207 10181 20114 39986 40055 57043 86870;
0201080230999992000101018004+43460-003810FM-12+006599999V0202801N003610360019N0120001N1+01801+01311100251ADDAA112006191AY181061AY221061GF107991021081008001071999KA1999M+01881MA1999999099571MD1710291+9999MW1021REMSYN088AAXX  10184 08023 11562 72807 10180 20131 39957 40025 57029 60062 70282 8287/ 333 10188;
0133080230999992000101021004+43460-003810FM-12+006599999V0202201N008710210019N0300001N1+02001+00991099621ADDGF107991071001022501071001MA1999999098941MD1710631+9999REMSYN066AAXX  10214 08023 42880 72217 10200 20099 39894 49962 57063 87070;
0178080230999992000101100004+43460-003810FM-12+006599999V0202901N014910120019N0150001N1+01641+01571099571ADDAA106002091AY161061AY221061GF108991081071012501999999MA1999999098891MD1510051+9999MW1611REMSYN078AAXX  11004 08023 11665 82929 10164 20157 39889 49957 55005 60021 76162 887//;
0205080230999992000101103004+43460-003810FM-12+006599999V0202901N018010075019N0080001N1+01581+01481099491ADDAY161031AY221031GF108991081071008001999999MA1999999098811MD1810081+9999MW1631OA149903291OA259902211REMSYN094AAXX  11034 08023 41558 82935 10158 20148 39881 49949 58008 76362 887// 333 91164 91243 91528;
0261080230999992000101106004+43460-003810FM-12+006599999V0203001N021110075019N0100001N1+01401+01141099501ADDAA112016091AY161061AY221061GF108991061071008001071999GJ101869KA1120N+01401MA1999999098811MD1410001+9999MW1601OA149903451OA259902321REMSYN118AAXX  11064 08023 11560 83041 10140 20114 39881 49950 54000 60162 76062 8677/ 333 20140 50373 55031 91167 91245 91529;
0161080230999992000101109004+43460-003810FM-12+006599999V0202801N016410360019N0150001N1+01421+00871099601ADDAY161031AY221031GF108991041081008001071999MA1999999098911MD1010101+9999MW1601REMSYN072AAXX  11094 08023 41565 82832 10142 20087 39891 49960 50010 76062 8487/;
0178080230999992000101112004+43460-003810FM-12+006599999V0202801N012910120019N0200001N1+01561+00771099601ADDAA106000391AY161061AY221061GF107991071081008001001001MA1999999098911MD1010001+9999MW1021REMSYN078AAXX  11124 08023 11570 72825 10156 20077 39891 49960 50000 69931 70262 87800;
0133080230999992000101115004+43460-003810FM-12+006599999V0202901N014910120019N0200001N1+01631+01141099531ADDGF107991061081008001071001MA1999999098851MD1510061+9999REMSYN066AAXX  11154 08023 42570 72929 10163 20114 39885 49953 55006 86870;
0173080230999992000101118004+43460-003810FM-12+006599999V0202901N009810120019N0150001N1+01541+00741099581ADDAA112000391GF106991061081008001001001KA1999M+01731MA1999999098891MD1310041+9999REMSYN082AAXX  11184 08023 12565 62919 10154 20074 39889 49958 53004 69932 86800 333 10173;
0161080230999992000101121004+43460-003810FM-12+006599999V0202901N008210120019N0150001N1+01401+01061099621ADDAY161031AY221031GF105991051081008001001001MA1999999098931MD1210041+9999MW1021REMSYN072AAXX  11214 08023 41565 52916 10140 20106 39893 49962 52004 70262 85800;
0178080230999992000101200004+43460-003810FM-12+006599999V0202201N004110120019N0150001N1+01311+01271099591ADDAA106005191AY161061AY221061GF105991051081008001001001MA1999999098901MD1810031+9999MW1021REMSYN078AAXX  12004 08023 11565 52208 10131 20127 39890 49959 58003 60051 70262 85800;
0133080230999992000101203004+43460-003810FM-12+006599999V0202001N005112200019N0200001N1+01141+00821099641ADDGF101991011081008001001001MA1999999098941MD1110041+9999REMSYN066AAXX  12034 08023 42570 12010 10114 20082 39894 49964 51004 81800;
0185080230999992000101206004+43460-003810FM-12+006599999V0202101N007210210019N0150001N1+01121+01081099721ADDAA112005191GF105991051001022501031001KA1120N+01121MA1999999099021MD1310081+9999REMSYN094AAXX  12064 08023 12865 52114 10112 20108 39902 49972 53008 60052 85030 333 20112 50433 55036;
0161080230999992000101209004+43460-003810FM-12+006599999V0202501N006710120019N0300001N1+01201+00801099911ADDAY161031AY221031GF108991051051012501071999MA1999999099211MD1210191+9999MW1601REMSYN072AAXX  12094 08023 41680 82513 10120 20080 39921 49991 52019 76062 8557/;
0178080230999992000101212004+43460-003810FM-12+006599999V0202701N012910120019N0250001N1+01441+00941100101ADDAA106001091AY161061AY221061GF107991061081008001071001MA1999999099411MD1110201+9999MW1021REMSYN078AAXX  12124 08023 11575 72725 10144 20094 39941 40010 51020 60011 70262 86870;
0165080230999992000101215004+43460-003810FM-12+006599999V0202501N002110360019N0100001N1+00931+00851100421ADDAY181031AY261031GF108991031081008001071999MD1210151+9999MW1801REMSYN072AAXX  12154 08023 41560 82504 10093 20085 39642 40042 52015 78086 8387/;EQDQ01+096423APOSP 
0201080230999992000101218004+43460-003810FM-12+006599999V0202501N008210120019N0200001N1+01181+00861100531ADDAA112003091AY181061AY221061GF108991081081008001999999KA1999M+01541MA1999999099831MD1210301+9999MW1251REMSYN088AAXX  12184 08023 11570 82516 10118 20086 39983 40053 52030 60032 72582 888// 333 10154;
0161080230999992000101221004+43460-003810FM-12+006599999V0202401N008210120019N0200001N1+01121+00881100821ADDAY181031AY221031GF106991061081008001001001MA1999999100111MD1210281+9999MW1251REMSYN072AAXX  12214 08023 41570 62416 10112 20088 30011 40082 52028 72582 86800;
0178080230999992000101300004+43460-003810FM-12+006599999V0202401N008710120019N0200001N1+01161+00921100961ADDAA106003091AY181061AY221061GF107991061081008001031001MA1999999100251MD1110141+9999MW1801REMSYN078AAXX  13004 08023 11570 72417 10116 20092 30025 40096 51014 60031 78082 86830;
0161080230999992000101303004+43460-003810FM-12+006599999V0202701N012910120019N0200001N1+01301+00991101011ADDAY181031AY221031GF107991071081008001001001MA1999999100311MD1110061+9999MW1801REMSYN072AAXX  13034 08023 41570 72725 10130 20099 30031 40101 51006 78082 87800;
0243080230999992000101306004+43460-003810FM-12+006599999V0202701N011310075019N0300001N1+01301+01071101131ADDAA112005191AY181061AY221061GA1021+008009099GF107991071031008001031001GJ100429KA1120N+01121MA1999999100431MD1210121+9999MW1021REMSYN106AAXX  13064 08023 11580 72722 10130 20107 30043 40113 52012 60052 70282 87330 333 20112 50183 55007 82995;
0215080230999992000101309004+43460-003810FM-12+006599999V0202401N00821004201CN0120001N1+01141+01021101361ADDAY191031AY281031GA1011+004509079GA2021+008009099GF107991071031004501999999MA1999999100651MD1210221+9999MW1801REMSYN094AAXX  13094 08023 41462 72416 10114 20102 30065 40136 52022 78098 873// 333 81794 82995 84695;
0210080230999992000101312004+43460-003810FM-12+006599999V0203101N01081004201CN0030001N1+01521+00941101491ADDAA106008991AY191061AY281061GA1011+004509079GF107991061031004501061001MA1999999100791MD1110141+9999MW1161REMSYN094AAXX  13124 08023 11430 73121 10152 20094 30079 40149 51014 60091 71698 86360 333 81794 84995;
0193080230999992000101315004+43460-003810FM-12+006599999V0203001N010310360019N0100001N1+01441+01181101521ADDAY191031AY281031GA1011+006009099GF105991041091008001061001MA1999999100821MD1110031+9999MW1251REMSYN088AAXX  13154 08023 41560 53020 10144 20118 30082 40152 51003 72598 84960 333 81920 83820;
0229080230999992000101318004+43460-003810FM-12+006599999V0203401N00721004201CN0120001N1+01421+01121101711ADDAA112020191AY191061AY281061GA1021+008009089GF107991061091004501061031KA1120M+01561MA1999999101011MD1110191+9999MW1801REMSYN100AAXX  13184 08023 11462 73414 10142 20112 30101 40171 51019 60202 78098 86963 333 10156 82895 84995;
0193080230999992000101321004+43460-003810FM-12+006599999V0202901N005710042019N0100001N1+01221+01111101881ADDAY181031AY221031GA1031+004509089GF107991061091004501061031MA1999999101171MD1210161+9999MW1801REMSYN088AAXX  13214 08023 41460 72911 10122 20111 30117 40188 52016 78082 86963 333 83894 81995;
0210080230999992000101400004+43460-003810FM-12+006599999V0203601N00721004201CN0100001N1+01481+01161101851ADDAA106006191AY181061AY221061GA1041+004509089GF106991061091004501001001MA1999999101151MD1810021+9999MW1251REMSYN094AAXX  14004 08023 11460 63614 10148 20116 30115 40185 58002 60061 72582 86900 333 84894 82995;
0165080230999992000101403004+43460-003810FM-12+006599999V0203601N00621008001CN0100001N1+01501+01001101851ADDGA1051+008009089GF106991061031004501001001MA1999999101151MD1410001+9999REMSYN082AAXX  14034 08023 42460 63612 10150 20100 30115 40185 54000 86300 333 85895 81995;
0185080230999992000101406004+43460-003810FM-12+006599999V0202501N004110075019N0120001N1+01411+01111101881ADDAA112006191GF106991051021008001061001KA1120N+01221MA1999999101171MD1310021+9999REMSYN094AAXX  14064 08023 12562 62508 10141 20111 30117 40188 53002 60062 85260 333 20122 50443 55018;
0161080230999992000101409004+43460-003810FM-12+006599999V0202201N005110900019N0150001N1+01221+01091101931ADDAY181031AY221031GF106991041081008001001051MA1999999101221MD1110051+9999MW1151REMSYN072AAXX  14094 08023 41565 62210 10122 20109 30122 40193 51005 71582 84805;
0178080230999992000101412004+43460-003810FM-12+006599999V0202701N005712200019N0200001N1+01501+01131101971ADDAA106000791AY181061AY221061GF106991031021008001001061MA1999999101271MD1010051+9999MW1021REMSYN078AAXX  14124 08023 11570 62711 10150 20113 30127 40197 50005 69901 70282 83206;
0133080230999992000101415004+43460-003810FM-12+006599999V0203101N006210120019N0250001N1+01541+01051101811ADDGF106991051081008001011011MA1999999101111MD1810161+9999REMSYN066AAXX  14154 08023 42575 63112 10154 20105 30111 40181 58016 85811;
0173080230999992000101418004+43460-003810FM-12+006599999V0202301N00311036001CN0200001N1+01421+01001101761ADDAA112000791GF106991021021008001071999KA1999M+01641MA1999999101051MD1610061+9999REMSYN082AAXX  14184 08023 12570 62306 10142 20100 30105 40176 56006 69902 8227/ 333 10164;
0133080230999992000101421004+43460-003810FM-12+006599999V0202101N00411036001CN0200001N1+01281+01091101721ADDGF105991011081008001041999MA1999999101011MD1810041+9999REMSYN066AAXX  14214 08023 42570 52108 10128 20109 30101 40172 58004 8184/;
0163080230999992000101500004+43460-003810FM-12+006599999V0202001N004610120019N0150001N1+01261+00991101601ADDAA199000091GF108991061081008001071999MA1999999100891MD1610121+9999REMSYN066AAXX  15004 08023 32565 82009 10126 20099 30089 40160 56012 8687/;EQDQ01  00002PRCP99
0109080230999992000101503004+43460-003810FM-12+006599999V0202301N006219999999N0150001N1+01161+99999999999ADDGF106991999999008001999999REMSYN071AAXX  15034 08023 41565 62312 10116 0100 30069 40140 57020 70282 8387/;
0213080230999992000101506004+43460-003810FM-12+006599999V0202201N007210360019N0150001N1+01161+01081101321ADDAA112000591AY181061AY221061GF107991031051008001071999KA1120N+01141MA1999999100611MD1710071+9999MW1021REMSYN100AAXX  15064 08023 11565 72214 10116 20108 30061 40132 57007 69952 70282 8357/ 333 20114 50033 55048;
0133080230999992000101509004+43460-003810FM-12+006599999V0202401N006212200019N0150001N1+01381+01191101321ADDGF104991031081004501061001MA1999999100621MD1110011+9999REMSYN066AAXX  15094 08023 42465 42412 10138 20119 30062 40132 51001 83860;
0178080230999992000101512004+43460-003810FM-12+006599999V0202601N004110120019N0080001N1+01431+01191101251ADDAA106000791AY121061AY221061GF108991061081008001071999MA1999999100551MD1610071+9999MW1801REMSYN078AAXX  15124 08023 11558 82608 10143 20119 30055 40125 56007 69901 78022 8687/;
0161080230999992000101515004+43460-003810FM-12+006599999V0202201N004610042019N0020001N1+01321+01301101111ADDAY121031AY221031GF108991081071004501999999MA1999999100411MD1710101+9999MW1511REMSYN072AAXX  15154 08023 41420 82209 10132 20130 30041 40111 57010 75122 887//;
0201080230999992000101518004+43460-003810FM-12+006599999V0203601N008210090019N0070001N1+01401+01401101131ADDAA112007191AY161061AY251061GF108991051081004501071999KA1999M+01571MA1999999100431MD1110021+9999MW1611REMSYN088AAXX  15184 08023 11457 83616 10140 20140 30043 40113 51002 60072 76165 8587/ 333 10157;
0161080230999992000101521004+43460-003810FM-12+006599999V0202901N012910090019N0080001N1+01521+01341101121ADDAY161031AY221031GF108991051081004501071999MA1999999100421MD1610011+9999MW1501REMSYN072AAXX  15214 08023 41458 82925 10152 20134 30042 40112 56001 75062 8587/;
0178080230999992000101600004+43460-003810FM-12+006599999V0203001N013910090019N0100001N1+01541+01171101191ADDAA106001091AY161061AY251061GF108991061081004501071999MA1999999100491MD1210071+9999MW1021REMSYN078AAXX  16004 08023 11460 83027 10154 20117 30049 40119 52007 60011 70265 8687/;
0161080230999992000101603004+43460-003810FM-12+006599999V0202801N012910360019N0100001N1+01421+01161101231ADDAY181031AY251031GF106991031081008001031001MA1999999100531MD1210041+9999MW1021REMSYN072AAXX  16034 08023 41560 62825 10142 20116 30053 40123 52004 70285 83830;
0213080230999992000101606004+43460-003810FM-12+006599999V0202801N011810120019N0100001N1+01451+01031101351ADDAA112007191AY181061AY261061GF108991061081008001071999KA1120N+01401MA1999999100651MD1210121+9999MW1201REMSYN100AAXX  16064 08023 11560 82823 10145 20103 30065 40135 52012 60072 72086 8687/ 333 20140 50243 55020;
0161080230999992000101609004+43460-003810FM-12+006599999V0202901N011310900019N0300001N1+01521+01151101641ADDAY181031AY251031GF106991041081008001001021MA1999999100941MD1210291+9999MW1021REMSYN072AAXX  16094 08023 41580 62922 10152 20115 30094 40164 52029 70285 84802;
0133080230999992000101615004+43460-003810FM-12+006599999V0203101N007210360019N0300001N1+01661+01181101971ADDGF106991021051008001071081MA1999999101271MD1210131+9999REMSYN066AAXX  16154 08023 42580 63114 10166 20118 30127 40197 52013 82578;
0173080230999992000101618004+43460-003810FM-12+006599999V0202701N006210360019N0150001N1+01571+01181102191ADDAA112000191GF107991031051008001031081KA1999M+01741MA1999999101491MD1210221+9999REMSYN082AAXX  16184 08023 12565 72712 10157 20118 30149 40219 52022 69912 83538 333 10174;
0133080230999992000101621004+43460-003810FM-12+006599999V0202201N004610360019N0100001N1+01471+01171102301ADDGF107991031051008001031081MA1999999101591MD1210101+9999REMSYN066AAXX  16214 08023 42560 72209 10147 20117 30159 40230 52010 83538;
0163080230999992000101700004+43460-003810FM-12+006599999V0202101N005110360019N0100001N1+01501+01081102361ADDAA199000091GF106991021051008001031011MA1999999101651MD1210061+9999REMSYN066AAXX  17004 08023 32560 62110 10150 20108 30165 40236 52006 82531;EQDQ01  00002PRCP99
0133080230999992000101703004+43460-003810FM-12+006599999V0202201N004110360019N0100001N1+01501+01081102411ADDGF107991031051008001031081MA1999999101701MD1210051+9999REMSYN066AAXX  17034 08023 42560 72208 10150 20108 30170 40241 52005 83538;
0198080230999992000101706004+43460-003810FM-12+006599999V0202001N004610360019N0150001N1+01441+01081102431ADDAA199000091GF106991031081008001031011KA1120N+01441MA1999999101721MD1210021+9999REMSYN088AAXX  17064 08023 32565 62009 10144 20108 30172 40243 52002 83831 333 20144 50413 55049;EQDQ01  00002PRCP99
0133080230999992000101709004+43460-003810FM-12+006599999V0202201N004612200019N0200001N1+01641+01161102631ADDGF104991011001999999031081MA1999999101921MD1210201+9999REMSYN066AAXX  17094 08023 42970 42209 10164 20116 30192 40263 52020 81038;
0163080230999992000101712004+43460-003810FM-12+006599999V0200301N001512200019N0180001N1+01841+01351102621ADDAA199000091GF101991011011012501001011MA1999999101921MD1410001+9999REMSYN066AAXX  17124 08023 32668 10303 10184 20135 30192 40262 54000 81101;EQDQ01  00002PRCP99
0186080230999992000101718004+43460-003810FM-12+006599999V0200901N003612200019N0150001N1+01641+01471102501ADDAA199000091GF102991001001999999001041KA1999M+01921MA1999999101801MD1510001+9999REMSYN076AAXX  17184 08023 32965 20907 10164 20147 30180 40250 55000 80004 333 10192;EQDQ01  00002PRCP99
0143080230999992000101721004+43460-003810FM-12+006599999V0201601N004112200019N0100001N1+01541+01401102551ADDGA1001+999999999GF100991001001999999001001MA1999999101841MD1110041+9999REMSYN060AAXX  17214 08023 42960 01608 10154 20140 30184 40255 51004;
0173080230999992000101800004+43460-003810FM-12+006599999V0201801N003112200019N0100001N1+01541+01321102511ADDAA199000091GA1001+999999999GF100991001001999999001001MA1999999101801MD1810041+9999REMSYN060AAXX  18004 08023 32960 01806 10154 20132 30180 40251 58004;EQDQ01  00002PRCP99
0143080230999992000101803004+43460-003810FM-12+006599999V0209999V001512200019N0100001N1+01461+01281102401ADDGA1001+999999999GF100991001001999999001001MA1999999101691MD1710111+9999REMSYN060AAXX  18034 08023 42960 09903 10146 20128 30169 40240 57011;
0198080230999992000101806004+43460-003810FM-12+006599999V0202001N004112200019N0150001N1+01521+01021102281ADDAA199000091GF102991011001999999041051KA1120N+01401MA1999999101571MD1710121+9999REMSYN088AAXX  18064 08023 32965 22008 10152 20102 30157 40228 57012 81045 333 20140 50113 55079;EQDQ01  00002PRCP99
0133080230999992000101809004+43460-003810FM-12+006599999V0201901N002110900019N0300001N1+01701+01191102311ADDGF105991041001022501041051MA1999999101611MD1310041+9999REMSYN066AAXX  18094 08023 42880 51904 10170 20119 30161 40231 53004 84045;
0163080230999992000101812004+43460-003810FM-12+006599999V0201501N002610210019N0200001N1+02261+01371102261ADDAA199000091GF106991051001022501051081MA1999999101571MD1710041+9999REMSYN066AAXX  18124 08023 32870 61505 10226 20137 30157 40226 57004 85058;EQDQ01  00002PRCP99
0133080230999992000101815004+43460-003810FM-12+006599999V0202801N005110900019N0150001N1+01801+01491102171ADDGF106991041001017501041081MA1999999101471MD1610101+9999REMSYN066AAXX  18154 08023 42765 62810 10180 20149 30147 40217 56010 84048;
0186080230999992000101818004+43460-003810FM-12+006599999V0201301N001510210019N0100001N1+01721+01601102151ADDAA199000091GF107991071001022501071001KA1999M+02371MA1999999101451MD1710021+9999REMSYN076AAXX  18184 08023 32860 71303 10172 20160 30145 40215 57002 87070 333 10237;EQDQ01  00002PRCP99
0133080230999992000101821004+43460-003810FM-12+006599999V0201301N003610210019N0100001N1+01661+01561102131ADDGF108991081001022501071001MA1999999101431MD1610021+9999REMSYN066AAXX  18214 08023 42860 81307 10166 20156 30143 40213 56002 88070;
0178080230999992000101900004+43460-003810FM-12+006599999V0200801N002110360019N0060001N1+01681+01631102171ADDAA106000791AY161061AY221061GF106991021051012501061001MA1999999101471MD1010041+9999MW1101REMSYN078AAXX  19004 08023 11656 60804 10168 20163 30147 40217 50004 69901 71062 82560;
0161080230999992000101903004+43460-003810FM-12+006599999V0209999C000010360019N0020001N1+01721+01601102151ADDAY121031AY221031GF108991031051008001081001MA1999999101451MD1810021+9999MW1101REMSYN072AAXX  19034 08023 41520 80000 10172 20160 30145 40215 58002 71022 83580;
0213080230999992000101906004+43460-003810FM-12+006599999V0202601N007210360019N0040001N1+01591+01591102201ADDAA112001091AY161061AY251061GF108991041071008001071001KA1120N+01591MA1999999101501MD1310051+9999MW1501REMSYN100AAXX  19064 08023 11540 82614 10159 20159 30150 40220 53005 69992 75065 84770 333 20159 50143 55052;
0161080230999992000101909004+43460-003810FM-12+006599999V0202401N006710120019N0090001N1+01551+01521102201ADDAY151031AY221031GF108991081081008001999999MA1999999101501MD1510001+9999MW1151REMSYN072AAXX  19094 08023 41559 82413 10155 20152 30150 40220 55000 71552 888//;
0178080230999992000101912004+43460-003810FM-12+006599999V0202701N005110075019N0090001N1+01581+01551102091ADDAA106000791AY151061AY221061GF108991081071008001999999MA1999999101391MD1810111+9999MW1201REMSYN078AAXX  19124 08023 11559 82710 10158 20155 30139 40209 58011 69901 72052 887//;
0161080230999992000101915004+43460-003810FM-12+006599999V0200501N003610090019N0100001N1+01631+01511101991ADDAY121031AY221031GF107991071081004501999999MA1999999101291MD1710101+9999MW1151REMSYN072AAXX  19154 08023 41460 70507 10163 20151 30129 40199 57010 71522 878//;
0201080230999992000101918004+43460-003810FM-12+006599999V0201701N002110090019N0100001N1+01611+01561101871ADDAA112000791AY151061AY221061GF108991081081004501999999KA1999M+01671MA1999999101171MD1710121+9999MW1021REMSYN088AAXX  19184 08023 11460 81704 10161 20156 30117 40187 57012 69902 70252 888// 333 10167;
0161080230999992000101921004+43460-003810FM-12+006599999V0202801N003110075019N0060001N1+01581+01581101831ADDAY121031AY221031GF108991061071008001021999MA1999999101131MD1710041+9999MW1101REMSYN072AAXX  19214 08023 41556 82806 10158 20158 30113 40183 57004 71022 8672/;
0178080230999992000102000004+43460-003810FM-12+006599999V0202501N003610075019N0080001N1+01521+01501101651ADDAA106000191AY151061AY221061GF108991081071008001999999MA1999999100951MD1710181+9999MW1611REMSYN078AAXX  20004 08023 11558 82507 10152 20150 30095 40165 57018 69921 76152 887//;
0161080230999992000102003004+43460-003810FM-12+006599999V0201701N002110075019N0050001N1+01531+01481101401ADDAY161031AY221031GF108991081071008001999999MA1999999100701MD1710251+9999MW1101REMSYN072AAXX  20034 08023 41550 81704 10153 20148 30070 40140 57025 71062 887//;
0213080230999992000102006004+43460-003810FM-12+006599999V0201901N002610075019N0050001N1+01501+01471101281ADDAA112001091AY161061AY221061GF108991071071008001071999KA1120N+01501MA1999999100581MD1710121+9999MW1601REMSYN100AAXX  20064 08023 11550 81905 10150 20147 30058 40128 57012 60012 76062 8777/ 333 20150 50183 55000;
0161080230999992000102009004+43460-003810FM-12+006599999V0201601N004610360019N0050001N1+01661+01451101021ADDAY121031AY221031GF108991011051008001071999MA1999999100331MD1710251+9999MW1601REMSYN072AAXX  20094 08023 41550 81609 10166 20145 30033 40102 57025 76022 8157/;
0178080230999992000102012004+43460-003810FM-12+006599999V0202001N006210360019N0070001N1+02021+01121100811ADDAA106000791AY161061AY221061GF108991021021008001071999MA1999999100131MD1710201+9999MW1051REMSYN078AAXX  20124 08023 11557 82012 10202 20112 30013 40081 57020 69901 70562 8227/;
0201080230999992000102018004+43460-003810FM-12+006599999V0202901N008210042019N0040001N1+01451+01401101031ADDAA112001091AY161061AY221061GF108991081071004501999999KA1999M+02031MA1999999100331MD1210241+9999MW1611REMSYN088AAXX  20184 08023 11440 82916 10145 20140 30033 40103 52024 60012 76162 887// 333 10203;
0161080230999992000102021004+43460-003810FM-12+006599999V0202401N007210042019N0040001N1+01341+01301101291ADDAY161031AY221031GF108991081071004501999999MA1999999100591MD1210261+9999MW1611REMSYN072AAXX  20214 08023 41440 82414 10134 20130 30059 40129 52026 76162 887//;
0178080230999992000102100004+43460-003810FM-12+006599999V0202901N009810042019N0040001N1+01281+01211101481ADDAA106011991AY161061AY221061GF108991081071004501999999MA1999999100771MD1210181+9999MW1621REMSYN078AAXX  21004 08023 11440 82919 10128 20121 30077 40148 52018 60121 76262 887//;
0161080230999992000102103004+43460-003810FM-12+006599999V0202401N005110042019N0040001N1+01121+01081101601ADDAY161031AY221031GF108991081071004501999999MA1999999100891MD1210121+9999MW1621REMSYN072AAXX  21034 08023 41440 82410 10112 20108 30089 40160 52012 76262 887//;
0213080230999992000102106004+43460-003810FM-12+006599999V0202301N006210042019N0050001N1+01101+01061101681ADDAA112039991AY161061AY221061GF108991081071004501999999KA1120N+01101MA1999999100971MD1210081+9999MW1611REMSYN100AAXX  21064 08023 11450 82312 10110 20106 30097 40168 52008 60402 76162 887// 333 20110 50013 55000;
0161080230999992000102109004+43460-003810FM-12+006599999V0202401N007710042019N0150001N1+01081+01001101971ADDAY161031AY221031GF108991081071004501999999MA1999999101251MD1210281+9999MW1611REMSYN072AAXX  21094 08023 41465 82415 10108 20100 30125 40197 52028 76162 887//;
0178080230999992000102112004+43460-003810FM-12+006599999V0202401N006210075019N0120001N1+01101+01021102151ADDAA106015091AY161061AY221061GF108991061071008001021999MA1999999101431MD1210181+9999MW1611REMSYN078AAXX  21124 08023 11562 82412 10110 20102 30143 40215 52018 60151 76162 8672/;
0161080230999992000102115004+43460-003810FM-12+006599999V0202301N006710042019N0030001N1+01141+01061102181ADDAY161031AY221031GF108991081071004501999999MA1999999101471MD1310041+9999MW1631REMSYN072AAXX  21154 08023 41430 82313 10114 20106 30147 40218 53004 76362 887//;
0201080230999992000102118004+43460-003810FM-12+006599999V0202301N006210042019N0150001N1+01141+01061102311ADDAA112021191AY161061AY221061GF108991051071004501071999KA1999M+01181MA1999999101591MD1210121+9999MW1501REMSYN088AAXX  21184 08023 11465 82312 10114 20106 30159 40231 52012 60212 75062 8577/ 333 10118;
0161080230999992000102121004+43460-003810FM-12+006599999V0202201N005110120019N0250001N1+01161+01001102431ADDAY151031AY221031GF106991061081008001001001MA1999999101711MD1210121+9999MW1011REMSYN072AAXX  21214 08023 41575 62210 10116 20100 30171 40243 52012 70152 86800;
0178080230999992000102200004+43460-003810FM-12+006599999V0202201N005112200019N0300001N1+01141+00981102501ADDAA106001091AY151061AY221061GF103991011051008001031001MA1999999101781MD1110071+9999MW1021REMSYN078AAXX  22004 08023 11580 32210 10114 20098 30178 40250 51007 69991 70252 81530;
0133080230999992000102203004+43460-003810FM-12+006599999V0202001N004110210019N0400001N1+01181+00981102441ADDGF107991071001022501071999MA1999999101721MD1810061+9999REMSYN066AAXX  22034 08023 42882 72008 10118 20098 30172 40244 58006 8707/;
0185080230999992000102206004+43460-003810FM-12+006599999V0201601N004112200019N0300001N1+01151+01011102431ADDAA112001091GF104991041051017501001001KA1120N+01141MA1999999101711MD1610011+9999REMSYN094AAXX  22064 08023 12780 41608 10115 20101 30171 40243 56001 69992 84500 333 20114 50133 55000;
0133080230999992000102209004+43460-003810FM-12+006599999V0202201N003112200019N0400001N1+01471+01171102421ADDGF101991011051008001001001MA1999999101711MD1510001+9999REMSYN066AAXX  22094 08023 42582 12206 10147 20117 30171 40242 55000 81500;
0163080230999992000102212004+43460-003810FM-12+006599999V0201101N004612200019N0200001N1+01741+01391102271ADDAA199000091GF102991011011008001001021MA1999999101571MD1810141+9999REMSYN066AAXX  22124 08023 32570 21109 10174 20139 30157 40227 58014 81102;EQDQ01  00002PRCP99
0133080230999992000102215004+43460-003810FM-12+006599999V0201001N005112200019N0100001N1+01961+01631101981ADDGF101991001001999999001021MA1999999101291MD1710281+9999REMSYN066AAXX  22154 08023 42960 11010 10196 20163 30129 40198 57028 80002;
0186080230999992000102218004+43460-003810FM-12+006599999V0202601N006212200019N0100001N1+01561+01381102031ADDAA199000091GF102991001001999999001051KA1999M+02121MA1999999101331MD1310041+9999REMSYN076AAXX  22184 08023 32960 22612 10156 20138 30133 40203 53004 80005 333 10212;EQDQ01  00002PRCP99
0133080230999992000102221004+43460-003810FM-12+006599999V0202501N007712200019N0100001N1+01461+01391102221ADDGF102991001001999999001051MA1999999101511MD1210181+9999REMSYN066AAXX  22214 08023 42960 22515 10146 20139 30151 40222 52018 80005;
0163080230999992000102300004+43460-003810FM-12+006599999V0202301N005712200019N0100001N1+01481+01301102321ADDAA199000091GF101991011051008001001001MA1999999101611MD1010101+9999REMSYN066AAXX  23004 08023 32560 12311 10148 20130 30161 40232 50010 81500;EQDQ01  00002PRCP99
0133080230999992000102303004+43460-003810FM-12+006599999V0201601N004112200019N0120001N1+01451+01151102181ADDGF103991031051008001001001MA1999999101471MD1710141+9999REMSYN066AAXX  23034 08023 42562 31608 10145 20115 30147 40218 57014 83500;
0198080230999992000102306004+43460-003810FM-12+006599999V0202301N002610090019N0120001N1+01541+01471102291ADDAA199000091GF106991051081004501031001KA1120N+01441MA1999999101591MD1310121+9999REMSYN088AAXX  23064 08023 32462 62305 10154 20147 30159 40229 53012 85830 333 20144 50163 55094;EQDQ01  00002PRCP99
0133080230999992000102309004+43460-003810FM-12+006599999V0202501N003110360019N0250001N1+01581+01291102331ADDGF106991031051012501031001MA1999999101631MD1210041+9999REMSYN066AAXX  23094 08023 42675 62506 10158 20129 30163 40233 52004 83530;
0163080230999992000102312004+43460-003810FM-12+006599999V0203501N003110150019N0250001N1+01681+01441102391ADDAA199000091GF107991051051017501031001MA1999999101691MD1010061+9999REMSYN066AAXX  23124 08023 32775 73506 10168 20144 30169 40239 50006 85530;EQDQ01  00002PRCP99
0133080230999992000102315004+43460-003810FM-12+006599999V0200301N003610360019N0250001N1+01691+01391102391ADDGF106991031051012501031001MA1999999101691MD1410001+9999REMSYN066AAXX  23154 08023 42675 60307 10169 20139 30169 40239 54000 83530;
0186080230999992000102318004+43460-003810FM-12+006599999V0200501N003110150019N0250001N1+01641+01361102481ADDAA199000091GF107991051081012501071001KA1999M+01821MA1999999101781MD1310091+9999REMSYN076AAXX  23184 08023 32675 70506 10164 20136 30178 40248 53009 85870 333 10182;EQDQ01  00002PRCP99
0133080230999992000102321004+43460-003810FM-12+006599999V0201501N001510360019N0180001N1+01581+01371102531ADDGF108991041081008001071999MA1999999101821MD1210041+9999REMSYN066AAXX  23214 08023 42568 81503 10158 20137 30182 40253 52004 8487/;
0178080230999992000102400004+43460-003810FM-12+006599999V0201301N002110075019N0120001N1+01531+01371102541ADDAA106000791AY121061AY221061GF108991081051008001999999MA1999999101831MD1010011+9999MW1201REMSYN078AAXX  24004 08023 11562 81304 10153 20137 30183 40254 50001 69901 72022 885//;
0133080230999992000102403004+43460-003810FM-12+006599999V0201601N003110120019N0150001N1+01501+01321102511ADDGF108991061051012501071999MA1999999101801MD1710031+9999REMSYN066AAXX  24034 08023 42665 81606 10150 20132 30180 40251 57003 8657/;
0185080230999992000102406004+43460-003810FM-12+006599999V0201401N003110120019N0100001N1+01521+01301102511ADDAA112000791GF107991051081008001071001KA1120N+01501MA1999999101801MD1410001+9999REMSYN094AAXX  24064 08023 12560 71406 10152 20130 30180 40251 54000 69902 85870 333 20150 50093 55029;
0133080230999992000102409004+43460-003810FM-12+006599999V0201001N003610120019N0150001N1+01621+01371102501ADDGF107991051081008001071001MA1999999101801MD1410001+9999REMSYN066AAXX  24094 08023 42565 71007 10162 20137 30180 40250 54000 85870;
0144080230999992000102412004+43460-003810FM-12+006599999V0200801N008212200019N0250001N1+01801+01511102281ADDAA199000021GF103991011051012501001011MA1999999101581MD1810221+9999REMSYN066AAXX  24124 08023 32675 30816 10180 20151 30158 40228 58022 81501;
0161080230999992000102415004+43460-003810FM-12+006599999V0200901N007712200019N0090001N1+01761+01561102161ADDAY101031AY201031GF101991001001999999001011MA1999999101461MD1710121+9999MW1101REMSYN072AAXX  24154 08023 41959 10915 10176 20156 30146 40216 57012 71000 80001;
0214080230999992000102418004+43460-003810FM-12+006599999V0201301N005712200019N0080001N1+01631+01511101991ADDAA199000091AY111061AY201061GF101991001001999999001011KA1999M+01841MA1999999101291MD1710171+9999MW1101REMSYN082AAXX  24184 08023 31958 11311 10163 20151 30129 40199 57017 71010 80001 333 10184;EQDQ01  00002PRCP99
0161080230999992000102421004+43460-003810FM-12+006599999V0201401N005712200019N0090001N1+01621+01451101991ADDAY101031AY201031GF102991001001999999001011MA1999999101291MD1010001+9999MW1101REMSYN072AAXX  24214 08023 41959 21411 10162 20145 30129 40199 50000 71000 80001;
0201080230999992000102500004+43460-003810FM-12+006599999V0202701N004112200019N0090001N1+01531+01481101931ADDAA199000091AY141061AY201061GA1001+999999999GF100991001001999999001001MA1999999101231MD1710061+9999MW1101REMSYN066AAXX  25004 08023 31959 02708 10153 20148 30123 40193 57006 71040;EQDQ01  00002PRCP99
0148080230999992000102503004+43460-003810FM-12+006599999V0202701N005712200019N0090001N1+01491+01421101871ADDGA1001+999999999GF100991001001999999001001MA1999999101171MD1710061+9999REMSYN065AAXX  25034 08023 41959 02711 10149 20142 30117 40187 57006 7100;
0226080230999992000102506004+43460-003810FM-12+006599999V0202501N005712200019N0080001N1+01511+01441101891ADDAA199000091AY141061AY201061GF102991021061008001001001KA1120N+01421MA1999999101191MD1310021+9999MW1101REMSYN094AAXX  25064 08023 31558 22511 10151 20144 30119 40189 53002 71040 82600 333 20142 50153 55066;EQDQ01  00002PRCP99
0161080230999992000102509004+43460-003810FM-12+006599999V0202401N004110075019N0040001N1+01581+01511102001ADDAY121031AY221031GF108991081061008001999999MA1999999101301MD1210111+9999MW1101REMSYN072AAXX  25094 08023 41540 82408 10158 20151 30130 40200 52011 71022 886//;
0191080230999992000102512004+43460-003810FM-12+006599999V0202701N004110075019N0070001N1+01731+01521101991ADDAA199000091AY121061AY221061GF107991071061008001999999MA1999999101291MD1810011+9999MW1101REMSYN072AAXX  25124 08023 31557 72708 10173 20152 30129 40199 58001 71022 876//;EQDQ01  00002PRCP99
0161080230999992000102515004+43460-003810FM-12+006599999V0201601N001010075019N0050001N1+01741+01501101951ADDAY121031AY221031GF108991081061008001999999MA1999999101251MD1710041+9999MW1101REMSYN072AAXX  25154 08023 41550 81602 10174 20150 30125 40195 57004 71022 886//;
0149080230999992000102518004+43460-003810FM-12+006599999V0202201N002119999999N0080001N1+99999+99999999999ADDAA199000091GF108991999999008001999999REMSYN081AAXX  25184 08023 31558 82204 0164 20148 30125 40195 54000 71022 886// 333 10177;EQDQ01  00002PRCP99
0161080230999992000102521004+43460-003810FM-12+006599999V0202501N003110075019N0080001N1+01651+01481101991ADDAY121031AY221031GF108991081061008001999999MA1999999101291MD1210041+9999MW1101REMSYN072AAXX  25214 08023 41558 82506 10165 20148 30129 40199 52004 71022 886//;
0191080230999992000102600004+43460-003810FM-12+006599999V0202301N003110075019N0080001N1+01601+01461102031ADDAA199000091AY121061AY221061GF108991081051008001999999MA1999999101331MD1310041+9999MW1101REMSYN072AAXX  26004 08023 31558 82306 10160 20146 30133 40203 53004 71022 885//;EQDQ01  00002PRCP99
0161080230999992000102603004+43460-003810FM-12+006599999V0202701N004110075019N0080001N1+01551+01461102011ADDAY151031AY221031GF108991081071008001999999MA1999999101311MD1610021+9999MW1531REMSYN072AAXX  26034 08023 41558 82708 10155 20146 30131 40201 56002 75352 887//;
0213080230999992000102606004+43460-003810FM-12+006599999V0202301N004610075019N0080001N1+01511+01461102071ADDAA112002091AY151061AY221061GF108991081051008001999999KA1120N+01511MA1999999101371MD1310061+9999MW1101REMSYN100AAXX  26064 08023 11558 82309 10151 20146 30137 40207 53006 60022 71052 885// 333 20151 50043 55001;
0161080230999992000102609004+43460-003810FM-12+006599999V0202501N005110021019N0030001N1+01521+01411102261ADDAY151031AY221031GF108991081051002501999999MA1999999101551MD1210181+9999MW1511REMSYN072AAXX  26094 08023 41330 82510 10152 20141 30155 40226 52018 75152 885//;
0178080230999992000102612004+43460-003810FM-12+006599999V0202801N004110042019N0050001N1+01541+01431102321ADDAA106000591AY151061AY221061GF108991081051004501999999MA1999999101611MD1110061+9999MW1501REMSYN078AAXX  26124 08023 11450 82808 10154 20143 30161 40232 51006 69941 75052 885//;
0161080230999992000102615004+43460-003810FM-12+006599999V0200401N003110042019N0070001N1+01571+01521102191ADDAY151031AY221031GF108991081071004501999999MA1999999101491MD1710121+9999MW1101REMSYN072AAXX  26154 08023 41457 80406 10157 20152 30149 40219 57012 71052 887//;
0201080230999992000102618004+43460-003810FM-12+006599999V0200801N004110090019N0100001N1+01501+01431102321ADDAA112000591AY151061AY221061GF108991081081004501999999KA1999M+01601MA1999999101611MD1310121+9999MW1021REMSYN088AAXX  26184 08023 11460 80808 10150 20143 30161 40232 53012 69952 70252 888// 333 10160;
0133080230999992000102621004+43460-003810FM-12+006599999V0200901N003610042019N0100001N1+01541+01431102331ADDGF107991071061004501999999MA1999999101621MD1310011+9999REMSYN066AAXX  26214 08023 42460 70907 10154 20143 30162 40233 53001 876//;
0144080230999992000102700004+43460-003810FM-12+006599999V0201201N004110075019N0150001N1+01501+01411102321ADDAA199000021GF108991081061008001999999MA1999999101611MD1810011+9999REMSYN066AAXX  27004 08023 32565 81208 10150 20141 30161 40232 58001 886//;
0133080230999992000102703004+43460-003810FM-12+006599999V0201301N002610075019N0150001N1+01501+01391102291ADDGF107991071061008001001001MA1999999101581MD1710031+9999REMSYN066AAXX  27034 08023 42565 71305 10150 20139 30158 40229 57003 87600;
0226080230999992000102706004+43460-003810FM-12+006599999V0202401N003610075019N0050001N1+01501+01431102301ADDAA199000091AY121061AY221061GF107991071051008001999999KA1120N+01451MA1999999101591MD1310011+9999MW1101REMSYN094AAXX  27064 08023 31550 72407 10150 20143 30159 40230 53001 71022 875// 333 20145 50013 55000;EQDQ01  00002PRCP99
0161080230999992000102709004+43460-003810FM-12+006599999V0202601N004610120019N0050001N1+01581+01371102331ADDAY121031AY221031GF107991071051012501001001MA1999999101631MD1210041+9999MW1101REMSYN072AAXX  27094 08023 41650 72609 10158 20137 30163 40233 52004 71022 87500;
0191080230999992000102712004+43460-003810FM-12+006599999V0202801N005110120019N0070001N1+01681+01541102351ADDAA199000091AY121061AY221061GF107991071051012501001001MA1999999101651MD1210021+9999MW1101REMSYN072AAXX  27124 08023 31657 72810 10168 20154 30165 40235 52002 71022 87500;EQDQ01  00002PRCP99
0161080230999992000102715004+43460-003810FM-12+006599999V0203301N002612200019N0080001N1+01701+01561102271ADDAY121031AY201031GF101991011061008001001001MA1999999101571MD1710081+9999MW1101REMSYN072AAXX  27154 08023 41558 13305 10170 20156 30157 40227 57008 71020 81600;
0230080230999992000102718004+43460-003810FM-12+006599999V0209999C000012200019N0080001N1+01581+01511102281ADDAA199000091AY101061AY201061GF101991001001999999001011KA1999M+01801MA1999999101581MD1310011+9999MW1101REMSYN082AAXX  27184 08023 31958 10000 10158 20151 30158 40228 53001 71000 81001 333 10180;EQDQ01+000012SCOTLCQ02  00002PRCP99
0143080230999992000102721004+43460-003810FM-12+006599999V0201501N004112200019N0100001N1+01501+01431102251ADDGA1001+999999999GF100991001001999999001001MA1999999101541MD1710041+9999REMSYN060AAXX  27214 08023 42960 01508 10150 20143 30154 40225 57004;
0201080230999992000102800004+43460-003810FM-12+006599999V0201201N003112200019N0080001N1+01421+01351102101ADDAA199000091AY101061AY201061GA1001+999999999GF100991001001999999001001MA1999999101391MD1710151+9999MW1101REMSYN066AAXX  28004 08023 31958 01206 10142 20135 30139 40210 57015 71000;EQDQ01  00002PRCP99
0171080230999992000102803004+43460-003810FM-12+006599999V0201601N003112200019N0080001N1+01381+01311101891ADDAY101031AY201031GA1001+999999999GF100991001001999999001001MA1999999101181MD1710211+9999MW1101REMSYN066AAXX  28034 08023 41958 01606 10138 20131 30118 40189 57021 71000;
0236080230999992000102806004+43460-003810FM-12+006599999V0209999C000012200019N0080001N1+01401+01251101681ADDAA199000091AY101061AY201061GA1001+999999999GF100991001001999999001001KA1120N+01301MA1999999100981MD1710201+9999MW1101REMSYN088AAXX  28064 08023 31958 00000 10140 20125 30098 40168 57020 71000 333 20130 50083 55046;EQDQ01  00002PRCP99
0161080230999992000102809004+43460-003810FM-12+006599999V0202601N006212200019N0030001N1+01481+01411101601ADDAY111031AY201031GF103991021001999999031051MA1999999100901MD1710081+9999MW1101REMSYN072AAXX  28094 08023 41930 32612 10148 20141 30090 40160 57008 71010 82035;
0191080230999992000102812004+43460-003810FM-12+006599999V0202601N005119999999N0040001N1+01691+01471101551ADDAA199000091AY121061AY211061GF106991051001999999041051MA1999999100851MD1710051+9999MW1101REMSYN072AAXX  28124 08023 31940 62610 10169 20147 30085 40155 57005 71021 85045;EQDQ01  00002PRCP99
0161080230999992000102815004+43460-003810FM-12+006599999V0202501N004112200019N0050001N1+01741+01541101561ADDAY121031AY221031GF104991011001999999031061MA1999999100871MD1310021+9999MW1101REMSYN072AAXX  28154 08023 41950 42508 10174 20154 30087 40156 53002 71022 81036;
0201080230999992000102818004+43460-003810FM-12+006599999V0203001N010810075019N0050001N1+01421+01291102011ADDAA112000191AY161061AY221061GF108991051071008001071001KA1999M+01821MA1999999101301MD1210431+9999MW1611REMSYN088AAXX  28184 08023 11550 83021 10142 20129 30130 40201 52043 69912 76162 85770 333 10182;
0161080230999992000102821004+43460-003810FM-12+006599999V0202501N005110075019N0050001N1+01361+01211102261ADDAY151031AY221031GF108991061071008001071001MA1999999101551MD1210251+9999MW1511REMSYN072AAXX  28214 08023 41550 82510 10136 20121 30155 40226 52025 75152 86770;
0178080230999992000102900004+43460-003810FM-12+006599999V0202301N003110075019N0050001N1+01221+01161102301ADDAA106000591AY161061AY251061GF108991081071008001001001MA1999999101591MD1210041+9999MW1501REMSYN078AAXX  29004 08023 11550 82306 10122 20116 30159 40230 52004 69951 75065 88700;
0161080230999992000102903004+43460-003810FM-12+006599999V0202401N004610120019N0100001N1+01351+00851102301ADDAY151031AY221031GF108991081081008001001001MA1999999101591MD1410001+9999MW1021REMSYN072AAXX  29034 08023 41560 82409 10135 20085 30159 40230 54000 70252 88800;
0213080230999992000102906004+43460-003810FM-12+006599999V0202801N008210360019N0100001N1+01401+00631102371ADDAA112000591AY151061AY221061GF106991031051008001051001KA1120N+01121MA1999999101661MD1210071+9999MW1011REMSYN100AAXX  29064 08023 11560 62816 10140 20063 30166 40237 52007 69962 70152 83550 333 20112 50173 55055;
0133080230999992000102909004+43460-003810FM-12+006599999V0202301N006210900019N0200001N1+01351+00481102491ADDGF106991031001022501071021MA1999999101781MD1110121+9999REMSYN066AAXX  29094 08023 42870 62312 10135 20048 30178 40249 51012 83072;
0144080230999992000102912004+43460-003810FM-12+006599999V0202701N005112200019N0200001N1+01581+00631102431ADDAA199000021GF102991011081008001031021MA1999999101721MD1710061+9999REMSYN066AAXX  29124 08023 32570 22710 10158 20063 30172 40243 57006 81832;
0133080230999992000102915004+43460-003810FM-12+006599999V0203001N005712200019N0250001N1+01581+00881102321ADDGF102991011001022501041011MA1999999101611MD1710111+9999REMSYN066AAXX  29154 08023 42875 23011 10158 20088 30161 40232 57011 81041;
0186080230999992000102918004+43460-003810FM-12+006599999V0202401N003112200019N0120001N1+01421+00861102211ADDAA199000091GF105991021011008001001011KA1999M+01681MA1999999101501MD1610111+9999REMSYN076AAXX  29184 08023 32562 52406 10142 20086 30150 40221 56011 82101 333 10168;EQDQ01  00002PRCP99
0133080230999992000102921004+43460-003810FM-12+006599999V0202001N004612200019N0150001N1+01291+01001102181ADDGF106991031001022501031011MA1999999101471MD1810031+9999REMSYN066AAXX  29214 08023 42865 62009 10129 20100 30147 40218 58003 83031;
0173080230999992000103000004+43460-003810FM-12+006599999V0201901N006712200019N0150001N1+01181+00771101891ADDAA199000091GA1001+999999999GF100991001001999999001001MA1999999101181MD1710291+9999REMSYN060AAXX  30004 08023 32965 01913 10118 20077 30118 40189 57029;EQDQ01  00002PRCP99
0133080230999992000103003004+43460-003810FM-12+006599999V0201901N006212200019N0150001N1+01261+00821101561ADDGF104991001001999999001011MA1999999100851MD1710331+9999REMSYN066AAXX  30034 08023 42965 41912 10126 20082 30085 40156 57033 80001;
0198080230999992000103006004+43460-003810FM-12+006599999V0202001N008212200019N0200001N1+01501+00451101071ADDAA199000091GF102991021001022501071001KA1120N+01151MA1999999100371MD1710481+9999REMSYN088AAXX  30064 08023 32870 22016 10150 20045 30037 40107 57048 82070 333 20115 50163 55060;EQDQ01  00002PRCP99
0133080230999992000103009004+43460-003810FM-12+006599999V0202001N006710210019N0250001N1+01621+00541100721ADDGF107991071001022501071001MA1999999100031MD1710341+9999REMSYN066AAXX  30094 08023 42875 72013 10162 20054 30003 40072 57034 87070;
0163080230999992000103012004+43460-003810FM-12+006599999V0202001N013910210019N0250001N1+01661+00751100441ADDAA199000091GF108991081001022501071999MA1999999099751MD1710251+9999REMSYN066AAXX  30124 08023 32875 82027 10166 20075 39975 40044 57025 8807/;EQDQ01  00002PRCP99
0133080230999992000103015004+43460-003810FM-12+006599999V0202101N012910360019N0140001N1+01741+00901100191ADDGF108991041081008001071999MA1999999099501MD1710251+9999REMSYN066AAXX  30154 08023 42564 82125 10174 20090 39950 40019 57025 8487/;
0201080230999992000103018004+43460-003810FM-12+006599999V0203101N016410120019N0060001N1+01061+00941100701ADDAA112004191AY161061AY221061GF108991081081008001999999KA1999M+01801MA1999999099991MD1210491+9999MW1611REMSYN088AAXX  30184 08023 11556 83132 10106 20094 39999 40070 52049 60042 76162 888// 333 10180;
0161080230999992000103021004+43460-003810FM-12+006599999V0202401N007710120019N0080001N1+01001+00881100741ADDAY161031AY221031GF108991081081008001999999MA1999999100031MD1210041+9999MW1601REMSYN072AAXX  30214 08023 41558 82415 10100 20088 30003 40074 52004 76062 888//;
0178080230999992000103100004+43460-003810FM-12+006599999V0202701N013412200019N0100001N1+01301+00861100771ADDAA106004191AY161061AY221061GF103991031051008001001001MA1999999100071MD1110041+9999MW1011REMSYN078AAXX  31004 08023 11560 32726 10130 20086 30007 40077 51004 60041 70162 83500;
0133080230999992000103103004+43460-003810FM-12+006599999V0202501N008712200019N0100001N1+01181+00481100811ADDGF103991031051008001001001MA1999999100101MD1210031+9999REMSYN066AAXX  31034 08023 42560 32517 10118 20048 30010 40081 52003 83500;
0185080230999992000103106004+43460-003810FM-12+006599999V0202801N015412200019N0100001N1+01361+00841100891ADDAA112004191GF103991031051008001001001KA1120N+00861MA1999999100191MD1210091+9999REMSYN094AAXX  31064 08023 12560 32830 10136 20084 30019 40089 52009 60042 83500 333 20086 50603 55018;
0161080230999992000103109004+43460-003810FM-12+006599999V0202701N013910120019N0120001N1+01341+01011101161ADDAY161031AY221031GF106991061081008001001001MA1999999100461MD1210271+9999MW1211REMSYN072AAXX  31094 08023 41562 62727 10134 20101 30046 40116 52027 72162 86800;
0178080230999992000103112004+43460-003810FM-12+006599999V0202701N011810120019N0100001N1+01381+01021101361ADDAA106001091AY181061AY261061GF106991061081008001001001MA1999999100661MD1210201+9999MW1601REMSYN078AAXX  31124 08023 11560 62723 10138 20102 30066 40136 52020 60011 76086 86800;
0161080230999992000103115004+43460-003810FM-12+006599999V0202701N014910360019N0100001N1+01361+01051101431ADDAY181031AY221031GF107991041031008001061001MA1999999100731MD1110071+9999MW1251REMSYN072AAXX  31154 08023 41560 72729 10136 20105 30073 40143 51007 72582 84360;
0201080230999992000103118004+43460-003810FM-12+006599999V0202701N011810120019N0100001N1+01371+00961101511ADDAA112002091AY181061AY221061GF107991061081008001061001KA1999M+01501MA1999999100811MD1210081+9999MW1251REMSYN088AAXX  31184 08023 11560 72723 10137 20096 30081 40151 52008 60022 72582 86860 333 10150;
0133080230999992000103121004+43460-003810FM-12+006599999V0202501N008210150019N0100001N1+01311+01021101611ADDGF106991061081012501001001MA1999999100901MD1210091+9999REMSYN066AAXX  31214 08023 42660 62516 10131 20102 30090 40161 52009 86800;
0133080230999992000110103004+43460-003810FM-12+006599999V0202201N005712200019N0150001N1+01201+00681101501ADDGF103991031001022501031001MA1999999100791MD1710101+9999REMSYN066AAXX  01034 08023 42865 32211 10120 20068 30079 40150 57010 83030;
0179080230999992000110106004+43460-003810FM-12+006599999V0202101N006212200019N0150001N1+01161+00531101441ADDAA199000021GF102991011051008001071001KA1120N+01121MA1999999100731MD1510061+9999REMSYN088AAXX  01064 08023 32565 22112 10116 20053 30073 40144 55006 81570 333 20112 50213 55013;
0133080230999992000110109004+43460-003810FM-12+006599999V0202001N006212200019N0500001N1+01321+00651101441ADDGF104991021081008001041051MA1999999100731MD1410001+9999REMSYN066AAXX  01094 08023 42584 42012 10132 20065 30073 40144 54000 82845;
0163080230999992000110112004+43460-003810FM-12+006599999V0202301N004610360019N0200001N1+01721+00801101391ADDAA199000091GF107991011051008001041081MA1999999100691MD1810041+9999REMSYN066AAXX  01124 08023 32570 72309 10172 20080 30069 40139 58004 81548;EQDQ01  00002PRCP99
0133080230999992000110115004+43460-003810FM-12+006599999V0202001N006710360019N0150001N1+01571+00821101251ADDGF107991011051008001041081MA1999999100551MD1710141+9999REMSYN066AAXX  01154 08023 42565 72013 10157 20082 30055 40125 57014 81548;
0186080230999992000110118004+43460-003810FM-12+006599999V0201301N002110360019N0150001N1+01421+00911101191ADDAA199000091GF108991011051008001071999KA1999M+01751MA1999999100491MD1710061+9999REMSYN076AAXX  01184 08023 32565 81304 10142 20091 30049 40119 57006 8157/ 333 10175;EQDQ01  00002PRCP99
0133080230999992000110121004+43460-003810FM-12+006599999V0202001N008710360019N0150001N1+01521+00921100851ADDGF108991011051008001071999MA1999999100151MD1810341+9999REMSYN066AAXX  01214 08023 42565 82017 10152 20092 30015 40085 58034 8157/;
0178080230999992000110200004+43460-003810FM-12+006599999V0202001N010310360019N0150001N1+01481+00981100361ADDAA106000891AY181061AY221061GF108991031081008001071999MA1999999099671MD1710481+9999MW1601REMSYN078AAXX  02004 08023 11565 82020 10148 20098 39967 40036 57048 69971 76082 8387/;
0161080230999992000110203004+43460-003810FM-12+006599999V0202001N010810360019N0150001N1+01621+00981099991ADDAY181031AY261031GF108991041081008001071999MA1999999099301MD1710371+9999MW1021REMSYN072AAXX  02034 08023 41565 82021 10162 20098 39930 49999 57037 70286 8487/;
0213080230999992000110206004+43460-003810FM-12+006599999V0202701N011310090019N0100001N1+01601+01461100191ADDAA112000891AY181061AY261061GF108991051081004501071999KA1120N+01341MA1999999099501MD1310201+9999MW1501REMSYN100AAXX  02064 08023 11460 82722 10160 20146 39950 40019 53020 69972 75086 8587/ 333 20134 50263 55046;
0161080230999992000110209004+43460-003810FM-12+006599999V0202901N011310042019N0200001N1+01481+01341100361ADDAY181031AY221031GF108991061071004501071999MA1999999099671MD1210171+9999MW1251REMSYN072AAXX  02094 08023 41470 82922 10148 20134 39967 40036 52017 72582 8677/;
0178080230999992000110212004+43460-003810FM-12+006599999V0202801N009310120019N0250001N1+01521+01071100501ADDAA106001091AY181061AY221061GF107991071081008001001001MA1999999099811MD1010141+9999MW1251REMSYN078AAXX  02124 08023 11575 72818 10152 20107 39981 40050 50014 60011 72582 87800;
0161080230999992000110215004+43460-003810FM-12+006599999V0203001N011810120019N0200001N1+01421+01311100491ADDAY181031AY221031GF108991071081008001071999MA1999999099791MD1610021+9999MW1601REMSYN072AAXX  02154 08023 41570 83023 10142 20131 39979 40049 56002 76082 8787/;
0201080230999992000110218004+43460-003810FM-12+006599999V0202901N008710120019N0200001N1+01361+00891100511ADDAA112002091AY181061AY261061GF108991081081008001999999KA1999M+01601MA1999999099811MD1310021+9999MW1251REMSYN088AAXX  02184 08023 11570 82917 10136 20089 39981 40051 53002 60022 72586 888// 333 10160;
0161080230999992000110221004+43460-003810FM-12+006599999V0202801N009310120019N0250001N1+01281+00801100481ADDAY181031AY221031GF108991081081008001999999MA1999999099781MD1810031+9999MW1251REMSYN072AAXX  02214 08023 41575 82818 10128 20080 39978 40048 58003 72582 888//;
0178080230999992000110300004+43460-003810FM-12+006599999V0203001N017010075019N0200001N1+01121+00791100431ADDAA106013091AY181061AY221061GF108991081021008001999999MA1999999099731MD1710051+9999MW1291REMSYN078AAXX  03004 08023 11570 83033 10112 20079 39973 40043 57005 60131 72982 882//;
0161080230999992000110303004+43460-003810FM-12+006599999V0203101N015910120019N0200001N1+01021+00591100521ADDAY181031AY221031GF106991061081008001001001MA1999999099811MD1110081+9999MW1251REMSYN072AAXX  03034 08023 41570 63131 10102 20059 39981 40052 51008 72582 86800;
0213080230999992000110306004+43460-003810FM-12+006599999V0202801N013410120019N0250001N1+01101+00491100601ADDAA112014091AY181061AY221061GF107991051081008001061001KA1120N+01001MA1999999099891MD1310081+9999MW1251REMSYN100AAXX  03064 08023 11575 72826 10110 20049 39989 40060 53008 60142 72582 85860 333 20100 50273 55000;
0161080230999992000110309004+43460-003810FM-12+006599999V0202701N016410360019N0120001N1+01221+00431100831ADDAY181031AY221031GF106991041081008001071001MA1999999100131MD1210241+9999MW1151REMSYN072AAXX  03094 08023 41562 62732 10122 20043 30013 40083 52024 71582 84870;
0178080230999992000110312004+43460-003810FM-12+006599999V0202701N013910120019N0080001N1+01211+00641101021ADDAA106001091AY181061AY221061GF107991061081008001071001MA1999999100311MD1210181+9999MW1801REMSYN078AAXX  03124 08023 11558 72727 10121 20064 30031 40102 52018 60011 78082 86870;
0161080230999992000110315004+43460-003810FM-12+006599999V0202901N014910120019N0100001N1+01121+00721101201ADDAY181031AY221031GF107991061081008001071001MA1999999100491MD1210181+9999MW1601REMSYN072AAXX  03154 08023 41560 72929 10112 20072 30049 40120 52018 76082 86870;
0220080230999992000110318004+43460-003810FM-12+006599999V0202601N008210075019N0090001N1+01161+00721101301ADDAA112007991AY181061AY221061GF107991061071008001071001KA1120M+01291KA2999N+00851MA1999999100591MD1210101+9999MW1801REMSYN094AAXX  03184 08023 11559 72616 10116 20072 30059 40130 52010 60082 78082 86770 333 10129 20085;
0161080230999992000110321004+43460-003810FM-12+006599999V0202801N012310120019N0120001N1+01301+00581101421ADDAY181031AY221031GF107991061081008001071001MA1999999100711MD1210121+9999MW1021REMSYN072AAXX  03214 08023 41562 72824 10130 20058 30071 40142 52012 70282 86870;
0178080230999992000110400004+43460-003810FM-12+006599999V0202901N011812200019N0150001N1+01181+00721101491ADDAA106000191AY181061AY211061GF104991031081008001041001MA1999999100781MD1110071+9999MW1021REMSYN078AAXX  04004 08023 11565 42923 10118 20072 30078 40149 51007 69911 70281 83840;
0161080230999992000110403004+43460-003810FM-12+006599999V0203101N010810075019N0090001N1+01221+00941101531ADDAY181031AY221031GF107991061071008001071001MA1999999100821MD1110041+9999MW1251REMSYN072AAXX  04034 08023 41559 73121 10122 20094 30082 40153 51004 72582 86770;
0213080230999992000110406004+43460-003810FM-12+006599999V0202901N013910075019N0090001N1+01161+00791101601ADDAA112001091AY181061AY221061GF107991061071008001071001KA1120N+00851MA1999999100891MD1310071+9999MW1251REMSYN100AAXX  04064 08023 11559 72927 10116 20079 30089 40160 53007 69992 72582 86770 333 20085 50233 55012;
0161080230999992000110409004+43460-003810FM-12+006599999V0202701N011810090019N0140001N1+01241+00701101721ADDAY121031AY221031GF107991061081004501071999MA1999999101011MD1210121+9999MW1151REMSYN072AAXX  04094 08023 41464 72723 10124 20070 30101 40172 52012 71522 8687/;
0178080230999992000110412004+43460-003810FM-12+006599999V0203001N009810090019N0200001N1+01281+00921101811ADDAA106001091AY181061AY221061GF108991051081004501061999MA1999999101101MD1010091+9999MW1021REMSYN078AAXX  04124 08023 11470 83019 10128 20092 30110 40181 50009 69991 70282 8586/;
0133080230999992000110415004+43460-003810FM-12+006599999V0202801N005110360019N0200001N1+01381+00911101771ADDGF106991041081008001061081MA1999999101061MD1710041+9999REMSYN066AAXX  04154 08023 42570 62810 10138 20091 30106 40177 57004 84868;
0173080230999992000110418004+43460-003810FM-12+006599999V0201301N003610360019N0140001N1+01201+00961101801ADDAA112001091GF106991041081008001061081KA1999M+01451MA1999999101091MD1110031+9999REMSYN082AAXX  04184 08023 12564 61307 10120 20096 30109 40180 51003 60012 84868 333 10145;
0133080230999992000110421004+43460-003810FM-12+006599999V0201401N004110360019N0120001N1+01131+00911101681ADDGF105991021081008001031001MA1999999100971MD1710121+9999REMSYN066AAXX  04214 08023 42562 51408 10113 20091 30097 40168 57012 82830;
0178080230999992000110500004+43460-003810FM-12+006599999V0202001N008210900019N0140001N1+01281+00651101401ADDAA106000791AY151061AY221061GF105991021081008001031081MA1999999100691MD1710281+9999MW1201REMSYN078AAXX  05004 08023 11564 52016 10128 20065 30069 40140 57028 69901 72052 82838;
0161080230999992000110503004+43460-003810FM-12+006599999V0202001N009810075019N0120001N1+01241+00701101121ADDAY181031AY221031GF108991051071008001071999MA1999999100411MD1710281+9999MW1251REMSYN072AAXX  05034 08023 41562 82019 10124 20070 30041 40112 57028 72582 8577/;
0213080230999992000110506004+43460-003810FM-12+006599999V0202001N010810120019N0140001N1+01461+00731100791ADDAA112001091AY181061AY221061GF108991061081008001071999KA1120N+01131MA1999999100091MD1710321+9999MW1501REMSYN100AAXX  05064 08023 11564 82021 10146 20073 30009 40079 57032 60012 75082 8687/ 333 20113 50193 55017;
0161080230999992000110515004+43460-003810FM-12+006599999V0202001N009810360019N0060001N1+01631+01211099921ADDAY161031AY221031GF108991041071012501071999MA1999999099231MD1710271+9999MW1601REMSYN072AAXX  05154 08023 41656 82019 10163 20121 39923 49992 57027 76062 8477/;
0236080230999992000110518004+43460-003810FM-12+006599999V0202001N008710360019N0200001N1+01921+01291099292ADDAA112006191AY161061AY221061GF108991021071012501071999KA1999M+01941MA1999999098612MD1710621+9999MW1601REMSYN088AAXX  05184 08023 11670 82017 10192 20129 39861 49929 57062 60062 76062 8277/ 333 10194;EQDQ01+098613APOSP Q02+099293APOSLP
0161080230999992000110521004+43460-003810FM-12+006599999V0203001N021110021019N0030001N1+01281+01211099401ADDAY161031AY221031GF108991081071002501999999MA1999999098711MD1310101+9999MW1621REMSYN072AAXX  05214 08023 41330 83041 10128 20121 39871 49940 53010 76262 887//;
0178080230999992000110600004+43460-003810FM-12+006599999V0202701N017012200019N0100001N1+01421+00871099221ADDAA106010991AY161061AY221061GF104991031021008001061999MA1999999098531MD1810181+9999MW1211REMSYN078AAXX  06004 08023 11560 42733 10142 20087 39853 49922 58018 60111 72162 8326/;
0133080230999992000110603004+43460-003810FM-12+006599999V0202701N017512200019N0200001N1+01441+00811099111ADDGF103991031081008001001001MA1999999098421MD1710111+9999REMSYN066AAXX  06034 08023 42570 32734 10144 20081 39842 49911 57011 83800;
0213080230999992000110606004+43460-003810FM-12+006599999V0202701N021112200019N0200001N1+01441+00621099141ADDAA112010991AY111061AY201061GF103991011091012501071001KA1120N+01221MA1999999098451MD1310031+9999MW1131REMSYN100AAXX  06064 08023 11670 32741 10144 20062 39845 49914 53003 60112 71310 81970 333 20122 50133 55000;
0161080230999992000110609004+43460-003810FM-12+006599999V0202701N023610360019N0080001N1+01221+00731099181ADDAY121031AY221031GF106991041081008001031001MA1999999098491MD1210041+9999MW1251REMSYN072AAXX  06094 08023 41558 62746 10122 20073 39849 49918 52004 72522 84830;
0178080230999992000110612004+43460-003810FM-12+006599999V0202501N022610360019N0080001N1+01221+00711099381ADDAA106003091AY181061AY221061GF106991041081008001031011MA1999999098691MD1210201+9999MW1801REMSYN078AAXX  06124 08023 11558 62544 10122 20071 39869 49938 52020 60031 78082 84831;
0187080230999992000110615004+43460-003810FM-12+006599999V0202701N023612200019N0080001N1+01241+00591099351ADDAY181031AY221031GA1011+008009099GF104991021091008001061031MA1999999098661MD1810031+9999MW1051REMSYN082AAXX  06154 08023 41558 42746 10124 20059 39866 49935 58003 70582 82963 333 81995;
0220080230999992000110618004+43460-003810FM-12+006599999V0202601N021110120019N0080001N1+01101+00591099491ADDAA112006191AY181061AY221061GF108991061081008001061011KA1120M+01561KA2999N+01081MA1999999098791MD1210131+9999MW1801REMSYN094AAXX  06184 08023 11558 82641 10110 20059 39879 49949 52013 60062 78082 86861 333 10156 20108;
0161080230999992000110621004+43460-003810FM-12+006599999V0202601N020010120019N0080001N1+01021+00711099711ADDAY181031AY221031GF107991061081008001031011MA1999999099011MD1210221+9999MW1251REMSYN072AAXX  06214 08023 41558 72639 10102 20071 39901 49971 52022 72582 86831;
0204080230999992000110700004+43460-003810FM-12+006599999V0202601N018510360019N0080001N1+00861+00601099841ADDAA106016091AY181061AY281061GA1011+008009099GF108991031091008001061031MA1999999099131MD1210121+9999MW1961REMSYN088AAXX  07004 08023 11558 82636 10086 20060 39913 49984 52012 60161 79688 83963 333 81995;
0161080230999992000110703004+43460-003810FM-12+006599999V0202501N021110120019N0080001N1+00831+00591099931ADDAY191031AY281031GF108991051081008001031999MA1999999099221MD1210091+9999MW1801REMSYN072AAXX  07034 08023 41558 82541 10083 20059 39922 49993 52009 78098 8583/;
0213080230999992000110706004+43460-003810FM-12+006599999V0202501N015910120019N0070001N1+00801+00391099921ADDAA112024991AY191061AY281061GF108991051081008001031999KA1120N+00781MA1999999099211MD1810011+9999MW1801REMSYN100AAXX  07064 08023 11557 82531 10080 20039 39921 49992 58001 60252 78098 8583/ 333 20078 50013 55021;
0187080230999992000110709004+43460-003810FM-12+006599999V0202701N014910075019N0150001N1+00841+00531100131ADDAY181031AY221031GA1021+008009099GF107991051031008001071001MA1999999099421MD1310211+9999MW1251REMSYN082AAXX  07094 08023 41565 72729 10084 20053 39942 40013 53021 72582 85370 333 82995;
0178080230999992000110712004+43460-003810FM-12+006599999V0202701N017010120019N0090001N1+01071+00551100231ADDAA106003091AY181061AY261061GF108991051081008001071001MA1999999099531MD1110111+9999MW1601REMSYN078AAXX  07124 08023 11559 82733 10107 20055 39953 40023 51011 60031 76086 85870;
0187080230999992000110715004+43460-003810FM-12+006599999V0202701N016410360019N0200001N1+01181+00481100191ADDAY161031AY221031GA1011+008009099GF105991031091008001031081MA1999999099491MD1810041+9999MW1021REMSYN082AAXX  07154 08023 41570 52732 10118 20048 39949 40019 58004 70262 83938 333 81995;
0201080230999992000110718004+43460-003810FM-12+006599999V0202801N014910360019N0100001N1+01101+00491100271ADDAA112004191AY161061AY221061GF105991031081008001031001KA1999M+01221MA1999999099571MD1110081+9999MW1021REMSYN088AAXX  07184 08023 11560 52829 10110 20049 39957 40027 51008 60042 70262 83830 333 10122;
0161080230999992000110721004+43460-003810FM-12+006599999V0202701N014410360019N0100001N1+01081+00461100311ADDAY181031AY221031GF106991041081008001031001MA1999999099611MD1110041+9999MW1021REMSYN072AAXX  07214 08023 41560 62728 10108 20046 39961 40031 51004 70282 84830;
0185080230999992000110806004+43460-003810FM-12+006599999V0202701N016410360019N0100001N1+01161+00561100251ADDAA112000791GF106991041081008001061001KA1120N+01101MA1999999099551MD1010001+9999REMSYN094AAXX  08064 08023 12560 62732 10116 20056 39955 40025 50000 69902 84860 333 20110 50823 55018;
0133080230999992000110809004+43460-003810FM-12+006599999V0202801N015910360019N0300001N1+01191+00501100411ADDGF106991041081008001041001MA1999999099711MD1210161+9999REMSYN066AAXX  08094 08023 42580 62831 10119 20050 39971 40041 52016 84840;
0178080230999992000110812004+43460-003810FM-12+006599999V0202701N017510360019N0300001N1+01261+00631100601ADDAA106000791AY161061AY221061GF106991041081008001041081MA1999999099901MD1210191+9999MW1021REMSYN078AAXX  08124 08023 11580 62734 10126 20063 39990 40060 52019 69901 70262 84848;
0161080230999992000110815004+43460-003810FM-12+006599999V0202801N017510120019N0200001N1+01161+00661100611ADDAY121031AY221031GF107991051081008001071081MA1999999099911MD1210011+9999MW1251REMSYN072AAXX  08154 08023 41570 72834 10116 20066 39991 40061 52001 72522 85878;
0201080230999992000110818004+43460-003810FM-12+006599999V0202801N013910360019N0200001N1+01091+00691100821ADDAA112000791AY181061AY221061GF106991031081008001071081KA1999M+01281MA1999999100111MD1210201+9999MW1211REMSYN088AAXX  08184 08023 11570 62827 10109 20069 30011 40082 52020 69902 72182 83878 333 10128;
0161080230999992000110821004+43460-003810FM-12+006599999V0202701N014910120019N0150001N1+01041+00841101041ADDAY181031AY221031GF107991071081008001999999MA1999999100331MD1210221+9999MW1021REMSYN072AAXX  08214 08023 41565 72729 10104 20084 30033 40104 52022 70282 878//;
0178080230999992000110900004+43460-003810FM-12+006599999V0202501N006710075019N0150001N1+00941+00731101201ADDAA106000591AY181061AY221061GF107991071021008001999999MA1999999100491MD1110161+9999MW1801REMSYN078AAXX  09004 08023 11565 72513 10094 20073 30049 40120 51016 69951 78082 872//;
0161080230999992000110903004+43460-003810FM-12+006599999V0202301N007212200019N0200001N1+00941+00541101221ADDAY181031AY221031GF101991011021008001001001MA1999999100511MD1210021+9999MW1011REMSYN072AAXX  09034 08023 41570 12314 10094 20054 30051 40122 52002 70182 81200;
0213080230999992000110906004+43460-003810FM-12+006599999V0202101N006712200019N0200001N1+00901+00181101271ADDAA112000591AY181061AY211061GF101991011001022501041001KA1120N+00831MA1999999100551MD1110041+9999MW1021REMSYN100AAXX  09064 08023 11870 12113 10090 20018 30055 40127 51004 69962 70281 81040 333 20083 50253 55034;
0161080230999992000110909004+43460-003810FM-12+006599999V0202401N007710360019N0100001N1+01021+00221101421ADDAY121031AY221031GF107991021021008001021001MA1999999100711MD1210161+9999MW1601REMSYN072AAXX  09094 08023 41560 72415 10102 20022 30071 40142 52016 76022 82220;
0178080230999992000110912004+43460-003810FM-12+006599999V0202301N006210360019N0200001N1+01021+00681101581ADDAA106000891AY161061AY221061GF106991041081008001041001MA1999999100871MD1010161+9999MW1021REMSYN078AAXX  09124 08023 11570 62312 10102 20068 30087 40158 50016 69971 70262 84840;
0161080230999992000110915004+43460-003810FM-12+006599999V0202701N012310120019N0250001N1+01361+00601101541ADDAY121031AY221031GF107991071081008001999999MA1999999100831MD1610041+9999MW1151REMSYN072AAXX  09154 08023 41575 72724 10136 20060 30083 40154 56004 71522 878//;
0201080230999992000110918004+43460-003810FM-12+006599999V0202801N009810075019N0100001N1+01061+00721101801ADDAA112001091AY161061AY221061GF107991061021008001041031KA1999M+01381MA1999999101091MD1210261+9999MW1601REMSYN088AAXX  09184 08023 11560 72819 10106 20072 30109 40180 52026 69992 76062 86243 333 10138;
0133080230999992000110921004+43460-003810FM-12+006599999V0202401N006710360019N0100001N1+00941+00771102111ADDGF106991041021008001041021MA1999999101391MD1210301+9999REMSYN066AAXX  09214 08023 42560 62413 10094 20077 30139 40211 52030 84242;
0178080230999992000111000004+43460-003810FM-12+006599999V0202401N005110120019N0100001N1+00891+00721102141ADDAA106004191AY181061AY221061GF106991061081008001001001MA1999999101421MD1210031+9999MW1251REMSYN078AAXX  10004 08023 11560 62410 10089 20072 30142 40214 52003 60041 72582 86800;
0161080230999992000111003004+43460-003810FM-12+006599999V0202201N005110075019N0100001N1+00901+00691102191ADDAY181031AY221031GF108991081021008001999999MA1999999101471MD1210051+9999MW1801REMSYN072AAXX  10034 08023 41560 82210 10090 20069 30147 40219 52005 78082 882//;
0213080230999992000111006004+43460-003810FM-12+006599999V0202101N006210075019N0100001N1+00921+00541102231ADDAA112005191AY181061AY221061GF107991071021008001999999KA1120N+00841MA1999999101511MD1210041+9999MW1021REMSYN100AAXX  10064 08023 11560 72112 10092 20054 30151 40223 52004 60052 70282 872// 333 20084 50173 55037;
0133080230999992000111009004+43460-003810FM-12+006599999V0202001N005112200019N0300001N1+01001+00611102341ADDGF101991011051008001001001MA1999999101621MD1210111+9999REMSYN066AAXX  10094 08023 42580 12010 10100 20061 30162 40234 52011 81500;
0144080230999992000111012004+43460-003810FM-12+006599999V0203501N002612200019N0750001N1+01301+00671102401ADDAA199000021GF101991011051008001031001MA1999999101691MD1010071+9999REMSYN066AAXX  10124 08023 32589 13505 10130 20067 30169 40240 50007 81530;
0133080230999992000111015004+43460-003810FM-12+006599999V0200501N004112200019N0300001N1+01281+00791102281ADDGF101991011011017501001011MA1999999101571MD1710121+9999REMSYN066AAXX  10154 08023 42780 10508 10128 20079 30157 40228 57012 81101;
0196080230999992000111018004+43460-003810FM-12+006599999V0201101N004112200019N0300001N1+01101+00771102331ADDAA199000091GA1001+999999999GF100991001001999999001001KA1999M+01401MA1999999101611MD1310041+9999REMSYN070AAXX  10184 08023 32980 01108 10110 20077 30161 40233 53004 333 10140;EQDQ01  00002PRCP99
0143080230999992000111021004+43460-003810FM-12+006599999V0201501N004612200019N0200001N1+01001+00791102341ADDGA1001+999999999GF100991001001999999001001MA1999999101621MD1110011+9999REMSYN060AAXX  10214 08023 42970 01509 10100 20079 30162 40234 51001;
0173080230999992000111100004+43460-003810FM-12+006599999V0202201N002112200019N0150001N1+00961+00591102291ADDAA199000091GA1001+999999999GF100991001001999999001001MA1999999101571MD1810051+9999REMSYN060AAXX  11004 08023 32965 02204 10096 20059 30157 40229 58005;EQDQ01  00002PRCP99
0143080230999992000111103004+43460-003810FM-12+006599999V0201501N001012200019N0150001N1+00851+00611102141ADDGA1001+999999999GF100991001001999999001001MA1999999101421MD1710151+9999REMSYN060AAXX  11034 08023 42965 01502 10085 20061 30142 40214 57015;
0208080230999992000111106004+43460-003810FM-12+006599999V0202401N006212200019N0200001N1+00941+00341102091ADDAA199000091GA1001+999999999GF100991001001999999001001KA1120N+00741MA1999999101371MD1610051+9999REMSYN082AAXX  11064 08023 32970 02412 10094 20034 30137 40209 56005 333 20074 50093 55088;EQDQ01  00002PRCP99
0133080230999992000111109004+43460-003810FM-12+006599999V0202401N004612200019N0300001N1+01071+00311102131ADDGF104991041001022501041001MA1999999101411MD1310041+9999REMSYN066AAXX  11094 08023 42880 42409 10107 20031 30141 40213 53004 84040;
0163080230999992000111112004+43460-003810FM-12+006599999V0200101N002112200019N0300001N1+01301+00861102021ADDAA199000091GF103991031001022501041001MA1999999101311MD1810101+9999REMSYN066AAXX  11124 08023 32880 30104 10130 20086 30131 40202 58010 83040;EQDQ01  00002PRCP99
0133080230999992000111115004+43460-003810FM-12+006599999V0200701N003112200019N0200001N1+01341+00971101821ADDGF102991011001022501041011MA1999999101111MD1710201+9999REMSYN066AAXX  11154 08023 42870 20706 10134 20097 30111 40182 57020 81041;
0133080230999992000111121004+43460-003810FM-12+006599999V0202501N001510900019N0150001N1+01191+00931101691ADDGF105991011001022501041051MA1999999100981MD1810071+9999REMSYN066AAXX  11214 08023 42865 52503 10119 20093 30098 40169 58007 81045;
0163080230999992000111200004+43460-003810FM-12+006599999V0202101N010810900019N0150001N1+01441+00561101411ADDAA199000091GF105991031001022501041021MA1999999100711MD1710271+9999REMSYN066AAXX  12004 08023 32865 52121 10144 20056 30071 40141 57027 83042;EQDQ01  00002PRCP99
0133080230999992000111203004+43460-003810FM-12+006599999V0202001N012910900019N0150001N1+01541+00481101071ADDGF106991031001022501041081MA1999999100371MD1710341+9999REMSYN066AAXX  12034 08023 42865 62025 10154 20048 30037 40107 57034 83048;
0198080230999992000111206004+43460-003810FM-12+006599999V0202001N011310900019N0150001N1+01561+00761100751ADDAA199000091GF107991031001022501041081KA1120N+01141MA1999999100051MD1710321+9999REMSYN088AAXX  12064 08023 32865 72022 10156 20076 30005 40075 57032 83048 333 20114 50363 55077;EQDQ01  00002PRCP99
0161080230999992000111209004+43460-003810FM-12+006599999V0201901N011310360019N0300001N1+01541+00881100541ADDAY121031AY221031GF108991011071008001021081MA1999999099851MD1710201+9999MW1601REMSYN072AAXX  12094 08023 41580 81922 10154 20088 39985 40054 57020 76022 81728;
0178080230999992000111212004+43460-003810FM-12+006599999V0202101N014410360019N0300001N1+01601+00861100361ADDAA106001091AY161061AY221061GF108991031071012501021999MA1999999099671MD1710181+9999MW1601REMSYN078AAXX  12124 08023 11680 82128 10160 20086 39967 40036 57018 60011 76062 8372/;
0161080230999992000111215004+43460-003810FM-12+006599999V0203001N007210075019N0100001N1+01261+01111100441ADDAY161031AY221031GF108991051051008001071001MA1999999099741MD1310071+9999MW1601REMSYN072AAXX  12154 08023 41560 83014 10126 20111 39974 40044 53007 76062 85570;
0201080230999992000111218004+43460-003810FM-12+006599999V0203001N013910075019N0100001N1+01171+01031100471ADDAA112002091AY161061AY221061GF108991051071008001021999KA1999M+01651MA1999999099771MD1310031+9999MW1601REMSYN088AAXX  12184 08023 11560 83027 10117 20103 39977 40047 53003 60022 76062 8572/ 333 10165;
0161080230999992000111221004+43460-003810FM-12+006599999V0202701N006210075019N0100001N1+01101+00981100481ADDAY161031AY221031GF108991051071008001021999MA1999999099781MD1210011+9999MW1611REMSYN072AAXX  12214 08023 41560 82712 10110 20098 39978 40048 52001 76162 8572/;
0178080230999992000111300004+43460-003810FM-12+006599999V0202201N005110120019N0200001N1+01021+00901100531ADDAA106008991AY161061AY221061GF108991081081008001999999MA1999999099821MD1210041+9999MW1201REMSYN078AAXX  13004 08023 11570 82210 10102 20090 39982 40053 52004 60091 72062 888//;
0161080230999992000111303004+43460-003810FM-12+006599999V0202101N004610360019N0200001N1+01001+00791100531ADDAY121031AY221031GF108991031051008001071999MA1999999099821MD1410001+9999MW1211REMSYN072AAXX  13034 08023 41570 82109 10100 20079 39982 40053 54000 72122 8357/;
0213080230999992000111306004+43460-003810FM-12+006599999V0202201N006210120019N0250001N1+01041+00881100531ADDAA112008991AY161061AY251061GF107991071081008001001001KA1120N+01001MA1999999099821MD1410001+9999MW1021REMSYN100AAXX  13064 08023 11575 72212 10104 20088 39982 40053 54000 60092 70265 87800 333 20100 50103 55000;
0133080230999992000111309004+43460-003810FM-12+006599999V0202301N006712200019N0250001N1+01151+00831100611ADDGF104991031021008001031001MA1999999099911MD1310091+9999REMSYN066AAXX  13094 08023 42575 42313 10115 20083 39991 40061 53009 83230;
0144080230999992000111312004+43460-003810FM-12+006599999V0202801N012312200019N0250001N1+01221+00881100671ADDAA199000021GF104991031021008001031001MA1999999099971MD1110061+9999REMSYN066AAXX  13124 08023 32575 42824 10122 20088 39997 40067 51006 83230;
0186080230999992000111318004+43460-003810FM-12+006599999V0202801N008212200019N0250001N1+01121+00881100721ADDAA199000091GF104991031021008001071001KA1999M+01341MA1999999100011MD1310071+9999REMSYN076AAXX  13184 08023 32575 42816 10112 20088 30001 40072 53007 83270 333 10134;EQDQ01  00002PRCP99
0133080230999992000111321004+43460-003810FM-12+006599999V0202801N008210120019N0200001N1+01121+00841100801ADDGF106991051081008001071001MA1999999100091MD1210081+9999REMSYN066AAXX  13214 08023 42570 62816 10112 20084 30009 40080 52008 85870;
0163080230999992000111400004+43460-003810FM-12+006599999V0202301N005712200019N0200001N1+00961+00711100821ADDAA199000091GF102991021081008001001001MA1999999100111MD1110021+9999REMSYN066AAXX  14004 08023 32570 22311 10096 20071 30011 40082 51002 82800;EQDQ01  00002PRCP99
0133080230999992000111403004+43460-003810FM-12+006599999V0202101N004610360019N0200001N1+00881+00621100801ADDGF105991031081012501031041MA1999999100091MD1810021+9999REMSYN066AAXX  14034 08023 42670 52109 10088 20062 30009 40080 58002 83834;
0198080230999992000111406004+43460-003810FM-12+006599999V0202101N006710360019N0200001N1+00831+00611100801ADDAA199000091GF105991031081012501031021KA1120N+00801MA1999999100091MD1510001+9999REMSYN088AAXX  14064 08023 32670 52113 10083 20061 30009 40080 55000 83832 333 20080 50253 55067;EQDQ01  00002PRCP99
0187080230999992000111409004+43460-003810FM-12+006599999V0202101N006212200019N0120001N1+00941+00591100941ADDAY191031AY221031GA1021+004509099GF103991031091004501001001MA1999999100231MD1210141+9999MW1171REMSYN082AAXX  14094 08023 41462 32112 10094 20059 30023 40094 52014 71792 83900 333 82994;
0223080230999992000111412004+43460-003810FM-12+006599999V0202701N00411007501CN0100001N1+01211+00761101101ADDAA199000091AY191061AY221061GA1021+008009099GF105991051091008001001001MA1999999100391MD1210161+9999MW1151REMSYN088AAXX  14124 08023 31560 52708 10121 20076 30039 40110 52016 71592 85900 333 82995 83895;EQDQ01  00002PRCP99
0133080230999992000111415004+43460-003810FM-12+006599999V0202801N007210042019N0300001N1+01191+00691101141ADDGF106991061031004501001001MA1999999100431MD1310041+9999REMSYN066AAXX  14154 08023 42480 62814 10119 20069 30043 40114 53004 86300;
0229080230999992000111418004+43460-003810FM-12+006599999V0201901N00511004201CN0100001N1+00911+00631101351ADDAA112006191AY191061AY281061GA1031+004509099GF107991071091004501001001KA1120M+01301MA1999999100631MD1210201+9999MW1171REMSYN100AAXX  14184 08023 11460 71910 10091 20063 30063 40135 52020 60062 71798 87900 333 10130 83994 84895;
0161080230999992000111421004+43460-003810FM-12+006599999V0202301N003110120019N0100001N1+00821+00601101531ADDAY191031AY281031GF108991081081008001999999MA1999999100811MD1210181+9999MW1811REMSYN072AAXX  14214 08023 41560 82306 10082 20060 30081 40153 52018 78198 888//;
0178080230999992000111500004+43460-003810FM-12+006599999V0201301N002610075019N0100001N1+00781+00651101651ADDAA106005191AY191061AY261061GF107991071071008001999999MA1999999100931MD1210121+9999MW1511REMSYN078AAXX  15004 08023 11560 71305 10078 20065 30093 40165 52012 60051 75196 877//;
0161080230999992000111503004+43460-003810FM-12+006599999V0202201N006712200019N0120001N1+00811+00571101651ADDAY151031AY221031GF102991021081008001001001MA1999999100931MD1410001+9999MW1011REMSYN072AAXX  15034 08023 41562 22213 10081 20057 30093 40165 54000 70152 82800;
0213080230999992000111506004+43460-003810FM-12+006599999V0202301N007712200019N0100001N1+00841+00531101701ADDAA112007191AY161061AY221061GF102991021021008001001001KA1120N+00761MA1999999100981MD1310051+9999MW1021REMSYN100AAXX  15064 08023 11560 22315 10084 20053 30098 40170 53005 60072 70262 82200 333 20076 50153 55075;
0133080230999992000111509004+43460-003810FM-12+006599999V0202301N006712200019N0300001N1+00901+00571101911ADDGF104991041021008001001001MA1999999101191MD1210211+9999REMSYN066AAXX  15094 08023 42580 42313 10090 20057 30119 40191 52021 84200;
0144080230999992000111512004+43460-003810FM-12+006599999V0202701N006712200019N0300001N1+01241+00881101881ADDAA199000021GF103991031021008001001011MA1999999101171MD1810021+9999REMSYN066AAXX  15124 08023 32580 32713 10124 20088 30117 40188 58002 83201;
0133080230999992000111515004+43460-003810FM-12+006599999V0202801N004112200019N0250001N1+01261+00861101821ADDGF103991021021008001041011MA1999999101111MD1510061+9999REMSYN066AAXX  15154 08023 42575 32808 10126 20086 30111 40182 55006 82241;
0186080230999992000111518004+43460-003810FM-12+006599999V0201901N003610360019N0200001N1+01141+00771101881ADDAA199000091GF106991021021008001031011KA1999M+01301MA1999999101171MD1310061+9999REMSYN076AAXX  15184 08023 32570 61907 10114 20077 30117 40188 53006 82231 333 10130;EQDQ01  00002PRCP99
0133080230999992000111521004+43460-003810FM-12+006599999V0202001N004112200019N0200001N1+00961+00751101891ADDGF103991011021008001001011MA1999999101171MD1410001+9999REMSYN066AAXX  15214 08023 42570 32008 10096 20075 30117 40189 54000 81201;
0163080230999992000111600004+43460-003810FM-12+006599999V0202001N006212200019N0200001N1+00891+00561101811ADDAA199000091GF101991001001999999001011MA1999999101091MD1810081+9999REMSYN066AAXX  16004 08023 32970 12012 10089 20056 30109 40181 58008 80001;EQDQ01  00002PRCP99
0133080230999992000111603004+43460-003810FM-12+006599999V0202001N007210900019N0150001N1+00931+00601101671ADDGF106991041001022501031081MA1999999100951MD1710141+9999REMSYN066AAXX  16034 08023 42865 62014 10093 20060 30095 40167 57014 84038;
0198080230999992000111606004+43460-003810FM-12+006599999V0202101N007210210019N0150001N1+01021+00331101541ADDAA199000091GF108991061001022501071081KA1120N+00841MA1999999100831MD1710121+9999REMSYN088AAXX  16064 08023 32865 82114 10102 20033 30083 40154 57012 86078 333 20084 50563 55081;EQDQ01  00002PRCP99
0161080230999992000111609004+43460-003810FM-12+006599999V0202201N008210150019N0080001N1+00951+00581101571ADDAY161031AY251031GF108991081001017501021999MA1999999100851MD1310021+9999MW1581REMSYN072AAXX  16094 08023 41758 82216 10095 20058 30085 40157 53002 75865 8802/;
0178080230999992000111612004+43460-003810FM-12+006599999V0202301N007710042019N0100001N1+01121+00841101541ADDAA106001091AY161061AY251061GF107991071071004501999999MA1999999100831MD1810021+9999MW1021REMSYN078AAXX  16124 08023 11460 72315 10112 20084 30083 40154 58002 60011 70265 877//;
0161080230999992000111615004+43460-003810FM-12+006599999V0203001N009810090019N0120001N1+01301+00791101611ADDAY121031AY221031GF108991081081004501999999MA1999999100901MD1310071+9999MW1801REMSYN072AAXX  16154 08023 41462 83019 10130 20079 30090 40161 53007 78022 888//;
0201080230999992000111618004+43460-003810FM-12+006599999V0202401N005710021019N0080001N1+00981+00901101851ADDAA112003091AY161061AY221061GF108991081051002501999999KA1999M+01351MA1999999101131MD1210231+9999MW1621REMSYN088AAXX  16184 08023 11358 82411 10098 20090 30113 40185 52023 60032 76262 885// 333 10135;
0161080230999992000111621004+43460-003810FM-12+006599999V0202901N008212200019N0100001N1+01201+00791101961ADDAY181031AY221031GF104991041051008001001001MA1999999101251MD1210121+9999MW1011REMSYN072AAXX  16214 08023 41560 42916 10120 20079 30125 40196 52012 70182 84500;
0178080230999992000111700004+43460-003810FM-12+006599999V0203301N009310120019N0100001N1+01141+00861102041ADDAA106001091AY181061AY221061GF106991061081008001999999MA1999999101331MD1210081+9999MW1251REMSYN078AAXX  17004 08023 11560 63318 10114 20086 30133 40204 52008 60011 72582 868//;
0133080230999992000111703004+43460-003810FM-12+006599999V0203201N009312200019N0150001N1+01161+00791102081ADDGF104991041081008001999999MA1999999101371MD1110041+9999REMSYN066AAXX  17034 08023 42565 43218 10116 20079 30137 40208 51004 848//;
0207080230999992000111706004+43460-003810FM-12+006599999V0202801N008210360019N0150001N1+99999+99999102211ADDAA112001091AY121061AY221061GF106991041021008001061001KA1120N+01041MA1999999101491MD1210121+9999MW1161REMSYN094AAXX  17064 08023 11565 62816 20068 30149 40221 52012 60012 71622 84260 333 20104 50373 55000;
0161080230999992000111709004+43460-003810FM-12+006599999V0202901N008210075019N0120001N1+01081+00651102331ADDAY181031AY221031GF106991051021008001061001MA1999999101611MD1210121+9999MW1021REMSYN072AAXX  17094 08023 41562 62916 10108 20065 30161 40233 52012 70282 85260;
0178080230999992000111712004+43460-003810FM-12+006599999V0202801N008210075019N0100001N1+01121+00961102411ADDAA106002091AY181061AY221061GF106991061021008001001001MA1999999101691MD1210081+9999MW1601REMSYN078AAXX  17124 08023 11560 62816 10112 20096 30169 40241 52008 60021 76082 86200;
0161080230999992000111715004+43460-003810FM-12+006599999V0202901N007212200019N0250001N1+01101+00861102391ADDAY181031AY221031GF105991041021008001001011MA1999999101671MD1810021+9999MW1021REMSYN072AAXX  17154 08023 41575 52914 10110 20086 30167 40239 58002 70282 84201;
0201080230999992000111718004+43460-003810FM-12+006599999V0203001N009810075019N0080001N1+01141+00811102441ADDAA112004191AY181061AY261061GF107991071021008001001001KA1999M+01351MA1999999101721MD1110051+9999MW1611REMSYN088AAXX  17184 08023 11558 73019 10114 20081 30172 40244 51005 60042 76186 87200 333 10135;
0161080230999992000111721004+43460-003810FM-12+006599999V0202901N008710075019N0100001N1+01141+00941102541ADDAY161031AY221031GF106991061021008001001001MA1999999101821MD1210101+9999MW1021REMSYN072AAXX  17214 08023 41560 62917 10114 20094 30182 40254 52010 70262 86200;
0178080230999992000111800004+43460-003810FM-12+006599999V0202701N009810120019N0060001N1+01101+01001102521ADDAA106002091AY181061AY261061GF108991081081008001001001MA1999999101801MD1610021+9999MW1611REMSYN078AAXX  18004 08023 11556 82719 10110 20100 30180 40252 56002 60021 76186 88800;
0161080230999992000111803004+43460-003810FM-12+006599999V0202801N009310120019N0090001N1+01171+00991102441ADDAY161031AY221031GF108991081081008001001001MA1999999101721MD1710081+9999MW1101REMSYN072AAXX  18034 08023 41559 82818 10117 20099 30172 40244 57008 71062 88800;
0213080230999992000111806004+43460-003810FM-12+006599999V0202401N005710120019N0060001N1+01031+00951102411ADDAA112007191AY181061AY261061GF107991051081008001061001KA1120N+01001MA1999999101691MD1710031+9999MW1101REMSYN100AAXX  18064 08023 11556 72411 10103 20095 30169 40241 57003 60072 71086 85860 333 20100 50073 55033;
0133080230999992000111809004+43460-003810FM-12+006599999V0202201N005710120019N0100001N1+01141+00811102331ADDGF107991051081008001031999MA1999999101611MD1610081+9999REMSYN066AAXX  18094 08023 42560 72211 10114 20081 30161 40233 56008 8583/;
0144080230999992000111812004+43460-003810FM-12+006599999V0202501N006710075019N0170001N1+01371+00851102201ADDAA199000021GF107991051051008001071999MA1999999101491MD1810121+9999REMSYN066AAXX  18124 08023 32567 72513 10137 20085 30149 40220 58012 8557/;
0161080230999992000111815004+43460-003810FM-12+006599999V0202301N004610150019N0400001N1+01321+00881102001ADDAY121031AY221031GF108991081001017501071999MA1999999101291MD1710201+9999MW1211REMSYN072AAXX  18154 08023 41782 82309 10132 20088 30129 40200 57020 72122 8807/;
0201080230999992000111818004+43460-003810FM-12+006599999V0202001N005710360019N0150001N1+01281+00991101881ADDAA112000791AY161061AY221061GF108991031081008001071001KA1999M+01441MA1999999101171MD1710121+9999MW1021REMSYN088AAXX  18184 08023 11565 82011 10128 20099 30117 40188 57012 69902 70262 83870 333 10144;
0161080230999992000111821004+43460-003810FM-12+006599999V0202201N006710360019N0080001N1+01171+00991101811ADDAY161031AY221031GF108991031081008001071999MA1999999101101MD1710071+9999MW1601REMSYN072AAXX  18214 08023 41558 82213 10117 20099 30110 40181 57007 76062 8387/;
0178080230999992000111900004+43460-003810FM-12+006599999V0202201N006210120019N0100001N1+01311+01161101701ADDAA106001091AY161061AY221061GF108991081081008001999999MA1999999100991MD1710111+9999MW1501REMSYN078AAXX  19004 08023 11560 82212 10131 20116 30099 40170 57011 60011 75062 888//;
0161080230999992000111903004+43460-003810FM-12+006599999V0202201N006210075019N0020001N1+01271+01181101611ADDAY151031AY221031GF108991081071008001999999MA1999999100901MD1710091+9999MW1501REMSYN072AAXX  19034 08023 41520 82212 10127 20118 30090 40161 57009 75052 887//;
0213080230999992000111906004+43460-003810FM-12+006599999V0202201N007210075019N0080001N1+01251+01211101451ADDAA112007191AY151061AY221061GF108991081071008001999999KA1120N+01161MA1999999100741MD1710161+9999MW1501REMSYN100AAXX  19064 08023 11558 82214 10125 20121 30074 40145 57016 60072 75052 887// 333 20116 50163 55000;
0161080230999992000111909004+43460-003810FM-12+006599999V0202301N008210075019N0050001N1+01281+01281101441ADDAY161031AY221031GF108991081051008001999999MA1999999100731MD1610011+9999MW1101REMSYN072AAXX  19094 08023 41550 82316 10128 20128 30073 40144 56001 71062 885//;
0178080230999992000111912004+43460-003810FM-12+006599999V0203301N009810120019N0120001N1+01281+01211101481ADDAA106007191AY181061AY221061GF107991061081008001041021MA1999999100771MD1310041+9999MW1251REMSYN078AAXX  19124 08023 11562 73319 10128 20121 30077 40148 53004 60071 72582 86842;
0201080230999992000111918004+43460-003810FM-12+006599999V0202701N011810120019N0100001N1+01261+01111101421ADDAA112007991AY151061AY221061GF108991081081008001999999KA1999M+01421MA1999999100711MD1710041+9999MW1021REMSYN088AAXX  19184 08023 11560 82723 10126 20111 30071 40142 57004 60082 70252 888// 333 10142;
0161080230999992000111921004+43460-003810FM-12+006599999V0203001N012910120019N0040001N1+01201+01121101461ADDAY181031AY221031GF108991081081008001999999MA1999999100751MD1310041+9999MW1801REMSYN072AAXX  19214 08023 41540 83025 10120 20112 30075 40146 53004 78082 888//;
0178080230999992000112000004+43460-003810FM-12+006599999V0202801N010810120019N0050001N1+01181+01061101371ADDAA106003091AY181061AY221061GF108991081081008001999999MA1999999100661MD1810091+9999MW1801REMSYN078AAXX  20004 08023 11550 82821 10118 20106 30066 40137 58009 60031 78082 888//;
0161080230999992000112003004+43460-003810FM-12+006599999V0202701N012310120019N0050001N1+01061+01021101241ADDAY181031AY221031GF108991081081008001999999MA1999999100531MD1710131+9999MW1801REMSYN072AAXX  20034 08023 41550 82724 10106 20102 30053 40124 57013 78082 888//;
0213080230999992000112006004+43460-003810FM-12+006599999V0203001N010810120019N0040001N1+01021+01021101091ADDAA112011991AY181061AY221061GF108991081081008001999999KA1120N+00951MA1999999100381MD1710151+9999MW1811REMSYN100AAXX  20064 08023 11540 83021 10102 20102 30038 40109 57015 60122 78182 888// 333 20095 50323 55000;
0161080230999992000112009004+43460-003810FM-12+006599999V0202501N006710090019N0050001N1+01001+00921101021ADDAY181031AY221031GF108991081081004501999999MA1999999100311MD1610071+9999MW1611REMSYN072AAXX  20094 08023 41450 82513 10100 20092 30031 40102 56007 76182 888//;
0178080230999992000112012004+43460-003810FM-12+006599999V0202601N010310090019N0100001N1+01021+00811101011ADDAA106016091AY181061AY261061GF107991051081004501071001MA1999999100301MD1810011+9999MW1251REMSYN078AAXX  20124 08023 11460 72620 10102 20081 30030 40101 58001 60161 72586 85870;
0161080230999992000112015004+43460-003810FM-12+006599999V0202701N013910042019N0070001N1+00991+00671100971ADDAY181031AY261031GF108991071071004501071001MA1999999100261MD1510041+9999MW1601REMSYN072AAXX  20154 08023 41457 82727 10099 20067 30026 40097 55004 76086 87770;
0201080230999992000112018004+43460-003810FM-12+006599999V0202701N009310042019N0090001N1+01041+00751101121ADDAA112030091AY181061AY261061GF108991081071004501999999KA1999M+01101MA1999999100411MD1210151+9999MW1801REMSYN088AAXX  20184 08023 11459 82718 10104 20075 30041 40112 52015 60302 78086 887// 333 10110;
0161080230999992000112021004+43460-003810FM-12+006599999V0202701N011310090019N0100001N1+01101+00841101201ADDAY181031AY261031GF107991071081004501001001MA1999999100491MD1110081+9999MW1251REMSYN072AAXX  20214 08023 41460 72722 10110 20084 30049 40120 51008 72586 87800;
0178080230999992000112100004+43460-003810FM-12+006599999V0202401N008210090019N0100001N1+01081+00511101201ADDAA106006191AY181061AY221061GF107991071081004501999999MA1999999100491MD1410001+9999MW1801REMSYN078AAXX  21004 08023 11460 72416 10108 20051 30049 40120 54000 60061 78082 878//;
0161080230999992000112103004+43460-003810FM-12+006599999V0202201N006710120019N0120001N1+01081+00511101131ADDAY181031AY221031GF107991071081008001999999MA1999999100421MD1810071+9999MW1021REMSYN072AAXX  21034 08023 41562 72213 10108 20051 30042 40113 58007 70282 878//;
0213080230999992000112106004+43460-003810FM-12+006599999V0202101N007210120019N0120001N1+01121+00431101041ADDAA112006191AY181061AY221061GF107991061081008001071999KA1120N+00961MA1999999100331MD1810091+9999MW1021REMSYN100AAXX  21064 08023 11562 72114 10112 20043 30033 40104 58009 60062 70282 8687/ 333 20096 50073 55000;
0133080230999992000112109004+43460-003810FM-12+006599999V0201701N006710150019N0300001N1+01261+00581100921ADDGF107991061051017501071091MA1999999100221MD1710111+9999REMSYN066AAXX  21094 08023 42780 71713 10126 20058 30022 40092 57011 86579;
0144080230999992000112112004+43460-003810FM-12+006599999V0202001N009819999999N0400001N1+01581+00641100771ADDAA199000021GF107991061001999999071081MA1999999100071MD1710151+9999REMSYN066AAXX  21124 08023 32982 72019 10158 20064 30007 40077 57015 86078;
0161080230999992000112115004+43460-003810FM-12+006599999V0201901N009310210019N0200001N1+01561+00711100771ADDAY121031AY221031GF107991051001022501071081MA1999999100071MD1410001+9999MW1601REMSYN072AAXX  21154 08023 41870 71918 10156 20071 30007 40077 54000 76022 85078;
0201080230999992000112118004+43460-003810FM-12+006599999V0202101N009819999999N0250001N1+01521+00741100811ADDAA112000591AY161061AY221061GF108991061001999999071081KA1999M+01671MA1999999100111MD1110041+9999MW1211REMSYN088AAXX  21184 08023 11975 82119 10152 20074 30011 40081 51004 69962 72162 86078 333 10167;
0161080230999992000112121004+43460-003810FM-12+006599999V0202001N007719999999N0200001N1+01401+00841100921ADDAY161031AY221031GF108991081001999999071999MA1999999100221MD1110111+9999MW1601REMSYN072AAXX  21214 08023 41970 82015 10140 20084 30022 40092 51011 76062 8807/;
0178080230999992000112200004+43460-003810FM-12+006599999V0202401N003610360019N0100001N1+01281+01171101031ADDAA106000891AY161061AY221061GF108991041071008001071999MA1999999100331MD1310111+9999MW1601REMSYN078AAXX  22004 08023 11560 82407 10128 20117 30033 40103 53011 69971 76062 8477/;
0161080230999992000112203004+43460-003810FM-12+006599999V0203601N003110075019N0090001N1+01301+01191100881ADDAY161031AY221031GF106991061051008001001001MA1999999100181MD1810151+9999MW1101REMSYN072AAXX  22034 08023 41559 63606 10130 20119 30018 40088 58015 71062 86500;
0213080230999992000112206004+43460-003810FM-12+006599999V0202901N001510360019N0100001N1+01221+01111100831ADDAA112000891AY161061AY221061GF106991021051004501031001KA1120N+01151MA1999999100131MD1710051+9999MW1021REMSYN100AAXX  22064 08023 11460 62903 10122 20111 30013 40083 57005 69982 70262 82530 333 20115 50133 55002;
0161080230999992000112209004+43460-003810FM-12+006599999V0200601N001510075019N0040001N1+01301+01191100891ADDAY121031AY221031GF108991081051008001999999MA1999999100191MD1210061+9999MW1101REMSYN072AAXX  22094 08023 41540 80603 10130 20119 30019 40089 52006 71022 885//;
0178080230999992000112212004+43460-003810FM-12+006599999V0200701N003110075019N0040001N1+01381+01271100881ADDAA106000391AY181061AY221061GF108991081051008001999999MA1999999100181MD1810011+9999MW1801REMSYN078AAXX  22124 08023 11540 80706 10138 20127 30018 40088 58001 69931 78082 885//;
0161080230999992000112215004+43460-003810FM-12+006599999V0200801N006210360019N0080001N1+01341+01231100601ADDAY181031AY221031GF108991041081008001071001MA1999999099901MD1710281+9999MW1601REMSYN072AAXX  22154 08023 41558 80812 10134 20123 39990 40060 57028 76082 84870;
0201080230999992000112218004+43460-003810FM-12+006599999V0200401N002610360019N0080001N1+01321+01191100561ADDAA112002091AY181061AY221061GF108991031051008001071999KA1999M+01381MA1999999099861MD1810041+9999MW1251REMSYN088AAXX  22184 08023 11558 80405 10132 20119 39986 40056 58004 60022 72582 8357/ 333 10138;
0133080230999992000112221004+43460-003810FM-12+006599999V0200901N001012200019N0060001N1+01221+01141100111ADDGF104991031001017501041061MA1999999099411MD1710451+9999REMSYN066AAXX  22214 08023 42756 40902 10122 20114 39941 40011 57045 83046;
0144080230999992000112300004+43460-003810FM-12+006599999V0202101N007710150019N0100001N1+01761+00971099971ADDAA199000021GF107991071001017501041999MA1999999099291MD1510121+9999REMSYN066AAXX  23004 08023 32760 72115 10176 20097 39929 49997 55012 8704/;
0161080230999992000112303004+43460-003810FM-12+006599999V0202901N010810120019N0030001N1+01221+01071100231ADDAY181031AY221031GF108991081081008001999999MA1999999099531MD1210241+9999MW1611REMSYN072AAXX  23034 08023 41530 82921 10122 20107 39953 40023 52024 76182 888//;
0213080230999992000112306004+43460-003810FM-12+006599999V0202801N012910120019N0040001N1+01061+00861100441ADDAA112011991AY181061AY221061GF108991081081008001999999KA1120N+01041MA1999999099731MD1210201+9999MW1611REMSYN100AAXX  23064 08023 11540 82825 10106 20086 39973 40044 52020 60122 76182 888// 333 20104 50123 55000;
0161080230999992000112309004+43460-003810FM-12+006599999V0202901N014410075019N0070001N1+01201+00611100711ADDAY181031AY221031GF106991051021008001061001MA1999999100011MD1210281+9999MW1151REMSYN072AAXX  23094 08023 41557 62928 10120 20061 30001 40071 52028 71582 85260;
0178080230999992000112312004+43460-003810FM-12+006599999V0203001N015910360019N0120001N1+01021+00561100901ADDAA106001091AY181061AY221061GF105991041021008001061001MA1999999100191MD1110181+9999MW1251REMSYN078AAXX  23124 08023 11562 53031 10102 20056 30019 40090 51018 60011 72582 84260;
0193080230999992000112315004+43460-003810FM-12+006599999V0202901N012910360019N0200001N1+01141+00631100901ADDAY161031AY221031GA1011+008009099GF105991031091008001071031MA1999999100191MD1510001+9999MW1021REMSYN088AAXX  23154 08023 41570 52925 10114 20063 30019 40090 55000 70262 83973 333 81995 83895;
0220080230999992000112318004+43460-003810FM-12+006599999V0202801N012310360019N0090001N1+00981+00661101211ADDAA112003091AY181061AY221061GF106991041021008001061001KA1120M+01281KA2999N+00721MA1999999100501MD1210311+9999MW1801REMSYN094AAXX  23184 08023 11559 62824 10098 20066 30050 40121 52031 60032 78082 84260 333 10128 20072;
0161080230999992000112321004+43460-003810FM-12+006599999V0202801N011810120019N0090001N1+01021+00731101441ADDAY181031AY221031GF107991061081008001061001MA1999999100731MD1110231+9999MW1801REMSYN072AAXX  23214 08023 41559 72823 10102 20073 30073 40144 51023 78082 86860;
0178080230999992000112400004+43460-003810FM-12+006599999V0202801N011812200019N0200001N1+01101+00701101621ADDAA106006191AY181061AY221061GF104991021081008001061001MA1999999100911MD1210181+9999MW1021REMSYN078AAXX  24004 08023 11570 42823 10110 20070 30091 40162 52018 60061 70282 82860;
0133080230999992000112403004+43460-003810FM-12+006599999V0202801N008210360019N0200001N1+01161+00811101691ADDGF105991041081012501061001MA1999999100981MD1310071+9999REMSYN066AAXX  24034 08023 42670 52816 10116 20081 30098 40169 53007 84860;
0185080230999992000112406004+43460-003810FM-12+006599999V0202101N004610360019N0200001N1+01031+00401101651ADDAA112006191GF106991031081012501071001KA1120N+00981MA1999999100931MD1810051+9999REMSYN094AAXX  24064 08023 12670 62109 10103 20040 30093 40165 58005 60062 83870 333 20098 50433 55038;
0133080230999992000112409004+43460-003810FM-12+006599999V0202101N004110150019N0300001N1+00971+00271101551ADDGF107991071001017501071999MA1999999100831MD1710101+9999REMSYN066AAXX  24094 08023 42780 72108 10097 20027 30083 40155 57010 8707/;
0178080230999992000112412004+43460-003810FM-12+006599999V0201801N004110075019N0100001N1+01111+00311101361ADDAA106000791AY121061AY221061GF108991081061008001999999MA1999999100651MD1710181+9999MW1601REMSYN078AAXX  24124 08023 11560 81808 10111 20031 30065 40136 57018 69901 76022 886//;
0161080230999992000112415004+43460-003810FM-12+006599999V0202001N007210075019N0050001N1+01021+00591101001ADDAY161031AY221031GF108991071071008001999999MA1999999100291MD1510371+9999MW1611REMSYN072AAXX  24154 08023 41550 82014 10102 20059 30029 40100 55037 76162 877//;
0201080230999992000112418004+43460-003810FM-12+006599999V0200901N002110120019N0100001N1+01141+00861101001ADDAA112001091AY161061AY221061GF108991081081008001999999KA1999M+01201MA1999999100291MD1510001+9999MW1021REMSYN088AAXX  24184 08023 11560 80904 10114 20086 30029 40100 55000 60012 70262 888// 333 10120;
0133080230999992000112421004+43460-003810FM-12+006599999V0202301N005110360019N0100001N1+01421+01161101111ADDGF106991041081008001071001MA1999999100411MD1210121+9999REMSYN066AAXX  24214 08023 42560 62310 10142 20116 30041 40111 52012 84870;
0144080230999992000112500004+43460-003810FM-12+006599999V0202301N005110120019N0100001N1+01441+01141101211ADDAA199000021GF108991051081008001071999MA1999999100511MD1210101+9999REMSYN066AAXX  25004 08023 32560 82310 10144 20114 30051 40121 52010 8587/;
0133080230999992000112503004+43460-003810FM-12+006599999V0202301N004110360019N0100001N1+01341+01071101191ADDGF107991021081008001031999MA1999999100491MD1810021+9999REMSYN066AAXX  25034 08023 42560 72308 10134 20107 30049 40119 58002 8283/;
0198080230999992000112506004+43460-003810FM-12+006599999V0202101N005710150019N0100001N1+01401+00841101171ADDAA199000091GF107991071001017501031999KA1120N+01121MA1999999100471MD1510021+9999REMSYN088AAXX  25064 08023 32760 72111 10140 20084 30047 40117 55002 8703/ 333 20112 50073 55000;EQDQ01  00002PRCP99
0133080230999992000112509004+43460-003810FM-12+006599999V0202101N005110360019N0400001N1+01501+00831101271ADDGF107991011011017501041071MA1999999100571MD1110101+9999REMSYN066AAXX  25094 08023 42782 72110 10150 20083 30057 40127 51010 81147;
0163080230999992000112512004+43460-003810FM-12+006599999V0201401N003610360019N0150001N1+01581+01251101151ADDAA199000091GF107991011041017501041081MA1999999100451MD1810121+9999REMSYN066AAXX  25124 08023 32765 71407 10158 20125 30045 40115 58012 81448;EQDQ01  00002PRCP99
0133080230999992000112515004+43460-003810FM-12+006599999V0200501N001510120019N0300001N1+01601+01351100981ADDGF106991061051012501001001MA1999999100291MD1510161+9999REMSYN066AAXX  25154 08023 42680 60503 10160 20135 30029 40098 55016 86500;
0201080230999992000112518004+43460-003810FM-12+006599999V0202701N007710042019N0080001N1+01441+01371101361ADDAA112005191AY161061AY211061GF108991081051004501999999KA1999M+01821MA1999999100661MD1110371+9999MW1621REMSYN088AAXX  25184 08023 11458 82715 10144 20137 30066 40136 51037 60052 76261 885// 333 10182;
0161080230999992000112521004+43460-003810FM-12+006599999V0202301N005112200019N0150001N1+01401+01181101391ADDAY161031AY221031GF102991021051008001001001MA1999999100691MD1010031+9999MW1011REMSYN072AAXX  25214 08023 41565 22310 10140 20118 30069 40139 50003 70162 82500;
0178080230999992000112600004+43460-003810FM-12+006599999V0209999V001510075019N0150001N1+01441+01221101271ADDAA106001091AY161061AY221061GF106991061051008001999999MA1999999100571MD1610121+9999MW1021REMSYN078AAXX  26004 08023 11565 69903 10144 20122 30057 40127 56012 60011 70262 865//;
0133080230999992000112603004+43460-003810FM-12+006599999V0202601N007710075019N0150001N1+01441+01181101401ADDGF105991051051008001999999MA1999999100701MD1310131+9999REMSYN066AAXX  26034 08023 42565 52615 10144 20118 30070 40140 53013 855//;
0185080230999992000112606004+43460-003810FM-12+006599999V0202801N007710075019N0150001N1+01441+01181101601ADDAA112001091GF105991051051008001999999KA1120N+01381MA1999999100901MD1210201+9999REMSYN094AAXX  26064 08023 12565 52815 10144 20118 30090 40160 52020 60012 855// 333 20138 50893 55///;
0161080230999992000112609004+43460-003810FM-12+006599999V0202501N004110360019N0080001N1+01331+01201101921ADDAY121031AY221031GF106991031051008001031001MA1999999101211MD1210311+9999MW1101REMSYN072AAXX  26094 08023 41558 62508 10133 20120 30121 40192 52031 71022 83530;
0191080230999992000112612004+43460-003810FM-12+006599999V0202601N004112200019N0090001N1+01541+01191101991ADDAA199000091AY121061AY221061GF104991021081008001031001MA1999999101291MD1210081+9999MW1101REMSYN072AAXX  26124 08023 31559 42608 10154 20119 30129 40199 52008 71022 82830;EQDQ01  00002PRCP99
0171080230999992000112615004+43460-003810FM-12+006599999V0201901N000510360019N0030001N1+01481+01141101791ADDAY121031AY221031GF108991021071004501071999MA1999999101091MD1610201+9999MW1601REMSYN082AAXX  26154 08023 41430 81901 10148 20114 30109 40179 56020 76022 8277/ 333 96010;
0220080230999992000112618004+43460-003810FM-12+006599999V0201401N003110042019N0090001N1+01211+01151101761ADDAA112004191AY161061AY221061GF108991051071004501071999KA1120M+01651KA2999N+01201MA1999999101051MD1710041+9999MW1611REMSYN094AAXX  26184 08023 11459 81406 10121 20115 30105 40176 57004 60042 76162 8577/ 333 10165 20120;
0161080230999992000112621004+43460-003810FM-12+006599999V0201001N007710042019N0030001N1+01211+01151101421ADDAY161031AY261031GF108991051071004501071999MA1999999100711MD1710341+9999MW1611REMSYN072AAXX  26214 08023 41430 81015 10121 20115 30071 40142 57034 76166 8577/;
0178080230999992000112700004+43460-003810FM-12+006599999V0202001N003110090019N0080001N1+01271+01211101401ADDAA106003091AY161061AY261061GF108991051081004501071999MA1999999100691MD1710021+9999MW1101REMSYN078AAXX  27004 08023 11458 82006 10127 20121 30069 40140 57002 60031 71066 8587/;
0161080230999992000112703004+43460-003810FM-12+006599999V0202601N002610360019N0100001N1+01751+01341101461ADDAY161031AY221031GF106991031081008001031081MA1999999100771MD1310081+9999MW1021REMSYN072AAXX  27034 08023 41560 62605 10175 20134 30077 40146 53008 70262 83838;
0195080230999992000112706004+43460-003810FM-12+006599999V0201801N004112200019N0100001N1+01681+01171101481ADDAA112003091GA1001+999999999GF100991001001999999001001KA1120N+01161MA1999999100781MD1210011+9999REMSYN088AAXX  27064 08023 12960 01808 10168 20117 30078 40148 52001 60032 333 20116 50053 55022;
0133080230999992000112709004+43460-003810FM-12+006599999V0201401N001512200019N0250001N1+01801+01221101711ADDGF104991001001999999001021MA1999999101011MD1210231+9999REMSYN066AAXX  27094 08023 42975 41403 10180 20122 30101 40171 52023 80002;
0163080230999992000112712004+43460-003810FM-12+006599999V0201301N002619999999N0250001N1+01861+01371101781ADDAA199000091GF105991001001999999001081MA1999999101091MD1110081+9999REMSYN066AAXX  27124 08023 32975 51305 10186 20137 30109 40178 51008 80008;EQDQ01  00002PRCP99
0133080230999992000112715004+43460-003810FM-12+006599999V0201601N005119999999N0250001N1+02021+01161101681ADDGF106991001001999999001081MA1999999100991MD1610101+9999REMSYN066AAXX  27154 08023 42975 61610 10202 20116 30099 40168 56010 80008;
0186080230999992000112718004+43460-003810FM-12+006599999V0201901N008219999999N0200001N1+01891+01041101721ADDAA199000091GF106991001001999999001081KA1999M+02081MA1999999101031MD1110041+9999REMSYN076AAXX  27184 08023 32970 61916 10189 20104 30103 40172 51004 80008 333 10208;EQDQ01  00002PRCP99
0133080230999992000112721004+43460-003810FM-12+006599999V0201701N006219999999N0100001N1+01781+00901101711ADDGF106991001001999999001081MA1999999101011MD1610021+9999REMSYN066AAXX  27214 08023 42960 61712 10178 20090 30101 40171 56002 80008;
0163080230999992000112800004+43460-003810FM-12+006599999V0201901N009819999999N0100001N1+01851+00971101431ADDAA199000091GF107991001001999999001081MA1999999100741MD1710271+9999REMSYN066AAXX  28004 08023 32960 71919 10185 20097 30074 40143 57027 80008;EQDQ01  00002PRCP99
0133080230999992000112803004+43460-003810FM-12+006599999V0202001N014910900019N0100001N1+01831+00921101271ADDGF107991031001017501011081MA1999999100581MD1710161+9999REMSYN066AAXX  28034 08023 42760 72029 10183 20092 30058 40127 57016 83018;
0198080230999992000112806004+43460-003810FM-12+006599999V0202001N014910900019N0100001N1+01751+00981101111ADDAA199000091GF107991031001017501011081KA1120N+01751MA1999999100421MD1810161+9999REMSYN088AAXX  28064 08023 32760 72029 10175 20098 30042 40111 58016 83018 333 20175 50553 55055;EQDQ01  00002PRCP99
0133080230999992000112809004+43460-003810FM-12+006599999V0202001N014910210019N0750001N1+01831+00801101141ADDGF107991051001022501071041MA1999999100451MD1010031+9999REMSYN066AAXX  28094 08023 42889 72029 10183 20080 30045 40114 50003 85074;
0163080230999992000112812004+43460-003810FM-12+006599999V0202001N009812200019N0700001N1+02101+00901101141ADDAA199000091GF103991021001022501071081MA1999999100461MD1310011+9999REMSYN066AAXX  28124 08023 32888 32019 10210 20090 30046 40114 53001 82078;EQDQ01  00002PRCP99
0133080230999992000112815004+43460-003810FM-12+006599999V0201901N004612200019N0350001N1+02231+00941100821ADDGF104991021051017501041081MA1999999100141MD1810321+9999REMSYN066AAXX  28154 08023 42781 41909 10223 20094 30014 40082 58032 82548;
0186080230999992000112818004+43460-003810FM-12+006599999V0202101N007712200019N0200001N1+02281+00811100711ADDAA199000091GF104991011051012501071081KA1999M+02341MA1999999100031MD1510111+9999REMSYN076AAXX  28184 08023 32670 42115 10228 20081 30003 40071 55011 81578 333 10234;EQDQ01  00002PRCP99
0133080230999992000112821004+43460-003810FM-12+006599999V0202101N003119999999N0200001N1+02151+00701100691ADDGF106991001001999999001081MA1999999100011MD1810021+9999REMSYN066AAXX  28214 08023 42970 62106 10215 20070 30001 40069 58002 80008;
0163080230999992000112900004+43460-003810FM-12+006599999V0202301N006212200019N0200001N1+02201+00821100611ADDAA199000091GF103991001001999999001011MA1999999099931MD1610081+9999REMSYN066AAXX  29004 08023 32970 32312 10220 20082 39993 40061 56008 80001;EQDQ01  00002PRCP99
0133080230999992000112903004+43460-003810FM-12+006599999V0202201N008212200019N0200001N1+01871+00861100581ADDGF105991011001022501041081MA1999999099891MD1810041+9999REMSYN066AAXX  29034 08023 42870 52216 10187 20086 39989 40058 58004 81048;
0198080230999992000112906004+43460-003810FM-12+006599999V0202101N008710900019N0200001N1+01801+00951100581ADDAA199000091GF108991011001022501041071KA1120N+01731MA1999999099891MD1410001+9999REMSYN088AAXX  29064 08023 32870 82117 10180 20095 39989 40058 54000 81047 333 20173 50563 55048;EQDQ01  00002PRCP99
0161080230999992000112909004+43460-003810FM-12+006599999V0202301N005710150019N0750001N1+01701+00701100781ADDAY121031AY221031GF108991061051017501071999MA1999999100091MD1210201+9999MW1601REMSYN072AAXX  29094 08023 41789 82311 10170 20070 30009 40078 52020 76022 8657/;
0178080230999992000112912004+43460-003810FM-12+006599999V0203501N002610150019N0200001N1+01481+01071101011ADDAA106000791AY161061AY221061GF108991051051017501071999MA1999999100311MD1210221+9999MW1021REMSYN078AAXX  29124 08023 11770 83505 10148 20107 30031 40101 52022 69901 70262 8557/;
0161080230999992000112915004+43460-003810FM-12+006599999V0200601N002110360019N0200001N1+01381+01141101231ADDAY161031AY221031GF108991041051012501071999MA1999999100531MD1210221+9999MW1151REMSYN072AAXX  29154 08023 41670 80604 10138 20114 30053 40123 52022 71562 8457/;
0201080230999992000112918004+43460-003810FM-12+006599999V0201601N003612200019N0200001N1+01301+01111101481ADDAA112000591AY161061AY221061GF104991041021012501001001KA1999M+01811MA1999999100771MD1210241+9999MW1021REMSYN088AAXX  29184 08023 11670 41607 10130 20111 30077 40148 52024 69942 70262 84200 333 10181;
0143080230999992000112921004+43460-003810FM-12+006599999V0201501N004112200019N0100001N1+01221+00991101541ADDGA1001+999999999GF100991001001999999001001MA1999999100831MD1110061+9999REMSYN060AAXX  29214 08023 42960 01508 10122 20099 30083 40154 51006;
0173080230999992000113000004+43460-003810FM-12+006599999V0201301N003112200019N0100001N1+01161+00961101601ADDAA199000091GA1001+999999999GF100991001001999999001001MA1999999100891MD1210061+9999REMSYN060AAXX  30004 08023 32960 01306 10116 20096 30089 40160 52006;EQDQ01  00002PRCP99
0143080230999992000113003004+43460-003810FM-12+006599999V0201901N006212200019N0100001N1+01241+00841101361ADDGA1001+999999999GF100991001001999999001001MA1999999100651MD1710241+9999REMSYN060AAXX  30034 08023 42960 01912 10124 20084 30065 40136 57024;
0208080230999992000113006004+43460-003810FM-12+006599999V0202001N011312200019N0100001N1+01381+00401101111ADDAA199000091GA1001+999999999GF100991001001999999001001KA1120N+01061MA1999999100411MD1710241+9999REMSYN082AAXX  30064 08023 32960 02022 10138 20040 30041 40111 57024 333 20106 50283 55000;EQDQ01  00002PRCP99
0133080230999992000113009004+43460-003810FM-12+006599999V0202001N014910360019N0200001N1+01461+00451101081ADDGF108991021081012501071081MA1999999100381MD1710031+9999REMSYN066AAXX  30094 08023 42670 82029 10146 20045 30038 40108 57003 82878;
0163080230999992000113012004+43460-003810FM-12+006599999V0202101N010810360019N0300001N1+01591+00441100871ADDAA199000091GF108991011081017501071999MA1999999100171MD1710211+9999REMSYN066AAXX  30124 08023 32780 82121 10159 20044 30017 40087 57021 8187/;EQDQ01  00002PRCP99
0133080230999992000113015004+43460-003810FM-12+006599999V0202101N015910360019N0500001N1+01681+00351100671ADDGF107991011041017501071001MA1999999099981MD1510191+9999REMSYN066AAXX  30154 08023 42784 72131 10168 20035 39998 40067 55019 81470;
0226080230999992000113018004+43460-003810FM-12+006599999V0202001N014910210019N0200001N1+01721+00581100551ADDAA199000091GF105991051001022501071001KA1120M+01721MA1999999099861MD1510121+9999OA149901701OA259902421REMSYN094AAXX  30184 08023 32870 52029 10172 20058 39986 40055 55012 85070 333 10172 91133 91247 91521;EQDQ01  00002PRCP99
0161080230999992000113021004+43460-003810FM-12+006599999V0202001N017010210019N0200001N1+01791+00801100561ADDAY161031AY221031GF106991061001022501071001MA1999999099871MD1010011+9999MW1021REMSYN072AAXX  30214 08023 41870 62033 10179 20080 39987 40056 50001 70262 86070;
0205080230999992000120100004+43460-003810FM-12+006599999V0202101N023119999999N0200001N1+01821+00611100181ADDAA106000791AY161061AY221061GF107991001001999999001071MA1999999099491MD1810381+9999MW1021OA149903191REMSYN094AAXX  01004 08023 11970 72145 10182 20061 39949 40018 58038 69901 70262 80007 333 91162 91548;
0133080230999992000120103004+43460-003810FM-12+006599999V0202001N013910075019N0200001N1+01831+00941100391ADDGF105991051051008001001001MA1999999099701MD1310211+9999REMSYN066AAXX  01034 08023 42570 52027 10183 20094 39970 40039 53021 85500;
0185080230999992000120106004+43460-003810FM-12+006599999V0202001N012910210019N0200001N1+01781+00761100471ADDAA112000791GF106991061001022501071001KA1120N+01751MA1999999099781MD1010081+9999REMSYN094AAXX  01064 08023 12870 62025 10178 20076 39978 40047 50008 69902 86070 333 20175 50333 55000;
0161080230999992000120109004+43460-003810FM-12+006599999V0202101N011310360019N0400001N1+01791+00771100671ADDAY181031AY221031GF108991011011008001071999MA1999999099981MD1210201+9999MW1021REMSYN072AAXX  01094 08023 41582 82122 10179 20077 39998 40067 52020 70282 8117/;
0178080230999992000120112004+43460-003810FM-12+006599999V0202001N008212200019N0400001N1+01901+00851100861ADDAA106000791AY181061AY221061GF103991011041008001071001MA1999999100171MD1110191+9999MW1021REMSYN078AAXX  01124 08023 11582 32016 10190 20085 30017 40086 51019 69901 70282 81470;
0133080230999992000120115004+43460-003810FM-12+006599999V0200101N002612200019N0400001N1+01641+01181101061ADDGF103991021041008001031001MA1999999100371MD1310201+9999REMSYN066AAXX  01154 08023 42582 30105 10164 20118 30037 40106 53020 82430;
0201080230999992000120118004+43460-003810FM-12+006599999V0201101N004110900019N0200001N1+01321+01091101271ADDAA112000791AY111061AY221061GF106991041051008001001051KA1999M+02041MA1999999100571MD1210201+9999MW1021REMSYN088AAXX  01184 08023 11570 61108 10132 20109 30057 40127 52020 69902 70212 84505 333 10204;
0133080230999992000120121004+43460-003810FM-12+006599999V0201601N001010900019N0200001N1+01401+01041101351ADDGF105991011011008001001051MA1999999100651MD1310081+9999REMSYN066AAXX  01214 08023 42570 51602 10140 20104 30065 40135 53008 81105;
0163080230999992000120200004+43460-003810FM-12+006599999V0201901N005710075019N0200001N1+01541+00661101291ADDAA199000091GF106991061051008001001001MA1999999100591MD1810061+9999REMSYN066AAXX  02004 08023 32570 61911 10154 20066 30059 40129 58006 86500;EQDQ01  00002PRCP99
0133080230999992000120203004+43460-003810FM-12+006599999V0202101N008210360019N0200001N1+01531+00651101171ADDGF107991041051008001071001MA1999999100471MD1710121+9999REMSYN066AAXX  02034 08023 42570 72116 10153 20065 30047 40117 57012 84570;
0213080230999992000120206004+43460-003810FM-12+006599999V0202201N007210120019N0120001N1+01381+00891101111ADDAA112000791AY121061AY221061GF108991061081008001071999KA1120N+01321MA1999999100411MD1510061+9999MW1601REMSYN100AAXX  02064 08023 11562 82214 10138 20089 30041 40111 55006 69902 76022 8687/ 333 20132 50313 55042;
0161080230999992000120209004+43460-003810FM-12+006599999V0202401N005710360019N0150001N1+01101+00901101491ADDAY161031AY221031GF106991031081008001071001MA1999999100781MD1210371+9999MW1021REMSYN072AAXX  02094 08023 41565 62411 10110 20090 30078 40149 52037 70262 83870;
0178080230999992000120212004+43460-003810FM-12+006599999V0202901N009312200019N0300001N1+01371+00621101641ADDAA106004191AY161061AY221061GF103991011081012501031081MA1999999100931MD1210151+9999MW1011REMSYN078AAXX  02124 08023 11680 32918 10137 20062 30093 40164 52015 60041 70162 81838;
0161080230999992000120215004+43460-003810FM-12+006599999V0203001N008212200019N0070001N1+01341+00751101761ADDAY121031AY201031GF103991021081008001031021MA1999999101051MD1210121+9999MW1051REMSYN072AAXX  02154 08023 41557 33016 10134 20075 30105 40176 52012 70520 82832;
0192080230999992000120218004+43460-003810FM-12+006599999V0203401N012912200019N0200001N1+01171+00731101961ADDAA112004191GF104991041021008001001021KA1120M+01431KA2999N+01061MA1999999101251MD1210201+9999REMSYN088AAXX  02184 08023 12570 43425 10117 20073 30125 40196 52020 60042 84202 333 10143 20106;
0133080230999992000120221004+43460-003810FM-12+006599999V0202101N005110120019N0180001N1+01041+00721102191ADDGF105991051081008001001001MA1999999101471MD1210221+9999REMSYN066AAXX  02214 08023 42568 52110 10104 20072 30147 40219 52022 85800;
0163080230999992000120300004+43460-003810FM-12+006599999V0202201N004112200019N0200001N1+00961+00471102211ADDAA199000091GF102991021081012501001001MA1999999101491MD1110021+9999REMSYN066AAXX  03004 08023 32670 22208 10096 20047 30149 40221 51002 82800;EQDQ01  00002PRCP99
0133080230999992000120303004+43460-003810FM-12+006599999V0202101N004612200019N0200001N1+00901+00391102211ADDGF101991011011012501001001MA1999999101491MD1410001+9999REMSYN066AAXX  03034 08023 42670 12109 10090 20039 30149 40221 54000 81100;
0208080230999992000120306004+43460-003810FM-12+006599999V0201701N004112200019N0250001N1+00821+00241102141ADDAA199000091GA1001+999999999GF100991001001999999001001KA1120N+00791MA1999999101421MD1810071+9999REMSYN082AAXX  03064 08023 32975 01708 10082 20024 30142 40214 58007 333 20079 50373 55052;EQDQ01  00002PRCP99
0133080230999992000120309004+43460-003810FM-12+006599999V0202001N005119999999N0400001N1+01041+00241102111ADDGF107991031001999999071061MA1999999101391MD1810031+9999REMSYN066AAXX  03094 08023 42982 72010 10104 20024 30139 40211 58003 83076;
0178080230999992000120312004+43460-003810FM-12+006599999V0202101N008710210019N0150001N1+01171+00461101961ADDAA106000791AY121061AY221061GF107991071001022501021999MA1999999101251MD1710141+9999MW1601REMSYN078AAXX  03124 08023 11865 72117 10117 20046 30125 40196 57014 69901 76022 8702/;
0133080230999992000120315004+43460-003810FM-12+006599999V0201801N007710210019N0300001N1+01381+00471101611ADDGF108991081001022501071999MA1999999100901MD1710351+9999REMSYN066AAXX  03154 08023 42880 81815 10138 20047 30090 40161 57035 8807/;
0201080230999992000120318004+43460-003810FM-12+006599999V0202101N008710360019N0300001N1+01441+00551101601ADDAA112000791AY161061AY221061GF106991031051017501071001KA1999M+01461MA1999999100901MD1410001+9999MW1021REMSYN088AAXX  03184 08023 11780 62117 10144 20055 30090 40160 54000 69902 70262 83570 333 10146;
0161080230999992000120321004+43460-003810FM-12+006599999V0201901N011310210019N0300001N1+01461+00731101441ADDAY121031AY221031GF108991081001022501071999MA1999999100741MD1810161+9999MW1601REMSYN072AAXX  03214 08023 41880 81922 10146 20073 30074 40144 58016 76022 8807/;
0205080230999992000120400004+43460-003810FM-12+006599999V0202101N013912200019N0400001N1+01561+00711101201ADDAA106000791AY161061AY221061GF104991011051017501071001MA1999999100501MD1610241+9999MW1021OA149902471REMSYN094AAXX  04004 08023 11782 42127 10156 20071 30050 40120 56024 69901 70262 81570 333 91148 91521;
0133080230999992000120403004+43460-003810FM-12+006599999V0202001N014910210019N0400001N1+01661+00701101021ADDGF108991081001022501071999MA1999999100331MD1710171+9999REMSYN066AAXX  04034 08023 42882 82029 10166 20070 30033 40102 57017 8807/;
0179080230999992000120406004+43460-003810FM-12+006599999V0202101N012319999999N0400001N1+01621+00771101111ADDAA199000021GF106991061001999999071001KA1120N+01441MA1999999100411MD1310081+9999REMSYN088AAXX  04064 08023 32982 62124 10162 20077 30041 40111 53008 86070 333 20144 50333 55005;
0133080230999992000120409004+43460-003810FM-12+006599999V0202101N012312200019N0400001N1+01681+00841101311ADDGF105991021051012501041091MA1999999100611MD1210201+9999REMSYN066AAXX  04094 08023 42682 52124 10168 20084 30061 40131 52020 82549;
0163080230999992000120412004+43460-003810FM-12+006599999V0202001N011812200019N0300001N1+01821+00951101231ADDAA199000091GF104991021011012501041081MA1999999100541MD1810071+9999REMSYN066AAXX  04124 08023 32680 42023 10182 20095 30054 40123 58007 82148;EQDQ01  00002PRCP99
0118080230999992000120415004+43460-003810FM-12+006599999V0202101N007219999999N0300001N1+01891+01061999999ADDGF105991999999017501999999MA1999999100591REMSYN065AAXX  04154 08023 42780 52114 10189 20106 30059 0128 53005 81478;
0186080230999992000120418004+43460-003810FM-12+006599999V0202001N009812200019N0200001N1+01811+00961101241ADDAA199000091GF103991021001017501031081KA1999M+01971MA1999999100551MD1810041+9999REMSYN076AAXX  04184 08023 32770 32019 10181 20096 30055 40124 58004 82038 333 10197;EQDQ01  00002PRCP99
0143080230999992000120421004+43460-003810FM-12+006599999V0202101N011812200019N0200001N1+01821+00951101071ADDGA1001+999999999GF100991001001999999001001MA1999999100381MD1710171+9999REMSYN060AAXX  04214 08023 42970 02123 10182 20095 30038 40107 57017;
0163080230999992000120500004+43460-003810FM-12+006599999V0202201N011812200019N0200001N1+01841+00861100941ADDAA199000091GF103991021001017501031081MA1999999100251MD1810131+9999REMSYN066AAXX  05004 08023 32770 32223 10184 20086 30025 40094 58013 82038;EQDQ01  00002PRCP99
0133080230999992000120503004+43460-003810FM-12+006599999V0202101N008712200019N0200001N1+01841+00911100821ADDGF105991041001017501031081MA1999999100131MD1510121+9999REMSYN066AAXX  05034 08023 42770 52117 10184 20091 30013 40082 55012 84038;
0198080230999992000120506004+43460-003810FM-12+006599999V0201901N009810150019N0200001N1+01781+00811100641ADDAA199000091GF106991051001017501031081KA1120N+01781MA1999999099951MD1710181+9999REMSYN088AAXX  05064 08023 32770 61919 10178 20081 39995 40064 57018 85038 333 20178 50533 55040;EQDQ01  00002PRCP99
0133080230999992000120509004+43460-003810FM-12+006599999V0202001N014410360019N0200001N1+01801+00811100481ADDGF107991031081008001041081MA1999999099791MD1710161+9999REMSYN066AAXX  05094 08023 42570 72028 10180 20081 39979 40048 57016 83848;
0163080230999992000120512004+43460-003810FM-12+006599999V0202101N014410360019N0250001N1+01831+00831100661ADDAA199000091GF108991031081008001041081MA1999999099971MD1310181+9999REMSYN066AAXX  05124 08023 32575 82128 10183 20083 39997 40066 53018 83848;EQDQ01  00002PRCP99
0133080230999992000120515004+43460-003810FM-12+006599999V0200401N002110360019N0120001N1+01461+01141100721ADDGF107991031081008001041081MA1999999100021MD1110051+9999REMSYN066AAXX  05154 08023 42562 70404 10146 20114 30002 40072 51005 83848;
0205080230999992000120518004+43460-003810FM-12+006599999V0202201N008210360019N0120001N1+01841+00931100661ADDAA199000091GF107991031081008001041081KA1120M+01981KA2999N+01381MA1999999099971MD1810051+9999REMSYN082AAXX  05184 08023 32562 72216 10184 20093 39997 40066 58005 83848 333 10198 20138;EQDQ01  00002PRCP99
0133080230999992000120521004+43460-003810FM-12+006599999V0202001N008210360019N0200001N1+01721+00781100841ADDGF107991021081008001041081MA1999999100151MD1310181+9999REMSYN066AAXX  05214 08023 42570 72016 10172 20078 30015 40084 53018 82848;
0163080230999992000120600004+43460-003810FM-12+006599999V0202101N004610360019N0200001N1+01661+00771100821ADDAA199000091GF106991021081008001041081MA1999999100131MD1810021+9999REMSYN066AAXX  06004 08023 32570 62109 10166 20077 30013 40082 58002 82848;EQDQ01  00002PRCP99
0161080230999992000120603004+43460-003810FM-12+006599999V0201901N006210360019N0200001N1+01451+00551100851ADDAY121031AY221031GF108991041081008001071081MA1999999100151MD1310021+9999MW1211REMSYN072AAXX  06034 08023 41570 81912 10145 20055 30015 40085 53002 72122 84878;
0223080230999992000120606004+43460-003810FM-12+006599999V0202001N009812200019N0250001N1+01421+00511100851ADDAA112000791AY181061AY221061GA1001+999999999GF100991001001999999001001KA1120N+01421MA1999999100151MD1410001+9999MW1001REMSYN094AAXX  06064 08023 11975 02019 10142 20051 30015 40085 54000 69902 70082 333 20142 50353 55008;
0133080230999992000120609004+43460-003810FM-12+006599999V0202101N011812200019N0750001N1+01501+00481100961ADDGF102991011041017501081001MA1999999100261MD1010111+9999REMSYN066AAXX  06094 08023 42789 22123 10150 20048 30026 40096 50011 81480;
0144080230999992000120612004+43460-003810FM-12+006599999V0202001N008712200019N0750001N1+01681+00671100991ADDAA199000021GF102991011041017501041011MA1999999100301MD1310041+9999REMSYN066AAXX  06124 08023 32789 22017 10168 20067 30030 40099 53004 81441;
0133080230999992000120615004+43460-003810FM-12+006599999V0202001N008212200019N0750001N1+01741+00601100901ADDGF102991011021012501041051MA1999999100211MD1810091+9999REMSYN066AAXX  06154 08023 42689 22016 10174 20060 30021 40090 58009 81245;
0186080230999992000120618004+43460-003810FM-12+006599999V0202001N009810360019N0500001N1+01641+00621100901ADDAA199000091GF108991011041012501071999KA1999M+01841MA1999999100211MD1410001+9999REMSYN076AAXX  06184 08023 32684 82019 10164 20062 30021 40090 54000 8147/ 333 10184;EQDQ01  00002PRCP99
0133080230999992000120621004+43460-003810FM-12+006599999V0201901N007710360019N0300001N1+01621+00641100681ADDGF108991021041012501071999MA1999999099991MD1810221+9999REMSYN066AAXX  06214 08023 42680 81915 10162 20064 39999 40068 58022 8247/;
0178080230999992000120700004+43460-003810FM-12+006599999V0201201N003110360019N0150001N1+01641+00891100261ADDAA106000791AY161061AY221061GF108991031051012501071999MA1999999099571MD1810421+9999MW1581REMSYN078AAXX  07004 08023 11665 81206 10164 20089 39957 40026 58042 69901 75862 8357/;
0180080230999992000120703004+43460-003810FM-12+006599999V0201901N010810360019N0200001N1+01821+01001099341ADDAY161031AY221031GF108991021051012501071999MA1999999098661MD1710912+9999MW1021REMSYN072AAXX  07034 08023 41670 81921 10182 20100 39866 49934 57091 70262 8257/;EQDQ01+000912APC3  
0185080230999992000120706004+43460-003810FM-12+006599999V0201901N012910360019N0300001N1+02001+00921099201ADDAA112000791GF108991031051012501071999KA1120N+01481MA1999999098531MD1510131+9999REMSYN094AAXX  07064 08023 12680 81925 10200 20092 39853 49920 55013 69902 8357/ 333 20148 50333 55070;
0103080230999992000120709004+43460-003810FM-12+006599999V0202001N008219999999N0400001N1+02111+99999999999ADDGF107991999999008001999999REMSYN065AAXX  07094 08023 42582 72016 10211 0090 39839 49906 58014 85832;
0144080230999992000120712004+43460-003810FM-12+006599999V0202101N018010360019N0200001N1+02281+00801098711ADDAA199000021GF105991041081008001051021MA1999999098051MD1710341+9999REMSYN066AAXX  07124 08023 32570 52135 10228 20080 39805 49871 57034 84852;
0177080230999992000120715004+43460-003810FM-12+006599999V0202201N017010900019N0300001N1+02191+00901098531ADDGF105991021081012501041081MA1999999097861MD1710191+9999OA149903191OA259902111REMSYN088AAXX  07154 08023 42680 52233 10219 20090 39786 49853 57019 82848 333 91162 91241 91522;
0220080230999992000120718004+43460-003810FM-12+006599999V0202801N007210150019N0100001N1+01401+01201099501ADDAA112000791AY121061AY211061GF107991061081012501051001KA1120M+02321KA2999N+01401MA1999999098811MD1210951+9999MW1211REMSYN094AAXX  07184 08023 11660 72814 10140 20120 39881 49950 52095 69902 72121 86850 333 10232 20140;
0161080230999992000120721004+43460-003810FM-12+006599999V0202701N005110150019N0100001N1+01371+01221100001ADDAY161031AY221031GF106991051081012501051001MA1999999099311MD1210501+9999MW1211REMSYN072AAXX  07214 08023 41660 62710 10137 20122 39931 40000 52050 72162 85850;
0178080230999992000120800004+43460-003810FM-12+006599999V0202801N006710150019N0100001N1+01301+01031100441ADDAA106000591AY161061AY221061GF107991061081012501051001MA1999999099741MD1210431+9999MW1601REMSYN078AAXX  08004 08023 11660 72813 10130 20103 39974 40044 52043 69951 76062 86850;
0161080230999992000120803004+43460-003810FM-12+006599999V0201501N003112200019N0100001N1+01211+00961100591ADDAY161031AY211031GF103991031081012501001001MA1999999099891MD1210151+9999MW1011REMSYN072AAXX  08034 08023 41660 31506 10121 20096 39989 40059 52015 70161 83800;
0185080230999992000120806004+43460-003810FM-12+006599999V0202101N008712200019N0250001N1+01351+00521100591ADDAA112000591GF101991011001022501041001KA1120N+01201MA1999999099891MD1410001+9999REMSYN094AAXX  08064 08023 12875 12117 10135 20052 39989 40059 54000 69952 81040 333 20120 50533 55047;
0133080230999992000120809004+43460-003810FM-12+006599999V0202201N008712200019N0400001N1+01441+00511100751ADDGF103991011081012501041011MA1999999100051MD1210161+9999REMSYN066AAXX  08094 08023 42682 32217 10144 20051 30005 40075 52016 81841;
0144080230999992000120812004+43460-003810FM-12+006599999V0202201N009812200019N0400001N1+01621+00541100831ADDAA199000021GF102991011081012501041011MA1999999100141MD1010091+9999REMSYN066AAXX  08124 08023 32682 22219 10162 20054 30014 40083 50009 81841;
0133080230999992000120815004+43460-003810FM-12+006599999V0202101N008212200019N0300001N1+01521+00561100851ADDGF104991021051017501041021MA1999999100151MD1310011+9999REMSYN066AAXX  08154 08023 42780 42116 10152 20056 30015 40085 53001 82542;
0186080230999992000120818004+43460-003810FM-12+006599999V0203101N007712200019N0200001N1+01341+00911101191ADDAA199000091GF102991011081012501051011KA1999M+01671MA1999999100491MD1210341+9999REMSYN076AAXX  08184 08023 32670 23115 10134 20091 30049 40119 52034 81851 333 10167;EQDQ01  00002PRCP99
0133080230999992000120821004+43460-003810FM-12+006599999V0202201N000512200019N0200001N1+01251+00961101411ADDGF103991031051012501001001MA1999999100701MD1210211+9999REMSYN066AAXX  08214 08023 42670 32201 10125 20096 30070 40141 52021 83500;
0173080230999992000120900004+43460-003810FM-12+006599999V0201601N002112200019N0200001N1+01101+00791101481ADDAA199000091GA1001+999999999GF100991001001999999001001MA1999999100771MD1210071+9999REMSYN060AAXX  09004 08023 32970 01604 10110 20079 30077 40148 52007;EQDQ01  00002PRCP99
0133080230999992000120903004+43460-003810FM-12+006599999V0201701N003612200019N0200001N1+01051+00741101491ADDGF102991011001022501041051MA1999999100781MD1110011+9999REMSYN066AAXX  09034 08023 42870 21707 10105 20074 30078 40149 51001 81045;
0198080230999992000120906004+43460-003810FM-12+006599999V0202201N006712200019N0200001N1+01211+00571101521ADDAA199000091GF101991011001022501041001KA1120N+00991MA1999999100811MD1310031+9999REMSYN088AAXX  09064 08023 32870 12213 10121 20057 30081 40152 53003 81040 333 20099 50403 55061;EQDQ01  00002PRCP99
0133080230999992000120909004+43460-003810FM-12+006599999V0202201N004112200019N0200001N1+01251+00511101801ADDGF104991011051008001041021MA1999999101091MD1210281+9999REMSYN066AAXX  09094 08023 42570 42208 10125 20051 30109 40180 52028 81542;
0163080230999992000120912004+43460-003810FM-12+006599999V0202001N004612200019N0250001N1+01631+00631101871ADDAA199000091GF103991011081008001041011MA1999999101171MD1210081+9999REMSYN066AAXX  09124 08023 32575 32009 10163 20063 30117 40187 52008 81841;EQDQ01  00002PRCP99
0133080230999992000120915004+43460-003810FM-12+006599999V0202101N006710360019N0300001N1+01501+00421101761ADDGF107991031051012501011081MA1999999101061MD1610111+9999REMSYN066AAXX  09154 08023 42680 72113 10150 20042 30106 40176 56011 83518;
0201080230999992000120918004+43460-003810FM-12+006599999V0202101N009810360019N0200001N1+01451+00641101731ADDAA112000791AY121061AY221061GF108991031081008001071081KA1999M+01651MA1999999101031MD1710031+9999MW1801REMSYN088AAXX  09184 08023 11570 82119 10145 20064 30103 40173 57003 69902 78022 83878 333 10165;
0133080230999992000120921004+43460-003810FM-12+006599999V0202001N010310360019N0200001N1+01521+00611101681ADDGF107991011051008001041081MA1999999100981MD1710051+9999REMSYN066AAXX  09214 08023 42570 72020 10152 20061 30098 40168 57005 81548;
0144080230999992000121000004+43460-003810FM-12+006599999V0202101N009810360019N0200001N1+01591+00601101601ADDAA199000021GF107991011081008001031081MA1999999100901MD1710081+9999REMSYN066AAXX  10004 08023 32570 72119 10159 20060 30090 40160 57008 81838;
0133080230999992000121003004+43460-003810FM-12+006599999V0202201N014910360019N0200001N1+01591+00681101551ADDGF106991011081008001031081MA1999999100851MD1710051+9999REMSYN066AAXX  10034 08023 42570 62229 10159 20068 30085 40155 57005 81838;
0213080230999992000121006004+43460-003810FM-12+006599999V0202101N012312200019N0200001N1+01621+00661101691ADDAA112000791AY121061AY221061GF104991021081008001001011KA1120N+01451MA1999999100991MD1310141+9999MW1801REMSYN100AAXX  10064 08023 11570 42124 10162 20066 30099 40169 53014 69902 78022 82801 333 20145 50303 55052;
0161080230999992000121009004+43460-003810FM-12+006599999V0202201N005110360019N0500001N1+01601+00761102271ADDAY181031AY221031GF107991031051008001071081MA1999999101571MD1210581+9999MW1021REMSYN072AAXX  10094 08023 41584 72210 10160 20076 30157 40227 52058 70282 83578;
0178080230999992000121012004+43460-003810FM-12+006599999V0200801N001010360019N0500001N1+01581+01111102381ADDAA106000791AY181061AY221061GF106991011011008001071081MA1999999101671MD1110101+9999MW1021REMSYN078AAXX  10124 08023 11584 60802 10158 20111 30167 40238 51010 69901 70282 81178;
0133080230999992000121015004+43460-003810FM-12+006599999V0201001N005119999999N0250001N1+01561+01271102501ADDGF106991001001999999001081MA1999999101791MD1310121+9999REMSYN066AAXX  10154 08023 42975 61010 10156 20127 30179 40250 53012 80008;
0173080230999992000121018004+43460-003810FM-12+006599999V0201301N004119999999N0200001N1+01381+00991102511ADDAA112000791GF106991001001999999001051KA1999M+01691MA1999999101801MD1210011+9999REMSYN082AAXX  10184 08023 12970 61308 10138 20099 30180 40251 52001 69902 80005 333 10169;
0133080230999992000121021004+43460-003810FM-12+006599999V0201901N004110900019N0200001N1+01441+01061102511ADDGF107991011001022501041051MA1999999101801MD1410001+9999REMSYN066AAXX  10214 08023 42870 71908 10144 20106 30180 40251 54000 81045;
0163080230999992000121100004+43460-003810FM-12+006599999V0202001N008712200019N0200001N1+01701+00891102411ADDAA199000091GF105991021001022501041081MA1999999101711MD1810091+9999REMSYN066AAXX  11004 08023 32870 52017 10170 20089 30171 40241 58009 82048;EQDQ01  00002PRCP99
0161080230999992000121103004+43460-003810FM-12+006599999V0202101N010810210019N0200001N1+01691+01031102491ADDAY121031AY221031GF107991071001022501071001MA1999999101791MD1310081+9999MW1801REMSYN072AAXX  11034 08023 41870 72121 10169 20103 30179 40249 53008 78022 87070;
0213080230999992000121106004+43460-003810FM-12+006599999V0202101N009810210019N0200001N1+01661+00841102391ADDAA112000791AY181061AY221061GF106991061001022501071001KA1120N+01351MA1999999101691MD1610101+9999MW1021REMSYN100AAXX  11064 08023 11870 62119 10166 20084 30169 40239 56010 69902 70282 86070 333 20135 50153 55035;
0133080230999992000121109004+43460-003810FM-12+006599999V0202101N010810360019N0400001N1+01681+00861102481ADDGF106991021081008001041021MA1999999101781MD1310091+9999REMSYN066AAXX  11094 08023 42582 62121 10168 20086 30178 40248 53009 82842;
0144080230999992000121112004+43460-003810FM-12+006599999V0202101N012310360019N0400001N1+01701+00591102421ADDAA199000021GF106991011011008001041081MA1999999101721MD1810061+9999REMSYN066AAXX  11124 08023 32582 62124 10170 20059 30172 40242 58006 81148;
0133080230999992000121115004+43460-003810FM-12+006599999V0202101N010810360019N0400001N1+01771+00441102391ADDGF106991011051008001041081MA1999999101691MD1710031+9999REMSYN066AAXX  11154 08023 42582 62121 10177 20044 30169 40239 57003 81548;
0186080230999992000121118004+43460-003810FM-12+006599999V0202101N008210360019N0200001N1+01651+00431102551ADDAA199000091GF106991011011008001041081KA1999M+01841MA1999999101841MD1110151+9999REMSYN076AAXX  11184 08023 32570 62116 10165 20043 30184 40255 51015 81148 333 10184;EQDQ01  00002PRCP99
0133080230999992000121121004+43460-003810FM-12+006599999V0202101N007210900019N0200001N1+01601+00551102551ADDGF105991011011008001041081MA1999999101841MD1010001+9999REMSYN066AAXX  11214 08023 42570 52114 10160 20055 30184 40255 50000 81148;
0163080230999992000121200004+43460-003810FM-12+006599999V0202101N006710360019N0200001N1+01701+00481102501ADDAA199000091GF106991011011008001041081MA1999999101801MD1810041+9999REMSYN066AAXX  12004 08023 32570 62113 10170 20048 30180 40250 58004 81148;EQDQ01  00002PRCP99
0133080230999992000121203004+43460-003810FM-12+006599999V0202101N008210360019N0200001N1+01701+00361102361ADDGF107991021051008001071999MA1999999101661MD1710141+9999REMSYN066AAXX  12034 08023 42570 72116 10170 20036 30166 40236 57014 8257/;
0198080230999992000121206004+43460-003810FM-12+006599999V0202101N011810360019N0200001N1+01701+00421102161ADDAA199000091GF107991021051008001071999KA1120N+01601MA1999999101461MD1610201+9999REMSYN088AAXX  12064 08023 32570 72123 10170 20042 30146 40216 56020 8257/ 333 20160 50553 55039;EQDQ01  00002PRCP99
0133080230999992000121209004+43460-003810FM-12+006599999V0202101N012319999999N0750001N1+01751+00161102081ADDGF108991061001999999071071MA1999999101381MD1810081+9999REMSYN066AAXX  12094 08023 42989 82124 10175 20016 30138 40208 58008 86077;
0163080230999992000121212004+43460-003810FM-12+006599999V0202001N012319999999N0750001N1+01821+00251101971ADDAA199000091GF108991061001999999041071MA1999999101271MD1810111+9999REMSYN066AAXX  12124 08023 32989 82024 10182 20025 30127 40197 58011 86047;EQDQ01  00002PRCP99
0133080230999992000121215004+43460-003810FM-12+006599999V0202101N012319999999N0750001N1+01831+00231101911ADDGF108991061001999999041071MA1999999101211MD1710061+9999REMSYN066AAXX  12154 08023 42989 82124 10183 20023 30121 40191 57006 86047;
0186080230999992000121218004+43460-003810FM-12+006599999V0202201N014919999999N0750001N1+01861+00251101881ADDAA199000091GF108991061001999999041071KA1999M+01951MA1999999101181MD1710031+9999REMSYN076AAXX  12184 08023 32989 82229 10186 20025 30118 40188 57003 86047 333 10195;EQDQ01  00002PRCP99
0133080230999992000121221004+43460-003810FM-12+006599999V0203101N005110360019N0300001N1+01541+01131102401ADDGF107991021071008001071071MA1999999101691MD1310511+9999REMSYN066AAXX  12214 08023 42580 73110 10154 20113 30169 40240 53051 82777;
0163080230999992000121300004+43460-003810FM-12+006599999V0202001N005119999999N0400001N1+01661+00531102401ADDAA199000091GF107991071001999999071001MA1999999101701MD1010011+9999REMSYN066AAXX  13004 08023 32982 72010 10166 20053 30170 40240 50001 87070;EQDQ01  00002PRCP99
0133080230999992000121303004+43460-003810FM-12+006599999V0202601N003112200019N0200001N1+01421+01041102671ADDGF104991041001999999031001MA1999999101961MD1310261+9999REMSYN066AAXX  13034 08023 42970 42606 10142 20104 30196 40267 53026 84030;
0198080230999992000121306004+43460-003810FM-12+006599999V0201101N001019999999N0120001N1+01361+00971102671ADDAA199000091GF106991061001999999031001KA1120N+01351MA1999999101961MD1410001+9999REMSYN088AAXX  13064 08023 32962 61102 10136 20097 30196 40267 54000 86030 333 20135 50463 55003;EQDQ01  00002PRCP99
0161080230999992000121309004+43460-003810FM-12+006599999V0201101N001019999999N0070001N1+01361+01071102791ADDAY121031AY221031GF106991061001999999071001MA1999999102081MD1310121+9999MW1101REMSYN072AAXX  13094 08023 41957 61102 10136 20107 30208 40279 53012 71022 86070;
0191080230999992000121312004+43460-003810FM-12+006599999V0201101N003112200019N0090001N1+01521+01171102741ADDAA199000091AY121061AY211061GF104991031001999999071081MA1999999102031MD1810051+9999MW1051REMSYN072AAXX  13124 08023 31959 41106 10152 20117 30203 40274 58005 70521 83078;EQDQ01  00002PRCP99
0161080230999992000121315004+43460-003810FM-12+006599999V0200801N005719999999N0090001N1+01421+01121102611ADDAY121031AY221031GF106991041001999999041081MA1999999101901MD1610131+9999MW1101REMSYN072AAXX  13154 08023 41959 60811 10142 20112 30190 40261 56013 71022 84048;
0233080230999992000121318004+43460-003810FM-12+006599999V0201101N003619999999N0090001N1+01281+01111102491ADDAA199000091AY121061AY221061GF105991041001999999041081KA1120M+01551KA2999N+01281MA1999999101781MD1810121+9999MW1101REMSYN088AAXX  13184 08023 31959 51107 10128 20111 30178 40249 58012 71022 84048 333 10155 20128;EQDQ01  00002PRCP99
0161080230999992000121321004+43460-003810FM-12+006599999V0202501N003119999999N0090001N1+01301+00971102371ADDAY121031AY221031GF106991061001999999071001MA1999999101661MD1510121+9999MW1101REMSYN072AAXX  13214 08023 41959 62506 10130 20097 30166 40237 55012 71022 86070;
0191080230999992000121400004+43460-003810FM-12+006599999V0202601N003110360019N0080001N1+01201+01041102161ADDAA199000091AY121061AY221061GF107991041051008001071001MA1999999101451MD1510211+9999MW1101REMSYN072AAXX  14004 08023 31558 72606 10120 20104 30145 40216 55021 71022 84570;EQDQ01  00002PRCP99
0161080230999992000121403004+43460-003810FM-12+006599999V0201901N004610120019N0100001N1+01381+01121101701ADDAY161031AY221031GF107991051081008001071001MA1999999100991MD1710461+9999MW1021REMSYN072AAXX  14034 08023 41560 71909 10138 20112 30099 40170 57046 70262 85870;
0213080230999992000121406004+43460-003810FM-12+006599999V0202901N008210042019N0120001N1+01291+01121101641ADDAA112000791AY161061AY221061GF107991051071004501071001KA1120N+01201MA1999999100931MD1510061+9999MW1021REMSYN100AAXX  14064 08023 11462 72916 10129 20112 30093 40164 55006 69902 70262 85770 333 20120 50073 55027;
0161080230999992000121409004+43460-003810FM-12+006599999V0202401N005110042019N0060001N1+01121+00921101841ADDAY161031AY251031GF108991081071004501999999MA1999999101131MD1210201+9999MW1511REMSYN072AAXX  14094 08023 41456 82410 10112 20092 30113 40184 52020 75165 887//;
0178080230999992000121412004+43460-003810FM-12+006599999V0202601N005110075019N0100001N1+01211+00951101801ADDAA106000891AY151061AY221061GF108991081051008001999999MA1999999101091MD1810041+9999MW1501REMSYN078AAXX  14124 08023 11560 82610 10121 20095 30109 40180 58004 69971 75052 885//;
0133080230999992000121415004+43460-003810FM-12+006599999V0202601N004610360019N0100001N1+01301+01071101741ADDGF108991041081008001071999MA1999999101031MD1510061+9999REMSYN066AAXX  14154 08023 42560 82609 10130 20107 30103 40174 55006 8487/;
0201080230999992000121418004+43460-003810FM-12+006599999V0202901N009310120019N0100001N1+01181+00941101841ADDAA112002091AY181061AY221061GF108991051081008001071999KA1999M+01361MA1999999101131MD1210101+9999MW1501REMSYN088AAXX  14184 08023 11560 82918 10118 20094 30113 40184 52010 60022 75082 8587/ 333 10136;
0161080230999992000121421004+43460-003810FM-12+006599999V0202701N007210360019N0080001N1+01031+00801101931ADDAY181031AY221031GF107991041081008001071999MA1999999101211MD1110081+9999MW1811REMSYN072AAXX  14214 08023 41558 72714 10103 20080 30121 40193 51008 78182 8487/;
0178080230999992000121500004+43460-003810FM-12+006599999V0203201N013910120019N0100001N1+01021+00631101991ADDAA106003091AY181061AY221061GF105991051081008001001001MA1999999101271MD1310061+9999MW1801REMSYN078AAXX  15004 08023 11560 53227 10102 20063 30127 40199 53006 60031 78082 85800;
0161080230999992000121503004+43460-003810FM-12+006599999V0203101N015910120019N0080001N1+00851+00591102051ADDAY181031AY221031GF106991061081008001001001MA1999999101331MD1110061+9999MW1811REMSYN072AAXX  15034 08023 41558 63131 10085 20059 30133 40205 51006 78182 86800;
0213080230999992000121506004+43460-003810FM-12+006599999V0203101N015912200019N0100001N1+00801+00481102051ADDAA112005191AY181061AY221061GF104991041021008001001001KA1120N+00801MA1999999101331MD1410001+9999MW1021REMSYN100AAXX  15064 08023 11560 43131 10080 20048 30133 40205 54000 60052 70282 84200 333 20080 50133 55000;
0161080230999992000121509004+43460-003810FM-12+006599999V0202901N011810360019N0400001N1+01021+00701102151ADDAY181031AY261031GF107991041081008001061001MA1999999101431MD1210101+9999MW1021REMSYN072AAXX  15094 08023 41582 72923 10102 20070 30143 40215 52010 70286 84860;
0178080230999992000121512004+43460-003810FM-12+006599999V0202901N011810360019N0150001N1+01051+00571102171ADDAA106000891AY181061AY261061GF106991041081008001051001MA1999999101451MD1110021+9999MW1021REMSYN078AAXX  15124 08023 11565 62923 10105 20057 30145 40217 51002 69971 70286 84850;
0161080230999992000121515004+43460-003810FM-12+006599999V0202901N012310120019N0150001N1+00981+00611102171ADDAY181031AY221031GF107991051081008001071999MA1999999101451MD1410001+9999MW1251REMSYN072AAXX  15154 08023 41565 72924 10098 20061 30145 40217 54000 72582 8587/;
0201080230999992000121518004+43460-003810FM-12+006599999V0203101N008710120019N0080001N1+00921+00751102271ADDAA112005191AY181061AY261061GF108991061081008001071001KA1999M+01111MA1999999101551MD1210101+9999MW1601REMSYN088AAXX  15184 08023 11558 83117 10092 20075 30155 40227 52010 60052 76086 86870 333 10111;
0161080230999992000121521004+43460-003810FM-12+006599999V0202901N009810120019N0100001N1+00991+00801102271ADDAY181031AY261031GF107991061081008001071001MA1999999101551MD1410001+9999MW1211REMSYN072AAXX  15214 08023 41560 72919 10099 20080 30155 40227 54000 72186 86870;
0178080230999992000121600004+43460-003810FM-12+006599999V0202901N008210360019N0100001N1+01071+00671102261ADDAA106001091AY161061AY221061GF106991041081008001031001MA1999999101541MD1610011+9999MW1021REMSYN078AAXX  16004 08023 11560 62916 10107 20067 30154 40226 56001 60011 70262 84830;
0161080230999992000121603004+43460-003810FM-12+006599999V0202801N009310360019N0100001N1+01071+00761102291ADDAY181031AY221031GF106991041081008001031001MA1999999101571MD1110031+9999MW1021REMSYN072AAXX  16034 08023 41560 62818 10107 20076 30157 40229 51003 70282 84830;
0213080230999992000121606004+43460-003810FM-12+006599999V0201501N007210360019N0100001N1+00971+00741102291ADDAA112001091AY181061AY221061GF106991031081008001031001KA1120N+00901MA1999999101571MD1410001+9999MW1021REMSYN100AAXX  16064 08023 11560 61514 10097 20074 30157 40229 54000 60012 70282 83830 333 20090 50543 55030;
0133080230999992000121609004+43460-003810FM-12+006599999V0202201N005110360019N0750001N1+01001+00461102301ADDGF106991031081017501031001MA1999999101581MD1110011+9999REMSYN066AAXX  16094 08023 42789 62210 10100 20046 30158 40230 51001 83830;
0163080230999992000121612004+43460-003810FM-12+006599999V0202601N004112200019N0500001N1+01261+00471102241ADDAA199000091GF104991041001999999051011MA1999999101531MD1810051+9999REMSYN066AAXX  16124 08023 32984 42608 10126 20047 30153 40224 58005 84051;EQDQ01  00002PRCP99
0133080230999992000121615004+43460-003810FM-12+006599999V0202901N003619999999N0300001N1+01261+00531102161ADDGF106991061001999999031001MA1999999101451MD1710081+9999REMSYN066AAXX  16154 08023 42980 62907 10126 20053 30145 40216 57008 86030;
0186080230999992000121618004+43460-003810FM-12+006599999V0202301N002619999999N0200001N1+01161+00401102111ADDAA199000091GF106991041001999999031061KA1999M+01341MA1999999101391MD1610061+9999REMSYN076AAXX  16184 08023 32970 62305 10116 20040 30139 40211 56006 84036 333 10134;EQDQ01  00002PRCP99
0133080230999992000121621004+43460-003810FM-12+006599999V0202201N006210360019N0200001N1+01041+00411102061ADDGF106991041051012501031999MA1999999101341MD1710051+9999REMSYN066AAXX  16214 08023 42670 62212 10104 20041 30134 40206 57005 8453/;
0163080230999992000121700004+43460-003810FM-12+006599999V0202101N004610120019N0200001N1+01061+00431102031ADDAA199000091GF106991061051012501999999MA1999999101311MD1610031+9999REMSYN066AAXX  17004 08023 32670 62109 10106 20043 30131 40203 56003 865//;EQDQ01  00002PRCP99
0133080230999992000121703004+43460-003810FM-12+006599999V0202101N005712200019N0300001N1+00941+00391101931ADDGF101991011051012501001001MA1999999101211MD1710101+9999REMSYN066AAXX  17034 08023 42680 12111 10094 20039 30121 40193 57010 81500;
0208080230999992000121706004+43460-003810FM-12+006599999V0202201N005112200019N0400001N1+00981+00221101781ADDAA199000091GA1001+999999999GF100991001001999999001001KA1120N+00841MA1999999101061MD1610151+9999REMSYN082AAXX  17064 08023 32982 02210 10098 20022 30106 40178 56015 333 20084 50123 55039;EQDQ01  00002PRCP99
0133080230999992000121709004+43460-003810FM-12+006599999V0202101N005719999999N0300001N1+00961+00251101851ADDGF106991001001999999001081MA1999999101131MD1310071+9999REMSYN066AAXX  17094 08023 42980 62111 10096 20025 30113 40185 53007 80008;
0163080230999992000121712004+43460-003810FM-12+006599999V0201601N001519999999N0200001N1+01281+00551101781ADDAA199000091GF107991021001999999041071MA1999999101071MD1810061+9999REMSYN066AAXX  17124 08023 32970 71603 10128 20055 30107 40178 58006 82047;EQDQ01  00002PRCP99
0133080230999992000121715004+43460-003810FM-12+006599999V0202101N007210360019N0250001N1+01241+00451101611ADDGF108991011051017501071999MA1999999100901MD1710171+9999REMSYN066AAXX  17154 08023 42775 82114 10124 20045 30090 40161 57017 8157/;
0201080230999992000121718004+43460-003810FM-12+006599999V0202001N007710360019N0200001N1+01251+00541101681ADDAA112000791AY121061AY221061GF107991021051012501071999KA1999M+01351MA1999999100971MD1310071+9999MW1801REMSYN088AAXX  17184 08023 11670 72015 10125 20054 30097 40168 53007 69902 78022 8257/ 333 10135;
0133080230999992000121721004+43460-003810FM-12+006599999V0201901N007712200019N0200001N1+01221+00581101651ADDGF102991011051008001041001MA1999999100941MD1810031+9999REMSYN066AAXX  17214 08023 42570 21915 10122 20058 30094 40165 58003 81540;
0144080230999992000121800004+43460-003810FM-12+006599999V0202001N007712200019N0200001N1+01271+00591101621ADDAA199000021GF102991001001999999001011MA1999999100911MD1710031+9999REMSYN066AAXX  18004 08023 32970 22015 10127 20059 30091 40162 57003 80001;
0133080230999992000121803004+43460-003810FM-12+006599999V0202001N007712200019N0200001N1+01301+00531101561ADDGF104991001001999999001011MA1999999100851MD1710061+9999REMSYN066AAXX  18034 08023 42970 42015 10130 20053 30085 40156 57006 80001;
0213080230999992000121806004+43460-003810FM-12+006599999V0202001N007210360019N0150001N1+01301+00821101481ADDAA112000791AY121061AY221061GF108991041081008001071999KA1120N+01221MA1999999100771MD1710081+9999MW1801REMSYN100AAXX  18064 08023 11565 82014 10130 20082 30077 40148 57008 69902 78022 8487/ 333 20122 50333 55030;
0133080230999992000121809004+43460-003810FM-12+006599999V0202101N009810360019N0150001N1+01481+00801101431ADDGF107991031051012501071081MA1999999100731MD1610041+9999REMSYN066AAXX  18094 08023 42665 72119 10148 20080 30073 40143 56004 83578;
0178080230999992000121812004+43460-003810FM-12+006599999V0202201N008710360019N0200001N1+01501+00871101511ADDAA106000791AY161061AY221061GF107991011081012501071999MA1999999100811MD1310081+9999MW1801REMSYN078AAXX  18124 08023 11670 72217 10150 20087 30081 40151 53008 69901 78062 8187/;
0133080230999992000121815004+43460-003810FM-12+006599999V0202101N008710360019N0350001N1+01641+00911101521ADDGF107991011081012501071001MA1999999100821MD1310011+9999REMSYN066AAXX  18154 08023 42681 72117 10164 20091 30082 40152 53001 81870;
0173080230999992000121818004+43460-003810FM-12+006599999V0202101N009810360019N0200001N1+01621+00931101551ADDAA112000791GF108991011081012501071999KA1999M+01661MA1999999100851MD1110031+9999REMSYN082AAXX  18184 08023 12670 82119 10162 20093 30085 40155 51003 69902 8187/ 333 10166;
0133080230999992000121821004+43460-003810FM-12+006599999V0202101N009810360019N0200001N1+01661+00861101511ADDGF108991011081012501071999MA1999999100811MD1810041+9999REMSYN066AAXX  18214 08023 42670 82119 10166 20086 30081 40151 58004 8187/;
0144080230999992000121900004+43460-003810FM-12+006599999V0201901N009810210019N0150001N1+01561+00851101491ADDAA199000021GF108991081001022501071999MA1999999100791MD1710021+9999REMSYN066AAXX  19004 08023 32865 81919 10156 20085 30079 40149 57002 8807/;
0133080230999992000121903004+43460-003810FM-12+006599999V0202101N012910210019N0150001N1+01561+00761101331ADDGF107991071001022501071999MA1999999100631MD1710161+9999REMSYN066AAXX  19034 08023 42865 72125 10156 20076 30063 40133 57016 8707/;
0198080230999992000121906004+43460-003810FM-12+006599999V0202101N010310210019N0150001N1+01481+00661101311ADDAA199000091GF107991071001022501071999KA1120N+01421MA1999999100611MD1610021+9999REMSYN088AAXX  19064 08023 32865 72120 10148 20066 30061 40131 56002 8707/ 333 20142 50383 55000;EQDQ01  00002PRCP99
0133080230999992000121909004+43460-003810FM-12+006599999V0202001N011810210019N0750001N1+01441+00501101321ADDGF108991081001022501071999MA1999999100621MD1310011+9999REMSYN066AAXX  19094 08023 42889 82023 10144 20050 30062 40132 53001 8807/;
0163080230999992000121912004+43460-003810FM-12+006599999V0202101N013910210019N0750001N1+01541+00591101241ADDAA199000091GF108991081001022501071999MA1999999100541MD1710081+9999REMSYN066AAXX  19124 08023 32889 82127 10154 20059 30054 40124 57008 8807/;EQDQ01  00002PRCP99
0133080230999992000121915004+43460-003810FM-12+006599999V0202101N007210210019N0700001N1+01541+00531101171ADDGF108991081001022501071999MA1999999100471MD1510071+9999REMSYN066AAXX  19154 08023 42888 82114 10154 20053 30047 40117 55007 8807/;
0186080230999992000121918004+43460-003810FM-12+006599999V0202201N012910210019N0200001N1+01561+00561101051ADDAA199000091GF108991081001022501071999KA1999M+01581MA1999999100351MD1710121+9999REMSYN076AAXX  19184 08023 32870 82225 10156 20056 30035 40105 57012 8807/ 333 10158;EQDQ01  00002PRCP99
0133080230999992000121921004+43460-003810FM-12+006599999V0202201N004110210019N0200001N1+01551+00471101071ADDGF108991081001022501071999MA1999999100371MD1310021+9999REMSYN066AAXX  19214 08023 42870 82208 10155 20047 30037 40107 53002 8807/;
0163080230999992000122000004+43460-003810FM-12+006599999V0202001N009310210019N0200001N1+01561+00481100971ADDAA199000091GF108991081001022501071999MA1999999100271MD1710101+9999REMSYN066AAXX  20004 08023 32870 82018 10156 20048 30027 40097 57010 8807/;EQDQ01  00002PRCP99
0133080230999992000122003004+43460-003810FM-12+006599999V0202201N009810210019N0200001N1+01721+00351100941ADDGF108991081001022501071999MA1999999100251MD1710021+9999REMSYN066AAXX  20034 08023 42870 82219 10172 20035 30025 40094 57002 8807/;
0198080230999992000122006004+43460-003810FM-12+006599999V0201901N005110210019N0200001N1+01421+00371100881ADDAA199000091GF108991061001022501071071KA1120N+01421MA1999999100181MD1710071+9999REMSYN088AAXX  20064 08023 32870 81910 10142 20037 30018 40088 57007 86077 333 20142 50623 55000;EQDQ01  00002PRCP99
0133080230999992000122009004+43460-003810FM-12+006599999V0201801N001510900019N0150001N1+01341+00481100911ADDGF107991031001022501041071MA1999999100211MD1310031+9999REMSYN066AAXX  20094 08023 42865 71803 10134 20048 30021 40091 53003 83047;
0163080230999992000122012004+43460-003810FM-12+006599999V0201901N005110900019N0100001N1+01581+00481100881ADDAA199000091GF107991021001022501041081MA1999999100181MD1810031+9999REMSYN066AAXX  20124 08023 32860 71910 10158 20048 30018 40088 58003 82048;EQDQ01  00002PRCP99
0133080230999992000122015004+43460-003810FM-12+006599999V0201801N005719999999N0150001N1+01621+00371100671ADDGF107991011001999999041081MA1999999099981MD1610201+9999REMSYN066AAXX  20154 08023 42965 71811 10162 20037 39998 40067 56020 81048;
0186080230999992000122018004+43460-003810FM-12+006599999V0202001N005119999999N0150001N1+01401+00161100691ADDAA199000091GF107991021001999999041081KA1999M+01671MA1999999099991MD1310011+9999REMSYN076AAXX  20184 08023 32965 72010 10140 20016 39999 40069 53001 82048 333 10167;EQDQ01  00002PRCP99
0133080230999992000122021004+43460-003810FM-12+006599999V0202301N009319999999N0150001N1+01271+00241100791ADDGF108991001001999999001071MA1999999100091MD1310101+9999REMSYN066AAXX  20214 08023 42965 82318 10127 20024 30009 40079 53010 80007;
0163080230999992000122100004+43460-003810FM-12+006599999V0202001N007212200019N0150001N1+01241+00321100791ADDAA199000091GF104991001001999999001081MA1999999100091MD1010001+9999REMSYN066AAXX  21004 08023 32965 42014 10124 20032 30009 40079 50000 80008;EQDQ01  00002PRCP99
0133080230999992000122103004+43460-003810FM-12+006599999V0202201N007712200019N0150001N1+01261+00201100751ADDGF103991011001022501041081MA1999999100051MD1710041+9999REMSYN066AAXX  21034 08023 42865 32215 10126 20020 30005 40075 57004 81048;
0208080230999992000122106004+43460-003810FM-12+006599999V0202001N007212200019N0150001N1+01341+00071100691ADDAA199000091GA1001+999999999GF100991001001999999001001KA1120N+01191MA1999999099991MD1710061+9999REMSYN082AAXX  21064 08023 32965 02014 10134 20007 39999 40069 57006 333 20119 50143 55028;EQDQ01  00002PRCP99
0133080230999992000122109004+43460-003810FM-12+006599999V0201801N007212200019N0150001N1+01281+00291100711ADDGF103991011011008001041011MA1999999100011MD1310021+9999REMSYN066AAXX  21094 08023 42565 31814 10128 20029 30001 40071 53002 81141;
0163080230999992000122112004+43460-003810FM-12+006599999V0202101N005112200019N0150001N1+01581+00641100591ADDAA199000091GF102991011011008001001011MA1999999099901MD1810111+9999REMSYN066AAXX  21124 08023 32565 22110 10158 20064 39990 40059 58011 81101;EQDQ01  00002PRCP99
0133080230999992000122115004+43460-003810FM-12+006599999V0201601N005112200019N0150001N1+01551+00271100471ADDGF101991011011008001001001MA1999999099781MD1710121+9999REMSYN066AAXX  21154 08023 42565 11610 10155 20027 39978 40047 57012 81100;
0186080230999992000122118004+43460-003810FM-12+006599999V0202201N005112200019N0120001N1+01381+00261100451ADDAA199000091GF102991011011008001001021KA1999M+01641MA1999999099751MD1610031+9999REMSYN076AAXX  21184 08023 32562 22210 10138 20026 39975 40045 56003 81102 333 10164;EQDQ01  00002PRCP99
0133080230999992000122121004+43460-003810FM-12+006599999V0201201N006212200019N0120001N1+01281+00371100371ADDGF104991011011008001001051MA1999999099671MD1810081+9999REMSYN066AAXX  21214 08023 42562 41212 10128 20037 39967 40037 58008 81105;
0163080230999992000122200004+43460-003810FM-12+006599999V0201301N008710900019N0120001N1+01331+00391100251ADDAA199000091GF105991011011008001071081MA1999999099551MD1810121+9999REMSYN066AAXX  22004 08023 32562 51317 10133 20039 39955 40025 58012 81178;EQDQ01  00002PRCP99
0133080230999992000122203004+43460-003810FM-12+006599999V0201501N003610360019N0120001N1+01451+00151100101ADDGF106991011011008001071081MA1999999099411MD1610141+9999REMSYN066AAXX  22034 08023 42562 61507 10145 20015 39941 40010 56014 81178;
0198080230999992000122206004+43460-003810FM-12+006599999V0201301N006210360019N0120001N1+01431+00361099911ADDAA199000091GF106991011011008001071081KA1120N+01231MA1999999099221MD1610191+9999REMSYN088AAXX  22064 08023 32562 61312 10143 20036 39922 49991 56019 81178 333 20123 50143 55072;EQDQ01  00002PRCP99
0133080230999992000122209004+43460-003810FM-12+006599999V0201401N007210360019N0120001N1+01491+00451099881ADDGF107991011011008001041081MA1999999099191MD1610031+9999REMSYN066AAXX  22094 08023 42562 71414 10149 20045 39919 49988 56003 81148;
0163080230999992000122212004+43460-003810FM-12+006599999V0201301N006710360019N0150001N1+01521+00621099881ADDAA199000091GF107991021011008001041081MA1999999099191MD1010001+9999REMSYN066AAXX  22124 08023 32565 71313 10152 20062 39919 49988 50000 82148;EQDQ01  00002PRCP99
0133080230999992000122215004+43460-003810FM-12+006599999V0201401N005110360019N0400001N1+01541+00721099821ADDGF107991021071008001071081MA1999999099131MD1610061+9999REMSYN066AAXX  22154 08023 42582 71410 10154 20072 39913 49982 56006 82778;
0186080230999992000122218004+43460-003810FM-12+006599999V0201401N007210360019N0200001N1+01521+00741099901ADDAA199000091GF108991021071008001071081KA1999M+01651MA1999999099211MD1210081+9999REMSYN076AAXX  22184 08023 32570 81414 10152 20074 39921 49990 52008 82778 333 10165;EQDQ01  00002PRCP99
0133080230999992000122221004+43460-003810FM-12+006599999V0200901N002110150019N0150001N1+01431+00901099951ADDGF108991051001017501071081MA1999999099261MD1310051+9999REMSYN066AAXX  22214 08023 42765 80904 10143 20090 39926 49995 53005 85078;
0163080230999992000122300004+43460-003810FM-12+006599999V0202201N003110360019N0150001N1+01461+01171100071ADDAA199000091GF108991011071008001071081MA1999999099381MD1210121+9999REMSYN066AAXX  23004 08023 32565 82206 10146 20117 39938 40007 52012 81778;EQDQ01  00002PRCP99
0133080230999992000122303004+43460-003810FM-12+006599999V0202101N008210150019N0150001N1+01381+00591100131ADDGF108991051001017501071081MA1999999099431MD1310051+9999REMSYN066AAXX  23034 08023 42765 82116 10138 20059 39943 40013 53005 85078;
0198080230999992000122306004+43460-003810FM-12+006599999V0202101N006710150019N0150001N1+01261+00631100111ADDAA199000091GF108991051001017501071081KA1120N+01261MA1999999099411MD1510021+9999REMSYN088AAXX  23064 08023 32765 82113 10126 20063 39941 40011 55002 85078 333 20126 50233 55000;EQDQ01  00002PRCP99
0133080230999992000122309004+43460-003810FM-12+006599999V0202201N005112200019N0750001N1+01221+00771100191ADDGF104991021001022501071011MA1999999099491MD1210081+9999REMSYN066AAXX  23094 08023 42889 42210 10122 20077 39949 40019 52008 82071;
0163080230999992000122312004+43460-003810FM-12+006599999V0202501N004612200019N0750001N1+01571+00751100181ADDAA199000091GF103991021001022501071011MA1999999099491MD1010001+9999REMSYN066AAXX  23124 08023 32889 32509 10157 20075 39949 40018 50000 82071;EQDQ01  00002PRCP99
0133080230999992000122315004+43460-003810FM-12+006599999V0201901N009812200019N0500001N1+01441+01001100001ADDGF102991011051008001001011MA1999999099311MD1710181+9999REMSYN066AAXX  23154 08023 42584 21919 10144 20100 39931 40000 57018 81501;
0186080230999992000122318004+43460-003810FM-12+006599999V0201801N006212200019N0300001N1+01341+00911099901ADDAA199000091GF101991011001022501071011KA1999M+01651MA1999999099211MD1710101+9999REMSYN076AAXX  23184 08023 32880 11812 10134 20091 39921 49990 57010 81071 333 10165;EQDQ01  00002PRCP99
0133080230999992000122321004+43460-003810FM-12+006599999V0202001N009812200019N0200001N1+01391+00421099791ADDGF101991011051008001001001MA1999999099101MD1710111+9999REMSYN066AAXX  23214 08023 42570 12019 10139 20042 39910 49979 57011 81500;
0163080230999992000122400004+43460-003810FM-12+006599999V0202101N009810210019N0200001N1+01441+01021099681ADDAA199000091GF105991051001022501071001MA1999999098991MD1710111+9999REMSYN066AAXX  24004 08023 32870 52119 10144 20102 39899 49968 57011 85070;EQDQ01  00002PRCP99
0133080230999992000122403004+43460-003810FM-12+006599999V0202101N006210360019N0200001N1+01341+00541099621ADDGF107991011051008001041011MA1999999098931MD1810061+9999REMSYN066AAXX  24034 08023 42570 72112 10134 20054 39893 49962 58006 81541;
0198080230999992000122406004+43460-003810FM-12+006599999V0202001N008212200019N0200001N1+01341+00971099381ADDAA199000091GF104991011051008001071011KA1120N+01241MA1999999098691MD1710241+9999REMSYN088AAXX  24064 08023 32570 42016 10134 20097 39869 49938 57024 81571 333 20124 50283 55072;EQDQ01  00002PRCP99
0133080230999992000122409004+43460-003810FM-12+006599999V0202101N007712200019N0300001N1+01401+01041099321ADDGF104991011051017501041021MA1999999098631MD1510061+9999REMSYN066AAXX  24094 08023 42780 42115 10140 20104 39863 49932 55006 81542;
0163080230999992000122412004+43460-003810FM-12+006599999V0202001N008710900019N0250001N1+01621+01221099251ADDAA199000091GF105991011051017501041081MA1999999098571MD1710061+9999REMSYN066AAXX  24124 08023 32775 52017 10162 20122 39857 49925 57006 81548;EQDQ01  00002PRCP99
0161080230999992000122415004+43460-003810FM-12+006599999V0201901N006710150019N0200001N1+01401+00981099201ADDAY151031AY221031GF107991051081012501071999MA1999999098511MD1610061+9999MW1201REMSYN072AAXX  24154 08023 41670 71913 10140 20098 39851 49920 56006 72052 8587/;
0201080230999992000122418004+43460-003810FM-12+006599999V0202401N004110360019N0150001N1+01231+01021099301ADDAA112000791AY161061AY221061GF106991031081012501071001KA1999M+01631MA1999999098611MD1210101+9999MW1021REMSYN088AAXX  24184 08023 11665 62408 10123 20102 39861 49930 52010 69902 70262 83870 333 10163;
0133080230999992000122421004+43460-003810FM-12+006599999V0202401N005112200019N0100001N1+01181+00901099381ADDGF103991011081012501041001MA1999999098691MD1210081+9999REMSYN066AAXX  24214 08023 42660 32410 10118 20090 39869 49938 52008 81840;
0144080230999992000122500004+43460-003810FM-12+006599999V0202201N004112200019N0100001N1+01181+00861099451ADDAA199000021GF104991011051017501031001MA1999999098751MD1210061+9999REMSYN066AAXX  25004 08023 32760 42208 10118 20086 39875 49945 52006 81530;
0133080230999992000122503004+43460-003810FM-12+006599999V0202101N004112200019N0100001N1+01101+00681099471ADDGF102991021001022501031001MA1999999098771MD1110021+9999REMSYN066AAXX  25034 08023 42860 22108 10110 20068 39877 49947 51002 82030;
0198080230999992000122506004+43460-003810FM-12+006599999V0202101N005712200019N0100001N1+01011+00741099481ADDAA199000091GF103991031001022501031001KA1120N+01001MA1999999098781MD1110011+9999REMSYN088AAXX  25064 08023 32860 32111 10101 20074 39878 49948 51001 83030 333 20100 50223 55016;EQDQ01  00002PRCP99
0133080230999992000122509004+43460-003810FM-12+006599999V0202001N005112200019N0750001N1+01121+00801099491ADDGF102991011021008001041011MA1999999098791MD1210011+9999REMSYN066AAXX  25094 08023 42589 22010 10112 20080 39879 49949 52001 81241;
0163080230999992000122512004+43460-003810FM-12+006599999V0202201N007712200019N0750001N1+01501+01051099441ADDAA199000091GF102991011011008001041021MA1999999098751MD1810041+9999REMSYN066AAXX  25124 08023 32589 22215 10150 20105 39875 49944 58004 81142;EQDQ01  00002PRCP99
0133080230999992000122515004+43460-003810FM-12+006599999V0202101N008210900019N0400001N1+01411+00311099281ADDGF107991011001022501041061MA1999999098591MD1710161+9999REMSYN066AAXX  25154 08023 42882 72116 10141 20031 39859 49928 57016 81046;
0202080230999992000122518004+43460-003810FM-12+006599999V0202101N008210900019N0200001N1+01401+00351099101ADDAA199000091GF107991011001022501041061KA1999N+99999MA1999999098411MD1710181+9999REMSYN076AAXX  25184 08023 32870 72116 10140 20035 39841 49910 57018 81046 333 20156;EQDQ01  00002PRCP99Q02 +01562ATMN  
0161080230999992000122521004+43460-003810FM-12+006599999V0201901N007212200019N0200001N1+01241+00411098911ADDAY161031AY221031GF103991031001022501041011MA1999999098221MD1710191+9999MW1011REMSYN072AAXX  25214 08023 41870 31914 10124 20041 39822 49891 57019 70162 83041;
0178080230999992000122600004+43460-003810FM-12+006599999V0202401N009310210019N0200001N1+01421+00441098781ADDAA106000591AY161061AY221061GF107991071001022501041999MA1999999098091MD1510131+9999MW1021REMSYN078AAXX  26004 08023 11870 72418 10142 20044 39809 49878 55013 69951 70262 8704/;
0195080230999992000122606004+43460-003810FM-12+006599999V0202101N010812200019N0200001N1+01241+00121098641ADDAA112000591GA1001+999999999GF100991001001999999001001KA1120N+01151MA1999999097951MD1710181+9999REMSYN088AAXX  26064 08023 12970 02121 10124 20012 39795 49864 57018 69952 333 20115 50443 55057;
0133080230999992000122609004+43460-003810FM-12+006599999V0202201N009810360019N0750001N1+01321-00151098641ADDGF106991011051012501071011MA1999999097951MD1010001+9999REMSYN066AAXX  26094 08023 42689 62219 10132 21015 39795 49864 50000 81571;
0163080230999992000122612004+43460-003810FM-12+006599999V0202101N009810900019N0400001N1+01521+00241098631ADDAA199000091GF105991011011012501031021MA1999999097951MD1410001+9999REMSYN066AAXX  26124 08023 32682 52119 10152 20024 39795 49863 54000 81132;EQDQ01  00002PRCP99
0133080230999992000122615004+43460-003810FM-12+006599999V0202101N009310360019N0350001N1+01511+00341098571ADDGF106991041051012501071001MA1999999097891MD1610061+9999REMSYN066AAXX  26154 08023 42681 62118 10151 20034 39789 49857 56006 84570;
0186080230999992000122618004+43460-003810FM-12+006599999V0203401N001010120019N0400001N1+01301+00731098721ADDAA199000091GF107991051051012501071001KA1999M+01601MA1999999098031MD1310141+9999REMSYN076AAXX  26184 08023 32682 73402 10130 20073 39803 49872 53014 85570 333 10160;EQDQ01  00002PRCP99
0133080230999992000122621004+43460-003810FM-12+006599999V0209999C000010150019N0250001N1+01321+00571098801ADDGF107991051081012501071001MA1999999098111MD1210081+9999REMSYN066AAXX  26214 08023 42675 70000 10132 20057 39811 49880 52008 85870;
0178080230999992000122700004+43460-003810FM-12+006599999V0209999C000010150019N0250001N1+01241+00711098871ADDAA106000791AY151061AY221061GF106991051081012501071001MA1999999098181MD1210071+9999MW1501REMSYN078AAXX  27004 08023 11675 60000 10124 20071 39818 49887 52007 69901 75052 85870;
0133080230999992000122703004+43460-003810FM-12+006599999V0202801N005110150019N0250001N1+01181+00641098911ADDGF106991061081012501001001MA1999999098221MD1210041+9999REMSYN066AAXX  27034 08023 42675 62810 10118 20064 39822 49891 52004 86800;
0213080230999992000122706004+43460-003810FM-12+006599999V0203101N008210120019N0150001N1+01101+00771099001ADDAA112001091AY121061AY221061GF108991061081008001061999KA1120N+01061MA1999999098311MD1210091+9999MW1801REMSYN100AAXX  27064 08023 11565 83116 10110 20077 39831 49900 52009 60012 78022 8686/ 333 20106 50203 55040;
0161080230999992000122709004+43460-003810FM-12+006599999V0202001N004110360019N0400001N1+01021+00501099191ADDAY181031AY221031GF105991041081008001061001MA1999999098491MD1110181+9999MW1021REMSYN072AAXX  27094 08023 41582 52008 10102 20050 39849 49919 51018 70282 84860;
0178080230999992000122712004+43460-003810FM-12+006599999V0202801N002110120019N0250001N1+01181+00541099281ADDAA106000191AY181061AY221061GF107991061081008001061001MA1999999098591MD1110101+9999MW1021REMSYN078AAXX  27124 08023 11575 72804 10118 20054 39859 49928 51010 69911 70282 86860;
0161080230999992000122715004+43460-003810FM-12+006599999V0202801N012310075019N0060001N1+00881+00711099351ADDAY181031AY221031GF107991051021008001061001MA1999999098651MD1210061+9999MW1801REMSYN072AAXX  27154 08023 41556 72824 10088 20071 39865 49935 52006 78082 85260;
0220080230999992000122718004+43460-003810FM-12+006599999V0203101N013410120019N0090001N1+01041+00791099911ADDAA112018091AY191061AY281061GF108991081081008001999999KA1120M+01401KA2999N+00741MA1999999099211MD1210561+9999MW1801REMSYN094AAXX  27184 08023 11559 83126 10104 20079 39921 49991 52056 60182 78098 888// 333 10140 20074;
0161080230999992000122721004+43460-003810FM-12+006599999V0203101N014910090019N0050001N1+00901+00691100531ADDAY181031AY281031GF108991081081004501999999MA1999999099821MD1210611+9999MW1811REMSYN072AAXX  27214 08023 41450 83129 10090 20069 39982 40053 52061 78188 888//;
0178080230999992000122800004+43460-003810FM-12+006599999V0203401N009810090019N0100001N1+00841+00691100881ADDAA106007191AY181061AY281061GF108991081081004501999999MA1999999100171MD1110351+9999MW1801REMSYN078AAXX  28004 08023 11460 83419 10084 20069 30017 40088 51035 60071 78088 888//;
0161080230999992000122803004+43460-003810FM-12+006599999V0202301N005710090019N0100001N1+00731+00481100971ADDAY181031AY221031GF108991081081004501999999MA1999999100251MD1310081+9999MW1251REMSYN072AAXX  28034 08023 41460 82311 10073 20048 30025 40097 53008 72582 888//;
0213080230999992000122806004+43460-003810FM-12+006599999V0202101N004110360019N0150001N1+00661+00191100821ADDAA112007191AY181061AY221061GF108991021081008001071999KA1120N+00661MA1999999100101MD1810151+9999MW1021REMSYN100AAXX  28064 08023 11565 82108 10066 20019 30010 40082 58015 60072 70282 8287/ 333 20066 50553 55020;
0132080230999992000122809004+43460-003810FM-12+006599999V0202101N005719999999N0150001N1+00821-00121100481ADDGF107991999999008001999999MA1999999099771MD1710331+9999REMSYN065AAXX  28094 08023 42565 72111 10082 21012 39977 40048 57033 8770;
0144080230999992000122812004+43460-003810FM-12+006599999V0201901N010810360019N0350001N1+01051+00181099601ADDAA199000021GF105991021081012501071001MA1999999098901MD1710871+9999REMSYN066AAXX  28124 08023 32681 51921 10105 20018 39890 49960 57087 82870;
0168080230999992000122815004+43460-003810FM-12+006599999V0202101N012910360019N0600001N1+01161+00191098992ADDGF106991031081012501071001MA1999999098302MD1710601+9999REMSYN066AAXX  28154 08023 42686 62125 10116 20019 39830 49899 57060 83870;EQDQ01+098303APOSP Q02+098993APOSLP
0201080230999992000122818004+43460-003810FM-12+006599999V0202801N027210360019N0120001N1+01241+00661099151ADDAA112000891AY121061AY221061GF107991031081012501071001KA1999M+01571MA1999999098461MD1310161+9999MW1251REMSYN088AAXX  28184 08023 11662 72853 10124 20066 39846 49915 53016 69972 72522 83870 333 10157;
0161080230999992000122821004+43460-003810FM-12+006599999V0203101N017510090019N0100001N1+01061+00661099831ADDAY161031AY221031GF107991051081004501071001MA1999999099131MD1210671+9999MW1021REMSYN072AAXX  28214 08023 41460 73134 10106 20066 39913 49983 52067 70262 85870;
0177080230999992000122900004+43460-003810FM-12+006599999V0202901N002610090019N0080001N1+00941+00401100131ADDAA106002091AY161061AY221061GF107991061081004501071001MA1999999099421MD1210291+9999MW1811REMSYN077AAXX  29004 08023 11458 72905 10094 20040 39942 40013 52029 6002178162 86870;
0180080230999992000122903004+43460-003810FM-12+006599999V0202801N008210120019N0150001N1+00851+00741100651ADDAY161031AY221031GF107991051081008001071001MA1999999099941MD1210522+9999MW1211REMSYN072AAXX  29034 08023 41565 72816 10085 20074 39994 40065 52052 72162 85870;EQDQ01+000522APC3  
0213080230999992000122906004+43460-003810FM-12+006599999V0202801N011810360019N0150001N1+00861+00671100961ADDAA112016091AY161061AY221061GF107991041081008001071001KA1120N+00761MA1999999100251MD1210311+9999MW1601REMSYN100AAXX  29064 08023 11565 72823 10086 20067 30025 40096 52031 60162 76062 84870 333 20076 50053 55023;
0187080230999992000122909004+43460-003810FM-12+006599999V0202801N012310360019N0150001N1+01001+00701101041ADDAY181031AY221031GA1031+012509099GF106991031031012501081031MA1999999100331MD1110081+9999MW1251REMSYN082AAXX  29094 08023 41665 62824 10100 20070 30033 40104 51008 72582 83383 333 83996;
0178080230999992000122912004+43460-003810FM-12+006599999V0202801N011810360019N0150001N1+01141+00681101131ADDAA106001091AY181061AY221061GF106991031021012501071091MA1999999100421MD1110091+9999MW1151REMSYN078AAXX  29124 08023 11665 62823 10114 20068 30042 40113 51009 60011 71582 83279;
0161080230999992000122915004+43460-003810FM-12+006599999V0203101N006710360019N0200001N1+01041+00681101121ADDAY181031AY221031GF107991031081012501071001MA1999999100411MD1510011+9999MW1021REMSYN072AAXX  29154 08023 41670 73113 10104 20068 30041 40112 55001 70282 83870;
0201080230999992000122918004+43460-003810FM-12+006599999V0201201N001510360019N0100001N1+00941+00731100731ADDAA112002091AY161061AY221061GF108991031071008001071999KA1999M+01181MA1999999100021MD1810391+9999MW1581REMSYN088AAXX  29184 08023 11560 81203 10094 20073 30002 40073 58039 60022 75862 8377/ 333 10118;
0161080230999992000122921004+43460-003810FM-12+006599999V0209999V000510042019N0100001N1+01021+00541100241ADDAY161031AY221031GF108991051071004501071999MA1999999099531MD1610491+9999MW1601REMSYN072AAXX  29214 08023 41460 89901 10102 20054 39953 40024 56049 76062 8577/;
0204080230999992000123000004+43460-003810FM-12+006599999V0202101N005110360019N0150001N1+01121+00611099921ADDAA106001091AY161061AY221061GA1041+008009099GF108991041091008001071999MA1999999099221MD1710311+9999MW1171REMSYN088AAXX  30004 08023 11565 82110 10112 20061 39922 49992 57031 60011 71762 8497/ 333 84995;
0161080230999992000123003004+43460-003810FM-12+006599999V0202301N008210360019N0060001N1+01001+00661099841ADDAY161031AY221031GF108991041081008001071999MA1999999099141MD1810081+9999MW1621REMSYN072AAXX  30034 08023 41556 82316 10100 20066 39914 49984 58008 76262 8487/;
0213080230999992000123006004+43460-003810FM-12+006599999V0202601N009810360019N0050001N1+01061+00771099721ADDAA112010991AY181061AY261061GF108991041021008001071999KA1120N+00881MA1999999099021MD1610121+9999MW1251REMSYN100AAXX  30064 08023 11550 82619 10106 20077 39902 49972 56012 60112 72586 8427/ 333 20088 50133 55004;
0161080230999992000123009004+43460-003810FM-12+006599999V0203601N008210090019N0120001N1+00921+00571100841ADDAY181031AY261031GF108991061081004501071999MA1999999100131MD1211111+9999MW1021REMSYN072AAXX  30094 08023 41462 83616 10092 20057 30013 40084 52111 70286 8687/;
0178080230999992000123012004+43460-003810FM-12+006599999V0200101N008210360019N0120001N1+00951+00061101491ADDAA106002091AY181061AY261061GF107991041081004501071021MA1999999100771MD1210641+9999MW1021REMSYN078AAXX  30124 08023 11462 70116 10095 20006 30077 40149 52064 60021 70286 84872;
0133080230999992000123015004+43460-003810FM-12+006599999V0200101N004610042019N0200001N1+00921+00021101671ADDGF107991061021004501031001MA1999999100951MD1210181+9999REMSYN066AAXX  30154 08023 42470 70109 10092 20002 30095 40167 52018 86230;
0173080230999992000123018004+43460-003810FM-12+006599999V0200101N004110360019N0150001N1+00921+00081101971ADDAA112002091GF105991041021004501061011KA1999M+01331MA1999999101251MD1210301+9999REMSYN082AAXX  30184 08023 12465 50108 10092 20008 30125 40197 52030 60022 84261 333 10133;
0133080230999992000123021004+43460-003810FM-12+006599999V0202201N003612200019N0200001N1+00681+00351102081ADDGF103991031051008001001001MA1999999101351MD1210101+9999REMSYN066AAXX  30214 08023 42570 32207 10068 20035 30135 40208 52010 83500;
0173080230999992000123100004+43460-003810FM-12+006599999V0202101N005112200019N0200001N1+00591+00051102141ADDAA199000091GA1001+999999999GF100991001001999999001001MA1999999101411MD1110061+9999REMSYN060AAXX  31004 08023 32970 02110 10059 20005 30141 40214 51006;EQDQ01  00002PRCP99
0133080230999992000123103004+43460-003810FM-12+006599999V0201501N004612200019N0200001N1+00511+00291101961ADDGF101991011061008001001001MA1999999101231MD1710181+9999REMSYN066AAXX  31034 08023 42570 11509 10051 20029 30123 40196 57018 81600;
0192080230999992000123106004+43460-003810FM-12+006599999V0201501N002610900019N0200001N1+00611-00051101661ADDAA199000091GF108991041001022501071081KA1120N+00501MA1999999100931MD1710301+9999REMSYN082AAXX  31064 08023 32870 81505 10061 21005 30093 40166 57030 84078 333 20050 55008;EQDQ01  00002PRCP99
0161080230999992000123109004+43460-003810FM-12+006599999V0201501N002110360019N0300001N1+00741+00261101351ADDAY121031AY221031GF108991041071012501071999MA1999999100631MD1710301+9999MW1601REMSYN072AAXX  31094 08023 41680 81504 10074 20026 30063 40135 57030 76022 8477/;
0150080230999992000123112004+43460-003810FM-12+006599999V0201801N010810360019N0300001N1+01271+00331101001ADDAA106000791GF108991041051012501071999MA1999999100301MD1710331+9999REMSYN072AAXX  31124 08023 12680 81821 10127 20033 30030 40100 57033 69901 8457/;
0161080230999992000123115004+43460-003810FM-12+006599999V0202101N013910210019N0200001N1+01091+00451100741ADDAY161031AY221031GF108991081001022501071999MA1999999100031MD1710271+9999MW1601REMSYN072AAXX  31154 08023 41870 82127 10109 20045 30003 40074 57027 76062 8807/;
0201080230999992000123118004+43460-003810FM-12+006599999V0202101N009310210019N0150001N1+01331+00471100591ADDAA112000191AY161061AY221061GF108991081001022501071999KA1999M+01381MA1999999099891MD1710141+9999MW1021REMSYN088AAXX  31184 08023 11865 82118 10133 20047 39989 40059 57014 69922 70262 8807/ 333 10138;
0133080230999992000123121004+43460-003810FM-12+006599999V0202001N014410210019N0150001N1+01531+00631100321ADDGF107991071001022501071999MA1999999099631MD1710261+9999REMSYN066AAXX  31214 08023 42865 72028 10153 20063 39963 40032 57026 8707/;
