0177143030999992000010106004+45050+013620FM-12+000899999V0200901N001012200019N0200001N1+00361+00021102501ADDAA106000091GF102991021081012501041001KA1999N+00351MD1410001+9999REMSYN082AAXX  01061 14303 32698 20901 10036 20002 40250 54000 82840 333 20035 92301 92418;EQDQ01  00002PRCP06
0138143030999992000010109004+45050+013620FM-12+000899999V0200901N002012200019N0000001N1+00561+00001102601ADDGA1001+999999999GF100991001001999999001001MD1210101+9999REMSYN070AAXX  01091 14303 42090 00902 10056 20000 40260 52010 333 92301 92418;
0158143030999992000010112004+45050+013620FM-12+000899999V0203201N003012200019N0200001N1+00741+00001102601ADDAA106000091GF103991031001017501001041MD1410001+9999REMSYN076AAXX  01121 14303 32798 33203 10074 20000 40260 54000 83004 333 92311 92418;EQDQ01  00002PRCP06
0118143030999992000010115004+45050+013620FM-12+000899999V0203401N004012200019N0200001N1+00761-00101102501ADDGF104991041001017501001041MD1710101+9999REMSYN066AAXX  01151 14303 42798 43404 10076 21010 40250 57010 84004 92312;
0177143030999992000010206004+45050+013620FM-12+000899999V0200701N002012200019N0200001N1+00481+00001102501ADDAA106000091GF104991041041012501071001KA1999N+00401MD1410001+9999REMSYN082AAXX  02061 14303 32698 40702 10048 20000 40250 54000 84470 333 20040 92301 92418;EQDQ01  00002PRCP06
0128143030999992000010209004+45050+013620FM-12+000899999V0200901N002019999999N0200001N1+00541+00001102701ADDGF107991071001012501071001MD1210201+9999REMSYN076AAXX  02091 14303 42698 70902 10054 20000 40270 52020 87070 333 92301 92418;
0158143030999992000010212004+45050+013620FM-12+000899999V0203201N003012200019N0200001N1+00741+00101102701ADDAA106000091GF101991011011012501021999MD1410001+9999REMSYN076AAXX  02121 14303 32698 13203 10074 20010 40270 54000 8112/ 333 92301 92418;EQDQ01  00002PRCP06
0138143030999992000010215004+45050+013620FM-12+000899999V0203401N003012200019N0200001N1+00801+00101102801ADDGA1001+999999999GF100991001001999999001001MD1210101+9999REMSYN070AAXX  02151 14303 42098 03403 10080 20010 40280 52010 333 92311 92418;
0177143030999992000010306004+45050+013620FM-12+000899999V0200901N002012200019N0200001N1+00481+00201103001ADDAA106000091GF104991041081012501041001KA1999N+00421MD1210101+9999REMSYN082AAXX  03061 14303 32698 40902 10048 20020 40300 52010 84840 333 20042 92301 92418;EQDQ01  00002PRCP06
0153143030999992000010309004+45050+013620FM-12+000899999V0201101N001019999999N0200001N1+00701+00301103001ADDGF108991001001999999001081MD1410001+9999REMSYN082AAXX  03091 14303 42698 81101 10070 20030 3//// 40300 54000 80008 333 92301 92418;EQDQ01+012502SCOLCB
0153143030999992000010315004+45050+013620FM-12+000899999V0203401N003010150019N0200001N1+00781+00401102801ADDGF108991999081012501041999MD1710101+9999REMSYN082AAXX  03151 14303 42698 83403 10078 20040 3//// 40280 57010 8884/ 333 92301 92418;EQDQ01+000082SCOTLC
0197143030999992000010406004+45050+013620FM-12+000899999V0200901N002019999999N0100001N1+00461+00301102501ADDAA106000091GF105991051001012501071001KA1999N+00351MD1410001+9999SA1+1109REMSYN094AAXX  04061 14303 32697 50902 10046 20030 40250 54000 85070 222// 00110 333 20035 92301 92417;EQDQ01  00002PRCP06
0156143030999992000010409004+45050+013620FM-12+000899999V0200901N002010075019N0040001N1+00541+00401102401ADDAY141031AY221031GF108991081061008001999999MD1710101+9999MW1101REMSYN082AAXX  04091 14303 41596 80902 10054 20040 40240 57010 71042 886// 333 92301 92416;
0186143030999992000010412004+45050+013620FM-12+000899999V0202901N001012200019N0040001N1+00741+00401102301ADDAA106000091AY121061AY211061GF104991041001017501071001MD1710101+9999MW1101REMSYN082AAXX  04121 14303 31796 42901 10074 20040 40230 57010 71021 84070 333 92301 92416;EQDQ01  00002PRCP06
0156143030999992000010415004+45050+013620FM-12+000899999V0203201N002019999999N0040001N1+00741+00401102201ADDAY121031AY221031GF105991051001012501071001MD1710101+9999MW1101REMSYN082AAXX  04151 14303 41696 53202 10074 20040 40220 57010 71022 85070 333 92301 92416;
0237143030999992000010506004+45050+013620FM-12+000899999V0200501N002019999999N0040001N1+00461+00301100221ADDAA106000091AY121061AY211061GF108991081001012501071001IA1119KA1999N+00401MD1410001+9999MW1101SA1+1089REMSYN106AAXX  05061 14303 31696 80502 10046 20030 3//// 40022 54000 71021 88070 222// 00108 333 20040 32301 92416;EQDQ01  00002PRCP06
0197143030999992000010509004+45050+013620FM-12+000899999V0200501N002012200019N0100001N1+00621+00301102302ADDAY111031AY201031GF101991001001999999001041MD1210101+9999MW1101REMSYN088AAXX  05091 14303 41797 10502 10062 20030 3//// 40230 52010 71010 80004 333 92301 92417;EQDQ01+017502SCOLCBQ02+102303APOSLP
0174143030999992000010512004+45050+013620FM-12+000899999V0203201N003012200019N0100001N1+00761+00201102201ADDAA106000091GA1001+999999999GF100991001001999999001001MD1710101+9999REMSYN076AAXX  05121 14303 32997 03203 10076 20020 3//// 40220 57010 333 92311 92417;EQDQ01  00002PRCP06
0144143030999992000010515004+45050+013620FM-12+000899999V0203201N003012200019N0100001N1+00881+00401102201ADDGA1001+999999999GF100991001001999999001001MD1410001+9999REMSYN076AAXX  05151 14303 42997 03203 10088 20040 3//// 40220 54000 333 92311 92417;
0235143030999992000010606004+45050+013620FM-12+000899999V0200501N002012200019N0040001N1+00581+00401102301ADDAA106000091AY101061AY201061GA1001+999999999GF100991001001999999001001KA1999N+00551MD1410001+9999MW1101SA1+1069REMSYN094AAXX  06061 14303 31996 00502 10058 20040 40230 54000 71000 222// 00106 333 20055 92301 92416;EQDQ01  00002PRCP06
0166143030999992000010609004+45050+013620FM-12+000899999V0200901N001012200019N0020001N1+00701+00501102401ADDAY101031AY201031GA1001+999999999GF100991001001999999001001MD1210101+9999MW1101REMSYN076AAXX  06091 14303 41995 00901 10070 20050 40240 52010 71000 333 92301 92415;
0196143030999992000010612004+45050+013620FM-12+000899999V0202701N002012200019N0040001N1+00901+00501102301ADDAA106000091AY101061AY201061GA1001+999999999GF100991001001999999001001MD1710101+9999MW1101REMSYN076AAXX  06121 14303 31996 02702 10090 20050 40230 57010 71000 333 92301 92418;EQDQ01  00002PRCP06
0156143030999992000010615004+45050+013620FM-12+000899999V0202501N001012200019N0020001N1+00781+00401102301ADDAY101031AY201031GF102991021001012501071001MD1410001+9999MW1101REMSYN082AAXX  06151 14303 41695 22501 10078 2004/ 40230 54000 71000 82070 333 92301 92415;
0215143030999992000010706004+45050+013620FM-12+000899999V0203601N002012200019N0020001N1+00621+00501102301ADDAA106000091AY141061AY241061GA1001+999999999GF100991001001999999001001KA1999N+00461MD1410001+9999MW1101REMSYN082AAXX  07061 14303 31095 03602 10062 20050 40230 54000 71044 333 20046 92301 92415;EQDQ01  00002PRCP06
0156143030999992000010709004+45050+013620FM-12+000899999V0203401N002012200019N0040001N1+00681+00501102401ADDAY141031AY211031GF103991031001017501001041MD1210101+9999MW1101REMSYN082AAXX  07091 14303 41796 33402 10068 20050 40240 52010 71041 83004 333 92301 92416;
0196143030999992000010712004+45050+013620FM-12+000899999V0203201N003012200019N0040001N1+00881+00501102401ADDAA106000091AY111061AY201061GA1001+999999999GF100991001001999999001001MD1410001+9999MW1101REMSYN076AAXX  07121 14303 31096 03203 10088 20050 40240 54000 71010 333 92301 91416;EQDQ01  00002PRCP06
0156143030999992000010715004+45050+013620FM-12+000899999V0203201N001012200019N0100001N1+01001+00601102401ADDAY111031AY211031GF103991031021017501001051MD1410001+9999MW1101REMSYN082AAXX  07151 14303 41797 33201 10100 20060 40240 54000 71011 83205 333 92301 92417;
0189143030999992000010806004+45050+013620FM-12+000899999V0200701N001019999999N0200001N1+00801+00301102401ADDAA106000091GF108991081001012501081999KA1999N+00651MD1410001+9999REMSYN094AAXX  08061 14303 32698 80701 10080 20030 3//// 40240 54000 8808/ 333 20065 92300 92408 00106;EQDQ01  00002PRCP06
0134143030999992000010809004+45050+013620FM-12+000899999V0200901N003010120019N0200001N1+00881+00501102501ADDGF107991071021012501091001MD1210101+9999REMSYN082AAXX  08091 14303 42698 70903 10088 20050 3//// 40250 52010 87290 333 92311 92418;
0192143030999992000010812004+45050+013620FM-12+000899999V0201601N003019999999N0020001N1+00981+00801102401ADDAA106000091AY121061AY221061GF108991081001012501071999MD1710101+9999MW1101REMSYN088AAXX  08121 14303 31695 81603 10098 20080 3//// 40240 57010 71022 8807/ 333 92311 92415;EQDQ01  00002PRCP06
0208143030999992000010815004+45050+013620FM-12+000899999V0202301N002010120019N0020001N1+00921+00701102401ADDAA106000091AY121031AY221031GF108991999021012501091999MD1410001+9999MW1101REMSYN088AAXX  08151 14303 31695 82302 10092 20070 3//// 40240 54000 71022 8829/ 333 92301 92415;EQDQ01+000082SCOTLCQ02  00002PRCP06
0186143030999992000010912004+45050+013620FM-12+000899999V0202901N002010150019N0040001N1+00861+00501102401ADDAA106000091AY121061AY221061GF108991081081012501999999MD1410001+9999MW1101REMSYN082AAXX  09121 14303 31696 82902 10086 20050 40240 54000 71022 888// 333 92300 92406;EQDQ01  00002PRCP06
0175143030999992000010915004+45050+013620FM-12+000899999V0203201N001010075019N0040001N1+00861+00501102301ADDAY161031AY211031GF108991999071008001021999MD1710101+9999MW1101REMSYN082AAXX  09151 14303 41596 83201 10086 20050 40230 57010 71061 8872/ 333 92300 92406;EQDQ01+000082SCOTLC
0218143030999992000011006004+45050+013620FM-12+000899999V0200901N001012200019N0100001N1+00621+00501102601ADDAA124000791AY121061AY211061GF103991031001008001071001KA1999N+00601MD1210101+9999MW1101SA1+1059REMSYN112AAXX  10061 14303 11597 30901 10062 20050 3//// 40260 52010 69904 71021 83070 222// 00105 333 20060 92300 92407;
0164143030999992000011012004+45050+013620FM-12+000899999V0203201N002010075019N0100001N1+00861+00501102701ADDAA106000091GF107991071021008001001001MD1210101+9999REMSYN082AAXX  10121 14303 32597 73202 10086 20050 3//// 40270 52010 87200 333 92311 92417;EQDQ01  00002PRCP06
0134143030999992000011015004+45050+013620FM-12+000899999V0203201N002010075019N0200001N1+00961+00601102801ADDGF107991071021008001001001MD1210101+9999REMSYN082AAXX  10151 14303 42598 73202 10096 20060 3//// 40280 52010 87200 333 92311 92418;
0207143030999992000011106004+45050+013620FM-12+000899999V0200501N002012200019N0200001N1+00541+00401103201ADDAA106000091GA1001+999999999GF100991001001999999001001KA1999N+00401MD1210101+9999SA1+1059REMSYN088AAXX  11061 14303 32998 00502 10054 20040 40320 52010 222// 00105 333 20040 92311 92418;EQDQ01  00002PRCP06
0147143030999992000011109004+45050+013620FM-12+000899999V0203601N002012200019N0200001N1+00641-00101103301ADDGF102991001001999999001041MD1210101+9999REMSYN076AAXX  11091 14303 42698 23602 10064 21010 40330 52010 80004 333 92311 92418;EQDQ01+012502SCOLCB
0158143030999992000011112004+45050+013620FM-12+000899999V0201501N005012200019N0200001N1+00861+00101103301ADDAA106000091GF103991001001999999001041MD1410001+9999REMSYN076AAXX  11121 14303 32998 31505 10086 20010 40330 54000 80004 333 92312 92428;EQDQ01  00002PRCP06
0187143030999992000011206004+45050+013620FM-12+000899999V0200501N003012200019N0200001N1+00421-00101103301ADDAA106000091GA1001+999999999GF100991001001999999001001KA1999N+00301MD1410001+9999REMSYN076AAXX  12061 14303 32098 00503 10042 21010 40330 54000 333 20030 92312 92428;EQDQ01  00002PRCP06
0138143030999992000011209004+45050+013620FM-12+000899999V0200501N003012200019N0200001N1+00541-00201103301ADDGA1001+999999999GF100991001001999999001001MD1410001+9999REMSYN070AAXX  12091 14303 42098 00503 10054 21020 40330 54000 333 92312 92428;
0128143030999992000011215004+45050+013620FM-12+000899999V0202901N002012200019N0200001N1+00701+00001103101ADDGF103991031001008001041001MD1710101+9999REMSYN076AAXX  12151 14303 42598 32902 10070 20000 40310 57010 83040 333 92311 92418;
0197143030999992000011306004+45050+013620FM-12+000899999V0201501N001010075019N0200001N1+00221-00101102801ADDAA106000091GF107991071041008001071001KA1999N+00101MD1710101+9999SA1+1049REMSYN094AAXX  13061 14303 32598 71501 10022 21010 40280 57010 87470 222// 00104 333 20010 92311 92418;EQDQ01  00002PRCP06
0134143030999992000011309004+45050+013620FM-12+000899999V0203601N001010075019N0200001N1+00341-00201102801ADDGF108991081021008001999999MD1410001+9999REMSYN082AAXX  13091 14303 42598 83601 10034 21020 3//// 40280 54000 882// 333 92311 92418;
0164143030999992000011312004+45050+013620FM-12+000899999V0202601N001010075019N0200001N1+00441-00101102601ADDAA106000091GF108991081051008001999999MD1710201+9999REMSYN082AAXX  13121 14303 32598 82601 10044 21010 3//// 40260 57020 885// 333 92311 92418;EQDQ01  00002PRCP06
0134143030999992000011315004+45050+013620FM-12+000899999V0203601N002010075019N0200001N1+00481-00101102501ADDGF108991081051008001999999MD1710101+9999REMSYN082AAXX  13151 14303 42598 83602 10048 21010 3//// 40250 57010 885// 333 92311 92418;
0201143030999992000011406004+45050+013620FM-12+000899999V0203601N002010075019N0200001N1+00621+00101102301ADDAA199000091GF108991081051008001999999KA1999N+00201MD1410001+9999SA1+1049REMSYN098    AAXX  14061 14303 32598 83602 10062 20010 40230 54000 885// 222// 00104 333 20020 92312 92428;EQDQ01  00002PRCP99
0138143030999992000011409004+45050+013620FM-12+000899999V0203601N004010075019N0200001N1+00681+00101102301ADDGF108991081051008001999999MD1410001+9999REMSYN086    AAXX  14091 14303 42598 83604 10068 20010 3//// 40230 54000 885// 333 92312 92428;
0162143030999992000011412004+45050+013620FM-12+000899999V0203601N004010075019N0200001N1+00801+00301102301ADDAA199000091GF108991081051008001999999MD1410001+9999REMSYN080    AAXX  14121 14303 32598 83604 10080 20030 40230 54000 885// 333 92323 92438;EQDQ01  00002PRCP99
0132143030999992000011415004+45050+013620FM-12+000899999V0203601N004010075019N0200001N1+00841+00301102201ADDGF107991071091008001061001MD1710101+9999REMSYN080    AAXX  14151 14303 42598 73604 10084 20030 40220 57010 87960 333 92323 92438;
0223143030999992000011506004+45050+013620FM-12+000899999V0203601N001012200019N0200001N1+00641+00401102301ADDAA199000091GF102991001001999999001041KA1999N+00251MD1410001+9999SA1+1059REMSYN104    AAXX  15061 14303 32698 23601 10064 20040 3//// 40230 54000 80004 222// 00105 333 20025 92312 92428;EQDQ01+012502SCOLCBQ02  00002PRCP99
0148143030999992000011509004+45050+013620FM-12+000899999V0203601N001012200019N0200001N1+00841+00501102301ADDGA1001+999999999GF100991001001999999001001MD1410001+9999REMSYN080    AAXX  15091 14303 42998 03601 10084 20050 3//// 40230 54000 333 92312 92428;
0178143030999992000011512004+45050+013620FM-12+000899999V0202901N003012200019N0200001N1+00881+00501102301ADDAA199000091GA1001+999999999GF100991001001999999001001MD1410001+9999REMSYN080    AAXX  15121 14303 32998 02903 10088 20050 3//// 40230 54000 333 92323 92438;EQDQ01  00002PRCP99
0148143030999992000011515004+45050+013620FM-12+000899999V0202901N002012200019N0200001N1+00941+00401102301ADDGA1001+999999999GF100991001001999999001001MD1410001+9999REMSYN080    AAXX  15151 14303 42998 02902 10094 20040 3//// 40230 54000 333 92312 92428;
0181143030999992000011606004+45050+013620FM-12+000899999V0200501N004010075019N0200001N1+00441-00101102401ADDAA199000091GF106991061041008001071001KA1999N+00301MD1210101+9999REMSYN086    AAXX  16061 14303 32598 60504 10044 21010 40240 52010 86470 333 20030 92322 92428;EQDQ01  00002PRCP99
0132143030999992000011609004+45050+013620FM-12+000899999V0200501N005010075019N0200001N1+00561+00001102501ADDGF105991051091008001061001MD1210101+9999REMSYN080    AAXX  16091 14303 42598 50505 10056 20000 40250 52010 85960 333 92322 92428;
0162143030999992000011612004+45050+013620FM-12+000899999V0200501N003012200019N0200001N1+00641-00101102601ADDAA199000091GF103991031001012501001041MD1210101+9999REMSYN080    AAXX  16121 14303 32698 30503 10064 21010 40260 52010 83004 333 92312 92428;EQDQ01  00002PRCP99
0142143030999992000011615004+45050+013620FM-12+000899999V0200501N004012200019N0200001N1+00641-00101102601ADDGA1001+999999999GF100991001001999999001001MD1410001+9999REMSYN074    AAXX  16151 14303 42098 00504 10064 21010 40260 54000 333 92322 92428;
0162143030999992000011812004+45050+013620FM-12+000899999V0200901N003019999999N0100001N1+00661+00301100201ADDAA199000091GF107991071001008001081001MD1710301+9999REMSYN080    AAXX  18121 14303 32597 70903 10066 20030 40020 57030 87080 333 92312 92427;EQDQ01  00002PRCP99
0132143030999992000011815004+45050+013620FM-12+000899999V0201101N002010120019N0200001N1+00761+00401100101ADDGF107991071081008001041001MD1710101+9999REMSYN080    AAXX  18151 14303 42598 71102 10076 20040 40010 57010 87840 333 92312 92428;
0211143030999992000011906004+45050+013620FM-12+000899999V0200501N003012200019N0200001N1+00741-00601101401ADDAA199000091GA1001+999999999GF100991001001999999001001KA1999N+00401MD1210201+9999SA1+1009REMSYN092    AAXX  19061 14303 32998 00503 10074 21060 40140 52020 222// 00100 333 20040 92312 92428;EQDQ01  00002PRCP99
0142143030999992000011909004+45050+013620FM-12+000899999V0203601N002012200019N0200001N1+00921-00301101601ADDGA1001+999999999GF100991001001999999001001MD1210201+9999REMSYN074    AAXX  19091 14303 42998 03602 10092 21030 40160 52020 333 92312 92428;
0172143030999992000011912004+45050+013620FM-12+000899999V0203201N003012200019N0200001N1+00961+00201101701ADDAA199000091GA1001+999999999GF100991001001999999001001MD1210101+9999REMSYN074    AAXX  19121 14303 32998 03203 10096 20020 40170 52010 333 92312 92428;EQDQ01  00002PRCP99
0138143030999992000011915004+45050+013620FM-12+000899999V0202501N002012200019N0200001N1+00981+00101101801ADDGA1001+999999999GF100991001001999999001001MD1210101+9999REMSYN070AAXX  19151 14303 42998 02502 10098 20010 40180 52010 333 92312 92428;
0144143030999992000012009004+45050+013620FM-12+000899999V0200501N003012200019N0200001N1+00681-00101102601ADDGA1001+999999999GF100991001001999999001001MD1210101+9999REMSYN076AAXX  20091 14303 42998 00503 10068 21010 3//// 40260 52010 333 92312 92428;
0180143030999992000012012004+45050+013620FM-12+000899999V0201101N003019999999N0200001N1+00941+00101102601ADDAA199000091GF106991001001999999001081MD1410001+9999REMSYN082AAXX  20121 14303 32698 61103 10094 20010 3//// 40260 54000 80008 333 92312 92428;EQDQ01+012502SCOLCBQ02  00002PRCP99
0134143030999992000012015004+45050+013620FM-12+000899999V0201601N003010075019N0200001N1+00881+00101102401ADDGF108991081041008001001001MD1710201+9999REMSYN082AAXX  20151 14303 42598 81603 10088 20010 3//// 40240 57020 88400 333 92322 92428;
0207143030999992000012106004+45050+013620FM-12+000899999V0202501N003012200019N0200001N1+00661+00201101601ADDAA199000091GA1001+999999999GF100991001001999999001001KA1999N+00421MD1710201+9999SA1+1029REMSYN088AAXX  21061 14303 32998 02503 10066 20020 40160 57020 222// 00102 333 20042 92312 92428;EQDQ01  00002PRCP99
0144143030999992000012109004+45050+013620FM-12+000899999V0202501N003012200019N0200001N1+00681+00101101501ADDGA1001+999999999GF100991001001999999001001MD1710101+9999REMSYN076AAXX  21091 14303 42998 02503 10068 20010 3//// 40150 57010 333 92312 92428;
0168143030999992000012112004+45050+013620FM-12+000899999V0202501N002012200019N0100001N1+00461+00201101301ADDAA199000091GA1001+999999999GF100991001001999999001001MD1710201+9999REMSYN070AAXX  21121 14303 32997 02502 10046 20020 40130 57020 333 92312 92427;EQDQ01  00002PRCP99
0138143030999992000012115004+45050+013620FM-12+000899999V0202001N001012200019N0100001N1+00741+00201101201ADDGA1001+999999999GF100991001001999999001001MD1710101+9999REMSYN070AAXX  21151 14303 42997 02001 10074 20020 40120 57010 333 92311 92417;
0187143030999992000012206004+45050+013620FM-12+000899999V0200501N004012200019N0200001N1+00361-00201101501ADDAA199000091GA1001+999999999GF100991001001999999001001KA1999N+00201MD1410001+9999REMSYN076AAXX  22061 14303 32098 00504 10036 21020 40150 54000 333 20020 92323 92438;EQDQ01  00002PRCP99
0128143030999992000012209004+45050+013620FM-12+000899999V0202501N004010075019N0200001N1+00421-00101101601ADDGF108991081021008001001001MD1210101+9999REMSYN076AAXX  22091 14303 42598 82504 10042 21010 40160 52010 88200 333 92323 92438;
0158143030999992000012212004+45050+013620FM-12+000899999V0200901N005010075019N0200001N1+00601+00001101401ADDAA199000091GF107991071041008001041001MD1710201+9999REMSYN076AAXX  22121 14303 32598 70905 10060 20000 40140 57020 87440 333 92323 92438;EQDQ01  00002PRCP99
0128143030999992000012215004+45050+013620FM-12+000899999V0200901N005010075019N0200001N1+00601+00001101101ADDGF108991081051008001999999MD1710301+9999REMSYN076AAXX  22151 14303 42598 80905 10060 20000 40110 57030 885// 333 92323 92438;
0128143030999992000012309004+45050+013620FM-12+000899999V0203401N004019999999N0200001N1+00661+00101100101ADDGF107991071001008001071001MD1210201+9999REMSYN076AAXX  23091 14303 42598 73404 10066 20010 40010 52020 87070 333 92323 92438;
0158143030999992000012312004+45050+013620FM-12+000899999V0203401N005010075019N0200001N1+00921+00101100101ADDAA199000091GF105991051041008001001999MD1410001+9999REMSYN076AAXX  23121 14303 32598 53405 10092 20010 40010 54000 8540/ 333 92323 92438;EQDQ01  00002PRCP99
0128143030999992000012315004+45050+013620FM-12+000899999V0203601N005012200019N0200001N1+00861+00001100301ADDGF104991041081008001041001MD1210201+9999REMSYN076AAXX  23151 14303 42598 43605 10086 20000 40030 52020 84840 333 92323 92438;
0197143030999992000012406004+45050+013620FM-12+000899999V0200501N004010075019N0200001N1+00201-00501101001ADDAA199000091GF107991071011008001001001KA1999N+00061MD1210101+9999SA1+0959REMSYN094AAXX  24061 14303 32598 70504 10020 21050 40100 52010 87100 222// 00095 333 20006 92312 92428;EQDQ01  00002PRCP99
0128143030999992000012409004+45050+013620FM-12+000899999V0200501N003010075019N0200001N1+00221-00701101301ADDGF107991071041008001071001MD1210301+9999REMSYN076AAXX  24091 14303 42598 70503 10022 21070 40130 52030 87470 333 92312 92428;
0158143030999992000012412004+45050+013620FM-12+000899999V0203601N006012200019N0200001N1+00201-01001101401ADDAA199000091GF104991041081008001041001MD1210101+9999REMSYN076AAXX  24121 14303 32598 43606 10020 21100 40140 52010 84840 333 92323 92438;EQDQ01  00002PRCP99
0138143030999992000012415004+45050+013620FM-12+000899999V0203601N005012200019N0200001N1+00241-01201101601ADDGA1001+999999999GF100991001001999999001001MD1210201+9999REMSYN070AAXX  24151 14303 42998 03605 10024 21120 40160 52020 333 92323 92438;
0207143030999992000012506004+45050+013620FM-12+000899999V0200501N002012200019N0200001N1-00221-00801102401ADDAA199000091GA1001+999999999GF100991001001999999001001KA1999N-00321MD1210101+9999SA1+0929REMSYN088AAXX  25061 14303 32998 00502 11022 21080 40240 52010 222// 00092 333 21032 92311 92418;EQDQ01  00002PRCP99
0144143030999992000012509004+45050+013620FM-12+000899999V0200701N003012200019N0200001N1-00081-00801102801ADDGA1001+999999999GF100991001001999999001001MD1210401+9999REMSYN076AAXX  25091 14303 42998 00703 11008 21080 3//// 40280 52040 333 92311 92418;
0174143030999992000012512004+45050+013620FM-12+000899999V0200901N002012200019N0200001N1+00161-00901102701ADDAA199000091GA1001+999999999GF100991001001999999001001MD1710101+9999REMSYN076AAXX  25121 14303 32998 00902 10016 21090 3//// 40270 57010 333 92311 92418;EQDQ01  00002PRCP99
0134143030999992000012515004+45050+013620FM-12+000899999V0202501N001012200019N0200001N1+00321-00601102701ADDGF101991011011008001001001MD1410001+9999REMSYN082AAXX  25151 14303 42598 12501 10032 21060 3//// 40270 54000 81100 333 92311 92418;
0193143030999992000012606004+45050+013620FM-12+000899999V0200501N003012200019N0200001N1-00181-00501103001ADDAA199000091GA1001+999999999GF100991001001999999001001KA1999N-00381MD1410001+9999REMSYN082AAXX  26061 14303 32998 00503 11018 21050 40300 54000 333 21038 92311 92418 00086;EQDQ01  00002PRCP99
0138143030999992000012609004+45050+013620FM-12+000899999V0203601N003012200019N0200001N1+00161-00501103101ADDGA1001+999999999GF100991001001999999001001MD1210101+9999REMSYN070AAXX  26091 14303 42998 03603 10016 21050 40310 52010 333 92312 92428;
0168143030999992000012612004+45050+013620FM-12+000899999V0203201N004012200019N0200001N1+00281-00401103101ADDAA199000091GA1001+999999999GF100991001001999999001001MD1410001+9999REMSYN070AAXX  26121 14303 32998 03204 10028 21040 40310 54000 333 92312 92428;EQDQ01  00002PRCP99
0138143030999992000012615004+45050+013620FM-12+000899999V0203201N001012200019N0200001N1+00321-00401103001ADDGA1001+999999999GF100991001001999999001001MD1710101+9999REMSYN070AAXX  26151 14303 42998 03201 10032 21040 40300 57010 333 92312 92428;
0138143030999992000012709004+45050+013620FM-12+000899999V0202901N003012200019N0100001N1+00381+00001103201ADDGA1001+999999999GF100991001001999999001001MD1410001+9999REMSYN070AAXX  27091 14303 42097 02903 10038 20000 40320 54000 333 92312 92427;
0168143030999992000012712004+45050+013620FM-12+000899999V0202701N003012200019N0100001N1+00501-00101103101ADDAA199000091GA1001+999999999GF100991001001999999001001MD1710101+9999REMSYN070AAXX  27121 14303 32097 02703 10050 21010 40310 57010 333 92311 92417;EQDQ01  00002PRCP99
0138143030999992000012715004+45050+013620FM-12+000899999V0202701N002012200019N0100001N1+00541-00201102901ADDGA1001+999999999GF100991001001999999001001MD1710201+9999REMSYN070AAXX  27151 14303 42097 02702 10054 21020 40290 57020 333 92311 92417;
0206143030999992000012806004+45050+013620FM-12+000899999V0201401N003010075019N0100001N1+00461+00101102501ADDAA199000021AY121061AY201061GF108991999071008001021999MD1710101+9999MW1611SA1+0909REMSYN094AAXX  28061 14303 31597 81403 10046 20010 40250 57010 76120 8872/ 222// 00090 333 92311 92417;EQDQ01+000082SCOTLC
0128143030999992000012809004+45050+013620FM-12+000899999V0201101N003010075019N0100001N1+00581+00201102501ADDGF108991081051008001999999MD1410001+9999REMSYN076AAXX  28091 14303 42597 81103 10058 20020 40250 54000 885// 333 92311 92417;
0139143030999992000012812004+45050+013620FM-12+000899999V0200901N002010075019N0100001N1+00721+00401102401ADDAA199000021GF108991081051008001999999MD1710101+9999REMSYN076AAXX  28121 14303 32597 80902 10072 20040 40240 57010 885// 333 92311 92417;
0139143030999992000012815004+45050+013620FM-12+000899999V0203201N001012200019N0200001N1+00801+00301102301ADDAA199000021GF101991011011012501021999MD1710101+9999REMSYN076AAXX  28151 14303 32698 13201 10080 20030 40230 57010 8112/ 333 92301 92418;
0184143030999992000012906004+45050+013620FM-12+000899999V0203601N003010075019N0200001N1+00601+00301102001ADDAA124000791GF108991081061008001999999KA1999N+00501MD1710101+9999SA1+0889REMSYN100AAXX  29061 14303 12598 83603 10060 20030 40200 57010 69904 886// 222// 00088 333 20050 92311 92418;
0128143030999992000012909004+45050+013620FM-12+000899999V0202901N003010075019N0100001N1+00661+00301102001ADDGF108991081051008001999999MD1410001+9999REMSYN076AAXX  29091 14303 42597 82903 10066 20030 40200 54000 885// 333 92311 92417;
0211143030999992000013006004+45050+013620FM-12+000899999V0202501N002010075019N0020001N1+00641+00301101401ADDAA199000091AY121061AY221061GF108991081061008001999999KA1999N+00601MD1710101+9999MW1101REMSYN094AAXX  30061 14303 31595 82502 10064 20030 3//// 40140 57010 71022 886// 333 20060 92312 92425;EQDQ01  00002PRCP99
0162143030999992000013009004+45050+013620FM-12+000899999V0202301N002019999999N0020001N1+00701+00301101501ADDAY121031AY221031GF107991071001012501071001MD1210101+9999MW1101REMSYN088AAXX  30091 14303 41695 72302 10070 20030 3//// 40150 52010 71022 87070 333 92311 92415;
0181143030999992000013015004+45050+013620FM-12+000899999V0202701N002012200019N0020001N1+00721+00401101701ADDAY111031AY201031GF102991001001999999001071MD1210101+9999MW1101REMSYN088AAXX  30151 14303 41795 22702 10072 20040 3//// 40170 52010 71010 80007 333 92311 92415;EQDQ01+017502SCOLCB
0247143030999992000013106004+45050+013620FM-12+000899999V0203301N999990075019N0040001N1+00761+00601102301ADDAA199000091AY121061AY221061GF106991061061008001999999KA1999N+00501MD1210101+9999MW1101SA1+0889REMSYN106AAXX  31061 14303 31596 63360 10076 20060 3//// 40230 52010 71022 866// 222// 00088 333 20050 92301 92416;EQDQ01+006003WOSPD Q02  00002PRCP99
0156143030999992000013109004+45050+013620FM-12+000899999V0201101N001012200019N0020001N1+00901+00701102401ADDAY121031AY221031GF104991041001012501071001MD1210101+9999MW1101REMSYN082AAXX  31091 14303 41695 41101 10090 20070 40240 52010 71022 84070 333 92301 92415;
0186143030999992000013112004+45050+013620FM-12+000899999V0202901N002019999999N0020001N1+00921+00701102401ADDAA199000091AY121061AY221061GF108991081001012501071999MD1410001+9999MW1101REMSYN082AAXX  31121 14303 31695 82902 10092 20070 40240 54000 71022 8807/ 333 92301 92415;EQDQ01  00002PRCP99
0166143030999992000013115004+45050+013620FM-12+000899999V0200901N001012200019N0020001N1+00901+00701102401ADDAY121031AY211031GA1001+999999999GF100991001001999999001001MD1410001+9999MW1101REMSYN076AAXX  31151 14303 41995 00901 10090 20070 40240 54000 71021 333 92301 92415;
0225143030999992000020106004+45050+013620FM-12+000899999V0200501N001010075019N0020001N1+00821+00701102801ADDAA199000091AY121061AY221061GF108991081051008001999999KA1999N+00681MD1410001+9999MW1101SA1+0909REMSYN100AAXX  01061 14303 31595 80501 10082 20070 40280 54000 71022 885// 222// 00090 333 20068 92311 92416;EQDQ01  00002PRCP99
0192143030999992000020112004+45050+013620FM-12+000899999V0202901N002010075019N0005001N1+00801+00701102801ADDAA199000091AY141061AY241061GF108991081051008001999999MD1710101+9999MW1121REMSYN088AAXX  01121 14303 31593 82902 10080 20070 3//// 40280 57010 71244 885// 333 92312 92423;EQDQ01  00002PRCP99
0162143030999992000020115004+45050+013620FM-12+000899999V0202701N002010075019N0005001N1+00701+00601102801ADDAY141031AY221031GF108991081051008001999999MD1410001+9999MW1121REMSYN088AAXX  01151 14303 41593 82702 10070 20060 3//// 40280 54000 71242 885// 333 92312 92423;
0206143030999992000020206004+45050+013620FM-12+000899999V0200901N002010075019N0020001N1+00721+00601102301ADDAA199000091AY141061AY221061GF108991081051008001999999MD1710201+9999MW1101SA1+0889REMSYN094AAXX  02061 14303 31595 80902 10072 20060 40230 57020 71042 885// 222// 00088 333 92311 92415;EQDQ01  00002PRCP99
0156143030999992000020209004+45050+013620FM-12+000899999V0203601N002010075019N0020001N1+00781+00701102301ADDAY121031AY221031GF108991081051008001999999MD1410001+9999MW1101REMSYN082AAXX  02091 14303 41595 83602 10078 20070 40230 54000 71022 885// 333 92301 92415;
0186143030999992000020212004+45050+013620FM-12+000899999V0201101N001010075019N0020001N1+00941+00801102201ADDAA199000091AY121061AY221061GF108991081051008001999999MD1710101+9999MW1101REMSYN082AAXX  02121 14303 31595 81101 10094 20080 40220 57010 71022 885// 333 92301 92415;EQDQ01  00002PRCP99
0156143030999992000020215004+45050+013620FM-12+000899999V0201801N002010075019N0040001N1+00961+00901102001ADDAY121031AY221031GF108991081051008001999999MD1710201+9999MW1101REMSYN082AAXX  02151 14303 41596 81802 10096 20090 40200 57020 71022 885// 333 92412 92426;
0186143030999992000020312004+45050+013620FM-12+000899999V0203401N003010075019N0010001N1+00801+00701102401ADDAA199000091AY141061AY221061GF108991081051008001999999MD1210101+9999MW1121REMSYN082AAXX  03121 14303 31594 83403 10080 20070 40240 52010 71242 885// 333 92312 92424;EQDQ01  00002PRCP99
0156143030999992000020315004+45050+013620FM-12+000899999V0203401N003010075019N0010001N1+00741+00601102501ADDAY141031AY221031GF108991081051008001999999MD1210101+9999MW1121REMSYN082AAXX  03151 14303 41594 83403 10074 20060 40250 52010 71242 885// 333 92312 92424;
0194143030999992000020406004+45050+013620FM-12+000899999V0200901N002012200019N0200001N1+00561+00501103501ADDAA124000391GA1001+999999999GF100991001001999999001001KA1999N+00501MD1210201+9999SA1+0859REMSYN094AAXX  04061 14303 12998 00902 10056 20050 40350 52020 69934 222// 00085 333 20050 92301 92418;
0144143030999992000020409004+45050+013620FM-12+000899999V0203601N002012200019N0200001N1+00881+00701103701ADDGA1001+999999999GF100991001001999999001001MD1210201+9999REMSYN076AAXX  04091 14303 42998 03602 10088 20070 3//// 40370 52020 333 92301 92418;
0174143030999992000020412004+45050+013620FM-12+000899999V0203201N003012200019N0200001N1+00921+00701103801ADDAA199000091GA1001+999999999GF100991001001999999001001MD1210101+9999REMSYN076AAXX  04121 14303 32998 03203 10092 20070 3//// 40380 52010 333 92311 92418;EQDQ01  00002PRCP99
0144143030999992000020415004+45050+013620FM-12+000899999V0202901N003012200019N0100001N1+00801+00701103701ADDGA1001+999999999GF100991001001999999001001MD1710101+9999REMSYN076AAXX  04151 14303 42997 02903 10080 20070 3//// 40370 57010 333 92312 92427;
0191143030999992000020506004+45050+013620FM-12+000899999V0203601N001019999999N0200001N1+00441+00301103501ADDAA199000091GF106991999999012501999999KA1999N+00401MD1410001+9999SA1+0849REMSYN088AAXX  05061 14303 32698 63601 10044 20030 40350 54000 222// 00084 333 20040 92301 92418;EQDQ01  00002PRCP99
0156143030999992000020509004+45050+013620FM-12+000899999V0203201N002010075019N0040001N1+00641+00501103401ADDAY121031AY221031GF107991071051008001001001MD1710101+9999MW1101REMSYN082AAXX  05091 14303 41596 73202 10064 20050 40340 57010 71022 87500 333 92301 92416;
0202143030999992000020512004+45050+013620FM-12+000899999V0202901N003019999999N0040001N1+00621+00501103401ADDAA199000091AY121061AY221061GF107991999051008001999999MD1410001+9999MW1101REMSYN082AAXX  05121 14303 31596 72903 10062 20050 40340 54000 71022 885// 333 92311 92416;EQDQ01+000082SCOTLCQ02  00002PRCP99
0156143030999992000020515004+45050+013620FM-12+000899999V0202901N003010075019N0040001N1+00601+00501103301ADDAY121031AY221031GF108991081051008001999999MD1710101+9999MW1101REMSYN082AAXX  05151 14303 41596 82903 10060 20050 40330 57010 71022 885// 333 92312 92426;
0231143030999992000020606004+45050+013620FM-12+000899999V0203601N003010042019N0010001N1+00541+00401103101ADDAA199000091AY141061AY221061GF108991081051004501999999KA1999N+00461MD1410001+9999MW1121SA1+0839REMSYN106AAXX  06061 14303 31494 83603 10054 20040 3//// 40310 54000 71242 885// 222// 00083 333 20046 92312 92424;EQDQ01  00002PRCP99
0162143030999992000020609004+45050+013620FM-12+000899999V0203401N003010042019N0005001N1+00521+00401103001ADDAY141031AY221031GF108991081051004501999999MD1710101+9999MW1121REMSYN088AAXX  06091 14303 41493 83403 10052 20040 3//// 40300 57010 71242 885// 333 92312 92423;
0192143030999992000020612004+45050+013620FM-12+000899999V0203601N003010075019N0020001N1+00561+00501102901ADDAA199000091AY141061AY221061GF108991081051008001999999MD1710101+9999MW1101REMSYN088AAXX  06121 14303 31595 83603 10056 20050 3//// 40290 57010 71042 885// 333 92312 92425;EQDQ01  00002PRCP99
0162143030999992000020615004+45050+013620FM-12+000899999V0203601N003010075019N0020001N1+00541+00401102801ADDAY121031AY221031GF108991081051008001999999MD1710101+9999MW1101REMSYN088AAXX  06151 14303 41595 83603 10054 20040 3//// 40280 57010 71022 885// 333 92312 92425;
0231143030999992000020706004+45050+013620FM-12+000899999V0203401N001010075019N0020001N1+00541+00401102401ADDAA199000091AY121061AY221061GF108991081051008001999999KA1999N+00521MD1710101+9999MW1101SA1+0849REMSYN106AAXX  07061 14303 31595 83401 10054 20040 3//// 40240 57010 71022 885// 222// 00084 333 20052 92311 92415;EQDQ01  00002PRCP99
0156143030999992000020709004+45050+013620FM-12+000899999V0202301N002010075019N0020001N1+00621+00501102501ADDAY121031AY221031GF108991081051008001999999MD1210101+9999MW1101REMSYN082AAXX  07091 14303 41595 82302 10062 20050 40250 52010 71022 885// 333 92301 92415;
0186143030999992000020712004+45050+013620FM-12+000899999V0201801N002010075019N0040001N1+00721+00601102501ADDAA199000091AY121061AY221061GF108991081051008001999999MD1410001+9999MW1101REMSYN082AAXX  07121 14303 31596 81802 10072 20060 40250 54000 71022 885// 333 92301 92416;EQDQ01  00002PRCP99
0156143030999992000020715004+45050+013620FM-12+000899999V0201801N002010075019N0040001N1+00721+00601102401ADDAY121031AY221031GF108991081051008001999999MD1710101+9999MW1101REMSYN082AAXX  07151 14303 41596 81802 10072 20060 40240 57010 71022 885// 333 92301 92416;
0239143030999992000020806004+45050+013620FM-12+000899999V0201401N003010075019N0040001N1+00881+00801102101ADDAA199000091AY121061AY221061GF108991999071008001021999KA1999N+00601MW1101REMSYN088AAXX  08061 14303 31596 81403 10088 20080 40210 53000 71022 8872/ 333 20060 92312 92426;EQDQ01+000082SCOTLCQ02+000032APCTENQ03+000002APC3  Q04  00002PRCP99
0186143030999992000020812004+45050+013620FM-12+000899999V0202501N002010075019N0020001N1+00841+00701102101ADDAA199000091AY121061AY221061GF108991081051008001999999MD1410001+9999MW1101REMSYN082AAXX  08121 14303 31595 82502 10084 20070 40210 54000 71022 885// 333 92301 92415;EQDQ01  00002PRCP99
0156143030999992000020815004+45050+013620FM-12+000899999V0201601N002010075019N0020001N1+00821+00701101901ADDAY121031AY221031GF108991081051008001999999MD1710201+9999MW1101REMSYN082AAXX  08151 14303 41595 81602 10082 20070 40190 57020 71022 885// 333 92301 92415;
0231143030999992000020906004+45050+013620FM-12+000899999V0201601N002010075019N0040001N1+00841+00701101401ADDAA124005191AY161061AY221061GF108991999071008001021999KA1999N+00801MD1410001+9999MW1611SA1+0839REMSYN106AAXX  09061 14303 11596 81602 10084 20070 40140 54000 60054 76162 8872/ 222// 00083 333 20080 92312 92426;EQDQ01+000082SCOTLC
0191143030999992000020909004+45050+013620FM-12+000899999V0202301N002010075019N0020001N1+00901+00801999999ADDAY161031AY221031GF108991999071008001021999MD1410001+9999MW1501REMSYN082AAXX  09091 14303 41595 82302 10090 20080 40240 54000 75062 8872/ 333 92312 92425;EQDQ01+000082SCOTLCQ02+102403APOSLP
0173143030999992000020912004+45050+013620FM-12+000899999V0203401N004010075019N0020001N1+00761+00701101401ADDAA199000021AY161061AY221061GF108991081071008001999999MD1410001+9999MW1511REMSYN088AAXX  09121 14303 31595 83404 10076 20070 3//// 40140 54000 75162 887// 333 92312 92425;
0162143030999992000020915004+45050+013620FM-12+000899999V0203601N003010075019N0020001N1+00741+00601101501ADDAY121031AY221031GF108991081051008001999999MD1210101+9999MW1101REMSYN088AAXX  09151 14303 41595 83603 10074 20060 3//// 40150 52010 71022 885// 333 92312 92425;
0194143030999992000021006004+45050+013620FM-12+000899999V0203601N003012200019N0200001N1+00561+00201102401ADDAA124005191GA1001+999999999GF100991001001999999001001KA1999N+00451MD1210101+9999SA1+0829REMSYN094AAXX  10061 14303 12998 03603 10056 20020 40240 52010 60054 222// 00082 333 20045 92312 92428;
0138143030999992000021009004+45050+013620FM-12+000899999V0203601N003012200019N0200001N1+00821+00501102501ADDGA1001+999999999GF100991001001999999001001MD1210101+9999REMSYN070AAXX  10091 14303 42998 03603 10082 20050 40250 52010 333 92312 92428;
0138143030999992000021015004+45050+013620FM-12+000899999V0203201N003012200019N0200001N1+00981+00801102401ADDGA1001+999999999GF100991001001999999001001MD1710101+9999REMSYN070AAXX  10151 14303 42998 03203 10098 20080 40240 57010 333 92312 92428;
0197143030999992000021106004+45050+013620FM-12+000899999V0200901N002012200019N0200001N1+00441+00101102201ADDAA199000091GF103991031081012501041001KA1999N+00421MD1710011+9999SA1+0829REMSYN094AAXX  11061 14303 32698 30902 10044 20010 40220 57001 83840 222// 00082 333 20042 92301 92418;EQDQ01  00002PRCP99
0147143030999992000021109004+45050+013620FM-12+000899999V0200501N001019999999N0200001N1+00681+00501102301ADDGF107991001001999999001081MD1210101+9999REMSYN076AAXX  11091 14303 42798 70501 10068 20050 40230 52010 80008 333 92301 92418;EQDQ01+017502SCOLCB
0180143030999992000021112004+45050+013620FM-12+000899999V0203401N002019999999N0200001N1+00841+00601102301ADDAA199000091GF107991001001999999001081MD1410001+9999REMSYN082AAXX  11121 14303 32798 73402 10084 20060 3//// 40230 54000 80008 333 92301 92418;EQDQ01+017502SCOLCBQ02  00002PRCP99
0153143030999992000021115004+45050+013620FM-12+000899999V0203601N003019999999N0200001N1+00841+00601102301ADDGF108991001001999999001081MD1410001+9999REMSYN082AAXX  11151 14303 42798 83603 10084 20060 3//// 40230 54000 80008 333 92312 92428;EQDQ01+017502SCOLCB
0213143030999992000021206004+45050+013620FM-12+000899999V0203601N002010075019N0200001N1+00801+00701102401ADDAA199000091GF108991999071008001021999KA1999N+00781MD1410001+9999SA1+0839REMSYN094AAXX  12061 14303 32598 83602 10080 20070 40240 54000 8872/ 222// 00083 333 20078 923// 9244/;EQDQ01+000082SCOTLCQ02  00002PRCP99
0128143030999992000021209004+45050+013620FM-12+000899999V0203401N002010075019N0200001N1+00841+00601102301ADDGF108991081051008001999999MD1710101+9999REMSYN076AAXX  12091 14303 42598 83402 10084 20060 40230 57010 885// 333 92312 92428;
0174143030999992000021212004+45050+013620FM-12+000899999V0203201N002010120019N0200001N1+00901+00701102301ADDAA199000091GF108991999071012501011999MD1410001+9999REMSYN076AAXX  12121 14303 32698 83202 10090 20070 40230 54000 8871/ 333 92301 92418;EQDQ01+000082SCOTLCQ02  00002PRCP99
0187143030999992000021306004+45050+013620FM-12+000899999V0200501N001012200019N0200001N1+00461+00401102201ADDAA199000091GA1001+999999999GF100991001001999999001001KA1999N+00461MD1410001+9999REMSYN076AAXX  13061 14303 32098 00501 10046 20040 40220 54000 333 20046 92301 92418;EQDQ01  00002PRCP99
0138143030999992000021309004+45050+013620FM-12+000899999V0203401N001012200019N0200001N1+00681+00501102301ADDGA1001+999999999GF100991001001999999001001MD1210101+9999REMSYN070AAXX  13091 14303 42098 03401 10068 20050 40230 52010 333 92301 92418;
0158143030999992000021312004+45050+013620FM-12+000899999V0203201N003012200019N0200001N1+00881+00701102201ADDAA199000091GF101991011001017501001011MD1710101+9999REMSYN076AAXX  13121 14303 32798 13203 10088 20070 40220 57010 81001 333 92312 92428;EQDQ01  00002PRCP99
0128143030999992000021315004+45050+013620FM-12+000899999V0203201N003019999999N0200001N1+00901+00701102001ADDGF107991071001012501071001MD1710201+9999REMSYN076AAXX  13151 14303 42698 73203 10090 20070 40200 57020 87070 333 92312 92428;
0199143030999992000021406004+45050+013620FM-12+000899999V0200901N002012200019N0100001N1+00521+00301101901ADDAA199000091GA1001+999999999GF100991001001999999001001KA1999N+00501MD1210101+9999REMSYN088AAXX  14061 14303 32997 00902 10052 20030 3//// 40190 52010 333 20050 92301 92417 00082;EQDQ01  00002PRCP99
0144143030999992000021409004+45050+013620FM-12+000899999V0200501N001012200019N0100001N1+00721+00501102001ADDGA1001+999999999GF100991001001999999001001MD1210101+9999REMSYN076AAXX  14091 14303 42997 00501 10072 20050 3//// 40200 52010 333 92301 92412;
0202143030999992000021412004+45050+013620FM-12+000899999V0203201N002012200019N0040001N1+00881+00701102001ADDAA199000091AY101061AY201061GA1001+999999999GF100991001001999999001001MD1410001+9999MW1101REMSYN082AAXX  14121 14303 32996 03202 10088 20070 3//// 40200 54000 71000 333 92301 92416;EQDQ01  00002PRCP99
0172143030999992000021415004+45050+013620FM-12+000899999V0203601N002012200019N0040001N1+00981+00801101801ADDAY101031AY201031GA1001+999999999GF100991001001999999001001MD1710201+9999MW1101REMSYN082AAXX  14151 14303 42996 03602 10098 20080 3//// 40180 57020 71000 333 92312 92426;
0197143030999992000021506004+45050+013620FM-12+000899999V0202301N001010075019N0200001N1+00661+00501101901ADDAA199000091GF108991081051008001999999KA1999N+00621MD1410001+9999SA1+0829REMSYN094AAXX  15061 14303 32598 82301 10066 20050 40190 54000 885// 222// 00082 333 20062 92301 92418;EQDQ01  00002PRCP99
0128143030999992000021509004+45050+013620FM-12+000899999V0201401N002012200019N0200001N1+00961+00801102001ADDGF104991001001999999001041MD1210101+9999REMSYN076AAXX  15091 14303 42998 41402 10096 20080 40200 52010 80004 333 92312 92428;
0158143030999992000021512004+45050+013620FM-12+000899999V0201601N002019999999N0200001N1+01021+00801101901ADDAA199000091GF105991051001012501031001MD1710101+9999REMSYN076AAXX  15121 14303 32698 51602 10102 20080 40190 57010 85030 333 92312 92428;EQDQ01  00002PRCP99
0128143030999992000021515004+45050+013620FM-12+000899999V0201401N003010075019N0200001N1+00961+00801101801ADDGF108991081051008001999999MD1710101+9999REMSYN076AAXX  15151 14303 42598 81403 10096 20080 40180 57010 885// 333 92312 92428;
0225143030999992000021606004+45050+013620FM-12+000899999V0202301N003010075019N0040001N1+00901+00801101201ADDAA199000091AY121061AY221061GF108991081051008001999999KA1999N+00751MD1710201+9999MW1101SA1+0939REMSYN100AAXX  16061 14303 32596 82303 10090 20080 40120 57020 71022 885// 222// 00093 333 20075 92312 92426;EQDQ01  00002PRCP99
0162143030999992000021609004+45050+013620FM-12+000899999V0200901N001010075019N0040001N1+00881+00601101001ADDAY111031AY221031GF108991081051008001999999MD1710201+9999MW1101REMSYN088AAXX  16091 14303 41596 80901 10088 20060 3//// 40100 57020 71012 885// 333 92311 92416;
0164143030999992000021612004+45050+013620FM-12+000899999V0201001N004010075019N0200001N1+00981+00801100701ADDAA199000091GF108991081051008001999999MD1710301+9999REMSYN082AAXX  16121 14303 32598 81004 10098 20080 3//// 40070 57030 885// 333 92323 92428;EQDQ01  00002PRCP99
0134143030999992000021615004+45050+013620FM-12+000899999V0201601N006010075019N0200001N1+01101+00801100301ADDGF108991081051008001999999MD1710401+9999REMSYN082AAXX  16151 14303 42598 81606 10110 20080 3//// 40030 57040 885// 333 92323 92438;
0184143030999992000021706004+45050+013620FM-12+000899999V0200901N003010075019N0200001N1+00481+00001100201ADDAA124007991GF108991081051008001999999KA1999N+00201MD1710201+9999SA1+0839REMSYN100AAXX  17061 14303 12598 80903 10048 2000/ 40020 57020 60084 885// 222// 00083 333 20020 92323 92438;
0128143030999992000021709004+45050+013620FM-12+000899999V0202901N004010360019N0200001N1+00621+00101100401ADDGF105991041081008001041001MD1210201+9999REMSYN076AAXX  17091 14303 42598 52904 10062 20010 40040 52020 84840 333 92312 92428;
0158143030999992000021712004+45050+013620FM-12+000899999V0202901N006012200019N0200001N1+00701+00201100401ADDAA199000091GF103991031001008001041061MD1410001+9999REMSYN076AAXX  17121 14303 32598 32906 10070 20020 40040 54000 83046 333 92334 92448;EQDQ01  00002PRCP99
0128143030999992000021715004+45050+013620FM-12+000899999V0202901N004019999999N0200001N1+00781+00101100401ADDGF105991041001008001041061MD1410001+9999REMSYN076AAXX  17151 14303 42598 52904 10078 20010 40040 54000 84046 333 92323 92438;
0207143030999992000021806004+45050+013620FM-12+000899999V0203601N001012200019N0200001N1+00381+00001101301ADDAA199000091GA1001+999999999GF100991001001999999001001KA1999N+00221MD1210201+9999SA1+0829REMSYN088AAXX  18061 14303 32998 03601 10038 20000 40130 52020 222// 00082 333 20022 92311 92418;EQDQ01  00002PRCP99
0138143030999992000021809004+45050+013620FM-12+000899999V0202701N001012200019N0200001N1+00701+00001101501ADDGA1001+999999999GF100991001001999999001001MD1210201+9999REMSYN070AAXX  18091 14303 42098 02701 10070 20000 40150 52020 333 92311 92418;
0158143030999992000021812004+45050+013620FM-12+000899999V0202301N003012200019N0200001N1+00901+00001101501ADDAA199000091GF104991041001012501001041MD1410001+9999REMSYN076AAXX  18121 14303 32698 42303 10090 20000 40150 54000 84004 333 92312 92428;EQDQ01  00002PRCP99
0128143030999992000021815004+45050+013620FM-12+000899999V0202301N003012200019N0200001N1+00841+00301101401ADDGF103991031001012501001041MD1710101+9999REMSYN076AAXX  18151 14303 42698 32303 10084 20030 40140 57010 83004 333 92312 92428;
0197143030999992000021906004+45050+013620FM-12+000899999V0200901N003010075019N0200001N1+00781+00401100801ADDAA199000091GF108991081051008001999999KA1999N+00401MD1410001+9999SA1+0889REMSYN094AAXX  19061 14303 32598 80903 10078 20040 40080 54000 885// 222// 00088 333 20040 92322 92428;EQDQ01  00002PRCP99
0128143030999992000021909004+45050+013620FM-12+000899999V0201401N004010075019N0200001N1+00901+00501100801ADDGF108991081051008001999999MD1410001+9999REMSYN076AAXX  19091 14303 42598 81404 10090 20050 40080 54000 885// 333 92323 92438;
0186143030999992000021912004+45050+013620FM-12+000899999V0200901N004010075019N0200001N1+00901+00701100801ADDAA199000021AY151061AY251061GF108991999071008001021999MD1410001+9999MW1501REMSYN082AAXX  19121 14303 31598 80904 10090 20070 40080 54000 75055 8872/ 333 92323 92438;EQDQ01+000082SCOTLC
0128143030999992000021915004+45050+013620FM-12+000899999V0200901N004010075019N0200001N1+00881+00501100801ADDGF108991081051008001999999MD1410001+9999REMSYN076AAXX  19151 14303 42598 80904 10088 20050 40080 54000 885// 333 92323 92438;
0200143030999992000022006004+45050+013620FM-12+000899999V0203601N003012200019N0200001N1+00541+00201100901ADDAA118005191GA1001+999999999GF100991001001999999001001KA1999N+00351MD1210101+9999SA1+0829REMSYN100AAXX  20061 14303 12998 03603 10054 20020 3//// 40090 52010 60053 222// 00082 333 20035 92312 92428;
0144143030999992000022009004+45050+013620FM-12+000899999V0202901N002012200019N0200001N1+00781+00301101101ADDGA1001+999999999GF100991001001999999001001MD1210201+9999REMSYN076AAXX  20091 14303 42998 02902 10078 20030 3//// 40110 52020 333 92312 92428;
0164143030999992000022012004+45050+013620FM-12+000899999V0202901N004012200019N0200001N1+00921+00501101201ADDAA199000091GF103991031001008001041061MD1210101+9999REMSYN082AAXX  20121 14303 32598 32904 10092 20050 3//// 40120 52010 83046 333 92322 92428;EQDQ01  00002PRCP99
0134143030999992000022015004+45050+013620FM-12+000899999V0202701N002012200019N0200001N1+01021+00401101401ADDGF102991021001012501041061MD1210201+9999REMSYN082AAXX  20151 14303 42698 22702 10102 20040 3//// 40140 52020 82046 333 92312 92428;
0213143030999992000022106004+45050+013620FM-12+000899999V0200501N002012200019N0200001N1+00401+00101102201ADDAA199000091GA1001+999999999GF100991001001999999001001KA1999N+00301MD1210201+9999SA1+0809REMSYN094AAXX  21061 14303 32998 00502 10040 20010 3//// 40220 52020 222// 00080 333 20030 92301 92418;EQDQ01  00002PRCP99
0144143030999992000022109004+45050+013620FM-12+000899999V0200901N001012200019N0200001N1+00641+00101102301ADDGA1001+999999999GF100991001001999999001001MD1210101+9999REMSYN076AAXX  21091 14303 42998 00901 10064 20010 3//// 40230 52010 333 92301 92418;
0134143030999992000022115004+45050+013620FM-12+000899999V0202301N003012200019N0200001N1+00821+00101102401ADDGF103991031081008001041001MD1410001+9999REMSYN082AAXX  21151 14303 42598 32303 10082 20010 3//// 40240 54000 83840 333 92312 92428;
0203143030999992000022206004+45050+013620FM-12+000899999V0200501N002010075019N0200001N1+00381-00301102601ADDAA199000091GF107991071041008001041001KA1999N+00201MD1410001+9999SA1+0809REMSYN100AAXX  22061 14303 32598 70502 10038 21030 3//// 40260 54000 87440 222// 00080 333 20020 92312 92428;EQDQ01  00002PRCP99
0128143030999992000022209004+45050+013620FM-12+000899999V0200501N001010120019N0200001N1+00541-00301102701ADDGF105991051081008001041001MD1210101+9999REMSYN076AAXX  22091 14303 42598 50501 10054 21030 40270 52010 85840 333 92311 92418;
0168143030999992000022212004+45050+013620FM-12+000899999V0202701N003012200019N0200001N1+00621-00401102601ADDAA199000091GA1001+999999999GF100991001001999999001001MD1710101+9999REMSYN070AAXX  22121 14303 32998 02703 10062 21040 40260 57010 333 92312 92428;EQDQ01  00002PRCP99
0144143030999992000022215004+45050+013620FM-12+000899999V0202301N002012200019N0200001N1+00741+00001102501ADDGA1001+999999999GF100991001001999999001001MD1710101+9999REMSYN076AAXX  22151 14303 42998 02302 10074 20000 3//// 40250 57010 333 92312 92428;
0187143030999992000022306004+45050+013620FM-12+000899999V0200501N002012200019N0200001N1+00221-00101102501ADDAA199000091GA1001+999999999GF100991001001999999001001KA1999N+00151MD1410001+9999REMSYN076AAXX  23061 14303 32098 00502 10022 21010 40250 54000 333 20015 92301 92418;EQDQ01  00002PRCP99
0128143030999992000022309004+45050+013620FM-12+000899999V0203601N002010120019N0200001N1+00521-00201102501ADDGF106991061081008001041001MD1410001+9999REMSYN076AAXX  23091 14303 42598 63602 10052 21020 40250 54000 86840 333 92311 94218;
0164143030999992000022312004+45050+013620FM-12+000899999V0203201N003010120019N0200001N1+00621-00101102501ADDAA199000091GF107991061081008001061001MD1410001+9999REMSYN082AAXX  23121 14303 32598 73203 10062 21010 3//// 40250 54000 86860 333 92322 92428;EQDQ01  00002PRCP99
0138143030999992000022315004+45050+013620FM-12+000899999V0203201N004012200019N0200001N1+00741+00001102501ADDGA1001+999999999GF100991001001999999001001MD1410001+9999REMSYN070AAXX  23151 14303 42098 03204 10074 20000 40250 54000 333 92323 92438;
0213143030999992000022406004+45050+013620FM-12+000899999V0203601N002012200019N0200001N1+00441+00001102801ADDAA199000091GA1001+999999999GF100991001001999999001001KA1999N+00151MD1210101+9999SA1+0849REMSYN094AAXX  24061 14303 32998 03602 10044 20000 3//// 40280 52010 222// 00084 333 20015 92311 92418;EQDQ01  00002PRCP99
0144143030999992000022409004+45050+013620FM-12+000899999V0203601N001012200019N0200001N1+00701+99999102301ADDGA1001+999999999GF100991001001999999001001MD1210101+9999REMSYN076AAXX  24091 14303 42998 03601 10070 2//// 3//// 40230 52010 333 92301 92418;
0134143030999992000022415004+45050+013620FM-12+000899999V0202901N003010120019N0200001N1+00801+00201102901ADDGF105991051081008001041001MD1410001+9999REMSYN082AAXX  24151 14303 42598 52903 10080 20020 3//// 40290 54000 85840 333 92322 92428;
0168143030999992000022512004+45050+013620FM-12+000899999V0202301N003012200019N0100001N1+00941+00401102801ADDAA199000091GA1001+999999999GF100991001001999999001001MD1710101+9999REMSYN070AAXX  25121 14303 32997 02303 10094 20040 40280 57010 333 92312 92427;EQDQ01  00002PRCP99
0128143030999992000022515004+45050+013620FM-12+000899999V0202001N003010075019N0100001N1+00881+00501102701ADDGF108991081021008001001001MD1710101+9999REMSYN076AAXX  25151 14303 42597 82003 10088 20050 40270 57010 88200 333 92312 92427;
0219143030999992000022606004+45050+013620FM-12+000899999V0209999V003012200019N0200001N1+00761+00301102901ADDAA199000091GA1021+003609079GF103991031021012501001051KA1999N+00401MD1210101+9999SA1+0859REMSYN100AAXX  26061 14303 32698 39903 10076 20030 3//// 40290 52010 83205 222// 00085 333 20040 82312 92428;EQDQ01  00002PRCP99
0164143030999992000022612004+45050+013620FM-12+000899999V0201601N003010075019N0200001N1+00981+00601103101ADDAA199000091GF108991081011008001001001MD1210101+9999REMSYN082AAXX  26121 14303 32598 81603 10098 20060 3//// 40310 52010 88100 333 92312 92428;EQDQ01  00002PRCP99
0134143030999992000022615004+45050+013620FM-12+000899999V0203601N001010075019N0100001N1+01001+00601103001ADDGF108991081021008001001001MD1710101+9999REMSYN082AAXX  26151 14303 42597 83601 10100 20060 3//// 40300 57010 88200 333 92311 92417;
0203143030999992000022706004+45050+013620FM-12+000899999V0203601N001012200019N0100001N1+00801+00601103001ADDAA199000091GF103991031081008001061001KA1999N+00451MD1410001+9999SA1+0859REMSYN100AAXX  27061 14303 32597 33601 10080 20060 3//// 40300 54000 83860 222// 00085 333 20045 92301 92417;EQDQ01  00002PRCP99
0138143030999992000022709004+45050+013620FM-12+000899999V0202701N001012200019N0100001N1+00881+00501103001ADDGA1001+999999999GF100991001001999999001001MD1410001+9999REMSYN070AAXX  27091 14303 42997 02701 10088 20050 40300 54000 333 92300 92407;
0196143030999992000022712004+45050+013620FM-12+000899999V0202701N002012200019N0040001N1+01021+00801103001ADDAA199000091AY111061AY221061GA1001+999999999GF100991001001999999001001MD1410001+9999MW1101REMSYN076AAXX  27121 14303 31996 02702 10102 20080 40300 54000 71012 333 92311 92416;EQDQ01  00002PRCP99
0166143030999992000022715004+45050+013620FM-12+000899999V0202701N001012200019N0040001N1+01081+00701103001ADDAY111031AY221031GA1001+999999999GF100991001001999999001001MD1410001+9999MW1101REMSYN076AAXX  27151 14303 41996 02701 10108 20070 40300 54000 71012 333 92311 92416;
0207143030999992000022806004+45050+013620FM-12+000899999V0200501N001012200019N0100001N1+00581+00201103201ADDAA199000091GA1001+999999999GF100991001001999999001001KA1999N+00341MD1410001+9999SA1+0859REMSYN088AAXX  28061 14303 32997 00501 10058 20020 40320 54000 222// 00085 333 20034 92301 92417;EQDQ01  00002PRCP99
0122143030999992000022809004+45050+013620FM-12+000899999V0209999C000019999999N0100001N1+00981+99999103201ADDGF105991999999000251999999MD1410001+9999REMSYN070AAXX  28091 14303 42097 50000 10098 2040/ 40320 54000 333 92301 92417;
0168143030999992000022812004+45050+013620FM-12+000899999V0202701N002012200019N0200001N1+00961+00601103201ADDAA199000091GA1001+999999999GF100991001001999999001001MD1410001+9999REMSYN070AAXX  28121 14303 32998 02702 10096 20060 40320 54000 333 92311 92418;EQDQ01  00002PRCP99
0138143030999992000022815004+45050+013620FM-12+000899999V0209999C000012200019N0200001N1+01001+00701103201ADDGA1001+999999999GF100991001001999999001001MD1410001+9999REMSYN070AAXX  28151 14303 42098 00000 10100 20070 40320 54000 333 92300 92408;
0213143030999992000022906004+45050+013620FM-12+000899999V0200901N003012200019N0100001N1+00721+00501102901ADDAA199000091GA1001+999999999GF100991001001999999001001KA1999N+00401MD1710101+9999SA1+0889REMSYN094AAXX  29061 14303 32997 00903 10072 20050 3//// 40290 57010 222// 00088 333 20040 92312 92427;EQDQ01  00002PRCP99
0128143030999992000022909004+45050+013620FM-12+000899999V0201401N004012200019N0200001N1+00961+00701102901ADDGF102991021071008001011999MD1410001+9999REMSYN076AAXX  29091 14303 42598 21404 10096 20070 40290 54000 8271/ 333 92312 92428;
0180143030999992000022912004+45050+013620FM-12+000899999V0202001N003012200019N0002001N1+00901+99999102701ADDAA199000091AY141061AY261061GF102991021001012501001041MD1710201+9999MW1401REMSYN076AAXX  29121 14303 31692 22003 10090 40270 57020 74046 82004 333 92323 92432;EQDQ01  00002PRCP99
0166143030999992000022915004+45050+013620FM-12+000899999V0201801N002012200019N0002001N1+00941+00701102501ADDAY141031AY261031GA1001+999999999GF100991001001999999001001MD1710201+9999MW1401REMSYN076AAXX  29151 14303 41992 01802 10094 20070 40250 57020 74046 333 92323 92432;
0212143030999992000030106004+45050+013620FM-12+000899999V0201801N006010075019N0100001N1+01001+00601101401ADDAA124000591AY151061AY211061GF108991081071008001999999KA1999N+00551MD1710201+9999MW1501SA1+0909REMSYN106AAXX  01061 14303 11597 81806 10100 20060 40140 57020 69954 75051 887// 222// 00090 333 20055 92334 92447;
0153143030999992000030109004+45050+013620FM-12+000899999V0201801N007010075019N0200001N1+01001+00801101201ADDGF108991999071008001021999MD1710201+9999REMSYN082AAXX  01091 14303 42598 81807 10100 20080 3//// 40120 57020 8872/ 333 92334 92448;EQDQ01+000082SCOTLC
0186143030999992000030112004+45050+013620FM-12+000899999V0201801N006010075019N0200001N1+00981+00801100901ADDAA199000021AY151061AY221061GF108991999071008001021999MD1710301+9999MW1501REMSYN082AAXX  01121 14303 31598 81806 10098 20080 40090 57030 75052 8872/ 333 92334 92448;EQDQ01+000082SCOTLC
0147143030999992000030115004+45050+013620FM-12+000899999V0201601N007010075019N0200001N1+00981+00801100501ADDGF108991999071008001021999MD1710401+9999REMSYN076AAXX  01151 14303 42598 81607 10098 20080 40050 57040 8872/ 333 92344 92448;EQDQ01+000082SCOTLC
0184143030999992000030206004+45050+013620FM-12+000899999V0203601N003010075019N0200001N1+00841+00601100601ADDAA124010991GF108991081051008001999999KA1999N+00551MD1210401+9999SA1+0909REMSYN100AAXX  02061 14303 12598 83603 10084 20060 40060 52040 60114 885// 222// 00090 333 20055 92323 92438;
0134143030999992000030209004+45050+013620FM-12+000899999V0203601N003019999999N0200001N1+00881+00501101101ADDGF108991081001012501071001MD1210501+9999REMSYN082AAXX  02091 14303 42698 83603 10088 20050 3//// 40110 52050 88070 333 92323 92438;
0164143030999992000030212004+45050+013620FM-12+000899999V0200501N004012200019N0200001N1+01281-00201101301ADDAA199000091GF104991041011017501001061MD1210201+9999REMSYN082AAXX  02121 14303 32798 40504 10128 21020 3//// 40130 52020 84106 333 92323 92428;EQDQ01  00002PRCP99
0144143030999992000030215004+45050+013620FM-12+000899999V0203201N004012200019N0200001N1+01141+00401101501ADDGA1001+999999999GF100991001001999999001001MD1210201+9999REMSYN076AAXX  02151 14303 42998 03204 10114 20040 3//// 40150 52020 333 92312 92428;
0183143030999992000030306004+45050+013620FM-12+000899999V0200701N003012200019N0200001N1+00481+00001102101ADDAA199000091GF104991001001999999001011KA1999N+00441MD1410001+9999REMSYN088AAXX  03061 14303 32998 40703 10048 20000 40210 54000 80001 333 20044 92312 92428 00090;EQDQ01  00002PRCP99
0128143030999992000030309004+45050+013620FM-12+000899999V0201401N003010150019N0200001N1+00941+00001102101ADDGF106991061021017501001051MD1410001+9999REMSYN076AAXX  03091 14303 42798 61403 10094 20000 40210 54000 86205 333 92312 92428;
0158143030999992000030312004+45050+013620FM-12+000899999V0201801N004012200019N0200001N1+01061+00301102001ADDAA199000091GF104991001001999999001081MD1710101+9999REMSYN076AAXX  03121 14303 32998 41804 10106 20030 40200 57010 80008 333 92312 92428;EQDQ01  00002PRCP99
0128143030999992000030315004+45050+013620FM-12+000899999V0201801N003019999999N0200001N1+01001+00701101801ADDGF108991001001999999001081MD1710201+9999REMSYN076AAXX  03151 14303 42998 81803 10100 20070 40180 57020 80008 333 92312 92428;
0203143030999992000030406004+45050+013620FM-12+000899999V0202001N004010075019N0200001N1+01001+00701101301ADDAA199000091GF108991081051008001999999KA1999N+00801MD1710101+9999SA1+0929REMSYN100AAXX  04061 14303 32598 82004 10100 20070 3//// 40130 57010 885// 222// 00092 333 20080 92323 92438;EQDQ01  00002PRCP99
0134143030999992000030409004+45050+013620FM-12+000899999V0202301N004010075019N0200001N1+01041+00701101301ADDGF108991081051008001999999MD1410001+9999REMSYN082AAXX  04091 14303 42598 82304 10104 20070 3//// 40130 54000 885// 333 92323 92438;
0134143030999992000030415004+45050+013620FM-12+000899999V0201801N002010075019N0200001N1+01001+00801101201ADDGF108991081051008001999999MD1410001+9999REMSYN082AAXX  04151 14303 42598 81802 10100 20080 3//// 40120 54000 885// 333 92323 92438;
0194143030999992000030506004+45050+013620FM-12+000899999V0200501N002012200019N0200001N1+00501-00101102301ADDAA124000191GA1001+999999999GF100991001001999999001001KA1999N+00451MD1210301+9999SA1+0909REMSYN094AAXX  05061 14303 12998 00502 10050 21010 40230 52030 69914 222// 00090 333 20045 92312 92428;
0138143030999992000030509004+45050+013620FM-12+000899999V0203201N003012200019N0200001N1+00701-00201102601ADDGA1001+999999999GF100991001001999999001001MD1210301+9999REMSYN070AAXX  05091 14303 42998 03203 10070 21020 40260 52030 333 92312 92428;
0158143030999992000030512004+45050+013620FM-12+000899999V0202701N004012200019N0200001N1+00821+00101102701ADDAA199000091GF102991021011008001001001MD1210101+9999REMSYN076AAXX  05121 14303 32598 22704 10082 20010 40270 52010 82100 333 92312 92428;EQDQ01  00002PRCP99
0128143030999992000030515004+45050+013620FM-12+000899999V0202701N004012200019N0200001N1+00921+00201102701ADDGF101991011041008001041001MD1410001+9999REMSYN076AAXX  05151 14303 42598 12704 10092 20020 40270 54000 81440 333 92312 92428;
0134143030999992000030609004+45050+013620FM-12+000899999V0201801N003010075019N0200001N1+00841+00301103501ADDGF108991081051008001999999MD1210101+9999REMSYN082AAXX  06091 14303 42598 81803 10084 20030 3//// 40350 52010 885// 333 92312 92428;
0164143030999992000030612004+45050+013620FM-12+000899999V0201801N004010075019N0200001N1+00901+00201103501ADDAA199000091GF108991081051008001999999MD1410001+9999REMSYN082AAXX  06121 14303 32598 81804 10090 20020 3//// 40350 54000 885// 333 92312 92428;EQDQ01  00002PRCP99
0134143030999992000030615004+45050+013620FM-12+000899999V0202401N001012200019N0200001N1+01121+00401103401ADDGF102991021041012501071001MD1710101+9999REMSYN082AAXX  06151 14303 42698 22401 10112 20040 3//// 40340 57010 82470 333 92312 92428;
0197143030999992000030706004+45050+013620FM-12+000899999V0200901N003012200019N0200001N1+00581+00401103091ADDAA199000091GF102991021081012501041001KA1999N+00501MD1710101+9999SA1+0889REMSYN094AAXX  07061 14303 32698 20903 10058 20040 40309 57010 82840 222// 00088 333 20050 92312 92428;EQDQ01  00002PRCP99
0128143030999992000030715004+45050+013620FM-12+000899999V0202301N003019999999N0100001N1+00941+00601102701ADDGF107991071001999999051001MD1710201+9999REMSYN076AAXX  07151 14303 42997 72303 10094 20060 40270 57020 87050 333 92312 92427;
0144143030999992000030809004+45050+013620FM-12+000899999V0201801N002012200019N0200001N1+01041+00801102801ADDGA1001+999999999GF100991001001999999001001MD1210101+9999REMSYN076AAXX  08091 14303 42998 01802 10104 20080 3//// 40280 52010 333 92311 92417;
0202143030999992000030812004+45050+013620FM-12+000899999V0202701N002012200019N0002001N1+00941+00701102801ADDAA199000091AY111061AY201061GA1001+999999999GF100991001001999999001001MD1410001+9999MW1461REMSYN082AAXX  08121 14303 31992 02702 10094 20070 3//// 40280 54000 74610 333 92311 92412;EQDQ01  00002PRCP99
0197143030999992000030906004+45050+013620FM-12+000899999V0201401N004019999999N0100001N1+00941+00801102301ADDAA199000091GF108991081001012501071999KA1999N+00721MD1410001+9999SA1+0909REMSYN094AAXX  09061 14303 32697 81404 10094 20080 40230 54000 8807/ 222// 00090 333 20072 92312 92427;EQDQ01  00002PRCP99
0156143030999992000030909004+45050+013620FM-12+000899999V0202301N002019999999N0020001N1+00941+00801102401ADDAY121031AY221031GF108991081001012501071999MD1210101+9999MW1101REMSYN082AAXX  09091 14303 41695 82302 10094 20080 40240 52010 71022 8807/ 333 92312 92425;
0166143030999992000030912004+45050+013620FM-12+000899999V0202301N003012200019N0020001N1+00961+00801102301ADDAY121061AY211061GA1001+999999999GF100991001001999999001001MD1710101+9999MW1101REMSYN076AAXX  09121 14303 41995 02303 10096 20080 40230 57010 71021 333 92312 92425;
0175143030999992000030915004+45050+013620FM-12+000899999V0202301N002019999999N0020001N1+01041+00801102101ADDAY121031AY211031GF106991001001999999001071MD1710201+9999MW1101REMSYN082AAXX  09151 14303 41795 62302 10104 20080 40210 57020 71021 80007 333 92311 92415;EQDQ01+017502SCOLCB
0203143030999992000031006004+45050+013620FM-12+000899999V0201101N004010075019N0100001N1+01041+00901101701ADDAA199000091GF108991081051008001999999KA1999N+00951MD1210101+9999SA1+0929REMSYN100AAXX  10061 14303 32597 81104 10104 20090 3//// 40170 52010 885// 222// 00092 333 20095 9212/ 92427;EQDQ01  00002PRCP99
0134143030999992000031009004+45050+013620FM-12+000899999V0201401N004012200019N0100001N1+01141+00901101901ADDGF104991041071012501011999MD1210201+9999REMSYN082AAXX  10091 14303 42697 41404 10114 20090 3//// 40190 52020 8471/ 333 92312 92427;
0172143030999992000031015004+45050+013620FM-12+000899999V0202301N003012200019N0002001N1+01041+00901101801ADDAY111031AY201031GA1001+999999999GF100991001001999999001001MD1410001+9999MW1441REMSYN082AAXX  10151 14303 41992 02303 10104 20090 3//// 40180 54000 74410 333 92312 92422;
0197143030999992000031106004+45050+013620FM-12+000899999V0203601N002010075019N0100001N1+00781+00601102001ADDAA199000091GF108991081051008001999999KA1999N+00651MD1410001+9999SA1+0929REMSYN094AAXX  11061 14303 32597 83602 10078 20060 40200 54000 885// 222// 00092 333 20065 92301 92417;EQDQ01  00002PRCP99
0128143030999992000031109004+45050+013620FM-12+000899999V0201101N002010075019N0100001N1+01021+00801101901ADDGF108991081051008001999999MD1710101+9999REMSYN076AAXX  11091 14303 42597 81102 10102 20080 40190 57010 885// 333 92311 92417;
0158143030999992000031112004+45050+013620FM-12+000899999V0201801N003010075019N0100001N1+01121+00901101801ADDAA199000091GF108991081051008001999999MD1710101+9999REMSYN076AAXX  11121 14303 32597 81803 10112 20090 40180 57010 885// 333 92311 92417;EQDQ01  00002PRCP99
0156143030999992000031115004+45050+013620FM-12+000899999V0202301N003010075019N0040001N1+01021+00301101601ADDAY121031AY221031GF108991081051008001999999MD1710201+9999MW1101REMSYN082AAXX  11151 14303 41596 82303 10102 20030 40160 57020 71022 885// 333 92311 92416;
0231143030999992000031206004+45050+013620FM-12+000899999V0203601N003010075019N0020001N1+00921+00801101801ADDAA199000091AY121061AY221061GF108991081051008001999999KA1999N+00841MD1210101+9999MW1101SA1+0959REMSYN106AAXX  12061 14303 31595 83603 10092 20080 3//// 40180 52010 71022 885// 222// 00095 333 20084 92311 92415;EQDQ01  00002PRCP99
0162143030999992000031209004+45050+013620FM-12+000899999V0203401N003012200019N0010001N1+00981+00801102001ADDAY141031AY221031GF102991021081012501041001MD1210201+9999MW1411REMSYN088AAXX  12091 14303 41694 23403 10098 20080 3//// 40200 52020 74142 82840 333 92311 92414;
0202143030999992000031212004+45050+013620FM-12+000899999V0203401N003012200019N0002001N1+00981+00801102001ADDAA199000091AY141061AY221061GA1001+999999999GF100991001001999999001001MD1410001+9999MW1411REMSYN082AAXX  12121 14303 31992 03403 10098 20080 3//// 40200 54000 74142 333 92312 92422;EQDQ01  00002PRCP99
0213143030999992000031306004+45050+013620FM-12+000899999V0200501N001012200019N0200001N1+00841+00501102401ADDAA199000091GF102991001001999999001091KA1999N+00661MD1210101+9999SA1+0969REMSYN094AAXX  13061 14303 32798 20501 10084 20050 40240 52010 80009 222// 00096 333 20066 92301 92418;EQDQ01+017502SCOLCBQ02  00002PRCP99
0138143030999992000031309004+45050+013620FM-12+000899999V0203601N001012200019N0200001N1+01101+00501102501ADDGA1001+999999999GF100991001001999999001001MD1210101+9999REMSYN070AAXX  13091 14303 42998 03601 10110 20050 40250 52010 333 92301 92418;
0168143030999992000031312004+45050+013620FM-12+000899999V0203201N002012200019N0200001N1+01141+00801102501ADDAA199000091GA1001+999999999GF100991001001999999001001MD1410001+9999REMSYN070AAXX  13121 14303 32998 03202 10114 20080 40250 54000 333 92301 92418;EQDQ01  00002PRCP99
0138143030999992000031315004+45050+013620FM-12+000899999V0203201N001012200019N0200001N1+01281+00701102301ADDGA1001+999999999GF100991001001999999001001MD1710201+9999REMSYN070AAXX  13151 14303 42998 03201 10128 20070 40230 57020 333 92301 92418;
0162143030999992000031409004+45050+013620FM-12+000899999V0201801N004010075019N0040001N1+00841+00701102401ADDAY141031AY241031GF108991081051008001999999MD1410001+9999MW1101REMSYN088AAXX  14091 14303 41596 81804 10084 20070 3//// 40240 54000 71044 885// 333 92311 92416;
0180143030999992000031412004+45050+013620FM-12+000899999V0202001N003012200019N0100001N1+01181+00801102201ADDAA199000091GF102991001001999999001071MD1710201+9999REMSYN082AAXX  14121 14303 32797 22003 10118 20080 3//// 40220 57020 80007 333 92311 92417;EQDQ01+017502SCOLCBQ02  00002PRCP99
0153143030999992000031415004+45050+013620FM-12+000899999V0201801N003019999999N0100001N1+01161+00801102201ADDGF108991001001999999001081MD1410001+9999REMSYN082AAXX  14151 14303 42797 81803 10116 20080 3//// 40220 54000 80008 333 92311 92417;EQDQ01+017502SCOLCB
0219143030999992000031506004+45050+013620FM-12+000899999V0202001N002010075019N0020001N1+00921+00801101401ADDAA199000091AY141061AY221061GF108991081051008001999999KA1999N+00861MD1410001+9999MW1101SA1+1059REMSYN094AAXX  15061 14303 31595 82002 10092 20080 40140 54000 71042 885// 222// 00105 333 20086 92312;EQDQ01  00002PRCP99
0186143030999992000031509004+45050+013620FM-12+000899999V0201801N002010075019N0010001N1+00981+00801101401ADDAA199000091AY141031AY221031GF108991081051008001999999MD1410001+9999MW1281REMSYN082AAXX  15091 14303 31594 81802 10098 20080 40140 54000 72842 885// 333 92312 92424;EQDQ01  00002PRCP99
0186143030999992000031512004+45050+013620FM-12+000899999V0202501N001010075019N0020001N1+01001+00801101401ADDAA199000091AY141061AY221061GF108991081051008001999999MD1410001+9999MW1101REMSYN082AAXX  15121 14303 31595 82501 10100 20080 40140 54000 71042 885// 333 92312 92425;EQDQ01  00002PRCP99
0156143030999992000031515004+45050+013620FM-12+000899999V0200501N003010120019N0100001N1+01021+00801101501ADDAY141031AY221031GF108991081081008001001001MD1210101+9999MW1171REMSYN082AAXX  15151 14303 41597 80503 10102 20080 40150 52010 71742 88800 333 92312 92427;
0190143030999992000031606004+45050+013620FM-12+000899999V0200501N003012200019N0200001N1+00521+00001102101ADDAA118000791GF101991011081012501041001KA1999N+00461MD1710101+9999SA1+1029REMSYN106AAXX  16061 14303 12698 10503 10052 20000 3//// 40210 57010 69903 81840 222// 00102 333 20046 92312 92428;
0144143030999992000031609004+45050+013620FM-12+000899999V0202001N001012200019N0200001N1+00941+00201102001ADDGA1001+999999999GF100991001001999999001001MD1710101+9999REMSYN076AAXX  16091 14303 42998 02001 10094 20020 3//// 40200 57010 333 92311 92418;
0164143030999992000031612004+45050+013620FM-12+000899999V0201801N002010150019N0200001N1+01041+00301101801ADDAA199000091GF107991071021017501001051MD1710201+9999REMSYN082AAXX  16121 14303 32798 71802 10104 20030 3//// 40180 57020 87205 333 92311 92418;EQDQ01  00002PRCP99
0134143030999992000031615004+45050+013620FM-12+000899999V0201801N002010150019N0200001N1+01101+00201101601ADDGF106991061021017501001051MD1710201+9999REMSYN082AAXX  16151 14303 42798 61802 10110 20020 3//// 40160 57020 86205 333 92311 92418;
0197143030999992000031706004+45050+013620FM-12+000899999V0200901N003012200019N0200001N1+00561+00101101901ADDAA199000091GF104991041041012501071001KA1999N+00461MD1710101+9999SA1+1009REMSYN094AAXX  17061 14303 32698 40903 10056 20010 40190 57010 84470 222// 00100 333 20046 92312 92428;EQDQ01  00002PRCP99
0128143030999992000031709004+45050+013620FM-12+000899999V0201601N003012200019N0200001N1+00921+00401101701ADDGF101991011041012501071001MD1710201+9999REMSYN076AAXX  17091 14303 42698 11603 10092 20040 40170 57020 81470 333 92312 92428;
0158143030999992000031712004+45050+013620FM-12+000899999V0202001N003012200019N0200001N1+01061+00501101501ADDAA199000091GF101991011011008001001001MD1710201+9999REMSYN076AAXX  17121 14303 32598 12003 10106 20050 40150 57020 81100 333 92312 92428;EQDQ01  00002PRCP99
0128143030999992000031715004+45050+013620FM-12+000899999V0202001N001012200019N0200001N1+01121+00501101301ADDGF104991041011008001001001MD1710201+9999REMSYN076AAXX  17151 14303 42598 42001 10112 20050 40130 57020 84100 333 92312 92428;
0203143030999992000031806004+45050+013620FM-12+000899999V0201101N002012200019N0200001N1+00581+00301101601ADDAA199000091GF102991021041012501071001KA1999N+00501MD1410001+9999SA1+1009REMSYN100AAXX  18061 14303 32698 21102 10058 20030 3//// 40160 54000 82470 222// 00100 333 20050 92312 92428;EQDQ01  00002PRCP99
0134143030999992000031809004+45050+013620FM-12+000899999V0201401N002010075019N0200001N1+00801+00201101801ADDGF107991071051008001999999MD1210201+9999REMSYN082AAXX  18091 14303 42598 71402 10080 20020 3//// 40180 52020 875// 333 92312 92428;
0164143030999992000031812004+45050+013620FM-12+000899999V0202001N002010075019N0200001N1+00941+00201101801ADDAA199000091GF105991051041008001001001MD1410001+9999REMSYN082AAXX  18121 14303 32598 52002 10094 20020 3//// 40180 54000 85400 333 92312 92428;EQDQ01  00002PRCP99
0144143030999992000031815004+45050+013620FM-12+000899999V0202901N002012200019N0200001N1+00981+00401101801ADDGA1001+999999999GF100991001001999999001001MD1410001+9999REMSYN076AAXX  18151 14303 42998 02902 10098 20040 3//// 40180 54000 333 92312 92428;
0203143030999992000031906004+45050+013620FM-12+000899999V0200501N001010075019N0200001N1+00561+00101102301ADDAA199000091GF108991081051008001999999KA1999N+00441MD1410001+9999SA1+1009REMSYN100AAXX  19061 14303 32598 80501 10056 20010 3//// 40230 54000 885// 222// 00100 333 20044 92312 92428;EQDQ01  00002PRCP99
0128143030999992000031909004+45050+013620FM-12+000899999V0201401N001010075019N0200001N1+00701+00201102301ADDGF108991081051008001999999MD1410001+9999REMSYN076AAXX  19091 14303 42598 81401 10070 20020 40230 54000 885// 333 92301 92418;
0158143030999992000031912004+45050+013620FM-12+000899999V0201601N002010075019N0200001N1+00921+00401102201ADDAA199000091GF107991071051008001001001MD1710101+9999REMSYN076AAXX  19121 14303 32598 71602 10092 20040 40220 57010 87500 333 92312 92428;EQDQ01  00002PRCP99
0128143030999992000031915004+45050+013620FM-12+000899999V0201401N002010075019N0200001N1+00941+00401102001ADDGF108991081051008001999999MD1710201+9999REMSYN076AAXX  19151 14303 42598 81402 10094 20040 40200 57020 885// 333 92312 92428;
0197143030999992000032006004+45050+013620FM-12+000899999V0200501N002012200019N0200001N1+00521+00001102501ADDAA199000091GF102991021041012501071001KA1999N+00501MD1210101+9999SA1+1009REMSYN094AAXX  20061 14303 32698 20502 10052 20000 40250 52010 82470 222// 00100 333 20050 92312 92428;EQDQ01  00002PRCP99
0134143030999992000032009004+45050+013620FM-12+000899999V0203201N002012200019N0200001N1+00741+00201102601ADDGF104991041021008001001001MD1210101+9999REMSYN082AAXX  20091 14303 42598 43202 10074 20020 3//// 40260 52010 84200 333 92312 92428;
0164143030999992000032012004+45050+013620FM-12+000899999V0202501N003012200019N0200001N1+00861+00301102601ADDAA199000091GF103991031041008001001001MD1410001+9999REMSYN082AAXX  20121 14303 32598 32503 10086 20030 3//// 40260 54000 83400 333 92312 92428;EQDQ01  00002PRCP99
0134143030999992000032015004+45050+013620FM-12+000899999V0202501N003012200019N0200001N1+00921+00201102401ADDGF102991021011008001001001MD1710201+9999REMSYN082AAXX  20151 14303 42598 22503 10092 20020 3//// 40240 57020 82100 333 92312 92428;
0197143030999992000032106004+45050+013620FM-12+000899999V0200901N001019999999N0200001N1+00641+00401102201ADDAA199000091GF106991061001012501051001KA1999N+00451MD1410001+9999SA1+0989REMSYN094AAXX  21061 14303 32698 60901 10064 20040 40220 54000 86050 222// 00098 333 20045 92301 92418;EQDQ01  00002PRCP99
0128143030999992000032109004+45050+013620FM-12+000899999V0202901N002012200019N0200001N1+00861+00501102301ADDGF101991011041012501071001MD1210101+9999REMSYN076AAXX  21091 14303 42698 12902 10086 20050 40230 52010 81470 333 92312 92428;
0168143030999992000032112004+45050+013620FM-12+000899999V0203201N003012200019N0200001N1+01001+00401102201ADDAA199000091GA1001+999999999GF100991001001999999001001MD1710101+9999REMSYN070AAXX  21121 14303 32998 03203 10100 20040 40220 57010 333 92312 92428;EQDQ01  00002PRCP99
0138143030999992000032115004+45050+013620FM-12+000899999V0203201N003012200019N0200001N1+01001+00401102101ADDGA1001+999999999GF100991001001999999001001MD1710101+9999REMSYN070AAXX  21151 14303 42998 03203 10100 20040 40210 57010 333 92312 92428;
0138143030999992000032209004+45050+013620FM-12+000899999V0202301N002012200019N0200001N1+00941+00501102201ADDGA1001+999999999GF100991001001999999001001MD1410001+9999REMSYN070AAXX  22091 14303 42998 02302 10094 20050 40220 54000 333 92301 92418;
0168143030999992000032212004+45050+013620FM-12+000899999V0202901N002012200019N0100001N1+01121+00701102201ADDAA199000091GA1001+999999999GF100991001001999999001001MD1410001+9999REMSYN070AAXX  22121 14303 32997 02902 10112 20070 40220 54000 333 92301 92417;EQDQ01  00002PRCP99
0123143030999992000032215004+45050+013620FM-12+000899999V0202901N002012200019N0100001N1+01301+00901102101ADDGA1001+999999999GF100991001001999999001001REMSYN069AAXX  22151 14303 42997 02902 10130 20090 40210 5010 333 92301 92417;
0207143030999992000032306004+45050+013620FM-12+000899999V0200901N002012200019N0200001N1+00721+00301102001ADDAA199000091GA1001+999999999GF100991001001999999001001KA1999N+00641MD1410001+9999SA1+0969REMSYN088AAXX  23061 14303 32998 00902 10072 20030 40200 54000 222// 00096 333 20064 92301 92418;EQDQ01  00002PRCP99
0144143030999992000032309004+45050+013620FM-12+000899999V0201401N002012200019N0200001N1+01121+00601102001ADDGA1001+999999999GF100991001001999999001001MD1410001+9999REMSYN076AAXX  23091 14303 42998 01402 10112 20060 3//// 40200 54000 333 92301 92418;
0174143030999992000032312004+45050+013620FM-12+000899999V0201801N003012200019N0200001N1+01241+00901102001ADDAA199000091GA1001+999999999GF100991001001999999001001MD1410001+9999REMSYN076AAXX  23121 14303 32998 01803 10124 20090 3//// 40200 54000 333 92312 92428;EQDQ01  00002PRCP99
0134143030999992000032315004+45050+013620FM-12+000899999V0201801N003012200019N0100001N1+01201+01001101801ADDGF102991001001999999001041MD1710201+9999REMSYN082AAXX  23151 14303 42997 21803 10120 20100 3//// 40180 57020 80004 333 92312 92427;
0203143030999992000032406004+45050+013620FM-12+000899999V0201101N003019999999N0100001N1+01021+00801101601ADDAA199000091GF108991081001012501051001KA1999N+00941MD1410001+9999SA1+1009REMSYN100AAXX  24061 14303 32697 81103 10102 20080 3//// 40160 54000 88050 222// 00100 333 20094 92312 92427;EQDQ01  00002PRCP99
0158143030999992000032409004+45050+013620FM-12+000899999V0201401N003010075019N0100001N1+01161+01001101701ADDAA199000091GF107991071041008001001001MD1210101+9999REMSYN076AAXX  24091 14303 32597 71403 10116 20100 40170 52010 87400 333 92312 92427;EQDQ01  00002PRCP99
0202143030999992000032412004+45050+013620FM-12+000899999V0201801N002019999999N0020001N1+01101+00901101701ADDAA199000091AY121061AY221061GF108991001001999999001071MD1410001+9999MW1101REMSYN082AAXX  24121 14303 31995 81802 10110 20090 40170 54000 71022 88007 333 92312 92425;EQDQ01+000082SCOTLCQ02  00002PRCP99
0156143030999992000032415004+45050+013620FM-12+000899999V0201401N001019999999N0010001N1+01121+00801101701ADDAY121031AY221031GF108991001001999999001071MD1410001+9999MW1101REMSYN082AAXX  24151 14303 41994 81401 10112 20080 40170 54000 71022 80007 333 92301 92414;
0218143030999992000032506004+45050+013620FM-12+000899999V0201101N002010075019N0040001N1+01061+00701101701ADDAA112000591AY121061AY221061GF107991071051008001999999KA1999N+00981MD1410001+9999MW1101SA1+1029REMSYN112AAXX  25061 14303 12596 71102 10106 20070 3//// 40170 54000 69962 71022 875// 222// 00102 333 20098 92312 92426;
0162143030999992000032509004+45050+013620FM-12+000899999V0201401N002010075019N0100001N1+01161+01001101801ADDAY121031AY221031GF107991071051008001999999MD1210101+9999MW1601REMSYN088AAXX  25091 14303 41597 71402 10116 20100 3//// 40180 52010 76022 875// 333 92312 92427;
0145143030999992000032512004+45050+013620FM-12+000899999V0201801N002010120019N0100001N1+01161+01001101901ADDAA199000021GF107991071021012501091001MD1210101+9999REMSYN082AAXX  25121 14303 32697 71802 10116 20100 3//// 40190 52010 87290 333 92301 92417;
0134143030999992000032515004+45050+013620FM-12+000899999V0202001N002012200019N0040001N1+01261+01101101801ADDGF102991021021008001001011MD1710101+9999REMSYN082AAXX  25151 14303 42596 22002 10126 20110 3//// 40180 57010 82201 333 92301 92416;
0186143030999992000032606004+45050+013620FM-12+000899999V0201101N002010075019N0100001N1+01121+01001101501ADDGF108991999071008001021999KA1999N+00951MD1710101+9999SA1+1029REMSYN094AAXX  26061 14303 12597 81102 10112 20100 40150 57010 8872/ 222// 00102 333 20095 92312 92427;EQDQ01+000082SCOTLC
0175143030999992000032609004+45050+013620FM-12+000899999V0201401N002010075019N0040001N1+01121+01001101501ADDAY161031AY221031GF108991999071008001021999MD1410001+9999MW1601REMSYN082AAXX  26091 14303 41596 81402 10112 20100 40150 54000 76062 8872/ 333 92312 92426;EQDQ01+000082SCOTLC
0186143030999992000032612004+45050+013620FM-12+000899999V0201601N003010075019N0040001N1+01161+01001101301ADDAA199000021AY161061AY221061GF108991999071008001021999MD1710201+9999MW1101REMSYN082AAXX  26121 14303 31596 81603 10116 20100 40130 57020 71062 8872/ 333 92312 92426;EQDQ01+000082SCOTLC
0175143030999992000032615004+45050+013620FM-12+000899999V0201601N002010075019N0040001N1+01141+01001101101ADDAY161031AY221031GF108991999071008001021999MD1710201+9999MW1101REMSYN082AAXX  26151 14303 41596 81602 10114 20100 40110 57020 71062 8872/ 333 92312 92426;EQDQ01+000082SCOTLC
0184143030999992000032706004+45050+013620FM-12+000899999V0202301N003010075019N0200001N1+01081+00901100501ADDAA124006191GF108991071071008001021999KA1999N+01021MD1710101+9999SA1+1059REMSYN100AAXX  27061 14303 12598 82303 10108 20090 40050 57010 60064 8772/ 222// 00105 333 20102 92323 92438;
0128143030999992000032709004+45050+013620FM-12+000899999V0201601N003010075019N0200001N1+01081+00901100501ADDGF107991071051008001001001MD1410001+9999REMSYN076AAXX  27091 14303 42598 71603 10108 20090 40050 54000 87500 333 92323 92438;
0158143030999992000032712004+45050+013620FM-12+000899999V0201401N002010210019N0200001N1+01161+00801100401ADDAA199000091GF105991051001022501051001MD1710101+9999REMSYN076AAXX  27121 14303 32898 51402 10116 20080 40040 57010 85050 333 92312 92428;EQDQ01  00002PRCP99
0128143030999992000032715004+45050+013620FM-12+000899999V0201601N004010075019N0200001N1+00981+00401100401ADDGF108991081091008001999999MD1410001+9999REMSYN076AAXX  27151 14303 42598 81604 10098 20040 40040 54000 889// 333 92323 92438;
0183143030999992000032806004+45050+013620FM-12+000899999V0200901N002019999999N0200001N1+00901+00701100901ADDAA199000091GF107991071001012501051001KA1999N+00851MD1210101+9999REMSYN088AAXX  28061 14303 32698 70902 10090 20070 40090 52010 87050 333 20085 92312 92428 00105;EQDQ01  00002PRCP99
0128143030999992000032809004+45050+013620FM-12+000899999V0201601N003010120019N0200001N1+01081+00901101001ADDGF106991061021012501091001MD1210101+9999REMSYN076AAXX  28091 14303 42698 61603 10108 20090 40100 52010 86290 333 92312 92428;
0158143030999992000032812004+45050+013620FM-12+000899999V0201801N003010075019N0200001N1+01081+00901101101ADDAA199000091GF108991081051008001999999MD1210101+9999REMSYN076AAXX  28121 14303 32598 81803 10108 20090 40110 52010 885// 333 92312 92428;EQDQ01  00002PRCP99
0147143030999992000032815004+45050+013620FM-12+000899999V0201401N002010075019N0200001N1+01101+00701101001ADDGF108991999071008001021999MD1710101+9999REMSYN076AAXX  28151 14303 42598 81402 10110 20070 40100 57010 8872/ 333 92312 92428;EQDQ01+000082SCOTLC
0225143030999992000032906004+45050+013620FM-12+000899999V0201801N006010075019N0040001N1+01181+01001100801ADDAA199000021AY121061AY201061GF108991999071008001021999KA1999N+01001MD1210101+9999MW1621SA1+1059REMSYN100AAXX  29061 14303 31596 81806 10118 20100 40080 52010 76220 8872/ 222// 00105 333 20100 92323 92436;EQDQ01+000082SCOTLC
0175143030999992000032909004+45050+013620FM-12+000899999V0201401N006010075019N0040001N1+01141+01001100701ADDAY161031AY221031GF108991999071008001021999MD1710101+9999MW1601REMSYN082AAXX  29091 14303 41596 81406 10114 20100 40070 57010 76062 8872/ 333 92323 92436;EQDQ01+000082SCOTLC
0158143030999992000032912004+45050+013620FM-12+000899999V0201601N005010075019N0200001N1+01141+01001100601ADDAA199000021GF108991999071008001021999MD1710101+9999REMSYN076AAXX  29121 14303 32598 81605 10114 20100 40060 57010 8872/ 333 92323 92438;EQDQ01+000082SCOTLC
0128143030999992000032915004+45050+013620FM-12+000899999V0202701N002010075019N0100001N1+01041+00901100601ADDGF108991081051008001999999MD1410001+9999REMSYN076AAXX  29151 14303 42597 82702 10104 20090 40060 54000 885// 333 92312 94237;
0170143030999992000033006004+45050+013620FM-12+000899999V0202301N005012200019N0200001N1+01041+99999101001ADDAA118025991GF102991021091012501061001KA1999N+01021MD1410001+9999REMSYN094AAXX  30061 14303 12698 22305 10104 22006 3//// 40100 54000 60263 82960 333 20102 92323 92438;
0134143030999992000033009004+45050+013620FM-12+000899999V0202301N005010075019N0200001N1+01081+00701101101ADDGF107991071051008001001001MD1210101+9999REMSYN082AAXX  30091 14303 42598 72305 10108 20070 3//// 40110 52010 87500 333 92323 92438;
0164143030999992000033012004+45050+013620FM-12+000899999V0202001N003012200019N0200001N1+01181+00801101101ADDAA199000091GF101991011041012501071001MD1410001+9999REMSYN082AAXX  30121 14303 32698 12003 10118 20080 3//// 40110 54000 81470 333 92323 92438;EQDQ01  00002PRCP99
0134143030999992000033015004+45050+013620FM-12+000899999V0202301N004012200019N0200001N1+01221+00701101001ADDGF104991041021008001001001MD1710101+9999REMSYN082AAXX  30151 14303 42598 42304 10122 20070 3//// 40100 57010 84200 333 92323 92438;
0207143030999992000033106004+45050+013620FM-12+000899999V0202301N003012200019N0200001N1+01061+00701101001ADDAA199000091GA1001+999999999GF100991001001999999001001KA1999N+01051MD1410001+9999SA1+1069REMSYN088AAXX  31061 14303 32998 02303 10106 20070 40100 54000 222// 00106 333 20105 92323 92438;EQDQ01  00002PRCP99
0138143030999992000033109004+45050+013620FM-12+000899999V0202001N003012200019N0200001N1+01161+00701101101ADDGA1001+999999999GF100991001001999999001001MD1210101+9999REMSYN070AAXX  31091 14303 42998 02003 10116 20070 40110 52010 333 92323 92438;
0158143030999992000033112004+45050+013620FM-12+000899999V0202001N003010150019N0200001N1+01201+00801101101ADDAA199000091GF107991071011017501001061MD1010001+9999REMSYN076AAXX  31121 14303 32798 72003 10120 20080 40110 50000 87106 333 92312 92428;EQDQ01  00002PRCP99
0128143030999992000033115004+45050+013620FM-12+000899999V0201601N002012200019N0200001N1+01221+00901101001ADDGF104991041021017501001051MD1710101+9999REMSYN076AAXX  31151 14303 42798 41602 10122 20090 40100 57010 84205 333 92312 92428;
0213143030999992000040106004+45050+013620FM-12+000899999V0200501N002010120019N0200001N1+01061+00701100201ADDAA199000091GF108991999071012501011999KA1999N+01021MD1710201+9999SA1+1049REMSYN094AAXX  01061 14303 32698 80502 10106 20070 40020 57020 8871/ 222// 00104 333 20102 92312 92428;EQDQ01+000082SCOTLCQ02  00002PRCP99
0175143030999992000040109004+45050+013620FM-12+000899999V0200901N002010075019N0200001N1+00981+00601100201ADDAY161031AY261031GF108991999071008001021999MD1410001+9999MW1601REMSYN082AAXX  01091 14303 41598 80902 10098 20060 40020 54000 76066 8872/ 333 92312 92428;EQDQ01+000082SCOTLC
0175143030999992000040112004+45050+013620FM-12+000899999V0203201N005010075019N0200001N1+00841+00601100201ADDAY161061AY261061GF108991999071008001021999MD1410001+9999MW1601REMSYN082AAXX  01121 14303 41598 83205 10084 20060 40020 54000 76066 8872/ 333 92323 92438;EQDQ01+000082SCOTLC
0175143030999992000040115004+45050+013620FM-12+000899999V0203201N005010075019N0200001N1+00801+00601100201ADDAY161031AY211031GF108991999071008001021999MD1410001+9999MW1601REMSYN082AAXX  01151 14303 41598 83205 10080 20060 40020 54000 76061 8872/ 333 92333 92438;EQDQ01+000082SCOTLC
0128143030999992000040209004+45050+013620FM-12+000899999V0201601N004012200019N0200001N1+01081+00701101101ADDGF102991021001012501001041MD1210101+9999REMSYN076AAXX  02091 14303 42698 21604 10108 20070 40110 52010 82004 333 92312 92428;
0158143030999992000040212004+45050+013620FM-12+000899999V0201801N004010075019N0200001N1+01181+00801101101ADDAA199000091GF106991061091008001061001MD1410001+9999REMSYN076AAXX  02121 14303 32598 61804 10118 20080 40110 54000 86960 333 92312 92428;EQDQ01  00002PRCP99
0128143030999992000040215004+45050+013620FM-12+000899999V0201801N005010075019N0200001N1+01201+00801101001ADDGF105991051091008001061001MD1710101+9999REMSYN076AAXX  02151 14303 42598 51805 10120 20080 40100 57010 85960 333 92323 92438;
0237143030999992000040306004+45050+013620FM-12+000899999V0200901N004010075019N0200001N1+01041+00801100601ADDAA118002091AY161061AY211061GF108991999071008001021999KA1999N+00641MD1410001+9999MW1601SA1+1059REMSYN112AAXX  03061 14303 11598 80904 10104 20080 3//// 40060 54000 60023 76061 8872/ 222// 00105 333 20064 92323 92438;EQDQ01+000082SCOTLC
0181143030999992000040309004+45050+013620FM-12+000899999V0201401N006010075019N0200001N1+01181+00801100401ADDAY151031AY221031GF108991999071008001021999MD1710201+9999MW1501REMSYN088AAXX  03091 14303 41598 81406 10118 20080 3//// 40040 57020 75052 8872/ 333 92334 92448;EQDQ01+000082SCOTLC
0164143030999992000040312004+45050+013620FM-12+000899999V0201601N007010075019N0200001N1+01221+01001100201ADDAA199000021GF108991999071008001021999MD1710201+9999REMSYN082AAXX  03121 14303 32598 81607 10122 20100 3//// 40020 57020 8872/ 333 92334 92448;EQDQ01+000082SCOTLC
0134143030999992000040315004+45050+013620FM-12+000899999V0201601N007010075019N0200001N1+01261+00801100101ADDGF108991061071008001021999MD1710101+9999REMSYN082AAXX  03151 14303 42598 81607 10126 20080 3//// 40010 57010 8672/ 333 92334 92448;
0203143030999992000040406004+45050+013620FM-12+000899999V0201801N004010075019N0100001N1+01141+01001100101ADDAA112005191GF108991999071008001021999KA1999N+00601MD1410001+9999SA1+1049REMSYN100AAXX  04061 14303 12597 81804 10114 20100 40010 54000 60052 8872/ 222// 00104 333 20060 92323 92437;EQDQ01+000082SCOTLC
0147143030999992000040409004+45050+013620FM-12+000899999V0201801N002010075019N0100001N1+01161+01001100201ADDGF108991999071008001021999MD1210101+9999REMSYN076AAXX  04091 14303 42597 81802 10116 20100 40020 52010 8872/ 333 92323 92437;EQDQ01+000082SCOTLC
0186143030999992000040412004+45050+013620FM-12+000899999V0201801N002019999999N0040001N1+01201+01101100201ADDAA199000091AY111061AY211061GF107991071001008001081001MD1410001+9999MW1101REMSYN082AAXX  04121 14303 31596 71802 10120 20110 40020 54000 71011 87080 333 92312 92426;EQDQ01  00002PRCP99
0147143030999992000040415004+45050+013620FM-12+000899999V0201801N005010075019N0100001N1+01221+01101100001ADDGF108991999071008001021999MD1710201+9999REMSYN076AAXX  04151 14303 42597 81805 10122 20110 40000 57020 8872/ 333 92323 92437;EQDQ01+000082SCOTLC
0225143030999992000040506004+45050+013620FM-12+000899999V0202901N005019999999N0020001N1+01001+00801099931ADDAA199000091AY111061AY221061GF108991081001008001081001KA1999N+00601MD1410001+9999MW1101SA1+1059REMSYN100AAXX  05061 14303 31595 82905 10100 20080 49993 54000 71012 88080 222// 00105 333 20060 92323 92435;EQDQ01  00002PRCP99
0128143030999992000040509004+45050+013620FM-12+000899999V0202701N005019999999N0100001N1+01041+00801099971ADDGF107991071001008001081001MD1210401+9999REMSYN076AAXX  05091 14303 42597 72705 10104 20080 49997 52040 87080 333 92323 92437;
0138143030999992000040512004+45050+013620FM-12+000899999V0201801N001019999999N0200001N1+01321+00901099991ADDAA199000091GF105991051001008001071001REMSYN070AAXX  05121 14303 32598 51801 10132 20090 49999 85070 333 92323 92437;EQDQ01  00002PRCP99
0138143030999992000040515004+45050+013620FM-12+000899999V0201601N002012200019N0200001N1+01401+01001100101ADDGA1001+999999999GF100991001001999999001001MD1210201+9999REMSYN070AAXX  05151 14303 42998 01602 10140 20100 40010 52020 333 92312 92428;
0197143030999992000040606004+45050+013620FM-12+000899999V0200901N002010075019N0200001N1+01081+00901100901ADDAA199000091GF107991071021008001001001KA1999N+00581MD1210201+9999SA1+1089REMSYN094AAXX  06061 14303 32598 70902 10108 20090 40090 52020 87200 222// 00108 333 20058 92312 92428;EQDQ01  00002PRCP99
0128143030999992000040609004+45050+013620FM-12+000899999V0202001N002010075019N0200001N1+01241+01001101101ADDGF105991051091008001061001MD1210201+9999REMSYN076AAXX  06091 14303 42598 52002 10124 20100 40110 52020 85960 333 92312 92428;
0158143030999992000040612004+45050+013620FM-12+000899999V0202001N004010075019N0200001N1+01281+01101101101ADDAA199000091GF105991051041008001041001MD1410001+9999REMSYN076AAXX  06121 14303 32598 52004 10128 20110 40110 54000 85440 333 92312 92428;EQDQ01  00002PRCP99
0156143030999992000040615004+45050+013620FM-12+000899999V0202301N003010075019N0040001N1+01261+01001101201ADDAY111031AY211031GF105991051031008001041001MD1210101+9999MW1101REMSYN082AAXX  06151 14303 41596 52303 10126 20100 40120 52010 71011 85340 333 92312 92426;
0177143030999992000040706004+45050+013620FM-12+000899999V0200501N003012200019N0200001N1+00821+00001102401ADDAA199000091GF103991031081012501041001KA1999N+00681MD1210301+9999REMSYN082AAXX  07061 14303 32698 30503 10082 20000 40240 52030 83840 333 20068 92312 92428;EQDQ01  00002PRCP99
0128143030999992000040709004+45050+013620FM-12+000899999V0203101N004012200019N0200001N1+01001-00101102401ADDGF101991011081012501041001MD1410001+9999REMSYN076AAXX  07091 14303 42698 13104 10100 21010 40240 54000 81840 333 92312 92428;
0168143030999992000040712004+45050+013620FM-12+000899999V0202501N004012200019N0200001N1+01261+00001102301ADDAA199000091GA1001+999999999GF100991001001999999001001MD1710101+9999REMSYN070AAXX  07121 14303 32698 02504 10126 20000 40230 57010 333 92312 92428;EQDQ01  00002PRCP99
0138143030999992000040715004+45050+013620FM-12+000899999V0203201N004012200019N0200001N1+01181+00401102201ADDGA1001+999999999GF100991001001999999001001MD1710101+9999REMSYN070AAXX  07151 14303 42098 03204 10118 20040 40220 57010 333 92323 92438;
0183143030999992000040806004+45050+013620FM-12+000899999V0200901N002012200019N0200001N1+00801+00601102401ADDAA199000091GF102991021081012501041001KA1999N+00691MD1210101+9999REMSYN088AAXX  08061 14303 32698 20902 10080 20060 40240 52010 82840 333 20069 92311 92418 00110;EQDQ01  00002PRCP99
0138143030999992000040809004+45050+013620FM-12+000899999V0203201N003012200019N0200001N1+01081+00501102301ADDGA1001+999999999GF100991001001999999001001MD1710101+9999REMSYN070AAXX  08091 14303 42998 03203 10108 20050 40230 57010 333 92311 92418;
0168143030999992000040812004+45050+013620FM-12+000899999V0202901N003012200019N0200001N1+01181+00401102301ADDAA199000091GA1001+999999999GF100991001001999999001001MD1410001+9999REMSYN070AAXX  08121 14303 32998 02903 10118 20040 40230 54000 333 92311 92418;EQDQ01  00002PRCP99
0138143030999992000040815004+45050+013620FM-12+000899999V0202701N002012200019N0200001N1+01401+00601102001ADDGA1001+999999999GF100991001001999999001001MD1710301+9999REMSYN070AAXX  08151 14303 42998 02702 10140 20060 40200 57030 333 92311 92418;
0219143030999992000040906004+45050+013620FM-12+000899999V0200901N004019999999N0200001N1+01001+00401101701ADDAA199000091GF108991001001999999001041KA1999N+00761MD1710101+9999SA1+1129REMSYN100AAXX  09061 14303 32798 80904 10100 20040 3//// 40170 57010 80004 222// 00112 333 20076 92312 92428;EQDQ01+017502SCOLCBQ02  00002PRCP99
0169143030999992000040909004+45050+013620FM-12+000899999V0201401N004019999999N0200001N1+01261+00501101701ADDGF108991001001999999001071MD1410001+9999REMSYN082AAXX  09091 14303 42798 81404 10126 20050 3//// 40170 56000 80007 333 92323 92438;EQDQ01+017502SCOLCBQ02+000062APCTEN
0164143030999992000040912004+45050+013620FM-12+000899999V0201601N004010150019N0200001N1+01301+00901101601ADDAA199000091GF108991061011017501001061MD1710101+9999REMSYN082AAXX  09121 14303 32798 81604 10130 20090 3//// 40160 57010 86106 333 92323 92438;EQDQ01  00002PRCP99
0153143030999992000040915004+45050+013620FM-12+000899999V0201401N004010120019N0200001N1+01261+00801101501ADDGF108991999071012501011999MD1710101+9999REMSYN082AAXX  09151 14303 42698 81404 10126 20080 3//// 40150 57010 8871/ 333 92323 92438;EQDQ01+000082SCOTLC
0212143030999992000041006004+45050+013620FM-12+000899999V0201101N003010075019N0200001N1+01101+00701101101ADDAA124000791AY161061AY221061GF108991081061008001999999KA1999N+01041MD1710101+9999MW1601SA1+1109REMSYN106AAXX  10061 14303 11598 81103 10110 20070 40110 57010 69904 76062 886// 222// 00110 333 20104 92323 92438;
0128143030999992000041009004+45050+013620FM-12+000899999V0201401N003010075019N0200001N1+01101+00701101101ADDGF108991081051008001999999MD1410001+9999REMSYN076AAXX  10091 14303 42598 81403 10110 20070 40110 54000 885// 333 92323 92438;
0186143030999992000041012004+45050+013620FM-12+000899999V0201401N004010075019N0200001N1+01081+00701101001ADDAA199000021AY161061AY221061GF108991999071008001021999MD1710101+9999MW1601REMSYN082AAXX  10121 14303 31598 81404 10108 20070 40100 57010 76062 8872/ 333 92334 92448;EQDQ01+000082SCOTLC
0175143030999992000041015004+45050+013620FM-12+000899999V0200901N003010075019N0200001N1+01081+00701100801ADDAY161031AY221031GF108991999071008001021999MD1710201+9999MW1601REMSYN082AAXX  10151 14303 41598 80903 10108 20070 40080 57020 76062 8872/ 333 92323 92438;EQDQ01+000082SCOTLC
0237143030999992000041106004+45050+013620FM-12+000899999V0201401N004010075019N0100001N1+01001+00801100301ADDAA112000191AY161061AY221061GF108991999071008001021999KA1999N+00921MD1710101+9999MW1501SA1+1089REMSYN112AAXX  11061 14303 11597 81404 10100 20080 3//// 40030 57010 69922 75062 8872/ 222// 00108 333 20092 92323 92437;EQDQ01+000082SCOTLC
0124143030999992000041109004+45050+013620FM-12+000899999V0202001N003010075019N0100001N1+01101+00901100301ADDGF108991081071008001999999MD1410001+9999REMSYN072AAXX  11091 14303 42597 82003 10110 20090 3//// 40030 54000 887// 92312;
0145143030999992000041112004+45050+013620FM-12+000899999V0201801N003010075019N0200001N1+01241+00901100301ADDAA199000021GF108991081021008001999999MD1410001+9999REMSYN082AAXX  11121 14303 32598 81803 10124 20090 3//// 40030 54000 882// 333 92312 92428;
0162143030999992000041115004+45050+013620FM-12+000899999V0201801N003010075019N0200001N1+01161+01001100201ADDAY121031AY221031GF108991081071008001999999MD1710101+9999MW1611REMSYN088AAXX  11151 14303 41598 81803 10116 20100 3//// 40020 57010 76122 887// 333 92312 92428;
0164143030999992000041206004+45050+013620FM-12+000899999V0202001N004010075019N0100001N1+01081+00901099991ADDAA124006191GF108991081051008001999999KA1999N+01051MD1410001+9999REMSYN088AAXX  12061 14303 12597 82004 10108 20090 49999 54000 60064 885// 333 20105 92323 92437;
0158143030999992000041212004+45050+013620FM-12+000899999V0201601N004010120019N0200001N1+01281+01101100001ADDAA199000091GF107991071021012501091001MD1410001+9999REMSYN076AAXX  12121 14303 32698 71604 10128 20110 40000 54000 87290 333 92312 92428;EQDQ01  00002PRCP99
0128143030999992000041215004+45050+013620FM-12+000899999V0201801N005012200019N0200001N1+01301+01101100001ADDGF103991031021012501091001MD1410001+9999REMSYN076AAXX  12151 14303 42698 31805 10130 20110 40000 54000 83290 333 92323 92438;
0174143030999992000041312004+45050+013620FM-12+000899999V0201401N003010150019N0200001N1+01401+01001100701ADDAA199000091GF108991999011017501001061MD1410001+9999REMSYN076AAXX  13121 14303 32798 81403 10140 20100 40070 54000 88106 333 92312 92428;EQDQ01+000082SCOTLCQ02  00002PRCP99
0128143030999992000041315004+45050+013620FM-12+000899999V0201801N003010900019N0200001N1+01381+01201100701ADDGF108991041011017501001061MD1410001+9999REMSYN076AAXX  13151 14303 42798 81803 10138 20120 40070 54000 84106 333 92312 92428;
0203143030999992000041406004+45050+013620FM-12+000899999V0201801N003019999999N0200001N1+01301+00901101001ADDAA199000091GF107991071001012501081001KA1999N+01201MD1210101+9999SA1+1209REMSYN100AAXX  14061 14303 32698 71803 10130 20090 3//// 40100 52010 87080 222// 00120 333 20120 92312 92428;EQDQ01  00002PRCP99
0134143030999992000041409004+45050+013620FM-12+000899999V0201801N003019999999N0100001N1+01401+01001101101ADDGF108991081001012501051999MD1210101+9999REMSYN082AAXX  14091 14303 42697 81803 10140 20100 3//// 40110 52010 8805/ 333 92312 92428;
0203143030999992000041506004+45050+013620FM-12+000899999V0201401N003010120019N0100001N1+01301+01101100501ADDAA124000791GF108991999021012501091001KA1999N+01201MD1210101+9999SA1+1229REMSYN100AAXX  15061 14303 12697 81403 10130 20110 40050 52010 69904 88290 222// 00122 333 20120 92312 92427;EQDQ01+000082SCOTLC
0158143030999992000041512004+45050+013620FM-12+000899999V0201801N004019999999N0100001N1+01421+01201100501ADDAA199000091GF108991081001012501071001MD1410001+9999REMSYN076AAXX  15121 14303 32697 81804 10142 20120 40050 54000 88070 333 92312 92427;EQDQ01  00002PRCP99
0128143030999992000041515004+45050+013620FM-12+000899999V0201801N004010150019N0100001N1+01481+01101100401ADDGF107991071011017501001061MD1710101+9999REMSYN076AAXX  15151 14303 42797 71804 10148 20110 40040 57010 87106 333 92312 92427;
0203143030999992000041606004+45050+013620FM-12+000899999V0201101N003012200019N0100001N1+01181+01001100801ADDAA199000091GF102991021081012501041001KA1999N+01061MD1210101+9999SA1+1229REMSYN100AAXX  16061 14303 32697 21103 10118 20100 3//// 40080 52010 82840 222// 00122 333 20106 92312 92427;EQDQ01  00002PRCP99
0153143030999992000041609004+45050+013620FM-12+000899999V0201801N003010150019N0200001N1+01381+01001100901ADDGF108991999021017501001031MD1210101+9999REMSYN082AAXX  16091 14303 42798 81803 10138 20100 3//// 40090 52010 88203 333 92312 92428;EQDQ01+000082SCOTLC
0180143030999992000041612004+45050+013620FM-12+000899999V0201801N003010120019N0200001N1+01321+01001101001ADDAA199000091GF108991999021012501091001MD1210101+9999REMSYN082AAXX  16121 14303 32698 81803 10132 20100 3//// 40100 52010 88290 333 92312 92428;EQDQ01+000082SCOTLCQ02  00002PRCP99
0134143030999992000041615004+45050+013620FM-12+000899999V0201801N003010120019N0200001N1+01481+00901100901ADDGF108991081071012501999999MD1710101+9999REMSYN082AAXX  16151 14303 42698 81803 10148 20090 3//// 40090 57010 887// 333 92312 92428;
0177143030999992000041706004+45050+013620FM-12+000899999V0201101N002010150019N0200001N1+01341+01001100601ADDAA199000091GF106991061081012501041001KA1999N+01221MD1410001+9999REMSYN082AAXX  17061 14303 32698 61102 10134 20100 40060 54000 86840 333 20122 92311 92418;EQDQ01  00002PRCP99
0158143030999992000041712004+45050+013620FM-12+000899999V0201801N003019999999N0200001N1+01661+01001100501ADDAA199000091GF107991071001012501081001MD1710101+9999REMSYN076AAXX  17121 14303 32698 71803 10166 20100 40050 57010 87080 333 92312 92428;EQDQ01  00002PRCP99
0147143030999992000041715004+45050+013620FM-12+000899999V0201801N004010150019N0200001N1+01641+00801100401ADDGF108991999021017501001051MD1710101+9999REMSYN076AAXX  17151 14303 42798 81804 10164 20080 40040 57010 88205 333 92312 92428;EQDQ01+000082SCOTLC
0225143030999992000041806004+45050+013620FM-12+000899999V0203201N003010075019N0020001N1+01221+01101100401ADDAA199000091AY141061AY211061GF108991081051008001999999KA1999N+01101MD1210101+9999MW1281SA1+1259REMSYN100AAXX  18061 14303 31595 83203 10122 20110 40040 52010 72841 885// 222// 00125 333 20110 92312 92425;EQDQ01  00002PRCP99
0156143030999992000041809004+45050+013620FM-12+000899999V0203201N003010075019N0020001N1+01201+01151100401ADDAY141031AY241031GF108991081051008001999999MD1410001+9999MW1101REMSYN082AAXX  18091 14303 41595 83203 10120 20115 40040 54000 71044 885// 333 92312 92425;
0186143030999992000041812004+45050+013620FM-12+000899999V0202901N003019999999N0020001N1+01281+01101100401ADDAA199000091AY141061AY241061GF108991081001012501071999MD1410001+9999MW1101REMSYN082AAXX  18121 14303 31695 82903 10128 20110 40040 54000 71044 8807/ 333 92312 92425;EQDQ01  00002PRCP99
0156143030999992000041815004+45050+013620FM-12+000899999V0203201N003010075019N0020001N1+01301+01101100301ADDAY121031AY221031GF108991081051008001999999MD1710101+9999MW1101REMSYN082AAXX  18151 14303 41595 83203 10130 20110 40030 57010 71022 885// 333 92312 92425;
0225143030999992000041906004+45050+013620FM-12+000899999V0202901N003019999999N0040001N1+01281+01101100301ADDAA199000091AY141061AY221061GF108991081001012501081999KA1999N+01081MD1410001+9999MW1101SA1+1209REMSYN100AAXX  19061 14303 31696 82903 10128 20110 40030 54000 71042 8808/ 222// 00120 333 20108 92312 92426;EQDQ01  00002PRCP99
0186143030999992000041912004+45050+013620FM-12+000899999V0203201N004019999999N0020001N1+01441+01201100401ADDAA199000091AY121061AY221061GF105991051001017501001071MD1410001+9999MW1101REMSYN082AAXX  19121 14303 31795 53204 10144 20120 40040 54000 71022 85007 333 92312 92425;EQDQ01  00002PRCP99
0156143030999992000041915004+45050+013620FM-12+000899999V0203201N003012200019N0040001N1+01521+01301100401ADDAY121031AY221031GF103991031091012501061001MD1410001+9999MW1101REMSYN082AAXX  19151 14303 41696 33203 10152 20130 40040 54000 71022 83960 333 92312 92426;
0219143030999992000042006004+45050+013620FM-12+000899999V0200501N003012200019N0200001N1+01701+01001100801ADDAA199000091GF104991001001999999001071KA1999N+01301MD1210101+9999SA1+1209REMSYN100AAXX  20061 14303 32798 40503 10170 20100 3//// 40080 52010 80007 222// 00120 333 20130 92311 92418;EQDQ01+017502SCOLCBQ02  00002PRCP99
0144143030999992000042009004+45050+013620FM-12+000899999V0203201N003012200019N0200001N1+01681+01201100901ADDGA1001+999999999GF100991001001999999001001MD1210101+9999REMSYN076AAXX  20091 14303 42998 03203 10168 20120 3//// 40090 52010 333 92311 92418;
0164143030999992000042012004+45050+013620FM-12+000899999V0202901N003012200019N0200001N1+01641+01201100901ADDAA199000091GF101991011031008001041001MD1410001+9999REMSYN082AAXX  20121 14303 32598 12903 10164 20120 3//// 40090 54000 81340 333 92311 92418;EQDQ01  00002PRCP99
0134143030999992000042015004+45050+013620FM-12+000899999V0203401N002012200019N0200001N1+01681+01201100901ADDGF103991021031008001041001MD1410001+9999REMSYN082AAXX  20151 14303 42598 33402 10168 20120 3//// 40090 54000 82340 333 92301 92418;
0213143030999992000042106004+45050+013620FM-12+000899999V0203201N002012200019N0200001N1+01421+01001101301ADDAA199000091GA1001+999999999GF100991001001999999001001KA1999N+01321MD1210101+9999SA1+1209REMSYN094AAXX  21061 14303 32998 03202 10142 20100 3//// 40130 52010 222// 00120 333 20132 92301 92418;EQDQ01  00002PRCP99
0174143030999992000042112004+45050+013620FM-12+000899999V0203201N002012200019N0200001N1+01721+01601101401ADDAA199000091GA1001+999999999GF100991001001999999001001MD1210101+9999REMSYN076AAXX  21121 14303 32998 03202 10172 20160 3//// 40140 52010 333 92301 92418;EQDQ01  00002PRCP99
0108143030999992000042115004+45050+013620FM-12+000899999V0202301N002019999999N0200001N1+01881+01601101401ADDMD1410001+9999REMSYN082AAXX  21151 14303 42698 /2302 10188 20160 3//// 40140 54000 81840 333 92301 92418;
0183143030999992000042206004+45050+013620FM-12+000899999V0200701N002012200019N0200001N1+01461+01001101601ADDAA199000091GF102991021001017501001041KA1999N+01301MD1210101+9999REMSYN088AAXX  22061 14303 32798 20702 10146 20100 40160 52010 82004 333 20130 92301 92418 00130;EQDQ01  00002PRCP99
0138143030999992000042209004+45050+013620FM-12+000899999V0201101N001012200019N0200001N1+01841+01101101901ADDGA1001+999999999GF100991001001999999001001MD1210101+9999REMSYN070AAXX  22091 14303 42098 01101 10184 20110 40190 52010 333 92301 92418;
0207143030999992000042306004+45050+013620FM-12+000899999V0201101N002012200019N0200001N1+01461+01201101401ADDAA199000091GA1001+999999999GF100991001001999999001001KA1999N+01301MD1210101+9999SA1+1329REMSYN088AAXX  23061 14303 32998 01102 10146 20120 40140 52010 222// 00132 333 20130 92301 92418;EQDQ01  00002PRCP99
0138143030999992000042309004+45050+013620FM-12+000899999V0201601N003012200019N0100001N1+01701+01401101401ADDGA1001+999999999GF100991001001999999001001MD1410001+9999REMSYN070AAXX  23091 14303 42997 01603 10170 20140 40140 54000 333 92312 92427;
0168143030999992000042312004+45050+013620FM-12+000899999V0201601N002012200019N0100001N1+01881+01401101301ADDAA199000091GA1001+999999999GF100991001001999999001001MD1710101+9999REMSYN070AAXX  23121 14303 32997 01602 10188 20140 40130 57010 333 92312 92427;EQDQ01  00002PRCP99
0138143030999992000042315004+45050+013620FM-12+000899999V0202001N002012200019N0200001N1+01741+01501101101ADDGA1001+999999999GF100991001001999999001001MD1710201+9999REMSYN070AAXX  23151 14303 42998 02002 10174 20150 40110 57020 333 92312 92428;
0190143030999992000042406004+45050+013620FM-12+000899999V0202901N005010075019N0200001N1+01441+01261100901ADDAA124000791GF108991081071008001999999KA1999N+01321MD1210101+9999SA1+1459REMSYN106AAXX  24061 14303 12598 82905 10144 20126 3//// 40090 52010 69904 887// 222// 00145 333 20132 92323 92438;
0162143030999992000042409004+45050+013620FM-12+000899999V0203401N003010075019N0200001N1+01421+01001101001ADDAY161031AY221031GF108991081071008001999999MD1210101+9999MW1501REMSYN088AAXX  24091 14303 41598 83403 10142 20100 3//// 40100 52010 75062 887// 333 92323 92438;
0134143030999992000042415004+45050+013620FM-12+000899999V0209999V001010120019N0200001N1+01681+01201100801ADDGF107991051071012501011999MD1710201+9999REMSYN082AAXX  24151 14303 42698 79901 10168 20120 3//// 40080 57020 8571/ 333 92312 92428;
0197143030999992000042506004+45050+013620FM-12+000899999V0200901N002010075019N0200001N1+01341+01001101101ADDAA199000091GF107991071051008001001001KA1999N+01251MD1210101+9999SA1+1389REMSYN094AAXX  25061 14303 32598 70902 10134 20100 40110 52010 87500 222// 00138 333 20125 92301 92418;EQDQ01  00002PRCP99
0128143030999992000042509004+45050+013620FM-12+000899999V0202501N002012200019N0200001N1+01541+01301101301ADDGF104991041001999999051001MD1210201+9999REMSYN076AAXX  25091 14303 42998 42502 10154 20130 40130 52020 84050 333 92312 92428;
0168143030999992000042512004+45050+013620FM-12+000899999V0203401N003012200019N0200001N1+01581+01201101301ADDAA199000091GA1001+999999999GF100991001001999999001001MD1410001+9999REMSYN070AAXX  25121 14303 32998 03403 10158 20120 40130 54000 333 92312 92428;EQDQ01  00002PRCP99
0138143030999992000042515004+45050+013620FM-12+000899999V0203601N020012200019N0200001N1+01761+01301101301ADDGA1001+999999999GF100991001001999999001001MD1410001+9999REMSYN070AAXX  25151 14303 42998 03620 10176 20130 40130 54000 333 92312 92428;
0213143030999992000042606004+45050+013620FM-12+000899999V0201101N001012200019N0200001N1+01381+01201101401ADDAA199000091GA1001+999999999GF100991001001999999001001KA1999N+01161MD1410001+9999SA1+1409REMSYN094AAXX  26061 14303 32998 01101 10138 20120 3//// 40140 54000 222// 00140 333 20116 92301 92418;EQDQ01  00002PRCP99
0144143030999992000042609004+45050+013620FM-12+000899999V0202001N002012200019N0200001N1+01701+01301101401ADDGA1001+999999999GF100991001001999999001001MD1410001+9999REMSYN076AAXX  26091 14303 42998 02002 10170 20130 3//// 40140 54000 333 92301 92418;
0174143030999992000042612004+45050+013620FM-12+000899999V0202301N002012200019N0200001N1+01821+01401101501ADDAA199000091GA1001+999999999GF100991001001999999001001MD1210101+9999REMSYN076AAXX  26121 14303 32998 02302 10182 20140 3//// 40150 52010 333 92301 92418;EQDQ01  00002PRCP99
0144143030999992000042615004+45050+013620FM-12+000899999V0201401N001012200019N0200001N1+01981+01501101401ADDGA1001+999999999GF100991001001999999001001MD1710101+9999REMSYN076AAXX  26151 14303 42998 01401 10198 20150 3//// 40140 57010 333 92301 92418;
0183143030999992000042706004+45050+013620FM-12+000899999V0200501N001012200019N0200001N1+01461+01201101501ADDAA199000091GF101991011001017501001081KA1999N+01261MD1210101+9999REMSYN088AAXX  27061 14303 32798 10501 10146 20120 40150 52010 81008 333 20126 92301 92418 00142;EQDQ01  00002PRCP99
0128143030999992000042709004+45050+013620FM-12+000899999V0201801N002010120019N0200001N1+01661+01401101501ADDGF107991071081008001061001MD1410001+9999REMSYN076AAXX  27091 14303 42598 71802 10166 20140 40150 54000 87860 333 92311 92418;
0158143030999992000042712004+45050+013620FM-12+000899999V0201801N002010075019N0200001N1+01681+01401101501ADDAA199000091GF106991061091008001061001MD1410001+9999REMSYN076AAXX  27121 14303 32598 61802 10168 20140 40150 54000 86960 333 92311 92418;EQDQ01  00002PRCP99
0197143030999992000042806004+45050+013620FM-12+000899999V0201801N001010120019N0200001N1+01581+01301101201ADDAA199000091GF107991071081008001041001KA1999N+01251MD1410001+9999SA1+1449REMSYN094AAXX  28061 14303 32598 71801 10158 20130 40120 54000 87840 222// 00144 333 20125 92311 92418;EQDQ01  00002PRCP99
0128143030999992000042809004+45050+013620FM-12+000899999V0201601N002010120019N0200001N1+01701+01401101201ADDGF105991051081008001041001MD1410001+9999REMSYN076AAXX  28091 14303 42598 51602 10170 20140 40120 54000 85840 333 92311 92418;
0158143030999992000042812004+45050+013620FM-12+000899999V0201801N002012200019N0200001N1+01721+01401101201ADDAA199000091GF104991041081008001041001MD1410001+9999REMSYN076AAXX  28121 14303 32598 41802 10172 20140 40120 54000 84840 333 92311 92418;EQDQ01  00002PRCP99
0128143030999992000042815004+45050+013620FM-12+000899999V0201801N003019999999N0200001N1+01861+01201101201ADDGF105991051001008001071001MD1410001+9999REMSYN076AAXX  28151 14303 42598 51803 10186 20120 40120 54000 85070 333 92312 92428;
0203143030999992000042906004+45050+013620FM-12+000899999V0200901N002010075019N0200001N1+01641+01201101301ADDAA199000091GF108991071091008001061001KA1999N+01241MD1210101+9999SA1+1459REMSYN100AAXX  29061 14303 32598 80902 10164 20120 3//// 40130 52010 87960 222// 00145 333 20124 92312 92428;EQDQ01  00002PRCP99
0134143030999992000042909004+45050+013620FM-12+000899999V0209999C000012200019N0200001N1+01941+01401101401ADDGF104991041081008001041001MD1210101+9999REMSYN082AAXX  29091 14303 42598 40000 10194 20140 3//// 40140 52010 84840 333 92312 92428;
0164143030999992000042912004+45050+013620FM-12+000899999V0201801N003010075019N0200001N1+01901+01401101401ADDAA199000091GF106991061021008001001001MD1410001+9999REMSYN082AAXX  29121 14303 32598 61803 10190 20140 3//// 40140 54000 86200 333 92312 92428;EQDQ01  00002PRCP99
0164143030999992000042915004+45050+013620FM-12+000899999V0201801N002010360019N0200001N1+01841+01401101401ADDAA199000091GF106991041081008001041001MD1410001+9999REMSYN082AAXX  29151 14303 32598 61802 10184 20140 3//// 40140 54000 84840 333 92312 92428;EQDQ01  00002PRCP99
0128143030999992000043009004+45050+013620FM-12+000899999V0202701N002012200019N0200001N1+01881+01601101801ADDGF102991001001999999001041MD1210101+9999REMSYN076AAXX  30091 14303 42998 22702 10188 20160 40180 52010 80004 333 92322 92428;
0158143030999992000043012004+45050+013620FM-12+000899999V0202701N002012200019N0200001N1+01801+01501101801ADDAA199000091GF104991041041008001071001MD1410001+9999REMSYN076AAXX  30121 14303 32598 42702 10180 20150 40180 54000 84470 333 92312 92428;EQDQ01  00002PRCP99
0128143030999992000043015004+45050+013620FM-12+000899999V0202701N001010075019N0200001N1+01861+01601101701ADDGF106991061091008001061001MD1710101+9999REMSYN076AAXX  30151 14303 42598 62701 10186 20160 40170 57010 86960 333 92312 92428;
0203143030999992000050106004+45050+013620FM-12+000899999V0209999C000010075019N0100001N1+01541+01301101401ADDAA199000091GF107991071091008001061001KA1999N+01201MD1410001+9999SA1+1609REMSYN100AAXX  01061 14303 32597 70000 10154 20130 3//// 40140 54000 87960 222// 00160 333 20120 92301 92418;EQDQ01  00002PRCP99
0134143030999992000050109004+45050+013620FM-12+000899999V0202701N001010120019N0200001N1+01841+01401101401ADDGF108991081021012501999999MD1410001+9999REMSYN082AAXX  01091 14303 42698 82701 10184 20140 3//// 40140 54000 882// 333 92301 92418;
0173143030999992000050112004+45050+013620FM-12+000899999V0202901N003010075019N0200001N1+01801+01401101401ADDAA199000021AY121061AY221061GF108991081061008001999999MD1410001+9999MW1951REMSYN088AAXX  01121 14303 31598 82903 10180 20140 3//// 40140 54000 79522 886// 333 92301 92418;
0153143030999992000050115004+45050+013620FM-12+000899999V0203601N003010075019N0200001N1+01901+01501101201ADDGF108991999031008001041999MD1710201+9999REMSYN082AAXX  01151 14303 42598 83603 10190 20150 3//// 40120 57020 8834/ 333 92311 92418;EQDQ01+000082SCOTLC
0184143030999992000050206004+45050+013620FM-12+000899999V0200501N001019999999N9999999N1+01641+01201101201ADDAA124000791GF107991071021999999091001KA1999N+01501MD1410001+9999SA1+1589REMSYN100AAXX  02061 14303 1698/ 70501 10164 20120 40120 54000 69904 87290 222// 00158 333 20150 92301 92418;
0128143030999992000050209004+45050+013620FM-12+000899999V0200101N003010075019N0200001N1+01901+01401101301ADDGF108991081051008001999999MD1210101+9999REMSYN076AAXX  02091 14303 42598 80103 10190 20140 40130 52010 885// 333 92301 92418;
0152143030999992000050212004+45050+013620FM-12+000899999V0200501N003010075019N0200001N1+02021+99999101401ADDAA199000091GF108991081051008001999999MD1210101+9999REMSYN070AAXX  02121 14303 32598 80503 10202 40140 52010 885// 333 92301 92418;EQDQ01  00002PRCP99
0147143030999992000050215004+45050+013620FM-12+000899999V0203201N003010120019N0200001N1+01881+01401101201ADDGF108991999021012501091001MD1710201+9999REMSYN076AAXX  02151 14303 42698 83203 10188 20140 40120 57020 88290 333 92311 92418;EQDQ01+000082SCOTLC
0184143030999992000050306004+45050+013620FM-12+000899999V0200501N002010150019N0200001N1+01681+01201101601ADDAA124000191GF107991071021017501001051KA1999N+01551MD1210201+9999SA1+1609REMSYN100AAXX  03061 14303 12798 70502 10168 20120 40160 52020 69914 87205 222// 00160 333 20155 92311 92418;
0147143030999992000050309004+45050+013620FM-12+000899999V0201801N001019999999N0200001N1+01901+01201101701ADDGF106991001001999999001011MD1210101+9999REMSYN076AAXX  03091 14303 42798 61801 10190 20120 40170 52010 80001 333 92301 92418;EQDQ01+017502SCOLCB
0158143030999992000050312004+45050+013620FM-12+000899999V0202901N003019999999N0200001N1+01841+01301101601ADDAA199000091GF107991001001999999001021MD1710101+9999REMSYN076AAXX  03121 14303 32998 72903 10184 20130 40160 57010 80002 333 92311 92418;EQDQ01  00002PRCP99
0147143030999992000050315004+45050+013620FM-12+000899999V0203201N002019999999N0200001N1+02001+01501101601ADDGF105991001001999999001011MD1410001+9999REMSYN076AAXX  03151 14303 42798 53202 10200 20150 40160 54000 80001 333 92311 92418;EQDQ01+017502SCOLCB
0203143030999992000050406004+45050+013620FM-12+000899999V0200901N002012200019N0200001N1+01521+01101101701ADDAA199000091GF103991021081012501041001KA1999N+01301MD1210101+9999SA1+1529REMSYN100AAXX  04061 14303 32698 30902 10152 20110 3//// 40170 52010 82840 222// 00152 333 20130 92301 92418;EQDQ01  00002PRCP99
0153143030999992000050409004+45050+013620FM-12+000899999V0202301N001012200019N0200001N1+01921+01301101801ADDGF102991001001999999001071MD1210101+9999REMSYN082AAXX  04091 14303 42798 22301 10192 20130 3//// 40180 52010 80007 333 92301 92418;EQDQ01+017502SCOLCB
0164143030999992000050412004+45050+013620FM-12+000899999V0202701N002012200019N0200001N1+01961+01501101701ADDAA199000091GF101991011011012501021999MD1710101+9999REMSYN082AAXX  04121 14303 32698 12702 10196 20150 3//// 40170 57010 8112/ 333 92301 92418;EQDQ01  00002PRCP99
0134143030999992000050415004+45050+013620FM-12+000899999V0202701N001012200019N0200001N1+02161+01601101601ADDGF101991011041008001001001MD1710101+9999REMSYN082AAXX  04151 14303 42598 12701 10216 20160 3//// 40160 57010 81400 333 92301 92418;
0196143030999992000050506004+45050+013620FM-12+000899999V0200901N001010210019N0200001N1+01621+01101101501ADDAA199000091GF107991071001022501081001KA1999N+01441MD1710101+9999SA1+1529REMSYN093AAXX  05061 14303 3289870901 10162 20110 40150 57010 87080 222// 00152 333 20144 92301 94218;EQDQ01  00002PRCP99
0128143030999992000050509004+45050+013620FM-12+000899999V0202701N002019999999N0200001N1+01961+01501101601ADDGF105991051001012501081001MD1210101+9999REMSYN076AAXX  05091 14303 42698 52702 10196 20150 40160 52010 85080 333 92301 92418;
0174143030999992000050512004+45050+013620FM-12+000899999V0203401N003010075019N0200001N1+01921+01401101601ADDAA199000091GF108991999031008001041001MD1410001+9999REMSYN076AAXX  05121 14303 32598 83403 10192 20140 40160 54000 88340 333 92301 92418;EQDQ01+000082SCOTLCQ02  00002PRCP99
0128143030999992000050515004+45050+013620FM-12+000899999V0203201N002012200019N0200001N1+02021+01601101501ADDGF104991001001999999001071MD1710101+9999REMSYN076AAXX  05151 14303 42998 43202 10202 20160 40150 57010 80007 333 92301 94218;
0153143030999992000050615004+45050+013620FM-12+000899999V0201801N003019999999N0200001N1+01921+01701101601ADDGF106991001001999999001071MD1410001+9999REMSYN082AAXX  06151 14303 42798 61803 10192 20170 3//// 40160 54000 80007 333 92312 92428;EQDQ01+017502SCOLCB
0197143030999992000050706004+45050+013620FM-12+000899999V0201101N003019999999N0200001N1+01801+01601101801ADDAA199000091GF108991081001012501071001KA1999N+01621MD1210101+9999SA1+1829REMSYN094AAXX  07061 14303 32698 81103 10180 20160 40180 52010 88070 222// 00182 333 20162 92312 92428;EQDQ01  00002PRCP99
0128143030999992000050709004+45050+013620FM-12+000899999V0201601N003010075019N0200001N1+01921+01501101801ADDGF108991081051008001999999MD1210101+9999REMSYN076AAXX  07091 14303 42598 81603 10192 20150 40180 52010 885// 333 92312 92428;
0158143030999992000050712004+45050+013620FM-12+000899999V0201601N004010075019N0200001N1+01941+01601102001ADDAA199000091GF108991081051008001999999MD1210101+9999REMSYN076AAXX  07121 14303 32598 81604 10194 20160 40200 52010 885// 333 92312 92428;EQDQ01  00002PRCP99
0212143030999992000050806004+45050+013620FM-12+000899999V0201401N004010075019N0100001N1+01661+01501102001ADDAA124013091AY181061AY261061GF108991081061008001999999KA1999N+01601MD1410001+9999MW1621SA1+1659REMSYN106AAXX  08061 14303 11597 81404 10166 20150 40200 54000 60134 76286 886// 222// 00165 333 20160 92322 92427;
0147143030999992000050809004+45050+013620FM-12+000899999V0201601N004010120019N0200001N1+01761+01501102001ADDGF108991999041012501071999MD1410001+9999REMSYN076AAXX  08091 14303 42698 81604 10176 20150 40200 54000 8847/ 333 92322 92428;EQDQ01+000082SCOTLC
0139143030999992000050812004+45050+013620FM-12+000899999V0201601N004010075019N0200001N1+01861+01401102101ADDAA199000021GF108991081051008001999999MD1210101+9999REMSYN076AAXX  08121 14303 32598 81604 10186 20140 40210 52010 885// 333 92323 92438;
0128143030999992000050815004+45050+013620FM-12+000899999V0201601N003010120019N0200001N1+01881+01401102001ADDGF105991051011012501021999MD1710101+9999REMSYN076AAXX  08151 14303 42698 51603 10188 20140 40200 57010 8512/ 333 92322 92428;
0180143030999992000050906004+45050+013620FM-12+000899999V0201401N003012200019N0100001N1+01781+01601102101ADDAA112001091GA1001+999999999GF100991001001999999001001KA1999N+01651MD1410001+9999REMSYN088AAXX  09061 14303 12097 01403 10178 20160 40210 54000 69992 333 20165 92312 92427 00180;
0128143030999992000050909004+45050+013620FM-12+000899999V0201801N003012200019N0200001N1+01881+01601102201ADDGF101991011021008001001001MD1210101+9999REMSYN076AAXX  09091 14303 42598 11803 10188 20160 40220 52010 81200 333 92312 92428;
0158143030999992000050912004+45050+013620FM-12+000899999V0201801N004019999999N0200001N1+01941+01401102201ADDAA199000091GF108991081001017501001081MD1410001+9999REMSYN076AAXX  09121 14303 32798 81804 10194 20140 40220 54000 88008 333 92312 92428;EQDQ01  00002PRCP99
0128143030999992000050915004+45050+013620FM-12+000899999V0201801N003019999999N0200001N1+02021+01501102001ADDGF106991061001012501081001MD1710201+9999REMSYN076AAXX  09151 14303 42698 61803 10202 20150 40200 57020 86080 333 92312 92428;
0197143030999992000051006004+45050+013620FM-12+000899999V0201401N002010075019N0200001N1+01741+01501102001ADDAA199000091GF108991081051008001999999KA1999N+01561MD1410001+9999SA1+1859REMSYN094AAXX  10061 14303 32598 81402 10174 20150 40200 54090 885// 222// 00185 333 20156 92311 92418;EQDQ01  00002PRCP99
0153143030999992000051009004+45050+013620FM-12+000899999V0202001N003012200019N0100001N1+01901+01601102001ADDGF101991001001999999001081MD1410001+9999REMSYN082AAXX  10091 14303 42797 12003 10190 20160 3//// 40200 54000 80008 333 92312 92427;EQDQ01+017502SCOLCB
0168143030999992000051012004+45050+013620FM-12+000899999V0202001N003012200019N0100001N1+01981+01701102001ADDAA199000091GA1001+999999999GF100991001001999999001001MD1410001+9999REMSYN070AAXX  10121 14303 32997 02003 10198 20170 40200 54000 333 92301 92417;EQDQ01  00002PRCP99
0147143030999992000051015004+45050+013620FM-12+000899999V0202301N002012200019N0200001N1+02081+01601101901ADDGF102991001001999999001011MD1710101+9999REMSYN076AAXX  10151 14303 42798 22302 10208 20160 40190 57010 80001 333 92301 92418;EQDQ01+017502SCOLCB
0203143030999992000051106004+45050+013620FM-12+000899999V0200901N002010120019N0200001N1+01781+01501101901ADDAA199000091GF106991061061012501071001KA1999N+01641MD1410001+9999SA1+1889REMSYN100AAXX  11061 14303 32698 60902 10178 20150 3//// 40190 54000 86670 222// 00188 333 20164 92311 92418;EQDQ01  00002PRCP99
0153143030999992000051109004+45050+013620FM-12+000899999V0201801N003019999999N0100001N1+01981+01701101801ADDGF107991001001999999001081MD1710101+9999REMSYN082AAXX  11091 14303 42797 71803 10198 20170 3//// 40180 57010 80008 333 92311 92417;EQDQ01+017502SCOLCB
0164143030999992000051112004+45050+013620FM-12+000899999V0201801N003010120019N0200001N1+01981+01701101801ADDAA199000091GF108991081071012501999999MD1410001+9999REMSYN082AAXX  11121 14303 32698 81803 10198 20170 3//// 40180 54000 887// 333 92311 92417;EQDQ01  00002PRCP99
0153143030999992000051115004+45050+013620FM-12+000899999V0201801N002019999999N0100001N1+02061+01801101701ADDGF106991001001999999001071MD1710101+9999REMSYN082AAXX  11151 14303 42797 61802 10206 20180 3//// 40170 57010 80007 333 92311 92417;EQDQ01+017502SCOLCB
0231143030999992000051206004+45050+013620FM-12+000899999V0201401N003010120019N0100001N1+01861+01601101801ADDAA199000091GF108991999071012501011999KA1999N+01751SA1+1929REMSYN094AAXX  12061 14303 32697 81403 10186 20160 40180 56000 8871/ 222// 00192 333 20175 92311 92417;EQDQ01+000082SCOTLCQ02+000062APCTENQ03+000002APC3  Q04  00002PRCP99
0128143030999992000051209004+45050+013620FM-12+000899999V0201601N003010075019N0100001N1+01961+01701101801ADDGF108991081091008001999999MD1410001+9999REMSYN076AAXX  12091 14303 42597 81603 10196 20170 40180 54000 889// 333 92312 92427;
0128143030999992000051215004+45050+013620FM-12+000899999V0201801N003019999999N0100001N1+02061+01801101601ADDGF106991061001017501001071MD1710101+9999REMSYN076AAXX  12151 14303 42797 61803 10206 20180 40160 57010 86007 333 92311 92417;
0197143030999992000051306004+45050+013620FM-12+000899999V0203601N004010120019N0200001N1+01901+01401101801ADDAA199000091GF108991081081008001999999KA1999N+01721MD1210101+9999SA1+1909REMSYN094AAXX  13061 14303 32598 83604 10190 20140 40180 52010 888// 222// 00190 333 20172 92312 92428;EQDQ01  00002PRCP99
0156143030999992000051309004+45050+013620FM-12+000899999V0200501N003010075019N0200001N1+01881+01201101801ADDAY191031AY221031GF108991081091008001999999MD1410001+9999MW1171REMSYN082AAXX  13091 14303 41598 80503 10188 20120 40180 54000 71792 889// 333 92312 92428;
0158143030999992000051312004+45050+013620FM-12+000899999V0202001N002010120019N0200001N1+02001+01501101901ADDAA199000091GF108991081081008001999999MD1210101+9999REMSYN076AAXX  13121 14303 32598 82002 10200 20150 40190 52010 888// 333 92311 92418;EQDQ01  00002PRCP99
0128143030999992000051315004+45050+013620FM-12+000899999V0203201N003010150019N0200001N1+02141+01701101801ADDGF106991061081012501041001MD1710101+9999REMSYN076AAXX  13151 14303 42698 63203 10214 20170 40180 57010 86840 333 92312 92428;
0170143030999992000051406004+45050+013620FM-12+000899999V0200501N002012200019N0200001N1+01921+01001102001ADDAA118099191GF101991011041008001041001KA1999N+01561MD1210201+9999REMSYN094AAXX  14061 14303 12598 10502 10192 20100 40200 52020 60993 81440 333 20156 92301 92418 00194;
0138143030999992000051409004+45050+013620FM-12+000899999V0203501N001012200019N0200001N1+02101+01101102001ADDGA1001+999999999GF100991001001999999001001MD1410001+9999REMSYN070AAXX  14091 14303 42098 03501 10210 20110 40200 54000 333 92301 92418;
0158143030999992000051412004+45050+013620FM-12+000899999V0202901N003012200019N0200001N1+02061+01301102001ADDAA199000091GF101991011011008001001001MD1410001+9999REMSYN076AAXX  14121 14303 32598 12903 10206 20130 40200 54000 81100 333 92311 92418;EQDQ01  00002PRCP99
0128143030999992000051415004+45050+013620FM-12+000899999V0203201N004012200019N0200001N1+02121+01401101901ADDGF101991011021017501001051MD1710101+9999REMSYN076AAXX  14151 14303 42798 13204 10212 20140 40190 57010 81205 333 92312 92428;
0207143030999992000051506004+45050+013620FM-12+000899999V0200501N003012200019N0200001N1+02081+00901102001ADDAA199000091GA1001+999999999GF100991001001999999001001KA1999N+01651MD1410001+9999SA1+1949REMSYN088AAXX  15061 14303 32998 00503 10208 20090 40200 54000 222// 00194 333 20165 92312 92418;EQDQ01  00002PRCP99
0144143030999992000051509004+45050+013620FM-12+000899999V0203201N002012200019N0200001N1+02361+01101102101ADDGA1001+999999999GF100991001001999999001001MD1210101+9999REMSYN076AAXX  15091 14303 42998 03202 10236 20110 3//// 40210 52010 333 92301 92418;
0168143030999992000051512004+45050+013620FM-12+000899999V0203201N003012200019N0200001N1+02181+01401102101ADDAA199000091GA1001+999999999GF100991001001999999001001MD1410001+9999REMSYN070AAXX  15121 14303 32998 03203 10218 20140 40210 54000 333 92311 92418;EQDQ01  00002PRCP99
0138143030999992000051515004+45050+013620FM-12+000899999V0203201N002012200019N0200001N1+02221+01501102001ADDGA1001+999999999GF100991001001999999001001MD1710101+9999REMSYN070AAXX  15151 14303 42998 03202 10222 20150 40200 57010 333 92311 92418;
0213143030999992000051606004+45050+013620FM-12+000899999V0200501N001012200019N0200001N1+02001+01501101901ADDAA199000091GA1001+999999999GF100991001001999999001001KA1999N+01651MD1710101+9999SA1+1969REMSYN094AAXX  16061 14303 32998 00501 10200 20150 3//// 40190 57010 222// 00196 333 20165 92301 92418;EQDQ01  00002PRCP99
0144143030999992000051609004+45050+013620FM-12+000899999V0202301N002012200019N0200001N1+02141+01601101901ADDGA1001+999999999GF100991001001999999001001MD1410001+9999REMSYN076AAXX  16091 14303 42998 02302 10214 20160 3//// 40190 54000 333 92311 92418;
0213143030999992000051706004+45050+013620FM-12+000899999V0200101N001012200019N0200001N1+01841+01301101601ADDAA199000091GF102991001001999999001041KA1999N+01621MD1710201+9999SA1+1989REMSYN094AAXX  17061 14303 32998 20101 10184 20130 40160 57020 82004 222// 00198 333 20162 92301 92418;EQDQ01+000022SCOTLCQ02  00002PRCP99
0128143030999992000051709004+45050+013620FM-12+000899999V0202301N002012200019N0200001N1+02141+01601101601ADDGF102991021001012501001041MD1410001+9999REMSYN076AAXX  17091 14303 42698 22302 10214 20160 40160 54000 82004 333 92311 92418;
0158143030999992000051712004+45050+013620FM-12+000899999V0202001N003012200019N0200001N1+02201+01701101601ADDAA199000091GF103991031001012501001041MD1410001+9999REMSYN076AAXX  17121 14303 32698 32003 10220 20170 40160 54000 83004 333 92312 92428;EQDQ01  00002PRCP99
0138143030999992000051715004+45050+013620FM-12+000899999V0202001N003012200019N0200001N1+02241+01501101501ADDGA1001+999999999GF100991001001999999001001MD1710101+9999REMSYN070AAXX  17151 14303 42998 02003 10224 20150 40150 57010 333 92312 92428;
0207143030999992000051806004+45050+013620FM-12+000899999V0201401N003012200019N0200001N1+02001+01501101101ADDAA199000091GA1001+999999999GF100991001001999999001001KA1999N+01601MD1710401+9999SA1+2059REMSYN088AAXX  18061 14303 32998 01403 10200 20150 40110 57040 222// 00205 333 20160 92312 92428;EQDQ01  00002PRCP99
0158143030999992000051812004+45050+013620FM-12+000899999V0202001N003012200019N0200001N1+02201+01701101101ADDAA199000091GF103991031001012501001041MD1410001+9999REMSYN076AAXX  18121 14303 32698 32003 10220 20170 40110 54000 83004 333 92312 92428;EQDQ01  00002PRCP99
0128143030999992000051815004+45050+013620FM-12+000899999V0201801N004012200019N0200001N1+02241+01701101001ADDGF104991041081012501041001MD1710101+9999REMSYN076AAXX  18151 14303 42698 41804 10224 20170 40100 57010 84840 333 92312 92428;
0183143030999992000051906004+45050+013620FM-12+000899999V0202001N005010075019N0200001N1+02041+01601100601ADDAA199000091GF107991071041008001071001KA1999N+01551MD1710401+9999REMSYN088AAXX  19061 14303 32598 72005 10204 20160 40060 57040 87470 333 20155 92323 92438 00210;EQDQ01  00002PRCP99
0128143030999992000051909004+45050+013620FM-12+000899999V0202301N006010075019N0200001N1+02101+01401100601ADDGF106991061091008001061001MD1410001+9999REMSYN076AAXX  19091 14303 42598 62306 10210 20140 40060 54000 86960 333 92323 92438;
0158143030999992000051912004+45050+013620FM-12+000899999V0202301N006010075019N0200001N1+02141+01401100701ADDAA199000091GF105991051091008001061001MD1210101+9999REMSYN076AAXX  19121 14303 32598 52306 10214 20140 40070 52010 85960 333 92323 92438;EQDQ01  00002PRCP99
0138143030999992000051915004+45050+013620FM-12+000899999V0201801N003012200019N0200001N1+02241+01501100701ADDGA1001+999999999GF100991001001999999001001MD1410001+9999REMSYN070AAXX  19151 14303 42098 01803 10224 20150 40070 54000 333 92323 92438;
0203143030999992000052006004+45050+013620FM-12+000899999V0202301N003010120019N0200001N1+01901+01401100601ADDAA199000091GF105991051081008001041001KA1999N+01521MD1710101+9999SA1+2109REMSYN100AAXX  20061 14303 32598 52303 10190 20140 3//// 40060 57010 85840 222// 00210 333 20152 92323 92438;EQDQ01  00002PRCP99
0134143030999992000052009004+45050+013620FM-12+000899999V0202301N005012200019N0200001N1+01941+01301100601ADDGF104991021021012501001051MD1410001+9999REMSYN082AAXX  20091 14303 42698 42305 10194 20130 3//// 40060 54000 82205 333 92323 92438;
0164143030999992000052012004+45050+013620FM-12+000899999V0202301N005012200019N0200001N1+01961+01501100601ADDAA199000091GF103991021081008001041001MD1410001+9999REMSYN082AAXX  20121 14303 32598 32305 10196 20150 3//// 40060 54000 82840 333 92323 92438;EQDQ01  00002PRCP99
0144143030999992000052015004+45050+013620FM-12+000899999V0201801N001012200019N0200001N1+02141+01401100601ADDGA1001+999999999GF100991001001999999001001MD1410001+9999REMSYN076AAXX  20151 14303 42998 01801 10214 20140 3//// 40060 54000 333 92322 92428;
0213143030999992000052106004+45050+013620FM-12+000899999V0200501N002010075019N0200001N1+01641+00901101201ADDAA199000091GF105991051011008001001001KA1999N+01451MD1210602+9999SA1+2089REMSYN094AAXX  21061 14303 32598 50502 10164 20090 40120 52060 85100 222// 00208 333 20145 92312 92428;EQDQ01+000602APC3  Q02  00002PRCP99
0138143030999992000052109004+45050+013620FM-12+000899999V0202301N002012200019N0200001N1+01941+00801101201ADDGA1001+999999999GF100991001001999999001001MD1410001+9999REMSYN070AAXX  21091 14303 42998 02302 10194 20080 40120 54000 333 92312 92428;
0168143030999992000052112004+45050+013620FM-12+000899999V0201801N005012200019N0200001N1+01961+01101101201ADDAA199000091GA1001+999999999GF100991001001999999001001MD1410001+9999REMSYN070AAXX  21121 14303 32998 01805 10196 20110 40120 54000 333 92323 92438;EQDQ01  00002PRCP99
0138143030999992000052115004+45050+013620FM-12+000899999V0201801N003012200019N0200001N1+02021+01301101201ADDGA1001+999999999GF100991001001999999001001MD1410001+9999REMSYN070AAXX  21151 14303 42998 01803 10202 20130 40120 54000 333 92312 92428;
0197143030999992000052206004+45050+013620FM-12+000899999V0202301N006010075019N0200001N1+01981+01501100901ADDAA199000091GF108991081021008001001001KA1999N+01421MD1710301+9999SA1+2109REMSYN094AAXX  22061 14303 32598 82306 10198 20150 40090 57030 88200 222// 00210 333 20142 92323 92438;EQDQ01  00002PRCP99
0128143030999992000052209004+45050+013620FM-12+000899999V0202301N006010075019N0200001N1+01961+01301101001ADDGF106991061041008001041001MD1210101+9999REMSYN076AAXX  22091 14303 42598 62306 10196 20130 40100 52010 86440 333 92334 92448;
0138143030999992000052215004+45050+013620FM-12+000899999V0209999C000012200019N0200001N1+02221+01501101201ADDGA1001+999999999GF100991001001999999001001MD1410001+9999REMSYN070AAXX  22151 14303 42998 00000 10222 20150 40120 54000 333 92312 92428;
0209143030999992000052306004+45050+013620FM-12+000899999V0200501N003010075019N0200001N1+01601+01201101701ADDAA112007991GF105991051041008001071001KA1999N+01301MD1210502+9999SA1+2009REMSYN106AAXX  23061 14303 12598 50503 10160 20120 3//// 40170 52050 60082 85470 222// 00200 333 20130 92312 92428;EQDQ01+000502APC3  
0144143030999992000052309004+45050+013620FM-12+000899999V0201601N002012200019N0200001N1+02081+01101101801ADDGA1001+999999999GF100991001001999999001001MD1210101+9999REMSYN076AAXX  23091 14303 42998 01602 10208 20110 3//// 40180 52010 333 92312 92428;
0174143030999992000052312004+45050+013620FM-12+000899999V0202501N003012200019N0200001N1+02001+01401101801ADDAA199000091GA1001+999999999GF100991001001999999001001MD1410001+9999REMSYN076AAXX  23121 14303 32998 02503 10200 20140 3//// 40180 54000 333 92312 92428;EQDQ01  00002PRCP99
0163143030999992000052315004+45050+013620FM-12+000899999V0202501N002012200019N0200001N1+02081+01301101082ADDGA1001+999999999GF100991001001999999001001MD1410001+9999REMSYN076AAXX  23151 14303 42998 02502 10208 20130 3//// 40108 54000 333 92312 92428;EQDQ01+101083APOSLP
0209143030999992000052406004+45050+013620FM-12+000899999V0200901N002012200019N0200001N1+01881+01201101801ADDAA199000091GA1001+999999999GF100991001001999999001001KA1999M+99999MD1410001+9999REMSYN082AAXX  24061 14303 32098 00902 10188 20120 40180 54000 333 10125 00206 92311 92418;EQDQ01  00002PRCP99Q02 +01252ATMX  
0138143030999992000052409004+45050+013620FM-12+000899999V0202701N003012200019N0200001N1+02001+01201101801ADDGA1001+999999999GF100991001001999999001001MD1410001+9999REMSYN070AAXX  24091 14303 42998 02703 10200 20120 40180 54000 333 92312 92428;
0168143030999992000052412004+45050+013620FM-12+000899999V0202701N003012200019N0200001N1+02101+01401101801ADDAA199000091GA1001+999999999GF100991001001999999001001MD1410001+9999REMSYN070AAXX  24121 14303 32698 02703 10210 20140 40180 54000 333 92312 92428;EQDQ01  00002PRCP99
0128143030999992000052415004+45050+013620FM-12+000899999V0202701N003012200019N0200001N1+02141+01401101701ADDGF102991021001012501001041MD1710101+9999REMSYN076AAXX  24151 14303 42698 22703 10214 20140 40170 57010 82004 333 92312 92428;
0213143030999992000052506004+45050+013620FM-12+000899999V0202701N001012200019N0200001N1+01801+01401101601ADDAA199000091GA1001+999999999GF100991001001999999001001KA1999N+01221MD1710101+9999SA1+2109REMSYN094AAXX  25061 14303 32998 02701 10180 20140 3//// 40160 57010 222// 00210 333 20122 92301 92418;EQDQ01  00002PRCP99
0138143030999992000052509004+45050+013620FM-12+000899999V0202701N003012200019N0200001N1+02101+01601101601ADDGA1001+999999999GF100991001001999999001001MD1410001+9999REMSYN070AAXX  25091 14303 42998 02703 10210 20160 40160 54000 333 92312 92428;
0128143030999992000052515004+45050+013620FM-12+000899999V0202701N001012200019N0200001N1+02301+01701101601ADDGF102991001001999999001041MD1410001+9999REMSYN076AAXX  25151 14303 42998 22701 10230 20170 40160 54000 80004 333 92311 92418;
0213143030999992000052606004+45050+013620FM-12+000899999V0200901N002012200019N0200001N1+01881+01201101601ADDAA199000091GA1001+999999999GF100991001001999999001001KA1999N+01201MD1410001+9999SA1+2089REMSYN094AAXX  26061 14303 32998 00902 10188 20120 3//// 40160 54000 222// 00208 333 20120 92311 92418;EQDQ01  00002PRCP99
0144143030999992000052609004+45050+013620FM-12+000899999V0202301N002012200019N0200001N1+02141+01601101801ADDGA1001+999999999GF100991001001999999001001MD1210201+9999REMSYN076AAXX  26091 14303 42998 02302 10214 20160 3//// 40180 52020 333 92311 92418;
0144143030999992000052615004+45050+013620FM-12+000899999V0202301N001012200019N0200001N1+02501+01701101701ADDGA1001+999999999GF100991001001999999001001MD1710101+9999REMSYN076AAXX  26151 14303 42998 02301 10250 20170 3//// 40170 57010 333 92311 92418;
0207143030999992000052706004+45050+013620FM-12+000899999V0200901N003012200019N0200001N1+02081+01501101501ADDAA199000091GA1001+999999999GF100991001001999999001001KA1999N+01201MD1710201+9999SA1+2129REMSYN088AAXX  27061 14303 32998 00903 10208 20150 40150 57020 222// 00212 333 20120 92312 92428;EQDQ01  00002PRCP99
0128143030999992000052709004+45050+013620FM-12+000899999V0201801N004012200019N0200001N1+02181+01601101501ADDGF103991031001012501001041MD1410001+9999REMSYN076AAXX  27091 14303 42698 31804 10218 20160 40150 54000 83004 333 92322 92428;
0168143030999992000052712004+45050+013620FM-12+000899999V0201801N004012200019N0200001N1+02221+01701101501ADDAA199000091GA1001+999999999GF100991001001999999001001MD1410001+9999REMSYN070AAXX  27121 14303 32998 01804 10222 20170 40150 54000 333 92322 92428;EQDQ01  00002PRCP99
0128143030999992000052715004+45050+013620FM-12+000899999V0201801N005012200019N0200001N1+02201+01701101401ADDGF103991031021012501001051MD1410001+9999REMSYN076AAXX  27151 14303 42698 31805 10220 20170 40140 54000 83205 333 92323 92438;
0203143030999992000052806004+45050+013620FM-12+000899999V0201401N002010075019N0200001N1+02001+01601101301ADDAA199000091GF107991071091008001061001KA1999N+01251MD1710101+9999SA1+2129REMSYN100AAXX  28061 14303 32598 71402 10200 20160 3//// 40130 57010 87960 222// 00212 333 20125 92322 92428;EQDQ01  00002PRCP99
0134143030999992000052809004+45050+013620FM-12+000899999V0201401N003010075019N0200001N1+02141+01801101401ADDGF107991071091008001061001MD1210101+9999REMSYN082AAXX  28091 14303 42598 71403 10214 20180 3//// 40140 52010 87960 333 92322 92428;
0134143030999992000052815004+45050+013620FM-12+000899999V0201801N002010075019N0200001N1+02241+01901101201ADDGF106991061091008001061001MD1710201+9999REMSYN082AAXX  28151 14303 42598 61802 10224 20190 3//// 40120 57020 86960 333 92312 92428;
0183143030999992000052906004+45050+013620FM-12+000899999V0202301N003010075019N0200001N1+02081+01601101001ADDAA199000091GF105991051091008001061001KA1999N+01381MD1710201+9999REMSYN088AAXX  29061 14303 32598 52303 10208 20160 40100 57020 85960 333 20138 92323 92438 00220;EQDQ01  00002PRCP99
0147143030999992000052909004+45050+013620FM-12+000899999V0202001N004019999999N0200001N1+02241+01701101001ADDGF106991999021008001001001MD1410001+9999REMSYN076AAXX  29091 14303 42598 62004 10224 20170 40100 54000 87200 333 92323 92438;EQDQ01+000072SCOTLC
0158143030999992000052912004+45050+013620FM-12+000899999V0201801N004012200019N0200001N1+02221+01701100901ADDAA199000091GF104991041011008001001001MD1710101+9999REMSYN076AAXX  29121 14303 32598 41804 10222 20170 40090 57010 84100 333 92323 92438;EQDQ01  00002PRCP99
0147143030999992000052915004+45050+013620FM-12+000899999V0201801N005012200019N0200001N1+02241+01701100901ADDGF102991999011008001001001MD1410001+9999REMSYN076AAXX  29151 14303 42598 21805 10224 20170 40090 54000 83100 333 92323 92438;EQDQ01+000032SCOTLC
0231143030999992000053006004+45050+013620FM-12+000899999V0200501N006010075019N0200001N1+01341+01101101601ADDAA124006191AY161061AY221061GF108991999071008001021999KA1999N+00901MD1219999+9999MW1601SA1+2159REMSYN106AAXX  30061 14303 11598 80506 10134 20110 40160 52/// 60064 76062 8872/ 222// 00215 333 20090 92323 92438;EQDQ01+000082SCOTLC
0128143030999992000053009004+45050+013620FM-12+000899999V0200501N003010075019N0200001N1+01541+00901101701ADDGF108991081051008001999999MD1210101+9999REMSYN076AAXX  30091 14303 42598 80503 10154 20090 40170 52010 885// 333 92312 92428;
0139143030999992000053012004+45050+013620FM-12+000899999V0202701N002010075019N0200001N1+01841+01201101701ADDAA199000021GF107991071041008001041001MD1410001+9999REMSYN076AAXX  30121 14303 32598 72702 10184 20120 40170 54000 87440 333 92312 92428;
0128143030999992000053015004+45050+013620FM-12+000899999V0202901N004010075019N0200001N1+01941+01201101601ADDGF105991051011008001001001MD1710101+9999REMSYN076AAXX  30151 14303 42598 52904 10194 20120 40160 57010 85100 333 92323 92438;
0203143030999992000053106004+45050+013620FM-12+000899999V0200901N002010075019N0200001N1+01741+01201101301ADDAA199000091GF108991081051008001999999KA1999N+00851MD1710301+9999SA1+2129REMSYN100AAXX  31061 14303 32598 80902 10174 20120 3//// 40130 57030 885// 222// 00212 333 20085 92311 92418;EQDQ01  00002PRCP99
0134143030999992000053115004+45050+013620FM-12+000899999V0203601N004019999999N0200001N1+02081+01501101301ADDGF108991081001012501081001MD1410001+9999REMSYN082AAXX  31151 14303 42698 83604 10208 20150 3//// 40130 54000 88080 333 92311 92418;
0158143030999992000060112004+45050+013620FM-12+000899999V0202701N003012200019N0200001N1+02101+01301102301ADDAA199000091GF102991021021008001001001MD1410001+9999REMSYN076AAXX  01121 14303 32598 22703 10210 20130 40230 54000 82200 333 92311 92418;EQDQ01  00002PRCP99
0128143030999992000060115004+45050+013620FM-12+000899999V0202701N003012200019N0200001N1+02141+01401102301ADDGF101991011011008001001001MD1410001+9999REMSYN076AAXX  01151 14303 42598 12703 10214 20140 40230 54000 81100 333 92311 92418;
0205143030999992000060206004+45050+013620FM-12+000899999V0200901N002012200019N0200001N1+02021+01601102301ADDAA199000091GF104991001001999999001011KA1999N+01641MD1410001+9999REMSYN094AAXX  02061 14303 32898 40902 10202 20160 3//// 40230 54000 80001 333 20164 92301 92418 00198;EQDQ01+022502SCOLCBQ02  00002PRCP99
0158143030999992000060212004+45050+013620FM-12+000899999V0202901N003012200019N0200001N1+02221+01501102301ADDAA199000091GF101991011001022501001011MD1410001+9999REMSYN076AAXX  02121 14303 32898 12903 10222 20150 40230 54000 81001 333 92311 92418;EQDQ01  00002PRCP99
0158143030999992000060215004+45050+013620FM-12+000899999V0203201N003010210019N0200001N1+02321+01601102201ADDAA199000091GF107991071021022501001051MD1710101+9999REMSYN076AAXX  02151 14303 32898 73203 10232 20160 40220 57010 87205 333 92311 92418;EQDQ01  00002PRCP99
0201143030999992000060306004+45050+013620FM-12+000899999V0200901N001012200019N0100001N1+02021+01501102001ADDAA199000091GA1001+999999999GF100991001001999999001001KA1999N+01841MD1410001+9999SA1+2029REMSYN082AAXX  03061 14303 32097 00901 10202 20150 40200 54000 222// 00202 333 20184 92301;EQDQ01  00002PRCP99
0132143030999992000060309004+45050+013620FM-12+000899999V0202901N003012200019N0100001N1+02201+00801102001ADDGA1001+999999999GF100991001001999999001001MD1410001+9999REMSYN064AAXX  03091 14303 42097 02903 10220 20080 40200 54000 333 92311;
0162143030999992000060312004+45050+013620FM-12+000899999V0202901N003012200019N0100001N1+02281+01801101901ADDAA199000091GA1001+999999999GF100991001001999999001001MD1710101+9999REMSYN064AAXX  03121 14303 32097 02903 10228 20180 40190 57010 333 92311;EQDQ01  00002PRCP99
0132143030999992000060315004+45050+013620FM-12+000899999V0202901N003012200019N0100001N1+02381+01801101901ADDGA1001+999999999GF100991001001999999001001MD1410001+9999REMSYN064AAXX  03151 14303 42097 02903 10238 20180 40190 54000 333 92311;
0181143030999992000060318004+45050+013620FM-12+000899999V0202901N001012200019N0100001N1+02421+01801101801ADDAA199000091GA1001+999999999GF100991001001999999001001KA1999M+02481MD1710101+9999REMSYN070AAXX  03181 14303 32097 02901 10242 20180 40180 57010 333 10248 92301;EQDQ01  00002PRCP99
0201143030999992000060406004+45050+013620FM-12+000899999V0201101N001012200019N0200001N1+02081+01601101801ADDAA199000091GA1001+999999999GF100991001001999999001001KA1999N+01851MD1410001+9999SA1+2029REMSYN082AAXX  04061 14303 32098 01101 10208 20160 40180 54000 222// 00202 333 20185 92301;EQDQ01  00002PRCP99
0152143030999992000060412004+45050+013620FM-12+000899999V0202301N003012200019N0200001N1+02421+01601101901ADDAA199000091GF102991021021022501001051MD1410001+9999REMSYN070AAXX  04121 14303 32898 22303 10242 20160 40190 54000 82205 333 92311;EQDQ01  00002PRCP99
0132143030999992000060415004+45050+013620FM-12+000899999V0201801N002012200019N0200001N1+02481+01601101801ADDGA1001+999999999GF100991001001999999001001MD1710101+9999REMSYN064AAXX  04151 14303 42098 01802 10248 20160 40180 57010 333 92301;
0201143030999992000060506004+45050+013620FM-12+000899999V0201101N001012200019N0200001N1+02161+01401101701ADDAA199000091GA1001+999999999GF100991001001999999001001KA1999N+01751MD1410001+9999SA1+2069REMSYN082AAXX  05061 14303 32998 01101 10216 20140 40170 54000 222// 00206 333 20175 92301;EQDQ01  00002PRCP99
0162143030999992000060509004+45050+013620FM-12+000899999V0202301N002012200019N0200001N1+02341+01601101701ADDAA199000091GA1001+999999999GF100991001001999999001001MD1410001+9999REMSYN064AAXX  05091 14303 32098 02302 10234 20160 40170 54000 333 92301;EQDQ01  00002PRCP99
0132143030999992000060515004+45050+013620FM-12+000899999V0202001N002012200019N0200001N1+02481+02001101601ADDGA1001+999999999GF100991001001999999001001MD1710101+9999REMSYN064AAXX  05151 14303 42998 02002 10248 20200 40160 57010 333 92301;
0181143030999992000060518004+45050+013620FM-12+000899999V0201801N003012200019N0200001N1+02361+01801101401ADDAA199000091GA1001+999999999GF100991001001999999001001KA1999M+02501MD1710201+9999REMSYN070AAXX  05181 14303 32098 01803 10236 20180 40140 57020 333 10250 92311;EQDQ01  00002PRCP99
0171143030999992000060606004+45050+013620FM-12+000899999V0201401N003012200019N0200001N1+02261+01701101301ADDAA199000091GF101991011001012501041061KA1999N+02051MD1410001+9999REMSYN076AAXX  06061 14303 32698 11403 10226 20170 40130 54000 81046 333 20205 92311;EQDQ01  00002PRCP99
0122143030999992000060609004+45050+013620FM-12+000899999V0201801N003012200019N0200001N1+02361+02001101301ADDGF101991011001012501041061MD1410001+9999REMSYN070AAXX  06091 14303 42698 11803 10236 20200 40130 54000 81046 333 92311;
0152143030999992000060612004+45050+013620FM-12+000899999V0202001N003012200019N0200001N1+02461+01901101201ADDAA199000091GF102991021001017501001081MD1710101+9999REMSYN070AAXX  06121 14303 32798 22003 10246 20190 40120 57010 82008 333 92311;EQDQ01  00002PRCP99
0122143030999992000060615004+45050+013620FM-12+000899999V0202001N003010120019N0200001N1+02461+01901101201ADDGF107991071021012501091001MD1410001+9999REMSYN070AAXX  06151 14303 42698 72003 10246 20190 40120 54000 87290 333 92311;
0171143030999992000060618004+45050+013620FM-12+000899999V0201601N002019999999N0200001N1+02421+01901101101ADDAA199000091GF108991081001012501071001KA1999M+02481MD1710101+9999REMSYN076AAXX  06181 14303 32698 81602 10242 20190 40110 57010 88070 333 10248 92311;EQDQ01  00002PRCP99
0223143030999992000060706004+45050+013620FM-12+000899999V0200501N002010120019N0200001N1+02341+01601101201ADDAA199000091GF108991999041012501071001KA1999M+99999MD1210201+9999SA1+2259REMSYN088AAXX  07061 14303 32698 80502 10234 20160 40120 52020 88470 222// 00225 333 10208 92301;EQDQ01+000082SCOTLCQ02  00002PRCP99Q03 +02082ATMX  
0122143030999992000060709004+45050+013620FM-12+000899999V0203601N003019999999N0200001N1+02521+01701101401ADDGF108991081001012501071001MD1210201+9999REMSYN070AAXX  07091 14303 42698 83603 10252 20170 40140 52020 88070 333 92312;
0152143030999992000060712004+45050+013620FM-12+000899999V0200701N004010075019N0200001N1+02441+01601101401ADDAA199000091GF108991081051008001999999MD1410001+9999REMSYN070AAXX  07121 14303 32598 80704 10244 20160 40140 54000 885// 333 92312;EQDQ01  00002PRCP99
0141143030999992000060715004+45050+013620FM-12+000899999V0203201N003010120019N0200001N1+02441+01901101401ADDGF108991999021012501091001MD1410001+9999REMSYN070AAXX  07151 14303 42698 83203 10244 20190 40140 54000 88290 333 92312;EQDQ01+000082SCOTLC
0187143030999992000060718004+45050+013620FM-12+000899999V0200901N004019999999N0200001N1+02341+01501101501ADDAA199000091GF105991999001022501001041KA1999M+02561MD1210101+9999REMSYN076AAXX  07181 14303 32898 50904 10234 20150 40150 52010 86004 333 10256 92312;EQDQ01+000062SCOTLCQ02  00002PRCP99
0201143030999992000060806004+45050+013620FM-12+000899999V0200501N003012200019N0200001N1+02201+01001101901ADDAA199000091GA1001+999999999GF100991001001999999001001KA1999N+01951MD1210101+9999SA1+2289REMSYN082AAXX  08061 14303 32098 00503 10220 20100 40190 52010 222// 00228 333 20195 92311;EQDQ01  00002PRCP99
0122143030999992000060809004+45050+013620FM-12+000899999V0202901N003012200019N0200001N1+02401+01401102001ADDGF103991031001022501001041MD1210101+9999REMSYN070AAXX  08091 14303 42898 32903 10240 20140 40200 52010 83004 333 92311;
0152143030999992000060812004+45050+013620FM-12+000899999V0203201N003019999999N0200001N1+02421+01401101901ADDAA199000091GF106991061001022501001011MD1710101+9999REMSYN070AAXX  08121 14303 32898 63203 10242 20140 40190 57010 86001 333 92312;EQDQ01  00002PRCP99
0122143030999992000060815004+45050+013620FM-12+000899999V0203201N003012200019N0200001N1+02521+01401101801ADDGF104991041001022501001011MD1710101+9999REMSYN070AAXX  08151 14303 42898 43203 10252 20140 40180 57010 84001 333 92312;
0171143030999992000060818004+45050+013620FM-12+000899999V0203201N002012200019N0200001N1+02421+01401101801ADDAA199000091GF104991041001022501001011KA1999M+02551MD1410001+9999REMSYN076AAXX  08181 14303 32898 43202 10242 20140 40180 54000 84001 333 10255 92311;EQDQ01  00002PRCP99
0201143030999992000060906004+45050+013620FM-12+000899999V0200501N001012200019N0200001N1+02281+01701101801ADDAA199000091GA1001+999999999GF100991001001999999001001KA1999N+01951MD1410001+9999SA1+2269REMSYN082AAXX  09061 14303 32998 00501 10228 20170 40180 54000 222// 00226 333 20195 92301;EQDQ01  00002PRCP99
0132143030999992000060909004+45050+013620FM-12+000899999V0203201N003012200019N0200001N1+02281+01801101901ADDGA1001+999999999GF100991001001999999001001MD1210101+9999REMSYN064AAXX  09091 14303 42998 03203 10228 20180 40190 52010 333 92311;
0162143030999992000060912004+45050+013620FM-12+000899999V0203201N003012200019N0200001N1+02481+01901101801ADDAA199000091GA1001+999999999GF100991001001999999001001MD1710101+9999REMSYN064AAXX  09121 14303 32998 03203 10248 20190 40180 57010 333 92311;EQDQ01  00002PRCP99
0132143030999992000060915004+45050+013620FM-12+000899999V0203201N003012200019N0200001N1+02561+01801101701ADDGA1001+999999999GF100991001001999999001001MD1710101+9999REMSYN064AAXX  09151 14303 42998 03203 10256 20180 40170 57010 333 92311;
0171143030999992000060918004+45050+013620FM-12+000899999V0203501N002019999999N0100001N1+02481+01901101601ADDAA199000091GF106991061001017501001081KA1999M+02601MD1710101+9999REMSYN076AAXX  09181 14303 32797 63502 10248 20190 40160 57010 86008 333 10260 92311;EQDQ01  00002PRCP99
0191143030999992000061006004+45050+013620FM-12+000899999V0201401N002019999999N0200001N1+02241+01701101601ADDAA199000091GF106991061001022501001011KA1999N+01941MD1210101+9999SA1+2259REMSYN088AAXX  10061 14303 32898 61402 10224 20170 40160 52010 86001 222// 00225 333 20194 92311;EQDQ01  00002PRCP99
0122143030999992000061009004+45050+013620FM-12+000899999V0202001N003012200019N0100001N1+02421+01801101601ADDGF104991041001017501001071MD1410001+9999REMSYN070AAXX  10091 14303 42797 42003 10242 20180 40160 54000 84007 333 92311;
0152143030999992000061012004+45050+013620FM-12+000899999V0202701N002012200019N0200001N1+02521+01901101601ADDAA199000091GF101991011031008001041001MD1410001+9999REMSYN070AAXX  10121 14303 32598 12702 10252 20190 40160 54000 81340 333 92311;EQDQ01  00002PRCP99
0122143030999992000061015004+45050+013620FM-12+000899999V0202901N001012200019N0200001N1+02621+01901101401ADDGF102991021041008001001001MD1710201+9999REMSYN070AAXX  10151 14303 42598 22901 10262 20190 40140 57020 82400 333 92301;
0171143030999992000061018004+45050+013620FM-12+000899999V0202501N002010120019N0200001N1+02481+01701101401ADDAA199000091GF106991061041012501071001KA1999M+02661MD1410001+9999REMSYN076AAXX  10181 14303 32698 62502 10248 20170 40140 54000 86470 333 10266 92301;EQDQ01  00002PRCP99
0191143030999992000061106004+45050+013620FM-12+000899999V0201101N004019999999N0200001N1+02401+01801101401ADDAA199000091GF106991061001012501041061KA1999N+02121MD1410001+9999SA1+2309REMSYN088AAXX  11061 14303 32698 61104 10240 20180 40140 54000 86046 222// 00230 333 20212 92312;EQDQ01  00002PRCP99
0141143030999992000061109004+45050+013620FM-12+000899999V0201601N004010120019N0200001N1+02441+01901101501ADDGF108991999041012501071001MD1210101+9999REMSYN070AAXX  11091 14303 42698 81604 10244 20190 40150 52010 88470 333 92312;EQDQ01+000082SCOTLC
0168143030999992000061112004+45050+013620FM-12+000899999V0201601N003010120019N0200001N1+02461+01901101501ADDAA199000091GF108991999041012501071001MD1410001+9999REMSYN070AAXX  11121 14303 32698 81603 10246 20190 40150 54000 88470 333 92312;EQDQ01+000082SCOTLCQ02  00002PRCP99
0122143030999992000061115004+45050+013620FM-12+000899999V0201801N003019999999N0200001N1+02461+01901101501ADDGF108991081001012501081001MD1410001+9999REMSYN070AAXX  11151 14303 42698 81803 10246 20190 40150 54000 88080 333 92312;
0171143030999992000061118004+45050+013620FM-12+000899999V0203201N003010075019N0200001N1+02441+01901101501ADDAA199000091GF108991081051008001999999KA1999M+02551MD1410001+9999REMSYN076AAXX  11181 14303 32598 83203 10244 20190 40150 54000 885// 333 10255 92312;EQDQ01  00002PRCP99
0191143030999992000061206004+45050+013620FM-12+000899999V0200901N003019999999N0200001N1+02561+01701101701ADDAA199000091GF107991071001012501081001KA1999N+02161MD1210201+9999SA1+2309REMSYN088AAXX  12061 14303 32698 70903 10256 20170 40170 52020 87080 222// 00230 333 20216 92312;EQDQ01  00002PRCP99
0122143030999992000061209004+45050+013620FM-12+000899999V0201601N003012200019N0200001N1+02641+01801101801ADDGF102991021001012501081001MD1210101+9999REMSYN070AAXX  12091 14303 42698 21603 10264 20180 40180 52010 82080 333 92312;
0162143030999992000061212004+45050+013620FM-12+000899999V0201801N004012200019N0200001N1+02481+02001101901ADDAA199000091GA1001+999999999GF100991001001999999001001MD1210101+9999REMSYN064AAXX  12121 14303 32998 01804 10248 20200 40190 52010 333 92323;EQDQ01  00002PRCP99
0122143030999992000061215004+45050+013620FM-12+000899999V0201801N003012200019N0200001N1+02601+01901101901ADDGF102991021001017501001091MD1410001+9999REMSYN070AAXX  12151 14303 42798 21803 10260 20190 40190 54000 82009 333 92322;
0171143030999992000061218004+45050+013620FM-12+000899999V0200701N001010120019N0200001N1+02521+01701102101ADDAA199000091GF108991081081008001001001KA1999M+02701MD1210201+9999REMSYN076AAXX  12181 14303 32598 80701 10252 20170 40210 52020 88800 333 10270 92312;EQDQ01  00002PRCP99
0191143030999992000061306004+45050+013620FM-12+000899999V0200501N001012200019N0200001N1+02441+01801102101ADDAA199000091GF104991041001012501071001KA1999N+02141MD1410001+9999SA1+2359REMSYN088AAXX  13061 14303 32698 40501 10244 20180 40210 54000 84070 222// 00235 333 20214 92311;EQDQ01  00002PRCP99
0122143030999992000061309004+45050+013620FM-12+000899999V0203201N003012200019N0100001N1+02541+02001102101ADDGF101991011011012501021999MD1410001+9999REMSYN070AAXX  13091 14303 42697 13203 10254 20200 40210 54000 8112/ 333 92311;
0152143030999992000061312004+45050+013620FM-12+000899999V0202901N002012200019N0100001N1+02601+02101102101ADDAA199000091GF101991011031008001041001MD1410001+9999REMSYN070AAXX  13121 14303 32597 12902 10260 20210 40210 54000 81340 333 92301;EQDQ01  00002PRCP99
0122143030999992000061315004+45050+013620FM-12+000899999V0202401N003012200019N0200001N1+02661+01901102001ADDGF103991031001017501001071MD1710101+9999REMSYN070AAXX  13151 14303 42798 32403 10266 20190 40200 57010 83007 333 92311;
0171143030999992000061318004+45050+013620FM-12+000899999V0201801N002010150019N0200001N1+02561+02001102001ADDAA199000091GF107991071021017501001051KA1999M+02821MD1410001+9999REMSYN076AAXX  13181 14303 32798 71802 10256 20200 40200 54000 87205 333 10282 92311;EQDQ01  00002PRCP99
0219143030999992000061406004+45500+013620FM-12+000899999V0202501N002010075019N0040001N1+02321+02101102001ADDAA199000091AY121061AY211061GF108991081051008001999999KA1999N+02101MD1410001+9999MW1101SA1+2369REMSYN094AAXX  14061 14303 31596 82502 10232 20210 40200 54000 71021 885// 222// 00236 333 20210 92312;EQDQ01  00002PRCP99
0160143030999992000061409004+45500+013620FM-12+000899999V0202701N003012200019N0040001N1+02401+02201102101ADDAY111031AY201031GA1001+999999999GF100991001001999999001001MD1210101+9999MW1101REMSYN070AAXX  14091 14303 41996 02703 10240 20220 40210 52010 71010 333 92312;
0150143030999992000061415004+45500+013620FM-12+000899999V0202701N002010150019N0040001N1+02601+02001101901ADDAY111031AY201031GF105991051021017501001051MD1710201+9999MW1101REMSYN076AAXX  14151 14303 41796 52702 10260 20200 40190 57020 71010 85205 333 92311;
0171143030999992000061418004+45500+013620FM-12+000899999V0202301N001012200019N0100001N1+02521+02001101801ADDAA199000091GF103991031021017501001051KA1999M+02741MD1710101+9999REMSYN076AAXX  14181 14303 32797 32301 10252 20200 40180 57010 83205 333 10274 92301;EQDQ01  00002PRCP99
0171143030999992000061506004+45500+013620FM-12+000899999V0201401N001012200019N0100001N1+02301+01801101801ADDAA199000091GF102991021021017501001051KA1999N+02041MD1410001+9999REMSYN076AAXX  15061 14303 32797 21401 10230 20180 40180 54000 82205 333 20204 92301;EQDQ01  00002PRCP99
0122143030999992000061509004+45500+013620FM-12+000899999V0202301N001012200019N0100001N1+02501+02101101801ADDGF102991021001012501001041MD1410001+9999REMSYN070AAXX  15091 14303 42697 22301 10250 20210 40180 54000 82004 333 92311;
0152143030999992000061512004+45500+013620FM-12+000899999V0202301N003012200019N0100001N1+02521+02001101701ADDAA199000091GF103991031021008001001011MD1710101+9999REMSYN070AAXX  15121 14303 32597 32303 10252 20200 40170 57010 83201 333 92312;EQDQ01  00002PRCP99
0122143030999992000061515004+45500+013620FM-12+000899999V0202301N001012200019N0200001N1+02441+02001101601ADDGF104991041021008001001011MD1710101+9999REMSYN070AAXX  15151 14303 42598 42301 10244 20200 40160 57010 84201 333 92311;
0171143030999992000061518004+45500+013620FM-12+000899999V0202301N002010075019N0200001N1+02521+02001101501ADDAA199000091GF105991051091008001061001KA1999M+02751MD1710101+9999REMSYN076AAXX  15181 14303 32598 52302 10252 20200 40150 57010 85960 333 10275 92312;EQDQ01  00002PRCP99
0201143030999992000061606004+45500+013620FM-12+000899999V0200901N002012200019N0200001N1+02481+01501101501ADDAA199000091GA1001+999999999GF100991001001999999001001KA1999N+02201MD1410001+9999SA1+2309REMSYN082AAXX  16061 14303 32998 00902 10248 20150 40150 54000 222// 00230 333 20220 92311;EQDQ01  00002PRCP99
0132143030999992000061609004+45500+013620FM-12+000899999V0200501N003012200019N0200001N1+02621+01701101501ADDGA1001+999999999GF100991001001999999001001MD1410001+9999REMSYN064AAXX  16091 14303 42998 00503 10262 20170 40150 54000 333 92312;
0152143030999992000061612004+45500+013620FM-12+000899999V0202701N003012200019N0200001N1+02541+01701101601ADDAA199000091GF103991031081008001041001MD1210101+9999REMSYN070AAXX  16121 14303 32598 32703 10254 20170 40160 52010 83840 333 92312;EQDQ01  00002PRCP99
0122143030999992000061615004+45500+013620FM-12+000899999V0202301N003012200019N0200001N1+02621+01701101501ADDGF103991031081008001041001MD1710101+9999REMSYN070AAXX  16151 14303 42598 32303 10262 20170 40150 57010 83840 333 92312;
0171143030999992000061618004+45500+013620FM-12+000899999V0202201N002010120019N0200001N1+02501+01701101501ADDAA199000091GF105991051081008001041001KA1999M+02701MD1410001+9999REMSYN076AAXX  16181 14303 32598 52202 10250 20170 40150 54000 85840 333 10270 92312;EQDQ01  00002PRCP99
0201143030999992000061706004+45500+013620FM-12+000899999V0200501N003012200019N0200001N1+02041+00901102101ADDAA199000091GA1001+999999999GF100991001001999999001001KA1999N+01881MD1210201+9999SA1+2309REMSYN082AAXX  17061 14303 32998 00503 10204 20090 40210 52020 222// 00230 333 20188 92312;EQDQ01  00002PRCP99
0122143030999992000061709004+45500+013620FM-12+000899999V0203601N002012200019N0200001N1+02401+00601102201ADDGF102991021001012501001041MD1210101+9999REMSYN070AAXX  17091 14303 42698 23602 10240 20060 40220 52010 82004 333 92312;
0162143030999992000061712004+45500+013620FM-12+000899999V0202001N004012200019N0200001N1+02301+01301102301ADDAA199000091GA1001+999999999GF100991001001999999001001MD1210101+9999REMSYN064AAXX  17121 14303 32998 02004 10230 20130 40230 52010 333 92322;EQDQ01  00002PRCP99
0132143030999992000061715004+45500+013620FM-12+000899999V0202001N004012200019N0200001N1+02321+01301102301ADDGA1001+999999999GF100991001001999999001001MD1410001+9999REMSYN064AAXX  17151 14303 42998 02004 10232 20130 40230 54000 333 92322;
0181143030999992000061718004+45500+013620FM-12+000899999V0202001N002012200019N0200001N1+02361+01501102401ADDAA199000091GA1001+999999999GF100991001001999999001001KA1999M+02521MD1210101+9999REMSYN070AAXX  17181 14303 32998 02002 10236 20150 40240 52010 333 10252 92312;EQDQ01  00002PRCP99
0201143030999992000061806004+45500+013620FM-12+000899999V0203601N002012200019N0200001N1+01981+00701102801ADDAA199000091GA1001+999999999GF100991001001999999001001KA1999N+01751MD1410001+9999SA1+2329REMSYN082AAXX  18061 14303 32998 03602 10198 20070 40280 54000 222// 00232 333 20175 92312;EQDQ01  00002PRCP99
0132143030999992000061809004+45500+013620FM-12+000899999V0202701N003012200019N0200001N1+02021+00901102801ADDGA1001+999999999GF100991001001999999001001MD1410001+9999REMSYN064AAXX  18091 14303 42998 02703 10202 20090 40280 54000 333 92312;
0162143030999992000061812004+45500+013620FM-12+000899999V0202701N004012200019N0200001N1+02181+01001102801ADDAA199000091GA1001+999999999GF100991001001999999001001MD1410001+9999REMSYN064AAXX  18121 14303 32998 02704 10218 20100 40280 54000 333 92322;EQDQ01  00002PRCP99
0132143030999992000061815004+45500+013620FM-12+000899999V0202701N004012200019N0200001N1+02241+01001102701ADDGA1001+999999999GF100991001001999999001001MD1710101+9999REMSYN064AAXX  18151 14303 42998 02704 10224 20100 40270 57010 333 92322;
0197143030999992000061818004+45500+013620FM-12+000899999V0202701N003012200019N0200001N1+02241+01301102501ADDAA199000091GA1001+999999999GF100991001001999999001001KA1999N+99999MD1710201+9999REMSYN070AAXX  18181 14303 32998 02703 10224 20130 40250 57020 333 20250 92322;EQDQ01  00002PRCP99Q02 +02502ATMN  
0201143030999992000061906004+45500+013620FM-12+000899999V0203601N002012200019N0200001N1+02221+01401102501ADDAA199000091GA1001+999999999GF100991001001999999001001KA1999N+01701MD1410001+9999SA1+2289REMSYN082AAXX  19061 14303 32998 03602 10222 20140 40250 54000 222// 00228 333 20170 92311;EQDQ01  00002PRCP99
0138143030999992000061909004+45500+013620FM-12+000899999V0202901N003012200019N0200001N1+02321+01501102501ADDGA1001+999999999GF100991001001999999001001MD1410001+9999REMSYN070AAXX  19091 14303 42998 02903 10232 20150 30/// 40250 54000 333 92312;
0162143030999992000061912004+45500+013620FM-12+000899999V0202701N003012200019N0200001N1+02441+01801102501ADDAA199000091GA1001+999999999GF100991001001999999001001MD1410001+9999REMSYN064AAXX  19121 14303 32998 02703 10244 20180 40250 54000 333 92312;EQDQ01  00002PRCP99
0132143030999992000061915004+45500+013620FM-12+000899999V0202701N003012200019N0200001N1+02541+01701102301ADDGA1001+999999999GF100991001001999999001001MD1710201+9999REMSYN064AAXX  19151 14303 42998 02703 10254 20170 40230 57020 333 92312;
0197143030999992000061918004+45500+013620FM-12+000899999V0202701N002012200019N0200001N1+02501+01601102201ADDAA199000091GA1001+999999999GF100991001001999999001001KA1999N+99999MD1710101+9999REMSYN070AAXX  19181 14303 32998 02702 10250 20160 40220 57010 333 20258 92312;EQDQ01  00002PRCP99Q02 +02582ATMN  
0201143030999992000062006004+45500+013620FM-12+000899999V0209999C000012200019N0200001N1+02301+01501102001ADDAA199000091GA1001+999999999GF100991001001999999001001KA1999N+01721MD1410001+9999SA1+2309REMSYN082AAXX  20061 14303 32998 00000 10230 20150 40200 54000 222// 00230 333 20172 92300;EQDQ01  00002PRCP99
0132143030999992000062009004+45500+013620FM-12+000899999V0202701N002012200019N0200001N1+02361+01801102001ADDGA1001+999999999GF100991001001999999001001MD1410001+9999REMSYN064AAXX  20091 14303 42998 02702 10236 20180 40200 54000 333 92311;
0162143030999992000062012004+45500+013620FM-12+000899999V0202701N003012200019N0200001N1+02541+01901102001ADDAA199000091GA1001+999999999GF100991001001999999001001MD1410001+9999REMSYN064AAXX  20121 14303 32998 02703 10254 20190 40200 54000 333 92312;EQDQ01  00002PRCP99
0132143030999992000062015004+45500+013620FM-12+000899999V0202301N002012200019N0200001N1+02661+01501101901ADDGA1001+999999999GF100991001001999999001001MD1710101+9999REMSYN064AAXX  20151 14303 42998 02302 10266 20150 40190 57010 333 92311;
0181143030999992000062018004+45500+013620FM-12+000899999V0200901N001012200019N0200001N1+02501+01901101801ADDAA199000091GA1001+999999999GF100991001001999999001001KA1999M+02721MD1710101+9999REMSYN070AAXX  20181 14303 32998 00901 10250 20190 40180 57010 333 10272 92311;EQDQ01  00002PRCP99
0201143030999992000062106004+45500+013620FM-12+000899999V0200901N002012200019N0200001N1+02301+01501101801ADDAA199000091GA1001+999999999GF100991001001999999001001KA1999N+01651MD1410001+9999SA1+2329REMSYN082AAXX  21061 14303 32998 00902 10230 20150 40180 54000 222// 00232 333 20165 92311;EQDQ01  00002PRCP99
0132143030999992000062109004+45500+013620FM-12+000899999V0201801N004012200019N0200001N1+02421+02101101801ADDGA1001+999999999GF100991001001999999001001MD1410001+9999REMSYN064AAXX  21091 14303 42998 01804 10242 20210 40180 54000 333 92312;
0162143030999992000062112004+45500+013620FM-12+000899999V0201801N002012200019N0200001N1+02541+01901101801ADDAA199000091GA1001+999999999GF100991001001999999001001MD1410001+9999REMSYN064AAXX  21121 14303 32998 01802 10254 20190 40180 54000 333 92311;EQDQ01  00002PRCP99
0132143030999992000062115004+45500+013620FM-12+000899999V0202001N002012200019N0100001N1+02661+02101101701ADDGA1001+999999999GF100991001001999999001001MD1710101+9999REMSYN064AAXX  21151 14303 42997 02002 10266 20210 40170 57010 333 92311;
0171143030999992000062118004+45500+013620FM-12+000899999V0209999C000012200019N0100001N1+02601+02301101701ADDAA199000091GF102991021001017501001041KA1999M+02751MD1410001+9999REMSYN076AAXX  21181 14303 32797 20000 10260 20230 40170 54000 82004 333 10275 92301;EQDQ01  00002PRCP99
0201143030999992000062206004+45500+013620FM-12+000899999V0201401N003012200019N0200001N1+02401+02101101701ADDAA199000091GA1001+999999999GF100991001001999999001001KA1999N+01851MD1410001+9999SA1+2359REMSYN082AAXX  22061 14303 32998 01403 10240 20210 40170 54000 222// 00235 333 20185 92312;EQDQ01  00002PRCP99
0162143030999992000062209004+45500+013620FM-12+000899999V0202301N002012200019N0200001N1+02541+01801101701ADDAA199000091GA1001+999999999GF100991001001999999001001MD1410001+9999REMSYN064AAXX  22091 14303 32998 02302 10254 20180 40170 54000 333 92312;EQDQ01  00002PRCP99
0162143030999992000062212004+45500+013620FM-12+000899999V0202501N003012200019N0200001N1+02661+01901101701ADDAA199000091GA1001+999999999GF100991001001999999001001MD1410001+9999REMSYN064AAXX  22121 14303 32998 02503 10266 20190 40170 54000 333 92312;EQDQ01  00002PRCP99
0132143030999992000062215004+45500+013620FM-12+000899999V0202501N002012200019N0200001N1+02701+01901101701ADDGA1001+999999999GF100991001001999999001001MD1410001+9999REMSYN064AAXX  22151 14303 42998 02502 10270 20190 40170 54000 333 92312;
0181143030999992000062218004+45500+013620FM-12+000899999V0201801N001012200019N0200001N1+02641+02101101701ADDAA199000091GA1001+999999999GF100991001001999999001001KA1999M+02781MD1410001+9999REMSYN070AAXX  22181 14303 32998 01801 10264 20210 40170 54000 333 10278 92312;EQDQ01  00002PRCP99
0187143030999992000062306004+45500+013620FM-12+000899999V0202301N002012200019N0200001N1+02481+01701101601ADDAA199000091GA1001+999999999GF100991001001999999001001KA1999N+02201MD1410001+9999REMSYN076AAXX  23061 14303 32998 02302 10248 20170 40160 54000 333 00235 20220 92312;EQDQ01  00002PRCP99
0132143030999992000062309004+45500+013620FM-12+000899999V0202301N003012200019N0200001N1+02541+01501101601ADDGA1001+999999999GF100991001001999999001001MD1410001+9999REMSYN064AAXX  23091 14303 42998 02303 10254 20150 40160 54000 333 92312;
0162143030999992000062312004+45500+013620FM-12+000899999V0202001N003012200019N0200001N1+02501+01701101601ADDAA199000091GA1001+999999999GF100991001001999999001001MD1410001+9999REMSYN064AAXX  23121 14303 32998 02003 10250 20170 40160 54000 333 92312;EQDQ01  00002PRCP99
0132143030999992000062315004+45500+013620FM-12+000899999V0202001N002012200019N0200001N1+02701+01601101501ADDGA1001+999999999GF100991001001999999001001MD1710101+9999REMSYN064AAXX  23151 14303 42998 02002 10270 20160 40150 57010 333 92312;
0181143030999992000062318004+45500+013620FM-12+000899999V0201801N003012200019N0200001N1+02601+01801101401ADDAA199000091GA1001+999999999GF100991001001999999001001KA1999M+02781MD1710101+9999REMSYN070AAXX  23181 14303 32998 01803 10260 20180 40140 57010 333 10278 92322;EQDQ01  00002PRCP99
0191143030999992000062406004+45500+013620FM-12+000899999V0200501N003012200019N0200001N1+02281+01701101301ADDAA199000091GF104991041081008001041001KA1999N+02151MD1210101+9999SA1+2369REMSYN088AAXX  24061 14303 32598 40503 10228 20170 40130 52010 84840 222// 00236 333 20215 92323;EQDQ01  00002PRCP99
0122143030999992000062409004+45500+013620FM-12+000899999V0201801N003012200019N0200001N1+02501+01701101301ADDGF104991041081008001041001MD1410001+9999REMSYN070AAXX  24091 14303 42598 41803 10250 20170 40130 54000 84840 333 92322;
0162143030999992000062412004+45500+013620FM-12+000899999V0202301N003012200019N0200001N1+02501+01901101301ADDAA199000091GA1001+999999999GF100991001001999999001001MD1410001+9999REMSYN064AAXX  24121 14303 32998 02303 10250 20190 40130 54000 333 92312;EQDQ01  00002PRCP99
0132143030999992000062415004+45500+013620FM-12+000899999V0202301N001012200019N0200001N1+02601+01801101101ADDGA1001+999999999GF100991001001999999001001MD1710201+9999REMSYN064AAXX  24151 14303 42998 02301 10260 20180 40110 57020 333 92311;
0171143030999992000062418004+45500+013620FM-12+000899999V0201801N002012200019N0200001N1+02501+01901101001ADDAA199000091GF102991021001012501001041KA1999M+02721MD1710101+9999REMSYN076AAXX  24181 14303 32698 21802 10250 20190 40100 57010 82004 333 10272 92311;EQDQ01  00002PRCP99
0207143030999992000062506004+45500+013620FM-12+000899999V0202301N004010075019N0200001N1+02261+01801100801ADDAA199000091GF108991081021008001001001KA1999M+99999MD1410001+9999SA1+2359REMSYN088AAXX  25061 14303 32598 82304 10226 20180 40080 54000 88200 222// 00235 333 10210 92323;EQDQ01  00002PRCP99Q02 +02102ATMX  
0122143030999992000062509004+45500+013620FM-12+000899999V0202501N003010075019N0200001N1+02201+01801100801ADDGF108991081021008001001001MD1410001+9999REMSYN070AAXX  25091 14303 42598 82503 10220 20180 40080 54000 88200 333 92323;
0122143030999992000062515004+45500+013620FM-12+000899999V0200501N003010075019N0200001N1+02201+01401101101ADDGF107991071041008001041001MD1210101+9999REMSYN070AAXX  25151 14303 42598 70503 10220 20140 40110 52010 87440 333 92322;
0171143030999992000062518004+45500+013620FM-12+000899999V0200501N004010075019N0200001N1+02101+01301101201ADDAA199000091GF106991061041008001071001KA1999M+02301MD1210101+9999REMSYN076AAXX  25181 14303 32598 60504 10210 20130 40120 52010 86470 333 10230 92322;EQDQ01  00002PRCP99
0161143030999992000062606004+45500+013620FM-12+000899999V0200501N001012200019N0200001N1+02041+01001101501ADDGF102991021001012501041061KA1999N+01701MD1410001+9999SA1+2309REMSYN088AAXX  26061 14303 42698 20501 10204 20100 40150 54000 82046 222// 00230 333 20170 92311;
0132143030999992000062609004+45500+013620FM-12+000899999V0202701N003012200019N0200001N1+02101+01201101601ADDGA1001+999999999GF100991001001999999001001MD1210101+9999REMSYN064AAXX  26091 14303 42998 02703 10210 20120 40160 52010 333 92312;
0162143030999992000062612004+45500+013620FM-12+000899999V0202701N004012200019N0200001N1+02221+01201101601ADDAA199000091GA1001+999999999GF100991001001999999001001MD1410001+9999REMSYN064AAXX  26121 14303 32998 02704 10222 20120 40160 54000 333 92322;EQDQ01  00002PRCP99
0132143030999992000062615004+45500+013620FM-12+000899999V0202701N002012200019N0200001N1+02381+01301101601ADDGA1001+999999999GF100991001001999999001001MD1410001+9999REMSYN064AAXX  26151 14303 42998 02702 10238 20130 40160 54000 333 92322;
0181143030999992000062618004+45500+013620FM-12+000899999V0203401N001012200019N0200001N1+02421+01201101601ADDAA199000091GA1001+999999999GF100991001001999999001001KA1999M+02451MD1410001+9999REMSYN070AAXX  26181 14303 32998 03401 10242 20120 40160 54000 333 10245 92301;EQDQ01  00002PRCP99
0191143030999992000062706004+45500+013620FM-12+000899999V0201101N003019999999N0200001N1+02081+01201101801ADDAA199000091GF107991071001012501051001KA1999N+01881MD1210101+9999SA1+2359REMSYN088AAXX  27061 14303 32698 71103 10208 20120 40180 52010 87050 222// 00235 333 20188 92311;EQDQ01  00002PRCP99
0122143030999992000062709004+45500+013620FM-12+000899999V0201801N003010120019N0200001N1+02321+01501101801ADDGF106991061021012501091001MD1410001+9999REMSYN070AAXX  27091 14303 42698 61803 10232 20150 40180 54000 86290 333 92312;
0152143030999992000062712004+45500+013620FM-12+000899999V0202001N004012200019N0200001N1+02321+01501101701ADDAA199000091GF104991041041008001041001MD1710101+9999REMSYN070AAXX  27121 14303 32598 42004 10232 20150 40170 57010 84440 333 92312;EQDQ01  00002PRCP99
0132143030999992000062715004+45500+013620FM-12+000899999V0201801N003012200019N0200001N1+02361+01501101601ADDGA1001+999999999GF100991001001999999001001MD1710101+9999REMSYN064AAXX  27151 14303 42998 01803 10236 20150 40160 57010 333 92312;
0181143030999992000062718004+45500+013620FM-12+000899999V0201801N003012200019N0200001N1+02341+01501101501ADDAA199000091GA1001+999999999GF100991001001999999001001KA1999M+02401MD1410001+9999REMSYN070AAXX  27181 14303 32998 01803 10234 20150 40150 54000 333 10240 92312;EQDQ01  00002PRCP99
0191143030999992000062806004+45500+013620FM-12+000899999V0200901N002012200019N0200001N1+02241+01401101401ADDAA199000091GF102991021001012501001031KA1999N+01851MD1410001+9999SA1+2359REMSYN088AAXX  28061 14303 32698 20902 10224 20140 40140 54000 82003 222// 00235 333 20185 92312;EQDQ01  00002PRCP99
0122143030999992000062809004+45500+013620FM-12+000899999V0201601N003010075019N0200001N1+02421+01601101301ADDGF105991051091008001061001MD1710101+9999REMSYN070AAXX  28091 14303 42598 51603 10242 20160 40130 57010 85960 333 92312;
0152143030999992000062812004+45500+013620FM-12+000899999V0201801N005010075019N0200001N1+02401+01901101201ADDAA199000091GF106991061041008001071001MD1710101+9999REMSYN070AAXX  28121 14303 32598 61805 10240 20190 40120 57010 86470 333 92322;EQDQ01  00002PRCP99
0122143030999992000062815004+45500+013620FM-12+000899999V0201801N004010075019N0200001N1+02381+01801101101ADDGF106991061091008001061001MD1710101+9999REMSYN070AAXX  28151 14303 42598 61804 10238 20180 40110 57010 86960 333 92322;
0171143030999992000062818004+45500+013620FM-12+000899999V0201801N003019999999N0200001N1+02301+02001101101ADDAA199000091GF108991081051999999999999KA1999M+02451MD1410001+9999REMSYN076AAXX  28181 14303 32998 81803 10230 20200 40110 54000 885// 333 10245 92322;EQDQ01  00002PRCP99
0191143030999992000062906004+45500+013620FM-12+000899999V0200501N002012200019N0200001N1+02121+01501101201ADDAA199000091GF104991041081012501041001KA1999N+01821MD1210101+9999SA1+2359REMSYN088AAXX  29061 14303 32698 40502 10212 20150 40120 52010 84840 222// 00235 333 20182 92312;EQDQ01  00002PRCP99
0122143030999992000062909004+45500+013620FM-12+000899999V0202701N003012200019N0200001N1+02401+01601101201ADDGF104991041081012501041001MD1410001+9999REMSYN070AAXX  29091 14303 42698 42703 10240 20160 40120 54000 84840 333 92312;
0152143030999992000062912004+45500+013620FM-12+000899999V0202701N004012200019N0200001N1+02441+01601101301ADDAA199000091GF103991031081008001041001MD1210101+9999REMSYN070AAXX  29121 14303 32598 32704 10244 20160 40130 52010 83840 333 92322;EQDQ01  00002PRCP99
0122143030999992000062915004+45500+013620FM-12+000899999V0202701N003012200019N0200001N1+02521+01501101301ADDGF102991021001012501001081MD1410001+9999REMSYN070AAXX  29151 14303 42698 22703 10252 20150 40130 54000 82008 333 92322;
0181143030999992000062918004+45500+013620FM-12+000899999V0202701N002012200019N0200001N1+02461+01601101301ADDAA199000091GA1001+999999999GF100991001001999999001001KA1999M+02561MD1410001+9999REMSYN070AAXX  29181 14303 32998 02702 10246 20160 40130 54000 333 10256 92312;EQDQ01  00002PRCP99
0201143030999992000063006004+45500+013620FM-12+000899999V0200901N001012200019N0200001N1+02301+01301101401ADDAA199000091GA1001+999999999GF100991001001999999001001KA1999N+01801MD1210101+9999SA1+2369REMSYN082AAXX  30061 14303 32998 00901 10230 20130 40140 52010 222// 00236 333 20180 92301;EQDQ01  00002PRCP99
0122143030999992000063009004+45500+013620FM-12+000899999V0201801N003012200019N0200001N1+02401+01801101401ADDGF103991031081008001041001MD1410001+9999REMSYN070AAXX  30091 14303 42598 31803 10240 20180 40140 54000 83840 333 92312;
0162143030999992000063012004+45500+013620FM-12+000899999V0202001N004012200019N0200001N1+02501+01701101401ADDAA199000091GA1001+999999999GF100991001001999999001001MD1410001+9999REMSYN064AAXX  30121 14303 32998 02004 10250 20170 40140 54000 333 92322;EQDQ01  00002PRCP99
0132143030999992000063015004+45500+013620FM-12+000899999V0201801N003012200019N0200001N1+02501+01601101401ADDGA1001+999999999GF100991001001999999001001MD1410001+9999REMSYN064AAXX  30151 14303 42998 01803 10250 20160 40140 54000 333 92322;
0171143030999992000063018004+45500+013620FM-12+000899999V0201601N003012200019N0200001N1+02441+01801101301ADDAA199000091GF103991031021012501001051KA1999M+02581MD1710101+9999REMSYN076AAXX  30181 14303 32698 31603 10244 20180 40130 57010 83205 333 10258 92322;EQDQ01  00002PRCP99
0201143030999992000070106004+45500+013620FM-12+000899999V0200901N004012200019N0200001N1+02361+01801101301ADDAA199000091GA1001+999999999GF100991001001999999001001KA1999N+01751MD1410001+9999SA1+2389REMSYN082AAXX  01061 14303 32998 00904 10236 20180 40130 54000 222// 00238 333 20175 92322;EQDQ01  00002PRCP99
0122143030999992000070109004+45500+013620FM-12+000899999V0202301N003012200019N0200001N1+02501+01901101401ADDGF102991021001022501001011MD1210101+9999REMSYN070AAXX  01091 14303 42898 22303 10250 20190 40140 52010 82001 333 92312;
0152143030999992000070112004+45500+013620FM-12+000899999V0202301N003012200019N0200001N1+02521+01901101401ADDAA199000091GF103991031001022501001011MD1410001+9999REMSYN070AAXX  01121 14303 32898 32303 10252 20190 40140 54000 83001 333 92312;EQDQ01  00002PRCP99
0122143030999992000070115004+45500+013620FM-12+000899999V0202801N004019999999N0200001N1+02481+02201101401ADDGF106991061001017501001081MD1410001+9999REMSYN070AAXX  01151 14303 42798 62804 10248 20220 40140 54000 86008 333 92322;
0171143030999992000070118004+45500+013620FM-12+000899999V0201801N003019999999N0200001N1+02441+02201101301ADDAA199000091GF107991001001999999001071KA1999M+02541MD1710101+9999REMSYN076AAXX  01181 14303 32998 71803 10244 20220 40130 57010 80007 333 10254 92312;EQDQ01  00002PRCP99
0201143030999992000070206004+45500+013620FM-12+000899999V0201401N003012200019N0200001N1+02401+02101101501ADDAA199000091GA1001+999999999GF100991001001999999001001KA1999N+02201MD1410001+9999SA1+2409REMSYN082AAXX  02061 14303 32998 01403 10240 20210 40150 54000 222// 00240 333 20220 92312;EQDQ01  00002PRCP99
0132143030999992000070209004+45500+013620FM-12+000899999V0201801N003012200019N0100001N1+02521+02201101601ADDGA1001+999999999GF100991001001999999001001MD1210101+9999REMSYN064AAXX  02091 14303 42997 01803 10252 20220 40160 52010 333 92312;
0162143030999992000070212004+45500+013620FM-12+000899999V0202301N003012200019N0100001N1+02561+02001101701ADDAA199000091GA1001+999999999GF100991001001999999001001MD1210101+9999REMSYN064AAXX  02121 14303 32997 02303 10256 20200 40170 52010 333 92312;EQDQ01  00002PRCP99
0141143030999992000070215004+45500+013620FM-12+000899999V0201801N003012200019N0100001N1+02641+02101101601ADDGF101991001001999999001071MD1710101+9999REMSYN070AAXX  02151 14303 42897 11803 10264 20210 40160 57010 80007 333 92312;EQDQ01+022502SCOLCB
0181143030999992000070218004+45500+013620FM-12+000899999V0201801N003012200019N0100001N1+02541+02001101501ADDAA199000091GA1001+999999999GF100991001001999999001001KA1999M+02651MD1710101+9999REMSYN070AAXX  02181 14303 32997 01803 10254 20200 40150 57010 333 10265 92312;EQDQ01  00002PRCP99
0201143030999992000070306004+45500+013620FM-12+000899999V0201401N004012200019N0100001N1+02421+02101101401ADDAA199000091GA1001+999999999GF100991001001999999001001KA1999N+02251MD1210101+9999SA1+2429REMSYN082AAXX  03061 14303 32997 01404 10242 20210 40140 52010 222// 00242 333 20225 92322;EQDQ01  00002PRCP99
0132143030999992000070309004+45500+013620FM-12+000899999V0201601N005012200019N0200001N1+02621+02101101301ADDGA1001+999999999GF100991001001999999001001MD1710101+9999REMSYN064AAXX  03091 14303 42998 01605 10262 20210 40130 57010 333 92323;
0168143030999992000070312004+45500+013620FM-12+000899999V0201801N005019999999N0200001N1+02601+02101101301ADDAA199000091GF105991001001999999001041MD1410001+9999REMSYN070AAXX  03121 14303 32898 51805 10260 20210 40130 54000 80004 333 92323;EQDQ01+022502SCOLCBQ02  00002PRCP99
0141143030999992000070315004+45500+013620FM-12+000899999V0201601N004012200019N0200001N1+02641+02101101201ADDGF102991001001999999001081MD1710101+9999REMSYN070AAXX  03151 14303 42898 21604 10264 20210 40120 57010 80008 333 92322;EQDQ01+022502SCOLCB
0187143030999992000070318004+45500+013620FM-12+000899999V0201401N003012200019N0200001N1+02621+02001101001ADDAA199000091GF102991001001999999001071KA1999M+02661MD1710201+9999REMSYN076AAXX  03181 14303 32898 21403 10262 20200 40100 57020 80007 333 10266 92322;EQDQ01+022502SCOLCBQ02  00002PRCP99
0191143030999992000070406004+45500+013620FM-12+000899999V0201401N004019999999N0200001N1+02581+02001100801ADDAA199000091GF107991071001012501071001KA1999N+02441MD1410001+9999SA1+2469REMSYN088AAXX  04061 14303 32698 71404 10258 20200 40080 54000 87070 222// 00246 333 20244 92323;EQDQ01  00002PRCP99
0122143030999992000070409004+45500+013620FM-12+000899999V0201601N005010075019N0200001N1+02541+02201100901ADDGF108991081051008001999999MD1210101+9999REMSYN070AAXX  04091 14303 42598 81605 10254 20220 40090 52010 885// 333 92323;
0168143030999992000070412004+45500+013620FM-12+000899999V0201401N005010075019N0200001N1+02581+02201100701ADDAA199000091GF108991999071008001021999MD1710201+9999REMSYN070AAXX  04121 14303 32598 81405 10258 20220 40070 57020 8872/ 333 92323;EQDQ01+000082SCOTLCQ02  00002PRCP99
0168143030999992000070415004+45500+013620FM-12+000899999V0201601N005010120019N0200001N1+02661+02101100601ADDAA199000091GF108991999021012501091001MD1710101+9999REMSYN070AAXX  04151 14303 32698 81605 10266 20210 40060 57010 88290 333 92323;EQDQ01+000082SCOTLCQ02  00002PRCP99
0171143030999992000070418004+45500+013620FM-12+000899999V0201601N004010120019N0200001N1+02581+02201100501ADDAA199000091GF108991081081008001001001KA1999M+02701MD1710101+9999REMSYN076AAXX  04181 14303 32598 81604 10258 20220 40050 57010 88800 333 10270 92323;EQDQ01  00002PRCP99
0201143030999992000070506004+45500+013620FM-12+000899999V0202701N004012200019N0200001N1+02481+01901101001ADDAA199000091GA1001+999999999GF100991001001999999001001KA1999N+02451MD1210201+9999SA1+2459REMSYN082AAXX  05061 14303 32998 02704 10248 20190 40100 52020 222// 00245 333 20245 92323;EQDQ01  00002PRCP99
0132143030999992000070509004+45500+013620FM-12+000899999V0202701N003012200019N0200001N1+02541+01901101201ADDGA1001+999999999GF100991001001999999001001MD1210201+9999REMSYN064AAXX  05091 14303 42998 02703 10254 20190 40120 52020 333 92323;
0162143030999992000070512004+45500+013620FM-12+000899999V0203201N002012200019N0200001N1+02701+01901101301ADDAA199000091GA1001+999999999GF100991001001999999001001MD1210101+9999REMSYN064AAXX  05121 14303 32998 03202 10270 20190 40130 52010 333 92323;EQDQ01  00002PRCP99
0132143030999992000070515004+45500+013620FM-12+000899999V0201801N002012200019N0200001N1+02641+02101101301ADDGA1001+999999999GF100991001001999999001001MD1410001+9999REMSYN064AAXX  05151 14303 42998 01802 10264 20210 40130 54000 333 92322;
0181143030999992000070518004+45500+013620FM-12+000899999V0201801N003012200019N0200001N1+02601+02001101301ADDAA199000091GA1001+999999999GF100991001001999999001001KA1999M+02781MD1410001+9999REMSYN070AAXX  05181 14303 32998 01803 10260 20200 40130 54000 333 10278 92312;EQDQ01  00002PRCP99
0201143030999992000070606004+45500+013620FM-12+000899999V0200901N003012200019N0200001N1+02481+01701101601ADDAA199000091GA1001+999999999GF100991001001999999001001KA1999N+02161MD1210101+9999SA1+2429REMSYN082AAXX  06061 14303 32998 00903 10248 20170 40160 52010 222// 00242 333 20216 92311;EQDQ01  00002PRCP99
0132143030999992000070609004+45500+013620FM-12+000899999V0202701N003012200019N0200001N1+02581+02001101701ADDGA1001+999999999GF100991001001999999001001MD1210101+9999REMSYN064AAXX  06091 14303 42998 02703 10258 20200 40170 52010 333 92311;
0162143030999992000070612004+45500+013620FM-12+000899999V0202501N002012200019N0200001N1+02701+01901101701ADDAA199000091GA1001+999999999GF100991001001999999001001MD1410001+9999REMSYN064AAXX  06121 14303 32998 02502 10270 20190 40170 54000 333 92311;EQDQ01  00002PRCP99
0132143030999992000070615004+45500+013620FM-12+000899999V0202701N002012200019N0200001N1+02861+01901101601ADDGA1001+999999999GF100991001001999999001001MD1710101+9999REMSYN064AAXX  06151 14303 42998 02702 10286 20190 40160 57010 333 92301;
0181143030999992000070618004+45500+013620FM-12+000899999V0202901N001012200019N0200001N1+02721+01901101501ADDAA199000091GA1001+999999999GF100991001001999999001001KA1999M+02881MD1710101+9999REMSYN070AAXX  06181 14303 32998 02901 10272 20190 40150 57010 333 10288 92301;EQDQ01  00002PRCP99
0191143030999992000070706004+45500+013620FM-12+000899999V0201401N002012200019N0200001N1+02441+01701101201ADDAA199000091GF101991011001012501081001KA1999N+02151MD1710201+9999SA1+2449REMSYN088AAXX  07061 14303 32698 11402 10244 20170 40120 57020 81080 222// 00244 333 20215 92301;EQDQ01  00002PRCP99
0132143030999992000070709004+45500+013620FM-12+000899999V0202001N003012200019N0200001N1+02701+01801101201ADDGA1001+999999999GF100991001001999999001001MD1410001+9999REMSYN064AAXX  07091 14303 42998 02003 10270 20180 40120 54000 333 92311;
0162143030999992000070712004+45500+013620FM-12+000899999V0201801N004012200019N0200001N1+02661+02101101101ADDAA199000091GA1001+999999999GF100991001001999999001001MD1710101+9999REMSYN064AAXX  07121 14303 32998 01804 10266 20210 40110 57010 333 92312;EQDQ01  00002PRCP99
0171143030999992000070718004+45500+013620FM-12+000899999V0201601N004019999999N0200001N1+02761+01901100601ADDAA199000091GF106991061001012501081001KA1999M+02801MD1710301+9999REMSYN076AAXX  07181 14303 32698 61604 10276 20190 40060 57030 86080 333 10280 92322;EQDQ01  00002PRCP99
0191143030999992000070806004+45500+013620FM-12+000899999V0201801N002012200019N0200001N1+02621+02101100301ADDAA199000091GF104991041001012501081001KA1999N+02501MD1410001+9999SA1+2559REMSYN088AAXX  08061 14303 32698 41802 10262 20210 40030 54000 84080 222// 00255 333 20250 92323;EQDQ01  00002PRCP99
0122143030999992000070809004+45500+013620FM-12+000899999V0202501N003012200019N0200001N1+02601+02101100301ADDGF102991021011012501021999MD1410001+9999REMSYN070AAXX  08091 14303 42698 22503 10260 20210 40030 54000 8212/ 333 92322;
0142143030999992000070812004+45500+013620FM-12+000899999V0202501N003012200019N0200001N1+02701+02101100301ADDAA199000091GF101991011021008001001011MD1410001+9999REMSYN060AAXX  08121 14303 32598 12503 10270 20210 40030 54000 81201;EQDQ01  00002PRCP99
0122143030999992000070815004+45500+013620FM-12+000899999V0201801N002012200019N0200001N1+02801+02001100201ADDGF104991011021008001001011MD1710101+9999REMSYN070AAXX  08151 14303 42598 41802 10280 20200 40020 57010 81201 333 92322;
0171143030999992000070818004+45500+013620FM-12+000899999V0201801N003010120019N0200001N1+02681+02101100001ADDAA199000091GF105991051041012501071001KA1999M+02851MD1710201+9999REMSYN076AAXX  08181 14303 32698 51803 10268 20210 40000 57020 85470 333 10285 92312;EQDQ01  00002PRCP99
0178143030999992000070906004+45500+013620FM-12+000899999V0200501N004012200019N0200001N1+01841+00901100801ADDAA124001091GF101991011001012501041061KA1999N+01551MD1210301+9999SA1+2409REMSYN094AAXX  09061 14303 12698 10504 10184 20090 40080 52030 60014 81046 222// 00240 333 20155 92322;
0122143030999992000070909004+45500+013620FM-12+000899999V0203401N003012200019N0200001N1+02281+01001101001ADDGF101991011011008001001001MD1210201+9999REMSYN070AAXX  09091 14303 42598 13403 10228 20100 40100 52020 81100 333 92312;
0152143030999992000070912004+45500+013620FM-12+000899999V0202701N003012200019N0200001N1+02161+01201101001ADDAA199000091GF102991021021008001001001MD1410001+9999REMSYN070AAXX  09121 14303 32598 22703 10216 20120 40100 54000 82200 333 92312;EQDQ01  00002PRCP99
0141143030999992000070915004+45500+013620FM-12+000899999V0202301N003019999999N0200001N1+02201+01301100901ADDGF106991999021022501001031MD1710101+9999REMSYN070AAXX  09151 14303 42898 62303 10220 20130 40090 57010 80203 333 92312;EQDQ01+000002SCOTLC
0171143030999992000070918004+45500+013620FM-12+000899999V0201401N002012200019N0200001N1+02121+01301100801ADDAA199000091GF104991021021022501001031KA1999M+02301MD1710101+9999REMSYN076AAXX  09181 14303 32898 41402 10212 20130 40080 57010 82203 333 10230 92311;EQDQ01  00002PRCP99
0191143030999992000071006004+45500+013620FM-12+000899999V0201601N004010075019N0200001N1+02241+01701100501ADDAA199000091GF105991051011008001001001KA1999N+01901MD1710101+9999SA1+2369REMSYN088AAXX  10061 14303 32598 51604 10224 20170 40050 57010 85100 222// 00236 333 20190 92323;EQDQ01  00002PRCP99
0152143030999992000071012004+45500+013620FM-12+000899999V0201801N004012200019N0200001N1+02401+01601100401ADDAA199000091GF101991011021008001001011MD1710101+9999REMSYN070AAXX  10121 14303 32598 11804 10240 20160 40040 57010 81201 333 92322;EQDQ01  00002PRCP99
0122143030999992000071015004+45500+013620FM-12+000899999V0201801N004010075019N0200001N1+02441+01801100401ADDGF107991071021008001001001MD1410001+9999REMSYN070AAXX  10151 14303 42598 71804 10244 20180 40040 54000 87200 333 92323;
0171143030999992000071018004+45500+013620FM-12+000899999V0201801N005010120019N0200001N1+02341+02001100201ADDAA199000091GF106991061021012501091001KA1999M+02481MD1710201+9999REMSYN076AAXX  10181 14303 32698 61805 10234 20200 40020 57020 86290 333 10248 92323;EQDQ01  00002PRCP99
0197143030999992000071106004+45500+013620FM-12+000899999V0202301N004010120019N0200001N1+02221+01701099701ADDAA102001091GF108991999021012501091001KA1999N+02021MD1710201+9999SA1+2359REMSYN094AAXX  11061 14303 12698 82304 10222 20170 49970 57020 69996 88290 222// 00235 333 20202 92323;EQDQ01+000082SCOTLC
0122143030999992000071109004+45500+013620FM-12+000899999V0202301N005010075019N0200001N1+02361+01801099801ADDGF108991081051008001999999MD1210101+9999REMSYN070AAXX  11091 14303 42598 82305 10236 20180 49980 52010 885// 333 92323;
0168143030999992000071112004+45500+013620FM-12+000899999V0202501N005012200019N0200001N1+02341+01801099801ADDAA199000091GF104991999011017501001061MD1410001+9999REMSYN070AAXX  11121 14303 32798 42505 10234 20180 49980 54000 80106 333 92333;EQDQ01+000002SCOTLCQ02  00002PRCP99
0122143030999992000071115004+45500+013620FM-12+000899999V0202301N005012200019N0200001N1+02421+01601099901ADDGF104991041011008001001001MD1210101+9999REMSYN070AAXX  11151 14303 42598 42305 10242 20160 49990 52010 84100 333 92333;
0187143030999992000071118004+45500+013620FM-12+000899999V0202501N004019999999N0200001N1+02421+01601100001ADDAA199000091GF105991999011017501001061KA1999M+02451MD1210101+9999REMSYN076AAXX  11181 14303 32798 52504 10242 20160 40000 52010 80106 333 10245 92333;EQDQ01+000002SCOTLCQ02  00002PRCP99
0191143030999992000071206004+45500+013620FM-12+000899999V0202701N004010075019N0200001N1+01721+01201100701ADDAA199000091GF108991081021008001999999KA1999N+01651MD1210201+9999SA1+2349REMSYN088AAXX  12061 14303 32598 82704 10172 20120 40070 52020 882// 222// 00234 333 20165 92323;EQDQ01  00002PRCP99
0122143030999992000071209004+45500+013620FM-12+000899999V0202501N002010120019N0200001N1+01961+01401100901ADDGF107991071021012501091001MD1210201+9999REMSYN070AAXX  12091 14303 42698 72502 10196 20140 40090 52020 87290 333 92322;
0168143030999992000071212004+45500+013620FM-12+000899999V0202901N002019999999N0200001N1+02121+01201100901ADDAA199000091GF107991999011017501001061MD1410001+9999REMSYN070AAXX  12121 14303 32798 72902 10212 20120 40090 54000 80106 333 92312;EQDQ01+000002SCOTLCQ02  00002PRCP99
0141143030999992000071215004+45500+013620FM-12+000899999V0203201N003010120019N0200001N1+02141+01201100801ADDGF108991999091012501021001MD1710101+9999REMSYN070AAXX  12151 14303 42698 83203 10214 20120 40080 57010 88920 333 92311;EQDQ01+000082SCOTLC
0187143030999992000071218004+45500+013620FM-12+000899999V0203201N003019999999N0200001N1+02141+01201100901ADDAA199000091GF107991999081008001001001KA1999M+02361MD1210101+9999REMSYN076AAXX  12181 14303 32598 73203 10214 20120 40090 52010 84800 333 10236 92311;EQDQ01+000042SCOTLCQ02  00002PRCP99
0206143030999992000071306004+45500+013620FM-12+000899999V0200501N004010075019N0200001N1+01861+01601101201ADDAA106001091AY191061AY221061GF108991081061008001001001KA1999N+01821MD1210101+9999MW1611SA1+2309REMSYN100AAXX  13061 14303 11598 80504 10186 20160 40120 52010 69991 76192 88600 222// 00230 333 20182 92323;
0122143030999992000071309004+45500+013620FM-12+000899999V0201801N002010075019N0200001N1+02181+01001101301ADDGF107991071041008001041001MD1210101+9999REMSYN070AAXX  13091 14303 42598 71802 10218 20100 40130 52010 87440 333 92311;
0133143030999992000071312004+45500+013620FM-12+000899999V0202301N003010120019N0200001N1+02141+01201101401ADDAA199000021GF106991061021012501091001MD1210101+9999REMSYN070AAXX  13121 14303 32698 62303 10214 20120 40140 52010 86290 333 92311;
0122143030999992000071315004+45500+013620FM-12+000899999V0202701N003012200019N0200001N1+02241+01201101301ADDGF103991031091012501061001MD1710101+9999REMSYN070AAXX  13151 14303 42698 32703 10224 20120 40130 57010 83960 333 92311;
0152143030999992000071318004+45500+013620FM-12+000899999V0200901N003012200019N0200001N1+02141+01401101301ADDAA199000021GF101991011001012501051001KA1999M+02321MD1410001+9999REMSYN076AAXX  13181 14303 32698 10903 10214 20140 40130 54000 81050 333 10232 92311;
0191143030999992000071406004+45500+013620FM-12+000899999V0201101N003012200019N0200001N1+02001+01301100901ADDAA199000091GF103991031001012501051001KA1999N+01741MD1710101+9999SA1+2289REMSYN088AAXX  14061 14303 32698 31103 10200 20130 40090 57010 83050 222// 00228 333 20174 92311;EQDQ01  00002PRCP99
0122143030999992000071409004+45500+013620FM-12+000899999V0201501N004012200019N0200001N1+02201+01501100901ADDGF104991041001008001051001MD1410001+9999REMSYN070AAXX  14091 14303 42598 41504 10220 20150 40090 54000 84050 333 92323;
0152143030999992000071412004+45500+013620FM-12+000899999V0201801N005010075019N0200001N1+02241+01501100701ADDAA199000091GF107991071021008001001001MD1710201+9999REMSYN070AAXX  14121 14303 32598 71805 10224 20150 40070 57020 87200 333 92323;EQDQ01  00002PRCP99
0122143030999992000071415004+45500+013620FM-12+000899999V0201801N004010075019N0200001N1+02221+01501100601ADDGF108991081051008001999999MD1710101+9999REMSYN070AAXX  14151 14303 42598 81804 10222 20150 40060 57010 885// 333 92322;
0171143030999992000071418004+45500+013620FM-12+000899999V0201801N005010075019N0200001N1+02021+01601100401ADDAA199000091GF107991071041008001041001KA1999M+02351MD1710201+9999REMSYN076AAXX  14181 14303 32598 71805 10202 20160 40040 57020 87440 333 10235 92323;EQDQ01  00002PRCP99
0178143030999992000071506004+45500+013620FM-12+000899999V0202701N003010075019N0200001N1+01801+01301100101ADDAA101023191GF106991061041008001071001KA1999N+01551MD1410001+9999SA1+2259REMSYN094AAXX  15061 14303 12598 62703 10180 20130 40010 54000 60235 86470 222// 00225 333 20155 92322;
0152143030999992000071512004+45500+013620FM-12+000899999V0202301N004012200019N0200001N1+02161+01401100201ADDAA199000091GF103991031001012501041061MD1410001+9999REMSYN070AAXX  15121 14303 32698 32304 10216 20140 40020 54000 83046 333 92322;EQDQ01  00002PRCP99
0122143030999992000071515004+45500+013620FM-12+000899999V0203201N006010120019N0200001N1+02161+01401100101ADDGF107991071021012501001001MD1710101+9999REMSYN070AAXX  15151 14303 42698 73206 10216 20140 40010 57010 87200 333 92323;
0171143030999992000071518004+45500+013620FM-12+000899999V0203601N004010075019N0200001N1+01801+01301100301ADDAA199000091GF108991081051008001999999KA1999M+02301MD1210201+9999REMSYN076AAXX  15181 14303 32598 83604 10180 20130 40030 52020 885// 333 10230 92323;EQDQ01  00002PRCP99
0225143030999992000071606004+45500+013620FM-12+000899999V0203601N002010075019N0200001N1+01641+01001100701ADDAA101001091AY151061AY231061GF108991999071008001021999KA1999N+01501MD1210201+9999MW1501SA1+2249REMSYN100AAXX  16061 14303 11598 83602 10164 20100 40070 52020 60015 75053 8872/ 222// 00224 333 20150 92312;EQDQ01+000082SCOTLC
0122143030999992000071609004+45500+013620FM-12+000899999V0203601N002010075019N0200001N1+01801+01301100801ADDGF108991081051008001999999MD1210101+9999REMSYN070AAXX  16091 14303 42598 83602 10180 20130 40080 52010 885// 333 92312;
0152143030999992000071618004+45500+013620FM-12+000899999V0203601N004010075019N0200001N1+01721+01101101201ADDAA199000021GF105991051041008001001001KA1999M+02021MD1210201+9999REMSYN076AAXX  16181 14303 32598 53604 10172 20110 40120 52020 85400 333 10202 92322;
0171143030999992000071619004+45500+013620FM-12+000899999V0203601N004010075019N0200001N1+01721+01101101201ADDAA199000091GF105991051041008001001001KA1999M+02021MD1210201+9999REMSYN076AAXX  16191 14303 32598 53604 10172 20110 40120 52020 85400 333 10202 92322;EQDQ01  00002PRCP99
0188143030999992000071706004+45500+013620FM-12+000899999V0200501N002012200019N0200001N1+01781+01101101501ADDAA112001091GA1001+999999999GF100991001001999999001001KA1999N+01451MD1410001+9999SA1+2209REMSYN088AAXX  17061 14303 12998 00502 10178 20110 40150 54000 60012 222// 00220 333 20145 92311;
0162143030999992000071709004+45500+013620FM-12+000899999V0202701N001012200019N0200001N1+02121+01201101601ADDAA199000091GA1001+999999999GF100991001001999999001001MD1210101+9999REMSYN064AAXX  17091 14303 32998 02701 10212 20120 40160 52010 333 92311;EQDQ01  00002PRCP99
0162143030999992000071712004+45500+013620FM-12+000899999V0202301N002012200019N0200001N1+02141+01301101601ADDAA199000091GA1001+999999999GF100991001001999999001001MD1410001+9999REMSYN064AAXX  17121 14303 32998 02302 10214 20130 40160 54000 333 92311;EQDQ01  00002PRCP99
0132143030999992000071715004+45500+013620FM-12+000899999V0201801N003012200019N0200001N1+02221+01401101601ADDGA1001+999999999GF100991001001999999001001MD1410001+9999REMSYN064AAXX  17151 14303 42998 01803 10222 20140 40160 54000 333 92312;
0151143030999992000071718004+45500+013620FM-12+000899999V0201801N003012200019N0200001N1+02201+01501101601ADDGA1001+999999999GF100991001001999999001001KA1999M+02251MD1410001+9999REMSYN070AAXX  17181 14303 42998 01803 10220 20150 40160 54000 333 10225 92312;
0191143030999992000071806004+45050+013620FM-12+000899999V0200501N002010075019N0200001N1+01981+01401101601ADDAA199000091GF105991051091008001061001KA1999N+01481MD1410001+9999SA1+2209REMSYN088AAXX  18061 14303 32598 50502 10198 20140 40160 54000 85960 222// 00220 333 20148 92322;EQDQ01  00002PRCP99
0122143030999992000071809004+45050+013620FM-12+000899999V0202701N001012200019N0200001N1+02221+01401101601ADDGF104991041081008001041001MD1410001+9999REMSYN070AAXX  18091 14303 42598 42701 10222 20140 40160 54000 84840 333 92312;
0152143030999992000071812004+45050+013620FM-12+000899999V0202701N002012200019N0200001N1+02301+01501101601ADDAA199000091GF103991031091008001061001MD1410001+9999REMSYN070AAXX  18121 14303 32598 32702 10230 20150 40160 54000 83960 333 92312;EQDQ01  00002PRCP99
0132143030999992000071815004+45050+013620FM-12+000899999V0202701N002012200019N0200001N1+02361+01501101501ADDGA1001+999999999GF100991001001999999001001MD1710101+9999REMSYN064AAXX  18151 14303 42998 02702 10236 20150 40150 57010 333 92312;
0181143030999992000071818004+45050+013620FM-12+000899999V0202701N001012200019N0200001N1+02361+01401101501ADDAA199000091GA1001+999999999GF100991001001999999001001KA1999M+02441MD1410001+9999REMSYN070AAXX  18181 14303 32998 02701 10236 20140 40150 54000 333 10244 92311;EQDQ01  00002PRCP99
0201143030999992000071906004+45050+013620FM-12+000899999V0200901N001012200019N0200001N1+02101+01301101501ADDAA199000091GA1001+999999999GF100991001001999999001001KA1999N+01451MD1410001+9999SA1+2209REMSYN082AAXX  19061 14303 32998 00901 10210 20130 40150 54000 222// 00220 333 20145 92311;EQDQ01  00002PRCP99
0122143030999992000071909004+45050+013620FM-12+000899999V0202701N002012200019N0200001N1+02301+01501101501ADDGF104991041081012501041001MD1410001+9999REMSYN070AAXX  19091 14303 42698 42702 10230 20150 40150 54000 84840 333 92311;
0162143030999992000071912004+45050+013620FM-12+000899999V0202701N003012200019N0200001N1+02361+01601101401ADDAA199000091GA1001+999999999GF100991001001999999001001MD1710101+9999REMSYN064AAXX  19121 14303 32998 02703 10236 20160 40140 57010 333 92312;EQDQ01  00002PRCP99
0132143030999992000071915004+45050+013620FM-12+000899999V0202301N002012200019N0200001N1+02501+01401101401ADDGA1001+999999999GF100991001001999999001001MD1410001+9999REMSYN064AAXX  19151 14303 42998 02302 10250 20140 40140 54000 333 92311;
0171143030999992000071918004+45050+013620FM-12+000899999V0203601N001012200019N0200001N1+02441+01401101301ADDAA199000091GF103991031081008001041001KA1999M+02581MD1710101+9999REMSYN076AAXX  19181 14303 32598 33601 10244 20140 40130 57010 83840 333 10258 92311;EQDQ01  00002PRCP99
0191143030999992000072006004+45050+013620FM-12+000899999V0200901N002012200019N0200001N1+02181+01301101401ADDAA199000091GF102991021001012501001041KA1999N+01421MD1210101+9999SA1+2249REMSYN088AAXX  20061 14303 32698 20902 10218 20130 40140 52010 82004 222// 00224 333 20142 92311;EQDQ01  00002PRCP99
0152143030999992000072009004+45050+013620FM-12+000899999V0202701N002012200019N0200001N1+02301+01301101501ADDAA199000091GF103991031001012501001041MD1210101+9999REMSYN070AAXX  20091 14303 32698 32702 10230 20130 40150 52010 83004 333 92311;EQDQ01  00002PRCP99
0152143030999992000072012004+45050+013620FM-12+000899999V0202701N004012200019N0200001N1+02361+01501101501ADDAA199000091GF104991041081008001041001MD1410001+9999REMSYN070AAXX  20121 14303 32598 42704 10236 20150 40150 54000 84840 333 92322;EQDQ01  00002PRCP99
0122143030999992000072015004+45050+013620FM-12+000899999V0202501N002012200019N0200001N1+02341+01501101501ADDGF103991031081008001041001MD1410001+9999REMSYN070AAXX  20151 14303 42598 32502 10234 20150 40150 54000 83840 333 92322;
0181143030999992000072018004+45050+013620FM-12+000899999V0202501N002012200019N0200001N1+02321+01501101501ADDAA199000091GA1001+999999999GF100991001001999999001001KA1999M+02601MD1410001+9999REMSYN070AAXX  20181 14303 32098 02502 10232 20150 40150 54000 333 10260 92322;EQDQ01  00002PRCP99
0177143030999992000072106004+45050+013620FM-12+000899999V0200501N002010075019N0200001N1+01901+01401101801ADDAA102000091GF107991071041008001071001KA1999N+01401MD1210201+9999REMSYN082AAXX  21061 14303 12598 70502 10190 20140 40180 52020 60006 87470 333 20140 92312;EQDQ01  00002PRCP02
0122143030999992000072109004+45050+013620FM-12+000899999V0200501N001010075019N0200001N1+02101+01301101801ADDGF107991071011008001001001MD1410001+9999REMSYN070AAXX  21091 14303 42598 70501 10210 20130 40180 54000 87100 333 92311;
0152143030999992000072112004+45050+013620FM-12+000899999V0202701N003012200019N0200001N1+02281+01301101801ADDAA199000091GF103991031081008001041001MD1410001+9999REMSYN070AAXX  21121 14303 32598 32703 10228 20130 40180 54000 83840 333 92322;EQDQ01  00002PRCP99
0122143030999992000072115004+45050+013620FM-12+000899999V0202701N003012200019N0200001N1+02301+01501101801ADDGF104991041091008001061001MD1410001+9999REMSYN070AAXX  21151 14303 42598 42703 10230 20150 40180 54000 84960 333 92322;
0181143030999992000072118004+45050+013620FM-12+000899999V0202701N002012200019N0200001N1+02301+01501101701ADDAA199000091GA1001+999999999GF100991001001999999001001KA1999M+02551MD1710101+9999REMSYN070AAXX  21181 14303 32998 02702 10230 20150 40170 57010 333 10255 92312;EQDQ01  00002PRCP99
0191143030999992000072206004+45050+013620FM-12+000899999V0200901N001012200019N0200001N1+02141+01401101701ADDAA199000091GF104991041021012501001051KA1999N+01701MD1410001+9999SA1+2259REMSYN088AAXX  22061 14303 32698 40901 10214 20140 40170 54000 84205 222// 00225 333 20170 92311;EQDQ01  00002PRCP99
0122143030999992000072209004+45050+013620FM-12+000899999V0202301N001012200019N0200001N1+02301+01701101701ADDGF104991041021012501001051MD1410001+9999REMSYN070AAXX  22091 14303 42698 42301 10230 20170 40170 54000 84205 333 92311;
0162143030999992000072212004+45050+013620FM-12+000899999V0202301N002012200019N0200001N1+02401+01601101701ADDAA199000091GA1001+999999999GF100991001001999999001001MD1410001+9999REMSYN064AAXX  22121 14303 32998 02302 10240 20160 40170 54000 333 92311;EQDQ01  00002PRCP99
0132143030999992000072215004+45050+013620FM-12+000899999V0209999C000012200019N0200001N1+02601+01701101601ADDGA1001+999999999GF100991001001999999001001MD1710101+9999REMSYN064AAXX  22151 14303 42998 00000 10260 20170 40160 57010 333 92301;
0171143030999992000072218004+45050+013620FM-12+000899999V0203601N001012200019N0200001N1+02401+01601101601ADDAA199000091GF103991031001012501001081KA1999M+02651MD1410001+9999REMSYN076AAXX  22181 14303 32698 33601 10240 20160 40160 54000 83008 333 10265 92301;EQDQ01  00002PRCP99
0201143030999992000072306004+45050+013620FM-12+000899999V0200901N003012200019N0200001N1+02201+01501101501ADDAA199000091GA1001+999999999GF100991001001999999001001KA1999N+01851MD1410001+9999SA1+2289REMSYN082AAXX  23061 14303 32998 00903 10220 20150 40150 54000 222// 00228 333 20185 92312;EQDQ01  00002PRCP99
0132143030999992000072309004+45050+013620FM-12+000899999V0201801N003012200019N0200001N1+02381+01901101501ADDGA1001+999999999GF100991001001999999001001MD1410001+9999REMSYN064AAXX  23091 14303 42998 01803 10238 20190 40150 54000 333 92322;
0162143030999992000072312004+45050+013620FM-12+000899999V0201801N004012200019N0200001N1+02321+01801101601ADDAA199000091GA1001+999999999GF100991001001999999001001MD1210101+9999REMSYN064AAXX  23121 14303 32998 01804 10232 20180 40160 52010 333 92322;EQDQ01  00002PRCP99
0122143030999992000072315004+45050+013620FM-12+000899999V0201801N002010075019N0200001N1+02421+02101101601ADDGF105991051091008001061001MD1410001+9999REMSYN070AAXX  23151 14303 42598 51802 10242 20210 40160 54000 85960 333 92322;
0171143030999992000072318004+45050+013620FM-12+000899999V0201801N003010075019N0200001N1+02361+02101101501ADDAA199000091GF106991061091008001061001KA1999M+02621MD1710101+9999REMSYN076AAXX  23181 14303 32598 61803 10236 20210 40150 57010 86960 333 10262 92322;EQDQ01  00002PRCP99
0191143030999992000072406004+45050+013620FM-12+000899999V0201801N002010075019N0200001N1+02301+02001101401ADDAA199000091GF107991071041008001041001KA1999N+01951MD1410001+9999SA1+2269REMSYN088AAXX  24061 14303 32598 71802 10230 20200 40140 54000 87440 222// 00226 333 20195 92322;EQDQ01  00002PRCP99
0122143030999992000072409004+45050+013620FM-12+000899999V0201401N002010075019N0200001N1+02301+02001101301ADDGF107991071021008001001001MD1710101+9999REMSYN070AAXX  24091 14303 42598 71402 10230 20200 40130 57010 87200 333 92322;
0168143030999992000072412004+45050+013620FM-12+000899999V0201801N003010075019N0200001N1+02301+02001101301ADDAA199000091GF108991999041008001041001MD1410001+9999REMSYN070AAXX  24121 14303 32598 81803 10230 20200 40130 54000 88440 333 92322;EQDQ01+000082SCOTLCQ02  00002PRCP99
0122143030999992000072415004+45050+013620FM-12+000899999V0201801N003010075019N0200001N1+02421+02101101201ADDGF106991061041008001071001MD1710101+9999REMSYN070AAXX  24151 14303 42598 61803 10242 20210 40120 57010 86470 333 92322;
0171143030999992000072418004+45050+013620FM-12+000899999V0201401N004010075019N0200001N1+02581+01901101001ADDAA199000091GF107991071041008001041001KA1999M+02551MD1710201+9999REMSYN076AAXX  24181 14303 32598 71404 10258 20190 40100 57020 87440 333 10255 92323;EQDQ01  00002PRCP99
0201143030999992000072506004+45050+013620FM-12+000899999V0202301N005012200019N0200001N1+02401+01901100801ADDAA199000091GA1001+999999999GF100991001001999999001001KA1999N+02001MD1410001+9999SA1+2309REMSYN082AAXX  25061 14303 32998 02305 10240 20190 40080 54000 222// 00230 333 20200 92323;EQDQ01  00002PRCP99
0122143030999992000072509004+45050+013620FM-12+000899999V0202301N004010075019N0200001N1+02421+02101100901ADDGF107991071091008001061001MD1210101+9999REMSYN070AAXX  25091 14303 42598 72304 10242 20210 40090 52010 87960 333 92323;
0152143030999992000072512004+45050+013620FM-12+000899999V0202001N002010120019N0200001N1+02541+02201101001ADDAA199000091GF105991051081008001041001MD1210101+9999REMSYN070AAXX  25121 14303 32598 52002 10254 20220 40100 52010 85840 333 92322;EQDQ01  00002PRCP99
0132143030999992000072515004+45050+013620FM-12+000899999V0201801N002012200019N0200001N1+02601+02101101001ADDGA1001+999999999GF100991001001999999001001MD1410001+9999REMSYN064AAXX  25151 14303 42998 01802 10260 20210 40100 54000 333 92322;
0181143030999992000072518004+45050+013620FM-12+000899999V0201801N003012200019N0200001N1+02461+02201101001ADDAA199000091GA1001+999999999GF100991001001999999001001KA1999M+02651MD1410001+9999REMSYN070AAXX  25181 14303 32998 01803 10246 20220 40100 54000 333 10265 92322;EQDQ01  00002PRCP99
0201143030999992000072606004+45050+013620FM-12+000899999V0202301N003012200019N0200001N1+02381+02101100901ADDAA199000091GA1001+999999999GF100991001001999999001001KA1999N+02251MD1410001+9999SA1+2359REMSYN082AAXX  26061 14303 32998 02303 10238 20210 40090 54000 222// 00235 333 20225 92312;EQDQ01  00002PRCP99
0132143030999992000072609004+45050+013620FM-12+000899999V0202301N002012200019N0200001N1+02501+02001101001ADDGA1001+999999999GF100991001001999999001001MD1210101+9999REMSYN064AAXX  26091 14303 42998 02302 10250 20200 40100 52010 333 92312;
0132143030999992000072615004+45050+013620FM-12+000899999V0201801N003012200019N0200001N1+02581+02001101001ADDGA1001+999999999GF100991001001999999001001MD1410001+9999REMSYN064AAXX  26151 14303 42998 01803 10258 20200 40100 54000 333 92322;
0181143030999992000072618004+45050+013620FM-12+000899999V0201801N003012200019N0200001N1+02481+02201101001ADDAA199000091GA1001+999999999GF100991001001999999001001KA1999M+02681MD1410001+9999REMSYN070AAXX  26181 14303 32998 01803 10248 20220 40100 54000 333 10268 92322;EQDQ01  00002PRCP99
0201143030999992000072706004+45050+013620FM-12+000899999V0201401N002012200019N0200001N1+02341+01801101301ADDAA199000091GA1001+999999999GF100991001001999999001001KA1999N+02101MD1210101+9999SA1+2369REMSYN082AAXX  27061 14303 32998 01402 10234 20180 40130 52010 222// 00236 333 20210 92312;EQDQ01  00002PRCP99
0132143030999992000072709004+45050+013620FM-12+000899999V0202301N003012200019N0200001N1+02501+02001101401ADDGA1001+999999999GF100991001001999999001001MD1210101+9999REMSYN064AAXX  27091 14303 42998 02303 10250 20200 40140 52010 333 92312;
0162143030999992000072712004+45050+013620FM-12+000899999V0202301N004012200019N0200001N1+02501+02201101401ADDAA199000091GA1001+999999999GF100991001001999999001001MD1410001+9999REMSYN064AAXX  27121 14303 32998 02304 10250 20220 40140 54000 333 92322;EQDQ01  00002PRCP99
0132143030999992000072715004+45050+013620FM-12+000899999V0202501N002012200019N0200001N1+02641+02101101401ADDGA1001+999999999GF100991001001999999001001MD1410001+9999REMSYN064AAXX  27151 14303 42998 02502 10264 20210 40140 54000 333 92312;
0181143030999992000072718004+45050+013620FM-12+000899999V0202701N001012200019N0200001N1+02541+02201101301ADDAA199000091GA1001+999999999GF100991001001999999001001KA1999M+02651MD1710101+9999REMSYN070AAXX  27181 14303 32998 02701 10254 20220 40130 57010 333 10265 92311;EQDQ01  00002PRCP99
0201143030999992000072806004+45050+013620FM-12+000899999V0203601N001012200019N0200001N1+02341+02001101001ADDAA199000091GA1001+999999999GF100991001001999999001001KA1999N+02051MD1710101+9999SA1+2369REMSYN082AAXX  28061 14303 32998 03601 10234 20200 40100 57010 222// 00236 333 20205 92301;EQDQ01  00002PRCP99
0122143030999992000072809004+45050+013620FM-12+000899999V0202301N002012200019N0200001N1+02481+02001101001ADDGF102991021001012501001041MD1410001+9999REMSYN070AAXX  28091 14303 42698 22302 10248 20200 40100 54000 82004 333 92311;
0168143030999992000072812004+45050+013620FM-12+000899999V0202301N002012200019N0200001N1+02501+02101100901ADDAA199000091GF104991999091008001061001MD1710101+9999REMSYN070AAXX  28121 14303 32598 42302 10250 20210 40090 57010 87960 333 92311;EQDQ01+000072SCOTLCQ02  00002PRCP99
0122143030999992000072815004+45050+013620FM-12+000899999V0203401N007010075019N0200001N1+02041+01601100901ADDGF107991071041008001041001MD1410001+9999REMSYN070AAXX  28151 14303 42598 73407 10204 20160 40090 54000 87440 333 92334;
0215143030999992000072818004+45050+013620FM-12+000899999V0200901N003010075019N0200001N1+02301+01701100801ADDAA199000091AY111061AY281061GF108991999071008001021999KA1999M+02521MD1710101+9999MW1171REMSYN082AAXX  28181 14303 31598 80903 10230 20170 40080 57010 71718 8872/ 333 10252 92323;EQDQ01+000082SCOTLCQ02  00002PRCP99
0207143030999992000072906004+45050+013620FM-12+000899999V0203601N002012200019N0200001N1+02181+01401101201ADDAA109000091GA1001+999999999GF100991001001999999001001KA1999N+01851MD1210201+9999SA1+2369REMSYN088AAXX  29061 14303 12998 03602 10218 20140 40120 52020 60008 222// 00236 333 20185 92312;EQDQ01  00002PRCP09
0122143030999992000072909004+45050+013620FM-12+000899999V0203201N003012200019N0200001N1+02341+01301101301ADDGF101991011011008001001001MD1210101+9999REMSYN070AAXX  29091 14303 42598 13203 10234 20130 40130 52010 81100 333 92312;
0152143030999992000072912004+45050+013620FM-12+000899999V0203201N004012200019N0200001N1+02401+01601101301ADDAA199000091GF101991011011008001001001MD1410001+9999REMSYN070AAXX  29121 14303 32598 13204 10240 20160 40130 54002 81100 333 92312;EQDQ01  00002PRCP99
0122143030999992000072915004+45050+013620FM-12+000899999V0202901N002012200019N0200001N1+02461+01601101301ADDGF101991011011008001001001MD1410001+9999REMSYN070AAXX  29151 14303 42598 12902 10246 20160 40130 54000 81100 333 92311;
0171143030999992000072918004+45050+013620FM-12+000899999V0203601N002012200019N0200001N1+02441+01601101201ADDAA199000091GF102991021001012501071001KA1999M+02481MD1710101+9999REMSYN076AAXX  29181 14303 32698 23602 10244 20160 40120 57010 82070 333 10248 92311;EQDQ01  00002PRCP99
0206143030999992000073006004+45050+013620FM-12+000899999V0200501N003010120019N0200001N1+01961+01401101401ADDAA103002091AY191061AY221061GF107991071021012501091001KA1999N+01901MD1210101+9999MW1291SA1+2309REMSYN100AAXX  30061 14303 11698 70503 10196 20140 40140 52010 60027 72992 87290 222// 00230 333 20190 92312;
0122143030999992000073009004+45050+013620FM-12+000899999V0200901N001012200019N0200001N1+02601+01301101601ADDGF102991021081012501041001MD1210201+9999REMSYN070AAXX  30091 14303 42698 20901 10260 20130 40160 52020 82840 333 92311;
0152143030999992000073012004+45050+013620FM-12+000899999V0202701N003012200019N0200001N1+02421+01601101701ADDAA199000091GF102991021041008001041001MD1210101+9999REMSYN070AAXX  30121 14303 32598 22703 10242 20160 40170 52010 82440 333 92311;EQDQ01  00002PRCP99
0122143030999992000073015004+45050+013620FM-12+000899999V0202701N003012200019N0200001N1+02481+01701101701ADDGF104991041041008001041001MD1410001+9999REMSYN070AAXX  30151 14303 42598 42703 10248 20170 40170 54000 84440 333 92312;
0171143030999992000073018004+45050+013620FM-12+000899999V0202501N003012200019N0200001N1+02441+01801101801ADDAA199000091GF101991011081012501041001KA1999M+02621MD1210101+9999REMSYN076AAXX  30181 14303 32698 12503 10244 20180 40180 52010 81840 333 10262 92312;EQDQ01  00002PRCP99
0191143030999992000073106004+45050+013620FM-12+000899999V0200901N002012200019N0200001N1+02181+01201102101ADDAA199000091GF101991011001012501041061KA1999N+01941MD1210101+9999SA1+2329REMSYN088AAXX  31061 14303 32698 10902 10218 20120 40210 52010 81046 222// 00232 333 20194 92301;EQDQ01  00002PRCP99
0122143030999992000073109004+45050+013620FM-12+000899999V0203201N003012200019N0200001N1+02341+01501102201ADDGF101991011011008001001001MD1210101+9999REMSYN070AAXX  31091 14303 42598 13203 10234 20150 40220 52010 81100 333 92311;
0152143030999992000073112004+45050+013620FM-12+000899999V0203201N004012200019N0200001N1+02401+01601102201ADDAA199000091GF103991031031008001041001MD1410001+9999REMSYN070AAXX  31121 14303 32598 33204 10240 20160 40220 54000 83340 333 92312;EQDQ01  00002PRCP99
0122143030999992000073115004+45050+013620FM-12+000899999V0203201N003012200019N0200001N1+02441+01601102101ADDGF101991011041008001041001MD1710101+9999REMSYN070AAXX  31151 14303 42598 13203 10244 20160 40210 57010 81440 333 92312;
0132143030999992000080109004+45050+013620FM-12+000899999V0202301N002012200019N0200001N1+02461+01601102301ADDGA1001+999999999GF100991001001999999001001MD1410001+9999REMSYN064AAXX  01091 14303 42998 02302 10246 20160 40230 54000 333 92301;
0132143030999992000080112004+45050+013620FM-12+000899999V0202701N002012200019N0200001N1+02561+01701102201ADDGA1001+999999999GF100991001001999999001001MD1710101+9999REMSYN064AAXX  01121 14303 42998 02702 10256 20170 40220 57010 333 92301;
0132143030999992000080115004+45050+013620FM-12+000899999V0202701N002012200019N0200001N1+02661+01801102101ADDGA1001+999999999GF100991001001999999001001MD1710101+9999REMSYN064AAXX  01151 14303 42998 02702 10266 20180 40210 57010 333 92301;
0181143030999992000080118004+45050+013620FM-12+000899999V0203601N001012200019N0200001N1+02621+01801102001ADDAA199000091GA1001+999999999GF100991001001999999001001KA1999M+02681MD1710101+9999REMSYN070AAXX  01181 14303 32998 03601 10262 20180 40200 57010 333 10268 92301;EQDQ01  00002PRCP99
0191143030999992000080206004+45050+013620FM-12+000899999V0200901N001012200019N0200001N1+02341+01601102001ADDAA199000091GF101991011001012501081001KA1999N+02051MD1410001+9999SA1+2359REMSYN088AAXX  02061 14303 32698 10901 10234 20160 40200 54000 81080 222// 00235 333 20205 92301;EQDQ01  00002PRCP99
0132143030999992000080209004+45050+013620FM-12+000899999V0203201N001012200019N0200001N1+02461+01901102001ADDGA1001+999999999GF100991001001999999001001MD1410001+9999REMSYN064AAXX  02091 14303 42998 03201 10246 20190 40200 54000 333 92301;
0162143030999992000080212004+45050+013620FM-12+000899999V0202701N003012200019N0200001N1+02581+01901102001ADDAA199000091GA1001+999999999GF100991001001999999001001MD1410001+9999REMSYN064AAXX  02121 14303 32998 02703 10258 20190 40200 54000 333 92311;EQDQ01  00002PRCP99
0132143030999992000080215004+45050+013620FM-12+000899999V0201801N002012200019N0200001N1+02701+01801101801ADDGA1001+999999999GF100991001001999999001001MD1710201+9999REMSYN064AAXX  02151 14303 42998 01802 10270 20180 40180 57020 333 92301;
0181143030999992000080218004+45050+013620FM-12+000899999V0202001N002012200019N0200001N1+02541+01901101701ADDAA199000091GA1001+999999999GF100991001001999999001001KA1999M+02761MD1710101+9999REMSYN070AAXX  02181 14303 32998 02002 10254 20190 40170 57010 333 10276 92301;EQDQ01  00002PRCP99
0201143030999992000080306004+45050+013620FM-12+000899999V0201401N003012200019N0200001N1+02341+01501101801ADDAA199000091GA1001+999999999GF100991001001999999001001KA1999N+02151MD1210101+9999SA1+2329REMSYN082AAXX  03061 14303 32998 01403 10234 20150 40180 52010 222// 00232 333 20215 92312;EQDQ01  00002PRCP99
0141143030999992000080309004+45050+013620FM-12+000899999V0201601N003012200019N0200001N1+02541+02201101801ADDGF102991001001999999001071MD1410001+9999REMSYN070AAXX  03091 14303 42898 21603 10254 20220 40180 54000 80007 333 92312;EQDQ01+022502SCOLCB
0152143030999992000080312004+45050+013620FM-12+000899999V0201801N003012200019N0100001N1+02521+02201101701ADDAA199000091GF101991011011008001001001MD1710101+9999REMSYN070AAXX  03121 14303 32597 11803 10252 20220 40170 57010 81100 333 92312;EQDQ01  00002PRCP99
0122143030999992000080315004+45050+013620FM-12+000899999V0201801N004012200019N0100001N1+02521+02201101501ADDGF103991031001012501041061MD1710201+9999REMSYN070AAXX  03151 14303 42697 31804 10252 20220 40150 57020 83046 333 92322;
0171143030999992000080318004+45050+013620FM-12+000899999V0201801N003012200019N0200001N1+02501+02001101501ADDAA199000091GF102991021001012501081001KA1999M+02561MD1410001+9999REMSYN076AAXX  03181 14303 32698 21803 10250 20200 40150 54000 82080 333 10256 92312;EQDQ01  00002PRCP99
0207143030999992000080406004+45050+013620FM-12+000899999V0201401N003010120019N0200001N1+02381+01901101501ADDAA199000091GF108991999041012501041001KA1999N+02281MD1210101+9999SA1+2359REMSYN088AAXX  04061 14303 32698 81403 10238 20190 40150 52010 88440 222// 00235 333 20228 92312;EQDQ01+000082SCOTLCQ02  00002PRCP99
0122143030999992000080409004+45050+013620FM-12+000899999V0200501N001010120019N0100001N1+02641+02301101701ADDGF106991061081008001001001MD1210201+9999REMSYN070AAXX  04091 14303 42597 60501 10264 20230 40170 52020 86800 333 92311;
0152143030999992000080412004+45050+013620FM-12+000899999V0203601N003010075019N0200001N1+02701+01501101501ADDAA199000091GF108991081051008001999999MD1710201+9999REMSYN070AAXX  04121 14303 32598 83603 10270 20150 40150 57020 885// 333 92311;EQDQ01  00002PRCP99
0141143030999992000080415004+45050+013620FM-12+000899999V0203601N005010120019N0200001N1+02421+01801101601ADDGF108991999041012501071001MD1210101+9999REMSYN070AAXX  04151 14303 42698 83605 10242 20180 40160 52010 88470 333 92323;EQDQ01+000082SCOTLC
0187143030999992000080418004+45050+013620FM-12+000899999V0203601N004010120019N0200001N1+02321+01601101601ADDAA199000091GF108991999041012501071001KA1999M+02701MD1410001+9999REMSYN076AAXX  04181 14303 32698 83604 10232 20160 40160 54000 88470 333 10270 92323;EQDQ01+000082SCOTLCQ02  00002PRCP99
0206143030999992000080506004+45050+013620FM-12+000899999V0200701N003010075019N0200001N1+02181+01701101301ADDAA100000191AY161061AY221061GF108991081061008001999999KA1999N+02151MD1410001+9999MW1601SA1+2329REMSYN100AAXX  05061 14303 11598 80703 10218 20170 40130 54000 69920 76062 886// 222// 00232 333 20215 92311;
0141143030999992000080509004+45050+013620FM-12+000899999V0202901N002010120019N0200001N1+02461+01901101401ADDGF108991999041012501071001MD1210101+9999REMSYN070AAXX  05091 14303 42698 82902 10246 20190 40140 52010 88470 333 92311;EQDQ01+000082SCOTLC
0133143030999992000080512004+45050+013620FM-12+000899999V0203401N002010075019N0200001N1+02441+01901101301ADDAA199000021GF108991081051008001999999MD1710101+9999REMSYN070AAXX  05121 14303 32598 83402 10244 20190 40130 57010 885// 333 92311;
0141143030999992000080515004+45050+013620FM-12+000899999V0201401N003010120019N0200001N1+02501+01701101201ADDGF108991999041012501071001MD1710101+9999REMSYN070AAXX  05151 14303 42698 81403 10250 20170 40120 57010 88470 333 92312;EQDQ01+000082SCOTLC
0152143030999992000080518004+45050+013620FM-12+000899999V0200901N004010120019N0200001N1+02421+01801101101ADDAA199000021GF108991081081008001001001KA1999M+02521MD1710101+9999REMSYN076AAXX  05181 14303 32598 80904 10242 20180 40110 57010 88800 333 10252 92322;
0178143030999992000080606004+45050+013620FM-12+000899999V0202901N003012200019N0200001N1+02101+01601101401ADDAA112002091GF101991011011008001001001KA1999N+01851MD1410001+9999SA1+2309REMSYN094AAXX  06061 14303 12598 12903 10210 20160 40140 54000 60022 81100 222// 00230 333 20185 92312;
0122143030999992000080609004+45050+013620FM-12+000899999V0202701N003012200019N0200001N1+02161+01601101501ADDGF102991021021008001001011MD1210101+9999REMSYN070AAXX  06091 14303 42598 22703 10216 20160 40150 52010 82201 333 92312;
0152143030999992000080612004+45050+013620FM-12+000899999V0202701N003010075019N0200001N1+02241+01701101601ADDAA199000091GF108991081021008001001001MD1210101+9999REMSYN070AAXX  06121 14303 32598 82703 10224 20170 40160 52010 88200 333 92312;EQDQ01  00002PRCP99
0122143030999992000080615004+45050+013620FM-12+000899999V0202901N003012200019N0200001N1+02261+01701101501ADDGF102991021001012501041061MD1710101+9999REMSYN070AAXX  06151 14303 42698 22903 10226 20170 40150 57010 82046 333 92312;
0171143030999992000080618004+45050+013620FM-12+000899999V0203201N002010120019N0200001N1+02201+01501101501ADDAA199000091GF106991061041012501071001KA1999M+02301MD1410001+9999REMSYN076AAXX  06181 14303 32698 63202 10220 20150 40150 54000 86470 333 10230 92311;EQDQ01  00002PRCP99
0178143030999992000080706004+45050+013620FM-12+000899999V0200501N002012200019N0200001N1+02061+01801101601ADDAA100000191GF102991021031008001041001KA1999N+01851MD1210101+9999SA1+2309REMSYN094AAXX  07061 14303 12598 20502 10206 20180 40160 52010 69920 82340 222// 00230 333 20185 92301;
0132143030999992000080709004+45050+013620FM-12+000899999V0202901N003012200019N0200001N1+02221+01701101601ADDGA1001+999999999GF100991001001999999001001MD1410001+9999REMSYN064AAXX  07091 14303 42998 02903 10222 20170 40160 54000 333 92312;
0152143030999992000080712004+45050+013620FM-12+000899999V0203201N005010075019N0200001N1+02341+01801101501ADDAA199000091GF105991051041008001041001MD1710101+9999REMSYN070AAXX  07121 14303 32598 53205 10234 20180 40150 57010 85440 333 92323;EQDQ01  00002PRCP99
0150143030999992000080715004+45050+013620FM-12+000899999V0203201N002010075019N0200001N1+02221+01601101501ADDAY111031AY211031GF107991071041008001041001MD1410001+9999MW1291REMSYN076AAXX  07151 14303 41598 73202 10222 20160 40150 54000 72911 87440 333 92323;
0158143030999992000080718004+45050+013620FM-12+000899999V0203201N003019999999N0200001N1+02421+01901101501ADDAA112001091GF106991061001012501041061KA1999M+02481MD1410001+9999REMSYN082AAXX  07181 14303 12698 63203 10242 20190 40150 54000 60012 86046 333 10248 92312;
0191143030999992000080806004+45050+013620FM-12+000899999V0200501N001012200019N0200001N1+02241+01201101801ADDAA199000091GF103991031001012501081001KA1999N+01951MD1210101+9999SA1+2329REMSYN088AAXX  08061 14303 32698 30501 10224 20120 40180 52010 83080 222// 00232 333 20195 92301;EQDQ01  00002PRCP99
0122143030999992000080809004+45050+013620FM-12+000899999V0202901N003010120019N0200001N1+02381+01501101801ADDGF106991061041012501071001MD1410001+9999REMSYN070AAXX  08091 14303 42698 62903 10238 20150 40180 54002 86470 333 92311;
0152143030999992000080812004+45050+013620FM-12+000899999V0203201N003012200019N0200001N1+02521+01701101801ADDAA199000091GF101991011041008001041001MD1410001+9999REMSYN070AAXX  08121 14303 32598 13203 10252 20170 40180 54000 81440 333 92312;EQDQ01  00002PRCP99
0122143030999992000080815004+45050+013620FM-12+000899999V0203201N003012200019N0200001N1+02521+01901101701ADDGF102991021091012501061001MD1710101+9999REMSYN070AAXX  08151 14303 42698 23203 10252 20190 40170 57010 82960 333 92312;
0187143030999992000080818004+45050+013620FM-12+000899999V0203201N002012200019N0200001N1+02461+01801101701ADDAA199000091GF102991001001999999001011KA1999M+02601MD1410001+9999REMSYN076AAXX  08181 14303 32898 23202 10246 20180 40170 54000 80001 333 10260 92311;EQDQ01+022502SCOLCBQ02  00002PRCP99
0191143030999992000080906004+45050+013620FM-12+000899999V0203601N002010120019N0200001N1+02241+01701101801ADDAA199000091GF107991071021012501071001KA1999N+02051MD1410001+9999SA1+2329REMSYN088AAXX  09061 14303 32698 73602 10224 20170 40180 54000 87270 222// 00232 333 20205 92301;EQDQ01  00002PRCP99
0141143030999992000080909004+45050+013620FM-12+000899999V0203201N003010120019N0200001N1+02421+01901101801ADDGF108991999021012501091001MD1410001+9999REMSYN070AAXX  09091 14303 42698 83203 10242 20190 40180 54000 88290 333 92312;EQDQ01+000082SCOTLC
0168143030999992000080912004+45050+013620FM-12+000899999V0203201N004010120019N0200001N1+02481+01901101801ADDAA199000091GF108991999021012501091001MD1410001+9999REMSYN070AAXX  09121 14303 32698 83204 10248 20190 40180 54000 88290 333 92323;EQDQ01+000082SCOTLCQ02  00002PRCP99
0122143030999992000080915004+45050+013620FM-12+000899999V0203201N003010360019N0200001N1+02561+01801101701ADDGF107991021091012501061001MD1710101+9999REMSYN070AAXX  09151 14303 42698 73203 10256 20180 40170 57010 82960 333 92322;
0171143030999992000080918004+45050+013620FM-12+000899999V0203601N003010360019N0200001N1+02461+01901101701ADDAA199000091GF105991031091012501061001KA1999M+02581MD1410001+9999REMSYN076AAXX  09181 14303 32698 53603 10246 20190 40170 54000 83960 333 10258 92322;EQDQ01  00002PRCP99
0182143030999992000081006004+45050+013620FM-12+000899999V0200501N001012200019N0200001N1+02421+01401101701ADDAA199000091GA1001+999999999GF100991001001999999001001MD1410001+9999SA1+2329REMSYN076AAXX  10061 14303 32998 00501 10242 20140 40170 54000 222// 00232 333 92301;EQDQ01  00002PRCP99
0122143030999992000081009004+45050+013620FM-12+000899999V0202901N003012200019N0200001N1+02481+01901101701ADDGF101991011011008001001001MD1410001+9999REMSYN070AAXX  10091 14303 42598 12903 10248 20190 40170 54000 81100 333 92311;
0152143030999992000081012004+45050+013620FM-12+000899999V0203201N004012200019N0200001N1+02581+01801101701ADDAA199000091GF101991011021008001001001MD1410001+9999REMSYN070AAXX  10121 14303 32598 13204 10258 20180 40170 54000 81200 333 92312;EQDQ01  00002PRCP99
0132143030999992000081015004+45050+013620FM-12+000899999V0203201N003012200019N0200001N1+02561+02001101601ADDGA1001+999999999GF100991001001999999001001MD1710101+9999REMSYN064AAXX  10151 14303 42998 03203 10256 20200 40160 57010 333 92312;
0181143030999992000081018004+45050+013620FM-12+000899999V0203201N002012200019N0200001N1+02501+02101101601ADDAA199000091GA1001+999999999GF100991001001999999001001KA1999M+02651MD1410001+9999REMSYN070AAXX  10181 14303 32998 03202 10250 20210 40160 54000 333 10265 92301;EQDQ01  00002PRCP99
0191143030999992000081106004+45050+013620FM-12+000899999V0203601N001012200019N0200001N1+02361+01601101501ADDAA199000091GF101991011001012501041061KA1999N+02201MD1210101+9999SA1+2349REMSYN088AAXX  11061 14303 32698 13601 10236 20160 40150 52010 81046 222// 00234 333 20220 92301;EQDQ01  00002PRCP99
0152143030999992000081112004+45050+013620FM-12+000899999V0203201N003012200019N0200001N1+02541+02001101401ADDAA199000091GF106991021021008001001011MD1710101+9999REMSYN070AAXX  11121 14303 32598 63203 10254 20200 40140 57010 82201 333 92312;EQDQ01  00002PRCP99
0122143030999992000081115004+45050+013620FM-12+000899999V0203201N002010120019N0200001N1+02601+02101101301ADDGF107991071021012501091001MD1710101+9999REMSYN070AAXX  11151 14303 42698 73202 10260 20210 40130 57010 87290 333 92312;
0171143030999992000081118004+45050+013620FM-12+000899999V0203601N002012200019N0200001N1+02501+02101101201ADDAA199000091GF102991021021012501091001KA1999M+02681MD1710101+9999REMSYN076AAXX  11181 14303 32698 23602 10250 20210 40120 57010 82290 333 10268 92311;EQDQ01  00002PRCP99
0201143030999992000081206004+45050+013620FM-12+000899999V0203601N001012200019N0100001N1+02361+01901101201ADDAA199000091GA1001+999999999GF100991001001999999001001KA1999N+02151MD1410001+9999SA1+2359REMSYN082AAXX  12061 14303 32997 03601 10236 20190 40120 54000 222// 00235 333 20215 92301;EQDQ01  00002PRCP99
0132143030999992000081209004+45050+013620FM-12+000899999V0203201N003012200019N0100001N1+02501+02201101301ADDGA1001+999999999GF100991001001999999001001MD1210101+9999REMSYN064AAXX  12091 14303 42997 03203 10250 20220 40130 52010 333 92311;
0152143030999992000081212004+45050+013620FM-12+000899999V0203201N003012200019N0100001N1+02621+02201101301ADDAA199000091GF101991011021008001001011MD1410001+9999REMSYN070AAXX  12121 14303 32597 13203 10262 20220 40130 54000 81201 333 92311;EQDQ01  00002PRCP99
0122143030999992000081215004+45050+013620FM-12+000899999V0203601N002012200019N0200001N1+02721+02201101201ADDGF101991011091012501061001MD1710101+9999REMSYN070AAXX  12151 14303 42698 13602 10272 20220 40120 57010 81960 333 92311;
0171143030999992000081218004+45050+013620FM-12+000899999V0203601N003010150019N0200001N1+02581+02301101201ADDAA199000091GF106991061081012501041001KA1999M+02741MD1410001+9999REMSYN076AAXX  12181 14303 32698 63603 10258 20230 40120 54000 86840 333 10274 92311;EQDQ01  00002PRCP99
0207143030999992000081306004+45050+013620FM-12+000899999V0203601N001019999999N0100001N1+02461+02001101401ADDAA199000091GF105991001001999999001091KA1999N+02251MD1210101+9999SA1+2359REMSYN088AAXX  13061 14303 32897 53601 10246 20200 40140 52010 80009 222// 00235 333 20225 92322;EQDQ01+022502SCOLCBQ02  00002PRCP99
0141143030999992000081309004+45050+013620FM-12+000899999V0203201N003012200019N0100001N1+02521+02201101601ADDGF103991001001999999001091MD1210201+9999REMSYN070AAXX  13091 14303 42897 33203 10252 20220 40160 52020 80009 333 92312;EQDQ01+022502SCOLCB
0152143030999992000081312004+45050+013620FM-12+000899999V0203201N004012200019N0200001N1+02641+02101101601ADDAA199000091GF101991011041008001001001MD1410001+9999REMSYN070AAXX  13121 14303 32598 13204 10264 20210 40160 54000 81400 333 92323;EQDQ01  00002PRCP99
0122143030999992000081315004+45050+013620FM-12+000899999V0203201N003012200019N0200001N1+02681+02101101501ADDGF104991011021008001001011MD1710101+9999REMSYN070AAXX  13151 14303 42598 43203 10268 20210 40150 57010 81201 333 92312;
0171143030999992000081318004+45050+013620FM-12+000899999V0203201N002010150019N0200001N1+02541+02201101601ADDAA199000091GF107991071081012501041001KA1999M+02701MD1210101+9999REMSYN076AAXX  13181 14303 32698 73202 10254 20220 40160 52010 87840 333 10270 92311;EQDQ01  00002PRCP99
0191143030999992000081406004+45050+013620FM-12+000899999V0203601N002012200019N0200001N1+02401+01901101701ADDAA199000091GF102991021021012501091001KA1999N+02261MD1210101+9999SA1+2389REMSYN088AAXX  14061 14303 32698 23602 10240 20190 40170 52010 82290 222// 00238 333 20226 92301;EQDQ01  00002PRCP99
0141143030999992000081409004+45050+013620FM-12+000899999V0202701N003012200019N0200001N1+02541+02201101701ADDGF102991001001999999001041MD1410001+9999REMSYN070AAXX  14091 14303 42698 22703 10254 20220 40170 54000 80004 333 92311;EQDQ01+012502SCOLCB
0122143030999992000081415004+45050+013620FM-12+000899999V0202701N002012200019N0200001N1+02701+02201101701ADDGF102991021081008001041001MD1410001+9999REMSYN070AAXX  14151 14303 42598 22702 10270 20220 40170 54000 82840 333 92311;
0171143030999992000081418004+45050+013620FM-12+000899999V0202701N002012200019N0200001N1+02401+02201101601ADDAA199000091GF102991021001012501001041KA1999M+02751MD1710101+9999REMSYN076AAXX  14181 14303 32698 22702 10240 20220 40160 57010 82004 333 10275 92311;EQDQ01  00002PRCP99
0201143030999992000081506004+45050+013620FM-12+000899999V0203201N001012200019N0200001N1+02461+01901101701ADDAA199000091GA1001+999999999GF100991001001999999001001KA1999N+02251MD1410001+9999SA1+2409REMSYN082AAXX  15061 14303 32998 03201 10246 20190 40170 54000 222// 00240 333 20225 92311;EQDQ01  00002PRCP99
0152143030999992000081512004+45050+013620FM-12+000899999V0202701N001012200019N0200001N1+02961+02201101701ADDAA199000091GF103991031091008001061001MD1410001+9999REMSYN070AAXX  15121 14303 32598 32701 10296 20220 40170 54000 83960 333 92312;EQDQ01  00002PRCP99
0181143030999992000081518004+45050+013620FM-12+000899999V0209999C000012200019N0200001N1+02641+02201101601ADDAA199000091GA1001+999999999GF100991001001999999001001KA1999M+03021MD1410001+9999REMSYN070AAXX  15181 14303 32998 00000 10264 20220 40160 54000 333 10302 92311;EQDQ01  00002PRCP99
0201143030999992000081606004+45050+013620FM-12+000899999V0203601N001012200019N0200001N1+02481+01901101601ADDAA199000091GA1001+999999999GF100991001001999999001001KA1999N+02241MD1410001+9999SA1+2409REMSYN082AAXX  16061 14303 32998 03601 10248 20190 40160 54000 222// 00240 333 20224 92301;EQDQ01  00002PRCP99
0132143030999992000081609004+45050+013620FM-12+000899999V0202701N003012200019N0200001N1+02661+02101101601ADDGA1001+999999999GF100991001001999999001001MD1410001+9999REMSYN064AAXX  16091 14303 42998 02703 10266 20210 40160 54000 333 92312;
0162143030999992000081612004+45050+013620FM-12+000899999V0202701N002012200019N0200001N1+02701+02101101601ADDAA199000091GA1001+999999999GF100991001001999999001001MD1410001+9999REMSYN064AAXX  16121 14303 32998 02702 10270 20210 40160 54000 333 92312;EQDQ01  00002PRCP99
0132143030999992000081615004+45050+013620FM-12+000899999V0202701N002012200019N0200001N1+02661+02301101501ADDGA1001+999999999GF100991001001999999001001MD1710101+9999REMSYN064AAXX  16151 14303 42998 02702 10266 20230 40150 57010 333 92312;
0181143030999992000081618004+45050+013620FM-12+000899999V0202701N001012200019N0200001N1+02641+02301101401ADDAA199000091GA1001+999999999GF100991001001999999001001KA1999M+03051MD1710101+9999REMSYN070AAXX  16181 14303 32998 02701 10264 20230 40140 57010 333 10305 92311;EQDQ01  00002PRCP99
0201143030999992000081706004+45050+013620FM-12+000899999V0209999C000012200019N0200001N1+02501+01901101401ADDAA199000091GA1001+999999999GF100991001001999999001001KA1999N+02201MD1410001+9999SA1+2389REMSYN082AAXX  17061 14303 32998 00000 10250 20190 40140 54000 222// 00238 333 20220 92301;EQDQ01  00002PRCP99
0162143030999992000081712004+45050+013620FM-12+000899999V0202701N003012200019N0200001N1+02701+02401101401ADDAA199000091GA1001+999999999GF100991001001999999001001MD1410001+9999REMSYN064AAXX  17121 14303 32998 02703 10270 20240 40140 54000 333 92312;EQDQ01  00002PRCP99
0132143030999992000081715004+45050+013620FM-12+000899999V0202701N001012200019N0200001N1+02901+02501101401ADDGA1001+999999999GF100991001001999999001001MD1410001+9999REMSYN064AAXX  17151 14303 42998 02701 10290 20250 40140 54000 333 92311;
0181143030999992000081718004+45050+013620FM-12+000899999V0203201N002012200019N0200001N1+02741+02201101401ADDAA199000091GA1001+999999999GF100991001001999999001001KA1999M+03021MD1410001+9999REMSYN070AAXX  17181 14303 32998 03202 10274 20220 40140 54000 333 10302 92311;EQDQ01  00002PRCP99
0201143030999992000081806004+45050+013620FM-12+000899999V0203601N001012200019N0200001N1+02561+02001101401ADDAA199000091GA1001+999999999GF100991001001999999001001KA1999N+02181MD1410001+9999SA1+2409REMSYN082AAXX  18061 14303 32998 03601 10256 20200 40140 54000 222// 00240 333 20218 92301;EQDQ01  00002PRCP99
0132143030999992000081809004+45050+013620FM-12+000899999V0202701N002012200019N0200001N1+02601+02201101501ADDGA1001+999999999GF100991001001999999001001MD1210101+9999REMSYN064AAXX  18091 14303 42998 02702 10260 20220 40150 52010 333 92311;
0181143030999992000081818004+45050+013620FM-12+000899999V0203601N001012200019N0200001N1+02741+02201101501ADDAA199000091GA1001+999999999GF100991001001999999001001KA1999M+03051MD1410001+9999REMSYN070AAXX  18181 14303 32998 03601 10274 20220 40150 54000 333 10305 92301;EQDQ01  00002PRCP99
0201143030999992000081906004+45050+013620FM-12+000899999V0200501N001012200019N0200001N1+02441+01801101601ADDAA199000091GA1001+999999999GF100991001001999999001001KA1999N+02151MD1210101+9999SA1+2429REMSYN082AAXX  19061 14303 32998 00501 10244 20180 40160 52010 222// 00242 333 20215 92301;EQDQ01  00002PRCP99
0132143030999992000081909004+45050+013620FM-12+000899999V0202001N003012200019N0200001N1+02681+02301101701ADDGA1001+999999999GF100991001001999999001001MD1210101+9999REMSYN064AAXX  19091 14303 42998 02003 10268 20230 40170 52010 333 92312;
0162143030999992000081912004+45050+013620FM-12+000899999V0202001N001012200019N0200001N1+02901+02501101701ADDAA199000091GA1001+999999999GF100991001001999999001001MD1410001+9999REMSYN064AAXX  19121 14303 32998 02001 10290 20250 40170 54000 333 92311;EQDQ01  00002PRCP99
0132143030999992000081915004+45050+013620FM-12+000899999V0209999C000012200019N0200001N1+03001+02301101701ADDGA1001+999999999GF100991001001999999001001MD1410001+9999REMSYN064AAXX  19151 14303 42998 00000 10300 20230 40170 54000 333 92301;
0181143030999992000081918004+45050+013620FM-12+000899999V0209999C000012200019N0200001N1+02761+02401101601ADDAA199000091GA1001+999999999GF100991001001999999001001KA1999M+03051MD1710101+9999REMSYN070AAXX  19181 14303 32998 00000 10276 20240 40160 57010 333 10305 92300;EQDQ01  00002PRCP99
0201143030999992000082006004+45050+013620FM-12+000899999V0200901N001012200019N0200001N1+02501+01701101601ADDAA199000091GA1001+999999999GF100991001001999999001001KA1999N+02141MD1410001+9999SA1+2509REMSYN082AAXX  20061 14303 32998 00901 10250 20170 40160 54000 222// 00250 333 20214 92301;EQDQ01  00002PRCP99
0132143030999992000082009004+45050+013620FM-12+000899999V0202301N002012200019N0200001N1+02761+02101101601ADDGA1001+999999999GF100991001001999999001001MD1410001+9999REMSYN064AAXX  20091 14303 42998 02302 10276 20210 40160 54000 333 92311;
0162143030999992000082012004+45050+013620FM-12+000899999V0202001N002012200019N0200001N1+02801+02401101601ADDAA199000091GA1001+999999999GF100991001001999999001001MD1410001+9999REMSYN064AAXX  20121 14303 32998 02002 10280 20240 40160 54000 333 92311;EQDQ01  00002PRCP99
0132143030999992000082015004+45050+013620FM-12+000899999V0209999C000012200019N0200001N1+03081+02401101601ADDGA1001+999999999GF100991001001999999001001MD1410001+9999REMSYN064AAXX  20151 14303 42998 00000 10308 20240 40160 54000 333 92301;
0181143030999992000082018004+45050+013620FM-12+000899999V0202301N002012200019N0200001N1+02781+02401101501ADDAA199000091GA1001+999999999GF100991001001999999001001KA1999M+03101MD1710101+9999REMSYN070AAXX  20181 14303 32998 02302 10278 20240 40150 57010 333 10310 92311;EQDQ01  00002PRCP99
0201143030999992000082106004+45050+013620FM-12+000899999V0200901N001012200019N0200001N1+02521+01701101401ADDAA199000091GA1001+999999999GF100991001001999999001001KA1999N+02101MD1410001+9999SA1+2609REMSYN082AAXX  21061 14303 32998 00901 10252 20170 40140 54000 222// 00260 333 20210 92301;EQDQ01  00002PRCP99
0132143030999992000082109004+45050+013620FM-12+000899999V0201801N003012200019N0009001N1+02781+02101101401ADDGA1001+999999999GF100991001001999999001001MD1410001+9999REMSYN064AAXX  21091 14303 42009 01803 10278 20210 40140 54000 333 92311;
0162143030999992000082112004+45050+013620FM-12+000899999V0201801N002012200019N0200001N1+02821+02501101401ADDAA199000091GA1001+999999999GF100991001001999999001001MD1410001+9999REMSYN064AAXX  21121 14303 32998 01802 10282 20250 40140 54000 333 92311;EQDQ01  00002PRCP99
0132143030999992000082115004+45050+013620FM-12+000899999V0202301N001012200019N0200001N1+02901+02501101401ADDGA1001+999999999GF100991001001999999001001MD1410001+9999REMSYN064AAXX  21151 14303 42998 02301 10290 20250 40140 54000 333 92311;
0181143030999992000082118004+45050+013620FM-12+000899999V0201801N001012200019N0200001N1+02741+02501101301ADDAA199000091GA1001+999999999GF100991001001999999001001KA1999M+03051MD1710101+9999REMSYN070AAXX  21181 14303 32998 01801 10274 20250 40130 57010 333 10305 92311;EQDQ01  00002PRCP99
0201143030999992000082206004+45050+013620FM-12+000899999V0201401N003012200019N0200001N1+02681+02001101101ADDAA199000091GA1001+999999999GF100991001001999999001001KA1999N+02081MD1410001+9999SA1+2609REMSYN082AAXX  22061 14303 32998 01403 10268 20200 40110 54000 222// 00260 333 20208 92312;EQDQ01  00002PRCP99
0132143030999992000082209004+45050+013620FM-12+000899999V0201601N004012200019N0200001N1+02841+02201101201ADDGA1001+999999999GF100991001001999999001001MD1210101+9999REMSYN064AAXX  22091 14303 42998 01604 10284 20220 40120 52010 333 92322;
0152143030999992000082212004+45050+013620FM-12+000899999V0202001N002012200019N0200001N1+02901+02501101301ADDAA199000091GF102991021001012501001041MD1210101+9999REMSYN070AAXX  22121 14303 32698 22002 10290 20250 40130 52010 82004 333 92312;EQDQ01  00002PRCP99
0122143030999992000082215004+45050+013620FM-12+000899999V0201801N001012200019N0200001N1+03081+02401101301ADDGF102991021001012501001041MD1410001+9999REMSYN070AAXX  22151 14303 42698 21801 10308 20240 40130 54000 82004 333 92311;
0181143030999992000082218004+45050+013620FM-12+000899999V0209999C000012200019N0200001N1+02921+02501101301ADDAA199000091GA1001+999999999GF100991001001999999001001KA1999M+03151MD1410001+9999REMSYN070AAXX  22181 14303 32998 00000 10292 20250 40130 54000 333 10315 92301;EQDQ01  00002PRCP99
0201143030999992000082306004+45050+013620FM-12+000899999V0200901N002012200019N0200001N1+02581+01801101401ADDAA199000091GA1001+999999999GF100991001001999999001001KA1999N+02051MD1210101+9999SA1+2659REMSYN082AAXX  23061 14303 32998 00902 10258 20180 40140 52010 222// 00265 333 20205 92311;EQDQ01  00002PRCP99
0132143030999992000082309004+45050+013620FM-12+000899999V0202301N002012200019N0200001N1+02801+02401101501ADDGA1001+999999999GF100991001001999999001001MD1210101+9999REMSYN064AAXX  23091 14303 42998 02302 10280 20240 40150 52010 333 92311;
0162143030999992000082312004+45050+013620FM-12+000899999V0202301N001012200019N0200001N1+02941+02201101501ADDAA199000091GA1001+999999999GF100991001001999999001001MD1410001+9999REMSYN064AAXX  23121 14303 32998 02301 10294 20220 40150 54000 333 92311;EQDQ01  00002PRCP99
0132143030999992000082315004+45050+013620FM-12+000899999V0202301N001012200019N0200001N1+03101+02401101501ADDGA1001+999999999GF100991001001999999001001MD1410001+9999REMSYN064AAXX  23151 14303 42998 02301 10310 20240 40150 54000 333 92311;
0181143030999992000082318004+45050+013620FM-12+000899999V0209999C000012200019N0200001N1+02841+02201101501ADDAA199000091GA1001+999999999GF100991001001999999001001KA1999M+03151MD1410001+9999REMSYN070AAXX  23181 14303 32998 00000 10284 20220 40150 54000 333 10315 92301;EQDQ01  00002PRCP99
0201143030999992000082406004+45050+013620FM-12+000899999V0200501N002012200019N0200001N1+02601+01501101701ADDAA199000091GA1001+999999999GF100991001001999999001001KA1999N+02101MD1210101+9999SA1+2649REMSYN082AAXX  24061 14303 32998 00502 10260 20150 40170 52010 222// 00264 333 20210 92311;EQDQ01  00002PRCP99
0132143030999992000082409004+45050+013620FM-12+000899999V0202701N003012200019N0200001N1+02701+01901101801ADDGA1001+999999999GF100991001001999999001001MD1210101+9999REMSYN064AAXX  24091 14303 42998 02703 10270 20190 40180 52010 333 92312;
0162143030999992000082412004+45050+013620FM-12+000899999V0202701N002012200019N0200001N1+02821+02101101801ADDAA199000091GA1001+999999999GF100991001001999999001001MD1410001+9999REMSYN064AAXX  24121 14303 32998 02702 10282 20210 40180 54000 333 92312;EQDQ01  00002PRCP99
0132143030999992000082415004+45050+013620FM-12+000899999V0202701N003012200019N0200001N1+02801+02201101701ADDGA1001+999999999GF100991001001999999001001MD1710101+9999REMSYN064AAXX  24151 14303 42998 02703 10280 20220 40170 57010 333 92312;
0181143030999992000082418004+45050+013620FM-12+000899999V0202701N002012200019N0200001N1+02721+02201101701ADDAA199000091GA1001+999999999GF100991001001999999001001KA1999M+03021MD1410001+9999REMSYN070AAXX  24181 14303 32998 02702 10272 20220 40170 54000 333 10302 92312;EQDQ01  00002PRCP99
0201143030999992000082506004+45050+013620FM-12+000899999V0203601N001012200019N0200001N1+02501+02201101501ADDAA199000091GA1001+999999999GF100991001001999999001001KA1999N+02151MD1410001+9999SA1+2629REMSYN082AAXX  25061 14303 32998 03601 10250 20220 40150 54000 222// 00262 333 20215 92301;EQDQ01  00002PRCP99
0132143030999992000082509004+45050+013620FM-12+000899999V0202701N002012200019N0200001N1+02721+02101101501ADDGA1001+999999999GF100991001001999999001001MD1410001+9999REMSYN064AAXX  25091 14303 42998 02702 10272 20210 40150 54000 333 92311;
0152143030999992000082512004+45050+013620FM-12+000899999V0202701N004012200019N0200001N1+02741+02201101401ADDAA199000091GF103991031021012501001051MD1710101+9999REMSYN070AAXX  25121 14303 32698 32704 10274 20220 40140 57010 83205 333 92322;EQDQ01  00002PRCP99
0132143030999992000082515004+45050+013620FM-12+000899999V0202701N002012200019N0200001N1+02921+02301101301ADDGA1001+999999999GF100991001001999999001001MD1710101+9999REMSYN064AAXX  25151 14303 42998 02702 10292 20230 40130 57010 333 92312;
0181143030999992000082518004+45050+013620FM-12+000899999V0202701N001012200019N0200001N1+02741+02401101301ADDAA199000091GA1001+999999999GF100991001001999999001001KA1999M+02981MD1410001+9999REMSYN070AAXX  25181 14303 32998 02701 10274 20240 40130 54000 333 10298 92311;EQDQ01  00002PRCP99
0201143030999992000082606004+45050+013620FM-12+000899999V0200501N002012200019N0200001N1+02361+01101101301ADDAA199000091GA1001+999999999GF100991001001999999001001KA1999N+02101MD1410001+9999SA1+2609REMSYN082AAXX  26061 14303 32998 00502 10236 20110 40130 54000 222// 00260 333 20210 92311;EQDQ01  00002PRCP99
0132143030999992000082609004+45050+013620FM-12+000899999V0202701N002012200019N0200001N1+02561+01501101401ADDGA1001+999999999GF100991001001999999001001MD1210101+9999REMSYN064AAXX  26091 14303 42998 02702 10256 20150 40140 52010 333 92311;
0162143030999992000082612004+45050+013620FM-12+000899999V0202701N002012200019N0200001N1+02681+02001101401ADDAA199000091GA1001+999999999GF100991001001999999001001MD1410001+9999REMSYN064AAXX  26121 14303 32998 02702 10268 20200 40140 54000 333 92311;EQDQ01  00002PRCP99
0132143030999992000082615004+45050+013620FM-12+000899999V0202701N001012200019N0200001N1+02741+01801101301ADDGA1001+999999999GF100991001001999999001001MD1710101+9999REMSYN064AAXX  26151 14303 42998 02701 10274 20180 40130 57010 333 92311;
0181143030999992000082618004+45050+013620FM-12+000899999V0203601N001012200019N0200001N1+02681+01801101301ADDAA199000091GA1001+999999999GF100991001001999999001001KA1999M+02901MD1410001+9999REMSYN070AAXX  26181 14303 32998 03601 10268 20180 40130 54000 333 10290 92311;EQDQ01  00002PRCP99
0132143030999992000082715004+45050+013620FM-12+000899999V0201801N005012200019N0200001N1+02641+01801101101ADDGA1001+999999999GF100991001001999999001001MD1710101+9999REMSYN064AAXX  27151 14303 42998 01805 10264 20180 40110 57010 333 92323;
0171143030999992000082718004+45050+013620FM-12+000899999V0200501N001010075019N0200001N1+02581+01701101201ADDAA199000091GF107991071041008001041001KA1999M+02901MD1210101+9999REMSYN076AAXX  27181 14303 32598 70501 10258 20170 40120 52010 87440 333 10290 92312;EQDQ01  00002PRCP99
0178143030999992000082806004+45050+013620FM-12+000899999V0203601N002012200019N0200001N1+02241+01501101301ADDAA101003091GF102991021001012501001041KA1999N+02001MD1410001+9999SA1+2559REMSYN094AAXX  28061 14303 12698 23602 10224 20150 40130 54000 60035 82004 222// 00255 333 20200 92312;
0132143030999992000082809004+45050+013620FM-12+000899999V0202701N002012200019N0200001N1+02441+01401101401ADDGA1001+999999999GF100991001001999999001001MD1210101+9999REMSYN064AAXX  28091 14303 42998 02702 10244 20140 40140 52010 333 92312;
0162143030999992000082812004+45050+013620FM-12+000899999V0202701N003012200019N0200001N1+02501+01701101501ADDAA199000091GA1001+999999999GF100991001001999999001001MD1210101+9999REMSYN064AAXX  28121 14303 32998 02703 10250 20170 40150 52010 333 92312;EQDQ01  00002PRCP99
0132143030999992000082815004+45050+013620FM-12+000899999V0203401N004012200019N0200001N1+02701+01401101501ADDGA1001+999999999GF100991001001999999001001MD1410001+9999REMSYN064AAXX  28151 14303 42998 03404 10270 20140 40150 54000 333 92323;
0191143030999992000082906004+45050+013620FM-12+000899999V0200501N001012200019N0200001N1+02041+01301101801ADDAA199000091GF102991021001012501001041KA1999N+01951MD1210101+9999SA1+2509REMSYN088AAXX  29061 14303 32698 20501 10204 20130 40180 52010 82004 222// 00250 333 20195 92311;EQDQ01  00002PRCP99
0141143030999992000082909004+45050+013620FM-12+000899999V0200501N001012200019N0200001N1+02441+01201101801ADDGF101991001001999999001011MD1410001+9999REMSYN070AAXX  29091 14303 42798 10501 10244 20120 40180 54000 80001 333 92311;EQDQ01+017502SCOLCB
0162143030999992000082912004+45050+013620FM-12+000899999V0202901N003012200019N0200001N1+02421+01401101801ADDAA199000091GA1001+999999999GF100991001001999999001001MD1410001+9999REMSYN064AAXX  29121 14303 32098 02903 10242 20140 40180 54000 333 92312;EQDQ01  00002PRCP99
0141143030999992000082915004+45050+013620FM-12+000899999V0203201N003012200019N0200001N1+02521+01501101701ADDGF102991001001999999001011MD1710101+9999REMSYN070AAXX  29151 14303 42798 23203 10252 20150 40170 57010 80001 333 92312;EQDQ01+017502SCOLCB
0187143030999992000082918004+45050+013620FM-12+000899999V0203201N002019999999N0200001N1+02461+01601101701ADDAA199000091GF106991001001999999001041KA1999M+02651MD1410001+9999REMSYN076AAXX  29181 14303 32798 63202 10246 20160 40170 54000 80004 333 10265 92311;EQDQ01+017502SCOLCBQ02  00002PRCP99
0207143030999992000083006004+45050+013620FM-12+000899999V0200901N002012200019N0200001N1+02261+01501101601ADDAA199000091GF104991001001999999001011KA1999N+02051MD1410001+9999SA1+2509REMSYN088AAXX  30061 14303 32798 40902 10226 20150 40160 54000 80001 222// 00250 333 20205 92301;EQDQ01+017502SCOLCBQ02  00002PRCP99
0152143030999992000083012004+45050+013620FM-12+000899999V0202701N003010900019N0200001N1+02641+01601101501ADDAA199000091GF105991021021017501001051MD1710101+9999REMSYN070AAXX  30121 14303 32798 52703 10264 20160 40150 57010 82205 333 92311;EQDQ01  00002PRCP99
0141143030999992000083015004+45050+013620FM-12+000899999V0202701N002019999999N0200001N1+02721+01601101301ADDGF106991001001999999001081MD1710201+9999REMSYN070AAXX  30151 14303 42798 62702 10272 20160 40130 57020 80008 333 92311;EQDQ01+017502SCOLCB
0187143030999992000083018004+45050+013620FM-12+000899999V0202701N002010120019N0200001N1+02561+01701101201ADDAA199000091GF108991999041012501071001KA1999M+02761MD1710101+9999REMSYN076AAXX  30181 14303 32698 82702 10256 20170 40120 57010 88470 333 10276 92311;EQDQ01+000082SCOTLCQ02  00002PRCP99
0219143030999992000083106004+45050+013620FM-12+000899999V0200501N002010075019N0200001N1+02241+01901101001ADDAA199000021AY121061AY201061GF108991999071008001021999KA1999N+02091MD1410001+9999MW1611SA1+2489REMSYN094AAXX  31061 14303 31598 80502 10224 20190 40100 54000 76120 8872/ 222// 00248 333 20209 92312;EQDQ01+000082SCOTLC
0122143030999992000083109004+45050+013620FM-12+000899999V0202701N002010120019N0200001N1+02441+02101101001ADDGF108991081081008001001001MD1410001+9999REMSYN070AAXX  31091 14303 42598 82702 10244 20210 40100 54000 88800 333 92322;
0133143030999992000083112004+45050+013620FM-12+000899999V0201801N004010075019N0200001N1+02521+02001100801ADDAA199000021GF108991081051008001999999MD1710201+9999REMSYN070AAXX  31121 14303 32598 81804 10252 20200 40080 57020 885// 333 92323;
0150143030999992000083115004+45050+013620FM-12+000899999V0202301N004010075019N0100001N1+02421+02101100801ADDAY161031AY221031GF108991081091008001999999MD1410001+9999MW1601REMSYN076AAXX  31151 14303 41597 82304 10242 20210 40080 54000 76062 889// 333 92323;
0158143030999992000083118004+45050+013620FM-12+000899999V0201401N003010120019N0100001N1+02161+02001100501ADDAA112003091GF108991081081008001999999KA1999M+02541MD1710301+9999REMSYN082AAXX  31181 14303 12597 81403 10216 20200 40050 57030 60032 888// 333 10254 92323;
0178143030999992000090106004+45050+013620FM-12+000899999V0203601N002010075019N0200001N1+02001+01801100401ADDAA112007191GF106991061021008001001001KA1999N+01801MD1210101+9999SA1+2529REMSYN094AAXX  01061 14303 12598 63602 10200 20180 40040 52010 60072 86200 222// 00252 333 20180 92323;
0122143030999992000090109004+45050+013620FM-12+000899999V0203601N003012200019N0200001N1+02321+01801100601ADDGF103991031021008001001001MD1210201+9999REMSYN070AAXX  01091 14303 42598 33603 10232 20180 40060 52020 83200 333 92323;
0122143030999992000090112004+45050+013620FM-12+000899999V0203201N004012200019N0200001N1+02321+01701100701ADDGF101991011041008001041001MD1210101+9999REMSYN070AAXX  01121 14303 42598 13204 10232 20170 40070 52010 81440 333 92322;
0122143030999992000090115004+45050+013620FM-12+000899999V0203201N003012200019N0200001N1+02401+01801100701ADDGF101991011001012501041061MD1410001+9999REMSYN070AAXX  01151 14303 42698 13203 10240 20180 40070 54000 81046 333 92312;
0181143030999992000090118004+45050+013620FM-12+000899999V0203601N002012200019N0200001N1+02341+01701100701ADDAA199000091GA1001+999999999GF100991001001999999001001KA1999M+02461MD1410001+9999REMSYN070AAXX  01181 14303 32998 03602 10234 20170 40070 54000 333 10246 92311;EQDQ01  00002PRCP99
0171143030999992000090206004+45050+013620FM-12+000899999V0201101N003010075019N0200001N1+02161+01901100701ADDAA199000091GF106991061041008001041001KA1999N+02041MD1410001+9999REMSYN076AAXX  02061 14303 32598 61103 10216 20190 40070 54000 86440 333 20204 92312;EQDQ01  00002PRCP99
0122143030999992000090209004+45050+013620FM-12+000899999V0201601N003010075019N0200001N1+02401+02101100701ADDGF107991071031008001041001MD1410001+9999REMSYN070AAXX  02091 14303 42598 71603 10240 20210 40070 54000 87340 333 92322;
0152143030999992000090212004+45050+013620FM-12+000899999V0202301N004012200019N0200001N1+02481+01901100601ADDAA199000091GF103991031001012501081001MD1710101+9999REMSYN070AAXX  02121 14303 32698 32304 10248 20190 40060 57010 83080 333 92322;EQDQ01  00002PRCP99
0122143030999992000090215004+45050+013620FM-12+000899999V0201801N004012200019N0200001N1+02361+02001100501ADDGF102991021001012501081001MD1710101+9999REMSYN070AAXX  02151 14303 42698 21804 10236 20200 40050 57010 82080 333 92322;
0171143030999992000090218004+45050+013620FM-12+000899999V0201801N005012200019N0100001N1+02481+02201100401ADDAA199000091GF102991021001012501081001KA1999M+02561MD1710101+9999REMSYN076AAXX  02181 14303 32697 21805 10248 20220 40040 57010 82080 333 10256 92323;EQDQ01  00002PRCP99
0171143030999992000090318004+45050+013620FM-12+000899999V0203401N003019999999N0200001N1+02321+01801100701ADDAA199000091GF107991071001012501071001KA1999M+02521MD1410001+9999REMSYN076AAXX  03181 14303 32698 73403 10232 20180 40070 54000 87070 333 10252 92312;EQDQ01  00002PRCP99
0191143030999992000090406004+45050+013620FM-12+000899999V0200901N003010120019N0200001N1+02081+01501100901ADDAA199000091GF107991071041012501071001KA1999N+02021MD1410001+9999SA1+2449REMSYN088AAXX  04061 14303 32698 70903 10208 20150 40090 54000 87470 222// 00244 333 20202 92312;EQDQ01  00002PRCP99
0141143030999992000090409004+45050+013620FM-12+000899999V0201101N004010120019N0200001N1+02261+01501101101ADDGF108991999021012501091001MD1210201+9999REMSYN070AAXX  04091 14303 42698 81104 10226 20150 40110 52020 88290 333 92323;EQDQ01+000082SCOTLC
0168143030999992000090412004+45050+013620FM-12+000899999V0201101N003019999999N0200001N1+02421+01601101101ADDAA199000091GF107991999091008001001001MD1410001+9999REMSYN070AAXX  04121 14303 32598 71103 10242 20160 40110 54000 84900 333 92312;EQDQ01+000042SCOTLCQ02  00002PRCP99
0122143030999992000090415004+45050+013620FM-12+000899999V0203601N005010075019N0200001N1+02061+01601101101ADDGF108991081091008001999999MD1410001+9999REMSYN070AAXX  04151 14303 42598 83605 10206 20160 40110 54000 889// 333 92323;
0187143030999992000090418004+45050+013620FM-12+000899999V0200501N004010120019N0200001N1+01941+01701101201ADDAA199000091GF108991999041012501071001KA1999M+02481MD1210101+9999REMSYN076AAXX  04181 14303 32698 80504 10194 20170 40120 52010 88470 333 10248 92323;EQDQ01+000082SCOTLCQ02  00002PRCP99
0191143030999992000090506004+45050+013620FM-12+000899999V0200901N002012200019N0200001N1+01781+01301101601ADDAA199000091GF101991011081012501041001KA1999N+01651MD1210101+9999SA1+2429REMSYN088AAXX  05061 14303 32698 10902 10178 20130 40160 52010 81840 222// 00242 333 20165 92311;EQDQ01  00002PRCP99
0122143030999992000090509004+45050+013620FM-12+000899999V0202301N002012200019N0200001N1+02101+01301101701ADDGF102991021001012501001041MD1210101+9999REMSYN070AAXX  05091 14303 42698 22302 10210 20130 40170 52010 82004 333 92311;
0152143030999992000090512004+45050+013620FM-12+000899999V0202901N004012200019N0200001N1+02241+01201101701ADDAA199000091GF103991031081012501041001MD1410001+9999REMSYN070AAXX  05121 14303 32698 32904 10224 20120 40170 54000 83840 333 92322;EQDQ01  00002PRCP99
0122143030999992000090515004+45050+013620FM-12+000899999V0203201N005012200019N0200001N1+02261+01501101701ADDGF104991041001012501041061MD1410001+9999REMSYN070AAXX  05151 14303 42698 43205 10226 20150 40170 54000 84046 333 92323;
0171143030999992000090518004+45050+013620FM-12+000899999V0203601N002012200019N0200001N1+02181+01401101701ADDAA199000091GF104991041081008001041001KA1999M+02301MD1410001+9999REMSYN076AAXX  05181 14303 32598 43602 10218 20140 40170 54000 84840 333 10230 92312;EQDQ01  00002PRCP99
0191143030999992000090606004+45050+013620FM-12+000899999V0200501N002010075019N0200001N1+01821+01201101801ADDAA199000091GF106991061041008001071001KA1999N+01621MD1410001+9999SA1+2359REMSYN088AAXX  06061 14303 32598 60502 10182 20120 40180 54000 86470 222// 00235 333 20162 92311;EQDQ01  00002PRCP99
0122143030999992000090609004+45050+013620FM-12+000899999V0201401N003010075019N0200001N1+02021+01101101801ADDGF108991081051008001999999MD1410001+9999REMSYN070AAXX  06091 14303 42598 81403 10202 20110 40180 54000 885// 333 92312;
0152143030999992000090612004+45050+013620FM-12+000899999V0201801N003010360019N0200001N1+02161+01401101701ADDAA199000091GF106991041011012501081001MD1110101+9999REMSYN070AAXX  06121 14303 32698 61803 10216 20140 40170 51010 84180 333 92312;EQDQ01  00002PRCP99
0141143030999992000090615004+45050+013620FM-12+000899999V0202001N003012200019N0200001N1+02221+01501101601ADDGF103991999021008001001001MD1710101+9999REMSYN070AAXX  06151 14303 42598 32003 10222 20150 40160 57010 81200 333 92312;EQDQ01+000012SCOTLC
0187143030999992000090618004+45050+013620FM-12+000899999V0201801N003019999999N0200001N1+02141+01401101401ADDAA199000091GF106991001001999999001081KA1999M+02321MD1710201+9999REMSYN076AAXX  06181 14303 32798 61803 10214 20140 40140 57020 80008 333 10232 92312;EQDQ01+017502SCOLCBQ02  00002PRCP99
0197143030999992000090706004+45050+013620FM-12+000899999V0201401N004010120019N0200001N1+01921+01701100801ADDAA112000791GF108991999071012501011999KA1999N+01881MD1710201+9999SA1+2349REMSYN094AAXX  07061 14303 12698 81404 10192 20170 40080 57020 69902 8871/ 222// 00234 333 20188 92323;EQDQ01+000082SCOTLC
0169143030999992000090709004+45050+013620FM-12+000899999V0201101N004010075019N0200001N1+02021+01801100801ADDAY161031AY221031GF108991999071008001021999MD1410001+9999MW1611REMSYN076AAXX  07091 14303 41598 81104 10202 20180 40080 54000 76162 8872/ 333 92323;EQDQ01+000082SCOTLC
0133143030999992000090712004+45050+013620FM-12+000899999V0201401N003010075019N0200001N1+02041+01801100801ADDAA199000021GF108991081051008001999999MD1410001+9999REMSYN070AAXX  07121 14303 32598 81403 10204 20180 40080 54000 885// 333 92323;
0141143030999992000090715004+45050+013620FM-12+000899999V0201401N004010120019N0200001N1+02041+01701100801ADDGF108991999071012501011999MD1410001+9999REMSYN070AAXX  07151 14303 42698 81404 10204 20170 40080 54000 8871/ 333 92323;EQDQ01+000082SCOTLC
0186143030999992000090718004+45050+013620FM-12+000899999V0201101N005010075019N0100001N1+01761+01501100901ADDAA112004191AY191061AY221061GF108991081091008001999999KA1999M+02101MD1210101+9999MW1601REMSYN088AAXX  07181 14303 11597 81105 10176 20150 40090 52010 60042 76092 889// 333 10210 92323;
0197143030999992000090806004+45050+013620FM-12+000899999V0200501N003012200019N0200001N1+01781+01301101801ADDAA112000191GF102991001001999999001011KA1999N+01581MD1210301+9999SA1+2309REMSYN094AAXX  08061 14303 12898 20503 10178 20130 40180 52030 69912 80001 222// 00230 333 20158 92312;EQDQ01+022502SCOLCB
0122143030999992000090809004+45050+013620FM-12+000899999V0203601N003012200019N0200001N1+02121+01301101901ADDGF104991041011008001001001MD1210101+9999REMSYN070AAXX  08091 14303 42598 43603 10212 20130 40190 52010 84100 333 92312;
0152143030999992000090812004+45050+013620FM-12+000899999V0202701N002010075019N0200001N1+02281+01301101901ADDAA199000091GF107991071021008001001001MD1410001+9999REMSYN070AAXX  08121 14303 32598 72702 10228 20130 40190 54000 87200 333 92311;EQDQ01  00002PRCP99
0122143030999992000090815004+45050+013620FM-12+000899999V0200901N004012200019N0200001N1+02261+01301101901ADDGF103991031011008001001001MD1410001+9999REMSYN070AAXX  08151 14303 42598 30904 10226 20130 40190 54000 83100 333 92323;
0171143030999992000090818004+45050+013620FM-12+000899999V0200901N003012200019N0200001N1+02101+01401102001ADDAA199000091GF101991011081012501041001KA1999M+02381MD1210101+9999REMSYN076AAXX  08181 14303 32698 10903 10210 20140 40200 52010 81840 333 10238 92312;EQDQ01  00002PRCP99
0201143030999992000090906004+45050+013620FM-12+000899999V0200501N003012200019N0200001N1+01921+01401102301ADDAA199000091GA1001+999999999GF100991001001999999001001KA1999N+01741MD1210101+9999SA1+2329REMSYN082AAXX  09061 14303 32998 00503 10192 20140 40230 52010 222// 00232 333 20174 92311;EQDQ01  00002PRCP99
0162143030999992000090912004+45050+013620FM-12+000899999V0202701N004012200019N0200001N1+02281+01501102301ADDAA199000091GA1001+999999999GF100991001001999999001001MD1410001+9999REMSYN064AAXX  09121 14303 32998 02704 10228 20150 40230 54000 333 92322;EQDQ01  00002PRCP99
0132143030999992000090915004+45050+013620FM-12+000899999V0202701N003012200019N0200001N1+02341+01701102301ADDGA1001+999999999GF100991001001999999001001MD1410001+9999REMSYN064AAXX  09151 14303 42998 02703 10234 20170 40230 54000 333 92322;
0181143030999992000090918004+45050+013620FM-12+000899999V0202701N002012200019N0200001N1+02241+01501102301ADDAA199000091GA1001+999999999GF100991001001999999001001KA1999M+02401MD1410001+9999REMSYN070AAXX  09181 14303 32998 02702 10224 20150 40230 54000 333 10240 92312;EQDQ01  00002PRCP99
0201143030999992000091006004+45050+013620FM-12+000899999V0200901N001012200019N0200001N1+01881+01401102101ADDAA199000091GA1001+999999999GF100991001001999999001001KA1999N+01651MD1710101+9999SA1+2309REMSYN082AAXX  10061 14303 32998 00901 10188 20140 40210 57010 222// 00230 333 20165 92301;EQDQ01  00002PRCP99
0141143030999992000091009004+45050+013620FM-12+000899999V0203201N003012200019N0200001N1+02261+01701102101ADDGF102991001001999999001011MD1410001+9999REMSYN070AAXX  10091 14303 42898 23203 10226 20170 40210 54000 80001 333 92311;EQDQ01+022502SCOLCB
0162143030999992000091012004+45050+013620FM-12+000899999V0202901N003012200019N0200001N1+02321+01801101901ADDAA199000091GA1001+999999999GF100991001001999999001001MD1710201+9999REMSYN064AAXX  10121 14303 32998 02903 10232 20180 40190 57020 333 92311;EQDQ01  00002PRCP99
0141143030999992000091015004+45050+013620FM-12+000899999V0202901N003012200019N0200001N1+02301+01801101801ADDGF103991999021022501001051MD1710101+9999REMSYN070AAXX  10151 14303 42898 32903 10230 20180 40180 57010 80205 333 92311;EQDQ01+000002SCOTLC
0171143030999992000091018004+45050+013620FM-12+000899999V0203601N002010150019N0200001N1+02241+01901101701ADDAA199000091GF107991071081012501041001KA1999M+02361MD1710101+9999REMSYN076AAXX  10181 14303 32698 73602 10224 20190 40170 57010 87840 333 10236 92311;EQDQ01  00002PRCP99
0207143030999992000091106004+45050+013620FM-12+000899999V0200701N002012200019N0200001N1+02021+01301101501ADDAA199000091GF101991001001999999001011KA1999N+01851MD1410001+9999SA1+2289REMSYN088AAXX  11061 14303 32898 10702 10202 20130 40150 54000 80001 222// 00228 333 20185 92301;EQDQ01+022502SCOLCBQ02  00002PRCP99
0141143030999992000091109004+45050+013620FM-12+000899999V0202901N003012200019N0200001N1+02281+01601101501ADDGF103991001001999999001051MD1410001+9999REMSYN070AAXX  11091 14303 42898 32903 10228 20160 40150 54000 80005 333 92311;EQDQ01+022502SCOLCB
0168143030999992000091112004+45050+013620FM-12+000899999V0203201N004012200019N0200001N1+02401+01601101501ADDAA199000091GF101991001001999999001011MD1410001+9999REMSYN070AAXX  11121 14303 32898 13204 10240 20160 40150 54000 80001 333 92312;EQDQ01+022502SCOLCBQ02  00002PRCP99
0141143030999992000091115004+45050+013620FM-12+000899999V0203201N004012200019N0200001N1+02421+01601101301ADDGF104991001001999999001011MD1710201+9999REMSYN070AAXX  11151 14303 42898 43204 10242 2016/ 40130 57020 80001 333 92312;EQDQ01+022502SCOLCB
0187143030999992000091118004+45050+013620FM-12+000899999V0203601N002012200019N0200001N1+02341+01801101301ADDAA199000091GF102991001001999999001041KA1999M+02451MD1410001+9999REMSYN076AAXX  11181 14303 32898 23602 10234 20180 40130 54000 80004 333 10245 92312;EQDQ01+022502SCOLCBQ02  00002PRCP99
0201143030999992000091206004+45050+013620FM-12+000899999V0203601N002012200019N0200001N1+02081+01401101401ADDAA199000091GA1001+999999999GF100991001001999999001001KA1999N+01921MD1510001+9999SA1+2269REMSYN082AAXX  12061 14303 32998 03602 10208 20140 40140 55000 222// 00226 333 20192 92301;EQDQ01  00002PRCP99
0132143030999992000091209004+45050+013620FM-12+000899999V0203201N003012200019N0200001N1+02321+01701101501ADDGA1001+999999999GF100991001001999999001001MD1210101+9999REMSYN064AAXX  12091 14303 42998 03203 10232 20170 40150 52010 333 92311;
0162143030999992000091212004+45050+013620FM-12+000899999V0202901N003012200019N0200001N1+02341+01801101501ADDAA199000091GA1001+999999999GF100991001001999999001001MD1410001+9999REMSYN064AAXX  12121 14303 32998 02903 10234 20180 40150 54000 333 92311;EQDQ01  00002PRCP99
0132143030999992000091215004+45050+013620FM-12+000899999V0202701N003012200019N0100001N1+02441+01901101401ADDGA1001+999999999GF100991001001999999001001MD1710101+9999REMSYN064AAXX  12151 14303 42997 02703 10244 20190 40140 57010 333 92311;
0171143030999992000091218004+45050+013620FM-12+000899999V0203601N001012200019N0100001N1+02301+01801101301ADDAA199000091GF101991011081012501041001KA1999M+02521MD1710101+9999REMSYN076AAXX  12181 14303 32697 13601 10230 20180 40130 57010 81840 333 10252 92301;EQDQ01  00002PRCP99
0207143030999992000091306004+45050+013620FM-12+000899999V0200901N002019999999N0100001N1+02241+01501101301ADDAA199000091GF108991001001999999001041KA1999N+01851MD1410001+9999SA1+2259REMSYN088AAXX  13061 14303 32897 80902 10224 20150 40130 54000 80004 222// 00225 333 20185 92301;EQDQ01+022502SCOLCBQ02  00002PRCP99
0107143030999992000091309004+45050+013620FM-12+000899999V0201801N002012200019N0100001N1+02341+99999999999ADDGF103991999999022501999999REMSYN069AAXX  13091 14303 42897 31802 10234 2200 40140 52010 80001 333 92311;
0168143030999992000091312004+45050+013620FM-12+000899999V0201801N004012200019N0100001N1+02361+01901101301ADDAA199000091GF102991001001999999001081MD1710101+9999REMSYN070AAXX  13121 14303 32797 21804 10236 20190 40130 57010 80008 333 92312;EQDQ01+017502SCOLCBQ02  00002PRCP99
0141143030999992000091315004+45050+013620FM-12+000899999V0201801N004019999999N0100001N1+02341+02001101201ADDGF106991001001999999001041MD1710101+9999REMSYN070AAXX  13151 14303 42897 61804 10234 20200 40120 57010 80004 333 92312;EQDQ01+022502SCOLCB
0171143030999992000091318004+45050+013620FM-12+000899999V0201801N003012200019N0100001N1+02301+02001101301ADDAA199000091GF104991021021017501001051KA1999M+02381MD1210101+9999REMSYN076AAXX  13181 14303 32797 41803 10230 20200 40130 52010 82205 333 10238 92312;EQDQ01  00002PRCP99
0207143030999992000091406004+45050+013620FM-12+000899999V0201101N003019999999N0100001N1+02081+01611101401ADDAA199000091GF107991001001999999001011KA1999N+02001MD1410001+9999SA1+2289REMSYN088AAXX  14061 14303 32897 71103 10208 20161 40140 54000 80001 222// 00228 333 20200 92311;EQDQ01+022502SCOLCBQ02  00002PRCP99
0187143030999992000091418004+45050+013620FM-12+000899999V0200901N001019999999N0100001N1+02321+02101101501ADDAA199000091GF106991001001999999001071KA1999M+02551MD1210101+9999REMSYN076AAXX  14181 14303 32897 60901 10232 20210 40150 52010 80007 333 10255 92301;EQDQ01+022502SCOLCBQ02  00002PRCP99
0180143030999992000091506004+45050+013620FM-12+000899999V0200901N002012200019N0100001N1+01961+01701101501ADDGF103991001001999999001091KA1999N+01901MD1410001+9999SA1+2269REMSYN088AAXX  15061 14303 42897 30902 10196 20170 40150 54000 80009 222// 00226 333 20190 92301;EQDQ01+022502SCOLCB
0132143030999992000091509004+45050+013620FM-12+000899999V0201801N002012200019N0100001N1+02281+02001101601ADDGA1001+999999999GF100991001001999999001001MD1210101+9999REMSYN064AAXX  15091 14303 42997 01802 10228 20200 40160 52010 333 92311;
0162143030999992000091512004+45050+013620FM-12+000899999V0202501N001012200019N0100001N1+02501+02201101601ADDAA199000091GA1001+999999999GF100991001001999999001001MD1410001+9999REMSYN064AAXX  15121 14303 32997 02501 10250 20220 40160 54000 333 92301;EQDQ01  00002PRCP99
0132143030999992000091515004+45050+013620FM-12+000899999V0202501N001012200019N0100001N1+02541+02001101501ADDGA1001+999999999GF100991001001999999001001MD1710101+9999REMSYN064AAXX  15151 14303 42997 02501 10254 20200 40150 57010 333 92301;
0181143030999992000091518004+45050+013620FM-12+000899999V0209999C000012200019N0100001N1+02341+02101101501ADDAA199000091GA1001+999999999GF100991001001999999001001KA1999M+02601MD1410001+9999REMSYN070AAXX  15181 14303 32997 00000 10234 20210 40150 54000 333 10260 92300;EQDQ01  00002PRCP99
0191143030999992000091606004+45050+013620FM-12+000899999V0200901N002012200019N0200001N1+02041+01701101401ADDAA199000091GF102991021001012501001041KA1999N+01851MD1410001+9999SA1+2269REMSYN088AAXX  16061 14303 32698 20902 10204 20170 40140 54000 82004 222// 00226 333 20185 92311;EQDQ01  00002PRCP99
0152143030999992000091612004+45050+013620FM-12+000899999V0201801N003012200019N0200001N1+02381+02101101201ADDAA199000091GF103991031081012501041001MD1710201+9999REMSYN070AAXX  16121 14303 32698 31803 10238 20210 40120 57020 83840 333 92312;EQDQ01  00002PRCP99
0122143030999992000091615004+45050+013620FM-12+000899999V0201801N003012200019N0200001N1+02361+01901101001ADDGF102991021001012501001041MD1710201+9999REMSYN070AAXX  16151 14303 42698 21803 10236 20190 40100 57020 82004 333 92312;
0171143030999992000091618004+45050+013620FM-12+000899999V0201801N005010075019N0200001N1+02321+02001100701ADDAA199000091GF108991081051008001999999KA1999M+02581MD1710301+9999REMSYN076AAXX  16181 14303 32598 81805 10232 20200 40070 57030 885// 333 10258 92323;EQDQ01  00002PRCP99
0191143030999992000091706004+45050+013620FM-12+000899999V0200901N003010075019N0200001N1+01961+01701100701ADDAA199000091GF107991071091008001061001KA1999N+01851MD1410001+9999SA1+2209REMSYN088AAXX  17061 14303 32598 70903 10196 20170 40070 54000 87960 222// 00220 333 20185 92322;EQDQ01  00002PRCP99
0122143030999992000091709004+45050+013620FM-12+000899999V0201601N004010075019N0200001N1+02241+01701100701ADDGF105991051091008001061001MD1410001+9999REMSYN070AAXX  17091 14303 42598 51604 10224 20170 40070 54000 85960 333 92323;
0152143030999992000091712004+45050+013620FM-12+000899999V0202001N003012200019N0200001N1+02401+01901100701ADDAA199000091GF104991041081012501041001MD1410001+9999REMSYN070AAXX  17121 14303 32698 42003 10240 20190 40070 54000 84840 333 92322;EQDQ01  00002PRCP99
0122143030999992000091715004+45050+013620FM-12+000899999V0202001N002012200019N0200001N1+02421+02101100701ADDGF103991031081012501041001MD1410001+9999REMSYN070AAXX  17151 14303 42698 32002 10242 20210 40070 54000 83840 333 92312;
0171143030999992000091718004+45050+013620FM-12+000899999V0201601N003010075019N0200001N1+02281+02001100701ADDAA199000091GF106991061021008001001001KA1999M+02481MD1410001+9999REMSYN076AAXX  17181 14303 32598 61603 10228 20200 40070 54000 86200 333 10248 92322;EQDQ01  00002PRCP99
0178143030999992000091806004+45050+013620FM-12+000899999V0200901N004012200019N0200001N1+02101+01801100801ADDAA109003091GF102991021001012501001041KA1999N+01751MD1210101+9999SA1+2209REMSYN094AAXX  18061 14303 12698 20904 10210 20180 40080 52010 60038 82004 222// 00220 333 20175 92322;
0122143030999992000091809004+45050+013620FM-12+000899999V0201801N004010075019N0200001N1+02341+02001100801ADDGF105991051091008001061001MD1410001+9999REMSYN070AAXX  18091 14303 42598 51804 10234 20200 40080 54000 85960 333 92322;
0152143030999992000091812004+45050+013620FM-12+000899999V0201801N004010075019N0200001N1+02341+02101100801ADDAA199000091GF105991051091008001061001MD1410001+9999REMSYN070AAXX  18121 14303 32598 51804 10234 20210 40080 54000 85960 333 92322;EQDQ01  00002PRCP99
0132143030999992000091815004+45050+013620FM-12+000899999V0201801N003012200019N0200001N1+02361+01901100601ADDGA1001+999999999GF100991001001999999001001MD1710201+9999REMSYN064AAXX  18151 14303 42998 01803 10236 20190 40060 57020 333 92322;
0181143030999992000091818004+45050+013620FM-12+000899999V0201601N002012200019N0200001N1+02251+02101100601ADDAA199000091GA1001+999999999GF100991001001999999001001KA1999M+02451MD1410001+9999REMSYN070AAXX  18181 14303 32998 01602 10225 20210 40060 54000 333 10245 92312;EQDQ01  00002PRCP99
0178143030999992000091906004+45050+013620FM-12+000899999V0200901N003010075019N0200001N1+02041+01701100801ADDAA101002091GF107991071041008001041001KA1999N+01701MD1210101+9999SA1+2229REMSYN094AAXX  19061 14303 12598 70903 10204 20170 40080 52010 60025 87440 222// 00222 333 20170 92322;
0122143030999992000091909004+45050+013620FM-12+000899999V0202301N003010075019N0200001N1+02241+01901100901ADDGF106991061091008001061001MD1210101+9999REMSYN070AAXX  19091 14303 42598 62303 10224 20190 40090 52010 86960 333 92322;
0152143030999992000091912004+45050+013620FM-12+000899999V0201801N002012200019N0200001N1+02401+01801100901ADDAA199000091GF103991031021012501001051MD1410001+9999REMSYN070AAXX  19121 14303 32698 31802 10240 20180 40090 54000 83205 333 92312;EQDQ01  00002PRCP99
0132143030999992000091915004+45050+013620FM-12+000899999V0201801N002012200019N0200001N1+02361+01801100901ADDGA1001+999999999GF100991001001999999001001MD1410001+9999REMSYN064AAXX  19151 14303 42998 01802 10236 20180 40090 54000 333 92312;
0171143030999992000091918004+45050+013620FM-12+000899999V0201801N003012200019N0200001N1+02301+02001100901ADDAA199000091GF102991021001012501001041KA1999M+02481MD1410001+9999REMSYN076AAXX  19181 14303 32698 21803 10230 20200 40090 54000 82004 333 10248 92322;EQDQ01  00002PRCP99
0191143030999992000092006004+45050+013620FM-12+000899999V0201401N004012200019N0200001N1+02181+02001100801ADDAA199000091GF103991031081008001041001KA1999N+01651MD1410001+9999SA1+2249REMSYN088AAXX  20061 14303 32598 31404 10218 20200 40080 54000 83840 222// 00224 333 20165 92322;EQDQ01  00002PRCP99
0122143030999992000092009004+45050+013620FM-12+000899999V0201601N005010075019N0200001N1+02381+02101100901ADDGF107991071021008001001001MD1210101+9999REMSYN070AAXX  20091 14303 42598 71605 10238 20210 40090 52010 87200 333 92323;
0152143030999992000092012004+45050+013620FM-12+000899999V0201801N006012200019N0200001N1+02341+02201100901ADDAA199000091GF104991041091008001061001MD1410001+9999REMSYN070AAXX  20121 14303 32598 41806 10234 20220 40090 54000 84960 333 92333;EQDQ01  00002PRCP99
0122143030999992000092015004+45050+013620FM-12+000899999V0201501N005012200019N0200001N1+02421+02201100701ADDGF104991041001008001071001MD1710201+9999REMSYN070AAXX  20151 14303 42598 41505 10242 20220 40070 57020 84070 333 92333;
0171143030999992000092018004+45050+013620FM-12+000899999V0201801N006010075019N0200001N1+02381+02101100601ADDAA199000091GF106991061041008001071001KA1999M+02461MD1710101+9999REMSYN076AAXX  20181 14303 32598 61806 10238 20210 40060 57010 86470 333 10246 92333;EQDQ01  00002PRCP99
0188143030999992000092106004+45050+013620FM-12+000899999V0202301N006012200019N0200001N1+02201+01501100601ADDAA109005191GA1001+999999999GF100991001001999999001001KA1999N+01551MD1210101+9999SA1+2229REMSYN088AAXX  21061 14303 12998 02306 10220 20150 40060 52010 60058 222// 00222 333 20155 92334;
0152143030999992000092112004+45050+013620FM-12+000899999V0203201N004010075019N0200001N1+01861+01601100901ADDAA199000091GF107991071051008001999999MD1210201+9999REMSYN070AAXX  21121 14303 32598 73204 10186 20160 40090 52020 875// 333 92333;EQDQ01  00002PRCP99
0122143030999992000092115004+45050+013620FM-12+000899999V0203601N002010075019N0200001N1+01801+01501101001ADDGF106991061091008001061001MD1210101+9999REMSYN070AAXX  21151 14303 42598 63602 10180 20150 40100 52010 86960 333 92323;
0171143030999992000092118004+45050+013620FM-12+000899999V0203601N002012200019N0200001N1+01801+01501101101ADDAA199000091GF104991041001008001041061KA1999M+02351MD1210101+9999REMSYN076AAXX  21181 14303 32598 43602 10180 20150 40110 52010 84046 333 10235 92323;EQDQ01  00002PRCP99
0208143030999992000092206004+45050+013620FM-12+000899999V0203601N001012200019N0200001N1+01841+01301101601ADDAY121061AY281061GF104991999041008001001001KA1999N+01501MD1210101+9999MW1001SA1+2259REMSYN094AAXX  22061 14303 12598 43601 10184 20130 40160 52010 70028 80400 222// 00225 333 20150 92311;EQDQ01+000002SCOTLC
0162143030999992000092209004+45050+013620FM-12+000899999V0202901N002012200019N0200001N1+02101+01101101801ADDAA199000091GA1001+999999999GF100991001001999999001001MD1210201+9999REMSYN064AAXX  22091 14303 32998 02902 10210 20110 40180 52020 333 92311;EQDQ01  00002PRCP99
0122143030999992000092215004+45050+013620FM-12+000899999V0202901N003012200019N0200001N1+02201+01401101801ADDGF103991031081012501041001MD1410001+9999REMSYN070AAXX  22151 14303 42698 32903 10220 20140 40180 54000 83840 333 92322;
0181143030999992000092218004+45050+013620FM-12+000899999V0202901N001012200019N0200001N1+02121+01501101901ADDAA199000091GA1001+999999999GF100991001001999999001001KA1999M+02301MD1210101+9999REMSYN070AAXX  22181 14303 32998 02901 10212 20150 40190 52010 333 10230 92311;EQDQ01  00002PRCP99
0191143030999992000092306004+45050+013620FM-12+000899999V0200501N002010075019N0200001N1+01701+01201102101ADDAA199000091GF107991071041008001071001KA1999N+01451MD1210101+9999SA1+2209REMSYN088AAXX  23061 14303 32598 70502 10170 20120 40210 52010 87470 222// 00220 333 20145 92311;EQDQ01  00002PRCP99
0122143030999992000092309004+45050+013620FM-12+000899999V0202701N002010075019N0200001N1+01941+01401102101ADDGF105991051011008001001001MD1410001+9999REMSYN070AAXX  23091 14303 42598 52702 10194 20140 40210 54000 85100 333 92311;
0152143030999992000092312004+45050+013620FM-12+000899999V0202701N002012200019N0200001N1+02061+01301102101ADDAA199000091GF104991041081008001041001MD1410001+9999REMSYN070AAXX  23121 14303 32598 42702 10206 20130 40210 54000 84840 333 92311;EQDQ01  00002PRCP99
0122143030999992000092315004+45050+013620FM-12+000899999V0202701N003012200019N0200001N1+02141+01301102001ADDGF104991041081008001041001MD1710101+9999REMSYN070AAXX  23151 14303 42598 42703 10214 20130 40200 57010 84840 333 92312;
0181143030999992000092318004+45050+013620FM-12+000899999V0200501N002012200019N0200001N1+02001+01201102001ADDAA199000091GA1001+999999999GF100991001001999999001001KA1999M+02251MD1410001+9999REMSYN070AAXX  23181 14303 32998 00502 10200 20120 40200 54000 333 10225 92312;EQDQ01  00002PRCP99
0191143030999992000092406004+45050+013620FM-12+000899999V0203601N001010120019N0200001N1+01741+01101102001ADDAA199000091GF105991051081008001041001KA1999N+01421MD1410001+9999SA1+2209REMSYN088AAXX  24061 14303 32598 53601 10174 20110 40200 54000 85840 222// 00220 333 20142 92311;EQDQ01  00002PRCP99
0122143030999992000092409004+45050+013620FM-12+000899999V0202701N001012200019N0200001N1+01881+01301102101ADDGF102991021011012501001001MD1210101+9999REMSYN070AAXX  24091 14303 42698 22701 10188 20130 40210 52010 82100 333 92311;
0152143030999992000092412004+45050+013620FM-12+000899999V0202701N002012200019N0200001N1+01981+01301102101ADDAA199000091GF103991031081012501041001MD1410001+9999REMSYN070AAXX  24121 14303 32698 32702 10198 20130 40210 54000 83840 333 92311;EQDQ01  00002PRCP99
0122143030999992000092415004+45050+013620FM-12+000899999V0202701N001012200019N0200001N1+02041+01501102101ADDGF103991031081008001041001MD1410001+9999REMSYN070AAXX  24151 14303 42598 32701 10204 20150 40210 54000 83840 333 92311;
0171143030999992000092418004+45050+013620FM-12+000899999V0202701N001010075019N0200001N1+01961+01501102101ADDAA199000091GF107991071011008001001001KA1999M+02201MD1410001+9999REMSYN076AAXX  24181 14303 32598 72701 10196 20150 40210 54000 87100 333 10220 92311;EQDQ01  00002PRCP99
0207143030999992000092506004+45050+013620FM-12+000899999V0200501N002012200019N0200001N1+01601+01201102101ADDAA199000091GA1001+999999999GF100991001001999999001001KA1999N+01351MD1210101+9999SA1+2189REMSYN088AAXX  25061 14303 32998 00502 10160 20120 40210 52010 222// 00218 333 20135 92311 92318;EQDQ01  00002PRCP99
0132143030999992000092509004+45050+013620FM-12+000899999V0202701N001012200019N0200001N1+02021+01301102201ADDGA1001+999999999GF100991001001999999001001MD1210101+9999REMSYN064AAXX  25091 14303 42998 02701 10202 20130 40220 52010 333 92301;
0162143030999992000092512004+45050+013620FM-12+000899999V0202701N002012200019N0200001N1+02001+01301102201ADDAA199000091GA1001+999999999GF100991001001999999001001MD1410001+9999REMSYN064AAXX  25121 14303 32998 02702 10200 20130 40220 54000 333 92311;EQDQ01  00002PRCP99
0132143030999992000092515004+45050+013620FM-12+000899999V0202701N003012200019N0200001N1+02101+01401102101ADDGA1001+999999999GF100991001001999999001001MD1710101+9999REMSYN064AAXX  25151 14303 42998 02703 10210 20140 40210 57010 333 92312;
0181143030999992000092518004+45050+013620FM-12+000899999V0202701N001012200019N0200001N1+02021+01501102101ADDAA199000091GA1001+999999999GF100991001001999999001001KA1999M+02181MD1410001+9999REMSYN070AAXX  25181 14303 32998 02701 10202 20150 40210 54000 333 10218 92311;EQDQ01  00002PRCP99
0201143030999992000092606004+45050+013620FM-12+000899999V0203601N001012200019N0200001N1+01781+01501102201ADDAA199000091GA1001+999999999GF100991001001999999001001KA1999N+01321MD1410001+9999SA1+2189REMSYN082AAXX  26061 14303 32998 03601 10178 20150 40220 54000 222// 00218 333 20132 92301;EQDQ01  00002PRCP99
0122143030999992000092609004+45050+013620FM-12+000899999V0202301N001012200019N0200001N1+02201+01501102301ADDGF102991021001012501001041MD1210101+9999REMSYN070AAXX  26091 14303 42698 22301 10220 20150 40230 52010 82004 333 92301;
0152143030999992000092612004+45050+013620FM-12+000899999V0202301N002012200019N0200001N1+02201+01701102301ADDAA199000091GF102991021001012501001041MD1410001+9999REMSYN070AAXX  26121 14303 32698 22302 10220 20170 40230 54000 82004 333 92311;EQDQ01  00002PRCP99
0122143030999992000092615004+45050+013620FM-12+000899999V0202701N002012200019N0200001N1+02241+01501102201ADDGF103991031001012501001041MD1710101+9999REMSYN070AAXX  26151 14303 42698 32702 10224 20150 40220 57010 83004 333 92311;
0181143030999992000092618004+45050+013620FM-12+000899999V0203601N001012200019N0200001N1+02101+01801102201ADDAA199000091GA1001+999999999GF100991001001999999001001KA1999M+02281MD1410001+9999REMSYN070AAXX  26181 14303 32998 03601 10210 20180 40220 54000 333 10228 92311;EQDQ01  00002PRCP99
0207143030999992000092706004+45050+013620FM-12+000899999V0200501N001012200019N0200001N1+01761+01501102101ADDAA199000091GF101991001001999999001011KA1999N+01301MD1410001+9999SA1+2159REMSYN088AAXX  27061 14303 32698 10501 10176 20150 40210 54000 80001 222// 00215 333 20130 92301;EQDQ01+012502SCOLCBQ02  00002PRCP99
0132143030999992000092709004+45050+013620FM-12+000899999V0201801N001012200019N0200001N1+02261+01801102101ADDGA1001+999999999GF100991001001999999001001MD1410001+9999REMSYN064AAXX  27091 14303 42998 01801 10226 20180 40210 54000 333 92301;
0132143030999992000092715004+45050+013620FM-12+000899999V0202301N001012200019N0200001N1+02341+01801102001ADDGA1001+999999999GF100991001001999999001001MD1410001+9999REMSYN064AAXX  27151 14303 42998 02301 10234 20180 40200 54000 333 92311;
0181143030999992000092718004+45050+013620FM-12+000899999V0201801N001012200019N0200001N1+02121+01801101901ADDAA199000091GA1001+999999999GF100991001001999999001001KA1999M+02381MD1710101+9999REMSYN070AAXX  27181 14303 32998 01801 10212 20180 40190 57010 333 10238 92311;EQDQ01  00002PRCP99
0201143030999992000092806004+45050+013620FM-12+000899999V0200901N002012200019N0200001N1+01841+01701101801ADDAA199000091GA1001+999999999GF100991001001999999001001KA1999N+01301MD1410001+9999SA1+2159REMSYN082AAXX  28061 14303 32998 00902 10184 20170 40180 54000 222// 00215 333 20130 92311;EQDQ01  00002PRCP99
0122143030999992000092809004+45050+013620FM-12+000899999V0201401N003012200019N0100001N1+02121+01601101801ADDGF102991021021008001001001MD1410001+9999REMSYN070AAXX  28091 14303 42597 21403 10212 20160 40180 54000 82200 333 92311;
0168143030999992000092812004+45050+013620FM-12+000899999V0201801N003019999999N0100001N1+02181+01701101701ADDAA199000091GF107991001001999999001071MD1710101+9999REMSYN070AAXX  28121 14303 32897 71803 10218 20170 40170 57010 80007 333 92311;EQDQ01+022502SCOLCBQ02  00002PRCP99
0141143030999992000092815004+45050+013620FM-12+000899999V0202001N003019999999N0200001N1+02121+01601101501ADDGF108991001001999999001071MD1710201+9999REMSYN070AAXX  28151 14303 42898 82003 10212 20160 40150 57020 80007 333 92312;EQDQ01+022502SCOLCB
0187143030999992000092818004+45050+013620FM-12+000899999V0201601N003012200019N0200001N1+02081+01501101401ADDAA199000091GF104991001001999999001041KA1999M+02181MD1710101+9999REMSYN076AAXX  28181 14303 32898 41603 10208 20150 40140 57010 80004 333 10218 92312;EQDQ01+022502SCOLCBQ02  00002PRCP99
0191143030999992000092906004+45050+013620FM-12+000899999V0201101N004019999999N0200001N1+01821+01601101101ADDAA199000091GF108991081001012501071001KA1999N+01701MD1710101+9999SA1+2169REMSYN088AAXX  29061 14303 32698 81104 10182 20160 40110 57010 88070 222// 00216 333 20170 92312;EQDQ01  00002PRCP99
0122143030999992000092909004+45050+013620FM-12+000899999V0201401N004010075019N0200001N1+02081+01801101201ADDGF108991081051008001999999MD1210101+9999REMSYN070AAXX  29091 14303 42598 81404 10208 20180 40120 52010 885// 333 92323;
0152143030999992000092912004+45050+013620FM-12+000899999V0201601N004012200019N0200001N1+02201+01701101101ADDAA199000091GF104991041021008001001001MD1710101+9999REMSYN070AAXX  29121 14303 32598 41604 10220 20170 40110 57010 84200 333 92323;EQDQ01  00002PRCP99
0122143030999992000092915004+45050+013620FM-12+000899999V0201601N004010120019N0200001N1+02181+01601101001ADDGF106991061071012501011999MD1710101+9999REMSYN070AAXX  29151 14303 42698 61604 10218 20160 40100 57010 8671/ 333 92323;
0171143030999992000092918004+45050+013620FM-12+000899999V0201401N004010120019N0200001N1+02101+01701101001ADDAA199000091GF106991061021012501091001KA1999M+02221MD1410001+9999REMSYN076AAXX  29181 14303 32698 61404 10210 20170 40100 54000 86290 333 10222 92323;EQDQ01  00002PRCP99
0206143030999992000093006004+45050+013620FM-12+000899999V0201601N006010120019N0100001N1+02141+01901100701ADDAA112021191AY191061AY281061GF108991081081008001001001KA1999N+01861MD1710101+9999MW1211SA1+2149REMSYN100AAXX  30061 14303 11597 81606 10214 20190 40070 57010 60212 72198 88800 222// 00214 333 20186 92334;
0141143030999992000093009004+45050+013620FM-12+000899999V0201401N006010120019N0200001N1+02181+01901100801ADDGF108991999071012501011999MD1210101+9999REMSYN070AAXX  30091 14303 42698 81406 10218 20190 40080 52010 8871/ 333 92334;EQDQ01+000082SCOTLC
0133143030999992000093012004+45050+013620FM-12+000899999V0201401N006010075019N0200001N1+02221+01901100701ADDAA199000021GF108991081051008001999999MD1710101+9999REMSYN070AAXX  30121 14303 32598 81406 10222 20190 40070 57010 885// 333 92334;
0169143030999992000093015004+45050+013620FM-12+000899999V0201601N007010075019N0100001N1+02181+01901100701ADDAY161031AY221031GF108991999071008001021999MD1410001+9999MW1601REMSYN076AAXX  30151 14303 41597 81607 10218 20190 40070 54000 76062 8872/ 333 92345;EQDQ01+000082SCOTLC
0186143030999992000093018004+45050+013620FM-12+000899999V0201401N005010075019N0020001N1+01981+01801100601ADDAA112007191AY161061AY261061GF108991081091008001999999KA1999M+02221MD1710101+9999MW1971REMSYN088AAXX  30181 14303 11595 81405 10198 20180 40060 57010 60072 79766 889// 333 10222 92345;
0225143030999992000100106004+45050+013620FM-12+000899999V0200901N004019999999N0100001N1+01901+01701100701ADDAA112038191AY111061AY201061GF108991999071999999021999KA1999N+01881MD1410001+9999MW1601SA1+2149REMSYN100AAXX  01061 14303 11997 80904 10190 20170 40070 54000 60382 76010 8872/ 222// 00214 333 20188 92323;EQDQ01+000082SCOTLC
0169143030999992000100109004+45050+013620FM-12+000899999V0200901N004010075019N0100001N1+01781+01601100601ADDAY181031AY261031GF108991999071008001021999MD1710101+9999MW1631REMSYN076AAXX  01091 14303 41597 80904 10178 20160 40060 57010 76386 8872/ 333 92323;EQDQ01+000082SCOTLC
0133143030999992000100112004+45050+013620FM-12+000899999V0201601N005010075019N0100001N1+02041+01901100401ADDAA199000021GF108991081051008001999999MD1710201+9999REMSYN070AAXX  01121 14303 32597 81605 10204 20190 40040 57020 885// 333 92323;
0122143030999992000100115004+45050+013620FM-12+000899999V0201801N004010120019N0200001N1+02081+01601100401ADDGF108991081081008001001001MD1410001+9999REMSYN070AAXX  01151 14303 42598 81804 10208 20160 40040 54000 88800 333 92323;
0158143030999992000100118004+45050+013620FM-12+000899999V0202001N003010120019N0200001N1+02001+01701100501ADDAA112033091GF108991081081008001001001KA1999M+02141MD1210101+9999REMSYN082AAXX  01181 14303 12598 82003 10200 20170 40050 52010 60332 88800 333 10214 92323;
0191143030999992000100206004+45050+013620FM-12+000899999V0200901N003010120019N0200001N1+01781+01601100801ADDAA199000091GF107991071041012501071001KA1999N+01701MD1210101+9999SA1+2149REMSYN088AAXX  02061 14303 32698 70903 10178 20160 40080 52010 87470 222// 00214 333 20170 92323;EQDQ01  00002PRCP99
0141143030999992000100209004+45050+013620FM-12+000899999V0201801N002010120019N0200001N1+02001+01701100901ADDGF108991999021012501091001MD1210101+9999REMSYN070AAXX  02091 14303 42698 81802 10200 20170 40090 52010 88290 333 92322;EQDQ01+000082SCOTLC
0152143030999992000100212004+45050+013620FM-12+000899999V0201801N003010360019N0200001N1+02141+01601100801ADDAA199000091GF107991031031008001041001MD1710101+9999REMSYN070AAXX  02121 14303 32598 71803 10214 20160 40080 57010 83340 333 92312;EQDQ01  00002PRCP99
0122143030999992000100215004+45050+013620FM-12+000899999V0200701N003010120019N0200001N1+01981+01501100701ADDGF108991081081008001001001MD1710101+9999REMSYN070AAXX  02151 14303 42598 80703 10198 20150 40070 57010 88800 333 92312;
0215143030999992000100218004+45050+013620FM-12+000899999V0200901N002019999999N0200001N1+01921+01601100701ADDAA199000091AY121061AY221061GF106991999021012501091001KA1999M+02181MD1410001+9999MW1131REMSYN082AAXX  02181 14303 31698 60902 10192 20160 40070 54000 71322 88290 333 10218 92312;EQDQ01+000082SCOTLCQ02  00002PRCP99
0225143030999992000100306004+45050+013620FM-12+000899999V0203601N003010075019N0200001N1+01641+01501100901ADDAA112007991AY161061AY251061GF108991999071008001021999KA1999N+01601MD1210101+9999MW1601SA1+2129REMSYN100AAXX  03061 14303 11598 83603 10164 20150 40090 52010 60082 76065 8872/ 222// 00212 333 20160 92312;EQDQ01+000082SCOTLC
0169143030999992000100309004+45050+013620FM-12+000899999V0200501N003010075019N0100001N1+01821+01601101101ADDAY161031AY261031GF108991999071008001021999MD1210201+9999MW1601REMSYN076AAXX  03091 14303 41597 80503 10182 20160 40110 52020 76066 8872/ 333 92312;EQDQ01+000082SCOTLC
0139143030999992000100312004+45050+013620FM-12+000899999V0201401N004010075019N0200001N1+02081+01801101201ADDAA106008991GF108991071021008001001011MD1210101+9999REMSYN076AAXX  03121 14303 12598 81404 10208 20180 40120 52010 60091 87201 333 92323;
0122143030999992000100315004+45050+013620FM-12+000899999V0201801N004010120019N0200001N1+02141+01701101301ADDGF107991071021012501091001MD1210101+9999REMSYN070AAXX  03151 14303 42698 71804 10214 20170 40130 52010 87290 333 92323;
0152143030999992000100318004+45050+013620FM-12+000899999V0200901N003010120019N0200001N1+01941+01701101501ADDAA199000021GF107991071041012501071001KA1999M+02151MD1210201+9999REMSYN076AAXX  03181 14303 32698 70903 10194 20170 40150 52020 87470 333 10215 92322;
0191143030999992000100406004+45050+013620FM-12+000899999V0203601N003010075019N0200001N1+01941+01701101501ADDAA199000091GF108991081051008001999999KA1999N+01821MD1410001+9999SA1+2149REMSYN088AAXX  04061 14303 32598 83603 10194 20170 40150 54000 885// 222// 00214 333 20182 92312;EQDQ01  00002PRCP99
0122143030999992000100409004+45050+013620FM-12+000899999V0200701N004010075019N0200001N1+02201+01501101601ADDGF108991081051008001999999MD1210101+9999REMSYN070AAXX  04091 14303 42598 80704 10220 20150 40160 52010 885// 333 92312;
0152143030999992000100412004+45050+013620FM-12+000899999V0203201N003019999999N0200001N1+02281+01901101501ADDAA199000091GF108991081001012501071001MD1710101+9999REMSYN070AAXX  04121 14303 32698 83203 10228 20190 40150 57010 88070 333 92312;EQDQ01  00002PRCP99
0141143030999992000100415004+45050+013620FM-12+000899999V0203601N002010120019N0200001N1+02321+01801101401ADDGF108991999071012501011999MD1710101+9999REMSYN070AAXX  04151 14303 42698 83602 10232 20180 40140 57010 8871/ 333 92311;EQDQ01+000082SCOTLC
0171143030999992000100418004+45050+013620FM-12+000899999V0200901N004010120019N0200001N1+02121+01401101401ADDAA199000091GF106991061071012501011999KA1999M+02461MD1410001+9999REMSYN076AAXX  04181 14303 32698 60904 10212 20140 40140 54000 8671/ 333 10246 92312;EQDQ01  00002PRCP99
0191143030999992000100506004+45050+013620FM-12+000899999V0200801N003019999999N0200001N1+01941+01501101401ADDAA199000091GF108991081001012501081001KA1999N+01821MD1410001+9999SA1+2159REMSYN088AAXX  05061 14303 32698 80803 10194 20150 40140 54000 88080 222// 00215 333 20182 92312;EQDQ01  00002PRCP99
0122143030999992000100509004+45050+013620FM-12+000899999V0203201N002012200019N0200001N1+02161+01501101401ADDGF104991041011012501021999MD1410001+9999REMSYN070AAXX  05091 14303 42698 43202 10216 20150 40140 54000 8412/ 333 92311;
0152143030999992000100512004+45050+013620FM-12+000899999V0202701N003010150019N0200001N1+02141+01601101401ADDAA199000091GF108991051081012501041001MD1410001+9999REMSYN070AAXX  05121 14303 32698 82703 10214 20160 40140 54000 85840 333 92311;EQDQ01  00002PRCP99
0122143030999992000100515004+45050+013620FM-12+000899999V0202901N003010360019N0200001N1+02121+01401101301ADDGF108991031081012501041001MD1710101+9999REMSYN070AAXX  05151 14303 42698 82903 10212 20140 40130 57010 83840 333 92311;
0171143030999992000100518004+45050+013620FM-12+000899999V0202701N001012200019N0200001N1+02041+01501101301ADDAA199000091GF104991041081012501041001KA1999M+02251MD1410001+9999REMSYN076AAXX  05181 14303 32698 42701 10204 20150 40130 54000 84840 333 10225 92301;EQDQ01  00002PRCP99
0191143030999992000100606004+45050+013620FM-12+000899999V0200901N003019999999N0200001N1+01741+01501101201ADDAA199000091GF107991071001012501071001KA1999N+01701MD1410001+9999SA1+2129REMSYN088AAXX  06061 14303 32698 70903 10174 20150 40120 54000 87070 222// 00212 333 20170 92311;EQDQ01  00002PRCP99
0122143030999992000100609004+45050+013620FM-12+000899999V0202001N003010120019N0100001N1+02101+01401101301ADDGF107991071021012501091001MD1210101+9999REMSYN070AAXX  06091 14303 42697 72003 10210 20140 40130 52010 87290 333 92311;
0152143030999992000100612004+45050+013620FM-12+000899999V0201801N002010360019N0100001N1+02141+01601101201ADDAA199000091GF108991021031008001041001MD1710101+9999REMSYN070AAXX  06121 14303 32597 81802 10214 20160 40120 57010 82340 333 92301;EQDQ01  00002PRCP99
0141143030999992000100615004+45050+013620FM-12+000899999V0203601N002010075019N0200001N1+02101+01601101201ADDGF108991999031008001041001MD1410001+9999REMSYN070AAXX  06151 14303 42598 83602 10210 20160 40120 54000 88340 333 92301;EQDQ01+000082SCOTLC
0171143030999992000100618004+45050+013620FM-12+000899999V0200701N003019999999N0038001N1+01901+01401101201ADDAA199000091GF106991061001012501051001KA1999M+02201MD1410001+9999REMSYN076AAXX  06181 14303 32638 60703 10190 20140 40120 54000 86050 333 10220 92311;EQDQ01  00002PRCP99
0169143030999992000100709004+45050+013620FM-12+000899999V0200901N004010075019N0200001N1+01781+01401101101ADDAY161031AY221031GF108991999071008001021999MD1210101+9999MW1601REMSYN076AAXX  07091 14303 41598 80904 10178 20140 40110 52010 76062 8872/ 333 92322;EQDQ01+000082SCOTLC
0186143030999992000100712004+45050+013620FM-12+000899999V0203601N003010075019N0200001N1+01621+01401101101ADDAA106001091AY161061AY261061GF108991999071008001021999MD1410001+9999MW1601REMSYN082AAXX  07121 14303 11598 83603 10162 20140 40110 54000 60011 76066 8872/ 333 92312;EQDQ01+000082SCOTLC
0141143030999992000100715004+45050+013620FM-12+000899999V0200701N002010120019N0200001N1+01721+01301101101ADDGF108991999041012501071001MD1410001+9999REMSYN070AAXX  07151 14303 42698 80702 10172 20130 40110 54000 88470 333 92311;EQDQ01+000082SCOTLC
0171143030999992000100718004+45050+013620FM-12+000899999V0200901N004010075019N0200001N1+01661+01301101101ADDAA199000021GF108991999041008001071001KA1999M+01941MD1410001+9999REMSYN076AAXX  07181 14303 32598 80904 10166 20130 40110 54002 88470 333 10194 92312;EQDQ01+000082SCOTLC
0225143030999992000100806004+45050+013620FM-12+000899999V0203601N003010075019N0100001N1+01421+01201101101ADDAA112006191AY161061AY261061GF108991999071008001021999KA1999N+01341MD1210201+9999MW1631SA1+2089REMSYN100AAXX  08061 14303 11597 83603 10142 20120 40110 52020 60062 76366 8872/ 222// 00208 333 20134 92311;EQDQ01+000082SCOTLC
0169143030999992000100809004+45050+013620FM-12+000899999V0200501N003010075019N0100001N1+01501+01201101201ADDAY161031AY261031GF108991999071008001021999MD1210101+9999MW1601REMSYN076AAXX  08091 14303 41597 80503 10150 20120 40120 52010 76066 8872/ 333 92311;EQDQ01+000082SCOTLC
0158143030999992000100812004+45050+013620FM-12+000899999V0203201N002010120019N0200001N1+01761+01301101201ADDAA106001091GF108991999021012501091001MD1410001+9999REMSYN076AAXX  08121 14303 12698 83202 10176 20130 40120 54000 60011 88290 333 92311;EQDQ01+000082SCOTLC
0141143030999992000100815004+45050+013620FM-12+000899999V0200501N003010075019N0200001N1+01841+01201101201ADDGF108991999071008001021999MD1410001+9999REMSYN070AAXX  08151 14303 42598 80503 10184 20120 40120 54000 8872/ 333 92311;EQDQ01+000082SCOTLC
0171143030999992000100818004+45050+013620FM-12+000899999V0200501N003010120019N0200001N1+01721+01301101301ADDAA199000021GF108991999021012501091001KA1999M+01951MD1210101+9999REMSYN076AAXX  08181 14303 32698 80503 10172 20130 40130 52010 88290 333 10195 92312;EQDQ01+000082SCOTLC
0191143030999992000100906004+45050+013620FM-12+000899999V0200901N004010075019N0200001N1+01661+01201100901ADDAA199000091GF108991081061008001999999KA1999N+01601MD1410001+9999SA1+2069REMSYN088AAXX  09061 14303 32598 80904 10166 20120 40090 54000 886// 222// 00206 333 20160 92312;EQDQ01  00002PRCP99
0169143030999992000100909004+45050+013620FM-12+000899999V0200901N003010075019N0100001N1+01541+01101100901ADDAY121031AY221031GF108991999071008001021999MD1410001+9999MW1631REMSYN076AAXX  09091 14303 41597 80903 10154 20110 40090 54000 76322 8872/ 333 92311;EQDQ01+000082SCOTLC
0139143030999992000100912004+45050+013620FM-12+000899999V0200901N002010075019N0100001N1+01561+01101100901ADDAA106003091GF108991081051008001999999MD1410001+9999REMSYN076AAXX  09121 14303 12597 80902 10156 20110 40090 54000 60031 885// 333 92311;
0122143030999992000100915004+45050+013620FM-12+000899999V0200501N003010075019N0100001N1+01561+01301100801ADDGF108991081091008001999999MD1710101+9999REMSYN070AAXX  09151 14303 42597 80503 10156 20130 40080 57010 889// 333 92312;
0158143030999992000100918004+45050+013620FM-12+000899999V0200501N003010075019N0100001N1+01421+01201100901ADDAA106000391GF108991081061008001999999KA1999M+01761MD1210101+9999REMSYN082AAXX  09181 14303 12597 80503 10142 20120 40090 52010 69931 886// 333 10176 92312;
0178143030999992000101006004+45050+013620FM-12+000899999V0201101N003019999999N0200001N1+01481+01101100501ADDAA112000191GF108991081001012501071001KA1999N+01401MD1710101+9999SA1+2069REMSYN094AAXX  10061 14303 12698 81103 10148 20110 40050 57010 69922 88070 222// 00206 333 20140 92311;
0150143030999992000101009004+45050+013620FM-12+000899999V0201401N004010075019N0100001N1+01541+01301100501ADDAY121031AY221031GF108991081061008001001001MD1410001+9999MW1611REMSYN076AAXX  10091 14303 41597 81404 10154 20130 40050 54000 76122 88600 333 92312;
0139143030999992000101012004+45050+013620FM-12+000899999V0202001N005010075019N0200001N1+01801+01501100301ADDAA106000191GF108991081051008001999999MD1710201+9999REMSYN076AAXX  10121 14303 12598 82005 10180 20150 40030 57020 69911 885// 333 92323;
0141143030999992000101015004+45050+013620FM-12+000899999V0201801N004010120019N0200001N1+01941+01401100201ADDGF108991999071012501011999MD1710101+9999REMSYN070AAXX  10151 14303 42698 81804 10194 20140 40020 57010 8871/ 333 92323;EQDQ01+000082SCOTLC
0186143030999992000101018004+45050+013620FM-12+000899999V0201801N006010075019N0040001N1+01721+01501100201ADDAA106000891AY161061AY221061GF108991081091008001999999KA1999M+01961MD1410001+9999MW1611REMSYN088AAXX  10181 14303 11596 81806 10172 20150 40020 54000 69971 76162 889// 333 10196 92334;
0197143030999992000101106004+45050+013620FM-12+000899999V0202401N004019999999N0200001N1+01881+01601100101ADDAA112006191GF105991999081008001001001KA1999N+01751MD1210101+9999SA1+2049REMSYN094AAXX  11061 14303 12598 52404 10188 20160 40010 52010 60062 84800 222// 00204 333 20175 92323;EQDQ01+000042SCOTLC
0141143030999992000101109004+45050+013620FM-12+000899999V0202401N004010120019N0200001N1+01941+01201100301ADDGF108991999071012501011999MD1210201+9999REMSYN070AAXX  11091 14303 42698 82404 10194 20120 40030 52020 8871/ 333 92323;EQDQ01+000082SCOTLC
0152143030999992000101112004+45050+013620FM-12+000899999V0202401N004010120019N0200001N1+02021+01501100201ADDAA199000091GF107991071021012501091001MD1710101+9999REMSYN070AAXX  11121 14303 32698 72404 10202 20150 40020 57010 87290 333 92323;EQDQ01  00002PRCP99
0141143030999992000101115004+45050+013620FM-12+000899999V0201801N003010120019N0200001N1+02021+01301100101ADDGF108991999041012501071001MD1710101+9999REMSYN070AAXX  11151 14303 42698 81803 10202 20130 40010 57010 88470 333 92323;EQDQ01+000082SCOTLC
0187143030999992000101118004+45050+013620FM-12+000899999V0201801N005010120019N0200001N1+02001+01501100201ADDAA199000091GF108991999041012501071001KA1999M+02041MD1210101+9999REMSYN076AAXX  11181 14303 32698 81805 10200 20150 40020 52010 88470 333 10204 92323;EQDQ01+000082SCOTLCQ02  00002PRCP99
0191143030999992000101206004+45050+013620FM-12+000899999V0201801N005019999999N0200001N1+02001+01801100401ADDAA199000091GF108991081001012501071001KA1999N+01981MD1210101+9999SA1+2059REMSYN088AAXX  12061 14303 32698 81805 10200 20180 40040 52010 88070 222// 00205 333 20198 92334;EQDQ01  00002PRCP99
0122143030999992000101209004+45050+013620FM-12+000899999V0201601N005019999999N0200001N1+02101+01801100601ADDGF107991071001012501041061MD1210201+9999REMSYN070AAXX  12091 14303 42698 71605 10210 20180 40060 52020 87046 333 92334;
0152143030999992000101212004+45050+013620FM-12+000899999V0201601N006012200019N0200001N1+02181+01701100701ADDAA199000091GF104991041001012501041051MD1210101+9999REMSYN070AAXX  12121 14303 32698 41606 10218 20170 40070 52010 84045 333 92334;EQDQ01  00002PRCP99
0116143030999992000101215004+45050+013620FM-12+000899999V0201601N005012200019N0200001N1+99999+99999100701ADDGF102991021001012501041061MD1410001+9999REMSYN064AAXX  12151 14303 42698 21605 20170 40070 54000 82046 333 92334;
0171143030999992000101218004+45050+013620FM-12+000899999V0201601N006012200019N0100001N1+02101+01901100901ADDAA199000091GF104991041001012501041061KA1999M+02221MD1210201+9999REMSYN076AAXX  12181 14303 32697 41606 10210 20190 40090 52020 84046 333 10222 92334;EQDQ01  00002PRCP99
0122143030999992000101309004+45050+013620FM-12+000899999V0201401N005010075019N0100001N1+02121+01801101401ADDGF108991081051008001999999MD1210201+9999REMSYN070AAXX  13091 14303 42597 81405 10212 20180 40140 52020 885// 333 92334;
0168143030999992000101312004+45050+013620FM-12+000899999V0201601N006010120019N0100001N1+02221+01901101201ADDAA199000091GF108991999071012501011999MD1710201+9999REMSYN070AAXX  13121 14303 32697 81606 10222 20190 40120 57020 8871/ 333 92334;EQDQ01+000082SCOTLCQ02  00002PRCP99
0141143030999992000101315004+45050+013620FM-12+000899999V0201401N007010075019N0100001N1+02241+01801101101ADDGF108991999071008001021999MD1710101+9999REMSYN070AAXX  13151 14303 42597 81407 10224 20180 40110 57010 8872/ 333 92344;EQDQ01+000082SCOTLC
0171143030999992000101318004+45050+013620FM-12+000899999V0201101N004010075019N0100001N1+02201+01701101401ADDAA199000091GF108991081051008001999999KA1999M+02251MD1210301+9999REMSYN076AAXX  13181 14303 32597 81104 10220 20170 40140 52030 885// 333 10225 92334;EQDQ01  00002PRCP99
0191143030999992000101406004+45050+013620FM-12+000899999V0201401N003019999999N0200001N1+02141+01701101601ADDAA199000091GF108991081001012501071001KA1999N+02101MD1210101+9999SA1+2059REMSYN088AAXX  14061 14303 32698 81403 10214 20170 40160 52010 88070 222// 00205 333 20210 92323;EQDQ01  00002PRCP99
0141143030999992000101409004+45050+013620FM-12+000899999V0203601N004012200019N0200001N1+02221+01801101801ADDGF103991001001999999001071MD1210201+9999REMSYN070AAXX  14091 14303 42898 33604 10222 20180 40180 52020 80007 333 92323;EQDQ01+022502SCOLCB
0162143030999992000101412004+45050+013620FM-12+000899999V0202001N002012200019N0200001N1+02501+01801101601ADDAA199000091GA1001+999999999GF100991001001999999001001MD1710201+9999REMSYN064AAXX  14121 14303 32998 02002 10250 20180 40160 57020 333 92322;EQDQ01  00002PRCP99
0122143030999992000101415004+45050+013620FM-12+000899999V0201801N001012200019N0200001N1+02301+01801101501ADDGF104991041001012501001081MD1710101+9999REMSYN070AAXX  14151 14303 42698 41801 10230 20180 40150 57010 84008 333 92322;
0181143030999992000101418004+45050+013620FM-12+000899999V0200501N001012200019N0200001N1+02081+01601101501ADDAA199000091GA1001+999999999GF100991001001999999001001KA1999M+02501MD1410001+9999REMSYN070AAXX  14181 14303 32998 00501 10208 20160 40150 54000 333 10250 92322;EQDQ01  00002PRCP99
0191143030999992000101506004+45050+013620FM-12+000899999V0200501N002012200019N0200001N1+02101+01501101201ADDAA199000091GF103991031021012501001051KA1999N+01941MD1710101+9999SA1+2069REMSYN088AAXX  15061 14303 32698 30502 10210 20150 40120 57010 83205 222// 00206 333 20194 92312;EQDQ01  00002PRCP99
0122143030999992000101509004+45050+013620FM-12+000899999V0201401N005012200019N0200001N1+02381+01701101201ADDGF103991031021012501001051MD1410001+9999REMSYN070AAXX  15091 14303 42698 31405 10238 20170 40120 54000 83205 333 92323;
0122143030999992000101515004+45050+013620FM-12+000899999V0201601N006010075019N0200001N1+02121+01801101101ADDGF107991071041008001041001MD1710101+9999REMSYN070AAXX  15151 14303 42598 71606 10212 20180 40110 57010 87440 333 92333;
0171143030999992000101518004+45050+013620FM-12+000899999V0202301N004010075019N0200001N1+01801+01401101501ADDAA199000091GF108991081051008001999999KA1999M+02451MD1210211+9999REMSYN076AAXX  15181 14303 32598 82304 10180 20140 40150 52021 885// 333 10245 92333;EQDQ01  00002PRCP99
0191143030999992000101606004+45050+013620FM-12+000899999V0200901N002012200019N0200001N1+01681+01501101701ADDAA199000091GF104991041071008001011999KA1999N+01601MD1210101+9999SA1+2049REMSYN088AAXX  16061 14303 32598 40902 10168 20150 40170 52010 8471/ 222// 00204 333 20160 92322;EQDQ01  00002PRCP99
0122143030999992000101609004+45050+013620FM-12+000899999V0201801N003012200019N0200001N1+02001+01501101801ADDGF103991031001008001041061MD1210101+9999REMSYN070AAXX  16091 14303 42598 31803 10200 20150 40180 52010 83046 333 92322;
0152143030999992000101612004+45050+013620FM-12+000899999V0201801N002012200019N0200001N1+02101+01501101901ADDAA199000091GF104991041081008001041001MD1210101+9999REMSYN070AAXX  16121 14303 32598 41802 10210 20150 40190 52010 84840 333 92312;EQDQ01  00002PRCP99
0122143030999992000101615004+45050+013620FM-12+000899999V0200501N001010075019N0200001N1+02601+01301101901ADDGF106991061091008001061001MD1410001+9999REMSYN070AAXX  16151 14303 42598 60501 10260 20130 40190 54000 86960 333 92311;
0171143030999992000101618004+45050+013620FM-12+000899999V0200501N001010075019N0200001N1+01901+01601101901ADDAA199000091GF107991071091008001061001KA1999M+02251MD1410001+9999REMSYN076AAXX  16181 14303 32598 70501 10190 20160 40190 54000 87960 333 10225 92311;EQDQ01  00002PRCP99
0191143030999992000101706004+45050+013620FM-12+000899999V0200901N003010075019N0200001N1+01761+01501102001ADDAA199000091GF108991081051008001999999KA1999N+01601MD1410001+9999SA1+2059REMSYN088AAXX  17061 14303 32598 80903 10176 20150 40200 54000 885// 222// 00205 333 20160 92312;EQDQ01  00002PRCP99
0122143030999992000101709004+45050+013620FM-12+000899999V0201601N003010075019N0200001N1+01841+01401102101ADDGF107991071041008001041001MD1210101+9999REMSYN070AAXX  17091 14303 42598 71603 10184 20140 40210 52010 87440 333 92312;
0161143030999992000101712004+45050+013620FM-12+000899999V0201801N002010075019N0200001N1+01801+01401102101ADDAA199000021AY151061AY211061GF108991081051008001999999MD1410001+9999MW1501REMSYN076AAXX  17121 14303 31598 81802 10180 20140 40210 54000 75051 885// 333 92312;
0122143030999992000101715004+45050+013620FM-12+000899999V0200501N001010075019N0200001N1+01761+01501102101ADDGF107991071041008001041001MD1410001+9999REMSYN070AAXX  17151 14303 42598 70501 10176 20150 40210 54000 87440 333 92311;
0158143030999992000101718004+45050+013620FM-12+000899999V0200501N001010075019N0200001N1+01641+01201102201ADDAA101000191GF107991071021008001001001KA1999M+01901MD1210101+9999REMSYN082AAXX  17181 14303 12598 70501 10164 20120 40220 52010 69915 87200 333 10190 92311;
0162143030999992000101812004+45050+013620FM-12+000899999V0203201N003012200019N0200001N1+01841+01301102201ADDAA199000091GA1001+999999999GF100991001001999999001001MD1410001+9999REMSYN064AAXX  18121 14303 32998 03203 10184 20130 40220 54000 333 92322;EQDQ01  00002PRCP99
0132143030999992000101815004+45050+013620FM-12+000899999V0202901N003012200019N0200001N1+01861+01401102201ADDGA1001+999999999GF100991001001999999001001MD1410001+9999REMSYN064AAXX  18151 14303 42998 02903 10186 20140 40220 54000 333 92322;
0171143030999992000101818004+45050+013620FM-12+000899999V0202901N002010075019N0200001N1+01701+01501102101ADDAA199000091GF106991061091008001061001KA1999M+01921MD1710101+9999REMSYN076AAXX  18181 14303 32598 62902 10170 20150 40210 57010 86960 333 10192 92322;EQDQ01  00002PRCP99
0191143030999992000101906004+45050+013620FM-12+000899999V0200501N001010075019N0200001N1+01661+01501102001ADDAA199000091GF108991081051008001999999KA1999N+01551MD1410001+9999SA1+2009REMSYN088AAXX  19061 14303 32598 80501 10166 20150 40200 54000 885// 222// 00200 333 20155 92311;EQDQ01  00002PRCP99
0122143030999992000101909004+45050+013620FM-12+000899999V0209999C000019999999N0200001N1+01781+01601102001ADDGF107991071001008001081001MD1410001+9999REMSYN070AAXX  19091 14303 42598 70000 10178 20160 40200 54000 87080 333 92301;
0152143030999992000101912004+45050+013620FM-12+000899999V0202901N001019999999N0200001N1+01851+01601102001ADDAA199000091GF107991071001008001081001MD1410001+9999REMSYN070AAXX  19121 14303 32598 72901 10185 20160 40200 54000 87080 333 92311;EQDQ01  00002PRCP99
0122143030999992000101915004+45050+013620FM-12+000899999V0202901N002019999999N0200001N1+01841+01401102001ADDGF106991061001008001071001MD1410001+9999REMSYN070AAXX  19151 14303 42598 62902 10184 20140 40200 54000 86070 333 92312;
0165143030999992000101918004+45050+013620FM-12+000899999V0203601N002010075019N0200001N1+01801+01501102101ADDAA199000091GF108991081021008001001001KA1999M+01901MD1210101+9999REMSYN070AAXX  19181 14303 32598 83602 10180 20150 40210 52010 88200 333 10190;EQDQ01  00002PRCP99
0201143030999992000102006004+45050+013620FM-12+000899999V0200501N001012200019N0200001N1+01601+01201102201ADDAA199000091GA1001+999999999GF100991001001999999001001KA1999N+01521MD1410001+9999SA1+2009REMSYN082AAXX  20061 14303 32998 00501 10160 20120 40220 54000 222// 00200 333 20152 92311;EQDQ01  00002PRCP99
0132143030999992000102009004+45050+013620FM-12+000899999V0200501N002012200019N0200001N1+01901+01401102301ADDGA1001+999999999GF100991001001999999001001MD1210101+9999REMSYN064AAXX  20091 14303 42998 00502 10190 20140 40230 52010 333 92311;
0152143030999992000102012004+45050+013620FM-12+000899999V0202701N002012200019N0200001N1+02041+01301102301ADDAA199000091GF104991041081008001041001MD1410001+9999REMSYN070AAXX  20121 14303 32598 42702 10204 20130 40230 54000 84840 333 92311;EQDQ01  00002PRCP99
0122143030999992000102015004+45050+013620FM-12+000899999V0202701N002010075019N0200001N1+01961+01301102301ADDGF106991061041008001071001MD1410001+9999REMSYN070AAXX  20151 14303 42598 62702 10196 20130 40230 54000 86470 333 92312;
0171143030999992000102018004+45050+013620FM-12+000899999V0200501N003010120019N0200001N1+01661+01201102401ADDAA199000091GF105991051081008001041001KA1999M+02151MD1210101+9999REMSYN076AAXX  20181 14303 32598 50503 10166 20120 40240 52010 85840 333 10215 92322;EQDQ01  00002PRCP99
0201143030999992000102106004+45050+013620FM-12+000899999V0200501N002012200019N0200001N1+01401+00801102601ADDAA199000091GA1001+999999999GF100991001001999999001001KA1999N+01351MD1210101+9999SA1+1969REMSYN082AAXX  21061 14303 32998 00502 10140 20080 40260 52010 222// 00196 333 20135 92312;EQDQ01  00002PRCP99
0132143030999992000102109004+45050+013620FM-12+000899999V0200901N002012200019N0200001N1+01701+01001102701ADDGA1001+999999999GF100991001001999999001001MD1210101+9999REMSYN064AAXX  21091 14303 42998 00902 10170 20100 40270 52010 333 92312;
0162143030999992000102112004+45050+013620FM-12+000899999V0202701N001012200019N0200001N1+01821+01201102801ADDAA199000091GA1001+999999999GF100991001001999999001001MD1210101+9999REMSYN064AAXX  21121 14303 32998 02701 10182 20120 40280 52010 333 92311;EQDQ01  00002PRCP99
0132143030999992000102115004+45050+013620FM-12+000899999V0202701N001012200019N0200001N1+01861+01201102801ADDGA1001+999999999GF100991001001999999001001MD1410001+9999REMSYN064AAXX  21151 14303 42998 02701 10186 20120 40280 54000 333 92301;
0181143030999992000102118004+45050+013620FM-12+000899999V0200501N001012200019N0200001N1+01661+01201102801ADDAA199000091GA1001+999999999GF100991001001999999001001KA1999M+01951MD1410001+9999REMSYN070AAXX  21181 14303 32998 00501 10166 20120 40280 54000 333 10195 92311;EQDQ01  00002PRCP99
0201143030999992000102206004+45050+013620FM-12+000899999V0200501N002012200019N0200001N1+01321+01101102901ADDAA199000091GA1001+999999999GF100991001001999999001001KA1999N+01251MD1410001+9999SA1+1959REMSYN082AAXX  22061 14303 32998 00502 10132 20110 40290 54000 222// 00195 333 20125 92311;EQDQ01  00002PRCP99
0132143030999992000102215004+45050+013620FM-12+000899999V0202901N002012200019N0200001N1+01761+01101102901ADDGA1001+999999999GF100991001001999999001001MD1710101+9999REMSYN064AAXX  22151 14303 42998 02902 10176 20110 40290 57010 333 92311;
0197143030999992000102218004+45050+013620FM-12+000899999V0203601N002012200019N0200001N1+01681+01201101902ADDAA199000091GA1001+999999999GF100991001001999999001001KA1999M+01901MD1410001+9999REMSYN070AAXX  22181 14303 32998 03602 10168 20120 40190 54000 333 10190 92311;EQDQ01+101903APOSLPQ02  00002PRCP99
0201143030999992000102306004+45050+013620FM-12+000899999V0203601N001012200019N0200001N1+01341+01101102801ADDAA199000091GA1001+999999999GF100991001001999999001001KA1999N+01251MD1110101+9999SA1+1969REMSYN082AAXX  23061 14303 32998 03601 10134 20110 40280 51010 222// 00196 333 20125 92311;EQDQ01  00002PRCP99
0132143030999992000102309004+45050+013620FM-12+000899999V0203601N001012200019N0200001N1+01701+01301102901ADDGA1001+999999999GF100991001001999999001001MD1210101+9999REMSYN064AAXX  23091 14303 42998 03601 10170 20130 40290 52010 333 92311;
0162143030999992000102312004+45050+013620FM-12+000899999V0202701N002012200019N0200001N1+01741+01301102901ADDAA199000091GA1001+999999999GF100991001001999999001001MD1410001+9999REMSYN064AAXX  23121 14303 32998 02702 10174 20130 40290 54000 333 92311;EQDQ01  00002PRCP99
0132143030999992000102315004+45050+013620FM-12+000899999V0202701N001012200019N0200001N1+01801+01301102701ADDGA1001+999999999GF100991001001999999001001MD1710201+9999REMSYN064AAXX  23151 14303 42998 02701 10180 20130 40270 57020 333 92301;
0181143030999992000102318004+45050+013620FM-12+000899999V0202701N001012200019N0100001N1+01641+01201102701ADDAA199000091GA1001+999999999GF100991001001999999001001KA1999M+01861MD1410001+9999REMSYN070AAXX  23181 14303 32997 02701 10164 20120 40270 54000 333 10186 92311;EQDQ01  00002PRCP99
0191143030999992000102406004+45050+013620FM-12+000899999V0200501N001019999999N0100001N1+01501+01301102501ADDAA199000091GF107991071001008001081001KA1999N+01221MD1710101+9999SA1+1959REMSYN088AAXX  24061 14303 32597 70501 10150 20130 40250 57010 87080 222// 00195 333 20122 92311;EQDQ01  00002PRCP99
0122143030999992000102409004+45050+013620FM-12+000899999V0202301N001019999999N0100001N1+01601+01201102601ADDGF105991051001008001071001MD1210101+9999REMSYN070AAXX  24091 14303 42597 52301 10160 20120 40260 52010 85070 333 92311;
0162143030999992000102412004+45050+013620FM-12+000899999V0202301N001012200019N0100001N1+01741+01301102501ADDAA199000091GA1001+999999999GF100991001001999999001001MD1710101+9999REMSYN064AAXX  24121 14303 32997 02301 10174 20130 40250 57010 333 92311;EQDQ01  00002PRCP99
0132143030999992000102415004+45050+013620FM-12+000899999V0203201N001012200019N0100001N1+01701+01301102401ADDGA1001+999999999GF100991001001999999001001MD1710101+9999REMSYN064AAXX  24151 14303 42997 03201 10170 20130 40240 57010 333 92311;
0181143030999992000102418004+45050+013620FM-12+000899999V0203601N001012200019N0100001N1+01541+01301102401ADDAA199000091GA1001+999999999GF100991001001999999001001KA1999M+01851MD1410001+9999REMSYN070AAXX  24181 14303 32997 03601 10154 20130 40240 54000 333 10185 92311;EQDQ01  00002PRCP99
0191143030999992000102506004+45050+013620FM-12+000899999V0202301N002019999999N0100001N1+01501+01301102201ADDAA199000091GF108991081001008001081001KA1999N+01281MD1710101+9999SA1+1949REMSYN088AAXX  25061 14303 32597 82302 10150 20130 40220 57010 88080 222// 00194 333 20128 92312;EQDQ01  00002PRCP99
0122143030999992000102509004+45050+013620FM-12+000899999V0202301N001019999999N0100001N1+01581+01201102201ADDGF107991071001008001071001MD1410001+9999REMSYN070AAXX  25091 14303 42597 72301 10158 20120 40220 54000 87070 333 92311;
0152143030999992000102512004+45050+013620FM-12+000899999V0202301N001010075019N0100001N1+01681+01301102201ADDAA199000091GF108991081021008001999999MD1410001+9999REMSYN070AAXX  25121 14303 32597 82301 10168 20130 40220 54000 882// 333 92311;EQDQ01  00002PRCP99
0122143030999992000102515004+45050+013620FM-12+000899999V0202301N001010075019N0100001N1+01641+01401102101ADDGF108991081021008001999999MD1710101+9999REMSYN070AAXX  25151 14303 42597 82301 10164 20140 40210 57010 882// 333 92311;
0171143030999992000102518004+45050+013620FM-12+000899999V0201801N001010075019N0100001N1+01661+01401102001ADDAA199000091GF107991071091008001061001KA1999M+01801MD1710101+9999REMSYN076AAXX  25181 14303 32597 71801 10166 20140 40200 57010 87960 333 10180 92311;EQDQ01  00002PRCP99
0191143030999992000102606004+45050+013620FM-12+000899999V0200901N002010075019N0200001N1+01701+01501101701ADDAA199000091GF108991081021008001001001KA1999N+01301MD1710101+9999SA1+1959REMSYN088AAXX  26061 14303 32598 80902 10170 20150 40170 57010 88200 222// 00195 333 20130 92312;EQDQ01  00002PRCP99
0141143030999992000102609004+45050+013620FM-12+000899999V0202901N001010075019N0200001N1+01741+01501101801ADDGF108991999041008001041001MD1210101+9999REMSYN070AAXX  26091 14303 42598 82901 10174 20150 40180 52010 88440 333 92312;EQDQ01+000082SCOTLC
0152143030999992000102612004+45050+013620FM-12+000899999V0209999C000010075019N0200001N1+01821+01401101701ADDAA199000091GF107991071021008001001001MD1710101+9999REMSYN070AAXX  26121 14303 32598 70000 10182 20140 40170 57010 87200 333 92311;EQDQ01  00002PRCP99
0122143030999992000102615004+45050+013620FM-12+000899999V0202701N001010075019N0200001N1+01801+01401101601ADDGF106991061011008001001001MD1710101+9999REMSYN070AAXX  26151 14303 42598 62701 10180 20140 40160 57010 86100 333 92311;
0171143030999992000102618004+45050+013620FM-12+000899999V0201801N002010075019N0200001N1+01801+01401101601ADDAA199000091GF105991051091008001061001KA1999M+01851MD1410001+9999REMSYN076AAXX  26181 14303 32598 51802 10180 20140 40160 54000 85960 333 10185 92311;EQDQ01  00002PRCP99
0191143030999992000102706004+45050+013620FM-12+000899999V0203401N002010075019N0100001N1+01641+01201101501ADDAA199000091GF108991081021008001001001KA1999N+01351MD1410001+9999SA1+1949REMSYN088AAXX  27061 14303 32597 83402 10164 20120 40150 54000 88200 222// 00194 333 20135 92312;EQDQ01  00002PRCP99
0122143030999992000102709004+45050+013620FM-12+000899999V0203401N001019999999N0100001N1+01741+01301101601ADDGF107991071001008001081001MD1210101+9999REMSYN070AAXX  27091 14303 42597 73401 10174 20130 40160 52010 87080 333 92311;
0152143030999992000102712004+45050+013620FM-12+000899999V0203401N002012200019N0200001N1+01841+01201101701ADDAA199000091GF103991031021012501001051MD1210101+9999REMSYN070AAXX  27121 14303 32698 33402 10184 20120 40170 52010 83205 333 92311;EQDQ01  00002PRCP99
0122143030999992000102715004+45050+013620FM-12+000899999V0202901N001012200019N0100001N1+01801+01301101701ADDGF103991031021012501001051MD1410001+9999REMSYN070AAXX  27151 14303 42697 32901 10180 20130 40170 54000 83205 333 92311;
0171143030999992000102718004+45050+013620FM-12+000899999V0200501N003010120019N0200001N1+01641+01201101901ADDAA199000091GF105991051081008001041001KA1999M+01881MD1210201+9999REMSYN076AAXX  27181 14303 32598 50503 10164 20120 40190 52020 85840 333 10188 92312;EQDQ01  00002PRCP99
0201143030999992000102806004+45050+013620FM-12+000899999V0200501N001012200019N0200001N1+01381+01001102101ADDAA199000091GA1001+999999999GF100991001001999999001001KA1999N+01321MD1410001+9999SA1+1959REMSYN082AAXX  28061 14303 32998 00501 10138 20100 40210 54000 222// 00195 333 20132 92311;EQDQ01  00002PRCP99
0132143030999992000102809004+45050+013620FM-12+000899999V0209999C000012200019N0200001N1+01821+01301102301ADDGA1001+999999999GF100991001001999999001001MD1210201+9999REMSYN064AAXX  28091 14303 42998 00000 10182 20130 40230 52020 333 92300;
0162143030999992000102812004+45050+013620FM-12+000899999V0202701N001012200019N0200001N1+01841+01201102301ADDAA199000091GA1001+999999999GF100991001001999999001001MD1410001+9999REMSYN064AAXX  28121 14303 32998 02701 10184 20120 40230 54000 333 92301;EQDQ01  00002PRCP99
0132143030999992000102815004+45050+013620FM-12+000899999V0202701N002012200019N0200001N1+01801+01301102201ADDGA1001+999999999GF100991001001999999001001MD1710101+9999REMSYN064AAXX  28151 14303 42998 02702 10180 20130 40220 57010 333 92311;
0181143030999992000102818004+45050+013620FM-12+000899999V0202701N001012200019N0200001N1+01721+01301102201ADDAA199000091GA1001+999999999GF100991001001999999001001KA1999M+01901MD1410001+9999REMSYN070AAXX  28181 14303 32998 02701 10172 20130 40220 54000 333 10190 92311;EQDQ01  00002PRCP99
0191143030999992000102906004+45050+013620FM-12+000899999V0202701N002010075019N0200001N1+01681+01201102101ADDAA199000091GF108991081021008001001001KA1999N+01341MD1410001+9999SA1+1949REMSYN088AAXX  29061 14303 32598 82702 10168 20120 40210 54000 88200 222// 00194 333 20134 92312;EQDQ01  00002PRCP99
0141143030999992000102909004+45050+013620FM-12+000899999V0202701N001010075019N0100001N1+01721+01301102201ADDGF108991999071008001021999MD1210101+9999REMSYN070AAXX  29091 14303 42597 82701 10172 20130 40220 52010 8872/ 333 92311;EQDQ01+000082SCOTLC
0152143030999992000102912004+45050+013620FM-12+000899999V0203601N001010075019N0100001N1+01801+01301102101ADDAA199000091GF108991081051008001999999MD1710101+9999REMSYN070AAXX  29121 14303 32597 83601 10180 20130 40210 57010 885// 333 92301;EQDQ01  00002PRCP99
0122143030999992000102915004+45050+013620FM-12+000899999V0201401N003019999999N0100001N1+01761+01301102001ADDGF108991081001012501051001MD1710101+9999REMSYN070AAXX  29151 14303 42697 81403 10176 20130 40200 57010 88050 333 92311;
0171143030999992000102918004+45050+013620FM-12+000899999V0201401N003010075019N0100001N1+01741+01501102001ADDAA199000091GF108991081051008001999999KA1999M+01861MD1410001+9999REMSYN076AAXX  29181 14303 32597 81403 10174 20150 40200 54000 885// 333 10186 92312;EQDQ01  00002PRCP99
0178143030999992000103006004+45050+013620FM-12+000899999V0201101N001019999999N0100001N1+01701+01501101801ADDAA112010991GF108991081001012501071999KA1999N+01651MD1410001+9999SA1+1959REMSYN094AAXX  30061 14303 12697 81101 10170 20150 40180 54000 60112 8807/ 222// 00195 333 20165 92312;
0122143030999992000103009004+45050+013620FM-12+000899999V0200901N001010075019N0100001N1+01821+01601101801ADDGF108991081051008001999999MD1410001+9999REMSYN070AAXX  30091 14303 42597 80901 10182 20160 40180 54000 885// 333 92312;
0152143030999992000103012004+45050+013620FM-12+000899999V0202701N002019999999N0100001N1+01881+01601101601ADDAA199000091GF108991081001012501051999MD1710201+9999REMSYN070AAXX  30121 14303 32697 82702 10188 20160 40160 57020 8805/ 333 92312;EQDQ01  00002PRCP99
0169143030999992000103015004+45050+013620FM-12+000899999V0202001N003010075019N0100001N1+01861+01401101401ADDAY121031AY221031GF108991999071008001021999MD1710201+9999MW1601REMSYN076AAXX  30151 14303 41597 82003 10186 20140 40140 57020 76022 8872/ 333 92312;EQDQ01+000082SCOTLC
0205143030999992000103018004+45050+013620FM-12+000899999V0201801N004010075019N0200001N1+01921+01601101301ADDAA112000391AY161061AY221061GF108991999071008001021999KA1999M+01941MD1710101+9999MW1601REMSYN088AAXX  30181 14303 11598 81804 10192 20160 40130 57010 69932 76062 8872/ 333 10194 92322;EQDQ01+000082SCOTLC
0178143030999992000103106004+45050+013620FM-12+000899999V0202001N005010120019N0200001N1+01941+01501100801ADDAA112000791GF105991051041012501071001KA1999N+01861MD1710201+9999SA1+1959REMSYN094AAXX  31061 14303 12698 52005 10194 20150 40080 57020 69902 85470 222// 00195 333 20186 92323;
0122143030999992000103109004+45050+013620FM-12+000899999V0202001N005019999999N0200001N1+01981+01501100901ADDGF106991061001012501081001MD1210101+9999REMSYN070AAXX  31091 14303 42698 62005 10198 20150 40090 52010 86080 333 92333;
0161143030999992000103112004+45050+013620FM-12+000899999V0201801N005010075019N0200001N1+01921+01701100801ADDAA199000021AY121061AY221061GF108991081051008001001001MD1710101+9999MW1511REMSYN076AAXX  31121 14303 31598 81805 10192 20170 40080 57010 75122 88500 333 92333;
0122143030999992000103115004+45050+013620FM-12+000899999V0201801N004010120019N0200001N1+01981+01501100601ADDGF107991071011012501021999MD1710201+9999REMSYN070AAXX  31151 14303 42698 71804 10198 20150 40060 57020 8712/ 333 92323;
0158143030999992000103118004+45050+013620FM-12+000899999V0201801N006010075019N0200001N1+01981+01501100501ADDAA112000791GF106991061061008001001001KA1999M+02041MD1710101+9999REMSYN082AAXX  31181 14303 12598 61806 10198 20150 40050 57010 69902 86600 333 10204 92333;
0225143030999992000110106004+45050+013620FM-12+000899999V0202701N003010075019N0200001N1+01601+01401100601ADDAA112010991AY161061AY221061GF108991999071008001021999KA1999N+01541MD1210101+9999MW1601SA1+1949REMSYN100AAXX  01061 14303 11598 82703 10160 20140 40060 52010 60112 76062 8872/ 222// 00194 333 20154 92323;EQDQ01+000082SCOTLC
0122143030999992000110109004+45050+013620FM-12+000899999V0202701N004010120019N0200001N1+01741+01301100801ADDGF107991071021012501091001MD1210201+9999REMSYN070AAXX  01091 14303 42698 72704 10174 20130 40080 52020 87290 333 92323;
0141143030999992000110115004+45050+013620FM-12+000899999V0202301N002012200019N0200001N1+01761+01101101001ADDGF102991001001999999001041MD1210101+9999REMSYN070AAXX  01151 14303 42898 22302 10176 20110 40100 52010 80004 333 92322;EQDQ01+022502SCOLCB
0152143030999992000110118004+45050+013620FM-12+000899999V0202301N003010150019N0200001N1+01721+01201101101ADDAA199000021GF107991071081012501041001KA1999M+02021MD1210101+9999REMSYN076AAXX  01181 14303 32698 72303 10172 20120 40110 52010 87840 333 10202 92312;
0191143030999992000110206004+45050+013620FM-12+000899999V0202301N003010120019N0200001N1+01621+01001101301ADDAA199000091GF107991061021012501091001KA1999N+01581MD1210101+9999SA1+1909REMSYN088AAXX  02061 14303 32698 72303 10162 20100 40130 52010 86290 222// 00190 333 20158 92322;EQDQ01  00002PRCP99
0122143030999992000110209004+45050+013620FM-12+000899999V0202301N004010150019N0200001N1+01761+01101101301ADDGF107991071081012501041001MD1410001+9999REMSYN070AAXX  02091 14303 42698 72304 10176 20110 40130 54000 87840 333 92323;
0152143030999992000110212004+45050+013620FM-12+000899999V0202301N005010120019N0200001N1+01781+01101101201ADDAA199000091GF107991071021012501091001MD1710101+9999REMSYN070AAXX  02121 14303 32698 72305 10178 20110 40120 57010 87290 333 92323;EQDQ01  00002PRCP99
0141143030999992000110215004+45050+013620FM-12+000899999V0202301N004019999999N0200001N1+01761+01301101201ADDGF105991999041012501071001MD1410001+9999REMSYN070AAXX  02151 14303 42698 52304 10176 20130 40120 54000 88470 333 92323;EQDQ01+000082SCOTLC
0187143030999992000110218004+45050+013620FM-12+000899999V0202301N004010120019N0200001N1+01781+01301101201ADDAA199000091GF108991999041012501071001KA1999M+01801MD1410001+9999REMSYN076AAXX  02181 14303 32698 82304 10178 20130 40120 54000 88470 333 10180 92323;EQDQ01+000082SCOTLCQ02  00002PRCP99
0186143030999992000110312004+45050+013620FM-12+000899999V0201801N006010075019N0200001N1+01841+01601100601ADDAA106008991AY161061AY261061GF108991999071008001021999MD1710201+9999MW1601REMSYN082AAXX  03121 14303 11598 81806 10184 20160 40060 57020 60091 76066 8872/ 333 92333;EQDQ01+000082SCOTLC
0122143030999992000110315004+45050+013620FM-12+000899999V0201601N006010075019N0200001N1+01861+01601100501ADDGF108991081051008001999999MD1710101+9999REMSYN070AAXX  03151 14303 42598 81606 10186 20160 40050 57010 885// 333 92334;
0178143030999992000110406004+45050+013620FM-12+000899999V0202301N004010120019N0200001N1+01641+01401100601ADDAA112006191GF108991081081008001999999KA1999N+01541MD1210101+9999SA1+1869REMSYN094AAXX  04061 14303 12598 82304 10164 20140 40060 52010 60062 888// 222// 00186 333 20154 92334;
0122143030999992000110409004+45050+013620FM-12+000899999V0202001N005010120019N0200001N1+01661+01301100801ADDGF108991081081008001999999MD1210201+9999REMSYN070AAXX  04091 14303 42598 82005 10166 20130 40080 52020 888// 333 92334;
0168143030999992000110412004+45050+013620FM-12+000899999V0202301N005010075019N0200001N1+01681+01201100901ADDAA199000091GF108991999071008001021999MD1210101+9999REMSYN070AAXX  04121 14303 32598 82305 10168 20120 40090 52010 8872/ 333 92333;EQDQ01+000082SCOTLCQ02  00002PRCP99
0122143030999992000110415004+45050+013620FM-12+000899999V0202301N005012200019N0200001N1+01681+01101101001ADDGF101991011011008001001001MD1210101+9999REMSYN070AAXX  04151 14303 42598 12305 10168 20110 40100 52010 81100 333 92333;
0171143030999992000110418004+45050+013620FM-12+000899999V0202701N006010075019N0200001N1+01701+01001101201ADDAA199000091GF106991061021008001001001KA1999M+01901MD1210201+9999REMSYN076AAXX  04181 14303 32598 62706 10170 20100 40120 52020 86200 333 10190 92334;EQDQ01  00002PRCP99
0178143030999992000110506004+45050+013620FM-12+000899999V0202701N005010075019N0200001N1+01541+01301101601ADDAA112000591GF106991061041008001041001KA1999N+01451MD1210201+9999SA1+1829REMSYN094AAXX  05061 14303 12598 62705 10154 20130 40160 52020 69942 86440 222// 00182 333 20145 92334;
0122143030999992000110509004+45050+013620FM-12+000899999V0202901N004012200019N0200001N1+01561+00901101701ADDGF104991041021008001001001MD1210101+9999REMSYN070AAXX  05091 14303 42598 42904 10156 20090 40170 52010 84200 333 92323;
0168143030999992000110512004+45050+013620FM-12+000899999V0202701N002019999999N0200001N1+01701+01001101601ADDAA199000091GF105991999021008001001001MD1710101+9999REMSYN070AAXX  05121 14303 32598 52702 10170 20100 40160 57010 81200 333 92322;EQDQ01+000012SCOTLCQ02  00002PRCP99
0141143030999992000110515004+45050+013620FM-12+000899999V0202501N003012200019N0200001N1+01621+00801101601ADDGF103991999021008001001001MD1410001+9999REMSYN070AAXX  05151 14303 42598 32503 10162 20080 40160 54000 81200 333 92312;EQDQ01+000012SCOTLC
0171143030999992000110518004+45050+013620FM-12+000899999V0202301N002019999999N0200001N1+01561+00901101601ADDAA199000091GF106991061001012501051001KA1999M+01761MD1410001+9999REMSYN076AAXX  05181 14303 32698 62302 10156 20090 40160 54000 86050 333 10176 92312;EQDQ01  00002PRCP99
0191143030999992000110606004+45050+013620FM-12+000899999V0202001N005010075019N0200001N1+01641+01001100801ADDAA199000091GF108991081051008001999999KA1999N+01301MD1710201+9999SA1+1789REMSYN088AAXX  06061 14303 32598 82005 10164 20100 40080 57020 885// 222// 00178 333 20130 92323;EQDQ01  00002PRCP99
0122143030999992000110609004+45050+013620FM-12+000899999V0201801N006010075019N0200001N1+01701+01201100601ADDGF108991081061008001999999MD1710201+9999REMSYN070AAXX  06091 14303 42598 81806 10170 20120 40060 57020 886// 333 92334;
0186143030999992000110612004+45050+013620FM-12+000899999V0201801N006010075019N0100001N1+01621+01401100201ADDAA106001091AY161061AY221061GF108991999071008001021999MD1710401+9999MW1611REMSYN082AAXX  06121 14303 11597 81806 10162 20140 40020 57040 60011 76162 8872/ 333 92334;EQDQ01+000082SCOTLC
0169143030999992000110615004+45050+013620FM-12+000899999V0201601N008010075019N0100001N1+01641+01401099801ADDAY161031AY221031GF108991999071008001021999MD1710401+9999MW1611REMSYN076AAXX  06151 14303 41597 81608 10164 20140 49980 57040 76162 8872/ 333 92345;EQDQ01+000082SCOTLC
0158143030999992000110618004+45050+013620FM-12+000899999V0201801N008010075019N0100001N1+01721+01301099501ADDAA106002091GF108991081091008001999999KA1999M+01751MD1710301+9999REMSYN082AAXX  06181 14303 12597 81808 10172 20130 49950 57030 60021 889// 333 10175 92355;
0178143030999992000110706004+45050+013620FM-12+000899999V0202301N006010120019N0200001N1+01701+01101099201ADDAA112020191GF108991081081008001001001KA1999N+01341MD1210101+9999SA1+1759REMSYN094AAXX  07061 14303 12598 82306 10170 20110 49920 52010 60202 88800 222// 00175 333 20134 92334;
0122143030999992000110709004+45050+013620FM-12+000899999V0202301N005010120019N0200001N1+01721+01001099301ADDGF107991071021012501091001MD1210101+9999REMSYN070AAXX  07091 14303 42698 72305 10172 20100 49930 52010 87290 333 92334;
0152143030999992000110712004+45050+013620FM-12+000899999V0202501N004010120019N0200001N1+01721+01001099401ADDAA199000091GF107991071021012501091001MD1210101+9999REMSYN070AAXX  07121 14303 32698 72504 10172 20100 49940 52010 87290 333 92334;EQDQ01  00002PRCP99
0122143030999992000110715004+45050+013620FM-12+000899999V0202001N004010120019N0200001N1+01721+01001099601ADDGF107991071021012501091001MD1210201+9999REMSYN070AAXX  07151 14303 42698 72004 10172 20100 49960 52020 87290 333 92333;
0186143030999992000110718004+45050+013620FM-12+000899999V0201101N003010120019N0200001N1+01381+00901099801ADDAA112003091AY191061AY221061GF106991061021012501091001KA1999M+01781MD1210201+9999MW1131REMSYN088AAXX  07181 14303 11698 61103 10138 20090 49980 52020 60032 71392 86290 333 10178 92333;
0178143030999992000110806004+45050+013620FM-12+000899999V0202501N006010075019N0200001N1+01541+00901100201ADDAA112029091GF108991081021008001001001KA1999N+01321MD1210201+9999SA1+1729REMSYN094AAXX  08061 14303 12598 82506 10154 20090 40020 52020 60292 88200 222// 00172 333 20132 92344;
0141143030999992000110809004+45050+013620FM-12+000899999V0202301N006010075019N0200001N1+01581+01001100401ADDGF108991999041008001041001MD1210201+9999REMSYN070AAXX  08091 14303 42598 82306 10158 20100 40040 52020 88440 333 92344;EQDQ01+000082SCOTLC
0152143030999992000110812004+45050+013620FM-12+000899999V0202301N006010075019N0200001N1+01621+01001100601ADDAA199000091GF107991071041008001041001MD1210201+9999REMSYN070AAXX  08121 14303 32598 72306 10162 20100 40060 52020 87440 333 92344;EQDQ01  00002PRCP99
0122143030999992000110815004+45050+013620FM-12+000899999V0202301N006010075019N0200001N1+01641+01001100601ADDGF108991081051008001999999MD1410001+9999REMSYN070AAXX  08151 14303 42598 82306 10164 20100 40060 54000 885// 333 92334;
0199143030999992000110818004+45050+013620FM-12+000899999V0201801N004010075019N0200001N1+01481+01101100801ADDAA199000091AY121061AY221061GF108991081091008001999999KA1999M+01651MD1210201+9999MW1131REMSYN082AAXX  08181 14303 31598 81804 10148 20110 40080 52020 71322 889// 333 10165 92334;EQDQ01  00002PRCP99
0178143030999992000110906004+45050+013620FM-12+000899999V0202701N004010360019N0200001N1+01481+01001101201ADDAA112000191GF108991041021008001081001KA1999N+01261MD1210201+9999SA1+1809REMSYN094AAXX  09061 14303 12598 82704 10148 20100 40120 52020 69922 84280 222// 00180 333 20126 92333;
0141143030999992000110909004+45050+013620FM-12+000899999V0202701N003010120019N0200001N1+01481+00901101401ADDGF108991999021012501091001MD1210201+9999REMSYN070AAXX  09091 14303 42698 82703 10148 20090 40140 52020 88290 333 92323;EQDQ01+000082SCOTLC
0168143030999992000110912004+45050+013620FM-12+000899999V0202301N004010075019N0200001N1+01621+01001101401ADDAA199000091GF108991999041008001041999MD1410001+9999REMSYN070AAXX  09121 14303 32598 82304 10162 20100 40140 54000 8844/ 333 92323;EQDQ01+000082SCOTLCQ02  00002PRCP99
0150143030999992000110915004+45050+013620FM-12+000899999V0203201N004010075019N0100001N1+01401+01001101401ADDAY121031AY221031GF108991081091008001999999MD1410001+9999MW1951REMSYN076AAXX  09151 14303 41597 83204 10140 20100 40140 54000 79522 889// 333 92323;
0186143030999992000110918004+45050+013620FM-12+000899999V0201801N004010075019N0200001N1+01301+01101101501ADDAA112007991AY191061AY221061GF108991081091008001999999KA1999M+01651MD1210101+9999MW1601REMSYN088AAXX  09181 14303 11598 81804 10130 20110 40150 52010 60082 76092 889// 333 10165 92323;
0178143030999992000111006004+45050+013620FM-12+000899999V0202701N003012200019N0200001N1+01261+00801102001ADDAA112001091GF103991031081012501071001KA1999N+01141MD1210101+9999SA1+1709REMSYN094AAXX  10061 14303 12698 32703 10126 20080 40200 52010 60012 83870 222// 00170 333 20114 92312;
0161143030999992000111012004+45050+013620FM-12+000899999V0202701N005010075019N0100001N1+01421+00801102201ADDAA199000021AY121061AY221061GF108991081091008001999999MD1410001+9999MW1951REMSYN076AAXX  10121 14303 31597 82705 10142 20080 40220 54000 79522 889// 333 92323;
0122143030999992000111015004+45050+013620FM-12+000899999V0200901N002010120019N0200001N1+01401+00801102101ADDGF106991061021012501091001MD1710101+9999REMSYN070AAXX  10151 14303 42698 60902 10140 20080 40210 57010 86290 333 92311;
0158143030999992000111018004+45050+013620FM-12+000899999V0200501N002010120019N0200001N1+01261+00901102201ADDAA112000891GF108991081081008001001001KA1999M+01501MD1210101+9999REMSYN082AAXX  10181 14303 12598 80502 10126 20090 40220 52010 69972 88800 333 10150 92311;
0191143030999992000111106004+45050+013620FM-12+000899999V0200501N003012200019N0100001N1+01041+00901102601ADDAA199000091GF103991031041008001041001KA1999N+01001MD1210101+9999SA1+1669REMSYN088AAXX  11061 14303 32597 30503 10104 20090 40260 52010 83440 222// 00166 333 20100 92311;EQDQ01  00002PRCP99
0122143030999992000111109004+45050+013620FM-12+000899999V0203601N003010075019N0100001N1+01161+00801102801ADDGF106991061051008001999999MD1210201+9999REMSYN070AAXX  11091 14303 42597 63603 10116 20080 40280 52020 865// 333 92311;
0152143030999992000111112004+45050+013620FM-12+000899999V0203601N003010075019N0100001N1+01281+00901102801ADDAA199000091GF108991081021008001001001MD1410001+9999REMSYN070AAXX  11121 14303 32597 83603 10128 20090 40280 54000 88200 333 92311;EQDQ01  00002PRCP99
0122143030999992000111115004+45050+013620FM-12+000899999V0203601N002010075019N0200001N1+01241+00801102801ADDGF108991081021008001001001MD1410001+9999REMSYN070AAXX  11151 14303 42598 83602 10124 20080 40280 54000 88200 333 92311;
0171143030999992000111118004+45050+013620FM-12+000899999V0202701N002010075019N0100001N1+01141+00801102801ADDAA199000091GF108991081021008001001001KA1999M+01301MD1410001+9999REMSYN076AAXX  11181 14303 32597 82702 10114 20080 40280 54000 88200 333 10130 92301;EQDQ01  00002PRCP99
0191143030999992000111206004+45050+013620FM-12+000899999V0202701N002010075019N0100001N1+01061+00701102601ADDAA199000091GF108991081051008001999999KA1999N+01001MD1710101+9999SA1+1729REMSYN088AAXX  12061 14303 32597 82702 10106 20070 40260 57010 885// 222// 00172 333 20100 92301;EQDQ01  00002PRCP99
0122143030999992000111209004+45050+013620FM-12+000899999V0200901N001010120019N0200001N1+01221+00801102601ADDGF105991051081008001041001MD1410001+9999REMSYN070AAXX  12091 14303 42598 50901 10122 20080 40260 54000 85840 333 92311;
0152143030999992000111212004+45050+013620FM-12+000899999V0202701N001012200019N0200001N1+01381+01001102501ADDAA199000091GF104991041081008001041001MD1710101+9999REMSYN070AAXX  12121 14303 32598 42701 10138 20100 40250 57010 84840 333 92301;EQDQ01  00002PRCP99
0122143030999992000111215004+45050+013620FM-12+000899999V0202901N001010075019N0200001N1+01341+00901102301ADDGF106991061041008001071001MD1710201+9999REMSYN070AAXX  12151 14303 42598 62901 10134 20090 40230 57020 86470 333 92311;
0171143030999992000111218004+45050+013620FM-12+000899999V0200901N002010075019N0200001N1+01341+01101102201ADDAA199000091GF108991081021008001001001KA1999M+01451MD1710101+9999REMSYN076AAXX  12181 14303 32598 80902 10134 20110 40220 57010 88200 333 10145 92311;EQDQ01  00002PRCP99
0191143030999992000111306004+45050+013620FM-12+000899999V0201801N006010075019N0200001N1+01721+01501101501ADDAA199000091GF108991081051008001999999KA1999N+01201MD1710101+9999SA1+1709REMSYN088AAXX  13061 14303 32598 81806 10172 20150 40150 57010 885// 222// 00170 333 20120 92344;EQDQ01  00002PRCP99
0122143030999992000111309004+45050+013620FM-12+000899999V0201801N006010075019N0200001N1+01741+01501101501ADDGF108991081051008001999999MD1410001+9999REMSYN070AAXX  13091 14303 42598 81806 10174 20150 40150 54000 885// 333 92344;
0152143030999992000111312004+45050+013620FM-12+000899999V0201801N007010075019N0200001N1+01761+01501101501ADDAA199000091GF107991071041008001041001MD1410001+9999REMSYN070AAXX  13121 14303 32598 71807 10176 20150 40150 54000 87440 333 92344;EQDQ01  00002PRCP99
0171143030999992000111318004+45050+013620FM-12+000899999V0201801N006010075019N0200001N1+01781+01601101301ADDAA199000091GF107991071041008001041001KA1999M+01801MD1410001+9999REMSYN076AAXX  13181 14303 32598 71806 10178 20160 40130 54000 87440 333 10180 92344;EQDQ01  00002PRCP99
0191143030999992000111406004+45050+013620FM-12+000899999V0201601N005010075019N0200001N1+01801+01601101101ADDAA199000091GF106991051041008001071001KA1999N+01601MD1410001+9999SA1+1709REMSYN088AAXX  14061 14303 32598 61605 10180 20160 40110 54000 85470 222// 00170 333 20160 92333;EQDQ01  00002PRCP99
0122143030999992000111409004+45050+013620FM-12+000899999V0201801N006010075019N0200001N1+01821+01601101101ADDGF107991071041008001041001MD1410001+9999REMSYN070AAXX  14091 14303 42598 71806 10182 20160 40110 54000 87440 333 92334;
0152143030999992000111412004+45050+013620FM-12+000899999V0201601N006010075019N0200001N1+01841+01601101001ADDAA199000091GF108991081051008001999999MD1710101+9999REMSYN070AAXX  14121 14303 32598 81606 10184 20160 40100 57010 885// 333 92334;EQDQ01  00002PRCP99
0122143030999992000111415004+45050+013620FM-12+000899999V0201801N007010075019N0200001N1+01841+01601101001ADDGF108991081051008001999999MD1410001+9999REMSYN070AAXX  14151 14303 42598 81807 10184 20160 40100 54000 885// 333 92344;
0171143030999992000111418004+45050+013620FM-12+000899999V0201601N007010075019N0200001N1+01841+01601101101ADDAA199000091GF108991081051008001999999KA1999M+01881MD1210101+9999REMSYN076AAXX  14181 14303 32598 81607 10184 20160 40110 52010 885// 333 10188 92344;EQDQ01  00002PRCP99
0178143030999992000111506004+45050+013620FM-12+000899999V0202001N002010075019N0200001N1+01741+01501101501ADDAA112007191GF107991071041008001041001KA1999N+01651MD1210101+9999SA1+1709REMSYN094AAXX  15061 14303 12598 72002 10174 20150 40150 52010 60072 87440 222// 00170 333 20165 92323;
0122143030999992000111509004+45050+013620FM-12+000899999V0203601N001012200019N0200001N1+01701+01501101701ADDGF104991041081008001041001MD1210201+9999REMSYN070AAXX  15091 14303 42598 43601 10170 20150 40170 52020 84840 333 92322;
0152143030999992000111512004+45050+013620FM-12+000899999V0200901N001010075019N0200001N1+01801+01301101801ADDAA199000091GF105991051091008001061001MD1210101+9999REMSYN070AAXX  15121 14303 32598 50901 10180 20130 40180 52010 85960 333 92322;EQDQ01  00002PRCP99
0169143030999992000111515004+45050+013620FM-12+000899999V0203601N001010075019N0200001N1+01701+01301101701ADDAY151031AY211031GF108991999071008001021999MD1710101+9999MW1501REMSYN076AAXX  15151 14303 41598 83601 10170 20130 40170 57010 75051 8872/ 333 92312;EQDQ01+000082SCOTLC
0205143030999992000111518004+45050+013620FM-12+000899999V0203601N002010075019N0200001N1+01441+01201101601ADDAA101002091AY161061AY211061GF108991999071008001021999KA1999M+01851MD1710101+9999MW1601REMSYN088AAXX  15181 14303 11598 83602 10144 20120 40160 57010 60025 76061 8872/ 333 10185 92312;EQDQ01+000082SCOTLC
0178143030999992000111606004+45050+013620FM-12+000899999V0202501N003010075019N0200001N1+01481+01301101501ADDAA112021191GF108991081051008001999999KA1999N+01401MD1410001+9999SA1+1689REMSYN094AAXX  16061 14303 12598 82503 10148 20130 40150 54000 60212 885// 222// 00168 333 20140 92323;
0122143030999992000111609004+45050+013620FM-12+000899999V0209999C000010075019N0200001N1+01501+01301101601ADDGF108991081051008001999999MD1210101+9999REMSYN070AAXX  16091 14303 42598 80000 10150 20130 40160 52010 885// 333 92322;
0152143030999992000111612004+45050+013620FM-12+000899999V0200901N001010075019N0200001N1+01621+01401101501ADDAA199000091GF108991081051008001999999MD1710101+9999REMSYN070AAXX  16121 14303 32598 80901 10162 20140 40150 57010 885// 333 92312;EQDQ01  00002PRCP99
0122143030999992000111615004+45050+013620FM-12+000899999V0201601N005010075019N0200001N1+01801+01601101401ADDGF107991071041008001041001MD1710101+9999REMSYN070AAXX  16151 14303 42598 71605 10180 20160 40140 57010 87440 333 92333;
0171143030999992000111618004+45050+013620FM-12+000899999V0201601N005010075019N0200001N1+01801+01601101301ADDAA199000091GF105991051091008001061001KA1999M+01841MD1710101+9999REMSYN076AAXX  16181 14303 32598 51605 10180 20160 40130 57010 85960 333 10184 92334;EQDQ01  00002PRCP99
0191143030999992000111706004+45050+013620FM-12+000899999V0201401N005012200019N0200001N1+01741+01301100801ADDAA199000091GF104991041081008001041001KA1999N+01421MD1710201+9999SA1+1689REMSYN088AAXX  17061 14303 32598 41405 10174 20130 40080 57020 84840 222// 00168 333 20142 92334;EQDQ01  00002PRCP99
0122143030999992000111709004+45050+013620FM-12+000899999V0201401N005010075019N0200001N1+01841+01601100801ADDGF107991071041008001041001MD1410001+9999REMSYN070AAXX  17091 14303 42598 71405 10184 20160 40080 54000 87440 333 92334;
0152143030999992000111712004+45050+013620FM-12+000899999V0201601N006010075019N0200001N1+01841+01601100601ADDAA199000091GF108991081051008001999999MD1710201+9999REMSYN070AAXX  17121 14303 32598 81606 10184 20160 40060 57020 885// 333 92334;EQDQ01  00002PRCP99
0122143030999992000111715004+45050+013620FM-12+000899999V0201801N005010075019N0200001N1+01741+01301100501ADDGF106991061021008001001001MD1710101+9999REMSYN070AAXX  17151 14303 42598 61805 10174 20130 40050 57010 86200 333 92333;
0171143030999992000111718004+45050+013620FM-12+000899999V0202201N004010075019N0200001N1+01721+01301100601ADDAA199000091GF105991051021008001001011KA1999M+01861MD1210101+9999REMSYN076AAXX  17181 14303 32598 52204 10172 20130 40060 52010 85201 333 10186 92333;EQDQ01  00002PRCP99
0191143030999992000111806004+45050+013620FM-12+000899999V0202001N003010075019N0200001N1+01541+00901100801ADDAA199000091GF107991071021008001001001KA1999N+01351MD1410001+9999SA1+1689REMSYN088AAXX  18061 14303 32598 72003 10154 20090 40080 54000 87200 222// 00168 333 20135 92333;EQDQ01  00002PRCP99
0122143030999992000111809004+45050+013620FM-12+000899999V0202001N004010075019N0200001N1+01601+00901101001ADDGF107991071021008001001001MD1210201+9999REMSYN070AAXX  18091 14303 42598 72004 10160 20090 40100 52020 87200 333 92323;
0152143030999992000111812004+45050+013620FM-12+000899999V0202301N002010075019N0200001N1+01601+01001101001ADDAA199000091GF105991051091008001061001MD1410001+9999REMSYN070AAXX  18121 14303 32598 52302 10160 20100 40100 54000 85960 333 92323;EQDQ01  00002PRCP99
0122143030999992000111815004+45050+013620FM-12+000899999V0203601N001012200019N0200001N1+01581+00901101101ADDGF104991041011008001001001MD1210101+9999REMSYN070AAXX  18151 14303 42598 43601 10158 20090 40110 52010 84100 333 92312;
0181143030999992000111818004+45050+013620FM-12+000899999V0203601N001012200019N0200001N1+01441+00801101201ADDAA199000091GA1001+999999999GF100991001001999999001001KA1999M+01701MD1210101+9999REMSYN070AAXX  18181 14303 32998 03601 10144 20080 40120 52010 333 10170 92312;EQDQ01  00002PRCP99
0191143030999992000111906004+45050+013620FM-12+000899999V0200501N001019999999N0200001N1+01121+00701100901ADDAA199000091GF108991081001008001081999KA1999N+01051MD1710101+9999SA1+1669REMSYN088AAXX  19061 14303 32598 80501 10112 20070 40090 57010 8808/ 222// 00166 333 20105 92312;EQDQ01  00002PRCP99
0141143030999992000111909004+45050+013620FM-12+000899999V0203601N002010075019N0200001N1+01201+00601100801ADDGF108991999041008001041001MD1710101+9999REMSYN070AAXX  19091 14303 42598 83602 10120 20060 40080 57010 88440 333 92312;EQDQ01+000082SCOTLC
0161143030999992000111912004+45050+013620FM-12+000899999V0203601N002010075019N0200001N1+01181+00801100601ADDAA199000021AY161061AY211061GF108991081051008001999999MD1710201+9999MW1601REMSYN076AAXX  19121 14303 31598 83602 10118 20080 40060 57020 76061 885// 333 92312;
0150143030999992000111915004+45050+013620FM-12+000899999V0203601N001010075019N0200001N1+01101+00901100501ADDAY161031AY211031GF108991081051008001999999MD1710101+9999MW1601REMSYN076AAXX  19151 14303 41598 83601 10110 20090 40050 57010 76061 885// 333 92311;
0158143030999992000111918004+45050+013620FM-12+000899999V0202901N002010075019N0200001N1+01141+00801100501ADDAA101005191GF108991081051008001999999KA1999M+01251MD1410001+9999REMSYN082AAXX  19181 14303 12598 82902 10114 20080 40050 54000 60055 885// 333 10125 92311;
0191143030999992000112006004+45050+013620FM-12+000899999V0201601N004010075019N0200001N1+01301+01001100801ADDAA199000091GF108991081051008001999999KA1999N+01021MD1410001+9999SA1+1649REMSYN088AAXX  20061 14303 32598 81604 10130 20100 40080 54000 885// 222// 00164 333 20102 92322;EQDQ01  00002PRCP99
0169143030999992000112009004+45050+013620FM-12+000899999V0201801N006010075019N0200001N1+01341+01101101001ADDAY161031AY211031GF108991999071008001021999MD1210201+9999MW1601REMSYN076AAXX  20091 14303 41598 81806 10134 20110 40100 52020 76061 8872/ 333 92334;EQDQ01+000082SCOTLC
0180143030999992000112012004+45050+013620FM-12+000899999V0201801N007010075019N0200001N1+01461+01201100901ADDAA199000021AY161061AY201061GF108991999071008001021999MD1710101+9999MW1601REMSYN076AAXX  20121 14303 31598 81807 10146 20120 40090 57010 76060 8872/ 333 92334;EQDQ01+000082SCOTLC
0122143030999992000112015004+45050+013620FM-12+000899999V0201801N007010075019N0200001N1+01501+01201100901ADDGF108991081051008001999999MD1410001+9999REMSYN070AAXX  20151 14303 42598 81807 10150 20120 40090 54000 885// 333 92344;
0205143030999992000112018004+45050+013620FM-12+000899999V0201801N007010075019N0200001N1+01481+01301100901ADDAA112007191AY161061AY211061GF108991999071008001021999KA1999M+01551MD1410001+9999MW1601REMSYN088AAXX  20181 14303 11598 81807 10148 20130 40090 54000 60072 76061 8872/ 333 10155 92344;EQDQ01+000082SCOTLC
0178143030999992000112106004+45050+013620FM-12+000899999V0201801N006010075019N0200001N1+01701+01301100601ADDAA109004191GF108991081051008001999999KA1999N+01521MD1410001+9999SA1+1649REMSYN094AAXX  21061 14303 12598 81806 10170 20130 40060 54000 60048 885// 222// 00164 333 20152 92344;
0122143030999992000112109004+45050+013620FM-12+000899999V0202001N006010075019N0200001N1+01701+01201100701ADDGF108991081051008001999999MD1210101+9999REMSYN070AAXX  21091 14303 42598 82006 10170 20120 40070 52010 885// 333 92344;
0152143030999992000112112004+45050+013620FM-12+000899999V0202001N005010075019N0200001N1+01721+01301100701ADDAA199000091GF108991081051008001999999MD1410001+9999REMSYN070AAXX  21121 14303 32598 82005 10172 20130 40070 54000 885// 333 92334;EQDQ01  00002PRCP99
0122143030999992000112115004+45050+013620FM-12+000899999V0202901N003010075019N0200001N1+01421+01201100901ADDGF106991061021008001001001MD1210201+9999REMSYN070AAXX  21151 14303 42598 62903 10142 20120 40090 52020 86200 333 92323;
0171143030999992000112118004+45050+013620FM-12+000899999V0203601N001010120019N0200001N1+01381+01101101001ADDAA199000091GF105991051081008001061001KA1999M+01751MD1210101+9999REMSYN076AAXX  21181 14303 32598 53601 10138 20110 40100 52010 85860 333 10175 92323;EQDQ01  00002PRCP99
0207143030999992000112206004+45050+013620FM-12+000899999V0202501N003010075019N0200001N1+01261+01101101501ADDAA199000091GF108991999041008001041001KA1999N+01151MD1210101+9999SA1+1629REMSYN088AAXX  22061 14303 32598 82503 10126 20110 40150 52010 88440 222// 00162 333 20115 92322;EQDQ01+000082SCOTLCQ02  00002PRCP99
0122143030999992000112209004+45050+013620FM-12+000899999V0202501N001010075019N0200001N1+01301+01101101701ADDGF108991081021008001001001MD1210201+9999REMSYN070AAXX  22091 14303 42598 82501 10130 20110 40170 52020 88200 333 92312;
0152143030999992000112212004+45050+013620FM-12+000899999V0202501N002010120019N0200001N1+01401+01001101701ADDAA199000091GF105991051081008001041001MD1410001+9999REMSYN070AAXX  22121 14303 32598 52502 10140 20100 40170 54000 85840 333 92311;EQDQ01  00002PRCP99
0122143030999992000112215004+45050+013620FM-12+000899999V0202501N001019999999N0200001N1+01361+01001101701ADDGF105991051001008001081001MD1410001+9999REMSYN070AAXX  22151 14303 42598 52501 10136 20100 40170 54000 85080 333 92311;
0171143030999992000112218004+45050+013620FM-12+000899999V0202301N001012200019N0200001N1+01341+01101101801ADDAA199000091GF104991041081008001041001KA1999M+01481MD1210101+9999REMSYN076AAXX  22181 14303 32598 42301 10134 20110 40180 52010 84840 333 10148 92311;EQDQ01  00002PRCP99
0191143030999992000112306004+45050+013620FM-12+000899999V0200901N003012200019N0200001N1+01201+01001101801ADDAA199000091GF103991031081008001041001KA1999N+01051MD1410001+9999SA1+1669REMSYN088AAXX  23061 14303 32598 30903 10120 20100 40180 54000 83840 222// 00166 333 20105 92312;EQDQ01  00002PRCP99
0122143030999992000112309004+45050+013620FM-12+000899999V0200901N002012200019N0200001N1+01341+01101101801ADDGF104991041091008001061001MD1410001+9999REMSYN070AAXX  23091 14303 42598 40902 10134 20110 40180 54000 84960 333 92312;
0152143030999992000112312004+45050+013620FM-12+000899999V0201401N002010075019N0200001N1+01501+01101101601ADDAA199000091GF106991061021008001001001MD1710201+9999REMSYN070AAXX  23121 14303 32598 61402 10150 20110 40160 57020 86200 333 92312;EQDQ01  00002PRCP99
0122143030999992000112315004+45050+013620FM-12+000899999V0201801N003010120019N0200001N1+01541+01101101501ADDGF107991071041012501041001MD1710101+9999REMSYN070AAXX  23151 14303 42698 71803 10154 20110 40150 57010 87440 333 92322;
0171143030999992000112318004+45050+013620FM-12+000899999V0201601N003010075019N0200001N1+01501+01201101501ADDAA199000091GF106991061091008001061001KA1999M+01581MD1410001+9999REMSYN076AAXX  23181 14303 32598 61603 10150 20120 40150 54000 86960 333 10158 92322;EQDQ01  00002PRCP99
0191143030999992000112406004+45050+013620FM-12+000899999V0201401N004010075019N0200001N1+01521+01301101001ADDAA199000091GF107991071021008001001001KA1999N+01101MD1710101+9999SA1+1649REMSYN088AAXX  24061 14303 32598 71404 10152 20130 40100 57010 87200 222// 00164 333 20110 92322;EQDQ01  00002PRCP99
0141143030999992000112409004+45050+013620FM-12+000899999V0200901N002010075019N0200001N1+01581+01301101001ADDGF108991999041008001041001MD1410001+9999REMSYN070AAXX  24091 14303 42598 80902 10158 20130 40100 54000 88440 333 92322;EQDQ01+000082SCOTLC
0152143030999992000112412004+45050+013620FM-12+000899999V0201601N005010075019N0200001N1+01701+01301100901ADDAA199000091GF106991061021008001001001MD1710101+9999REMSYN070AAXX  24121 14303 32598 61605 10170 20130 40090 57010 86200 333 92323;EQDQ01  00002PRCP99
0122143030999992000112415004+45050+013620FM-12+000899999V0201601N005010075019N0200001N1+01701+01301100801ADDGF108991081051008001999999MD1710101+9999REMSYN070AAXX  24151 14303 42598 81605 10170 20130 40080 57010 885// 333 92333;
0171143030999992000112418004+45050+013620FM-12+000899999V0201801N006010075019N0200001N1+01701+01401100701ADDAA199000091GF108991081051008001999999KA1999M+01751MD1710101+9999REMSYN076AAXX  24181 14303 32598 81806 10170 20140 40070 57010 885// 333 10175 92334;EQDQ01  00002PRCP99
0197143030999992000112506004+45050+013620FM-12+000899999V0202301N002010075019N0200001N1+01241+01001100701ADDAA101007991GF108991081051008001999999KA1999M+99999MD1410001+9999SA1+1629REMSYN094AAXX  25061 14303 12598 82302 10124 20100 40070 54000 60085 885// 222// 00162 333 10105 92323;EQDQ01 +01052ATMX  
0150143030999992000112509004+45050+013620FM-12+000899999V0202501N002010075019N0200001N1+01261+01101100801ADDAY151031AY201031GF108991081051008001999999MD1210101+9999MW1501REMSYN076AAXX  25091 14303 41598 82502 10126 20110 40080 52010 75050 885// 333 92322;
0133143030999992000112512004+45050+013620FM-12+000899999V0202301N002010075019N0200001N1+01381+01001100801ADDAA199000021GF107991071041008001041001MD1410001+9999REMSYN070AAXX  25121 14303 32598 72302 10138 20100 40080 54000 87440 333 92312;
0122143030999992000112515004+45050+013620FM-12+000899999V0202501N002010075019N0200001N1+01221+01001100801ADDGF105991051091008001061001MD1410001+9999REMSYN070AAXX  25151 14303 42598 52502 10122 20100 40080 54000 85960 333 92312;
0158143030999992000112518004+45050+013620FM-12+000899999V0202201N002012200019N0200001N1+01201+00801100801ADDAA112002091GF104991041081008001041001KA1999M+01451MD1410001+9999REMSYN082AAXX  25181 14303 12598 42202 10120 20080 40080 54000 60022 84840 333 10145 92312;
0191143030999992000112606004+45050+013620FM-12+000899999V0202301N003010075019N0200001N1+01161+00801100701ADDAA199000091GF107991071021008001001001KA1999N+01051MD1710101+9999SA1+1649REMSYN088AAXX  26061 14303 32598 72303 10116 20080 40070 57010 87200 222// 00164 333 20105 92322;EQDQ01  00002PRCP99
0122143030999992000112609004+45050+013620FM-12+000899999V0202301N002010075019N0200001N1+01241+00801100701ADDGF106991061021008001001001MD1410001+9999REMSYN070AAXX  26091 14303 42598 62302 10124 20080 40070 54000 86200 333 92322;
0168143030999992000112612004+45050+013620FM-12+000899999V0202301N002010075019N0200001N1+01321+00901100601ADDAA199000091GF108991999041008001041001MD1710101+9999REMSYN070AAXX  26121 14303 32598 82302 10132 20090 40060 57010 88440 333 92322;EQDQ01+000082SCOTLCQ02  00002PRCP99
0122143030999992000112615004+45050+013620FM-12+000899999V0200501N003010075019N0200001N1+01281+01101100501ADDGF108991081051008001999999MD1710101+9999REMSYN070AAXX  26151 14303 42598 80503 10128 20110 40050 57010 885// 333 92323;
0205143030999992000112618004+45050+013620FM-12+000899999V0200501N001010075019N0200001N1+01041+00901100501ADDAA102007991AY161061AY221061GF108991999071008001021999KA1999M+01351MD1410001+9999MW1601REMSYN088AAXX  26181 14303 11598 80501 10104 20090 40050 54000 60086 76062 8872/ 333 10135 92322;EQDQ01+000082SCOTLC
0188143030999992000112706004+45050+013620FM-12+000899999V0203401N002012200019N0200001N1+01101+00701101301ADDAA112007191GA1001+999999999GF100991001001999999001001KA1999N+00981MD1210201+9999SA1+1609REMSYN088AAXX  27061 14303 12998 03402 10110 20070 40130 52020 60072 222// 00160 333 20098 92322;
0122143030999992000112709004+45050+013620FM-12+000899999V0203601N002012200019N0200001N1+01181+00601101501ADDGF103991031011008001001001MD1210201+9999REMSYN070AAXX  27091 14303 42598 33602 10118 20060 40150 52020 83100 333 92312;
0162143030999992000112712004+45050+013620FM-12+000899999V0202701N001012200019N0200001N1+01601+00701101501ADDAA199000091GA1001+999999999GF100991001001999999001001MD1410001+9999REMSYN064AAXX  27121 14303 32998 02701 10160 20070 40150 54000 333 92312;EQDQ01  00002PRCP99
0132143030999992000112715004+45050+013620FM-12+000899999V0202701N002012200019N0200001N1+01401+00601101701ADDGA1001+999999999GF100991001001999999001001MD1210201+9999REMSYN064AAXX  27151 14303 42998 02702 10140 20060 40170 52020 333 92312;
0181143030999992000112718004+45050+013620FM-12+000899999V0203601N002012200019N0200001N1+01141+00701101901ADDAA199000091GA1001+999999999GF100991001001999999001001KA1999M+01651MD1210201+9999REMSYN070AAXX  27181 14303 32998 03602 10114 20070 40190 52020 333 10165 92312;EQDQ01  00002PRCP99
0201143030999992000112806004+45050+013620FM-12+000899999V0203601N001012200019N0200001N1+00941+00501102301ADDAA199000091GA1001+999999999GF100991001001999999001001KA1999N+00851MD1210101+9999SA1+1609REMSYN082AAXX  28061 14303 32998 03601 10094 20050 40230 52010 222// 00160 333 20085 92311;EQDQ01  00002PRCP99
0141143030999992000112809004+45050+013620FM-12+000899999V0200901N002010120019N0200001N1+01261+00301102401ADDGF108991999021012501091001MD1210101+9999REMSYN070AAXX  28091 14303 42698 80902 10126 20030 40240 52010 88290 333 92311;EQDQ01+000082SCOTLC
0152143030999992000112812004+45050+013620FM-12+000899999V0202701N002010075019N0200001N1+01361+00201102401ADDAA199000091GF108991081051008001999999MD1410001+9999REMSYN070AAXX  28121 14303 32598 82702 10136 20020 40240 54000 885// 333 92311;EQDQ01  00002PRCP99
0122143030999992000112815004+45050+013620FM-12+000899999V0202901N002019999999N0200001N1+01361+00601102301ADDGF107991071001012501051001MD1710101+9999REMSYN070AAXX  28151 14303 42698 72902 10136 20060 40230 57010 87050 333 92311;
0171143030999992000112818004+45050+013620FM-12+000899999V0200501N002010150019N0200001N1+01201+00601102301ADDAA199000091GF105991051081012501041001KA1999M+01481MD1410001+9999REMSYN076AAXX  28181 14303 32698 50502 10120 20060 40230 54000 85840 333 10148 92311;EQDQ01  00002PRCP99
0207143030999992000112906004+45050+013620FM-12+000899999V0200701N003012200019N0200001N1+00961+00701102201ADDAA199000091GF101991001001999999001041KA1999N+00951MD1410001+9999SA1+1629REMSYN088AAXX  29061 14303 32898 10703 10096 20070 40220 54000 80004 222// 00162 333 20095 92311;EQDQ01+022502SCOLCBQ02  00002PRCP99
0141143030999992000112909004+45050+013620FM-12+000899999V0200901N002019999999N0200001N1+01261+00701102201ADDGF106991001001999999001041MD1410001+9999REMSYN070AAXX  29091 14303 42898 60902 10126 20070 40220 54000 80004 333 92301;EQDQ01+022502SCOLCB
0168143030999992000112912004+45050+013620FM-12+000899999V0203201N003019999999N0200001N1+01301+00701102201ADDAA199000091GF106991001001999999001041MD1410001+9999REMSYN070AAXX  29121 14303 32898 63203 10130 20070 40220 54000 80004 333 92311;EQDQ01+022502SCOLCBQ02  00002PRCP99
0141143030999992000112915004+45050+013620FM-12+000899999V0203201N002019999999N0200001N1+01361+00801102101ADDGF107991001001999999001041MD1710101+9999REMSYN070AAXX  29151 14303 42898 73202 10136 20080 40210 57010 80004 333 92301;EQDQ01+022502SCOLCB
0187143030999992000112918004+45050+013620FM-12+000899999V0200501N002012200019N0200001N1+01161+00801102101ADDAA199000091GF104991001001999999001041KA1999M+01401MD1410001+9999REMSYN076AAXX  29181 14303 32898 40502 10116 20080 40210 54000 80004 333 10140 92301;EQDQ01+022502SCOLCBQ02  00002PRCP99
0191143030999992000113006004+45050+013620FM-12+000899999V0200701N003010150019N0200001N1+00981+00801102101ADDAA199000091GF106991061081012501041001KA1999N+00951MD1410001+9999SA1+1629REMSYN088AAXX  30061 14303 32698 60703 10098 20080 40210 54000 86840 222// 00162 333 20095 92311;EQDQ01  00002PRCP99
0122143030999992000113009004+45050+013620FM-12+000899999V0200901N002019999999N0100001N1+01161+00901102301ADDGF108991081001012501071001MD1210201+9999REMSYN070AAXX  30091 14303 42697 80902 10116 20090 40230 52020 88070 333 92301;
0168143030999992000113012004+45050+013620FM-12+000899999V0203201N003010120019N0100001N1+01261+00901102301ADDAA199000091GF108991999071012501011999MD1410001+9999REMSYN070AAXX  30121 14303 32697 83203 10126 20090 40230 54000 8871/ 333 92311;EQDQ01+000082SCOTLCQ02  00002PRCP99
0122143030999992000113015004+45050+013620FM-12+000899999V0202901N002019999999N0100001N1+01241+00801102201ADDGF108991081001012501071001MD1710101+9999REMSYN070AAXX  30151 14303 42697 82902 10124 20080 40220 57010 88070 333 92301;
0171143030999992000113018004+45050+013620FM-12+000899999V0200901N003019999999N0200001N1+01181+01001102301ADDAA199000091GF106991061001012501071001KA1999M+01381MD1210101+9999REMSYN076AAXX  30181 14303 32698 60903 10118 20100 40230 52010 86070 333 10138 92311;EQDQ01  00002PRCP99
0191143030999992000120106004+45050+013620FM-12+000899999V0202501N003010075019N0100001N1+01241+00801102401ADDAA199000091GF108991081051008001999999KA1999N+01151MD1210101+9999SA1+1609REMSYN088AAXX  01061 14303 32597 82503 10124 20080 40240 52010 885// 222// 00160 333 20115 92312;EQDQ01  00002PRCP99
0122143030999992000120109004+45050+013620FM-12+000899999V0202701N002019999999N0100001N1+01281+00901102501ADDGF108991081001012501071001MD1210101+9999REMSYN070AAXX  01091 14303 42697 82702 10128 20090 40250 52010 88070 333 92311;
0152143030999992000120112004+45050+013620FM-12+000899999V0203401N003010075019N0100001N1+01301+00901102401ADDAA199000091GF108991081051008001999999MD1710101+9999REMSYN070AAXX  01121 14303 32597 83403 10130 20090 40240 57010 885// 333 92311;EQDQ01  00002PRCP99
0132143030999992000120115004+45050+013620FM-12+000899999V0201401N002012200019N0100001N1+01341+00901102401ADDGA1001+999999999GF100991001001999999001001MD1410001+9999REMSYN064AAXX  01151 14303 42997 01402 10134 20090 40240 54000 333 92301;
0171143030999992000120118004+45050+013620FM-12+000899999V0201801N002010075019N0100001N1+01361+01001102501ADDAA199000091GF108991081061008001999999KA1999M+01861MD1210101+9999REMSYN076AAXX  01181 14303 32597 81802 10136 20100 40250 52010 886// 333 10186 92311;EQDQ01  00002PRCP99
0191143030999992000120206004+45050+013620FM-12+000899999V0202901N002019999999N0100001N1+01241+01001102401ADDAA199000091GF108991081001012501071001KA1999N+01241MD1410001+9999SA1+1529REMSYN088AAXX  02061 14303 32697 82902 10124 20100 40240 54000 88070 222// 00152 333 20124 92311;EQDQ01  00002PRCP99
0180143030999992000120212004+45050+013620FM-12+000899999V0201101N002010075019N0040001N1+01421+01001102401ADDAA199000091AY121061AY221061GF108991081051008001999999MD1410001+9999MW1101REMSYN076AAXX  02121 14303 31596 81102 10142 20100 40240 54000 71022 885// 333 92301;EQDQ01  00002PRCP99
0122143030999992000120215004+45050+013620FM-12+000899999V0201801N003010075019N0100001N1+01441+01101102301ADDGF108991081051008001999999MD1710101+9999REMSYN070AAXX  02151 14303 42597 81803 10144 20110 40230 57010 885// 333 92311;
0171143030999992000120218004+45050+013620FM-12+000899999V0201801N003010150019N0100001N1+01421+01201102301ADDAA199000091GF106991061081012501041001KA1999M+01461MD1410001+9999REMSYN076AAXX  02181 14303 32697 61803 10142 20120 40230 54000 86840 333 10146 92311;EQDQ01  00002PRCP99
0219143030999992000120306004+45050+013620FM-12+000899999V0200701N003010075019N0040001N1+01301+01101102001ADDAA199000091AY121061AY211061GF108991081051008001999999KA1999N+01281MD1710101+9999MW1101SA1+1629REMSYN094AAXX  03061 14303 31596 80703 10130 20110 40200 57010 71021 885// 222// 00162 333 20128 92311;EQDQ01  00002PRCP99
0152143030999992000120312004+45050+013620FM-12+000899999V0201101N004010075019N0200001N1+01481+01301102001ADDAA199000091GF108991081051008001999999MD1710101+9999REMSYN070AAXX  03121 14303 32598 81104 10148 20130 40200 57010 885// 333 92312;EQDQ01  00002PRCP99
0122143030999992000120315004+45050+013620FM-12+000899999V0200901N003010075019N0200001N1+01401+01201102001ADDGF108991081051008001999999MD1410001+9999REMSYN070AAXX  03151 14303 42598 80903 10140 20120 40200 54000 885// 333 92312;
0158143030999992000120318004+45050+013620FM-12+000899999V0200901N003010075019N0200001N1+01401+01201102001ADDAA106002091GF108991081051008001999999KA1999M+01501MD1410001+9999REMSYN082AAXX  03181 14303 12598 80903 10140 20120 40200 54000 60021 885// 333 10150 92312;
0191143030999992000120406004+45050+013620FM-12+000899999V0200901N003012200019N0200001N1+01241+01001102101ADDAA199000091GF101991011081012501041001KA1999N+01201MD1410001+9999SA1+1609REMSYN088AAXX  04061 14303 32698 10903 10124 20100 40210 54000 81840 222// 00160 333 20120 92312;EQDQ01  00002PRCP99
0141143030999992000120409004+45050+013620FM-12+000899999V0201101N002012200019N0200001N1+01461+01001102201ADDGF101991001001999999001091MD1210101+9999REMSYN070AAXX  04091 14303 42898 11102 10146 20100 40220 52010 80009 333 92312;EQDQ01+022502SCOLCB
0180143030999992000120412004+45050+013620FM-12+000899999V0202701N003010075019N0040001N1+01481+01401102101ADDAA199000091AY111061AY201061GF105991051021008001001001MD1710101+9999MW1101REMSYN076AAXX  04121 14303 31596 52703 10148 20140 40210 57010 71010 85200 333 92311;EQDQ01  00002PRCP99
0150143030999992000120415004+45050+013620FM-12+000899999V0203201N003010075019N0040001N1+01341+01101102101ADDAY121031AY221031GF108991081051008001999999MD1410001+9999MW1101REMSYN076AAXX  04151 14303 41596 83203 10134 20110 40210 54000 71022 885// 333 92311;
0199143030999992000120418004+45050+013620FM-12+000899999V0202501N003010075019N0040001N1+01281+01101102201ADDAA199000091AY121061AY221061GF108991081051008001999999KA1999M+01561MD1210101+9999MW1101REMSYN082AAXX  04181 14303 31596 82503 10128 20110 40220 52010 71022 885// 333 10156 92311;EQDQ01  00002PRCP99
0191143030999992000120506004+45050+013620FM-12+000899999V0200501N003012200019N0200001N1+01141+01001102201ADDAA199000091GF101991011001012501041061KA1999N+01081MD1410001+9999SA1+1569REMSYN088AAXX  05061 14303 32698 10503 10114 20100 40220 54000 81046 222// 00156 333 20108 92311;EQDQ01  00002PRCP99
0132143030999992000120509004+45050+013620FM-12+000899999V0200501N003012200019N0100001N1+01341+01101102301ADDGA1001+999999999GF100991001001999999001001MD1210101+9999REMSYN064AAXX  05091 14303 42997 00503 10134 20110 40230 52010 333 92311;
0152143030999992000120512004+45050+013620FM-12+000899999V0203201N003010360019N0100001N1+01421+01001102201ADDAA199000091GF105991041011012501021999MD1710101+9999REMSYN070AAXX  05121 14303 32697 53203 10142 20100 40220 57010 8412/ 333 92311;EQDQ01  00002PRCP99
0122143030999992000120515004+45050+013620FM-12+000899999V0203201N004010075019N0100001N1+01301+01101102201ADDGF106991061021008001001001MD1510021+9999REMSYN070AAXX  05151 14303 42597 63204 10130 20110 40220 55002 86200 333 92312;
0199143030999992000120518004+45050+013620FM-12+000899999V0203601N002010075019N0040001N1+01201+01001102301ADDAA199000091AY121061AY221061GF108991081021008001001001KA1999M+01461MD1210101+9999MW1101REMSYN082AAXX  05181 14303 31596 83602 10120 20100 40230 52010 71022 88200 333 10146 92311;EQDQ01  00002PRCP99
0191143030999992000120606004+45050+013620FM-12+000899999V0200201N002010075019N0100001N1+01101+00901102301ADDAA199000091GF108991081061008001999999KA1999N+01081MD1410001+9999SA1+1559REMSYN088AAXX  06061 14303 32597 80202 10110 20090 40230 54000 886// 222// 00155 333 20108 92301;EQDQ01  00002PRCP99
0152143030999992000120612004+45050+013620FM-12+000899999V0200501N003010075019N0100001N1+01221+00901102301ADDAA199000091GF108991081051008001999999MD1410001+9999REMSYN070AAXX  06121 14303 32597 80503 10122 20090 40230 54000 885// 333 92311;EQDQ01  00002PRCP99
0122143030999992000120615004+45050+013620FM-12+000899999V0202001N002010075019N0100001N1+01241+00901102201ADDGF108991081051008001999999MD1710101+9999REMSYN070AAXX  06151 14303 42597 82002 10124 20090 40220 57010 885// 333 92311;
0187143030999992000120618004+45050+013620FM-12+000899999V0202701N003010075019N0100001N1+01201+01001102301ADDAA199000091GF108991999011008001051999KA1999M+01281MD1210101+9999REMSYN076AAXX  06181 14303 32597 82703 10120 20100 40230 52010 8815/ 333 10128 92311;EQDQ01+000082SCOTLCQ02  00002PRCP99
0191143030999992000120706004+45050+013620FM-12+000899999V0201101N002010075019N0100001N1+01241+01001102301ADDAA199000091GF108991081051008001999999KA1999N+01101MD1410001+9999SA1+1559REMSYN088AAXX  07061 14303 32597 81102 10124 20100 40230 54000 885// 222// 00155 333 20110 92311;EQDQ01  00002PRCP99
0122143030999992000120709004+45050+013620FM-12+000899999V0202501N002010075019N0100001N1+01261+00901102401ADDGF108991081051008001999999MD1210101+9999REMSYN070AAXX  07091 14303 42597 82502 10126 20090 40240 52010 885// 333 92301;
0152143030999992000120712004+45050+013620FM-12+000899999V0202301N002010075019N0100001N1+01321+00901102301ADDAA199000091GF108991081051008001999999MD1710011+9999REMSYN070AAXX  07121 14303 32597 82302 10132 20090 40230 57001 885// 333 92301;EQDQ01  00002PRCP99
0122143030999992000120715004+45050+013620FM-12+000899999V0201401N003019999999N0100001N1+01341+01101102101ADDGF108991081001012501071001MD1710201+9999REMSYN070AAXX  07151 14303 42697 81403 10134 20110 40210 57020 88070 333 92301;
0171143030999992000120718004+45050+013620FM-12+000899999V0201401N003019999999N0100001N1+01341+01101102101ADDAA199000091GF108991081001012501071001KA1999M+01361MD1410001+9999REMSYN076AAXX  07181 14303 32697 81403 10134 20110 40210 54000 88070 333 10136 92311;EQDQ01  00002PRCP99
0191143030999992000120806004+45050+013620FM-12+000899999V0202001N004019999999N0200001N1+01581+01301101901ADDAA199000091GF108991081001012501051001KA1999N+01451MD1410001+9999SA1+1559REMSYN088AAXX  08061 14303 32698 82004 10158 20130 40190 54000 88050 222// 00155 333 20145 92312;EQDQ01  00002PRCP99
0122143030999992000120809004+45050+013620FM-12+000899999V0201801N004010075019N0200001N1+01581+01401101901ADDGF108991081051008001999999MD1410001+9999REMSYN070AAXX  08091 14303 42598 81804 10158 20140 40190 54000 885// 333 92323;
0152143030999992000120812004+45050+013620FM-12+000899999V0201801N004010075019N0200001N1+01581+01401101901ADDAA199000091GF108991081051008001999999MD1410001+9999REMSYN070AAXX  08121 14303 32598 81804 10158 20140 40190 54000 885// 333 92323;EQDQ01  00002PRCP99
0122143030999992000120815004+45050+013620FM-12+000899999V0201401N004019999999N0100001N1+01561+01401101901ADDGF108991081001012501071001MD1410001+9999REMSYN070AAXX  08151 14303 42697 81404 10156 20140 40190 54000 88070 333 92312;
0187143030999992000120818004+45050+013620FM-12+000899999V0201401N004010120019N0200001N1+01541+01401101901ADDAA199000091GF108991999041012501071001KA1999M+01601MD1410001+9999REMSYN076AAXX  08181 14303 32698 81404 10154 20140 40190 54000 88470 333 10160 92312;EQDQ01+000082SCOTLCQ02  00002PRCP99
0207143030999992000120906004+45050+013620FM-12+000899999V0201401N005010120019N0200001N1+01561+01401101901ADDAA199000091GF108991999041012501071001KA1999N+01481MD1410001+9999SA1+1549REMSYN088AAXX  09061 14303 32698 81405 10156 20140 40190 54000 88470 222// 00154 333 20148 92323;EQDQ01+000082SCOTLCQ02  00002PRCP99
0152143030999992000120912004+45050+013620FM-12+000899999V0201801N004010075019N0100001N1+01621+01401102001ADDAA199000091GF108991081051008001999999MD1410001+9999REMSYN070AAXX  09121 14303 32597 81804 10162 20140 40200 54000 885// 333 92323;EQDQ01  00002PRCP99
0150143030999992000120915004+45050+013620FM-12+000899999V0201601N004010075019N0100001N1+01601+01401102001ADDAY121031AY221031GF108991081051008001999999MD1410001+9999MW1211REMSYN076AAXX  09151 14303 41597 81604 10160 20140 40200 54000 72122 885// 333 92323;
0177143030999992000120918004+45050+013620FM-12+000899999V0201801N005010120019N0200001N1+01621+01401102001ADDAA106000591GF108991999071012501011999KA1999M+01641MD1410001+9999REMSYN082AAXX  09181 14303 12698 81805 10162 20140 40200 54000 69961 8871/ 333 10164 92323;EQDQ01+000082SCOTLC
0219143030999992000121006004+45050+013620FM-12+000899999V0202001N001010075019N0040001N1+01301+01101102101ADDAA199000091AY121061AY221061GF108991081051008001999999KA1999N+01241MD1210101+9999MW1101SA1+1549REMSYN094AAXX  10061 14303 31596 82001 10130 20110 40210 52010 71022 885// 222// 00154 333 20124 92312;EQDQ01  00002PRCP99
0180143030999992000121012004+45050+013620FM-12+000899999V0203201N003010075019N0040001N1+01341+01101102201ADDAA199000091AY121061AY221061GF107991071021008001001001MD1410001+9999MW1101REMSYN076AAXX  10121 14303 31596 73203 10134 20110 40220 54000 71022 87200 333 92311;EQDQ01  00002PRCP99
0141143030999992000121015004+45050+013620FM-12+000899999V0202901N003010075019N0100001N1+01181+01001102301ADDGF108991999041008001041001MD1210101+9999REMSYN070AAXX  10151 14303 42597 82903 10118 20100 40230 52010 88440 333 92311;EQDQ01+000082SCOTLC
0171143030999992000121018004+45050+013620FM-12+000899999V0202701N002010075019N0100001N1+01181+01001102401ADDAA199000091GF106991061041008001041001KA1999M+01601MD1210101+9999REMSYN076AAXX  10181 14303 32597 62702 10118 20100 40240 52010 86440 333 10160 92311;EQDQ01  00002PRCP99
0207143030999992000121106004+45050+013620FM-12+000899999V0202701N004010075019N0100001N1+01161+01001102701ADDAA199000091GF108991999041008001041001KA1999N+01061MD1210101+9999SA1+1549REMSYN088AAXX  11061 14303 32597 82704 10116 20100 40270 52010 88440 222// 00154 333 20106 92312;EQDQ01+000082SCOTLCQ02  00002PRCP99
0169143030999992000121109004+45050+013620FM-12+000899999V0200201N001010075019N0040001N1+01181+00801102801ADDAY121031AY221031GF108991999071008001021999MD1210101+9999MW1101REMSYN076AAXX  11091 14303 41596 80201 10118 20080 40280 52010 71022 8872/ 333 92312;EQDQ01+000082SCOTLC
0168143030999992000121112004+45050+013620FM-12+000899999V0201101N001019999999N0100001N1+01301+00901102801ADDAA199000091GF108991001001999999001071MD1410001+9999REMSYN070AAXX  11121 14303 32797 81101 10130 20090 40280 54000 80007 333 92311;EQDQ01+017502SCOLCBQ02  00002PRCP99
0215143030999992000121118004+45050+013620FM-12+000899999V0200501N002010075019N0040001N1+01261+01001102901ADDAA199000091AY121061AY221061GF108991999071008001021999KA1999M+01351MD1210101+9999MW1101REMSYN082AAXX  11181 14303 31596 80502 10126 20100 40290 52010 71022 8872/ 333 10135 92311;EQDQ01+000082SCOTLCQ02  00002PRCP99
0191143030999992000121206004+45050+013620FM-12+000899999V0202701N003010075019N0100001N1+01201+01001102901ADDAA199000091GF108991081051008001999999KA1999N+01151MD1410001+9999SA1+1529REMSYN088AAXX  12061 14303 32597 82703 10120 20100 40290 54000 885// 222// 00152 333 20115 92312;EQDQ01  00002PRCP99
0169143030999992000121209004+45050+013620FM-12+000899999V0202901N003010075019N0040001N1+01161+00801103001ADDAY121031AY221031GF108991999071008001021999MD1210101+9999MW1101REMSYN076AAXX  12091 14303 41596 82903 10116 20080 40300 52010 71022 8872/ 333 92312;EQDQ01+000082SCOTLC
0196143030999992000121212004+45050+013620FM-12+000899999V0202501N002010075019N0040001N1+01181+00801102901ADDAA199000091AY121061AY221061GF108991999071008001021999MD1710101+9999MW1101REMSYN076AAXX  12121 14303 31596 82502 10118 20080 40290 57010 71022 8872/ 333 92312;EQDQ01+000082SCOTLCQ02  00002PRCP99
0150143030999992000121215004+45050+013620FM-12+000899999V0202701N003019999999N0040001N1+01161+01001102901ADDAY121031AY221031GF108991081001012501071001MD1410001+9999MW1101REMSYN076AAXX  12151 14303 41696 82703 10116 20100 40290 54000 71022 88070 333 92312;
0171143030999992000121218004+45050+013620FM-12+000899999V0202701N002010075019N0100001N1+01121+00901102801ADDAA199000091GF108991081051008001999999KA1999M+01281MD1710101+9999REMSYN076AAXX  12181 14303 32597 82702 10112 20090 40280 57010 885// 333 10128 92311;EQDQ01  00002PRCP99
0191143030999992000121306004+45050+013620FM-12+000899999V0202501N003010075019N0100001N1+01101+00901102501ADDAA199000091GF108991081051008001999999KA1999N+01051MD1710101+9999SA1+1529REMSYN088AAXX  13061 14303 32597 82503 10110 20090 40250 57010 885// 222// 00152 333 20105 92311;EQDQ01  00002PRCP99
0122143030999992000121309004+45050+013620FM-12+000899999V0202301N002010075019N0100001N1+01101+00901102501ADDGF108991081051008001999999MD1410001+9999REMSYN070AAXX  13091 14303 42597 82302 10110 20090 40250 54000 885// 333 92311;
0152143030999992000121312004+45050+013620FM-12+000899999V0202001N002010075019N0200001N1+01141+00901102301ADDAA199000091GF108991081051008001999999MD1710201+9999REMSYN070AAXX  13121 14303 32598 82002 10114 20090 40230 57020 885// 333 92311;EQDQ01  00002PRCP99
0122143030999992000121315004+45050+013620FM-12+000899999V0202001N002010075019N0200001N1+01161+01001102301ADDGF108991081051008001999999MD1410001+9999REMSYN070AAXX  13151 14303 42598 82002 10116 20100 40230 54000 885// 333 92311;
0171143030999992000121318004+45050+013620FM-12+000899999V0202001N001010075019N0200001N1+01201+01001102201ADDAA199000091GF108991081051008001999999KA1999M+01241MD1710101+9999REMSYN076AAXX  13181 14303 32598 82001 10120 20100 40220 57010 885// 333 10124 92311;EQDQ01  00002PRCP99
0191143030999992000121406004+45050+013620FM-12+000899999V0202501N001010075019N0100001N1+01141+00901101901ADDAA199000091GF108991081051008001999999KA1999N+01021MD1710101+9999SA1+1529REMSYN088AAXX  14061 14303 32597 82501 10114 20090 40190 57010 885// 222// 00152 333 20102 92311;EQDQ01  00002PRCP99
0122143030999992000121409004+45050+013620FM-12+000899999V0202301N001010075019N0100001N1+01201+01001101801ADDGF108991081051008001999999MD1710101+9999REMSYN070AAXX  14091 14303 42597 82301 10120 20100 40180 57010 885// 333 92311;
0152143030999992000121412004+45050+013620FM-12+000899999V0201801N002010075019N0100001N1+01281+01001101601ADDAA199000091GF108991081051008001999999MD1710201+9999REMSYN070AAXX  14121 14303 32597 81802 10128 20100 40160 57020 885// 333 92311;EQDQ01  00002PRCP99
0122143030999992000121415004+45050+013620FM-12+000899999V0201801N003010075019N0200001N1+01321+01101101401ADDGF107991071041008001041001MD1710201+9999REMSYN070AAXX  14151 14303 42598 71803 10132 20110 40140 57020 87440 333 92312;
0171143030999992000121418004+45050+013620FM-12+000899999V0201401N002010075019N0200001N1+01361+01201101301ADDAA199000091GF108991081051008001999999KA1999M+01401MD1710101+9999REMSYN076AAXX  14181 14303 32598 81402 10136 20120 40130 57010 885// 333 10140 92312;EQDQ01  00002PRCP99
0191143030999992000121506004+45050+013620FM-12+000899999V0201801N006010075019N0200001N1+01581+01101100601ADDAA199000091GF108991081051008001999999KA1999N+01101MD1710201+9999SA1+1509REMSYN088AAXX  15061 14303 32598 81806 10158 20110 40060 57020 885// 222// 00150 333 20110 92334;EQDQ01  00002PRCP99
0152143030999992000121509004+45050+013620FM-12+000899999V0202001N006010075019N0200001N1+01581+01101100501ADDAA199000091GF108991081051008001999999MD1710101+9999REMSYN070AAXX  15091 14303 32598 82006 10158 20110 40050 57010 885// 333 92334;EQDQ01  00002PRCP99
0152143030999992000121512004+45050+013620FM-12+000899999V0202001N006010075019N0200001N1+01601+01201100301ADDAA199000091GF107991071041008001041001MD1710201+9999REMSYN070AAXX  15121 14303 32598 72006 10160 20120 40030 57020 87440 333 92334;EQDQ01  00002PRCP99
0122143030999992000121515004+45050+013620FM-12+000899999V0202301N003010075019N0200001N1+01461+01001100301ADDGF106991061041008001041001MD1410001+9999REMSYN070AAXX  15151 14303 42598 62303 10146 20100 40030 54000 86440 333 92323;
0171143030999992000121518004+45050+013620FM-12+000899999V0202301N004010075019N0200001N1+01361+01001100301ADDAA199000091GF108991081051008001999999KA1999M+01641MD1410001+9999REMSYN076AAXX  15181 14303 32598 82304 10136 20100 40030 54000 885// 333 10164 92323;EQDQ01  00002PRCP99
0178143030999992000121606004+45050+013620FM-12+000899999V0203201N003010075019N0200001N1+00741+00401100901ADDAA112006191GF105991051041008001071001KA1999N+00561MD1210201+9999SA1+1509REMSYN094AAXX  16061 14303 12598 53203 10074 20040 40090 52020 60062 85470 222// 00150 333 20056 92312;
0132143030999992000121609004+45050+013620FM-12+000899999V0203601N004012200019N0200001N1+00901+00501101101ADDGA1001+999999999GF100991001001999999001001MD1210201+9999REMSYN064AAXX  16091 14303 42998 03604 10090 20050 40110 52020 333 92322;
0152143030999992000121612004+45050+013620FM-12+000899999V0203601N001012200019N0200001N1+01061+00701101101ADDAA199000091GF104991041091008001061001MD1410001+9999REMSYN070AAXX  16121 14303 32598 43601 10106 20070 40110 54000 84960 333 92312;EQDQ01  00002PRCP99
0132143030999992000121615004+45050+013620FM-12+000899999V0200501N002012200019N0200001N1+01081+00701101101ADDGA1001+999999999GF100991001001999999001001MD1410001+9999REMSYN064AAXX  16151 14303 42998 00502 10108 20070 40110 54000 333 92312;
0181143030999992000121618004+45050+013620FM-12+000899999V0202001N003012200019N0200001N1+01121+00701101201ADDAA199000091GA1001+999999999GF100991001001999999001001KA1999M+01151MD1210101+9999REMSYN070AAXX  16181 14303 32998 02003 10112 20070 40120 52010 333 10115 92322;EQDQ01  00002PRCP99
0201143030999992000121706004+45050+013620FM-12+000899999V0200501N002012200019N0200001N1+01041+00701101401ADDAA199000091GA1001+999999999GF100991001001999999001001KA1999N+00801MD1210101+9999SA1+1509REMSYN082AAXX  17061 14303 32998 00502 10104 20070 40140 52010 222// 00150 333 20080 92312;EQDQ01  00002PRCP99
0132143030999992000121709004+45050+013620FM-12+000899999V0200501N002012200019N0200001N1+01141+00701101501ADDGA1001+999999999GF100991001001999999001001MD1210101+9999REMSYN064AAXX  17091 14303 42998 00502 10114 20070 40150 52010 333 92312;
0152143030999992000121712004+45050+013620FM-12+000899999V0202301N001010075019N0200001N1+01401+00601101401ADDAA199000091GF105991051091008001061001MD1710101+9999REMSYN070AAXX  17121 14303 32598 52301 10140 20060 40140 57010 85960 333 92312;EQDQ01  00002PRCP99
0122143030999992000121715004+45050+013620FM-12+000899999V0202701N001012200019N0200001N1+01281+00601101401ADDGF104991041081008001041001MD1410001+9999REMSYN070AAXX  17151 14303 42598 42701 10128 20060 40140 54000 84840 333 92311;
0181143030999992000121718004+45050+013620FM-12+000899999V0200501N001012200019N0200001N1+01061+00701101401ADDAA199000091GA1001+999999999GF100991001001999999001001KA1999M+01451MD1410001+9999REMSYN070AAXX  17181 14303 32998 00501 10106 20070 40140 54000 333 10145 92311;EQDQ01  00002PRCP99
0201143030999992000121806004+45050+013620FM-12+000899999V0200901N001012200019N0200001N1+00841+00601101701ADDAA199000091GA1001+999999999GF100991001001999999001001KA1999N+00701MD1210101+9999SA1+1489REMSYN082AAXX  18061 14303 32998 00901 10084 20060 40170 52010 222// 00148 333 20070 92311;EQDQ01  00002PRCP99
0132143030999992000121809004+45050+013620FM-12+000899999V0203601N002012200019N0200001N1+01041+00601101901ADDGA1001+999999999GF100991001001999999001001MD1210201+9999REMSYN064AAXX  18091 14303 42998 03602 10104 20060 40190 52020 333 92312;
0152143030999992000121812004+45050+013620FM-12+000899999V0202701N002012200019N0200001N1+01181+00601102001ADDAA199000091GF104991041081008001041001MD1210101+9999REMSYN070AAXX  18121 14303 32598 42702 10118 20060 40200 52010 84840 333 92312;EQDQ01  00002PRCP99
0132143030999992000121815004+45050+013620FM-12+000899999V0202701N002012200019N0200001N1+01161+00701102001ADDGA1001+999999999GF100991001001999999001001MD1410001+9999REMSYN064AAXX  18151 14303 42998 02702 10116 20070 40200 54000 333 92312;
0181143030999992000121818004+45050+013620FM-12+000899999V0202701N002012200019N0200001N1+01081+00701102001ADDAA199000091GA1001+999999999GF100991001001999999001001KA1999M+01251MD1410001+9999REMSYN070AAXX  18181 14303 32998 02702 10108 20070 40200 54000 333 10125 92312;EQDQ01  00002PRCP99
0132143030999992000121909004+45050+013620FM-12+000899999V0202301N002012200019N0200001N1+01101+00601102101ADDGA1001+999999999GF100991001001999999001001MD1410001+9999REMSYN064AAXX  19091 14303 42998 02302 10110 20060 40210 54000 333 92322;
0162143030999992000121912004+45050+013620FM-12+000899999V0202301N003012200019N0200001N1+01121+00701102001ADDAA199000091GA1001+999999999GF100991001001999999001001MD1710101+9999REMSYN064AAXX  19121 14303 32998 02303 10112 20070 40200 57010 333 92322;EQDQ01  00002PRCP99
0132143030999992000121915004+45050+013620FM-12+000899999V0202301N002012200019N0200001N1+01081+00501102001ADDGA1001+999999999GF100991001001999999001001MD1410001+9999REMSYN064AAXX  19151 14303 42998 02302 10108 20050 40200 54000 333 92322;
0181143030999992000121918004+45050+013620FM-12+000899999V0202301N002012200019N0200001N1+00981+00601102001ADDAA199000091GA1001+999999999GF100991001001999999001001KA1999M+01241MD1410001+9999REMSYN070AAXX  19181 14303 32998 02302 10098 20060 40200 54000 333 10124 92322;EQDQ01  00002PRCP99
0191143030999992000122006004+45050+013620FM-12+000899999V0200501N004010075019N0200001N1+00761+00201102201ADDAA199000091GF107991071041008001071001KA1999N+00681MD1210101+9999SA1+1469REMSYN088AAXX  20061 14303 32598 70504 10076 20020 40220 52010 87470 222// 00146 333 20068 92323;EQDQ01  00002PRCP99
0122143030999992000122009004+45050+013620FM-12+000899999V0200501N004010075019N0200001N1+00741+00201102301ADDGF105991051041008001071001MD1210101+9999REMSYN070AAXX  20091 14303 42598 50504 10074 20020 40230 52010 85470 333 92323;
0152143030999992000122012004+45050+013620FM-12+000899999V0200501N003010075019N0200001N1+00861+00101102301ADDAA199000091GF106991061091008001061001MD1410001+9999REMSYN070AAXX  20121 14303 32598 60503 10086 20010 40230 54000 86960 333 92322;EQDQ01  00002PRCP99
0122143030999992000122015004+45050+013620FM-12+000899999V0200501N003010075019N0200001N1+00801+00201102301ADDGF107991071021008001001001MD1410001+9999REMSYN070AAXX  20151 14303 42598 70503 10080 20020 40230 54000 87200 333 92322;
0171143030999992000122018004+45050+013620FM-12+000899999V0200501N004010075019N0200001N1+00721+00201102401ADDAA199000091GF107991071021008001001001KA1999M+00901MD1210101+9999REMSYN076AAXX  20181 14303 32598 70504 10072 20020 40240 52010 87200 333 10090 92323;EQDQ01  00002PRCP99
0201143030999992000122106004+45050+013620FM-12+000899999V0200501N003012200019N0200001N1+00401+00001102401ADDAA199000091GA1001+999999999GF100991001001999999001001KA1999N+00351MD1410001+9999SA1+1449REMSYN082AAXX  21061 14303 32998 00503 10040 21000 40240 54000 222// 00144 333 20035 92323;EQDQ01  00002PRCP99
0132143030999992000122109004+45050+013620FM-12+000899999V0200501N004012200019N0200001N1+00541+00001102501ADDGA1001+999999999GF100991001001999999001001MD1210101+9999REMSYN064AAXX  21091 14303 42998 00504 10054 21000 40250 52010 333 92323;
0162143030999992000122112004+45050+013620FM-12+000899999V0203601N001012200019N0200001N1+00841+00101102501ADDAA199000091GA1001+999999999GF100991001001999999001001MD1410001+9999REMSYN064AAXX  21121 14303 32998 03601 10084 20010 40250 54000 333 92311;EQDQ01  00002PRCP99
0132143030999992000122115004+45050+013620FM-12+000899999V0200901N002012200019N0200001N1+00781+00201102401ADDGA1001+999999999GF100991001001999999001001MD1710101+9999REMSYN064AAXX  21151 14303 42998 00902 10078 20020 40240 57010 333 92311;
0181143030999992000122118004+45050+013620FM-12+000899999V0200501N004012200019N0200001N1+00441+00001102401ADDAA199000091GA1001+999999999GF100991001001999999001001KA1999M+00861MD1410001+9999REMSYN070AAXX  21181 14303 32998 00504 10044 21000 40240 54000 333 10086 92323;EQDQ01  00002PRCP99
0201143030999992000122206004+45050+013620FM-12+000899999V0200501N002012200019N0200001N1+00201-00201102201ADDAA199000091GA1001+999999999GF100991001001999999001001KA1999M+00151MD1710101+9999SA1+1449REMSYN082AAXX  22061 14303 32998 00502 10020 21020 40220 57010 222// 00144 333 10015 92312;EQDQ01  00002PRCP99
0132143030999992000122209004+45050+013620FM-12+000899999V0200501N003012200019N0200001N1+00381+00001102201ADDGA1001+999999999GF100991001001999999001001MD1410001+9999REMSYN064AAXX  22091 14303 42998 00503 10038 21000 40220 54000 333 92312;
0162143030999992000122212004+45050+013620FM-12+000899999V0203201N001012200019N0200001N1+00761+00101102201ADDAA199000091GA1001+999999999GF100991001001999999001001MD1410001+9999REMSYN064AAXX  22121 14303 32998 03201 10076 20010 40220 54000 333 92311;EQDQ01  00002PRCP99
0132143030999992000122215004+45050+013620FM-12+000899999V0200701N002012200019N0200001N1+00541-00201102201ADDGA1001+999999999GF100991001001999999001001MD1410001+9999REMSYN064AAXX  22151 14303 42998 00702 10054 21020 40220 54000 333 92311;
0181143030999992000122218004+45050+013620FM-12+000899999V0200501N003012200019N0200001N1+00241-00301102201ADDAA199000091GA1001+999999999GF100991001001999999001001KA1999M+00801MD1410001+9999REMSYN070AAXX  22181 14303 32998 00503 10024 21030 40220 54000 333 10080 92322;EQDQ01  00002PRCP99
0191143030999992000122406004+45050+013620FM-12+000899999V0200501N001010075019N0200001N1+00541+00201101701ADDAA199000091GF107991071021008001001001KA1999N+00341MD1710101+9999SA1+1449REMSYN088AAXX  24061 14303 32598 70501 10054 20020 40170 57010 87200 222// 00144 333 20034 92312;EQDQ01  00002PRCP99
0122143030999992000122409004+45050+013620FM-12+000899999V0200701N002010075019N0200001N1+00701+00501101701ADDGF106991061091008001061001MD1410001+9999REMSYN070AAXX  24091 14303 42598 60702 10070 20050 40170 54000 86960 333 92312;
0152143030999992000122412004+45050+013620FM-12+000899999V0201801N002010075019N0200001N1+00901+00501101601ADDAA199000091GF106991061091008001061001MD1710101+9999REMSYN070AAXX  24121 14303 32598 61802 10090 20050 40160 57010 86960 333 92312;EQDQ01  00002PRCP99
0122143030999992000122415004+45050+013620FM-12+000899999V0203201N001012200019N0200001N1+00901+00501101401ADDGF104991041081012501041001MD1710201+9999REMSYN070AAXX  24151 14303 42698 43201 10090 20050 40140 57020 84840 333 92311;
0171143030999992000122418004+45050+013620FM-12+000899999V0202001N003010075019N0200001N1+00921+00701101301ADDAA199000091GF108991081021008001001001KA1999M+00981MD1710101+9999REMSYN076AAXX  24181 14303 32598 82003 10092 20070 40130 57010 88200 333 10098 92322;EQDQ01  00002PRCP99
0219143030999992000122506004+45050+013620FM-12+000899999V0201801N005010075019N0200001N1+01261+01101100201ADDAA112011991AY161061AY231061GF108991999071008001021999KA1999N+00951MD1710301+9999MW1601SA1+1429REMSYN094AAXX  25061 14303 11598 81805 10126 20110 40020 57030 60122 76063 8872/ 222// 00142 333 20095;EQDQ01+000082SCOTLC
0122143030999992000122509004+45050+013620FM-12+000899999V0201801N006010075019N0200001N1+01421+01201100101ADDGF108991081051008001999999MD1710101+9999REMSYN070AAXX  25091 14303 42598 81806 10142 20120 40010 57010 885// 333 92334;
0133143030999992000122512004+45050+013620FM-12+000899999V0202301N003010075019N0100001N1+00981+00801100101ADDAA199000021GF108991081051008001999999MD1410001+9999REMSYN070AAXX  25121 14303 32597 82303 10098 20080 40010 54000 885// 333 92333;
0205143030999992000122518004+45050+013620FM-12+000899999V0202301N004010075019N0100001N1+01041+00901099991ADDAA109004191AY161061AY211061GF108991999071008001021999KA1999M+01461MD1410001+9999MW1601REMSYN088AAXX  25181 14303 11597 82304 10104 20090 49999 54000 60048 76061 8872/ 333 10146 92333;EQDQ01+000082SCOTLC
0178143030999992000122606004+45050+013620FM-12+000899999V0202501N004010075019N0200001N1+01041+00901099961ADDAA100019191GF108991081051008001999999KA1999N+00921MD1410001+9999SA1+1429REMSYN094AAXX  26061 14303 12598 82504 10104 20090 49996 54/// 60190 885// 222// 00142 333 20092 92323;
0122143030999992000122609004+45050+013620FM-12+000899999V0202501N002010075019N0200001N1+01001+00801099771ADDGF108991081051008001999999MD1210101+9999REMSYN070AAXX  26091 14303 42598 82502 10100 20080 49977 52010 885// 333 92323;
0152143030999992000122612004+45050+013620FM-12+000899999V0202301N002010075019N0200001N1+00921+00801099771ADDAA199000091GF108991081051008001999999MD1410001+9999REMSYN070AAXX  26121 14303 32598 82302 10092 20080 49977 54000 885// 333 92323;EQDQ01  00002PRCP99
0122143030999992000122615004+45050+013620FM-12+000899999V0201801N002010075019N0200001N1+00901+00801099771ADDGF108991081051008001999999MD1410001+9999REMSYN070AAXX  26151 14303 42598 81802 10090 20080 49977 54000 885// 333 92322;
0171143030999992000122618004+45050+013620FM-12+000899999V0201401N004010075019N0200001N1+01021+00901099661ADDAA199000091GF108991081051008001999999KA1999M+01161MD1710101+9999REMSYN076AAXX  26181 14303 32598 81404 10102 20090 49966 57010 885// 333 10116 92323;EQDQ01  00002PRCP99
0178143030999992000122706004+45050+013620FM-12+000899999V0201401N003010075019N0200001N1+01161+01001099961ADDAA112003091GF108991081051008001999999KA1999N+00751MD1410001+9999SA1+1409REMSYN094AAXX  27061 14303 12598 81403 10116 20100 49996 54000 60032 885// 222// 00140 333 20075 92323;
0122143030999992000122709004+45050+013620FM-12+000899999V0200901N002010075019N0200001N1+01181+01001099601ADDGF108991081021008001999999MD1410001+9999REMSYN070AAXX  27091 14303 42598 80902 10118 20100 49960 54000 882// 333 92322;
0169143030999992000122712004+45050+013620FM-12+000899999V0200901N001010075019N0200001N1+01201+01001099301ADDAY161061AY221061GF108991999071008001021999MD1710301+9999MW1601REMSYN076AAXX  27121 14303 12598 80901 10120 20100 49930 57030 76062 8872/ 333 92322;EQDQ01+000082SCOTLC
0169143030999992000122715004+45050+013620FM-12+000899999V0200501N002010075019N0200001N1+01161+01001099001ADDAY161031AY211031GF108991999071008001021999MD1710301+9999MW1601REMSYN076AAXX  27151 14303 12598 80502 10116 20100 49900 57030 76061 8872/ 333 92322;EQDQ01+000082SCOTLC
0221143030999992000122718004+45050+013620FM-12+000899999V0200501N002010075019N0200001N1+01141+01001098801ADDAA109003091AY161061AY211061GF108991999071008001021999KA1999M+99999MD1710201+9999MW1601REMSYN088AAXX  27181 14303 11598 80502 10114 20100 49880 57020 60038 76061 8872/ 333 10076 92322;EQDQ01+000082SCOTLCQ02 +00762ATMX  
0178143030999992000122806004+45050+013620FM-12+000899999V0201801N003010075019N0200001N1+01141+00901098901ADDAA112003091GF108991081051008001999999KA1999N+00851MD1210101+9999SA1+1409REMSYN094AAXX  28061 14303 12598 81803 10114 20090 49890 52010 60032 885// 222// 00140 333 20085 92323;
0169143030999992000122809004+45050+013620FM-12+000899999V0200901N003010075019N0200001N1+01121+01001099902ADDAY121031AY221031GF108991081061008001001001MD1210101+9999MW1611REMSYN076AAXX  28091 14303 41598 80903 10112 20100 49990 52010 76122 88600 333 92323;EQDQ01+099903APOSLP
0169143030999992000122815004+45050+013620FM-12+000899999V0202901N004010075019N0100001N1+01141+00901099301ADDAY161031AY221031GF108991999071008001021999MD1210201+9999MW1601REMSYN076AAXX  28151 14303 41597 82904 10114 20090 49930 52020 76062 8872/ 333 92323;EQDQ01+000082SCOTLC
0158143030999992000122818004+45050+013620FM-12+000899999V0202901N004010075019N0100001N1+01141+00901099501ADDAA106003091GF108991081061008001999999KA1999M+01221MD1210201+9999REMSYN082AAXX  28181 14303 12597 82904 10114 20090 49950 52020 60031 886// 333 10122 92323;
0122143030999992000122904004+45050+013620FM-12+000899999V0202301N004010120019N0200001N1+01161+00901099501ADDGF108991081081008001999999MD1410001+9999REMSYN070AAXX  29041 14303 42598 82304 10116 20090 49950 54000 888// 333 92323;
0191143030999992000122906004+45050+013620FM-12+000899999V0201801N003010120019N0200001N1+01141+00801099501ADDAA199000091GF108991081081008001001001KA1999N+00901MD1410001+9999SA1+1409REMSYN088AAXX  29061 14303 32598 81803 10114 20080 49950 54000 88800 222// 00140 333 20090 92323;EQDQ01  00002PRCP99
0141143030999992000122909004+45050+013620FM-12+000899999V0201101N004010120019N0200001N1+01101+00901099601ADDGF108991999071012501011999MD1210101+9999REMSYN070AAXX  29091 14303 42698 81104 10110 20090 49960 52010 8871/ 333 92322;EQDQ01+000082SCOTLC
0161143030999992000122912004+45050+013620FM-12+000899999V0201101N005010075019N0100001N1+01101+00801099501ADDAA199000021AY121061AY221061GF108991081091008001999999MD1710101+9999MW1951REMSYN076AAXX  29121 14303 31597 81105 10110 20080 49950 57010 79522 889// 333 92323;
0169143030999992000122915004+45050+013620FM-12+000899999V0200901N003010075019N0100001N1+00921+00701099501ADDAY191031AY221031GF108991999071008001021999MD1410001+9999MW1611REMSYN076AAXX  29151 14303 41597 80903 10092 20070 49950 54000 76192 8872/ 333 92312;EQDQ01+000082SCOTLC
0205143030999992000122918004+45050+013620FM-12+000899999V0200901N003010075019N0100001N1+00921+00701099401ADDAA112015091AY191061AY261061GF108991999071008001021999KA1999M+01181MD1710101+9999MW1611REMSYN088AAXX  29181 14303 11597 80903 10092 20070 49940 57010 60152 76196 8872/ 333 10118 92322;EQDQ01+000082SCOTLC
0178143030999992000123006004+45050+013620FM-12+000899999V0203401N006010075019N0200001N1+00581+00401099401ADDAA112005191GF108991081051008001999999KA1999N+00521MD1210301+9999SA1+1369REMSYN094AAXX  30061 14303 12598 83406 10058 20040 49940 52030 60052 885// 222// 00136 333 20052 92334;
0122143030999992000123009004+45050+013620FM-12+000899999V0203601N004010075019N0200001N1+00741+00401099701ADDGF107991071021008001001001MD1210301+9999REMSYN070AAXX  30091 14303 42598 73604 10074 20040 49970 52030 87200 333 92333;
0152143030999992000123012004+45050+013620FM-12+000899999V0200501N003012200019N0200001N1+00901+00301099801ADDAA199000091GF103991031021008001001001MD1210101+9999REMSYN070AAXX  30121 14303 32598 30503 10090 20030 49980 52010 83200 333 92323;EQDQ01  00002PRCP99
0122143030999992000123015004+45050+013620FM-12+000899999V0201801N003012200019N0200001N1+00961+00401100001ADDGF102991021081012501041001MD1210201+9999REMSYN070AAXX  30151 14303 42698 21803 10096 20040 40000 52020 82840 333 92312;
0181143030999992000123018004+45050+013620FM-12+000899999V0200501N003012200019N0200001N1+00721+00401100201ADDAA199000091GA1001+999999999GF100991001001999999001001KA1999M+01021MD1210201+9999REMSYN070AAXX  30181 14303 32998 00503 10072 20040 40020 52020 333 10102 92312;EQDQ01  00002PRCP99
0191143030999992000123106004+45050+013620FM-12+000899999V0200501N003019999999N0200001N1+00781+00201100801ADDAA199000091GF108991081001012501071001KA1999N+00581MD1210201+9999SA1+1329REMSYN088AAXX  31061 14303 32698 80503 10078 20020 40080 52020 88070 222// 00132 333 20058 92312;EQDQ01  00002PRCP99
0122143030999992000123109004+45050+013620FM-12+000899999V0203601N003019999999N0200001N1+00801+00001101001ADDGF108991081001012501071001MD1210201+9999REMSYN070AAXX  31091 14303 42698 83603 10080 20000 40100 52020 88070 333 92312;
0152143030999992000123112004+45050+013620FM-12+000899999V0200701N004019999999N0200001N1+00861+00101101201ADDAA199000091GF108991081001012501071001MD1210201+9999REMSYN070AAXX  31121 14303 32698 80704 10086 20010 40120 52020 88070 333 92322;EQDQ01  00002PRCP99
0181143030999992000123118004+45050+013620FM-12+000899999V0200501N003012200019N0200001N1+00741-00101101401ADDAA199000091GA1001+999999999GF100991001001999999001001KA1999M+01021MD1210101+9999REMSYN070AAXX  31181 14303 32998 00503 10074 21010 40140 52010 333 10102 92323;EQDQ01  00002PRCP99
