0173172020999992000010100004+38600+039280FM-12+0882LTCA V0203001N001512200019N0200001N1-00261-00511102151ADDAA106000091GA1001+999999999GF100991001001999999001001MA1999999091901MD1710071+9999REMSYN060AAXX  01004 17202 32970 03003 11026 21051 39190 40215 57007;EQDQ01  00002PRCP06
0143172020999992000010103004+38600+039280FM-12+0882LTCA V0202901N003112200019N0200001N1-00341-00521102191ADDGA1001+999999999GF100991001001999999001001MA1999999091911MD1010011+9999REMSYN060AAXX  01034 17202 42970 02906 11034 21052 39191 40219 50001;
0159172020999992000010109004+38600+039280FM-12+0882LTCA V0201001N001512200019N0200001N1+00381+00071102341ADDGA1031+010509059GF103991031051012501001001MA1999999092051MD1010031+9999REMSYN076AAXX  01094 17202 42670 31003 10038 20007 39205 40234 50003 83500 333 83635;
0195172020999992000010112004+38600+039280FM-12+0882LTCA V0200901N001512200019N0200001N1+00801+00001102121ADDAA106000091GA1031+010509069GF104991031051012501001091MA1999999091871MD1710181+9999REMSYN082AAXX  01124 17202 32670 40903 10080 20000 39187 40212 57018 83509 333 83635 84170;EQDQ01  00002PRCP06
0159172020999992000010115004+38600+039280FM-12+0882LTCA V0209999C000012200019N0200001N1+00621-00121102141ADDGA1031+010509059GF103991031051012501001001MA1999999091871MD1510001+9999REMSYN076AAXX  01154 17202 42670 30000 10062 21012 39187 40214 55000 83500 333 83635;
0196172020999992000010118004+38600+039280FM-12+0882LTCA V0202601N002112200019N0200001N1+00061-00501102251ADDAA106000091GA1001+999999999GF100991001001999999001001KA1999M+00901MA1999999091901MD1110031+9999REMSYN070AAXX  01184 17202 32970 02604 10006 21050 39190 40225 51003 333 10090;EQDQ01  00002PRCP06
0143172020999992000010121004+38600+039280FM-12+0882LTCA V0202701N002612200019N0200001N1-00081-00371102201ADDGA1001+999999999GF100991001001999999001001MA1999999091901MD1410001+9999REMSYN060AAXX  01214 17202 42970 02705 11008 21037 39190 40220 54000;
0173172020999992000010200004+38600+039280FM-12+0882LTCA V0203001N002112200019N0200001N1-00221-00421102121ADDAA106000091GA1001+999999999GF100991001001999999001001MA1999999091871MD1510031+9999REMSYN060AAXX  02004 17202 32970 03004 11022 21042 39187 40212 55003;EQDQ01  00002PRCP06
0143172020999992000010203004+38600+039280FM-12+0882LTCA V0203001N002612200019N0200001N1-00381-00481102091ADDGA1001+999999999GF100991001001999999001001MA1999999091801MD1610071+9999REMSYN060AAXX  02034 17202 42970 03005 11038 21048 39180 40209 56007;
0238172020999992000010206004+38600+039280FM-12+0882LTCA V0202901N00151036001CN0200001N1-00221-00421102171ADDAA106000091GA1021+010509069GF105991021051012501051001IA1149IA2999-00609KA1120N-00401MA1999999091831MD1310031+9999REMSYN094AAXX  02064 17202 32670 52903 11022 21042 39183 40217 53003 82550 333 21040 34106 82635 85360;EQDQ01  00002PRCP06
0165172020999992000010209004+38600+039280FM-12+0882LTCA V0209999C00001036001CN0100001N1+00341+00061102061ADDGA1021+010509069GF107991021051012501011001MA1999999091771MD1810061+9999REMSYN082AAXX  02094 17202 42660 70000 10034 20006 39177 40206 58006 82510 333 82635 87460;
0195172020999992000010212004+38600+039280FM-12+0882LTCA V0200601N00151036001CN0100001N1+00601-00541101871ADDAA106000091GA1031+010509069GF107991031051012501011001MA1999999091621MD1710151+9999REMSYN082AAXX  02124 17202 32660 70603 10060 21054 39162 40187 57015 83510 333 83635 87460;EQDQ01  00002PRCP06
0165172020999992000010215004+38600+039280FM-12+0882LTCA V0202601N00151036001CN0100001N1+00501-00321101821ADDGA1031+010509069GF107991031051012501011001MA1999999091561MD1710061+9999REMSYN082AAXX  02154 17202 42660 72603 10050 21032 39156 40182 57006 83510 333 83635 87460;
0214172020999992000010218004+38600+039280FM-12+0882LTCA V0209999C00001036001CN0150001N1+00221-00131101911ADDAA106000091GA1041+010509069GF107991041051012501011001KA1120M+00641MA1999999091621MD1110061+9999REMSYN088AAXX  02184 17202 32665 70000 10022 21013 39162 40191 51006 84510 333 10064 84635 87460;EQDQ01  00002PRCP06
0165172020999992000010221004+38600+039280FM-12+0882LTCA V0209999C00001036001CN0150001N1+00161-00121101841ADDGA1041+010509069GF107991041051012501011001MA1999999091601MD1810021+9999REMSYN082AAXX  02214 17202 42665 70000 10016 21012 39160 40184 58002 84510 333 84635 87360;
0195172020999992000010300004+38600+039280FM-12+0882LTCA V0209999C00001036001CN0150001N1+00161-00121101671ADDAA106000091GA1041+010509069GF108991041051012501021999MA1999999091481MD1710121+9999REMSYN082AAXX  03004 17202 32665 80000 10016 21012 39148 40167 57012 8452/ 333 84635 88459;EQDQ01  00002PRCP06
0165172020999992000010303004+38600+039280FM-12+0882LTCA V0203301N00151036001CN0200001N1+00221+00061101541ADDGA1041+010509069GF108991041051012501021999MA1999999091371MD1710111+9999REMSYN082AAXX  03034 17202 42670 83303 10022 20006 39137 40154 57011 8452/ 333 84635 88459;
0238172020999992000010306004+38600+039280FM-12+0882LTCA V0209999C00001036001CN0200001N1+00281+00081101541ADDAA106000091GA1041+010509069GF108991041051012501021999IA1149IA2999-00109KA1120N+00101MA1999999091351MD1610021+9999REMSYN094AAXX  03064 17202 32670 80000 10028 20008 39135 40154 56002 8452/ 333 20010 34101 84635 88459;EQDQ01  00002PRCP06
0165172020999992000010309004+38600+039280FM-12+0882LTCA V0200901N00411036001CN0200001N1+01001+00381101421ADDGA1041+010509069GF108991041051012501021999MA1999999091301MD1810051+9999REMSYN082AAXX  03094 17202 42670 80908 10100 20038 39130 40142 58005 8452/ 333 84635 88459;
0232172020999992000010312004+38600+039280FM-12+0882LTCA V0201101N007710090019N0200001N1+00981+00201101071ADDAA106000391AY161061AY221061GA1021+006009079GA2051+009009069GF108991051071008001021999MA1999999090981MD1710321+9999MW1021REMSYN100AAXX  03124 17202 11570 81115 10098 20020 39098 40107 57032 69931 70262 8572/ 333 82720 85630 88459;
0215172020999992000010315004+38600+039280FM-12+0882LTCA V0200901N005110090019N0150001N1+00761+00161101081ADDAY121031AY221031GA1021+005409079GA2061+009009069GF108991061071004501021999MA1999999090971MD1810011+9999MW1601REMSYN094AAXX  03154 17202 41465 80910 10076 20016 39097 40108 58001 76022 8672/ 333 82718 86630 88459;
0234172020999992000010318004+38600+039280FM-12+0882LTCA V0201001N007210090019N0100001N1+00701+00361101041ADDAY121061AY221061GA1031+005409079GA2061+009009069GF108991071071004501021999KA1120M+01041MA1999999090941MD1610031+9999MW1601REMSYN100AAXX  03184 17202 11460 81014 10070 20036 39094 40104 56003 76022 8772/ 333 10104 83718 86630 88458;
0215172020999992000010321004+38600+039280FM-12+0882LTCA V0200901N005110090019N0150001N1+00681+00311100971ADDAY161031AY261031GA1031+005409079GA2061+009009069GF108991071071004501021999MA1999999090931MD1610011+9999MW1211REMSYN094AAXX  03214 17202 41465 80910 10068 20031 39093 40097 56001 72166 8772/ 333 83718 86630 88458;
0232172020999992000010400004+38600+039280FM-12+0882LTCA V0201001N006210090019N0100001N1+00601+00301100931ADDAA106001091AY161061AY221061GA1031+005409079GA2061+009009069GF108991071071004501021999MA1999999090901MD1610031+9999MW1601REMSYN100AAXX  04004 17202 11460 81012 10060 20030 39090 40093 56003 60011 76062 8772/ 333 83718 86630 88458;
0215172020999992000010403004+38600+039280FM-12+0882LTCA V0201301N004110090019N0150001N1+00621+00281100811ADDAY161031AY221031GA1031+005409079GA2061+009009069GF108991071071004501021999MA1999999090771MD1710131+9999MW1021REMSYN094AAXX  04034 17202 41465 81308 10062 20028 39077 40081 57013 70262 8772/ 333 83718 86630 88458;
0281172020999992000010406004+38600+039280FM-12+0882LTCA V0200801N005110090019N0150001N1+00701+00131100741ADDAA112003091AY161061AY221061GA1031+005409079GA2061+009009069GF108991071071004501021999IA1119IA2999+00409KA1120N+00481MA1999999090711MD1810061+9999MW1021REMSYN118AAXX  04064 17202 11465 80810 10070 20013 39071 40074 58006 60032 70262 8772/ 333 20048 32004 70040 83718 86630 88458;
0215172020999992000010409004+38600+039280FM-12+0882LTCA V0201101N004610090019N0100001N1+00761+00301100801ADDAY121031AY221031GA1031+005409079GA2061+009009069GF108991071071004501021999MA1999999090761MD1010051+9999MW1601REMSYN094AAXX  04094 17202 41460 81109 10076 20030 39076 40080 50005 76022 8772/ 333 83718 86630 88458;
0232172020999992000010412004+38600+039280FM-12+0882LTCA V0201201N005710090019N0080001N1+00801+00261100691ADDAA106000591AY161061AY221061GA1031+005409079GA2061+009009069GF108991071071004501021999MA1999999090661MD1610101+9999MW1601REMSYN100AAXX  04124 17202 11458 81211 10080 20026 39066 40069 56010 69961 76062 8772/ 333 83718 86630 88458;
0215172020999992000010415004+38600+039280FM-12+0882LTCA V0200701N005710090019N0150001N1+00701+00221100561ADDAY161031AY221031GA1031+005409079GA2061+009009069GF108991071071004501021999MA1999999090541MD1710121+9999MW1021REMSYN094AAXX  04154 17202 41465 80711 10070 20022 39054 40056 57012 70262 8772/ 333 83718 86630 88459;
0251172020999992000010418004+38600+039280FM-12+0882LTCA V0200601N004610090019N0150001N1+00641+00201100591ADDAA112000891AY161061AY221061GA1031+005409079GA2061+009009069GF108991071071004501021999KA1120M+00881MA1999999090571MD1110031+9999MW1021REMSYN106AAXX  04184 17202 11465 80609 10064 20020 39057 40059 51003 69982 70262 8772/ 333 10088 83718 86630 88459;
0215172020999992000010421004+38600+039280FM-12+0882LTCA V0201801N002110090019N0100001N1+00401+00181100641ADDAY121031AY221031GA1031+005409079GA2061+009009069GF108991071071004501021999MA1999999090601MD1310031+9999MW1601REMSYN094AAXX  04214 17202 41460 81804 10040 20018 39060 40064 53003 76022 8772/ 333 83718 86630 88458;
0232172020999992000010500004+38600+039280FM-12+0882LTCA V0201201N002610090019N0150001N1+00341+00101100531ADDAA106001091AY161061AY221061GA1031+005409079GA2061+009009069GF108991071071004501021999MA1999999090501MD1810101+9999MW1021REMSYN100AAXX  05004 17202 11465 81205 10034 20010 39050 40053 58010 60011 70262 8772/ 333 83718 86630 88459;
0187172020999992000010503004+38600+039280FM-12+0882LTCA V0209999C000010090019N0150001N1+00341+00101100691ADDGA1031+005409079GA2061+009009069GF108991071071004501021999MA1999999090621MD1210121+9999REMSYN088AAXX  05034 17202 42465 80000 10034 20010 39062 40069 52012 8772/ 333 83718 86630 88459;
0272172020999992000010506004+38600+039280FM-12+0882LTCA V0202401N001510090019N0150001N1+00121-00121100891ADDAA112001091GA1031+005409079GA2061+009009069GF108991071071004501021999IA1119IA2999+00009KA1120N+00101MA1999999090781MD1210201+9999REMSYN112AAXX  05064 17202 12465 82403 10012 21012 39078 40089 52106 60012 8772/ 333 20010 32000 70018 83718 86630 88459;EQDQ01+001062APC3  
0165172020999992000010509004+38600+039280FM-12+0882LTCA V0201001N00411036001CN0200001N1+00701+00181101081ADDGA1031+010509069GF105991031051012501051001MA1999999090991MD1210211+9999REMSYN082AAXX  05094 17202 42670 51008 10070 20018 39099 40108 52021 83550 333 83635 85360;
0195172020999992000010512004+38600+039280FM-12+0882LTCA V0200801N00361036001CN0200001N1+00761+00121100831ADDAA106000091GA1031+010509069GF106991031051012501051001MA1999999090771MD1710221+9999REMSYN082AAXX  05124 17202 32670 60807 10076 20012 39077 40083 57022 83550 333 83635 85360;EQDQ01  00002PRCP06
0165172020999992000010515004+38600+039280FM-12+0882LTCA V0200401N00151036001CN0200001N1+00701-00101100911ADDGA1041+010509069GF106991041051012501051001MA1999999090821MD1210051+9999REMSYN082AAXX  05154 17202 42670 60403 10070 21010 39082 40091 52005 84550 333 84635 86360;
0215172020999992000010521004+38600+039280FM-12+0882LTCA V0200801N003610090019N0070001N1+00361+00121101001ADDAY121031AY221031GA1021+004509079GA2051+009009069GF108991061071004501021999MA1999999090901MD1110051+9999MW1681REMSYN094AAXX  05214 17202 41457 80807 10036 20012 39090 40100 51005 76822 8672/ 333 82715 85630 88458;
0215172020999992000010603004+38600+039280FM-12+0882LTCA V0209999C000010090019N0070001N1+00281+00141101001ADDAY121031AY221031GA1021+004509079GA2051+009009069GF108991061071004501021999MA1999999090901MD1410001+9999MW1681REMSYN094AAXX  06034 17202 41457 80000 10028 20014 39090 40100 54000 76822 8672/ 333 82715 85630 88458;
0355172020999992000010606004+38600+039280FM-12+0882LTCA V0209999C000010090019N0030001N1+00061+00021101081ADDAA112007991AJ199993999999999AL10699999AY121061AY221061GA1031+003609079GA2061+009009069GA3081+024009049GF108991061071004501021999IA1309IA2999-00109KA1120N+00021MA1999999090931MD1310031+9999MW1701REMSYN130AAXX  06064 17202 11430 80000 10006 20002 39093 40108 53003 60082 77022 8672/ 333 20002 3/101 42997 70081 83712 86630 88458 93197;EQDQ01  09982SNDP  
0237172020999992000010609004+38600+039280FM-12+0882LTCA V0202301N001510090019N0050001N1+00201+00051101201ADDAY171031AY221031GA1041+003909079GA2061+009009069GA3081+024009049GF108991071071004501021999MA1999999091041MD1110111+9999MW1601REMSYN100AAXX  06094 17202 41450 82303 10020 20005 39104 40120 51011 76072 8772/ 333 84713 86630 88458 96010;
0232172020999992000010612004+38600+039280FM-12+0882LTCA V0209999C000010090019N0070001N1+00441+00241101151ADDAA106003091AY171061AY261061GA1041+004209079GA2061+009009069GF108991071071004501021999MA1999999091021MD1610021+9999MW1601REMSYN100AAXX  06124 17202 11457 80000 10044 20024 39102 40115 56002 60031 76076 8772/ 333 84714 86630 88458;
0215172020999992000010615004+38600+039280FM-12+0882LTCA V0202501N001510105019N0200001N1+00441+00081101271ADDAY161031AY221031GA1021+006009079GA2041+010509069GF106991051071008001051001MA1999999091121MD1210101+9999MW1011REMSYN094AAXX  06154 17202 41570 62503 10044 20008 39112 40127 52010 70162 85750 333 82720 84635 86360;
0187172020999992000010621004+38600+039280FM-12+0882LTCA V0209999C000010105019N0200001N1+00201-00041101621ADDGA1021+006009079GA2041+010509069GF107991051071008001071001MA1999999091401MD1310141+9999REMSYN088AAXX  06214 17202 42570 70000 10020 21004 39140 40162 53014 85770 333 82720 84635 87360;
0217172020999992000010700004+38600+039280FM-12+0882LTCA V0209999C000010105019N0200001N1+00201-00041101711ADDAA106000091GA1021+006009079GA2041+010509069GF107991051061008001051001MA1999999091501MD1210101+9999REMSYN088AAXX  07004 17202 32570 70000 10020 21004 39150 40171 52010 85650 333 82720 84635 87360;EQDQ01  00002PRCP06
0238172020999992000010706004+38600+039280FM-12+0882LTCA V0209999C00001036001CN0200001N1+00201-00041101841ADDAA106000091GA1041+010509069GF107991041051012501071001IA1119IA2999+00109KA1120N+00161MA1999999091601MD1210071+9999REMSYN094AAXX  07064 17202 32670 70000 10020 21004 39160 40184 52007 84570 333 20016 32001 84635 87360;EQDQ01  00002PRCP06
0165172020999992000010709004+38600+039280FM-12+0882LTCA V0209999C000010105019N0200001N1+00561+00091101961ADDGA1051+010509069GF108991051051012501021999MA1999999091751MD1010151+9999REMSYN082AAXX  07094 17202 42670 80000 10056 20009 39175 40196 50015 8552/ 333 85635 88459;
0195172020999992000010712004+38600+039280FM-12+0882LTCA V0209999C000010105019N0200001N1+00621+00101101931ADDAA106000091GA1051+010509069GF108991051051012501021999MA1999999091721MD1610031+9999REMSYN082AAXX  07124 17202 32670 80000 10062 20010 39172 40193 56003 8552/ 333 85635 88459;EQDQ01  00002PRCP06
0165172020999992000010715004+38600+039280FM-12+0882LTCA V0201201N00411036001CN0200001N1+00501-00211102041ADDGA1041+010509069GF107991041051012501021001MA1999999091801MD1310081+9999REMSYN082AAXX  07154 17202 42670 71208 10050 21021 39180 40204 53008 84520 333 84635 87459;
0208172020999992000010718004+38600+039280FM-12+0882LTCA V0201201N004612200019N0200001N1+00341-00421102071ADDAA106000091GA1031+010509059GF103991031051012501001001KA1120M+00641MA1999999091821MD1310021+9999REMSYN082AAXX  07184 17202 32670 31209 10034 21042 39182 40207 53002 83500 333 10064 83635;EQDQ01  00002PRCP06
0165172020999992000010721004+38600+039280FM-12+0882LTCA V0201201N00571036001CN0200001N1+00341-00421102051ADDGA1041+010509069GF106991041051012501051001MA1999999091831MD1110011+9999REMSYN082AAXX  07214 17202 42670 61211 10034 21042 39183 40205 51001 84550 333 84635 86360;
0189172020999992000010800004+38600+039280FM-12+0882LTCA V0201201N006212200019N0200001N1+00341-00421102051ADDAA106000091GA1031+010509059GF103991031051012501001001MA1999999091851MD1310021+9999REMSYN076AAXX  08004 17202 32670 31212 10034 21042 39185 40205 53002 83500 333 83635;EQDQ01  00002PRCP06
0159172020999992000010803004+38600+039280FM-12+0882LTCA V0200601N001512200019N0200001N1+00241-00371102111ADDGA1031+010509059GF104991031051012501001001MA1999999091881MD1110031+9999REMSYN076AAXX  08034 17202 42670 40603 10024 21037 39188 40211 51003 83500 333 83635;
0238172020999992000010806004+38600+039280FM-12+0882LTCA V0200701N003610090019N0200001N1+00201-00311102131ADDAA106000091GA1051+009009069GF106991051051008001051001IA1099IA2999+00109KA1120N+00181MA1999999091881MD1510001+9999REMSYN094AAXX  08064 17202 32570 60707 10020 21031 39188 40213 55000 85550 333 20018 31001 85630 85358;EQDQ01  00002PRCP06
0159172020999992000010809004+38600+039280FM-12+0882LTCA V0200701N005710090019N0200001N1+00581-00291102081ADDGA1051+009009059GF105991051051008001001001MA1999999091871MD1810011+9999REMSYN076AAXX  08094 17202 42570 50711 10058 21029 39187 40208 58001 85500 333 85630;
0195172020999992000010812004+38600+039280FM-12+0882LTCA V0200801N00311036001CN0200001N1+00741-00361101941ADDAA106000091GA1041+009009069GF106991041051008001051001MA1999999091751MD1610121+9999REMSYN082AAXX  08124 17202 32570 60806 10074 21036 39175 40194 56012 84550 333 84630 86360;EQDQ01  00002PRCP06
0165172020999992000010815004+38600+039280FM-12+0882LTCA V0200801N00211036001CN0200001N1+00521-00301101911ADDGA1041+009009069GF106991041051008001051001MA1999999091701MD1610051+9999REMSYN082AAXX  08154 17202 42570 60804 10052 21030 39170 40191 56005 84550 333 84630 86360;
0214172020999992000010818004+38600+039280FM-12+0882LTCA V0201501N00211036001CN0200001N1+00361-00401101971ADDAA106000091GA1041+010509069GF106991041051012501051001KA1120M+00761MA1999999091741MD1310041+9999REMSYN088AAXX  08184 17202 32670 61504 10036 21040 39174 40197 53004 84550 333 10076 84635 86360;EQDQ01  00002PRCP06
0165172020999992000010821004+38600+039280FM-12+0882LTCA V0200701N00311036001CN0200001N1+00241-00371101911ADDGA1041+010509069GF106991041051012501051001MA1999999091701MD1710041+9999REMSYN082AAXX  08214 17202 42670 60706 10024 21037 39170 40191 57004 84550 333 84635 86360;
0195172020999992000010900004+38600+039280FM-12+0882LTCA V0209999C00001036001CN0200001N1+00081-00321102151ADDAA106000091GA1041+010509069GF106991041051012501051001MA1999999091681MD1810021+9999REMSYN082AAXX  09004 17202 32670 60000 10008 21032 39168 40215 58002 84550 333 84635 86360;EQDQ01  00002PRCP06
0165172020999992000010903004+38600+039280FM-12+0882LTCA V0202801N00211036001CN0200001N1-00281-00431101981ADDGA1031+010509069GF105991031051012501051001MA1999999091701MD1110021+9999REMSYN082AAXX  09034 17202 42670 52804 11028 21043 39170 40198 51002 83550 333 83635 85360;
0165172020999992000010909004+38600+039280FM-12+0882LTCA V0200601N00211036001CN0200001N1+00301-00341102021ADDGA1031+010509069GF105991031051012501051001MA1999999091781MD1210071+9999REMSYN082AAXX  09094 17202 42670 50604 10030 21034 39178 40202 52007 83550 333 83635 85360;
0195172020999992000010912004+38600+039280FM-12+0882LTCA V0202401N00261036001CN0200001N1+00501-00331101801ADDAA106000091GA1031+010509069GF106991031051012501051001MA1999999091581MD1710201+9999REMSYN082AAXX  09124 17202 32670 62405 10050 21033 39158 40180 57020 83550 333 83635 85360;EQDQ01  00002PRCP06
0165172020999992000010915004+38600+039280FM-12+0882LTCA V0209999C00001036001CN0200001N1+00281-00441101871ADDGA1021+010509069GF105991021051012501051001MA1999999091581MD1410001+9999REMSYN082AAXX  09154 17202 42670 50000 10028 21044 39158 40187 54000 82550 333 82635 85360;
0214172020999992000010918004+38600+039280FM-12+0882LTCA V0203401N00151036001CN0200001N1-00021-00361101911ADDAA106000091GA1031+010509069GF105991031051012501051001KA1120M+00541MA1999999091601MD1110021+9999REMSYN088AAXX  09184 17202 32670 53403 11002 21036 39160 40191 51002 83550 333 10054 83635 85360;EQDQ01  00002PRCP06
0165172020999992000010921004+38600+039280FM-12+0882LTCA V0209999C00001036001CN0200001N1-00121-00311101901ADDGA1031+010509069GF106991031051012501051001MA1999999091631MD1210031+9999REMSYN082AAXX  09214 17202 42670 60000 11012 21031 39163 40190 52003 83550 333 83635 86360;
0195172020999992000011000004+38600+039280FM-12+0882LTCA V0209999C00001036001CN0200001N1+00021-00241101921ADDAA106000091GA1031+010509069GF107991031051012501051001MA1999999091691MD1310061+9999REMSYN082AAXX  10004 17202 32670 70000 10002 21024 39169 40192 53006 83550 333 83635 86360;EQDQ01  00002PRCP06
0165172020999992000011003004+38600+039280FM-12+0882LTCA V0209999C00001036001CN0200001N1-00301-00481101981ADDGA1031+010509069GF105991031051012501051001MA1999999091681MD1610011+9999REMSYN082AAXX  10034 17202 42670 50000 11030 21048 39168 40198 56001 83550 333 83635 85360;
0238172020999992000011006004+38600+039280FM-12+0882LTCA V0209999C00001036001CN0200001N1-00101-00391102081ADDAA106000091GA1031+010509069GF105991031051012501051001IA1149IA2999-00509KA1120N-00341MA1999999091751MD1310071+9999REMSYN094AAXX  10064 17202 32670 50000 11010 21039 39175 40208 53007 83550 333 21034 34105 83635 85360;EQDQ01  00002PRCP06
0165172020999992000011009004+38600+039280FM-12+0882LTCA V0201201N00151036001CN0200001N1+00241-00721102091ADDGA1041+009009069GF105991041051008001051001MA1999999091801MD1010051+9999REMSYN082AAXX  10094 17202 42570 51203 10024 21072 39180 40209 50005 84550 333 84630 85359;
0195172020999992000011012004+38600+039280FM-12+0882LTCA V0201001N00151036001CN0200001N1+00461-01071101921ADDAA106000091GA1031+009009069GF105991031051008001051001MA1999999091671MD1710131+9999REMSYN082AAXX  10124 17202 32570 51003 10046 21107 39167 40192 57013 83550 333 83630 85359;EQDQ01  00002PRCP06
0159172020999992000011015004+38600+039280FM-12+0882LTCA V0209999C000012200019N0200001N1+00281-01071101911ADDGA1031+010509059GF103991031051012501001001MA1999999091621MD1810051+9999REMSYN076AAXX  10154 17202 42670 30000 10028 21107 39162 40191 58005 83500 333 83635;
0208172020999992000011018004+38600+039280FM-12+0882LTCA V0202901N001512200019N0200001N1-00141-01021101911ADDAA106000091GA1031+010509059GF103991031051012501001001KA1120M+00521MA1999999091601MD1610021+9999REMSYN082AAXX  10184 17202 32670 32903 11014 21102 39160 40191 56002 83500 333 10052 83635;EQDQ01  00002PRCP06
0159172020999992000011021004+38600+039280FM-12+0882LTCA V0209999C000012200019N0200001N1-00201-00901101891ADDGA1031+010509059GF103991031051012501001001MA1999999091601MD1410001+9999REMSYN076AAXX  10214 17202 42670 30000 11020 21090 39160 40189 54000 83500 333 83635;
0189172020999992000011100004+38600+039280FM-12+0882LTCA V0209999C000012200019N0200001N1-00341-00741101871ADDAA106000091GA1031+010509059GF103991031051012501001001MA1999999091601MD1410001+9999REMSYN076AAXX  11004 17202 32670 30000 11034 21074 39160 40187 54000 83500 333 83635;EQDQ01  00002PRCP06
0189172020999992000011103004+38600+039280FM-12+0882LTCA V0209999C000012200019N0200001N1-00401-00641101981ADDAA106000091GA1011+010509059GF101991011051012501001001MA1999999091661MD1310061+9999REMSYN076AAXX  11034 17202 32670 10000 11040 21064 39166 40198 53006 81500 333 81635;EQDQ01  00002PRCP06
0232172020999992000011106004+38600+039280FM-12+0882LTCA V0209999C000012200019N0200001N1-00501-00741102131ADDAA106000091GA1011+010509059GF101991011051012501001001IA1149IA2999-00809KA1120N-00641MA1999999091771MD1210111+9999REMSYN088AAXX  11064 17202 32670 10000 11050 21074 39177 40213 52011 81500 333 21064 34108 81635;EQDQ01  00002PRCP06
0159172020999992000011109004+38600+039280FM-12+0882LTCA V0201001N001512200019N0200001N1+00301-00481102201ADDGA1021+010509059GF102991021051012501001001MA1999999091881MD1810031+9999REMSYN076AAXX  11094 17202 42670 21003 10030 21048 39188 40220 58003 82500 333 82635;
0189172020999992000011112004+38600+039280FM-12+0882LTCA V0202801N002612200019N0200001N1+00561-00531102021ADDAA106000091GA1041+010509029GF104991041021012501001001MA1999999091741MD1710141+9999REMSYN076AAXX  11124 17202 32670 42805 10056 21053 39174 40202 57014 84200 333 84835;EQDQ01  00002PRCP06
0165172020999992000011115004+38600+039280FM-12+0882LTCA V0202701N003612200019N0200001N1+00401-00681102111ADDGA1011+010509069GF104991011051012501001011MA1999999091801MD1210061+9999REMSYN082AAXX  11154 17202 42670 42707 10040 21068 39180 40211 52006 81501 333 81635 84070;
0196172020999992000011118004+38600+039280FM-12+0882LTCA V0202501N002612200019N0200001N1-00101-01101102241ADDAA106000091GA1001+999999999GF100991001001999999001001KA1999M+00581MA1999999091871MD1210071+9999REMSYN070AAXX  11184 17202 32970 02505 11010 21110 39187 40224 52007 333 10058;EQDQ01  00002PRCP06
0143172020999992000011121004+38600+039280FM-12+0882LTCA V0202901N001012200019N0200001N1-00281-00841102251ADDGA1001+999999999GF100991001001999999001001MA1999999091921MD1210051+9999REMSYN060AAXX  11214 17202 42970 02902 11028 21084 39192 40225 52005;
0173172020999992000011200004+38600+039280FM-12+0882LTCA V0202701N002112200019N0200001N1-00501-00911102251ADDAA106000091GA1001+999999999GF100991001001999999001001MA1999999091921MD1410001+9999REMSYN060AAXX  12004 17202 32970 02704 11050 21091 39192 40225 54000;EQDQ01  00002PRCP06
0143172020999992000011203004+38600+039280FM-12+0882LTCA V0203001N001512200019N0200001N1-00561-00981102271ADDGA1001+999999999GF100991001001999999001001MA1999999091921MD1410001+9999REMSYN060AAXX  12034 17202 42970 03003 11056 21098 39192 40227 54000;
0232172020999992000011206004+38600+039280FM-12+0882LTCA V0202801N001512200019N0200001N1-00401-00841102321ADDAA106000091GA1011+009009059GF101991011051008001001001IA1149IA2999-00909KA1120N-00741MA1999999091941MD1310021+9999REMSYN088AAXX  12064 17202 32570 12803 11040 21084 39194 40232 53002 81500 333 21074 34109 81630;EQDQ01  00002PRCP06
0159172020999992000011209004+38600+039280FM-12+0882LTCA V0201901N002112200019N0200001N1+00221-00921102261ADDGA1021+010509059GF102991021051012501001001MA1999999091931MD1810011+9999REMSYN076AAXX  12094 17202 42670 21904 10022 21092 39193 40226 58001 82500 333 82635;
0195172020999992000011212004+38600+039280FM-12+0882LTCA V0209999C00001036001CN0200001N1+00481-01131102091ADDAA106000091GA1031+010509069GF105991031051012501051001MA1999999091781MD1710151+9999REMSYN082AAXX  12124 17202 32670 50000 10048 21113 39178 40209 57015 83550 333 83635 84360;EQDQ01  00002PRCP06
0165172020999992000011215004+38600+039280FM-12+0882LTCA V0209999C00001036001CN0200001N1+00281-01061102141ADDGA1031+010509069GF105991031051012501051001MA1999999091801MD1110021+9999REMSYN082AAXX  12154 17202 42670 50000 10028 21106 39180 40214 51002 83550 333 83635 84360;
0208172020999992000011218004+38600+039280FM-12+0882LTCA V0202101N002612200019N0200001N1+00121-00761102201ADDAA106000091GA1041+030009079GF104991041001999999031001KA1120M+00501MA1999999091861MD1210061+9999REMSYN082AAXX  12184 17202 32970 42105 10012 21076 39186 40220 52006 84030 333 10050 84360;EQDQ01  00002PRCP06
0159172020999992000011221004+38600+039280FM-12+0882LTCA V0202001N003112200019N0200001N1+00101-00721102181ADDGA1041+030009079GF104991041001999999031001MA1999999091901MD1210041+9999REMSYN076AAXX  12214 17202 42970 42006 10010 21072 39190 40218 52004 84030 333 84360;
0189172020999992000011300004+38600+039280FM-12+0882LTCA V0202301N002110300019N0200001N1-00101-00421102181ADDAA106000091GA1061+030009079GF106991061001999999031001MA1999999091911MD1110011+9999REMSYN076AAXX  13004 17202 32970 62304 11010 21042 39191 40218 51001 86030 333 86360;EQDQ01  00002PRCP06
0215172020999992000011303004+38600+039280FM-12+0882LTCA V0202001N001510090019N0070001N1-00121-00321102211ADDAY121031AY221031GA1031+004509079GA2051+009009069GF108991061071004501021999MA1999999091931MD1110021+9999MW1701REMSYN094AAXX  13034 17202 41457 82003 11012 21032 39193 40221 51002 77022 8672/ 333 83715 85630 88459;
0159172020999992000011309004+38600+039280FM-12+0882LTCA V0202101N004612200019N0200001N1+00101-00721102421ADDGA1031+010509059GF103991031051012501001001MA1999999092101MD1110071+9999REMSYN076AAXX  13094 17202 42670 32109 10010 21072 39210 40242 51007 83500 333 83635;
0189172020999992000011312004+38600+039280FM-12+0882LTCA V0202101N004112200019N0200001N1+00241-00721102271ADDAA106000091GA1031+010509059GF103991031051012501001001MA1999999091961MD1610141+9999REMSYN076AAXX  13124 17202 32670 32108 10024 21072 39196 40227 56014 83500 333 83635;EQDQ01  00002PRCP06
0143172020999992000011315004+38600+039280FM-12+0882LTCA V0202101N003612200019N0200001N1-00101-00721102311ADDGA1001+999999999GF100991001001999999001001MA1999999091961MD1410001+9999REMSYN060AAXX  13154 17202 42970 02107 11010 21072 39196 40231 54000;
0196172020999992000011318004+38600+039280FM-12+0882LTCA V0202401N003112200019N0200001N1-00301-00861102471ADDAA106000091GA1001+999999999GF100991001001999999001001KA1999M+00261MA1999999092061MD1210101+9999REMSYN070AAXX  13184 17202 32970 02406 11030 21086 39206 40247 52010 333 10026;EQDQ01  00002PRCP06
0147172020999992000011321004+38600+039280FM-12+088299999V0202301N00411220001CN0200001N1-00421-00801102481ADDGA1001+999999999GF100991001001999999001001MA1999999092091MD1310031+9999REMSYN064    AAXX  13214 17202 42970 02308 11042 21080 39209 40248 53003;
0177172020999992000011400004+38600+039280FM-12+088299999V0202301N00151220001CN0200001N1-00561-00981102491ADDAA199000091GA1001+999999999GF100991001001999999001001MA1999999092101MD1110011+9999REMSYN064    AAXX  14004 17202 32970 02303 11056 21098 39210 40249 51001;EQDQ01  00002PRCP99
0147172020999992000011403004+38600+039280FM-12+088299999V0202301N00211220001CN0200001N1-00681-01121102541ADDGA1001+999999999GF100991001001999999001001MA1999999092101MD1410001+9999REMSYN064    AAXX  14034 17202 42970 02304 11068 21112 39210 40254 54000;
0224172020999992000011406004+38600+039280FM-12+088299999V0202501N00151220001CN0200001N1-00621-01021102631ADDAA199000091GA1001+999999999GF100991001001999999001001IA1149IA2999-00909KA1120N-00721MA1999999092161MD1310061+9999REMSYN080    AAXX  14064 17202 32970 02503 11062 21102 39216 40263 53006 333 21072 34109;EQDQ01  00002PRCP99
0169172020999992000011409004+38600+039280FM-12+088299999V0209999C00001036001CN0200001N1-00041-00791102561ADDGA1041+009009069GF107991041051008001051001MA1999999092161MD1410001+9999REMSYN086    AAXX  14094 17202 42570 70000 11004 21079 39216 40256 54000 84550 333 84630 86358;
0199172020999992000011412004+38600+039280FM-12+088299999V0201801N00261036001CN0200001N1+00121-01321102301ADDAA199000091GA1041+009009069GF107991041051008001051001MA1999999092011MD1710151+9999REMSYN086    AAXX  14124 17202 32570 71805 10012 21132 39201 40230 57015 84550 333 84630 87358;EQDQ01  00002PRCP99
0169172020999992000011415004+38600+039280FM-12+088299999V0201701N00211036001CN0200001N1+00001-01121102441ADDGA1031+010509069GF107991031051012501011001MA1999999092031MD1310021+9999REMSYN086    AAXX  14154 17202 42670 71704 10000 21112 39203 40244 53002 83510 333 83635 87460;
0234172020999992000011418004+38600+039280FM-12+088299999V0202101N00311220001CN0200001N1-00141-01021102461ADDAA199000091GA1031+009009069GF103991999051012501071001KA1120M+00141MA1999999092071MD1310041+9999REMSYN092    AAXX  14184 17202 32670 32106 11014 21102 39207 40246 53004 84570 333 10014 83630 87358;EQDQ01+000042SCOTLCQ02  00002PRCP99
0169172020999992000011421004+38600+039280FM-12+088299999V0202501N00151036001CN0200001N1-00401-00841102491ADDGA1031+010509069GF105991031051012501051001MA1999999092101MD1110031+9999REMSYN086    AAXX  14214 17202 42670 52503 11040 21084 39210 40249 51003 83550 333 83635 85360;
0177172020999992000011500004+38600+039280FM-12+088299999V0202001N00211220001CN0200001N1-00601-00971102381ADDAA199000091GA1001+999999999GF100991001001999999001001MA1999999092001MD1710101+9999REMSYN064    AAXX  15004 17202 32970 02004 11060 21097 39200 40238 57010;EQDQ01  00002PRCP99
0147172020999992000011503004+38600+039280FM-12+088299999V0209999C00001220001CN0200001N1-00661-00941102361ADDGA1001+999999999GF100991001001999999001001MA1999999091961MD1810041+9999REMSYN064    AAXX  15034 17202 42970 00000 11066 21094 39196 40236 58004;
0224172020999992000011506004+38600+039280FM-12+088299999V0209999C00001220001CN0200001N1-00501-00911102341ADDAA199000091GA1001+999999999GF100991001001999999001001IA1149IA2999-00909KA1120N-00741MA1999999091941MD1610021+9999REMSYN080    AAXX  15064 17202 32970 00000 11050 21091 39194 40234 56002 333 21074 34109;EQDQ01  00002PRCP99
0163172020999992000011509004+38600+039280FM-12+088299999V0202101N00361220001CN0200001N1+00101-00961102221ADDGA1021+010509059GF102991021051012501001001MA1999999091881MD1810061+9999REMSYN080    AAXX  15094 17202 42670 22107 10010 21096 39188 40222 58006 82500 333 82635;
0193172020999992000011512004+38600+039280FM-12+088299999V0202001N00361220001CN0200001N1+00341-00861101871ADDAA199000091GA1031+010509059GF103991031051012501001001MA1999999091601MD1710281+9999REMSYN080    AAXX  15124 17202 32670 32007 10034 21086 39160 40187 57028 83500 333 83635;EQDQ01  00002PRCP99
0147172020999992000011515004+38600+039280FM-12+088299999V0202001N00311220001CN0200001N1+00161-00941101861ADDGA1001+999999999GF100991001001999999001001MA1999999091531MD1610071+9999REMSYN064    AAXX  15154 17202 42970 02006 10016 21094 39153 40186 56007;
0200172020999992000011518004+38600+039280FM-12+088299999V0202301N00101220001CN0200001N1-00481-00911102011ADDAA199000091GA1001+999999999GF100991001001999999001001KA1999M+00361MA1999999091601MD1210071+9999REMSYN074    AAXX  15184 17202 32970 02302 11048 21091 39160 40201 52007 333 10036;EQDQ01  00002PRCP99
0147172020999992000011521004+38600+039280FM-12+088299999V0202601N00211220001CN0200001N1-00641-01011102071ADDGA1001+999999999GF100991001001999999001001MA1999999091661MD1210061+9999REMSYN064    AAXX  15214 17202 42970 02604 11064 21101 39166 40207 52006;
0177172020999992000011600004+38600+039280FM-12+088299999V0202901N00151220001CN0200001N1-00681-00961101981ADDAA199000091GA1001+999999999GF100991001001999999001001MA1999999091641MD1010021+9999REMSYN064    AAXX  16004 17202 32970 02903 11068 21096 39164 40198 50002;EQDQ01  00002PRCP99
0147172020999992000011603004+38600+039280FM-12+088299999V0202401N00151220001CN0200001N1-00841-00901101871ADDGA1001+999999999GF100991001001999999001001MA1999999091641MD1410001+9999REMSYN064    AAXX  16034 17202 42970 02403 11084 21090 39164 40187 54000;
0224172020999992000011606004+38600+039280FM-12+088299999V0202801N00211220001CN0200001N1-00701-00941102121ADDAA199000091GA1001+999999999GF100991001001999999001001IA1149IA2999-01209KA1120N-00901MA1999999091681MD1310041+9999REMSYN080    AAXX  16064 17202 32970 02804 11070 21094 39168 40212 53004 333 21090 34112;EQDQ01  00002PRCP99
0147172020999992000011609004+38600+039280FM-12+088299999V0202201N00411220001CN0200001N1+00141-00981102071ADDGA1001+999999999GF100991001001999999001001MA1999999091701MD1010021+9999REMSYN064    AAXX  16094 17202 42970 02208 10014 21098 39170 40207 50002;
0177172020999992000011612004+38600+039280FM-12+088299999V0202301N00311220001CN0200001N1+00301-01001101921ADDAA199000091GA1001+999999999GF100991001001999999001001MA1999999091581MD1710121+9999REMSYN064    AAXX  16124 17202 32970 02306 10030 21100 39158 40192 57012;EQDQ01  00002PRCP99
0147172020999992000011615004+38600+039280FM-12+088299999V0202101N00361220001CN0200001N1-00101-01101102011ADDGA1001+999999999GF100991001001999999001001MA1999999091601MD1310021+9999REMSYN064    AAXX  16154 17202 42970 02107 11010 21110 39160 40201 53002;
0200172020999992000011618004+38600+039280FM-12+088299999V0202601N00211220001CN0200001N1-00301-01201102121ADDAA199000091GA1001+999999999GF100991001001999999001001KA1999M+00321MA1999999091701MD1210101+9999REMSYN074    AAXX  16184 17202 32970 02604 11030 21120 39170 40212 52010 333 10032;EQDQ01  00002PRCP99
0147172020999992000011621004+38600+039280FM-12+088299999V0209999C00001220001CN0200001N1-00601+99999102041ADDGA1001+999999999GF100991001001999999001001MA1999999091701MD1410001+9999REMSYN064    AAXX  16214 17202 42970 00000 11060 21022 39170 40204 54000;
0177172020999992000011700004+38600+039280FM-12+088299999V0209999C00001220001CN0200001N1-00801-01341102071ADDAA199000091GA1001+999999999GF100991001001999999001001MA1999999091701MD1410001+9999REMSYN064    AAXX  17004 17202 32970 00000 11080 21134 39170 40207 54000;EQDQ01  00002PRCP99
0147172020999992000011703004+38600+039280FM-12+088299999V0203201N00151220001CN0200001N1-00841-01181102011ADDGA1001+999999999GF100991001001999999001001MA1999999091601MD1710101+9999REMSYN064    AAXX  17034 17202 42970 03203 11084 21118 39160 40201 57010;
0224172020999992000011706004+38600+039280FM-12+088299999V0202201N00151220001CN0200001N1-00701-01281102011ADDAA199000091GA1001+999999999GF100991001001999999001001IA1149IA2999-01109KA1120N-00941MA1999999091601MD1410001+9999REMSYN080    AAXX  17064 17202 32970 02203 11070 21128 39160 40201 54000 333 21094 34111;EQDQ01  00002PRCP99
0163172020999992000011709004+38600+039280FM-12+088299999V0201701N00151220001CN0200001N1+00021-00681101931ADDGA1011+010509059GF101991011051012501001001MA1999999091571MD1810031+9999REMSYN080    AAXX  17094 17202 42670 11703 10002 21068 39157 40193 58003 81500 333 81635;
0199172020999992000011712004+38600+039280FM-12+088299999V0200601N00151220001CN0200001N1+00161-01101101581ADDAA199000091GA1011+010509069GF104991011051012501001011MA1999999091261MD1710311+9999REMSYN086    AAXX  17124 17202 32670 40603 10016 21110 39126 40158 57031 81501 333 81635 84070;EQDQ01  00002PRCP99
0147172020999992000011715004+38600+039280FM-12+088299999V0209999C00001220001CN0200001N1+00001-00941101481ADDGA1001+999999999GF100991001001999999001001MA1999999091151MD1710111+9999REMSYN064    AAXX  17154 17202 42970 00000 10000 21094 39115 40148 57011;
0200172020999992000011718004+38600+039280FM-12+088299999V0209999C00001220001CN0200001N1-00541-01321101501ADDAA199000091GA1001+999999999GF100991001001999999001001KA1999M+00241MA1999999091121MD1510031+9999REMSYN074    AAXX  17184 17202 32970 00000 11054 21132 39112 40150 55003 333 10024;EQDQ01  00002PRCP99
0147172020999992000011721004+38600+039280FM-12+088299999V0201201N00461220001CN0200001N1-00201-01121101301ADDGA1001+999999999GF100991001001999999001001MA1999999091051MD1810071+9999REMSYN064    AAXX  17214 17202 42970 01209 11020 21112 39105 40130 58007;
0177172020999992000011800004+38600+039280FM-12+088299999V0201001N00151220001CN0200001N1-00161-01061101221ADDAA199000091GA1001+999999999GF100991001001999999001001MA1999999091001MD1610051+9999REMSYN064    AAXX  18004 17202 32970 01003 11016 21106 39100 40122 56005;EQDQ01  00002PRCP99
0169172020999992000011803004+38600+039280FM-12+088299999V0201601N00461220001CN0200001N1-00161-01061101061ADDGA1021+010509069GF104991021051012501051001MA1999999090831MD1710171+9999REMSYN086    AAXX  18034 17202 42670 41609 11016 21106 39083 40106 57017 82550 333 82635 84360;
0242172020999992000011806004+38600+039280FM-12+088299999V0201201N00671036001CN0200001N1-00141-01021101071ADDAA199000091GA1041+010509069GF106991041051012501051001IA1149IA2999-00809KA1120N-00581MA1999999090801MD1510031+9999REMSYN098    AAXX  18064 17202 32670 61213 11014 21102 39080 40107 55003 84550 333 21058 34108 84635 86360;EQDQ01  00002PRCP99
0219172020999992000011809004+38600+039280FM-12+088299999V0200901N00671009001CN0030001N1-00201-00581100981ADDAY121031AY221031GA1031+004509079GA2061+009009069GF108991061071008001021999MA1999999090741MD1810061+9999MW1701REMSYN098    AAXX  18094 17202 41530 80913 11020 21058 39074 40098 58006 77022 8672/ 333 83715 86630 88458;
0268172020999992000011812004+38600+039280FM-12+088299999V0200801N00871008101CN0015001N1-00301-00541100771ADDAA106001091AL10600391AY121061AY221061GA1041+002409079GA2061+008109069GA3081+021009049GF108991071071002501021999MA1999999090541MD1710201+9999MW1721REMSYN110    AAXX  18124 17202 11315 80817 11030 21054 39054 40077 57020 60011 77222 8772/ 333 84708 86627 88457 93103;
0191172020999992000011815004+38600+039280FM-12+088299999V0200801N00621008101CN0010001N1-00321-00461100681ADDGA1041+002409079GA2061+008109069GF108991071071002501021999MA1999999090471MD1710071+9999REMSYN092    AAXX  18154 17202 41310 80812 11032 21046 39047 40068 57007 8772/ 333 84708 86627 88459;
0287172020999992000011818004+38600+039280FM-12+088299999V0201001N00821008101CN0010001N1-00341-00441100661ADDAA112008991AL10603591AY171061AY271061GA1041+002409079GA2061+008109069GA3081+021009049GF108991071071002501021999KA1120M-00081MA1999999090471MD1410001+9999MW1721REMSYN116    AAXX  18184 17202 11310 81016 11034 21044 39047 40066 54000 60092 77277 8772/ 333 11008 84708 86627 88457 93135;
0219172020999992000011821004+38600+039280FM-12+088299999V0200801N00871008101CN0010001N1+00241-00401100441ADDAY171031AY271031GA1041+002409079GA2061+008109069GF108991071071002501021999MA1999999090301MD1810171+9999MW1721REMSYN098    AAXX  18214 17202 41310 80817 10024 21040 39030 40044 58017 77277 8772/ 333 84708 86627 88457;
0268172020999992000011900004+38600+039280FM-12+088299999V0200501N00671008101CN0010001N1-00241-00401100291ADDAA112005191AL10602291AY171061AY271061GA1041+002409079GA2061+008109069GA3081+021009049GF108991071071002501021999MA1999999090101MD1710201+9999MW1721REMSYN110    AAXX  19004 17202 11310 80513 11024 21040 39010 40029 57020 60052 77277 8772/ 333 84708 86627 88457 93122;
0219172020999992000011903004+38600+039280FM-12+088299999V0200601N00621008101CN0010001N1-00341-00441099961ADDAY171031AY271031GA1041+002409079GA2061+008109069GF108991071071002501021999MA1999999089801MD1710301+9999MW1701REMSYN098    AAXX  19034 17202 41310 80612 11034 21044 38980 49996 57030 77077 8772/ 333 84708 86627 88457;
0340172020999992000011906004+38600+039280FM-12+088299999V0201001N00621007501CN0005001N1-00201-00371099941ADDAA112007991AJ100609199999999AL10601291AY171061AY271061GA1041+002109079GA2061+007509069GA3081+018009059GF108991071071002501021999IA1279IA2999-00409KA1120N-00381MA1999999089781MD1510021+9999MW1731REMSYN134    AAXX  19064 17202 11305 81012 11020 21037 38978 49994 55002 60082 77377 8772/ 333 21038 3/104 43060 70176 84707 86625 88556 93112;
0219172020999992000011909004+38600+039280FM-12+088299999V0202601N00411036001CN0150001N1-00021-00131100271ADDAY171031AY271031GA1011+004509079GA2031+010509069GF105991041061004501051001MA1999999090121MD1210341+9999MW1011REMSYN098    AAXX  19094 17202 41465 52608 11002 21013 39012 40027 52034 70177 84650 333 81715 83635 85360;
0246172020999992000011912004+38600+039280FM-12+088299999V0202101N00361030001CN0200001N1+00101-00441100801ADDAA106001091AL10600191AY171061AY211061GA1031+010509069GA2051+030009039GF105991031051012501051001MA1999999090601MD1210481+9999MW1031REMSYN104    AAXX  19124 17202 11670 52107 10010 21044 39060 40080 52048 60011 70371 83550 333 83635 85360 93101;
0151172020999992000011915004+38600+039280FM-12+088299999V0202301N00211220001CN0200001N1-00181-00981100971ADDGA1001+999999999GF100991001001999999001001MD1110111+9999REMSYN064    AAXX  19154 17202 42970 02304 11018 21098 39171 40097 51011;EQDQ01+091713APOSP 
0183172020999992000011918004+38600+039280FM-12+0882LTCA V0203401N001512200019N0200001N1-01001-01381101191ADDAA112001091GA1001+999999999GF100991001001999999001001KA1999M+00261MA1999999090841MD1310131+9999REMSYN076AAXX  19184 17202 12970 03403 11100 21138 39084 40119 53013 60012 333 10026;
0165172020999992000011921004+38600+039280FM-12+0882LTCA V0201301N00571036001CN0200001N1+00001-00601100981ADDGA1041+010509069GF107991041051012501051001MA1999999090781MD1810061+9999REMSYN082AAXX  19214 17202 42670 71311 10000 21060 39078 40098 58006 84550 333 84635 87360;
0195172020999992000012000004+38600+039280FM-12+0882LTCA V0201301N00931036001CN0200001N1+00101-00781100721ADDAA199000091GA1041+010509069GF108991041051012501021999MA1999999090571MD1710211+9999REMSYN082AAXX  20004 17202 32670 81318 10010 21078 39057 40072 57021 8452/ 333 84635 88459;EQDQ01  00002PRCP99
0215172020999992000012003004+38600+039280FM-12+0882LTCA V0201101N009810090019N0015001N1+00101-00401100431ADDAY121031AY221031GA1031+003009079GA2061+009009069GF108991071071004501021999MA1999999090291MD1710281+9999MW1701REMSYN094AAXX  20034 17202 41415 81119 10010 21040 39029 40043 57028 77022 8772/ 333 83710 86630 88458;
0336172020999992000012006004+38600+039280FM-12+0882LTCA V0201101N008710090019N0015001N1+00101-00401100381ADDAA112000591AJ100509199999999AL10600291AY121061AY221061GA1031+003009079GA2061+009009069GA3081+024009049GF108991071071004501021999IA1279IA2999-01109KA1120N-01021MA1999999090161MD1710131+9999MW1701REMSYN130AAXX  20064 17202 11415 81117 10010 21040 39016 40038 57013 69942 77022 8772/ 333 21102 3/111 43050 70014 83710 86630 88458 93102;
0215172020999992000012009004+38600+039280FM-12+0882LTCA V0200301N004610090019N0020001N1+00161-00041100201ADDAY171031AY271031GA1041+002409079GA2061+009009069GF108991071071002501021999MA1999999090101MD1810061+9999MW1701REMSYN094AAXX  20094 17202 41320 80309 10016 21004 39010 40020 58006 77077 8772/ 333 84708 86630 88458;
0264172020999992000012012004+38600+039280FM-12+0882LTCA V0201701N002610090019N0020001N1+00141+00041099921ADDAA106002091AL10600191AY171061AY271061GA1041+002409079GA2061+009009069GA3081+024009049GF108991071071002501021999MA1999999089851MD1710251+9999MW1701REMSYN106AAXX  20124 17202 11320 81705 10014 20004 38985 49992 57025 60021 77077 8772/ 333 84708 86630 88458 93101;
0215172020999992000012015004+38600+039280FM-12+0882LTCA V0202301N004110090019N0050001N1-00031-00441100041ADDAY171031AY271031GA1041+002409079GA2061+009009069GF108991071071002501021999MA1999999089941MD1210091+9999MW1701REMSYN094AAXX  20154 17202 41350 82308 11003 21044 38994 40004 52009 77077 8772/ 333 84708 86630 88458;
0261172020999992000012018004+38600+039280FM-12+0882LTCA V0202601N006210270019N0200001N1-00161-00601100111ADDAA112003091AL10600291AY171061AY221061GA1041+010509069GA2071+027009039GF107991041051012501051001KA1120M+00181MA1999999090021MD1210081+9999MW1011REMSYN106AAXX  20184 17202 11670 72612 11016 21060 39002 40011 52008 60032 70172 84550 333 10018 84635 87359 93102;
0165172020999992000012021004+38600+039280FM-12+0882LTCA V0202301N00411036001CN0200001N1-00301-00761100261ADDGA1031+010509069GF107991031051012501051001MA1999999090121MD1210101+9999REMSYN082AAXX  20214 17202 42670 72308 11030 21076 39012 40026 52010 83550 333 83635 87359;
0176172020999992000012100004+38600+039280FM-12+0882LTCA V0202101N00361036001CN0200001N1-00401-00841100471ADDAA199000021GA1041+010509069GF107991041051012501051001MA1999999090301MD1210181+9999REMSYN082AAXX  21004 17202 32670 72107 11040 21084 39030 40047 52018 84550 333 84635 87359;
0248172020999992000012106004+38600+039280FM-12+0882LTCA V0203001N00571036001CN0200001N1-00561-01141101031ADDAA124003091AJ100429199999999GA1031+010509069GF105991031051012501051001IA1279IA2999-00909KA1120N-00601MA1999999090741MD1210261+9999REMSYN106AAXX  21064 17202 32670 53011 11056 21114 39074 40103 52026 83550 333 21060 3/109 43042 70030 83635 85360;
0159172020999992000012109004+38600+039280FM-12+0882LTCA V0202701N005112200019N0200001N1-00361-01581101291ADDGA1021+010509059GF102991021051012501001001MA1999999091001MD1210261+9999REMSYN076AAXX  21094 17202 42670 22710 11036 21158 39100 40129 52026 82500 333 82635;
0173172020999992000012112004+38600+039280FM-12+0882LTCA V0202501N005712200019N0200001N1-00321-01681101341ADDAA199000091GA1001+999999999GF100991001001999999001001MA1999999091021MD1110021+9999REMSYN060AAXX  21124 17202 32970 02511 11032 21168 39102 40134 51002;EQDQ01  00002PRCP99
0143172020999992000012115004+38600+039280FM-12+0882LTCA V0202101N003112200019N0200001N1+00671-01631101531ADDGA1001+999999999GF100991001001999999001001MA1999999091151MD1210131+9999REMSYN060AAXX  21154 17202 42970 02106 10067 21163 39115 40153 52013;
0212172020999992000012118004+38600+039280FM-12+0882LTCA V0202901N003612200019N0200001N1-01502-02201101801ADDAA199000091GA1001+999999999GF100991001001999999001001KA1999M-00281MA1999999091301MD1310151+9999REMSYN070AAXX  21184 17202 32970 02907 11150 21220 39130 40180 53015 333 11028;EQDQ01-001503ATOT  Q02  00002PRCP99
0143172020999992000012121004+38600+039280FM-12+0882LTCA V0202901N002112200019N0200001N1-01681-02301101861ADDGA1001+999999999GF100991001001999999001001MA1999999091351MD1310051+9999REMSYN060AAXX  21214 17202 42970 02904 11168 21230 39135 40186 53005;
0173172020999992000012200004+38600+039280FM-12+0882LTCA V0203101N001512200019N0200001N1-01681-02301101821ADDAA199000091GA1001+999999999GF100991001001999999001001MA1999999091321MD1610031+9999REMSYN060AAXX  22004 17202 32970 03103 11168 21230 39132 40182 56003;EQDQ01  00002PRCP99
0165172020999992000012203004+38600+039280FM-12+0882LTCA V0203101N00211036001CN0200001N1-01401-02341101891ADDGA1031+010509069GF105991031051012501051001MA1999999091381MD1110061+9999REMSYN082AAXX  22034 17202 42670 53104 11140 21234 39138 40189 51006 83550 333 83635 85360;
0261172020999992000012206004+38600+039280FM-12+0882LTCA V0209999C00001036001CN0200001N1-01161-01501101951ADDAA199000091AJ100419199999999GA1041+010509069GF107991041051012501051001IA1279IA2999-02009KA1120N-01781MA1999999091361MD1810021+9999REMSYN100AAXX  22064 17202 32670 70000 11116 21150 39136 40195 58002 84550 333 21178 3/120 43041 84635 87360;EQDQ01  00002PRCP99
0215172020999992000012209004+38600+039280FM-12+0882LTCA V0202201N002610090019N0030001N1-00761-01121101991ADDAY121031AY221031GA1031+003009079GA2061+009009069GF108991071071004501021999MA1999999091421MD1110061+9999MW1701REMSYN094AAXX  22094 17202 41430 82205 11076 21112 39142 40199 51006 77022 8772/ 333 83710 86630 88458;
0264172020999992000012212004+38600+039280FM-12+0882LTCA V0203101N001510090019N0015001N1-00481-00881101831ADDAA106000591AL10600191AY121061AY221061GA1041+003009079GA2061+009009069GA3081+024009049GF108991071071004501021999MA1999999091301MD1710121+9999MW1701REMSYN106AAXX  22124 17202 11415 83103 11048 21088 39130 40183 57012 69941 77022 8772/ 333 84710 86630 88458 93101;
0193172020999992000012215004+38600+039280FM-12+0882LTCA V0200501N00511036001CN0100001N1-00341-00991101671ADDAY171031AY221031GA1041+010509069GF107991041051012501051001MA1999999091201MD1710101+9999MW1011REMSYN088AAXX  22154 17202 41660 70510 11034 21099 39120 40167 57010 70172 84550 333 84635 87359;
0261172020999992000012218004+38600+039280FM-12+0882LTCA V0209999C000010270019N0150001N1-00341-00861101571ADDAA112000591AL10699999AY171061AY221061GA1041+010509069GA2071+027009039GF107991041051012501071001KA1120M-00221MA1999999091141MD1710061+9999MW1021REMSYN106AAXX  22184 17202 11665 70000 11034 21086 39114 40157 57006 69952 70272 84570 333 11022 84635 87359 93197;
0215172020999992000012221004+38600+039280FM-12+0882LTCA V0203101N004610090019N0030001N1-00201-00661101561ADDAY121031AY221031GA1031+003009079GA2051+009009069GF108991071071004501021999MA1999999091201MD1310061+9999MW1701REMSYN094AAXX  22214 17202 41430 83109 11020 21066 39120 40156 53006 77022 8772/ 333 83710 85630 88459;
0264172020999992000012300004+38600+039280FM-12+0882LTCA V0203201N001510090019N0030001N1-00301-00461101451ADDAA106001091AL10600491AY121061AY221061GA1031+003009079GA2051+009009069GA3081+027009049GF108991071071004501021999MA1999999091301MD1110101+9999MW1701REMSYN106AAXX  23004 17202 11430 83203 11030 21046 39130 40145 51010 60011 77022 8772/ 333 83710 85630 88459 93104;
0215172020999992000012303004+38600+039280FM-12+0882LTCA V0209999C000010090019N0030001N1-00301-00461101631ADDAY121031AY221031GA1031+003009079GA2051+009009069GF108991071071004501021999MA1999999091301MD1410001+9999MW1701REMSYN094AAXX  23034 17202 41430 80000 11030 21046 39130 40163 54000 77022 8772/ 333 83710 85630 88459;
0330172020999992000012306004+38600+039280FM-12+0882LTCA V0202801N001510090019N0030001N1-00381-00491101731ADDAA112003091AJ100469199999999AL10600391AY171061AY271061GA1041+003009079GA2061+009009069GA3081+024009049GF108991071071004501021999IA1279IA2999-01209KA1120N-01041MA1999999091371MD1210071+9999MW1701REMSYN124AAXX  23064 17202 11430 82803 11038 21049 39137 40173 52007 60032 77077 8772/ 333 21104 3/112 43046 84710 86630 88458 93103;
0215172020999992000012309004+38600+039280FM-12+0882LTCA V0209999C000010090019N0040001N1-00161-00401101801ADDAY171031AY271031GA1031+003009079GA2051+009009069GF108991061071004501021999MA1999999091501MD1110131+9999MW1701REMSYN094AAXX  23094 17202 41440 80000 11016 21040 39150 40180 51013 77077 8672/ 333 83710 85630 88458;
0242172020999992000012312004+38600+039280FM-12+0882LTCA V0209999C000010090019N0100001N1-00041-00441101801ADDAA100000191AL10600091AY171061AY221061GA1041+003609079GA2061+009009069GF107991071061004501001001MA1999999091481MD1610021+9999MW1031REMSYN100AAXX  23124 17202 11460 70000 11004 21044 39148 40180 56002 69920 70372 87600 333 84712 86630 93100;
0234172020999992000012315004+38600+039280FM-12+0882LTCA V0209999C000010090019N0050001N1-00101-00401999999ADDAY171031AY221031GA1041+003009079GA2061+009009069GF108991071071004501021999MA1999999091661MD1210181+9999MW1701REMSYN094AAXX  23154 17202 41450 80000 11010 21040 39166 40020 52018 77072 8772/ 333 84710 86630 88458;EQDQ01+100203APOSLP
0283172020999992000012318004+38600+039280FM-12+0882LTCA V0209999C000010105019N0100001N1-00381-00501102281ADDAA112000591AL10600191AY171061AY221061GA1021+004509079GA2051+010509069GA3081+027009049GF108991061061004501021999KA1120M-00041MA1999999091861MD1210201+9999MW1221REMSYN112AAXX  23184 17202 11460 80000 11038 21050 39186 40228 52020 69962 72272 8662/ 333 11004 82715 85635 88459 93101;
0165172020999992000012321004+38600+039280FM-12+0882LTCA V0209999C00001036001CN0200001N1-00501-00621102411ADDGA1041+010509069GF107991041051012501051001MA1999999092001MD1210141+9999REMSYN082AAXX  23214 17202 42670 70000 11050 21062 39200 40241 52014 84550 333 84635 87360;
0176172020999992000012400004+38600+039280FM-12+0882LTCA V0209999C00001036001CN0200001N1-00301-00401102491ADDAA199000021GA1041+010509069GF107991041051012501051001MA1999999092101MD1210101+9999REMSYN082AAXX  24004 17202 32670 70000 11030 21040 39210 40249 52010 84550 333 84635 87360;
0165172020999992000012403004+38600+039280FM-12+0882LTCA V0202001N00261036001CN0200001N1-00321-00421102491ADDGA1041+010509069GF107991041051012501051001MA1999999092101MD1410001+9999REMSYN082AAXX  24034 17202 42670 72005 11032 21042 39210 40249 54000 84550 333 84635 87360;
0320172020999992000012406004+38600+039280FM-12+0882LTCA V0209999C000010030019N0030001N1-00321-00421102591ADDAA112000791AJ100409199999999AL19900091AY121061AY221061GA1061+003009079GA2081+009009069GF108991081071004501999999IA1279IA2999-00709KA1120N-00541MA1999999092141MD1310041+9999MW1701REMSYN130AAXX  24064 17202 11430 80000 11032 21042 39214 40259 53004 69902 77022 887// 333 21054 3/107 43040 70006 86710 88630 93100 96010;
0215172020999992000012409004+38600+039280FM-12+0882LTCA V0201101N001010030019N0030001N1+00021-00281102611ADDAY171031AY271031GA1061+003009079GA2081+009009069GF108991081071004501999999MA1999999092181MD1310041+9999MW1701REMSYN094AAXX  24094 17202 41430 81102 10002 21028 39218 40261 53004 77077 887// 333 86710 88630 96010;
0270172020999992000012412004+38600+039280FM-12+0882LTCA V0209999C000010036019N0030001N1+00061-00161102361ADDAA106000591AL19900191AY171061AY271061GA1061+003609079GA2061+009009069GA3081+021009049GF108991071071004501021999MA1999999092001MD1710181+9999MW1701REMSYN112AAXX  24124 17202 11430 80000 10006 21016 39200 40236 57018 69961 77077 8772/ 333 86712 86630 88457 93101 96010;
0237172020999992000012415004+38600+039280FM-12+0882LTCA V0209999C000010036019N0030001N1-00041-00161102331ADDAY171031AY271031GA1051+003609079GA2061+009009069GA3081+021009059GF108991071071004501021999MA1999999091951MD1810051+9999MW1701REMSYN100AAXX  24154 17202 41430 80000 11004 21016 39195 40233 58005 77077 8772/ 333 85712 86630 88557 96010;
0289172020999992000012418004+38600+039280FM-12+0882LTCA V0209999C000010036019N0030001N1-00101-00221102241ADDAA112001091AL19900091AY171061AY271061GA1051+003609079GA2061+009009069GA3081+021009059GF108991071071004501021999KA1120M+00081MA1999999091881MD1710071+9999MW1701REMSYN118AAXX  24184 17202 11430 80000 11010 21022 39188 40224 57007 60012 77077 8772/ 333 10008 85712 86630 88557 93100 96010;
0237172020999992000012421004+38600+039280FM-12+0882LTCA V0209999C000010036019N0030001N1-00101-00221102071ADDAY171031AY271031GA1051+003609079GA2061+009009069GA3081+021009059GF108991071071004501021999MA1999999091771MD1710111+9999MW1701REMSYN100AAXX  24214 17202 41430 80000 11010 21022 39177 40207 57011 77077 8772/ 333 85712 86630 88557 96010;
0270172020999992000012500004+38600+039280FM-12+0882LTCA V0200601N001510036019N0030001N1-00041-00161101971ADDAA106000891AL19900191AY171061AY271061GA1051+003609079GA2061+009009069GA3081+021009059GF108991071071004501021999MA1999999091671MD1710101+9999MW1701REMSYN112AAXX  25004 17202 11430 80603 11004 21016 39167 40197 57010 69971 77077 8772/ 333 85712 86630 88557 93101 96010;
0215172020999992000012503004+38600+039280FM-12+0882LTCA V0201101N004110090019N0050001N1+00041-00281101761ADDAY171031AY271031GA1031+004509079GA2051+009009069GF107991061061004501021001MA1999999091481MD1710191+9999MW1101REMSYN094AAXX  25034 17202 41450 71108 10004 21028 39148 40176 57019 71077 86620 333 83715 85630 87459;
0336172020999992000012506004+38600+039280FM-12+0882LTCA V0201201N00511027001CN0150001N1+00301-00081101731ADDAA112001091AJ100309199999999AL10600091AY171061AY271061GA1011+004509079GA2041+009909069GA3071+027009049GF107991051061004501021001IA1279IA2999-00309KA1120N-00141MA1999999091481MD1410001+9999MW1011REMSYN130AAXX  25064 17202 11465 71210 10030 21008 39148 40173 54000 60012 70177 85620 333 21014 3/103 43030 70020 81715 84633 87459 93100;
0187172020999992000012509004+38600+039280FM-12+0882LTCA V0201101N007710090019N0150001N1+00441-00221101611ADDGA1041+004509079GA2061+009009069GF107991061071004501071001MA1999999091391MD1610091+9999REMSYN088AAXX  25094 17202 42465 71115 10044 21022 39139 40161 56009 86770 333 84715 86630 87358;
0198172020999992000012512004+38600+039280FM-12+0882LTCA V0200901N006210090019N0150001N1+00421-00201101371ADDAA199000021GA1041+004509079GA2061+009009069GF107991061071004501071001MA1999999091171MD1710221+9999REMSYN088AAXX  25124 17202 32465 70912 10042 21020 39117 40137 57022 86770 333 84715 86630 86358;
0187172020999992000012515004+38600+039280FM-12+0882LTCA V0200801N004610090019N0150001N1+00401-00241101331ADDGA1041+004509079GA2061+009009069GF108991071071004501021999MA1999999091141MD1810031+9999REMSYN088AAXX  25154 17202 42465 80809 10040 21024 39114 40133 58003 8772/ 333 84715 86630 88458;
0236172020999992000012518004+38600+039280FM-12+0882LTCA V0201201N007710090019N0150001N1+00401-00221101271ADDAA199000091GA1041+003609079GA2061+009009069GF108991071071004501021999KA1120M+00501MA1999999091101MD1810041+9999REMSYN094AAXX  25184 17202 32465 81215 10040 21022 39110 40127 58004 8772/ 333 10050 84712 86630 88458;EQDQ01  00002PRCP99
0187172020999992000012521004+38600+039280FM-12+0882LTCA V0201401N003110090019N0150001N1+00461-00101101131ADDGA1041+003609079GA2061+009009069GF108991071071004501021999MA1999999091001MD1610101+9999REMSYN088AAXX  25214 17202 42465 81406 10046 21010 39100 40113 56010 8772/ 333 84712 86630 88458;
0217172020999992000012600004+38600+039280FM-12+0882LTCA V0202401N007210090019N0150001N1+00261-00211100961ADDAA199000091GA1041+003609079GA2061+009009069GF108991071071004501021999MA1999999090831MD1510171+9999REMSYN088AAXX  26004 17202 32465 82414 10026 21021 39083 40096 55017 8772/ 333 84712 86630 88458;EQDQ01  00002PRCP99
0215172020999992000012603004+38600+039280FM-12+0882LTCA V0202901N003110090019N0070001N1+00101-00201101071ADDAY121031AY221031GA1041+004509079GA2061+009009069GF108991071071004501021999MA1999999090901MD1110071+9999MW1681REMSYN094AAXX  26034 17202 41457 82906 10010 21020 39090 40107 51007 76822 8772/ 333 84715 86630 88458;
0314172020999992000012606004+38600+039280FM-12+0882LTCA V0202401N002110090019N0100001N1-00101-00301101101ADDAA112000591AJ100209199999999AL10600291AY171061AY221061GA1031+004509079GA2061+009009069GF106991061071004501001001IA1279IA2999-00309KA1120N-00101MA1999999090911MD1310011+9999MW1221REMSYN124AAXX  26064 17202 11460 62404 11010 21030 39091 40110 53001 69942 72272 86700 333 21010 3/103 43020 70004 83715 86630 93102;
0217172020999992000012618004+38600+039280FM-12+0882LTCA V0201701N001510090019N0200001N1+00041-00661101041ADDAA199000021GA1031+004509079GA2051+009009069GF108991071071004501021999KA1120M+00401MA1999999090841MD1310031+9999REMSYN094AAXX  26184 17202 32470 81703 10004 21066 39084 40104 53003 8772/ 333 10040 83715 85630 88459;
0234172020999992000012621004+38600+039280FM-12+0882LTCA V0201701N002110090019N0060001N1+00001-00281101091ADDAY121031AY221031GA1031+004509079GA2051+009009069GF108991999071004501021999MA1999999090901MD1110061+9999MW1701REMSYN094AAXX  26214 17202 41456 81704 10000 21028 39090 40109 51006 77022 8872/ 333 83715 85630 88459;EQDQ01+000082SCOTLC
0264172020999992000012700004+38600+039280FM-12+0882LTCA V0201701N001510090019N0060001N1-00301-00421101111ADDAA106000591AL10600291AY121061AY221061GA1031+004509079GA2051+009009069GA3081+027009049GF108991071071004501021999MA1999999090901MD1410001+9999MW1701REMSYN106AAXX  27004 17202 11456 81703 11030 21042 39090 40111 54000 69941 77022 8772/ 333 83715 85630 88459 93102;
0215172020999992000012703004+38600+039280FM-12+0882LTCA V0209999C000010090019N0100001N1-00341-00361101081ADDAY171031AY221031GA1031+004509079GA2051+009009069GF108991061071004501021999MA1999999090891MD1610011+9999MW1021REMSYN094AAXX  27034 17202 41460 80000 11034 21036 39089 40108 56001 70272 8672/ 333 83715 85630 88459;
0336172020999992000012706004+38600+039280FM-12+0882LTCA V0209999C000010090019N0100001N1-00361-00741101151ADDAA112000591AJ100189199999999AL10699999AY171061AY221061GA1011+004509079GA2051+009009069GA3081+027009049GF108991051071004501021999IA1279IA2999-00709KA1120N-00541MA1999999090891MD1410001+9999MW1021REMSYN130AAXX  27064 17202 11460 80000 11036 21074 39089 40115 54000 69962 70272 8572/ 333 21054 3/107 43018 70006 81715 85630 88459 93197;
0187172020999992000012709004+38600+039280FM-12+0882LTCA V0201701N001510090019N0200001N1-00121-01061101221ADDGA1021+004509079GA2051+009009069GF107991061061004501051001MA1999999090981MD1010091+9999REMSYN088AAXX  27094 17202 42470 71703 11012 21106 39098 40122 50009 86650 333 82715 85630 87359;
0215172020999992000012715004+38600+039280FM-12+0882LTCA V0202801N004110099019N0200001N1-00341-00861101271ADDAY171031AY221031GA1031+004509079GA2051+009909069GF107991061061004501021001MA1999999091051MD1310071+9999MW1021REMSYN094AAXX  27154 17202 41470 72808 11034 21086 39105 40127 53007 70272 86620 333 83715 85633 87459;
0261172020999992000012718004+38600+039280FM-12+0882LTCA V0202701N001010090019N0200001N1-00381-00881101331ADDAA112000191AL10699999AY171061AY221061GA1051+009009069GA2061+027009039GF107991051051008001051001KA1120M-00081MA1999999091181MD1210131+9999MW1021REMSYN106AAXX  27184 17202 11570 72702 11038 21088 39118 40133 52013 69912 70272 85550 333 11008 85630 86359 93197;
0159172020999992000012721004+38600+039280FM-12+0882LTCA V0202501N002610090019N0200001N1-00381-00881101551ADDGA1051+009009059GF105991051051002501001001MA1999999091251MD1210071+9999REMSYN076AAXX  27214 17202 42370 52505 11038 21088 39125 40155 52007 85500 333 85630;
0189172020999992000012800004+38600+039280FM-12+0882LTCA V0203001N005712200019N0200001N1-00581-01281101581ADDAA199000091GA1021+009009059GF102991021051008001001001MA1999999091241MD1610011+9999REMSYN076AAXX  28004 17202 32570 23011 11058 21128 39124 40158 56001 82500 333 82630;EQDQ01  00002PRCP99
0159172020999992000012803004+38600+039280FM-12+0882LTCA V0202501N002112200019N0200001N1-00901-01461101661ADDGA1011+010509059GF101991011051012501001001MA1999999091261MD1310021+9999REMSYN076AAXX  28034 17202 42670 12504 11090 21146 39126 40166 53002 81500 333 81635;
0242172020999992000012806004+38600+039280FM-12+0882LTCA V0200501N001012200019N0200001N1-01041-01541101741ADDAA124000191AJ100139199999999GA1011+010509059GF101991011051012501001001IA1289IA2999-01209KA1120N-01141MA1999999091311MD1110051+9999REMSYN100AAXX  28064 17202 32670 10502 11104 21154 39131 40174 51005 81500 333 21114 3/112 44013 70001 81635;
0165172020999992000012809004+38600+039280FM-12+0882LTCA V0202601N001512200019N0200001N1-00441-01341101801ADDGA1011+010509069GF103991011051012501031001MA1999999091431MD1210121+9999REMSYN082AAXX  28094 17202 42670 32603 11044 21134 39143 40180 52012 81530 333 81635 83360;
0189172020999992000012812004+38600+039280FM-12+0882LTCA V0202101N005112200019N0200001N1-00121-01061999999ADDAA199000091GA1011+010509069GF103991011051012501031001MA1999999091391MD1710041+9999REMSYN076AAXX  28124 17202 32670 32110 11012 21106 39139 57004 81530 333 81635 83360;EQDQ01  00002PRCP99
0143172020999992000012815004+38600+039280FM-12+0882LTCA V0202301N003112200019N0200001N1-00341-01381101891ADDGA1001+999999999GF100991001001999999001001MA1999999091471MD1210081+9999REMSYN060AAXX  28154 17202 42970 02306 11034 21138 39147 40189 52008;
0196172020999992000012818004+38600+039280FM-12+0882LTCA V0202401N002112200019N0200001N1-00801-01641102121ADDAA199000091GA1001+999999999GF100991001001999999001001KA1999M-00101MA1999999091611MD1210141+9999REMSYN070AAXX  28184 17202 32970 02404 11080 21164 39161 40212 52014 333 11010;EQDQ01  00002PRCP99
0143172020999992000012821004+38600+039280FM-12+0882LTCA V0202701N001012200019N0200001N1-01001-01601102171ADDGA1001+999999999GF100991001001999999001001MA1999999091701MD1110091+9999REMSYN060AAXX  28214 17202 42970 02702 11100 21160 39170 40217 51009;
0173172020999992000012900004+38600+039280FM-12+0882LTCA V0202301N001512200019N0200001N1-01041-01541102151ADDAA199000091GA1001+999999999GF100991001001999999001001MA1999999091701MD1410001+9999REMSYN060AAXX  29004 17202 32970 02303 11104 21154 39170 40215 54000;EQDQ01  00002PRCP99
0137172020999992000012903004+38600+039280FM-12+0882LTCA V0202401N001512200019N0200001N1-01101-01641999999ADDGA1001+999999999GF100991001001999999001001MA1999999091761MD1210061+9999REMSYN054AAXX  29034 17202 42970 02403 11110 21164 39176 52006;
0237172020999992000012906004+38600+039280FM-12+0882LTCA V0203001N002112200019N0200001N1-01421-01921102451ADDAA199000091AJ100119199999999GA1001+999999999GF100991001001999999001001IA2999-01609KA1120N-01501MA1999999091861MD1210101+9999REMSYN082AAXX  29064 17202 32970 03004 11142 21192 39186 40245 52010 333 21150 3/116 44011;EQDQ01  00002PRCP99
0143172020999992000012909004+38600+039280FM-12+0882LTCA V0209999C000012200019N0200001N1-00301-01201102581ADDGA1001+999999999GF100991001001999999001001MA1999999092021MD1210211+9999REMSYN060AAXX  29094 17202 42970 00000 11030 21120 39202 40258 52021;
0173172020999992000012912004+38600+039280FM-12+0882LTCA V0209999C000012200019N0200001N1-00181-01271102471ADDAA199000091GA1001+999999999GF100991001001999999001001MA1999999091991MD1810081+9999REMSYN060AAXX  29124 17202 32970 00000 11018 21127 39199 40247 58008;EQDQ01  00002PRCP99
0143172020999992000012915004+38600+039280FM-12+0882LTCA V0209999C000012200019N0200001N1-00481-01691102611ADDGA1001+999999999GF100991001001999999001001MA1999999092071MD1210081+9999REMSYN060AAXX  29154 17202 42970 00000 11048 21169 39207 40261 52008;
0196172020999992000012918004+38600+039280FM-12+0882LTCA V0203101N001512200019N0200001N1-00981-02221102831ADDAA199000091GA1001+999999999GF100991001001999999001001KA1999M-00121MA1999999092181MD1210111+9999REMSYN070AAXX  29184 17202 32970 03103 11098 21222 39218 40283 52011 333 11012;EQDQ01  00002PRCP99
0143172020999992000012921004+38600+039280FM-12+0882LTCA V0203101N002112200019N0200001N1-01181-01621102711ADDGA1001+999999999GF100991001001999999001001MA1999999092181MD1410001+9999REMSYN060AAXX  29214 17202 42970 03104 11118 21162 39218 40271 54000;
0143172020999992000013003004+38600+039280FM-12+0882LTCA V0202301N002112200019N0200001N1-01441-01741103031ADDGA1001+999999999GF100991001001999999001001MA1999999092401MD1310101+9999REMSYN060AAXX  30034 17202 42970 02304 11144 21174 39240 40303 53010;
0203172020999992000013006004+38600+039280FM-12+0882LTCA V0202601N002612200019N0200001N1-01301-01621999999ADDAA199000091AJ100109199999999GA1001+999999999GF100991001001999999001001IA2999-01609MD1310161+9999REMSYN076AAXX  30064 17202 32970 02605 11130 21162 3//// 4//// 53016 333 3/116 44010;EQDQ01  00002PRCP99
0143172020999992000013009004+38600+039280FM-12+0882LTCA V0201501N001512200019N0150001N1-00461-01201103511ADDGA1001+999999999GF100991001001999999001001MA1999999092881MD1310321+9999REMSYN060AAXX  30094 17202 42965 01503 11046 21120 39288 40351 53032;
0189172020999992000013012004+38600+039280FM-12+0882LTCA V0201301N001512200019N0200001N1-00321-01341103341ADDAA199000091GA1021+060009019GF102991001001999999001011MA1999999092731MD1710151+9999REMSYN076AAXX  30124 17202 32970 21303 11032 21134 39273 40334 57015 80001 333 82070;EQDQ01  00002PRCP99
0159172020999992000013015004+38600+039280FM-12+0882LTCA V0201501N001010600019N0200001N1-00461-01501103391ADDGA1051+060009019GF105991001001999999001011MA1999999092721MD1610011+9999REMSYN076AAXX  30154 17202 42970 51502 11046 21150 39272 40339 56001 80001 333 85070;
0208172020999992000013018004+38600+039280FM-12+0882LTCA V0209999C000010600019N0200001N1-00861-01511103501ADDAA199000091GA1051+060009019GF105991001001999999001011KA1120M-00261MA1999999092801MD1310081+9999REMSYN082AAXX  30184 17202 32970 50000 11086 21151 39280 40350 53008 80001 333 11026 85070;EQDQ01  00002PRCP99
0159172020999992000013021004+38600+039280FM-12+0882LTCA V0209999C000010600019N0200001N1-00861-01511103401ADDGA1051+060009019GF105991001001999999001011MA1999999092801MD1410001+9999REMSYN076AAXX  30214 17202 42970 50000 11086 21151 39280 40340 54000 80001 333 85070;
0189172020999992000013100004+38600+039280FM-12+0882LTCA V02099999999990300019N0200001N1-00701-01091103241ADDAA199000091GA1051+030009079GF105991051001999999051001MA1999999092701MD1710101+9999REMSYN076AAXX  31004 17202 32970 5000/ 11070 21109 39270 40324 57010 85050 333 85360;EQDQ01  00002PRCP99
0159172020999992000013103004+38600+039280FM-12+0882LTCA V0209999C000010300019N0200001N1-00521-00881103121ADDGA1061+030009079GF106991061001999999051001MA1999999092601MD1710101+9999REMSYN076AAXX  31034 17202 42970 60000 11052 21088 39260 40312 57010 86050 333 86360;
0165172020999992000013109004+38600+039280FM-12+0882LTCA V0201601N00101036001CN0200001N1-00181-00781103011ADDGA1031+010509069GF106991031051012501051001MA1999999092501MD1810021+9999REMSYN082AAXX  31094 17202 42670 61602 11018 21078 39250 40301 58002 83550 333 83635 86360;
0195172020999992000013112004+38600+039280FM-12+0882LTCA V0201901N00101004201CN0200001N1+00901-00771102631ADDAA199000091GA1041+005409079GF107991071061004501001001MA1999999092201MD1710301+9999REMSYN082AAXX  31124 17202 32470 71902 10090 21077 39220 40263 57030 87600 333 84718 86635;EQDQ01  00002PRCP99
0165172020999992000013115004+38600+039280FM-12+0882LTCA V0209999C00001004201CN0200001N1-00041-00821102521ADDGA1041+005409079GF107991071061004501001001MA1999999092101MD1710101+9999REMSYN082AAXX  31154 17202 42470 70000 11004 21082 39210 40252 57010 87600 333 84718 86635;
0283172020999992000013118004+38600+039280FM-12+0882LTCA V0202601N000510090019N0060001N1-00161-00241102491ADDAA112000791AL10699999AY121061AY221061GA1041+005409079GA2051+009009069GA3081+024009049GF108991051071004501021999KA1120M+00081MA1999999092081MD1810021+9999MW1701REMSYN112AAXX  31184 17202 11456 82601 11016 21024 39208 40249 58002 69902 77022 8572/ 333 10008 84718 85630 88458 93197;
0215172020999992000013121004+38600+039280FM-12+0882LTCA V0202601N001010090019N0060001N1-00201-00541102501ADDAY171031AY271031GA1041+005409079GA2051+009009069GF108991051021004501071999MA1999999092111MD1110031+9999MW1701REMSYN094AAXX  31214 17202 41456 82602 11020 21054 39211 40250 51003 77077 8527/ 333 84718 85630 88458;
0264172020999992000020100004+38600+039280FM-12+0882LTCA V0202701N001010090019N0060001N1-00201-00541102361ADDAA106000191AL10699999AY171061AY271061GA1041+005409079GA2051+009009069GA3081+024009049GF108991051071004501021999MA1999999092011MD1810101+9999MW1701REMSYN106AAXX  01004 17202 11456 82702 11020 21054 39201 40236 58010 69921 77077 8572/ 333 84718 85630 88458 93192;
0215172020999992000020103004+38600+039280FM-12+0882LTCA V0209999C000010090019N0060001N1-00221-00511102281ADDAY171031AY271031GA1041+005409079GA2051+009009069GF108991051071004501021999MA1999999091931MD1710081+9999MW1701REMSYN094AAXX  01034 17202 41456 80000 11022 21051 39193 40228 57008 77077 8572/ 333 84718 85630 88458;
0336172020999992000020106004+38600+039280FM-12+0882LTCA V0203201N001010090019N0060001N1-00261-00421102241ADDAA112000891AJ100119199999999AL10699999AY171061AY271061GA1041+005409079GA2051+009009069GA3081+024009049GF108991061071004501021999IA1279IA2999-00309KA1120N-00261MA1999999091881MD1810051+9999MW1701REMSYN130AAXX  01064 17202 11456 83202 11026 21042 39188 40224 58005 69972 77077 8672/ 333 21026 3/103 43011 70007 84718 85630 88458 93197;
0193172020999992000020109004+38600+039280FM-12+0882LTCA V0202301N00211007501CN0080001N1+00101-00261102241ADDAY171031AY221031GA1041+006009079GF106991061071008001001001MA1999999091911MD1010031+9999MW1101REMSYN088AAXX  01094 17202 41558 62304 10010 21026 39191 40224 50003 71072 86700 333 84720 86635;
0232172020999992000020112004+38600+039280FM-12+0882LTCA V0209999C000010105019N0080001N1+00101-00211102101ADDAA106000191AY171061AY221061GA1031+006009079GA2051+010509069GF106991061071008001051001MA1999999091791MD1710121+9999MW1101REMSYN100AAXX  01124 17202 11558 60000 10010 21021 39179 40210 57012 69911 71072 86750 333 83720 85635 86360;
0165172020999992000020115004+38600+039280FM-12+0882LTCA V0209999C000010105019N0150001N1+00101-00211102101ADDGA1051+010509069GF106991051051012501051001MA1999999091771MD1610021+9999REMSYN082AAXX  01154 17202 42665 60000 10010 21021 39177 40210 56002 85550 333 85635 86360;
0201172020999992000020118004+38600+039280FM-12+0882LTCA V0203201N00151036001CN0200001N1-00301-00661102271ADDAA112000191GA1031+010509069GF105991031051012501051001KA1120M+00161MA1999999091881MD1210111+9999REMSYN094AAXX  01184 17202 12670 53203 11030 21066 39188 40227 52011 69912 83550 333 10016 83635 85360;
0119172020999992000020121004+38600+039280FM-12+0882LTCA V0209999C000019999999N0200001N1-00701-00981999999ADDGF105991999999012501999999REMSYN081AAXX  01214 17202 42670 50000 11070 21098 3988 40227 54000 83550 333 83635 85360;
0195172020999992000020200004+38600+039280FM-12+0882LTCA V0202201N00261036001CN0200001N1-00601-00861102291ADDAA199000091GA1031+010509069GF105991031051012501051001MA1999999091901MD1110021+9999REMSYN082AAXX  02004 17202 32670 52205 11060 21086 39190 40229 51002 83550 333 83635 85360;EQDQ01  00002PRCP99
0171172020999992000020203004+38600+039280FM-12+0882LTCA V0209999C000012200019N0030001N1-00801-00961102011ADDAY111031AY211031GA1001+999999999GF100991001001999999001001MA1999999091801MD1810101+9999MW1101REMSYN066AAXX  02034 17202 41930 00000 11080 21096 39180 40201 58010 71011;
0258172020999992000020206004+38600+039280FM-12+0882LTCA V0209999C000012200019N0010001N1-00741-00901102341ADDAA124000191AJ100079199999999AY111061AY211061GA1001+999999999GF100991001001999999001001IA1279IA2999-01009KA1120N-00901MA1999999091901MD1310101+9999MW1481REMSYN094AAXX  02064 17202 31910 00000 11074 21090 39190 40234 53010 74811 333 21090 3/110 43007 70001;
0193172020999992000020209004+38600+039280FM-12+0882LTCA V0200801N001512200019N0015001N1-00221-00551102471ADDAY141031AY241031GA1021+003609079GF103991031061004501001001MA1999999092011MD1210111+9999MW1411REMSYN088AAXX  02094 17202 41415 30803 11022 21055 39201 40247 52011 74144 83600 333 82712 83635;
0217172020999992000020212004+38600+039280FM-12+0882LTCA V0201401N001012200019N0150001N1+00101-00441102351ADDAA199000091AY141061AY201061GA1021+010509059GF102991021051012501001001MA1999999091971MD1810041+9999MW1021REMSYN082AAXX  02124 17202 31665 21402 10010 21044 39197 40235 58004 70240 82500 333 82635;EQDQ01  00002PRCP99
0143172020999992000020215004+38600+039280FM-12+0882LTCA V0202601N001512200019N0200001N1-00021-00761102401ADDGA1001+999999999GF100991001001999999001001MA1999999091971MD1510001+9999REMSYN060AAXX  02154 17202 42970 02603 11002 21076 39197 40240 55000;
0196172020999992000020218004+38600+039280FM-12+0882LTCA V0202901N002112200019N0200001N1-00221-00901102561ADDAA199000091GA1001+999999999GF100991001001999999001001KA1999M+00181MA1999999092091MD1210121+9999REMSYN070AAXX  02184 17202 32970 02904 11022 21090 39209 40256 52012 333 10018;EQDQ01  00002PRCP99
0143172020999992000020221004+38600+039280FM-12+0882LTCA V0202701N002612200019N0200001N1-00741-01121102631ADDGA1001+999999999GF100991001001999999001001MA1999999092161MD1310071+9999REMSYN060AAXX  02214 17202 42970 02705 11074 21112 39216 40263 53007;
0173172020999992000020300004+38600+039280FM-12+0882LTCA V0203201N001512200019N0200001N1-00801-01131102631ADDAA199000091GA1001+999999999GF100991001001999999001001MA1999999092201MD1110041+9999REMSYN060AAXX  03004 17202 32970 03203 11080 21113 39220 40263 51004;EQDQ01  00002PRCP99
0143172020999992000020303004+38600+039280FM-12+0882LTCA V0202501N003112200019N0200001N1-01021-01281102681ADDGA1001+999999999GF100991001001999999001001MA1999999092201MD1410001+9999REMSYN060AAXX  03034 17202 42970 02506 11102 21128 39220 40268 54000;
0265172020999992000020306004+38600+039280FM-12+0882LTCA V0209999C000012200019N0030001N1-01021-01281102821ADDAA199000091AJ100049199999999AY101061AY201061GA1001+999999999GF100991001001999999001001IA2999-01309KA1120N-01081MA1999999092311MD1210111+9999MW1101REMSYN088AAXX  03064 17202 31930 00000 11102 21128 39231 40282 52011 71000 333 21108 3/113 43004;EQDQ01  00002PRCP99
0143172020999992000020309004+38600+039280FM-12+0882LTCA V0201301N001012200019N0150001N1-00201-00701102871ADDGA1001+999999999GF100991001001999999001001MA1999999092371MD1210061+9999REMSYN060AAXX  03094 17202 42965 01302 11020 21070 39237 40287 52006;
0189172020999992000020312004+38600+039280FM-12+0882LTCA V0201501N001012200019N0150001N1+00081-00911102651ADDAA199000091GA1011+009009029GF101991011011008001001001MA1999999092201MD1710171+9999REMSYN076AAXX  03124 17202 32565 11502 10008 21091 39220 40265 57017 81100 333 81830;EQDQ01  00002PRCP99
0143172020999992000020315004+38600+039280FM-12+0882LTCA V0201601N001012200019N0200001N1-00061-01041102651ADDGA1001+999999999GF100991001001999999001001MA1999999092181MD1610021+9999REMSYN060AAXX  03154 17202 42970 01602 11006 21104 39218 40265 56002;
0196172020999992000020318004+38600+039280FM-12+0882LTCA V0209999C000012200019N0200001N1-00801-01321102781ADDAA199000091GA1001+999999999GF100991001001999999001001KA1999M+00141MA1999999092201MD1110021+9999REMSYN070AAXX  03184 17202 32970 00000 11080 21132 39220 40278 51002 333 10014;EQDQ01  00002PRCP99
0143172020999992000020321004+38600+039280FM-12+0882LTCA V0203101N001512200019N0200001N1-00921-01381102731ADDGA1001+999999999GF100991001001999999001001MA1999999092221MD1110021+9999REMSYN060AAXX  03214 17202 42970 03103 11092 21138 39222 40273 51002;
0173172020999992000020400004+38600+039280FM-12+0882LTCA V0202701N001512200019N0200001N1-01001-01401102721ADDAA199000091GA1001+999999999GF100991001001999999001001MA1999999092241MD1110021+9999REMSYN060AAXX  04004 17202 32970 02703 11100 21140 39224 40272 51002;EQDQ01  00002PRCP99
0143172020999992000020403004+38600+039280FM-12+0882LTCA V0209999C000012200019N0200001N1-01261-01641102771ADDGA1001+999999999GF100991001001999999001001MA1999999092241MD1410001+9999REMSYN060AAXX  04034 17202 42970 00000 11126 21164 39224 40277 54000;
0237172020999992000020406004+38600+039280FM-12+0882LTCA V0209999C000012200019N0200001N1-01201-01581102811ADDAA199000091AJ100039199999999GA1001+999999999GF100991001001999999001001IA2999-01509KA1120N-01361MA1999999092201MD1610041+9999REMSYN082AAXX  04064 17202 32970 00000 11120 21158 39220 40281 56004 333 21136 3/115 43003;EQDQ01  00002PRCP99
0143172020999992000020409004+38600+039280FM-12+0882LTCA V0209999C000012200019N0200001N1-00241-00941102811ADDGA1001+999999999GF100991001001999999001001MA1999999092301MD1110101+9999REMSYN060AAXX  04094 17202 42970 00000 11024 21094 39230 40281 51010;
0143172020999992000020415004+38600+039280FM-12+0882LTCA V0209999C000012200019N0200001N1-00201-00941102521ADDGA1001+999999999GF100991001001999999001001MA1999999092021MD1610071+9999REMSYN060AAXX  04154 17202 42970 00000 11020 21094 39202 40252 56007;
0196172020999992000020418004+38600+039280FM-12+0882LTCA V0202801N001012200019N0200001N1-00651-00921102651ADDAA199000091GA1001+999999999GF100991001001999999001001KA1999M+00001MA1999999092081MD1210061+9999REMSYN070AAXX  04184 17202 32970 02802 11065 21092 39208 40265 52006 333 10000;EQDQ01  00002PRCP99
0159172020999992000020421004+38600+039280FM-12+0882LTCA V0209999C000010300019N0200001N1-00401-00721102501ADDGA1051+030009079GF105991051001999999051001MA1999999092081MD1410001+9999REMSYN076AAXX  04214 17202 42970 50000 11040 21072 39208 40250 54000 85050 333 85360;
0189172020999992000020500004+38600+039280FM-12+0882LTCA V0200501N002110300019N0200001N1-00301-00841102361ADDAA199000091GA1051+030009079GF105991051001999999051001MA1999999091981MD1710101+9999REMSYN076AAXX  05004 17202 32970 50504 11030 21084 39198 40236 57010 85050 333 85360;EQDQ01  00002PRCP99
0159172020999992000020503004+38600+039280FM-12+0882LTCA V0209999C000010300019N0200001N1-00321-00681102281ADDGA1051+030009079GF105991051001999999051001MA1999999091881MD1710101+9999REMSYN076AAXX  05034 17202 42970 50000 11032 21068 39188 40228 57010 85050 333 85360;
0261172020999992000020506004+38600+039280FM-12+0882LTCA V0202401N00101036001CN0150001N1-00341-00571102261ADDAA199000091AJ100039199999999GA1021+009009069GF108991021051008001011999IA1279IA2999-00909KA1120N-00701MA1999999091821MD1610061+9999REMSYN100AAXX  05064 17202 32565 82402 11034 21057 39182 40226 56006 8251/ 333 21070 3/109 43003 82630 88460;EQDQ01  00002PRCP99
0237172020999992000020509004+38600+039280FM-12+0882LTCA V0209999C000010036019N0020001N1-00341-00571102261ADDAY121031AY221031GA1051+003609079GA2061+009009069GA3081+024009049GF108991071071004501021999MA1999999091851MD1310031+9999MW1701REMSYN100AAXX  05094 17202 41420 80000 11034 21057 39185 40226 53003 77022 8772/ 333 85712 86630 88458 96010;
0270172020999992000020512004+38600+039280FM-12+0882LTCA V0201401N001010036019N0020001N1-00261-00481102071ADDAA106003091AL19900891AY121061AY221061GA1051+003609079GA2061+009009069GA3081+024009049GF108991071071004501021999MA1999999091701MD1710151+9999MW1701REMSYN112AAXX  05124 17202 11420 81402 11026 21048 39170 40207 57015 60031 77022 8772/ 333 85712 86630 88458 93108 96010;
0237172020999992000020515004+38600+039280FM-12+0882LTCA V0202401N001010036019N0020001N1-00301-00531101961ADDAY171031AY271031GA1051+003609079GA2061+009009069GA3081+024009049GF108991071071004501021999MA1999999091601MD1610101+9999MW1701REMSYN100AAXX  05154 17202 41420 82402 11030 21053 39160 40196 56010 77077 8772/ 333 85712 86630 88458 96010;
0289172020999992000020518004+38600+039280FM-12+0882LTCA V0209999C000010036019N0030001N1-00361-00591101941ADDAA112007991AL19900991AY171061AY271061GA1051+003609079GA2061+009009069GA3081+024009049GF108991071071004501021011KA1120M-00241MA1999999091561MD1810041+9999MW1701REMSYN118AAXX  05184 17202 11430 80000 11036 21059 39156 40194 58004 60082 77077 87721 333 11024 85712 86630 88458 93109 96010;
0215172020999992000020521004+38600+039280FM-12+0882LTCA V0209999C000010036019N0030001N1-00541-00741101781ADDAY171031AY271031GA1051+003609079GA2061+009009069GF108991071071004501021999MA1999999091421MD1810141+9999MW1701REMSYN094AAXX  05214 17202 41430 80000 11054 21074 39142 40178 58014 77077 8772/ 333 85712 86630 88458;
0270172020999992000020600004+38600+039280FM-12+0882LTCA V0209999C000010045019N0030001N1-00341-00441101601ADDAA106000591AL19900291AY171061AY221061GA1051+004509079GA2081+024009049GA3061+999999069GF108991071071004501021999MA1999999091281MD1710141+9999MW1701REMSYN112AAXX  06004 17202 11430 80000 11034 21044 39128 40160 57014 69961 77072 8772/ 333 85715 8663/ 88458 93102 96010;
0237172020999992000020603004+38600+039280FM-12+0882LTCA V0209999C000010045019N0030001N1-00361-00481101421ADDAY171031AY271031GA1051+004509079GA2061+009009069GA3081+024009049GF108991071071004501021999MA1999999091181MD1710101+9999MW1701REMSYN100AAXX  06034 17202 41430 80000 11036 21048 39118 40142 57010 77077 8772/ 333 85715 86630 88458 96010;
0342172020999992000020606004+38600+039280FM-12+0882LTCA V0202701N001010045019N0030001N1-00361-00481101291ADDAA112003091AJ100259199999999AL19900691AY171061AY271061GA1051+004509079GA2061+009009069GA3081+024009049GF108991071071004501021999IA1279IA2999-00709KA1120N-00561MA1999999091061MD1810141+9999MW1701REMSYN136AAXX  06064 17202 11430 82702 11036 21048 39106 40129 58014 60032 77077 8772/ 333 21056 3/107 43025 70114 85715 86630 88458 93106 96010;
0131172020999992000020609004+38600+039280FM-12+0882LTCA V0202401N007219999999N0050001N1-00121-00361999999ADDGF108991999999004501999999REMSYN093AAXX  06094 17202 41450 82414 11012 21036 3111 40142 51005 71072 8772/ 333 84715 85630 88458;
0242172020999992000020612004+38600+039280FM-12+0882LTCA V0202601N005110300019N0200001N1+00061-00861101281ADDAA106000391AL10600291AY171061AY221061GA1031+010509069GA2051+030009039GF105991031051012501051001MA1999999091031MD1710081+9999MW1021REMSYN100AAXX  06124 17202 11670 52610 10006 21086 39103 40128 57008 69931 70272 83550 333 83635 85360 93102;
0143172020999992000020615004+38600+039280FM-12+0882LTCA V0203101N003612200019N0200001N1-00161-01141101351ADDGA1001+999999999GF100991001001999999001001MA1999999091051MD1310021+9999REMSYN060AAXX  06154 17202 42970 03107 11016 21114 39105 40135 53002;
0183172020999992000020618004+38600+039280FM-12+0882LTCA V0203001N007212200019N0200001N1-00221-01161101471ADDAA112000391GA1001+999999999GF100991001001999999001001KA1999M+00081MA1999999091161MD1210111+9999REMSYN076AAXX  06184 17202 12970 03014 11022 21116 39116 40147 52011 69932 333 10008;
0143172020999992000020621004+38600+039280FM-12+0882LTCA V0203101N006212200019N0200001N1-00301-01101101601ADDGA1001+999999999GF100991001001999999001001MA1999999091301MD1210141+9999REMSYN060AAXX  06214 17202 42970 03112 11030 21110 39130 40160 52014;
0173172020999992000020700004+38600+039280FM-12+0882LTCA V0203001N006712200019N0200001N1-00401-01181101711ADDAA199000091GA1001+999999999GF100991001001999999001001MA1999999091401MD1210101+9999REMSYN060AAXX  07004 17202 32970 03013 11040 21118 39140 40171 52010;EQDQ01  00002PRCP99
0143172020999992000020703004+38600+039280FM-12+0882LTCA V0203101N006212200019N0200001N1-00501-01341101771ADDGA1001+999999999GF100991001001999999001001MA1999999091431MD1110031+9999REMSYN060AAXX  07034 17202 42970 03112 11050 21134 39143 40177 51003;
0230172020999992000020706004+38600+039280FM-12+0882LTCA V0203101N005712200019N0200001N1-00461-01181101981ADDAA124000391AJ100189199999999GA1001+999999999GF100991001001999999001001IA1279IA2999-00709KA1120N-00541MA1999999091621MD1210181+9999REMSYN088AAXX  07064 17202 32970 03111 11046 21118 39162 40198 52018 333 21054 3/107 43018 70003;
0159172020999992000020709004+38600+039280FM-12+0882LTCA V0202701N003112200019N0200001N1+00041-00801102111ADDGA1011+009009029GF101991011011008001001001MA1999999091781MD1210161+9999REMSYN076AAXX  07094 17202 42570 12706 10004 21080 39178 40211 52016 81100 333 81830;
0189172020999992000020712004+38600+039280FM-12+0882LTCA V0202801N006212200019N0200001N1+00041-01071102101ADDAA199000091GA1011+009009029GF101991011011008001001001MA1999999091751MD1610031+9999REMSYN076AAXX  07124 17202 32570 12812 10004 21107 39175 40210 56003 81100 333 81830;EQDQ01  00002PRCP99
0196172020999992000020718004+38600+039280FM-12+0882LTCA V0209999C000012200019N0200001N1-00621-01341102341ADDAA199000091GA1001+999999999GF100991001001999999001001KA1999M+00101MA1999999091901MD1310111+9999REMSYN070AAXX  07184 17202 32970 00000 11062 21134 39190 40234 53011 333 10010;EQDQ01  00002PRCP99
0143172020999992000020721004+38600+039280FM-12+0882LTCA V0202801N002612200019N0200001N1-00981-01581102441ADDGA1001+999999999GF100991001001999999001001MA1999999091991MD1310091+9999REMSYN060AAXX  07214 17202 42970 02805 11098 21158 39199 40244 53009;
0173172020999992000020800004+38600+039280FM-12+0882LTCA V0202901N002612200019N0200001N1-01221-01691102481ADDAA199000091GA1001+999999999GF100991001001999999001001MA1999999092001MD1110011+9999REMSYN060AAXX  08004 17202 32970 02905 11122 21169 39200 40248 51001;EQDQ01  00002PRCP99
0143172020999992000020803004+38600+039280FM-12+0882LTCA V0209999C000012200019N0200001N1-01641-01981102551ADDGA1001+999999999GF100991001001999999001001MA1999999092021MD1110021+9999REMSYN060AAXX  08034 17202 42970 00000 11164 21198 39202 40255 51002;
0237172020999992000020806004+38600+039280FM-12+0882LTCA V0209999C000012200019N0200001N1-01201-01601102671ADDAA199000091AJ100169199999999GA1001+999999999GF100991001001999999001001IA2999-01809KA1120N-01661MA1999999092101MD1310081+9999REMSYN082AAXX  08064 17202 32970 00000 11120 21160 39210 40267 53008 333 21166 3/118 43016;EQDQ01  00002PRCP99
0143172020999992000020809004+38600+039280FM-12+0882LTCA V0201401N001012200019N0200001N1-00301-01211102621ADDGA1001+999999999GF100991001001999999001001MA1999999092131MD1610031+9999REMSYN060AAXX  08094 17202 42970 01402 11030 21121 39213 40262 56003;
0173172020999992000020812004+38600+039280FM-12+0882LTCA V0209999C000012200019N0200001N1-00141-01121102501ADDAA199000091GA1001+999999999GF100991001001999999001001MA1999999092001MD1710131+9999REMSYN060AAXX  08124 17202 32970 00000 11014 21112 39200 40250 57013;EQDQ01  00002PRCP99
0143172020999992000020815004+38600+039280FM-12+0882LTCA V0200901N002112200019N0200001N1-00401-01001102521ADDGA1001+999999999GF100991001001999999001001MA1999999091951MD1610051+9999REMSYN060AAXX  08154 17202 42970 00904 11040 21100 39195 40252 56005;
0196172020999992000020818004+38600+039280FM-12+0882LTCA V0202601N001512200019N0200001N1-01081-01281102631ADDAA199000091GA1001+999999999GF100991001001999999001001KA1999M-00081MA1999999092021MD1210071+9999REMSYN070AAXX  08184 17202 32970 02603 11108 21128 39202 40263 52007 333 11008;EQDQ01  00002PRCP99
0143172020999992000020821004+38600+039280FM-12+0882LTCA V0203101N002112200019N0200001N1-01301-01461102531ADDGA1001+999999999GF100991001001999999001001MA1999999092001MD1610021+9999REMSYN060AAXX  08214 17202 42970 03104 11130 21146 39200 40253 56002;
0173172020999992000020900004+38600+039280FM-12+0882LTCA V0203101N001012200019N0200001N1-01401-01691102551ADDAA199000091GA1001+999999999GF100991001001999999001001MA1999999092021MD1110021+9999REMSYN060AAXX  09004 17202 32970 03102 11140 21169 39202 40255 51002;EQDQ01  00002PRCP99
0143172020999992000020903004+38600+039280FM-12+0882LTCA V0202901N002112200019N0200001N1-01181-01441102531ADDGA1001+999999999GF100991001001999999001001MA1999999092001MD1610021+9999REMSYN060AAXX  09034 17202 42970 02904 11118 21144 39200 40253 56002;
0283172020999992000020906004+38600+039280FM-12+0882LTCA V0201901N001510024019N0006001N1-00921-01121102691ADDAA199000091AJ100159199999999AY111061AY211061GA1061+002409069GF106991061061002501999001IA1279IA2999-01709KA1120N-01541MA1999999092101MD1310101+9999MW1481REMSYN100AAXX  09064 17202 31306 61903 11092 21112 39210 40269 53010 74811 866/0 333 21154 3/117 43015 86708;EQDQ01  00002PRCP99
0187172020999992000020909004+38600+039280FM-12+0882LTCA V0209999C000010030019N0012001N1-00781-00961102831ADDAY141031AY241031GA1061+003009069GF106991061061004501001001MA1999999092221MD1210121+9999MW1411REMSYN082AAXX  09094 17202 41412 60000 11078 21096 39222 40283 52012 74144 86600 333 86710;
0187172020999992000020912004+38600+039280FM-12+0882LTCA V0201601N001510036019N0030001N1-00581-00721102771ADDAY141061AY241061GA1061+003609069GF106991061061004501001001MA1999999092171MD1810051+9999MW1411REMSYN082AAXX  09124 17202 11430 61603 11058 21072 39217 40277 58005 74144 86600 333 86712;
0193172020999992000020915004+38600+039280FM-12+0882LTCA V0209999C00001004201CN0060001N1-00721-00961102761ADDAY141031AY221031GA1041+004509079GF106991061061004501001001MA1999999092181MD1110011+9999MW1101REMSYN088AAXX  09154 17202 41456 60000 11072 21096 39218 40276 51001 71042 86600 333 84715 83635;
0224172020999992000020918004+38600+039280FM-12+0882LTCA V0202401N002112200019N0040001N1-01201-01461102941ADDAA199000091AY141061AY211061GA1001+999999999GF100991001001999999001001KA1999M-00421MA1999999092301MD1210121+9999MW1101REMSYN076AAXX  09184 17202 31940 02404 11120 21146 39230 40294 52012 71041 333 11042;EQDQ01  00002PRCP99
0171172020999992000020921004+38600+039280FM-12+0882LTCA V0209999C000012200019N0040001N1-01201-01461103021ADDAY101031AY201031GA1001+999999999GF100991001001999999001001MA1999999092401MD1210101+9999MW1101REMSYN066AAXX  09214 17202 41940 00000 11120 21146 39240 40302 52010 71000;
0201172020999992000021000004+38600+039280FM-12+0882LTCA V0209999C000012200019N0040001N1-01201-01461103051ADDAA199000091AY101061AY201061GA1001+999999999GF100991001001999999001001MA1999999092451MD1210051+9999MW1101REMSYN066AAXX  10004 17202 31940 00000 11120 21146 39245 40305 52005 71000;EQDQ01  00002PRCP99
0171172020999992000021003004+38600+039280FM-12+0882LTCA V0202201N001012200019N0040001N1-01121-01361103071ADDAY101031AY201031GA1001+999999999GF100991001001999999001001MA1999999092461MD1110011+9999MW1101REMSYN066AAXX  10034 17202 41940 02202 11112 21136 39246 40307 51001 71000;
0265172020999992000021006004+38600+039280FM-12+0882LTCA V0209999C000012200019N0006001N1-00921-01061103231ADDAA199000091AJ100139199999999AY101061AY201061GA1001+999999999GF100991001001999999001001IA2999-01609KA1120N-01341MA1999999092561MD1210101+9999MW1481REMSYN088AAXX  10064 17202 31906 00000 11092 21106 39256 40323 52010 74800 333 21134 3/116 43013;EQDQ01  00002PRCP99
0171172020999992000021009004+38600+039280FM-12+0882LTCA V0209999C000012200019N0012001N1-00701-00901103331ADDAY141031AY241031GA1001+999999999GF100991001001999999001001MA1999999092671MD1210111+9999MW1411REMSYN066AAXX  10094 17202 41912 00000 11070 21090 39267 40333 52011 74144;
0188172020999992000021012004+38600+039280FM-12+0882LTCA V0201401N001512200019N0015001N1-00501-00671103131ADDAA106000191AY141061AY241061GA1001+999999999GF100991001001999999001001MA1999999092541MD1810131+9999MW1411REMSYN072AAXX  10124 17202 11915 01403 11050 21067 39254 40313 58013 69911 74144;
0187172020999992000021015004+38600+039280FM-12+0882LTCA V0202501N001012200019N0040001N1-00461-00681103131ADDAY141031AY201031GA1021+004509069GF102991021061004501001001MA1999999092541MD1410001+9999MW1101REMSYN082AAXX  10154 17202 41440 22502 11046 21068 39254 40313 54000 71040 82600 333 82715;
0211172020999992000021018004+38600+039280FM-12+0882LTCA V0209999C000012200019N0006001N1-01141-01341103251ADDAA112000191AY141061AY201061GA1001+999999999GF100991001001999999001001KA1999M-00401MA1999999092601MD1110061+9999MW1481REMSYN082AAXX  10184 17202 11906 00000 11114 21134 39260 40325 51006 69912 74840 333 11040;
0171172020999992000021021004+38600+039280FM-12+0882LTCA V0209999C000012200019N0020001N1-00941-01101103201ADDAY141031AY241031GA1001+999999999GF100991001001999999001001MA1999999092601MD1410001+9999MW1411REMSYN066AAXX  10214 17202 41920 00000 11094 21110 39260 40320 54000 74144;
0188172020999992000021100004+38600+039280FM-12+0882LTCA V0209999C000012200019N0020001N1-00801-00981103081ADDAA106000191AY141061AY241061GA1001+999999999GF100991001001999999001001MA1999999092541MD1610061+9999MW1411REMSYN072AAXX  11004 17202 11920 00000 11080 21098 39254 40308 56006 69911 74144;
0171172020999992000021103004+38600+039280FM-12+0882LTCA V0209999C000012200019N0020001N1-00921-01061103061ADDAY141031AY241031GA1001+999999999GF100991001001999999001001MA1999999092501MD1610041+9999MW1411REMSYN066AAXX  11034 17202 41920 00000 11092 21106 39250 40306 56004 74144;
0264172020999992000021106004+38600+039280FM-12+0882LTCA V0209999C000012200019N0008001N1-00861-01041103201ADDAA112000191AJ100119199999999AY141061AY241061GA1001+999999999GF100991001001999999001001IA1279IA2999-01309KA1120N-01161MA1999999092251MD1310051+9999MW1481REMSYN100AAXX  11064 17202 11908 00000 11086 21104 39225 40320 53005 69922 74844 333 21116 3/113 43011 70002;
0187172020999992000021109004+38600+039280FM-12+0882LTCA V0201301N001010024019N0014001N1-00641-00791103091ADDAY141031AY241031GA1081+002409069GF108991081071002501999999MA1999999092501MD1810051+9999MW1401REMSYN082AAXX  11094 17202 41314 81302 11064 21079 39250 40309 58005 74044 887// 333 88708;
0204172020999992000021112004+38600+039280FM-12+0882LTCA V0201401N001512200019N0050001N1-00401-00521102891ADDAA106000191AY141061AY211061GA1041+004509069GF104991041061004501001001MA1999999092371MD1710131+9999MW1101REMSYN088AAXX  11124 17202 11450 41403 11040 21052 39237 40289 57013 69921 71041 84600 333 84715;
0187172020999992000021115004+38600+039280FM-12+0882LTCA V0201001N001512200019N0060001N1-00561-00821102921ADDAY101031AY201031GA1031+004509069GF103991031061004501001001MA1999999092371MD1410001+9999MW1101REMSYN082AAXX  11154 17202 41456 31003 11056 21082 39237 40292 54000 71000 83600 333 83715;
0195172020999992000021118004+38600+039280FM-12+0882LTCA V0209999C000012200019N0060001N1-00561-00821102951ADDAA112000191AY101061AY201061GF104991999999004501999999KA1999M-00321MA1999999092401MD1110031+9999MW1101REMSYN082AAXX  11184 17202 11456 40000 11056 21082 39240 40295 51003 69922 71000 333 11032;
0187172020999992000021121004+38600+039280FM-12+0882LTCA V0209999C000012200019N0060001N1-00481-00771103001ADDAY101031AY201031GA1041+004509069GF104991041061004501001001MA1999999092471MD1110071+9999MW1101REMSYN082AAXX  11214 17202 41456 40000 11048 21077 39247 40300 51007 71000 84600 333 84715;
0217172020999992000021200004+38600+039280FM-12+0882LTCA V0200701N001512200019N0060001N1-00441-00831102951ADDAA199000091AY101061AY201061GA1041+004509069GF104991041061004501001001MA1999999092471MD1410001+9999MW1101REMSYN082AAXX  12004 17202 31456 40703 11044 21083 39247 40295 54000 71000 84600 333 84715;EQDQ01  00002PRCP99
0165172020999992000021203004+38600+039280FM-12+0882LTCA V0209999C000012200019N0060001N1-00441-00831102951ADDGA1041+004509069GF104991041061004501001001MA1999999092441MD1810031+9999REMSYN082AAXX  12034 17202 41456 40000 11044 21083 39244 40295 58003 7/100 84600 333 84715;
0270172020999992000021206004+38600+039280FM-12+0882LTCA V0209999C000012200019N0060001N1-00501-00661102901ADDAA124000391AJ100109199999999AY111061AY211061GA1041+004509069GF104991041061004501001001IA1279IA2999-00809KA1120N-00741MA1999999092401MD1810031+9999MW1101REMSYN106AAXX  12064 17202 31456 40000 11050 21066 39240 40290 58003 71011 84600 333 21074 3/108 43010 70002 84715;
0187172020999992000021209004+38600+039280FM-12+0882LTCA V0202201N001510054019N0070001N1-00441-00661102851ADDAY111031AY211031GA1081+005409069GF108991081061004501999999MA1999999092361MD1810041+9999MW1101REMSYN082AAXX  12094 17202 41457 82203 11044 21066 39236 40285 58004 71011 886// 333 88718;
0217172020999992000021212004+38600+039280FM-12+0882LTCA V0201601N001510060019N0070001N1-00241-00661102561ADDAA199000091AY121061AY221061GA1071+006009069GF107991071061008001001001MA1999999092141MD1710221+9999MW1101REMSYN082AAXX  12124 17202 31557 71603 11024 21066 39214 40256 57022 71022 87600 333 87720;EQDQ01  00002PRCP99
0187172020999992000021215004+38600+039280FM-12+0882LTCA V0200601N002110060019N0070001N1-00401-00921102411ADDAY121031AY221031GA1051+006009069GF105991051061008001001001MA1999999091981MD1710161+9999MW1101REMSYN082AAXX  12154 17202 41557 50604 11040 21092 39198 40241 57016 71022 85600 333 85720;
0236172020999992000021218004+38600+039280FM-12+0882LTCA V0209999C000010060019N0070001N1-00601-00811102371ADDAA199000091AY121061AY221061GA1051+006009069GF105991051061008001001001KA1120M-00201MA1999999091901MD1710081+9999MW1101REMSYN088AAXX  12184 17202 31557 50000 11060 21081 39190 40237 57008 71022 85600 333 11020 85720;EQDQ01  00002PRCP99
0187172020999992000021221004+38600+039280FM-12+0882LTCA V0209999C000010060019N0070001N1-00841-01101102311ADDAY121031AY221031GA1051+006009069GF105991051061008001001001MA1999999091851MD1810051+9999MW1101REMSYN082AAXX  12214 17202 41557 50000 11084 21110 39185 40231 58005 71022 85600 333 85720;
0217172020999992000021300004+38600+039280FM-12+0882LTCA V0202001N002110060019N0070001N1-00761-01021102121ADDAA199000091AY121061AY221061GA1051+006009069GF105991051061008001001001MA1999999091701MD1710151+9999MW1101REMSYN082AAXX  13004 17202 31557 52004 11076 21102 39170 40212 57015 71022 85600 333 85720;EQDQ01  00002PRCP99
0195172020999992000021303004+38600+039280FM-12+0882LTCA V0201901N001010090019N0030001N1-00541-00741101901ADDAY121031AY221031GA1031+004509079GA2061+009009069GF108991061071004501021999MA1999999091501MW1701REMSYN088AAXX  13034 17202 41430 81902 11054 21074 39150 40190 77022 8672/ 333 83715 86630 88458;
0342172020999992000021306004+38600+039280FM-12+0882LTCA V0209999C000010090019N0022001N1-00541-00741101901ADDAA112003091AJ100029199999999AL19900291AY121061AY221061GA1031+003009079GA2051+009009069GA3081+024009049GF108991061071002501021999IA1279IA2999-01009KA1120N-00901MA1999999091481MD1610021+9999MW1701REMSYN136AAXX  13064 17202 11322 80000 11054 21074 39148 40190 56002 60032 77022 8672/ 333 21090 3/110 43002 70026 83710 85630 88458 93102 96010;
0237172020999992000021309004+38600+039280FM-12+0882LTCA V0209999C000010090019N0030001N1-00201-00581101701ADDAY171031AY271031GA1041+003009079GA2061+009009069GA3081+024009049GF108991061071004501021999MA1999999091321MD1710161+9999MW1701REMSYN100AAXX  13094 17202 41430 80000 11020 21058 39132 40170 57016 77077 8672/ 333 84710 86630 88458 96010;
0270172020999992000021312004+38600+039280FM-12+0882LTCA V0209999C000010090019N0025001N1-00081-00501101541ADDAA112001091AL19900191AY171061AY221061GA1041+003009079GA2061+009009069GA3081+024009049GF108991061071004501021999MA1999999091201MD1710121+9999MW1701REMSYN112AAXX  13124 17202 11425 80000 11008 21050 39120 40154 57012 60012 77072 8672/ 333 84710 86630 88458 93101 96010;
0215172020999992000021315004+38600+039280FM-12+0882LTCA V0209999C000010090019N0050001N1-00201-00581101471ADDAY171031AY221031GA1041+003009079GA2061+009009069GF108991061071004501021999MA1999999091141MD1610061+9999MW1101REMSYN094AAXX  13154 17202 41450 80000 11020 21058 39114 40147 56006 71072 8672/ 333 84710 86630 88458;
0277172020999992000021318004+38600+039280FM-12+0882LTCA V0209999C000010090019N0100001N1-00441-00491999999ADDAA112001091AL10600091AY171061AY221061GA1031+004509079GA2051+009009069GA3071+027009049GF107991061061004501021001KA1120M-00021MA1999999091141MD1410001+9999MW1011REMSYN106AAXX  13184 17202 11460 70000 11044 21049 39114 54000 60012 70172 86620 333 11002 83715 85630 87459 93100;
0187172020999992000021321004+38600+039280FM-12+0882LTCA V0209999C000010090019N0100001N1-00341-00631101451ADDGA1031+004509079GA2051+009009069GF107991061061004501021001MA1999999091141MD1410001+9999REMSYN088AAXX  13214 17202 41460 70000 11034 21063 39114 40145 54000 86620 333 83715 85630 87459;
0159172020999992000021400004+38600+039280FM-12+0882LTCA V0209999C000010042019N0100001N1-00341-00631101421ADDAA199000021GF106991061061004501001001MA1999999091141MD1410001+9999REMSYN081AAXX  14004 17202 32460 60000 11034 21063 39114 40142 54000 86600 333 8375 86630;
0165172020999992000021403004+38600+039280FM-12+0882LTCA V0209999C00001004201CN0100001N1-00301-00461101461ADDGA1031+004509079GF107991071061004501001001MA1999999091171MD1310031+9999REMSYN082AAXX  14034 17202 42460 70000 11030 21046 39117 40146 53003 87600 333 83715 86630;
0276172020999992000021406004+38600+039280FM-12+0882LTCA V0209999C000010045019N0050001N1-00201-00401101651ADDAA124001391AJ100059199999999AY121061AY221061GA1051+004509079GF107991071061004501001001IA1279IA2999-00709KA1120N-00461MA1999999091321MD1210151+9999MW1101REMSYN112AAXX  14064 17202 31450 70000 11020 21040 39132 40165 52015 71022 87600 333 21046 3/107 43005 70012 85715 87630;
0224172020999992000021412004+38600+039280FM-12+0882LTCA V0209999C000012200019N0070001N1+00201-00201101791ADDAA199000091AY111061AY211061GA1021+005409079GF103991031061004501001001MD1810051+9999MW1101REMSYN088AAXX  14124 17202 31457 30000 10020 21020 39249 40179 58005 71011 83600 333 82718 83630;EQDQ01+092493APOSP Q02  00002PRCP99
0187172020999992000021415004+38600+039280FM-12+0882LTCA V0200701N002112200019N0070001N1+00081-00201101841ADDAY101031AY201031GA1021+005409069GF102991021061004501001001MA1999999091531MD1210041+9999MW1101REMSYN082AAXX  14154 17202 41457 20704 10008 21020 39153 40184 52004 71000 82600 333 82718;
0196172020999992000021418004+38600+039280FM-12+0882LTCA V0209999C000012200019N0200001N1-00381-00561102041ADDAA199000091GA1001+999999999GF100991001001999999001001KA1999M+00221MA1999999091671MD1210141+9999REMSYN070AAXX  14184 17202 32970 00000 11038 21056 39167 40204 52014 333 10022;EQDQ01  00002PRCP99
0143172020999992000021421004+38600+039280FM-12+0882LTCA V0203001N001512200019N0200001N1-00561-00701102121ADDGA1001+999999999GF100991001001999999001001MA1999999091761MD1210091+9999REMSYN060AAXX  14214 17202 42970 03003 11056 21070 39176 40212 52009;
0173172020999992000021500004+38600+039280FM-12+0882LTCA V0202701N002112200019N0200001N1-00721-00881102161ADDAA199000091GA1001+999999999GF100991001001999999001001MA1999999091781MD1310021+9999REMSYN060AAXX  15004 17202 32970 02704 11072 21088 39178 40216 53002;EQDQ01  00002PRCP99
0143172020999992000021503004+38600+039280FM-12+0882LTCA V0203101N001512200019N0200001N1-00501-00661102181ADDGA1001+999999999GF100991001001999999001001MA1999999091801MD1110021+9999REMSYN060AAXX  15034 17202 42970 03103 11050 21066 39180 40218 51002;
0265172020999992000021506004+38600+039280FM-12+0882LTCA V0209999C000012200019N0040001N1-00501-00661102251ADDAA199000091AJ100039199999999AY101061AY201061GA1001+999999999GF100991001001999999001001IA2999-00909KA1120N-00741MA1999999091841MD1310041+9999MW1101REMSYN088AAXX  15064 17202 31940 00000 11050 21066 39184 40225 53004 71000 333 21074 3/109 43003;EQDQ01  00002PRCP99
0237172020999992000021509004+38600+039280FM-12+0882LTCA V0202001N001010090019N0025001N1-00061-00301102271ADDAY111031AY211031GA1041+004509079GA2051+009009069GA3081+024009049GF108991061071004501021999MA1999999091881MD1010041+9999MW1701REMSYN100AAXX  15094 17202 41425 82002 11006 21030 39188 40227 50004 77011 8672/ 333 84715 85630 88458 96010;
0270172020999992000021512004+38600+039280FM-12+0882LTCA V0201601N001010090019N0035001N1+00061-00121102081ADDAA106000591AL19900091AY111061AY211061GA1041+004509079GA2051+009009069GA3081+024009049GF108991061071004501021999MA1999999091711MD1710171+9999MW1701REMSYN112AAXX  15124 17202 11435 81602 10006 21012 39171 40208 57017 69941 77011 8672/ 333 84715 85630 88458 93100 96010;
0237172020999992000021515004+38600+039280FM-12+0882LTCA V0202401N002110090019N0015001N1-00021-00161101921ADDAY171031AY271031GA1041+004509079GA2051+009009069GA3081+024009049GF108991061071004501021999MA1999999091581MD1710131+9999MW1701REMSYN100AAXX  15154 17202 41415 82404 11002 21016 39158 40192 57013 77077 8672/ 333 84715 85630 88458 96010;
0289172020999992000021518004+38600+039280FM-12+0882LTCA V0209999C000010090019N0020001N1-00021-00161101831ADDAA112002091AL19900191AY171061AY271061GA1041+004509079GA2051+009009069GA3081+024009049GF108991071071004501021999KA1120M+00141MA1999999091481MD1710101+9999MW1701REMSYN118AAXX  15184 17202 11420 80000 11002 21016 39148 40183 57010 60022 77077 8772/ 333 10014 84715 85630 88458 93101 96010;
0237172020999992000021521004+38600+039280FM-12+0882LTCA V0209999C000010090019N0020001N1-00021-00161101701ADDAY171031AY271031GA1041+004509079GA2051+009009069GA3081+024009049GF108991071071004501021999MA1999999091431MD1810051+9999MW1701REMSYN100AAXX  15214 17202 41420 80000 11002 21016 39143 40170 58005 77077 8772/ 333 84715 85630 88458 96010;
0270172020999992000021600004+38600+039280FM-12+0882LTCA V0203001N001510090019N0020001N1-00021-00161101651ADDAA106004191AL19900191AY171061AY271061GA1041+004509079GA2051+009009069GA3081+024009049GF108991071071004501021999MA1999999091381MD1710051+9999MW1701REMSYN112AAXX  16004 17202 11420 83003 11002 21016 39138 40165 57005 60041 77077 8772/ 333 84715 85630 88458 93101 96010;
0215172020999992000021603004+38600+039280FM-12+0882LTCA V0209999C000010099019N0030001N1+00201+00061101421ADDAY171031AY221031GA1021+004509079GA2051+009909069GF108991061071004501021999MA1999999091151MD1810181+9999MW1681REMSYN094AAXX  16034 17202 41430 80000 10020 20006 39115 40142 58018 76872 8672/ 333 82715 85633 88459;
0336172020999992000021606004+38600+039280FM-12+0882LTCA V0200701N003110099019N0040001N1+00301+00161101371ADDAA112006191AJ100039199999999AL10699999AY171061AY221061GA1021+004509079GA2051+009909069GA3081+027009049GF108991061071004501021999IA1309IA2999-00109KA1120N-00041MA1999999091151MD1610051+9999MW1681REMSYN130AAXX  16064 17202 11440 80706 10030 20016 39115 40137 56005 60062 76872 8672/ 333 21004 3/101 42003 70083 82715 85633 88459 93197;
0215172020999992000021609004+38600+039280FM-12+0882LTCA V0200801N004110090019N0200001N1+00421+00061101341ADDAY171031AY221031GA1021+005409079GA2051+009009069GF106991061061004501051001MA1999999091151MD1410001+9999MW1021REMSYN094AAXX  16094 17202 41470 60808 10042 20006 39115 40134 54000 70272 86650 333 82718 85630 86359;
0264172020999992000021612004+38600+039280FM-12+0882LTCA V0200801N005710090019N0080001N1+00321+00121101291ADDAA106000391AL10600091AY171061AY221061GA1041+005409079GA2061+009009069GA3081+024009049GF108991061071004501021999MA1999999091101MD1810051+9999MW1681REMSYN106AAXX  16124 17202 11458 80811 10032 20012 39110 40129 58005 69931 76872 8672/ 333 84718 86630 88458 93100;
0215172020999992000021615004+38600+039280FM-12+0882LTCA V0200901N002610099019N0100001N1+00321+00121101261ADDAY171031AY221031GA1041+005409079GA2061+009909069GF108991061061004501021999MA1999999091101MD1410001+9999MW1021REMSYN094AAXX  16154 17202 41460 80905 10032 20012 39110 40126 54000 70272 8662/ 333 84718 86633 88459;
0283172020999992000021618004+38600+039280FM-12+0882LTCA V0200901N003110090019N0150001N1+00221+00061101291ADDAA112001091AL10600091AY171061AY221061GA1021+005409079GA2061+009009069GA3081+027009049GF108991061061004501021999KA1120M+00521MA1999999091121MD1110021+9999MW1601REMSYN112AAXX  16184 17202 11465 80906 10022 20006 39112 40129 51002 60012 76072 8662/ 333 10052 82718 86630 88459 93100;
0193172020999992000021621004+38600+039280FM-12+0882LTCA V0200601N005710090019N0150001N1+00221+00081101231ADDAY161031AY261031GA1051+009009069GF107991061051008001071001MA1999999091071MD1810051+9999MW1601REMSYN088AAXX  16214 17202 41565 70611 10022 20008 39107 40123 58005 76066 86570 333 85630 87458;
0210172020999992000021700004+38600+039280FM-12+0882LTCA V0200601N003610090019N0150001N1+00221+00081101191ADDAA106002091AY161061AY261061GA1051+009009069GF107991061051008001071001MA1999999091041MD1810031+9999MW1601REMSYN094AAXX  17004 17202 11565 70607 10022 20008 39104 40119 58003 60021 76066 86570 333 85630 87458;
0193172020999992000021703004+38600+039280FM-12+0882LTCA V0202001N002110090019N0150001N1+00081-00081101221ADDAY161031AY221031GA1051+009009069GF107991051051008001071001MA1999999091041MD1410001+9999MW1601REMSYN088AAXX  17034 17202 41565 72004 10008 21008 39104 40122 54000 76062 85570 333 85630 87458;
0308172020999992000021706004+38600+039280FM-12+0882LTCA V0209999C000010090019N0070001N1+00141+00031101481ADDAA112004191AJ100029199999999AY161061AY221061GA1031+004509079GA2051+009009069GF107991061071004501071001IA1309IA2999+00009KA1120N+00041MD1210211+9999MW1101REMSYN124AAXX  17064 17202 11457 70000 10014 20003 30125 40148 52021 60042 71062 86770 333 20004 3/100 42002 70051 83715 85630 87458;EQDQ01+101253APOSP 
0223172020999992000021709004+38600+039280FM-12+0882LTCA V0209999C000012200019N0200001N1+00421-00041101621ADDGA1021+004509079GA2041+010509069GF199999999999999999001001MD1210171+9999REMSYN088AAXX  17094 17202 41470 00000 10042 21004 3//// 40162 52017 85650 333 82715 84635 86360;EQDQ01+000002SCOTCVQ02+000002SCOTLCQ03+000002SCOLCG
0176172020999992000021712004+38600+039280FM-12+0882LTCA V0202801N00261036001CN0200001N1+00621-00121101681ADDAA199000021GA1041+010509069GF106991041051012501051001MA1999999091491MD1210071+9999REMSYN082AAXX  17124 17202 32670 62805 10062 21012 39149 40168 52007 84550 333 84635 86360;
0165172020999992000021715004+38600+039280FM-12+0882LTCA V0200701N00261036001CN0200001N1+00381-00041101821ADDGA1031+010509069GF105991031051012501051001MA1999999091581MD1210091+9999REMSYN082AAXX  17154 17202 42670 50705 10038 21004 39158 40182 52009 83550 333 83635 85360;
0214172020999992000021718004+38600+039280FM-12+0882LTCA V0202301N00101036001CN0200001N1+00221-00071102001ADDAA199000091GA1031+010509069GF106991031051012501051001KA1120M+00661MA1999999091741MD1210161+9999REMSYN088AAXX  17184 17202 32670 62302 10022 21007 39174 40200 52016 83550 333 10066 83635 86360;EQDQ01  00002PRCP99
0165172020999992000021721004+38600+039280FM-12+0882LTCA V0203401N00151036001CN0200001N1+00221-00071102121ADDGA1031+010509069GF106991031051012501051001MA1999999091871MD1210131+9999REMSYN082AAXX  17214 17202 42670 63403 10022 21007 39187 40212 52013 83550 333 83635 86360;
0195172020999992000021800004+38600+039280FM-12+0882LTCA V0209999C00001036001CN0200001N1+00161-00021102181ADDAA199000091GA1031+010509069GF106991031051012501051001MA1999999091941MD1210071+9999REMSYN082AAXX  18004 17202 32670 60000 10016 21002 39194 40218 52007 83550 333 83635 86360;EQDQ01  00002PRCP99
0165172020999992000021803004+38600+039280FM-12+0882LTCA V0202901N00211036001CN0200001N1+00071-00121102221ADDGA1031+010509069GF106991031051012501051001MA1999999091941MD1410001+9999REMSYN082AAXX  18034 17202 42670 62904 10007 21012 39194 40222 54000 83550 333 83635 86360;
0261172020999992000021806004+38600+039280FM-12+0882LTCA V0209999C000012200019N0200001N1-00081-00301102241ADDAA199000091AJ100029199999999GA1011+010509069GF103991011051012501031001IA1309IA2999-00309KA1120N-00221MA1999999091941MD1410001+9999REMSYN100AAXX  18064 17202 32670 30000 11008 21030 39194 40224 54000 81530 333 21022 3/103 42002 81635 83360;EQDQ01  00002PRCP99
0159172020999992000021809004+38600+039280FM-12+0882LTCA V0201801N001012200019N0200001N1+00501-00081102541ADDGA1021+010509059GF102991021051012501001001MA1999999092101MD1110161+9999REMSYN076AAXX  18094 17202 42670 21802 10050 21008 39210 40254 51016 82500 333 82635;
0189172020999992000021812004+38600+039280FM-12+0882LTCA V0209999C000012200019N0200001N1+00771-00341102211ADDAA199000091GA1031+010509029GF103991031081012501001001MA1999999091991MD1810111+9999REMSYN076AAXX  18124 17202 32670 30000 10077 21034 39199 40221 58011 83800 333 83835;EQDQ01  00002PRCP99
0143172020999992000021815004+38600+039280FM-12+0882LTCA V0209999C000012200019N0200001N1+00501-00361102251ADDGA1001+999999999GF100991001001999999001001MA1999999091991MD1410001+9999REMSYN060AAXX  18154 17202 42970 00000 10050 21036 39199 40225 54000;
0214172020999992000021818004+38600+039280FM-12+0882LTCA V0200701N00261036001CN0200001N1+00401-00401102241ADDAA199000091GA1031+010509069GF106991031051012501051001KA1120M+00801MA1999999091961MD1510031+9999REMSYN088AAXX  18184 17202 32670 60705 10040 21040 39196 40224 55003 83550 333 10080 83635 86360;EQDQ01  00002PRCP99
0165172020999992000021821004+38600+039280FM-12+0882LTCA V0209999C00001036001CN0200001N1+00281-00201102241ADDGA1031+010509069GF106991031051012501051001MA1999999092001MD1110041+9999REMSYN082AAXX  18214 17202 42670 60000 10028 21020 39200 40224 51004 83550 333 83635 86360;
0195172020999992000021900004+38600+039280FM-12+0882LTCA V0209999C00001036001CN0200001N1+00201-00141102171ADDAA199000091GA1031+010509069GF106991031051012501051001MA1999999091951MD1710051+9999REMSYN082AAXX  19004 17202 32670 60000 10020 21014 39195 40217 57005 83550 333 83635 86360;EQDQ01  00002PRCP99
0165172020999992000021903004+38600+039280FM-12+0882LTCA V0202801N00151036001CN0200001N1+00161-00271102041ADDGA1041+010509069GF106991041051012501051001MA1999999091801MD1610151+9999REMSYN082AAXX  19034 17202 42670 62803 10016 21027 39180 40204 56015 84550 333 84635 86360;
0277172020999992000021906004+38600+039280FM-12+0882LTCA V0202601N00101036001CN0200001N1+00141-00201102031ADDAA199000091AJ199992999999999GA1031+010509069GF105991031051012501051001IA1309IA2999-00309KA1120N-00081MA1999999091791MD1810011+9999REMSYN100AAXX  19064 17202 32670 52602 10014 21020 39179 40203 58001 83550 333 21008 3/103 42998 83635 85360;EQDQ01  00002PRCP99Q02  09972SNDP  
0165172020999992000021909004+38600+039280FM-12+0882LTCA V0200901N005710090019N0200001N1+00541-00211101881ADDGA1061+009009069GF107991061051008001051001MA1999999091671MD1710121+9999REMSYN082AAXX  19094 17202 42570 70911 10054 21021 39167 40188 57012 86550 333 86630 86358;
0218172020999992000021912004+38600+039280FM-12+0882LTCA V0201001N003110090019N0200001N1+00561-00381101601ADDAA199000091GA1011+006009079GA2061+009009069GF107991061071008001051001MD1710251+9999REMSYN088AAXX  19124 17202 32570 71006 10056 21038 39242 40160 57025 86750 333 81720 86630 87358;EQDQ01+092423APOSP Q02  00002PRCP99
0215172020999992000021915004+38600+039280FM-12+0882LTCA V0200901N005110090019N0150001N1+00421-00301101381ADDAY121031AY221031GA1021+006009079GA2061+009009069GF108991041071008001051001MA1999999091201MD1710221+9999MW1601REMSYN094AAXX  19154 17202 41565 80910 10042 21030 39120 40138 57022 76022 84750 333 82720 86630 88458;
0251172020999992000021918004+38600+039280FM-12+0882LTCA V0200901N004110090019N0150001N1+00421+00131101211ADDAA112002091AY161061AY221061GA1021+006009079GA2061+009009069GF108991061071008001021999KA1120M+00641MA1999999091051MD1610151+9999MW1601REMSYN106AAXX  19184 17202 11565 80908 10042 20013 39105 40121 56015 60022 76062 8672/ 333 10064 82720 86630 88458;
0215172020999992000021921004+38600+039280FM-12+0882LTCA V0202601N004110090019N0150001N1+00301-00041101131ADDAY161031AY221031GA1021+006009079GA2051+009009069GF108991061071008001021999MA1999999091001MD1810051+9999MW1211REMSYN094AAXX  19214 17202 41565 82608 10030 21004 39100 40113 58005 72162 8672/ 333 82720 85630 88458;
0232172020999992000022000004+38600+039280FM-12+0882LTCA V0202401N007210090019N0200001N1+00301-00041101131ADDAA106001091AY161061AY221061GA1011+006009079GA2051+009009069GF108991061071008001021999MA1999999091001MD1410001+9999MW1021REMSYN100AAXX  20004 17202 11570 82414 10030 21004 39100 40113 54000 60011 70262 8672/ 333 81720 85630 88458;
0165172020999992000022003004+38600+039280FM-12+0882LTCA V0202101N00721036001CN0200001N1+00301-00321101431ADDGA1041+010509069GF106991041051012501041001MA1999999091271MD1210171+9999REMSYN082AAXX  20034 17202 42670 62114 10030 21032 39127 40143 52017 84540 333 84635 86360;
0273172020999992000022006004+38600+039280FM-12+0882LTCA V0202601N00461036001CN0200001N1+00301-00421101731ADDAA112001091AJ199993999999999GA1021+012009069GF105991021051012501041001IA1259IA2999+00109KA1120N+00161MA1999999091541MD1210271+9999REMSYN112AAXX  20064 17202 31670 52609 10030 21042 39154 40173 52027 60012 82540 333 20016 3/001 41997 70032 82640 85360;EQDQ01  09982SNDP  
0159172020999992000022009004+38600+039280FM-12+0882LTCA V0202701N004612200019N0200001N1+00581-00341101931ADDGA1021+012009059GF102991021051012501001001MA1999999091731MD1210191+9999REMSYN076AAXX  20094 17202 42670 22709 10058 21034 39173 40193 52019 82500 333 82640;
0158172020999992000022012004+38600+039280FM-12+0882LTCA V0202801N004612200019N0200001N1+00741-00421101921ADDAA199000091GF103991999999012501999999MA1999999091731REMSYN075AAXX  20124 17202 32670 32809 10074 21042 39173 40192 5800 83500 333 83640;EQDQ01  00002PRCP99
0159172020999992000022015004+38600+039280FM-12+0882LTCA V0202701N002112200019N0200001N1+00681-00401101951ADDGA1031+030009079GF103991031001999999051001MA1999999091781MD1210051+9999REMSYN076AAXX  20154 17202 42970 32704 10068 21040 39178 40195 52005 83050 333 83360;
0208172020999992000022018004+38600+039280FM-12+0882LTCA V0202601N001512200019N0200001N1+00101-00721102181ADDAA199000091GA1011+030009079GF101991011001999999031001KA1120M+00781MA1999999091901MD1210121+9999REMSYN082AAXX  20184 17202 32970 12603 10010 21072 39190 40218 52012 81030 333 10078 81360;EQDQ01  00002PRCP99
0159172020999992000022021004+38600+039280FM-12+0882LTCA V0202701N002612200019N0200001N1-00081-00421102221ADDGA1031+030009079GF103991031001999999031001MA1999999091941MD1210041+9999REMSYN076AAXX  20214 17202 42970 32705 11008 21042 39194 40222 52004 83030 333 83360;
0189172020999992000022100004+38600+039280FM-12+0882LTCA V0202801N001012200019N0200001N1-00261-00521102221ADDAA199000091GA1011+030009079GF101991011001999999031001MA1999999091941MD1410001+9999REMSYN076AAXX  21004 17202 32970 12802 11026 21052 39194 40222 54000 81030 333 81360;EQDQ01  00002PRCP99
0159172020999992000022103004+38600+039280FM-12+0882LTCA V0202801N001512200019N0200001N1-00361-00541102191ADDGA1011+030009079GF101991011001999999031001MA1999999091911MD1810031+9999REMSYN076AAXX  21034 17202 42970 12803 11036 21054 39191 40219 58003 81030 333 81360;
0238172020999992000022106004+38600+039280FM-12+0882LTCA V0209999C000012200019N0200001N1-00161-00401102271ADDAA199000091GA1031+010509069GF104991031051012501031001IA1149IA2999-00609KA1120N-00401MA1999999091941MD1310031+9999REMSYN094AAXX  21064 17202 32670 40000 11016 21040 39194 40227 53003 83530 333 21040 34106 83635 83360;EQDQ01  00002PRCP99
0165172020999992000022109004+38600+039280FM-12+0882LTCA V0200701N00311036001CN0200001N1+00301-00401102271ADDGA1031+010509069GF105991031051012501051001MA1999999091961MD1110021+9999REMSYN082AAXX  21094 17202 42670 50706 10030 21040 39196 40227 51002 83550 333 83635 85360;
0195172020999992000022112004+38600+039280FM-12+0882LTCA V0200801N00411036001CN0200001N1+00501-00381102071ADDAA199000091GA1041+010509069GF107991041051012501051001MA1999999091781MD1710181+9999REMSYN082AAXX  21124 17202 32670 70808 10050 21038 39178 40207 57018 84550 333 84635 87360;EQDQ01  00002PRCP99
0165172020999992000022115004+38600+039280FM-12+0882LTCA V0200601N00411036001CN0200001N1+00501-00381101931ADDGA1031+010509069GF105991031051012501051001MA1999999091661MD1710121+9999REMSYN082AAXX  21154 17202 42670 50608 10050 21038 39166 40193 57012 83550 333 83635 85360;
0214172020999992000022118004+38600+039280FM-12+0882LTCA V0200601N00261036001CN0200001N1+00201-00501102001ADDAA199000091GA1031+010509069GF105991031051012501051001KA1120M+00601MA1999999091701MD1110041+9999REMSYN088AAXX  21184 17202 32670 50605 10020 21050 39170 40200 51004 83550 333 10060 83635 85360;EQDQ01  00002PRCP99
0165172020999992000022121004+38600+039280FM-12+0882LTCA V0209999C00001036001CN0200001N1+00161-00421101921ADDGA1041+010509069GF106991031051012501051001MA1999999091671MD1710031+9999REMSYN082AAXX  21214 17202 42670 60000 10016 21042 39167 40192 57003 83550 333 84635 86360;
0195172020999992000022200004+38600+039280FM-12+0882LTCA V0209999C00001036001CN0200001N1+00141-00401101731ADDAA199000091GA1031+010509069GF106991031051012501051001MA1999999091521MD1710151+9999REMSYN082AAXX  22004 17202 32670 60000 10014 21040 39152 40173 57015 83550 333 83635 86360;EQDQ01  00002PRCP99
0165172020999992000022203004+38600+039280FM-12+0882LTCA V0200601N00261036001CN0200001N1+00141-00401101521ADDGA1031+010509069GF105991031051012501051001MA1999999091331MD1710191+9999REMSYN082AAXX  22034 17202 42670 50605 10014 21040 39133 40152 57019 83550 333 83635 85360;
0238172020999992000022206004+38600+039280FM-12+0882LTCA V0200901N00311036001CN0200001N1+00501+00041101501ADDAA199000091GA1031+010509069GF105991031051012501051001IA1099IA2999+00009KA1120N+00101MA1999999091331MD1410001+9999REMSYN094AAXX  22064 17202 32670 50906 10050 20004 39133 40150 54000 83550 333 20010 31000 83635 85360;EQDQ01  00002PRCP99
0165172020999992000022209004+38600+039280FM-12+0882LTCA V0201101N00721036001CN0200001N1+01001-00081101371ADDGA1031+010509089GF105991031021012501051001MA1999999091251MD1710081+9999REMSYN082AAXX  22094 17202 42670 51114 10100 21008 39125 40137 57008 83250 333 83835 85360;
0195172020999992000022212004+38600+039280FM-12+0882LTCA V0201101N00821036001CN0200001N1+00901-00071101121ADDAA199000091GA1041+010509089GF106991041021012501051001MA1999999091011MD1710241+9999REMSYN082AAXX  22124 17202 32670 61116 10090 21007 39101 40112 57024 84250 333 84835 86360;EQDQ01  00002PRCP99
0187172020999992000022215004+38600+039280FM-12+0882LTCA V0200901N005710090019N0100001N1+00741-00021100911ADDGA1021+004509079GA2051+009009089GF107991061071004501071001MA1999999090801MD1610211+9999REMSYN088AAXX  22154 17202 42460 70911 10074 21002 39080 40091 56021 86770 333 82715 85830 87360;
0236172020999992000022218004+38600+039280FM-12+0882LTCA V0201301N005710105019N0100001N1+00821-00061100831ADDAA199000091GA1021+004509079GA2051+010509069GF108991061071004501021999KA1120M+00961MA1999999090771MD1610031+9999REMSYN094AAXX  22184 17202 32460 81311 10082 21006 39077 40083 56003 8672/ 333 10096 82715 85635 88459;EQDQ01  00002PRCP99
0215172020999992000022221004+38600+039280FM-12+0882LTCA V0202901N002110090019N0100001N1+00601+00121100811ADDAY121031AY221031GA1031+004509079GA2051+009009069GF108991061071004501021999MA1999999090791MD1110021+9999MW1601REMSYN094AAXX  22214 17202 41460 82904 10060 20012 39079 40081 51002 76022 8672/ 333 83715 85630 88458;
0232172020999992000022300004+38600+039280FM-12+0882LTCA V0202601N001510090019N0100001N1+00321+00121100861ADDAA106005191AY121061AY221061GA1031+004509079GA2051+009009069GF108991061071004501021999MA1999999090791MD1410001+9999MW1601REMSYN100AAXX  23004 17202 11460 82603 10032 20012 39079 40086 54000 60051 76022 8672/ 333 83715 85630 88458;
0215172020999992000022303004+38600+039280FM-12+0882LTCA V0202801N002110090019N0100001N1+00321+00121100841ADDAY161031AY261031GA1031+004509079GA2051+009009069GF108991061071004501021999MA1999999090761MD1610031+9999MW1211REMSYN094AAXX  23034 17202 41460 82804 10032 20012 39076 40084 56003 72166 8672/ 333 83715 85630 88458;
0281172020999992000022306004+38600+039280FM-12+0882LTCA V0202501N001510090019N0100001N1+00201+00101100971ADDAA112006191AY161061AY221061GA1021+004509079GA2051+009009069GF107991061071004501051001IA1119IA2999+00009KA1120N+00121MA1999999090871MD1310111+9999MW1021REMSYN118AAXX  23064 17202 11460 72503 10020 20010 39087 40097 53011 60062 70262 86750 333 20012 32000 70058 82715 85630 87359;
0187172020999992000022309004+38600+039280FM-12+0882LTCA V0201801N004110084019N0200001N1+00701-00101100991ADDGA1021+004509079GA2061+008409069GF107991061071004501051001MA1999999090931MD1210061+9999REMSYN088AAXX  23094 17202 42470 71808 10070 21010 39093 40099 52006 86750 333 82715 86628 87358;
0198172020999992000022312004+38600+039280FM-12+0882LTCA V0202501N005110084019N0200001N1+00581-00181101111ADDAA199000021GA1031+004509079GA2061+008409069GF107991061071004501051001MA1999999090981MD1310051+9999REMSYN088AAXX  23124 17202 32470 72510 10058 21018 39098 40111 53005 86750 333 83715 86628 87358;
0187172020999992000022315004+38600+039280FM-12+0882LTCA V0203001N004110084019N0200001N1+00481-00261101231ADDGA1021+004509079GA2061+008409069GF107991061071004501051001MA1999999091091MD1210111+9999REMSYN088AAXX  23154 17202 42470 73008 10048 21026 39109 40123 52011 86750 333 82715 86628 87358;
0236172020999992000022318004+38600+039280FM-12+0882LTCA V0202001N002110090019N0200001N1+00301-00181101491ADDAA199000091GA1031+004509079GA2061+009009069GF108991071071004501021999KA1120M+00841MA1999999091301MD1210211+9999REMSYN094AAXX  23184 17202 32470 82004 10030 21018 39130 40149 52021 8772/ 333 10084 83715 86630 88458;EQDQ01  00002PRCP99
0264172020999992000022400004+38600+039280FM-12+0882LTCA V0202601N002110090019N0030001N1+00041-00061101651ADDAA106004191AL10600191AY171061AY261061GA1041+003009079GA2061+009009069GA3081+024009049GF108991071071004501021999MA1999999091451MD1310041+9999MW1701REMSYN106AAXX  24004 17202 11430 82604 10004 21006 39145 40165 53004 60041 77076 8772/ 333 84710 86630 88458 93101;
0215172020999992000022403004+38600+039280FM-12+0882LTCA V0209999C000010090019N0030001N1+00011-00071101711ADDAY171031AY271031GA1041+003009079GA2061+009009069GF108991071071004501021999MA1999999091481MD1110031+9999MW1701REMSYN094AAXX  24034 17202 41430 80000 10001 21007 39148 40171 51003 77077 8772/ 333 84710 86630 88458;
0304172020999992000022406004+38600+039280FM-12+0882LTCA V0209999C000010105019N0100001N1+00011-00071101901ADDAA112007991AJ100059199999999AY171061AY221061GA1021+004509079GA2051+010509069GF108991061071004501021999IA1279IA2999-00409KA1120N-00041MA1999999091651MD1310171+9999MW1021REMSYN124AAXX  24064 17202 11460 80000 10001 21007 39165 40190 53017 60082 70272 8672/ 333 21004 3/104 43005 70082 82715 85635 88459;
0187172020999992000022409004+38600+039280FM-12+0882LTCA V0201901N001010099019N0150001N1+00241-00011101931ADDGA1021+004509079GA2051+009909069GF107991061061004501021001MA1999999091701MD1310051+9999REMSYN088AAXX  24094 17202 42465 71902 10024 21001 39170 40193 53005 86620 333 82715 85633 87460;
0198172020999992000022412004+38600+039280FM-12+0882LTCA V0201101N001010099019N0150001N1+00441-00061101841ADDAA199000021GA1021+004509079GA2051+009909069GF107991061061004501011001MA1999999091601MD1810101+9999REMSYN088AAXX  24124 17202 32465 71102 10044 21006 39160 40184 58010 86610 333 82715 85633 87460;
0165172020999992000022415004+38600+039280FM-12+0882LTCA V0209999C00001036001CN0200001N1+00501-00041101821ADDGA1041+010509069GF106991041051012501051001MA1999999091601MD1410001+9999REMSYN082AAXX  24154 17202 42670 60000 10050 21004 39160 40182 54000 84550 333 84635 86360;
0236172020999992000022418004+38600+039280FM-12+0882LTCA V0203401N00101036001CN0200001N1+00401+00061101871ADDAA199000091GA1031+004509079GA2041+009009069GF107991041061004501051001KA1120M+00541MA1999999091621MD1310021+9999REMSYN094AAXX  24184 17202 32470 73402 10040 20006 39162 40187 53002 84650 333 10054 83715 84630 87360;EQDQ01  00002PRCP99
0187172020999992000022421004+38600+039280FM-12+0882LTCA V0202501N001510090019N0200001N1+00281+00141101801ADDGA1031+004509079GA2051+009009069GF107991051061004501051001MA1999999091581MD1810041+9999REMSYN088AAXX  24214 17202 42470 72503 10028 20014 39158 40180 58004 85650 333 83715 85630 87360;
0217172020999992000022500004+38600+039280FM-12+0882LTCA V0202701N001010090019N0200001N1+00201+00041101711ADDAA199000091GA1031+004509079GA2051+009009069GF107991051061004501051001MA1999999091501MD1710081+9999REMSYN088AAXX  25004 17202 32470 72702 10020 20004 39150 40171 57008 85650 333 83715 85630 87360;EQDQ01  00002PRCP99
0187172020999992000022503004+38600+039280FM-12+0882LTCA V0202001N001010090019N0200001N1+00101-00021101641ADDGA1031+004509079GA2051+009009069GF107991051061004501051001MA1999999091441MD1710061+9999REMSYN088AAXX  25034 17202 42470 72002 10010 21002 39144 40164 57006 85650 333 83715 85630 87358;
0281172020999992000022506004+38600+039280FM-12+0882LTCA V0209999C000010084019N0100001N1+00161-00031101641ADDAA112000791AY161061AY221061GA1041+003909079GA2051+008409069GF107991061071004501051001IA1099IA2999+00009KA1120N+00081MA1999999091441MD1410001+9999MW1031REMSYN118AAXX  25064 17202 11460 70000 10016 21003 39144 40164 54000 69902 70362 86750 333 20008 31000 70000 84713 85628 87358;
0215172020999992000022509004+38600+039280FM-12+0882LTCA V0203001N002610090019N0100001N1+00401+00071101691ADDAY121031AY221031GA1041+003009079GA2061+009009069GF108991071071004501021999MA1999999091481MD1010041+9999MW1601REMSYN094AAXX  25094 17202 41460 83005 10040 20007 39148 40169 50004 76022 8772/ 333 84710 86630 88458;
0232172020999992000022512004+38600+039280FM-12+0882LTCA V0202901N004110090019N0100001N1+00401+00071101641ADDAA106001091AY161061AY221061GA1031+003609079GA2061+009009069GF108991071071004501021999MA1999999091441MD1810041+9999MW1021REMSYN100AAXX  25124 17202 11460 82908 10040 20007 39144 40164 58004 60011 70262 8772/ 333 83712 86630 88458;
0165172020999992000022515004+38600+039280FM-12+0882LTCA V0202601N00411036001CN0200001N1+00461-00141101631ADDGA1031+010509069GF105991031051012501051001MA1999999091431MD1610011+9999REMSYN082AAXX  25154 17202 42670 52608 10046 21014 39143 40163 56001 83550 333 83635 85360;
0195172020999992000022518004+38600+039280FM-12+0882LTCA V0202301N00261036001CN0200001N1+00201-00181101751ADDAA199000021GA1031+010509069GF105991031051012501051001KA1120M+00501MA1999999091521MD1210091+9999REMSYN088AAXX  25184 17202 32670 52305 10020 21018 39152 40175 52009 83550 333 10050 83635 85360;
0159172020999992000022521004+38600+039280FM-12+0882LTCA V0202801N006212200019N0200001N1-00081-00421101921ADDGA1031+010509059GF103991031051012501001001MA1999999091671MD1110151+9999REMSYN076AAXX  25214 17202 42670 32812 11008 21042 39167 40192 51015 83500 333 83635;
0205172020999992000022600004+38600+039280FM-12+0882LTCA V0202701N003612200019N0200001N1-00301-00681101981ADDAA199000091GA1031+010509059GF199999021051012501001001MA1999999091701MD1310031+9999REMSYN076AAXX  26004 17202 32670 22707 11030 21068 39170 40198 53003 82500 333 83635;EQDQ01+000022SCOTCVQ02  00002PRCP99
0143172020999992000022603004+38600+039280FM-12+0882LTCA V0202201N003112200019N0200001N1-00361-00781102001ADDGA1001+999999999GF100991001001999999001001MA1999999091721MD1310021+9999REMSYN060AAXX  26034 17202 42970 02206 11036 21078 39172 40200 53002;
0195172020999992000022606004+38600+039280FM-12+0882LTCA V0202201N002112200019N0200001N1+99999+99999102091ADDAA124001391GA1001+999999999GF100991001001999999001001IA2999-00609KA1120N-00421MA1999999091781MD1210061+9999REMSYN076AAXX  26064 17202 32970 02204 21082 39178 40209 52006 333 21042 3/106 70012;
0159172020999992000022609004+38600+039280FM-12+0882LTCA V0202801N003112200019N0200001N1+00201-01031102111ADDGA1011+010509059GF101991011051012501001001MA1999999091821MD1110041+9999REMSYN076AAXX  26094 17202 42670 12806 10020 21103 39182 40211 51004 81500 333 81635;
0189172020999992000022612004+38600+039280FM-12+0882LTCA V0202801N003112200019N0200001N1+00401-01101101991ADDAA199000091GA1021+010509059GF102991021051012501001001MA1999999091691MD1710131+9999REMSYN076AAXX  26124 17202 32670 22806 10040 21110 39169 40199 57013 82500 333 82635;EQDQ01  00002PRCP99
0143172020999992000022615004+38600+039280FM-12+0882LTCA V0209999C000012200019N0200001N1+00471-00841101891ADDGA1001+999999999GF100991001001999999001001MA1999999091621MD1610071+9999REMSYN060AAXX  26154 17202 42970 00000 10047 21084 39162 40189 56007;
0196172020999992000022618004+38600+039280FM-12+0882LTCA V0202401N002112200019N0200001N1+00001-01041101921ADDAA199000091GA1001+999999999GF100991001001999999001001KA1999M+00521MA1999999091611MD1610011+9999REMSYN070AAXX  26184 17202 32970 02404 10000 21104 39161 40192 56001 333 10052;EQDQ01  00002PRCP99
0143172020999992000022621004+38600+039280FM-12+0882LTCA V0202701N001512200019N0200001N1-00301-00791101921ADDGA1001+999999999GF100991001001999999001001MA1999999091611MD1410001+9999REMSYN060AAXX  26214 17202 42970 02703 11030 21079 39161 40192 54000;
0173172020999992000022700004+38600+039280FM-12+0882LTCA V0202101N002612200019N0200001N1-00201-00621101881ADDAA199000091GA1001+999999999GF100991001001999999001001MA1999999091611MD1410001+9999REMSYN060AAXX  27004 17202 32970 02105 11020 21062 39161 40188 54000;EQDQ01  00002PRCP99
0143172020999992000022703004+38600+039280FM-12+0882LTCA V0202201N001512200019N0200001N1-00341-00581101871ADDGA1001+999999999GF100991001001999999001001MA1999999091601MD1610011+9999REMSYN060AAXX  27034 17202 42970 02203 11034 21058 39160 40187 56001;
0238172020999992000022706004+38600+039280FM-12+0882LTCA V0202301N00211036001CN0200001N1-00141-00521101981ADDAA199000091GA1031+010509069GF106991031051012501051001IA1149IA2999-00609KA1120N-00361MA1999999091661MD1210061+9999REMSYN094AAXX  27064 17202 32670 62304 11014 21052 39166 40198 52006 83550 333 21036 34106 83635 86360;EQDQ01  00002PRCP99
0150172020999992000022709004+38600+039280FM-12+0882LTCA V0202901N007719999999N0200001N1+00281-01021999999ADDGA1041+009009089GF105991999999008001999999MA1999999091681REMSYN081AAXX  27094 17202 42570 52915 10028 21102 39168 4098 51002 84250 333 84830 85358;
0189172020999992000022712004+38600+039280FM-12+0882LTCA V0202801N006712200019N0200001N1+00561-01241101821ADDAA199000091GA1041+009009029GF104991041021008001001001MA1999999091581MD1710101+9999REMSYN076AAXX  27124 17202 32570 42813 10056 21124 39158 40182 57010 84200 333 84830;EQDQ01  00002PRCP99
0159172020999992000022715004+38600+039280FM-12+0882LTCA V0202901N009812200019N0200001N1+00301-01661101891ADDGA1041+009009029GF104991041021008001001001MA1999999091601MD1510021+9999REMSYN076AAXX  27154 17202 42570 42919 10030 21166 39160 40189 55002 84200 333 84830;
0196172020999992000022718004+38600+039280FM-12+0882LTCA V0202801N005112200019N0200001N1-00121-01361102111ADDAA199000091GA1001+999999999GF100991001001999999001001KA1999M+00641MA1999999091781MD1210181+9999REMSYN070AAXX  27184 17202 32970 02810 11012 21136 39178 40211 52018 333 10064;EQDQ01  00002PRCP99
0143172020999992000022721004+38600+039280FM-12+0882LTCA V0202901N009312200019N0200001N1-00221-01091102221ADDGA1001+999999999GF100991001001999999001001MA1999999091901MD1110121+9999REMSYN060AAXX  27214 17202 42970 02918 11022 21109 39190 40222 51012;
0173172020999992000022800004+38600+039280FM-12+0882LTCA V0202901N005112200019N0200001N1-00361-01131102311ADDAA199000091GA1001+999999999GF100991001001999999001001MA1999999092001MD1210101+9999REMSYN060AAXX  28004 17202 32970 02910 11036 21113 39200 40231 52010;EQDQ01  00002PRCP99
0143172020999992000022803004+38600+039280FM-12+0882LTCA V0209999C000012200019N0200001N1-00401-01111102361ADDGA1001+999999999GF100991001001999999001001MA1999999092001MD1410001+9999REMSYN060AAXX  28034 17202 42970 00000 11040 21111 39200 40236 54000;
0220172020999992000022806004+38600+039280FM-12+0882LTCA V0209999C000012200019N0200001N1-00201-01081102601ADDAA199000091GA1001+999999999GF100991001001999999001001IA1149IA2999-00809KA1120N-00641MA1999999092201MD1310201+9999REMSYN076AAXX  28064 17202 32970 00000 11020 21108 39220 40260 53020 333 21064 34108;EQDQ01  00002PRCP99
0159172020999992000022809004+38600+039280FM-12+0882LTCA V0202901N002612200019N0200001N1+00181-00901102451ADDGA1011+010509029GF101991011011012501001001MA1999999092101MD1610101+9999REMSYN076AAXX  28094 17202 42670 12905 10018 21090 39210 40245 56010 81100 333 81835;
0190172020999992000022812004+38600+039280FM-12+0882LTCA V0203301N003612200019N0200001N1+00361-01021102591ADDAA199000091GA1031+010509029GF103991031011012501001001MD1310091+9999REMSYN076AAXX  28124 17202 32670 33307 10036 21102 30219 40259 53009 83100 333 83835;EQDQ01+102193APOSP Q02  00002PRCP99
0143172020999992000022815004+38600+039280FM-12+0882LTCA V0203501N004112200019N0200001N1+00201-01041102581ADDGA1001+999999999GF100991001001999999001001MA1999999092201MD1110011+9999REMSYN060AAXX  28154 17202 42970 03508 10020 21104 39220 40258 51001;
0196172020999992000022818004+38600+039280FM-12+0882LTCA V0200401N002112200019N0200001N1-00121-01641102601ADDAA199000091GA1001+999999999GF100991001001999999001001KA1999M+00441MA1999999092281MD1310081+9999REMSYN070AAXX  28184 17202 32970 00404 11012 21164 39228 40260 53008 333 10044;EQDQ01  00002PRCP99
0143172020999992000022821004+38600+039280FM-12+0882LTCA V0202901N001512200019N0200001N1-00621-01561102851ADDGA1001+999999999GF100991001001999999001001MA1999999092381MD1210101+9999REMSYN060AAXX  28214 17202 42970 02903 11062 21156 39238 40285 52010;
0173172020999992000022900004+38600+039280FM-12+0882LTCA V0202301N002112200019N0200001N1-00641-01381102781ADDAA199000091GA1001+999999999GF100991001001999999001001MA1999999092381MD1410001+9999REMSYN060AAXX  29004 17202 32970 02304 11064 21138 39238 40278 54000;EQDQ01  00002PRCP99
0143172020999992000022903004+38600+039280FM-12+0882LTCA V0202301N001512200019N0200001N1-00901-01341102831ADDGA1001+999999999GF100991001001999999001001MA1999999092361MD1810021+9999REMSYN060AAXX  29034 17202 42970 02303 11090 21134 39236 40283 58002;
0219172020999992000022906004+38600+039280FM-12+0882LTCA V0202101N001512200019N0200001N1-00501-01081102821ADDAA199000091GA1001+999999999GF100991001001999999001001IA1149IA2999-01209KA1120N-00981MA1999999092391MD1110031+9999REMSYN075AAXX  29064 17202 32970 02103 11050 21108 3923940282 51003 333 21098 34112;EQDQ01  00002PRCP99
0143172020999992000022909004+38600+039280FM-12+0882LTCA V0209999C000012200019N0200001N1+00201-00881102941ADDGA1001+999999999GF100991001001999999001001MA1999999092501MD1110111+9999REMSYN060AAXX  29094 17202 42970 00000 10020 21088 39250 40294 51011;
0189172020999992000022912004+38600+039280FM-12+0882LTCA V0202901N001512200019N0200001N1+00401-01101102671ADDAA199000091GA1011+010509029GF101991011011012501001001MA1999999092281MD1810221+9999REMSYN076AAXX  29124 17202 32670 12903 10040 21110 39228 40267 58022 81100 333 81835;EQDQ01  00002PRCP99
0143172020999992000022915004+38600+039280FM-12+0882LTCA V0201001N003112200019N0200001N1+00281-01181102631ADDGA1001+999999999GF100991001001999999001001MA1999999092201MD1610081+9999REMSYN060AAXX  29154 17202 42970 01006 10028 21118 39220 40263 56008;
0196172020999992000022918004+38600+039280FM-12+0882LTCA V0209999C000012200019N0200001N1-00201-01321102651ADDAA199000091GA1001+999999999GF100991001001999999001001KA1999M+00521MA1999999092201MD1110021+9999REMSYN070AAXX  29184 17202 32970 00000 11020 21132 39220 40265 51002 333 10052;EQDQ01  00002PRCP99
0143172020999992000022921004+38600+039280FM-12+0882LTCA V0209999C000012200019N0200001N1-00561-01161102601ADDGA1001+999999999GF100991001001999999001001MA1999999092201MD1410001+9999REMSYN060AAXX  29214 17202 42970 00000 11056 21116 39220 40260 54000;
0143172020999992000030103004+38600+039280FM-12+0882LTCA V0209999C000012200019N0200001N1-00641-01261102451ADDGA1001+999999999GF100991001001999999001001MA1999999091981MD1610101+9999REMSYN060AAXX  01034 17202 42970 00000 11064 21126 39198 40245 56010;
0238172020999992000030106004+38600+039280FM-12+0882LTCA V0209999C00001036001CN0200001N1-00101-00831102261ADDAA199000091GA1031+010509069GF105991031051012501051001IA1149IA2999-00909KA1120N-00721MA1999999091891MD1710101+9999REMSYN094AAXX  01064 17202 32670 50000 11010 21083 39189 40226 57010 83550 333 21072 34109 83635 85360;EQDQ01  00002PRCP99
0165172020999992000030109004+38600+039280FM-12+0882LTCA V0200601N00361036001CN0200001N1+00201-00801102021ADDGA1041+010509069GF107991041051012501011001MA1999999091681MD1710211+9999REMSYN082AAXX  01094 17202 42670 70607 10020 21080 39168 40202 57021 84510 333 84635 87459;
0217172020999992000030112004+38600+039280FM-12+0882LTCA V0202201N002610105019N0200001N1+00181-00341101741ADDAA199000091GA1021+004509079GA2051+010509069GF108991061071004501021999MA1999999091421MD1710261+9999REMSYN088AAXX  01124 17202 32470 82205 10018 21034 39142 40174 57026 8672/ 333 82715 85635 88459;EQDQ01  00002PRCP99
0215172020999992000030115004+38600+039280FM-12+0882LTCA V0201901N002110090019N0060001N1+00121-00241101561ADDAY171031AY221031GA1031+004509079GA2061+009009069GF108991061071004501021999MA1999999091301MD1710121+9999MW1701REMSYN094AAXX  01154 17202 41456 81904 10012 21024 39130 40156 57012 77072 8672/ 333 83715 86630 88459;
0251172020999992000030118004+38600+039280FM-12+0882LTCA V0202601N001010090019N0060001N1+00021-00241101561ADDAA112000191AY171061AY221061GA1031+004509079GA2061+009009069GF108991061071004501021999KA1120M+00301MA1999999091301MD1410001+9999MW1701REMSYN106AAXX  01184 17202 11456 82602 10002 21024 39130 40156 54000 69922 77072 8672/ 333 10030 83715 86630 88458;
0215172020999992000030121004+38600+039280FM-12+0882LTCA V0202501N001510090019N0100001N1-00041-00201101501ADDAY171031AY221031GA1031+004509079GA2061+009009069GF108991061071004501021999MA1999999091271MD1610031+9999MW1021REMSYN094AAXX  01214 17202 41460 82503 11004 21020 39127 40150 56003 70272 8672/ 333 83715 86630 88459;
0264172020999992000030200004+38600+039280FM-12+0882LTCA V0202301N002610090019N0100001N1-00061-00221101441ADDAA106000191AL10699999AY171061AY221061GA1021+004509079GA2051+009009069GA3081+027009049GF108991061071004501021999MA1999999091221MD1710051+9999MW1011REMSYN106AAXX  02004 17202 11460 82305 11006 21022 39122 40144 57005 69911 70172 8672/ 333 82715 85630 88459 93197;
0165172020999992000030203004+38600+039280FM-12+0882LTCA V0202901N00151036001CN0100001N1-00061-00221101471ADDGA1041+010509069GF107991041051012501021001MA1999999091201MD1810021+9999REMSYN082AAXX  02034 17202 42660 72903 11006 21022 39120 40147 58002 84520 333 84635 87460;
0273172020999992000030206004+38600+039280FM-12+0882LTCA V0202301N00101036001CN0150001N1-00081-00501101671ADDAA112000391AJ199993999999999GA1031+010509069GF105991031051012501051001IA1259IA2999-00509KA1120N-00261MA1999999091401MD1310201+9999REMSYN112AAXX  02064 17202 12665 52302 11008 21050 39140 40167 53020 69932 83550 333 21026 3/105 41997 70003 83635 85360;EQDQ01  09982SNDP  
0159172020999992000030209004+38600+039280FM-12+0882LTCA V0202401N003110084019N0200001N1+00421-00721101681ADDGA1051+008409029GF105991051021008001001001MA1999999091451MD1310051+9999REMSYN076AAXX  02094 17202 42570 52406 10042 21072 39145 40168 53005 85200 333 85828;
0189172020999992000030212004+38600+039280FM-12+0882LTCA V0202701N003610084019N0200001N1+00601-00741101721ADDAA199000091GA1061+008409029GF106991061021008001001001MA1999999091511MD1110061+9999REMSYN076AAXX  02124 17202 32570 62707 10060 21074 39151 40172 51006 86200 333 86828;EQDQ01  00002PRCP99
0159172020999992000030215004+38600+039280FM-12+0882LTCA V0202801N002612200019N0200001N1+00581-00691101841ADDGA1041+009009029GF104991041021008001001001MA1999999091621MD1310111+9999REMSYN076AAXX  02154 17202 42570 42805 10058 21069 39162 40184 53011 84200 333 84830;
0196172020999992000030218004+38600+039280FM-12+0882LTCA V0209999C000012200019N0200001N1-00081-00931102211ADDAA199000091GA1001+999999999GF100991001001999999001001KA1999M+00661MA1999999091871MD1210251+9999REMSYN070AAXX  02184 17202 32970 00000 11008 21093 39187 40221 52025 333 10066;EQDQ01  00002PRCP99
0143172020999992000030221004+38600+039280FM-12+0882LTCA V0202501N002112200019N0200001N1-00301-00721102221ADDGA1001+999999999GF100991001001999999001001MA1999999091921MD1210051+9999REMSYN060AAXX  02214 17202 42970 02504 11030 21072 39192 40222 52005;
0173172020999992000030300004+38600+039280FM-12+0882LTCA V0202201N002112200019N0200001N1-00401-00781102311ADDAA199000091GA1001+999999999GF100991001001999999001001MA1999999092001MD1210081+9999REMSYN060AAXX  03004 17202 32970 02204 11040 21078 39200 40231 52008;EQDQ01  00002PRCP99
0143172020999992000030303004+38600+039280FM-12+0882LTCA V0209999C000012200019N0200001N1-00541-00861102391ADDGA1001+999999999GF100991001001999999001001MA1999999092051MD1310051+9999REMSYN060AAXX  03034 17202 42970 00000 11054 21086 39205 40239 53005;
0220172020999992000030306004+38600+039280FM-12+0882LTCA V0209999C000012200019N0200001N1-00201-00551102591ADDAA199000091GA1001+999999999GF100991001001999999001001IA1149IA2999-00809KA1120N-00641MA1999999092211MD1310161+9999REMSYN076AAXX  03064 17202 32970 00000 11020 21055 39221 40259 53016 333 21064 34108;EQDQ01  00002PRCP99
0189172020999992000030312004+38600+039280FM-12+0882LTCA V0200301N001512200019N0200001N1+00801-00601102401ADDAA199000091GA1021+010509029GF102991021011012501001001MA1999999092101MD1710161+9999REMSYN076AAXX  03124 17202 32670 20303 10080 21060 39210 40240 57016 82100 333 82835;EQDQ01  00002PRCP99
0143172020999992000030315004+38600+039280FM-12+0882LTCA V0200801N003112200019N0200001N1+00781-00701102271ADDGA1001+999999999GF100991001001999999001001MA1999999091961MD1710141+9999REMSYN060AAXX  03154 17202 42970 00806 10078 21070 39196 40227 57014;
0196172020999992000030318004+38600+039280FM-12+0882LTCA V0200601N001012200019N0200001N1+00121-00921102391ADDAA199000091GA1001+999999999GF100991001001999999001001KA1999M+00921MA1999999092051MD1210091+9999REMSYN070AAXX  03184 17202 32970 00602 10012 21092 39205 40239 52009 333 10092;EQDQ01  00002PRCP99
0143172020999992000030321004+38600+039280FM-12+0882LTCA V0203001N002112200019N0200001N1-00221-00661102371ADDGA1001+999999999GF100991001001999999001001MA1999999092051MD1410001+9999REMSYN060AAXX  03214 17202 42970 03004 11022 21066 39205 40237 54000;
0173172020999992000030400004+38600+039280FM-12+0882LTCA V0202901N001512200019N0200001N1-00301-00661102211ADDAA199000091GA1001+999999999GF100991001001999999001001MA1999999091931MD1710121+9999REMSYN060AAXX  04004 17202 32970 02903 11030 21066 39193 40221 57012;EQDQ01  00002PRCP99
0143172020999992000030403004+38600+039280FM-12+0882LTCA V0202801N001012200019N0200001N1-00221-00541102091ADDGA1001+999999999GF100991001001999999001001MA1999999091841MD1710091+9999REMSYN060AAXX  04034 17202 42970 02802 11022 21054 39184 40209 57009;
0238172020999992000030406004+38600+039280FM-12+0882LTCA V0202901N00101036001CN0150001N1-00101-00461102121ADDAA199000091GA1041+008409069GF107991041041008001071001IA1149IA2999-00509KA1120N-00441MA1999999091811MD1710031+9999REMSYN094AAXX  04064 17202 32565 72902 11010 21046 39181 40212 57003 84470 333 21044 34105 84628 87358;EQDQ01  00002PRCP99
0109172020999992000030409004+38600+039280FM-12+0882LTCA V0202401N001519999999N0060001N1+00241+99999999999ADDGF108991999999004501999999REMSYN071AAXX  04094 17202 41456 82403 10024 2102 39182 40214 51001 77022 8672/;
0280172020999992000030412004+38600+039280FM-12+0882LTCA V0209999C000010030019N0030001N1+00181-00101102071ADDAA112000591AL10699999AL29999999AY121061AY221061GA1051+003009079GA2061+009009069GA3081+024009049GF108991071071004501021999MA1999999091741MD1710081+9999MW1701REMSYN112AAXX  04124 17202 11430 80000 10018 21010 39174 40207 57008 69942 77022 8772/ 333 85710 86630 88458 93197 96010;
0215172020999992000030415004+38600+039280FM-12+0882LTCA V0209999C000010030019N0030001N1+00241-00021102001ADDAY171031AY221031GA1051+003009079GA2061+009009069GF108991061071004501021999MA1999999091701MD1610041+9999MW1101REMSYN094AAXX  04154 17202 41430 80000 10024 21002 39170 40200 56004 71072 8672/ 333 85710 86630 88458;
0261172020999992000030418004+38600+039280FM-12+0882LTCA V0209999C000010105019N0050001N1+00181-00131102111ADDAA112001091AL10600091AY171061AY221061GA1041+004509079GA2061+010509069GF107991071061004501001001KA1120M+00261MA1999999091801MD1210101+9999MW1101REMSYN106AAXX  04184 17202 11450 70000 10018 21013 39180 40211 52010 60012 71072 87600 333 10026 84715 86635 93100;
0193172020999992000030421004+38600+039280FM-12+0882LTCA V0209999C00001004201CN0060001N1+00181-00131102081ADDAY121031AY221031GA1031+005409079GF106991061061004501001001MA1999999091811MD1110011+9999MW1101REMSYN088AAXX  04214 17202 41456 60000 10018 21013 39181 40208 51001 71022 86600 333 83718 86635;
0204172020999992000030500004+38600+039280FM-12+0882LTCA V0209999C00001004201CN0050001N1+00101-00101102201ADDAA199000021AY121061AY221061GA1031+005409079GF106991061061004501001001MA1999999091901MD1110091+9999MW1101REMSYN088AAXX  05004 17202 31450 60000 10010 21010 39190 40220 51009 71022 86600 333 83718 85635;
0165172020999992000030503004+38600+039280FM-12+0882LTCA V0209999C00001036001CN0200001N1+00101-00101102191ADDGA1031+010509069GF105991031051012501051001MA1999999091921MD1410001+9999REMSYN082AAXX  05034 17202 42670 50000 10010 21010 39192 40219 54000 83550 333 83635 85360;
0225172020999992000030506004+38600+039280FM-12+0882LTCA V0209999C00001036001CN0200001N1+00181+00001102281ADDAA124001091GA1031+010509069GF105991031051012501051001IA1099IA2999+00009KA1120N+00081MA1999999092001MD1210081+9999REMSYN100AAXX  05064 17202 32670 50000 10018 21000 39200 40228 52008 83550 333 20008 31000 70010 83635 85360;
0165172020999992000030509004+38600+039280FM-12+0882LTCA V0200401N00261036001CN0200001N1+00641-00041102331ADDGA1041+010509089GF106991041021012501051001MA1999999092081MD1110081+9999REMSYN082AAXX  05094 17202 42670 60405 10064 21004 39208 40233 51008 84250 333 84835 86360;
0195172020999992000030512004+38600+039280FM-12+0882LTCA V0200401N00361036001CN0200001N1+00761-00101102261ADDAA199000091GA1041+010509089GF106991041021012501051001MA1999999092011MD1610071+9999REMSYN082AAXX  05124 17202 32670 60407 10076 21010 39201 40226 56007 84250 333 84835 86360;EQDQ01  00002PRCP99
0159172020999992000030515004+38600+039280FM-12+0882LTCA V0200801N003612200019N0200001N1+00741-00301102131ADDGA1031+010509029GF103991031011012501001001MA1999999091901MD1610111+9999REMSYN076AAXX  05154 17202 42670 30807 10074 21030 39190 40213 56011 83100 333 83835;
0196172020999992000030518004+38600+039280FM-12+0882LTCA V0209999C000012200019N0200001N1+00201-00621102201ADDAA199000091GA1001+999999999GF100991001001999999001001KA1999M+00901MA1999999091921MD1310021+9999REMSYN070AAXX  05184 17202 32970 00000 10020 21062 39192 40220 53002 333 10090;EQDQ01  00002PRCP99
0143172020999992000030521004+38600+039280FM-12+0882LTCA V0203201N001512200019N0200001N1-00081-00501102181ADDGA1001+999999999GF100991001001999999001001MA1999999091901MD1810021+9999REMSYN060AAXX  05214 17202 42970 03203 11008 21050 39190 40218 58002;
0173172020999992000030600004+38600+039280FM-12+0882LTCA V0203501N001512200019N0200001N1+00061-00201102021ADDAA199000091GA1001+999999999GF100991001001999999001001MA1999999091801MD1810101+9999REMSYN060AAXX  06004 17202 32970 03503 10006 21020 39180 40202 58010;EQDQ01  00002PRCP99
0165172020999992000030603004+38600+039280FM-12+0882LTCA V0209999C000012200019N0200001N1-00041-00291101891ADDGA1021+010509069GF104991021051012501051001MA1999999091661MD1710141+9999REMSYN082AAXX  06034 17202 42670 40000 11004 21029 39166 40189 57014 82550 333 82635 84360;
0238172020999992000030606004+38600+039280FM-12+0882LTCA V0209999C00001036001CN0200001N1+00201-00141101841ADDAA199000091GA1041+010509069GF106991041051012501051001IA1099IA2999-00209KA1120N-00061MA1999999091601MD1610061+9999REMSYN094AAXX  06064 17202 32670 60000 10020 21014 39160 40184 56006 84550 333 21006 31102 84635 86360;EQDQ01  00002PRCP99
0165172020999992000030609004+38600+039280FM-12+0882LTCA V0201001N001010090019N0150001N1+00561-00201101661ADDGA1051+009009069GF107991051041008001071001MA1999999091431MD1810171+9999REMSYN082AAXX  06094 17202 42565 71002 10056 21020 39143 40166 58017 85470 333 85630 87458;
0217172020999992000030612004+38600+039280FM-12+0882LTCA V0200901N003610090019N0150001N1+00921-00281101331ADDAA199000091GA1011+005409079GA2051+009009069GF107991061071004501021001MA1999999091201MD1710231+9999REMSYN088AAXX  06124 17202 32465 70907 10092 21028 39120 40133 57023 86720 333 81718 85630 87458;EQDQ01  00002PRCP99
0215172020999992000030615004+38600+039280FM-12+0882LTCA V0200201N001510045019N0100001N1+00721-00161101211ADDAY121031AY221031GA1051+004509079GA2061+009009069GF108991071071004501999999MA1999999091051MD1710151+9999MW1601REMSYN094AAXX  06154 17202 41460 80203 10072 21016 39105 40121 57015 76022 877// 333 85715 86630 88458;
0251172020999992000030618004+38600+039280FM-12+0882LTCA V0200801N002610045019N0100001N1+00601+00161101111ADDAA112001091AY161061AY221061GA1051+004509079GA2061+009009069GF108991071071004501021999KA1120M+00941MA1999999090981MD1710071+9999MW1211REMSYN106AAXX  06184 17202 11460 80805 10060 20016 39098 40111 57007 60012 72162 8772/ 333 10094 85715 86630 88458;
0187172020999992000030621004+38600+039280FM-12+0882LTCA V0200801N002610090019N0200001N1+00561+00121100831ADDGA1031+004509079GA2061+009009069GF108991071071004501021999MA1999999090771MD1710211+9999REMSYN088AAXX  06214 17202 42470 80805 10056 20012 39077 40083 57021 8772/ 333 83715 86630 88459;
0308172020999992000030700004+38600+039280FM-12+0882LTCA V0209999C000010099019N0006001N1+00051-00021999999ADDAA106024991AL10601991AY171061AY271061GA1021+003909079GA2051+009909069GA3081+021009049GF108991071071004501021999MA1999999999999MD1710221+9999ME1314589MW1731REMSYN106AAXX  07004 17202 11406 80000 10005 21002 38800 48458 57022 60251 77377 8772/ 333 82713 85633 88457 93119;EQDQ01+088003APOSP Q02 088003APOSP 
0336172020999992000030706004+38600+039280FM-12+0882LTCA V0202401N002110030019N0060001N1+00001-00161100711ADDAA112008991AJ100179199999999AL10601791AY121061AY221061GA1051+003009079GA2061+009009069GA3081+027009049GF108991071071004501021999IA1279IA2999-00109KA1120N-00041MA1999999090601MD1410001+9999MW1701REMSYN130AAXX  07064 17202 11456 82404 10000 21016 39060 40071 54000 60092 77022 8772/ 333 21004 3/101 43017 70094 85710 86630 88459 93117;
0215172020999992000030709004+38600+039280FM-12+0882LTCA V0209999C000010036019N0060001N1+00101-00161100731ADDAY171031AY221031GA1051+003609079GA2061+009009069GF108991071071004501021999MA1999999090621MD1110021+9999MW1701REMSYN094AAXX  07094 17202 41456 80000 10010 21016 39062 40073 51002 77072 8772/ 333 85712 86630 88459;
0270172020999992000030712004+38600+039280FM-12+0882LTCA V0202801N004110030019N0040001N1-00101-00281100761ADDAA106003091AL19900191AY171061AY221061GA1051+003009079GA2061+009009069GA3081+024009049GF108991071071004501021999MA1999999090631MD1010011+9999MW1701REMSYN112AAXX  07124 17202 11440 82808 11010 21028 39063 40076 50001 60031 77072 8772/ 333 85710 86630 88458 93101 96010;
0237172020999992000030715004+38600+039280FM-12+0882LTCA V0202801N003610030019N0040001N1-00181-00341100841ADDAY171031AY271031GA1051+003009079GA2061+009009069GA3081+024009049GF108991071071004501021999MA1999999090661MD1110031+9999MW1711REMSYN100AAXX  07154 17202 41440 82807 11018 21034 39066 40084 51003 77177 8772/ 333 85710 86630 88458 96010;
0289172020999992000030718004+38600+039280FM-12+0882LTCA V0203001N002110030019N0025001N1-00241-00321100861ADDAA112007191AL19900591AY171061AY271061GA1051+003009079GA2061+008409069GA3081+024009049GF108991071071004501021999KA1120M+00141MA1999999090691MD1310031+9999MW1711REMSYN118AAXX  07184 17202 11425 83004 11024 21032 39069 40086 53003 60072 77177 8772/ 333 10014 85710 86628 88458 93105 96010;
0215172020999992000030721004+38600+039280FM-12+0882LTCA V0203001N003610030019N0030001N1-00241-00321100911ADDAY171031AY271031GA1051+003009079GA2061+008409069GF108991071071004501021999MA1999999090701MD1110011+9999MW1711REMSYN094AAXX  07214 17202 41430 83007 11024 21032 39070 40091 51001 77177 8772/ 333 85710 86628 88458;
0242172020999992000030800004+38600+039280FM-12+0882LTCA V0203001N005710090019N0150001N1-00341-00681100861ADDAA106003091AL10600391AY171061AY271061GA1061+009009069GA2071+024009039GF107991061051008001071001MA1999999090631MD1710071+9999MW1221REMSYN100AAXX  08004 17202 11565 73011 11034 21068 39063 40086 57007 60031 72277 86570 333 86630 87358 93103;
0165172020999992000030803004+38600+039280FM-12+0882LTCA V0202501N004110090019N0150001N1-00381-00761100931ADDGA1061+009009069GF107991061051008001071001MA1999999090721MD1310091+9999REMSYN082AAXX  08034 17202 42565 72508 11038 21076 39072 40093 53009 86570 333 86630 87358;
0336172020999992000030806004+38600+039280FM-12+0882LTCA V0202501N006210084019N0040001N1-00401-00781101361ADDAA112004191AJ100229199999999AL10699999AY121061AY221061GA1041+004509079GA2061+008409069GA3081+024009049GF108991071071004501021999IA1279IA2999-00609KA1120N-00421MA1999999091061MD1210341+9999MW1701REMSYN130AAXX  08064 17202 11440 82512 11040 21078 39106 40136 52034 60042 77022 8772/ 333 21042 3/106 43022 70110 84715 86628 88458 93197;
0215172020999992000030809004+38600+039280FM-12+0882LTCA V0202401N004610090019N0070001N1-00201-00721101691ADDAY171031AY221031GA1041+004509079GA2051+009009069GF107991061071004501021001MA1999999091381MD1210321+9999MW1101REMSYN094AAXX  08094 17202 41457 72409 11020 21072 39138 40169 52032 71072 86720 333 84715 85630 87459;
0159172020999992000030815004+38600+039280FM-12+0882LTCA V0202301N005112200019N0200001N1-00101-00861101831ADDGA1021+010509059GF102991021051012501001001MA1999999091501MD1310101+9999REMSYN076AAXX  08154 17202 42670 22310 11010 21086 39150 40183 53010 82500 333 82635;
0183172020999992000030818004+38600+039280FM-12+0882LTCA V0202301N003612200019N0200001N1-00441-01061102121ADDAA112000391GA1001+999999999GF100991001001999999001001KA1999M+00041MA1999999091721MD1210221+9999REMSYN076AAXX  08184 17202 12970 02307 11044 21106 39172 40212 52022 69932 333 10004;
0143172020999992000030821004+38600+039280FM-12+0882LTCA V0202801N001512200019N0200001N1-00801-01381102231ADDGA1001+999999999GF100991001001999999001001MA1999999091801MD1210081+9999REMSYN060AAXX  08214 17202 42970 02803 11080 21138 39180 40223 52008;
0173172020999992000030900004+38600+039280FM-12+0882LTCA V0203001N002112200019N0200001N1-00841-01321102271ADDAA199000091GA1001+999999999GF100991001001999999001001MA1999999091861MD1210061+9999REMSYN060AAXX  09004 17202 32970 03004 11084 21132 39186 40227 52006;EQDQ01  00002PRCP99
0142172020999992000030903004+38600+039280FM-12+0882LTCA V0203001N003112200019N0200001N1-01021-01521102381ADDGA1001+999999999GF100991001001999999001001MA1999999091911MD1210051+9999REMSYN059AAXX  09034 17202 42970 03006 11102 21152 39191 4023852005;
0230172020999992000030906004+38600+039280FM-12+0882LTCA V0202301N002112200019N0200001N1-00861-01601102591ADDAA124000391AJ100189199999999GA1001+999999999GF100991001001999999001001IA1279IA2999-01309KA1120N-01161MA1999999092101MD1210191+9999REMSYN088AAXX  09064 17202 32970 02304 11086 21160 39210 40259 52019 333 21116 3/113 43018 70003;
0143172020999992000030909004+38600+039280FM-12+0882LTCA V0209999C000012200019N0200001N1+00001-00981102611ADDGA1001+999999999GF100991001001999999001001MA1999999092161MD1110061+9999REMSYN060AAXX  09094 17202 42970 00000 10000 21098 39216 40261 51006;
0173172020999992000030912004+38600+039280FM-12+0882LTCA V0200901N003112200019N0200001N1-00141-00981102511ADDAA199000091GA1001+999999999GF100991001001999999001001MA1999999092051MD1710111+9999REMSYN060AAXX  09124 17202 32970 00906 11014 21098 39205 40251 57011;EQDQ01  00002PRCP99
0143172020999992000030915004+38600+039280FM-12+0882LTCA V0209999C000012200019N0200001N1-00141-00981102541ADDGA1001+999999999GF100991001001999999001001MA1999999092051MD1410001+9999REMSYN060AAXX  09154 17202 42970 00000 11014 21098 39205 40254 54000;
0196172020999992000030918004+38600+039280FM-12+0882LTCA V0202401N001012200019N0200001N1-00501-01141102541ADDAA199000091GA1001+999999999GF100991001001999999001001KA1999M+00021MA1999999092031MD1610021+9999REMSYN070AAXX  09184 17202 32970 02402 11050 21114 39203 40254 56002 333 10002;EQDQ01  00002PRCP99
0143172020999992000030921004+38600+039280FM-12+0882LTCA V0202301N002112200019N0200001N1-00761-01261102441ADDGA1001+999999999GF100991001001999999001001MA1999999092011MD1810021+9999REMSYN060AAXX  09214 17202 42970 02304 11076 21126 39201 40244 58002;
0173172020999992000031000004+38600+039280FM-12+0882LTCA V0202401N001012200019N0200001N1-00921-01381102431ADDAA199000091GA1001+999999999GF100991001001999999001001MA1999999091981MD1610031+9999REMSYN060AAXX  10004 17202 32970 02402 11092 21138 39198 40243 56003;EQDQ01  00002PRCP99
0143172020999992000031003004+38600+039280FM-12+0882LTCA V0201301N001512200019N0200001N1-01001-01401102421ADDGA1001+999999999GF100991001001999999001001MA1999999091951MD1810021+9999REMSYN060AAXX  10034 17202 42970 01303 11100 21140 39195 40242 58002;
0261172020999992000031006004+38600+039280FM-12+0882LTCA V0202401N002112200019N0200001N1-00801-01141102441ADDAA199000091AJ100129199999999GA1011+010509069GF103991011051012501051001IA1279IA2999-01209KA1120N-01041MA1999999091971MD1310021+9999REMSYN100AAXX  10064 17202 32670 32404 11080 21114 39197 40244 53002 81550 333 21104 3/112 43012 81635 83360;EQDQ01  00002PRCP99
0165172020999992000031009004+38600+039280FM-12+0882LTCA V0201601N001512200019N0200001N1-00121-00921102351ADDGA1011+010509069GF103991011051012501051001MA1999999091931MD1810041+9999REMSYN082AAXX  10094 17202 42670 31603 11012 21092 39193 40235 58004 81550 333 81635 83360;
0217172020999992000031012004+38600+039280FM-12+0882LTCA V0201801N00101036001CN0150001N1+00081-01191102301ADDAA199000091GA1011+004509079GA2041+009009069GF105991041061004501051001MA1999999091881MD1810051+9999REMSYN088AAXX  10124 17202 32465 51802 10008 21119 39188 40230 58005 84650 333 81715 84630 85360;EQDQ01  00002PRCP99
0187172020999992000031015004+38600+039280FM-12+0882LTCA V0209999C000010090019N0150001N1+00041-00931102281ADDGA1011+004509079GA2051+009009069GF106991051061004501051001MA1999999091841MD1510041+9999REMSYN088AAXX  10154 17202 42465 60000 10004 21093 39184 40228 55004 85650 333 81715 85630 85360;
0236172020999992000031018004+38600+039280FM-12+0882LTCA V0209999C000010090019N0150001N1-00041-00581102211ADDAA199000091GA1031+004509079GA2051+009009069GF107991061071004501051001KA1120M+00221MA1999999091811MD1810031+9999REMSYN094AAXX  10184 17202 32465 70000 11004 21058 39181 40221 58003 86750 333 10022 83715 85630 87359;EQDQ01  00002PRCP99
0165172020999992000031021004+38600+039280FM-12+0882LTCA V0209999C00001036001CN0200001N1-00381-00821102171ADDGA1041+010509069GF105991041051012501051001MA1999999091791MD1810021+9999REMSYN082AAXX  10214 17202 42670 50000 11038 21082 39179 40217 58002 84550 333 84635 85360;
0195172020999992000031100004+38600+039280FM-12+0882LTCA V0202701N00101036001CN0200001N1-00261-00561102001ADDAA199000091GA1041+010509069GF106991041051012501051001MA1999999091681MD1710111+9999REMSYN082AAXX  11004 17202 32670 62702 11026 21056 39168 40200 57011 84550 333 84635 86360;EQDQ01  00002PRCP99
0165172020999992000031103004+38600+039280FM-12+0882LTCA V0209999C00001036001CN0100001N1-00141-00391101801ADDGA1041+010509069GF107991041051012501051001MA1999999091501MD1710181+9999REMSYN082AAXX  11034 17202 42660 70000 11014 21039 39150 40180 57018 84550 333 84635 86360;
0261172020999992000031106004+38600+039280FM-12+0882LTCA V0209999C00001036001CN0200001N1-00021-00321101711ADDAA199000091AJ100109199999999GA1041+010509069GF107991041051012501051001IA1279IA2999-00509KA1120N-00441MA1999999091441MD1610061+9999REMSYN100AAXX  11064 17202 32670 70000 11002 21032 39144 40171 56006 84550 333 21044 3/105 43010 84635 86360;EQDQ01  00002PRCP99
0165172020999992000031109004+38600+039280FM-12+0882LTCA V0209999C00001036001CN0200001N1+00441-00131101441ADDGA1041+010509069GF107991041051012501051001MA1999999091201MD1710241+9999REMSYN082AAXX  11094 17202 42670 70000 10044 21013 39120 40144 57024 84550 333 84635 87360;
0217172020999992000031112004+38600+039280FM-12+0882LTCA V0202701N004110105019N0150001N1+00541-00061101321ADDAA199000091GA1021+004509079GA2041+010509069GF108991051071004501021999MA1999999091111MD1610091+9999REMSYN088AAXX  11124 17202 32465 82708 10054 21006 39111 40132 56009 8572/ 333 82715 84635 88460;EQDQ01  00002PRCP99
0215172020999992000031115004+38600+039280FM-12+0882LTCA V0202301N005710090019N0100001N1+00201-00201101591ADDAY161031AY221031GA1021+004509079GA2051+009009069GF108991051071004501021999MA1999999091331MD1210221+9999MW1211REMSYN094AAXX  11154 17202 41460 82311 10020 21020 39133 40159 52022 72162 8572/ 333 82715 85630 88458;
0229172020999992000031118004+38600+039280FM-12+0882LTCA V0202701N003110090019N0200001N1+00261-00301101741ADDAA112000891AY161061AY221061GA1051+009009069GF106991051051008001051001KA1120M+00701MA1999999091491MD1210161+9999MW1011REMSYN100AAXX  11184 17202 11570 62706 10026 21030 39149 40174 52016 69972 70162 85550 333 10070 85630 86358;
0159172020999992000031121004+38600+039280FM-12+0882LTCA V0202101N002110090019N0200001N1+00101-00601101771ADDGA1051+009009059GF105991051051008001001001MA1999999091561MD1210071+9999REMSYN076AAXX  11214 17202 42570 52104 10010 21060 39156 40177 52007 85500 333 85630;
0170172020999992000031200004+38600+039280FM-12+0882LTCA V0202701N003612200019N0200001N1-00061-00881101821ADDAA199000021GA1031+010509059GF103991031051012501001001MA1999999091581MD1310021+9999REMSYN076AAXX  12004 17202 32670 32707 11006 21088 39158 40182 53002 83500 333 83635;
0143172020999992000031203004+38600+039280FM-12+0882LTCA V0202401N001012200019N0200001N1-00301-01021101851ADDGA1001+999999999GF100991001001999999001001MA1999999091561MD1610021+9999REMSYN060AAXX  12034 17202 42970 02402 11030 21102 39156 40185 56002;
0242172020999992000031206004+38600+039280FM-12+0882LTCA V0203601N001012200019N0200001N1-00061-00841102001ADDAA124000891AJ100039199999999GA1021+010509059GF102991021051012501001001IA1309IA2999-00609KA1120N-00421MA1999999091681MD1210121+9999REMSYN100AAXX  12064 17202 32670 23602 11006 21084 39168 40200 52012 82500 333 21042 3/106 42003 70007 82635;
0159172020999992000031209004+38600+039280FM-12+0882LTCA V0202801N004112200019N0200001N1+00321-00661102061ADDGA1021+010509029GF102991021011012501001001MA1999999091791MD1210111+9999REMSYN076AAXX  12094 17202 42670 22808 10032 21066 39179 40206 52011 82100 333 82835;
0189172020999992000031212004+38600+039280FM-12+0882LTCA V0203201N003612200019N0200001N1+00561-00801101961ADDAA199000091GA1021+010509029GF102991021011012501001001MA1999999091701MD1810091+9999REMSYN076AAXX  12124 17202 32670 23207 10056 21080 39170 40196 58009 82100 333 82835;EQDQ01  00002PRCP99
0143172020999992000031215004+38600+039280FM-12+0882LTCA V0200501N001512200019N0200001N1+00561-00961101961ADDGA1001+999999999GF100991001001999999001001MA1999999091681MD1810021+9999REMSYN060AAXX  12154 17202 42970 00503 10056 21096 39168 40196 58002;
0196172020999992000031218004+38600+039280FM-12+0882LTCA V0200501N003112200019N0200001N1+00241-00781101981ADDAA199000091GA1001+999999999GF100991001001999999001001KA1999M+00741MA1999999091701MD1310021+9999REMSYN070AAXX  12184 17202 32970 00506 10024 21078 39170 40198 53002 333 10074;EQDQ01  00002PRCP99
0143172020999992000031221004+38600+039280FM-12+0882LTCA V0209999C000012200019N0200001N1-00061-00741101981ADDGA1001+999999999GF100991001001999999001001MA1999999091701MD1410001+9999REMSYN060AAXX  12214 17202 42970 00000 11006 21074 39170 40198 54000;
0173172020999992000031300004+38600+039280FM-12+0882LTCA V0209999C000012200019N0200001N1-00201-00741101951ADDAA199000091GA1001+999999999GF100991001001999999001001MA1999999091701MD1410001+9999REMSYN060AAXX  13004 17202 32970 00000 11020 21074 39170 40195 54000;EQDQ01  00002PRCP99
0143172020999992000031303004+38600+039280FM-12+0882LTCA V0202801N001512200019N0200001N1-00381-00781101961ADDGA1001+999999999GF100991001001999999001001MA1999999091681MD1810021+9999REMSYN060AAXX  13034 17202 42970 02803 11038 21078 39168 40196 58002;
0237172020999992000031306004+38600+039280FM-12+0882LTCA V0201401N001012200019N0200001N1-00061-00741101991ADDAA199000091AJ100029199999999GA1001+999999999GF100991001001999999001001IA2999-00609KA1120N-00481MA1999999091711MD1310031+9999REMSYN082AAXX  13064 17202 32970 01402 11006 21074 39171 40199 53003 333 21048 3/106 42002;EQDQ01  00002PRCP99
0165172020999992000031309004+38600+039280FM-12+0882LTCA V0201501N001012200019N0200001N1+00541-00601101961ADDGA1021+010509089GF103991021011012501051001MA1999999091701MD1810011+9999REMSYN082AAXX  13094 17202 42670 31502 10054 21060 39170 40196 58001 82150 333 82835 83360;
0189172020999992000031312004+38600+039280FM-12+0882LTCA V0203001N004112200019N0200001N1+00901-00601101691ADDAA199000091GA1041+010509029GF104991041021012501001001MA1999999091501MD1710201+9999REMSYN076AAXX  13124 17202 32670 43008 10090 21060 39150 40169 57020 84200 333 84835;EQDQ01  00002PRCP99
0159172020999992000031315004+38600+039280FM-12+0882LTCA V0203101N004112200019N0200001N1+00821-00641101711ADDGA1031+010509029GF103991031021012501001001MA1999999091481MD1610021+9999REMSYN076AAXX  13154 17202 42670 33108 10082 21064 39148 40171 56002 83200 333 83835;
0196172020999992000031318004+38600+039280FM-12+0882LTCA V0202701N004112200019N0200001N1+00321-00661101821ADDAA199000091GA1001+999999999GF100991001001999999001001KA1999M+01061MA1999999091561MD1110081+9999REMSYN070AAXX  13184 17202 32970 02708 10032 21066 39156 40182 51008 333 10106;EQDQ01  00002PRCP99
0143172020999992000031321004+38600+039280FM-12+0882LTCA V0202501N004612200019N0200001N1+00101-00661101891ADDGA1001+999999999GF100991001001999999001001MA1999999091661MD1210101+9999REMSYN060AAXX  13214 17202 42970 02509 10010 21066 39166 40189 52010;
0173172020999992000031400004+38600+039280FM-12+0882LTCA V0202701N004612200019N0200001N1+00061-00721101891ADDAA199000091GA1001+999999999GF100991001001999999001001MA1999999091701MD1210041+9999REMSYN060AAXX  14004 17202 32970 02709 10006 21072 39170 40189 52004;EQDQ01  00002PRCP99
0143172020999992000031403004+38600+039280FM-12+0882LTCA V0202701N004112200019N0200001N1-00101-00961101911ADDGA1001+999999999GF100991001001999999001001MA1999999091701MD1510001+9999REMSYN060AAXX  14034 17202 42970 02708 11010 21096 39170 40191 55000;
0220172020999992000031406004+38600+039280FM-12+0882LTCA V0202901N007712200019N0200001N1+00001-00981102021ADDAA199000091GA1001+999999999GF100991001001999999001001IA1099IA2999-00309KA1120N-00121MA1999999091761MD1310061+9999REMSYN076AAXX  14064 17202 32970 02915 10000 21098 39176 40202 53006 333 21012 31103;EQDQ01  00002PRCP99
0159172020999992000031409004+38600+039280FM-12+0882LTCA V0203001N007712200019N0200001N1+00441-01481102151ADDGA1021+009009029GF102991021011008001001001MA1999999091901MD1210141+9999REMSYN076AAXX  14094 17202 42570 23015 10044 21148 39190 40215 52014 82100 333 82830;
0189172020999992000031412004+38600+039280FM-12+0882LTCA V0202701N008212200019N0200001N1+00561-01421101991ADDAA199000091GA1021+009009029GF102991021011008001001001MA1999999091811MD1610091+9999REMSYN076AAXX  14124 17202 32570 22716 10056 21142 39181 40199 56009 82100 333 82830;EQDQ01  00002PRCP99
0159172020999992000031415004+38600+039280FM-12+0882LTCA V0202701N006212200019N0200001N1+00401-01761102071ADDGA1021+009009029GF102991021011008001001001MA1999999091801MD1610011+9999REMSYN076AAXX  14154 17202 42570 22712 10040 21176 39180 40207 56001 82100 333 82830;
0196172020999992000031418004+38600+039280FM-12+0882LTCA V0202801N003112200019N0200001N1-00081-01421102251ADDAA199000091GA1001+999999999GF100991001001999999001001KA1999M+00581MA1999999091921MD1210121+9999REMSYN070AAXX  14184 17202 32970 02806 11008 21142 39192 40225 52012 333 10058;EQDQ01  00002PRCP99
0173172020999992000031421004+38600+039280FM-12+0882LTCA V0201801N002112200019N0200001N1-00201-01341102371ADDAA199000091GA1001+999999999GF100991001001999999001001MA1999999092051MD1210131+9999REMSYN060AAXX  14214 17202 32970 01804 11020 21134 39205 40237 52013;EQDQ01  00002PRCP99
0173172020999992000031500004+38600+039280FM-12+0882LTCA V0202801N001512200019N0200001N1-00461-01281102381ADDAA199000091GA1001+999999999GF100991001001999999001001MA1999999092061MD1110011+9999REMSYN060AAXX  15004 17202 32970 02803 11046 21128 39206 40238 51001;EQDQ01  00002PRCP99
0143172020999992000031503004+38600+039280FM-12+0882LTCA V0202901N002112200019N0200001N1-00661-01081102371ADDGA1001+999999999GF100991001001999999001001MA1999999092011MD1610011+9999REMSYN060AAXX  15034 17202 42970 02904 11066 21108 39201 40237 56001;
0220172020999992000031506004+38600+039280FM-12+0882LTCA V0200801N001012200019N0200001N1-00141-00861102481ADDAA199000091GA1001+999999999GF100991001001999999001001IA1149IA2999-01109KA1120N-00901MA1999999092111MD1210101+9999REMSYN076AAXX  15064 17202 32970 00802 11014 21086 39211 40248 52010 333 21090 34111;EQDQ01  00002PRCP99
0159172020999992000031509004+38600+039280FM-12+0882LTCA V0200201N002112200019N0200001N1+00201-00901102501ADDGA1011+012009029GF101991011011012501001001MA1999999092151MD1210041+9999REMSYN076AAXX  15094 17202 42670 10204 10020 21090 39215 40250 52004 81100 333 81840;
0173172020999992000031512004+38600+039280FM-12+0882LTCA V0201101N004112200019N0200001N1+00521-01341102321ADDAA199000091GA1001+999999999GF100991001001999999001001MA1999999091991MD1710161+9999REMSYN060AAXX  15124 17202 32970 01108 10052 21134 39199 40232 57016;EQDQ01  00002PRCP99
0196172020999992000031518004+38600+039280FM-12+0882LTCA V0203101N001012200019N0200001N1-00021-01561102331ADDAA199000091GA1001+999999999GF100991001001999999001001KA1999M+00561MA1999999091971MD1210051+9999REMSYN070AAXX  15184 17202 32970 03102 11002 21156 39197 40233 52005 333 10056;EQDQ01  00002PRCP99
0143172020999992000031521004+38600+039280FM-12+0882LTCA V0203001N001012200019N0200001N1-00461-01281102341ADDGA1001+999999999GF100991001001999999001001MA1999999091991MD1110021+9999REMSYN060AAXX  15214 17202 42970 03002 11046 21128 39199 40234 51002;
0173172020999992000031600004+38600+039280FM-12+0882LTCA V0200201N001012200019N0200001N1-00521-01021102411ADDAA199000091GA1001+999999999GF100991001001999999001001MA1999999092071MD1210081+9999REMSYN060AAXX  16004 17202 32970 00202 11052 21102 39207 40241 52008;EQDQ01  00002PRCP99
0143172020999992000031603004+38600+039280FM-12+0882LTCA V0202701N001512200019N0200001N1-00721-01041102401ADDGA1001+999999999GF100991001001999999001001MA1999999092021MD1710051+9999REMSYN060AAXX  16034 17202 42970 02703 11072 21104 39202 40240 57005;
0220172020999992000031606004+38600+039280FM-12+0882LTCA V0201101N002112200019N0200001N1-00101-00761102471ADDAA199000091GA1001+999999999GF100991001001999999001001IA1149IA2999-01009KA1120N-00841MA1999999092121MD1210101+9999REMSYN076AAXX  16064 17202 32970 01104 11010 21076 39212 40247 52010 333 21084 34110;EQDQ01  00002PRCP99
0159172020999992000031609004+38600+039280FM-12+0882LTCA V0200701N003112200019N0200001N1+00421-00801102391ADDGA1021+010509029GF102991021011012501001001MA1999999092051MD1810071+9999REMSYN076AAXX  16094 17202 42670 20706 10042 21080 39205 40239 58007 82100 333 82835;
0189172020999992000031612004+38600+039280FM-12+0882LTCA V0200801N003612200019N0200001N1+00821-00641102111ADDAA199000091GA1021+010509029GF102991021011012501001001MA1999999091841MD1710111+9999REMSYN076AAXX  16124 17202 32670 20807 10082 21064 39184 40211 57011 82100 333 82835;EQDQ01  00002PRCP99
0143172020999992000031615004+38600+039280FM-12+0882LTCA V0200801N004112200019N0200001N1+00901-00601101981ADDGA1001+999999999GF100991001001999999001001MA1999999091701MD1710141+9999REMSYN060AAXX  16154 17202 42970 00808 10090 21060 39170 40198 57014;
0196172020999992000031618004+38600+039280FM-12+0882LTCA V0200701N002612200019N0200001N1+00301-00861102021ADDAA199000091GA1001+999999999GF100991001001999999001001KA1999M+00961MA1999999091741MD1310041+9999REMSYN070AAXX  16184 17202 32970 00705 10030 21086 39174 40202 53004 333 10096;EQDQ01  00002PRCP99
0143172020999992000031621004+38600+039280FM-12+0882LTCA V0202401N002112200019N0200001N1-00041-00881102071ADDGA1001+999999999GF100991001001999999001001MA1999999091811MD1210071+9999REMSYN060AAXX  16214 17202 42970 02404 11004 21088 39181 40207 52007;
0173172020999992000031700004+38600+039280FM-12+0882LTCA V0209999C000012200019N0200001N1-00201-00881102051ADDAA199000091GA1001+999999999GF100991001001999999001001MA1999999091811MD1410001+9999REMSYN060AAXX  17004 17202 32970 00000 11020 21088 39181 40205 54000;EQDQ01  00002PRCP99
0143172020999992000031703004+38600+039280FM-12+0882LTCA V0209999C000012200019N0200001N1-00521-01021102041ADDGA1001+999999999GF100991001001999999001001MA1999999091781MD1710031+9999REMSYN060AAXX  17034 17202 42970 00000 11052 21102 39178 40204 57003;
0220172020999992000031706004+38600+039280FM-12+0882LTCA V0201301N001512200019N0200001N1-00101-00761102071ADDAA199000091GA1001+999999999GF100991001001999999001001IA1149IA2999-00809KA1120N-00721MA1999999091781MD1410001+9999REMSYN076AAXX  17064 17202 32970 01303 11010 21076 39178 40207 54000 333 21072 34108;EQDQ01  00002PRCP99
0165172020999992000031709004+38600+039280FM-12+0882LTCA V0200801N00411220001CN0200001N1+00701-00571101821ADDGA1031+010509089GF105991031021012501001011MA1999999091601MD1710181+9999REMSYN082AAXX  17094 17202 42670 50808 10070 21057 39160 40182 57018 83201 333 83835 85070;
0217172020999992000031712004+38600+039280FM-12+0882LTCA V0200901N004110300019N0200001N1+01221-00301101441ADDAA199000091GA1031+010509089GA2051+030009039GF106991031021012501051011MA1999999091301MD1710301+9999REMSYN088AAXX  17124 17202 32670 60908 10122 21030 39130 40144 57030 83251 333 83835 85360 86070;EQDQ01  00002PRCP99
0165172020999992000031715004+38600+039280FM-12+0882LTCA V0200801N00411036001CN0200001N1+00961-00481101381ADDGA1031+010509069GF105991031051012501051001MA1999999091181MD1710121+9999REMSYN082AAXX  17154 17202 42670 50808 10096 21048 39118 40138 57012 83550 333 83635 85360;
0214172020999992000031718004+38600+039280FM-12+0882LTCA V0200601N00361036001CN0200001N1+00621-00761101311ADDAA199000091GA1031+010509069GF105991031051012501051001KA1120M+01261MA1999999091141MD1610041+9999REMSYN088AAXX  17184 17202 32670 50607 10062 21076 39114 40131 56004 83550 333 10126 83635 85360;EQDQ01  00002PRCP99
0165172020999992000031721004+38600+039280FM-12+0882LTCA V0200601N00411036001CN0200001N1+00361-00591101221ADDGA1031+010509069GF105991031051012501051001MA1999999091101MD1610041+9999REMSYN082AAXX  17214 17202 42670 50608 10036 21059 39110 40122 56004 83550 333 83635 85360;
0195172020999992000031800004+38600+039280FM-12+0882LTCA V0200701N00411036001CN0200001N1+00361-00481101001ADDAA199000091GA1031+010509069GF106991031051012501051001MA1999999090961MD1710141+9999REMSYN082AAXX  18004 17202 32670 60708 10036 21048 39096 40100 57014 83550 333 83635 86360;EQDQ01  00002PRCP99
0165172020999992000031803004+38600+039280FM-12+0882LTCA V0200901N00411036001CN0200001N1+00421-00381100821ADDGA1041+010509069GF107991041051012501051001MA1999999090821MD1710141+9999REMSYN082AAXX  18034 17202 42670 70908 10042 21038 39082 40082 57014 84550 333 84635 87360;
0281172020999992000031806004+38600+039280FM-12+0882LTCA V0201001N004610090019N0070001N1+00741+00241100741ADDAA112000591AY121061AY221061GA1031+003609079GA2051+009009069GF108991061071004501021999IA1119IA2999+00109KA1120N+00321MA1999999090711MD1510111+9999MW1601REMSYN118AAXX  18064 17202 11457 81009 10074 20024 39071 40074 55011 69942 76022 8672/ 333 20032 32001 70004 83712 85630 88459;
0215172020999992000031809004+38600+039280FM-12+0882LTCA V0201001N006210090019N0080001N1+00761+00221100761ADDAY161031AY261031GA1041+004509079GA2051+009009069GF108991061071004501021999MA1999999090711MD1010001+9999MW1601REMSYN094AAXX  18094 17202 41458 81012 10076 20022 39071 40076 50000 76066 8672/ 333 84715 85630 88458;
0232172020999992000031812004+38600+039280FM-12+0882LTCA V0201101N008210090019N0100001N1+01121+00171100641ADDAA106002091AY161061AY221061GA1031+004509079GA2051+009009089GF107991061021004501051001MA1999999090621MD1610091+9999MW1031REMSYN100AAXX  18124 17202 11460 71116 10112 20017 39062 40064 56009 60021 70362 86250 333 83715 85830 87358;
0165172020999992000031815004+38600+039280FM-12+0882LTCA V0201201N004110090019N0100001N1+01161-00031100491ADDGA1051+009009089GF107991051021008001051001MA1999999090501MD1610121+9999REMSYN082AAXX  18154 17202 42560 71208 10116 21003 39050 40049 56012 85250 333 85830 87358;
0201172020999992000031818004+38600+039280FM-12+0882LTCA V0201501N004110090019N0100001N1+00901+00281100511ADDAA112002091GA1051+009009069GF108991051051008001021999KA1120M+01241MA1999999090521MD1110021+9999REMSYN094AAXX  18184 17202 12560 81508 10090 20028 39052 40051 51002 60022 8552/ 333 10124 85630 88459;
0165172020999992000031821004+38600+039280FM-12+0882LTCA V0202601N003110090019N0150001N1+00501+00041100641ADDGA1051+009009069GF106991051051008001051001MA1999999090601MD1310081+9999REMSYN082AAXX  18214 17202 42565 62606 10050 20004 39060 40064 53008 85550 333 85630 86360;
0195172020999992000031900004+38600+039280FM-12+0882LTCA V0200801N004110105019N0200001N1+00221-00201101121ADDAA199000091GA1051+010509069GF106991051051012501051001MA1999999091051MD1210451+9999REMSYN082AAXX  19004 17202 32670 60808 10022 21020 39105 40112 52045 85550 333 85635 86360;EQDQ01  00002PRCP99
0165172020999992000031903004+38600+039280FM-12+0882LTCA V0209999C00001036001CN0200001N1-00301-00421101301ADDGA1021+010509069GF105991021051012501051001MA1999999091151MD1210101+9999REMSYN082AAXX  19034 17202 42670 50000 11030 21042 39115 40130 52010 82550 333 82635 85360;
0232172020999992000031906004+38600+039280FM-12+0882LTCA V0209999C000012200019N0200001N1+00141-00301101331ADDAA199000091GA1021+010509059GF102991021051012501001001IA1149IA2999-00509KA1120N-00441MA1999999091201MD1110051+9999REMSYN088AAXX  19064 17202 32670 20000 10014 21030 39120 40133 51005 82500 333 21044 34105 82635;EQDQ01  00002PRCP99
0159172020999992000031909004+38600+039280FM-12+0882LTCA V0200801N002612200019N0200001N1+00761-00401101491ADDGA1021+010509059GF102991021051012501001001MA1999999091361MD1210161+9999REMSYN076AAXX  19094 17202 42670 20805 10076 21040 39136 40149 52016 82500 333 82635;
0195172020999992000031912004+38600+039280FM-12+0882LTCA V0201401N00311036001CN0200001N1+01201-00401101421ADDAA199000091GA1031+010509069GF105991031051012501051001MA1999999091321MD1810041+9999REMSYN082AAXX  19124 17202 32670 51406 10120 21040 39132 40142 58004 83550 333 83635 85360;EQDQ01  00002PRCP99
0165172020999992000031915004+38600+039280FM-12+0882LTCA V0201301N00361036001CN0200001N1+00981-00361101491ADDGA1041+010509069GF106991041051012501051001MA1999999091301MD1610021+9999REMSYN082AAXX  19154 17202 42670 61307 10098 21036 39130 40149 56002 84550 333 84635 86360;
0214172020999992000031918004+38600+039280FM-12+0882LTCA V0200301N00101036001CN0200001N1+00801-00421101481ADDAA199000091GA1041+010509069GF106991041051012501051001KA1120M+01241MA1999999091331MD1310031+9999REMSYN088AAXX  19184 17202 32670 60302 10080 21042 39133 40148 53003 84550 333 10124 84635 86360;EQDQ01  00002PRCP99
0165172020999992000031921004+38600+039280FM-12+0882LTCA V0200801N00361036001CN0200001N1+00861-00501101341ADDGA1041+010509069GF106991041051012501051001MA1999999091271MD1810061+9999REMSYN082AAXX  19214 17202 42670 60807 10086 21050 39127 40134 58006 84550 333 84635 86360;
0195172020999992000032000004+38600+039280FM-12+0882LTCA V0201401N00771036001CN0200001N1+00801-00421101211ADDAA199000091GA1041+010509069GF106991041051012501051001MA1999999091191MD1710081+9999REMSYN082AAXX  20004 17202 32670 61415 10080 21042 39119 40121 57008 84550 333 84635 86360;EQDQ01  00002PRCP99
0165172020999992000032003004+38600+039280FM-12+0882LTCA V0201201N00411036001CN0200001N1+00781-00381101251ADDGA1041+010509069GF106991041051012501051001MA1999999091201MD1310011+9999REMSYN082AAXX  20034 17202 42670 61208 10078 21038 39120 40125 53001 84550 333 84635 86360;
0187172020999992000032009004+38600+039280FM-12+0882LTCA V0202101N004110090019N0200001N1+00981+00221101541ADDGA1021+004509079GA2051+009009069GF107991051071004501051001MA1999999091461MD1210091+9999REMSYN088AAXX  20094 17202 42470 72108 10098 20022 39146 40154 52009 85750 333 82715 85630 87358;
0189172020999992000032012004+38600+039280FM-12+0882LTCA V0201801N007710090019N0200001N1+01261+00081101401ADDAA199000091GA1051+009009029GF105991051021012501001001MA1999999091431MD1810031+9999REMSYN076AAXX  20124 17202 32670 51815 10126 20008 39143 40140 58003 85200 333 85830;EQDQ01  00002PRCP99
0159172020999992000032015004+38600+039280FM-12+0882LTCA V0201901N006712200019N0200001N1+01101-00241101471ADDGA1041+009009029GF104991041021008001001001MA1999999091401MD1610031+9999REMSYN076AAXX  20154 17202 42570 41913 10110 21024 39140 40147 56003 84200 333 84830;
0208172020999992000032018004+38600+039280FM-12+0882LTCA V0209999C000012200019N0200001N1+00861-00311101511ADDAA199000091GA1031+010509029GF103991031011012501001001KA1120M+01281MA1999999091421MD1210021+9999REMSYN082AAXX  20184 17202 32670 30000 10086 21031 39142 40151 52002 83100 333 10128 83835;EQDQ01  00002PRCP99
0159172020999992000032021004+38600+039280FM-12+0882LTCA V0209999C000012200019N0200001N1+00501-00501101511ADDGA1031+010509029GF103991031011012501001001MA1999999091401MD1610021+9999REMSYN076AAXX  20214 17202 42670 30000 10050 21050 39140 40151 56002 83100 333 83835;
0189172020999992000032100004+38600+039280FM-12+0882LTCA V0201401N002112200019N0200001N1+00501-00501101441ADDAA199000091GA1031+010509029GF103991031011012501001001MA1999999091381MD1810021+9999REMSYN076AAXX  21004 17202 32670 31404 10050 21050 39138 40144 58002 83100 333 83835;EQDQ01  00002PRCP99
0159172020999992000032103004+38600+039280FM-12+0882LTCA V0200601N002112200019N0200001N1+00261-00301101491ADDGA1041+010509059GF104991041051012501001001MA1999999091381MD1410001+9999REMSYN076AAXX  21034 17202 42670 40604 10026 21030 39138 40149 54000 84500 333 84635;
0232172020999992000032106004+38600+039280FM-12+0882LTCA V0200501N003112200019N0200001N1+00921+00061101351ADDAA199000091GA1041+010509059GF104991041051012501001001IA1099IA2999+00109KA1120N+00241MA1999999091301MD1610081+9999REMSYN088AAXX  21064 17202 32670 40506 10092 20006 39130 40135 56008 84500 333 20024 31001 84635;EQDQ01  00002PRCP99
0165172020999992000032109004+38600+039280FM-12+0882LTCA V0201501N00461036001CN0200001N1+01301+00061101411ADDGA1041+010509089GF106991041011012501041001MA1999999091351MD1310051+9999REMSYN082AAXX  21094 17202 42670 61509 10130 20006 39135 40141 53005 84140 333 84835 84360;
0195172020999992000032112004+38600+039280FM-12+0882LTCA V0201201N00361036001CN0200001N1+01601+00061101201ADDAA199000091GA1041+010509089GF106991041021012501051001MA1999999091201MD1710151+9999REMSYN082AAXX  21124 17202 32670 61207 10160 20006 39120 40120 57015 84250 333 84835 86360;EQDQ01  00002PRCP99
0165172020999992000032115004+38600+039280FM-12+0882LTCA V0201701N00311036001CN0200001N1+01301+00061101161ADDGA1021+010509089GF105991021011012501031001MA1999999091101MD1710101+9999REMSYN082AAXX  21154 17202 42670 51706 10130 20006 39110 40116 57010 82130 333 82835 85360;
0196172020999992000032118004+38600+039280FM-12+0882LTCA V0202701N002112200019N0200001N1+00721-00381101201ADDAA199000091GA1001+999999999GF100991001001999999001001KA1999M+01641MA1999999091141MD1310041+9999REMSYN070AAXX  21184 17202 32970 02704 10072 21038 39114 40120 53004 333 10164;EQDQ01  00002PRCP99
0143172020999992000032121004+38600+039280FM-12+0882LTCA V0203001N003612200019N0200001N1+00541-00491101201ADDGA1001+999999999GF100991001001999999001001MA1999999091161MD1010021+9999REMSYN060AAXX  21214 17202 42970 03007 10054 21049 39116 40120 50002;
0173172020999992000032200004+38600+039280FM-12+0882LTCA V0202901N001512200019N0200001N1+00301-00541101181ADDAA199000091GA1001+999999999GF100991001001999999001001MA1999999091141MD1810021+9999REMSYN060AAXX  22004 17202 32970 02903 10030 21054 39114 40118 58002;EQDQ01  00002PRCP99
0143172020999992000032203004+38600+039280FM-12+0882LTCA V0202301N003612200019N0200001N1+00101-00801101071ADDGA1001+999999999GF100991001001999999001001MA1999999091001MD1710141+9999REMSYN060AAXX  22034 17202 42970 02307 10010 21080 39100 40107 57014;
0238172020999992000032206004+38600+039280FM-12+0882LTCA V0201801N001012200019N0200001N1+00561-00201101091ADDAA199000091GA1011+010509089GF103991011011012501051001IA1019IA2999-00209KA1120N+00021MA1999999091001MD1410001+9999REMSYN094AAXX  22064 17202 32670 31802 10056 21020 39100 40109 54000 81150 333 20002 30102 81835 83360;EQDQ01  00002PRCP99
0159172020999992000032209004+38600+039280FM-12+0882LTCA V0202301N002112200019N0200001N1+01221-00281100881ADDGA1021+009009029GF102991021011008001001001MA1999999090871MD1810131+9999REMSYN076AAXX  22094 17202 42570 22304 10122 21028 39087 40088 58013 82100 333 82830;
0189172020999992000032212004+38600+039280FM-12+0882LTCA V0202301N001512200019N0200001N1+01541-00481100631ADDAA199000091GA1031+009009029GF103991031011008001001001MA1999999090651MD1710221+9999REMSYN076AAXX  22124 17202 32570 32303 10154 21048 39065 40063 57022 83100 333 83830;EQDQ01  00002PRCP99
0159172020999992000032215004+38600+039280FM-12+0882LTCA V0200601N002112200019N0200001N1+01301-00521100621ADDGA1031+009009029GF103991031011008001001001MA1999999090601MD1710051+9999REMSYN076AAXX  22154 17202 42570 30604 10130 21052 39060 40062 57005 83100 333 83830;
0208172020999992000032218004+38600+039280FM-12+0882LTCA V0201401N001512200019N0200001N1+00901-00561100741ADDAA199000091GA1031+010509029GF103991031011012501001001KA1120M+01581MA1999999090701MD1310101+9999REMSYN082AAXX  22184 17202 32670 31403 10090 21056 39070 40074 53010 83100 333 10158 83835;EQDQ01  00002PRCP99
0143172020999992000032221004+38600+039280FM-12+0882LTCA V0203101N002112200019N0200001N1+00401-00661100731ADDGA1001+999999999GF100991001001999999001001MA1999999090721MD1110021+9999REMSYN060AAXX  22214 17202 42970 03104 10040 21066 39072 40073 51002;
0189172020999992000032300004+38600+039280FM-12+0882LTCA V0203001N002610300019N0200001N1+00521-00431100701ADDAA199000091GA1051+030009079GF105991051001999999031001MA1999999090731MD1310011+9999REMSYN076AAXX  23004 17202 32970 53005 10052 21043 39073 40070 53001 85030 333 85360;EQDQ01  00002PRCP99
0159172020999992000032303004+38600+039280FM-12+0882LTCA V0209999C000012200019N0200001N1+00301-00311100761ADDGA1041+030009079GF104991041001999999031001MA1999999090741MD1310011+9999REMSYN076AAXX  23034 17202 42970 40000 10030 21031 39074 40076 53001 84030 333 84360;
0238172020999992000032306004+38600+039280FM-12+0882LTCA V0200701N00151036001CN0200001N1+00721+00041100821ADDAA199000091GA1031+010509089GF105991031011012501051001IA1019IA2999+00009KA1120N+00161MA1999999090801MD1110061+9999REMSYN094AAXX  23064 17202 32670 50703 10072 20004 39080 40082 51006 83150 333 20016 30000 83835 85360;EQDQ01  00002PRCP99
0159172020999992000032309004+38600+039280FM-12+0882LTCA V0200901N006212200019N0200001N1+01201+00181100801ADDGA1041+010509029GF104991041021012501001001MA1999999090781MD1810021+9999REMSYN076AAXX  23094 17202 42670 40912 10120 20018 39078 40080 58002 84200 333 84835;
0195172020999992000032312004+38600+039280FM-12+0882LTCA V0201301N007710105019N0200001N1+01201+00181100581ADDAA199000091GA1051+010509089GF107991051021012501051001MA1999999090601MD1710181+9999REMSYN082AAXX  23124 17202 32670 71315 10120 20018 39060 40058 57018 85250 333 85835 87359;EQDQ01  00002PRCP99
0193172020999992000032315004+38600+039280FM-12+0882LTCA V0203201N00511036001CN0200001N1+00901+00281100691ADDAY121031AY221031GA1041+009009089GF106991041021008001051001MA1999999090641MD1310041+9999MW1251REMSYN088AAXX  23154 17202 41570 63210 10090 20028 39064 40069 53004 72522 84250 333 84830 86359;
0229172020999992000032318004+38600+039280FM-12+0882LTCA V0202701N00151036001CN0200001N1+00601-00091100611ADDAA112000791AY181061AY221061GA1021+010509089GF105991021011012501051001KA1120M+01241MA1999999090591MD1610051+9999MW1011REMSYN100AAXX  23184 17202 11670 52703 10060 21009 39059 40061 56005 69902 70182 82150 333 10124 82835 85360;
0165172020999992000032321004+38600+039280FM-12+0882LTCA V0202401N001512200019N0200001N1+00281-00041100631ADDGA1021+010509069GF103991021041012501051001MA1999999090611MD1110021+9999REMSYN082AAXX  23214 17202 42670 32403 10028 21004 39061 40063 51002 82450 333 82635 83360;
0176172020999992000032400004+38600+039280FM-12+0882LTCA V0203001N002612200019N0200001N1+00241-00021100601ADDAA199000021GA1021+010509069GF104991021051012501051001MA1999999090581MD1810031+9999REMSYN082AAXX  24004 17202 32670 43005 10024 21002 39058 40060 58003 82550 333 82635 84360;
0165172020999992000032403004+38600+039280FM-12+0882LTCA V0209999C00001036001CN0200001N1+00301+00101100581ADDGA1041+010509069GF106991041051012501051001MA1999999090551MD1510031+9999REMSYN082AAXX  24034 17202 42670 60000 10030 20010 39055 40058 55003 84550 333 84635 86360;
0189172020999992000032405004+38600+039280FM-12+0882LTCA V0203001N007712200019N0200001N1+99999+99999999999ADDAA199000091GA1021+999999069GF104991021051012501001999MA1999999090581MD1810031+9999REMSYN076AAXX  24054 17202 32670 43015 100/4 21002 39058 58003 8250/ 333 8269/ 84360;EQDQ01  00002PRCP99
0259172020999992000032406004+38600+039280FM-12+0882LTCA V0202901N00621036001CN0200001N1+00581-00021100561ADDAA112000191AY161061AY211061GA1041+010509069GF107991041051012501051001IA1099IA2999+00109KA1120N+00181MA1999999090531MD1010021+9999MW1021REMSYN112AAXX  24064 17202 11670 72912 10058 21002 39053 40056 50002 69912 70261 84550 333 20018 31001 70001 84635 87359;
0165172020999992000032409004+38600+039280FM-12+0882LTCA V0202601N003610105019N0200001N1+00841+00161100621ADDGA1051+010509089GF107991051021012501051001MA1999999090581MD1310051+9999REMSYN082AAXX  24094 17202 42670 72607 10084 20016 39058 40062 53005 85250 333 85835 87359;
0195172020999992000032412004+38600+039280FM-12+0882LTCA V0203101N00461036001CN0200001N1+01201-00121100511ADDAA199000091GA1041+010509089GF106991041021012501051001MA1999999090501MD1610081+9999REMSYN082AAXX  24124 17202 32670 63109 10120 21012 39050 40051 56008 84250 333 84835 86360;EQDQ01  00002PRCP99
0165172020999992000032415004+38600+039280FM-12+0882LTCA V0202901N00721036001CN0200001N1+01001-00601100501ADDGA1031+010509089GF105991031021012501051001MA1999999090491MD1510011+9999REMSYN082AAXX  24154 17202 42670 52914 10100 21060 39049 40050 55001 83250 333 83835 85360;
0196172020999992000032418004+38600+039280FM-12+0882LTCA V0202001N004112200019N0200001N1+00661-00361100681ADDAA199000091GA1001+999999999GF100991001001999999001001KA1999M+01341MA1999999090641MD1210151+9999REMSYN070AAXX  24184 17202 32970 02008 10066 21036 39064 40068 52015 333 10134;EQDQ01  00002PRCP99
0143172020999992000032421004+38600+039280FM-12+0882LTCA V0202001N006712200019N0200001N1+00301+99999100961ADDGA1001+999999999GF100991001001999999001001MA1999999090881MD1210241+9999REMSYN060AAXX  24214 17202 42970 02013 10030 20086 39088 40096 52024;
0173172020999992000032500004+38600+039280FM-12+0882LTCA V0202401N004112200019N0200001N1+00201-01001101061ADDAA199000091GA1001+999999999GF100991001001999999001001MA1999999090981MD1210101+9999REMSYN060AAXX  25004 17202 32970 02408 10020 21100 39098 40106 52010;EQDQ01  00002PRCP99
0143172020999992000032503004+38600+039280FM-12+0882LTCA V0201101N001512200019N0200001N1-00241-00861101401ADDGA1001+999999999GF100991001001999999001001MA1999999091181MD1210201+9999REMSYN060AAXX  25034 17202 42970 01103 11024 21086 39118 40140 52020;
0220172020999992000032506004+38600+039280FM-12+0882LTCA V0202301N002612200019N0200001N1+00461-00521101561ADDAA199000091GA1001+999999999GF100991001001999999001001IA1149IA2999-00609KA1120N-00361MA1999999091421MD1210241+9999REMSYN076AAXX  25064 17202 32970 02305 10046 21052 39142 40156 52024 333 21036 34106;EQDQ01  00002PRCP99
0159172020999992000032509004+38600+039280FM-12+0882LTCA V0203001N004112200019N0200001N1+01021-00841101671ADDGA1011+010509029GF101991011011012501001001MA1999999091541MD1110121+9999REMSYN076AAXX  25094 17202 42670 13008 10102 21084 39154 40167 51012 81100 333 81835;
0189172020999992000032512004+38600+039280FM-12+0882LTCA V0202901N004112200019N0200001N1+01361-00941101601ADDAA199000091GA1011+010509029GF101991011011012501001001MA1999999091501MD1710041+9999REMSYN076AAXX  25124 17202 32670 12908 10136 21094 39150 40160 57004 81100 333 81835;EQDQ01  00002PRCP99
0159172020999992000032515004+38600+039280FM-12+0882LTCA V0202601N005112200019N0200001N1+01361-00941101681ADDGA1031+030009079GF103991031001999999031001MA1999999091531MD1310031+9999REMSYN076AAXX  25154 17202 42970 32610 10136 21094 39153 40168 53003 83030 333 83360;
0196172020999992000032518004+38600+039280FM-12+0882LTCA V0203001N006212200019N0200001N1+00701-00981101951ADDAA199000091GA1001+999999999GF100991001001999999001001KA1999M+01431MA1999999091781MD1210251+9999REMSYN070AAXX  25184 17202 32970 03012 10070 21098 39178 40195 52025 333 10143;EQDQ01  00002PRCP99
0143172020999992000032521004+38600+039280FM-12+0882LTCA V0202501N001512200019N0200001N1+00181-01001102141ADDGA1001+999999999GF100991001001999999001001MA1999999091951MD1210171+9999REMSYN060AAXX  25214 17202 42970 02503 10018 21100 39195 40214 52017;
0173172020999992000032600004+38600+039280FM-12+0882LTCA V0202801N001512200019N0200001N1-00041-00801102191ADDAA199000091GA1001+999999999GF100991001001999999001001MA1999999092011MD1310061+9999REMSYN060AAXX  26004 17202 32970 02803 11004 21080 39201 40219 53006;EQDQ01  00002PRCP99
0143172020999992000032603004+38600+039280FM-12+0882LTCA V0202801N002112200019N0200001N1-00241-00861102311ADDGA1001+999999999GF100991001001999999001001MA1999999092101MD1310091+9999REMSYN060AAXX  26034 17202 42970 02804 11024 21086 39210 40231 53009;
0232172020999992000032606004+38600+039280FM-12+0882LTCA V0201101N001012200019N0200001N1+00461-00461102411ADDAA199000091GA1021+060009019GF102991001001999999001011IA1099IA2999-00509KA1120N-00441MA1999999092191MD1210091+9999REMSYN088AAXX  26064 17202 32970 21102 10046 21046 39219 40241 52009 80001 333 21044 31105 82070;EQDQ01  00002PRCP99
0159172020999992000032609004+38600+039280FM-12+0882LTCA V0200701N002612200019N0200001N1+01181-00391102471ADDGA1031+060009019GF103991001001999999001011MA1999999092261MD1210071+9999REMSYN076AAXX  26094 17202 42970 30705 10118 21039 39226 40247 52007 80001 333 83070;
0189172020999992000032612004+38600+039280FM-12+0882LTCA V0201101N003612200019N0200001N1+01441-00481102231ADDAA199000091GA1031+060009019GF103991001001999999001011MA1999999092051MD1710211+9999REMSYN076AAXX  26124 17202 32970 31107 10144 21048 39205 40223 57021 80001 333 83070;EQDQ01  00002PRCP99
0159172020999992000032615004+38600+039280FM-12+0882LTCA V0200801N003610600019N0200001N1+01301-00881102221ADDGA1051+060009019GF105991001001999999001011MA1999999092001MD1610051+9999REMSYN076AAXX  26154 17202 42970 50807 10130 21088 39200 40222 56005 80001 333 85070;
0196172020999992000032618004+38600+039280FM-12+0882LTCA V0202201N002612200019N0200001N1+00681-01001102321ADDAA199000091GA1001+999999999GF100991001001999999001001KA1999M+01481MA1999999092111MD1310111+9999REMSYN070AAXX  26184 17202 32970 02205 10068 21100 39211 40232 53011 333 10148;EQDQ01  00002PRCP99
0143172020999992000032621004+38600+039280FM-12+0882LTCA V0209999C000012200019N0200001N1+00201-00961102341ADDGA1001+999999999GF100991001001999999001001MA1999999092151MD1310041+9999REMSYN060AAXX  26214 17202 42970 00000 10020 21096 39215 40234 53004;
0173172020999992000032700004+38600+039280FM-12+0882LTCA V0203001N002112200019N0200001N1-00061-00981102341ADDAA199000091GA1001+999999999GF100991001001999999001001MA1999999092151MD1410001+9999REMSYN060AAXX  27004 17202 32970 03004 11006 21098 39215 40234 54000;EQDQ01  00002PRCP99
0143172020999992000032703004+38600+039280FM-12+0882LTCA V0209999C000012200019N0200001N1-00261-00961102391ADDGA1001+999999999GF100991001001999999001001MA1999999092151MD1410001+9999REMSYN060AAXX  27034 17202 42970 00000 11026 21096 39215 40239 54000;
0220172020999992000032706004+38600+039280FM-12+0882LTCA V0201001N001512200019N0200001N1+00601-00221102311ADDAA199000091GA1001+999999999GF100991001001999999001001IA1019IA2999-00509KA1120N-00341MA1999999092101MD1810051+9999REMSYN076AAXX  27064 17202 32970 01003 10060 21022 39210 40231 58005 333 21034 30105;EQDQ01  00002PRCP99
0143172020999992000032709004+38600+039280FM-12+0882LTCA V0201201N002112200019N0200001N1+01281-00291102321ADDGA1001+999999999GF100991001001999999001001MA1999999092131MD1010031+9999REMSYN060AAXX  27094 17202 42970 01204 10128 21029 39213 40232 50003;
0173172020999992000032712004+38600+039280FM-12+0882LTCA V0200501N001512200019N0200001N1+01661-00301102041ADDAA199000091GA1001+999999999GF100991001001999999001001MA1999999091901MD1710031+9999REMSYN060AAXX  27124 17202 32970 00503 10166 21030 39190 40204 57003;EQDQ01  00002PRCP99
0159172020999992000032715004+38600+039280FM-12+0882LTCA V0203301N003612200019N0200001N1+01621-00241102021ADDGA1031+060009019GF103991001001999999001011MA1999999091861MD1810041+9999REMSYN076AAXX  27154 17202 42970 33307 10162 21024 39186 40202 58004 80001 333 83070;
0196172020999992000032718004+38600+039280FM-12+0882LTCA V0202601N002112200019N0200001N1+00901-00701101981ADDAA199000091GA1001+999999999GF100991001001999999001001KA1999M+01141MA1999999091841MD1510021+9999REMSYN070AAXX  27184 17202 32970 02604 10090 21070 39184 40198 55002 333 10114;EQDQ01  00002PRCP99
0143172020999992000032721004+38600+039280FM-12+0882LTCA V0203001N001012200019N0200001N1+00401-00841102031ADDGA1001+999999999GF100991001001999999001001MA1999999091891MD1210051+9999REMSYN060AAXX  27214 17202 42970 03002 10040 21084 39189 40203 52005;
0143172020999992000032803004+38600+039280FM-12+0882LTCA V0203501N001012200019N0200001N1-00161-00821102061ADDGA1001+999999999GF100991001001999999001001MA1999999091891MD1410001+9999REMSYN060AAXX  28034 17202 42970 03502 11016 21082 39189 40206 54000;
0232172020999992000032806004+38600+039280FM-12+0882LTCA V0201001N001012200019N0200001N1+00721+00041102161ADDAA199000091GA1031+060009019GF103991001001999999001011IA1019IA2999-00409KA1120N-00181MA1999999092001MD1210111+9999REMSYN088AAXX  28064 17202 32970 31002 10072 20004 39200 40216 52011 80001 333 21018 30104 83070;EQDQ01  00002PRCP99
0159172020999992000032809004+38600+039280FM-12+0882LTCA V0200801N002612200019N0200001N1+01301-00281102051ADDGA1031+060009019GF103991001001999999001011MA1999999091921MD1710081+9999REMSYN076AAXX  28094 17202 42970 30805 10130 21028 39192 40205 57008 80001 333 83070;
0189172020999992000032812004+38600+039280FM-12+0882LTCA V0201601N001512200019N0200001N1+01781-00081101881ADDAA199000091GA1041+060009019GF104991001001999999001011MA1999999091771MD1710151+9999REMSYN076AAXX  28124 17202 32970 41603 10178 21008 39177 40188 57015 80001 333 84070;EQDQ01  00002PRCP99
0143172020999992000032815004+38600+039280FM-12+0882LTCA V0200801N003112200019N0200001N1+01821-00101101791ADDGA1001+999999999GF100991001001999999001001MA1999999091671MD1710101+9999REMSYN060AAXX  28154 17202 42970 00806 10182 21010 39167 40179 57010;
0196172020999992000032818004+38600+039280FM-12+0882LTCA V0203101N003612200019N0200001N1+01001-00301101801ADDAA199000091GA1001+999999999GF100991001001999999001001KA1999M+01841MA1999999091701MD1810031+9999REMSYN070AAXX  28184 17202 32970 03107 10100 21030 39170 40180 58003 333 10184;EQDQ01  00002PRCP99
0143172020999992000032821004+38600+039280FM-12+0882LTCA V0209999C000012200019N0200001N1+00601-00461101851ADDGA1001+999999999GF100991001001999999001001MA1999999091771MD1210071+9999REMSYN060AAXX  28214 17202 42970 00000 10060 21046 39177 40185 52007;
0173172020999992000032900004+38600+039280FM-12+0882LTCA V0209999C000012200019N0200001N1+00341-00561101871ADDAA199000091GA1001+999999999GF100991001001999999001001MA1999999091801MD1110031+9999REMSYN060AAXX  29004 17202 32970 00000 10034 21056 39180 40187 51003;EQDQ01  00002PRCP99
0143172020999992000032903004+38600+039280FM-12+0882LTCA V0209999C000012200019N0200001N1-00021-00731101911ADDGA1001+999999999GF100991001001999999001001MA1999999091801MD1410001+9999REMSYN060AAXX  29034 17202 42970 00000 11002 21073 39180 40191 54000;
0220172020999992000032906004+38600+039280FM-12+0882LTCA V0200901N001512200019N0200001N1+00801+00061102021ADDAA199000091GA1001+999999999GF100991001001999999001001IA1019IA2999-00309KA1120N-00141MA1999999091901MD1110101+9999REMSYN076AAXX  29064 17202 32970 00903 10080 20006 39190 40202 51010 333 21014 30103;EQDQ01  00002PRCP99
0159172020999992000032909004+38600+039280FM-12+0882LTCA V0201101N003112200019N0200001N1+01521-00201101891ADDGA1031+060009019GF103991001001999999001011MA1999999091821MD1810081+9999REMSYN076AAXX  29094 17202 42970 31106 10152 21020 39182 40189 58008 80001 333 83070;
0195172020999992000032912004+38600+039280FM-12+0882LTCA V0203401N005112200019N0200001N1+02061-00201101631ADDAA199000091GA1021+010509089GF104991021011012501001011MA1999999091601MD1710221+9999REMSYN082AAXX  29124 17202 32670 43410 10206 21020 39160 40163 57022 82101 333 82835 84070;EQDQ01  00002PRCP99
0165172020999992000032915004+38600+039280FM-12+0882LTCA V0202701N003112200019N0200001N1+01981+00021101561ADDGA1011+010509089GF103991011011012501001011MA1999999091501MD1710101+9999REMSYN082AAXX  29154 17202 42670 32706 10198 20002 39150 40156 57010 81101 333 81835 83070;
0196172020999992000032918004+38600+039280FM-12+0882LTCA V0209999C000012200019N0200001N1+01221-00461101651ADDAA199000091GA1001+999999999GF100991001001999999001001KA1999M+02081MA1999999091581MD1310081+9999REMSYN070AAXX  29184 17202 32970 00000 10122 21046 39158 40165 53008 333 10208;EQDQ01  00002PRCP99
0143172020999992000032921004+38600+039280FM-12+0882LTCA V0203101N004112200019N0200001N1+00741-00701101691ADDGA1001+999999999GF100991001001999999001001MA1999999091641MD1110061+9999REMSYN060AAXX  29214 17202 42970 03108 10074 21070 39164 40169 51006;
0173172020999992000033000004+38600+039280FM-12+0882LTCA V0209999C000012200019N0200001N1+00401-00671101671ADDAA199000091GA1001+999999999GF100991001001999999001001MA1999999091641MD1410001+9999REMSYN060AAXX  30004 17202 32970 00000 10040 21067 39164 40167 54000;EQDQ01  00002PRCP99
0143172020999992000033003004+38600+039280FM-12+0882LTCA V0202701N002112200019N0200001N1+00021-00761101781ADDGA1001+999999999GF100991001001999999001001MA1999999091701MD1310061+9999REMSYN060AAXX  30034 17202 42970 02704 10002 21076 39170 40178 53006;
0220172020999992000033006004+38600+039280FM-12+0882LTCA V0200801N002112200019N0200001N1+00921+00041101861ADDAA199000091GA1001+999999999GF100991001001999999001001IA1019IA2999-00109KA1120N-00041MA1999999091791MD1210091+9999REMSYN076AAXX  30064 17202 32970 00804 10092 20004 39179 40186 52009 333 21004 30101;EQDQ01  00002PRCP99
0159172020999992000033009004+38600+039280FM-12+0882LTCA V0201001N002612200019N0200001N1+01601-00061101801ADDGA1011+010509029GF101991011011012501001001MA1999999091751MD1810041+9999REMSYN076AAXX  30094 17202 42670 11005 10160 21006 39175 40180 58004 81100 333 81835;
0189172020999992000033012004+38600+039280FM-12+0882LTCA V0203201N003612200019N0200001N1+01981-00211101561ADDAA199000091GA1011+010509029GF101991011011012501001001MA1999999091541MD1710211+9999REMSYN076AAXX  30124 17202 32670 13207 10198 21021 39154 40156 57021 81100 333 81835;EQDQ01  00002PRCP99
0143172020999992000033015004+38600+039280FM-12+0882LTCA V0202901N005112200019N0200001N1+01861-00201101591ADDGA1001+999999999GF100991001001999999001001MA1999999091421MD1710121+9999REMSYN060AAXX  30154 17202 42970 02910 10186 21020 39142 40159 57012;
0173172020999992000033018004+38600+039280FM-12+0882LTCA V0200901N001512200019N0200001N1+01401-00441101431ADDAA199000091GA1001+999999999GF100991001001999999001001MA1999999091421MD1410001+9999REMSYN060AAXX  30184 17202 32970 00903 10140 21044 39142 40143 54000;EQDQ01  00002PRCP99
0143172020999992000033021004+38600+039280FM-12+0882LTCA V0202801N003112200019N0200001N1+01001-00601101521ADDGA1001+999999999GF100991001001999999001001MA1999999091521MD1310101+9999REMSYN060AAXX  30214 17202 42970 02806 10100 21060 39152 40152 53010;
0173172020999992000033100004+38600+039280FM-12+0882LTCA V0203101N002612200019N0200001N1+00601-00461101541ADDAA199000091GA1001+999999999GF100991001001999999001001MA1999999091541MD1110021+9999REMSYN060AAXX  31004 17202 32970 03105 10060 21046 39154 40154 51002;EQDQ01  00002PRCP99
0143172020999992000033103004+38600+039280FM-12+0882LTCA V0209999C000012200019N0200001N1+00141-00391101601ADDGA1001+999999999GF100991001001999999001001MA1999999091541MD1410001+9999REMSYN060AAXX  31034 17202 42970 00000 10014 21039 39154 40160 54000;
0210172020999992000033106004+38600+039280FM-12+0882LTCA V0201001N002112200019N0200001N1+00901+00021101611ADDAA199000091GF104991001001999999001011IA1019IA2999-00809KA1120N+00121MA1999999091571MD1310031+9999REMSYN082AAXX  31064 17202 32970 41004 10090 20002 39157 40161 53003 80001 333 20012 30108;EQDQ01  00002PRCP99
0187172020999992000033109004+38600+039280FM-12+0882LTCA V0200901N003110300019N0200001N1+01421+00041101621ADDGA1021+010509089GA2041+030009039GF106991021011012501051011MA1999999091591MD1010021+9999REMSYN088AAXX  31094 17202 42670 60906 10142 20004 39159 40162 50002 82151 333 82835 84360 86070;
0195172020999992000033112004+38600+039280FM-12+0882LTCA V0202801N00461036001CN0200001N1+01841-00101101501ADDAA199000091GA1041+010509089GF106991041021012501051001MA1999999091481MD1710111+9999REMSYN082AAXX  31124 17202 32670 62809 10184 21010 39148 40150 57011 84250 333 84835 86360;EQDQ01  00002PRCP99
0165172020999992000033115004+38600+039280FM-12+0882LTCA V0201401N00211036001CN0200001N1+01741+00141101451ADDGA1031+010509089GF105991031021012501051001MA1999999091391MD1710091+9999REMSYN082AAXX  31154 17202 42670 51404 10174 20014 39139 40145 57009 83250 333 83835 85360;
0196172020999992000033118004+38600+039280FM-12+0882LTCA V0200501N001012200019N0200001N1+01201-00111101481ADDAA199000091GA1001+999999999GF100991001001999999001001KA1999M+01901MA1999999091431MD1310041+9999REMSYN070AAXX  31184 17202 32970 00502 10120 21011 39143 40148 53004 333 10190;EQDQ01  00002PRCP99
0143172020999992000033121004+38600+039280FM-12+0882LTCA V0203501N001012200019N0200001N1+00781-00191101541ADDGA1001+999999999GF100991001001999999001001MA1999999091501MD1110071+9999REMSYN060AAXX  31214 17202 42970 03502 10078 21019 39150 40154 51007;
0173172020999992000040100004+38600+039280FM-12+0882LTCA V0203001N001012200019N0200001N1+00541-00181101621ADDAA199000091GA1001+999999999GF100991001001999999001001MA1999999091591MD1310091+9999REMSYN060AAXX  01004 17202 32970 03002 10054 21018 39159 40162 53009;EQDQ01  00002PRCP99
0143172020999992000040103004+38600+039280FM-12+0882LTCA V0203301N001512200019N0200001N1+00381+00101101701ADDGA1001+999999999GF100991001001999999001001MA1999999091641MD1310051+9999REMSYN060AAXX  01034 17202 42970 03303 10038 20010 39164 40170 53005;
0232172020999992000040106004+38600+039280FM-12+0882LTCA V0209999C000012200019N0200001N1+01021+00381101851ADDAA199000091GA1011+010509029GF101991011011012501001001IA1019IA2999+00009KA1120N+00241MA1999999091781MD1210141+9999REMSYN088AAXX  01064 17202 32670 10000 10102 20038 39178 40185 52014 81100 333 20024 30000 81835;EQDQ01  00002PRCP99
0143172020999992000040109004+38600+039280FM-12+0882LTCA V0201001N002112200019N0200001N1+01701+00421101831ADDGA1001+999999999GF100991001001999999001001MA1999999091781MD1010001+9999REMSYN060AAXX  01094 17202 42970 01004 10170 20042 39178 40183 50000;
0189172020999992000040112004+38600+039280FM-12+0882LTCA V0201101N001512200019N0200001N1+02141+00261101591ADDAA199000091GA1041+010509029GF104991041011012501001001MA1999999091581MD1710201+9999REMSYN076AAXX  01124 17202 32670 41103 10214 20026 39158 40159 57020 84100 333 84835;EQDQ01  00002PRCP99
0193172020999992000040115004+38600+039280FM-12+0882LTCA V0203001N00931007501CN0150001N1+01481+00541101721ADDAY191031AY221031GA1021+007509099GF106991061091008001001001MA1999999091631MD1110051+9999MW1291REMSYN088AAXX  01154 17202 41565 63018 10148 20054 39163 40172 51005 72992 86900 333 82925 85830;
0211172020999992000040118004+38600+039280FM-12+0882LTCA V0203001N001512200019N0200001N1+01181+00641101931ADDAA112006191AY191061AY211061GA1001+999999999GF100991001001999999001001KA1999M+02201MA1999999091851MD1210221+9999MW1011REMSYN082AAXX  01184 17202 11970 03003 10118 20064 39185 40193 52022 60062 70191 333 10220;
0143172020999992000040121004+38600+039280FM-12+0882LTCA V0203101N003112200019N0200001N1+00801+00681101941ADDGA1001+999999999GF100991001001999999001001MA1999999091901MD1110051+9999REMSYN060AAXX  01214 17202 42970 03106 10080 20068 39190 40194 51005;
0173172020999992000040200004+38600+039280FM-12+0882LTCA V0202501N002612200019N0200001N1+00701+99999101891ADDAA199000091GA1001+999999999GF100991001001999999001001MA1999999091881MD1610021+9999REMSYN060AAXX  02004 17202 32970 02505 10070 20073 39188 40189 56002;EQDQ01  00002PRCP99
0143172020999992000040203004+38600+039280FM-12+0882LTCA V0203001N001512200019N0200001N1+00621+00361101871ADDGA1001+999999999GF100991001001999999001001MA1999999091801MD1610081+9999REMSYN060AAXX  02034 17202 42970 03003 10062 20036 39180 40187 56008;
0225172020999992000040206004+38600+039280FM-12+0882LTCA V0200601N00151036001CN0200001N1+01001+00481101981ADDAA124006191GA1031+010509089GF105991031011012501051001IA1099IA2999+00309KA1120N+00501MA1999999091901MD1210101+9999REMSYN100AAXX  02064 17202 32670 50603 10100 20048 39190 40198 52010 83150 333 20050 31003 70062 83835 85360;
0165172020999992000040209004+38600+039280FM-12+0882LTCA V0200801N00311036001CN0200001N1+01661+00681101961ADDGA1031+010509089GF105991021011012501031001MA1999999091901MD1410001+9999REMSYN082AAXX  02094 17202 42670 50806 10166 20068 39190 40196 54000 82130 333 83835 85360;
0195172020999992000040212004+38600+039280FM-12+0882LTCA V0209999C00001036001CN0200001N1+02141+00501101591ADDAA199000091GA1031+010509089GF105991031011012501051001MA1999999091601MD1210301+9999REMSYN082AAXX  02124 17202 32670 50000 10214 20050 39160 40159 52030 83150 333 83835 85360;EQDQ01  00002PRCP99
0165172020999992000040215004+38600+039280FM-12+0882LTCA V0201601N00361036001CN0200001N1+02141+00301101431ADDGA1031+010509089GF105991031011012501051001MA1999999091461MD1810141+9999REMSYN082AAXX  02154 17202 42670 51607 10214 20030 39146 40143 58014 83150 333 83835 85360;
0208172020999992000040218004+38600+039280FM-12+0882LTCA V0200701N003612200019N0200001N1+01681+00021101541ADDAA199000091GA1031+030009079GF103991031001999999031001KA1120M+02281MA1999999091541MD1310081+9999REMSYN082AAXX  02184 17202 32970 30707 10168 20002 39154 40154 53008 83030 333 10228 83360;EQDQ01  00002PRCP99
0143172020999992000040221004+38600+039280FM-12+0882LTCA V0200801N004612200019N0200001N1+01341+00041101591ADDGA1001+999999999GF100991001001999999001001MA1999999091621MD1210081+9999REMSYN060AAXX  02214 17202 42970 00809 10134 20004 39162 40159 52008;
0173172020999992000040300004+38600+039280FM-12+0882LTCA V0203001N001512200019N0200001N1+00901+00281101591ADDAA199000091GA1001+999999999GF100991001001999999001001MA1999999091621MD1410001+9999REMSYN060AAXX  03004 17202 32970 03003 10090 20028 39162 40159 54000;EQDQ01  00002PRCP99
0143172020999992000040303004+38600+039280FM-12+0882LTCA V0202901N001512200019N0200001N1+00701+00181101681ADDGA1001+999999999GF100991001001999999001001MA1999999091681MD1310061+9999REMSYN060AAXX  03034 17202 42970 02903 10070 20018 39168 40168 53006;
0238172020999992000040306004+38600+039280FM-12+0882LTCA V0200601N00151220001CN0150001N1+01161+00401101791ADDAA199000091GA1011+010509089GF106991011011012501001011IA1019IA2999+00409KA1120N+00501MA1999999091781MD1210101+9999REMSYN094AAXX  03064 17202 32665 60603 10116 20040 39178 40179 52010 81101 333 20050 30004 81835 86070;EQDQ01  00002PRCP99
0165172020999992000040309004+38600+039280FM-12+0882LTCA V0200901N00261220001CN0150001N1+01861+00161101821ADDGA1021+010509089GF105991021011012501001011MA1999999091841MD1110061+9999REMSYN082AAXX  03094 17202 42665 50905 10186 20016 39184 40182 51006 82101 333 82835 85070;
0195172020999992000040312004+38600+039280FM-12+0882LTCA V0203001N00671220001CN0150001N1+02161-00101101771ADDAA199000091GA1041+009009089GF106991041021008001001011MA1999999091611MD1710231+9999REMSYN082AAXX  03124 17202 32565 63013 10216 21010 39161 40177 57023 84201 333 84830 86070;EQDQ01  00002PRCP99
0159172020999992000040315004+38600+039280FM-12+0882LTCA V0202901N004110105019N0200001N1+01961-00021101631ADDGA1051+010509029GF105991051021012501001001MA1999999091621MD1310011+9999REMSYN076AAXX  03154 17202 42670 52908 10196 21002 39162 40163 53001 85200 333 85835;
0196172020999992000040318004+38600+039280FM-12+0882LTCA V0209999C000012200019N0200001N1+01341+00041101651ADDAA199000091GA1001+999999999GF100991001001999999001001KA1999M+02301MA1999999091641MD1110021+9999REMSYN070AAXX  03184 17202 32970 00000 10134 20004 39164 40165 51002 333 10230;EQDQ01  00002PRCP99
0143172020999992000040321004+38600+039280FM-12+0882LTCA V0202901N002612200019N0200001N1+00901+00281101741ADDGA1001+999999999GF100991001001999999001001MA1999999091741MD1110101+9999REMSYN060AAXX  03214 17202 42970 02905 10090 20028 39174 40174 51010;
0173172020999992000040400004+38600+039280FM-12+0882LTCA V0202801N002612200019N0200001N1+00601+00221101861ADDAA199000091GA1001+999999999GF100991001001999999001001MA1999999091841MD1210101+9999REMSYN060AAXX  04004 17202 32970 02805 10060 20022 39184 40186 52010;EQDQ01  00002PRCP99
0159172020999992000040403004+38600+039280FM-12+0882LTCA V0209999C000012200019N0200001N1+00501+00161101901ADDGA1031+030009079GF103991031001999999031001MA1999999091841MD1410001+9999REMSYN076AAXX  04034 17202 42970 30000 10050 20016 39184 40190 54000 83030 333 83360;
0238172020999992000040406004+38600+039280FM-12+0882LTCA V0202501N00101036001CN0200001N1+00981+00621101981ADDAA199000091GA1031+010509089GF106991031021012501051001IA1019IA2999+00309KA1120N+00461MA1999999091921MD1310081+9999REMSYN094AAXX  04064 17202 32670 62502 10098 20062 39192 40198 53008 83250 333 20046 30003 83835 86360;EQDQ01  00002PRCP99
0165172020999992000040409004+38600+039280FM-12+0882LTCA V0200701N00361220001CN0200001N1+01701+00301101941ADDGA1021+010509089GF106991021011012501001011MA1999999091901MD1810021+9999REMSYN082AAXX  04094 17202 42670 60707 10170 20030 39190 40194 58002 82101 333 82835 86070;
0195172020999992000040412004+38600+039280FM-12+0882LTCA V0201001N00211220001CN0200001N1+02201+00201101671ADDAA199000091GA1031+010509089GF105991031011012501001011MA1999999091671MD1710231+9999REMSYN082AAXX  04124 17202 32670 51004 10220 20020 39167 40167 57023 83101 333 83835 85070;EQDQ01  00002PRCP99
0187172020999992000040415004+38600+039280FM-12+0882LTCA V0201901N002610090019N0150001N1+02041-00021101591ADDGA1011+008109099GA2051+009009089GF107991051031008001051001MA1999999091591MD1710081+9999REMSYN088AAXX  04154 17202 42565 71905 10204 21002 39159 40159 57008 85350 333 81927 85830 85358;
0229172020999992000040418004+38600+039280FM-12+0882LTCA V0200501N002112200019N0200001N1+01421+00801101831ADDAA112000591AY191061AY221061GA1021+010509089GF103991021011012501031001KA1120M+02301MA1999999091781MD1210191+9999MW1011REMSYN100AAXX  04184 17202 11670 30504 10142 20080 39178 40183 52019 69952 70192 82130 333 10230 82835 83360;
0188172020999992000040500004+38600+039280FM-12+0882LTCA V0201101N002112200019N0200001N1+01101+00901101771ADDAA106001091AY181061AY211061GA1001+999999999GF100991001001999999001001MA1999999091801MD1810101+9999MW1021REMSYN072AAXX  05004 17202 11970 01104 10110 20090 39180 40177 58010 60011 70281;
0143172020999992000040503004+38600+039280FM-12+0882LTCA V0202801N002112200019N0200001N1+00881+00721101801ADDGA1001+999999999GF100991001001999999001001MA1999999091811MD1310011+9999REMSYN060AAXX  05034 17202 42970 02804 10088 20072 39181 40180 53001;
0225172020999992000040506004+38600+039280FM-12+0882LTCA V0209999C000012200019N0200001N1+01361+00861101891ADDAA112001091GA1021+030009079GF102991021001999999031001IA1099IA2999+00609KA1120N+00781MA1999999091871MD1210061+9999REMSYN100AAXX  05064 17202 12970 20000 10136 20086 39187 40189 52006 60012 82030 333 20078 31006 70015 82360;
0159172020999992000040509004+38600+039280FM-12+0882LTCA V0201301N002112200019N0200001N1+01961+00741101821ADDGA1021+010509029GF102991021011012501001001MA1999999091841MD1810031+9999REMSYN076AAXX  05094 17202 42670 21304 10196 20074 39184 40182 58003 82100 333 82835;
0189172020999992000040512004+38600+039280FM-12+0882LTCA V0201001N002112200019N0200001N1+02321+00221101531ADDAA199000091GA1031+010509029GF103991031011012501001001MA1999999091601MD1710241+9999REMSYN076AAXX  05124 17202 32670 31004 10232 20022 39160 40153 57024 83100 333 83835;EQDQ01  00002PRCP99
0159172020999992000040515004+38600+039280FM-12+0882LTCA V0200701N002112200019N0200001N1+02141+00141101361ADDGA1041+010509029GF104991041021012501001001MA1999999091411MD1710191+9999REMSYN076AAXX  05154 17202 42670 40704 10214 20014 39141 40136 57019 84200 333 84835;
0196172020999992000040518004+38600+039280FM-12+0882LTCA V0202801N001512200019N0200001N1+01601+00221101421ADDAA199000091GA1001+999999999GF100991001001999999001001KA1999M+02341MA1999999091471MD1210061+9999REMSYN070AAXX  05184 17202 32970 02803 10160 20022 39147 40142 52006 333 10234;EQDQ01  00002PRCP99
0143172020999992000040521004+38600+039280FM-12+0882LTCA V0203101N001512200019N0200001N1+01421+00441101361ADDGA1001+999999999GF100991001001999999001001MA1999999091471MD1410001+9999REMSYN060AAXX  05214 17202 42970 03103 10142 20044 39147 40136 54000;
0173172020999992000040600004+38600+039280FM-12+0882LTCA V0209999C000012200019N0200001N1+01061+00321101271ADDAA199000091GA1001+999999999GF100991001001999999001001MA1999999091371MD1710101+9999REMSYN060AAXX  06004 17202 32970 00000 10106 20032 39137 40127 57010;EQDQ01  00002PRCP99
0143172020999992000040603004+38600+039280FM-12+0882LTCA V0202601N001012200019N0200001N1+00941+00461101291ADDGA1001+999999999GF100991001001999999001001MA1999999091351MD1510021+9999REMSYN060AAXX  06034 17202 42970 02602 10094 20046 39135 40129 55002;
0232172020999992000040606004+38600+039280FM-12+0882LTCA V0201001N002112200019N0200001N1+01501+00561101331ADDAA199000091GA1021+010509029GF102991021011012501001001IA1019IA2999+00709KA1120N+00901MA1999999091401MD1110051+9999REMSYN088AAXX  06064 17202 32670 21004 10150 20056 39140 40133 51005 82100 333 20090 30007 82835;EQDQ01  00002PRCP99
0159172020999992000040609004+38600+039280FM-12+0882LTCA V0200601N004112200019N0200001N1+02301+00521101161ADDGA1021+010509029GF102991021011012501001001MA1999999091301MD1810101+9999REMSYN076AAXX  06094 17202 42670 20608 10230 20052 39130 40116 58010 82100 333 82835;
0189172020999992000040612004+38600+039280FM-12+0882LTCA V0201601N006212200019N0200001N1+02601+00501100911ADDAA199000091GA1041+010509029GF104991041021012501001001MA1999999091061MD1710241+9999REMSYN076AAXX  06124 17202 32670 41612 10260 20050 39106 40091 57024 84200 333 84835;EQDQ01  00002PRCP99
0159172020999992000040615004+38600+039280FM-12+0882LTCA V0201901N007212200019N0200001N1+02441+00481100761ADDGA1031+010509029GF103991031011012501001001MA1999999090901MD1610161+9999REMSYN076AAXX  06154 17202 42670 31914 10244 20048 39090 40076 56016 83100 333 83835;
0196172020999992000040618004+38600+039280FM-12+0882LTCA V0202201N001512200019N0200001N1+02021+00301100731ADDAA199000091GA1001+999999999GF100991001001999999001001KA1999M+02641MA1999999090891MD1610011+9999REMSYN070AAXX  06184 17202 32970 02203 10202 20030 39089 40073 56001 333 10264;EQDQ01  00002PRCP99
0143172020999992000040621004+38600+039280FM-12+0882LTCA V0209999C000012200019N0200001N1+01581+00161100701ADDGA1001+999999999GF100991001001999999001001MA1999999090881MD1810011+9999REMSYN060AAXX  06214 17202 42970 00000 10158 20016 39088 40070 58001;
0173172020999992000040700004+38600+039280FM-12+0882LTCA V0200501N002112200019N0200001N1+01001+00161100621ADDAA199000091GA1001+999999999GF100991001001999999001001MA1999999090801MD1710081+9999REMSYN060AAXX  07004 17202 32970 00504 10100 20016 39080 40062 57008;EQDQ01  00002PRCP99
0159172020999992000040703004+38600+039280FM-12+0882LTCA V0202901N001512200019N0200001N1+01001+00261100541ADDGA1021+030009079GF102991021001999999031001MA1999999090711MD1710091+9999REMSYN076AAXX  07034 17202 42970 22903 10100 20026 39071 40054 57009 82030 333 82360;
0232172020999992000040706004+38600+039280FM-12+0882LTCA V0201001N002612200019N0200001N1+01361+00221100531ADDAA199000091GA1011+060009019GF101991001001999999001011IA1019IA2999+00709KA1120N+00921MA1999999090701MD1610011+9999REMSYN088AAXX  07064 17202 32970 11005 10136 20022 39070 40053 56001 80001 333 20092 30007 81070;EQDQ01  00002PRCP99
0159172020999992000040709004+38600+039280FM-12+0882LTCA V0202201N003612200019N0200001N1+02141-00181100411ADDGA1011+010509029GF101991011011012501001001MA1999999090621MD1710081+9999REMSYN076AAXX  07094 17202 42670 12207 10214 21018 39062 40041 57008 81100 333 81835;
0189172020999992000040712004+38600+039280FM-12+0882LTCA V0202601N006712200019N0200001N1+02161-00181100421ADDAA199000091GA1041+010509029GF104991041021012501001001MA1999999090581MD1810041+9999REMSYN076AAXX  07124 17202 32670 42613 10216 21018 39058 40042 58004 84200 333 84835;EQDQ01  00002PRCP99
0159172020999992000040715004+38600+039280FM-12+0882LTCA V0202901N008212200019N0200001N1+01981-00041100481ADDGA1031+010509029GF103991031011012501001001MA1999999090621MD1310041+9999REMSYN076AAXX  07154 17202 42670 32916 10198 21004 39062 40048 53004 83100 333 83835;
0196172020999992000040718004+38600+039280FM-12+0882LTCA V0202901N005112200019N0200001N1+01501+00021100761ADDAA199000091GA1001+999999999GF100991001001999999001001KA1999M+02361MA1999999090801MD1210181+9999REMSYN070AAXX  07184 17202 32970 02910 10150 20002 39080 40076 52018 333 10236;EQDQ01  00002PRCP99
0143172020999992000040721004+38600+039280FM-12+0882LTCA V0202101N003612200019N0200001N1+00901-00241100861ADDGA1001+999999999GF100991001001999999001001MA1999999090961MD1210161+9999REMSYN060AAXX  07214 17202 42970 02107 10090 21024 39096 40086 52016;
0173172020999992000040800004+38600+039280FM-12+0882LTCA V0203101N003112200019N0200001N1+00701-00241100951ADDAA199000091GA1001+999999999GF100991001001999999001001MA1999999091021MD1210061+9999REMSYN060AAXX  08004 17202 32970 03106 10070 21024 39102 40095 52006;EQDQ01  00002PRCP99
0143172020999992000040803004+38600+039280FM-12+0882LTCA V0209999C000012200019N0200001N1+00481-00191100761ADDGA1001+999999999GF100991001001999999001001MA1999999090821MD1710201+9999REMSYN060AAXX  08034 17202 42970 00000 10048 21019 39082 40076 57020;
0270172020999992000040806004+38600+039280FM-12+0882LTCA V0200601N00311036001CN0200001N1+01201+00321100721ADDAA199000091GA1031+010509089GF105991031021012501051001IA1019IA2999+00309KA1120N+00461MA1999999090821MD1710041+9999REMSYN094AAXX  08064 17202 32670 50606 10120 20032 39082 40072 53000 83250 333 20046 30003 83835 85360;EQDQ01+000032APCTENQ02+000002APC3  Q03  00002PRCP99
0165172020999992000040809004+38600+039280FM-12+0882LTCA V0201601N00511036001CN0200001N1+01601+00221100721ADDGA1031+010509089GF105991031021012501051001MA1999999090801MD1810021+9999REMSYN082AAXX  08094 17202 42670 51610 10160 20022 39080 40072 58002 83250 333 83835 85360;
0195172020999992000040812004+38600+039280FM-12+0882LTCA V0202601N006210105019N0200001N1+01861+00361100681ADDAA199000091GA1051+010509089GF106991051021012501051001MA1999999090761MD1810041+9999REMSYN082AAXX  08124 17202 32670 62612 10186 20036 39076 40068 58004 85250 333 85835 86360;EQDQ01  00002PRCP99
0165172020999992000040815004+38600+039280FM-12+0882LTCA V0201801N007710105019N0200001N1+01521+00301100691ADDGA1051+010509089GF107991051021012501051001MA1999999090721MD1610041+9999REMSYN082AAXX  08154 17202 42670 71815 10152 20030 39072 40069 56004 85250 333 85835 87360;
0208172020999992000040818004+38600+039280FM-12+0882LTCA V0203201N001010105019N0200001N1+01161+00081100731ADDAA199000091GA1051+010509029GF105991051021012501001001KA1120M+01901MA1999999090791MD1210071+9999REMSYN082AAXX  08184 17202 32670 53202 10116 20008 39079 40073 52007 85200 333 10190 85835;EQDQ01  00002PRCP99
0159172020999992000040821004+38600+039280FM-12+0882LTCA V0202801N001512200019N0200001N1+00861-00031100771ADDGA1031+010509029GF103991031011012501001001MA1999999090831MD1010041+9999REMSYN076AAXX  08214 17202 42670 32803 10086 21003 39083 40077 50004 83100 333 83835;
0189172020999992000040900004+38600+039280FM-12+0882LTCA V0203201N001012200019N0200001N1+00801+00281100631ADDAA199000091GA1031+010509029GF103991031011012501001001MA1999999090721MD1710111+9999REMSYN076AAXX  09004 17202 32670 33202 10080 20028 39072 40063 57011 83100 333 83835;EQDQ01  00002PRCP99
0193172020999992000040903004+38600+039280FM-12+0882LTCA V0200801N002110090019N0200001N1+00701+00491100581ADDAY111031AY211031GA1051+009009089GF107991051021008001051001MA1999999090641MD1710081+9999MW1801REMSYN088AAXX  09034 17202 41570 70804 10070 20049 39064 40058 57008 78011 85250 333 85830 87358;
0259172020999992000040906004+38600+039280FM-12+0882LTCA V0202301N00151036001CN0200001N1+00701+00491100771ADDAA112004191AY181061AY221061GA1031+010509089GF105991031021012501051001IA1119IA2999+00409KA1120N+00581MA1999999090771MD1210131+9999MW1251REMSYN112AAXX  09064 17202 11670 52303 10070 20049 39077 40077 52013 60042 72582 83250 333 20058 32004 70040 83835 85359;
0193172020999992000040909004+38600+039280FM-12+0882LTCA V0201501N002610090019N0080001N1+01101+00681100691ADDAY121031AY221031GA1051+009009089GF107991051021008001051001MA1999999090721MD1810051+9999MW1801REMSYN088AAXX  09094 17202 41558 71505 10110 20068 39072 40069 58005 78022 85250 333 85830 87358;
0232172020999992000040912004+38600+039280FM-12+0882LTCA V0202601N004110090019N0050001N1+00921+00521100621ADDAA106001091AY181061AY221061GA1021+007509099GA2051+009009089GF107991061091008001051001MA1999999090641MD1610081+9999MW1951REMSYN100AAXX  09124 17202 11550 72608 10092 20052 39064 40062 56008 60011 79582 86950 333 82925 85830 87358;
0193172020999992000040915004+38600+039280FM-12+0882LTCA V0202701N002610090019N0150001N1+00701+00491100711ADDAY191031AY221031GA1051+009009089GF107991051021008001051001MA1999999090681MD1010041+9999MW1801REMSYN088AAXX  09154 17202 41565 72705 10070 20049 39068 40071 50004 78092 85250 333 85830 87359;
0229172020999992000040918004+38600+039280FM-12+0882LTCA V0200501N002610105019N0150001N1+00701+00491100791ADDAA112005191AY191061AY281061GA1051+010509089GF107991051021012501051001KA1120M+01141MA1999999090751MD1310071+9999MW1251REMSYN100AAXX  09184 17202 11665 70505 10070 20049 39075 40079 53007 60052 72598 85250 333 10114 85835 87359;
0193172020999992000040921004+38600+039280FM-12+0882LTCA V0203001N00311036001CN0150001N1+00661+00321100771ADDAY181031AY221031GA1041+010509089GF107991041021012501051001MA1999999090771MD1110021+9999MW1011REMSYN088AAXX  09214 17202 41665 73006 10066 20032 39077 40077 51002 70182 84250 333 84835 87359;
0210172020999992000041000004+38600+039280FM-12+0882LTCA V0202801N004110105019N0150001N1+00601+00461100851ADDAA106000791AY121061AY221061GA1051+010509069GF108991051041012501021999MA1999999090821MD1310051+9999MW1601REMSYN094AAXX  10004 17202 11665 82808 10060 20046 39082 40085 53005 69901 76022 8542/ 333 85635 88459;
0215172020999992000041003004+38600+039280FM-12+0882LTCA V0202401N003610090019N0100001N1+00541+00401101091ADDAY121031AY221031GA1021+004509079GA2061+009009069GF108991071071004501021999MA1999999091001MD1210181+9999MW1601REMSYN094AAXX  10034 17202 41460 82407 10054 20040 39100 40109 52018 76022 8772/ 333 82715 86630 88459;
0259172020999992000041006004+38600+039280FM-12+0882LTCA V0202401N004610090019N0200001N1+00501+00171101341ADDAA112003091AY161061AY221061GA1051+009009089GF107991051051008001051001IA1119IA2999+00109KA1120N+00301MA1999999091231MD1210231+9999MW1021REMSYN112AAXX  10064 17202 11570 72409 10050 20017 39123 40134 52023 60032 70262 85550 333 20030 32001 70080 85830 87359;
0165172020999992000041009004+38600+039280FM-12+0882LTCA V0202601N00511036001CN0200001N1+01001-00101101471ADDGA1041+010509089GF105991041021012501051001MA1999999091381MD1210151+9999REMSYN082AAXX  10094 17202 42670 52610 10100 21010 39138 40147 52015 84250 333 84835 85360;
0176172020999992000041012004+38600+039280FM-12+0882LTCA V0202701N00361036001CN0200001N1+01081-00221101491ADDAA199000021GA1041+010509089GF106991041021012501051001MA1999999091401MD1110021+9999REMSYN082AAXX  10124 17202 32670 62707 10108 21022 39140 40149 51002 84250 333 84835 86360;
0159172020999992000041015004+38600+039280FM-12+0882LTCA V0203201N002612200019N0200001N1+01101-00311101511ADDGA1041+012009029GF104991041011012501001001MA1999999091421MD1110021+9999REMSYN076AAXX  10154 17202 42670 43205 10110 21031 39142 40151 51002 84100 333 84840;
0196172020999992000041018004+38600+039280FM-12+0882LTCA V0202901N001012200019N0200001N1+00641-00581101641ADDAA199000091GA1001+999999999GF100991001001999999001001KA1999M+01121MA1999999091501MD1310081+9999REMSYN070AAXX  10184 17202 32970 02902 10064 21058 39150 40164 53008 333 10112;EQDQ01  00002PRCP99
0143172020999992000041021004+38600+039280FM-12+0882LTCA V0202801N002112200019N0200001N1+00381-00311101761ADDGA1001+999999999GF100991001001999999001001MA1999999091621MD1210121+9999REMSYN060AAXX  10214 17202 42970 02804 10038 21031 39162 40176 52012;
0173172020999992000041100004+38600+039280FM-12+0882LTCA V0203001N003112200019N0200001N1+00141-00211101821ADDAA199000091GA1001+999999999GF100991001001999999001001MA1999999091661MD1110041+9999REMSYN060AAXX  11004 17202 32970 03006 10014 21021 39166 40182 51004;EQDQ01  00002PRCP99
0143172020999992000041103004+38600+039280FM-12+0882LTCA V0202901N002612200019N0200001N1-00041-00291101891ADDGA1001+999999999GF100991001001999999001001MA1999999091701MD1310021+9999REMSYN060AAXX  11034 17202 42970 02905 11004 21029 39170 40189 53002;
0232172020999992000041106004+38600+039280FM-12+0882LTCA V0200901N002112200019N0200001N1+00701+00281101911ADDAA199000091GA1011+009009029GF101991011011008001001001IA1119IA2999-00209KA1120N-00061MA1999999091761MD1110061+9999REMSYN088AAXX  11064 17202 32570 10904 10070 20028 39176 40191 51006 81100 333 21006 32102 81830;EQDQ01  00002PRCP99
0165172020999992000041109004+38600+039280FM-12+0882LTCA V0200601N001512200019N0200001N1+01261+00261101821ADDGA1031+010509089GF104991031011012501001011MA1999999091701MD1810061+9999REMSYN082AAXX  11094 17202 42670 40603 10126 20026 39170 40182 58006 83101 333 83835 84070;
0195172020999992000041112004+38600+039280FM-12+0882LTCA V0201801N00621036001CN0200001N1+01441-00371101661ADDAA199000091GA1041+010509089GF107991041021012501051001MA1999999091551MD1710151+9999REMSYN082AAXX  11124 17202 32670 71812 10144 21037 39155 40166 57015 84250 333 84835 87360;EQDQ01  00002PRCP99
0165172020999992000041115004+38600+039280FM-12+0882LTCA V0201901N00411036001CN0200001N1+01421-00381101621ADDGA1041+010509089GF107991041021012501051001MA1999999091501MD1610051+9999REMSYN082AAXX  11154 17202 42670 71908 10142 21038 39150 40162 56005 84250 333 84835 87360;
0196172020999992000041118004+38600+039280FM-12+0882LTCA V0209999C000012200019N0200001N1+01041-00341101581ADDAA199000091GA1001+999999999GF100991001001999999001001KA1999M+01541MA1999999091501MD1410001+9999REMSYN070AAXX  11184 17202 32970 00000 10104 21034 39150 40158 54000 333 10154;EQDQ01  00002PRCP99
0143172020999992000041121004+38600+039280FM-12+0882LTCA V0209999C000012200019N0200001N1+01001-00341101651ADDGA1001+999999999GF100991001001999999001001MA1999999091601MD1210101+9999REMSYN060AAXX  11214 17202 42970 00000 10100 21034 39160 40165 52010;
0173172020999992000041200004+38600+039280FM-12+0882LTCA V0200901N002112200019N0200001N1+00901-00241101521ADDAA199000091GA1001+999999999GF100991001001999999001001MA1999999091501MD1810101+9999REMSYN060AAXX  12004 17202 32970 00904 10090 21024 39150 40152 58010;EQDQ01  00002PRCP99
0143172020999992000041203004+38600+039280FM-12+0882LTCA V0203201N002112200019N0200001N1+00541-00181101561ADDGA1001+999999999GF100991001001999999001001MA1999999091501MD1410001+9999REMSYN060AAXX  12034 17202 42970 03204 10054 21018 39150 40156 54000;
0220172020999992000041206004+38600+039280FM-12+0882LTCA V0200901N002112200019N0200001N1+01261+00361101661ADDAA199000091GA1001+999999999GF100991001001999999001001IA1019IA2999+00309KA1120N+00501MA1999999091631MD1210131+9999REMSYN076AAXX  12064 17202 32970 00904 10126 20036 39163 40166 52013 333 20050 30003;EQDQ01  00002PRCP99
0165172020999992000041209004+38600+039280FM-12+0882LTCA V0203101N00101036001CN0200001N1+01461+00101101641ADDGA1041+010509089GF107991041021012501051001MA1999999091611MD1610021+9999REMSYN082AAXX  12094 17202 42670 73102 10146 20010 39161 40164 56002 84250 333 84835 87360;
0210172020999992000041212004+38600+039280FM-12+0882LTCA V0203001N001510090019N0150001N1+01281+00501101651ADDAA106000891AY181061AY211061GA1051+009009089GF107991051021008001051001MA1999999091601MD1510011+9999MW1801REMSYN094AAXX  12124 17202 11565 73003 10128 20050 39160 40165 55001 69971 78081 85250 333 85830 87359;
0165172020999992000041215004+38600+039280FM-12+0882LTCA V0200601N00511036001CN0200001N1+01201+00501101651ADDGA1031+010509089GF105991031021012501051001MA1999999091581MD1810021+9999REMSYN082AAXX  12154 17202 42670 50610 10120 20050 39158 40165 58002 83250 333 83835 85360;
0229172020999992000041218004+38600+039280FM-12+0882LTCA V0200601N00361090001CN0200001N1+01081+00401101671ADDAA112000891AY181061AY221061GA1011+010509089GF105991011011012501001051KA1120M+01541MA1999999091641MD1210061+9999MW1011REMSYN100AAXX  12184 17202 11670 50607 10108 20040 39164 40167 52006 69972 70182 81105 333 10154 81835 85270;
0165172020999992000041221004+38600+039280FM-12+0882LTCA V0200501N00211090001CN0200001N1+00981+00441101781ADDGA1011+010509089GF105991011011012501001051MA1999999091741MD1210101+9999REMSYN082AAXX  12214 17202 42670 50504 10098 20044 39174 40178 52010 81105 333 81835 85270;
0176172020999992000041300004+38600+039280FM-12+0882LTCA V0200701N00361090001CN0200001N1+00941+00661101731ADDAA199000021GA1011+010509089GF105991011011012501001051MA1999999091681MD1710061+9999REMSYN082AAXX  13004 17202 32670 50707 10094 20066 39168 40173 57006 81105 333 81835 85270;
0165172020999992000041303004+38600+039280FM-12+0882LTCA V0203001N00101036001CN0150001N1+00841+00721101781ADDGA1041+010509089GF107991041021012501051001MA1999999091701MD1110021+9999REMSYN082AAXX  13034 17202 42665 73002 10084 20072 39170 40178 51002 84250 333 84835 87360;
0303172020999992000041306004+38600+039280FM-12+0882LTCA V0209999C000010090019N0070001N1+00901+00841101841ADDAA112002091AY181061AY221061GA1031+003609079GA2051+009009069GA3081+024009049GF108991061071004501021999IA1119IA2999+00709KA1120N+00821MA1999999091751MD1310051+9999MW1601REMSYN124AAXX  13064 17202 11457 80000 10090 20084 39175 40184 53005 60022 76082 8672/ 333 20082 32007 70016 83712 85630 88458 96010;
0237172020999992000041309004+38600+039280FM-12+0882LTCA V0200601N002110090019N0070001N1+01181+00901101801ADDAY161031AY221031GA1031+003609079GA2051+009009069GA3081+024009049GF108991061071004501021999MA1999999091741MD1810011+9999MW1601REMSYN100AAXX  13094 17202 41457 80604 10118 20090 39174 40180 58001 76062 8672/ 333 83712 85630 88458 96010;
0210172020999992000041312004+38600+039280FM-12+0882LTCA V0201101N004110105019N0150001N1+01341+00781101461ADDAA106000591AY161061AY221061GA1051+010509069GF107991051051012501071001MA1999999091431MD1710311+9999MW1011REMSYN094AAXX  13124 17202 11665 71108 10134 20078 39143 40146 57031 69941 70162 85570 333 85635 87359;
0165172020999992000041315004+38600+039280FM-12+0882LTCA V0200701N00461036001CN0200001N1+01461+00731101081ADDGA1031+010509089GF106991031021012501051001MA1999999091111MD1710321+9999REMSYN082AAXX  13154 17202 42670 60709 10146 20073 39111 40108 57032 83250 333 83835 86360;
0201172020999992000041318004+38600+039280FM-12+0882LTCA V0200401N00101036001CN0200001N1+01241+00681100891ADDAA112000591GA1031+010509089GF105991031021012501051001KA1120M+01501MA1999999090921MD1710191+9999REMSYN094AAXX  13184 17202 12670 50402 10124 20068 39092 40089 57019 69942 83250 333 10150 83835 85360;
0165172020999992000041321004+38600+039280FM-12+0882LTCA V0202101N00151036001CN0200001N1+00941+00541100831ADDGA1031+010509089GF105991031021012501051001MA1999999090861MD1710061+9999REMSYN082AAXX  13214 17202 42670 52103 10094 20054 39086 40083 57006 83250 333 83835 85360;
0195172020999992000041400004+38600+039280FM-12+0882LTCA V0202501N00261036001CN0200001N1+00841+00721100541ADDAA199000091GA1031+010509089GF105991031021012501051001MA1999999090601MD1710261+9999REMSYN082AAXX  14004 17202 32670 52505 10084 20072 39060 40054 57026 83250 333 83835 85360;EQDQ01  00002PRCP99
0165172020999992000041403004+38600+039280FM-12+0882LTCA V0202401N00261036001CN0200001N1+00801+00641100371ADDGA1031+010509069GF106991031051012501051001MA1999999090451MD1710151+9999REMSYN082AAXX  14034 17202 42670 62405 10080 20064 39045 40037 57015 83550 333 83635 86360;
0225172020999992000041406004+38600+039280FM-12+0882LTCA V0202201N00511036001CN0200001N1+01401+01021100611ADDAA124000591GA1041+010509089GF107991041021012501051001IA1099IA2999+00509KA1120N+00601MA1999999090701MD1210251+9999REMSYN100AAXX  14064 17202 32670 72210 10140 20102 39070 40061 52025 84250 333 20060 31005 70004 84835 87359;
0165172020999992000041409004+38600+039280FM-12+0882LTCA V0202901N00621036001CN0200001N1+01861+00881100681ADDGA1031+012009089GF105991031011012501051001MA1999999090781MD1310081+9999REMSYN082AAXX  14094 17202 42670 52912 10186 20088 39078 40068 53008 83150 333 83840 85360;
0159172020999992000041415004+38600+039280FM-12+0882LTCA V0202701N002112200019N0200001N1+01901+00721100621ADDGA1041+012009029GF104991041021012501001001MA1999999090731MD1510011+9999REMSYN076AAXX  14154 17202 42670 42704 10190 20072 39073 40062 55001 84200 333 84840;
0214172020999992000041418004+38600+039280FM-12+0882LTCA V0202301N00461036001CN0200001N1+01581+00721100791ADDAA199000091GA1031+012009069GF105991031041012501051001KA1120M+02041MA1999999090901MD1210171+9999REMSYN088AAXX  14184 17202 32670 52309 10158 20072 39090 40079 52017 83450 333 10204 83640 85360;EQDQ01  00002PRCP99
0165172020999992000041421004+38600+039280FM-12+0882LTCA V0202101N003612200019N0200001N1+01361+00561100881ADDGA1011+012009069GF103991011041012501031001MA1999999091001MD1210101+9999REMSYN082AAXX  14214 17202 42670 32107 10136 20056 39100 40088 52010 81430 333 81640 83360;
0173172020999992000041500004+38600+039280FM-12+0882LTCA V0202501N002112200019N0200001N1+01101+00431100921ADDAA199000091GA1001+999999999GF100991001001999999001001MA1999999091031MD1110031+9999REMSYN060AAXX  15004 17202 32970 02504 10110 20043 39103 40092 51003;EQDQ01  00002PRCP99
0143172020999992000041503004+38600+039280FM-12+0882LTCA V0203201N002112200019N0200001N1+00821+00131101031ADDGA1001+999999999GF100991001001999999001001MA1999999091101MD1310071+9999REMSYN060AAXX  15034 17202 42970 03204 10082 20013 39110 40103 53007;
0238172020999992000041506004+38600+039280FM-12+0882LTCA V0202601N001012200019N0200001N1+01241+00121101181ADDAA199000091GA1011+010509089GF104991011011012501031001IA1099IA2999+00409KA1120N+00521MA1999999091231MD1210131+9999REMSYN094AAXX  15064 17202 32670 42602 10124 20012 39123 40118 52013 81130 333 20052 31004 81835 84360;EQDQ01  00002PRCP99
0165172020999992000041509004+38600+039280FM-12+0882LTCA V0202101N001512200019N0200001N1+01881+00421101121ADDGA1011+010509089GF103991011011012501031001MA1999999091221MD1810011+9999REMSYN082AAXX  15094 17202 42670 32103 10188 20042 39122 40112 58001 81130 333 81835 83360;
0189172020999992000041512004+38600+039280FM-12+0882LTCA V0203201N002112200019N0200001N1+02081+00221101031ADDAA199000091GA1041+010509029GF104991041021012501001001MA1999999091131MD1710091+9999REMSYN076AAXX  15124 17202 32670 43204 10208 20022 39113 40103 57009 84200 333 84835;EQDQ01  00002PRCP99
0143172020999992000041515004+38600+039280FM-12+0882LTCA V0203101N003612200019N0200001N1+02101+00201100901ADDGA1001+999999999GF100991001001999999001001MA1999999091001MD1710131+9999REMSYN060AAXX  15154 17202 42970 03107 10210 20020 39100 40090 57013;
0196172020999992000041518004+38600+039280FM-12+0882LTCA V0209999C000012200019N0200001N1+01701+00341101241ADDAA199000091GA1001+999999999GF100991001001999999001001KA1999M+02241MA1999999091301MD1210301+9999REMSYN070AAXX  15184 17202 32970 00000 10170 20034 39130 40124 52030 333 10224;EQDQ01  00002PRCP99
0143172020999992000041521004+38600+039280FM-12+0882LTCA V0209999C000012200019N0200001N1+01261+00061101221ADDGA1001+999999999GF100991001001999999001001MA1999999091301MD1410001+9999REMSYN060AAXX  15214 17202 42970 00000 10126 20006 39130 40122 54000;
0173172020999992000041600004+38600+039280FM-12+0882LTCA V0209999C000012200019N0200001N1+00821+00131101241ADDAA199000091GA1001+999999999GF100991001001999999001001MA1999999091301MD1410001+9999REMSYN060AAXX  16004 17202 32970 00000 10082 20013 39130 40124 54000;EQDQ01  00002PRCP99
0143172020999992000041603004+38600+039280FM-12+0882LTCA V0209999C000012200019N0200001N1+00681+00241101301ADDGA1001+999999999GF100991001001999999001001MA1999999091341MD1210041+9999REMSYN060AAXX  16034 17202 42970 00000 10068 20024 39134 40130 52004;
0220172020999992000041606004+38600+039280FM-12+0882LTCA V0201001N001012200019N0200001N1+01481+00481101431ADDAA199000091GA1001+999999999GF100991001001999999001001IA1019IA2999+00409KA1120N+00601MA1999999091491MD1210151+9999REMSYN076AAXX  16064 17202 32970 01002 10148 20048 39149 40143 52015 333 20060 30004;EQDQ01  00002PRCP99
0159172020999992000041609004+38600+039280FM-12+0882LTCA V0200701N002612200019N0200001N1+01961+00581101401ADDGA1021+010509029GF102991021011012501001001MA1999999091471MD1810021+9999REMSYN076AAXX  16094 17202 42670 20705 10196 20058 39147 40140 58002 82100 333 82835;
0189172020999992000041612004+38600+039280FM-12+0882LTCA V0201101N002112200019N0200001N1+02301+00401101261ADDAA199000091GA1021+010509029GF102991021011012501001001MA1999999091341MD1710131+9999REMSYN076AAXX  16124 17202 32670 21104 10230 20040 39134 40126 57013 82100 333 82835;EQDQ01  00002PRCP99
0159172020999992000041615004+38600+039280FM-12+0882LTCA V0203101N003112200019N0200001N1+02301+00221101191ADDGA1011+010509029GF101991011011012501001001MA1999999091261MD1710081+9999REMSYN076AAXX  16154 17202 42670 13106 10230 20022 39126 40119 57008 81100 333 81835;
0196172020999992000041618004+38600+039280FM-12+0882LTCA V0202801N003612200019N0200001N1+01501-00281101211ADDAA199000091GA1001+999999999GF100991001001999999001001KA1999M+02401MA1999999091281MD1310021+9999REMSYN070AAXX  16184 17202 32970 02807 10150 21028 39128 40121 53002 333 10240;EQDQ01  00002PRCP99
0143172020999992000041621004+38600+039280FM-12+0882LTCA V0203201N003112200019N0200001N1+00981-00081101231ADDGA1001+999999999GF100991001001999999001001MA1999999091301MD1310021+9999REMSYN060AAXX  16214 17202 42970 03206 10098 21008 39130 40123 53002;
0201172020999992000041700004+38600+039280FM-12+0882LTCA V0201301N00261036001CN0200001N1+01901+00521100741ADDAA112000191GA1031+010509089GF106991031011012501051001KA1120M+02341MA1999999090901MD1610041+9999REMSYN094AAXX  18184 17202 12670 61305 10190 20052 39090 40074 56004 69912 83150 333 10234 83835 86360;
0143172020999992000041703004+38600+039280FM-12+0882LTCA V0202801N002112200019N0200001N1+00502+00001101311ADDGA1001+999999999GF100991001001999999001001MA1999999091351MD1310041+9999REMSYN060AAXX  17034 17202 42970 02804 10050 20000 39135 40131 53004;
0232172020999992000041706004+38600+039280FM-12+0882LTCA V0201101N001012200019N0200001N1+01381+00681101461ADDAA199000091GA1031+060009019GF103991001001999999001011IA1019IA2999+00309KA1120N+00521MA1999999091481MD1210131+9999REMSYN088AAXX  17064 17202 32970 31102 10138 20068 39148 40146 52013 80001 333 20052 30003 83070;EQDQ01  00002PRCP99
0159172020999992000041709004+38600+039280FM-12+0882LTCA V0200801N004112200019N0200001N1+02101+00561101241ADDGA1021+010509029GF102991021011012501001001MA1999999091321MD1710161+9999REMSYN076AAXX  17094 17202 42670 20808 10210 20056 39132 40124 57016 82100 333 82835;
0189172020999992000041712004+38600+039280FM-12+0882LTCA V0200801N004112200019N0200001N1+02481+00401101001ADDAA199000091GA1031+010509029GF103991031011012501001001MA1999999091101MD1710221+9999REMSYN076AAXX  17124 17202 32670 30808 10248 20040 39110 40100 57022 83100 333 83835;EQDQ01  00002PRCP99
0159172020999992000041715004+38600+039280FM-12+0882LTCA V0201201N004112200019N0200001N1+02301+00271100861ADDGA1031+010509029GF103991031011012501001001MA1999999090941MD1710161+9999REMSYN076AAXX  17154 17202 42670 31208 10230 20027 39094 40086 57016 83100 333 83835;
0208172020999992000041718004+38600+039280FM-12+0882LTCA V0201301N004112200019N0200001N1+01741+00161100881ADDAA199000091GA1031+010509029GF103991031011012501001001KA1120M+02501MA1999999091001MD1310061+9999REMSYN082AAXX  17184 17202 32670 31308 10174 20016 39100 40088 53006 83100 333 10250 83835;EQDQ01  00002PRCP99
0159172020999992000041721004+38600+039280FM-12+0882LTCA V0201201N002612200019N0200001N1+01801+00101100901ADDGA1031+010509029GF103991031011012501001001MA1999999091081MD1210081+9999REMSYN076AAXX  17214 17202 42670 31205 10180 20010 39108 40090 52008 83100 333 83835;
0221172020999992000041800004+38600+039280FM-12+0882LTCA V0200901N004112200019N0200001N1+01741+00161100881ADDAA199000091GA1031+010509029GF103991031011012501001001MA1999999091081MD1710021+9999REMSYN076AAXX  18004 17202 32670 30908 10174 20016 39108 40088 58000 83100 333 83835;EQDQ01+000082APCTENQ02+000002APC3  Q03  00002PRCP99
0159172020999992000041803004+38600+039280FM-12+0882LTCA V0203501N001012200019N0200001N1+01241+00201100831ADDGA1031+010509029GF103991031011012501001001MA1999999090981MD1710101+9999REMSYN076AAXX  18034 17202 42670 33502 10124 20020 39098 40083 57010 83100 333 83835;
0238172020999992000041806004+38600+039280FM-12+0882LTCA V0201701N00151036001CN0200001N1+01641+00741100981ADDAA199000091GA1041+010509089GF106991041021012501051001IA1019IA2999+01009KA1120N+01201MA1999999091101MD1210121+9999REMSYN094AAXX  18064 17202 32670 61703 10164 20074 39110 40098 52012 84250 333 20120 30010 84835 86360;EQDQ01  00002PRCP99
0193172020999992000041809004+38600+039280FM-12+0882LTCA V0201001N00361036001CN0200001N1+02001+00891100961ADDAY181031AY221031GA1031+010509089GF105991031011012501051001MA1999999091121MD1010021+9999MW1011REMSYN088AAXX  18094 17202 41670 51007 10200 20089 39112 40096 50002 70182 83150 333 83835 85360;
0210172020999992000041812004+38600+039280FM-12+0882LTCA V0200901N00361036001CN0200001N1+02201+00601100831ADDAA106000191AY181061AY221061GA1031+010509089GF105991031011012501051001MA1999999091021MD1610101+9999MW1021REMSYN094AAXX  18124 17202 11670 50907 10220 20060 39102 40083 56010 69911 70282 83150 333 83835 85360;
0165172020999992000041815004+38600+039280FM-12+0882LTCA V0201101N00511036001CN0200001N1+02101+00561100801ADDGA1031+010509089GF106991031011012501051001MA1999999090941MD1810061+9999REMSYN082AAXX  18154 17202 42670 61110 10210 20056 39094 40080 58006 83150 333 83835 86360;
0214172020999992000041818004+38600+039280FM-12+0882LTCA V0201301N00261036001CN0200001N1+01901+00521100741ADDAA199000091GA1031+010509089GF106991031011012501051001KA1120M+02341MA1999999090901MD1610041+9999REMSYN088AAXX  18184 17202 32670 61305 10190 20052 39090 40074 56004 83150 333 10234 83835 86360;EQDQ01  00002PRCP99
0165172020999992000041821004+38600+039280FM-12+0882LTCA V0200501N00211036001CN0200001N1+01481+00581100671ADDGA1031+010509089GF106991031011012501051001MA1999999090821MD1810081+9999REMSYN082AAXX  18214 17202 42670 60504 10148 20058 39082 40067 58008 83150 333 83835 86360;
0195172020999992000041900004+38600+039280FM-12+0882LTCA V0203301N00151036001CN0200001N1+01441+00701100571ADDAA199000091GA1031+010509089GF106991031011012501051001MA1999999090751MD1710071+9999REMSYN082AAXX  19004 17202 32670 63303 10144 20070 39075 40057 57007 83150 333 83835 86360;EQDQ01  00002PRCP99
0165172020999992000041903004+38600+039280FM-12+0882LTCA V0201001N00361036001CN0200001N1+01641+00741100611ADDGA1041+010509089GF107991041021012501071001MA1999999090801MD1310021+9999REMSYN082AAXX  19034 17202 42670 71007 10164 20074 39080 40061 53002 84270 333 84835 87360;
0281172020999992000041906004+38600+039280FM-12+0882LTCA V0201001N003610081019N0070001N1+01601+00681100671ADDAA112000891AY121061AY221061GA1021+007509099GA2041+008109089GF107991051091008001051001IA1119IA2999+01209KA1120N+01341MA1999999090841MD1310041+9999MW1951REMSYN118AAXX  19064 17202 11557 71007 10160 20068 39084 40067 53004 69972 79522 85950 333 20134 32012 70008 82925 84827 87358;
0215172020999992000041909004+38600+039280FM-12+0882LTCA V0201601N006210090019N0050001N1+01921+00731100631ADDAY191031AY221031GA1021+007509099GA2051+009009089GF107991061091008001051001MA1999999090791MD1510051+9999MW1951REMSYN094AAXX  19094 17202 41550 71612 10192 20073 39079 40063 55005 79592 86950 333 82925 85830 87358;
0232172020999992000041912004+38600+039280FM-12+0882LTCA V0202901N002110090019N0080001N1+02021+01001100421ADDAA106001091AY191061AY221061GA1021+007509099GA2051+009009089GF107991061091008001071001MA1999999090601MD1710191+9999MW1051REMSYN100AAXX  19124 17202 11558 72904 10202 20100 39060 40042 57019 60011 70592 86970 333 82925 85830 87358;
0215172020999992000041915004+38600+039280FM-12+0882LTCA V0202101N00311009001CN0070001N1+01461+01241100531ADDAY121031AY221031GA1051+009009089GA2011+010509099GF107991061091008001071001MA1999999090681MD1310081+9999MW1951REMSYN094AAXX  19154 17202 41557 72106 10146 20124 39068 40053 53008 79522 86970 333 81935 85830 87358;
0229172020999992000041918004+38600+039280FM-12+0882LTCA V0201401N00311036001CN0100001N1+01461+01241100461ADDAA112002091AY191061AY221061GA1041+010509089GF107991041021012501051001KA1120M+02081MA1999999090601MD1610081+9999MW1021REMSYN100AAXX  19184 17202 11660 71406 10146 20124 39060 40046 56008 60022 70292 84250 333 10208 84835 87359;
0165172020999992000041921004+38600+039280FM-12+0882LTCA V0201401N00461036001CN0150001N1+01561+00641100391ADDGA1041+010509089GF106991041021012501051001MA1999999090571MD1810031+9999REMSYN082AAXX  19214 17202 42665 61409 10156 20064 39057 40039 58003 84250 333 84835 86360;
0176172020999992000042000004+38600+039280FM-12+0882LTCA V0209999C00001036001CN0150001N1+01261+00441100481ADDAA199000021GA1031+010509089GF105991031021012501051001MA1999999090641MD1110071+9999REMSYN082AAXX  20004 17202 32665 50000 10126 20044 39064 40048 51007 83250 333 83835 85360;
0200172020999992000042003004+38600+039280FM-12+0882LTCA V0209999C00001036001CN0100001N1+00861+00601100561ADDGA1031+010509089GF105991031021012501051001MA1999999999999MD1410001+9999REMSYN082AAXX  20034 17202 42660 50000 10086 20060 39164 40056 54000 83250 333 83835 85360;EQDQ01+091643APOSP Q02 091643APOSP 
0225172020999992000042006004+38600+039280FM-12+0882LTCA V0200201N001512200019N0200001N1+01441+00501100691ADDAA124002091GA1021+010509089GF103991021011012501051001IA1119IA2999+00709KA1120N+00801MA1999999090811MD1310171+9999REMSYN100AAXX  20064 17202 32670 30203 10144 20050 39081 40069 53017 82150 333 20080 32007 70021 82835 83360;
0159172020999992000042009004+38600+039280FM-12+0882LTCA V0209999C000012200019N0200001N1+01801+00441100661ADDGA1041+010509029GF104991041021012501001001MA1999999090811MD1010001+9999REMSYN076AAXX  20094 17202 42670 40000 10180 20044 39081 40066 50000 84200 333 84835;
0189172020999992000042012004+38600+039280FM-12+0882LTCA V0201801N004112200019N0200001N1+01981+00521100701ADDAA199000091GA1041+010509029GF104991041021012501001001MA1999999090841MD1010031+9999REMSYN076AAXX  20124 17202 32670 41808 10198 20052 39084 40070 50003 84200 333 84835;EQDQ01  00002PRCP99
0170172020999992000042015004+38600+039280FM-12+0882LTCA V0202901N006712200019N0150001N1+01401+00261100871ADDGA1021+007509099GF104991999999008001999999MA1999999090901MD1610061+9999REMSYN087AAXX  20154 17202 41565 42913 10140 20026 39090 40087 56006 7191 85900 333 82925 84833;
0223172020999992000042018004+38600+039280FM-12+0882LTCA V0203201N003112200019N0200001N1+01041+00401100891ADDAA112000191AY191061AY211061GA1031+010509029GF103991031021012501001001KA1120M+02041MA1999999090831MD1310031+9999MW1011REMSYN094AAXX  20184 17202 11670 33206 10104 20040 39083 40089 53003 69912 70191 83200 333 10204 83835;
0184172020999992000042021004+38600+039280FM-12+0882LTCA V0203301N001012200019N0200001N1+00881+00581100941ADDGA1011+000159019GF103991999011012501001001MA1999999091001MD1110071+9999REMSYN082AAXX  20214 17202 42670 33302 10088 20058 39100 40094 51007 81100 333 81835 83070;EQDQ01+000012SCOTLC
0159172020999992000042103004+38600+039280FM-12+0882LTCA V0203001N002112200019N0200001N1+00441+00301100951ADDGA1021+010509029GF102991021011012501001001MA1999999090931MD1610031+9999REMSYN076AAXX  21034 17202 42670 23004 10044 20030 39093 40095 56003 82100 333 82835;
0225172020999992000042106004+38600+039280FM-12+0882LTCA V0200801N002612200019N0200001N1+01261+00881100961ADDAA124000191GA1011+010509089GF103991011011012501001011IA1099IA2999+00309KA1120N+00421MA1999999091001MD1110071+9999REMSYN100AAXX  21064 17202 32670 30805 10126 20088 39100 40096 51007 81101 333 20042 31003 70001 81835 83070;
0159172020999992000042109004+38600+039280FM-12+0882LTCA V0201701N002612200019N0200001N1+01701+00801100941ADDGA1041+010509029GF104991041011012501001001MA1999999091001MD1410001+9999REMSYN076AAXX  21094 17202 42670 41705 10170 20080 39100 40094 54000 84100 333 84835;
0189172020999992000042112004+38600+039280FM-12+0882LTCA V0201701N001010105019N0200001N1+01721+00681100961ADDAA199000091GA1051+010509029GF105991051021012501001001MA1999999090981MD1610021+9999REMSYN076AAXX  21124 17202 32670 51702 10172 20068 39098 40096 56002 85200 333 85835;EQDQ01  00002PRCP99
0159172020999992000042115004+38600+039280FM-12+0882LTCA V0203001N002610105019N0200001N1+01681+00541100921ADDGA1051+010509029GF105991051021012501001001MA1999999090951MD1510031+9999REMSYN076AAXX  21154 17202 42670 53005 10168 20054 39095 40092 55003 85200 333 85835;
0208172020999992000042118004+38600+039280FM-12+0882LTCA V0202401N003112200019N0200001N1+01381+00601100981ADDAA199000091GA1041+010509029GF104991041021012501001001KA1120M+01841MA1999999091031MD1310081+9999REMSYN082AAXX  21184 17202 32670 42406 10138 20060 39103 40098 53008 84200 333 10184 84835;EQDQ01  00002PRCP99
0189172020999992000042200004+38600+039280FM-12+0882LTCA V0202801N002612200019N0200001N1+01041+00641101011ADDAA199000091GA1041+010509029GF104991041021012501001001MA1999999091081MD1610031+9999REMSYN076AAXX  22004 17202 32670 42805 10104 20064 39108 40101 56003 84200 333 84835;EQDQ01  00002PRCP99
0159172020999992000042203004+38600+039280FM-12+0882LTCA V0203001N001512200019N0200001N1+00941+00701100941ADDGA1031+010509029GF103991031011012501001001MA1999999091001MD1710081+9999REMSYN076AAXX  22034 17202 42670 33003 10094 20070 39100 40094 57008 83100 333 83835;
0232172020999992000042206004+38600+039280FM-12+0882LTCA V0201401N001512200019N0200001N1+01501+00661101011ADDAA199000091GA1041+010509029GF104991041011012501001001IA1019IA2999+00709KA1120N+00861MA1999999091081MD1310081+9999REMSYN088AAXX  22064 17202 32670 41403 10150 20066 39108 40101 53008 84100 333 20086 30007 84835;EQDQ01  00002PRCP99
0165172020999992000042209004+38600+039280FM-12+0882LTCA V0201001N00261036001CN0200001N1+01621+00441100941ADDGA1041+010509089GF106991041021012501051001MA1999999091021MD1810061+9999REMSYN082AAXX  22094 17202 42670 61005 10162 20044 39102 40094 58006 84250 333 84835 85360;
0165172020999992000042215004+38600+039280FM-12+0882LTCA V0201001N00211036001CN0200001N1+01441+00501101041ADDGA1041+010509089GF106991041021012501051001MA1999999091071MD1810051+9999REMSYN082AAXX  22154 17202 42670 61004 10144 20050 39107 40104 58005 84250 333 84835 86360;
0201172020999992000042218004+38600+039280FM-12+0882LTCA V0209999C00001036001CN0200001N1+01161+00441101141ADDAA112001091GA1041+010509089GF106991041021012501051001KA1120M+01641MA1999999091181MD1310111+9999REMSYN094AAXX  22184 17202 12670 60000 10116 20044 39118 40114 53011 60012 84250 333 10164 84835 86360;
0165172020999992000042221004+38600+039280FM-12+0882LTCA V0200701N00211036001CN0200001N1+00941+00481101251ADDGA1031+010509089GF105991031011012501051001MA1999999091281MD1210101+9999REMSYN082AAXX  22214 17202 42670 50704 10094 20048 39128 40125 52010 83150 333 83835 85360;
0189172020999992000042300004+38600+039280FM-12+0882LTCA V0209999C000012200019N0200001N1+00841+00481101281ADDAA199000091GA1041+010509029GF104991041021012501001001MA1999999091271MD1810011+9999REMSYN076AAXX  23004 17202 32670 40000 10084 20048 39127 40128 58001 84200 333 84835;EQDQ01  00002PRCP99
0159172020999992000042303004+38600+039280FM-12+0882LTCA V0200301N001012200019N0200001N1+00761+00211101281ADDGA1041+010509029GF104991041021012501001001MA1999999091271MD1010001+9999REMSYN076AAXX  23034 17202 42670 40302 10076 20021 39127 40128 50000 84200 333 84835;
0219172020999992000042306004+38600+039280FM-12+0882LTCA V0200701N003112200019N0200001N1+01261+00561101381ADDAA124001591GA1021+009009029GF102991021011008001001001IA1019IA2999+00509KA1120N+00681MA1999999091381MD1210111+9999REMSYN094AAXX  23064 17202 32570 20706 10126 20056 39138 40138 52011 82100 333 20068 30005 70014 82830;
0159172020999992000042309004+38600+039280FM-12+0882LTCA V0201001N002612200019N0200001N1+01681+00241101351ADDGA1031+009009029GF103991031021008001001001MA1999999091371MD1810011+9999REMSYN076AAXX  23094 17202 42570 31005 10168 20024 39137 40135 58001 83200 333 83830;
0195172020999992000042312004+38600+039280FM-12+0882LTCA V0201601N004612200019N0200001N1+01861+00201101181ADDAA199000091GA1011+007509099GF104991041091008001001001MA1999999091231MD1710141+9999REMSYN082AAXX  23124 17202 32570 41609 10186 20020 39123 40118 57014 84900 333 81925 84830;EQDQ01  00002PRCP99
0159172020999992000042315004+38600+039280FM-12+0882LTCA V0202101N00151012001CN0200001N1+01801-00021101161ADDGA1041+010509029GF105991051021012501001001MA1999999091201MD1610031+9999REMSYN076AAXX  23154 17202 42670 52103 10180 21002 39120 40116 56003 85200 333 84835;
0208172020999992000042318004+38600+039280FM-12+0882LTCA V0209999C000012200019N0200001N1+01461+00281101181ADDAA199000091GA1041+010509029GF104991041021012501001001KA1120M+02001MA1999999091231MD1310031+9999REMSYN082AAXX  23184 17202 32670 40000 10146 20028 39123 40118 53003 84200 333 10200 84835;EQDQ01  00002PRCP99
0159172020999992000042321004+38600+039280FM-12+0882LTCA V0209999C000012200019N0200001N1+01101+00281101231ADDGA1031+010509029GF103991031011012501001001MA1999999091281MD1110051+9999REMSYN076AAXX  23214 17202 42670 30000 10110 20028 39128 40123 51005 83100 333 83835;
0189172020999992000042400004+38600+039280FM-12+0882LTCA V0202801N002112200019N0200001N1+00841+00501101211ADDAA199000091GA1031+010509029GF103991031011012501001001MA1999999091261MD1810021+9999REMSYN076AAXX  24004 17202 32670 32804 10084 20050 39126 40121 58002 83100 333 83835;EQDQ01  00002PRCP99
0159172020999992000042403004+38600+039280FM-12+0882LTCA V0209999C000012200019N0200001N1+00641+00461101251ADDGA1031+010509029GF103991031011012501001001MA1999999091261MD1410001+9999REMSYN076AAXX  24034 17202 42670 30000 10064 20046 39126 40125 54000 83100 333 83835;
0232172020999992000042406004+38600+039280FM-12+0882LTCA V0200701N002612200019N0200001N1+01601+01061101241ADDAA199000091GA1031+010509029GF103991031011012501001001IA1019IA2999+00409KA1120N+00601MA1999999091311MD1310051+9999REMSYN088AAXX  24064 17202 32670 30705 10160 20106 39131 40124 53005 83100 333 20060 30004 83835;EQDQ01  00002PRCP99
0193172020999992000042409004+38600+039280FM-12+0882LTCA V0202801N001510105019N0200001N1+01801+00931101221ADDAY101031AY201031GA1051+010509089GF106991051021012501051001MA1999999091281MD1810031+9999MW1801REMSYN088AAXX  24094 17202 41670 62803 10180 20093 39128 40122 58003 78000 85250 333 85835 86358;
0165172020999992000042415004+38600+039280FM-12+0882LTCA V0200101N001010090019N0200001N1+01481+00421101311ADDGA1051+009009089GF107991051021008001051001MA1999999091291MD1110011+9999REMSYN082AAXX  24154 17202 42570 70102 10148 20042 39129 40131 51001 85250 333 85830 87358;
0201172020999992000042418004+38600+039280FM-12+0882LTCA V0202901N00151036001CN0200001N1+01081+00591101371ADDAA112003091GA1031+009009089GF105991031021008001051001KA1120M+01841MA1999999091391MD1210101+9999REMSYN094AAXX  24184 17202 12570 52903 10108 20059 39139 40137 52010 60032 83250 333 10184 83830 85358;
0159172020999992000042421004+38600+039280FM-12+0882LTCA V0202901N002112200019N0200001N1+00961+00641101381ADDGA1021+010509029GF102991021011012501001001MA1999999091411MD1110021+9999REMSYN076AAXX  24214 17202 42670 22904 10096 20064 39141 40138 51002 82100 333 82835;
0189172020999992000042500004+38600+039280FM-12+0882LTCA V0202601N001512200019N0200001N1+00761+00561101421ADDAA199000091GA1021+010509029GF102991021011012501001001MA1999999091411MD1410001+9999REMSYN076AAXX  25004 17202 32670 22603 10076 20056 39141 40142 54000 82100 333 82835;EQDQ01  00002PRCP99
0219172020999992000042506004+38600+039280FM-12+0882LTCA V0209999C000012200019N0200001N1+01081+00591101581ADDAA124003091GA1031+010509029GF103991031011012501001001IA1099IA2999+00209KA1120N+00401MA1999999091541MD1210071+9999REMSYN094AAXX  25064 17202 32670 30000 10108 20059 39154 40158 52007 83100 333 20040 31002 70030 83835;
0159172020999992000042509004+38600+039280FM-12+0882LTCA V0200701N004612200019N0200001N1+01761+00731101501ADDGA1041+010509029GF104991041021012501001001MA1999999091521MD1810021+9999REMSYN076AAXX  25094 17202 42670 40709 10176 20073 39152 40150 58002 84200 333 84835;
0189172020999992000042512004+38600+039280FM-12+0882LTCA V0203101N002112200019N0200001N1+01981+00521101371ADDAA199000091GA1041+010509029GF104991041021012501001001MA1999999091401MD1710121+9999REMSYN076AAXX  25124 17202 32670 43104 10198 20052 39140 40137 57012 84200 333 84835;EQDQ01  00002PRCP99
0159172020999992000042515004+38600+039280FM-12+0882LTCA V0201101N001512200019N0200001N1+01881+00421101321ADDGA1031+010509029GF103991031021012501001001MA1999999091321MD1710081+9999REMSYN076AAXX  25154 17202 42670 31103 10188 20042 39132 40132 57008 83200 333 83835;
0224172020999992000042518004+38600+039280FM-12+0882LTCA V0202901N002112200019N0200001N1+01501+00331101341ADDAA199000091GA1031+010509029GF103991031021012501001001KA1120N+99999MA1999999091361MD1310041+9999REMSYN082AAXX  25184 17202 32670 32904 10150 20033 39136 40134 53004 83200 333 20202 83835;EQDQ01  00002PRCP99Q02 +02022ATMN  
0143172020999992000042521004+38600+039280FM-12+0882LTCA V0202101N002112200019N0200001N1+01101+00241101381ADDGA1001+999999999GF100991001001999999001001MA1999999091421MD1110111+9999REMSYN060AAXX  25214 17202 42970 02104 10110 20024 39142 40138 51011;
0173172020999992000042600004+38600+039280FM-12+0882LTCA V0202701N001512200019N0200001N1+01001+00161101361ADDAA199000091GA1001+999999999GF100991001001999999001001MA1999999091421MD1010001+9999REMSYN060AAXX  26004 17202 32970 02703 10100 20016 39142 40136 50000;EQDQ01  00002PRCP99
0143172020999992000042603004+38600+039280FM-12+0882LTCA V0202701N002112200019N0200001N1+00641+00341101401ADDGA1001+999999999GF100991001001999999001001MA1999999091421MD1410001+9999REMSYN060AAXX  26034 17202 42970 02704 10064 20034 39142 40140 54000;
0220172020999992000042606004+38600+039280FM-12+0882LTCA V0209999C000012200019N0200001N1+01501+00681101481ADDAA199000091GA1001+999999999GF100991001001999999001001IA1019IA2999+00509KA1120N+00601MA1999999091521MD1210101+9999REMSYN076AAXX  26064 17202 32970 00000 10150 20068 39152 40148 52010 333 20060 30005;EQDQ01  00002PRCP99
0159172020999992000042609004+38600+039280FM-12+0882LTCA V0200901N003112200019N0200001N1+02001+00491101441ADDGA1031+010509029GF103991031011012501001001MA1999999091501MD1810021+9999REMSYN076AAXX  26094 17202 42670 30906 10200 20049 39150 40144 58002 83100 333 83835;
0189172020999992000042612004+38600+039280FM-12+0882LTCA V0201401N003112200019N0200001N1+02201+00401101421ADDAA199000091GA1041+010509029GF104991041011012501001001MA1999999091481MD1610021+9999REMSYN076AAXX  26124 17202 32670 41406 10220 20040 39148 40142 56002 84100 333 84835;EQDQ01  00002PRCP99
0159172020999992000042615004+38600+039280FM-12+0882LTCA V0201301N004112200019N0200001N1+02141+00181101321ADDGA1031+010509029GF103991031011012501001001MA1999999091361MD1610121+9999REMSYN076AAXX  26154 17202 42670 31308 10214 20018 39136 40132 56012 83100 333 83835;
0208172020999992000042618004+38600+039280FM-12+0882LTCA V0203001N001512200019N0200001N1+01601+00221101351ADDAA199000091GA1031+010509029GF103991031011012501001001KA1120M+02301MA1999999091421MD1310061+9999REMSYN082AAXX  26184 17202 32670 33003 10160 20022 39142 40135 53006 83100 333 10230 83835;EQDQ01  00002PRCP99
0143172020999992000042621004+38600+039280FM-12+0882LTCA V0203101N003112200019N0200001N1+01221+00241101441ADDGA1001+999999999GF100991001001999999001001MA1999999091501MD1110081+9999REMSYN060AAXX  26214 17202 42970 03106 10122 20024 39150 40144 51008;
0173172020999992000042700004+38600+039280FM-12+0882LTCA V0209999C000012200019N0200001N1+00921+00381101481ADDAA199000091GA1001+999999999GF100991001001999999001001MA1999999091541MD1110041+9999REMSYN060AAXX  27004 17202 32970 00000 10092 20038 39154 40148 51004;EQDQ01  00002PRCP99
0143172020999992000042703004+38600+039280FM-12+0882LTCA V0209999C000012200019N0200001N1+00701+00491101481ADDGA1001+999999999GF100991001001999999001001MA1999999091501MD1610041+9999REMSYN060AAXX  27034 17202 42970 00000 10070 20049 39150 40148 56004;
0220172020999992000042706004+38600+039280FM-12+0882LTCA V0201101N001512200019N0200001N1+01601+00661101671ADDAA199000091GA1001+999999999GF100991001001999999001001IA1019IA2999+00509KA1120N+00661MA1999999091711MD1310211+9999REMSYN076AAXX  27064 17202 32970 01103 10160 20066 39171 40167 53021 333 20066 30005;EQDQ01  00002PRCP99
0159172020999992000042709004+38600+039280FM-12+0882LTCA V0200801N002612200019N0200001N1+02261+00301101531ADDGA1021+010509029GF102991021011012501001001MA1999999091601MD1710111+9999REMSYN076AAXX  27094 17202 42670 20805 10226 20030 39160 40153 57011 82100 333 82835;
0189172020999992000042712004+38600+039280FM-12+0882LTCA V0201801N003112200019N0200001N1+02521+00341101321ADDAA199000091GA1021+010509029GF102991021011012501001001MA1999999091411MD1710191+9999REMSYN076AAXX  27124 17202 32670 21806 10252 20034 39141 40132 57019 82100 333 82835;EQDQ01  00002PRCP99
0159172020999992000042715004+38600+039280FM-12+0882LTCA V0201801N003112200019N0200001N1+02401+00111101221ADDGA1031+010509029GF103991031011012501001001MA1999999091301MD1710111+9999REMSYN076AAXX  27154 17202 42670 31806 10240 20011 39130 40122 57011 83100 333 83835;
0208172020999992000042718004+38600+039280FM-12+0882LTCA V0209999C000012200019N0200001N1+01901+00211101201ADDAA199000091GA1031+010509029GF103991031011012501001001KA1120M+02561MA1999999091321MD1110021+9999REMSYN082AAXX  27184 17202 32670 30000 10190 20021 39132 40120 51002 83100 333 10256 83835;EQDQ01  00002PRCP99
0159172020999992000042721004+38600+039280FM-12+0882LTCA V0203101N003612200019N0200001N1+01621+00091101241ADDGA1031+010509029GF103991031011012501001001MA1999999091371MD1010051+9999REMSYN076AAXX  27214 17202 42670 33107 10162 20009 39137 40124 50005 83100 333 83835;
0159172020999992000042803004+38600+039280FM-12+0882LTCA V0209999C000012200019N0200001N1+01201+00341101261ADDGA1031+010509029GF103991031011012501001001MA1999999091351MD1410001+9999REMSYN076AAXX  28034 17202 42670 30000 10120 20034 39135 40126 54000 83100 333 83835;
0238172020999992000042806004+38600+039280FM-12+0882LTCA V0209999C00001036001CN0200001N1+01501+00321101211ADDAA199000091GA1041+010509089GF107991041021012501051001IA1019IA2999+00809KA1120N+01161MA1999999091311MD1710041+9999REMSYN094AAXX  28064 17202 32670 70000 10150 20032 39131 40121 57004 84250 333 20116 30008 84835 87360;EQDQ01  00002PRCP99
0165172020999992000042809004+38600+039280FM-12+0882LTCA V0202901N00311036001CN0200001N1+02001+00521101181ADDGA1041+010509089GF107991041021012501051001MA1999999091301MD1810011+9999REMSYN082AAXX  28094 17202 42670 72906 10200 20052 39130 40118 58001 84250 333 84835 87360;
0195172020999992000042812004+38600+039280FM-12+0882LTCA V0200601N00361036001CN0200001N1+02201+00361100941ADDAA199000091GA1041+010509089GF107991041021012501051001MA1999999091101MD1710201+9999REMSYN082AAXX  28124 17202 32670 70607 10220 20036 39110 40094 57020 84250 333 84835 87360;EQDQ01  00002PRCP99
0165172020999992000042815004+38600+039280FM-12+0882LTCA V0200801N00211036001CN0200001N1+02181+00301100781ADDGA1041+010509089GF107991041021012501051001MA1999999090931MD1710171+9999REMSYN082AAXX  28154 17202 42670 70804 10218 20030 39093 40078 57017 84250 333 84835 87360;
0229172020999992000042818004+38600+039280FM-12+0882LTCA V0209999C00001036001CN0200001N1+01521+01061101051ADDAA112001091AY191061AY221061GA1041+010509089GF107991041021012501051001KA1120M+02301MA1999999091131MD1210201+9999MW1011REMSYN100AAXX  28184 17202 11670 70000 10152 20106 39113 40105 52020 60012 70192 84250 333 10230 84835 87358;
0187172020999992000042821004+38600+039280FM-12+0882LTCA V0202601N001012200019N0200001N1+01421+01271100981ADDAY191031AY221031GA1041+010509029GF104991041021012501001001MA1999999091111MD1810021+9999MW1011REMSYN082AAXX  28214 17202 41670 42602 10142 20127 39111 40098 58002 70192 84200 333 84835;
0204172020999992000042900004+38600+039280FM-12+0882LTCA V0201601N001012200019N0200001N1+01261+01131100861ADDAA106000591AY191061AY211061GA1041+010509029GF104991041021012501001001MA1999999091001MD1710111+9999MW1021REMSYN088AAXX  29004 17202 11670 41602 10126 20113 39100 40086 57011 69951 70291 84200 333 84835;
0193172020999992000042903004+38600+039280FM-12+0882LTCA V0202201N00101036001CN0150001N1+01201+01091100821ADDAY111031AY211031GA1041+009009089GF107991041021008001051001MA1999999090961MD1710041+9999MW1801REMSYN088AAXX  29034 17202 41565 72202 10120 20109 39096 40082 57004 78011 84250 333 84830 87358;
0259172020999992000042906004+38600+039280FM-12+0882LTCA V0202301N004610090019N0060001N1+01101+01001100841ADDAA112011991AY111061AY211061GA1061+009009089GF107991061021008001051001IA1119IA2999+00909KA1120N+00981MA1999999090911MD1510051+9999MW1821REMSYN112AAXX  29064 17202 11556 72309 10110 20100 39091 40084 55005 60122 78211 86250 333 20098 32009 70130 86830 87358;
0193172020999992000042909004+38600+039280FM-12+0882LTCA V0202001N001510090019N0080001N1+01121+00961100951ADDAY181031AY281031GA1061+009009089GF107991061021008001051001MA1999999091011MD1210101+9999MW1801REMSYN088AAXX  29094 17202 41558 72003 10112 20096 39101 40095 52010 78088 86250 333 86830 87358;
0210172020999992000042912004+38600+039280FM-12+0882LTCA V0200801N002110090019N0200001N1+01501+00861100951ADDAA106007191AY181061AY221061GA1051+009009089GF106991051021008001051001MA1999999091021MD1110011+9999MW1021REMSYN094AAXX  29124 17202 11570 60804 10150 20086 39102 40095 51001 60071 70282 85250 333 85830 86359;
0215172020999992000042915004+38600+039280FM-12+0882LTCA V0201601N001010090019N0200001N1+01101+00721101051ADDAY121031AY221031GA1011+007509099GA2041+009009089GF105991051091008001051001MA1999999091081MD1110061+9999MW1291REMSYN094AAXX  29154 17202 41570 51602 10110 20072 39108 40105 51006 72922 85950 333 81925 84830 85360;
0229172020999992000042918004+38600+039280FM-12+0882LTCA V0209999C00001036001CN0200001N1+01101+00721101161ADDAA112010991AY191061AY221061GA1031+010509089GF105991031021012501051001KA1120M+01581MA1999999091161MD1310081+9999MW1021REMSYN100AAXX  29184 17202 11670 50000 10110 20072 39116 40116 53008 60112 70292 83250 333 10158 83835 85360;
0165172020999992000042921004+38600+039280FM-12+0882LTCA V0203001N00211036001CN0200001N1+00901+00481101201ADDGA1031+010509089GF105991031021012501051001MA1999999091181MD1510021+9999REMSYN082AAXX  29214 17202 42670 53004 10090 20048 39118 40120 55002 83250 333 83835 85360;
0195172020999992000043000004+38600+039280FM-12+0882LTCA V0203001N00151036001CN0200001N1+00761+00401101181ADDAA199000091GA1031+010509089GF105991031021012501051001MA1999999091181MD1410001+9999REMSYN082AAXX  30004 17202 32670 53003 10076 20040 39118 40118 54000 83250 333 83835 85360;EQDQ01  00002PRCP99
0165172020999992000043003004+38600+039280FM-12+0882LTCA V0202301N00151036001CN0200001N1+00701+00421101171ADDGA1031+010509089GF105991031021012501051001MA1999999091131MD1610051+9999REMSYN082AAXX  30034 17202 42670 52303 10070 20042 39113 40117 56005 83250 333 83835 85360;
0225172020999992000043006004+38600+039280FM-12+0882LTCA V0209999C00001036001CN0200001N1+01221+00481101211ADDAA124010991GA1031+010509089GF106991031021012501051001IA1119IA2999+00609KA1120N+00661MA1999999091221MD1310091+9999REMSYN100AAXX  30064 17202 32670 60000 10122 20048 39122 40121 53009 83250 333 20066 32006 70109 83835 86360;
0165172020999992000043009004+38600+039280FM-12+0882LTCA V0209999C00001036001CN0200001N1+01501+00421101211ADDGA1041+010509089GF107991041021012501051001MA1999999091231MD1110011+9999REMSYN082AAXX  30094 17202 42670 70000 10150 20042 39123 40121 51001 84250 333 84835 86360;
0195172020999992000043012004+38600+039280FM-12+0882LTCA V0209999C000010099019N0200001N1+01501+00421101241ADDAA199000091GA1051+009909089GF107991051021012501051001MA1999999091231MD1410001+9999REMSYN082AAXX  30124 17202 32670 70000 10150 20042 39123 40124 54000 85250 333 85833 86359;EQDQ01  00002PRCP99
0165172020999992000043015004+38600+039280FM-12+0882LTCA V0202001N00361036001CN0200001N1+01541+00301101211ADDGA1041+010509089GF105991041021012501051001MA1999999091201MD1810031+9999REMSYN082AAXX  30154 17202 42670 52007 10154 20030 39120 40121 58003 84250 333 84835 85360;
0208172020999992000043018004+38600+039280FM-12+0882LTCA V0203001N001512200019N0200001N1+01101+00281101271ADDAA199000091GA1031+010509029GF103991031011012501001001KA1120M+01621MA1999999091281MD1310081+9999REMSYN082AAXX  30184 17202 32670 33003 10110 20028 39128 40127 53008 83100 333 10162 83835;EQDQ01  00002PRCP99
0143172020999992000043021004+38600+039280FM-12+0882LTCA V0203001N003112200019N0200001N1+00881+00441101361ADDGA1001+999999999GF100991001001999999001001MA1999999091361MD1210081+9999REMSYN060AAXX  30214 17202 42970 03006 10088 20044 39136 40136 52008;
0173172020999992000050100004+38600+039280FM-12+0882LTCA V0202801N001512200019N0200001N1+00701+00441101371ADDAA199000091GA1001+999999999GF100991001001999999001001MA1999999091351MD1610011+9999REMSYN060AAXX  01004 17202 32970 02803 10070 20044 39135 40137 56001;EQDQ01  00002PRCP99
0143172020999992000050103004+38600+039280FM-12+0882LTCA V0203001N001512200019N0200001N1+00601+00221101401ADDGA1001+999999999GF100991001001999999001001MA1999999091381MD1310031+9999REMSYN060AAXX  01034 17202 42970 03003 10060 20022 39138 40140 53003;
0232172020999992000050106004+38600+039280FM-12+0882LTCA V0201201N001512200019N0200001N1+01341+00701101441ADDAA199000091GA1011+010509029GF101991011011012501001001IA1099IA2999+00309KA1120N+00441MA1999999091431MD1210051+9999REMSYN088AAXX  01064 17202 32670 11203 10134 20070 39143 40144 52005 81100 333 20044 31003 81835;EQDQ01  00002PRCP99
0159172020999992000050109004+38600+039280FM-12+0882LTCA V0202401N001012200019N0200001N1+01801+00241101481ADDGA1021+009009029GF102991021021008001001001MA1999999091481MD1210051+9999REMSYN076AAXX  01094 17202 42570 22402 10180 20024 39148 40148 52005 82200 333 82830;
0189172020999992000050112004+38600+039280FM-12+0882LTCA V0202601N002112200019N0200001N1+02101-00061101331ADDAA199000091GA1031+009009029GF103991031021008001001001MA1999999091371MD1710111+9999REMSYN076AAXX  01124 17202 32570 32604 10210 21006 39137 40133 57011 83200 333 83830;EQDQ01  00002PRCP99
0159172020999992000050115004+38600+039280FM-12+0882LTCA V0202801N004112200019N0200001N1+02101-00061101261ADDGA1021+010509029GF102991021011012501001001MA1999999091301MD1610071+9999REMSYN076AAXX  01154 17202 42670 22808 10210 21006 39130 40126 56007 82100 333 82835;
0196172020999992000050118004+38600+039280FM-12+0882LTCA V0209999C000012200019N0200001N1+01701+00121101161ADDAA199000091GA1001+999999999GF100991001001999999001001KA1999M+02261MA1999999091231MD1710071+9999REMSYN070AAXX  01184 17202 32970 00000 10170 20012 39123 40116 57007 333 10226;EQDQ01  00002PRCP99
0143172020999992000050121004+38600+039280FM-12+0882LTCA V0202901N004112200019N0200001N1+01101+00441101261ADDGA1001+999999999GF100991001001999999001001MA1999999091301MD1110071+9999REMSYN060AAXX  01214 17202 42970 02908 10110 20044 39130 40126 51007;
0173172020999992000050200004+38600+039280FM-12+0882LTCA V0202701N002612200019N0200001N1+00901+00401101261ADDAA199000091GA1001+999999999GF100991001001999999001001MA1999999091321MD1110021+9999REMSYN060AAXX  02004 17202 32970 02705 10090 20040 39132 40126 51002;EQDQ01  00002PRCP99
0143172020999992000050203004+38600+039280FM-12+0882LTCA V0209999C000012200019N0200001N1+00701+00421101341ADDGA1001+999999999GF100991001001999999001001MA1999999091381MD1210061+9999REMSYN060AAXX  02034 17202 42970 00000 10070 20042 39138 40134 52006;
0220172020999992000050206004+38600+039280FM-12+0882LTCA V0200801N002112200019N0200001N1+01601+00881101371ADDAA199000091GA1001+999999999GF100991001001999999001001IA1099IA2999+00409KA1120N+00681MA1999999091461MD1310081+9999REMSYN076AAXX  02064 17202 32670 00804 10160 20088 39146 40137 53008 333 20068 31004;EQDQ01  00002PRCP99
0159172020999992000050209004+38600+039280FM-12+0882LTCA V0201001N002612200019N0200001N1+02101+00201101351ADDGA1041+010509029GF104991041021012501001001MA1999999091421MD1810041+9999REMSYN076AAXX  02094 17202 42670 41005 10210 20020 39142 40135 58004 84200 333 84835;
0189172020999992000050212004+38600+039280FM-12+0882LTCA V0202001N004112200019N0200001N1+02341-00101101221ADDAA199000091GA1041+010509029GF104991041021012501001001MA1999999091301MD1710121+9999REMSYN076AAXX  02124 17202 32670 42008 10234 21010 39130 40122 57012 84200 333 84835;EQDQ01  00002PRCP99
0159172020999992000050215004+38600+039280FM-12+0882LTCA V0202001N004610105019N0200001N1+02261+00041101071ADDGA1051+010509029GF105991051021012501001001MA1999999091151MD1710151+9999REMSYN076AAXX  02154 17202 42670 52009 10226 20004 39115 40107 57015 85200 333 85835;
0208172020999992000050218004+38600+039280FM-12+0882LTCA V0202901N001012200019N0200001N1+01721+00241100991ADDAA199000091GA1031+060009019GF103991001001999999001011KA1120M+02401MA1999999091111MD1610041+9999REMSYN082AAXX  02184 17202 32970 32902 10172 20024 39111 40099 56004 80001 333 10240 83070;EQDQ01  00002PRCP99
0143172020999992000050221004+38600+039280FM-12+0882LTCA V0203101N002112200019N0200001N1+01421+00401101001ADDGA1001+999999999GF100991001001999999001001MA1999999091141MD1210031+9999REMSYN060AAXX  02214 17202 42970 03104 10142 20040 39114 40100 52003;
0173172020999992000050300004+38600+039280FM-12+0882LTCA V0202901N001512200019N0200001N1+01281+00601100941ADDAA199000091GA1001+999999999GF100991001001999999001001MA1999999091081MD1710061+9999REMSYN060AAXX  03004 17202 32970 02903 10128 20060 39108 40094 57006;EQDQ01  00002PRCP99
0165172020999992000050303004+38600+039280FM-12+0882LTCA V0203001N001012200019N0200001N1+01201+00641100941ADDGA1011+010509089GF104991011011012501031001MA1999999091071MD1610011+9999REMSYN082AAXX  03034 17202 42670 43002 10120 20064 39107 40094 56001 81130 333 81835 84360;
0238172020999992000050306004+38600+039280FM-12+0882LTCA V0203201N00151036001CN0200001N1+01741+00901100941ADDAA199000091GA1031+010509089GF105991031011012501051001IA1019IA2999+00909KA1120N+01061MA1999999091071MD1410001+9999REMSYN094AAXX  03064 17202 32670 53203 10174 20090 39107 40094 54000 83150 333 20106 30009 83835 85360;EQDQ01  00002PRCP99
0159172020999992000050309004+38600+039280FM-12+0882LTCA V0202101N004112200019N0200001N1+02461+00661100811ADDGA1041+010509029GF104991041021012501001001MA1999999090981MD1710091+9999REMSYN076AAXX  03094 17202 42670 42108 10246 20066 39098 40081 57009 84200 333 84835;
0189172020999992000050312004+38600+039280FM-12+0882LTCA V0203201N005112200019N0200001N1+02301+00461100661ADDAA199000091GA1041+010509029GF104991041021012501001001MA1999999090831MD1710151+9999REMSYN076AAXX  03124 17202 32670 43210 10230 20046 39083 40066 57015 84200 333 84835;EQDQ01  00002PRCP99
0159172020999992000050315004+38600+039280FM-12+0882LTCA V0203101N004112200019N0200001N1+02221+00441100641ADDGA1041+010509029GF104991041021012501001001MA1999999090801MD1610031+9999REMSYN076AAXX  03154 17202 42670 43108 10222 20044 39080 40064 56003 84200 333 84835;
0208172020999992000050318004+38600+039280FM-12+0882LTCA V0203101N005112200019N0200001N1+01781+00381100711ADDAA199000091GA1041+010509029GF104991041021012501001001KA1120M+02501MA1999999090881MD1310081+9999REMSYN082AAXX  03184 17202 32670 43110 10178 20038 39088 40071 53008 84200 333 10250 84835;EQDQ01  00002PRCP99
0159172020999992000050321004+38600+039280FM-12+0882LTCA V0202401N002612200019N0200001N1+01641+00361100801ADDGA1041+010509029GF104991041021012501001001MA1999999091011MD1210231+9999REMSYN076AAXX  03214 17202 42670 42405 10164 20036 39101 40080 52023 84200 333 84835;
0189172020999992000050400004+38600+039280FM-12+0882LTCA V0202401N001012200019N0200001N1+01381+00441100851ADDAA199000091GA1041+010509029GF104991041021012501001001MA1999999091001MD1810011+9999REMSYN076AAXX  04004 17202 32670 42402 10138 20044 39100 40085 58001 84200 333 84835;EQDQ01  00002PRCP99
0159172020999992000050403004+38600+039280FM-12+0882LTCA V0209999C000012200019N0200001N1+01201+00621100901ADDGA1041+010509029GF104991041021012501001001MA1999999091031MD1310031+9999REMSYN076AAXX  04034 17202 42670 40000 10120 20062 39103 40090 53003 84200 333 84835;
0238172020999992000050406004+38600+039280FM-12+0882LTCA V0202901N00211036001CN0200001N1+01601+00861101091ADDAA199000091GA1041+010509089GF106991041021012501051001IA1019IA2999+00909KA1120N+01141MA1999999091201MD1210171+9999REMSYN094AAXX  04064 17202 32670 62904 10160 20086 39120 40109 52017 84250 333 20114 30009 84835 86360;EQDQ01  00002PRCP99
0165172020999992000050409004+38600+039280FM-12+0882LTCA V0200801N00261036001CN0200001N1+01901+00361101001ADDGA1041+010509089GF106991041021012501051001MA1999999091161MD1810081+9999REMSYN082AAXX  04094 17202 42670 60805 10190 20036 39116 40100 58008 84250 333 84835 86360;
0210172020999992000050412004+38600+039280FM-12+0882LTCA V0203001N008210090019N0100001N1+01701+01201101191ADDAA106004191AY181061AY221061GA1061+009009089GF107991061021008001051001MA1999999091261MD1310121+9999MW1801REMSYN094AAXX  04124 17202 11560 73016 10170 20120 39126 40119 53012 60041 78082 86250 333 86830 87359;
0197172020999992000050415004+38600+039280FM-12+0882LTCA V0201501N001510105019N0100001N1+01401+01121101161ADDAY181031AY281031GA1061+010509089GF107991061021008001051001MD1610061+9999MW1801REMSYN088AAXX  04154 17202 41560 71503 10140 20112 38120 40116 56006 78088 86250 333 86835 87359;EQDQ01+081203APOSP 
0229172020999992000050418004+38600+039280FM-12+0882LTCA V0202901N002610090019N0100001N1+01301+01171101221ADDAA112009991AY181061AY281061GA1061+009009089GF107991061021008001071001KA1120M+01901MA1999999091271MD1310071+9999MW1801REMSYN100AAXX  04184 17202 11560 72905 10130 20117 39127 40122 53007 60102 78088 86270 333 10190 86830 87359;
0193172020999992000050421004+38600+039280FM-12+0882LTCA V0209999C000010090019N0100001N1+01201+01071101301ADDAY181031AY281031GA1061+009009089GF107991061021008001071001MA1999999091371MD1010101+9999MW1801REMSYN088AAXX  04214 17202 41560 70000 10120 20107 39137 40130 50010 78088 86270 333 86830 87359;
0210172020999992000050500004+38600+039280FM-12+0882LTCA V0200401N00151036001CN0150001N1+01161+00881101141ADDAA106007191AY181061AY221061GA1031+010509089GF106991031021012501051001MA1999999091201MD1710171+9999MW1021REMSYN094AAXX  05004 17202 11665 60403 10116 20088 39120 40114 57017 60071 70282 83250 333 83835 86360;
0165172020999992000050503004+38600+039280FM-12+0882LTCA V0202201N00151036001CN0200001N1+01041+00641101071ADDGA1031+010509089GF105991031021012501051001MA1999999091101MD1610101+9999REMSYN082AAXX  05034 17202 42670 52203 10104 20064 39110 40107 56010 83250 333 83835 85360;
0253172020999992000050506004+38600+039280FM-12+0882LTCA V0202301N00261036001CN0200001N1+01381+00761100981ADDAA112007191GA1011+010509089GA2031+030009039GF106991011011012501051011IA1119IA2999+00709KA1120N+00861MA1999999091041MD1710061+9999REMSYN112AAXX  05064 17202 12670 62305 10138 20076 39104 40098 57006 60072 81151 333 20086 32007 70165 81835 83360 86070;
0165172020999992000050509004+38600+039280FM-12+0882LTCA V0200701N00261220001CN0200001N1+01841+00731100881ADDGA1011+010509089GF106991011011012501001011MA1999999090981MD1710061+9999REMSYN082AAXX  05094 17202 42670 60705 10184 20073 39098 40088 57006 81101 333 81835 86070;
0195172020999992000050512004+38600+039280FM-12+0882LTCA V0201101N00261090001CN0150001N1+02241+00691100691ADDAA199000091GA1031+009009089GF107991031021008001001061MA1999999090841MD1710141+9999REMSYN082AAXX  05124 17202 32565 71105 10224 20069 39084 40069 57014 83206 333 83830 87270;EQDQ01  00002PRCP99
0159172020999992000050515004+38600+039280FM-12+0882LTCA V0201601N004112200019N0100001N1+02261+00661100531ADDGA1041+009009029GF104991041021008001001001MA1999999090701MD1710141+9999REMSYN076AAXX  05154 17202 42560 41608 10226 20066 39070 40053 57014 84200 333 84830;
0208172020999992000050518004+38600+039280FM-12+0882LTCA V0202101N002612200019N0200001N1+01801+00401100661ADDAA199000091GA1021+010509029GF102991021011012501001001KA1120M+02341MA1999999090801MD1110101+9999REMSYN082AAXX  05184 17202 32670 22105 10180 20040 39080 40066 51010 82100 333 10234 82835;EQDQ01  00002PRCP99
0159172020999992000050521004+38600+039280FM-12+0882LTCA V0209999C000012200019N0200001N1+01401+00321100931ADDGA1021+010509029GF102991021011012501001001MA1999999091041MD1210241+9999REMSYN076AAXX  05214 17202 42670 20000 10140 20032 39104 40093 52024 82100 333 82835;
0189172020999992000050600004+38600+039280FM-12+0882LTCA V0209999C000012200019N0200001N1+01301+00301100961ADDAA199000091GA1021+010509029GF102991021011012501001001MA1999999091101MD1110061+9999REMSYN076AAXX  06004 17202 32670 20000 10130 20030 39110 40096 51006 82100 333 82835;EQDQ01  00002PRCP99
0159172020999992000050603004+38600+039280FM-12+0882LTCA V0209999C000012200019N0200001N1+01001+00721100991ADDGA1031+010509029GF103991031011012501001001MA1999999091101MD1410001+9999REMSYN076AAXX  06034 17202 42670 30000 10100 20072 39110 40099 54000 83100 333 83835;
0232172020999992000050606004+38600+039280FM-12+0882LTCA V0201001N004112200019N0200001N1+01781+01041101071ADDAA199000091GA1031+010509029GF103991031011012501001001IA1099IA2999+00809KA1120N+00981MA1999999091201MD1210101+9999REMSYN088AAXX  06064 17202 32670 31008 10178 20104 39120 40107 52010 83100 333 20098 31008 83835;EQDQ01  00002PRCP99
0159172020999992000050609004+38600+039280FM-12+0882LTCA V0201801N004112200019N0200001N1+02201+00821101111ADDGA1031+010509029GF103991031011012501001001MA1999999091241MD1310041+9999REMSYN076AAXX  06094 17202 42670 31808 10220 20082 39124 40111 53004 83100 333 83835;
0189172020999992000050612004+38600+039280FM-12+0882LTCA V0201701N004112200019N0200001N1+02221+00741101081ADDAA199000091GA1041+010509029GF104991041021012501001001MA1999999091211MD1810031+9999REMSYN076AAXX  06124 17202 32670 41708 10222 20074 39121 40108 58003 84200 333 84835;EQDQ01  00002PRCP99
0159172020999992000050615004+38600+039280FM-12+0882LTCA V0201901N006712200019N0200001N1+02061+00481101181ADDGA1021+009009029GF102991021021008001001001MA1999999091181MD1610031+9999REMSYN076AAXX  06154 17202 42570 21913 10206 20048 39118 40118 56003 82200 333 82830;
0208172020999992000050618004+38600+039280FM-12+0882LTCA V0202501N001512200019N0200001N1+01481+00101101221ADDAA199000091GA1021+010509029GF102991021021012501001001KA1120M+02321MA1999999091301MD1210121+9999REMSYN082AAXX  06184 17202 32670 22503 10148 20010 39130 40122 52012 82200 333 10232 82835;EQDQ01  00002PRCP99
0143172020999992000050621004+38600+039280FM-12+0882LTCA V0202501N002612200019N0200001N1+01201+00261101291ADDGA1001+999999999GF100991001001999999001001MA1999999091391MD1210091+9999REMSYN060AAXX  06214 17202 42970 02505 10120 20026 39139 40129 52009;
0173172020999992000050700004+38600+039280FM-12+0882LTCA V0202701N003112200019N0200001N1+00901+00461101321ADDAA199000091GA1001+999999999GF100991001001999999001001MA1999999091401MD1110011+9999REMSYN060AAXX  07004 17202 32970 02706 10090 20046 39140 40132 51001;EQDQ01  00002PRCP99
0143172020999992000050703004+38600+039280FM-12+0882LTCA V0203001N001512200019N0200001N1+00681+00481101381ADDGA1001+999999999GF100991001001999999001001MA1999999091411MD1310011+9999REMSYN060AAXX  07034 17202 42970 03003 10068 20048 39141 40138 53001;
0219172020999992000050706004+38600+039280FM-12+0882LTCA V0209999C000012200019N0200001N1+01461+00821101461ADDAA199000091GA1031+010509089GF104991031011012501001011KA1120N+00621MA1999999091501MD1210091+9999REMSYN093AAXX  07064 17202 32670 40000 10146 20082 39150 40146 52009 83101 333 20062 3004 83835 84070;EQDQ01  00002PRCP99
0159172020999992000050709004+38600+039280FM-12+0882LTCA V0209999C000012200019N0200001N1+02021+00841101371ADDGA1041+010509029GF104991041011012501001001MA1999999091441MD1810061+9999REMSYN076AAXX  07094 17202 42670 40000 10202 20084 39144 40137 58006 84100 333 84835;
0189172020999992000050712004+38600+039280FM-12+0882LTCA V0201901N003612200019N0200001N1+02241+00481101161ADDAA199000091GA1041+010509029GF104991041021012501001001MA1999999091251MD1710191+9999REMSYN076AAXX  07124 17202 32670 41907 10224 20048 39125 40116 57019 84200 333 84835;EQDQ01  00002PRCP99
0159172020999992000050715004+38600+039280FM-12+0882LTCA V0201801N004112200019N0200001N1+02141+00261101011ADDGA1041+010509029GF104991041021012501001001MA1999999091081MD1710171+9999REMSYN076AAXX  07154 17202 42670 41808 10214 20026 39108 40101 57017 84200 333 84835;
0208172020999992000050718004+38600+039280FM-12+0882LTCA V0202601N002112200019N0200001N1+01421+00181100991ADDAA199000091GA1031+010509029GF103991031011012501001001KA1120M+02301MA1999999091061MD1510021+9999REMSYN082AAXX  07184 17202 32670 32604 10142 20018 39106 40099 55002 83100 333 10230 83835;EQDQ01  00002PRCP99
0143172020999992000050721004+38600+039280FM-12+0882LTCA V0202701N002612200019N0200001N1+01061+00101101011ADDGA1001+999999999GF100991001001999999001001MA1999999091101MD1110041+9999REMSYN060AAXX  07214 17202 42970 02705 10106 20010 39110 40101 51004;
0173172020999992000050800004+38600+039280FM-12+0882LTCA V0202601N001512200019N0200001N1+00901+00061100971ADDAA199000091GA1001+999999999GF100991001001999999001001MA1999999091081MD1610021+9999REMSYN060AAXX  08004 17202 32970 02603 10090 20006 39108 40097 56002;EQDQ01  00002PRCP99
0143172020999992000050803004+38600+039280FM-12+0882LTCA V0202601N001512200019N0200001N1+00761+00201101041ADDGA1001+999999999GF100991001001999999001001MA1999999091121MD1310041+9999REMSYN060AAXX  08034 17202 42670 02603 10076 20020 39112 40104 53004;
0232172020999992000050806004+38600+039280FM-12+0882LTCA V0202601N005112200019N0200001N1+01501+00581101121ADDAA199000091GA1021+012009029GF102991021011012501001001IA1019IA2999+00509KA1120N+00701MA1999999091201MD1210081+9999REMSYN088AAXX  08064 17202 32670 22610 10150 20058 39120 40112 52008 82100 333 20070 30005 82840;EQDQ01  00002PRCP99
0159172020999992000050809004+38600+039280FM-12+0882LTCA V0202401N005112200019N0200001N1+01801+00401101141ADDGA1041+010509029GF104991041021012501001001MA1999999091201MD1410001+9999REMSYN076AAXX  08094 17202 42670 42410 10180 20040 39120 40114 54000 84200 333 84835;
0189172020999992000050812004+38600+039280FM-12+0882LTCA V0203001N008212200019N0200001N1+01841+00201101101ADDAA199000091GA1041+010509029GF104991041021012501001001MA1999999091161MD1810041+9999REMSYN076AAXX  08124 17202 32670 43016 10184 20020 39116 40110 58004 84200 333 84835;EQDQ01  00002PRCP99
0159172020999992000050815004+38600+039280FM-12+0882LTCA V0203001N010812200019N0200001N1+01761-00081101081ADDGA1031+010509029GF103991031011012501001001MA1999999091121MD1510041+9999REMSYN076AAXX  08154 17202 42670 33021 10176 21008 39112 40108 55004 83100 333 83835;
0196172020999992000050818004+38600+039280FM-12+0882LTCA V0202901N010812200019N0200001N1+01301-00201101261ADDAA199000091GA1001+999999999GF100991001001999999001001KA1999M+01981MA1999999091301MD1210181+9999REMSYN070AAXX  08184 17202 32970 02921 10130 21020 39130 40126 52018 333 10198;EQDQ01  00002PRCP99
0143172020999992000050821004+38600+039280FM-12+0882LTCA V0203001N008212200019N0200001N1+00901-00401101391ADDGA1001+999999999GF100991001001999999001001MA1999999091421MD1210121+9999REMSYN060AAXX  08214 17202 42970 03016 10090 21040 39142 40139 52012;
0173172020999992000050900004+38600+039280FM-12+0882LTCA V0203201N005112200019N0200001N1+00661-00611101541ADDAA199000091GA1001+999999999GF100991001001999999001001MA1999999091521MD1210101+9999REMSYN060AAXX  09004 17202 32970 03210 10066 21061 39152 40154 52010;EQDQ01  00002PRCP99
0143172020999992000050903004+38600+039280FM-12+0882LTCA V0202601N001512200019N0200001N1+00301-00841101761ADDGA1001+999999999GF100991001001999999001001MA1999999091681MD1310161+9999REMSYN060AAXX  09034 17202 42970 02603 10030 21084 39168 40176 53016;
0220172020999992000050906004+38600+039280FM-12+0882LTCA V0200801N001012200019N0200001N1+00921-00701101861ADDAA199000091GA1001+999999999GF100991001001999999001001IA1019IA2999+00209KA1120N+00281MA1999999091791MD1210111+9999REMSYN076AAXX  09064 17202 32970 00802 10092 21070 39179 40186 52011 333 20028 30002;EQDQ01  00002PRCP99
0178172020999992000050909004+38600+039280FM-12+0882LTCA V0202901N003112200019N0200001N1+01501-00501101821ADDGA1001+999999999GF100991001001999999001001MA1999999091771MD1710041+9999REMSYN060AAXX  09094 17202 42970 02906 10150 21050 39177 40182 56000;EQDQ01+000062APCTENQ02+000002APC3  
0173172020999992000050912004+38600+039280FM-12+0882LTCA V0203001N004612200019N0200001N1+01801-00391101721ADDAA199000091GA1001+999999999GF100991001001999999001001MA1999999091681MD1710091+9999REMSYN060AAXX  09124 17202 32970 03009 10180 21039 39168 40172 57009;EQDQ01  00002PRCP99
0143172020999992000050915004+38600+039280FM-12+0882LTCA V0203001N005112200019N0200001N1+01921-00661101541ADDGA1001+999999999GF100991001001999999001001MA1999999091501MD1710181+9999REMSYN060AAXX  09154 17202 42970 03010 10192 21066 39150 40154 57018;
0196172020999992000050918004+38600+039280FM-12+0882LTCA V0203001N004612200019N0200001N1+01401-00501101631ADDAA199000091GA1001+999999999GF100991001001999999001001KA1999M+02001MA1999999091601MD1210101+9999REMSYN070AAXX  09184 17202 32970 03009 10140 21050 39160 40163 52010 333 10200;EQDQ01  00002PRCP99
0143172020999992000050921004+38600+039280FM-12+0882LTCA V0203101N006712200019N0200001N1+01201-00561101671ADDGA1001+999999999GF100991001001999999001001MA1999999091671MD1210071+9999REMSYN060AAXX  09214 17202 42970 03113 10120 21056 39167 40167 52007;
0173172020999992000051000004+38600+039280FM-12+0882LTCA V0202701N004112200019N0200001N1+00941-00181101721ADDAA199000091GA1001+999999999GF100991001001999999001001MA1999999091721MD1310051+9999REMSYN060AAXX  10004 17202 32970 02708 10094 21018 39172 40172 53005;EQDQ01  00002PRCP99
0143172020999992000051003004+38600+039280FM-12+0882LTCA V0202801N004612200019N0200001N1+00601-00301101761ADDGA1001+999999999GF100991001001999999001001MA1999999091741MD1110021+9999REMSYN060AAXX  10034 17202 42970 02809 10060 21030 39174 40176 51002;
0220172020999992000051006004+38600+039280FM-12+0882LTCA V0202201N002112200019N0200001N1+01321+00161101921ADDAA199000091GA1001+999999999GF100991001001999999001001IA1019IA2999+00409KA1120N+00581MA1999999091901MD1110161+9999REMSYN076AAXX  10064 17202 32970 02204 10132 20016 39190 40192 51016 333 20058 30004;EQDQ01  00002PRCP99
0143172020999992000051009004+38600+039280FM-12+0882LTCA V0202801N002112200019N0200001N1+01901-00541101861ADDGA1001+999999999GF100991001001999999001001MA1999999091881MD1810021+9999REMSYN060AAXX  10094 17202 42970 02804 10190 21054 39188 40186 58002;
0173172020999992000051012004+38600+039280FM-12+0882LTCA V0202601N003612200019N0200001N1+02201-00681101671ADDAA199000091GA1001+999999999GF100991001001999999001001MA1999999091711MD1710171+9999REMSYN060AAXX  10124 17202 32970 02607 10220 21068 39171 40167 57017;EQDQ01  00002PRCP99
0143172020999992000051015004+38600+039280FM-12+0882LTCA V0202801N003112200019N0200001N1+02241-00781101601ADDGA1001+999999999GF100991001001999999001001MA1999999091611MD1710101+9999REMSYN060AAXX  10154 17202 42970 02806 10224 21078 39161 40160 57010;
0196172020999992000051018004+38600+039280FM-12+0882LTCA V0202201N002612200019N0200001N1+01301-00241101601ADDAA199000091GA1001+999999999GF100991001001999999001001KA1999M+02301MA1999999091601MD1510011+9999REMSYN070AAXX  10184 17202 32970 02205 10130 21024 39160 40160 55001 333 10230;EQDQ01  00002PRCP99
0143172020999992000051021004+38600+039280FM-12+0882LTCA V0202701N002612200019N0200001N1+00961-00041101631ADDGA1001+999999999GF100991001001999999001001MA1999999091641MD1110041+9999REMSYN060AAXX  10214 17202 42970 02705 10096 21004 39164 40163 51004;
0173172020999992000051100004+38600+039280FM-12+0882LTCA V0202801N002612200019N0200001N1+00801-00061101601ADDAA199000091GA1001+999999999GF100991001001999999001001MA1999999091631MD1810011+9999REMSYN060AAXX  11004 17202 32970 02805 10080 21006 39163 40160 58001;EQDQ01  00002PRCP99
0143172020999992000051103004+38600+039280FM-12+0882LTCA V0202801N002112200019N0200001N1+00561-00041101641ADDGA1001+999999999GF100991001001999999001001MA1999999091651MD1310021+9999REMSYN060AAXX  11034 17202 42970 02804 10056 21004 39165 40164 53002;
0220172020999992000051106004+38600+039280FM-12+0882LTCA V0201001N002612200019N0200001N1+01641+00881101701ADDAA199000091GA1001+999999999GF100991001001999999001001IA1019IA2999+00309KA1120N+00521MA1999999091701MD1210051+9999REMSYN076AAXX  11064 17202 32970 01005 10164 20088 39170 40170 52005 333 20052 30003;EQDQ01  00002PRCP99
0143172020999992000051109004+38600+039280FM-12+0882LTCA V0203601N002112200019N0200001N1+02241+00521101571ADDGA1001+999999999GF100991001001999999001001MA1999999091621MD1810081+9999REMSYN060AAXX  11094 17202 42970 03604 10224 20052 39162 40157 58008;
0173172020999992000051112004+38600+039280FM-12+0882LTCA V0202801N003112200019N0200001N1+02501+00241101431ADDAA199000091GA1001+999999999GF100991001001999999001001MA1999999091491MD1710131+9999REMSYN060AAXX  11124 17202 32970 02806 10250 20024 39149 40143 57013;EQDQ01  00002PRCP99
0143172020999992000051115004+38600+039280FM-12+0882LTCA V0202601N002112200019N0200001N1+02401+00291101351ADDGA1001+999999999GF100991001001999999001001MA1999999091401MD1710091+9999REMSYN060AAXX  11154 17202 42970 02604 10240 20029 39140 40135 57009;
0196172020999992000051118004+38600+039280FM-12+0882LTCA V0202201N001512200019N0200001N1+01701+00041101281ADDAA199000091GA1001+999999999GF100991001001999999001001KA1999M+02541MA1999999091371MD1610031+9999REMSYN070AAXX  11184 17202 32970 02203 10170 20004 39137 40128 56003 333 10254;EQDQ01  00002PRCP99
0143172020999992000051121004+38600+039280FM-12+0882LTCA V0202901N003112200019N0200001N1+01201-00071101331ADDGA1001+999999999GF100991001001999999001001MA1999999091421MD1310051+9999REMSYN060AAXX  11214 17202 42970 02906 10120 21007 39142 40133 53005;
0173172020999992000051200004+38600+039280FM-12+0882LTCA V0202901N001512200019N0200001N1+00941-00181101351ADDAA199000091GA1001+999999999GF100991001001999999001001MA1999999091441MD1110021+9999REMSYN060AAXX  12004 17202 32970 02903 10094 21018 39144 40135 51002;EQDQ01  00002PRCP99
0143172020999992000051203004+38600+039280FM-12+0882LTCA V0203201N001512200019N0200001N1+00641-00041101441ADDGA1001+999999999GF100991001001999999001001MA1999999091481MD1210041+9999REMSYN060AAXX  12034 17202 42970 03203 10064 21004 39148 40144 52004;
0220172020999992000051206004+38600+039280FM-12+0882LTCA V0200601N002112200019N0200001N1+01801+00511101511ADDAA199000091GA1001+999999999GF100991001001999999001001IA1019IA2999+00509KA1120N+00601MA1999999091601MD1110121+9999REMSYN076AAXX  12064 17202 32970 00604 10180 20051 39160 40151 51012 333 20060 30005;EQDQ01  00002PRCP99
0143172020999992000051209004+38600+039280FM-12+0882LTCA V0203401N003112200019N0200001N1+02421+00601101401ADDGA1001+999999999GF100991001001999999001001MA1999999091501MD1710101+9999REMSYN060AAXX  12094 17202 42970 03406 10242 20060 39150 40140 57010;
0173172020999992000051212004+38600+039280FM-12+0882LTCA V0203201N004612200019N0200001N1+02661+00461101211ADDAA199000091GA1001+999999999GF100991001001999999001001MA1999999091331MD1710171+9999REMSYN060AAXX  12124 17202 32970 03209 10266 20046 39133 40121 57017;EQDQ01  00002PRCP99
0143172020999992000051215004+38600+039280FM-12+0882LTCA V0200301N003112200019N0200001N1+02661+00461101171ADDGA1001+999999999GF100991001001999999001001MA1999999091261MD1710071+9999REMSYN060AAXX  12154 17202 42970 00306 10266 20046 39126 40117 57007;
0196172020999992000051218004+38600+039280FM-12+0882LTCA V0202901N002612200019N0200001N1+01601+00281101091ADDAA199000091GA1001+999999999GF100991001001999999001001KA1999M+02741MA1999999091201MD1610061+9999REMSYN070AAXX  12184 17202 32970 02905 10160 20028 39120 40109 56006 333 10274;EQDQ01  00002PRCP99
0143172020999992000051221004+38600+039280FM-12+0882LTCA V0203001N004612200019N0200001N1+01281+00241101141ADDGA1001+999999999GF100991001001999999001001MA1999999091261MD1110061+9999REMSYN060AAXX  12214 17202 42970 03009 10128 20024 39126 40114 51006;
0173172020999992000051300004+38600+039280FM-12+0882LTCA V0202701N002112200019N0200001N1+01061+00241101121ADDAA199000091GA1001+999999999GF100991001001999999001001MA1999999091261MD1410001+9999REMSYN060AAXX  13004 17202 32970 02704 10106 20024 39126 40112 54000;EQDQ01  00002PRCP99
0143172020999992000051303004+38600+039280FM-12+0882LTCA V0202601N001512200019N0200001N1+00901+00241101161ADDGA1001+999999999GF100991001001999999001001MA1999999091281MD1310021+9999REMSYN060AAXX  13034 17202 42970 02603 10090 20024 39128 40116 53002;
0220172020999992000051306004+38600+039280FM-12+0882LTCA V0200901N002612200019N0200001N1+01881+00821101281ADDAA199000091GA1001+999999999GF100991001001999999001001IA1019IA2999+00609KA1120N+00841MA1999999091371MD1210091+9999REMSYN076AAXX  13064 17202 32970 00905 10188 20082 39137 40128 52009 333 20084 30006;EQDQ01  00002PRCP99
0159172020999992000051309004+38600+039280FM-12+0882LTCA V0201201N001012200019N0200001N1+02481+00481101241ADDGA1031+009009029GF103991031021008001001001MA1999999091371MD1410001+9999REMSYN076AAXX  13094 17202 42570 31202 10248 20048 39137 40124 54000 83200 333 83830;
0189172020999992000051312004+38600+039280FM-12+0882LTCA V0202201N004112200019N0200001N1+02721+00261101011ADDAA199000091GA1031+009009029GF103991031021008001001001MA1999999091161MD1710211+9999REMSYN076AAXX  13124 17202 32570 32208 10272 20026 39116 40101 57021 83200 333 83830;EQDQ01  00002PRCP99
0159172020999992000051315004+38600+039280FM-12+0882LTCA V0203101N005112200019N0200001N1+02621+00061100901ADDGA1031+010509029GF103991031011012501001001MA1999999091051MD1710111+9999REMSYN076AAXX  13154 17202 42670 33110 10262 20006 39105 40090 57011 83100 333 83835;
0196172020999992000051318004+38600+039280FM-12+0882LTCA V0202901N002112200019N0200001N1+01961+00081100981ADDAA199000091GA1001+999999999GF100991001001999999001001KA1999M+02821MA1999999091141MD1210091+9999REMSYN070AAXX  13184 17202 32970 02904 10196 20008 39114 40098 52009 333 10282;EQDQ01  00002PRCP99
0143172020999992000051321004+38600+039280FM-12+0882LTCA V0202101N002612200019N0200001N1+01521+99999101031ADDGA1001+999999999GF100991001001999999001001MA1999999091201MD1110061+9999REMSYN060AAXX  13214 17202 42970 02105 10152 2022/ 39120 40103 51006;
0173172020999992000051400004+38600+039280FM-12+0882LTCA V0202801N002612200019N0200001N1+01201+00221101171ADDAA199000091GA1001+999999999GF100991001001999999001001MA1999999091221MD1110021+9999REMSYN060AAXX  14004 17202 32970 02805 10120 20022 39122 40117 51002;EQDQ01  00002PRCP99
0143172020999992000051403004+38600+039280FM-12+0882LTCA V0209999C000012200019N0200001N1+01061+00461101091ADDGA1001+999999999GF100991001001999999001001MA1999999091221MD1410001+9999REMSYN060AAXX  14034 17202 42970 00000 10106 20046 39122 40109 54000;
0220172020999992000051406004+38600+039280FM-12+0882LTCA V0202201N001012200019N0200001N1+01981+00571101121ADDAA199000091GA1001+999999999GF100991001001999999001001IA1019IA2999+00909KA1120N+01041MA1999999091281MD1310061+9999REMSYN076AAXX  14064 17202 32970 02202 10198 20057 39128 40112 53006 333 20104 30009;EQDQ01  00002PRCP99
0165172020999992000051409004+38600+039280FM-12+0882LTCA V0202001N002112200019N0200001N1+02501+00581101011ADDGA1021+010509089GF103991021011012501001011MA1999999091201MD1810081+9999REMSYN082AAXX  14094 17202 42670 32004 10250 20058 39120 40101 58008 82101 333 82835 83070;
0189172020999992000051412004+38600+039280FM-12+0882LTCA V0202701N003112200019N0200001N1+02621+00481100871ADDAA199000091GA1041+010509029GF104991041021012501001001MA1999999091041MD1710161+9999REMSYN076AAXX  14124 17202 32670 42706 10262 20048 39104 40087 57016 84200 333 84835;EQDQ01  00002PRCP99
0159172020999992000051415004+38600+039280FM-12+0882LTCA V0203001N007712200019N0200001N1+02501+00441100791ADDGA1041+010509029GF104991041021012501001001MA1999999090951MD1610091+9999REMSYN076AAXX  14154 17202 42670 43015 10250 20044 39095 40079 56009 84200 333 84835;
0208172020999992000051418004+38600+039280FM-12+0882LTCA V0203001N003612200019N0200001N1+01901+00061100861ADDAA199000091GA1011+010509029GF101991011011012501001001KA1120M+02681MA1999999091031MD1310081+9999REMSYN082AAXX  14184 17202 32670 13007 10190 20006 39103 40086 53008 81100 333 10268 81835;EQDQ01  00002PRCP99
0143172020999992000051421004+38600+039280FM-12+0882LTCA V0200901N001012200019N0200001N1+01661+00021100831ADDGA1001+999999999GF100991001001999999001001MA1999999091031MD1410001+9999REMSYN060AAXX  14214 17202 42970 00902 10166 20002 39103 40083 54000;
0173172020999992000051500004+38600+039280FM-12+0882LTCA V0202101N001512200019N0200001N1+01321+00161100921ADDAA199000091GA1001+999999999GF100991001001999999001001MA1999999091101MD1210071+9999REMSYN060AAXX  15004 17202 32970 02103 10132 20016 39110 40092 52007;EQDQ01  00002PRCP99
0143172020999992000051503004+38600+039280FM-12+0882LTCA V0202801N002612200019N0200001N1+01041+00321100961ADDGA1001+999999999GF100991001001999999001001MA1999999091101MD1410001+9999REMSYN060AAXX  15034 17202 42970 02805 10104 20032 39110 40096 54000;
0220172020999992000051506004+38600+039280FM-12+0882LTCA V0202901N005712200019N0200001N1+01921+00381101051ADDAA199000091GA1001+999999999GF100991001001999999001001IA1019IA2999+00809KA1120N+01001MA1999999091201MD1210101+9999REMSYN076AAXX  15064 17202 32970 02911 10192 20038 39120 40105 52010 333 20100 30008;EQDQ01  00002PRCP99
0159172020999992000051509004+38600+039280FM-12+0882LTCA V0203001N007212200019N0200001N1+02301+00521101001ADDGA1021+010509029GF102991021011012501001001MA1999999091171MD1810031+9999REMSYN076AAXX  15094 17202 42670 23014 10230 20052 39117 40100 58003 82100 333 82835;
0189172020999992000051512004+38600+039280FM-12+0882LTCA V0202701N006212200019N0200001N1+02601+00221100901ADDAA199000091GA1021+010509029GF102991021011012501001001MA1999999091081MD1710091+9999REMSYN076AAXX  15124 17202 32670 22712 10260 20022 39108 40090 57009 82100 333 82835;EQDQ01  00002PRCP99
0143172020999992000051515004+38600+039280FM-12+0882LTCA V0203001N006212200019N0200001N1+02501+00181100841ADDGA1001+999999999GF100991001001999999001001MA1999999091001MD1710081+9999REMSYN060AAXX  15154 17202 42970 03012 10250 20018 39100 40084 57008;
0196172020999992000051518004+38600+039280FM-12+0882LTCA V0203301N002612200019N0200001N1+01921+00021100861ADDAA199000091GA1001+999999999GF100991001001999999001001KA1999M+02641MA1999999091031MD1310031+9999REMSYN070AAXX  15184 17202 32970 03305 10192 20002 39103 40086 53003 333 10264;EQDQ01  00002PRCP99
0143172020999992000051521004+38600+039280FM-12+0882LTCA V0201701N003112200019N0200001N1+01701+00021100991ADDGA1001+999999999GF100991001001999999001001MA1999999091141MD1210111+9999REMSYN060AAXX  15214 17202 42970 01706 10170 20002 39114 40099 52011;
0173172020999992000051600004+38600+039280FM-12+0882LTCA V0202601N002112200019N0200001N1+01501+00281101031ADDAA199000091GA1001+999999999GF100991001001999999001001MA1999999091201MD1210061+9999REMSYN060AAXX  16004 17202 32970 02604 10150 20028 39120 40103 52006;EQDQ01  00002PRCP99
0143172020999992000051603004+38600+039280FM-12+0882LTCA V0202801N002612200019N0200001N1+00941+00181101051ADDGA1001+999999999GF100991001001999999001001MA1999999091201MD1410001+9999REMSYN060AAXX  16034 17202 42970 02805 10094 20018 39120 40105 54000;
0220172020999992000051606004+38600+039280FM-12+0882LTCA V0202901N004112200019N0200001N1+01921+00041101141ADDAA199000091GA1001+999999999GF100991001001999999001001IA1019IA2999+00709KA1120N+00901MA1999999091281MD1110081+9999REMSYN076AAXX  16064 17202 32970 02908 10192 20004 39128 40114 51008 333 20090 30007;EQDQ01  00002PRCP99
0165172020999992000051609004+38600+039280FM-12+0882LTCA V0203201N00361220001CN0200001N1+02181+00041101051ADDGA1021+010509089GF105991021011012501001011MA1999999091201MD1810081+9999REMSYN082AAXX  16094 17202 42670 53207 10218 20004 39120 40105 58008 82101 333 82835 85070;
0195172020999992000051612004+38600+039280FM-12+0882LTCA V0202701N003112200019N0200001N1+02371-00071100881ADDAA199000091GA1021+010509089GF104991021011012501001011MA1999999091051MD1710151+9999REMSYN082AAXX  16124 17202 32670 42706 10237 21007 39105 40088 57015 82101 333 82835 84070;EQDQ01  00002PRCP99
0165172020999992000051615004+38600+039280FM-12+0882LTCA V0203001N00411220001CN0200001N1+02381-00071100791ADDGA1011+010509089GF105991011011012501001011MA1999999090941MD1710111+9999REMSYN082AAXX  16154 17202 42670 53008 10238 21007 39094 40079 57011 81101 333 81835 85070;
0196172020999992000051618004+38600+039280FM-12+0882LTCA V0202401N002112200019N0200001N1+01541-00081100871ADDAA199000091GA1001+999999999GF100991001001999999001001KA1999M+02521MA1999999091001MD1310061+9999REMSYN070AAXX  16184 17202 32970 02404 10154 21008 39100 40087 53006 333 10252;EQDQ01  00002PRCP99
0143172020999992000051621004+38600+039280FM-12+0882LTCA V0202601N003612200019N0200001N1+01201+00021100871ADDGA1001+999999999GF100991001001999999001001MA1999999091001MD1410001+9999REMSYN060AAXX  16214 17202 42970 02607 10120 20002 39100 40087 54000;
0173172020999992000051700004+38600+039280FM-12+0882LTCA V0202401N002112200019N0200001N1+01201+00021100831ADDAA199000091GA1001+999999999GF100991001001999999001001MA1999999090981MD1810021+9999REMSYN060AAXX  17004 17202 32970 02404 10120 20002 39098 40083 58002;EQDQ01  00002PRCP99
0143172020999992000051703004+38600+039280FM-12+0882LTCA V0209999C000012200019N0200001N1+00761-00041100841ADDGA1001+999999999GF100991001001999999001001MA1999999090961MD1810021+9999REMSYN060AAXX  17034 17202 42970 00000 10076 21004 39096 40084 58002;
0238172020999992000051706004+38600+039280FM-12+0882LTCA V0203201N002612200019N0200001N1+01761+00141100871ADDAA199000091GA1011+010509089GF104991011011012501001011IA1019IA2999+00509KA1120N+00701MA1999999090991MD1010031+9999REMSYN094AAXX  17064 17202 32670 43205 10176 20014 39099 40087 50003 81101 333 20070 30005 81835 84070;EQDQ01  00002PRCP99
0165172020999992000051709004+38600+039280FM-12+0882LTCA V0201901N002112200019N0200001N1+02261+00021100781ADDGA1011+010509089GF103991011011012501001011MA1999999090931MD1710061+9999REMSYN082AAXX  17094 17202 42670 31904 10226 20002 39093 40078 57006 81101 333 81835 83070;
0195172020999992000051712004+38600+039280FM-12+0882LTCA V0209999C000012200019N0200001N1+02461-00071100511ADDAA199000091GA1011+010509089GF104991011011012501001011MA1999999090701MD1710231+9999REMSYN082AAXX  17124 17202 32670 40000 10246 21007 39070 40051 57023 81101 333 81835 84070;EQDQ01  00002PRCP99
0165172020999992000051715004+38600+039280FM-12+0882LTCA V0203201N00311036001CN0200001N1+02441-00121100511ADDGA1041+010509089GF106991041021012501051001MA1999999090661MD1810061+9999REMSYN082AAXX  17154 17202 42670 63206 10244 21012 39066 40051 58006 84250 333 84835 86360;
0209172020999992000051718004+38600+039280FM-12+0882LTCA V0202301N00461036001CN0200001N1+01961+00081999999ADDAA199000091GA1031+010509089GF105991031011012501051001KA1120M+02501MD1310011+9999REMSYN082AAXX  17184 17202 32670 52309 10196 20008 37067 53001 83150 333 10250 83835 85360;EQDQ01+070673APOSP Q02  00002PRCP99
0108172020999992000051720004+38600+039280FM-16+088299999V02099999999992200019N0160931N1+99999+99999999999ADDMW1001REMMET071172020Z PGRO 1720201+ 18007(5 7SM -RA SCT008 BKN050 OVC200 27/23 A2985;EQDQ01+000000PRSWM2
0178172020999992000051721004+38600+039280FM-12+0882LTCA V0202701N003612200019N0200001N1+01641+00011100481ADDGA1041+010509029GF199999031011012501001001MA1999999090701MD1110031+9999REMSYN076AAXX  17214 17202 42670 32707 10164 20001 39070 40048 51003 83100 333 84835;EQDQ01+000032SCOTCV
0173172020999992000051800004+38600+039280FM-12+0882LTCA V0202001N002112200019N0200001N1+01401+00191100461ADDAA199000091GA1001+999999999GF100991001001999999001001MA1999999090671MD1810031+9999REMSYN060AAXX  18004 17202 32970 02004 10140 20019 39067 40046 58003;EQDQ01  00002PRCP99
0159172020999992000051803004+38600+039280FM-12+0882LTCA V0209999C000012200019N0200001N1+01361+00221100421ADDGA1041+030009079GF104991041001999999041001MA1999999090631MD1610041+9999REMSYN076AAXX  18034 17202 42970 40000 10136 20022 39063 40042 56004 84040 333 84360;
0165172020999992000051809004+38600+039280FM-12+0882LTCA V0201401N00151036001CN0200001N1+02101+00431100521ADDGA1031+010509089GF105991031011012501051001MA1999999090721MD1110021+9999REMSYN082AAXX  18094 17202 42670 51403 10210 20043 39072 40052 51002 83150 333 83835 85360;
0210172020999992000051812004+38600+039280FM-12+0882LTCA V0201401N003610090019N0200001N1+02201+00841100401ADDAA106000191AY121061AY221061GA1051+009009089GF106991051021008001051001MA1999999090601MD1710121+9999MW1801REMSYN094AAXX  18124 17202 11570 61407 10220 20084 39060 40040 57012 69911 78022 85250 333 85830 86359;
0193172020999992000051815004+38600+039280FM-12+0882LTCA V0200801N00101007501CN0200001N1+01901+00901100441ADDAY191031AY281031GA1021+007509099GF106991061091008001001001MA1999999090601MD1410001+9999MW1171REMSYN088AAXX  18154 17202 41570 60802 10190 20090 39060 40044 54000 71798 86900 333 82925 85830;
0223172020999992000051818004+38600+039280FM-12+0882LTCA V0202701N003612200019N0200001N1+01561+00691100501ADDAA112002091AY191061AY281061GA1041+010509029GF104991041021012501001001KA1120M+02401MA1999999090671MD1310071+9999MW1011REMSYN094AAXX  18184 17202 11670 42707 10156 20069 39067 40050 53007 60022 70198 84200 333 10240 84835;
0159172020999992000051821004+38600+039280FM-12+0882LTCA V0200301N002112200019N0200001N1+01361+00981100571ADDGA1041+010509029GF104991041021012501001001MA1999999090741MD1210071+9999REMSYN076AAXX  18214 17202 42670 40304 10136 20098 39074 40057 52007 84200 333 84835;
0170172020999992000051900004+38600+039280FM-12+0882LTCA V0203001N002612200019N0200001N1+01281+01081100511ADDAA199000021GA1041+010509029GF104991041021012501001001MA1999999090681MD1510061+9999REMSYN076AAXX  19004 17202 32670 43005 10128 20108 39068 40051 55006 84200 333 84835;
0159172020999992000051903004+38600+039280FM-12+0882LTCA V0202701N002112200019N0200001N1+01001+00881100551ADDGA1021+010509029GF102991021011012501001001MA1999999090661MD1810021+9999REMSYN076AAXX  19034 17202 42670 22704 10100 20088 39066 40055 58002 82100 333 82835;
0223172020999992000051906004+38600+039280FM-12+0882LTCA V0209999C000012200019N0200001N1+01561+01161100601ADDAA124002091GA1041+010509029GF104991041021012501001001IA1099IA2999+00809KA1120N+00981MD1210081+9999REMSYN094AAXX  19064 17202 32670 40000 10156 20116 39704 40060 52008 84200 333 20098 31008 70021 84835;EQDQ01+097043APOSP 
0159172020999992000051909004+38600+039280FM-12+0882LTCA V0202601N002112200019N0200001N1+01981+01011100531ADDGA1041+010509029GF104991041021012501001001MA1999999090701MD1810041+9999REMSYN076AAXX  19094 17202 42670 42604 10198 20101 39070 40053 58004 84200 333 84835;
0189172020999992000051912004+38600+039280FM-12+0882LTCA V0203001N005112200019N0200001N1+02361+00981100431ADDAA199000091GA1041+010509029GF104991041021012501001001MA1999999090621MD1610021+9999REMSYN076AAXX  19124 17202 32670 43010 10236 20098 39062 40043 56002 84200 333 84835;EQDQ01  00002PRCP99
0159172020999992000051915004+38600+039280FM-12+0882LTCA V0202901N002112200019N0200001N1+02401+00131100421ADDGA1041+010509029GF104991041021012501001001MA1999999090601MD1610021+9999REMSYN076AAXX  19154 17202 42670 42904 10240 20013 39060 40042 56002 84200 333 84835;
0208172020999992000051918004+38600+039280FM-12+0882LTCA V0200801N003112200019N0200001N1+01801+00001100451ADDAA199000091GA1031+010509029GF103991031021012501001001KA1120M+02521MA1999999090631MD1310031+9999REMSYN082AAXX  19184 17202 32670 30806 10180 20000 39063 40045 53003 83200 333 10252 83835;EQDQ01  00002PRCP99
0143172020999992000051921004+38600+039280FM-12+0882LTCA V0209999C000012200019N0200001N1+01301+00061100721ADDGA1001+999999999GF100991001001999999001001MA1999999090861MD1210031+9999REMSYN060AAXX  19214 17202 42970 00000 10130 20006 39086 40072 52003;
0173172020999992000052000004+38600+039280FM-12+0882LTCA V0209999C000012200019N0200001N1+01001+00141100771ADDAA199000091GA1001+999999999GF100991001001999999001001MA1999999090901MD1110041+9999REMSYN060AAXX  20004 17202 32970 00000 10100 20014 39090 40077 51004;EQDQ01  00002PRCP99
0143172020999992000052003004+38600+039280FM-12+0882LTCA V0209999C000012200019N0200001N1+00901+00281100871ADDGA1001+999999999GF100991001001999999001001MA1999999091001MD1310101+9999REMSYN060AAXX  20034 17202 42970 00000 10090 20028 39100 40087 53010;
0220172020999992000052006004+38600+039280FM-12+0882LTCA V0200801N002112200019N0200001N1+01721+00241100961ADDAA199000091GA1001+999999999GF100991001001999999001001IA1019IA2999+00709KA1120N+00861MA1999999091101MD1210101+9999REMSYN076AAXX  20064 17202 32970 00804 10172 20024 39110 40096 52010 333 20086 30007;EQDQ01  00002PRCP99
0159172020999992000052009004+38600+039280FM-12+0882LTCA V0200201N003112200019N0200001N1+02261+00021100981ADDGA1021+010509029GF102991021011012501001001MA1999999091121MD1110021+9999REMSYN076AAXX  20094 17202 42670 20206 10226 20002 39112 40098 51002 82100 333 82835;
0189172020999992000052012004+38600+039280FM-12+0882LTCA V0200801N002112200019N0200001N1+02501+00041100941ADDAA199000091GA1021+010509029GF102991021011012501001001MA1999999091081MD1610041+9999REMSYN076AAXX  20124 17202 32670 20804 10250 20004 39108 40094 56004 82100 333 82835;EQDQ01  00002PRCP99
0159172020999992000052015004+38600+039280FM-12+0882LTCA V0203201N002612200019N0200001N1+02541-00421100871ADDGA1021+010509029GF102991021011012501001001MA1999999091001MD1610081+9999REMSYN076AAXX  20154 17202 42670 23205 10254 21042 39100 40087 56008 82100 333 82835;
0196172020999992000052018004+38600+039280FM-12+0882LTCA V0203001N001512200019N0200001N1+01601+00041100891ADDAA199000091GA1001+999999999GF100991001001999999001001KA1999M+02621MA1999999091021MD1310021+9999REMSYN070AAXX  20184 17202 32970 03003 10160 20004 39102 40089 53002 333 10262;EQDQ01  00002PRCP99
0143172020999992000052021004+38600+039280FM-12+0882LTCA V0203001N004112200019N0200001N1+01101-00021101051ADDGA1001+999999999GF100991001001999999001001MA1999999091171MD1210151+9999REMSYN060AAXX  20214 17202 42970 03008 10110 21002 39117 40105 52015;
0173172020999992000052100004+38600+039280FM-12+0882LTCA V0203001N001512200019N0200001N1+00941-00021101081ADDAA199000091GA1001+999999999GF100991001001999999001001MA1999999091191MD1110021+9999REMSYN060AAXX  21004 17202 32970 03003 10094 21002 39119 40108 51002;EQDQ01  00002PRCP99
0143172020999992000052103004+38600+039280FM-12+0882LTCA V0202801N002112200019N0200001N1+00761-00041101201ADDGA1001+999999999GF100991001001999999001001MA1999999091281MD1310091+9999REMSYN060AAXX  21034 17202 42970 02804 10076 21004 39128 40120 53009;
0232172020999992000052106004+38600+039280FM-12+0882LTCA V0201001N002112200019N0200001N1+01861+00441101271ADDAA199000091GA1011+010509029GF101991011011012501001001IA1019IA2999+00509KA1120N+00701MA1999999091371MD1210091+9999REMSYN088AAXX  21064 17202 32670 11004 10186 20044 39137 40127 52009 81100 333 20070 30005 81835;EQDQ01  00002PRCP99
0159172020999992000052109004+38600+039280FM-12+0882LTCA V0201101N002112200019N0200001N1+02441+00481101221ADDGA1021+010509029GF102991021011012501001001MA1999999091341MD1010031+9999REMSYN076AAXX  21094 17202 42670 21104 10244 20048 39134 40122 50003 82100 333 82835;
0189172020999992000052112004+38600+039280FM-12+0882LTCA V0203001N005712200019N0200001N1+02361+00321101191ADDAA199000091GA1041+010509029GF104991041021012501001001MA1999999091281MD1710061+9999REMSYN076AAXX  21124 17202 32670 43011 10236 20032 39128 40119 57006 84200 333 84835;EQDQ01  00002PRCP99
0159172020999992000052115004+38600+039280FM-12+0882LTCA V0209999C000012200019N0200001N1+02661+00241101091ADDGA1041+010509029GF104991041021012501001001MA1999999091201MD1610081+9999REMSYN076AAXX  21154 17202 42670 40000 10266 20024 39120 40109 56008 84200 333 84835;
0208172020999992000052118004+38600+039280FM-12+0882LTCA V0202701N003612200019N0200001N1+02101+00021101031ADDAA199000091GA1021+010509029GF102991021011012501001001KA1120M+02841MA1999999091201MD1410001+9999REMSYN082AAXX  21184 17202 32670 22707 10210 20002 39120 40103 54000 82100 333 10284 82835;EQDQ01  00002PRCP99
0143172020999992000052121004+38600+039280FM-12+0882LTCA V0202601N003112200019N0200001N1+01381+00221101271ADDGA1001+999999999GF100991001001999999001001MA1999999091401MD1210201+9999REMSYN060AAXX  21214 17202 42970 02606 10138 20022 39140 40127 52020;
0173172020999992000052200004+38600+039280FM-12+0882LTCA V0202801N002612200019N0200001N1+01201+00021101291ADDAA199000091GA1001+999999999GF100991001001999999001001MA1999999091401MD1410001+9999REMSYN060AAXX  22004 17202 32970 02805 10120 20002 39140 40129 54000;EQDQ01  00002PRCP99
0143172020999992000052203004+38600+039280FM-12+0882LTCA V0209999C000012200019N0200001N1+01151+00171101271ADDGA1001+999999999GF100991001001999999001001MA1999999091401MD1410001+9999REMSYN060AAXX  22034 17202 42970 00000 10115 20017 39140 40127 54000;
0220172020999992000052206004+38600+039280FM-12+0882LTCA V0200701N002612200019N0200001N1+01941+00681101401ADDAA199000091GA1001+999999999GF100991001001999999001001IA1019IA2999+00809KA1120N+01001MA1999999091541MD1310141+9999REMSYN076AAXX  22064 17202 32970 00705 10194 20068 39154 40140 53014 333 20100 30008;EQDQ01  00002PRCP99
0159172020999992000052209004+38600+039280FM-12+0882LTCA V0200801N002112200019N0200001N1+02501+00821101381ADDGA1031+010509029GF103991031011012501001001MA1999999091501MD1810041+9999REMSYN076AAXX  22094 17202 42670 30804 10250 20082 39150 40138 58004 83100 333 83835;
0189172020999992000052212004+38600+039280FM-12+0882LTCA V0203401N001512200019N0200001N1+02841+00761101251ADDAA199000091GA1041+010509029GF104991041021012501001001MA1999999091301MD1710201+9999REMSYN076AAXX  22124 17202 32670 43403 10284 20076 39130 40125 57020 84200 333 84835;EQDQ01  00002PRCP99
0159172020999992000052215004+38600+039280FM-12+0882LTCA V0200801N002612200019N0200001N1+02761+00291101011ADDGA1031+010509029GF103991031021012501001001MA1999999091171MD1710131+9999REMSYN076AAXX  22154 17202 42670 30805 10276 20029 39117 40101 57013 83200 333 83835;
0208172020999992000052218004+38600+039280FM-12+0882LTCA V0203301N001512200019N0200001N1+02141+00461101031ADDAA199000091GA1021+010509029GF102991021011012501001001KA1120M+02941MA1999999091201MD1310031+9999REMSYN082AAXX  22184 17202 32670 23303 10214 20046 39120 40103 53003 82100 333 10294 82835;EQDQ01  00002PRCP99
0143172020999992000052221004+38600+039280FM-12+0882LTCA V0202401N002112200019N0200001N1+01961+00621101141ADDGA1001+999999999GF100991001001999999001001MA1999999091331MD1210131+9999REMSYN060AAXX  22214 17202 42970 02404 10196 20062 39133 40114 52013;
0173172020999992000052300004+38600+039280FM-12+0882LTCA V0202301N003112200019N0200001N1+01361+00381101181ADDAA199000091GA1001+999999999GF100991001001999999001001MA1999999091351MD1810021+9999REMSYN060AAXX  23004 17202 32970 02306 10136 20038 39135 40118 58002;EQDQ01  00002PRCP99
0143172020999992000052303004+38600+039280FM-12+0882LTCA V0202501N002112200019N0200001N1+01201+00561101211ADDGA1001+999999999GF100991001001999999001001MA1999999091361MD1310011+9999REMSYN060AAXX  23034 17202 42970 02504 10120 20056 39136 40121 53001;
0220172020999992000052306004+38600+039280FM-12+0882LTCA V0201001N002112200019N0200001N1+02041+00861101221ADDAA199000091GA1001+999999999GF100991001001999999001001IA1019IA2999+01009KA1120N+01141MA1999999091391MD1110031+9999REMSYN076AAXX  23064 17202 32970 01004 10204 20086 39139 40122 51003 333 20114 30010;EQDQ01  00002PRCP99
0178172020999992000052309004+38600+039280FM-12+0882LTCA V0201201N001512200019N0200001N1+02521+00841101131ADDGA1031+010509029GF104991999011012501001001MA1999999091321MD1610071+9999REMSYN076AAXX  23094 17202 42670 41203 10252 20084 39132 40113 56007 83100 333 83835;EQDQ01+000032SCOTLC
0175172020999992000052312004+38600+039280FM-12+0882LTCA V0201801N001512200019N0200001N1+02901+00801100901ADDAA199000091GA1031+010509029GF103991031011012501001001MA1999999091101REMSYN076AAXX  23124 17202 32670 31803 10290 20080 39110 40090 5/022 83100 333 83835;EQDQ01  00002PRCP99
0159172020999992000052315004+38600+039280FM-12+0882LTCA V0203401N003612200019N0200001N1+01662+00261100821ADDGA1041+010509029GF104991041011012501001001MA1999999091001MD1710101+9999REMSYN076AAXX  23154 17202 42670 43407 10166 20026 39100 40082 57010 84100 333 84835;
0191172020999992000052318004+38600+039280FM-12+0882LTCA V0203501N001512200019N0200001N1+02101+00181100851ADDAA199000091GF103991999999012501999999KA1120M+02961MA1999999091061MD1210061+9999REMSYN081AAXX  23184 17202 32670 33503 10210 20018 39106 40085 52006 8300 333 10296 83835;EQDQ01  00002PRCP99
0143172020999992000052321004+38600+039280FM-12+0882LTCA V0202901N002112200019N0200001N1+01661+00171100891ADDGA1001+999999999GF100991001001999999001001MA1999999091121MD1110061+9999REMSYN060AAXX  23214 17202 42970 02904 10166 20017 39112 40089 51006;
0173172020999992000052400004+38600+039280FM-12+0882LTCA V0202401N002612200019N0200001N1+01361+00241100921ADDAA199000091GA1001+999999999GF100991001001999999001001MA1999999091121MD1410001+9999REMSYN060AAXX  24004 17202 32970 02405 10136 20024 39112 40092 54000;EQDQ01  00002PRCP99
0143172020999992000052403004+38600+039280FM-12+0882LTCA V0202901N002112200019N0200001N1+01161+00661100921ADDGA1001+999999999GF100991001001999999001001MA1999999091081MD1810041+9999REMSYN060AAXX  24034 17202 42970 02904 10116 20066 39108 40092 58004;
0196172020999992000052406004+38600+039280FM-12+0882LTCA V0200701N002612200019N0200001N1+02041+00861100921ADDAA199000091GA1001+999999999GF100991001001999999001001KA1999N+00801MA1999999091101MD1110021+9999REMSYN070AAXX  24064 17202 32970 00705 10204 20086 39110 40092 51002 333 20080;EQDQ01  00002PRCP99
0165172020999992000052409004+38600+039280FM-12+0882LTCA V0200801N003612200019N0200001N1+02561+00721100741ADDGA1011+010509089GF104991011011012501001011MA1999999090951MD1810151+9999REMSYN082AAXX  24094 17202 42670 40807 10256 20072 39095 40074 58015 81101 333 81835 84070;
0165172020999992000052415004+38600+039280FM-12+0882LTCA V0200801N00461220001CN0200001N1+02461+00561100601ADDGA1031+010509089GF105991031021012501001011MA1999999090781MD1810021+9999REMSYN082AAXX  24154 17202 42670 50809 10246 20056 39078 40060 58002 83201 333 83835 85070;
0208172020999992000052418004+38600+039280FM-12+0882LTCA V0200701N003112200019N0200001N1+02081+00801100561ADDAA199000091GA1041+010509029GF104991041011012501001001KA1120M+02741MA1999999090791MD1310011+9999REMSYN082AAXX  24184 17202 32670 40706 10208 20080 39079 40056 53001 84100 333 10274 84835;EQDQ01  00002PRCP99
0159172020999992000052421004+38600+039280FM-12+0882LTCA V0202801N001512200019N0200001N1+01861+00781100521ADDGA1041+010509029GF104991041011012501001001MA1999999090771MD1810021+9999REMSYN076AAXX  24214 17202 42670 42803 10186 20078 39077 40052 58002 84100 333 84835;
0173172020999992000052500004+38600+039280FM-12+0882LTCA V0202601N001512200019N0200001N1+01501+00781100421ADDAA199000091GA1001+999999999GF100991001001999999001001MA1999999090661MD1710111+9999REMSYN060AAXX  25004 17202 32970 02603 10150 20078 39066 40042 57011;EQDQ01  00002PRCP99
0143172020999992000052503004+38600+039280FM-12+0882LTCA V0202301N002612200019N0200001N1+01301+00521100411ADDGA1001+999999999GF100991001001999999001001MA1999999090621MD1710041+9999REMSYN060AAXX  25034 17202 42970 02305 10130 20052 39062 40041 57004;
0220172020999992000052506004+38600+039280FM-12+0882LTCA V0201701N001012200019N0150001N1+02041+00601100461ADDAA199000091GA1001+999999999GF100991001001999999001001IA1019IA2999+01109KA1120N+01221MA1999999090701MD1210081+9999REMSYN076AAXX  25064 17202 32965 01702 10204 20060 39070 40046 52008 333 20122 30011;EQDQ01  00002PRCP99
0159172020999992000052509004+38600+039280FM-12+0882LTCA V0203001N002112200019N0150001N1+02681+00341100391ADDGA1021+010509029GF102991021021012501001001MA1999999090671MD1610031+9999REMSYN076AAXX  25094 17202 42665 23004 10268 20034 39067 40039 56003 82200 333 82835;
0189172020999992000052512004+38600+039280FM-12+0882LTCA V0201601N006212200019N0150001N1+02921+00461100311ADDAA199000091GA1031+010509029GF103991031021012501001001MA1999999090581MD1710091+9999REMSYN076AAXX  25124 17202 32665 31612 10292 20046 39058 40031 57009 83200 333 83835;EQDQ01  00002PRCP99
0159172020999992000052515004+38600+039280FM-12+0882LTCA V0201901N005112200019N0200001N1+02761+00481100261ADDGA1021+010509029GF102991021011012501001001MA1999999090501MD1710081+9999REMSYN076AAXX  25154 17202 42670 21910 10276 20048 39050 40026 57008 82100 333 82835;
0196172020999992000052518004+38600+039280FM-12+0882LTCA V0209999C000012200019N0200001N1+02201+00521100351ADDAA199000091GA1001+999999999GF100991001001999999001001KA1999M+03041MA1999999090601MD1310101+9999REMSYN070AAXX  25184 17202 32970 00000 10220 20052 39060 40035 53010 333 10304;EQDQ01  00002PRCP99
0143172020999992000052521004+38600+039280FM-12+0882LTCA V0209999C000012200019N0200001N1+01701+00381100251ADDGA1001+999999999GF100991001001999999001001MA1999999090601MD1410001+9999REMSYN060AAXX  25214 17202 42970 00000 10170 20038 39060 40025 54000;
0173172020999992000052600004+38600+039280FM-12+0882LTCA V0201701N001512200019N0200001N1+01501+00321100421ADDAA199000091GA1001+999999999GF100991001001999999001001MA1999999090681MD1110081+9999REMSYN060AAXX  26004 17202 32970 01703 10150 20032 39068 40042 51008;EQDQ01  00002PRCP99
0143172020999992000052603004+38600+039280FM-12+0882LTCA V0209999C000012200019N0200001N1+01101+00601100391ADDGA1001+999999999GF100991001001999999001001MA1999999090601MD1810081+9999REMSYN060AAXX  26034 17202 42970 00000 10110 20060 39060 40039 58008;
0232172020999992000052606004+38600+039280FM-12+0882LTCA V0209999C000012200019N0200001N1+02001+00901100431ADDAA199000091GA1011+010509029GF101991011011012501001001IA1019IA2999+00909KA1120N+01061MA1999999090681MD1310081+9999REMSYN088AAXX  26064 17202 32670 10000 10200 20090 39068 40043 53008 81100 333 20106 30009 81835;EQDQ01  00002PRCP99
0159172020999992000052609004+38600+039280FM-12+0882LTCA V0201701N003612200019N0200001N1+02441+00881100421ADDGA1041+010509029GF104991041021012501001001MA1999999090661MD1810021+9999REMSYN076AAXX  26094 17202 42670 41707 10244 20088 39066 40042 58002 84200 333 84835;
0189172020999992000052612004+38600+039280FM-12+0882LTCA V0201801N005712200019N0200001N1+02441+00881100361ADDAA199000091GA1041+010509029GF104991041021012501001001MA1999999090601MD1610061+9999REMSYN076AAXX  26124 17202 32670 41811 10244 20088 39060 40036 56006 84200 333 84835;EQDQ01  00002PRCP99
0193172020999992000052615004+38600+039280FM-12+0882LTCA V0200501N00511007501CN0200001N1+01601+00841100761ADDAY111031AY211031GA1011+007509099GF106991061091008001001001MA1999999090861MD1210261+9999MW1951REMSYN088AAXX  26154 17202 41570 60510 10160 20084 39086 40076 52026 79511 86900 333 81925 85835;
0223172020999992000052618004+38600+039280FM-12+0882LTCA V0202001N002612200019N0200001N1+01401+01221100891ADDAA112001091AY191061AY211061GA1041+010509029GF104991041021012501001001KA1120M+02641MA1999999091021MD1210161+9999MW1011REMSYN094AAXX  26184 17202 11670 42005 10140 20122 39102 40089 52016 60012 70191 84200 333 10264 84835;
0143172020999992000052621004+38600+039280FM-12+0882LTCA V0202901N001012200019N0200001N1+01021+00821100891ADDGA1001+999999999GF100991001001999999001001MA1999999091021MD1410001+9999REMSYN060AAXX  26214 17202 42970 02902 10102 20082 39102 40089 54000;
0154172020999992000052700004+38600+039280FM-12+0882LTCA V0202501N001512200019N0200001N1+00801+00661100911ADDAA199000021GA1001+999999999GF100991001001999999001001MA1999999091021MD1410001+9999REMSYN060AAXX  27004 17202 32970 02503 10080 20066 39102 40091 54000;
0143172020999992000052703004+38600+039280FM-12+0882LTCA V0202901N002112200019N0200001N1+00801+00661100961ADDGA1001+999999999GF100991001001999999001001MA1999999091001MD1810021+9999REMSYN060AAXX  27034 17202 42970 02904 10080 20066 39100 40096 58002;
0219172020999992000052706004+38600+039280FM-12+0882LTCA V0202701N002612200019N0200001N1+01681+00621101051ADDAA124001091GA1011+010509029GF101991011011012501001001IA1099IA2999+00609KA1120N+00721MA1999999091131MD1210131+9999REMSYN094AAXX  27064 17202 32670 12705 10168 20062 39113 40105 52013 81100 333 20072 31006 70010 81835;
0159172020999992000052709004+38600+039280FM-12+0882LTCA V0202701N004612200019N0200001N1+02141+00511100961ADDGA1031+010509029GF103991031011012501001001MA1999999091071MD1710061+9999REMSYN076AAXX  27094 17202 42670 32709 10214 20051 39107 40096 57006 83100 333 83835;
0189172020999992000052712004+38600+039280FM-12+0882LTCA V0203001N003112200019N0200001N1+02441+00491100831ADDAA199000091GA1031+010509029GF103991031011012501001001MA1999999090951MD1710121+9999REMSYN076AAXX  27124 17202 32670 33006 10244 20049 39095 40083 57012 83100 333 83835;EQDQ01  00002PRCP99
0178172020999992000052715004+38600+039280FM-12+0882LTCA V0202901N999992200019N0200001N1+02521+00231100741ADDGA1031+010509029GF103991031011012501001001MA1999999090891MD1610061+9999REMSYN076AAXX  27154 17202 42670 32970 10252 20023 39089 40074 56006 83100 333 83835;EQDQ01+003603WOSPD 
0196172020999992000052718004+38600+039280FM-12+0882LTCA V0202901N004112200019N0200001N1+02101+00341100741ADDAA199000091GA1001+999999999GF100991001001999999001001KA1999M+02541MA1999999090921MD1310031+9999REMSYN070AAXX  27184 17202 32970 02908 10210 20034 39092 40074 53003 333 10254;EQDQ01  00002PRCP99
0143172020999992000052721004+38600+039280FM-12+0882LTCA V0202901N002112200019N0200001N1+01741+00301100961ADDGA1001+999999999GF100991001001999999001001MA1999999091121MD1210201+9999REMSYN060AAXX  27214 17202 42970 02904 10174 20030 39112 40096 52020;
0173172020999992000052800004+38600+039280FM-12+0882LTCA V0202501N001512200019N0200001N1+01501+00321100981ADDAA199000091GA1001+999999999GF100991001001999999001001MA1999999091161MD1210041+9999REMSYN060AAXX  28004 17202 32970 02503 10150 20032 39116 40098 52004;EQDQ01  00002PRCP99
0143172020999992000052803004+38600+039280FM-12+0882LTCA V0202801N001512200019N0200001N1+01321+00721101071ADDGA1001+999999999GF100991001001999999001001MA1999999091221MD1210061+9999REMSYN060AAXX  28034 17202 42970 02803 10132 20072 39122 40107 52006;
0236172020999992000052806004+38600+039280FM-12+0882LTCA V0203201N001512200019N0200001N1+02041+00601101131ADDAA199000091GA1001+999999999GF100991001001999999001001IA1019IA2999+00909KA1120M+99999MA1999999091301MD1210081+9999REMSYN076AAXX  28064 17202 32970 03203 10204 20060 39130 40113 52008 333 10106 30009;EQDQ01  00002PRCP99Q02 +01062ATMX  
0159172020999992000052809004+38600+039280FM-12+0882LTCA V0201901N003612200019N0200001N1+02561+00581101111ADDGA1031+010509029GF103991031011012501001001MA1999999091301MD1410001+9999REMSYN076AAXX  28094 17202 42670 31907 10256 20058 39130 40111 54000 83100 333 83835;
0189172020999992000052812004+38600+039280FM-12+0882LTCA V0202401N002112200019N0200001N1+02701+00481100761ADDAA199000091GA1041+010509029GF104991041011012501001001MA1999999091141MD1710161+9999REMSYN076AAXX  28124 17202 32670 42404 10270 20048 39114 40076 57016 84100 333 84835;EQDQ01  00002PRCP99
0159172020999992000052815004+38600+039280FM-12+0882LTCA V0202701N003112200019N0200001N1+02741+00461100811ADDGA1041+010509029GF104991041011012501001001MA1999999091001MD1610141+9999REMSYN076AAXX  28154 17202 42670 42706 10274 20046 39100 40081 56014 84100 333 84835;
0208172020999992000052818004+38600+039280FM-12+0882LTCA V0202001N002112200019N0200001N1+01981+00341100861ADDAA199000091GA1021+030009079GF102991021001999999031001KA1120M+02801MA1999999091041MD1310041+9999REMSYN082AAXX  28184 17202 32970 22004 10198 20034 39104 40086 53004 82030 333 10280 82360;EQDQ01  00002PRCP99
0143172020999992000052821004+38600+039280FM-12+0882LTCA V0202601N002112200019N0200001N1+01801+00341100921ADDGA1001+999999999GF100991001001999999001001MA1999999091131MD1210091+9999REMSYN060AAXX  28214 17202 42970 02604 10180 20034 39113 40092 52009;
0173172020999992000052900004+38600+039280FM-12+0882LTCA V0202901N002112200019N0200001N1+01521+00421100941ADDAA199000091GA1001+999999999GF100991001001999999001001MA1999999091131MD1410001+9999REMSYN060AAXX  29004 17202 32970 02904 10152 20042 39113 40094 54000;EQDQ01  00002PRCP99
0143172020999992000052903004+38600+039280FM-12+0882LTCA V0202801N001512200019N0200001N1+01381+00681100971ADDGA1001+999999999GF100991001001999999001001MA1999999091161MD1310031+9999REMSYN060AAXX  29034 17202 42970 02803 10138 20068 39116 40097 53003;
0232172020999992000052906004+38600+039280FM-12+0882LTCA V0201901N001012200019N0200001N1+02081+00781101051ADDAA199000091GA1011+010509029GF101991011011012501001001IA1019IA2999+01109KA1120N+01281MA1999999091221MD1210061+9999REMSYN088AAXX  29064 17202 32670 11902 10208 20078 39122 40105 52006 81100 333 20128 30011 81835;EQDQ01  00002PRCP99
0159172020999992000052909004+38600+039280FM-12+0882LTCA V0202501N002112200019N0200001N1+02561+00721100971ADDGA1021+010509029GF102991021011012501001001MA1999999091181MD1810041+9999REMSYN076AAXX  29094 17202 42670 22504 10256 20072 39118 40097 58004 82100 333 82835;
0189172020999992000052912004+38600+039280FM-12+0882LTCA V0203101N003612200019N0200001N1+02881+00721100841ADDAA199000091GA1031+010509029GF103991031011012501001001MA1999999091061MD1710121+9999REMSYN076AAXX  29124 17202 32670 33107 10288 20072 39106 40084 57012 83100 333 83835;EQDQ01  00002PRCP99
0159172020999992000052915004+38600+039280FM-12+0882LTCA V0203101N003112200019N0200001N1+02801+00561100721ADDGA1021+010509029GF102991021011012501001001MA1999999090931MD1710131+9999REMSYN076AAXX  29154 17202 42670 23106 10280 20056 39093 40072 57013 82100 333 82835;
0196172020999992000052918004+38600+039280FM-12+0882LTCA V0209999C000012200019N0200001N1+02361+00321100661ADDAA199000091GA1001+999999999GF100991001001999999001001KA1999M+03001MA1999999090901MD1610031+9999REMSYN070AAXX  29184 17202 32970 00000 10236 20032 39090 40066 56003 333 10300;EQDQ01  00002PRCP99
0143172020999992000052921004+38600+039280FM-12+0882LTCA V0202801N003112200019N0200001N1+01801+00241100801ADDGA1001+999999999GF100991001001999999001001MA1999999091021MD1210121+9999REMSYN060AAXX  29214 17202 42970 02806 10180 20024 39102 40080 52012;
0173172020999992000053000004+38600+039280FM-12+0882LTCA V0209999C000012200019N0200001N1+01641+00261100781ADDAA199000091GA1001+999999999GF100991001001999999001001MA1999999091021MD1110041+9999REMSYN060AAXX  30004 17202 32970 00000 10164 20026 39102 40078 51004;EQDQ01  00002PRCP99
0143172020999992000053003004+38600+039280FM-12+0882LTCA V0209999C000012200019N0200001N1+01381+00421100821ADDGA1001+999999999GF100991001001999999001001MA1999999091021MD1410001+9999REMSYN060AAXX  30034 17202 42970 00000 10138 20042 39102 40082 54000;
0220172020999992000053006004+38600+039280FM-12+0882LTCA V0209999C000012200019N0200001N1+02301+00971100861ADDAA199000091GA1001+999999999GF100991001001999999001001IA1019IA2999+01109KA1120N+01321MA1999999091101MD1110081+9999REMSYN076AAXX  30064 17202 32970 00000 10230 20097 39110 40086 51008 333 20132 30011;EQDQ01  00002PRCP99
0159172020999992000053009004+38600+039280FM-12+0882LTCA V0202701N002112200019N0200001N1+02821+00711100781ADDGA1021+010509029GF102991021011012501001001MA1999999091021MD1810081+9999REMSYN076AAXX  30094 17202 42670 22704 10282 20071 39102 40078 58008 82100 333 82835;
0189172020999992000053012004+38600+039280FM-12+0882LTCA V0201601N002612200019N0200001N1+03001+00631100641ADDAA199000091GA1031+010509029GF103991031011012501001001MA1999999090901MD1710121+9999REMSYN076AAXX  30124 17202 32670 31605 10300 20063 39090 40064 57012 83100 333 83835;EQDQ01  00002PRCP99
0159172020999992000053015004+38600+039280FM-12+0882LTCA V0200901N001512200019N0200001N1+02901+00491100451ADDGA1031+010509029GF103991031011012501001001MA1999999090691MD1710211+9999REMSYN076AAXX  30154 17202 42670 30903 10290 20049 39069 40045 57021 83100 333 83835;
0208172020999992000053018004+38600+039280FM-12+0882LTCA V0203201N004612200019N0200001N1+02461+00381100421ADDAA199000091GA1041+010509029GF104991041021012501001001KA1120M+03121MA1999999090711MD1310021+9999REMSYN082AAXX  30184 17202 32670 43209 10246 20038 39071 40042 53002 84200 333 10312 84835;EQDQ01  00002PRCP99
0159172020999992000053021004+38600+039280FM-12+0882LTCA V0202501N001512200019N0200001N1+02001+00621100521ADDGA1041+010509029GF104991041021012501001001MA1999999090801MD1210091+9999REMSYN076AAXX  30214 17202 42670 42503 10200 20062 39080 40052 52009 84200 333 84835;
0189172020999992000053100004+38600+039280FM-12+0882LTCA V0202001N002112200019N0200001N1+01641+00711100491ADDAA199000091GA1011+010509029GF101991011021012501001001MA1999999090761MD1810041+9999REMSYN076AAXX  31004 17202 32670 12004 10164 20071 39076 40049 58004 81200 333 81835;EQDQ01  00002PRCP99
0143172020999992000053103004+38600+039280FM-12+0882LTCA V0202401N001012200019N0200001N1+01441+01011100391ADDGA1001+999999999GF100991001001999999001001MA1999999090651MD1710111+9999REMSYN060AAXX  31034 17202 42970 02402 10144 20101 39065 40039 57011;
0238172020999992000053106004+38600+039280FM-12+0882LTCA V0202401N00411036001CN0200001N1+02221+01021100541ADDAA199000091GA1041+010509089GF106991041021012501051001IA1019IA2999+01209KA1120N+01421MA1999999090801MD1210151+9999REMSYN094AAXX  31064 17202 32670 62408 10222 20102 39080 40054 52015 84250 333 20142 30012 84835 86360;EQDQ01  00002PRCP99
0165172020999992000053109004+38600+039280FM-12+0882LTCA V0202901N00151036001CN0200001N1+02341+00801100681ADDGA1031+010509089GF105991031021012501051001MA1999999090911MD1110111+9999REMSYN082AAXX  31094 17202 42670 52903 10234 20080 39091 40068 51011 83250 333 83835 85360;
0204172020999992000053112004+38600+039280FM-12+0882LTCA V0202701N002610105019N0200001N1+02301+00971100641ADDAA106003091AY181061AY221061GA1051+010509029GF105991051021012501001001MA1999999090851MD1710051+9999MW1021REMSYN088AAXX  31124 17202 11670 52705 10230 20097 39085 40064 57005 60031 70282 85200 333 85835;
0159172020999992000053115004+38600+039280FM-12+0882LTCA V0202801N007210105019N0200001N1+02001+01001100871ADDGA1051+010509029GF105991051021012501001001MA1999999091001MD1310151+9999REMSYN076AAXX  31154 17202 42670 52814 10200 20100 39100 40087 53015 85200 333 85835;
0195172020999992000053118004+38600+039280FM-12+0882LTCA V0202901N004112200019N0200001N1+01601+01081100941ADDAA112003091GA1041+010509029GF104991041021012501001001KA1120M+02401MA1999999091101MD1310101+9999REMSYN088AAXX  31184 17202 12670 42908 10160 20108 39110 40094 53010 60032 84200 333 10240 84835;
0143172020999992000053121004+38600+039280FM-12+0882LTCA V0209999C000012200019N0200001N1+01461+01021101031ADDGA1001+999999999GF100991001001999999001001MA1999999091181MD1110081+9999REMSYN060AAXX  31214 17202 42970 00000 10146 20102 39118 40103 51008;
0173172020999992000060100004+38600+039280FM-12+0882LTCA V0209999C000012200019N0200001N1+01301+00921101071ADDAA199000091GA1001+999999999GF100991001001999999001001MA1999999091201MD1110021+9999REMSYN060AAXX  01004 17202 32970 00000 10130 20092 39120 40107 51002;EQDQ01  00002PRCP99
0143172020999992000060103004+38600+039280FM-12+0882LTCA V0202701N001512200019N0200001N1+01101+00841101171ADDGA1001+999999999GF100991001001999999001001MA1999999091261MD1310061+9999REMSYN060AAXX  01034 17202 42970 02703 10110 20084 39126 40117 53006;
0207172020999992000060106004+38600+039280FM-12+0882LTCA V0202801N003612200019N0200001N1+01921+01121101191ADDAA124003091GA1001+999999999GF100991001001999999001001IA1099IA2999+00909KA1120N+01061MA1999999091311MD1210051+9999REMSYN082AAXX  01064 17202 32970 02807 10192 20112 39131 40119 52005 333 20106 31009 70030;
0159172020999992000060109004+38600+039280FM-12+0882LTCA V0202701N003112200019N0200001N1+02401+01061101051ADDGA1011+010509029GF101991011011012501001001MA1999999091201MD1710111+9999REMSYN076AAXX  01094 17202 42670 12706 10240 20106 39120 40105 57011 81100 333 81835;
0189172020999992000060112004+38600+039280FM-12+0882LTCA V0201801N002112200019N0200001N1+02841+00861100901ADDAA199000091GA1021+010509029GF102991021011012501001001MA1999999091101MD1710101+9999REMSYN076AAXX  01124 17202 32670 21804 10284 20086 39110 40090 57010 82100 333 82835;EQDQ01  00002PRCP99
0143172020999992000060115004+38600+039280FM-12+0882LTCA V0202601N002612200019N0200001N1+02741+00811100801ADDGA1001+999999999GF100991001001999999001001MA1999999090971MD1610131+9999REMSYN060AAXX  01154 17202 42970 02605 10274 20081 39097 40080 56013;
0196172020999992000060118004+38600+039280FM-12+0882LTCA V0203101N002612200019N0200001N1+02341+00721100771ADDAA199000091GA1001+999999999GF100991001001999999001001KA1999M+02861MA1999999090981MD1310011+9999REMSYN070AAXX  01184 17202 32970 03105 10234 20072 39098 40077 53001 333 10286;EQDQ01  00002PRCP99
0143172020999992000060121004+38600+039280FM-12+0882LTCA V0202801N003112200019N0200001N1+01561+00501100811ADDGA1001+999999999GF100991001001999999001001MA1999999091001MD1010021+9999REMSYN060AAXX  01214 17202 42970 02806 10156 20050 39100 40081 50002;
0173172020999992000060200004+38600+039280FM-12+0882LTCA V0202801N002112200019N0200001N1+01301+00621100791ADDAA199000091GA1001+999999999GF100991001001999999001001MA1999999091001MD1410001+9999REMSYN060AAXX  02004 17202 32970 02804 10130 20062 39100 40079 54000;EQDQ01  00002PRCP99
0143172020999992000060203004+38600+039280FM-12+0882LTCA V0202801N002112200019N0200001N1+01341+00631100801ADDGA1001+999999999GF100991001001999999001001MA1999999090991MD1810011+9999REMSYN060AAXX  02034 17202 42970 02804 10134 20063 39099 40080 58001;
0286172020999992000060206004+38600+039280FM-12+0882LTCA V0200901N002612200019N0200001N1+02241+01001100761ADDAA199000091GA1011+010509089GF199999999999999999001001IA1019IA2999+01009KA1120N+01101MA1999999091001MD1110011+9999REMSYN094AAXX  02064 17202 32670 00905 10224 20100 39100 40076 51001 81101 333 20110 30010 81835 83070;EQDQ01+000002SCOTCVQ02+000002SCOTLCQ03+000002SCOLCGQ04  00002PRCP99
0165172020999992000060209004+38600+039280FM-12+0882LTCA V0200701N001512200019N0200001N1+02741+00841100741ADDGA1011+010509089GF103991011011012501001011MA1999999090971MD1810031+9999REMSYN082AAXX  02094 17202 42670 30703 10274 20084 39097 40074 58003 81101 333 81835 83070;
0189172020999992000060212004+38600+039280FM-12+0882LTCA V0203301N002112200019N0200001N1+03161+00771100551ADDAA199000091GA1031+010509029GF103991031021012501001001MA1999999090801MD1710171+9999REMSYN076AAXX  02124 17202 32670 33304 10316 20077 39080 40055 57017 83200 333 83835;EQDQ01  00002PRCP99
0159172020999992000060215004+38600+039280FM-12+0882LTCA V0200801N003112200019N0200001N1+02961+00681100421ADDGA1031+010509029GF103991031021012501001001MA1999999090681MD1710121+9999REMSYN076AAXX  02154 17202 42670 30806 10296 20068 39068 40042 57012 83200 333 83835;
0196172020999992000060218004+38600+039280FM-12+0882LTCA V0209999C000012200019N0200001N1+02441+00961100381ADDAA199000091GA1001+999999999GF100991001001999999001001KA1999M+03181MA1999999090661MD1610021+9999REMSYN070AAXX  02184 17202 32970 00000 10244 20096 39066 40038 56002 333 10318;EQDQ01  00002PRCP99
0143172020999992000060221004+38600+039280FM-12+0882LTCA V0203001N003112200019N0200001N1+01921+00981100451ADDGA1001+999999999GF100991001001999999001001MA1999999090721MD1110061+9999REMSYN060AAXX  02214 17202 42970 03006 10192 20098 39072 40045 51006;
0173172020999992000060300004+38600+039280FM-12+0882LTCA V0203201N002612200019N0200001N1+01561+00501100411ADDAA199000091GA1001+999999999GF100991001001999999001001MA1999999090701MD1610021+9999REMSYN060AAXX  03004 17202 32970 03205 10156 20050 39070 40041 56002;EQDQ01  00002PRCP99
0159172020999992000060303004+38600+039280FM-12+0882LTCA V0209999C000012200019N0200001N1+01361+00391100441ADDGA1031+030009079GF103991031001999999041001MA1999999090701MD1410001+9999REMSYN076AAXX  03034 17202 42970 30000 10136 20039 39070 40044 54000 83040 333 83360;
0238172020999992000060306004+38600+039280FM-12+0882LTCA V0201901N00311036001CN0200001N1+02001+00801100611ADDAA199000091GA1041+010509089GF106991041021012501051001IA1019IA2999+01209KA1120N+01341MA1999999090881MD1210181+9999REMSYN094AAXX  03064 17202 32670 61906 10200 20080 39088 40061 52018 84250 333 20134 30012 84835 86360;EQDQ01  00002PRCP99
0165172020999992000060309004+38600+039280FM-12+0882LTCA V0200101N00311036001CN0200001N1+02341+00821100571ADDGA1041+010509089GF107991041021012501051001MA1999999090801MD1810081+9999REMSYN082AAXX  03094 17202 42670 70106 10234 20082 39080 40057 58008 84250 333 84835 87360;
0210172020999992000060312004+38600+039280FM-12+0882LTCA V0200801N00361036001CN0200001N1+02701+00921100351ADDAA106000591AY181061AY221061GA1031+010509089GF105991031021012501051001MA1999999090601MD1710201+9999MW1011REMSYN094AAXX  03124 17202 11670 50807 10270 20092 39060 40035 57020 69941 70182 83250 333 83835 85360;
0159172020999992000060315004+38600+039280FM-12+0882LTCA V0201801N006712200019N0200001N1+03141+00631100281ADDGA1031+010509029GF103991031021012501001001MA1999999090571MD1610031+9999REMSYN076AAXX  03154 17202 42670 31813 10314 20063 39057 40028 56003 83200 333 83835;
0183172020999992000060318004+38600+039280FM-12+0882LTCA V0202701N001512200019N0200001N1+02241+00121100201ADDAA112000591GA1001+999999999GF100991001001999999001001KA1999M+03221MA1999999090461MD1610111+9999REMSYN076AAXX  03184 17202 12970 02703 10224 20012 39046 40020 56011 69942 333 10322;
0143172020999992000060321004+38600+039280FM-12+0882LTCA V0202801N002112200019N0200001N1+01521+00361100211ADDGA1001+999999999GF100991001001999999001001MA1999999090441MD1810021+9999REMSYN060AAXX  03214 17202 42970 02804 10152 20036 39044 40021 58002;
0173172020999992000060400004+38600+039280FM-12+0882LTCA V0202701N001512200019N0200001N1+01261+00441100241ADDAA199000091GA1001+999999999GF100991001001999999001001MA1999999090491MD1210051+9999REMSYN060AAXX  04004 17202 32970 02703 10126 20044 39049 40024 52005;EQDQ01  00002PRCP99
0143172020999992000060403004+38600+039280FM-12+0882LTCA V0202801N002112200019N0200001N1+01241+00861100221ADDGA1001+999999999GF100991001001999999001001MA1999999090501MD1110011+9999REMSYN060AAXX  04034 17202 42970 02804 10124 20086 39050 40022 51001;
0219172020999992000060406004+38600+039280FM-12+0882LTCA V0202901N003612200019N0200001N1+02121+00761100541ADDAA124000591GA1011+010509029GF101991011011012501001001IA1019IA2999+01009KA1120N+01121MA1999999090791MD1210291+9999REMSYN094AAXX  04064 17202 32670 12907 10212 20076 39079 40054 52029 81100 333 20112 30010 70004 81835;
0159172020999992000060409004+38600+039280FM-12+0882LTCA V0202901N004112200019N0200001N1+02501+00761100581ADDGA1031+010509029GF103991031021012501001001MA1999999090791MD1410001+9999REMSYN076AAXX  04094 17202 42670 32908 10250 20076 39079 40058 54000 83200 333 83835;
0189172020999992000060412004+38600+039280FM-12+0882LTCA V0202601N004612200019N0200001N1+02721+00681100601ADDAA199000091GA1041+010509029GF104991041021012501001001MA1999999090811MD1210021+9999REMSYN076AAXX  04124 17202 32670 42609 10272 20068 39081 40060 52002 84200 333 84835;EQDQ01  00002PRCP99
0189172020999992000060415004+38600+039280FM-12+0882LTCA V0202701N003112200019N0200001N1+02501+00761100611ADDAA199000091GA1041+010509029GF104991041021012501001001MA1999999090801MD1810011+9999REMSYN076AAXX  04154 17202 32670 42706 10250 20076 39080 40061 58001 84200 333 84835;EQDQ01  00002PRCP99
0196172020999992000060418004+38600+039280FM-12+0882LTCA V0202801N004112200019N0200001N1+02121+00761100761ADDAA199000091GA1001+999999999GF100991001001999999001001KA1999M+02761MA1999999090971MD1310171+9999REMSYN070AAXX  04184 17202 32970 02808 10212 20076 39097 40076 53017 333 10276;EQDQ01  00002PRCP99
0143172020999992000060421004+38600+039280FM-12+0882LTCA V0202101N001512200019N0200001N1+01801+00501100921ADDGA1001+999999999GF100991001001999999001001MA1999999091121MD1210151+9999REMSYN060AAXX  04214 17202 42970 02103 10180 20050 39112 40092 52015;
0173172020999992000060500004+38600+039280FM-12+0882LTCA V0202401N003612200019N0200001N1+01521+00541100921ADDAA199000091GA1001+999999999GF100991001001999999001001MA1999999091121MD1410001+9999REMSYN060AAXX  05004 17202 32970 02407 10152 20054 39112 40092 54000;EQDQ01  00002PRCP99
0143172020999992000060503004+38600+039280FM-12+0882LTCA V0202801N002112200019N0200001N1+01301+00741100961ADDGA1001+999999999GF100991001001999999001001MA1999999091121MD1410001+9999REMSYN060AAXX  05034 17202 42970 02804 10130 20074 39112 40096 54000;
0220172020999992000060506004+38600+039280FM-12+0882LTCA V0203001N003112200019N0200001N1+01981+00761100921ADDAA199000091GA1001+999999999GF100991001001999999001001IA1019IA2999+01109KA1120N+01281MA1999999091101MD1810021+9999REMSYN076AAXX  05064 17202 32970 03006 10198 20076 39110 40092 58002 333 20128 30011;EQDQ01  00002PRCP99
0159172020999992000060509004+38600+039280FM-12+0882LTCA V0203001N003112200019N0200001N1+02461+00741100871ADDGA1031+010509029GF103991031011012501001001MA1999999091071MD1810031+9999REMSYN076AAXX  05094 17202 42670 33006 10246 20074 39107 40087 58003 83100 333 83835;
0189172020999992000060512004+38600+039280FM-12+0882LTCA V0203101N004112200019N0200001N1+02761+00741100681ADDAA199000091GA1031+010509029GF103991031011012501001001MA1999999090901MD1710171+9999REMSYN076AAXX  05124 17202 32670 33108 10276 20074 39090 40068 57017 83100 333 83835;EQDQ01  00002PRCP99
0159172020999992000060515004+38600+039280FM-12+0882LTCA V0202801N003612200019N0200001N1+02801+00411100621ADDGA1021+030009079GF102991021001999999031001MA1999999090831MD1710071+9999REMSYN076AAXX  05154 17202 42970 22807 10280 20041 39083 40062 57007 82030 333 82360;
0196172020999992000060518004+38600+039280FM-12+0882LTCA V0202901N004112200019N0200001N1+02261+00281100641ADDAA199000091GA1001+999999999GF100991001001999999001001KA1999M+02841MA1999999090861MD1310031+9999REMSYN070AAXX  05184 17202 32970 02908 10226 20028 39086 40064 53003 333 10284;EQDQ01  00002PRCP99
0143172020999992000060521004+38600+039280FM-12+0882LTCA V0203101N001512200019N0200001N1+02001+00321100701ADDGA1001+999999999GF100991001001999999001001MA1999999090931MD1210071+9999REMSYN060AAXX  05214 17202 42970 03103 10200 20032 39093 40070 52007;
0173172020999992000060600004+38600+039280FM-12+0882LTCA V0202801N002112200019N0200001N1+01501+00581100731ADDAA199000091GA1001+999999999GF100991001001999999001001MA1999999090941MD1110011+9999REMSYN060AAXX  06004 17202 32970 02804 10150 20058 39094 40073 51001;EQDQ01  00002PRCP99
0143172020999992000060603004+38600+039280FM-12+0882LTCA V0209999C000012200019N0200001N1+01341+00741100701ADDGA1001+999999999GF100991001001999999001001MA1999999090921MD1610021+9999REMSYN060AAXX  06034 17202 42970 00000 10134 20074 39092 40070 56002;
0220172020999992000060606004+38600+039280FM-12+0882LTCA V0202901N002612200019N0200001N1+02241+00881100711ADDAA199000091GA1001+999999999GF100991001001999999001001IA1019IA2999+01009KA1120N+01181MA1999999090941MD1110021+9999REMSYN076AAXX  06064 17202 32970 02905 10224 20088 39094 40071 51002 333 20118 30010;EQDQ01  00002PRCP99
0159172020999992000060609004+38600+039280FM-12+0882LTCA V0201301N002612200019N0200001N1+02661+00781100611ADDGA1011+010509029GF101991011011012501001001MA1999999090871MD1710071+9999REMSYN076AAXX  06094 17202 42670 11305 10266 20078 39087 40061 57007 81100 333 81835;
0189172020999992000060612004+38600+039280FM-12+0882LTCA V0200801N003112200019N0200001N1+02941+00801100491ADDAA199000091GA1011+010509029GF101991011011012501001001MA1999999090741MD1710131+9999REMSYN076AAXX  06124 17202 32670 10806 10294 20080 39074 40049 57013 81100 333 81835;EQDQ01  00002PRCP99
0143172020999992000060615004+38600+039280FM-12+0882LTCA V0200701N001512200019N0200001N1+02981+00601100381ADDGA1001+999999999GF100991001001999999001001MA1999999090641MD1710101+9999REMSYN060AAXX  06154 17202 42970 00703 10298 20060 39064 40038 57010;
0196172020999992000060618004+38600+039280FM-12+0882LTCA V0203101N004112200019N0200001N1+02441+00381100361ADDAA199000091GA1001+999999999GF100991001001999999001001KA1999M+03041MA1999999090641MD1410001+9999REMSYN070AAXX  06184 17202 32970 03108 10244 20038 39064 40036 54000 333 10304;EQDQ01  00002PRCP99
0143172020999992000060621004+38600+039280FM-12+0882LTCA V0202901N002612200019N0200001N1+01941+00461100421ADDGA1001+999999999GF100991001001999999001001MA1999999090681MD1310041+9999REMSYN060AAXX  06214 17202 42970 02905 10194 20046 39068 40042 53004;
0173172020999992000060700004+38600+039280FM-12+0882LTCA V0203001N002612200019N0200001N1+01521+00541100411ADDAA199000091GA1001+999999999GF100991001001999999001001MA1999999090671MD1810011+9999REMSYN060AAXX  07004 17202 32970 03005 10152 20054 39067 40041 58001;EQDQ01  00002PRCP99
0143172020999992000060703004+38600+039280FM-12+0882LTCA V0209999C000012200019N0200001N1+01341+00631100401ADDGA1001+999999999GF100991001001999999001001MA1999999090661MD1610011+9999REMSYN060AAXX  07034 17202 42970 00000 10134 20063 39066 40040 56001;
0220172020999992000060706004+38600+039280FM-12+0882LTCA V0200901N002112200019N0200001N1+02361+00841100361ADDAA199000091GA1001+999999999GF100991001001999999001001IA1019IA2999+01209KA1120N+01301MA1999999090661MD1410001+9999REMSYN076AAXX  07064 17202 32970 00904 10236 20084 39066 40036 54000 333 20130 30012;EQDQ01  00002PRCP99
0159172020999992000060709004+38600+039280FM-12+0882LTCA V0201001N003112200019N0200001N1+03001+01121100231ADDGA1021+010509029GF102991021011012501001001MA1999999090551MD1710111+9999REMSYN076AAXX  07094 17202 42670 21006 10300 20112 39055 40023 57011 82100 333 82835;
0189172020999992000060712004+38600+039280FM-12+0882LTCA V0201601N004112200019N0200001N1+03201+01061100121ADDAA199000091GA1031+010509029GF103991031011012501001001MA1999999090441MD1710111+9999REMSYN076AAXX  07124 17202 32670 31608 10320 20106 39044 40012 57011 83100 333 83835;EQDQ01  00002PRCP99
0159172020999992000060715004+38600+039280FM-12+0882LTCA V0202501N007212200019N0200001N1+03041+00721100121ADDGA1021+010509029GF102991021011012501001001MA1999999090411MD1810031+9999REMSYN076AAXX  07154 17202 42670 22514 10304 20072 39041 40012 58003 82100 333 82835;
0208172020999992000060718004+38600+039280FM-12+0882LTCA V0202401N003112200019N0200001N1+02281+00661100281ADDAA199000091GA1011+010509029GF101991011011012501001001KA1120M+03381MA1999999090571MD1210161+9999REMSYN082AAXX  07184 17202 32670 12406 10228 20066 39057 40028 52016 81100 333 10338 81835;EQDQ01  00002PRCP99
0143172020999992000060721004+38600+039280FM-12+0882LTCA V0201501N001512200019N0200001N1+01921+00511100401ADDGA1001+999999999GF100991001001999999001001MA1999999090711MD1210141+9999REMSYN060AAXX  07214 17202 42970 01503 10192 20051 39071 40040 52014;
0173172020999992000060800004+38600+039280FM-12+0882LTCA V0202301N001512200019N0200001N1+01641+00701100461ADDAA199000091GA1001+999999999GF100991001001999999001001MA1999999090751MD1210041+9999REMSYN060AAXX  08004 17202 32970 02303 10164 20070 39075 40046 52004;EQDQ01  00002PRCP99
0143172020999992000060803004+38600+039280FM-12+0882LTCA V0202901N002612200019N0200001N1+01501+00781100501ADDGA1001+999999999GF100991001001999999001001MA1999999090771MD1110021+9999REMSYN060AAXX  08034 17202 42970 02905 10150 20078 39077 40050 51002;
0220172020999992000060806004+38600+039280FM-12+0882LTCA V0203101N004112200019N0200001N1+02401+01101100661ADDAA199000091GA1001+999999999GF100991001001999999001001IA1019IA2999+01309KA1120N+01421MA1999999090911MD1210141+9999REMSYN076AAXX  08064 17202 32970 03108 10240 20110 39091 40066 52014 333 20142 30013;EQDQ01  00002PRCP99
0159172020999992000060809004+38600+039280FM-12+0882LTCA V0203001N006212200019N0200001N1+02821+01091100621ADDGA1021+010509029GF102991021011012501001001MA1999999090891MD1810021+9999REMSYN076AAXX  08094 17202 42670 23012 10282 20109 39089 40062 58002 82100 333 82835;
0189172020999992000060812004+38600+039280FM-12+0882LTCA V0202701N002612200019N0200001N1+03061+00981100491ADDAA199000091GA1021+010509029GF102991021011012501001001MA1999999090771MD1710121+9999REMSYN076AAXX  08124 17202 32670 22705 10306 20098 39077 40049 57012 82100 333 82835;EQDQ01  00002PRCP99
0159172020999992000060815004+38600+039280FM-12+0882LTCA V0203001N003612200019N0200001N1+02821+01091100461ADDGA1031+010509029GF103991031011012501001001MA1999999090721MD1310051+9999REMSYN076AAXX  08154 17202 42670 33007 10282 20109 39072 40046 53005 83100 333 83835;
0196172020999992000060818004+38600+039280FM-12+0882LTCA V0202901N004112200019N0200001N1+02501+01161100561ADDAA199000091GA1001+999999999GF100991001001999999001001KA1999M+03101MA1999999090841MD1210121+9999REMSYN070AAXX  08184 17202 32970 02908 10250 20116 39084 40056 52012 333 10310;EQDQ01  00002PRCP99
0143172020999992000060821004+38600+039280FM-12+0882LTCA V0202901N004112200019N0200001N1+02241+01021100831ADDGA1001+999999999GF100991001001999999001001MA1999999091021MD1210181+9999REMSYN060AAXX  08214 17202 42970 02908 10224 20102 39102 40083 52018;
0173172020999992000060900004+38600+039280FM-12+0882LTCA V0202501N003112200019N0200001N1+02001+01001100831ADDAA199000091GA1001+999999999GF100991001001999999001001MA1999999091101MD1110081+9999REMSYN060AAXX  09004 17202 32970 02506 10200 20100 39110 40083 51008;EQDQ01  00002PRCP99
0143172020999992000060903004+38600+039280FM-12+0882LTCA V0202301N001512200019N0200001N1+01741+00801101001ADDGA1001+999999999GF100991001001999999001001MA1999999091221MD1210121+9999REMSYN060AAXX  09034 17202 42970 02303 10174 20080 39122 40100 52012;
0220172020999992000060906004+38600+039280FM-12+0882LTCA V0202801N004112200019N0200001N1+02401+01101101071ADDAA199000091GA1001+999999999GF100991001001999999001001IA1019IA2999+01509KA1120N+01701MA1999999091301MD1210081+9999REMSYN076AAXX  09064 17202 32970 02808 10240 20110 39130 40107 52008 333 20170 30015;EQDQ01  00002PRCP99
0159172020999992000060909004+38600+039280FM-12+0882LTCA V0203201N004112200019N0200001N1+02801+01041100991ADDGA1011+010509029GF101991011011012501001001MA1999999091241MD1710061+9999REMSYN076AAXX  09094 17202 42670 13208 10280 20104 39124 40099 57006 81100 333 81835;
0189172020999992000060912004+38600+039280FM-12+0882LTCA V0203301N004112200019N0200001N1+03081+01001100861ADDAA199000091GA1031+010509029GF103991031011012501001001MA1999999091121MD1710121+9999REMSYN076AAXX  09124 17202 32670 33308 10308 20100 39112 40086 57012 83100 333 83835;EQDQ01  00002PRCP99
0143172020999992000060915004+38600+039280FM-12+0882LTCA V0203201N004612200019N0200001N1+02941+01061100821ADDGA1001+999999999GF100991001001999999001001MA1999999091061MD1810061+9999REMSYN060AAXX  09154 17202 42970 03209 10294 20106 39106 40082 58006;
0196172020999992000060918004+38600+039280FM-12+0882LTCA V0202901N003612200019N0200001N1+02461+00901100951ADDAA199000091GA1001+999999999GF100991001001999999001001KA1999M+03121MA1999999091191MD1210131+9999REMSYN070AAXX  09184 17202 32970 02907 10246 20090 39119 40095 52013 333 10312;EQDQ01  00002PRCP99
0143172020999992000060921004+38600+039280FM-12+0882LTCA V0203101N005112200019N0200001N1+02001+00681101071ADDGA1001+999999999GF100991001001999999001001MA1999999091301MD1110111+9999REMSYN060AAXX  09214 17202 42970 03110 10200 20068 39130 40107 51011;
0173172020999992000061000004+38600+039280FM-12+0882LTCA V0202601N003112200019N0200001N1+01801+00681101101ADDAA199000091GA1001+999999999GF100991001001999999001001MA1999999091321MD1110021+9999REMSYN060AAXX  10004 17202 32970 02606 10180 20068 39132 40110 51002;EQDQ01  00002PRCP99
0143172020999992000061003004+38600+039280FM-12+0882LTCA V0202501N003112200019N0200001N1+01561+00771101161ADDGA1001+999999999GF100991001001999999001001MA1999999091361MD1310041+9999REMSYN060AAXX  10034 17202 42970 02506 10156 20077 39136 40116 53004;
0220172020999992000061006004+38600+039280FM-12+0882LTCA V0203001N005712200019N0200001N1+02221+00741101191ADDAA199000091GA1001+999999999GF100991001001999999001001IA1019IA2999+01309KA1120N+01501MA1999999091391MD1210031+9999REMSYN076AAXX  10064 17202 32970 03011 10222 20074 39139 40119 52003 333 20150 30013;EQDQ01  00002PRCP99
0143172020999992000061009004+38600+039280FM-12+0882LTCA V0202701N004112200019N0200001N1+02681+00881101151ADDGA1001+999999999GF100991001001999999001001MA1999999091271MD1710121+9999REMSYN060AAXX  10094 17202 42970 02708 10268 20088 39127 40115 57012;
0189172020999992000061012004+38600+039280FM-12+0882LTCA V0202801N002112200019N0200001N1+03001+00701100891ADDAA199000091GA1031+010509029GF103991031011012501001001MA1999999091131MD1710141+9999REMSYN076AAXX  10124 17202 32670 32804 10300 20070 39113 40089 57014 83100 333 83835;EQDQ01  00002PRCP99
0159172020999992000061015004+38600+039280FM-12+0882LTCA V0202901N004612200019N0200001N1+03101+00701100721ADDGA1011+010509029GF101991011011012501001001MA1999999090971MD1710151+9999REMSYN076AAXX  10154 17202 42670 12909 10310 20070 39097 40072 57015 81100 333 81835;
0196172020999992000061018004+38600+039280FM-12+0882LTCA V0203101N004112200019N0200001N1+02561+00781100741ADDAA199000091GA1001+999999999GF100991001001999999001001KA1999M+03141MA1999999091001MD1110031+9999REMSYN070AAXX  10184 17202 32970 03108 10256 20078 39100 40074 51003 333 10314;EQDQ01  00002PRCP99
0143172020999992000061021004+38600+039280FM-12+0882LTCA V0202901N003612200019N0200001N1+02201+00601100831ADDGA1001+999999999GF100991001001999999001001MA1999999091081MD1310081+9999REMSYN060AAXX  10214 17202 42970 02907 10220 20060 39108 40083 53008;
0173172020999992000061100004+38600+039280FM-12+0882LTCA V0202801N003112200019N0200001N1+01901+00521100961ADDAA199000091GA1001+999999999GF100991001001999999001001MA1999999091201MD1210121+9999REMSYN060AAXX  11004 17202 32970 02806 10190 20052 39120 40096 52012;EQDQ01  00002PRCP99
0143172020999992000061103004+38600+039280FM-12+0882LTCA V0209999C000012200019N0200001N1+01441+00401101091ADDGA1001+999999999GF100991001001999999001001MA1999999091301MD1310101+9999REMSYN060AAXX  11034 17202 42970 00000 10144 20040 39130 40109 53010;
0220172020999992000061106004+38600+039280FM-12+0882LTCA V0203101N004112200019N0200001N1+02081+00661101181ADDAA199000091GA1001+999999999GF100991001001999999001001IA1019IA2999+01209KA1120N+01401MA1999999091381MD1210081+9999REMSYN076AAXX  11064 17202 32970 03108 10208 20066 39138 40118 52008 333 20140 30012;EQDQ01  00002PRCP99
0143172020999992000061109004+38600+039280FM-12+0882LTCA V0202901N003612200019N0200001N1+02561+00781101061ADDGA1001+999999999GF100991001001999999001001MA1999999091291MD1710091+9999REMSYN060AAXX  11094 17202 42970 02907 10256 20078 39129 40106 57009;
0173172020999992000061112004+38600+039280FM-12+0882LTCA V0203001N004112200019N0200001N1+03001+00701100851ADDAA199000091GA1001+999999999GF100991001001999999001001MA1999999091101MD1710191+9999REMSYN060AAXX  11124 17202 32970 03008 10300 20070 39110 40085 57019;EQDQ01  00002PRCP99
0143172020999992000061115004+38600+039280FM-12+0882LTCA V0202901N003612200019N0200001N1+03001+00501100761ADDGA1001+999999999GF100991001001999999001001MA1999999090991MD1710111+9999REMSYN060AAXX  11154 17202 42970 02907 10300 20050 39099 40076 57011;
0196172020999992000061118004+38600+039280FM-12+0882LTCA V0203101N004112200019N0200001N1+02401+00141100781ADDAA199000091GA1001+999999999GF100991001001999999001001KA1999M+03141MA1999999091001MD1310011+9999REMSYN070AAXX  11184 17202 32970 03108 10240 20014 39100 40078 53001 333 10314;EQDQ01  00002PRCP99
0143172020999992000061121004+38600+039280FM-12+0882LTCA V0203001N005112200019N0200001N1+02181+00421100901ADDGA1001+999999999GF100991001001999999001001MA1999999091141MD1210141+9999REMSYN060AAXX  11214 17202 42970 03010 10218 20042 39114 40090 52014;
0173172020999992000061200004+38600+039280FM-12+0882LTCA V0202201N001512200019N0200001N1+02001+00301100961ADDAA199000091GA1001+999999999GF100991001001999999001001MA1999999091211MD1210071+9999REMSYN060AAXX  12004 17202 32970 02203 10200 20030 39121 40096 52007;EQDQ01  00002PRCP99
0143172020999992000061203004+38600+039280FM-12+0882LTCA V0202501N002612200019N0200001N1+01201-00081101171ADDGA1001+999999999GF100991001001999999001001MA1999999091341MD1310131+9999REMSYN060AAXX  12034 17202 42970 02505 10120 21008 39134 40117 53013;
0220172020999992000061206004+38600+039280FM-12+0882LTCA V0202601N002612200019N0200001N1+02141+00141101281ADDAA199000091GA1001+999999999GF100991001001999999001001IA1019IA2999+01009KA1120N+01101MA1999999091471MD1210131+9999REMSYN076AAXX  12064 17202 32970 02605 10214 20014 39147 40128 52013 333 20110 30010;EQDQ01  00002PRCP99
0143172020999992000061209004+38600+039280FM-12+0882LTCA V0201401N003112200019N0200001N1+02581+00041101261ADDGA1001+999999999GF100991001001999999001001MA1999999091471MD1410001+9999REMSYN060AAXX  12094 17202 42970 01406 10258 20004 39147 40126 54000;
0189172020999992000061212004+38600+039280FM-12+0882LTCA V0203001N004112200019N0200001N1+03021+00301101101ADDAA199000091GA1011+010509029GF101991011011012501001001MA1999999091341MD1710131+9999REMSYN076AAXX  12124 17202 32670 13008 10302 20030 39134 40110 57013 81100 333 81835;EQDQ01  00002PRCP99
0143172020999992000061215004+38600+039280FM-12+0882LTCA V0200901N002112200019N0200001N1+02961+00301101141ADDGA1001+999999999GF100991001001999999001001MA1999999091321MD1610021+9999REMSYN060AAXX  12154 17202 42970 00904 10296 20030 39132 40114 56002;
0196172020999992000061218004+38600+039280FM-12+0882LTCA V0202601N001512200019N0200001N1+02361+00061100951ADDAA199000091GA1001+999999999GF100991001001999999001001KA1999M+03041MA1999999091371MD1110051+9999REMSYN070AAXX  12184 17202 32970 02603 10236 20006 39137 40095 51005 333 10304;EQDQ01  00002PRCP99
0143172020999992000061221004+38600+039280FM-12+0882LTCA V0202901N004112200019N0200001N1+01921+00301101361ADDGA1001+999999999GF100991001001999999001001MA1999999091541MD1210171+9999REMSYN060AAXX  12214 17202 42970 02908 10192 20030 39154 40136 52017;
0173172020999992000061300004+38600+039280FM-12+0882LTCA V0202401N001512200019N0200001N1+01801+00301101401ADDAA199000091GA1001+999999999GF100991001001999999001001MA1999999091601MD1110061+9999REMSYN060AAXX  13004 17202 32970 02403 10180 20030 39160 40140 51006;EQDQ01  00002PRCP99
0143172020999992000061303004+38600+039280FM-12+0882LTCA V0202901N003112200019N0200001N1+01121+00161101531ADDGA1001+999999999GF100991001001999999001001MA1999999091651MD1310051+9999REMSYN060AAXX  13034 17202 42970 02906 10112 20016 39165 40153 53005;
0220172020999992000061306004+38600+039280FM-12+0882LTCA V0201301N002112200019N0200001N1+02101+00341101581ADDAA199000091GA1001+999999999GF100991001001999999001001IA1019IA2999+00909KA1120N+01101MA1999999091731MD1210081+9999REMSYN076AAXX  13064 17202 32970 01304 10210 20034 39173 40158 52008 333 20110 30009;EQDQ01  00002PRCP99
0143172020999992000061309004+38600+039280FM-12+0882LTCA V0201601N002112200019N0200001N1+02641+00431101471ADDGA1001+999999999GF100991001001999999001001MA1999999091641MD1710091+9999REMSYN060AAXX  13094 17202 42970 01604 10264 20043 39164 40147 57009;
0173172020999992000061312004+38600+039280FM-12+0882LTCA V0203101N002112200019N0200001N1+03001+00341101301ADDAA199000091GA1001+999999999GF100991001001999999001001MA1999999091501MD1610141+9999REMSYN060AAXX  13124 17202 32970 03104 10300 20034 39150 40130 56014;EQDQ01  00002PRCP99
0143172020999992000061315004+38600+039280FM-12+0882LTCA V0200301N002612200019N0200001N1+02921+00421101231ADDGA1001+999999999GF100991001001999999001001MA1999999091381MD1710121+9999REMSYN060AAXX  13154 17202 42970 00305 10292 20042 39138 40123 57012;
0196172020999992000061318004+38600+039280FM-12+0882LTCA V0203501N003612200019N0200001N1+02561+00381101141ADDAA199000091GA1001+999999999GF100991001001999999001001KA1999M+03061MA1999999091341MD1510041+9999REMSYN070AAXX  13184 17202 32970 03507 10256 20038 39134 40114 55004 333 10306;EQDQ01  00002PRCP99
0143172020999992000061321004+38590+039280FM-12+0882LTCA V0202801N003112200019N0200001N1+02141+00141101271ADDGA1001+999999999GF100991001001999999001001MA1999999091481MD1210141+9999REMSYN060AAXX  13214 17202 42970 02806 10214 20014 39148 40127 52014;
0173172020999992000061400004+38590+039280FM-12+0882LTCA V0203001N002112200019N0200001N1+01481+00141101331ADDAA199000091GA1001+999999999GF100991001001999999001001MA1999999091501MD1110021+9999REMSYN060AAXX  14004 17202 32970 03004 10148 20014 39150 40133 51002;EQDQ01  00002PRCP99
0143172020999992000061403004+38590+039280FM-12+0882LTCA V0202601N002612200019N0200001N1+01321+00191101361ADDGA1001+999999999GF100991001001999999001001MA1999999091511MD1310011+9999REMSYN060AAXX  14034 17202 42970 02605 10132 20019 39151 40136 53001;
0220172020999992000061406004+38590+039280FM-12+0882LTCA V0202101N004612200019N0200001N1+02301+00621101321ADDAA199000091GA1001+999999999GF100991001001999999001001IA1019IA2999+01109KA1120N+01221MA1999999091521MD1110011+9999REMSYN076AAXX  14064 17202 32970 02109 10230 20062 39152 40132 51001 333 20122 30011;EQDQ01  00002PRCP99
0143172020999992000061409004+38590+039280FM-12+0882LTCA V0201201N003612200019N0200001N1+02801+00501101131ADDGA1001+999999999GF100991001001999999001001MA1999999091371MD1710151+9999REMSYN060AAXX  14094 17202 42970 01207 10280 20050 39137 40113 57015;
0173172020999992000061412004+38590+039280FM-12+0882LTCA V0203201N005112200019N0200001N1+03021+00341100891ADDAA199000091GA1001+999999999GF100991001001999999001001MA1999999091111MD1710261+9999REMSYN060AAXX  14124 17202 32970 03210 10302 20034 39111 40089 57026;EQDQ01  00002PRCP99
0143172020999992000061415004+38590+039280FM-12+0882LTCA V0203501N002112200019N0200001N1+03021+00241100751ADDGA1001+999999999GF100991001001999999001001MA1999999090981MD1710131+9999REMSYN060AAXX  14154 17202 42970 03504 10302 20024 39098 40075 57013;
0196172020999992000061418004+38590+039280FM-12+0882LTCA V0203301N005112200019N0200001N1+02461+00541100811ADDAA199000091GA1001+999999999GF100991001001999999001001KA1999M+03141MA1999999091061MD1310081+9999REMSYN070AAXX  14184 17202 32970 03310 10246 20054 39106 40081 53008 333 10314;EQDQ01  00002PRCP99
0143172020999992000061421004+38590+039280FM-12+0882LTCA V0203001N004112200019N0200001N1+02041+00361100961ADDGA1001+999999999GF100991001001999999001001MA1999999091201MD1110141+9999REMSYN060AAXX  14214 17202 42970 03008 10204 20036 39120 40096 51014;
0173172020999992000061500004+38590+039280FM-12+0882LTCA V0203101N003112200019N0200001N1+01681+00681101051ADDAA199000091GA1001+999999999GF100991001001999999001001MA1999999091261MD1110061+9999REMSYN060AAXX  15004 17202 32970 03106 10168 20068 39126 40105 51006;EQDQ01  00002PRCP99
0143172020999992000061503004+38590+039280FM-12+0882LTCA V0209999C000012200019N0200001N1+01241+00441101121ADDGA1001+999999999GF100991001001999999001001MA1999999091301MD1310041+9999REMSYN060AAXX  15034 17202 42970 00000 10124 20044 39130 40112 53004;
0220172020999992000061506004+38590+039280FM-12+0882LTCA V0209999C000012200019N0200001N1+02001+00661101211ADDAA199000091GA1001+999999999GF100991001001999999001001IA1019IA2999+01009KA1120N+01201MA1999999091381MD1310081+9999REMSYN076AAXX  15064 17202 32970 00000 10200 20066 39138 40121 53008 333 20120 30010;EQDQ01  00002PRCP99
0143172020999992000061509004+38590+039280FM-12+0882LTCA V0200101N004612200019N0200001N1+02521+00601101001ADDGA1001+999999999GF100991001001999999001001MA1999999091221MD1710161+9999REMSYN060AAXX  15094 17202 42970 00109 10252 20060 39122 40100 57016;
0173172020999992000061512004+38590+039280FM-12+0882LTCA V0200701N004112200019N0200001N1+02901+00621100801ADDAA199000091GA1001+999999999GF100991001001999999001001MA1999999091041MD1710181+9999REMSYN060AAXX  15124 17202 32970 00708 10290 20062 39104 40080 57018;EQDQ01  00002PRCP99
0143172020999992000061515004+38590+039280FM-12+0882LTCA V0203501N003612200019N0200001N1+02941+00501100681ADDGA1001+999999999GF100991001001999999001001MA1999999090901MD1710141+9999REMSYN060AAXX  15154 17202 42970 03507 10294 20050 39090 40068 57014;
0113172020999992000061521004+38590+039280FM-12+0882LTCA V0202601N002612200019N0200001N1+99999+99999999999ADDGA1001+999999999GF100991001001999999001001REMSYN059AAXX  15214 17202 42970 02605 0176 20024 39103 40082 52013;
0173172020999992000061600004+38590+039280FM-12+0882LTCA V0202201N002612200019N0200001N1+01641+00201100831ADDAA199000091GA1001+999999999GF100991001001999999001001MA1999999091071MD1210041+9999REMSYN060AAXX  16004 17202 32970 02205 10164 20020 39107 40083 52004;EQDQ01  00002PRCP99
0143172020999992000061603004+38590+039280FM-12+0882LTCA V0202301N002612200019N0200001N1+01361+00411100911ADDGA1001+999999999GF100991001001999999001001MA1999999091121MD1210051+9999REMSYN060AAXX  16034 17202 42970 02305 10136 20041 39112 40091 52005;
0220172020999992000061606004+38590+039280FM-12+0882LTCA V0201301N001512200019N0200001N1+02441+01041100941ADDAA199000091GA1001+999999999GF100991001001999999001001IA1019IA2999+01109KA1120N+01261MA1999999091191MD1210071+9999REMSYN076AAXX  16064 17202 32970 01303 10244 20104 39119 40094 52007 333 20126 30011;EQDQ01  00002PRCP99
0143172020999992000061609004+38590+039280FM-12+0882LTCA V0200801N002612200019N0200001N1+02881+00981100971ADDGA1001+999999999GF100991001001999999001001MA1999999091191MD1410001+9999REMSYN060AAXX  16094 17202 42970 00805 10288 20098 39119 40097 54000;
0173172020999992000061612004+38590+039280FM-12+0882LTCA V0201301N002112200019N0200001N1+03301+00701100781ADDAA199000091GA1001+999999999GF100991001001999999001001MA1999999091051MD1710141+9999REMSYN060AAXX  16124 17202 32970 01304 10330 20070 39105 40078 57014;EQDQ01  00002PRCP99
0143172020999992000061615004+38590+039280FM-12+0882LTCA V0202901N003112200019N0200001N1+03301+00701100711ADDGA1001+999999999GF100991001001999999001001MA1999999090961MD1710091+9999REMSYN060AAXX  16154 17202 42970 02906 10330 20070 39096 40071 57009;
0196172020999992000061618004+38590+039280FM-12+0882LTCA V0203101N001012200019N0200001N1+02701+00681100661ADDAA199000091GA1001+999999999GF100991001001999999001001KA1999M+03361MA1999999090961MD1410001+9999REMSYN070AAXX  16184 17202 32970 03102 10270 20068 39096 40066 54000 333 10336;EQDQ01  00002PRCP99
0143172020999992000061621004+38590+039280FM-12+0882LTCA V0202901N001512200019N0200001N1+02001+00661100791ADDGA1001+999999999GF100991001001999999001001MA1999999091061MD1210101+9999REMSYN060AAXX  16214 17202 42970 02903 10200 20066 39106 40079 52010;
0173172020999992000061700004+38590+039280FM-12+0882LTCA V0202601N002612200019N0200001N1+01761+00461100761ADDAA199000091GA1001+999999999GF100991001001999999001001MA1999999091101MD1110041+9999REMSYN060AAXX  17004 17202 32970 02605 10176 20046 39110 40076 51004;EQDQ01  00002PRCP99
0143172020999992000061703004+38590+039280FM-12+0882LTCA V0202801N001512200019N0200001N1+01481+00141100891ADDGA1001+999999999GF100991001001999999001001MA1999999091131MD1310031+9999REMSYN060AAXX  17034 17202 42970 02803 10148 20014 39113 40089 53003;
0220172020999992000061706004+38590+039280FM-12+0882LTCA V0200901N002612200019N0200001N1+02521+00601100951ADDAA199000091GA1001+999999999GF100991001001999999001001IA1019IA2999+01209KA1120N+01441MA1999999091221MD1210091+9999REMSYN076AAXX  17064 17202 32970 00905 10252 20060 39122 40095 52009 333 20144 30012;EQDQ01  00002PRCP99
0143172020999992000061709004+38590+039280FM-12+0882LTCA V0201001N003112200019N0200001N1+03061+00681100881ADDGA1001+999999999GF100991001001999999001001MA1999999091141MD1810081+9999REMSYN060AAXX  17094 17202 42970 01006 10306 20068 39114 40088 58008;
0173172020999992000061712004+38590+039280FM-12+0882LTCA V0201901N002612200019N0200001N1+03521+00501100661ADDAA199000091GA1001+999999999GF100991001001999999001001MA1999999090961MD1710181+9999REMSYN060AAXX  17124 17202 32970 01905 10352 20050 39096 40066 57018;EQDQ01  00002PRCP99
0143172020999992000061715004+38590+039280FM-12+0882LTCA V0202001N003112200019N0200001N1+02521+00501100501ADDGA1001+999999999GF100991001001999999001001MA1999999090801MD1710161+9999REMSYN060AAXX  17154 17202 42970 02006 10252 20050 39080 40050 57016;
0196172020999992000061718004+38590+039280FM-12+0882LTCA V0203001N001512200019N0200001N1+02581+00461100481ADDAA199000091GA1001+999999999GF100991001001999999001001KA1999M+03761MA1999999090791MD1610011+9999REMSYN070AAXX  17184 17202 32970 03003 10258 20046 39079 40048 56001 333 10376;EQDQ01  00002PRCP99
0143172020999992000061721004+38590+039280FM-12+0882LTCA V0203001N003112200019N0200001N1+01921+00301100501ADDGA1001+999999999GF100991001001999999001001MA1999999090801MD1110011+9999REMSYN060AAXX  17214 17202 42970 03006 10192 20030 39080 40050 51001;
0173172020999992000061800004+38590+039280FM-12+0882LTCA V0202901N003112200019N0200001N1+01721+00341100491ADDAA199000091GA1001+999999999GF100991001001999999001001MA1999999090801MD1410001+9999REMSYN060AAXX  18004 17202 32970 02906 10172 20034 39080 40049 54000;EQDQ01  00002PRCP99
0143172020999992000061803004+38590+039280FM-12+0882LTCA V0202801N002112200019N0200001N1+01441+00211100471ADDGA1001+999999999GF100991001001999999001001MA1999999090771MD1610031+9999REMSYN060AAXX  18034 17202 42970 02804 10144 20021 39077 40047 56003;
0220172020999992000061806004+38590+039280FM-12+0882LTCA V0200601N001012200019N0200001N1+02621+01121100451ADDAA199000091GA1001+999999999GF100991001001999999001001IA1019IA2999+01209KA1120N+01321MA1999999090771MD1410001+9999REMSYN076AAXX  18064 17202 32970 00602 10262 20112 39077 40045 54000 333 20132 30012;EQDQ01  00002PRCP99
0143172020999992000061809004+38590+039280FM-12+0882LTCA V0202401N002612200019N0250001N1+03201+01111100321ADDGA1001+999999999GF100991001001999999001001MA1999999090651MD1710121+9999REMSYN060AAXX  18094 17202 42975 02405 10320 20111 39065 40032 57012;
0159172020999992000061812004+38590+039280FM-12+0882LTCA V0201901N008212200019N0150001N1+03661+00921100111ADDGA1031+010509029GF103991031021012501001001MA1999999090471MD1710181+9999REMSYN076AAXX  18124 17202 42665 31916 10366 20092 39047 40011 57018 83200 333 83835;
0159172020999992000061815004+38590+039280FM-12+0882LTCA V0201801N004112200019N0200001N1+03521+00501100061ADDGA1021+010509029GF102991021011012501001001MA1999999090401MD1710071+9999REMSYN076AAXX  18154 17202 42670 21808 10352 20050 39040 40006 57007 82100 333 82835;
0224172020999992000061818004+38590+039280FM-12+0882LTCA V0202701N005112200019N0200001N1+02801+00571100031ADDAA199000091GA1021+010509029GF103991999011012501001001KA1120M+03701MA1999999090401MD1410001+9999REMSYN082AAXX  18184 17202 32670 32710 10280 20057 39040 40003 54000 82100 333 10370 82835;EQDQ01+000022SCOTLCQ02  00002PRCP99
0173172020999992000061900004+38590+039280FM-12+0882LTCA V0202601N004112200019N0200001N1+01801+00301100441ADDAA199000091GA1001+999999999GF100991001001999999001001MA1999999090701MD1210301+9999REMSYN060AAXX  19004 17202 32970 02608 10180 20030 39070 40044 52030;EQDQ01  00002PRCP99
0143172020999992000061903004+38590+039280FM-12+0882LTCA V0202301N007212200019N0200001N1+01441+00261100611ADDGA1001+999999999GF100991001001999999001001MA1999999090881MD1210181+9999REMSYN060AAXX  19034 17202 42970 02314 10144 20026 39088 40061 52018;
0220172020999992000061906004+38590+039280FM-12+0882LTCA V0202401N005112200019N0200001N1+01801+00261100711ADDAA199000091GA1001+999999999GF100991001001999999001001IA1019IA2999+01209KA1120N+01401MA1999999090961MD1210081+9999REMSYN076AAXX  19064 17202 32970 02410 10180 20026 39096 40071 52008 333 20140 30012;EQDQ01  00002PRCP99
0159172020999992000061909004+38590+039280FM-12+0882LTCA V0202701N003612200019N0200001N1+02301+00081100661ADDGA1011+010509029GF101991011011012501001001MA1999999090901MD1710061+9999REMSYN076AAXX  19094 17202 42670 12707 10230 20008 39090 40066 57006 81100 333 81835;
0237172020999992000061912004+38590+039280FM-12+0882LTCA V0203001N004612200019N0200001N1+02601+00061100441ADDAA199000091GA1001+999999999GF100991001001999999001001MA1999999090701MD1710201+9999REMSYN124AAXX  19124 17202 32970 03009 10260 20006 39070 40044 57020 17203 32670 11203 10290 20140 38784 48465 57010 81100 333 10030;EQDQ01  00002PRCP99
0143172020999992000061915004+38590+039280FM-12+0882LTCA V0202401N005112200019N0200001N1+02721+00061100351ADDGA1001+999999999GF100991001001999999001001MA1999999090601MD1610101+9999REMSYN060AAXX  19154 17202 42970 02410 10272 20006 39060 40035 56010;
0196172020999992000061918004+38590+039280FM-12+0882LTCA V0202501N004612200019N0200001N1+02161+00301100431ADDAA199000091GA1001+999999999GF100991001001999999001001KA1999M+02961MA1999999090661MD1310061+9999REMSYN070AAXX  19184 17202 32970 02509 10216 20030 39066 40043 53006 333 10296;EQDQ01  00002PRCP99
0143172020999992000061921004+38590+039280FM-12+0882LTCA V0202801N004612200019N0200001N1+01621+00161100681ADDGA1001+999999999GF100991001001999999001001MA1999999090891MD1210231+9999REMSYN060AAXX  19214 17202 42970 02809 10162 20016 39089 40068 52023;
0173172020999992000062000004+38590+039280FM-12+0882LTCA V0202401N003612200019N0200001N1+01301+00261100791ADDAA199000091GA1001+999999999GF100991001001999999001001MA1999999090991MD1210101+9999REMSYN060AAXX  20004 17202 32970 02407 10130 20026 39099 40079 52010;EQDQ01  00002PRCP99
0159172020999992000062003004+38590+039280FM-12+0882LTCA V0202401N005112200019N0200001N1+01361+00481100921ADDGA1011+010509029GF101991011011012501001001MA1999999091101MD1210111+9999REMSYN076AAXX  20034 17202 42670 12410 10136 20048 39110 40092 52011 81100 333 81835;
0232172020999992000062006004+38590+039280FM-12+0882LTCA V0202401N007712200019N0200001N1+01761+00301101091ADDAA199000091GA1011+010509029GF101991011011012501001001IA1019IA2999+01009KA1120N+01181MA1999999091251MD1210151+9999REMSYN088AAXX  20064 17202 32670 12415 10176 20030 39125 40109 52015 81100 333 20118 30010 81835;EQDQ01  00002PRCP99
0159172020999992000062009004+38590+039280FM-12+0882LTCA V0202801N006212200019N0200001N1+02141+00221101131ADDGA1011+010509029GF101991011011012501001001MA1999999091271MD1010021+9999REMSYN076AAXX  20094 17202 42670 12812 10214 20022 39127 40113 50002 81100 333 81835;
0189172020999992000062012004+38590+039280FM-12+0882LTCA V0202701N005112200019N0200001N1+02481+00101101051ADDAA199000091GA1011+010509029GF101991011011012501001001MA1999999091201MD1710071+9999REMSYN076AAXX  20124 17202 32670 12710 10248 20010 39120 40105 57007 81100 333 81835;EQDQ01  00002PRCP99
0143172020999992000062015004+38590+039280FM-12+0882LTCA V0203001N005712200019N0200001N1+02481+00101100961ADDGA1001+999999999GF100991001001999999001001MA1999999091121MD1710081+9999REMSYN060AAXX  20154 17202 42970 03011 10248 20010 39112 40096 57008;
0196172020999992000062018004+38590+039280FM-12+0882LTCA V0202801N003612200019N0200001N1+01841+00221101071ADDAA199000091GA1001+999999999GF100991001001999999001001KA1999M+02501MA1999999091201MD1310081+9999REMSYN070AAXX  20184 17202 32970 02807 10184 20022 39120 40107 53008 333 10250;EQDQ01  00002PRCP99
0143172020999992000062021004+38590+039280FM-12+0882LTCA V0202901N004112200019N0200001N1+01621+00161101271ADDGA1001+999999999GF100991001001999999001001MA1999999091401MD1210201+9999REMSYN060AAXX  20214 17202 42970 02908 10162 20016 39140 40127 52020;
0173172020999992000062100004+38590+039280FM-12+0882LTCA V0202401N004112200019N0200001N1+01341+00041101271ADDAA199000091GA1001+999999999GF100991001001999999001001MA1999999091401MD1410001+9999REMSYN060AAXX  21004 17202 32970 02408 10134 20004 39140 40127 54000;EQDQ01  00002PRCP99
0143172020999992000062103004+38590+039280FM-12+0882LTCA V0202601N001512200019N0200001N1+00901+00011101381ADDGA1001+999999999GF100991001001999999001001MA1999999091461MD1110061+9999REMSYN060AAXX  21034 17202 42970 02603 10090 20001 39146 40138 51006;
0220172020999992000062106004+38590+039280FM-12+0882LTCA V0203401N002112200019N0200001N1+01761+00301101401ADDAA199000091GA1001+999999999GF100991001001999999001001IA1019IA2999+00709KA1120N+00801MA1999999091501MD1110041+9999REMSYN076AAXX  21064 17202 32970 03404 10176 20030 39150 40140 51004 333 20080 30007;EQDQ01  00002PRCP99
0143172020999992000062109004+38590+039280FM-12+0882LTCA V0209999C000012200019N0200001N1+02241+00201101271ADDGA1001+999999999GF100991001001999999001001MA1999999091401MD1710101+9999REMSYN060AAXX  21094 17202 42970 00000 10224 20020 39140 40127 57010;
0173172020999992000062112004+38590+039280FM-12+0882LTCA V0203301N003612200019N0200001N1+02601+00021101141ADDAA199000091GA1001+999999999GF100991001001999999001001MA1999999091301MD1710141+9999REMSYN060AAXX  21124 17202 32970 03307 10260 20002 39130 40114 57014;EQDQ01  00002PRCP99
0143172020999992000062115004+38590+039280FM-12+0882LTCA V0203001N002112200019N0200001N1+02681+00001101041ADDGA1001+999999999GF100991001001999999001001MA1999999091171MD1810131+9999REMSYN060AAXX  21154 17202 42970 03004 10268 20000 39117 40104 58013;
0196172020999992000062118004+38590+039280FM-12+0882LTCA V0209999C000012200019N0200001N1+01881+00161101121ADDAA199000091GA1001+999999999GF100991001001999999001001KA1999M+02721MA1999999091251MD1310081+9999REMSYN070AAXX  21184 17202 32970 00000 10188 20016 39125 40112 53008 333 10272;EQDQ01  00002PRCP99
0143172020999992000062121004+38590+039280FM-12+0882LTCA V0202801N004112200019N0200001N1+01441+00061101181ADDGA1001+999999999GF100991001001999999001001MA1999999091301MD1110051+9999REMSYN060AAXX  21214 17202 42970 02808 10144 20006 39130 40118 51005;
0173172020999992000062200004+38590+039280FM-12+0882LTCA V0202501N002112200019N0200001N1+01041+00001101181ADDAA199000091GA1001+999999999GF100991001001999999001001MA1999999091301MD1410001+9999REMSYN060AAXX  22004 17202 32970 02504 10104 20000 39130 40118 54000;EQDQ01  00002PRCP99
0143172020999992000062203004+38590+039280FM-12+0882LTCA V0202401N001512200019N0200001N1+01221+00001101251ADDGA1001+999999999GF100991001001999999001001MA1999999091401MD1210101+9999REMSYN060AAXX  22034 17202 42970 02403 10122 20000 39140 40125 52010;
0220172020999992000062206004+38590+039280FM-12+0882LTCA V0203001N003612200019N0200001N1+02281+00261101301ADDAA199000091GA1001+999999999GF100991001001999999001001IA1019IA2999+00809KA1120N+01021MA1999999091461MD1210061+9999REMSYN076AAXX  22064 17202 32970 03007 10228 20026 39146 40130 52006 333 20102 30008;EQDQ01  00002PRCP99
0173172020999992000062212004+38590+039280FM-12+0882LTCA V0203101N005112200019N0200001N1+02981+00541101281ADDAA199000091GA1001+999999999GF100991001001999999001001MA1999999091221MD1710181+9999REMSYN060AAXX  22124 17202 32970 03110 10298 20054 39122 40128 57018;EQDQ01  00002PRCP99
0143172020999992000062215004+38590+039280FM-12+0882LTCA V0202901N004112200019N0200001N1+02981+00541100901ADDGA1001+999999999GF100991001001999999001001MA1999999091101MD1710121+9999REMSYN060AAXX  22154 17202 42970 02908 10298 20054 39110 40090 57012;
0196172020999992000062218004+38590+039280FM-12+0882LTCA V0203301N003612200019N0200001N1+02361+00141101141ADDAA199000091GA1001+999999999GF100991001001999999001001KA1999M+03141MA1999999091041MD1410001+9999REMSYN070AAXX  22184 17202 32970 03307 10236 20014 39104 40114 54000 333 10314;EQDQ01  00002PRCP99
0143172020999992000062221004+38590+039280FM-12+0882LTCA V0202801N001512200019N0200001N1+02001+00301101191ADDGA1001+999999999GF100991001001999999001001MA1999999091141MD1310041+9999REMSYN060AAXX  22214 17202 42970 02803 10200 20030 39114 40119 53004;
0173172020999992000062300004+38590+039280FM-12+0882LTCA V0202601N002112200019N0200001N1+01841+00221100961ADDAA199000091GA1001+999999999GF100991001001999999001001MA1999999091201MD1310061+9999REMSYN060AAXX  23004 17202 32970 02604 10184 20022 39120 40096 53006;EQDQ01  00002PRCP99
0143172020999992000062303004+38590+039280FM-12+0882LTCA V0209999C000012200019N0200001N1+01621+00161101251ADDGA1001+999999999GF100991001001999999001001MA1999999091201MD1410001+9999REMSYN060AAXX  23034 17202 42970 00000 10162 20016 39120 40125 54000;
0220172020999992000062306004+38590+039280FM-12+0882LTCA V0203101N003612200019N0200001N1+02341+00321100961ADDAA199000091GA1001+999999999GF100991001001999999001001IA1019IA2999+01409KA1120N+01501MA1999999091201MD1410001+9999REMSYN076AAXX  23064 17202 32970 03107 10234 20032 39120 40096 54000 333 20150 30014;EQDQ01  00002PRCP99
0143172020999992000062309004+38590+039280FM-12+0882LTCA V0203001N004112200019N0200001N1+02801+00301100851ADDGA1001+999999999GF100991001001999999001001MA1999999091101MD1710101+9999REMSYN060AAXX  23094 17202 42970 03008 10280 20030 39110 40085 57010;
0173172020999992000062312004+38590+039280FM-12+0882LTCA V0202801N005112200019N0200001N1+03061+00101100651ADDAA199000091GA1001+999999999GF100991001001999999001001MA1999999090941MD1710161+9999REMSYN060AAXX  23124 17202 32970 02810 10306 20010 39094 40065 57016;EQDQ01  00002PRCP99
0143172020999992000062315004+38590+039280FM-12+0882LTCA V0202901N006212200019N0200001N1+03021+00161100831ADDGA1001+999999999GF100991001001999999001001MA1999999090821MD1710121+9999REMSYN060AAXX  23154 17202 42970 02912 10302 20016 39082 40083 57012;
0196172020999992000062318004+38590+039280FM-12+0882LTCA V0203001N007712200019N0200001N1+02521+00341100571ADDAA199000091GA1001+999999999GF100991001001999999001001KA1999M+03161MA1999999090851MD1210031+9999REMSYN070AAXX  23184 17202 32970 03015 10252 20034 39085 40057 52003 333 10316;EQDQ01  00002PRCP99
0143172020999992000062321004+38590+039280FM-12+0882LTCA V0203001N007212200019N0200001N1+02161+00521100711ADDGA1001+999999999GF100991001001999999001001MA1999999090991MD1210141+9999REMSYN060AAXX  23214 17202 42970 03014 10216 20052 39099 40071 52014;
0173172020999992000062400004+38590+039280FM-12+0882LTCA V0202601N002612200019N0200001N1+01921+00381100731ADDAA199000091GA1001+999999999GF100991001001999999001001MA1999999091001MD1610011+9999REMSYN060AAXX  24004 17202 32970 02605 10192 20038 39100 40073 56001;EQDQ01  00002PRCP99
0143172020999992000062403004+38590+039280FM-12+0882LTCA V0203101N005112200019N0200001N1+01821+00541100741ADDGA1001+999999999GF100991001001999999001001MA1999999091001MD1410001+9999REMSYN060AAXX  24034 17202 42970 03110 10182 20054 39100 40074 54000;
0220172020999992000062406004+38590+039280FM-12+0882LTCA V0202901N002612200019N0200001N1+02361+00701100751ADDAA199000091GA1001+999999999GF100991001001999999001001IA1019IA2999+01409KA1120N+01561MA1999999091011MD1810011+9999REMSYN076AAXX  24064 17202 32970 02905 10236 20070 39101 40075 58001 333 20156 30014;EQDQ01  00002PRCP99
0143172020999992000062409004+38590+039280FM-12+0882LTCA V0203401N004112200019N0200001N1+02721+00781100681ADDGA1001+999999999GF100991001001999999001001MA1999999090941MD1810071+9999REMSYN060AAXX  24094 17202 42970 03408 10272 20078 39094 40068 58007;
0173172020999992000062412004+38590+039280FM-12+0882LTCA V0203401N005112200019N0200001N1+03021+00781100541ADDAA199000091GA1001+999999999GF100991001001999999001001MA1999999090831MD1710111+9999REMSYN060AAXX  24124 17202 32970 03410 10302 20078 39083 40054 57011;EQDQ01  00002PRCP99
0143172020999992000062415004+38590+039280FM-12+0882LTCA V0203301N001512200019N0200001N1+03101+00581100441ADDGA1001+999999999GF100991001001999999001001MA1999999090751MD1710081+9999REMSYN060AAXX  24154 17202 42970 03303 10310 20058 39075 40044 57008;
0196172020999992000062418004+38590+039280FM-12+0882LTCA V0203101N004112200019N0200001N1+02641+00461100471ADDAA199000091GA1001+999999999GF100991001001999999001001KA1999M+03101MA1999999090771MD1310011+9999REMSYN070AAXX  24184 17202 32970 03108 10264 20046 39077 40047 53001 333 10310;EQDQ01  00002PRCP99
0143172020999992000062421004+38590+039280FM-12+0882LTCA V0202801N002112200019N0200001N1+02001+00021100631ADDGA1001+999999999GF100991001001999999001001MA1999999090901MD1210131+9999REMSYN060AAXX  24214 17202 42970 02804 10200 20002 39090 40063 52013;
0173172020999992000062500004+38590+039280FM-12+0882LTCA V0203101N002112200019N0200001N1+01401+00201100661ADDAA199000091GA1001+999999999GF100991001001999999001001MA1999999090901MD1410001+9999REMSYN060AAXX  25004 17202 32970 03104 10140 20020 39090 40066 54000;EQDQ01  00002PRCP99
0143172020999992000062503004+38590+039280FM-12+0882LTCA V0202901N002612200019N0200001N1+01401+00201100661ADDGA1001+999999999GF100991001001999999001001MA1999999090901MD1410001+9999REMSYN060AAXX  25034 17202 42970 02905 10140 20020 39090 40066 54000;
0220172020999992000062506004+38590+039280FM-12+0882LTCA V0202901N004112200019N0200001N1+02341+00341100671ADDAA199000091GA1001+999999999GF100991001001999999001001IA1019IA2999+01209KA1120N+01261MA1999999090951MD1110051+9999REMSYN076AAXX  25064 17202 32970 02908 10234 20034 39095 40067 51005 333 20126 30012;EQDQ01  00002PRCP99
0143172020999992000062509004+38590+039280FM-12+0882LTCA V0201201N003112200019N0200001N1+02941+00501100501ADDGA1001+999999999GF100991001001999999001001MA1999999090801MD1710151+9999REMSYN060AAXX  25094 17202 42970 01206 10294 20050 39080 40050 57015;
0173172020999992000062512004+38590+039280FM-12+0882LTCA V0202301N003112200019N0200001N1+03161+00481100381ADDAA199000091GA1001+999999999GF100991001001999999001001MA1999999090661MD1710141+9999REMSYN060AAXX  25124 17202 32970 02306 10316 20048 39066 40038 57014;EQDQ01  00002PRCP99
0143172020999992000062515004+38590+039280FM-12+0882LTCA V0203001N004112200019N0200001N1+03241+00401100251ADDGA1001+999999999GF100991001001999999001001MA1999999090541MD1710121+9999REMSYN060AAXX  25154 17202 42970 03008 10324 20040 39054 40025 57012;
0196172020999992000062518004+38590+039280FM-12+0882LTCA V0203001N004612200019N0200001N1+02661+00381100221ADDAA199000091GA1001+999999999GF100991001001999999001001KA1999M+03261MA1999999090541MD1510011+9999REMSYN070AAXX  25184 17202 32970 03009 10266 20038 39054 40022 55001 333 10326;EQDQ01  00002PRCP99
0143172020999992000062521004+38590+039280FM-12+0882LTCA V0202401N002112200019N0200001N1+02341+00381100341ADDGA1001+999999999GF100991001001999999001001MA1999999090671MD1210131+9999REMSYN060AAXX  25214 17202 42970 02404 10234 20038 39067 40034 52013;
0173172020999992000062600004+38590+039280FM-12+0882LTCA V0201901N002112200019N0200001N1+01901+00421100391ADDAA199000091GA1001+999999999GF100991001001999999001001MA1999999090701MD1110031+9999REMSYN060AAXX  26004 17202 32970 01904 10190 20042 39070 40039 51003;EQDQ01  00002PRCP99
0143172020999992000062603004+38590+039280FM-12+0882LTCA V0209999C000012200019N0200001N1+01481+00401100501ADDGA1001+999999999GF100991001001999999001001MA1999999090781MD1210081+9999REMSYN060AAXX  26034 17202 42970 00000 10148 20040 39078 40050 52008;
0220172020999992000062606004+38590+039280FM-12+0882LTCA V0203001N003112200019N0200001N1+02421+00561100531ADDAA199000091GA1001+999999999GF100991001001999999001001IA1019IA2999+01009KA1120N+01221MA1999999090831MD1210051+9999REMSYN076AAXX  26064 17202 32970 03006 10242 20056 39083 40053 52005 333 20122 30010;EQDQ01  00002PRCP99
0143172020999992000062609004+38590+039280FM-12+0882LTCA V0202801N003112200019N0200001N1+02901+00921100471ADDGA1001+999999999GF100991001001999999001001MA1999999090781MD1710051+9999REMSYN060AAXX  26094 17202 42970 02806 10290 20092 39078 40047 57005;
0173172020999992000062612004+38590+039280FM-12+0882LTCA V0202601N003112200019N0200001N1+03221+00761100311ADDAA199000091GA1001+999999999GF100991001001999999001001MA1999999090641MD1710141+9999REMSYN060AAXX  26124 17202 32970 02606 10322 20076 39064 40031 57014;EQDQ01  00002PRCP99
0143172020999992000062615004+38590+039280FM-12+0882LTCA V0203101N003112200019N0200001N1+03321+00661100281ADDGA1001+999999999GF100991001001999999001001MA1999999090581MD1710061+9999REMSYN060AAXX  26154 17202 42970 03106 10332 20066 39058 40028 57006;
0196172020999992000062618004+38590+039280FM-12+0882LTCA V0203201N004112200019N0200001N1+02801+00561100271ADDAA199000091GA1001+999999999GF100991001001999999001001KA1999M+03361MA1999999090601MD1310021+9999REMSYN070AAXX  26184 17202 32970 03208 10280 20056 39060 40027 53002 333 10336;EQDQ01  00002PRCP99
0143172020999992000062621004+38590+039280FM-12+0882LTCA V0202801N003112200019N0200001N1+02261+00581100401ADDGA1001+999999999GF100991001001999999001001MA1999999090721MD1210121+9999REMSYN060AAXX  26214 17202 42970 02806 10226 20058 39072 40040 52012;
0173172020999992000062700004+38590+039280FM-12+0882LTCA V0202601N002112200019N0200001N1+01801+00501100481ADDAA199000091GA1001+999999999GF100991001001999999001001MA1999999090781MD1210061+9999REMSYN060AAXX  27004 17202 32970 02604 10180 20050 39078 40048 52006;EQDQ01  00002PRCP99
0143172020999992000062703004+38590+039280FM-12+0882LTCA V0209999C000012200019N0200001N1+01581+00441100521ADDGA1001+999999999GF100991001001999999001001MA1999999090801MD1110021+9999REMSYN060AAXX  27034 17202 42970 00000 10158 20044 39080 40052 51002;
0220172020999992000062706004+38590+039280FM-12+0882LTCA V0202901N004112200019N0200001N1+02581+00601100561ADDAA199000091GA1001+999999999GF100991001001999999001001IA1019IA2999+01309KA1120N+01521MA1999999090881MD1210081+9999REMSYN076AAXX  27064 17202 32970 02908 10258 20060 39088 40056 52008 333 20152 30013;EQDQ01  00002PRCP99
0143172020999992000062709004+38590+039280FM-12+0882LTCA V0202401N002112200019N0200001N1+03101+00561100401ADDGA1001+999999999GF100991001001999999001001MA1999999090741MD1710141+9999REMSYN060AAXX  27094 17202 42970 02404 10310 20056 39074 40040 57014;
0173172020999992000062712004+38590+039280FM-12+0882LTCA V0202301N003112200019N0200001N1+03301+00661100241ADDAA199000091GA1001+999999999GF100991001001999999001001MA1999999090581MD1710161+9999REMSYN060AAXX  27124 17202 32970 02306 10330 20066 39058 40024 57016;EQDQ01  00002PRCP99
0143172020999992000062715004+38590+039280FM-12+0882LTCA V0203101N003612200019N0200001N1+03401+00541100171ADDGA1001+999999999GF100991001001999999001001MA1999999090501MD1710081+9999REMSYN060AAXX  27154 17202 42970 03107 10340 20054 39050 40017 57008;
0196172020999992000062718004+38590+039280FM-12+0882LTCA V0203101N002112200019N0200001N1+02501+00311100171ADDAA199000091GA1001+999999999GF100991001001999999001001KA1999M+03481MA1999999090501MD1410001+9999REMSYN070AAXX  27184 17202 32970 03104 10250 20031 39050 40017 54000 333 10348;EQDQ01  00002PRCP99
0143172020999992000062721004+38590+039280FM-12+0882LTCA V0202801N002112200019N0200001N1+02141+00261100251ADDGA1001+999999999GF100991001001999999001001MA1999999090591MD1210091+9999REMSYN060AAXX  27214 17202 42970 02804 10214 20026 39059 40025 52009;
0173172020999992000062800004+38590+039280FM-12+0882LTCA V0202801N002612200019N0200001N1+02001+00141100311ADDAA199000091GA1001+999999999GF100991001001999999001001MA1999999090641MD1210051+9999REMSYN060AAXX  28004 17202 32970 02805 10200 20014 39064 40031 52005;EQDQ01  00002PRCP99
0143172020999992000062803004+38590+039280FM-12+0882LTCA V0202601N003112200019N0200001N1+01841+00471100321ADDGA1001+999999999GF100991001001999999001001MA1999999090651MD1110011+9999REMSYN060AAXX  28034 17202 42970 02606 10184 20047 39065 40032 51001;
0236172020999992000062806004+38590+039280FM-12+0882LTCA V0209999C000012200019N0200001N1+02721+00961100421ADDAA199000091GA1001+999999999GF100991001001999999001001IA1019IA2999+01309KA1120M+99999MA1999999090741MD1210091+9999REMSYN076AAXX  28064 17202 32970 00000 10272 20096 39074 40042 52009 333 10146 30013;EQDQ01  00002PRCP99Q02 +01462ATMX  
0143172020999992000062809004+38590+039280FM-12+0882LTCA V0203201N002612200019N0200001N1+03201+01061100381ADDGA1001+999999999GF100991001001999999001001MA1999999090721MD1810021+9999REMSYN060AAXX  28094 17202 42970 03205 10320 20106 39072 40038 58002;
0189172020999992000062812004+38590+039280FM-12+0882LTCA V0203201N003112200019N0200001N1+03501+00821100271ADDAA199000091GA1011+010509029GF101991011011012501001001MA1999999090631MD1710091+9999REMSYN076AAXX  28124 17202 32670 13206 10350 20082 39063 40027 57009 81100 333 81835;EQDQ01  00002PRCP99
0143172020999992000062815004+38590+039280FM-12+0882LTCA V0203001N003612200019N0200001N1+03521+00741100221ADDGA1001+999999999GF100991001001999999001001MA1999999090581MD1610051+9999REMSYN060AAXX  28154 17202 42970 03007 10352 20074 39058 40022 56005;
0196172020999992000062818004+38590+039280FM-12+0882LTCA V0203101N003612200019N0200001N1+02801+00561100201ADDAA199000091GA1001+999999999GF100991001001999999001001KA1999M+03541MA1999999090571MD1610011+9999REMSYN070AAXX  28184 17202 32970 03107 10280 20056 39057 40020 56001 333 10354;EQDQ01  00002PRCP99
0143172020999992000062821004+38590+039280FM-12+0882LTCA V0202801N003612200019N0200001N1+02001+00021100381ADDGA1001+999999999GF100991001001999999001001MA1999999090701MD1210131+9999REMSYN060AAXX  28214 17202 42970 02807 10200 20002 39070 40038 52013;
0173172020999992000062900004+38590+039280FM-12+0882LTCA V0209999C000012200019N0200001N1+01761+00041100441ADDAA199000091GA1001+999999999GF100991001001999999001001MA1999999090761MD1210061+9999REMSYN060AAXX  29004 17202 32970 00000 10176 20004 39076 40044 52006;EQDQ01  00002PRCP99
0143172020999992000062903004+38590+039280FM-12+0882LTCA V0203101N002112200019N0200001N1+01541+00021100491ADDGA1001+999999999GF100991001001999999001001MA1999999090791MD1210031+9999REMSYN060AAXX  29034 17202 42970 03104 10154 20002 39079 40049 52003;
0220172020999992000062906004+38590+039280FM-12+0882LTCA V0200801N001512200019N0200001N1+02661+00841100541ADDAA199000091GA1001+999999999GF100991001001999999001001IA1019IA2999+01309KA1120N+01501MA1999999090861MD1110071+9999REMSYN076AAXX  29064 17202 32970 00803 10266 20084 39086 40054 51007 333 20150 30013;EQDQ01  00002PRCP99
0143172020999992000062909004+38590+039280FM-12+0882LTCA V0200801N002612200019N0200001N1+03161+00781100511ADDGA1001+999999999GF100991001001999999001001MA1999999090811MD1810051+9999REMSYN060AAXX  29094 17202 42970 00805 10316 20078 39081 40051 58005;
0189172020999992000062912004+38590+039280FM-12+0882LTCA V0209999C000012200019N0200001N1+99999+00521100391ADDAA199000091GA1001+999999999GF100991001001999999001001MA1999999090741MD1610071+9999REMSYN060AAXX  29124 17202 32970 00000 10137 20052 39074 40039 56007;EQDQ01+001373ATOT  Q02  00002PRCP99
0143172020999992000062915004+38590+039280FM-12+0882LTCA V0202101N004612200019N0200001N1+03581+00361100271ADDGA1001+999999999GF100991001001999999001001MA1999999090601MD1710141+9999REMSYN060AAXX  29154 17202 42970 02109 10358 20036 39060 40027 57014;
0196172020999992000062918004+38590+039280FM-12+0882LTCA V0202701N002112200019N0200001N1+02841+00641100341ADDAA199000091GA1001+999999999GF100991001001999999001001KA1999M+03841MA1999999090681MD1310081+9999REMSYN070AAXX  29184 17202 32970 02704 10284 20064 39068 40034 53008 333 10384;EQDQ01  00002PRCP99
0143172020999992000062921004+38590+039280FM-12+0882LTCA V0203001N002612200019N0200001N1+02101+00361100491ADDGA1001+999999999GF100991001001999999001001MA1999999090801MD1210121+9999REMSYN060AAXX  29214 17202 42970 03005 10210 20036 39080 40049 52012;
0173172020999992000063000004+38590+039280FM-12+0882LTCA V0202801N002112200019N0200001N1+01921+00481100531ADDAA199000091GA1001+999999999GF100991001001999999001001MA1999999090871MD1110071+9999REMSYN060AAXX  30004 17202 32970 02804 10192 20048 39087 40053 51007;EQDQ01  00002PRCP99
0143172020999992000063003004+38590+039280FM-12+0882LTCA V0202401N001512200019N0200001N1+01641+00611100611ADDGA1001+999999999GF100991001001999999001001MA1999999090911MD1210041+9999REMSYN060AAXX  30034 17202 42970 02403 10164 20061 39091 40061 52004;
0220172020999992000063006004+38590+039280FM-12+0882LTCA V0201001N002112200019N0200001N1+02721+01091100701ADDAA199000091GA1001+999999999GF100991001001999999001001IA1019IA2999+01509KA1120N+01601MA1999999091021MD1210111+9999REMSYN076AAXX  30064 17202 32970 01004 10272 20109 39102 40070 52011 333 20160 30015;EQDQ01  00002PRCP99
0143172020999992000063009004+38590+039280FM-12+0882LTCA V0200701N003112200019N0200001N1+03381+01181100701ADDGA1001+999999999GF100991001001999999001001MA1999999091011MD1810011+9999REMSYN060AAXX  30094 17202 42970 00706 10338 20118 39101 40070 58001;
0173172020999992000063012004+38590+039280FM-12+0882LTCA V0201901N002112200019N0200001N1+03601+00921100601ADDAA199000091GA1001+999999999GF100991001001999999001001MA1999999090931MD1710081+9999REMSYN060AAXX  30124 17202 32970 01904 10360 20092 39093 40060 57008;EQDQ01  00002PRCP99
0143172020999992000063015004+38590+039280FM-12+0882LTCA V0202101N003612200019N0200001N1+03701+01061100551ADDGA1001+999999999GF100991001001999999001001MA1999999090871MD1710061+9999REMSYN060AAXX  30154 17202 42970 02107 10370 20106 39087 40055 57006;
0196172020999992000063018004+38590+039280FM-12+0882LTCA V0202801N002612200019N0200001N1+03041+00681100551ADDAA199000091GA1001+999999999GF100991001001999999001001KA1999M+03761MA1999999090901MD1310031+9999REMSYN070AAXX  30184 17202 32970 02805 10304 20068 39090 40055 53003 333 10376;EQDQ01  00002PRCP99
0143172020999992000063021004+38590+039280FM-12+0882LTCA V0203101N002612200019N0200001N1+02201+00361100701ADDGA1001+999999999GF100991001001999999001001MA1999999091021MD1210121+9999REMSYN060AAXX  30214 17202 42970 03105 10220 20036 39102 40070 52012;
0173172020999992000070100004+38590+039280FM-12+0882LTCA V0202601N002112200019N0200001N1+01801+00501100721ADDAA199000091GA1001+999999999GF100991001001999999001001MA1999999091021MD1410001+9999REMSYN060AAXX  01004 17202 32970 02604 10180 20050 39102 40072 54000;EQDQ01  00002PRCP99
0143172020999992000070103004+38590+039280FM-12+0882LTCA V0202801N003612200019N0200001N1+01201+00281100761ADDGA1001+999999999GF100991001001999999001001MA1999999091021MD1410001+9999REMSYN060AAXX  01034 17202 42970 02807 10120 20028 39102 40076 54000;
0220172020999992000070106004+38590+039280FM-12+0882LTCA V0200801N002612200019N0200001N1+02601+00741100781ADDAA199000091GA1001+999999999GF100991001001999999001001IA1019IA2999+01009KA1120N+01161MA1999999091101MD1210081+9999REMSYN076AAXX  01064 17202 32970 00805 10260 20074 39110 40078 52008 333 20116 30010;EQDQ01  00002PRCP99
0143172020999992000070109004+38590+039280FM-12+0882LTCA V0200701N002112200019N0200001N1+03201+00741100801ADDGA1001+999999999GF100991001001999999001001MA1999999091101MD1410001+9999REMSYN060AAXX  01094 17202 42970 00704 10320 20074 39110 40080 54000;
0173172020999992000070112004+38590+039280FM-12+0882LTCA V0200901N002112200019N0200001N1+03601+00721100601ADDAA199000091GA1001+999999999GF100991001001999999001001MA1999999090921MD1710181+9999REMSYN060AAXX  01124 17202 32970 00904 10360 20072 39092 40060 57018;EQDQ01  00002PRCP99
0143172020999992000070115004+38590+039280FM-12+0882LTCA V0202001N001512200019N0200001N1+03741+00641100471ADDGA1001+999999999GF100991001001999999001001MA1999999090771MD1710151+9999REMSYN060AAXX  01154 17202 42970 02003 10374 20064 39077 40047 57015;
0196172020999992000070118004+38590+039280FM-12+0882LTCA V0202601N003112200019N0200001N1+02701+00381100501ADDAA199000091GA1001+999999999GF100991001001999999001001KA1999M+03841MA1999999090821MD1310051+9999REMSYN070AAXX  01184 17202 32970 02606 10270 20038 39082 40050 53005 333 10384;EQDQ01  00002PRCP99
0143172020999992000070121004+38590+039280FM-12+0882LTCA V0203001N004112200019N0200001N1+02121+00071100581ADDGA1001+999999999GF100991001001999999001001MA1999999090901MD1110081+9999REMSYN060AAXX  01214 17202 42970 03008 10212 20007 39090 40058 51008;
0173172020999992000070200004+38590+039280FM-12+0882LTCA V0202901N002112200019N0200001N1+01761+00141100631ADDAA199000091GA1001+999999999GF100991001001999999001001MA1999999090951MD1210051+9999REMSYN060AAXX  02004 17202 32970 02904 10176 20014 39095 40063 52005;EQDQ01  00002PRCP99
0143172020999992000070203004+38590+039280FM-12+0882LTCA V0203001N001512200019N0200001N1+01601+00221100701ADDGA1001+999999999GF100991001001999999001001MA1999999091011MD1210061+9999REMSYN060AAXX  02034 17202 42970 03003 10160 20022 39101 40070 52006;
0220172020999992000070206004+38590+039280FM-12+0882LTCA V0209999C000012200019N0200001N1+02941+01101100801ADDAA199000091GA1001+999999999GF100991001001999999001001IA1019IA2999+01409KA1120N+01601MA1999999091111MD1210101+9999REMSYN076AAXX  02064 17202 32970 00000 10294 20110 39111 40080 52010 333 20160 30014;EQDQ01  00002PRCP99
0143172020999992000070209004+38590+039280FM-12+0882LTCA V0203101N006212200019N0200001N1+03401+01121100731ADDGA1001+999999999GF100991001001999999001001MA1999999091051MD1710061+9999REMSYN060AAXX  02094 17202 42970 03112 10340 20112 39105 40073 57006;
0173172020999992000070212004+38590+039280FM-12+0882LTCA V0203101N005712200019N0200001N1+03561+01061100591ADDAA199000091GA1001+999999999GF100991001001999999001001MA1999999090911MD1710141+9999REMSYN060AAXX  02124 17202 32970 03111 10356 20106 39091 40059 57014;EQDQ01  00002PRCP99
0143172020999992000070215004+38590+039280FM-12+0882LTCA V0203001N005112200019N0200001N1+03501+01061100501ADDGA1001+999999999GF100991001001999999001001MA1999999090801MD1710111+9999REMSYN060AAXX  02154 17202 42970 03010 10350 20106 39080 40050 57011;
0196172020999992000070218004+38590+039280FM-12+0882LTCA V0203001N004112200019N0200001N1+02901+00741100421ADDAA199000091GA1001+999999999GF100991001001999999001001KA1999M+03621MA1999999090781MD1610021+9999REMSYN070AAXX  02184 17202 32970 03008 10290 20074 39078 40042 56002 333 10362;EQDQ01  00002PRCP99
0143172020999992000070221004+38590+039280FM-12+0882LTCA V0202401N004112200019N0200001N1+02501+00601100551ADDGA1001+999999999GF100991001001999999001001MA1999999090901MD1210121+9999REMSYN060AAXX  02214 17202 42970 02408 10250 20060 39090 40055 52012;
0173172020999992000070300004+38590+039280FM-12+0882LTCA V0202601N003112200019N0200001N1+02201+00581100641ADDAA199000091GA1001+999999999GF100991001001999999001001MA1999999090951MD1110051+9999REMSYN060AAXX  03004 17202 32970 02606 10220 20058 39095 40064 51005;EQDQ01  00002PRCP99
0143172020999992000070303004+38590+039280FM-12+0882LTCA V0202701N002112200019N0200001N1+01701+00381100421ADDGA1001+999999999GF100991001001999999001001MA1999999090921MD1710021+9999REMSYN060AAXX  03034 17202 42970 02704 10170 20038 39092 40042 57002;
0220172020999992000070306004+38590+039280FM-12+0882LTCA V0202601N003612200019N0200001N1+02741+00721100701ADDAA199000091GA1001+999999999GF100991001001999999001001IA1019IA2999+01409KA1120N+01641MA1999999090981MD1210061+9999REMSYN076AAXX  03064 17202 32970 02607 10274 20072 39098 40070 52006 333 20164 30014;EQDQ01  00002PRCP99
0143172020999992000070309004+38590+039280FM-12+0882LTCA V0203201N004112200019N0200001N1+03201+00741100571ADDGA1001+999999999GF100991001001999999001001MA1999999090901MD1610081+9999REMSYN060AAXX  03094 17202 42970 03208 10320 20074 39090 40057 56008;
0173172020999992000070312004+38590+039280FM-12+0882LTCA V0203101N004112200019N0200001N1+03561+01041100351ADDAA199000091GA1001+999999999GF100991001001999999001001MA1999999090721MD1710181+9999REMSYN060AAXX  03124 17202 32970 03108 10356 20104 39072 40035 57018;EQDQ01  00002PRCP99
0143172020999992000070315004+38590+039280FM-12+0882LTCA V0202801N005712200019N0200001N1+03561+01041100271ADDGA1001+999999999GF100991001001999999001001MA1999999090601MD1710121+9999REMSYN060AAXX  03154 17202 42970 02811 10356 20104 39060 40027 57012;
0196172020999992000070318004+38590+039280FM-12+0882LTCA V0203101N004112200019N0200001N1+02801+00621100261ADDAA199000091GA1001+999999999GF100991001001999999001001KA1999M+03641MA1999999090621MD1310021+9999REMSYN070AAXX  03184 17202 32970 03108 10280 20062 39062 40026 53002 333 10364;EQDQ01  00002PRCP99
0143172020999992000070321004+38590+039280FM-12+0882LTCA V0202301N002612200019N0200001N1+02521+00581100431ADDGA1001+999999999GF100991001001999999001001MA1999999090791MD1210171+9999REMSYN060AAXX  03214 17202 42970 02305 10252 20058 39079 40043 52017;
0173172020999992000070400004+38590+039280FM-12+0882LTCA V0202501N003112200019N0200001N1+01961+00461100511ADDAA199000091GA1001+999999999GF100991001001999999001001MA1999999090851MD1210061+9999REMSYN060AAXX  04004 17202 32970 02506 10196 20046 39085 40051 52006;EQDQ01  00002PRCP99
0143172020999992000070403004+38590+039280FM-12+0882LTCA V0202601N002112200019N0200001N1+01681+00621100601ADDGA1001+999999999GF100991001001999999001001MA1999999090901MD1310051+9999REMSYN060AAXX  04034 17202 42970 02604 10168 20062 39090 40060 53005;
0220172020999992000070406004+38590+039280FM-12+0882LTCA V0202901N004112200019N0200001N1+02641+00921100611ADDAA199000091GA1001+999999999GF100991001001999999001001IA1019IA2999+01409KA1120N+01561MA1999999090931MD1110031+9999REMSYN076AAXX  04064 17202 32970 02908 10264 20092 39093 40061 51003 333 20156 30014;EQDQ01  00002PRCP99
0143172020999992000070409004+38590+039280FM-12+0882LTCA V0202701N004112200019N0200001N1+03121+01061100561ADDGA1001+999999999GF100991001001999999001001MA1999999090891MD1710041+9999REMSYN060AAXX  04094 17202 42970 02708 10312 20106 39089 40056 57004;
0173172020999992000070412004+38590+039280FM-12+0882LTCA V0202701N004112200019N0200001N1+03561+01081100361ADDAA199000091GA1001+999999999GF100991001001999999001001MA1999999090721MD1710171+9999REMSYN060AAXX  04124 17202 32970 02708 10356 20108 39072 40036 57017;EQDQ01  00002PRCP99
0143172020999992000070415004+38590+039280FM-12+0882LTCA V0202801N004112200019N0200001N1+03661+01061100281ADDGA1001+999999999GF100991001001999999001001MA1999999090631MD1710091+9999REMSYN060AAXX  04154 17202 42970 02808 10366 20106 39063 40028 57009;
0196172020999992000070418004+38590+039280FM-12+0882LTCA V0203101N004112200019N0200001N1+02901+00741100321ADDAA199000091GA1001+999999999GF100991001001999999001001KA1999M+03801MA1999999090681MD1310051+9999REMSYN070AAXX  04184 17202 32970 03108 10290 20074 39068 40032 53005 333 10380;EQDQ01  00002PRCP99
0173172020999992000070500004+38590+039280FM-12+0882LTCA V0202601N002612200019N0200001N1+02101+00461100491ADDAA199000091GA1001+999999999GF100991001001999999001001MA1999999090831MD1210051+9999REMSYN060AAXX  05004 17202 32970 02605 10210 20046 39083 40049 52005;EQDQ01  00002PRCP99
0143172020999992000070503004+38590+039280FM-12+0882LTCA V0202701N002612200019N0200001N1+01801+00501100561ADDGA1001+999999999GF100991001001999999001001MA1999999090881MD1310051+9999REMSYN060AAXX  05034 17202 42970 02705 10180 20050 39088 40056 53005;
0220172020999992000070506004+38590+039280FM-12+0882LTCA V0201901N001512200019N0200001N1+02861+01121100671ADDAA199000091GA1001+999999999GF100991001001999999001001IA1019IA2999+01609KA1120N+01761MA1999999091011MD1210131+9999REMSYN076AAXX  05064 17202 32970 01903 10286 20112 39101 40067 52013 333 20176 30016;EQDQ01  00002PRCP99
0143172020999992000070509004+38590+039280FM-12+0882LTCA V0202801N003112200019N0200001N1+03401+01281100601ADDGA1001+999999999GF100991001001999999001001MA1999999090941MD1710061+9999REMSYN060AAXX  05094 17202 42970 02806 10340 20128 39094 40060 57006;
0173172020999992000070512004+38590+039280FM-12+0882LTCA V0202801N004112200019N0200001N1+03561+01081100501ADDAA199000091GA1001+999999999GF100991001001999999001001MA1999999090841MD1710101+9999REMSYN060AAXX  05124 17202 32970 02808 10356 20108 39084 40050 57010;EQDQ01  00002PRCP99
0143172020999992000070515004+38590+039280FM-12+0882LTCA V0202801N003612200019N0200001N1+03781+00721100391ADDGA1001+999999999GF100991001001999999001001MA1999999090741MD1710101+9999REMSYN060AAXX  05154 17202 42970 02807 10378 20072 39074 40039 57010;
0196172020999992000070518004+38590+039280FM-12+0882LTCA V0203201N005712200019N0200001N1+03201+00461100341ADDAA199000091GA1001+999999999GF100991001001999999001001KA1999M+03921MA1999999090721MD1610021+9999REMSYN070AAXX  05184 17202 32970 03211 10320 20046 39072 40034 56002 333 10392;EQDQ01  00002PRCP99
0143172020999992000070521004+38590+039280FM-12+0882LTCA V0203401N002612200019N0200001N1+02601+00211100531ADDGA1001+999999999GF100991001001999999001001MA1999999090891MD1210171+9999REMSYN060AAXX  05214 17202 42970 03405 10260 20021 39089 40053 52017;
0173172020999992000070600004+38590+039280FM-12+0882LTCA V0202501N002612200019N0200001N1+02281+00271100661ADDAA199000091GA1001+999999999GF100991001001999999001001MA1999999091001MD1210111+9999REMSYN060AAXX  06004 17202 32970 02505 10228 20027 39100 40066 52011;EQDQ01  00002PRCP99
0143172020999992000070603004+38590+039280FM-12+0882LTCA V0202401N002612200019N0200001N1+01881+00291100681ADDGA1001+999999999GF100991001001999999001001MA1999999091001MD1410001+9999REMSYN060AAXX  06034 17202 42970 02405 10188 20029 39100 40068 54000;
0220172020999992000070606004+38590+039280FM-12+0882LTCA V0203001N002612200019N0200001N1+02901+00721100781ADDAA199000091GA1001+999999999GF100991001001999999001001IA1019IA2999+01609KA1120N+01741MA1999999091121MD1110121+9999REMSYN076AAXX  06064 17202 32970 03005 10290 20072 39112 40078 51012 333 20174 30016;EQDQ01  00002PRCP99
0143172020999992000070609004+38590+039280FM-12+0882LTCA V0201501N001512200019N0200001N1+03401+00741100651ADDGA1001+999999999GF100991001001999999001001MA1999999091001MD1710121+9999REMSYN060AAXX  06094 17202 42970 01503 10340 20074 39100 40065 57012;
0173172020999992000070612004+38590+039280FM-12+0882LTCA V0201101N002112200019N0200001N1+03781+00961100451ADDAA199000091GA1001+999999999GF100991001001999999001001MA1999999090821MD1710181+9999REMSYN060AAXX  06124 17202 32970 01104 10378 20096 39082 40045 57018;EQDQ01  00002PRCP99
0143172020999992000070615004+38590+039280FM-12+0882LTCA V0200301N002112200019N0200001N1+03761+00941100321ADDGA1001+999999999GF100991001001999999001001MA1999999090681MD1710141+9999REMSYN060AAXX  06154 17202 42970 00304 10376 20094 39068 40032 57014;
0196172020999992000070618004+38590+039280FM-12+0882LTCA V0200101N003612200019N0200001N1+03281+00881100301ADDAA199000091GA1001+999999999GF100991001001999999001001KA1999M+03861MA1999999090701MD1110021+9999REMSYN070AAXX  06184 17202 32970 00107 10328 20088 39070 40030 51002 333 10386;EQDQ01  00002PRCP99
0143172020999992000070621004+38590+039280FM-12+0882LTCA V0209999C000012200019N0200001N1+02401+00581100441ADDGA1001+999999999GF100991001001999999001001MA1999999090801MD1310101+9999REMSYN060AAXX  06214 17202 42970 00000 10240 20058 39080 40044 53010;
0173172020999992000070700004+38590+039280FM-12+0882LTCA V0203001N004112200019N0200001N1+02101+00461100441ADDAA199000091GA1001+999999999GF100991001001999999001001MA1999999090801MD1410001+9999REMSYN060AAXX  07004 17202 32970 03008 10210 20046 39080 40044 54000;EQDQ01  00002PRCP99
0143172020999992000070703004+38590+039280FM-12+0882LTCA V0202501N002612200019N0200001N1+01841+00481100461ADDGA1001+999999999GF100991001001999999001001MA1999999090801MD1410001+9999REMSYN060AAXX  07034 17202 42970 02505 10184 20048 39080 40046 54000;
0220172020999992000070706004+38590+039280FM-12+0882LTCA V0202201N001512200019N0200001N1+02961+01041100411ADDAA199000091GA1001+999999999GF100991001001999999001001IA1019IA2999+01609KA1120N+01801MA1999999090801MD1410001+9999REMSYN076AAXX  07064 17202 32970 02203 10296 20104 39080 40041 54000 333 20180 30016;EQDQ01  00002PRCP99
0143172020999992000070709004+38590+039280FM-12+0882LTCA V0200801N003612200019N0200001N1+03561+00921100321ADDGA1001+999999999GF100991001001999999001001MA1999999090701MD1710101+9999REMSYN060AAXX  07094 17202 42970 00807 10356 20092 39070 40032 57010;
0173172020999992000070712004+38590+039280FM-12+0882LTCA V0202901N004112200019N0200001N1+03821+01001100121ADDAA199000091GA1001+999999999GF100991001001999999001001MA1999999090521MD1710181+9999REMSYN060AAXX  07124 17202 32970 02908 10382 20100 39052 40012 57018;EQDQ01  00002PRCP99
0143172020999992000070715004+38590+039280FM-12+0882LTCA V0203001N005112200019N0200001N1+03761+01041099971ADDGA1001+999999999GF100991001001999999001001MA1999999090361MD1710161+9999REMSYN060AAXX  07154 17202 42970 03010 10376 20104 39036 49997 57016;
0196172020999992000070718004+38590+039280FM-12+0882LTCA V0203101N003112200019N0200001N1+03021+00641099931ADDAA199000091GA1001+999999999GF100991001001999999001001KA1999M+03861MA1999999090351MD1510011+9999REMSYN070AAXX  07184 17202 32970 03106 10302 20064 39035 49993 55001 333 10386;EQDQ01  00002PRCP99
0143172020999992000070721004+38590+039280FM-12+0882LTCA V0203101N004112200019N0200001N1+02901+00781100061ADDGA1001+999999999GF100991001001999999001001MA1999999090501MD1210151+9999REMSYN060AAXX  07214 17202 42970 03108 10290 20078 39050 40006 52015;
0173172020999992000070800004+38590+039280FM-12+0882LTCA V0201901N002112200019N0200001N1+02681+00961100191ADDAA199000091GA1001+999999999GF100991001001999999001001MA1999999090611MD1210111+9999REMSYN060AAXX  08004 17202 32970 01904 10268 20096 39061 40019 52011;EQDQ01  00002PRCP99
0143172020999992000070803004+38590+039280FM-12+0882LTCA V0202301N003112200019N0200001N1+02201+00781100291ADDGA1001+999999999GF100991001001999999001001MA1999999090681MD1210071+9999REMSYN060AAXX  08034 17202 42970 02306 10220 20078 39068 40029 52007;
0220172020999992000070806004+38590+039280FM-12+0882LTCA V0203001N006212200019N0200001N1+02841+00631100401ADDAA199000091GA1001+999999999GF100991001001999999001001IA1019IA2999+02009KA1120N+02141MA1999999090771MD1210091+9999REMSYN076AAXX  08064 17202 32970 03012 10284 20063 39077 40040 52009 333 20214 30020;EQDQ01  00002PRCP99
0143172020999992000070809004+38590+039280FM-12+0882LTCA V0202901N006212200019N0200001N1+03301+00801100311ADDGA1001+999999999GF100991001001999999001001MA1999999090711MD1710061+9999REMSYN060AAXX  08094 17202 42970 02912 10330 20080 39071 40031 57006;
0173172020999992000070812004+38590+039280FM-12+0882LTCA V0202901N006212200019N0200001N1+03501+00461100211ADDAA199000091GA1001+999999999GF100991001001999999001001MA1999999090621MD1710091+9999REMSYN060AAXX  08124 17202 32970 02912 10350 20046 39062 40021 57009;EQDQ01  00002PRCP99
0143172020999992000070815004+38590+039280FM-12+0882LTCA V0203001N006712200019N0200001N1+03521+00461100221ADDGA1001+999999999GF100991001001999999001001MA1999999090601MD1610021+9999REMSYN060AAXX  08154 17202 42970 03013 10352 20046 39060 40022 56002;
0196172020999992000070818004+38590+039280FM-12+0882LTCA V0203001N005712200019N0200001N1+02941+00701100261ADDAA199000091GA1001+999999999GF100991001001999999001001KA1999M+03641MA1999999090641MD1310041+9999REMSYN070AAXX  08184 17202 32970 03011 10294 20070 39064 40026 53004 333 10364;EQDQ01  00002PRCP99
0143172020999992000070821004+38590+039280FM-12+0882LTCA V0202201N003612200019N0200001N1+02641+00471100401ADDGA1001+999999999GF100991001001999999001001MA1999999090781MD1210151+9999REMSYN060AAXX  08214 17202 42970 02207 10264 20047 39078 40040 52015;
0173172020999992000070900004+38590+039280FM-12+0882LTCA V0202401N004112200019N0200001N1+02201+00091100491ADDAA199000091GA1001+999999999GF100991001001999999001001MA1999999090831MD1210051+9999REMSYN060AAXX  09004 17202 32970 02408 10220 20009 39083 40049 52005;EQDQ01  00002PRCP99
0143172020999992000070903004+38590+039280FM-12+0882LTCA V0202801N002112200019N0200001N1+01741+00201100601ADDGA1001+999999999GF100991001001999999001001MA1999999090901MD1310071+9999REMSYN060AAXX  09034 17202 42970 02804 10174 20020 39090 40060 53007;
0214172020999992000070906004+38590+039280FM-12+0882LTCA V0202101N004112200019N0200001N1+99999+99999100571ADDAA199000091GA1001+999999999GF100991001001999999001001IA1019IA2999+01609KA1120N+01701MA1999999090911MD1110011+9999REMSYN070AAXX  09064 17202 32970 02108 20074 39091 40057 51001 333 20170 30016;EQDQ01  00002PRCP99
0173172020999992000070912004+38590+039280FM-12+0882LTCA V0200401N002612200019N0200001N1+03501+00721100351ADDAA199000091GA1001+999999999GF100991001001999999001001MA1999999090721MD1810181+9999REMSYN060AAXX  09124 17202 32970 00405 10350 20072 39072 40035 58018;EQDQ01  00002PRCP99
0143172020999992000070915004+38590+039280FM-12+0882LTCA V0202901N001512200019N0200001N1+03521+00481100161ADDGA1001+999999999GF100991001001999999001001MA1999999090501MD1710221+9999REMSYN060AAXX  09154 17202 42970 02903 10352 20048 39050 40016 57022;
0196172020999992000070918004+38590+039280FM-12+0882LTCA V0203201N003612200019N0200001N1+02641+00181100161ADDAA199000091GA1001+999999999GF100991001001999999001001KA1999M+03681MA1999999090501MD1410001+9999REMSYN070AAXX  09184 17202 32970 03207 10264 20018 39050 40016 54000 333 10368;EQDQ01  00002PRCP99
0143172020999992000070921004+38590+039280FM-12+0882LTCA V0202401N001512200019N0200001N1+02081+00161100181ADDGA1001+999999999GF100991001001999999001001MA1999999090521MD1310021+9999REMSYN060AAXX  09214 17202 42970 02403 10208 20016 39052 40018 53002;
0173172020999992000071000004+38590+039280FM-12+0882LTCA V0202501N002612200019N0200001N1+02001+00381100181ADDAA199000091GA1001+999999999GF100991001001999999001001MA1999999090551MD1210031+9999REMSYN060AAXX  10004 17202 32970 02505 10200 20038 39055 40018 52003;EQDQ01  00002PRCP99
0143172020999992000071003004+38590+039280FM-12+0882LTCA V0203001N002112200019N0200001N1+01701+00061100171ADDGA1001+999999999GF100991001001999999001001MA1999999090511MD1610041+9999REMSYN060AAXX  10034 17202 42970 03004 10170 20006 39051 40017 56004;
0220172020999992000071006004+38590+039280FM-12+0882LTCA V0209999C000012200019N0200001N1+02761+00841100151ADDAA199000091GA1001+999999999GF100991001001999999001001IA1019IA2999+01409KA1120N+01601MA1999999090511MD1410001+9999REMSYN076AAXX  10064 17202 32970 00000 10276 20084 39051 40015 54000 333 20160 30014;EQDQ01  00002PRCP99
0143172020999992000071009004+38590+039280FM-12+0882LTCA V0202701N003612200019N0200001N1+03381+00741100031ADDGA1001+999999999GF100991001001999999001001MA1999999090401MD1710111+9999REMSYN060AAXX  10094 17202 42970 02707 10338 20074 39040 40003 57011;
0173172020999992000071012004+38590+039280FM-12+0882LTCA V0202901N005712200019N0200001N1+03701+00841099841ADDAA199000091GA1001+999999999GF100991001001999999001001MA1999999090241MD1710161+9999REMSYN060AAXX  10124 17202 32970 02911 10370 20084 39024 49984 57016;EQDQ01  00002PRCP99
0143172020999992000071015004+38590+039280FM-12+0882LTCA V0202901N004112200019N0200001N1+03761+00801099761ADDGA1001+999999999GF100991001001999999001001MA1999999090161MD1710081+9999REMSYN060AAXX  10154 17202 42970 02908 10376 20080 39016 49976 57008;
0196172020999992000071018004+38590+039280FM-12+0882LTCA V0203001N004112200019N0200001N1+02901+00601099791ADDAA199000091GA1001+999999999GF100991001001999999001001KA1999M+03801MA1999999090201MD1310061+9999REMSYN070AAXX  10184 17202 32970 03008 10290 20060 39020 49979 53006 333 10380;EQDQ01  00002PRCP99
0143172020999992000071021004+38590+039280FM-12+0882LTCA V0202201N003112200019N0200001N1+02401+00441099991ADDGA1001+999999999GF100991001001999999001001MA1999999090381MD1210181+9999REMSYN060AAXX  10214 17202 42970 02206 10240 20044 39038 49999 52018;
0173172020999992000071100004+38590+039280FM-12+0882LTCA V0202801N002112200019N0200001N1+02201+00361100041ADDAA199000091GA1001+999999999GF100991001001999999001001MA1999999090441MD1210061+9999REMSYN060AAXX  11004 17202 32970 02804 10220 20036 39044 40004 52006;EQDQ01  00002PRCP99
0143172020999992000071103004+38590+039280FM-12+0882LTCA V0209999C000012200019N0200001N1+01601+00121100131ADDGA1001+999999999GF100991001001999999001001MA1999999090461MD1110021+9999REMSYN060AAXX  11034 17202 42970 00000 10160 20012 39046 40013 51002;
0220172020999992000071106004+38590+039280FM-12+0882LTCA V0201001N002112200019N0200001N1+02801+00701100221ADDAA199000091GA1001+999999999GF100991001001999999001001IA1019IA2999+01509KA1120N+01581MA1999999090601MD1210101+9999REMSYN076AAXX  11064 17202 32970 01004 10280 20070 39060 40022 52010 333 20158 30015;EQDQ01  00002PRCP99
0143172020999992000071109004+38590+039280FM-12+0882LTCA V0200701N001512200019N0200001N1+03561+00961100101ADDGA1001+999999999GF100991001001999999001001MA1999999090511MD1710091+9999REMSYN060AAXX  11094 17202 42970 00703 10356 20096 39051 40010 57009;
0173172020999992000071112004+38590+039280FM-12+0882LTCA V0200501N002612200019N0200001N1+03801+00481099971ADDAA199000091GA1001+999999999GF100991001001999999001001MA1999999090391MD1710121+9999REMSYN060AAXX  11124 17202 32970 00505 10380 20048 39039 49997 57012;EQDQ01  00002PRCP99
0143172020999992000071115004+38590+039280FM-12+0882LTCA V0202801N004612200019N0200001N1+03801+00481099921ADDGA1001+999999999GF100991001001999999001001MA1999999090301MD1710091+9999REMSYN060AAXX  11154 17202 42970 02809 10380 20048 39030 49992 57009;
0196172020999992000071118004+38590+039280FM-12+0882LTCA V0203001N004612200019N0200001N1+03201+00421099941ADDAA199000091GA1001+999999999GF100991001001999999001001KA1999M+03901MA1999999090361MD1310061+9999REMSYN070AAXX  11184 17202 32970 03009 10320 20042 39036 49994 53006 333 10390;EQDQ01  00002PRCP99
0143172020999992000071121004+38590+039280FM-12+0882LTCA V0203201N004112200019N0200001N1+02901+00601100081ADDGA1001+999999999GF100991001001999999001001MA1999999090511MD1210151+9999REMSYN060AAXX  11214 17202 42970 03208 10290 20060 39051 40008 52015;
0173172020999992000071200004+38590+039280FM-12+0882LTCA V0202401N002612200019N0200001N1+02341+00481100201ADDAA199000091GA1001+999999999GF100991001001999999001001MA1999999090611MD1110101+9999REMSYN060AAXX  12004 17202 32970 02405 10234 20048 39061 40020 51010;EQDQ01  00002PRCP99
0143172020999992000071203004+38590+039280FM-12+0882LTCA V0202401N002112200019N0200001N1+01801+00421100341ADDGA1001+999999999GF100991001001999999001001MA1999999090701MD1310091+9999REMSYN060AAXX  12034 17202 42970 02404 10180 20042 39070 40034 53009;
0220172020999992000071206004+38590+039280FM-12+0882LTCA V0202001N001512200019N0200001N1+02801+00801100431ADDAA199000091GA1001+999999999GF100991001001999999001001IA1019IA2999+01609KA1120N+01681MA1999999090801MD1110101+9999REMSYN076AAXX  12064 17202 32970 02003 10280 20080 39080 40043 51010 333 20168 30016;EQDQ01  00002PRCP99
0143172020999992000071209004+38590+039280FM-12+0882LTCA V0202801N004612200019N0200001N1+03481+00841100341ADDGA1001+999999999GF100991001001999999001001MA1999999090751MD1710051+9999REMSYN060AAXX  12094 17202 42970 02809 10348 20084 39075 40034 57005;
0173172020999992000071212004+38590+039280FM-12+0882LTCA V0200101N002612200019N0200001N1+03821+00631100191ADDAA199000091GA1001+999999999GF100991001001999999001001MA1999999090601MD1710151+9999REMSYN060AAXX  12124 17202 32970 00105 10382 20063 39060 40019 57015;EQDQ01  00002PRCP99
0143172020999992000071215004+38590+039280FM-12+0882LTCA V0203001N005112200019N0200001N1+03921+00311100121ADDGA1001+999999999GF100991001001999999001001MA1999999090511MD1710091+9999REMSYN060AAXX  12154 17202 42970 03010 10392 20031 39051 40012 57009;
0196172020999992000071218004+38590+039280FM-12+0882LTCA V0203101N004112200019N0200001N1+03121+00241100141ADDAA199000091GA1001+999999999GF100991001001999999001001KA1999M+03941MA1999999090541MD1310031+9999REMSYN070AAXX  12184 17202 32970 03108 10312 20024 39054 40014 53003 333 10394;EQDQ01  00002PRCP99
0143172020999992000071221004+38590+039280FM-12+0882LTCA V0202801N002612200019N0200001N1+02761+00201100311ADDGA1001+999999999GF100991001001999999001001MA1999999090711MD1210171+9999REMSYN060AAXX  12214 17202 42970 02805 10276 20020 39071 40031 52017;
0173172020999992000071300004+38590+039280FM-12+0882LTCA V0202701N002612200019N0200001N1+01941+00381100361ADDAA199000091GA1001+999999999GF100991001001999999001001MA1999999090731MD1110021+9999REMSYN060AAXX  13004 17202 32970 02705 10194 20038 39073 40036 51002;EQDQ01  00002PRCP99
0143172020999992000071303004+38590+039280FM-12+0882LTCA V0202701N001512200019N0200001N1+01721+00361100421ADDGA1001+999999999GF100991001001999999001001MA1999999090771MD1210041+9999REMSYN060AAXX  13034 17202 42970 02703 10172 20036 39077 40042 52004;
0172172020999992000071306004+38590+039280FM-12+0882LTCA V0203001N001512200019N0200001N1+99999+99999999999ADDAA199000091GA1001+999999999GF100991001001999999001001KA1120N+01661REMSYN075AAXX  13064 17202 32970 03003 1029 20071 39080 40043 51003 333 20166 30016;EQDQ01  00002PRCP99
0143172020999992000071309004+38590+039280FM-12+0882LTCA V0200401N002612200019N0200001N1+03501+00801100351ADDGA1001+999999999GF100991001001999999001001MA1999999090751MD1810051+9999REMSYN060AAXX  13094 17202 42970 00405 10350 20080 39075 40035 58005;
0173172020999992000071312004+38590+039280FM-12+0882LTCA V0201501N002612200019N0200001N1+03801+00601100111ADDAA199000091GA1001+999999999GF100991001001999999001001MA1999999090501MD1710251+9999REMSYN060AAXX  13124 17202 32970 01505 10380 20060 39050 40011 57025;EQDQ01  00002PRCP99
0143172020999992000071315004+38590+039280FM-12+0882LTCA V0201001N001512200019N0200001N1+03921+00381099941ADDGA1001+999999999GF100991001001999999001001MA1999999090331MD1710171+9999REMSYN060AAXX  13154 17202 42970 01003 10392 20038 39033 49994 57017;
0196172020999992000071318004+38590+039280FM-12+0882LTCA V0203001N003612200019N0200001N1+02841+00221099921ADDAA199000091GA1001+999999999GF100991001001999999001001KA1999M+04041MA1999999090331MD1410001+9999REMSYN070AAXX  13184 17202 32970 03007 10284 20022 39033 49992 54000 333 10404;EQDQ01  00002PRCP99
0143172020999992000071321004+38590+039280FM-12+0882LTCA V0203001N003112200019N0200001N1+02401+00261099981ADDGA1001+999999999GF100991001001999999001001MA1999999090401MD1210071+9999REMSYN060AAXX  13214 17202 42970 03006 10240 20026 39040 49998 52007;
0173172020999992000071400004+38590+039280FM-12+0882LTCA V0203101N003612200019N0200001N1+02081+00241100001ADDAA199000091GA1001+999999999GF100991001001999999001001MA1999999090401MD1410001+9999REMSYN060AAXX  14004 17202 32970 03107 10208 20024 39040 40000 54000;EQDQ01  00002PRCP99
0143172020999992000071403004+38590+039280FM-12+0882LTCA V0203001N003112200019N0200001N1+01641+00191100011ADDGA1001+999999999GF100991001001999999001001MA1999999090401MD1410001+9999REMSYN060AAXX  14034 17202 42970 03006 10164 20019 39040 40001 54000;
0220172020999992000071406004+38590+039280FM-12+0882LTCA V0201001N002112200019N0200001N1+02801+00681100121ADDAA199000091GA1001+999999999GF100991001001999999001001IA1019IA2999+01409KA1120N+01601MA1999999090501MD1210101+9999REMSYN076AAXX  14064 17202 32970 01004 10280 20068 39050 40012 52010 333 20160 30014;EQDQ01  00002PRCP99
0143172020999992000071409004+38590+039280FM-12+0882LTCA V0200701N002612200019N0200001N1+03501+00901100051ADDGA1001+999999999GF100991001001999999001001MA1999999090451MD1810051+9999REMSYN060AAXX  14094 17202 42970 00705 10350 20090 39045 40005 58005;
0173172020999992000071412004+38590+039280FM-12+0882LTCA V0200801N004112200019N0200001N1+03901+00841099871ADDAA199000091GA1001+999999999GF100991001001999999001001MA1999999090301MD1710151+9999REMSYN060AAXX  14124 17202 32970 00808 10390 20084 39030 49987 57015;EQDQ01  00002PRCP99
0143172020999992000071415004+38590+039280FM-12+0882LTCA V0202201N001512200019N0200001N1+04101+00581099731ADDGA1001+999999999GF100991001001999999001001MA1999999090161MD1710141+9999REMSYN060AAXX  14154 17202 42970 02203 10410 20058 39016 49973 57014;
0196172020999992000071418004+38590+039280FM-12+0882LTCA V0203001N002112200019N0200001N1+02921+00521099781ADDAA199000091GA1001+999999999GF100991001001999999001001KA1999M+04141MA1999999090201MD1310041+9999REMSYN070AAXX  14184 17202 32970 03004 10292 20052 39020 49978 53004 333 10414;EQDQ01  00002PRCP99
0143172020999992000071421004+38590+039280FM-12+0882LTCA V0203001N002112200019N0200001N1+02401+00281099871ADDGA1001+999999999GF100991001001999999001001MA1999999090301MD1210101+9999REMSYN060AAXX  14214 17202 42970 03004 10240 20028 39030 49987 52010;
0173172020999992000071500004+38590+039280FM-12+0882LTCA V0209999C000012200019N0200001N1+02001+00061099871ADDAA199000091GA1001+999999999GF100991001001999999001001MA1999999090301MD1410001+9999REMSYN060AAXX  15004 17202 32970 00000 10200 20006 39030 49987 54000;EQDQ01  00002PRCP99
0143172020999992000071503004+38590+039280FM-12+0882LTCA V0202901N002612200019N0200001N1+01901+00141099981ADDGA1001+999999999GF100991001001999999001001MA1999999090401MD1210101+9999REMSYN060AAXX  15034 17202 42970 02905 10190 20014 39040 49998 52010;
0220172020999992000071506004+38590+039280FM-12+0882LTCA V0201301N002112200019N0200001N1+02761+00601100111ADDAA199000091GA1001+999999999GF100991001001999999001001IA1019IA2999+01709KA1120N+01881MA1999999090491MD1210091+9999REMSYN076AAXX  15064 17202 32970 01304 10276 20060 39049 40011 52009 333 20188 30017;EQDQ01  00002PRCP99
0143172020999992000071509004+38590+039280FM-12+0882LTCA V0201001N002612200019N0200001N1+03561+00581100061ADDGA1001+999999999GF100991001001999999001001MA1999999090471MD1810021+9999REMSYN060AAXX  15094 17202 42970 01005 10356 20058 39047 40006 58002;
0173172020999992000071512004+38590+039280FM-12+0882LTCA V0202001N004112200019N0200001N1+04061+00601099961ADDAA199000091GA1001+999999999GF100991001001999999001001MA1999999090381MD1710091+9999REMSYN060AAXX  15124 17202 32970 02008 10406 20060 39038 49996 57009;EQDQ01  00002PRCP99
0143172020999992000071515004+38590+039280FM-12+0882LTCA V0201701N003612200019N0200001N1+04001+00591099881ADDGA1001+999999999GF100991001001999999001001MA1999999090311MD1710071+9999REMSYN060AAXX  15154 17202 42970 01707 10400 20059 39031 49988 57007;
0212172020999992000071518004+38590+039280FM-12+0882LTCA V0202901N002112200019N0200001N1+02902+00481099991ADDAA199000091GA1001+999999999GF100991001001999999001001KA1999M+04141MA1999999090381MD1310071+9999REMSYN070AAXX  15184 17202 32970 02904 10290 20048 39038 49999 53007 333 10414;EQDQ01+002903ATOT  Q02  00002PRCP99
0173172020999992000071600004+38590+039280FM-12+0882LTCA V0209999C000012200019N0200001N1+01941+00161100131ADDAA199000091GA1001+999999999GF100991001001999999001001MA1999999090531MD1210071+9999REMSYN060AAXX  16004 17202 32970 00000 10194 20016 39053 40013 52007;EQDQ01  00002PRCP99
0143172020999992000071603004+38590+039280FM-12+0882LTCA V0209999C000012200019N0200001N1+01801+00261100271ADDGA1001+999999999GF100991001001999999001001MA1999999090651MD1210121+9999REMSYN060AAXX  16034 17202 42970 00000 10180 20026 39065 40027 52012;
0220172020999992000071606004+38590+039280FM-12+0882LTCA V0200901N003112200019N0200001N1+02741+00941100381ADDAA199000091GA1001+999999999GF100991001001999999001001IA1019IA2999+01609KA1120N+01721MA1999999090731MD1210081+9999REMSYN076AAXX  16064 17202 32970 00906 10274 20094 39073 40038 52008 333 20172 30016;EQDQ01  00002PRCP99
0143172020999992000071609004+38590+039280FM-12+0882LTCA V0201001N003112200019N0200001N1+03541+01221100351ADDGA1001+999999999GF100991001001999999001001MA1999999090731MD1410001+9999REMSYN060AAXX  16094 17202 42970 01006 10354 20122 39073 40035 54000;
0173172020999992000071612004+38590+039280FM-12+0882LTCA V0203601N001012200019N0200001N1+03881+01161100321ADDAA199000091GA1001+999999999GF100991001001999999001001MA1999999090691MD1710041+9999REMSYN060AAXX  16124 17202 32970 03602 10388 20116 39069 40032 57004;EQDQ01  00002PRCP99
0143172020999992000071615004+38590+039280FM-12+0882LTCA V0203501N001512200019N0200001N1+03801+01231100281ADDGA1001+999999999GF100991001001999999001001MA1999999090641MD1710051+9999REMSYN060AAXX  16154 17202 42970 03503 10380 20123 39064 40028 57005;
0196172020999992000071618004+38590+039280FM-12+0882LTCA V0202701N002112200019N0200001N1+02961+00921100301ADDAA199000091GA1001+999999999GF100991001001999999001001KA1999M+03941MA1999999090671MD1310031+9999REMSYN070AAXX  16184 17202 32970 02704 10296 20092 39067 40030 53003 333 10394;EQDQ01  00002PRCP99
0143172020999992000071621004+38590+039280FM-12+0882LTCA V0202901N003612200019N0200001N1+02481+00571100371ADDGA1001+999999999GF100991001001999999001001MA1999999090751MD1210081+9999REMSYN060AAXX  16214 17202 42970 02907 10248 20057 39075 40037 52008;
0173172020999992000071700004+38590+039280FM-12+0882LTCA V0203001N002112200019N0200001N1+02081+00431100431ADDAA199000091GA1001+999999999GF100991001001999999001001MA1999999090801MD1210051+9999REMSYN060AAXX  17004 17202 32970 03004 10208 20043 39080 40043 52005;EQDQ01  00002PRCP99
0143172020999992000071703004+38590+039280FM-12+0882LTCA V0203101N001512200019N0200001N1+01741+00331100521ADDGA1001+999999999GF100991001001999999001001MA1999999090861MD1210061+9999REMSYN060AAXX  17034 17202 42970 03103 10174 20033 39086 40052 52006;
0220172020999992000071706004+38590+039280FM-12+0882LTCA V0200801N001512200019N0200001N1+02801+01021100601ADDAA199000091GA1001+999999999GF100991001001999999001001IA1019IA2999+01509KA1120N+01681MA1999999090951MD1210091+9999REMSYN076AAXX  17064 17202 32970 00803 10280 20102 39095 40060 52009 333 20168 30015;EQDQ01  00002PRCP99
0143172020999992000071709004+38590+039280FM-12+0882LTCA V0202001N002112200019N0200001N1+03641+01331100511ADDGA1001+999999999GF100991001001999999001001MA1999999090881MD1710071+9999REMSYN060AAXX  17094 17202 42970 02004 10364 20133 39088 40051 57007;
0173172020999992000071712004+38590+039280FM-12+0882LTCA V0200701N002112200019N0200001N1+04061+01301100301ADDAA199000091GA1001+999999999GF100991001001999999001001MA1999999090701MD1710181+9999REMSYN060AAXX  17124 17202 32970 00704 10406 20130 39070 40030 57018;EQDQ01  00002PRCP99
0143172020999992000071715004+38590+039280FM-12+0882LTCA V0203201N003612200019N0200001N1+03981+01281100131ADDGA1001+999999999GF100991001001999999001001MA1999999090521MD1710181+9999REMSYN060AAXX  17154 17202 42970 03207 10398 20128 39052 40013 57018;
0196172020999992000071718004+38590+039280FM-12+0882LTCA V0202401N002112200019N0200001N1+03001+00371100131ADDAA199000091GA1001+999999999GF100991001001999999001001KA1999M+04121MA1999999090521MD1410001+9999REMSYN070AAXX  17184 17202 32970 02404 10300 20037 39052 40013 54000 333 10412;EQDQ01  00002PRCP99
0143172020999992000071721004+38590+039280FM-12+0882LTCA V0202901N004612200019N0200001N1+02441+00221100151ADDGA1001+999999999GF100991001001999999001001MA1999999090551MD1110031+9999REMSYN060AAXX  17214 17202 42970 02909 10244 20022 39055 40015 51003;
0173172020999992000071800004+38590+039280FM-12+0882LTCA V0203001N002112200019N0200001N1+02201+00361100131ADDAA199000091GA1001+999999999GF100991001001999999001001MA1999999090551MD1410001+9999REMSYN060AAXX  18004 17202 32970 03004 10220 20036 39055 40013 54000;EQDQ01  00002PRCP99
0143172020999992000071803004+38590+039280FM-12+0882LTCA V0202901N002112200019N0200001N1+01921+00341100151ADDGA1001+999999999GF100991001001999999001001MA1999999090551MD1510001+9999REMSYN060AAXX  18034 17202 42970 02904 10192 20034 39055 40015 55000;
0220172020999992000071806004+38590+039280FM-12+0882LTCA V0200901N001512200019N0200001N1+02981+00961100221ADDAA199000091GA1001+999999999GF100991001001999999001001IA1019IA2999+01709KA1120N+01881MA1999999090611MD1110061+9999REMSYN076AAXX  18064 17202 32970 00903 10298 20096 39061 40022 51006 333 20188 30017;EQDQ01  00002PRCP99
0143172020999992000071809004+38590+039280FM-12+0882LTCA V0203001N003612200019N0200001N1+03681+01361100071ADDGA1001+999999999GF100991001001999999001001MA1999999090491MD1710121+9999REMSYN060AAXX  18094 17202 42970 03007 10368 20136 39049 40007 57012;
0173172020999992000071812004+38590+039280FM-12+0882LTCA V0202701N003112200019N0200001N1+03921+01261099861ADDAA199000091GA1001+999999999GF100991001001999999001001MA1999999090301MD1710191+9999REMSYN060AAXX  18124 17202 32970 02706 10392 20126 39030 49986 57019;EQDQ01  00002PRCP99
0143172020999992000071815004+38590+039280FM-12+0882LTCA V0202901N005112200019N0200001N1+04001+01121099701ADDGA1001+999999999GF100991001001999999001001MA1999999090141MD1710161+9999REMSYN060AAXX  18154 17202 42970 02910 10400 20112 39014 49970 57016;
0196172020999992000071818004+38590+039280FM-12+0882LTCA V0203201N004112200019N0200001N1+03341+00881099701ADDAA199000091GA1001+999999999GF100991001001999999001001KA1999M+04041MA1999999090171MD1310051+9999REMSYN070AAXX  18184 17202 32970 03208 10334 20088 39017 49970 53005 333 10404;EQDQ01  00002PRCP99
0143172020999992000071821004+38590+039280FM-12+0882LTCA V0202801N004112200019N0200001N1+02801+00681099911ADDGA1001+999999999GF100991001001999999001001MA1999999090341MD1110071+9999REMSYN060AAXX  18214 17202 42970 02808 10280 20068 39034 49991 51007;
0173172020999992000071900004+38590+039280FM-12+0882LTCA V0202701N002612200019N0200001N1+02561+00511099881ADDAA199000091GA1001+999999999GF100991001001999999001001MA1999999090341MD1410001+9999REMSYN060AAXX  19004 17202 32970 02705 10256 20051 39034 49988 54000;EQDQ01  00002PRCP99
0143172020999992000071903004+38590+039280FM-12+0882LTCA V0202401N003112200019N0200001N1+02241+00421099941ADDGA1001+999999999GF100991001001999999001001MA1999999090371MD1310031+9999REMSYN060AAXX  19034 17202 42970 02406 10224 20042 39037 49994 53003;
0220172020999992000071906004+38590+039280FM-12+0882LTCA V0202701N002612200019N0200001N1+02821+00981100021ADDAA199000091GA1001+999999999GF100991001001999999001001IA1019IA2999+02109KA1120N+02201MA1999999090431MD1210061+9999REMSYN076AAXX  19064 17202 32970 02705 10282 20098 39043 40002 52006 333 20220 30021;EQDQ01  00002PRCP99
0143172020999992000071909004+38590+039280FM-12+0882LTCA V0202401N001512200019N0200001N1+03321+01021099881ADDGA1001+999999999GF100991001001999999001001MA1999999090321MD1710111+9999REMSYN060AAXX  19094 17202 42970 02403 10332 20102 39032 49988 57011;
0173172020999992000071912004+38590+039280FM-12+0882LTCA V0202101N002112200019N0200001N1+03771+00971099621ADDAA199000091GA1001+999999999GF100991001001999999001001MA1999999090101MD1710221+9999REMSYN060AAXX  19124 17202 32970 02104 10377 20097 39010 49962 57022;EQDQ01  00002PRCP99
0143172020999992000071915004+38590+039280FM-12+0882LTCA V0203101N006212200019N0200001N1+03841+01141099521ADDGA1001+999999999GF100991001001999999001001MA1999999089981MD1710121+9999REMSYN060AAXX  19154 17202 42970 03112 10384 20114 38998 49952 57012;
0196172020999992000071918004+38590+039280FM-12+0882LTCA V0202601N001512200019N0200001N1+03041+00921099601ADDAA199000091GA1001+999999999GF100991001001999999001001KA1999M+04041MA1999999090041MD1310061+9999REMSYN070AAXX  19184 17202 32970 02603 10304 20092 39004 49960 53006 333 10404;EQDQ01  00002PRCP99
0143172020999992000071921004+38590+039280FM-12+0882LTCA V0203201N003112200019N0200001N1+02721+00911099731ADDGA1001+999999999GF100991001001999999001001MA1999999090171MD1210131+9999REMSYN060AAXX  19214 17202 42970 03206 10272 20091 39017 49973 52013;
0173172020999992000072000004+38590+039280FM-12+0882LTCA V0202401N002612200019N0200001N1+02301+00881099781ADDAA199000091GA1001+999999999GF100991001001999999001001MA1999999090221MD1210051+9999REMSYN060AAXX  20004 17202 32970 02405 10230 20088 39022 49978 52005;EQDQ01  00002PRCP99
0143172020999992000072003004+38590+039280FM-12+0882LTCA V0209999C000012200019N0200001N1+02141+00881099921ADDGA1001+999999999GF100991001001999999001001MA1999999090321MD1210101+9999REMSYN060AAXX  20034 17202 42970 00000 10214 20088 39032 49992 52010;
0248172020999992000072006004+38590+039280FM-12+0882LTCA V0209999C000012200019N0070001N1+02921+01081100031ADDAA199000091AY101061AY201061GA1001+999999999GF100991001001999999001001IA1019IA2999+01909KA1120N+02081MA1999999090441MD1210121+9999MW1051REMSYN082AAXX  20064 17202 31957 00000 10292 20108 39044 40003 52012 70500 333 20208 30019;EQDQ01  00002PRCP99
0171172020999992000072009004+38590+039280FM-12+0882LTCA V0200901N005712200019N0070001N1+03621+01351099991ADDAY101031AY201031GA1001+999999999GF100991001001999999001001MA1999999090451MD1810011+9999MW1051REMSYN066AAXX  20094 17202 41957 00911 10362 20135 39045 49999 58001 70500;
0173172020999992000072012004+38590+039280FM-12+0882LTCA V0201301N006712200019N0200001N1+03801+01011099931ADDAA199000091GA1001+999999999GF100991001001999999001001MA1999999090381MD1810051+9999REMSYN060AAXX  20124 17202 32970 01313 10380 20101 39038 49993 58005;EQDQ01  00002PRCP99
0143172020999992000072015004+38590+039280FM-12+0882LTCA V0201101N005112200019N0200001N1+03701+00681100011ADDGA1001+999999999GF100991001001999999001001MA1999999090411MD1310031+9999REMSYN060AAXX  20154 17202 42970 01110 10370 20068 39041 40001 53003;
0196172020999992000072018004+38590+039280FM-12+0882LTCA V0201701N002612200019N0200001N1+03041+01101100141ADDAA199000091GA1001+999999999GF100991001001999999001001KA1999M+03901MA1999999090541MD1210131+9999REMSYN070AAXX  20184 17202 32970 01705 10304 20110 39054 40014 52013 333 10390;EQDQ01  00002PRCP99
0143172020999992000072021004+38590+039280FM-12+0882LTCA V0209999C000012200019N0200001N1+02661+00921100301ADDGA1001+999999999GF100991001001999999001001MA1999999090701MD1210161+9999REMSYN060AAXX  20214 17202 42970 00000 10266 20092 39070 40030 52016;
0173172020999992000072100004+38590+039280FM-12+0882LTCA V0203001N002612200019N0200001N1+02181+00721100411ADDAA199000091GA1001+999999999GF100991001001999999001001MA1999999090791MD1210091+9999REMSYN060AAXX  21004 17202 32970 03005 10218 20072 39079 40041 52009;EQDQ01  00002PRCP99
0143172020999992000072103004+38590+039280FM-12+0882LTCA V0202601N001012200019N0200001N1+02001+00801100541ADDGA1001+999999999GF100991001001999999001001MA1999999090891MD1210101+9999REMSYN060AAXX  21034 17202 42970 02602 10200 20080 39089 40054 52010;
0220172020999992000072106004+38590+039280FM-12+0882LTCA V0201101N002112200019N0200001N1+02801+00881100661ADDAA199000091GA1001+999999999GF100991001001999999001001IA1019IA2999+01809KA1120N+01941MA1999999091001MD1210111+9999REMSYN076AAXX  21064 17202 32970 01104 10280 20088 39100 40066 52011 333 20194 30018;EQDQ01  00002PRCP99
0143172020999992000072109004+38590+039280FM-12+0882LTCA V0201001N002112200019N0200001N1+03501+00801100601ADDGA1001+999999999GF100991001001999999001001MA1999999090971MD1810031+9999REMSYN060AAXX  21094 17202 42970 01004 10350 20080 39097 40060 58003;
0173172020999992000072112004+38590+039280FM-12+0882LTCA V0202101N004112200019N0200001N1+03801+00861100531ADDAA199000091GA1001+999999999GF100991001001999999001001MA1999999090901MD1610071+9999REMSYN060AAXX  21124 17202 32970 02108 10380 20086 39090 40053 56007;EQDQ01  00002PRCP99
0143172020999992000072115004+38590+039280FM-12+0882LTCA V0202201N005712200019N0200001N1+03641+00741100531ADDGA1001+999999999GF100991001001999999001001MA1999999090871MD1510031+9999REMSYN060AAXX  21154 17202 42970 02211 10364 20074 39087 40053 55003;
0196172020999992000072118004+38590+039280FM-12+0882LTCA V0202701N002112200019N0200001N1+02801+00281100641ADDAA199000091GA1001+999999999GF100991001001999999001001KA1999M+03901MA1999999090971MD1210101+9999REMSYN070AAXX  21184 17202 32970 02704 10280 20028 39097 40064 52010 333 10390;EQDQ01  00002PRCP99
0143172020999992000072121004+38590+039280FM-12+0882LTCA V0203001N003612200019N0200001N1+02101+00201100701ADDGA1001+999999999GF100991001001999999001001MA1999999091021MD1110051+9999REMSYN060AAXX  21214 17202 42970 03007 10210 20020 39102 40070 51005;
0173172020999992000072200004+38590+039280FM-12+0882LTCA V0203001N002612200019N0200001N1+01901+00411100721ADDAA199000091GA1001+999999999GF100991001001999999001001MA1999999091041MD1310021+9999REMSYN060AAXX  22004 17202 32970 03005 10190 20041 39104 40072 53002;EQDQ01  00002PRCP99
0143172020999992000072203004+38590+039280FM-12+0882LTCA V0202501N003612200019N0200001N1+01561+00281100801ADDGA1001+999999999GF100991001001999999001001MA1999999091081MD1310041+9999REMSYN060AAXX  22034 17202 42970 02507 10156 20028 39108 40080 53004;
0187172020999992000072206004+38590+039280FM-12+0882LTCA V0209999C000012200019N0200001N1+02721+00871100881ADDAA199000091GA1001+999999999GF100991001001999999001001KA1120N+01521MA1999999091181REMSYN075AAXX  22064 17202 32970 00000 10272 20087 39118 40088 5100 333 20152 30014;EQDQ01  00002PRCP99
0143172020999992000072209004+38590+039280FM-12+0882LTCA V0200801N003112200019N0200001N1+03441+01011100831ADDGA1001+999999999GF100991001001999999001001MA1999999091141MD1810041+9999REMSYN060AAXX  22094 17202 42970 00806 10344 20101 39114 40083 58004;
0173172020999992000072212004+38590+039280FM-12+0882LTCA V0209999C000012200019N0200001N1+03921+00861100661ADDAA199000091GA1001+999999999GF100991001001999999001001MA1999999091001MD1710141+9999REMSYN060AAXX  22124 17202 32970 00000 10392 20086 39100 40066 57014;EQDQ01  00002PRCP99
0143172020999992000072215004+38590+039280FM-12+0882LTCA V0200801N002612200019N0200001N1+03821+00841100581ADDGA1001+999999999GF100991001001999999001001MA1999999090901MD1710101+9999REMSYN060AAXX  22154 17202 42970 00805 10382 20084 39090 40058 57010;
0196172020999992000072218004+38590+039280FM-12+0882LTCA V0209999C000012200019N0200001N1+03001+00461100531ADDAA199000091GA1001+999999999GF100991001001999999001001KA1999M+03921MA1999999090881MD1610021+9999REMSYN070AAXX  22184 17202 32970 00000 10300 20046 39088 40053 56002 333 10392;EQDQ01  00002PRCP99
0143172020999992000072221004+38590+039280FM-12+0882LTCA V0202701N003112200019N0200001N1+02501+00481100541ADDGA1001+999999999GF100991001001999999001001MA1999999090901MD1110021+9999REMSYN060AAXX  22214 17202 42970 02706 10250 20048 39090 40054 51002;
0173172020999992000072300004+38590+039280FM-12+0882LTCA V0203201N003112200019N0200001N1+02201+00381100521ADDAA199000091GA1001+999999999GF100991001001999999001001MA1999999090901MD1410001+9999REMSYN060AAXX  23004 17202 32970 03206 10220 20038 39090 40052 54000;EQDQ01  00002PRCP99
0220172020999992000072306004+38590+039280FM-12+0882LTCA V0201301N002112200019N0200001N1+03001+00881100661ADDAA199000091GA1001+999999999GF100991001001999999001001IA1019IA2999+01909KA1120N+01981MA1999999091011MD1210091+9999REMSYN076AAXX  23064 17202 32970 01304 10300 20088 39101 40066 52009 333 20198 30019;EQDQ01  00002PRCP99
0143172020999992000072309004+38590+039280FM-12+0882LTCA V0202001N003612200019N0200001N1+03701+01081100581ADDGA1001+999999999GF100991001001999999001001MA1999999090951MD1810061+9999REMSYN060AAXX  23094 17202 42970 02007 10370 20108 39095 40058 58006;
0173172020999992000072312004+38590+039280FM-12+0882LTCA V0201801N004112200019N0200001N1+03961+01241100481ADDAA199000091GA1001+999999999GF100991001001999999001001MA1999999090861MD1710091+9999REMSYN060AAXX  23124 17202 32970 01808 10396 20124 39086 40048 57009;EQDQ01  00002PRCP99
0143172020999992000072315004+38590+039280FM-12+0882LTCA V0201901N004112200019N0200001N1+03801+01141100441ADDGA1001+999999999GF100991001001999999001001MA1999999090801MD1710061+9999REMSYN060AAXX  23154 17202 42970 01908 10380 20114 39080 40044 57006;
0196172020999992000072318004+38590+039280FM-12+0882LTCA V0209999C000012200019N0200001N1+02801+00681100521ADDAA199000091GA1001+999999999GF100991001001999999001001KA1999M+04041MA1999999090801MD1410001+9999REMSYN070AAXX  23184 17202 32970 00000 10280 20068 39080 40052 54000 333 10404;EQDQ01  00002PRCP99
0143172020999992000072321004+38590+039280FM-12+0882LTCA V0209999C000012200019N0200001N1+02121+00281100511ADDGA1001+999999999GF100991001001999999001001MA1999999090861MD1110061+9999REMSYN060AAXX  23214 17202 42970 00000 10212 20028 39086 40051 51006;
0173172020999992000072400004+38590+039280FM-12+0882LTCA V0202401N002112200019N0200001N1+01801+00271100511ADDAA199000091GA1001+999999999GF100991001001999999001001MA1999999090861MD1410001+9999REMSYN060AAXX  24004 17202 32970 02404 10180 20027 39086 40051 54000;EQDQ01  00002PRCP99
0143172020999992000072403004+38590+039280FM-12+0882LTCA V0209999C000012200019N0200001N1+01741+00241100521ADDGA1001+999999999GF100991001001999999001001MA1999999090861MD1410001+9999REMSYN060AAXX  24034 17202 42970 00000 10174 20024 39086 40052 54000;
0172172020999992000072406004+38590+039280FM-12+0882LTCA V0203001N004112200019N0200001N1+02821+99999999999ADDAA199000091GA1001+999999999GF100991001001999999001001KA1120N+01621REMSYN075AAXX  24064 17202 32970 03008 10282 0102 39099 40067 52013 333 20162 30015;EQDQ01  00002PRCP99
0143172020999992000072409004+38590+039280FM-12+0882LTCA V0202801N002612200019N0200001N1+03281+01261100681ADDGA1001+999999999GF100991001001999999001001MA1999999090991MD1410001+9999REMSYN060AAXX  24094 17202 42970 02805 10328 20126 39099 40068 54000;
0173172020999992000072412004+38590+039280FM-12+0882LTCA V0202601N002612200019N0200001N1+03701+01201100441ADDAA199000091GA1001+999999999GF100991001001999999001001MA1999999090791MD1710201+9999REMSYN060AAXX  24124 17202 32970 02605 10370 20120 39079 40044 57020;EQDQ01  00002PRCP99
0143172020999992000072415004+38590+039280FM-12+0882LTCA V0203001N005712200019N0200001N1+03641+00981100351ADDGA1001+999999999GF100991001001999999001001MA1999999090691MD1710101+9999REMSYN060AAXX  24154 17202 42970 03011 10364 20098 39069 40035 57010;
0196172020999992000072418004+38590+039280FM-12+0882LTCA V0202201N002112200019N0200001N1+02981+00061100351ADDAA199000091GA1001+999999999GF100991001001999999001001KA1999M+03801MA1999999090721MD1310031+9999REMSYN070AAXX  24184 17202 32970 02204 10298 20006 39072 40035 53003 333 10380;EQDQ01  00002PRCP99
0143172020999992000072421004+38590+039280FM-12+0882LTCA V0202501N005112200019N0200001N1+02881+00141100521ADDGA1001+999999999GF100991001001999999001001MA1999999090901MD1210181+9999REMSYN060AAXX  24214 17202 42970 02510 10288 20014 39090 40052 52018;
0173172020999992000072500004+38590+039280FM-12+0882LTCA V0202601N002112200019N0200001N1+02281+00731100661ADDAA199000091GA1001+999999999GF100991001001999999001001MA1999999091011MD1210111+9999REMSYN060AAXX  25004 17202 32970 02604 10228 20073 39101 40066 52011;EQDQ01  00002PRCP99
0143172020999992000072503004+38590+039280FM-12+0882LTCA V0209999C000012200019N0200001N1+01861+00801100811ADDGA1001+999999999GF100991001001999999001001MA1999999091121MD1210111+9999REMSYN060AAXX  25034 17202 42970 00000 10186 20080 39112 40081 52011;
0220172020999992000072506004+38590+039280FM-12+0882LTCA V0202901N004112200019N0200001N1+02701+00521100911ADDAA199000091GA1001+999999999GF100991001001999999001001IA1019IA2999+01709KA1120N+01801MA1999999091211MD1210091+9999REMSYN076AAXX  25064 17202 32970 02908 10270 20052 39121 40091 52009 333 20180 30017;EQDQ01  00002PRCP99
0143172020999992000072509004+38590+039280FM-12+0882LTCA V0202701N004112200019N0200001N1+03201+00701100881ADDGA1001+999999999GF100991001001999999001001MA1999999091211MD1410001+9999REMSYN060AAXX  25094 17202 42970 02708 10320 20070 39121 40088 54000;
0173172020999992000072512004+38590+039280FM-12+0882LTCA V0202301N002612200019N0200001N1+03601+00731100661ADDAA199000091GA1001+999999999GF100991001001999999001001MA1999999091001MD1710211+9999REMSYN060AAXX  25124 17202 32970 02305 10360 20073 39100 40066 57021;EQDQ01  00002PRCP99
0143172020999992000072515004+38590+039280FM-12+0882LTCA V0200901N001512200019N0200001N1+03601+00641100671ADDGA1001+999999999GF100991001001999999001001MA1999999090981MD1610021+9999REMSYN060AAXX  25154 17202 42970 00903 10360 20064 39098 40067 56002;
0196172020999992000072518004+38590+039280FM-12+0882LTCA V0202601N002112200019N0200001N1+02761+00501100641ADDAA199000091GA1001+999999999GF100991001001999999001001KA1999M+03761MA1999999090951MD1610031+9999REMSYN070AAXX  25184 17202 32970 02604 10276 20050 39095 40064 56003 333 10376;EQDQ01  00002PRCP99
0143172020999992000072521004+38590+039280FM-12+0882LTCA V0202701N002112200019N0200001N1+02481+00781100731ADDGA1001+999999999GF100991001001999999001001MA1999999091051MD1210101+9999REMSYN060AAXX  25214 17202 42970 02704 10248 20078 39105 40073 52010;
0173172020999992000072600004+38590+039280FM-12+0882LTCA V0202401N002612200019N0200001N1+02201+00361100761ADDAA199000091GA1001+999999999GF100991001001999999001001MA1999999091091MD1210041+9999REMSYN060AAXX  26004 17202 32970 02405 10220 20036 39109 40076 52004;EQDQ01  00002PRCP99
0143172020999992000072603004+38590+039280FM-12+0882LTCA V0202701N002612200019N0200001N1+02001+00561100811ADDGA1001+999999999GF100991001001999999001001MA1999999091121MD1310031+9999REMSYN060AAXX  26034 17202 42970 02705 10200 20056 39112 40081 53003;
0220172020999992000072606004+38590+039280FM-12+0882LTCA V0203101N001512200019N0200001N1+02981+01201100881ADDAA199000091GA1001+999999999GF100991001001999999001001IA1019IA2999+01709KA1120N+01421MA1999999091201MD1210081+9999REMSYN076AAXX  26064 17202 32970 03103 10298 20120 39120 40088 52008 333 20142 30017;EQDQ01  00002PRCP99
0143172020999992000072609004+38590+039280FM-12+0882LTCA V0202801N002112200019N0200001N1+03521+01101100781ADDGA1001+999999999GF100991001001999999001001MA1999999091121MD1810081+9999REMSYN060AAXX  26094 17202 42970 02804 10352 20110 39112 40078 58008;
0173172020999992000072612004+38590+039280FM-12+0882LTCA V0202501N001512200019N0200001N1+03821+01171100641ADDAA199000091GA1001+999999999GF100991001001999999001001MA1999999090991MD1710131+9999REMSYN060AAXX  26124 17202 32970 02503 10382 20117 39099 40064 57013;EQDQ01  00002PRCP99
0143172020999992000072615004+38590+039280FM-12+0882LTCA V0203201N002612200019N0200001N1+03861+01001100551ADDGA1001+999999999GF100991001001999999001001MA1999999090901MD1710091+9999REMSYN060AAXX  26154 17202 42970 03205 10386 20100 39090 40055 57009;
0196172020999992000072618004+38590+039280FM-12+0882LTCA V0202401N002112200019N0200001N1+02961+00681100541ADDAA199000091GA1001+999999999GF100991001001999999001001KA1999M+03901MA1999999090901MD1410001+9999REMSYN070AAXX  26184 17202 32970 02404 10296 20068 39090 40054 54000 333 10390;EQDQ01  00002PRCP99
0143172020999992000072621004+38590+039280FM-12+0882LTCA V0202601N003612200019N0200001N1+02481+00561100651ADDGA1001+999999999GF100991001001999999001001MA1999999091001MD1110101+9999REMSYN060AAXX  26214 17202 42970 02607 10248 20056 39100 40065 51010;
0173172020999992000072700004+38590+039280FM-12+0882LTCA V0202701N002612200019N0200001N1+02241+00321100681ADDAA199000091GA1001+999999999GF100991001001999999001001MA1999999091031MD1310031+9999REMSYN060AAXX  27004 17202 32970 02705 10224 20032 39103 40068 53003;EQDQ01  00002PRCP99
0143172020999992000072703004+38590+039280FM-12+0882LTCA V0202801N002112200019N0200001N1+02001+00561100751ADDGA1001+999999999GF100991001001999999001001MA1999999091081MD1310051+9999REMSYN060AAXX  27034 17202 42970 02804 10200 20056 39108 40075 53005;
0220172020999992000072706004+38590+039280FM-12+0882LTCA V0202901N001012200019N0200001N1+03061+00981100811ADDAA199000091GA1001+999999999GF100991001001999999001001IA1019IA2999+01809KA1120N+01921MA1999999091151MD1210071+9999REMSYN076AAXX  27064 17202 32970 02902 10306 20098 39115 40081 52007 333 20192 30018;EQDQ01  00002PRCP99
0143172020999992000072709004+38590+039280FM-12+0882LTCA V0202701N002612200019N0200001N1+03521+01101100751ADDGA1001+999999999GF100991001001999999001001MA1999999091101MD1810051+9999REMSYN060AAXX  27094 17202 42970 02705 10352 20110 39110 40075 58005;
0173172020999992000072712004+38590+039280FM-12+0882LTCA V0200301N002112200019N0200001N1+03961+01141100521ADDAA199000091GA1001+999999999GF100991001001999999001001MA1999999090901MD1710201+9999REMSYN060AAXX  27124 17202 32970 00304 10396 20114 39090 40052 57020;EQDQ01  00002PRCP99
0143172020999992000072715004+38590+039280FM-12+0882LTCA V0203301N002112200019N0200001N1+03941+01141100401ADDGA1001+999999999GF100991001001999999001001MA1999999090781MD1710121+9999REMSYN060AAXX  27154 17202 42970 03304 10394 20114 39078 40040 57012;
0196172020999992000072718004+38590+039280FM-12+0882LTCA V0209999C000012200019N0200001N1+03201+00921100381ADDAA199000091GA1001+999999999GF100991001001999999001001KA1999M+04141MA1999999090771MD1610011+9999REMSYN070AAXX  27184 17202 32970 00000 10320 20092 39077 40038 56001 333 10414;EQDQ01  00002PRCP99
0143172020999992000072721004+38590+039280FM-12+0882LTCA V0203101N003112200019N0200001N1+02461+00621100421ADDGA1001+999999999GF100991001001999999001001MA1999999090801MD1110031+9999REMSYN060AAXX  27214 17202 42970 03106 10246 20062 39080 40042 51003;
0173172020999992000072800004+38590+039280FM-12+0882LTCA V0202901N003112200019N0200001N1+02241+00481100491ADDAA199000091GA1001+999999999GF100991001001999999001001MA1999999090871MD1210071+9999REMSYN060AAXX  28004 17202 32970 02906 10224 20048 39087 40049 52007;EQDQ01  00002PRCP99
0143172020999992000072803004+38590+039280FM-12+0882LTCA V0209999C000012200019N0200001N1+01901+00401100491ADDGA1001+999999999GF100991001001999999001001MA1999999090881MD1110011+9999REMSYN060AAXX  28034 17202 42970 00000 10190 20040 39088 40049 51001;
0220172020999992000072806004+38590+039280FM-12+0882LTCA V0200701N001012200019N0200001N1+02981+00901100631ADDAA199000091GA1001+999999999GF100991001001999999001001IA1019IA2999+01709KA1120N+01841MA1999999091001MD1310121+9999REMSYN076AAXX  28064 17202 32970 00702 10298 20090 39100 40063 53012 333 20184 30017;EQDQ01  00002PRCP99
0143172020999992000072809004+38590+039280FM-12+0882LTCA V0201401N003112200019N0200001N1+03701+01281100611ADDGA1001+999999999GF100991001001999999001001MA1999999090981MD1810021+9999REMSYN060AAXX  28094 17202 42970 01406 10370 20128 39098 40061 58002;
0173172020999992000072812004+38590+039280FM-12+0882LTCA V0203601N002112200019N0200001N1+04001+00571100451ADDAA199000091GA1001+999999999GF100991001001999999001001MA1999999090841MD1710141+9999REMSYN060AAXX  28124 17202 32970 03604 10400 20057 39084 40045 57014;EQDQ01  00002PRCP99
0143172020999992000072815004+38590+039280FM-12+0882LTCA V0200301N001512200019N0200001N1+03901+00661100401ADDGA1001+999999999GF100991001001999999001001MA1999999090761MD1710081+9999REMSYN060AAXX  28154 17202 42970 00303 10390 20066 39076 40040 57008;
0168172020999992000072818004+38590+039280FM-12+0882LTCA V0202901N001512200019N0200001N1+03201+00921999999ADDAA199000091GA1001+999999999GF100991001001999999001001MA1999999090801REMSYN069AAXX  28184 17202 32970 02903 10320 20092 39080 4004 53004 333 10407;EQDQ01  00002PRCP99
0143172020999992000072821004+38590+039280FM-12+0882LTCA V0202101N003112200019N0200001N1+02661+00781100551ADDGA1001+999999999GF100991001001999999001001MA1999999090941MD1210141+9999REMSYN060AAXX  28214 17202 42970 02106 10266 20078 39094 40055 52014;
0173172020999992000072900004+38590+039280FM-12+0882LTCA V0203101N003112200019N0200001N1+02461+00621100621ADDAA199000091GA1001+999999999GF100991001001999999001001MA1999999091001MD1210061+9999REMSYN060AAXX  29004 17202 32970 03106 10246 20062 39100 40062 52006;EQDQ01  00002PRCP99
0143172020999992000072903004+38590+039280FM-12+0882LTCA V0203201N002112200019N0200001N1+02001+00501100821ADDGA1001+999999999GF100991001001999999001001MA1999999091161MD1210161+9999REMSYN060AAXX  29034 17202 42970 03204 10200 20050 39116 40082 52016;
0220172020999992000072906004+38590+039280FM-12+0882LTCA V0201001N001512200019N0200001N1+02941+00801100931ADDAA199000091GA1001+999999999GF100991001001999999001001IA1019IA2999+01809KA1120N+01961MA1999999091271MD1210111+9999REMSYN076AAXX  29064 17202 32970 01003 10294 20080 39127 40093 52011 333 20196 30018;EQDQ01  00002PRCP99
0143172020999992000072909004+38590+039280FM-12+0882LTCA V0201101N002612200019N0200001N1+03681+00841100921ADDGA1001+999999999GF100991001001999999001001MA1999999091271MD1010001+9999REMSYN060AAXX  29094 17202 42970 01105 10368 20084 39127 40092 50000;
0173172020999992000072912004+38590+039280FM-12+0882LTCA V0201201N002612200019N0200001N1+04041+00541100771ADDAA199000091GA1001+999999999GF100991001001999999001001MA1999999091141MD1710131+9999REMSYN060AAXX  29124 17202 32970 01205 10404 20054 39114 40077 57013;EQDQ01  00002PRCP99
0143172020999992000072915004+38590+039280FM-12+0882LTCA V0203401N002612200019N0200001N1+04041+00641100691ADDGA1001+999999999GF100991001001999999001001MA1999999091041MD1710101+9999REMSYN060AAXX  29154 17202 42970 03405 10404 20064 39104 40069 57010;
0196172020999992000072918004+38590+039280FM-12+0882LTCA V0202601N002612200019N0200001N1+03121+00211100811ADDAA199000091GA1001+999999999GF100991001001999999001001KA1999M+04161MA1999999091151MD1310111+9999REMSYN070AAXX  29184 17202 32970 02605 10312 20021 39115 40081 53011 333 10416;EQDQ01  00002PRCP99
0143172020999992000072921004+38590+039280FM-12+0882LTCA V0202901N001012200019N0200001N1+02461+00221100911ADDGA1001+999999999GF100991001001999999001001MA1999999091241MD1210091+9999REMSYN060AAXX  29214 17202 42970 02902 10246 20022 39124 40091 52009;
0173172020999992000073000004+38590+039280FM-12+0882LTCA V0203101N002612200019N0200001N1+02121+00161100921ADDAA199000091GA1001+999999999GF100991001001999999001001MA1999999091261MD1110021+9999REMSYN060AAXX  30004 17202 32970 03105 10212 20016 39126 40092 51002;EQDQ01  00002PRCP99
0143172020999992000073003004+38590+039280FM-12+0882LTCA V0202501N002112200019N0200001N1+01901+00321101021ADDGA1001+999999999GF100991001001999999001001MA1999999091341MD1210081+9999REMSYN060AAXX  30034 17202 42970 02504 10190 20032 39134 40102 52008;
0220172020999992000073006004+38590+039280FM-12+0882LTCA V0209999C000012200019N0200001N1+03001+00881101091ADDAA199000091GA1001+999999999GF100991001001999999001001IA1019IA2999+01809KA1120N+01861MA1999999091411MD1110071+9999REMSYN076AAXX  30064 17202 32970 00000 10300 20088 39141 40109 51007 333 20186 30018;EQDQ01  00002PRCP99
0143172020999992000073009004+38590+039280FM-12+0882LTCA V0209999C000012200019N0200001N1+03581+01141101081ADDGA1001+999999999GF100991001001999999001001MA1999999091391MD1810031+9999REMSYN060AAXX  30094 17202 42970 00000 10358 20114 39139 40108 58003;
0189172020999992000073012004+38590+039280FM-12+0882LTCA V0200601N001512200019N0200001N1+04121+01121100841ADDAA199000091GA1021+010509029GF102991021011012501001001MA1999999091191MD1710201+9999REMSYN076AAXX  30124 17202 32670 20603 10412 20112 39119 40084 57020 82100 333 82835;EQDQ01  00002PRCP99
0159172020999992000073015004+38590+039280FM-12+0882LTCA V0200801N003112200019N0200001N1+04101+00781100921ADDGA1021+010509029GF102991021011012501001001MA1999999091101MD1710091+9999REMSYN076AAXX  30154 17202 42670 20806 10410 20078 39110 40092 57009 82100 333 82835;
0196172020999992000073018004+38590+039280FM-12+0882LTCA V0203101N003112200019N0200001N1+03201+00721100681ADDAA199000091GA1001+999999999GF100991001001999999001001KA1999M+04261MA1999999091041MD1610061+9999REMSYN070AAXX  30184 17202 32970 03106 10320 20072 39104 40068 56006 333 10426;EQDQ01  00002PRCP99
0143172020999992000073021004+38590+039280FM-12+0882LTCA V0203001N004112200019N0200001N1+02801+00681100751ADDGA1001+999999999GF100991001001999999001001MA1999999091121MD1110081+9999REMSYN060AAXX  30214 17202 42970 03008 10280 20068 39112 40075 51008;
0173172020999992000073100004+38590+039280FM-12+0882LTCA V0203101N001512200019N0200001N1+02321+00231100731ADDAA199000091GA1001+999999999GF100991001001999999001001MA1999999091101MD1810021+9999REMSYN060AAXX  31004 17202 32970 03103 10232 20023 39110 40073 58002;EQDQ01  00002PRCP99
0143172020999992000073103004+38590+039280FM-12+0882LTCA V0203001N002612200019N0200001N1+02041+00381100761ADDGA1001+999999999GF100991001001999999001001MA1999999091121MD1310021+9999REMSYN060AAXX  31034 17202 42970 03005 10204 20038 39112 40076 53002;
0232172020999992000073106004+38590+039280FM-12+0882LTCA V0201001N002112200019N0200001N1+02981+00671100821ADDAA199000091GA1031+060009019GF103991001001999999001011IA1019IA2999+01809KA1120N+02001MA1999999091171MD1110051+9999REMSYN088AAXX  31064 17202 32970 31004 10298 20067 39117 40082 51005 80001 333 20200 30018 83070;EQDQ01  00002PRCP99
0159172020999992000073109004+38590+039280FM-12+0882LTCA V0200801N003612200019N0200001N1+03721+00781100681ADDGA1021+010509029GF102991021011012501001001MA1999999091071MD1810101+9999REMSYN076AAXX  31094 17202 42670 20807 10372 20078 39107 40068 58010 82100 333 82835;
0189172020999992000073112004+38590+039280FM-12+0882LTCA V0201401N004112200019N0200001N1+04181+00931100591ADDAA199000091GA1021+010509029GF102991021011012501001001MA1999999090991MD1610081+9999REMSYN076AAXX  31124 17202 32670 21408 10418 20093 39099 40059 56008 82100 333 82835;EQDQ01  00002PRCP99
0159172020999992000073115004+38590+039280FM-12+0882LTCA V0200801N003612200019N0200001N1+03901+00671100501ADDGA1021+010509029GF102991021011012501001001MA1999999090871MD1510121+9999REMSYN076AAXX  31154 17202 42670 20807 10390 20067 39087 40050 55012 82100 333 82835;
0196172020999992000073118004+38590+039280FM-12+0882LTCA V0202801N002612200019N0200001N1+02981+00671100491ADDAA199000091GA1001+999999999GF100991001001999999001001KA1999M+04301MA1999999090861MD1510011+9999REMSYN070AAXX  31184 17202 32970 02805 10298 20067 39086 40049 55001 333 10430;EQDQ01  00002PRCP99
0143172020999992000073121004+38590+039280FM-12+0882LTCA V0209999C000012200019N0200001N1+02641+00601100601ADDGA1001+999999999GF100991001001999999001001MA1999999090981MD1210121+9999REMSYN060AAXX  31214 17202 42970 00000 10264 20060 39098 40060 52012;
0173172020999992000080100004+38590+039280FM-12+0882LTCA V0202901N003612200019N0200001N1+02241+00521100581ADDAA199000091GA1001+999999999GF100991001001999999001001MA1999999090971MD1810011+9999REMSYN060AAXX  01004 17202 32970 02907 10224 20052 39097 40058 58001;EQDQ01  00002PRCP99
0143172020999992000080103004+38590+039280FM-12+0882LTCA V0202601N001512200019N0200001N1+01861+00441100651ADDGA1001+999999999GF100991001001999999001001MA1999999090991MD1310021+9999REMSYN060AAXX  01034 17202 42970 02603 10186 20044 39099 40065 53002;
0220172020999992000080106004+38590+039280FM-12+0882LTCA V0200901N002612200019N0200001N1+02861+00921100661ADDAA199000091GA1001+999999999GF100991001001999999001001IA1019IA2999+01709KA1120N+01821MA1999999091001MD1110011+9999REMSYN076AAXX  01064 17202 32970 00905 10286 20092 39100 40066 51001 333 20182 30017;EQDQ01  00002PRCP99
0143172020999992000080109004+38590+039280FM-12+0882LTCA V0200901N004112200019N0200001N1+03601+00921100471ADDGA1001+999999999GF100991001001999999001001MA1999999090851MD1710151+9999REMSYN060AAXX  01094 17202 42970 00908 10360 20092 39085 40047 57015;
0173172020999992000080112004+38590+039280FM-12+0882LTCA V0202101N006212200019N0200001N1+04101+01081100241ADDAA199000091GA1001+999999999GF100991001001999999001001MA1999999090661MD1710191+9999REMSYN060AAXX  01124 17202 32970 02112 10410 20108 39066 40024 57019;EQDQ01  00002PRCP99
0159172020999992000080115004+38590+039280FM-12+0882LTCA V0201901N005112200019N0200001N1+03801+01001100191ADDGA1021+010509029GF102991021011012501001001MA1999999090561MD1710101+9999REMSYN076AAXX  01154 17202 42670 21910 10380 20100 39056 40019 57010 82100 333 82835;
0196172020999992000080118004+38590+039280FM-12+0882LTCA V0202701N003612200019N0200001N1+02981+00861100221ADDAA199000091GA1001+999999999GF100991001001999999001001KA1999M+04221MA1999999090601MD1310041+9999REMSYN070AAXX  01184 17202 32970 02707 10298 20086 39060 40022 53004 333 10422;EQDQ01  00002PRCP99
0143172020999992000080121004+38590+039280FM-12+0882LTCA V0202701N003612200019N0200001N1+02501+00681100271ADDGA1001+999999999GF100991001001999999001001MA1999999090661MD1210061+9999REMSYN060AAXX  01214 17202 42970 02707 10250 20068 39066 40027 52006;
0173172020999992000080200004+38590+039280FM-12+0882LTCA V0203001N004112200019N0200001N1+02181+00481100201ADDAA199000091GA1001+999999999GF100991001001999999001001MA1999999090611MD1810051+9999REMSYN060AAXX  02004 17202 32970 03008 10218 20048 39061 40020 58005;EQDQ01  00002PRCP99
0143172020999992000080203004+38590+039280FM-12+0882LTCA V0202701N002612200019N0200001N1+02041+00601100231ADDGA1001+999999999GF100991001001999999001001MA1999999090611MD1410001+9999REMSYN060AAXX  02034 17202 42970 02705 10204 20060 39061 40023 54000;
0220172020999992000080206004+38590+039280FM-12+0882LTCA V0202301N004112200019N0200001N1+02801+00581100331ADDAA199000091GA1001+999999999GF100991001001999999001001IA1019IA2999+01809KA1120N+01981MA1999999090701MD1110091+9999REMSYN076AAXX  02064 17202 32970 02308 10280 20058 39070 40033 51009 333 20198 30018;EQDQ01  00002PRCP99
0143172020999992000080209004+38590+039280FM-12+0882LTCA V0201501N003112200019N0200001N1+03281+00641100221ADDGA1001+999999999GF100991001001999999001001MA1999999090601MD1810101+9999REMSYN060AAXX  02094 17202 42970 01506 10328 20064 39060 40022 58010;
0189172020999992000080212004+38590+039280FM-12+0882LTCA V0201801N004112200019N0200001N1+03761+00701100051ADDAA199000091GA1011+010509029GF101991011011012501001001MA1999999090461MD1710141+9999REMSYN076AAXX  02124 17202 32670 11808 10376 20070 39046 40005 57014 81100 333 81835;EQDQ01  00002PRCP99
0143172020999992000080215004+38590+039280FM-12+0882LTCA V0202501N006212200019N0200001N1+03381+00581100121ADDGA1001+999999999GF100991001001999999001001MA1999999090481MD1310021+9999REMSYN060AAXX  02154 17202 42970 02512 10338 20058 39048 40012 53002;
0196172020999992000080218004+38590+039280FM-12+0882LTCA V0202801N006712200019N0200001N1+02641+00281100421ADDAA199000091GA1001+999999999GF100991001001999999001001KA1999M+03781MA1999999090751MD1210271+9999REMSYN070AAXX  02184 17202 32970 02813 10264 20028 39075 40042 52027 333 10378;EQDQ01  00002PRCP99
0143172020999992000080221004+38590+039280FM-12+0882LTCA V0202701N006712200019N0200001N1+02201+00361100651ADDGA1001+999999999GF100991001001999999001001MA1999999090961MD1210211+9999REMSYN060AAXX  02214 17202 42970 02713 10220 20036 39096 40065 52021;
0173172020999992000080300004+38590+039280FM-12+0882LTCA V0202301N004612200019N0200001N1+01801+00261100681ADDAA199000091GA1001+999999999GF100991001001999999001001MA1999999091001MD1110041+9999REMSYN060AAXX  03004 17202 32970 02309 10180 20026 39100 40068 51004;EQDQ01  00002PRCP99
0143172020999992000080303004+38590+039280FM-12+0882LTCA V0202101N003612200019N0200001N1+01801+00741100731ADDGA1001+999999999GF100991001001999999001001MA1999999091021MD1310021+9999REMSYN060AAXX  03034 17202 42970 02107 10180 20074 39102 40073 53002;
0220172020999992000080306004+38590+039280FM-12+0882LTCA V0203001N008212200019N0200001N1+02261+00741100851ADDAA199000091GA1001+999999999GF100991001001999999001001IA1019IA2999+01609KA1120N+01701MA1999999091101MD1110081+9999REMSYN076AAXX  03064 17202 32970 03016 10226 20074 39110 40085 51008 333 20170 30016;EQDQ01  00002PRCP99
0159172020999992000080309004+38590+039280FM-12+0882LTCA V0203001N003112200019N0200001N1+02721+00991100731ADDGA1011+010509029GF101991011011012501001001MA1999999091001MD1710101+9999REMSYN076AAXX  03094 17202 42670 13006 10272 20099 39100 40073 57010 81100 333 81835;
0189172020999992000080312004+38590+039280FM-12+0882LTCA V0202901N005712200019N0200001N1+03041+01081100581ADDAA199000091GA1021+010509029GF102991021011012501001001MA1999999090851MD1710151+9999REMSYN076AAXX  03124 17202 32670 22911 10304 20108 39085 40058 57015 82100 333 82835;EQDQ01  00002PRCP99
0143172020999992000080315004+38590+039280FM-12+0882LTCA V0202801N009812200019N0200001N1+02961+00941100491ADDGA1001+999999999GF100991001001999999001001MA1999999090771MD1710081+9999REMSYN060AAXX  03154 17202 42970 02819 10296 20094 39077 40049 57008;
0168172020999992000080318004+38590+039280FM-12+0882LTCA V0202901N007712200019N0200001N1+02501+00821999999ADDAA199000091GA1001+999999999GF100991001001999999001001MA1999999090901REMSYN069AAXX  03184 17202 32970 02915 10250 20082 39090 4063 53013 333 10320;EQDQ01  00002PRCP99
0143172020999992000080321004+38590+039280FM-12+0882LTCA V0203101N005712200019N0200001N1+02141+00761100891ADDGA1001+999999999GF100991001001999999001001MA1999999091001MD1210101+9999REMSYN060AAXX  03214 17202 42970 03111 10214 20076 39100 40089 52010;
0173172020999992000080400004+38590+039280FM-12+0882LTCA V0202901N004112200019N0200001N1+01941+00701100741ADDAA199000091GA1001+999999999GF100991001001999999001001MA1999999091001MD1410001+9999REMSYN060AAXX  04004 17202 32970 02908 10194 20070 39100 40074 54000;EQDQ01  00002PRCP99
0143172020999992000080403004+38590+039280FM-12+0882LTCA V0202201N003112200019N0200001N1+01681+00601100761ADDGA1001+999999999GF100991001001999999001001MA1999999091001MD1510001+9999REMSYN060AAXX  04034 17202 42970 02206 10168 20060 39100 40076 55000;
0232172020999992000080406004+38590+039280FM-12+0882LTCA V0202501N002612200019N0200001N1+02361+00921100791ADDAA199000091GA1031+030009079GF103991031001999999031001IA1019IA2999+01509KA1120N+01641MA1999999091041MD1110041+9999REMSYN088AAXX  04064 17202 32970 32505 10236 20092 39104 40079 51004 83030 333 20164 30015 83360;EQDQ01  00002PRCP99
0159172020999992000080409004+38590+039280FM-12+0882LTCA V0201801N004112200019N0200001N1+03041+01081100641ADDGA1021+010509029GF102991021011012501001001MA1999999090941MD1810101+9999REMSYN076AAXX  04094 17202 42670 21808 10304 20108 39094 40064 58010 82100 333 82835;
0189172020999992000080412004+38590+039280FM-12+0882LTCA V0203201N003612200019N0200001N1+03341+01101100491ADDAA199000091GA1021+010509029GF102991021011012501001001MA1999999090801MD1710141+9999REMSYN076AAXX  04124 17202 32670 23207 10334 20110 39080 40049 57014 82100 333 82835;EQDQ01  00002PRCP99
0159172020999992000080415004+38590+039280FM-12+0882LTCA V0203001N008212200019N0200001N1+03041+01081100411ADDGA1031+010509029GF103991031021012501001001MA1999999090701MD1610101+9999REMSYN076AAXX  04154 17202 42670 33016 10304 20108 39070 40041 56010 83200 333 83835;
0196172020999992000080418004+38590+039280FM-12+0882LTCA V0203101N005712200019N0200001N1+02601+00971100501ADDAA199000091GA1001+999999999GF100991001001999999001001KA1999M+03381MA1999999090801MD1310101+9999REMSYN070AAXX  04184 17202 32970 03111 10260 20097 39080 40050 53010 333 10338;EQDQ01  00002PRCP99
0143172020999992000080421004+38590+039280FM-12+0882LTCA V0203001N006212200019N0200001N1+02401+00901100581ADDGA1001+999999999GF100991001001999999001001MA1999999090901MD1110101+9999REMSYN060AAXX  04214 17202 42970 03012 10240 20090 39090 40058 51010;
0173172020999992000080500004+38590+039280FM-12+0882LTCA V0203101N005712200019N0200001N1+02101+00741100581ADDAA199000091GA1001+999999999GF100991001001999999001001MA1999999090901MD1410001+9999REMSYN060AAXX  05004 17202 32970 03111 10210 20074 39090 40058 54000;EQDQ01  00002PRCP99
0159172020999992000080503004+38590+039280FM-12+0882LTCA V0202401N002112200019N0200001N1+01881+00701100661ADDGA1031+030009079GF103991031001999999031001MA1999999090941MD1310041+9999REMSYN076AAXX  05034 17202 42970 32404 10188 20070 39094 40066 53004 83030 333 83360;
0238172020999992000080506004+38590+039280FM-12+0882LTCA V0202901N003112200019N0200001N1+02481+00861100731ADDAA199000091GA1011+010509089GF103991011011012501001011IA1019IA2999+01709KA1120N+01861MA1999999091001MD1110061+9999REMSYN094AAXX  05064 17202 32670 32906 10248 20086 39100 40073 51006 81101 333 20186 30017 81835 83070;EQDQ01  00002PRCP99
0159172020999992000080509004+38590+039280FM-12+0882LTCA V0201601N002112200019N0200001N1+02981+01111100691ADDGA1031+010509029GF103991031011012501001001MA1999999091001MD1410001+9999REMSYN076AAXX  05094 17202 42670 31604 10298 20111 39100 40069 54000 83100 333 83835;
0189172020999992000080512004+38590+039280FM-12+0882LTCA V0202001N001512200019N0200001N1+03281+01131100561ADDAA199000091GA1021+010509029GF102991021011012501001001MA1999999090881MD1810121+9999REMSYN076AAXX  05124 17202 32670 22003 10328 20113 39088 40056 58012 82100 333 82835;EQDQ01  00002PRCP99
0193172020999992000080515004+38590+039280FM-12+0882LTCA V0200401N00621007501CN0150001N1+02621+00941100741ADDAY191031AY211031GA1011+007509099GF105991051091008001001001MA1999999090981MD1310101+9999MW1291REMSYN088AAXX  05154 17202 41565 50412 10262 20094 39098 40074 53010 72991 85900 333 81925 84835;
0223172020999992000080518004+38590+039280FM-12+0882LTCA V0202901N002112200019N0200001N1+02281+01021100761ADDAA112001091AY191061AY211061GA1041+010509029GF104991041021012501001001KA1120M+03441MA1999999091021MD1210041+9999MW1021REMSYN094AAXX  05184 17202 11670 42904 10228 20102 39102 40076 52004 60012 70291 84200 333 10344 84835;
0143172020999992000080521004+38590+039280FM-12+0882LTCA V0202901N002112200019N0200001N1+02041+01221100881ADDGA1001+999999999GF100991001001999999001001MA1999999091141MD1210121+9999REMSYN060AAXX  05214 17202 42970 02904 10204 20122 39114 40088 52012;
0173172020999992000080600004+38590+039280FM-12+0882LTCA V0203101N003112200019N0200001N1+01841+01101100861ADDAA199000091GA1001+999999999GF100991001001999999001001MA1999999091141MD1410001+9999REMSYN060AAXX  06004 17202 32970 03106 10184 20110 39114 40086 54000;EQDQ01  00002PRCP99
0143172020999992000080603004+38590+039280FM-12+0882LTCA V0202701N002112200019N0200001N1+01621+01001100821ADDGA1001+999999999GF100991001001999999001001MA1999999091101MD1810041+9999REMSYN060AAXX  06034 17202 42970 02704 10162 20100 39110 40082 58004;
0207172020999992000080606004+38590+039280FM-12+0882LTCA V0202001N001012200019N0200001N1+02401+01641100961ADDAA124001091GA1001+999999999GF100991001001999999001001IA1019IA2999+01409KA1120N+01561MA1999999091181MD1110081+9999REMSYN082AAXX  06064 17202 32970 02002 10240 20164 39118 40096 51008 333 20156 30014 70010;
0143172020999992000080609004+38590+039280FM-12+0882LTCA V0201801N002612200019N0200001N1+03001+01671100901ADDGA1001+999999999GF100991001001999999001001MA1999999091161MD1810021+9999REMSYN060AAXX  06094 17202 42970 01805 10300 20167 39116 40090 58002;
0189172020999992000080612004+38590+039280FM-12+0882LTCA V0201001N002112200019N0200001N1+03301+01301100731ADDAA199000091GA1031+010509029GF103991031011012501001001MA1999999091021MD1710141+9999REMSYN076AAXX  06124 17202 32670 31004 10330 20130 39102 40073 57014 83100 333 83835;EQDQ01  00002PRCP99
0143172020999992000080615004+38590+039280FM-12+0882LTCA V0200901N002612200019N0200001N1+03321+01121100611ADDGA1001+999999999GF100991001001999999001001MA1999999090901MD1710121+9999REMSYN060AAXX  06154 17202 42970 00905 10332 20112 39090 40061 57012;
0196172020999992000080618004+38590+039280FM-12+0882LTCA V0203201N002112200019N0200001N1+02641+00801100671ADDAA199000091GA1001+999999999GF100991001001999999001001KA1999M+03441MA1999999090951MD1310051+9999REMSYN070AAXX  06184 17202 32970 03204 10264 20080 39095 40067 53005 333 10344;EQDQ01  00002PRCP99
0143172020999992000080621004+38590+039280FM-12+0882LTCA V0202501N001512200019N0200001N1+02281+00481100721ADDGA1001+999999999GF100991001001999999001001MA1999999091011MD1210061+9999REMSYN060AAXX  06214 17202 42970 02503 10228 20048 39101 40072 52006;
0173172020999992000080700004+38590+039280FM-12+0882LTCA V0202401N001512200019N0200001N1+02041+00501100701ADDAA199000091GA1001+999999999GF100991001001999999001001MA1999999091011MD1410001+9999REMSYN060AAXX  07004 17202 32970 02403 10204 20050 39101 40070 54000;EQDQ01  00002PRCP99
0143172020999992000080703004+38590+039280FM-12+0882LTCA V0202901N002112200019N0200001N1+01701+00381100841ADDGA1001+999999999GF100991001001999999001001MA1999999091101MD1210091+9999REMSYN060AAXX  07034 17202 42970 02904 10170 20038 39110 40084 52009;
0220172020999992000080706004+38590+039280FM-12+0882LTCA V0200901N001512200019N0200001N1+02781+01061100891ADDAA199000091GA1001+999999999GF100991001001999999001001IA1019IA2999+01509KA1120N+01661MA1999999091181MD1110081+9999REMSYN076AAXX  07064 17202 32970 00903 10278 20106 39118 40089 51008 333 20166 30015;EQDQ01  00002PRCP99
0159172020999992000080709004+38590+039280FM-12+0882LTCA V0201001N001512200019N0200001N1+03281+01301100851ADDGA1021+010509029GF102991021011012501001001MA1999999091161MD1810021+9999REMSYN076AAXX  07094 17202 42670 21003 10328 20130 39116 40085 58002 82100 333 82835;
0189172020999992000080712004+38590+039280FM-12+0882LTCA V0203001N004112200019N0200001N1+03661+01181100681ADDAA199000091GA1031+010509029GF103991031011012501001001MA1999999091001MD1710161+9999REMSYN076AAXX  07124 17202 32670 33008 10366 20118 39100 40068 57016 83100 333 83835;EQDQ01  00002PRCP99
0143172020999992000080715004+38590+039280FM-12+0882LTCA V0203201N003612200019N0200001N1+03361+01181100601ADDGA1001+999999999GF100991001001999999001001MA1999999090921MD1710081+9999REMSYN060AAXX  07154 17202 42970 03207 10336 20118 39092 40060 57008;
0196172020999992000080718004+38590+039280FM-12+0882LTCA V0202801N003112200019N0200001N1+02741+00781100591ADDAA199000091GA1001+999999999GF100991001001999999001001KA1999M+03721MA1999999090931MD1310011+9999REMSYN070AAXX  07184 17202 32970 02806 10274 20078 39093 40059 53001 333 10372;EQDQ01  00002PRCP99
0143172020999992000080721004+38590+039280FM-12+0882LTCA V0202901N003112200019N0200001N1+02281+00481100781ADDGA1001+999999999GF100991001001999999001001MA1999999091101MD1110071+9999REMSYN060AAXX  07214 17202 42970 02906 10228 20048 39110 40078 51007;
0173172020999992000080800004+38590+039280FM-12+0882LTCA V0203301N002112200019N0200001N1+02061+00321100781ADDAA199000091GA1001+999999999GF100991001001999999001001MA1999999091171MD1210071+9999REMSYN060AAXX  08004 17202 32970 03304 10206 20032 39117 40078 52007;EQDQ01  00002PRCP99
0143172020999992000080803004+38590+039280FM-12+0882LTCA V0203101N002112200019N0200001N1+01761+00441100871ADDGA1001+999999999GF100991001001999999001001MA1999999091161MD1510011+9999REMSYN060AAXX  08034 17202 42970 03104 10176 20044 39116 40087 55001;
0219172020999992000080806004+38590+039280FM-12+0882LTCA V0200801N002612200019N0200001N1+02821+00921100941ADDAA199000091GA1001+999999999GF100991001001999999001001IA1019IA2999+01409KA1120N+01721MA1999999091241MD1110081+9999REMSYN075AAXX  08064 17202 3297000805 10282 20092 39124 40094 51008 333 20172 30014;EQDQ01  00002PRCP99
0159172020999992000080809004+38590+039280FM-12+0882LTCA V0200701N002112200019N0200001N1+03461+01321100901ADDGA1021+010509029GF102991021011012501001001MA1999999091221MD1810021+9999REMSYN076AAXX  08094 17202 42670 20704 10346 20132 39122 40090 58002 82100 333 82835;
0189172020999992000080812004+38590+039280FM-12+0882LTCA V0203101N001512200019N0200001N1+03861+01341100741ADDAA199000091GA1021+010509029GF102991021011012501001001MA1999999091081MD1710141+9999REMSYN076AAXX  08124 17202 32670 23103 10386 20134 39108 40074 57014 82100 333 82835;EQDQ01  00002PRCP99
0127172020999992000080815004+38590+039280FM-12+0882LTCA V0200801N003112200019N0200001N1+03661+01181100651ADDGF101991999999012501999999MA1999999090961MD1710121+9999REMSYN060AAXX  08154 17202 42670 10806 10366 20118 39096 40065 57012;
0196172020999992000080818004+38590+039280FM-12+0882LTCA V0203001N002612200019N0200001N1+02781+00961100671ADDAA199000091GA1001+999999999GF100991001001999999001001KA1999M+03921MA1999999090991MD1310031+9999REMSYN070AAXX  08184 17202 32970 03005 10278 20096 39099 40067 53003 333 10392;EQDQ01  00002PRCP99
0143172020999992000080821004+38590+039280FM-12+0882LTCA V0202901N003112200019N0200001N1+02501+00821100691ADDGA1001+999999999GF100991001001999999001001MA1999999091041MD1210051+9999REMSYN060AAXX  08214 17202 42970 02906 10250 20082 39104 40069 52005;
0173172020999992000080900004+38590+039280FM-12+0882LTCA V0202601N002612200019N0200001N1+02201+00631100721ADDAA199000091GA1001+999999999GF100991001001999999001001MA1999999091071MD1110031+9999REMSYN060AAXX  09004 17202 32970 02605 10220 20063 39107 40072 51003;EQDQ01  00002PRCP99
0143172020999992000080903004+38590+039280FM-12+0882LTCA V0202701N002112200019N0200001N1+01901+00571100811ADDGA1001+999999999GF100991001001999999001001MA1999999091121MD1210051+9999REMSYN060AAXX  09034 17202 42970 02704 10190 20057 39112 40081 52005;
0220172020999992000080906004+38590+039280FM-12+0882LTCA V0200301N002612200019N0200001N1+02801+01121100911ADDAA199000091GA1001+999999999GF100991001001999999001001IA1019IA2999+01709KA1120N+01821MA1999999091211MD1210091+9999REMSYN076AAXX  09064 17202 32970 00305 10280 20112 39121 40091 52009 333 20182 30017;EQDQ01  00002PRCP99
0143172020999992000080909004+38590+039280FM-12+0882LTCA V0209999C000012200019N0200001N1+03421+01301100811ADDGA1001+999999999GF100991001001999999001001MA1999999091151MD1810061+9999REMSYN060AAXX  09094 17202 42970 00000 10342 20130 39115 40081 58006;
0189172020999992000080912004+38590+039280FM-12+0882LTCA V0201101N003112200019N0200001N1+03841+01081100591ADDAA199000091GA1021+010509029GF102991021011012501001001MA1999999090951MD1710201+9999REMSYN076AAXX  09124 17202 32670 21106 10384 20108 39095 40059 57020 82100 333 82835;EQDQ01  00002PRCP99
0159172020999992000080915004+38590+039280FM-12+0882LTCA V0201001N002112200019N0200001N1+03801+01021100501ADDGA1021+010509029GF102991021011012501001001MA1999999090851MD1710101+9999REMSYN076AAXX  09154 17202 42670 21004 10380 20102 39085 40050 57010 82100 333 82835;
0196172020999992000080918004+38590+039280FM-12+0882LTCA V0203101N002112200019N0200001N1+02821+01021100541ADDAA199000091GA1001+999999999GF100991001001999999001001KA1999M+03901MA1999999090881MD1310031+9999REMSYN070AAXX  09184 17202 32970 03104 10282 20102 39088 40054 53003 333 10390;EQDQ01  00002PRCP99
0173172020999992000081000004+38590+039280FM-12+0882LTCA V0209999C000012200019N0200001N1+02301+00521100521ADDAA199000091GA1001+999999999GF100991001001999999001001MA1999999090901MD1410001+9999REMSYN060AAXX  10004 17202 32970 00000 10230 20052 39090 40052 54000;EQDQ01  00002PRCP99
0159172020999992000081003004+38590+039280FM-12+0882LTCA V0202701N002112200019N0200001N1+02141+00531100551ADDGA1031+030009079GF103991031001999999031001MA1999999090911MD1310011+9999REMSYN076AAXX  10034 17202 42970 32704 10214 20053 39091 40055 53001 83030 333 83360;
0232172020999992000081006004+38590+039280FM-12+0882LTCA V0209999C000012200019N0200001N1+02801+01121100661ADDAA199000091GA1031+030009079GF103991031001999999031001IA1019IA2999+01809KA1120N+02041MA1999999090981MD1110071+9999REMSYN088AAXX  10064 17202 32970 30000 10280 20112 39098 40066 51007 83030 333 20204 30018 83360;EQDQ01  00002PRCP99
0189172020999992000081012004+38590+039280FM-12+0882LTCA V0201001N002112200019N0200001N1+03901+01581100371ADDAA199000091GA1021+010509029GF102991021011012501001001MA1999999090761MD1710181+9999REMSYN076AAXX  10124 17202 32670 21004 10390 20158 39076 40037 57018 82100 333 82835;EQDQ01  00002PRCP99
0159172020999992000081015004+38590+039280FM-12+0882LTCA V0200501N001512200019N0200001N1+03801+02101100231ADDGA1031+010509029GF103991031011012501001001MA1999999090621MD1710141+9999REMSYN076AAXX  10154 17202 42670 30503 10380 20210 39062 40023 57014 83100 333 83835;
0196172020999992000081018004+38590+039280FM-12+0882LTCA V0203001N001512200019N0200001N1+03141+00781100241ADDAA199000091GA1001+999999999GF100991001001999999001001KA1999M+03941MA1999999090631MD1510011+9999REMSYN070AAXX  10184 17202 32970 03003 10314 20078 39063 40024 55001 333 10394;EQDQ01  00002PRCP99
0143172020999992000081021004+38590+039280FM-12+0882LTCA V0202701N001512200019N0200001N1+02601+00501100301ADDGA1001+999999999GF100991001001999999001001MA1999999090691MD1210061+9999REMSYN060AAXX  10214 17202 42970 02703 10260 20050 39069 40030 52006;
0173172020999992000081100004+38590+039280FM-12+0882LTCA V0203001N002112200019N0200001N1+02501+00331100281ADDAA199000091GA1001+999999999GF100991001001999999001001MA1999999090691MD1410001+9999REMSYN060AAXX  11004 17202 32970 03004 10250 20033 39069 40028 54000;EQDQ01  00002PRCP99
0143172020999992000081103004+38590+039280FM-12+0882LTCA V0202501N002112200019N0200001N1+02101+00461100371ADDGA1001+999999999GF100991001001999999001001MA1999999090751MD1210061+9999REMSYN060AAXX  11034 17202 42970 02504 10210 20046 39075 40037 52006;
0232172020999992000081106004+38590+039280FM-12+0882LTCA V0209999C000012200019N0200001N1+03041+01121100441ADDAA199000091GA1021+010509029GF102991021011012501001001IA1019IA2999+01909KA1120N+02081MA1999999090831MD1210081+9999REMSYN088AAXX  11064 17202 32670 20000 10304 20112 39083 40044 52008 82100 333 20208 30019 82835;EQDQ01  00002PRCP99
0159172020999992000081109004+38590+039280FM-12+0882LTCA V0200701N001512200019N0200001N1+03601+01141100411ADDGA1021+010509029GF102991021011012501001001MA1999999090801MD1810031+9999REMSYN076AAXX  11094 17202 42670 20703 10360 20114 39080 40041 58003 82100 333 82835;
0189172020999992000081112004+38590+039280FM-12+0882LTCA V0200801N003612200019N0200001N1+03881+00941100201ADDAA199000091GA1031+010509029GF103991031011012501001001MA1999999090621MD1710181+9999REMSYN076AAXX  11124 17202 32670 30807 10388 20094 39062 40020 57018 83100 333 83835;EQDQ01  00002PRCP99
0159172020999992000081115004+38590+039280FM-12+0882LTCA V0209999C000012200019N0200001N1+03881+00941100091ADDGA1031+010509029GF103991031011012501001001MA1999999090501MD1710121+9999REMSYN076AAXX  11154 17202 42670 30000 10388 20094 39050 40009 57012 83100 333 83835;
0196172020999992000081118004+38590+039280FM-12+0882LTCA V0202901N001512200019N0200001N1+02921+00741100131ADDAA199000091GA1001+999999999GF100991001001999999001001KA1999M+03981MA1999999090531MD1310031+9999REMSYN070AAXX  11184 17202 32970 02903 10292 20074 39053 40013 53003 333 10398;EQDQ01  00002PRCP99
0143172020999992000081121004+38590+039280FM-12+0882LTCA V0209999C000012200019N0200001N1+02501+00681100191ADDGA1001+999999999GF100991001001999999001001MA1999999090601MD1110071+9999REMSYN060AAXX  11214 17202 42970 00000 10250 20068 39060 40019 51007;
0173172020999992000081200004+38590+039280FM-12+0882LTCA V0209999C000012200019N0200001N1+02241+00681100231ADDAA199000091GA1001+999999999GF100991001001999999001001MA1999999090641MD1110041+9999REMSYN060AAXX  12004 17202 32970 00000 10224 20068 39064 40023 51004;EQDQ01  00002PRCP99
0143172020999992000081203004+38590+039280FM-12+0882LTCA V0202801N002612200019N0200001N1+02041+00301100331ADDGA1001+999999999GF100991001001999999001001MA1999999090701MD1310061+9999REMSYN060AAXX  12034 17202 42970 02805 10204 20030 39070 40033 53006;
0236172020999992000081206004+38590+039280FM-12+0882LTCA V0201801N001512200019N0200001N1+03041+01121100431ADDAA199000091GA1001+999999999GF100991001001999999001001IA1019IA2999+01709KA1120M+99999MA1999999090801MD1210101+9999REMSYN076AAXX  12064 17202 32970 01803 10304 20112 39080 40043 52010 333 10196 30017;EQDQ01  00002PRCP99Q02 +01962ATMX  
0143172020999992000081209004+38590+039280FM-12+0882LTCA V0201301N002612200019N0200001N1+03761+01041100401ADDGA1001+999999999GF100991001001999999001001MA1999999090791MD1610011+9999REMSYN060AAXX  12094 17202 42970 01305 10376 20104 39079 40040 56001;
0189172020999992000081212004+38590+039280FM-12+0882LTCA V0200901N002112200019N0200001N1+03901+01081100191ADDAA199000091GA1021+010509029GF102991021011012501001001MA1999999090601MD1710191+9999REMSYN076AAXX  12124 17202 32670 20904 10390 20108 39060 40019 57019 82100 333 82835;EQDQ01  00002PRCP99
0143172020999992000081215004+38590+039280FM-12+0882LTCA V0200801N002612200019N0200001N1+03901+01081100091ADDGA1001+999999999GF100991001001999999001001MA1999999090501MD1710101+9999REMSYN060AAXX  12154 17202 42970 00805 10390 20108 39050 40009 57010;
0143172020999992000081221004+38590+039280FM-12+0882LTCA V0202701N003112200019N0200001N1+02601+00781100211ADDGA1001+999999999GF100991001001999999001001MA1999999090631MD1710071+9999REMSYN060AAXX  12214 17202 42970 02706 10260 20078 39063 40021 57007;
0173172020999992000081300004+38590+039280FM-12+0882LTCA V0203101N001512200019N0200001N1+02341+00721100231ADDAA199000091GA1001+999999999GF100991001001999999001001MA1999999090641MD1110011+9999REMSYN060AAXX  13004 17202 32970 03103 10234 20072 39064 40023 51001;EQDQ01  00002PRCP99
0143172020999992000081303004+38590+039280FM-12+0882LTCA V0203301N003112200019N0200001N1+02041+00601100321ADDGA1001+999999999GF100991001001999999001001MA1999999090701MD1310061+9999REMSYN060AAXX  13034 17202 42970 03306 10204 20060 39070 40032 53006;
0220172020999992000081306004+38590+039280FM-12+0882LTCA V0200801N001512200019N0200001N1+03021+01141100421ADDAA199000091GA1001+999999999GF100991001001999999001001IA1019IA2999+01809KA1120N+02001MA1999999090811MD1210111+9999REMSYN076AAXX  13064 17202 32970 00803 10302 20114 39081 40042 52011 333 20200 30018;EQDQ01  00002PRCP99
0143172020999992000081309004+38590+039280FM-12+0882LTCA V0200801N003612200019N0200001N1+03701+01301100401ADDGA1001+999999999GF100991001001999999001001MA1999999090801MD1810011+9999REMSYN060AAXX  13094 17202 42970 00807 10370 20130 39080 40040 58001;
0173172020999992000081312004+38590+039280FM-12+0882LTCA V0202001N005112200019N0200001N1+03981+00891100301ADDAA199000091GA1001+999999999GF100991001001999999001001MA1999999090721MD1810081+9999REMSYN060AAXX  13124 17202 32970 02010 10398 20089 39072 40030 58008;EQDQ01  00002PRCP99
0143172020999992000081315004+38590+039280FM-12+0882LTCA V0202101N005112200019N0200001N1+03601+00921100351ADDGA1001+999999999GF100991001001999999001001MA1999999090701MD1610021+9999REMSYN060AAXX  13154 17202 42970 02110 10360 20092 39070 40035 56002;
0196172020999992000081318004+38590+039280FM-12+0882LTCA V0209999C000012200019N0200001N1+03001+00881100401ADDAA199000091GA1001+999999999GF100991001001999999001001KA1999M+04001MA1999999090781MD1310081+9999REMSYN070AAXX  13184 17202 32970 00000 10300 20088 39078 40040 53008 333 10400;EQDQ01  00002PRCP99
0143172020999992000081321004+38590+039280FM-12+0882LTCA V0209999C000012200019N0200001N1+02481+00781100501ADDGA1001+999999999GF100991001001999999001001MA1999999090881MD1210101+9999REMSYN060AAXX  13214 17202 42970 00000 10248 20078 39088 40050 52010;
0143172020999992000081403004+38590+039280FM-12+0882LTCA V0202701N002612200019N0200001N1+01821+00761100671ADDGA1001+999999999GF100991001001999999001001MA1999999090981MD1210081+9999REMSYN060AAXX  14034 17202 42970 02705 10182 20076 39098 40067 52008;
0220172020999992000081406004+38590+039280FM-12+0882LTCA V0200601N002112200019N0200001N1+02701+00661100751ADDAA199000091GA1001+999999999GF100991001001999999001001IA1019IA2999+01609KA1120N+01761MA1999999091071MD1210091+9999REMSYN076AAXX  14064 17202 32970 00604 10270 20066 39107 40075 52009 333 20176 30016;EQDQ01  00002PRCP99
0143172020999992000081409004+38590+039280FM-12+0882LTCA V0209999C000012200019N0200001N1+03401+00841100771ADDGA1001+999999999GF100991001001999999001001MA1999999091101MD1110031+9999REMSYN060AAXX  14094 17202 42970 00000 10340 20084 39110 40077 51003;
0173172020999992000081412004+38590+039280FM-12+0882LTCA V0203001N002112200019N0200001N1+03701+01081100621ADDAA199000091GA1001+999999999GF100991001001999999001001MA1999999090981MD1710121+9999REMSYN060AAXX  14124 17202 32970 03004 10370 20108 39098 40062 57012;EQDQ01  00002PRCP99
0159172020999992000081415004+38590+039280FM-12+0882LTCA V0203001N002612200019N0200001N1+03661+01121100551ADDGA1011+010509029GF101991011011012501001001MA1999999090871MD1710111+9999REMSYN076AAXX  14154 17202 42670 13005 10366 20112 39087 40055 57011 81100 333 81835;
0208172020999992000081418004+38590+039280FM-12+0882LTCA V0203001N003112200019N0200001N1+03081+00781100481ADDAA199000091GA1011+010509029GF101991011011012501001001KA1120M+03741MA1999999090841MD1610031+9999REMSYN082AAXX  14184 17202 32670 13006 10308 20078 39084 40048 56003 81100 333 10374 81835;EQDQ01  00002PRCP99
0143172020999992000081421004+38590+039280FM-12+0882LTCA V0202601N004112200019N0200001N1+02821+00541100631ADDGA1001+999999999GF100991001001999999001001MA1999999091001MD1210161+9999REMSYN060AAXX  14214 17202 42970 02608 10282 20054 39100 40063 52016;
0173172020999992000081500004+38590+039280FM-12+0882LTCA V0202401N002112200019N0200001N1+02481+00561100741ADDAA199000091GA1001+999999999GF100991001001999999001001MA1999999091101MD1210101+9999REMSYN060AAXX  15004 17202 32970 02404 10248 20056 39110 40074 52010;EQDQ01  00002PRCP99
0143172020999992000081503004+38590+039280FM-12+0882LTCA V0203001N001512200019N0200001N1+02041+00381100811ADDGA1001+999999999GF100991001001999999001001MA1999999091131MD1310031+9999REMSYN060AAXX  15034 17202 42970 03003 10204 20038 39113 40081 53003;
0220172020999992000081506004+38590+039280FM-12+0882LTCA V0209999C000012200019N0200001N1+02621+00941100891ADDAA199000091GA1001+999999999GF100991001001999999001001IA1019IA2999+01709KA1120N+01901MA1999999091191MD1210061+9999REMSYN076AAXX  15064 17202 32970 00000 10262 20094 39119 40089 52006 333 20190 30017;EQDQ01  00002PRCP99
0143172020999992000081509004+38590+039280FM-12+0882LTCA V0203301N003612200019N0200001N1+03121+00841100831ADDGA1001+999999999GF100991001001999999001001MA1999999091171MD1810021+9999REMSYN060AAXX  15094 17202 42970 03307 10312 20084 39117 40083 58002;
0173172020999992000081512004+38590+039280FM-12+0882LTCA V0201201N003612200019N0200001N1+03401+00861100771ADDAA199000091GA1001+999999999GF100991001001999999001001MA1999999091101MD1610071+9999REMSYN060AAXX  15124 17202 32970 01207 10340 20086 39110 40077 56007;EQDQ01  00002PRCP99
0143172020999992000081515004+38590+039280FM-12+0882LTCA V0202801N002112200019N0200001N1+03501+00841100571ADDGA1001+999999999GF100991001001999999001001MA1999999090901MD1610201+9999REMSYN060AAXX  15154 17202 42970 02804 10350 20084 39090 40057 56020;
0196172020999992000081518004+38590+039280FM-12+0882LTCA V0202801N002612200019N0200001N1+02681+00521100581ADDAA199000091GA1001+999999999GF100991001001999999001001KA1999M+03541MA1999999090901MD1510001+9999REMSYN070AAXX  15184 17202 32970 02805 10268 20052 39090 40058 55000 333 10354;EQDQ01  00002PRCP99
0143172020999992000081521004+38590+039280FM-12+0882LTCA V0209999C000012200019N0200001N1+02601+00501100661ADDGA1001+999999999GF100991001001999999001001MA1999999091001MD1210101+9999REMSYN060AAXX  15214 17202 42970 00000 10260 20050 39100 40066 52010;
0173172020999992000081600004+38590+039280FM-12+0882LTCA V0202601N001512200019N0200001N1+02101+00581100701ADDAA199000091GA1001+999999999GF100991001001999999001001MA1999999091021MD1110021+9999REMSYN060AAXX  16004 17202 32970 02603 10210 20058 39102 40070 51002;EQDQ01  00002PRCP99
0143172020999992000081603004+38590+039280FM-12+0882LTCA V0202801N002612200019N0200001N1+01741+00571100821ADDGA1001+999999999GF100991001001999999001001MA1999999091101MD1310081+9999REMSYN060AAXX  16034 17202 42970 02805 10174 20057 39110 40082 53008;
0220172020999992000081606004+38590+039280FM-12+0882LTCA V0202701N003112200019N0200001N1+02621+00941100881ADDAA199000091GA1001+999999999GF100991001001999999001001IA1019IA2999+01409KA1120N+01681MA1999999091161MD1110061+9999REMSYN076AAXX  16064 17202 32970 02706 10262 20094 39116 40088 51006 333 20168 30014;EQDQ01  00002PRCP99
0143172020999992000081609004+38590+039280FM-12+0882LTCA V0203001N003112200019N0200001N1+03001+00941100741ADDGA1001+999999999GF100991001001999999001001MA1999999091061MD1710101+9999REMSYN060AAXX  16094 17202 42970 03006 10300 20094 39106 40074 57010;
0173172020999992000081612004+38590+039280FM-12+0882LTCA V0203101N002612200019N0200001N1+03441+00861100521ADDAA199000091GA1001+999999999GF100991001001999999001001MA1999999090861MD1710201+9999REMSYN060AAXX  16124 17202 32970 03105 10344 20086 39086 40052 57020;EQDQ01  00002PRCP99
0143172020999992000081615004+38590+039280FM-12+0882LTCA V0202901N003612200019N0200001N1+03521+00511100421ADDGA1001+999999999GF100991001001999999001001MA1999999090741MD1710121+9999REMSYN060AAXX  16154 17202 42970 02907 10352 20051 39074 40042 57012;
0196172020999992000081618004+38590+039280FM-12+0882LTCA V0202401N002112200019N0200001N1+02681+00301100491ADDAA199000091GA1001+999999999GF100991001001999999001001KA1999M+03561MA1999999090801MD1310061+9999REMSYN070AAXX  16184 17202 32970 02404 10268 20030 39080 40049 53006 333 10356;EQDQ01  00002PRCP99
0143172020999992000081621004+38590+039280FM-12+0882LTCA V0202901N004112200019N0200001N1+02041+00161100541ADDGA1001+999999999GF100991001001999999001001MA1999999090831MD1210031+9999REMSYN060AAXX  16214 17202 42970 02908 10204 20016 39083 40054 52003;
0173172020999992000081700004+38590+039280FM-12+0882LTCA V0202701N002112200019N0200001N1+01781+00281100551ADDAA199000091GA1001+999999999GF100991001001999999001001MA1999999090861MD1110031+9999REMSYN060AAXX  17004 17202 32970 02704 10178 20028 39086 40055 51003;EQDQ01  00002PRCP99
0143172020999992000081703004+38590+039280FM-12+0882LTCA V0202801N002112200019N0200001N1+01721+00381100601ADDGA1001+999999999GF100991001001999999001001MA1999999090911MD1210051+9999REMSYN060AAXX  17034 17202 42970 02804 10172 20038 39091 40060 52005;
0220172020999992000081706004+38590+039280FM-12+0882LTCA V0201201N001012200019N0200001N1+02701+00901100691ADDAA199000091GA1001+999999999GF100991001001999999001001IA1019IA2999+01509KA1120N+01601MA1999999091001MD1210091+9999REMSYN076AAXX  17064 17202 32970 01202 10270 20090 39100 40069 52009 333 20160 30015;EQDQ01  00002PRCP99
0143172020999992000081709004+38590+039280FM-12+0882LTCA V0203001N001512200019N0200001N1+03261+01281100671ADDGA1001+999999999GF100991001001999999001001MA1999999090981MD1810021+9999REMSYN060AAXX  17094 17202 42970 03003 10326 20128 39098 40067 58002;
0173172020999992000081712004+38590+039280FM-12+0882LTCA V0203101N004112200019N0200001N1+03641+01221100521ADDAA199000091GA1001+999999999GF100991001001999999001001MA1999999090841MD1710141+9999REMSYN060AAXX  17124 17202 32970 03108 10364 20122 39084 40052 57014;EQDQ01  00002PRCP99
0143172020999992000081715004+38590+039280FM-12+0882LTCA V0203201N004112200019N0200001N1+03521+00821100441ADDGA1001+999999999GF100991001001999999001001MA1999999090761MD1710081+9999REMSYN060AAXX  17154 17202 42970 03208 10352 20082 39076 40044 57008;
0196172020999992000081718004+38590+039280FM-12+0882LTCA V0202401N002112200019N0200001N1+02521+00811100521ADDAA199000091GA1001+999999999GF100991001001999999001001KA1999M+03721MA1999999090831MD1310071+9999REMSYN070AAXX  17184 17202 32970 02404 10252 20081 39083 40052 53007 333 10372;EQDQ01  00002PRCP99
0143172020999992000081721004+38590+039280FM-12+0882LTCA V0202901N003612200019N0200001N1+02101+00581100581ADDGA1001+999999999GF100991001001999999001001MA1999999090901MD1210101+9999REMSYN060AAXX  17214 17202 42970 02907 10210 20058 39090 40058 52010;
0158172020999992000081800004+38590+039280FM-12+0882LTCA V0202901N003112200019N0200001N1+01921+00481999999ADDAA199000091GA1001+999999999GF100991001001999999001001MA1999999090901REMSYN059AAXX  18004 17202 32970 02906 10192 20048 39090 4057 54000;EQDQ01  00002PRCP99
0143172020999992000081803004+38590+039280FM-12+0882LTCA V0202301N002112200019N0200001N1+01701+00501100691ADDGA1001+999999999GF100991001001999999001001MA1999999090981MD1210081+9999REMSYN060AAXX  18034 17202 42970 02304 10170 20050 39098 40069 52008;
0220172020999992000081806004+38590+039280FM-12+0882LTCA V0200801N002612200019N0200001N1+02501+00821100781ADDAA199000091GA1001+999999999GF100991001001999999001001IA1019IA2999+01509KA1120N+01661MA1999999091051MD1210071+9999REMSYN076AAXX  18064 17202 32970 00805 10250 20082 39105 40078 52007 333 20166 30015;EQDQ01  00002PRCP99
0143172020999992000081815004+38590+039280FM-12+0882LTCA V0201701N002612200019N0200001N1+03681+00861100451ADDGA1001+999999999GF100991001001999999001001MA1999999090781MD1810051+9999REMSYN060AAXX  18154 17202 42970 01705 10368 20086 39078 40045 58005;
0196172020999992000081818004+38590+039280FM-12+0882LTCA V0203001N002612200019N0200001N1+02821+00321100571ADDAA199000091GA1001+999999999GF100991001001999999001001KA1999M+03901MA1999999090891MD1310111+9999REMSYN070AAXX  18184 17202 32970 03005 10282 20032 39089 40057 53011 333 10390;EQDQ01  00002PRCP99
0143172020999992000081821004+38590+039280FM-12+0882LTCA V0203101N003112200019N0200001N1+02141+00261100651ADDGA1001+999999999GF100991001001999999001001MA1999999090961MD1210071+9999REMSYN060AAXX  18214 17202 42970 03106 10214 20026 39096 40065 52007;
0173172020999992000081900004+38590+039280FM-12+0882LTCA V0202901N003612200019N0200001N1+01921+00101100651ADDAA199000091GA1001+999999999GF100991001001999999001001MA1999999090991MD1210031+9999REMSYN060AAXX  19004 17202 32970 02907 10192 20010 39099 40065 52003;EQDQ01  00002PRCP99
0143172020999992000081903004+38590+039280FM-12+0882LTCA V0202701N001512200019N0200001N1+01801+00381100781ADDGA1001+999999999GF100991001001999999001001MA1999999091081MD1210091+9999REMSYN060AAXX  19034 17202 42970 02703 10180 20038 39108 40078 52009;
0220172020999992000081906004+38590+039280FM-12+0882LTCA V0209999C000012200019N0200001N1+02721+00961100821ADDAA199000091GA1001+999999999GF100991001001999999001001IA1019IA2999+01609KA1120N+01721MA1999999091131MD1010051+9999REMSYN076AAXX  19064 17202 32970 00000 10272 20096 39113 40082 50005 333 20172 30016;EQDQ01  00002PRCP99
0143172020999992000081909004+38590+039280FM-12+0882LTCA V0201801N002612200019N0200001N1+03321+01141100801ADDGA1001+999999999GF100991001001999999001001MA1999999091101MD1810031+9999REMSYN060AAXX  19094 17202 42970 01805 10332 20114 39110 40080 58003;
0173172020999992000081912004+38590+039280FM-12+0882LTCA V0200801N002612200019N0200001N1+03601+00671100621ADDAA199000091GA1001+999999999GF100991001001999999001001MA1999999090951MD1710151+9999REMSYN060AAXX  19124 17202 32970 00805 10360 20067 39095 40062 57015;EQDQ01  00002PRCP99
0143172020999992000081915004+38590+039280FM-12+0882LTCA V0203201N001512200019N0200001N1+03641+00641100491ADDGA1001+999999999GF100991001001999999001001MA1999999090821MD1710131+9999REMSYN060AAXX  19154 17202 42970 03203 10364 20064 39082 40049 57013;
0196172020999992000081918004+38590+039280FM-12+0882LTCA V0202801N001512200019N0200001N1+02801+00561100461ADDAA199000091GA1001+999999999GF100991001001999999001001KA1999M+03761MA1999999090801MD1610021+9999REMSYN070AAXX  19184 17202 32970 02803 10280 20056 39080 40046 56002 333 10376;EQDQ01  00002PRCP99
0143172020999992000081921004+38590+039280FM-12+0882LTCA V0201701N001512200019N0200001N1+02621+00721100511ADDGA1001+999999999GF100991001001999999001001MA1999999090881MD1110081+9999REMSYN060AAXX  19214 17202 42970 01703 10262 20072 39088 40051 51008;
0173172020999992000082000004+38590+039280FM-12+0882LTCA V0202801N003112200019N0200001N1+02101+00701100591ADDAA199000091GA1001+999999999GF100991001001999999001001MA1999999090921MD1110041+9999REMSYN060AAXX  20004 17202 32970 02806 10210 20070 39092 40059 51004;EQDQ01  00002PRCP99
0143172020999992000082003004+38590+039280FM-12+0882LTCA V0202601N002112200019N0200001N1+01961+00781100641ADDGA1001+999999999GF100991001001999999001001MA1999999090971MD1310051+9999REMSYN060AAXX  20034 17202 42970 02604 10196 20078 39097 40064 53005;
0220172020999992000082006004+38590+039280FM-12+0882LTCA V0202801N002112200019N0200001N1+02721+00901100681ADDAA199000091GA1001+999999999GF100991001001999999001001IA1019IA2999+01709KA1120N+01921MA1999999091001MD1110031+9999REMSYN076AAXX  20064 17202 32970 02804 10272 20090 39100 40068 51003 333 20192 30017;EQDQ01  00002PRCP99
0143172020999992000082009004+38590+039280FM-12+0882LTCA V0202901N002112200019N0200001N1+03321+01141100691ADDGA1001+999999999GF100991001001999999001001MA1999999091041MD1110041+9999REMSYN060AAXX  20094 17202 42970 02904 10332 20114 39104 40069 51004;
0173172020999992000082012004+38590+039280FM-12+0882LTCA V0203001N002612200019N0200001N1+03521+00831100541ADDAA199000091GA1001+999999999GF100991001001999999001001MA1999999090881MD1710161+9999REMSYN060AAXX  20124 17202 32970 03005 10352 20083 39088 40054 57016;EQDQ01  00002PRCP99
0143172020999992000082015004+38590+039280FM-12+0882LTCA V0202801N002612200019N0200001N1+03561+00761100381ADDGA1001+999999999GF100991001001999999001001MA1999999090731MD1710181+9999REMSYN060AAXX  20154 17202 42970 02805 10356 20076 39073 40038 57018;
0196172020999992000082018004+38590+039280FM-12+0882LTCA V0202201N002612200019N0200001N1+02881+00731100571ADDAA199000091GA1001+999999999GF100991001001999999001001KA1999M+03581MA1999999090901MD1310171+9999REMSYN070AAXX  20184 17202 32970 02205 10288 20073 39090 40057 53017 333 10358;EQDQ01  00002PRCP99
0143172020999992000082021004+38590+039280FM-12+0882LTCA V0203101N001512200019N0200001N1+02501+00821100611ADDGA1001+999999999GF100991001001999999001001MA1999999091001MD1210101+9999REMSYN060AAXX  20214 17202 42970 03103 10250 20082 39100 40061 52010;
0173172020999992000082100004+38590+039280FM-12+0882LTCA V0202801N002112200019N0200001N1+02101+00701100691ADDAA199000091GA1001+999999999GF100991001001999999001001MA1999999091011MD1110011+9999REMSYN060AAXX  21004 17202 32970 02804 10210 20070 39101 40069 51001;EQDQ01  00002PRCP99
0143172020999992000082103004+38590+039280FM-12+0882LTCA V0202901N002112200019N0200001N1+01841+00781100721ADDGA1001+999999999GF100991001001999999001001MA1999999091021MD1310011+9999REMSYN060AAXX  21034 17202 42970 02904 10184 20078 39102 40072 53001;
0220172020999992000082106004+38590+039280FM-12+0882LTCA V0201701N001512200019N0200001N1+02681+00861100821ADDAA199000091GA1001+999999999GF100991001001999999001001IA1019IA2999+01609KA1120N+01741MA1999999091131MD1210111+9999REMSYN076AAXX  21064 17202 32970 01703 10268 20086 39113 40082 52011 333 20174 30016;EQDQ01  00002PRCP99
0159172020999992000082109004+38590+039280FM-12+0882LTCA V0201501N002112200019N0200001N1+03201+00981100871ADDGA1011+010509029GF101991011011012501001001MA1999999091171MD1110041+9999REMSYN076AAXX  21094 17202 42670 11504 10320 20098 39117 40087 51004 81100 333 81835;
0189172020999992000082112004+38590+039280FM-12+0882LTCA V0201201N001512200019N0200001N1+03501+00741100701ADDAA199000091GA1011+010509029GF101991011011012501001001MA1999999091021MD1710151+9999REMSYN076AAXX  21124 17202 32670 11203 10350 20074 39102 40070 57015 81100 333 81835;EQDQ01  00002PRCP99
0143172020999992000082115004+38590+039280FM-12+0882LTCA V0201101N002112200019N0200001N1+03501+00881100561ADDGA1001+999999999GF100991001001999999001001MA1999999090901MD1610121+9999REMSYN060AAXX  21154 17202 42970 01104 10350 20088 39090 40056 56012;
0196172020999992000082118004+38590+039280FM-12+0882LTCA V0209999C000012200019N0200001N1+02821+00541100611ADDAA199000091GA1001+999999999GF100991001001999999001001KA1999M+03641MA1999999090941MD1310041+9999REMSYN070AAXX  21184 17202 32970 00000 10282 20054 39094 40061 53004 333 10364;EQDQ01  00002PRCP99
0143172020999992000082121004+38590+039280FM-12+0882LTCA V0202901N002612200019N0200001N1+02161+00301100721ADDGA1001+999999999GF100991001001999999001001MA1999999091021MD1210081+9999REMSYN060AAXX  21214 17202 42970 02905 10216 20030 39102 40072 52008;
0173172020999992000082200004+38590+039280FM-12+0882LTCA V0202701N002612200019N0200001N1+02001+00301100701ADDAA199000091GA1001+999999999GF100991001001999999001001MA1999999091021MD1410001+9999REMSYN060AAXX  22004 17202 32970 02705 10200 20030 39102 40070 54000;EQDQ01  00002PRCP99
0143172020999992000082203004+38590+039280FM-12+0882LTCA V0203201N001512200019N0200001N1+01801+00381100731ADDGA1001+999999999GF100991001001999999001001MA1999999091051MD1310051+9999REMSYN060AAXX  22034 17202 42970 03203 10180 20038 39105 40073 53005;
0220172020999992000082206004+38590+039280FM-12+0882LTCA V0209999C000012200019N0200001N1+02501+00821100911ADDAA199000091GA1001+999999999GF100991001001999999001001IA1019IA2999+01509KA1120N+01661MA1999999091241MD1210171+9999REMSYN076AAXX  22064 17202 32970 00000 10250 20082 39124 40091 52017 333 20166 30015;EQDQ01  00002PRCP99
0143172020999992000082209004+38590+039280FM-12+0882LTCA V0201001N002112200019N0200001N1+03241+01161100901ADDGA1001+999999999GF100991001001999999001001MA1999999091231MD1810011+9999REMSYN060AAXX  22094 17202 42970 01004 10324 20116 39123 40090 58001;
0189172020999992000082212004+38590+039280FM-12+0882LTCA V0203401N002112200019N0200001N1+03701+01071100741ADDAA199000091GA1011+010509029GF101991011011012501001001MA1999999091071MD1710161+9999REMSYN076AAXX  22124 17202 32670 13404 10370 20107 39107 40074 57016 81100 333 81835;EQDQ01  00002PRCP99
0159172020999992000082215004+38590+039280FM-12+0882LTCA V0200801N004112200019N0200001N1+03401+00831100711ADDGA1021+010509029GF102991021011012501001001MA1999999091001MD1710071+9999REMSYN076AAXX  22154 17202 42670 20808 10340 20083 39100 40071 57007 82100 333 82835;
0196172020999992000082218004+38590+039280FM-12+0882LTCA V0202501N002112200019N0200001N1+02681+00761100791ADDAA199000091GA1001+999999999GF100991001001999999001001KA1999M+03781MA1999999091071MD1310071+9999REMSYN070AAXX  22184 17202 32970 02504 10268 20076 39107 40079 53007 333 10378;EQDQ01  00002PRCP99
0143172020999992000082221004+38590+039280FM-12+0882LTCA V0203001N003612200019N0200001N1+02321+00541100791ADDGA1001+999999999GF100991001001999999001001MA1999999091101MD1210031+9999REMSYN060AAXX  22214 17202 42970 03007 10232 20054 39110 40079 52003;
0173172020999992000082300004+38590+039280FM-12+0882LTCA V0202701N001512200019N0200001N1+02001+00581100791ADDAA199000091GA1001+999999999GF100991001001999999001001MA1999999091101MD1410001+9999REMSYN060AAXX  23004 17202 32970 02703 10200 20058 39110 40079 54000;EQDQ01  00002PRCP99
0143172020999992000082303004+38590+039280FM-12+0882LTCA V0203001N002112200019N0200001N1+01821+00401100861ADDGA1001+999999999GF100991001001999999001001MA1999999091141MD1310041+9999REMSYN060AAXX  23034 17202 42970 03004 10182 20040 39114 40086 53004;
0220172020999992000082306004+38590+039280FM-12+0882LTCA V0200801N002612200019N0200001N1+02741+00941101001ADDAA199000091GA1001+999999999GF100991001001999999001001IA1019IA2999+01609KA1120N+01741MA1999999091281MD1210141+9999REMSYN076AAXX  23064 17202 32970 00805 10274 20094 39128 40100 52014 333 20174 30016;EQDQ01  00002PRCP99
0159172020999992000082309004+38590+039280FM-12+0882LTCA V0200801N002112200019N0200001N1+03301+01101100921ADDGA1011+010509029GF101991011011012501001001MA1999999091221MD1810061+9999REMSYN076AAXX  23094 17202 42670 10804 10330 20110 39122 40092 58006 81100 333 81835;
0189172020999992000082312004+38590+039280FM-12+0882LTCA V0200801N003112200019N0200001N1+03801+01001100661ADDAA199000091GA1031+010509029GF103991031011012501001001MA1999999091001MD1710221+9999REMSYN076AAXX  23124 17202 32670 30806 10380 20100 39100 40066 57022 83100 333 83835;EQDQ01  00002PRCP99
0159172020999992000082315004+38590+039280FM-12+0882LTCA V0200601N003112200019N0200001N1+03621+00961100561ADDGA1021+010509029GF102991021011012501001001MA1999999090881MD1710121+9999REMSYN076AAXX  23154 17202 42670 20606 10362 20096 39088 40056 57012 82100 333 82835;
0195172020999992000082318004+38590+039280FM-12+0882LTCA V0209999C000012200019N0200001N1+02861+00761100491ADDAA199000091GA1001+999999999GF100991001001999999001001KA1999M+03881MA1999999090831MD1610051+9999REMSYN069AAXX  23184 17202 32970 0000010286 20076 39083 40049 56005 333 10388;EQDQ01  00002PRCP99
0143172020999992000082321004+38590+039280FM-12+0882LTCA V0203001N002612200019N0200001N1+02301+00521100651ADDGA1001+999999999GF100991001001999999001001MA1999999090901MD1110071+9999REMSYN060AAXX  23214 17202 42970 03005 10230 20052 39090 40065 51007;
0173172020999992000082400004+38590+039280FM-12+0882LTCA V0202601N001512200019N0200001N1+02041+00601100441ADDAA199000091GA1001+999999999GF100991001001999999001001MA1999999090801MD1710101+9999REMSYN060AAXX  24004 17202 32970 02603 10204 20060 39080 40044 57010;EQDQ01  00002PRCP99
0143172020999992000082403004+38590+039280FM-12+0882LTCA V0209999C000012200019N0200001N1+01861+00461100471ADDGA1001+999999999GF100991001001999999001001MA1999999090801MD1410001+9999REMSYN060AAXX  24034 17202 42970 00000 10186 20046 39080 40047 54000;
0220172020999992000082406004+38590+039280FM-12+0882LTCA V0201601N001012200019N0200001N1+02781+00601100511ADDAA199000091GA1001+999999999GF100991001001999999001001IA1019IA2999+01709KA1120N+01841MA1999999090851MD1010051+9999REMSYN076AAXX  24064 17202 32970 01602 10278 20060 39085 40051 50005 333 20184 30017;EQDQ01  00002PRCP99
0159172020999992000082409004+38590+039280FM-12+0882LTCA V0201001N004112200019N0200001N1+03461+00921100441ADDGA1021+010509029GF102991021011012501001001MA1999999090801MD1710051+9999REMSYN076AAXX  24094 17202 42670 21008 10346 20092 39080 40044 57005 82100 333 82835;
0189172020999992000082412004+38590+039280FM-12+0882LTCA V0201001N003612200019N0200001N1+03601+01041100231ADDAA199000091GA1031+010509029GF103991031011012501001001MA1999999090601MD1710201+9999REMSYN076AAXX  24124 17202 32670 31007 10360 20104 39060 40023 57020 83100 333 83835;EQDQ01  00002PRCP99
0159172020999992000082415004+38590+039280FM-12+0882LTCA V0201001N002112200019N0200001N1+03401+00971100131ADDGA1031+010509029GF103991031011012501001001MA1999999090481MD1710121+9999REMSYN076AAXX  24154 17202 42670 31004 10340 20097 39048 40013 57012 83100 333 83835;
0214172020999992000082418004+38590+039280FM-12+0882LTCA V0201901N002112200019N0200001N1+02981+01001100161ADDAA199000091GA1021+010509089GF103991021011012501051001KA1120M+03761MA1999999090551MD1310071+9999REMSYN088AAXX  24184 17202 32670 31904 10298 20100 39055 40016 53007 82150 333 10376 82835 83360;EQDQ01  00002PRCP99
0159172020999992000082421004+38590+039280FM-12+0882LTCA V02099999999992200019N0200001N1+02721+01021100201ADDGA1021+030009079GF102991021001999999031001MA1999999090611MD1310061+9999REMSYN076AAXX  24214 17202 42970 2//// 10272 20102 39061 40020 53006 82030 333 82360;
0173172020999992000082500004+38590+039280FM-12+0882LTCA V02099999999992200019N0200001N1+02201+00841100361ADDAA199000091GA1001+999999999GF100991001001999999001001MA1999999090731MD1210121+9999REMSYN060AAXX  25004 17202 32970 0//// 10220 20084 39073 40036 52012;EQDQ01  00002PRCP99
0159172020999992000082503004+38590+039280FM-12+0882LTCA V02099999999992200019N0200001N1+02101+00921100431ADDGA1031+010509029GF103991031011012501001001MA1999999090781MD1310051+9999REMSYN076AAXX  25034 17202 42670 3//// 10210 20092 39078 40043 53005 83100 333 83835;
0238172020999992000082506004+38590+039280FM-12+0882LTCA V0209999999999036001CN0200001N1+02381+01521100531ADDAA199000091GA1041+010509089GF107991041021012501051001IA1019IA2999+01909KA1120N+02061MA1999999090851MD1210071+9999REMSYN094AAXX  25064 17202 32670 7//// 10238 20152 39085 40053 52007 84250 333 20206 30019 84835 86359;EQDQ01  00002PRCP99
0165172020999992000082509004+38590+039280FM-12+0882LTCA V0209999999999036001CN0200001N1+02481+01601100581ADDGA1041+010509089GF107991041021012501051001MA1999999090881MD1110031+9999REMSYN082AAXX  25094 17202 42670 7//// 10248 20160 39088 40058 51003 84250 333 84835 86359;
0210172020999992000082512004+38590+039280FM-12+0882LTCA V0202401N002110105019N0200001N1+02201+01801100641ADDAA106001091AY121061AY221061GA1051+010509089GF107991051021012501051001MA1999999090881MD1410001+9999MW1801REMSYN094AAXX  25124 17202 11670 72404 10220 20180 39088 40064 54000 60011 78022 85250 333 85835 87359;
0193172020999992000082515004+38590+039280FM-12+0882LTCA V0201901N00261036001CN0200001N1+02141+01621100641ADDAY181031AY221031GA1041+010509089GF107991041021012501051001MA1999999090861MD1810021+9999MW1011REMSYN088AAXX  25154 17202 41670 71905 10214 20162 39086 40064 58002 70182 84250 333 84835 87359;
0229172020999992000082518004+38590+039280FM-12+0882LTCA V0209999C00001036001CN0200001N1+01921+01571100651ADDAA112002091AY181061AY221061GA1031+010509089GF105991031021012501051001KA1120M+02561MA1999999090881MD1310021+9999MW1021REMSYN100AAXX  25184 17202 11670 50000 10192 20157 39088 40065 53002 60022 70282 83250 333 10256 83835 85360;
0159172020999992000082521004+38590+039280FM-12+0882LTCA V0202701N002112200019N0200001N1+01761+01481100681ADDGA1031+010509029GF103991031011012501001001MA1999999090901MD1110021+9999REMSYN076AAXX  25214 17202 42670 32704 10176 20148 39090 40068 51002 83100 333 83835;
0170172020999992000082600004+38590+039280FM-12+0882LTCA V0202801N002112200019N0200001N1+01701+01401100701ADDAA199000021GA1031+010509029GF103991031011012501001001MA1999999090901MD1410001+9999REMSYN076AAXX  26004 17202 32670 32804 10170 20140 39090 40070 54000 83100 333 83835;
0143172020999992000082603004+38590+039280FM-12+0882LTCA V0202701N002612200019N0200001N1+01401+01141100701ADDGA1001+999999999GF100991001001999999001001MA1999999090871MD1610031+9999REMSYN060AAXX  26034 17202 42970 02705 10140 20114 39087 40070 56003;
0219172020999992000082606004+38590+039280FM-12+0882LTCA V0209999C000012200019N0200001N1+02101+01481100721ADDAA124001591GA1041+030009079GF104991041001999999031001IA1019IA2999+01209KA1120N+01341MA1999999090921MD1210051+9999REMSYN094AAXX  26064 17202 32970 40000 10210 20148 39092 40072 52005 84030 333 20134 30012 70016 84360;
0159172020999992000082609004+38590+039280FM-12+0882LTCA V0200901N002612200019N0200001N1+02661+01341100661ADDGA1031+010509029GF103991031011012501001001MA1999999090901MD1810021+9999REMSYN076AAXX  26094 17202 42670 30905 10266 20134 39090 40066 58002 83100 333 83835;
0189172020999992000082612004+38590+039280FM-12+0882LTCA V0200801N003112200019N0200001N1+03041+00881100411ADDAA199000091GA1031+010509029GF103991031011012501001001MA1999999090701MD1710201+9999REMSYN076AAXX  26124 17202 32670 30806 10304 20088 39070 40041 57020 83100 333 83835;EQDQ01  00002PRCP99
0165172020999992000082615004+38590+039280FM-12+0882LTCA V0203001N008712200019N0200001N1+02441+00621100521ADDGA1011+009009099GF104991041091008001001001MA1999999090721MD1310021+9999REMSYN082AAXX  26154 17202 42570 43017 10244 20062 39072 40052 53002 84900 333 81930 83835;
0208172020999992000082618004+38590+039280FM-12+0882LTCA V0201001N003112200019N0200001N1+01841+01461100941ADDAA199000091GA1041+010509029GF104991041021012501001001KA1120M+03101MA1999999091121MD1210401+9999REMSYN082AAXX  26184 17202 32670 41006 10184 20146 39112 40094 52040 84200 333 10310 84835;EQDQ01  00002PRCP99
0143172020999992000082621004+38590+039280FM-12+0882LTCA V0202801N001512200019N0200001N1+01541+01421100951ADDGA1001+999999999GF100991001001999999001001MA1999999091141MD1110021+9999REMSYN060AAXX  26214 17202 42970 02803 10154 20142 39114 40095 51002;
0173172020999992000082700004+38590+039280FM-12+0882LTCA V0203001N002112200019N0200001N1+01381+01301100921ADDAA199000091GA1001+999999999GF100991001001999999001001MA1999999091131MD1810011+9999REMSYN060AAXX  27004 17202 32970 03004 10138 20130 39113 40092 58001;EQDQ01  00002PRCP99
0143172020999992000082703004+38590+039280FM-12+0882LTCA V0203001N002612200019N0200001N1+01241+01161100971ADDGA1001+999999999GF100991001001999999001001MA1999999091111MD1610021+9999REMSYN060AAXX  27034 17202 42970 03005 10124 20116 39111 40097 56002;
0232172020999992000082706004+38590+039280FM-12+0882LTCA V0200901N001512200019N0200001N1+01941+01221101051ADDAA199000091GA1011+010509029GF101991011011012501001001IA1019IA2999+01009KA1120N+01201MA1999999091201MD1110091+9999REMSYN088AAXX  27064 17202 32670 10903 10194 20122 39120 40105 51009 81100 333 20120 30010 81835;EQDQ01  00002PRCP99
0159172020999992000082709004+38590+039280FM-12+0882LTCA V0201201N001512200019N0200001N1+02501+01161101011ADDGA1021+010509029GF102991021011012501001001MA1999999091181MD1810021+9999REMSYN076AAXX  27094 17202 42670 21203 10250 20116 39118 40101 58002 82100 333 82835;
0189172020999992000082712004+38590+039280FM-12+0882LTCA V0201901N006212200019N0200001N1+03181+01171100761ADDAA199000091GA1041+010509029GF104991041021012501001001MA1999999091001MD1710181+9999REMSYN076AAXX  27124 17202 32670 41912 10318 20117 39100 40076 57018 84200 333 84835;EQDQ01  00002PRCP99
0159172020999992000082715004+38590+039280FM-12+0882LTCA V0202201N006712200019N0200001N1+03001+00381100681ADDGA1031+010509029GF103991031011012501001001MA1999999090901MD1610101+9999REMSYN076AAXX  27154 17202 42670 32213 10300 20038 39090 40068 56010 83100 333 83835;
0196172020999992000082718004+38590+039280FM-12+0882LTCA V0202501N002612200019N0200001N1+02441+00741100691ADDAA199000091GA1001+999999999GF100991001001999999001001KA1999M+03201MA1999999090921MD1310021+9999REMSYN070AAXX  27184 17202 32970 02505 10244 20074 39092 40069 53002 333 10320;EQDQ01  00002PRCP99
0143172020999992000082721004+38590+039280FM-12+0882LTCA V0202701N003112200019N0200001N1+02041+00781100891ADDGA1001+999999999GF100991001001999999001001MA1999999091121MD1310201+9999REMSYN060AAXX  27214 17202 42970 02706 10204 20078 39112 40089 53020;
0173172020999992000082800004+38590+039280FM-12+0882LTCA V0202301N004112200019N0200001N1+01761+00701100951ADDAA199000091GA1001+999999999GF100991001001999999001001MA1999999091201MD1210081+9999REMSYN060AAXX  28004 17202 32970 02308 10176 20070 39120 40095 52008;EQDQ01  00002PRCP99
0238172020999992000082806004+38590+039280FM-12+0882LTCA V0202701N00411036001CN0200001N1+02001+00701101051ADDAA199000091GA1021+010509089GF105991021011012501051001IA1019IA2999+01409KA1120N+01581MA1999999091251MD1210051+9999REMSYN094AAXX  28064 17202 32670 52708 10200 20070 39125 40105 52005 82150 333 20158 30014 82835 85360;EQDQ01  00002PRCP99
0165172020999992000082809004+38590+039280FM-12+0882LTCA V0203001N00511036001CN0200001N1+02401+00461101021ADDGA1031+010509089GF105991031011012501051001MA1999999091221MD1810031+9999REMSYN082AAXX  28094 17202 42670 53010 10240 20046 39122 40102 58003 83150 333 83835 85360;
0189172020999992000082812004+38590+039280FM-12+0882LTCA V0203101N005112200019N0200001N1+02601+00491100891ADDAA199000091GA1041+010509029GF104991041021012501001001MA1999999091101MD1710121+9999REMSYN076AAXX  28124 17202 32670 43110 10260 20049 39110 40089 57012 84200 333 84835;EQDQ01  00002PRCP99
0159172020999992000082815004+38590+039280FM-12+0882LTCA V0202701N006212200019N0200001N1+02521+00461100881ADDGA1021+010509029GF102991021011012501001001MA1999999091081MD1610021+9999REMSYN076AAXX  28154 17202 42670 22712 10252 20046 39108 40088 56002 82100 333 82835;
0196172020999992000082818004+38590+039280FM-12+0882LTCA V0202801N004612200019N0200001N1+02101+00201101001ADDAA199000091GA1001+999999999GF100991001001999999001001KA1999M+02701MA1999999091191MD1210111+9999REMSYN070AAXX  28184 17202 32970 02809 10210 20020 39119 40100 52011 333 10270;EQDQ01  00002PRCP99
0143172020999992000082821004+38590+039280FM-12+0882LTCA V0202501N005112200019N0200001N1+01901+00151101031ADDGA1001+999999999GF100991001001999999001001MA1999999091231MD1210041+9999REMSYN060AAXX  28214 17202 42970 02510 10190 20015 39123 40103 52004;
0173172020999992000082900004+38590+039280FM-12+0882LTCA V0202001N003112200019N0200001N1+01701+00121101091ADDAA199000091GA1001+999999999GF100991001001999999001001MA1999999091281MD1210051+9999REMSYN060AAXX  29004 17202 32970 02006 10170 20012 39128 40109 52005;EQDQ01  00002PRCP99
0143172020999992000082903004+38590+039280FM-12+0882LTCA V0202601N001512200019N0200001N1+01201+00181101111ADDGA1001+999999999GF100991001001999999001001MA1999999091251MD1810031+9999REMSYN060AAXX  29034 17202 42970 02603 10120 20018 39125 40111 58003;
0220172020999992000082906004+38590+039280FM-12+0882LTCA V0201601N002112200019N0200001N1+01941+00341101081ADDAA199000091GA1001+999999999GF100991001001999999001001IA1019IA2999+01009KA1120N+01161MA1999999091241MD1810011+9999REMSYN076AAXX  29064 17202 32970 01604 10194 20034 39124 40108 58001 333 20116 30010;EQDQ01  00002PRCP99
0143172020999992000082909004+38590+039280FM-12+0882LTCA V0203401N003112200019N0200001N1+02521+00381100941ADDGA1001+999999999GF100991001001999999001001MA1999999091551MD1710091+9999REMSYN060AAXX  29094 17202 42970 03406 10252 20038 39155 40094 57009;
0173172020999992000082912004+38590+039280FM-12+0882LTCA V0203401N003612200019N0200001N1+02801+00281100801ADDAA199000091GA1001+999999999GF100991001001999999001001MA1999999091021MD1710131+9999REMSYN060AAXX  29124 17202 32970 03407 10280 20028 39102 40080 57013;EQDQ01  00002PRCP99
0143172020999992000082915004+38590+039280FM-12+0882LTCA V0203001N005112200019N0200001N1+02801+00281100701ADDGA1001+999999999GF100991001001999999001001MA1999999090901MD1610021+9999REMSYN060AAXX  29154 17202 42970 03010 10280 20028 39090 40070 56002;
0196172020999992000082918004+38590+039280FM-12+0882LTCA V0202901N003612200019N0200001N1+02101+00461100701ADDAA199000091GA1001+999999999GF100991001001999999001001KA1999M+02861MA1999999090901MD1510001+9999REMSYN070AAXX  29184 17202 32970 02907 10210 20046 39090 40070 55000 333 10286;EQDQ01  00002PRCP99
0143172020999992000082921004+38590+039280FM-12+0882LTCA V0202401N001512200019N0200001N1+01901+00401100741ADDGA1001+999999999GF100991001001999999001001MA1999999090971MD1210071+9999REMSYN060AAXX  29214 17202 42970 02403 10190 20040 39097 40074 52007;
0173172020999992000083000004+38590+039280FM-12+0882LTCA V0202701N002112200019N0200001N1+01741+00381100731ADDAA199000091GA1001+999999999GF100991001001999999001001MA1999999090971MD1410001+9999REMSYN060AAXX  30004 17202 32970 02704 10174 20038 39097 40073 54000;EQDQ01  00002PRCP99
0143172020999992000083003004+38590+039280FM-12+0882LTCA V0202301N003612200019N0200001N1+01441+00501100681ADDGA1001+999999999GF100991001001999999001001MA1999999090901MD1810071+9999REMSYN060AAXX  30034 17202 42970 02307 10144 20050 39090 40068 58007;
0220172020999992000083006004+38590+039280FM-12+0882LTCA V0202301N001512200019N0200001N1+02041+00621100681ADDAA199000091GA1001+999999999GF100991001001999999001001IA1019IA2999+01309KA1120N+01401MA1999999090901MD1410001+9999REMSYN076AAXX  30064 17202 32970 02303 10204 20062 39090 40068 54000 333 20140 30013;EQDQ01  00002PRCP99
0159172020999992000083009004+38590+039280FM-12+0882LTCA V0203201N004112200019N0200001N1+02541+00781100631ADDGA1021+010509029GF102991021011012501001001MA1999999090871MD1810031+9999REMSYN076AAXX  30094 17202 42670 23208 10254 20078 39087 40063 58003 82100 333 82835;
0189172020999992000083012004+38590+039280FM-12+0882LTCA V0202901N006212200019N0200001N1+02801+00281100491ADDAA199000091GA1021+010509029GF102991021011012501001001MA1999999090761MD1710111+9999REMSYN076AAXX  30124 17202 32670 22912 10280 20028 39076 40049 57011 82100 333 82835;EQDQ01  00002PRCP99
0159172020999992000083015004+38590+039280FM-12+0882LTCA V0202901N005712200019N0200001N1+02741+00061100451ADDGA1021+010509029GF102991021011012501001001MA1999999090691MD1710071+9999REMSYN076AAXX  30154 17202 42670 22911 10274 20006 39069 40045 57007 82100 333 82835;
0196172020999992000083018004+38590+039280FM-12+0882LTCA V0203001N002112200019N0200001N1+02161+00011100521ADDAA199000091GA1001+999999999GF100991001001999999001001KA1999M+02861MA1999999090761MD1310071+9999REMSYN070AAXX  30184 17202 32970 03004 10216 20001 39076 40052 53007 333 10286;EQDQ01  00002PRCP99
0143172020999992000083021004+38590+039280FM-12+0882LTCA V0202201N004112200019N0200001N1+02001+00101100591ADDGA1001+999999999GF100991001001999999001001MA1999999090851MD1210091+9999REMSYN060AAXX  30214 17202 42970 02208 10200 20010 39085 40059 52009;
0173172020999992000083100004+38590+039280FM-12+0882LTCA V0202401N003112200019N0200001N1+01681+00421100621ADDAA199000091GA1001+999999999GF100991001001999999001001MA1999999090861MD1110011+9999REMSYN060AAXX  31004 17202 32970 02406 10168 20042 39086 40062 51001;EQDQ01  00002PRCP99
0143172020999992000083103004+38590+039280FM-12+0882LTCA V0202801N002112200019N0200001N1+01241+00241100711ADDGA1001+999999999GF100991001001999999001001MA1999999090911MD1210051+9999REMSYN060AAXX  31034 17202 42970 02804 10124 20024 39091 40071 52005;
0220172020999992000083106004+38590+039280FM-12+0882LTCA V0202201N002112200019N0200001N1+01941+00581100721ADDAA199000091GA1001+999999999GF100991001001999999001001IA1019IA2999+01009KA1120N+01201MA1999999090921MD1010011+9999REMSYN076AAXX  31064 17202 32970 02204 10194 20058 39092 40072 50001 333 20120 30010;EQDQ01  00002PRCP99
0159172020999992000083109004+38590+039280FM-12+0882LTCA V0203101N003612200019N0200001N1+02471+00551100651ADDGA1011+010509029GF101991011011012501001001MA1999999090891MD1810031+9999REMSYN076AAXX  31094 17202 42670 13107 10247 20055 39089 40065 58003 81100 333 81835;
0189172020999992000083112004+38590+039280FM-12+0882LTCA V0202901N004112200019N0200001N1+02781+00361100511ADDAA199000091GA1031+010509029GF103991031011012501001001MA1999999090761MD1710131+9999REMSYN076AAXX  31124 17202 32670 32908 10278 20036 39076 40051 57013 83100 333 83835;EQDQ01  00002PRCP99
0159172020999992000083115004+38590+039280FM-12+0882LTCA V0202801N004612200019N0200001N1+02781+00361100541ADDGA1021+010509029GF102991021011012501001001MA1999999090761MD1510001+9999REMSYN076AAXX  31154 17202 42670 22809 10278 20036 39076 40054 55000 82100 333 82835;
0196172020999992000083118004+38590+039280FM-12+0882LTCA V0203001N004112200019N0200001N1+02301+00241100571ADDAA199000091GA1001+999999999GF100991001001999999001001KA1999M+02861MA1999999090801MD1310041+9999REMSYN070AAXX  31184 17202 32970 03008 10230 20024 39080 40057 53004 333 10286;EQDQ01  00002PRCP99
0143172020999992000083121004+38590+039280FM-12+0882LTCA V0209999C000012200019N0200001N1+02041+00161100761ADDGA1001+999999999GF100991001001999999001001MA1999999091001MD1210201+9999REMSYN060AAXX  31214 17202 42970 00000 10204 20016 39100 40076 52020;
0173172020999992000090100004+38590+039280FM-12+0882LTCA V0202201N002612200019N0200001N1+01701+00121100771ADDAA199000091GA1001+999999999GF100991001001999999001001MA1999999091001MD1410001+9999REMSYN060AAXX  01004 17202 32970 02205 10170 20012 39100 40077 54000;EQDQ01  00002PRCP99
0143172020999992000090103004+38590+039280FM-12+0882LTCA V0202301N001512200019N0200001N1+01261+00341100901ADDGA1001+999999999GF100991001001999999001001MA1999999091081MD1210081+9999REMSYN060AAXX  01034 17202 42970 02303 10126 20034 39108 40090 52008;
0236172020999992000090106004+38590+039280FM-12+0882LTCA V0202901N002612200019N0200001N1+02001+00561100921ADDAA199000091GA1001+999999999GF100991001001999999001001IA1019IA2999+01009KA1120M+99999MA1999999091131MD1110051+9999REMSYN076AAXX  01064 17202 32970 02905 10200 20056 39113 40092 51005 333 10122 30010;EQDQ01  00002PRCP99Q02 +01222ATMX  
0159172020999992000090109004+38590+039280FM-12+0882LTCA V0202901N004612200019N0200001N1+02421+00181100891ADDGA1021+010509029GF102991021011012501001001MA1999999091101MD1810031+9999REMSYN076AAXX  01094 17202 42670 22909 10242 20018 39110 40089 58003 82100 333 82835;
0189172020999992000090112004+38590+039280FM-12+0882LTCA V0202701N003612200019N0200001N1+02701+00261100781ADDAA199000091GA1021+010509029GF102991021011012501001001MA1999999091001MD1710101+9999REMSYN076AAXX  01124 17202 32670 22707 10270 20026 39100 40078 57010 82100 333 82835;EQDQ01  00002PRCP99
0143172020999992000090115004+38590+039280FM-12+0882LTCA V0202901N003112200019N0200001N1+02701+00211100671ADDGA1001+999999999GF100991001001999999001001MA1999999090871MD1710131+9999REMSYN060AAXX  01154 17202 42970 02906 10270 20021 39087 40067 57013;
0196172020999992000090118004+38590+039280FM-12+0882LTCA V0202301N002612200019N0200001N1+02041+00161100701ADDAA199000091GA1001+999999999GF100991001001999999001001KA1999M+02841MA1999999090901MD1110031+9999REMSYN070AAXX  01184 17202 32970 02305 10204 20016 39090 40070 51003 333 10284;EQDQ01  00002PRCP99
0143172020999992000090121004+38590+039280FM-12+0882LTCA V0202301N003612200019N0200001N1+02081+00121100751ADDGA1001+999999999GF100991001001999999001001MA1999999090981MD1210081+9999REMSYN060AAXX  01214 17202 42970 02307 10208 20012 39098 40075 52008;
0173172020999992000090200004+38590+039280FM-12+0882LTCA V0202401N001512200019N0200001N1+01521+00301100791ADDAA199000091GA1001+999999999GF100991001001999999001001MA1999999091001MD1310021+9999REMSYN060AAXX  02004 17202 32970 02403 10152 20030 39100 40079 53002;EQDQ01  00002PRCP99
0143172020999992000090203004+38590+039280FM-12+0882LTCA V0202901N001512200019N0200001N1+01101+00291100831ADDGA1001+999999999GF100991001001999999001001MA1999999091001MD1410001+9999REMSYN060AAXX  02034 17202 42970 02903 10110 20029 39100 40083 54000;
0220172020999992000090206004+38590+039280FM-12+0882LTCA V0202001N001512200019N0200001N1+01961+00361100811ADDAA199000091GA1001+999999999GF100991001001999999001001IA1019IA2999+00809KA1120N+01041MA1999999091001MD1010001+9999REMSYN076AAXX  02064 17202 32970 02003 10196 20036 39100 40081 50000 333 20104 30008;EQDQ01  00002PRCP99
0143172020999992000090209004+38590+039280FM-12+0882LTCA V0202901N002112200019N0200001N1+02581+00461100681ADDGA1001+999999999GF100991001001999999001001MA1999999090931MD1810071+9999REMSYN060AAXX  02094 17202 42970 02904 10258 20046 39093 40068 58007;
0173172020999992000090212004+38590+039280FM-12+0882LTCA V0203001N004112200019N0200001N1+02941+00321100491ADDAA199000091GA1001+999999999GF100991001001999999001001MA1999999090741MD1710191+9999REMSYN060AAXX  02124 17202 32970 03008 10294 20032 39074 40049 57019;EQDQ01  00002PRCP99
0143172020999992000090215004+38590+039280FM-12+0882LTCA V0202801N002112200019N0200001N1+03001-00041100371ADDGA1001+999999999GF100991001001999999001001MA1999999090621MD1710121+9999REMSYN060AAXX  02154 17202 42970 02804 10300 21004 39062 40037 57012;
0196172020999992000090218004+38590+039280FM-12+0882LTCA V0202401N002612200019N0200001N1+02041+00161100431ADDAA199000091GA1001+999999999GF100991001001999999001001KA1999M+03141MA1999999090661MD1310041+9999REMSYN070AAXX  02184 17202 32970 02405 10204 20016 39066 40043 53004 333 10314;EQDQ01  00002PRCP99
0143172020999992000090221004+38590+039280FM-12+0882LTCA V0202901N002612200019N0200001N1+01701+00161100461ADDGA1001+999999999GF100991001001999999001001MA1999999090701MD1110041+9999REMSYN060AAXX  02214 17202 42970 02905 10170 20016 39070 40046 51004;
0173172020999992000090300004+38590+039280FM-12+0882LTCA V0202901N001012200019N0200001N1+01361+00341100441ADDAA199000091GA1001+999999999GF100991001001999999001001MA1999999090701MD1410001+9999REMSYN060AAXX  03004 17202 32970 02902 10136 20034 39070 40044 54000;EQDQ01  00002PRCP99
0143172020999992000090303004+38590+039280FM-12+0882LTCA V0203201N002612200019N0200001N1+01181+00201100461ADDGA1001+999999999GF100991001001999999001001MA1999999090701MD1410001+9999REMSYN060AAXX  03034 17202 42970 03205 10118 20020 39070 40046 54000;
0220172020999992000090306004+38590+039280FM-12+0882LTCA V0200801N002112200019N0200001N1+02001+00361100561ADDAA199000091GA1001+999999999GF100991001001999999001001IA1019IA2999+00909KA1120N+01141MA1999999090771MD1110071+9999REMSYN076AAXX  03064 17202 32970 00804 10200 20036 39077 40056 51007 333 20114 30009;EQDQ01  00002PRCP99
0143172020999992000090309004+38590+039280FM-12+0882LTCA V0201001N002112200019N0200001N1+02861+00681100481ADDGA1001+999999999GF100991001001999999001001MA1999999090751MD1810021+9999REMSYN060AAXX  03094 17202 42970 01004 10286 20068 39075 40048 58002;
0173172020999992000090312004+38590+039280FM-12+0882LTCA V0203001N003112200019N0200001N1+03301+00701100331ADDAA199000091GA1001+999999999GF100991001001999999001001MA1999999090601MD1710151+9999REMSYN060AAXX  03124 17202 32970 03006 10330 20070 39060 40033 57015;EQDQ01  00002PRCP99
0143172020999992000090315004+38590+039280FM-12+0882LTCA V0203001N002612200019N0200001N1+03201+00481100321ADDGA1001+999999999GF100991001001999999001001MA1999999090591MD1810011+9999REMSYN060AAXX  03154 17202 42970 03005 10320 20048 39059 40032 58001;
0196172020999992000090318004+38590+039280FM-12+0882LTCA V0202701N003112200019N0200001N1+02301+00381100371ADDAA199000091GA1001+999999999GF100991001001999999001001KA1999M+03401MA1999999090631MD1310041+9999REMSYN070AAXX  03184 17202 32970 02706 10230 20038 39063 40037 53004 333 10340;EQDQ01  00002PRCP99
0143172020999992000090321004+38590+039280FM-12+0882LTCA V0203001N002612200019N0200001N1+02001-00031100401ADDGA1001+999999999GF100991001001999999001001MA1999999090691MD1210061+9999REMSYN060AAXX  03214 17202 42970 03005 10200 21003 39069 40040 52006;
0173172020999992000090400004+38590+039280FM-12+0882LTCA V0202901N002612200019N0200001N1+01621-00061100491ADDAA199000091GA1001+999999999GF100991001001999999001001MA1999999090791MD1210101+9999REMSYN060AAXX  04004 17202 32970 02905 10162 21006 39079 40049 52010;EQDQ01  00002PRCP99
0143172020999992000090403004+38590+039280FM-12+0882LTCA V0202901N001012200019N0200001N1+01381+00011100641ADDGA1001+999999999GF100991001001999999001001MA1999999090891MD1210101+9999REMSYN060AAXX  04034 17202 42970 02902 10138 20001 39089 40064 52010;
0220172020999992000090406004+38590+039280FM-12+0882LTCA V0200701N002612200019N0200001N1+02221+00831100761ADDAA199000091GA1001+999999999GF100991001001999999001001IA1019IA2999+01109KA1120N+01301MA1999999091011MD1210121+9999REMSYN076AAXX  04064 17202 32970 00705 10222 20083 39101 40076 52012 333 20130 30011;EQDQ01  00002PRCP99
0143172020999992000090409004+38590+039280FM-12+0882LTCA V0203001N001512200019N0200001N1+03021+01001100751ADDGA1001+999999999GF100991001001999999001001MA1999999091021MD1010011+9999REMSYN060AAXX  04094 17202 42970 03003 10302 20100 39102 40075 50001;
0189172020999992000090412004+38590+039280FM-12+0882LTCA V0203301N003112200019N0200001N1+03321+00641100611ADDAA199000091GA1011+010509029GF101991011011012501001001MA1999999090901MD1710121+9999REMSYN076AAXX  04124 17202 32670 13306 10332 20064 39090 40061 57012 81100 333 81835;EQDQ01  00002PRCP99
0143172020999992000090415004+38590+039280FM-12+0882LTCA V0203101N002612200019N0200001N1+03201+00161100571ADDGA1001+999999999GF100991001001999999001001MA1999999090831MD1710071+9999REMSYN060AAXX  04154 17202 42970 03105 10320 20016 39083 40057 57007;
0196172020999992000090418004+38590+039280FM-12+0882LTCA V0202601N001512200019N0200001N1+02341+00201100671ADDAA199000091GA1001+999999999GF100991001001999999001001KA1999M+03401MA1999999090921MD1310091+9999REMSYN070AAXX  04184 17202 32970 02603 10234 20020 39092 40067 53009 333 10340;EQDQ01  00002PRCP99
0143172020999992000090421004+38590+039280FM-12+0882LTCA V0202701N003612200019N0200001N1+02101+00191100701ADDGA1001+999999999GF100991001001999999001001MA1999999090991MD1210071+9999REMSYN060AAXX  04214 17202 42970 02707 10210 20019 39099 40070 52007;
0173172020999992000090500004+38590+039280FM-12+0882LTCA V0202801N002612200019N0200001N1+01901+00401100731ADDAA199000091GA1001+999999999GF100991001001999999001001MA1999999091021MD1110031+9999REMSYN060AAXX  05004 17202 32970 02805 10190 20040 39102 40073 51003;EQDQ01  00002PRCP99
0143172020999992000090503004+38590+039280FM-12+0882LTCA V0203001N002112200019N0200001N1+01361+00341100851ADDGA1001+999999999GF100991001001999999001001MA1999999091081MD1110061+9999REMSYN060AAXX  05034 17202 42970 03004 10136 20034 39108 40085 51006;
0220172020999992000090506004+38590+039280FM-12+0882LTCA V0200801N001512200019N0200001N1+02261+00301100951ADDAA199000091GA1001+999999999GF100991001001999999001001IA1019IA2999+01209KA1120N+01341MA1999999091171MD1110091+9999REMSYN076AAXX  05064 17202 32970 00803 10226 20030 39117 40095 51009 333 20134 30012;EQDQ01  00002PRCP99
0143172020999992000090509004+38590+039280FM-12+0882LTCA V0200501N002612200019N0200001N1+03141+01001100731ADDGA1001+999999999GF100991001001999999001001MA1999999091021MD1710151+9999REMSYN060AAXX  05094 17202 42970 00505 10314 20100 39102 40073 57015;
0173172020999992000090512004+38590+039280FM-12+0882LTCA V0202901N004112200019N0200001N1+03321+00641100521ADDAA199000091GA1001+999999999GF100991001001999999001001MA1999999090831MD1710191+9999REMSYN060AAXX  05124 17202 32970 02908 10332 20064 39083 40052 57019;EQDQ01  00002PRCP99
0143172020999992000090515004+38590+039280FM-12+0882LTCA V0202901N001512200019N0200001N1+03201+00461100511ADDGA1001+999999999GF100991001001999999001001MA1999999090781MD1610051+9999REMSYN060AAXX  05154 17202 42970 02903 10320 20046 39078 40051 56005;
0196172020999992000090518004+38590+039280FM-12+0882LTCA V0202801N002612200019N0200001N1+02221+00341100591ADDAA199000091GA1001+999999999GF100991001001999999001001KA1999M+03401MA1999999090831MD1310051+9999REMSYN070AAXX  05184 17202 32970 02805 10222 20034 39083 40059 53005 333 10340;EQDQ01  00002PRCP99
0143172020999992000090521004+38590+039280FM-12+0882LTCA V0202801N003612200019N0200001N1+02001+00341100491ADDGA1001+999999999GF100991001001999999001001MA1999999090801MD1810031+9999REMSYN060AAXX  05214 17202 42970 02807 10200 20034 39080 40049 58003;
0173172020999992000090600004+38590+039280FM-12+0882LTCA V0203201N002112200019N0200001N1+01541+00021100501ADDAA199000091GA1001+999999999GF100991001001999999001001MA1999999090781MD1810021+9999REMSYN060AAXX  06004 17202 32970 03204 10154 20002 39078 40050 58002;EQDQ01  00002PRCP99
0143172020999992000090603004+38590+039280FM-12+0882LTCA V0203101N001512200019N0200001N1+01301+00311100551ADDGA1001+999999999GF100991001001999999001001MA1999999090801MD1310021+9999REMSYN060AAXX  06034 17202 42970 03103 10130 20031 39080 40055 53002;
0220172020999992000090606004+38590+039280FM-12+0882LTCA V0200901N002112200019N0200001N1+02181+00781100631ADDAA199000091GA1001+999999999GF100991001001999999001001IA1019IA2999+01109KA1120N+01261MA1999999090801MD1010001+9999REMSYN076AAXX  06064 17202 32970 00904 10218 20078 39080 40063 50000 333 20126 30011;EQDQ01  00002PRCP99
0159172020999992000090609004+38590+039280FM-12+0882LTCA V0200901N002612200019N0200001N1+02901+00741100371ADDGA1011+010509029GF101991011011012501001001MA1999999090681MD1710121+9999REMSYN076AAXX  06094 17202 42670 10905 10290 20074 39068 40037 57012 81100 333 81835;
0189172020999992000090612004+38590+039280FM-12+0882LTCA V0202001N001512200019N0200001N1+03421+00861100091ADDAA199000091GA1021+010509029GF102991021011012501001001MA1999999090441MD1710241+9999REMSYN076AAXX  06124 17202 32670 22003 10342 20086 39044 40009 57024 82100 333 82835;EQDQ01  00002PRCP99
0159172020999992000090615004+38590+039280FM-12+0882LTCA V0201901N003612200019N0200001N1+03281+00671100041ADDGA1021+010509029GF102991021011012501001001MA1999999090351MD1710091+9999REMSYN076AAXX  06154 17202 42670 21907 10328 20067 39035 40004 57009 82100 333 82835;
0196172020999992000090618004+38590+039280FM-12+0882LTCA V0202801N002612200019N0200001N1+02401+00421100011ADDAA199000091GA1001+999999999GF100991001001999999001001KA1999M+03561MA1999999090421MD1310071+9999REMSYN070AAXX  06184 17202 32970 02805 10240 20042 39042 40001 53007 333 10356;EQDQ01  00002PRCP99
0143172020999992000090621004+38590+039280FM-12+0882LTCA V0202801N002612200019N0200001N1+02001+00341100181ADDGA1001+999999999GF100991001001999999001001MA1999999090501MD1210081+9999REMSYN060AAXX  06214 17202 42970 02805 10200 20034 39050 40018 52008;
0173172020999992000090700004+38590+039280FM-12+0882LTCA V0202801N002612200019N0200001N1+01801+00401100161ADDAA199000091GA1001+999999999GF100991001001999999001001MA1999999090501MD1410001+9999REMSYN060AAXX  07004 17202 32970 02805 10180 20040 39050 40016 54000;EQDQ01  00002PRCP99
0143172020999992000090703004+38590+039280FM-12+0882LTCA V0203001N002112200019N0200001N1+01441+00301100191ADDGA1001+999999999GF100991001001999999001001MA1999999090501MD1410001+9999REMSYN060AAXX  07034 17202 42970 03004 10144 20030 39050 40019 54000;
0220172020999992000090706004+38590+039280FM-12+0882LTCA V0209999C000012200019N0200001N1+02421+00741100301ADDAA199000091GA1001+999999999GF100991001001999999001001IA1019IA2999+01109KA1120N+01341MA1999999090601MD1310101+9999REMSYN076AAXX  07064 17202 32970 00000 10242 20074 39060 40030 53010 333 20134 30011;EQDQ01  00002PRCP99
0159172020999992000090709004+38590+039280FM-12+0882LTCA V0200801N004112200019N0200001N1+02881+00901100301ADDGA1021+010509029GF102991021011012501001001MA1999999090601MD1010001+9999REMSYN076AAXX  07094 17202 42670 20808 10288 20090 39060 40030 50000 82100 333 82835;
0189172020999992000090712004+38590+039280FM-12+0882LTCA V0201501N004112200019N0200001N1+03201+00921100231ADDAA199000091GA1021+010509029GF102991021011012501001001MA1999999090551MD1610051+9999REMSYN076AAXX  07124 17202 32670 21508 10320 20092 39055 40023 56005 82100 333 82835;EQDQ01  00002PRCP99
0159172020999992000090715004+38590+039280FM-12+0882LTCA V0201901N005712200019N0200001N1+03001+00681100321ADDGA1021+010509029GF102991021011012501001001MA1999999090591MD1310041+9999REMSYN076AAXX  07154 17202 42670 21911 10300 20068 39059 40032 53004 82100 333 82835;
0196172020999992000090718004+38590+039280FM-12+0882LTCA V0203101N001512200019N0200001N1+02201+00081100441ADDAA199000091GA1001+999999999GF100991001001999999001001KA1999M+03341MA1999999090811MD1210221+9999REMSYN070AAXX  07184 17202 32970 03103 10220 20008 39081 40044 52022 333 10334;EQDQ01  00002PRCP99
0143172020999992000090721004+38590+039280FM-12+0882LTCA V0203001N003612200019N0200001N1+01761+00201100691ADDGA1001+999999999GF100991001001999999001001MA1999999090941MD1210131+9999REMSYN060AAXX  07214 17202 42970 03007 10176 20020 39094 40069 52013;
0173172020999992000090800004+38590+039280FM-12+0882LTCA V0203001N003612200019N0200001N1+01521+00361100771ADDAA199000091GA1001+999999999GF100991001001999999001001MA1999999091031MD1210091+9999REMSYN060AAXX  08004 17202 32970 03007 10152 20036 39103 40077 52009;EQDQ01  00002PRCP99
0143172020999992000090803004+38590+039280FM-12+0882LTCA V0202601N002612200019N0200001N1+01421+00331100951ADDGA1001+999999999GF100991001001999999001001MA1999999091161MD1210131+9999REMSYN060AAXX  08034 17202 42970 02605 10142 20033 39116 40095 52013;
0220172020999992000090806004+38590+039280FM-12+0882LTCA V0203401N001512200019N0200001N1+02261+00881101161ADDAA199000091GA1001+999999999GF100991001001999999001001IA1019IA2999+01109KA1120N+01261MA1999999091351MD1210191+9999REMSYN076AAXX  08064 17202 32970 03403 10226 20088 39135 40116 52019 333 20126 30011;EQDQ01  00002PRCP99
0143172020999992000090809004+38590+039280FM-12+0882LTCA V0200601N001012200019N0200001N1+02701+00601101241ADDGA1001+999999999GF100991001001999999001001MA1999999091421MD1110071+9999REMSYN060AAXX  08094 17202 42970 00602 10270 20060 39142 40124 51007;
0189172020999992000090812004+38590+039280FM-12+0882LTCA V0201101N003112200019N0200001N1+03021+00581101191ADDAA199000091GA1011+010509029GF101991011011012501001001MA1999999091391MD1810031+9999REMSYN076AAXX  08124 17202 32670 11106 10302 20058 39139 40119 58003 81100 333 81835;EQDQ01  00002PRCP99
0143172020999992000090815004+38590+039280FM-12+0882LTCA V0201101N002112200019N0200001N1+02941+00451101191ADDGA1001+999999999GF100991001001999999001001MA1999999091371MD1610021+9999REMSYN060AAXX  08154 17202 42970 01104 10294 20045 39137 40119 56002;
0143172020999992000090821004+38590+039280FM-12+0882LTCA V0203001N004112200019N0200001N1+01601+00221101441ADDGA1001+999999999GF100991001001999999001001MA1999999091601MD1210101+9999REMSYN060AAXX  08214 17202 42970 03008 10160 20022 39160 40144 52010;
0173172020999992000090900004+38590+039280FM-12+0882LTCA V0203001N003112200019N0200001N1+01301+00161101471ADDAA199000091GA1001+999999999GF100991001001999999001001MA1999999091631MD1210031+9999REMSYN060AAXX  09004 17202 32970 03006 10130 20016 39163 40147 52003;EQDQ01  00002PRCP99
0143172020999992000090903004+38590+039280FM-12+0882LTCA V0203101N002112200019N0200001N1+01161+00261101561ADDGA1001+999999999GF100991001001999999001001MA1999999091681MD1310051+9999REMSYN060AAXX  09034 17202 42970 03104 10116 20026 39168 40156 53005;
0220172020999992000090906004+38590+039280FM-12+0882LTCA V0200901N002612200019N0200001N1+02421+00741101641ADDAA199000091GA1001+999999999GF100991001001999999001001IA1019IA2999+00909KA1120N+01121MA1999999091801MD1210181+9999REMSYN076AAXX  09064 17202 32970 00905 10242 20074 39180 40164 52018 333 20112 30009;EQDQ01  00002PRCP99
0143172020999992000090909004+38590+039280FM-12+0882LTCA V0201801N001512200019N0200001N1+02901+00741101621ADDGA1001+999999999GF100991001001999999001001MA1999999091761MD1810041+9999REMSYN060AAXX  09094 17202 42970 01803 10290 20074 39176 40162 58004;
0173172020999992000090912004+38590+039280FM-12+0882LTCA V0202701N004112200019N0200001N1+03241+00701101311ADDAA199000091GA1001+999999999GF100991001001999999001001MA1999999091501MD1710161+9999REMSYN060AAXX  09124 17202 32970 02708 10324 20070 39150 40131 57016;EQDQ01  00002PRCP99
0143172020999992000090915004+38590+039280FM-12+0882LTCA V0202901N004112200019N0200001N1+03101+00281101241ADDGA1001+999999999GF100991001001999999001001MA1999999091401MD1710101+9999REMSYN060AAXX  09154 17202 42970 02908 10310 20028 39140 40124 57010;
0196172020999992000090918004+38590+039280FM-12+0882LTCA V0202301N002612200019N0200001N1+02301+00021101201ADDAA199000091GA1001+999999999GF100991001001999999001001KA1999M+03341MA1999999091411MD1310011+9999REMSYN070AAXX  09184 17202 32970 02305 10230 20002 39141 40120 53001 333 10334;EQDQ01  00002PRCP99
0143172020999992000090921004+38590+039280FM-12+0882LTCA V0202301N005112200019N0200001N1+02301+00021101221ADDGA1001+999999999GF100991001001999999001001MA1999999091461MD1210051+9999REMSYN060AAXX  09214 17202 42970 02310 10230 20002 39146 40122 52005;
0173172020999992000091000004+38590+039280FM-12+0882LTCA V0203101N002112200019N0200001N1+02081+00171101251ADDAA199000091GA1001+999999999GF100991001001999999001001MA1999999091501MD1210041+9999REMSYN060AAXX  10004 17202 32970 03104 10208 20017 39150 40125 52004;EQDQ01  00002PRCP99
0143172020999992000091003004+38590+039280FM-12+0882LTCA V0202301N003112200019N0200001N1+01421+00431101311ADDGA1001+999999999GF100991001001999999001001MA1999999091501MD1410001+9999REMSYN060AAXX  10034 17202 42970 02306 10142 20043 39150 40131 54000;
0220172020999992000091006004+38590+039280FM-12+0882LTCA V0202901N006712200019N0200001N1+02181+00801101331ADDAA199000091GA1001+999999999GF100991001001999999001001IA1019IA2999+01209KA1120N+01401MA1999999091501MD1410001+9999REMSYN076AAXX  10064 17202 32970 02913 10218 20080 39150 40133 54000 333 20140 30012;EQDQ01  00002PRCP99
0143172020999992000091009004+38590+039280FM-12+0882LTCA V0200201N002612200019N0200001N1+02661+00721101151ADDGA1001+999999999GF100991001001999999001001MA1999999091381MD1710121+9999REMSYN060AAXX  10094 17202 42970 00205 10266 20072 39138 40115 57012;
0189172020999992000091012004+38590+039280FM-12+0882LTCA V0203101N006212200019N0200001N1+02901+00631100921ADDAA199000091GA1011+010509029GF101991011011012501001001MA1999999091181MD1710201+9999REMSYN076AAXX  10124 17202 32670 13112 10290 20063 39118 40092 57020 81100 333 81835;EQDQ01  00002PRCP99
0143172020999992000091015004+38590+039280FM-12+0882LTCA V0200201N004112200019N0200001N1+02901+00621100911ADDGA1001+999999999GF100991001001999999001001MA1999999091121MD1710061+9999REMSYN060AAXX  10154 17202 42970 00208 10290 20062 39112 40091 57006;
0196172020999992000091018004+38590+039280FM-12+0882LTCA V0202901N005112200019N0200001N1+02301+00381101021ADDAA199000091GA1001+999999999GF100991001001999999001001KA1999M+03061MA1999999091221MD1210101+9999REMSYN070AAXX  10184 17202 32970 02910 10230 20038 39122 40102 52010 333 10306;EQDQ01  00002PRCP99
0143172020999992000091021004+38590+039280FM-12+0882LTCA V0203101N005112200019N0200001N1+02001+00341101141ADDGA1001+999999999GF100991001001999999001001MA1999999091341MD1210121+9999REMSYN060AAXX  10214 17202 42970 03110 10200 20034 39134 40114 52012;
0173172020999992000091100004+38590+039280FM-12+0882LTCA V0202901N003112200019N0200001N1+01701+00381101141ADDAA199000091GA1001+999999999GF100991001001999999001001MA1999999091341MD1410001+9999REMSYN060AAXX  11004 17202 32970 02906 10170 20038 39134 40114 54000;EQDQ01  00002PRCP99
0143172020999992000091103004+38590+039280FM-12+0882LTCA V0202701N004112200019N0200001N1+01321+00281101141ADDGA1001+999999999GF100991001001999999001001MA1999999091311MD1610031+9999REMSYN060AAXX  11034 17202 42970 02708 10132 20028 39131 40114 56003;
0220172020999992000091106004+38590+039280FM-12+0882LTCA V0202401N002612200019N0200001N1+01961+00441101211ADDAA199000091GA1001+999999999GF100991001001999999001001IA1019IA2999+01109KA1120N+01261MA1999999091381MD1110071+9999REMSYN076AAXX  11064 17202 32970 02405 10196 20044 39138 40121 51007 333 20126 30011;EQDQ01  00002PRCP99
0143172020999992000091109004+38590+039280FM-12+0882LTCA V0201401N002612200019N0200001N1+02521+00561101091ADDGA1001+999999999GF100991001001999999001001MA1999999091301MD1810081+9999REMSYN060AAXX  11094 17202 42970 01405 10252 20056 39130 40109 58008;
0173172020999992000091112004+38590+039280FM-12+0882LTCA V0201401N002112200019N0200001N1+02881+00621100851ADDAA199000091GA1001+999999999GF100991001001999999001001MA1999999091081MD1710221+9999REMSYN060AAXX  11124 17202 32970 01404 10288 20062 39108 40085 57022;EQDQ01  00002PRCP99
0143172020999992000091115004+38590+039280FM-12+0882LTCA V0201801N001512200019N0200001N1+02941+00541100701ADDGA1001+999999999GF100991001001999999001001MA1999999090921MD1710161+9999REMSYN060AAXX  11154 17202 42970 01803 10294 20054 39092 40070 57016;
0196172020999992000091118004+38590+039280FM-12+0882LTCA V0209999C000012200019N0200001N1+02101+00211100811ADDAA199000091GA1001+999999999GF100991001001999999001001KA1999M+03101MA1999999091001MD1310081+9999REMSYN070AAXX  11184 17202 32970 00000 10210 20021 39100 40081 53008 333 10310;EQDQ01  00002PRCP99
0143172020999992000091121004+38590+039280FM-12+0882LTCA V0202701N003612200019N0200001N1+01761+00241100731ADDGA1001+999999999GF100991001001999999001001MA1999999090941MD1710061+9999REMSYN060AAXX  11214 17202 42970 02707 10176 20024 39094 40073 57006;
0173172020999992000091200004+38590+039280FM-12+0882LTCA V0202701N001512200019N0200001N1+01301+00061100701ADDAA199000091GA1001+999999999GF100991001001999999001001MA1999999090921MD1610021+9999REMSYN060AAXX  12004 17202 32970 02703 10130 20006 39092 40070 56002;EQDQ01  00002PRCP99
0143172020999992000091203004+38590+039280FM-12+0882LTCA V0203201N002112200019N0200001N1+01241+00031100681ADDGA1001+999999999GF100991001001999999001001MA1999999090901MD1610021+9999REMSYN060AAXX  12034 17202 42970 03204 10124 20003 39090 40068 56002;
0220172020999992000091206004+38590+039280FM-12+0882LTCA V0200901N002112200019N0200001N1+02061+00801100771ADDAA199000091GA1001+999999999GF100991001001999999001001IA1019IA2999+00909KA1120N+01061MA1999999090981MD1210081+9999REMSYN076AAXX  12064 17202 32970 00904 10206 20080 39098 40077 52008 333 20106 30009;EQDQ01  00002PRCP99
0143172020999992000091209004+38590+039280FM-12+0882LTCA V0201101N002112200019N0200001N1+02801+00811100651ADDGA1001+999999999GF100991001001999999001001MA1999999090901MD1810081+9999REMSYN060AAXX  12094 17202 42970 01104 10280 20081 39090 40065 58008;
0173172020999992000091212004+38590+039280FM-12+0882LTCA V0200101N002612200019N0200001N1+03181+00601100441ADDAA199000091GA1001+999999999GF100991001001999999001001MA1999999090701MD1710201+9999REMSYN060AAXX  12124 17202 32970 00105 10318 20060 39070 40044 57020;EQDQ01  00002PRCP99
0143172020999992000091215004+38590+039280FM-12+0882LTCA V0202901N001512200019N0200001N1+03181+00601100331ADDGA1001+999999999GF100991001001999999001001MA1999999090601MD1610101+9999REMSYN060AAXX  12154 17202 42970 02903 10318 20060 39060 40033 56010;
0196172020999992000091218004+38590+039280FM-12+0882LTCA V0203101N002612200019N0200001N1+02061+00191100381ADDAA199000091GA1001+999999999GF100991001001999999001001KA1999M+03321MA1999999090631MD1310031+9999REMSYN070AAXX  12184 17202 32970 03105 10206 20019 39063 40038 53003 333 10332;EQDQ01  00002PRCP99
0143172020999992000091221004+38590+039280FM-12+0882LTCA V0202901N002112200019N0200001N1+01641+00171100391ADDGA1001+999999999GF100991001001999999001001MA1999999090651MD1310021+9999REMSYN060AAXX  12214 17202 42970 02904 10164 20017 39065 40039 53002;
0173172020999992000091300004+38590+039280FM-12+0882LTCA V0202701N001512200019N0200001N1+01361+00141100391ADDAA199000091GA1001+999999999GF100991001001999999001001MA1999999090671MD1310021+9999REMSYN060AAXX  13004 17202 32970 02703 10136 20014 39067 40039 53002;EQDQ01  00002PRCP99
0143172020999992000091303004+38590+039280FM-12+0882LTCA V0209999C000012200019N0200001N1+01141+00041100441ADDGA1001+999999999GF100991001001999999001001MA1999999090701MD1110031+9999REMSYN060AAXX  13034 17202 42970 00000 10114 20004 39070 40044 51003;
0220172020999992000091306004+38590+039280FM-12+0882LTCA V0200801N002612200019N0200001N1+02121+00501100521ADDAA199000091GA1001+999999999GF100991001001999999001001IA1019IA2999+00909KA1120N+01081MA1999999090751MD1310051+9999REMSYN076AAXX  13064 17202 32970 00805 10212 20050 39075 40052 53005 333 20108 30009;EQDQ01  00002PRCP99
0143172020999992000091309004+38590+039280FM-12+0882LTCA V0201201N007712200019N0200001N1+03001+00781100441ADDGA1001+999999999GF100991001001999999001001MA1999999090711MD1810041+9999REMSYN060AAXX  13094 17202 42970 01215 10300 20078 39071 40044 58004;
0189172020999992000091312004+38590+039280FM-12+0882LTCA V0201201N003112200019N0200001N1+03161+00781100431ADDAA199000091GA1011+010509029GF101991011011012501001001MA1999999090701MD1610011+9999REMSYN076AAXX  13124 17202 32670 11206 10316 20078 39070 40043 56001 81100 333 81835;EQDQ01  00002PRCP99
0143172020999992000091315004+38590+039280FM-12+0882LTCA V0201701N004112200019N0200001N1+02981+00761100461ADDGA1001+999999999GF100991001001999999001001MA1999999090701MD1410001+9999REMSYN060AAXX  13154 17202 42970 01708 10298 20076 39070 40046 54000;
0196172020999992000091318004+38590+039280FM-12+0882LTCA V0203401N002112200019N0200001N1+02361+00761100691ADDAA199000091GA1001+999999999GF100991001001999999001001KA1999M+03261MA1999999090921MD1210121+9999REMSYN070AAXX  13184 17202 32970 03404 10236 20076 39092 40069 52012 333 10326;EQDQ01  00002PRCP99
0143172020999992000091321004+38590+039280FM-12+0882LTCA V0202601N002112200019N0200001N1+01901+00861100761ADDGA1001+999999999GF100991001001999999001001MA1999999091021MD1210101+9999REMSYN060AAXX  13214 17202 42970 02604 10190 20086 39102 40076 52010;
0173172020999992000091400004+38590+039280FM-12+0882LTCA V0203001N002612200019N0200001N1+01601+00901100851ADDAA199000091GA1001+999999999GF100991001001999999001001MA1999999091101MD1110081+9999REMSYN060AAXX  14004 17202 32970 03005 10160 20090 39110 40085 51008;EQDQ01  00002PRCP99
0143172020999992000091403004+38590+039280FM-12+0882LTCA V0203301N001512200019N0200001N1+01481+00841100961ADDGA1001+999999999GF100991001001999999001001MA1999999091171MD1310071+9999REMSYN060AAXX  14034 17202 42970 03303 10148 20084 39117 40096 53007;
0232172020999992000091406004+38590+039280FM-12+0882LTCA V0200901N001512200019N0200001N1+02221+01121101021ADDAA199000091GA1011+010509029GF101991011011012501001001IA1019IA2999+01109KA1120N+01301MA1999999091241MD1210071+9999REMSYN088AAXX  14064 17202 32670 10903 10222 20112 39124 40102 52007 81100 333 20130 30011 81835;EQDQ01  00002PRCP99
0159172020999992000091409004+38590+039280FM-12+0882LTCA V0201201N006212200019N0200001N1+02881+01221101071ADDGA1021+010509029GF102991021011012501001001MA1999999091301MD1010061+9999REMSYN076AAXX  14094 17202 42670 21212 10288 20122 39130 40107 50006 82100 333 82835;
0189172020999992000091412004+38590+039280FM-12+0882LTCA V0201801N003612200019N0200001N1+03201+01001100951ADDAA199000091GA1031+010509029GF103991031011012501001001MA1999999091191MD1710111+9999REMSYN076AAXX  14124 17202 32670 31807 10320 20100 39119 40095 57011 83100 333 83835;EQDQ01  00002PRCP99
0159172020999992000091415004+38590+039280FM-12+0882LTCA V0202101N004612200019N0200001N1+02961+00921100911ADDGA1021+010509029GF102991021011012501001001MA1999999091121MD1710071+9999REMSYN076AAXX  14154 17202 42670 22109 10296 20092 39112 40091 57007 82100 333 82835;
0196172020999992000091418004+38590+039280FM-12+0882LTCA V0203101N001012200019N0200001N1+02101+00701100991ADDAA199000091GA1001+999999999GF100991001001999999001001KA1999M+03261MA1999999091201MD1310081+9999REMSYN070AAXX  14184 17202 32970 03102 10210 20070 39120 40099 53008 333 10326;EQDQ01  00002PRCP99
0143172020999992000091421004+38590+039280FM-12+0882LTCA V0202901N002612200019N0200001N1+01801+00401101071ADDGA1001+999999999GF100991001001999999001001MA1999999091321MD1210121+9999REMSYN060AAXX  14214 17202 42970 02905 10180 20040 39132 40107 52012;
0173172020999992000091500004+38590+039280FM-12+0882LTCA V0202601N003112200019N0200001N1+01581+00441101101ADDAA199000091GA1001+999999999GF100991001001999999001001MA1999999091321MD1410001+9999REMSYN060AAXX  15004 17202 32970 02606 10158 20044 39132 40110 54000;EQDQ01  00002PRCP99
0143172020999992000091503004+38590+039280FM-12+0882LTCA V0202801N002112200019N0200001N1+01241+00241101041ADDGA1001+999999999GF100991001001999999001001MA1999999091221MD1710101+9999REMSYN060AAXX  15034 17202 42970 02804 10124 20024 39122 40104 57010;
0232172020999992000091506004+38590+039280FM-12+0882LTCA V0200801N002112200019N0200001N1+02221+01021101051ADDAA199000091GA1021+010509029GF102991021011012501001001IA1019IA2999+01009KA1120N+01201MA1999999091251MD1310031+9999REMSYN088AAXX  15064 17202 32670 20804 10222 20102 39125 40105 53003 82100 333 20120 30010 82835;EQDQ01  00002PRCP99
0159172020999992000091509004+38590+039280FM-12+0882LTCA V0203401N001512200019N0200001N1+02861+01271101001ADDGA1031+010509029GF103991031011999999001001MA1999999091221MD1810031+9999REMSYN076AAXX  15094 17202 42970 33403 10286 20127 39122 40100 58003 83100 333 83835;
0159172020999992000091515004+38590+039280FM-12+0882LTCA V0201701N001512200019N0200001N1+03001+00841100821ADDGA1031+010509029GF103991031011012501001001MA1999999091021MD1710081+9999REMSYN076AAXX  15154 17202 42670 31703 10300 20084 39102 40082 57008 83100 333 83835;
0208172020999992000091518004+38590+039280FM-12+0882LTCA V0203001N001512200019N0200001N1+02181+00581100931ADDAA199000091GA1011+010509029GF101991011011012501001001KA1120M+03161MA1999999091141MD1310121+9999REMSYN082AAXX  15184 17202 32670 13003 10218 20058 39114 40093 53012 81100 333 10316 81835;EQDQ01  00002PRCP99
0143172020999992000091521004+38590+039280FM-12+0882LTCA V0203001N003612200019N0200001N1+01901+00801100941ADDGA1001+999999999GF100991001001999999001001MA1999999091181MD1210041+9999REMSYN060AAXX  15214 17202 42970 03007 10190 20080 39118 40094 52004;
0173172020999992000091600004+38590+039280FM-12+0882LTCA V0203101N001012200019N0200001N1+01741+00641101001ADDAA199000091GA1001+999999999GF100991001001999999001001MA1999999091231MD1210051+9999REMSYN060AAXX  16004 17202 32970 03102 10174 20064 39123 40100 52005;EQDQ01  00002PRCP99
0143172020999992000091603004+38590+039280FM-12+0882LTCA V0203001N002112200019N0200001N1+01401+00541101051ADDGA1001+999999999GF100991001001999999001001MA1999999091251MD1110031+9999REMSYN060AAXX  16034 17202 42970 03004 10140 20054 39125 40105 51003;
0220172020999992000091606004+38590+039280FM-12+0882LTCA V0200801N002612200019N0200001N1+02041+00921101161ADDAA199000091GA1001+999999999GF100991001001999999001001IA1019IA2999+01209KA1120N+01361MA1999999091331MD1210081+9999REMSYN076AAXX  16064 17202 32970 00805 10204 20092 39133 40116 52008 333 20136 30012;EQDQ01  00002PRCP99
0159172020999992000091609004+38590+039280FM-12+0882LTCA V0201201N001512200019N0200001N1+02801+00961101051ADDGA1031+010509029GF103991031011999999001001MA1999999091281MD1810051+9999REMSYN076AAXX  16094 17202 42970 31203 10280 20096 39128 40105 58005 83100 333 83835;
0189172020999992000091612004+38590+039280FM-12+0882LTCA V0201201N002612200019N0200001N1+03201+00931100811ADDAA199000091GA1031+010509029GF103991031011012501001001MA1999999091081MD1710201+9999REMSYN076AAXX  16124 17202 32670 31205 10320 20093 39108 40081 57020 83100 333 83835;EQDQ01  00002PRCP99
0159172020999992000091615004+38590+039280FM-12+0882LTCA V0201001N003112200019N0200001N1+03001+00941100761ADDGA1031+010509029GF103991031011012501001001MA1999999090991MD1710091+9999REMSYN076AAXX  16154 17202 42670 31006 10300 20094 39099 40076 57009 83100 333 83835;
0196172020999992000091618004+38590+039280FM-12+0882LTCA V0202901N001512200019N0200001N1+02261+00301100841ADDAA199000091GA1001+999999999GF100991001001999999001001KA1999M+03241MA1999999091061MD1310071+9999REMSYN070AAXX  16184 17202 32970 02903 10226 20030 39106 40084 53007 333 10324;EQDQ01  00002PRCP99
0143172020999992000091621004+38590+039280FM-12+0882LTCA V0209999C000012200019N0200001N1+01961+00441100871ADDGA1001+999999999GF100991001001999999001001MA1999999091121MD1210061+9999REMSYN060AAXX  16214 17202 42970 00000 10196 20044 39112 40087 52006;
0173172020999992000091700004+38590+039280FM-12+0882LTCA V0209999C000012200019N0200001N1+01521+00541100941ADDAA199000091GA1001+999999999GF100991001001999999001001MA1999999091181MD1210061+9999REMSYN060AAXX  17004 17202 32970 00000 10152 20054 39118 40094 52006;EQDQ01  00002PRCP99
0143172020999992000091703004+38590+039280FM-12+0882LTCA V0203101N002112200019N0200001N1+01301+00221101001ADDGA1001+999999999GF100991001001999999001001MA1999999091201MD1110021+9999REMSYN060AAXX  17034 17202 42970 03104 10130 20022 39120 40100 51002;
0238172020999992000091706004+38590+039280FM-12+0882LTCA V0202701N00461036001CN0200001N1+01801+01181101391ADDAA199000091GA1041+010509089GF107991041021012501051001IA1019IA2999+01009KA1120N+01241MA1999999091521MD1310321+9999REMSYN094AAXX  17064 17202 32670 72709 10180 20118 39152 40139 53032 84250 333 20124 30010 84835 87359;EQDQ01  00002PRCP99
0193172020999992000091709004+38590+039280FM-12+0882LTCA V0202401N004110090019N0150001N1+01801+01541101671ADDAY121031AY221031GA1051+009009089GF107991051021008001051001MA1999999091761MD1210241+9999MW1801REMSYN088AAXX  17094 17202 41565 72408 10180 20154 39176 40167 52024 78022 85250 333 85830 87359;
0210172020999992000091712004+38590+039280FM-12+0882LTCA V0200601N002610090019N0150001N1+01741+01621101661ADDAA106003091AY121061AY221061GA1051+009009089GF107991051021008001051001MA1999999091701MD1610061+9999MW1801REMSYN094AAXX  17124 17202 11565 70605 10174 20162 39170 40166 56006 60031 78022 85250 333 85830 87359;
0187172020999992000091715004+38590+039280FM-12+0882LTCA V0200901N001512200019N0200001N1+01861+01441101491ADDAY181031AY211031GA1021+010509029GF102991021011012501001001MA1999999091551MD1710151+9999MW1011REMSYN082AAXX  17154 17202 41670 20903 10186 20144 39155 40149 57015 70181 82100 333 82835;
0211172020999992000091718004+38590+039280FM-12+0882LTCA V0202601N002612200019N0200001N1+01341+01071101551ADDAA112003091AY181061AY211061GA1001+999999999GF100991001001999999001001KA1999M+01881MA1999999091601MD1310051+9999MW1021REMSYN082AAXX  17184 17202 11970 02605 10134 20107 39160 40155 53005 60032 70281 333 10188;
0109172020999992000091720004+38590+039280FM-16+088299999V02099999999999999999N0160931N1+99999+99999999999ADDKA1999M+00091MW1001REMMET059172027Z PGRO 172020+ 10009(5 7SM FEW010 BKN250 27/22 A2983;EQDQ01+000000PRSWM2
0143172020999992000091721004+38590+039280FM-12+0882LTCA V0202701N002112200019N0200001N1+01221+00991101601ADDGA1001+999999999GF100991001001999999001001MA1999999091631MD1310031+9999REMSYN060AAXX  17214 17202 42970 02704 10122 20099 39163 40160 53003;
0154172020999992000091800004+38590+039280FM-12+0882LTCA V0202501N002612200019N0200001N1+01061+00761101641ADDAA199000021GA1001+999999999GF100991001001999999001001MA1999999091651MD1110021+9999REMSYN060AAXX  18004 17202 32970 02505 10106 20076 39165 40164 51002;
0143172020999992000091803004+38590+039280FM-12+0882LTCA V0202701N002612200019N0200001N1+00941+00721101681ADDGA1001+999999999GF100991001001999999001001MA1999999091681MD1310031+9999REMSYN060AAXX  18034 17202 42970 02705 10094 20072 39168 40168 53003;
0219172020999992000091806004+38590+039280FM-12+0882LTCA V0201001N001012200019N0200001N1+01501+01141101781ADDAA124003091GA1011+010509029GF101991011011012501001001IA1099IA2999+00609KA1120N+00841MA1999999091771MD1210111+9999REMSYN094AAXX  18064 17202 32670 11002 10150 20114 39177 40178 52011 81100 333 20084 31006 70030 81835;
0159172020999992000091809004+38590+039280FM-12+0882LTCA V0209999C000012200019N0200001N1+02141+00961101621ADDGA1011+010509029GF101991011011012501001001MA1999999091681MD1810081+9999REMSYN076AAXX  18094 17202 42670 10000 10214 20096 39168 40162 58008 81100 333 81835;
0159172020999992000091815004+38590+039280FM-12+0882LTCA V0200301N001512200019N0200001N1+02541+00541101291ADDGA1011+010509029GF101991011011012501001001MA1999999091831MD1710121+9999REMSYN076AAXX  18154 17202 42670 10303 10254 20054 39183 40129 57012 81100 333 81835;
0196172020999992000091818004+38590+039280FM-12+0882LTCA V0202701N002112200019N0200001N1+01741+00321101331ADDAA199000091GA1001+999999999GF100991001001999999001001KA1999M+02701MA1999999091401MD1310021+9999REMSYN070AAXX  18184 17202 32970 02704 10174 20032 39140 40133 53002 333 10270;EQDQ01  00002PRCP99
0143172020999992000091821004+38590+039280FM-12+0882LTCA V0202401N002612200019N0200001N1+01361+00321101331ADDGA1001+999999999GF100991001001999999001001MA1999999091441MD1310041+9999REMSYN060AAXX  18214 17202 42970 02405 10136 20032 39144 40133 53004;
0173172020999992000091900004+38590+039280FM-12+0882LTCA V0209999C000012200019N0200001N1+01101+00381101361ADDAA199000091GA1001+999999999GF100991001001999999001001MA1999999091481MD1110041+9999REMSYN060AAXX  19004 17202 32970 00000 10110 20038 39148 40136 51004;EQDQ01  00002PRCP99
0143172020999992000091903004+38590+039280FM-12+0882LTCA V0202701N003112200019N0200001N1+01021+00381101421ADDGA1001+999999999GF100991001001999999001001MA1999999091521MD1310041+9999REMSYN060AAXX  19034 17202 42970 02706 10102 20038 39152 40142 53004;
0220172020999992000091906004+38590+039280FM-12+0882LTCA V0201201N001012200019N0200001N1+01921+01061101541ADDAA199000091GA1001+999999999GF100991001001999999001001IA1019IA2999+00809KA1120N+00961MA1999999091631MD1210091+9999REMSYN076AAXX  19064 17202 32970 01202 10192 20106 39163 40154 52009 333 20096 30008;EQDQ01  00002PRCP99
0143172020999992000091909004+38590+039280FM-12+0882LTCA V0209999C000012200019N0200001N1+02741+01061101421ADDGA1001+999999999GF100991001001999999001001MA1999999091551MD1810081+9999REMSYN060AAXX  19094 17202 42970 00000 10274 20106 39155 40142 58008;
0189172020999992000091912004+38590+039280FM-12+0882LTCA V0202501N003112200019N0200001N1+02981+00681101221ADDAA199000091GA1011+010509029GF101991011011012501001001MA1999999091371MD1710081+9999REMSYN076AAXX  19124 17202 32670 12506 10298 20068 39137 40122 57008 81100 333 81835;EQDQ01  00002PRCP99
0143172020999992000091915004+38590+039280FM-12+0882LTCA V0202601N002112200019N0200001N1+02941+00541101131ADDGA1001+999999999GF100991001001999999001001MA1999999091291MD1710081+9999REMSYN060AAXX  19154 17202 42970 02604 10294 20054 39129 40113 57008;
0196172020999992000091918004+38590+039280FM-12+0882LTCA V0202601N001512200019N0200001N1+02341+00461101151ADDAA199000091GA1001+999999999GF100991001001999999001001KA1999M+03101MA1999999091321MD1310021+9999REMSYN070AAXX  19184 17202 32970 02603 10234 20046 39132 40115 53002 333 10310;EQDQ01  00002PRCP99
0143172020999992000091921004+38590+039280FM-12+0882LTCA V0203001N002612200019N0200001N1+01561+00121101191ADDGA1001+999999999GF100991001001999999001001MA1999999091371MD1210051+9999REMSYN060AAXX  19214 17202 42970 03005 10156 20012 39137 40119 52005;
0173172020999992000092000004+38590+039280FM-12+0882LTCA V0202701N002112200019N0200001N1+01421+00021101191ADDAA199000091GA1001+999999999GF100991001001999999001001MA1999999091371MD1410001+9999REMSYN060AAXX  20004 17202 32970 02704 10142 20002 39137 40119 54000;EQDQ01  00002PRCP99
0143172020999992000092003004+38590+039280FM-12+0882LTCA V0202801N002612200019N0200001N1+01201+00081101201ADDGA1001+999999999GF100991001001999999001001MA1999999091371MD1410001+9999REMSYN060AAXX  20034 17202 42970 02805 10120 20008 39137 40120 54000;
0220172020999992000092006004+38590+039280FM-12+0882LTCA V0200801N001512200019N0200001N1+02101+00911101301ADDAA199000091GA1001+999999999GF100991001001999999001001IA1019IA2999+00909KA1120N+01061MA1999999091441MD1310071+9999REMSYN076AAXX  20064 17202 32970 00803 10210 20091 39144 40130 53007 333 20106 30009;EQDQ01  00002PRCP99
0143172020999992000092009004+38590+039280FM-12+0882LTCA V0202001N002112200019N0200001N1+02801+00811101191ADDGA1001+999999999GF100991001001999999001001MA1999999091371MD1810071+9999REMSYN060AAXX  20094 17202 42970 02004 10280 20081 39137 40119 58007;
0189172020999992000092012004+38590+039280FM-12+0882LTCA V0202901N004112200019N0200001N1+03121+00121100961ADDAA199000091GA1011+010509029GF101991011011012501001001MA1999999091181MD1710191+9999REMSYN076AAXX  20124 17202 32670 12908 10312 20012 39118 40096 57019 81100 333 81835;EQDQ01  00002PRCP99
0143172020999992000092015004+38590+039280FM-12+0882LTCA V0203001N003112200019N0200001N1+02961+00091100901ADDGA1001+999999999GF100991001001999999001001MA1999999091101MD1610081+9999REMSYN060AAXX  20154 17202 42970 03006 10296 20009 39110 40090 56008;
0196172020999992000092018004+38590+039280FM-12+0882LTCA V0202901N001512200019N0200001N1+01941+00001101001ADDAA199000091GA1001+999999999GF100991001001999999001001KA1999M+03161MA1999999091171MD1310071+9999REMSYN070AAXX  20184 17202 32970 02903 10194 20000 39117 40100 53007 333 10316;EQDQ01  00002PRCP99
0143172020999992000092021004+38590+039280FM-12+0882LTCA V0203001N003612200019N0200001N1+02041+00161100991ADDGA1001+999999999GF100991001001999999001001MA1999999091221MD1210051+9999REMSYN060AAXX  20214 17202 42970 03007 10204 20016 39122 40099 52005;
0173172020999992000092100004+38590+039280FM-12+0882LTCA V0202401N002112200019N0200001N1+01541+00081101001ADDAA199000091GA1001+999999999GF100991001001999999001001MA1999999091221MD1410001+9999REMSYN060AAXX  21004 17202 32970 02404 10154 20008 39122 40100 54000;EQDQ01  00002PRCP99
0143172020999992000092103004+38590+039280FM-12+0882LTCA V0203101N002112200019N0200001N1+01201+00081101041ADDGA1001+999999999GF100991001001999999001001MA1999999091221MD1010001+9999REMSYN060AAXX  21034 17202 42970 03104 10120 20008 39122 40104 50000;
0220172020999992000092106004+38590+039280FM-12+0882LTCA V0201101N001012200019N0200001N1+02201+00501101111ADDAA199000091GA1001+999999999GF100991001001999999001001IA1019IA2999+01009KA1120N+01161MA1999999091291MD1210071+9999REMSYN076AAXX  21064 17202 32970 01102 10220 20050 39129 40111 52007 333 20116 30010;EQDQ01  00002PRCP99
0143172020999992000092109004+38590+039280FM-12+0882LTCA V0201401N002112200019N0200001N1+02841+00781101001ADDGA1001+999999999GF100991001001999999001001MA1999999091231MD1810061+9999REMSYN060AAXX  21094 17202 42970 01404 10284 20078 39123 40100 58006;
0173172020999992000092112004+38590+039280FM-12+0882LTCA V0202501N003612200019N0200001N1+03061+00601100861ADDAA199000091GA1001+999999999GF100991001001999999001001MA1999999091091MD1710141+9999REMSYN060AAXX  21124 17202 32970 02507 10306 20060 39109 40086 57014;EQDQ01  00002PRCP99
0143172020999992000092115004+38590+039280FM-12+0882LTCA V0202901N003112200019N0200001N1+02871+00101100841ADDGA1001+999999999GF100991001001999999001001MA1999999091031MD1610061+9999REMSYN060AAXX  21154 17202 42970 02906 10287 20010 39103 40084 56006;
0196172020999992000092118004+38590+039280FM-12+0882LTCA V0203101N005712200019N0200001N1+02241+00041100891ADDAA199000091GA1001+999999999GF100991001001999999001001KA1999M+03101MA1999999091101MD1310071+9999REMSYN070AAXX  21184 17202 32970 03111 10224 20004 39110 40089 53007 333 10310;EQDQ01  00002PRCP99
0143172020999992000092121004+38590+039280FM-12+0882LTCA V0202801N003112200019N0200001N1+02101+00161101041ADDGA1001+999999999GF100991001001999999001001MA1999999091281MD1210181+9999REMSYN060AAXX  21214 17202 42970 02806 10210 20016 39128 40104 52018;
0173172020999992000092200004+38590+039280FM-12+0882LTCA V0202601N001512200019N0200001N1+01801+00271101101ADDAA199000091GA1001+999999999GF100991001001999999001001MA1999999091321MD1210041+9999REMSYN060AAXX  22004 17202 32970 02603 10180 20027 39132 40110 52004;EQDQ01  00002PRCP99
0143172020999992000092203004+38590+039280FM-12+0882LTCA V0202901N002612200019N0200001N1+01301+00271101211ADDGA1001+999999999GF100991001001999999001001MA1999999091381MD1210061+9999REMSYN060AAXX  22034 17202 42970 02905 10130 20027 39138 40121 52006;
0220172020999992000092206004+38590+039280FM-12+0882LTCA V0202101N001012200019N0200001N1+01921+00481101341ADDAA199000091GA1001+999999999GF100991001001999999001001IA1019IA2999+01009KA1120N+01241MA1999999091491MD1210111+9999REMSYN076AAXX  22064 17202 32970 02102 10192 20048 39149 40134 52011 333 20124 30010;EQDQ01  00002PRCP99
0143172020999992000092209004+38590+039280FM-12+0882LTCA V0202101N001512200019N0200001N1+02861+00441101301ADDGA1001+999999999GF100991001001999999001001MA1999999091521MD1110031+9999REMSYN060AAXX  22094 17202 42970 02103 10286 20044 39152 40130 51003;
0173172020999992000092212004+38590+039280FM-12+0882LTCA V0201801N002612200019N0200001N1+03161+00481101111ADDAA199000091GA1001+999999999GF100991001001999999001001MA1999999091351MD1710171+9999REMSYN060AAXX  22124 17202 32970 01805 10316 20048 39135 40111 57017;EQDQ01  00002PRCP99
0143172020999992000092215004+38590+039280FM-12+0882LTCA V0202101N002612200019N0200001N1+02921+00141101121ADDGA1001+999999999GF100991001001999999001001MA1999999091301MD1610051+9999REMSYN060AAXX  22154 17202 42970 02105 10292 20014 39130 40112 56005;
0196172020999992000092218004+38590+039280FM-12+0882LTCA V0202901N001512200019N0200001N1+02061-00061101251ADDAA199000091GA1001+999999999GF100991001001999999001001KA1999M+03201MA1999999091401MD1310101+9999REMSYN070AAXX  22184 17202 32970 02903 10206 21006 39140 40125 53010 333 10320;EQDQ01  00002PRCP99
0143172020999992000092221004+38590+039280FM-12+0882LTCA V0202501N002112200019N0200001N1+01621+00121101321ADDGA1001+999999999GF100991001001999999001001MA1999999091491MD1310091+9999REMSYN060AAXX  22214 17202 42970 02504 10162 20012 39149 40132 53009;
0173172020999992000092300004+38590+039280FM-12+0882LTCA V0203101N002612200019N0200001N1+01401+00541101261ADDAA199000091GA1001+999999999GF100991001001999999001001MA1999999091501MD1110011+9999REMSYN060AAXX  23004 17202 32970 03105 10140 20054 39150 40126 51001;EQDQ01  00002PRCP99
0143172020999992000092303004+38590+039280FM-12+0882LTCA V0203001N002612200019N0200001N1+01201+00121101351ADDGA1001+999999999GF100991001001999999001001MA1999999091501MD1410001+9999REMSYN060AAXX  23034 17202 42970 03005 10120 20012 39150 40135 54000;
0220172020999992000092306004+38590+039280FM-12+0882LTCA V0201801N001012200019N0200001N1+01921+00561101451ADDAA199000091GA1001+999999999GF100991001001999999001001IA1019IA2999+00909KA1120N+01141MA1999999091581MD1210081+9999REMSYN076AAXX  23064 17202 32970 01802 10192 20056 39158 40145 52008 333 20114 30009;EQDQ01  00002PRCP99
0143172020999992000092309004+38590+039280FM-12+0882LTCA V0201701N001512200019N0200001N1+02801+00711101371ADDGA1001+999999999GF100991001001999999001001MA1999999091541MD1810041+9999REMSYN060AAXX  23094 17202 42970 01703 10280 20071 39154 40137 58004;
0173172020999992000092312004+38590+039280FM-12+0882LTCA V0200501N001512200019N0200001N1+03141+00501101141ADDAA199000091GA1001+999999999GF100991001001999999001001MA1999999091341MD1710201+9999REMSYN060AAXX  23124 17202 32970 00503 10314 20050 39134 40114 57020;EQDQ01  00002PRCP99
0143172020999992000092315004+38590+039280FM-12+0882LTCA V0202201N001512200019N0200001N1+03021+00221101041ADDGA1001+999999999GF100991001001999999001001MA1999999091221MD1710121+9999REMSYN060AAXX  23154 17202 42970 02203 10302 20022 39122 40104 57012;
0196172020999992000092318004+38590+039280FM-12+0882LTCA V0202701N002612200019N0200001N1+01961+00141101161ADDAA199000091GA1001+999999999GF100991001001999999001001KA1999M+03301MA1999999091301MD1210081+9999REMSYN070AAXX  23184 17202 32970 02705 10196 20014 39130 40116 52008 333 10330;EQDQ01  00002PRCP99
0143172020999992000092321004+38590+039280FM-12+0882LTCA V0202801N002612200019N0200001N1+01621+00141101111ADDGA1001+999999999GF100991001001999999001001MA1999999091301MD1410001+9999REMSYN060AAXX  23214 17202 42970 02805 10162 20014 39130 40111 54000;
0173172020999992000092400004+38590+039280FM-12+0882LTCA V0202901N003112200019N0200001N1+01401+00201101091ADDAA199000091GA1001+999999999GF100991001001999999001001MA1999999091301MD1410001+9999REMSYN060AAXX  24004 17202 32970 02906 10140 20020 39130 40109 54000;EQDQ01  00002PRCP99
0143172020999992000092403004+38590+039280FM-12+0882LTCA V0203201N002112200019N0200001N1+01041+00121101201ADDGA1001+999999999GF100991001001999999001001MA1999999091351MD1310051+9999REMSYN060AAXX  24034 17202 42970 03204 10104 20012 39135 40120 53005;
0220172020999992000092406004+38590+039280FM-12+0882LTCA V0201001N001512200019N0200001N1+01921+00561101361ADDAA199000091GA1001+999999999GF100991001001999999001001IA1019IA2999+00809KA1120N+00961MA1999999091481MD1210131+9999REMSYN076AAXX  24064 17202 32970 01003 10192 20056 39148 40136 52013 333 20096 30008;EQDQ01  00002PRCP99
0159172020999992000092409004+38590+039280FM-12+0882LTCA V0200701N002112200019N0200001N1+02661+00741101291ADDGA1021+010509029GF102991021011012501001001MA1999999091451MD1810031+9999REMSYN076AAXX  24094 17202 42670 20704 10266 20074 39145 40129 58003 82100 333 82835;
0189172020999992000092412004+38590+039280FM-12+0882LTCA V0202901N001512200019N0200001N1+03261+00541101071ADDAA199000091GA1021+010509029GF102991021011012501001001MA1999999091281MD1710171+9999REMSYN076AAXX  24124 17202 32670 22903 10326 20054 39128 40107 57017 82100 333 82835;EQDQ01  00002PRCP99
0143172020999992000092415004+38590+039280FM-12+0882LTCA V0200601N002112200019N0200001N1+02861+00271101041ADDGA1001+999999999GF100991001001999999001001MA1999999091211MD1710071+9999REMSYN060AAXX  24154 17202 42970 00604 10286 20027 39121 40104 57007;
0196172020999992000092418004+38590+039280FM-12+0882LTCA V0203001N004612200019N0200001N1+01841+00061101071ADDAA199000091GA1001+999999999GF100991001001999999001001KA1999M+03301MA1999999091221MD1110011+9999REMSYN070AAXX  24184 17202 32970 03009 10184 20006 39122 40107 51001 333 10330;EQDQ01  00002PRCP99
0143172020999992000092421004+38590+039280FM-12+0882LTCA V0202901N003112200019N0200001N1+01521+00161101111ADDGA1001+999999999GF100991001001999999001001MA1999999091291MD1210071+9999REMSYN060AAXX  24214 17202 42970 02906 10152 20016 39129 40111 52007;
0173172020999992000092500004+38590+039280FM-12+0882LTCA V0209999C000012200019N0200001N1+01361+00151101081ADDAA199000091GA1001+999999999GF100991001001999999001001MA1999999091291MD1410001+9999REMSYN060AAXX  25004 17202 32970 00000 10136 20015 39129 40108 54000;EQDQ01  00002PRCP99
0143172020999992000092503004+38590+039280FM-12+0882LTCA V0203201N002112200019N0200001N1+01081+00021101131ADDGA1001+999999999GF100991001001999999001001MA1999999091291MD1410001+9999REMSYN060AAXX  25034 17202 42970 03204 10108 20002 39129 40113 54000;
0165172020999992000092509004+38590+039280FM-12+0882LTCA V0201001N002112200019N0200001N1+02641+00561101131ADDGA1011+010509089GF103991011011012501051001MA1999999091301MD1810061+9999REMSYN082AAXX  25094 17202 42670 31004 10264 20056 39130 40113 58006 81150 333 81835 83360;
0189172020999992000092512004+38590+039280FM-12+0882LTCA V0202001N001512200019N0200001N1+03181+00481100871ADDAA199000091GA1031+010509029GF103991031011012501001001MA1999999091101MD1710201+9999REMSYN076AAXX  25124 17202 32670 32003 10318 20048 39110 40087 57020 83100 333 83835;EQDQ01  00002PRCP99
0159172020999992000092515004+38590+039280FM-12+0882LTCA V0202101N004112200019N0200001N1+02901+00151100811ADDGA1031+010509029GF103991031011012501001001MA1999999091001MD1710101+9999REMSYN076AAXX  25154 17202 42670 32108 10290 20015 39100 40081 57010 83100 333 83835;
0196172020999992000092518004+38590+039280FM-12+0882LTCA V0203001N001512200019N0200001N1+02161+00081100921ADDAA199000091GA1001+999999999GF100991001001999999001001KA1999M+03261MA1999999091071MD1310071+9999REMSYN070AAXX  25184 17202 32970 03003 10216 20008 39107 40092 53007 333 10326;EQDQ01  00002PRCP99
0143172020999992000092521004+38590+039280FM-12+0882LTCA V0209999C000012200019N0200001N1+01621+00221100881ADDGA1001+999999999GF100991001001999999001001MA1999999091081MD1110011+9999REMSYN060AAXX  25214 17202 42970 00000 10162 20022 39108 40088 51001;
0173172020999992000092600004+38590+039280FM-12+0882LTCA V0203001N002612200019N0200001N1+01481+00261100841ADDAA199000091GA1001+999999999GF100991001001999999001001MA1999999091071MD1810011+9999REMSYN060AAXX  26004 17202 32970 03005 10148 20026 39107 40084 58001;EQDQ01  00002PRCP99
0143172020999992000092603004+38590+039280FM-12+0882LTCA V0202801N001512200019N0200001N1+01341+00281100901ADDGA1001+999999999GF100991001001999999001001MA1999999091101MD1310031+9999REMSYN060AAXX  26034 17202 42970 02803 10134 20028 39110 40090 53003;
0220172020999992000092606004+38590+039280FM-12+0882LTCA V0209999C000012200019N0200001N1+02221+00541100901ADDAA199000091GA1001+999999999GF100991001001999999001001IA1019IA2999+01109KA1120N+01281MA1999999091111MD1110011+9999REMSYN076AAXX  26064 17202 32970 00000 10222 20054 39111 40090 51001 333 20128 30011;EQDQ01  00002PRCP99
0159172020999992000092609004+38590+039280FM-12+0882LTCA V0202801N003112200019N0200001N1+02821+00531100901ADDGA1021+010509029GF102991021011012501001001MA1999999091111MD1410001+9999REMSYN076AAXX  26094 17202 42670 22806 10282 20053 39111 40090 54000 82100 333 82835;
0189172020999992000092612004+38590+039280FM-12+0882LTCA V0201801N003112200019N0200001N1+03021+00641100691ADDAA199000091GA1031+010509029GF103991031011012501001001MA1999999090921MD1710191+9999REMSYN076AAXX  26124 17202 32670 31806 10302 20064 39092 40069 57019 83100 333 83835;EQDQ01  00002PRCP99
0159172020999992000092615004+38590+039280FM-12+0882LTCA V0201901N004112200019N0200001N1+02641+00461100571ADDGA1031+010509029GF103991031011012501001001MA1999999090801MD1610121+9999REMSYN076AAXX  26154 17202 42670 31908 10264 20046 39080 40057 56012 83100 333 83835;
0196172020999992000092618004+38590+039280FM-12+0882LTCA V0203301N001012200019N0200001N1+01961+00081100591ADDAA199000091GA1001+999999999GF100991001001999999001001KA1999M+03061MA1999999090821MD1310021+9999REMSYN070AAXX  26184 17202 32970 03302 10196 20008 39082 40059 53002 333 10306;EQDQ01  00002PRCP99
0143172020999992000092621004+38590+039280FM-12+0882LTCA V0202301N003112200019N0200001N1+01761+00261100581ADDGA1001+999999999GF100991001001999999001001MA1999999090841MD1110021+9999REMSYN060AAXX  26214 17202 42970 02306 10176 20026 39084 40058 51002;
0173172020999992000092700004+38590+039280FM-12+0882LTCA V0209999C000012200019N0200001N1+01701+00381100561ADDAA199000091GA1001+999999999GF100991001001999999001001MA1999999090841MD1410001+9999REMSYN060AAXX  27004 17202 32970 00000 10170 20038 39084 40056 54000;EQDQ01  00002PRCP99
0143172020999992000092703004+38590+039280FM-12+0882LTCA V0202601N002112200019N0200001N1+01301+00541100701ADDGA1001+999999999GF100991001001999999001001MA1999999090901MD1310061+9999REMSYN060AAXX  27034 17202 42970 02604 10130 20054 39090 40070 53006;
0238172020999992000092706004+38590+039280FM-12+0882LTCA V0202201N002112200019N0200001N1+01901+00781100851ADDAA199000091GA1021+010509089GF104991021011012501001011IA1019IA2999+00909KA1120N+01141MA1999999091021MD1210121+9999REMSYN094AAXX  27064 17202 32670 42204 10190 20078 39102 40085 52012 82101 333 20114 30009 82835 84070;EQDQ01  00002PRCP99
0159172020999992000092709004+38590+039280FM-12+0882LTCA V0209999C000012200019N0200001N1+02421+00741100801ADDGA1041+010509029GF104991041021999999001001MA1999999091011MD1810111+9999REMSYN076AAXX  27094 17202 42970 40000 10242 20074 39101 40080 58011 84200 333 84835;
0189172020999992000092712004+38590+039280FM-12+0882LTCA V0202801N003112200019N0200001N1+02421+00661100701ADDAA199000091GA1041+010509029GF104991041021012501001001MA1999999090921MD1710091+9999REMSYN076AAXX  27124 17202 32670 42806 10242 20066 39092 40070 57009 84200 333 84835;EQDQ01  00002PRCP99
0159172020999992000092715004+38590+039280FM-12+0882LTCA V0202901N003112200019N0200001N1+02301+00761100711ADDGA1041+010509029GF104991041021012501001001MA1999999090881MD1610041+9999REMSYN076AAXX  27154 17202 42670 42906 10230 20076 39088 40071 56004 84200 333 84835;
0208172020999992000092718004+38590+039280FM-12+0882LTCA V0203101N006212200019N0200001N1+01821+00801100831ADDAA199000091GA1031+010509029GF103991031011012501001001KA1120M+02541MA1999999091001MD1310121+9999REMSYN082AAXX  27184 17202 32670 33112 10182 20080 39100 40083 53012 83100 333 10254 83835;EQDQ01  00002PRCP99
0143172020999992000092721004+38590+039280FM-12+0882LTCA V0202301N001512200019N0200001N1+01581+00661100901ADDGA1001+999999999GF100991001001999999001001MA1999999091081MD1210081+9999REMSYN060AAXX  27214 17202 42970 02303 10158 20066 39108 40090 52008;
0173172020999992000092800004+38590+039280FM-12+0882LTCA V0202201N001512200019N0200001N1+01501+00561100941ADDAA199000091GA1001+999999999GF100991001001999999001001MA1999999091121MD1210241+9999REMSYN060AAXX  28004 17202 32970 02203 10150 20056 39112 40094 52024;EQDQ01  00002PRCP99
0143172020999992000092803004+38590+039280FM-12+0882LTCA V0209999C000012200019N0200001N1+01201+00411100961ADDGA1001+999999999GF100991001001999999001001MA1999999091101MD1610021+9999REMSYN060AAXX  28034 17202 42970 00000 10120 20041 39110 40096 56002;
0238172020999992000092806004+38590+039280FM-12+0882LTCA V0202301N002112200019N0200001N1+01801+00531101071ADDAA199000091GA1021+010509089GF104991021011012501051001IA1019IA2999+01009KA1120N+01121MA1999999091201MD1310101+9999REMSYN094AAXX  28064 17202 32670 42304 10180 20053 39120 40107 53010 82150 333 20112 30010 82835 84360;EQDQ01  00002PRCP99
0189172020999992000092812004+38590+039280FM-12+0882LTCA V0203501N001512200019N0200001N1+02501+00601100811ADDAA199000091GA1041+010509029GF104991041021012501001001MA1999999091001MD1210191+9999REMSYN076AAXX  28124 17202 32670 43503 10250 20060 39100 40081 52019 84200 333 84835;EQDQ01  00002PRCP99
0159172020999992000092815004+38590+039280FM-12+0882LTCA V0200701N002112200019N0200001N1+02001+00521100811ADDGA1041+010509029GF104991041021012501001001MA1999999090931MD1810071+9999REMSYN076AAXX  28154 17202 42670 40704 10200 20052 39093 40081 58007 84200 333 84835;
0242172020999992000092818004+38590+039280FM-12+0882LTCA V0203101N00261007501CN0200001N1+01701+00801100851ADDAA199000091AY111061AY211061GA1021+007509099GF106991061091008001001001KA1120M+02521MA1999999091001MD1110071+9999MW1171REMSYN094AAXX  28184 17202 31570 63105 10170 20080 39100 40085 51007 71711 86900 333 10252 82925 85830;EQDQ01  00002PRCP99
0187172020999992000092821004+38590+039280FM-12+0882LTCA V0201701N001512200019N0200001N1+01541+00821100921ADDAY191031AY211031GA1041+010509029GF104991041021012501001001MA1999999091071MD1010031+9999MW1021REMSYN082AAXX  28214 17202 41670 41703 10154 20082 39107 40092 50003 70291 84200 333 84835;
0210172020999992000092900004+38590+039280FM-12+0882LTCA V0200701N00151036001CN0200001N1+01401+01081100891ADDAA106002091AY191061AY211061GA1041+010509089GF106991041021012501051001MA1999999091071MD1010001+9999MW1021REMSYN094AAXX  29004 17202 11670 60703 10140 20108 39107 40089 50000 60021 70291 84250 333 84835 86360;
0193172020999992000092903004+38590+039280FM-12+0882LTCA V0202101N00151036001CN0150001N1+01401+01241100921ADDAY121031AY221031GA1041+009009089GF107991041021008001061001MA1999999091051MD1810021+9999MW1801REMSYN088AAXX  29034 17202 41565 72103 10140 20124 39105 40092 58002 78022 84260 333 84830 87359;
0259172020999992000092906004+38590+039280FM-12+0882LTCA V0209999C00001036001CN0200001N1+01561+01241101001ADDAA112007191AY181061AY221061GA1041+010509089GF107991041021012501051001IA1119IA2999+01009KA1120N+01321MA1999999091101MD1310051+9999MW1031REMSYN112AAXX  29064 17202 11670 70000 10156 20124 39110 40100 53005 60072 70382 84250 333 20132 32010 70070 84835 87360;
0193172020999992000092909004+38590+039280FM-12+0882LTCA V0200901N002610105019N0150001N1+01621+01241101111ADDAY161031AY221031GA1051+010509089GF107991051021012501051001MA1999999091201MD1210101+9999MW1011REMSYN088AAXX  29094 17202 41665 70905 10162 20124 39120 40111 52010 70162 85250 333 85835 87360;
0210172020999992000092912004+38590+039280FM-12+0882LTCA V0200701N002610105019N0200001N1+01961+01201100971ADDAA106000591AY161061AY221061GA1051+010509089GF107991051021012501051001MA1999999091091MD1810111+9999MW1021REMSYN094AAXX  29124 17202 11670 70705 10196 20120 39109 40097 58011 69941 70262 85250 333 85835 87360;
0193172020999992000092915004+38590+039280FM-12+0882LTCA V0203201N001510090019N0200001N1+01901+01261100871ADDAY181031AY221031GA1051+009009089GF107991051021008001051001MA1999999091001MD1610091+9999MW1021REMSYN088AAXX  29154 17202 41570 73203 10190 20126 39100 40087 56009 70282 85250 333 85830 87359;
0251172020999992000092918004+38590+039280FM-12+0882LTCA V0202101N001510090019N0100001N1+01321+01141101201ADDAA112005191AY191061AY281061GA1011+007509099GA2051+009009089GF107991061091008001051001KA1120M+02001MA1999999091251MD1210251+9999MW1951REMSYN106AAXX  29184 17202 11560 72103 10132 20114 39125 40120 52025 60052 79598 86950 333 10200 81925 85830 87359;
0193172020999992000092921004+38590+039280FM-12+0882LTCA V0202501N00151036001CN0200001N1+01361+01141101291ADDAY191031AY221031GA1041+010509089GF106991041021012501051001MA1999999091351MD1210101+9999MW1031REMSYN088AAXX  29214 17202 41670 62503 10136 20114 39135 40129 52010 70392 84250 333 84835 86359;
0210172020999992000093000004+38590+039280FM-12+0882LTCA V0202901N00261036001CN0200001N1+01281+01101101321ADDAA106000591AY191061AY221061GA1031+010509089GF105991031011012501051001MA1999999091401MD1110051+9999MW1011REMSYN094AAXX  30004 17202 11670 52905 10128 20110 39140 40132 51005 69961 70192 83150 333 83835 85360;
0159172020999992000093003004+38590+039280FM-12+0882LTCA V0202801N001512200019N0200001N1+01141+00861101351ADDGA1041+010509029GF104991041021012501001001MA1999999091401MD1410001+9999REMSYN076AAXX  30034 17202 42670 42803 10114 20086 39140 40135 54000 84200 333 84835;
0231172020999992000093006004+38590+039280FM-12+0882LTCA V0209999C00001036001CN0200001N1+01501+00881101471ADDAA112000591GA1041+010509089GF106991041021012501051001IA1119IA2999+00909KA1120N+01081MA1999999091491MD1110091+9999REMSYN106AAXX  30064 17202 12670 60000 10150 20088 39149 40147 51009 69962 84250 333 20108 32009 70054 84835 86360;
0165172020999992000093009004+38590+039280FM-12+0882LTCA V0202901N00461036001CN0200001N1+01841+00711101551ADDGA1041+010509089GF106991041021012501051001MA1999999091601MD1210111+9999REMSYN082AAXX  30094 17202 42670 62909 10184 20071 39160 40155 52011 84250 333 84835 86360;
0195172020999992000093012004+38590+039280FM-12+0882LTCA V0202801N00461036001CN0200001N1+02161+00561101531ADDAA199000091GA1041+010509089GF106991041021012501051001MA1999999091601MD1410001+9999REMSYN082AAXX  30124 17202 32670 62809 10216 20056 39160 40153 54000 84250 333 84835 86360;EQDQ01  00002PRCP99
0165172020999992000093015004+38590+039280FM-12+0882LTCA V0203001N00411036001CN0200001N1+02001+00541101541ADDGA1041+010509089GF106991041021012501051001MA1999999091591MD1510011+9999REMSYN082AAXX  30154 17202 42670 63008 10200 20054 39159 40154 55001 84250 333 84835 86360;
0208172020999992000093018004+38590+039280FM-12+0882LTCA V0202601N002612200019N0200001N1+01581+00381101651ADDAA199000091GA1021+010509029GF102991021011012501001001KA1120M+02241MA1999999091671MD1210081+9999REMSYN082AAXX  30184 17202 32670 22605 10158 20038 39167 40165 52008 82100 333 10224 82835;EQDQ01  00002PRCP99
0143172020999992000093021004+38590+039280FM-12+0882LTCA V0203001N003112200019N0200001N1+01401+00441101661ADDGA1001+999999999GF100991001001999999001001MA1999999091701MD1110031+9999REMSYN060AAXX  30214 17202 42970 03006 10140 20044 39170 40166 51003;
0173172020999992000100100004+38590+039280FM-12+0882LTCA V0202401N002112200019N0200001N1+00941+00461101661ADDAA199000091GA1001+999999999GF100991001001999999001001MA1999999091701MD1410001+9999REMSYN060AAXX  01004 17202 32970 02404 10094 20046 39170 40166 54000;EQDQ01  00002PRCP99
0143172020999992000100103004+38590+039280FM-12+0882LTCA V0203001N001512200019N0200001N1+00901+00601101711ADDGA1001+999999999GF100991001001999999001001MA1999999091731MD1310031+9999REMSYN060AAXX  01034 17202 42970 03003 10090 20060 39173 40171 53003;
0232172020999992000100106004+38590+039280FM-12+0882LTCA V0209999C000012200019N0200001N1+01321+00681101741ADDAA199000091GA1041+060009019GF104991001001999999001011IA1099IA2999+00709KA1120N+00841MA1999999091741MD1610011+9999REMSYN088AAXX  01064 17202 32970 40000 10132 20068 39174 40174 56001 80001 333 20084 31007 84070;EQDQ01  00002PRCP99
0165172020999992000100109004+38590+039280FM-12+0882LTCA V0202901N003112200019N0200001N1+02041+00501101641ADDGA1021+010509089GF104991021011012501001011MA1999999091701MD1810041+9999REMSYN082AAXX  01094 17202 42670 42906 10204 20050 39170 40164 58004 82101 333 82835 84070;
0159172020999992000100115004+38590+039280FM-12+0882LTCA V0203201N004612200019N0200001N1+02261+00381101401ADDGA1031+010509029GF103991031011012501001001MA1999999091461MD1710121+9999REMSYN076AAXX  01154 17202 42670 33209 10226 20038 39146 40140 57012 83100 333 83835;
0196172020999992000100118004+38590+039280FM-12+0882LTCA V0200801N002112200019N0200001N1+01901+00341101441ADDAA199000091GA1001+999999999GF100991001001999999001001KA1999M+02421MA1999999091501MD1210041+9999REMSYN070AAXX  01184 17202 32970 00804 10190 20034 39150 40144 52004 333 10242;EQDQ01  00002PRCP99
0143172020999992000100121004+38590+039280FM-12+0882LTCA V0200401N002112200019N0200001N1+01501+00351101531ADDGA1001+999999999GF100991001001999999001001MA1999999091621MD1210121+9999REMSYN060AAXX  01214 17202 42970 00404 10150 20035 39162 40153 52012;
0173172020999992000100200004+38590+039280FM-12+0882LTCA V0200701N003612200019N0200001N1+01101+00521101591ADDAA199000091GA1001+999999999GF100991001001999999001001MA1999999091651MD1210031+9999REMSYN060AAXX  02004 17202 32970 00707 10110 20052 39165 40159 52003;EQDQ01  00002PRCP99
0143172020999992000100203004+38590+039280FM-12+0882LTCA V0202701N003112200019N0200001N1+00881+00701101491ADDGA1001+999999999GF100991001001999999001001MA1999999091551MD1610101+9999REMSYN060AAXX  02034 17202 42970 02706 10088 20070 39155 40149 56010;
0220172020999992000100206004+38590+039280FM-12+0882LTCA V0202301N002112200019N0200001N1+01561+00921101561ADDAA199000091GA1001+999999999GF100991001001999999001001IA1019IA2999+00709KA1120N+00841MA1999999091621MD1310071+9999REMSYN076AAXX  02064 17202 32970 02304 10156 20092 39162 40156 53007 333 20084 30007;EQDQ01  00002PRCP99
0113172020999992000100209004+38590+039280FM-12+0882LTCA V0201001N002112200019N0200001N1+99999+99999999999ADDGF103991999999012501999999REMSYN075AAXX  02094 17202 42670 31004 1020 20035 39160 40149 58002 83100 333 83835;
0189172020999992000100212004+38590+039280FM-12+0882LTCA V0203501N003112200019N0200001N1+02401+00271101351ADDAA199000091GA1041+010509029GF104991041011012501001001MA1999999091441MD1710161+9999REMSYN076AAXX  02124 17202 32670 43506 10240 20027 39144 40135 57016 84100 333 84835;EQDQ01  00002PRCP99
0159172020999992000100215004+38590+039280FM-12+0882LTCA V0203501N002112200019N0200001N1+02201+00061101341ADDGA1031+010509029GF103991031011012501001001MA1999999091401MD1610041+9999REMSYN076AAXX  02154 17202 42670 33504 10220 20006 39140 40134 56004 83100 333 83835;
0196172020999992000100218004+38590+039280FM-12+0882LTCA V0202401N002112200019N0200001N1+01501+00081101461ADDAA199000091GA1001+999999999GF100991001001999999001001KA1999M+02441MA1999999091501MD1310101+9999REMSYN070AAXX  02184 17202 32970 02404 10150 20008 39150 40146 53010 333 10244;EQDQ01  00002PRCP99
0143172020999992000100221004+38590+039280FM-12+0882LTCA V0202401N002612200019N0200001N1+01241+00131101541ADDGA1001+999999999GF100991001001999999001001MA1999999091611MD1210111+9999REMSYN060AAXX  02214 17202 42970 02405 10124 20013 39161 40154 52011;
0173172020999992000100300004+38590+039280FM-12+0882LTCA V0202801N002112200019N0200001N1+01101+00521101591ADDAA199000091GA1001+999999999GF100991001001999999001001MA1999999091671MD1210061+9999REMSYN060AAXX  03004 17202 32970 02804 10110 20052 39167 40159 52006;EQDQ01  00002PRCP99
0143172020999992000100303004+38590+039280FM-12+0882LTCA V0202701N003112200019N0200001N1+00841+00421101761ADDGA1001+999999999GF100991001001999999001001MA1999999091771MD1210101+9999REMSYN060AAXX  03034 17202 42970 02706 10084 20042 39177 40176 52010;
0220172020999992000100306004+38590+039280FM-12+0882LTCA V0202301N001012200019N0200001N1+01501+00571101871ADDAA199000091GA1001+999999999GF100991001001999999001001IA1019IA2999+00609KA1120N+00761MA1999999091871MD1210101+9999REMSYN076AAXX  03064 17202 32970 02302 10150 20057 39187 40187 52010 333 20076 30006;EQDQ01  00002PRCP99
0143172020999992000100309004+38590+039280FM-12+0882LTCA V0201601N001512200019N0200001N1+02221+00581101791ADDGA1001+999999999GF100991001001999999001001MA1999999091851MD1810021+9999REMSYN060AAXX  03094 17202 42970 01603 10222 20058 39185 40179 58002;
0173172020999992000100312004+38590+039280FM-12+0882LTCA V0202801N002612200019N0200001N1+02561+00241101621ADDAA199000091GA1001+999999999GF100991001001999999001001MA1999999091701MD1710151+9999REMSYN060AAXX  03124 17202 32970 02805 10256 20024 39170 40162 57015;EQDQ01  00002PRCP99
0143172020999992000100315004+38590+039280FM-12+0882LTCA V0202101N001512200019N0200001N1+02361+00121101601ADDGA1001+999999999GF100991001001999999001001MA1999999091651MD1510051+9999REMSYN060AAXX  03154 17202 42970 02103 10236 20012 39165 40160 55005;
0196172020999992000100318004+38590+039280FM-12+0882LTCA V0202801N002612200019N0200001N1+01521+00001101681ADDAA199000091GA1001+999999999GF100991001001999999001001KA1999M+02601MA1999999091701MD1310051+9999REMSYN070AAXX  03184 17202 32970 02805 10152 20000 39170 40168 53005 333 10260;EQDQ01  00002PRCP99
0143172020999992000100321004+38590+039280FM-12+0882LTCA V0203101N002612200019N0200001N1+01161+00151101681ADDGA1001+999999999GF100991001001999999001001MA1999999091731MD1210031+9999REMSYN060AAXX  03214 17202 42970 03105 10116 20015 39173 40168 52003;
0173172020999992000100400004+38590+039280FM-12+0882LTCA V0203001N002112200019N0200001N1+00921+00251101701ADDAA199000091GA1001+999999999GF100991001001999999001001MA1999999091751MD1310021+9999REMSYN060AAXX  04004 17202 32970 03004 10092 20025 39175 40170 53002;EQDQ01  00002PRCP99
0143172020999992000100403004+38590+039280FM-12+0882LTCA V0203101N002612200019N0200001N1+00721+00211101781ADDGA1001+999999999GF100991001001999999001001MA1999999091791MD1110041+9999REMSYN060AAXX  04034 17202 42970 03105 10072 20021 39179 40178 51004;
0220172020999992000100406004+38590+039280FM-12+0882LTCA V0209999C000012200019N0200001N1+01501+00571101881ADDAA199000091GA1001+999999999GF100991001001999999001001IA1019IA2999+00409KA1120N+00601MA1999999091881MD1210091+9999REMSYN076AAXX  04064 17202 32970 00000 10150 20057 39188 40188 52009 333 20060 30004;EQDQ01  00002PRCP99
0143172020999992000100409004+38590+039280FM-12+0882LTCA V0209999C000012200019N0200001N1+02201+00581101851ADDGA1001+999999999GF100991001001999999001001MA1999999091891MD1110011+9999REMSYN060AAXX  04094 17202 42970 00000 10220 20058 39189 40185 51001;
0173172020999992000100412004+38590+039280FM-12+0882LTCA V0209999C000012200019N0200001N1+02561+00261101641ADDAA199000091GA1001+999999999GF100991001001999999001001MA1999999091701MD1610191+9999REMSYN060AAXX  04124 17202 32970 00000 10256 20026 39170 40164 56019;EQDQ01  00002PRCP99
0143172020999992000100415004+38590+039280FM-12+0882LTCA V0200801N001512200019N0200001N1+02301+00121101591ADDGA1001+999999999GF100991001001999999001001MA1999999091621MD1710081+9999REMSYN060AAXX  04154 17202 42970 00803 10230 20012 39162 40159 57008;
0196172020999992000100418004+38590+039280FM-12+0882LTCA V0203001N002112200019N0200001N1+01401-00081101651ADDAA199000091GA1001+999999999GF100991001001999999001001KA1999M+02581MA1999999091671MD1310051+9999REMSYN070AAXX  04184 17202 32970 03004 10140 21008 39167 40165 53005 333 10258;EQDQ01  00002PRCP99
0143172020999992000100421004+38590+039280FM-12+0882LTCA V0203201N003112200019N0200001N1+01241+00131101641ADDGA1001+999999999GF100991001001999999001001MA1999999091701MD1110031+9999REMSYN060AAXX  04214 17202 42970 03206 10124 20013 39170 40164 51003;
0173172020999992000100500004+38590+039280FM-12+0882LTCA V0203101N002612200019N0200001N1+01061+00221101691ADDAA199000091GA1001+999999999GF100991001001999999001001MA1999999091761MD1310061+9999REMSYN060AAXX  05004 17202 32970 03105 10106 20022 39176 40169 53006;EQDQ01  00002PRCP99
0143172020999992000100503004+38590+039280FM-12+0882LTCA V0203001N002112200019N0200001N1+00741+00341101771ADDGA1001+999999999GF100991001001999999001001MA1999999091781MD1110021+9999REMSYN060AAXX  05034 17202 42970 03004 10074 20034 39178 40177 51002;
0220172020999992000100506004+38590+039280FM-12+0882LTCA V0201401N001012200019N0200001N1+01501+00341101921ADDAA199000091GA1001+999999999GF100991001001999999001001IA1019IA2999+00509KA1120N+00661MA1999999091901MD1210121+9999REMSYN076AAXX  05064 17202 32970 01402 10150 20034 39190 40192 52012 333 20066 30005;EQDQ01  00002PRCP99
0143172020999992000100509004+38590+039280FM-12+0882LTCA V0200601N002112200019N0200001N1+02241+00441101851ADDGA1001+999999999GF100991001001999999001001MA1999999091891MD1810011+9999REMSYN060AAXX  05094 17202 42970 00604 10224 20044 39189 40185 58001;
0173172020999992000100512004+38590+039280FM-12+0882LTCA V0200501N002112200019N0200001N1+02601+00301101671ADDAA199000091GA1001+999999999GF100991001001999999001001MA1999999091741MD1710151+9999REMSYN060AAXX  05124 17202 32970 00504 10260 20030 39174 40167 57015;EQDQ01  00002PRCP99
0143172020999992000100515004+38590+039280FM-12+0882LTCA V0209999C000012200019N0200001N1+02441+00381101661ADDGA1001+999999999GF100991001001999999001001MA1999999091701MD1610041+9999REMSYN060AAXX  05154 17202 42970 00000 10244 20038 39170 40166 56004;
0196172020999992000100518004+38590+039280FM-12+0882LTCA V0209999C000012200019N0200001N1+01621+00181101661ADDAA199000091GA1001+999999999GF100991001001999999001001KA1999M+02701MA1999999091701MD1410001+9999REMSYN070AAXX  05184 17202 32970 00000 10162 20018 39170 40166 54000 333 10270;EQDQ01  00002PRCP99
0173172020999992000100600004+38590+039280FM-12+0882LTCA V0203101N003112200019N0200001N1+01101+00141101661ADDAA199000091GA1001+999999999GF100991001001999999001001MA1999999091751MD1110021+9999REMSYN060AAXX  06004 17202 32970 03106 10110 20014 39175 40166 51002;EQDQ01  00002PRCP99
0143172020999992000100603004+38590+039280FM-12+0882LTCA V0209999C000012200019N0200001N1+00721+00211101821ADDGA1001+999999999GF100991001001999999001001MA1999999091841MD1210091+9999REMSYN060AAXX  06034 17202 42970 00000 10072 20021 39184 40182 52009;
0220172020999992000100606004+38590+039280FM-12+0882LTCA V0201401N001012200019N0200001N1+01541+00581101861ADDAA199000091GA1001+999999999GF100991001001999999001001IA1019IA2999+00509KA1120N+00661MA1999999091881MD1110041+9999REMSYN076AAXX  06064 17202 32970 01402 10154 20058 39188 40186 51004 333 20066 30005;EQDQ01  00002PRCP99
0159172020999992000100609004+38590+039280FM-12+0882LTCA V0200801N002112200019N0200001N1+02201+00461101811ADDGA1041+060009019GF104991001001999999001011MA1999999091871MD1810011+9999REMSYN076AAXX  06094 17202 42970 40804 10220 20046 39187 40181 58001 80001 333 84070;
0189172020999992000100612004+38590+039280FM-12+0882LTCA V0200801N002612200019N0200001N1+02641+00261101601ADDAA199000091GA1041+060009019GF104991001001999999001011MA1999999091701MD1710171+9999REMSYN076AAXX  06124 17202 32970 40805 10264 20026 39170 40160 57017 80001 333 84070;EQDQ01  00002PRCP99
0159172020999992000100615004+38590+039280FM-12+0882LTCA V0200501N001512200019N0200001N1+02441+00021101551ADDGA1031+060009019GF103991001001999999001011MA1999999091601MD1710101+9999REMSYN076AAXX  06154 17202 42970 30503 10244 20002 39160 40155 57010 80001 333 83070;
0196172020999992000100618004+38590+039280FM-12+0882LTCA V0202801N003112200019N0200001N1+01501+00081101681ADDAA199000091GA1001+999999999GF100991001001999999001001KA1999M+02681MA1999999091701MD1310101+9999REMSYN070AAXX  06184 17202 32970 02806 10150 20008 39170 40168 53010 333 10268;EQDQ01  00002PRCP99
0143172020999992000100621004+38590+039280FM-12+0882LTCA V0202801N003612200019N0200001N1+01261+00101101701ADDGA1001+999999999GF100991001001999999001001MA1999999091751MD1210051+9999REMSYN060AAXX  06214 17202 42970 02807 10126 20010 39175 40170 52005;
0173172020999992000100700004+38590+039280FM-12+0882LTCA V0203201N001512200019N0200001N1+01001+00161101681ADDAA199000091GA1001+999999999GF100991001001999999001001MA1999999091751MD1410001+9999REMSYN060AAXX  07004 17202 32970 03203 10100 20016 39175 40168 54000;EQDQ01  00002PRCP99
0143172020999992000100703004+38590+039280FM-12+0882LTCA V0203101N002612200019N0200001N1+00801+00301101721ADDGA1001+999999999GF100991001001999999001001MA1999999091761MD1310011+9999REMSYN060AAXX  07034 17202 42970 03105 10080 20030 39176 40172 53001;
0220172020999992000100706004+38590+039280FM-12+0882LTCA V0209999C000012200019N0200001N1+01541+00581101811ADDAA199000091GA1001+999999999GF100991001001999999001001IA1019IA2999+00509KA1120N+00761MA1999999091821MD1210061+9999REMSYN076AAXX  07064 17202 32970 00000 10154 20058 39182 40181 52006 333 20076 30005;EQDQ01  00002PRCP99
0165172020999992000100709004+38590+039280FM-12+0882LTCA V0200901N00151036001CN0200001N1+02021+00541101791ADDGA1031+010509089GF105991031021012501051001MA1999999091821MD1410001+9999REMSYN082AAXX  07094 17202 42670 50903 10202 20054 39182 40179 54000 83250 333 83835 85360;
0195172020999992000100712004+38590+039280FM-12+0882LTCA V0200901N002612200019N0200001N1+02561+00521101511ADDAA199000091GA1021+010509089GF103991021011012501051001MA1999999091601MD1710221+9999REMSYN082AAXX  07124 17202 32670 30905 10256 20052 39160 40151 57022 82150 333 82835 83360;EQDQ01  00002PRCP99
0165172020999992000100715004+38590+039280FM-12+0882LTCA V0209999C000012200019N0200001N1+02401+00441101441ADDGA1021+010509089GF104991021011012501051001MA1999999091501MD1710101+9999REMSYN082AAXX  07154 17202 42670 40000 10240 20044 39150 40144 57010 82150 333 82835 84360;
0208172020999992000100718004+38590+039280FM-12+0882LTCA V0202901N001512200019N0200001N1+01661+00171101481ADDAA199000091GA1021+010509029GF102991021011012501001001KA1120M+02601MA1999999091541MD1310041+9999REMSYN082AAXX  07184 17202 32670 22903 10166 20017 39154 40148 53004 82100 333 10260 82835;EQDQ01  00002PRCP99
0113172020999992000100721004+38590+039280FM-12+0882LTCA V0209999C000012200019N0200001N1+99999+99999999999ADDGF102991999999012501999999REMSYN075AAXX  07214 17202 42670 20000 1016 20027 39156 40149 51002 82100 333 82835;
0189172020999992000100800004+38590+039280FM-12+0882LTCA V0202701N003612200019N0200001N1+01301+00321101451ADDAA199000091GA1021+010509029GF102991021011012501001001MA1999999091561MD1410001+9999REMSYN076AAXX  08004 17202 32670 22707 10130 20032 39156 40145 54000 82100 333 82835;EQDQ01  00002PRCP99
0159172020999992000100803004+38590+039280FM-12+0882LTCA V0203001N001512200019N0200001N1+01101+00301101411ADDGA1031+010509029GF103991031011012501001001MA1999999091511MD1710051+9999REMSYN076AAXX  08034 17202 42670 33003 10110 20030 39151 40141 57005 83100 333 83835;
0238172020999992000100806004+38590+039280FM-12+0882LTCA V0209999C00001036001CN0200001N1+01861+01231101431ADDAA199000091GA1031+010509089GF105991031011012501051001IA1019IA2999+00909KA1120N+01061MA1999999091531MD1310021+9999REMSYN094AAXX  08064 17202 32670 50000 10186 20123 39153 40143 53002 83150 333 20106 30009 83835 85360;EQDQ01  00002PRCP99
0165172020999992000100809004+38590+039280FM-12+0882LTCA V0201101N00461036001CN0200001N1+02561+00711101361ADDGA1031+010509089GF106991031011012501051001MA1999999091501MD1810031+9999REMSYN082AAXX  08094 17202 42670 61109 10256 20071 39150 40136 58003 83150 333 83835 86360;
0195172020999992000100812004+38590+039280FM-12+0882LTCA V0201801N00511036001CN0200001N1+02681+00571101271ADDAA199000091GA1041+010509089GF107991041021012501051001MA1999999091411MD1710091+9999REMSYN082AAXX  08124 17202 32670 71810 10268 20057 39141 40127 57009 84250 333 84835 87360;EQDQ01  00002PRCP99
0159172020999992000100815004+38590+039280FM-12+0882LTCA V0201801N004112200019N0200001N1+02361+00441101231ADDGA1031+010509029GF103991031011012501001001MA1999999091331MD1710081+9999REMSYN076AAXX  08154 17202 42670 31808 10236 20044 39133 40123 57008 83100 333 83835;
0196172020999992000100818004+38590+039280FM-12+0882LTCA V0202701N002612200019N0200001N1+01601+00461101331ADDAA199000091GA1001+999999999GF100991001001999999001001KA1999M+02721MA1999999091421MD1210091+9999REMSYN070AAXX  08184 17202 32970 02705 10160 20046 39142 40133 52009 333 10272;EQDQ01  00002PRCP99
0143172020999992000100821004+38590+039280FM-12+0882LTCA V0202801N002612200019N0200001N1+01201+00181101331ADDGA1001+999999999GF100991001001999999001001MA1999999091451MD1110031+9999REMSYN060AAXX  08214 17202 42970 02805 10120 20018 39145 40133 51003;
0173172020999992000100900004+38590+039280FM-12+0882LTCA V0202901N002112200019N0200001N1+01201+00181101331ADDAA199000091GA1001+999999999GF100991001001999999001001MA1999999091451MD1410001+9999REMSYN060AAXX  09004 17202 32970 02904 10120 20018 39145 40133 54000;EQDQ01  00002PRCP99
0159172020999992000100903004+38590+039280FM-12+0882LTCA V0203101N002612200019N0200001N1+00981+00381101311ADDGA1031+030009079GF103991031001999999031001MA1999999091401MD1610051+9999REMSYN076AAXX  09034 17202 42970 33105 10098 20038 39140 40131 56005 83030 333 83360;
0220172020999992000100906004+38590+039280FM-12+0882LTCA V0209999C000012200019N0200001N1+01801+00501101381ADDAA199000091GA1001+999999999GF100991001001999999001001IA1019IA2999+00809KA1120N+00901MA1999999091461MD1210061+9999REMSYN076AAXX  09064 17202 32970 00000 10180 20050 39146 40138 52006 333 20090 30008;EQDQ01  00002PRCP99
0159172020999992000100909004+38590+039280FM-12+0882LTCA V0200901N002612200019N0200001N1+02261+00401101331ADDGA1021+010509029GF102991021011012501001001MA1999999091421MD1810041+9999REMSYN076AAXX  09094 17202 42670 20905 10226 20040 39142 40133 58004 82100 333 82835;
0189172020999992000100912004+38590+039280FM-12+0882LTCA V0203601N004112200019N0200001N1+02661+00681101141ADDAA199000091GA1031+010509029GF103991031011012501001001MA1999999091281MD1710141+9999REMSYN076AAXX  09124 17202 32670 33608 10266 20068 39128 40114 57014 83100 333 83835;EQDQ01  00002PRCP99
0159172020999992000100915004+38590+039280FM-12+0882LTCA V0202101N004112200019N0200001N1+02341+00371101091ADDGA1021+010509029GF102991021011012501001001MA1999999091201MD1610081+9999REMSYN076AAXX  09154 17202 42670 22108 10234 20037 39120 40109 56008 82100 333 82835;
0196172020999992000100918004+38590+039280FM-12+0882LTCA V0203001N001512200019N0200001N1+01461+00221101221ADDAA199000091GA1001+999999999GF100991001001999999001001KA1999M+02741MA1999999091301MD1110101+9999REMSYN070AAXX  09184 17202 32970 03003 10146 20022 39130 40122 51010 333 10274;EQDQ01  00002PRCP99
0143172020999992000100921004+38590+039280FM-12+0882LTCA V0203101N002612200019N0200001N1+01281+00271101241ADDGA1001+999999999GF100991001001999999001001MA1999999091351MD1110051+9999REMSYN060AAXX  09214 17202 42970 03105 10128 20027 39135 40124 51005;
0173172020999992000101000004+38590+039280FM-12+0882LTCA V0209999C000012200019N0200001N1+01081+00341101231ADDAA199000091GA1001+999999999GF100991001001999999001001MA1999999091361MD1010011+9999REMSYN060AAXX  10004 17202 32970 00000 10108 20034 39136 40123 50001;EQDQ01  00002PRCP99
0143172020999992000101003004+38590+039280FM-12+0882LTCA V0209999C000012200019N0200001N1+00841+00421101281ADDGA1001+999999999GF100991001001999999001001MA1999999091361MD1410001+9999REMSYN060AAXX  10034 17202 42970 00000 10084 20042 39136 40128 54000;
0238172020999992000101006004+38590+039280FM-12+0882LTCA V0201001N002112200019N0200001N1+01701+00871101381ADDAA199000091GA1011+012009089GF103991011011012501051001IA1019IA2999+00609KA1120N+00761MA1999999091451MD1310091+9999REMSYN094AAXX  10064 17202 32670 31004 10170 20087 39145 40138 53009 81150 333 20076 30006 81840 83360;EQDQ01  00002PRCP99
0165172020999992000101009004+38590+039280FM-12+0882LTCA V0201501N00151036001CN0200001N1+02201+00841101411ADDGA1031+010509089GF106991031011012501051001MA1999999091491MD1210041+9999REMSYN082AAXX  10094 17202 42670 61503 10220 20084 39149 40141 52004 83150 333 83835 85360;
0195172020999992000101012004+38590+039280FM-12+0882LTCA V0202301N00461036001CN0200001N1+02401+00671101251ADDAA199000091GA1041+010509089GF107991041021012501051001MA1999999091351MD1710141+9999REMSYN082AAXX  10124 17202 32670 72309 10240 20067 39135 40125 57014 84250 333 84835 87360;EQDQ01  00002PRCP99
0165172020999992000101015004+38590+039280FM-12+0882LTCA V0203001N00411036001CN0200001N1+02021+00821101281ADDGA1031+010509089GF106991031021012501051001MA1999999091321MD1810031+9999REMSYN082AAXX  10154 17202 42670 63008 10202 20082 39132 40128 58003 83250 333 83835 86360;
0214172020999992000101018004+38590+039280FM-12+0882LTCA V0203201N00411036001CN0200001N1+01821+00721101271ADDAA199000091GA1041+010509089GF106991041021012501051001KA1120M+02441MA1999999091381MD1310081+9999REMSYN088AAXX  10184 17202 32670 63208 10182 20072 39138 40127 53008 84250 333 10244 84835 86360;EQDQ01  00002PRCP99
0193172020999992000101021004+38590+039280FM-12+0882LTCA V0203201N00211036001CN0200001N1+01341+00981101401ADDAY181031AY221031GA1041+010509089GF106991041021012501051001MA1999999091501MD1110121+9999MW1021REMSYN088AAXX  10214 17202 41670 63204 10134 20098 39150 40140 51012 70282 84250 333 84835 86360;
0210172020999992000101100004+38590+039280FM-12+0882LTCA V0202401N00151036001CN0200001N1+01101+00721101471ADDAA106003091AY181061AY221061GA1041+010509089GF106991041021012501051001MA1999999091561MD1210061+9999MW1021REMSYN094AAXX  11004 17202 11670 62403 10110 20072 39156 40147 52006 60031 70282 84250 333 84835 86360;
0159172020999992000101103004+38590+039280FM-12+0882LTCA V0209999C000012200019N0200001N1+00901+00601101471ADDGA1031+010509029GF103991031021012501001001MA1999999091511MD1610051+9999REMSYN076AAXX  11034 17202 42670 30000 10090 20060 39151 40147 56005 83200 333 83835;
0231172020999992000101106004+38590+039280FM-12+0882LTCA V0209999C00001036001CN0200001N1+01201+00821101491ADDAA112003091GA1041+010509089GF107991041021012501051001IA1119IA2999+00609KA1120N+00801MA1999999091531MD1310021+9999REMSYN106AAXX  11064 17202 12670 70000 10120 20082 39153 40149 53002 60032 84250 333 20080 32006 70028 84835 87360;
0165172020999992000101109004+38590+039280FM-12+0882LTCA V0202301N00411036001CN0200001N1+01561+00861101511ADDGA1041+009909089GF107991041021012501051001MA1999999091531MD1410001+9999REMSYN082AAXX  11094 17202 42670 72308 10156 20086 39153 40151 54000 84250 333 84833 87359;
0210172020999992000101112004+38590+039280FM-12+0882LTCA V0209999C00001036001CN0200001N1+01341+00981101521ADDAA106004191AY191061AY221061GA1041+010509089GF107991041021012501051001MA1999999091501MD1810031+9999MW1291REMSYN094AAXX  11124 17202 11670 70000 10134 20098 39150 40152 58003 60041 72992 84250 333 84835 87359;
0159172020999992000101115004+38590+039280FM-12+0882LTCA V0203501N002112200019N0200001N1+01641+00741101431ADDGA1031+010509029GF103991031011012501001001MA1999999091441MD1810061+9999REMSYN076AAXX  11154 17202 42670 33504 10164 20074 39144 40143 58006 83100 333 83835;
0195172020999992000101118004+38590+039280FM-12+0882LTCA V0202401N003112200019N0200001N1+01261+00741101561ADDAA112004191GA1021+010509029GF102991021011012501001001KA1120M+01901MA1999999091541MD1210101+9999REMSYN088AAXX  11184 17202 12670 22406 10126 20074 39154 40156 52010 60042 82100 333 10190 82835;
0143172020999992000101121004+38590+039280FM-12+0882LTCA V0202701N001512200019N0200001N1+00921+00721101621ADDGA1001+999999999GF100991001001999999001001MA1999999091591MD1210051+9999REMSYN060AAXX  11214 17202 42970 02703 10092 20072 39159 40162 52005;
0173172020999992000101200004+38590+039280FM-12+0882LTCA V0202701N002112200019N0200001N1+00701+00621101781ADDAA199000091GA1001+999999999GF100991001001999999001001MA1999999091701MD1110111+9999REMSYN060AAXX  12004 17202 32970 02704 10070 20062 39170 40178 51011;EQDQ01  00002PRCP99
0143172020999992000101203004+38590+039280FM-12+0882LTCA V0202701N002112200019N0200001N1+00701+00621101721ADDGA1001+999999999GF100991001001999999001001MA1999999091681MD1610021+9999REMSYN060AAXX  12034 17202 42970 02704 10070 20062 39168 40172 56002;
0207172020999992000101206004+38590+039280FM-12+0882LTCA V0209999C000012200019N0200001N1+01181+00821101861ADDAA124003891GA1001+999999999GF100991001001999999001001IA1119IA2999+00409KA1120N+00561MA1999999091811MD1210131+9999REMSYN082AAXX  12064 17202 32970 00000 10118 20082 39181 40186 52013 333 20056 32004 70038;
0159172020999992000101209004+38590+039280FM-12+0882LTCA V0209999C000012200019N0200001N1+01961+00591101821ADDGA1021+010509029GF102991021011012501001001MA1999999091811MD1110031+9999REMSYN076AAXX  12094 17202 42670 20000 10196 20059 39181 40182 51003 82100 333 82835;
0189172020999992000101212004+38590+039280FM-12+0882LTCA V0203101N002612200019N0200001N1+02201+00491101621ADDAA199000091GA1021+010509029GF102991021011012501001001MA1999999091631MD1710181+9999REMSYN076AAXX  12124 17202 32670 23105 10220 20049 39163 40162 57018 82100 333 82835;EQDQ01  00002PRCP99
0159172020999992000101215004+38590+039280FM-12+0882LTCA V0203101N002612200019N0200001N1+02001+00021101591ADDGA1021+010509029GF102991021011012501001001MA1999999091601MD1610031+9999REMSYN076AAXX  12154 17202 42670 23105 10200 20002 39160 40159 56003 82100 333 82835;
0196172020999992000101218004+38590+039280FM-12+0882LTCA V0202901N002112200019N0200001N1+01281+00281101701ADDAA199000091GA1001+999999999GF100991001001999999001001KA1999M+02241MA1999999091671MD1310071+9999REMSYN070AAXX  12184 17202 32970 02904 10128 20028 39167 40170 53007 333 10224;EQDQ01  00002PRCP99
0143172020999992000101221004+38590+039280FM-12+0882LTCA V0202901N002612200019N0200001N1+01061+00561101681ADDGA1001+999999999GF100991001001999999001001MA1999999091701MD1110031+9999REMSYN060AAXX  12214 17202 42970 02905 10106 20056 39170 40168 51003;
0173172020999992000101300004+38590+039280FM-12+0882LTCA V0202801N003112200019N0200001N1+01001+00621101661ADDAA199000091GA1001+999999999GF100991001001999999001001MA1999999091701MD1410001+9999REMSYN060AAXX  13004 17202 32970 02806 10100 20062 39170 40166 54000;EQDQ01  00002PRCP99
0143172020999992000101303004+38590+039280FM-12+0882LTCA V0202801N003612200019N0200001N1+00741+00561101701ADDGA1001+999999999GF100991001001999999001001MA1999999091701MD1410001+9999REMSYN060AAXX  13034 17202 42970 02807 10074 20056 39170 40170 54000;
0220172020999992000101306004+38590+039280FM-12+0882LTCA V0209999C000012200019N0200001N1+01281+00761101801ADDAA199000091GA1001+999999999GF100991001001999999001001IA1099IA2999+00509KA1120N+00701MA1999999091771MD1210071+9999REMSYN076AAXX  13064 17202 32970 00000 10128 20076 39177 40180 52007 333 20070 31005;EQDQ01  00002PRCP99
0159172020999992000101309004+38590+039280FM-12+0882LTCA V0209999C000012200019N0200001N1+02041+00521101671ADDGA1011+010509029GF101991011011012501001001MA1999999091711MD1710061+9999REMSYN076AAXX  13094 17202 42670 10000 10204 20052 39171 40167 57006 81100 333 81835;
0189172020999992000101312004+38590+039280FM-12+0882LTCA V0203101N002112200019N0200001N1+02341+00371101431ADDAA199000091GA1031+010509029GF103991031011012501001001MA1999999091511MD1710201+9999REMSYN076AAXX  13124 17202 32670 33104 10234 20037 39151 40143 57020 83100 333 83835;EQDQ01  00002PRCP99
0159172020999992000101315004+38590+039280FM-12+0882LTCA V0203001N002612200019N0200001N1+02131+00211101441ADDGA1021+010509029GF102991021011012501001001MA1999999091471MD1710041+9999REMSYN076AAXX  13154 17202 42670 23005 10213 20021 39147 40144 57004 82100 333 82835;
0196172020999992000101318004+38590+039280FM-12+0882LTCA V0209999C000012200019N0200001N1+01461+00271101441ADDAA199000091GA1001+999999999GF100991001001999999001001KA1999M+02441MA1999999091471MD1410001+9999REMSYN070AAXX  13184 17202 32970 00000 10146 20027 39147 40144 54000 333 10244;EQDQ01  00002PRCP99
0143172020999992000101321004+38590+039280FM-12+0882LTCA V0209999C000012200019N0200001N1+01101+00501101421ADDGA1001+999999999GF100991001001999999001001MA1999999091481MD1110011+9999REMSYN060AAXX  13214 17202 42970 00000 10110 20050 39148 40142 51001;
0189172020999992000101400004+38590+039280FM-12+0882LTCA V0202901N002612200019N0200001N1+00941+00531101401ADDAA199000091GA1031+060009019GF103991001001999999001011MA1999999091471MD1810011+9999REMSYN076AAXX  14004 17202 32970 32905 10094 20053 39147 40140 58001 80001 333 83070;EQDQ01  00002PRCP99
0159172020999992000101403004+38590+039280FM-12+0882LTCA V0209999C000012200019N0200001N1+00741+00521101441ADDGA1031+060009019GF103991001001999999001011MA1999999091471MD1410001+9999REMSYN076AAXX  14034 17202 42970 30000 10074 20052 39147 40144 54000 80001 333 83070;
0220172020999992000101406004+38590+039280FM-12+0882LTCA V0209999C000012200019N0200001N1+01321+00481101531ADDAA199000091GA1001+999999999GF100991001001999999001001IA1019IA2999+00509KA1120N+00661MA1999999091551MD1310081+9999REMSYN076AAXX  14064 17202 32970 00000 10132 20048 39155 40153 53008 333 20066 30005;EQDQ01  00002PRCP99
0159172020999992000101409004+38590+039280FM-12+0882LTCA V0202801N003112200019N0200001N1+02061+00361101461ADDGA1011+010509029GF101991011011012501001001MA1999999091521MD1810031+9999REMSYN076AAXX  14094 17202 42670 12806 10206 20036 39152 40146 58003 81100 333 81835;
0189172020999992000101412004+38590+039280FM-12+0882LTCA V0202801N001512200019N0200001N1+02301+00201101331ADDAA199000091GA1031+010509029GF103991031011012501001001MA1999999091401MD1710121+9999REMSYN076AAXX  14124 17202 32670 32803 10230 20020 39140 40133 57012 83100 333 83835;EQDQ01  00002PRCP99
0143172020999992000101415004+38590+039280FM-12+0882LTCA V0203001N002112200019N0200001N1+02161+00201101291ADDGA1001+999999999GF100991001001999999001001MA1999999091331MD1710071+9999REMSYN060AAXX  14154 17202 42970 03004 10216 20020 39133 40129 57007;
0196172020999992000101418004+38590+039280FM-12+0882LTCA V0202701N001512200019N0200001N1+01461+00141101371ADDAA199000091GA1001+999999999GF100991001001999999001001KA1999M+02421MA1999999091401MD1210071+9999REMSYN070AAXX  14184 17202 32970 02703 10146 20014 39140 40137 52007 333 10242;EQDQ01  00002PRCP99
0143172020999992000101421004+38590+039280FM-12+0882LTCA V0202101N002612200019N0200001N1+01001+00101101441ADDGA1001+999999999GF100991001001999999001001MA1999999091481MD1210081+9999REMSYN060AAXX  14214 17202 42970 02105 10100 20010 39148 40144 52008;
0173172020999992000101500004+38590+039280FM-12+0882LTCA V0203001N003112200019N0200001N1+00901+00141101461ADDAA199000091GA1001+999999999GF100991001001999999001001MA1999999091501MD1110021+9999REMSYN060AAXX  15004 17202 32970 03006 10090 20014 39150 40146 51002;EQDQ01  00002PRCP99
0143172020999992000101503004+38590+039280FM-12+0882LTCA V0202501N002612200019N0200001N1+00701+00281101521ADDGA1001+999999999GF100991001001999999001001MA1999999091541MD1210041+9999REMSYN060AAXX  15034 17202 42970 02505 10070 20028 39154 40152 52004;
0220172020999992000101506004+38590+039280FM-12+0882LTCA V0202101N001512200019N0200001N1+01381+00221101701ADDAA199000091GA1001+999999999GF100991001001999999001001IA1019IA2999+00509KA1120N+00681MA1999999091701MD1210161+9999REMSYN076AAXX  15064 17202 32970 02103 10138 20022 39170 40170 52016 333 20068 30005;EQDQ01  00002PRCP99
0127172020999992000101509004+38590+039280FM-12+0882LTCA V0201101N001512200019N0200001N1+02161+00201101661ADDGF103991999999012501999999MA1999999091701MD1410001+9999REMSYN060AAXX  15094 17202 42670 31103 10216 20020 39170 40166 54000;
0189172020999992000101512004+38590+039280FM-12+0882LTCA V0200801N002112200019N0200001N1+02361+00171101551ADDAA199000091GA1031+010509029GF103991031011012501001001MA1999999091601MD1710101+9999REMSYN076AAXX  15124 17202 32670 30804 10236 20017 39160 40155 57010 83100 333 83835;EQDQ01  00002PRCP99
0159172020999992000101515004+38590+039280FM-12+0882LTCA V0202401N001512200019N0200001N1+02191+00051101561ADDGA1021+010509029GF102991021011012501001001MA1999999091571MD1610031+9999REMSYN076AAXX  15154 17202 42670 22403 10219 20005 39157 40156 56003 82100 333 82835;
0196172020999992000101518004+38590+039280FM-12+0882LTCA V0202701N002112200019N0200001N1+01541+00061101601ADDAA199000091GA1001+999999999GF100991001001999999001001KA1999M+02461MA1999999091631MD1310061+9999REMSYN070AAXX  15184 17202 32970 02704 10154 20006 39163 40160 53006 333 10246;EQDQ01  00002PRCP99
0143172020999992000101521004+38590+039280FM-12+0882LTCA V0203201N001512200019N0200001N1+01021-00061101641ADDGA1001+999999999GF100991001001999999001001MA1999999091681MD1310051+9999REMSYN060AAXX  15214 17202 42970 03203 10102 21006 39168 40164 53005;
0173172020999992000101600004+38590+039280FM-12+0882LTCA V0202901N002612200019N0200001N1+00871+00071101661ADDAA199000091GA1001+999999999GF100991001001999999001001MA1999999091701MD1310021+9999REMSYN060AAXX  16004 17202 32970 02905 10087 20007 39170 40166 53002;EQDQ01  00002PRCP99
0143172020999992000101603004+38590+039280FM-12+0882LTCA V0203001N002112200019N0200001N1+00581+00091101741ADDGA1001+999999999GF100991001001999999001001MA1999999091741MD1310041+9999REMSYN060AAXX  16034 17202 42970 03004 10058 20009 39174 40174 53004;
0220172020999992000101606004+38590+039280FM-12+0882LTCA V0209999C000012200019N0200001N1+01221+00381101801ADDAA199000091GA1001+999999999GF100991001001999999001001IA1019IA2999+00509KA1120N+00661MA1999999091791MD1110051+9999REMSYN076AAXX  16064 17202 32970 00000 10122 20038 39179 40180 51005 333 20066 30005;EQDQ01  00002PRCP99
0159172020999992000101609004+38590+039280FM-12+0882LTCA V0201901N001512200019N0200001N1+02021+00481101791ADDGA1011+010509029GF101991011011012501001001MA1999999091801MD1010011+9999REMSYN076AAXX  16094 17202 42670 11903 10202 20048 39180 40179 50001 81100 333 81835;
0189172020999992000101612004+38590+039280FM-12+0882LTCA V0202801N002612200019N0200001N1+02421+00181101631ADDAA199000091GA1011+010509029GF101991011011012501001001MA1999999091671MD1710131+9999REMSYN076AAXX  16124 17202 32670 12805 10242 20018 39167 40163 57013 81100 333 81835;EQDQ01  00002PRCP99
0143172020999992000101615004+38590+039280FM-12+0882LTCA V0202401N003112200019N0200001N1+02101+00201101601ADDGA1001+999999999GF100991001001999999001001MA1999999091601MD1810071+9999REMSYN060AAXX  16154 17202 42970 02406 10210 20020 39160 40160 58007;
0196172020999992000101618004+38590+039280FM-12+0882LTCA V0202901N002612200019N0200001N1+01201+00061101631ADDAA199000091GA1001+999999999GF100991001001999999001001KA1999M+02461MA1999999091601MD1410001+9999REMSYN070AAXX  16184 17202 32970 02905 10120 20006 39160 40163 54000 333 10246;EQDQ01  00002PRCP99
0143172020999992000101621004+38590+039280FM-12+0882LTCA V0202801N002612200019N0200001N1+01021-00061101591ADDGA1001+999999999GF100991001001999999001001MA1999999091621MD1110021+9999REMSYN060AAXX  16214 17202 42970 02805 10102 21006 39162 40159 51002;
0173172020999992000101700004+38590+039280FM-12+0882LTCA V0202901N001512200019N0200001N1+00801-00101101571ADDAA199000091GA1001+999999999GF100991001001999999001001MA1999999091621MD1410001+9999REMSYN060AAXX  17004 17202 32970 02903 10080 21010 39162 40157 54000;EQDQ01  00002PRCP99
0143172020999992000101703004+38590+039280FM-12+0882LTCA V0202801N002612200019N0200001N1+00661+00081101631ADDGA1001+999999999GF100991001001999999001001MA1999999091641MD1110021+9999REMSYN060AAXX  17034 17202 42970 02805 10066 20008 39164 40163 51002;
0232172020999992000101706004+38590+039280FM-12+0882LTCA V0209999C000012200019N0200001N1+01241+00221101741ADDAA199000091GA1021+030009079GF102991021001999999031001IA1019IA2999+00409KA1120N+00601MA1999999091701MD1210061+9999REMSYN088AAXX  17064 17202 32970 20000 10124 20022 39170 40174 52006 82030 333 20060 30004 82360;EQDQ01  00002PRCP99
0159172020999992000101709004+38590+039280FM-12+0882LTCA V0203001N004112200019N0200001N1+02121+00061101661ADDGA1011+010509029GF101991011011012501001001MA1999999091701MD1010001+9999REMSYN076AAXX  17094 17202 42670 13008 10212 20006 39170 40166 50000 81100 333 81835;
0189172020999992000101712004+38590+039280FM-12+0882LTCA V0202901N007712200019N0200001N1+02421-00161101541ADDAA199000091GA1011+010509029GF101991011011012501001001MA1999999091591MD1610111+9999REMSYN076AAXX  17124 17202 32670 12915 10242 21016 39159 40154 56011 81100 333 81835;EQDQ01  00002PRCP99
0143172020999992000101715004+38590+039280FM-12+0882LTCA V0202901N005112200019N0200001N1+02001-00321101541ADDGA1001+999999999GF100991001001999999001001MA1999999091541MD1710051+9999REMSYN060AAXX  17154 17202 42970 02910 10200 21032 39154 40154 57005;
0196172020999992000101718004+38590+039280FM-12+0882LTCA V0202901N002112200019N0200001N1+01381-00371101611ADDAA199000091GA1001+999999999GF100991001001999999001001KA1999M+02441MA1999999091601MD1210061+9999REMSYN070AAXX  17184 17202 32970 02904 10138 21037 39160 40161 52006 333 10244;EQDQ01  00002PRCP99
0143172020999992000101721004+38590+039280FM-12+0882LTCA V0209999C000012200019N0200001N1+01161-00361101601ADDGA1001+999999999GF100991001001999999001001MA1999999091651MD1210051+9999REMSYN060AAXX  17214 17202 42970 00000 10116 21036 39165 40160 52005;
0173172020999992000101800004+38590+039280FM-12+0882LTCA V0202801N002112200019N0200001N1+00721-00211101681ADDAA199000091GA1001+999999999GF100991001001999999001001MA1999999091721MD1110071+9999REMSYN060AAXX  18004 17202 32970 02804 10072 21021 39172 40168 51007;EQDQ01  00002PRCP99
0143172020999992000101803004+38590+039280FM-12+0882LTCA V0209999C000012200019N0200001N1+00541-00161101741ADDGA1001+999999999GF100991001001999999001001MA1999999091721MD1410001+9999REMSYN060AAXX  18034 17202 42970 00000 10054 21016 39172 40174 54000;
0220172020999992000101806004+38590+039280FM-12+0882LTCA V0202001N001512200019N0200001N1+01201-00101101841ADDAA199000091GA1001+999999999GF100991001001999999001001IA1019IA2999+00309KA1120N+00461MA1999999091811MD1310091+9999REMSYN076AAXX  18064 17202 32970 02003 10120 21010 39181 40184 53009 333 20046 30003;EQDQ01  00002PRCP99
0143172020999992000101809004+38590+039280FM-12+0882LTCA V0203101N005712200019N0200001N1+01881-00101101761ADDGA1001+999999999GF100991001001999999001001MA1999999091771MD1710041+9999REMSYN060AAXX  18094 17202 42970 03111 10188 21010 39177 40176 57004;
0189172020999992000101812004+38590+039280FM-12+0882LTCA V0202701N003612200019N0200001N1+02241-00601101571ADDAA199000091GA1021+010509029GF102991021011012501001001MA1999999091601MD1710171+9999REMSYN076AAXX  18124 17202 32670 22707 10224 21060 39160 40157 57017 82100 333 82835;EQDQ01  00002PRCP99
0159172020999992000101815004+38590+039280FM-12+0882LTCA V0202201N003612200019N0200001N1+01901-00501101521ADDGA1021+010509029GF102991021011012501001001MA1999999091501MD1710101+9999REMSYN076AAXX  18154 17202 42670 22207 10190 21050 39150 40152 57010 82100 333 82835;
0196172020999992000101818004+38590+039280FM-12+0882LTCA V0202701N001512200019N0200001N1+01321+00041101501ADDAA199000091GA1001+999999999GF100991001001999999001001KA1999M+02301MA1999999091501MD1410001+9999REMSYN070AAXX  18184 17202 32970 02703 10132 20004 39150 40150 54000 333 10230;EQDQ01  00002PRCP99
0143172020999992000101821004+38590+039280FM-12+0882LTCA V0202901N001512200019N0200001N1+01101+00041101461ADDGA1001+999999999GF100991001001999999001001MA1999999091501MD1010001+9999REMSYN060AAXX  18214 17202 42970 02903 10110 20004 39150 40146 50000;
0173172020999992000101900004+38590+039280FM-12+0882LTCA V0202701N001512200019N0200001N1+00821+00151101441ADDAA199000091GA1001+999999999GF100991001001999999001001MA1999999091501MD1410001+9999REMSYN060AAXX  19004 17202 32970 02703 10082 20015 39150 40144 54000;EQDQ01  00002PRCP99
0143172020999992000101903004+38590+039280FM-12+0882LTCA V0209999C000012200019N0200001N1+00281+00161101481ADDGA1001+999999999GF100991001001999999001001MA1999999091501MD1410001+9999REMSYN060AAXX  19034 17202 42970 00000 10028 20016 39150 40148 54000;
0238172020999992000101906004+38590+039280FM-12+0882LTCA V0209999C000012200019N0200001N1+01241+00221101591ADDAA199000091GA1021+010509089GF103991021011012501031001IA1019IA2999+00509KA1120N+00701MA1999999091581MD1310081+9999REMSYN094AAXX  19064 17202 32670 30000 10124 20022 39158 40159 53008 82130 333 20070 30005 82835 83360;EQDQ01  00002PRCP99
0165172020999992000101909004+38590+039280FM-12+0882LTCA V0201001N002112200019N0200001N1+02001+00561101451ADDGA1021+010509089GF104991021011012501051001MA1999999091511MD1810071+9999REMSYN082AAXX  19094 17202 42670 41004 10200 20056 39151 40145 58007 82150 333 82835 84360;
0165172020999992000101915004+38590+039280FM-12+0882LTCA V0200801N00211036001CN0200001N1+01881+00411101381ADDGA1031+010509089GF105991031011012501051001MA1999999091391MD1510011+9999REMSYN082AAXX  19154 17202 42670 50804 10188 20041 39139 40138 55001 83150 333 83835 85360;
0214172020999992000101918004+38590+039280FM-12+0882LTCA V0203001N00311036001CN0200001N1+01521+00341101421ADDAA199000091GA1031+010509089GF105991031011012501051001KA1120M+02421MA1999999091451MD1310061+9999REMSYN088AAXX  19184 17202 32670 53006 10152 20034 39145 40142 53006 83150 333 10242 83835 85360;EQDQ01  00002PRCP99
0165172020999992000101921004+38590+039280FM-12+0882LTCA V0203001N00151036001CN0200001N1+01401+00421101421ADDGA1031+010509089GF105991031011012501051001MA1999999091501MD1110051+9999REMSYN082AAXX  19214 17202 42670 53003 10140 20042 39150 40142 51005 83150 333 83835 85360;
0195172020999992000102000004+38590+039280FM-12+0882LTCA V0202701N00311036001CN0200001N1+01201+00541101351ADDAA199000091GA1031+010509089GF105991031011012501051001MA1999999091451MD1810051+9999REMSYN082AAXX  20004 17202 32670 52706 10120 20054 39145 40135 58005 83150 333 83835 85360;EQDQ01  00002PRCP99
0165172020999992000102003004+38590+039280FM-12+0882LTCA V0202901N00211036001CN0200001N1+01041+00441101441ADDGA1031+010509089GF105991031011012501051001MA1999999091481MD1310031+9999REMSYN082AAXX  20034 17202 42670 52904 10104 20044 39148 40144 53003 83150 333 83835 85360;
0238172020999992000102006004+38590+039280FM-12+0882LTCA V0201001N003112200019N0200001N1+01701+00621101461ADDAA199000091GA1021+010509089GF104991021011012501051001IA1019IA2999+00809KA1120N+01001MA1999999091521MD1210041+9999REMSYN094AAXX  20064 17202 32670 41006 10170 20062 39152 40146 52004 82150 333 20100 30008 82835 84360;EQDQ01  00002PRCP99
0193172020999992000102009004+38590+039280FM-12+0882LTCA V0201401N003110090019N0150001N1+01701+00731101431ADDAY111031AY211031GA1051+009009089GF107991051021008001051001MA1999999091491MD1610031+9999MW1801REMSYN088AAXX  20094 17202 41565 71406 10170 20073 39149 40143 56003 78011 85250 333 85830 87359;
0210172020999992000102012004+38590+039280FM-12+0882LTCA V0200901N003110105019N0200001N1+01861+00681101241ADDAA106000591AY181061AY221061GA1051+010509089GF106991051021012501051001MA1999999091301MD1710191+9999MW1021REMSYN094AAXX  20124 17202 11670 60906 10186 20068 39130 40124 57019 69951 70282 85250 333 85835 86360;
0165172020999992000102015004+38590+039280FM-12+0882LTCA V0200901N002110105019N0200001N1+01861+00681101141ADDGA1051+010509089GF107991051021012501051001MA1999999091211MD1710091+9999REMSYN082AAXX  20154 17202 42670 70904 10186 20068 39121 40114 57009 85250 333 85835 87360;
0201172020999992000102018004+38590+039280FM-12+0882LTCA V0202301N004110105019N0200001N1+01721+00501100991ADDAA112000591GA1051+010509089GF107991051021012501051001KA1120M+01981MA1999999091111MD1510101+9999REMSYN094AAXX  20184 17202 12670 72308 10172 20050 39111 40099 55010 69952 85250 333 10198 85835 87360;
0193172020999992000102021004+38590+039280FM-12+0882LTCA V0200801N001510099019N0200001N1+01361+01041101211ADDAY181031AY221031GA1051+009909089GF107991051021012501051001MA1999999091281MD1210171+9999MW1801REMSYN088AAXX  20214 17202 41670 70803 10136 20104 39128 40121 52017 78082 85250 333 85833 87359;
0210172020999992000102100004+38590+039280FM-12+0882LTCA V0202401N00411036001CN0200001N1+01141+00871101331ADDAA106005191AY181061AY221061GA1041+010509089GF107991041021012501051001MA1999999091381MD1210101+9999MW1021REMSYN094AAXX  21004 17202 11670 72408 10114 20087 39138 40133 52010 60051 70282 84250 333 84835 87360;
0165172020999992000102103004+38590+039280FM-12+0882LTCA V0202201N00411036001CN0200001N1+00941+00661101461ADDGA1041+010509089GF107991041021012501051001MA1999999091481MD1210101+9999REMSYN082AAXX  21034 17202 42670 72208 10094 20066 39148 40146 52010 84250 333 84835 87360;
0231172020999992000102106004+38590+039280FM-12+0882LTCA V0202401N003610105019N0200001N1+01141+00601101611ADDAA101005191GA1051+010509089GF106991051021012501051001IA1099IA2999+00809KA1120N+00901MA1999999091621MD1210141+9999REMSYN106AAXX  21064 17202 12670 62407 10114 20060 39162 40161 52014 60055 85250 333 20090 31008 70055 85835 86360;
0165172020999992000102109004+38590+039280FM-12+0882LTCA V0202801N00361036001CN0200001N1+01381+00401101591ADDGA1041+010509089GF106991041021012501051001MA1999999091601MD1610021+9999REMSYN082AAXX  21094 17202 42670 62807 10138 20040 39160 40159 56002 84250 333 84835 86360;
0195172020999992000102112004+38590+039280FM-12+0882LTCA V0202901N00411036001CN0200001N1+01501+00321101581ADDAA199000091GA1031+010509089GF105991031021012501051001MA1999999091571MD1810031+9999REMSYN082AAXX  21124 17202 32670 52908 10150 20032 39157 40158 58003 83250 333 83835 85360;EQDQ01  00002PRCP99
0165172020999992000102115004+38590+039280FM-12+0882LTCA V0203001N00361036001CN0200001N1+01301+00061101641ADDGA1031+010509089GF106991031021012501051001MA1999999091591MD1310021+9999REMSYN082AAXX  21154 17202 42670 63007 10130 20006 39159 40164 53002 83250 333 83835 86360;
0214172020999992000102118004+38590+039280FM-12+0882LTCA V0202101N00211036001CN0200001N1+00901+00141101711ADDAA199000091GA1021+010509089GF105991021011012501051001KA1120M+01561MA1999999091641MD1110051+9999REMSYN088AAXX  21184 17202 32670 52104 10090 20014 39164 40171 51005 82150 333 10156 82835 85360;EQDQ01  00002PRCP99
0143172020999992000102121004+38590+039280FM-12+0882LTCA V0203201N001512200019N0200001N1+00521+00241101771ADDGA1001+999999999GF100991001001999999001001MA1999999091691MD1110051+9999REMSYN060AAXX  21214 17202 42970 03203 10052 20024 39169 40177 51005;
0173172020999992000102200004+38590+039280FM-12+0882LTCA V0202101N002112200019N0200001N1+00461+00301101771ADDAA199000091GA1001+999999999GF100991001001999999001001MA1999999091691MD1410001+9999REMSYN060AAXX  22004 17202 32970 02104 10046 20030 39169 40177 54000;EQDQ01  00002PRCP99
0165172020999992000102203004+38590+039280FM-12+0882LTCA V0209999C00001036001CN0200001N1+00561+00421101751ADDGA1031+010509089GF106991031021012501051001MA1999999091651MD1610041+9999REMSYN082AAXX  22034 17202 42670 60000 10056 20042 39165 40175 56004 83250 333 83835 85360;
0238172020999992000102206004+38590+039280FM-12+0882LTCA V0209999C00001036001CN0200001N1+00861+00321101751ADDAA199000091GA1041+010509089GF107991041021012501051001IA1099IA2999+00309KA1120N+00401MA1999999091651MD1410001+9999REMSYN094AAXX  22064 17202 32670 70000 10086 20032 39165 40175 54000 84250 333 20040 31003 84835 87360;EQDQ01  00002PRCP99
0165172020999992000102209004+38590+039280FM-12+0882LTCA V0200901N00361036001CN0200001N1+01261+00581101691ADDGA1041+010509089GF107991041021012501051001MA1999999091601MD1710051+9999REMSYN082AAXX  22094 17202 42670 70907 10126 20058 39160 40169 57005 84250 333 84835 87360;
0210172020999992000102212004+38590+039280FM-12+0882LTCA V0201101N001510090019N0100001N1+01201+00821101551ADDAA106002091AY181061AY221061GA1051+009009089GF107991051021008001051001MA1999999091451MD1710151+9999MW1801REMSYN094AAXX  22124 17202 11560 71103 10120 20082 39145 40155 57015 60021 78082 85250 333 85830 87360;
0193172020999992000102215004+38590+039280FM-12+0882LTCA V0209999C000010105019N0200001N1+01101+00901101501ADDAY181031AY221031GA1051+010509089GF107991051021012501051001MA1999999091411MD1810041+9999MW1021REMSYN088AAXX  22154 17202 41670 70000 10110 20090 39141 40150 58004 70282 85250 333 85835 87360;
0223172020999992000102218004+38590+039280FM-12+0882LTCA V0209999C000012200019N0200001N1+00801+00401101511ADDAA112006191AY181061AY221061GA1031+010509029GF103991031021012501001001KA1120M+01281MA1999999091421MD1310011+9999MW1021REMSYN094AAXX  22184 17202 11670 30000 10080 20040 39142 40151 53001 60062 70282 83200 333 10128 83835;
0159172020999992000102221004+38590+039280FM-12+0882LTCA V0202101N004112200019N0200001N1+00781+00401101541ADDGA1031+010509029GF103991031021012501001001MA1999999091481MD1110061+9999REMSYN076AAXX  22214 17202 42670 32108 10078 20040 39148 40154 51006 83200 333 83835;
0170172020999992000102300004+38590+039280FM-12+0882LTCA V0209999C000012200019N0200001N1+00661+00401101501ADDAA199000021GA1031+010509029GF103991031021012501001001MA1999999091431MD1810051+9999REMSYN076AAXX  23004 17202 32670 30000 10066 20040 39143 40150 58005 83200 333 83835;
0159172020999992000102303004+38590+039280FM-12+0882LTCA V0209999C000012200019N0200001N1+00701+00361101491ADDGA1031+010509029GF103991031021012501001001MA1999999091421MD1810011+9999REMSYN076AAXX  23034 17202 42670 30000 10070 20036 39142 40149 58001 83200 333 83835;
0225172020999992000102306004+38590+039280FM-12+0882LTCA V0202401N00151036001CN0200001N1+00841+00341101631ADDAA124006191GA1041+010509089GF106991041021012501051001IA1119IA2999+00509KA1120N+00661MA1999999091531MD1310111+9999REMSYN100AAXX  23064 17202 32670 62403 10084 20034 39153 40163 53011 84250 333 20066 32005 70060 84835 85360;
0195172020999992000102312004+38590+039280FM-12+0882LTCA V0202101N00211036001CN0200001N1+01481+00361101481ADDAA199000091GA1031+010509089GF105991031021012501051001MA1999999091451MD1710111+9999REMSYN082AAXX  23124 17202 32670 52104 10148 20036 39145 40148 57011 83250 333 83835 85360;EQDQ01  00002PRCP99
0159172020999992000102315004+38590+039280FM-12+0882LTCA V0202501N001512200019N0200001N1+01221+00361101451ADDGA1041+010509029GF104991041021012501001001MA1999999091401MD1610051+9999REMSYN076AAXX  23154 17202 42670 42503 10122 20036 39140 40145 56005 84200 333 84835;
0208172020999992000102318004+38590+039280FM-12+0882LTCA V0202101N002612200019N0200001N1+00941+00241101541ADDAA199000091GA1041+010509029GF104991041021012501001001KA1120M+01501MA1999999091471MD1110071+9999REMSYN082AAXX  23184 17202 32670 42105 10094 20024 39147 40154 51007 84200 333 10150 84835;EQDQ01  00002PRCP99
0159172020999992000102321004+38590+039280FM-12+0882LTCA V0202101N002112200019N0200001N1+00651+00221101581ADDGA1031+010509029GF103991031011012501001001MA1999999091501MD1310031+9999REMSYN076AAXX  23214 17202 42670 32104 10065 20022 39150 40158 53003 83100 333 83835;
0189172020999992000102400004+38590+039280FM-12+0882LTCA V0202601N001012200019N0200001N1+00541+00081101511ADDAA199000091GA1031+010509029GF103991031011012501001001MA1999999091461MD1210041+9999REMSYN076AAXX  24004 17202 32670 32602 10054 20008 39146 40151 52004 83100 333 83835;EQDQ01  00002PRCP99
0159172020999992000102403004+38590+039280FM-12+0882LTCA V0202501N002112200019N0200001N1+00481+00071101511ADDGA1041+010509029GF104991041021012501001001MA1999999091421MD1610041+9999REMSYN076AAXX  24034 17202 42670 42504 10048 20007 39142 40151 56004 84200 333 84835;
0238172020999992000102406004+38590+039280FM-12+0882LTCA V0202401N00151036001CN0200001N1+00661+00501101601ADDAA199000091GA1041+010509089GF106991041021012501051001IA1099IA2999+00309KA1120N+00441MA1999999091501MD1310081+9999REMSYN094AAXX  24064 17202 32670 62403 10066 20050 39150 40160 53008 84250 333 20044 31003 84835 86360;EQDQ01  00002PRCP99
0165172020999992000102409004+38590+039280FM-12+0882LTCA V0200701N00151036001CN0200001N1+01061+00481101581ADDGA1031+010509089GF106991031021012501051001MA1999999091501MD1010001+9999REMSYN082AAXX  24094 17202 42670 60703 10106 20048 39150 40158 50000 83250 333 83835 86360;
0195172020999992000102412004+38590+039280FM-12+0882LTCA V0200801N00461036001CN0200001N1+01401+00481101351ADDAA199000091GA1021+010509089GF105991021021012501051001MA1999999091311MD1710191+9999REMSYN082AAXX  24124 17202 32670 50809 10140 20048 39131 40135 57019 82250 333 82835 85360;EQDQ01  00002PRCP99
0165172020999992000102415004+38590+039280FM-12+0882LTCA V0200901N00151036001CN0200001N1+01301+00521101361ADDGA1021+010509089GF105991021011012501051001MA1999999091311MD1410001+9999REMSYN082AAXX  24154 17202 42670 50903 10130 20052 39131 40136 54000 82150 333 82835 85360;
0229172020999992000102418004+38590+039280FM-12+0882LTCA V0200301N001510090019N0150001N1+01101+00621101441ADDAA112001091AY121061AY221061GA1051+009009089GF107991051021008001051001KA1120M+01441MA1999999091371MD1210061+9999MW1801REMSYN100AAXX  24184 17202 11565 70303 10110 20062 39137 40144 52006 60012 78022 85250 333 10144 85830 87359;
0193172020999992000102421004+38590+039280FM-12+0882LTCA V0201301N004110090019N0150001N1+00901+00681101471ADDAY181031AY221031GA1051+009009089GF107991051021008001051001MA1999999091421MD1210051+9999MW1801REMSYN088AAXX  24214 17202 41565 71308 10090 20068 39142 40147 52005 78082 85250 333 85830 87359;
0210172020999992000102500004+38590+039280FM-12+0882LTCA V0201001N002112200019N0200001N1+00701+00401101431ADDAA106003091AY181061AY221061GA1031+010509089GF104991031021012501051001MA1999999091401MD1610021+9999MW1021REMSYN094AAXX  25004 17202 11670 41004 10070 20040 39140 40143 56002 60031 70282 83250 333 83835 84360;
0193172020999992000102503004+38590+039280FM-12+0882LTCA V0203401N001510090019N0150001N1+00741+00541101411ADDAY121031AY221031GA1051+009009089GF107991051021008001051001MA1999999091371MD1510031+9999MW1801REMSYN088AAXX  25034 17202 41565 73403 10074 20054 39137 40141 55003 78022 85250 333 85830 87359;
0281172020999992000102506004+38590+039280FM-12+0882LTCA V0200701N004110090019N0100001N1+00861+00721101451ADDAA112009991AY121061AY221061GA1021+005409079GA2051+009009089GF107991061071004501071001IA1119IA2999+00409KA1120N+00541MA1999999091401MD1310031+9999MW1801REMSYN118AAXX  25064 17202 11460 70708 10086 20072 39140 40145 53003 60102 78022 86770 333 20054 32004 70110 82718 85830 87358;
0215172020999992000102509004+38590+039280FM-12+0882LTCA V0200501N003110090019N0100001N1+00961+00711101541ADDAY181031AY281031GA1021+005409079GA2051+009009089GF107991061071004501071001MA1999999091461MD1110061+9999MW1801REMSYN094AAXX  25094 17202 41460 70506 10096 20071 39146 40154 51006 78088 86770 333 82718 85830 87358;
0210172020999992000102512004+38590+039280FM-12+0882LTCA V0209999C000010090019N0150001N1+01121+00661101471ADDAA106003091AY181061AY221061GA1051+009009089GF107991051021008001051001MA1999999091401MD1610061+9999MW1251REMSYN094AAXX  25124 17202 11565 70000 10112 20066 39140 40147 56006 60031 72582 85250 333 85830 87359;
0165172020999992000102515004+38590+039280FM-12+0882LTCA V0201701N00151036001CN0200001N1+01141+00381101471ADDGA1031+010509089GF105991031021012501051001MA1999999091401MD1010001+9999REMSYN082AAXX  25154 17202 42670 51703 10114 20038 39140 40147 50000 83250 333 83835 85360;
0201172020999992000102518004+38590+039280FM-12+0882LTCA V0202901N002612200019N0200001N1+00701+00521101601ADDAA112003091GA1011+010509089GF104991011011012501051001KA1120M+01321MA1999999091501MD1210101+9999REMSYN094AAXX  25184 17202 12670 42905 10070 20052 39150 40160 52010 60032 81150 333 10132 81835 84360;
0143172020999992000102521004+38590+039280FM-12+0882LTCA V0203001N002612200019N0200001N1+00641+00541101611ADDGA1001+999999999GF100991001001999999001001MA1999999091511MD1110011+9999REMSYN060AAXX  25214 17202 42970 03005 10064 20054 39151 40161 51001;
0154172020999992000102600004+38590+039280FM-12+0882LTCA V0203001N001512200019N0200001N1+00741+00641101581ADDAA199000021GA1001+999999999GF100991001001999999001001MA1999999091501MD1010011+9999REMSYN060AAXX  26004 17202 32970 03003 10074 20064 39150 40158 50001;
0165172020999992000102603004+38590+039280FM-12+0882LTCA V0209999C00001036001CN0200001N1+00741+00641101581ADDGA1011+010509089GF105991011011012501051001MA1999999091501MD1410001+9999REMSYN082AAXX  26034 17202 42670 50000 10074 20064 39150 40158 54000 81150 333 81835 85360;
0225172020999992000102606004+38590+039280FM-12+0882LTCA V0209999C00001036001CN0200001N1+00961+00651101821ADDAA124003091GA1031+010509089GF106991031011012501051001IA1119IA2999+00409KA1120N+00601MA1999999091701MD1210201+9999REMSYN100AAXX  26064 17202 32670 60000 10096 20065 39170 40182 52020 83150 333 20060 32004 70030 83835 86360;
0165172020999992000102609004+38590+039280FM-12+0882LTCA V0201501N00151036001CN0200001N1+01461+00601101861ADDGA1031+010509089GF105991031011012501051001MA1999999091771MD1210071+9999REMSYN082AAXX  26094 17202 42670 51503 10146 20060 39177 40186 52007 83150 333 83835 86360;
0189172020999992000102612004+38590+039280FM-12+0882LTCA V0209999C000012200019N0200001N1+01661+00321101731ADDAA199000091GA1041+010509029GF104991041021012501001001MA1999999091691MD1710081+9999REMSYN076AAXX  26124 17202 32670 40000 10166 20032 39169 40173 57008 84200 333 84835;EQDQ01  00002PRCP99
0159172020999992000102615004+38590+039280FM-12+0882LTCA V0203101N002612200019N0200001N1+01301+00221101791ADDGA1041+010509029GF104991041021012501001001MA1999999091741MD1110011+9999REMSYN076AAXX  26154 17202 42670 43105 10130 20022 39174 40179 51001 84200 333 84835;
0196172020999992000102618004+38590+039280FM-12+0882LTCA V0202501N002112200019N0200001N1+00901+00281101941ADDAA199000091GA1001+999999999GF100991001001999999001001KA1999M+01681MA1999999091811MD1110101+9999REMSYN070AAXX  26184 17202 32970 02504 10090 20028 39181 40194 51010 333 10168;EQDQ01  00002PRCP99
0143172020999992000102621004+38590+039280FM-12+0882LTCA V0203001N002112200019N0200001N1+00701+00321101961ADDGA1001+999999999GF100991001001999999001001MA1999999091881MD1210091+9999REMSYN060AAXX  26214 17202 42970 03004 10070 20032 39188 40196 52009;
0173172020999992000102700004+38590+039280FM-12+0882LTCA V0209999C000012200019N0200001N1+00541+00081101981ADDAA199000091GA1001+999999999GF100991001001999999001001MA1999999091901MD1110011+9999REMSYN060AAXX  27004 17202 32970 00000 10054 20008 39190 40198 51001;EQDQ01  00002PRCP99
0143172020999992000102703004+38590+039280FM-12+0882LTCA V0203001N002612200019N0200001N1+00361+00121102041ADDGA1001+999999999GF100991001001999999001001MA1999999091901MD1410001+9999REMSYN060AAXX  27034 17202 42970 03005 10036 20012 39190 40204 54000;
0220172020999992000102706004+38590+039280FM-12+0882LTCA V0209999C000012200019N0200001N1+00661+00321102121ADDAA199000091GA1001+999999999GF100991001001999999001001IA1099IA2999+00209KA1120N+00321MA1999999091971MD1310071+9999REMSYN076AAXX  27064 17202 32970 00000 10066 20032 39197 40212 53007 333 20032 31002;EQDQ01  00002PRCP99
0159172020999992000102709004+38590+039280FM-12+0882LTCA V0201801N001012200019N0200001N1+01361+00481102081ADDGA1031+010509029GF103991031011012501001001MA1999999091971MD1010001+9999REMSYN076AAXX  27094 17202 42670 31802 10136 20048 39197 40208 50000 83100 333 83835;
0189172020999992000102712004+38590+039280FM-12+0882LTCA V0201001N001512200019N0200001N1+01701+00601101921ADDAA199000091GA1031+010509029GF103991031011012501001001MA1999999091841MD1710131+9999REMSYN076AAXX  27124 17202 32670 31003 10170 20060 39184 40192 57013 83100 333 83835;EQDQ01  00002PRCP99
0143172020999992000102715004+38590+039280FM-12+0882LTCA V0201501N001512200019N0200001N1+01361+00481101881ADDGA1001+999999999GF100991001001999999001001MA1999999091771MD1710071+9999REMSYN060AAXX  27154 17202 42970 01503 10136 20048 39177 40188 57007;
0196172020999992000102718004+38590+039280FM-12+0882LTCA V0203001N003112200019N0200001N1+00901+00901101971ADDAA199000091GA1001+999999999GF100991001001999999001001KA1999M+01741MA1999999091831MD1210061+9999REMSYN070AAXX  27184 17202 32970 03006 10090 20090 39183 40197 52006 333 10174;EQDQ01  00002PRCP99
0143172020999992000102721004+38590+039280FM-12+0882LTCA V0202901N003112200019N0200001N1+00801+00381101951ADDGA1001+999999999GF100991001001999999001001MA1999999091871MD1210041+9999REMSYN060AAXX  27214 17202 42970 02906 10080 20038 39187 40195 52004;
0173172020999992000102800004+38590+039280FM-12+0882LTCA V0202601N002612200019N0200001N1+00681+00431101911ADDAA199000091GA1001+999999999GF100991001001999999001001MA1999999091861MD1410001+9999REMSYN060AAXX  28004 17202 32970 02605 10068 20043 39186 40191 54000;EQDQ01  00002PRCP99
0143172020999992000102803004+38590+039280FM-12+0882LTCA V0202901N003112200019N0200001N1+00441+00121101981ADDGA1001+999999999GF100991001001999999001001MA1999999091861MD1410001+9999REMSYN060AAXX  28034 17202 42970 02906 10044 20012 39186 40198 54000;
0220172020999992000102806004+38590+039280FM-12+0882LTCA V0209999C000012200019N0150001N1+00741+00441102111ADDAA199000091GA1001+999999999GF100991001001999999001001IA1099IA2999+00209KA1120N+00401MA1999999091961MD1210101+9999REMSYN076AAXX  28064 17202 32965 00000 10074 20044 39196 40211 52010 333 20040 31002;EQDQ01  00002PRCP99
0159172020999992000102809004+38590+039280FM-12+0882LTCA V0200901N001512200019N0150001N1+01401+00441102021ADDGA1021+010509029GF102991021011012501001001MA1999999091931MD1810031+9999REMSYN076AAXX  28094 17202 42665 20903 10140 20044 39193 40202 58003 82100 333 82835;
0189172020999992000102812004+38590+039280FM-12+0882LTCA V0201001N002112200019N0200001N1+01681+00281101871ADDAA199000091GA1031+010509029GF103991031011012501001001MA1999999091821MD1710111+9999REMSYN076AAXX  28124 17202 32670 31004 10168 20028 39182 40187 57011 83100 333 83835;EQDQ01  00002PRCP99
0159172020999992000102815004+38590+039280FM-12+0882LTCA V0209999C000012200019N0200001N1+01441+00141101891ADDGA1031+010509029GF103991031011012501001001MA1999999091781MD1710041+9999REMSYN076AAXX  28154 17202 42670 30000 10144 20014 39178 40189 57004 83100 333 83835;
0196172020999992000102818004+38590+039280FM-12+0882LTCA V0202901N002612200019N0200001N1+01001+00081102021ADDAA199000091GA1001+999999999GF100991001001999999001001KA1999M+01741MA1999999091901MD1310121+9999REMSYN070AAXX  28184 17202 32970 02905 10100 20008 39190 40202 53012 333 10174;EQDQ01  00002PRCP99
0143172020999992000102821004+38590+039280FM-12+0882LTCA V0203101N003112200019N0200001N1+00761+00061101981ADDGA1001+999999999GF100991001001999999001001MA1999999091901MD1410001+9999REMSYN060AAXX  28214 17202 42970 03106 10076 20006 39190 40198 54000;
0173172020999992000102900004+38590+039280FM-12+0882LTCA V0209999C000012200019N0200001N1+00701+00041101981ADDAA199000091GA1001+999999999GF100991001001999999001001MA1999999091901MD1410001+9999REMSYN060AAXX  29004 17202 32970 00000 10070 20004 39190 40198 54000;EQDQ01  00002PRCP99
0143172020999992000102903004+38590+039280FM-12+0882LTCA V0209999C000012200019N0200001N1+00501+00141102001ADDGA1001+999999999GF100991001001999999001001MA1999999091901MD1410001+9999REMSYN060AAXX  29034 17202 42970 00000 10050 20014 39190 40200 54000;
0238172020999992000102906004+38590+039280FM-12+0882LTCA V0209999C00001036001CN0200001N1+00881+00641102061ADDAA199000091GA1041+010509089GF106991041021012501051001IA1019IA2999+00309KA1120N+00441MA1999999091931MD1310031+9999REMSYN094AAXX  29064 17202 32670 60000 10088 20064 39193 40206 53003 84250 333 20044 30003 84835 86360;EQDQ01  00002PRCP99
0165172020999992000102909004+38590+039280FM-12+0882LTCA V0200801N002119999999N0200001N1+01601+00461101941ADDGA1031+010509089GF106991031021999999051001MA1999999091881MD1810051+9999REMSYN082AAXX  29094 17202 42970 60804 10160 20046 39188 40194 58005 83250 333 83835 86360;
0210172020999992000102912004+38590+039280FM-12+0882LTCA V0202201N004110105019N0100001N1+01261+00481101891ADDAA106000191AY121061AY221061GA1051+010509089GF107991051021012501051001MA1999999091801MD1610081+9999MW1801REMSYN094AAXX  29124 17202 11660 72208 10126 20048 39180 40189 56008 69921 78022 85250 333 85835 87359;
0193172020999992000102915004+38590+039280FM-12+0882LTCA V0201701N001510105019N0100001N1+01081+00541102041ADDAY181031AY281031GA1051+010509089GF107991051021012501051001MA1999999091901MD1110101+9999MW1801REMSYN088AAXX  29154 17202 41660 71703 10108 20054 39190 40204 51010 78088 85250 333 85835 87359;
0229172020999992000102918004+38590+039280FM-12+0882LTCA V0202601N00151036001CN0150001N1+00981+00891102101ADDAA112002091AY181061AY221061GA1041+010509089GF107991041021012501051001KA1120M+01641MA1999999091971MD1210071+9999MW1021REMSYN100AAXX  29184 17202 11665 72603 10098 20089 39197 40210 52007 60022 70282 84250 333 10164 84835 87360;
0193172020999992000102921004+38590+039280FM-12+0882LTCA V0209999C000010105019N0100001N1+00941+00841102031ADDAY121031AY221031GA1051+010509089GF107991051021012501051001MA1999999091981MD1110011+9999MW1801REMSYN088AAXX  29214 17202 41660 70000 10094 20084 39198 40203 51001 78022 85250 333 85835 87359;
0210172020999992000103000004+38590+039280FM-12+0882LTCA V0209999C00001036001CN0200001N1+00921+00821102081ADDAA106001091AY181061AY221061GA1041+010509089GF107991041021012501051001MA1999999091991MD1110011+9999MW1021REMSYN094AAXX  30004 17202 11670 70000 10092 20082 39199 40208 51001 60011 70282 84250 333 84835 87360;
0165172020999992000103003004+38590+039280FM-12+0882LTCA V0202401N00151036001CN0200001N1+00941+00841102071ADDGA1041+010509089GF107991041021012501051001MA1999999091961MD1710031+9999REMSYN082AAXX  30034 17202 42670 72403 10094 20084 39196 40207 57003 84250 333 84835 87360;
0259172020999992000103006004+38590+039280FM-12+0882LTCA V0209999C000010105019N0100001N1+00941+00841102161ADDAA112002091AY121061AY221061GA1051+010509089GF107991051021012501051001IA1119IA2999+00809KA1120N+00881MA1999999092041MD1210081+9999MW1801REMSYN112AAXX  30064 17202 11660 70000 10094 20084 39204 40216 52008 60022 78022 85250 333 20088 32008 70046 85835 87359;
0215172020999992000103009004+38590+039280FM-12+0882LTCA V0200901N002110090019N0100001N1+01041+00821102221ADDAY181031AY281031GA1031+005409079GA2051+009009069GF107991061071004501051001MA1999999092101MD1310061+9999MW1801REMSYN094AAXX  30094 17202 41460 70904 10104 20082 39210 40222 53006 78088 86750 333 83718 85630 87358;
0232172020999992000103012004+38590+039280FM-12+0882LTCA V0200401N001010090019N0150001N1+01101+00801102111ADDAA106002091AY181061AY221061GA1021+006009079GA2051+009009069GF107991061071008001051001MA1999999092001MD1710101+9999MW1021REMSYN100AAXX  30124 17202 11565 70402 10110 20080 39200 40211 57010 60021 70282 86750 333 82720 85630 87359;
0215172020999992000103015004+38590+039280FM-12+0882LTCA V0203001N004610090019N0150001N1+00981+00821102101ADDAY121031AY221031GA1011+006009079GA2051+009009069GF107991061071008001051001MA1999999091991MD1610011+9999MW1801REMSYN094AAXX  30154 17202 41565 73009 10098 20082 39199 40210 56001 78022 86750 333 81720 85630 87359;
0229172020999992000103018004+38590+039280FM-12+0882LTCA V0202601N00261036001CN0200001N1+00961+00651102111ADDAA112003091AY181061AY221061GA1041+010509069GF107991041051012501051001KA1120M+01141MA1999999092001MD1110011+9999MW1021REMSYN100AAXX  30184 17202 11670 72605 10096 20065 39200 40211 51001 60032 70282 84550 333 10114 84635 87360;
0165172020999992000103021004+38590+039280FM-12+0882LTCA V0202301N00211036001CN0200001N1+00921+00641102091ADDGA1041+010509069GF107991041051012501051001MA1999999091981MD1810021+9999REMSYN082AAXX  30214 17202 42670 72304 10092 20064 39198 40209 58002 84550 333 84635 87360;
0144172020999992000103100004+38590+039280FM-12+0882LTCA V0202701N002110360019N0200001N1+00901+00581102051ADDAA199000021GF105991031051012501051001MA1999999091941MD1610041+9999REMSYN066AAXX  31004 17202 32670 52704 10090 20058 39194 40205 56004 83550;
0165172020999992000103103004+38590+039280FM-12+0882LTCA V0209999C00001036001CN0200001N1+00701+00281102081ADDGA1031+010509069GF105991031051012501051001MA1999999091941MD1410001+9999REMSYN082AAXX  31034 17202 42670 50000 10070 20028 39194 40208 54000 83550 333 83635 85360;
0225172020999992000103106004+38590+039280FM-12+0882LTCA V0202501N00211036001CN0200001N1+00941+00541102091ADDAA124003391GA1031+010509089GF105991031021012501051001IA1119IA2999+00509KA1120N+00681MA1999999091981MD1210041+9999REMSYN100AAXX  31064 17202 32670 52504 10094 20054 39198 40209 52004 83250 333 20068 32005 70032 83835 85360;
0165172020999992000103109004+38590+039280FM-12+0882LTCA V0202801N00311036001CN0200001N1+01241+00381101981ADDGA1031+010509089GF105991031021012501051001MA1999999091901MD1810081+9999REMSYN082AAXX  31094 17202 42670 52806 10124 20038 39190 40198 58008 83250 333 83835 85360;
0189172020999992000103112004+38590+039280FM-12+0882LTCA V0209999C000012200019N0200001N1+01461+00301101851ADDAA199000091GA1041+010509029GF104991041021012501001001MA1999999091801MD1610101+9999REMSYN076AAXX  31124 17202 32670 40000 10146 20030 39180 40185 56010 84200 333 84835;EQDQ01  00002PRCP99
0159172020999992000103115004+38590+039280FM-12+0882LTCA V0200301N002112200019N0200001N1+01301+00321101861ADDGA1041+010509029GF104991041021012501001001MA1999999091771MD1610031+9999REMSYN076AAXX  31154 17202 42670 40304 10130 20032 39177 40186 56003 84200 333 84835;
0196172020999992000103118004+38590+039280FM-12+0882LTCA V0203101N001012200019N0200001N1+00901+00581101921ADDAA199000091GA1001+999999999GF100991001001999999001001KA1999M+01521MA1999999091811MD1210041+9999REMSYN070AAXX  31184 17202 32970 03102 10090 20058 39181 40192 52004 333 10152;EQDQ01  00002PRCP99
0143172020999992000103121004+38590+039280FM-12+0882LTCA V0202901N001512200019N0200001N1+00701+00281101941ADDGA1001+999999999GF100991001001999999001001MA1999999091841MD1010031+9999REMSYN060AAXX  31214 17202 42970 02903 10070 20028 39184 40194 50003;
0173172020999992000110100004+38590+039280FM-12+0882LTCA V0203001N003112200019N0200001N1+00601+00301101911ADDAA199000091GA1001+999999999GF100991001001999999001001MA1999999091821MD1610021+9999REMSYN060AAXX  01004 17202 32970 03006 10060 20030 39182 40191 56002;EQDQ01  00002PRCP99
0143172020999992000110103004+38590+039280FM-12+0882LTCA V0202801N002112200019N0200001N1+00381+00181101961ADDGA1001+999999999GF100991001001999999001001MA1999999091821MD1410001+9999REMSYN060AAXX  01034 17202 42970 02804 10038 20018 39182 40196 54000;
0220172020999992000110106004+38590+039280FM-12+0882LTCA V0202201N001012200019N0200001N1+00681+00331102091ADDAA199000091GA1001+999999999GF100991001001999999001001IA1099IA2999+00209KA1120N+00301MA1999999091921MD1210101+9999REMSYN076AAXX  01064 17202 32970 02202 10068 20033 39192 40209 52010 333 20030 31002;EQDQ01  00002PRCP99
0159172020999992000110109004+38590+039280FM-12+0882LTCA V0209999C000012200019N0200001N1+01441+00151101901ADDGA1011+010509029GF101991011011012501001001MA1999999091831MD1810091+9999REMSYN076AAXX  01094 17202 42670 10000 10144 20015 39183 40190 58009 81100 333 81835;
0189172020999992000110112004+38590+039280FM-12+0882LTCA V0202701N001012200019N0200001N1+01781+00121101721ADDAA199000091GA1011+010509029GF101991011011012501001001MA1999999091681MD1710151+9999REMSYN076AAXX  01124 17202 32670 12702 10178 20012 39168 40172 57015 81100 333 81835;EQDQ01  00002PRCP99
0143172020999992000110115004+38590+039280FM-12+0882LTCA V0209999C000012200019N0200001N1+01421+00221101741ADDGA1001+999999999GF100991001001999999001001MA1999999091641MD1710041+9999REMSYN060AAXX  01154 17202 42970 00000 10142 20022 39164 40174 57004;
0196172020999992000110118004+38590+039280FM-12+0882LTCA V0209999C000012200019N0200001N1+00941+00341101841ADDAA199000091GA1001+999999999GF100991001001999999001001KA1999M+01821MA1999999091721MD1210081+9999REMSYN070AAXX  01184 17202 32970 00000 10094 20034 39172 40184 52008 333 10182;EQDQ01  00002PRCP99
0143172020999992000110121004+38590+039280FM-12+0882LTCA V0202601N002112200019N0200001N1+00741+00161101791ADDGA1001+999999999GF100991001001999999001001MA1999999091731MD1110011+9999REMSYN060AAXX  01214 17202 42970 02604 10074 20016 39173 40179 51001;
0173172020999992000110200004+38590+039280FM-12+0882LTCA V0202801N003112200019N0200001N1+00541+00121101771ADDAA199000091GA1001+999999999GF100991001001999999001001MA1999999091731MD1410001+9999REMSYN060AAXX  02004 17202 32970 02806 10054 20012 39173 40177 54000;EQDQ01  00002PRCP99
0143172020999992000110203004+38590+039280FM-12+0882LTCA V0202801N002612200019N0200001N1+00361+00161101801ADDGA1001+999999999GF100991001001999999001001MA1999999091701MD1810031+9999REMSYN060AAXX  02034 17202 42970 02805 10036 20016 39170 40180 58003;
0220172020999992000110206004+38590+039280FM-12+0882LTCA V0202701N001512200019N0200001N1+00741+00461101891ADDAA199000091GA1001+999999999GF100991001001999999001001IA1099IA2999+00209KA1120N+00301MA1999999091761MD1210061+9999REMSYN076AAXX  02064 17202 32970 02703 10074 20046 39176 40189 52006 333 20030 31002;EQDQ01  00002PRCP99
0159172020999992000110209004+38590+039280FM-12+0882LTCA V0209999C000012200019N0200001N1+01441+00701101871ADDGA1011+010509029GF101991011011012501001001MA1999999091801MD1110041+9999REMSYN076AAXX  02094 17202 42670 10000 10144 20070 39180 40187 51004 81100 333 81835;
0189172020999992000110212004+38590+039280FM-12+0882LTCA V0209999C000012200019N0200001N1+01821+00721101631ADDAA199000091GA1021+010509029GF102991021011012501001001MA1999999091601MD1710201+9999REMSYN076AAXX  02124 17202 32670 20000 10182 20072 39160 40163 57020 82100 333 82835;EQDQ01  00002PRCP99
0143172020999992000110215004+38590+039280FM-12+0882LTCA V0209999C000012200019N0200001N1+01441+00701101691ADDGA1001+999999999GF100991001001999999001001MA1999999091601MD1410001+9999REMSYN060AAXX  02154 17202 42970 00000 10144 20070 39160 40169 54000;
0196172020999992000110218004+38590+039280FM-12+0882LTCA V0202501N001512200019N0200001N1+00901+00501101811ADDAA199000091GA1001+999999999GF100991001001999999001001KA1999M+01861MA1999999091691MD1210091+9999REMSYN070AAXX  02184 17202 32970 02503 10090 20050 39169 40181 52009 333 10186;EQDQ01  00002PRCP99
0143172020999992000110221004+38590+039280FM-12+0882LTCA V0202501N001512200019N0200001N1+00761+00561101781ADDGA1001+999999999GF100991001001999999001001MA1999999091721MD1210031+9999REMSYN060AAXX  02214 17202 42970 02503 10076 20056 39172 40178 52003;
0173172020999992000110300004+38590+039280FM-12+0882LTCA V0202501N001512200019N0200001N1+00521+00381101821ADDAA199000091GA1001+999999999GF100991001001999999001001MA1999999091771MD1210051+9999REMSYN060AAXX  03004 17202 32970 02503 10052 20038 39177 40182 52005;EQDQ01  00002PRCP99
0143172020999992000110303004+38590+039280FM-12+0882LTCA V0202801N002612200019N0200001N1+00421+00321101921ADDGA1001+999999999GF100991001001999999001001MA1999999091811MD1210041+9999REMSYN060AAXX  03034 17202 42970 02805 10042 20032 39181 40192 52004;
0220172020999992000110306004+38590+039280FM-12+0882LTCA V0202801N001012200019N0200001N1+00721+00471102091ADDAA199000091GA1001+999999999GF100991001001999999001001IA1099IA2999+00209KA1120N+00281MA1999999091941MD1210131+9999REMSYN076AAXX  03064 17202 32970 02802 10072 20047 39194 40209 52013 333 20028 31002;EQDQ01  00002PRCP99
0159172020999992000110309004+38590+039280FM-12+0882LTCA V0201001N001012200019N0150001N1+01421+00701102071ADDGA1011+010509029GF101991011011012501001001MA1999999091981MD1110041+9999REMSYN076AAXX  03094 17202 42665 11002 10142 20070 39198 40207 51004 81100 333 81835;
0189172020999992000110312004+38590+039280FM-12+0882LTCA V0209999C000012200019N0200001N1+01821+00491101871ADDAA199000091GA1021+010509029GF102991021011012501001001MA1999999091821MD1710161+9999REMSYN076AAXX  03124 17202 32670 20000 10182 20049 39182 40187 57016 82100 333 82835;EQDQ01  00002PRCP99
0143172020999992000110315004+38590+039280FM-12+0882LTCA V0202801N001512200019N0200001N1+01401+00421101971ADDGA1001+999999999GF100991001001999999001001MA1999999091851MD1310031+9999REMSYN060AAXX  03154 17202 42970 02803 10140 20042 39185 40197 53003;
0196172020999992000110318004+38590+039280FM-12+0882LTCA V0203001N002612200019N0200001N1+00821+00361102131ADDAA199000091GA1001+999999999GF100991001001999999001001KA1999M+01861MA1999999091981MD1310131+9999REMSYN070AAXX  03184 17202 32970 03005 10082 20036 39198 40213 53013 333 10186;EQDQ01  00002PRCP99
0143172020999992000110321004+38590+039280FM-12+0882LTCA V0202801N002112200019N0200001N1+00701+00361102131ADDGA1001+999999999GF100991001001999999001001MA1999999092031MD1310051+9999REMSYN060AAXX  03214 17202 42970 02804 10070 20036 39203 40213 53005;
0173172020999992000110400004+38590+039280FM-12+0882LTCA V0202701N002612200019N0200001N1+00541+00321102181ADDAA199000091GA1001+999999999GF100991001001999999001001MA1999999092101MD1110071+9999REMSYN060AAXX  04004 17202 32970 02705 10054 20032 39210 40218 51007;EQDQ01  00002PRCP99
0143172020999992000110403004+38590+039280FM-12+0882LTCA V0209999C000012200019N0200001N1+00381+00201102241ADDGA1001+999999999GF100991001001999999001001MA1999999092101MD1410001+9999REMSYN060AAXX  04034 17202 42970 00000 10038 20020 39210 40224 54000;
0220172020999992000110406004+38590+039280FM-12+0882LTCA V0209999C000012200019N0200001N1+00701+00361102401ADDAA199000091GA1001+999999999GF100991001001999999001001IA1019IA2999+00209KA1120N+00341MA1999999092221MD1210121+9999REMSYN076AAXX  04064 17202 32970 00000 10070 20036 39222 40240 52012 333 20034 30002;EQDQ01  00002PRCP99
0159172020999992000110409004+38590+039280FM-12+0882LTCA V0209999C000012200019N0200001N1+01461+00601102361ADDGA1021+010509029GF102991021011012501001001MA1999999092241MD1110021+9999REMSYN076AAXX  04094 17202 42670 20000 10146 20060 39224 40236 51002 82100 333 82835;
0189172020999992000110412004+38590+039280FM-12+0882LTCA V0209999C000012200019N0200001N1+01821+00481102181ADDAA199000091GA1021+010509029GF102991021011012501001001MA1999999092101MD1710141+9999REMSYN076AAXX  04124 17202 32670 20000 10182 20048 39210 40218 57014 82100 333 82835;EQDQ01  00002PRCP99
0143172020999992000110415004+38590+039280FM-12+0882LTCA V0209999C000012200019N0200001N1+01401+00421102211ADDGA1001+999999999GF100991001001999999001001MA1999999092071MD1610031+9999REMSYN060AAXX  04154 17202 42970 00000 10140 20042 39207 40221 56003;
0196172020999992000110418004+38590+039280FM-12+0882LTCA V0203001N002112200019N0200001N1+00841+00121102321ADDAA199000091GA1001+999999999GF100991001001999999001001KA1999M+01901MA1999999092151MD1210081+9999REMSYN070AAXX  04184 17202 32970 03004 10084 20012 39215 40232 52008 333 10190;EQDQ01  00002PRCP99
0143172020999992000110421004+38590+039280FM-12+0882LTCA V0203001N003112200019N0200001N1+00621+00141102351ADDGA1001+999999999GF100991001001999999001001MA1999999092211MD1210061+9999REMSYN060AAXX  04214 17202 42970 03006 10062 20014 39221 40235 52006;
0173172020999992000110500004+38590+039280FM-12+0882LTCA V0202801N003112200019N0200001N1+00461+00241102331ADDAA199000091GA1001+999999999GF100991001001999999001001MA1999999092211MD1410001+9999REMSYN060AAXX  05004 17202 32970 02806 10046 20024 39221 40233 54000;EQDQ01  00002PRCP99
0143172020999992000110503004+38590+039280FM-12+0882LTCA V0202701N001512200019N0200001N1+00441+00201102371ADDGA1001+999999999GF100991001001999999001001MA1999999092211MD1410001+9999REMSYN060AAXX  05034 17202 42970 02703 10044 20020 39221 40237 54000;
0220172020999992000110506004+38590+039280FM-12+0882LTCA V0201501N001012200019N0200001N1+00721+00301102421ADDAA199000091GA1001+999999999GF100991001001999999001001IA1019IA2999+00209KA1120N+00361MA1999999092241MD1310031+9999REMSYN076AAXX  05064 17202 32970 01502 10072 20030 39224 40242 53003 333 20036 30002;EQDQ01  00002PRCP99
0143172020999992000110509004+38590+039280FM-12+0882LTCA V0209999C000012200019N0200001N1+01421+00401102341ADDGA1001+999999999GF100991001001999999001001MA1999999092201MD1810041+9999REMSYN060AAXX  05094 17202 42970 00000 10142 20040 39220 40234 58004;
0189172020999992000110512004+38590+039280FM-12+0882LTCA V0202701N001512200019N0200001N1+01881-00081102051ADDAA199000091GA1011+000159019GF101991999999012501999999MA1999999091981MD1710221+9999REMSYN076AAXX  05124 17202 32670 12703 10188 21008 39198 40205 57022 333 81100 81835;EQDQ01  00002PRCP99
0143172020999992000110515004+38590+039280FM-12+0882LTCA V0203001N003112200019N0200001N1+01301-00611102001ADDGA1001+999999999GF100991001001999999001001MA1999999091881MD1610101+9999REMSYN060AAXX  05154 17202 42970 03006 10130 21061 39188 40200 56010;
0196172020999992000110518004+38590+039280FM-12+0882LTCA V0202901N002112200019N0200001N1+00901-00221102071ADDAA199000091GA1001+999999999GF100991001001999999001001KA1999M+01941MA1999999091921MD1310041+9999REMSYN070AAXX  05184 17202 32970 02904 10090 21022 39192 40207 53004 333 10194;EQDQ01  00002PRCP99
0143172020999992000110521004+38590+039280FM-12+0882LTCA V0202701N001512200019N0200001N1+00541-00061102021ADDGA1001+999999999GF100991001001999999001001MA1999999091921MD1410001+9999REMSYN060AAXX  05214 17202 42970 02703 10054 21006 39192 40202 54000;
0173172020999992000110600004+38590+039280FM-12+0882LTCA V0202801N001512200019N0200001N1+00441-00121101921ADDAA199000091GA1001+999999999GF100991001001999999001001MA1999999091921MD1410001+9999REMSYN060AAXX  06004 17202 32970 02803 10044 21012 39192 40192 54000;EQDQ01  00002PRCP99
0143172020999992000110603004+38590+039280FM-12+0882LTCA V0202901N002612200019N0200001N1+00221-00081102071ADDGA1001+999999999GF100991001001999999001001MA1999999091921MD1410001+9999REMSYN060AAXX  06034 17202 42970 02905 10022 21008 39192 40207 54000;
0220172020999992000110606004+38590+039280FM-12+0882LTCA V0209999C000012200019N0200001N1+00701+00281102091ADDAA199000091GA1001+999999999GF100991001001999999001001IA1019IA2999+00109KA1120N+00161MA1999999091941MD1110021+9999REMSYN076AAXX  06064 17202 32970 00000 10070 20028 39194 40209 51002 333 20016 30001;EQDQ01  00002PRCP99
0143172020999992000110609004+38590+039280FM-12+0882LTCA V0209999C000012200019N0200001N1+01421+00221102001ADDGA1001+999999999GF100991001001999999001001MA1999999091901MD1810041+9999REMSYN060AAXX  06094 17202 42970 00000 10142 20022 39190 40200 58004;
0173172020999992000110612004+38590+039280FM-12+0882LTCA V0203001N001512200019N0200001N1+01821+00041101741ADDAA199000091GA1001+999999999GF100991001001999999001001MA1999999091681MD1710221+9999REMSYN060AAXX  06124 17202 32970 03003 10182 20004 39168 40174 57022;EQDQ01  00002PRCP99
0143172020999992000110615004+38590+039280FM-12+0882LTCA V0202901N003112200019N0200001N1+01301-00261101731ADDGA1001+999999999GF100991001001999999001001MA1999999091621MD1710061+9999REMSYN060AAXX  06154 17202 42970 02906 10130 21026 39162 40173 57006;
0196172020999992000110618004+38590+039280FM-12+0882LTCA V0203001N001512200019N0200001N1+00721-00201101791ADDAA199000091GA1001+999999999GF100991001001999999001001KA1999M+01881MA1999999091651MD1010031+9999REMSYN070AAXX  06184 17202 32970 03003 10072 21020 39165 40179 50003 333 10188;EQDQ01  00002PRCP99
0143172020999992000110621004+38590+039280FM-12+0882LTCA V0202801N001012200019N0200001N1+00421-00041101771ADDGA1001+999999999GF100991001001999999001001MA1999999091671MD1310021+9999REMSYN060AAXX  06214 17202 42970 02802 10042 21004 39167 40177 53002;
0173172020999992000110700004+38590+039280FM-12+0882LTCA V0202901N002612200019N0200001N1+00301-00031101761ADDAA199000091GA1001+999999999GF100991001001999999001001MA1999999091701MD1210031+9999REMSYN060AAXX  07004 17202 32970 02905 10030 21003 39170 40176 52003;EQDQ01  00002PRCP99
0143172020999992000110703004+38590+039280FM-12+0882LTCA V0203001N002612200019N0200001N1+00081-00081101821ADDGA1001+999999999GF100991001001999999001001MA1999999091681MD1810021+9999REMSYN060AAXX  07034 17202 42970 03005 10008 21008 39168 40182 58002;
0232172020999992000110706004+38590+039280FM-12+0882LTCA V0209999C000012200019N0200001N1+00441+00161101951ADDAA199000091GA1031+060009019GF103991001001999999001011IA1019IA2999-00109KA1120N+00041MA1999999091781MD1210101+9999REMSYN088AAXX  07064 17202 32970 30000 10044 20016 39178 40195 52010 80001 333 20004 30101 83070;EQDQ01  00002PRCP99
0165172020999992000110709004+38590+039280FM-12+0882LTCA V0200601N001012200019N0150001N1+01301+00311101911ADDGA1011+010509089GF104991011011012501001011MA1999999091801MD1610021+9999REMSYN082AAXX  07094 17202 42665 40602 10130 20031 39180 40191 56002 81101 333 81835 84070;
0195172020999992000110712004+38590+039280FM-12+0882LTCA V0201401N00101090001CN0150001N1+01701+00111101691ADDAA199000091GA1011+010509089GF105991011011012501001051MA1999999091621MD1710181+9999REMSYN082AAXX  07124 17202 32665 51402 10170 20011 39162 40169 57018 81105 333 81835 85270;EQDQ01  00002PRCP99
0159172020999992000110715004+38590+039280FM-12+0882LTCA V0209999C000012200019N0150001N1+01301+00311101711ADDGA1041+060009019GF104991001001999999001011MA1999999091581MD1610041+9999REMSYN076AAXX  07154 17202 42965 40000 10130 20031 39158 40171 56004 80001 333 84070;
0196172020999992000110718004+38590+039280FM-12+0882LTCA V0203001N001512200019N0200001N1+00701+00021101841ADDAA199000091GA1001+999999999GF100991001001999999001001KA1999M+01741MA1999999091681MD1110101+9999REMSYN070AAXX  07184 17202 32970 03003 10070 20002 39168 40184 51010 333 10174;EQDQ01  00002PRCP99
0143172020999992000110721004+38590+039280FM-12+0882LTCA V0202701N002612200019N0200001N1+00541+00101101851ADDGA1001+999999999GF100991001001999999001001MA1999999091741MD1310061+9999REMSYN060AAXX  07214 17202 42970 02705 10054 20010 39174 40185 53006;
0220172020999992000110806004+38590+039280FM-12+0882LTCA V0209999C000012200019N0200001N1+00541+00101102181ADDAA199000091GA1001+999999999GF100991001001999999001001IA1019IA2999+00009KA1120N+00141MA1999999091981MD1210181+9999REMSYN076AAXX  08064 17202 32970 00000 10054 20010 39198 40218 52018 333 20014 30000;EQDQ01  00002PRCP99
0143172020999992000110809004+38590+039280FM-12+0882LTCA V0209999C000012200019N0200001N1+01461+00401102111ADDGA1001+999999999GF100991001001999999001001MA1999999092001MD1110021+9999REMSYN060AAXX  08094 17202 42970 00000 10146 20040 39200 40211 51002;
0189172020999992000110812004+38590+039280FM-12+0882LTCA V0202801N003112200019N0200001N1+01841+00001101891ADDAA199000091GA1021+010509029GF102991021011012501001001MA1999999091821MD1710181+9999REMSYN076AAXX  08124 17202 32670 22806 10184 20000 39182 40189 57018 82100 333 82835;EQDQ01  00002PRCP99
0143172020999992000110815004+38590+039280FM-12+0882LTCA V0202601N002112200019N0200001N1+01301+00311101971ADDGA1001+999999999GF100991001001999999001001MA1999999091811MD1610011+9999REMSYN060AAXX  08154 17202 42970 02604 10130 20031 39181 40197 56001;
0196172020999992000110818004+38590+039280FM-12+0882LTCA V0202801N001512200019N0200001N1+00781-00061102071ADDAA199000091GA1001+999999999GF100991001001999999001001KA1999M+01901MA1999999091901MD1210091+9999REMSYN070AAXX  08184 17202 32970 02803 10078 21006 39190 40207 52009 333 10190;EQDQ01  00002PRCP99
0143172020999992000110821004+38590+039280FM-12+0882LTCA V0202901N003112200019N0200001N1+00501+00031102101ADDGA1001+999999999GF100991001001999999001001MA1999999091991MD1210091+9999REMSYN060AAXX  08214 17202 42970 02906 10050 20003 39199 40210 52009;
0173172020999992000110900004+38590+039280FM-12+0882LTCA V0203001N002112200019N0200001N1+00361+00081102081ADDAA199000091GA1001+999999999GF100991001001999999001001MA1999999091991MD1410001+9999REMSYN060AAXX  09004 17202 32970 03004 10036 20008 39199 40208 54000;EQDQ01  00002PRCP99
0143172020999992000110903004+38590+039280FM-12+0882LTCA V0202801N002112200019N0200001N1+00141-00011102191ADDGA1001+999999999GF100991001001999999001001MA1999999092011MD1110021+9999REMSYN060AAXX  09034 17202 42970 02804 10014 21001 39201 40219 51002;
0220172020999992000110906004+38590+039280FM-12+0882LTCA V0209999C000012200019N0200001N1+00681+00261102261ADDAA199000091GA1001+999999999GF100991001001999999001001IA1019IA2999+00009KA1120N+00101MA1999999092071MD1310061+9999REMSYN076AAXX  09064 17202 32970 00000 10068 20026 39207 40226 53006 333 20010 30100;EQDQ01  00002PRCP99
0159172020999992000110909004+38590+039280FM-12+0882LTCA V0200801N001512200019N0150001N1+01401+00341102151ADDGA1031+060009019GF103991001001999999001011MA1999999092031MD1810041+9999REMSYN076AAXX  09094 17202 42965 30803 10140 20034 39203 40215 58004 80001 333 83070;
0189172020999992000110912004+38590+039280FM-12+0882LTCA V0200801N001510600019N0200001N1+01801+00321101911ADDAA199000091GA1051+060009019GF105991001001999999001011MA1999999091841MD1710191+9999REMSYN076AAXX  09124 17202 32970 50803 10180 20032 39184 40191 57019 80001 333 85070;EQDQ01  00002PRCP99
0159172020999992000110915004+38590+039280FM-12+0882LTCA V0209999C000012200019N0200001N1+01401+00121101971ADDGA1041+060009019GF104991001001999999001011MA1999999091821MD1610021+9999REMSYN076AAXX  09154 17202 42970 40000 10140 20012 39182 40197 56002 80001 333 84070;
0196172020999992000110918004+38590+039280FM-12+0882LTCA V0201801N001512200019N0200001N1+01101+00031101961ADDAA199000091GA1001+999999999GF100991001001999999001001KA1999M+01841MA1999999091841MD1310021+9999REMSYN070AAXX  09184 17202 32970 01803 10110 20003 39184 40196 53002 333 10184;EQDQ01  00002PRCP99
0143172020999992000110921004+38590+039280FM-12+0882LTCA V0209999C000012200019N0200001N1+00921+00031101981ADDGA1001+999999999GF100991001001999999001001MA1999999091921MD1110081+9999REMSYN060AAXX  09214 17202 42970 00000 10092 20003 39192 40198 51008;
0173172020999992000111000004+38590+039280FM-12+0882LTCA V0209999C000012200019N0200001N1+00481+00081102001ADDAA199000091GA1001+999999999GF100991001001999999001001MA1999999091921MD1410001+9999REMSYN060AAXX  10004 17202 32970 00000 10048 20008 39192 40200 54000;EQDQ01  00002PRCP99
0143172020999992000111003004+38590+039280FM-12+0882LTCA V0209999C000012200019N0200001N1+00361+00081102111ADDGA1001+999999999GF100991001001999999001001MA1999999091981MD1310061+9999REMSYN060AAXX  10034 17202 42970 00000 10036 20008 39198 40211 53006;
0238172020999992000111006004+38590+039280FM-12+0882LTCA V0200701N001512200019N0200001N1+00841+00461102321ADDAA199000091GA1021+030009039GF104991021001999999031011IA1019IA2999+00009KA1120N+00241MA1999999092091MD1210111+9999REMSYN094AAXX  10064 17202 32970 40703 10084 20046 39209 40232 52011 82031 333 20024 30000 82360 84070;EQDQ01  00002PRCP99
0165172020999992000111009004+38590+039280FM-12+0882LTCA V0203001N002112200019N0200001N1+01701+00371102141ADDGA1021+030009039GF104991021001999999031011MA1999999092081MD1810011+9999REMSYN082AAXX  10094 17202 42970 43004 10170 20037 39208 40214 58001 82031 333 82360 84070;
0195172020999992000111012004+38590+039280FM-12+0882LTCA V0200601N002612200019N0200001N1+01901+00401101981ADDAA199000091GA1011+010509089GF103991011011012501031001MA1999999091921MD1710161+9999REMSYN082AAXX  10124 17202 32670 30605 10190 20040 39192 40198 57016 81130 333 81835 83360;EQDQ01  00002PRCP99
0147172020999992000111015004+38590+039280FM-12+0882LTCA V0209999C000012200019N0200001N1+01521+00101102071ADDGA1001+999999999GF100991001001999999001001MD1310041+9999REMSYN060AAXX  10154 17202 42970 00000 10152 20010 39104 40207 53004;EQDQ01+091043APOSP 
0196172020999992000111018004+38590+039280FM-12+0882LTCA V0202701N001512200019N0200001N1+01061+00041102141ADDAA199000091GA1001+999999999GF100991001001999999001001KA1999M+01841MA1999999092021MD1210081+9999REMSYN070AAXX  10184 17202 32970 02703 10106 20004 39202 40214 52008 333 10184;EQDQ01  00002PRCP99
0143172020999992000111021004+38590+039280FM-12+0882LTCA V0202601N002112200019N0200001N1+00761+00041102251ADDGA1001+999999999GF100991001001999999001001MA1999999092161MD1210141+9999REMSYN060AAXX  10214 17202 42970 02604 10076 20004 39216 40225 52014;
0173172020999992000111100004+38590+039280FM-12+0882LTCA V0209999C000012200019N0200001N1+00641+00001102271ADDAA199000091GA1001+999999999GF100991001001999999001001MA1999999092201MD1110041+9999REMSYN060AAXX  11004 17202 32970 00000 10064 20000 39220 40227 51004;EQDQ01  00002PRCP99
0143172020999992000111103004+38590+039280FM-12+0882LTCA V0203001N001512200019N0200001N1+00241+00141102451ADDGA1001+999999999GF100991001001999999001001MA1999999092281MD1210081+9999REMSYN060AAXX  11034 17202 42970 03003 10024 20014 39228 40245 52008;
0220172020999992000111106004+38590+039280FM-12+0882LTCA V0209999C000012200019N0200001N1+00741+00301102521ADDAA199000091GA1001+999999999GF100991001001999999001001IA1019IA2999+00009KA1120N+00201MA1999999092351MD1210151+9999REMSYN076AAXX  11064 17202 32970 00000 10074 20030 39235 40252 52015 333 20020 30000;EQDQ01  00002PRCP99
0159172020999992000111109004+38590+039280FM-12+0882LTCA V0209999C000012200019N0150001N1+01541+00381102441ADDGA1031+060009019GF103991001001999999001011MA1999999092331MD1810021+9999REMSYN076AAXX  11094 17202 42965 30000 10154 20038 39233 40244 58002 80001 333 83070;
0189172020999992000111112004+38590+039280FM-12+0882LTCA V0200901N001512200019N0200001N1+01901+00141102221ADDAA199000091GA1021+060009019GF102991001001999999001011MA1999999092151MD1710181+9999REMSYN076AAXX  11124 17202 32970 20903 10190 20014 39215 40222 57018 80001 333 82070;EQDQ01  00002PRCP99
0159172020999992000111115004+38590+039280FM-12+0882LTCA V0200901N001512200019N0200001N1+01461+00131102271ADDGA1011+060009019GF101991001001999999001011MA1999999092101MD1610051+9999REMSYN076AAXX  11154 17202 42970 10903 10146 20013 39210 40227 56005 80001 333 81070;
0196172020999992000111118004+38590+039280FM-12+0882LTCA V0209999C000012200019N0200001N1+00841+00121102271ADDAA199000091GA1001+999999999GF100991001001999999001001KA1999M+01941MA1999999092101MD1410001+9999REMSYN070AAXX  11184 17202 32970 00000 10084 20012 39210 40227 54000 333 10194;EQDQ01  00002PRCP99
0143172020999992000111121004+38590+039280FM-12+0882LTCA V0209999C000012200019N0200001N1+00641+00121102231ADDGA1001+999999999GF100991001001999999001001MA1999999092121MD1010021+9999REMSYN060AAXX  11214 17202 42970 00000 10064 20012 39212 40223 50002;
0173172020999992000111200004+38590+039280FM-12+0882LTCA V0209999C000012200019N0200001N1+00601+00161102161ADDAA199000091GA1001+999999999GF100991001001999999001001MA1999999092101MD1610021+9999REMSYN060AAXX  12004 17202 32970 00000 10060 20016 39210 40216 56002;EQDQ01  00002PRCP99
0143172020999992000111203004+38590+039280FM-12+0882LTCA V0209999C000012200019N0200001N1+00481+00081102191ADDGA1001+999999999GF100991001001999999001001MA1999999092071MD1810031+9999REMSYN060AAXX  12034 17202 42970 00000 10048 20008 39207 40219 58003;
0238172020999992000111206004+38590+039280FM-12+0882LTCA V0209999C000012200019N0200001N1+00681+00261102181ADDAA199000091GA1011+010509089GF103991011011012501001011IA1019IA2999+00209KA1120N+00421MA1999999092021MD1710051+9999REMSYN094AAXX  12064 17202 32670 30000 10068 20026 39202 40218 57005 81101 333 20042 30002 81835 83070;EQDQ01  00002PRCP99
0165172020999992000111209004+38590+039280FM-12+0882LTCA V0209999C00001036001CN0200001N1+01341+00441102071ADDGA1031+010509089GF106991031011012501051001MA1999999091961MD1810061+9999REMSYN082AAXX  12094 17202 42670 60000 10134 20044 39196 40207 58006 83150 333 83835 86360;
0195172020999992000111212004+38590+039280FM-12+0882LTCA V0209999C00001036001CN0200001N1+01501+00081101791ADDAA199000091GA1041+010509089GF107991041021012501051001MA1999999091731MD1710231+9999REMSYN082AAXX  12124 17202 32670 70000 10150 20008 39173 40179 57023 84250 333 84835 87460;EQDQ01  00002PRCP99
0165172020999992000111215004+38590+039280FM-12+0882LTCA V0209999C00001036001CN0200001N1+01301+00161101761ADDGA1041+010509069GF107991041051012501051001MA1999999091661MD1710071+9999REMSYN082AAXX  12154 17202 42670 70000 10130 20016 39166 40176 57007 84550 333 84635 87360;
0224172020999992000111218004+38590+039280FM-12+0882LTCA V0203101N001510600019N0200001N1+00881+00381101741ADDAA199000091GA1051+060009089GF105991999001999999001061KA1120M+01561MA1999999091631MD1610031+9999REMSYN082AAXX  12184 17202 32970 53103 10088 20038 39163 40174 56003 80006 333 10156 85270;EQDQ01+000002SCOTLCQ02  00002PRCP99
0143172020999992000111221004+38590+039280FM-12+0882LTCA V0203201N002612200019N0200001N1+00601+00241101701ADDGA1001+999999999GF100991001001999999001001MA1999999091631MD1410001+9999REMSYN060AAXX  12214 17202 42970 03205 10060 20024 39163 40170 54000;
0173172020999992000111300004+38590+039280FM-12+0882LTCA V0201901N001512200019N0200001N1+00581+00191101701ADDAA199000091GA1001+999999999GF100991001001999999001001MA1999999091631MD1410001+9999REMSYN060AAXX  13004 17202 32970 01903 10058 20019 39163 40170 54000;EQDQ01  00002PRCP99
0143172020999992000111303004+38590+039280FM-12+0882LTCA V0209999C000012200019N0200001N1+00541+00231101801ADDGA1001+999999999GF100991001001999999001001MA1999999091701MD1210071+9999REMSYN060AAXX  13034 17202 42970 00000 10054 20023 39170 40180 52007;
0232172020999992000111306004+38590+039280FM-12+0882LTCA V0209999C000012200019N0200001N1+00601+00241102111ADDAA199000091GA1021+030009079GF102991021001999999031001IA1019IA2999+00109KA1120N+00321MA1999999091941MD1210041+9999REMSYN088AAXX  13064 17202 32970 20000 10060 20024 39194 40211 52004 82030 333 20032 30001 82360;EQDQ01  00002PRCP99
0159172020999992000111309004+38590+039280FM-12+0882LTCA V0203201N003112200019N0200001N1+01301+00061102001ADDGA1011+010509029GF101991011011012501001001MA1999999091901MD1810041+9999REMSYN076AAXX  13094 17202 42670 13206 10130 20006 39190 40200 58004 81100 333 81835;
0196172020999992000111318004+38590+039280FM-12+0882LTCA V0203101N001512200019N0200001N1+00601-00241101891ADDAA199000091GA1001+999999999GF100991001001999999001001KA1999M+01601MA1999999091721MD1110041+9999REMSYN070AAXX  13184 17202 32970 03103 10060 21024 39172 40189 51004 333 10160;EQDQ01  00002PRCP99
0143172020999992000111321004+38590+039280FM-12+0882LTCA V0209999C000012200019N0200001N1+00161-00201101931ADDGA1001+999999999GF100991001001999999001001MA1999999091781MD1210061+9999REMSYN060AAXX  13214 17202 42970 00000 10016 21020 39178 40193 52006;
0173172020999992000111400004+38590+039280FM-12+0882LTCA V0202701N003112200019N0200001N1+00101-00121101931ADDAA199000091GA1001+999999999GF100991001001999999001001MA1999999091801MD1110021+9999REMSYN060AAXX  14004 17202 32970 02706 10010 21012 39180 40193 51002;EQDQ01  00002PRCP99
0143172020999992000111403004+38590+039280FM-12+0882LTCA V0202701N001012200019N0200001N1-00081-00301102011ADDGA1001+999999999GF100991001001999999001001MA1999999091811MD1310011+9999REMSYN060AAXX  14034 17202 42970 02702 11008 21030 39181 40201 53001;
0220172020999992000111406004+38590+039280FM-12+0882LTCA V0209999C000012200019N0200001N1+00421-00111102151ADDAA199000091GA1001+999999999GF100991001001999999001001IA1019IA2999-00409KA1120N-00141MA1999999091941MD1210131+9999REMSYN076AAXX  14064 17202 32970 00000 10042 21011 39194 40215 52013 333 21014 30104;EQDQ01  00002PRCP99
0143172020999992000111409004+38590+039280FM-12+0882LTCA V0209999C000012200019N0200001N1+01201+00061102181ADDGA1001+999999999GF100991001001999999001001MA1999999092001MD1110061+9999REMSYN060AAXX  14094 17202 42970 00000 10120 20006 39200 40218 51006;
0173172020999992000111412004+38590+039280FM-12+0882LTCA V0209999C000012200019N0200001N1+01521-00101101911ADDAA199000091GA1001+999999999GF100991001001999999001001MA1999999091781MD1710221+9999REMSYN060AAXX  14124 17202 32970 00000 10152 21010 39178 40191 57022;EQDQ01  00002PRCP99
0143172020999992000111415004+38590+039280FM-12+0882LTCA V0209999C000012200019N0200001N1+01001-00381101981ADDGA1001+999999999GF100991001001999999001001MA1999999091781MD1410001+9999REMSYN060AAXX  14154 17202 42970 00000 10100 21038 39178 40198 54000;
0196172020999992000111418004+38590+039280FM-12+0882LTCA V0202501N002112200019N0200001N1+00341-00421102121ADDAA199000091GA1001+999999999GF100991001001999999001001KA1999M+01581MA1999999091891MD1210111+9999REMSYN070AAXX  14184 17202 32970 02504 10034 21042 39189 40212 52011 333 10158;EQDQ01  00002PRCP99
0143172020999992000111421004+38590+039280FM-12+0882LTCA V0202401N002112200019N0200001N1+00281-00451102131ADDGA1001+999999999GF100991001001999999001001MA1999999091961MD1210071+9999REMSYN060AAXX  14214 17202 42970 02404 10028 21045 39196 40213 52007;
0173172020999992000111500004+38590+039280FM-12+0882LTCA V0202801N002112200019N0200001N1+00121-00501102131ADDAA199000091GA1001+999999999GF100991001001999999001001MA1999999091981MD1110021+9999REMSYN060AAXX  15004 17202 32970 02804 10012 21050 39198 40213 51002;EQDQ01  00002PRCP99
0143172020999992000111503004+38590+039280FM-12+0882LTCA V0203001N003112200019N0200001N1-00081-00251102221ADDGA1001+999999999GF100991001001999999001001MA1999999092001MD1310021+9999REMSYN060AAXX  15034 17202 42970 03006 11008 21025 39200 40222 53002;
0220172020999992000111506004+38590+039280FM-12+0882LTCA V0202801N001012200019N0200001N1+00401-00351102351ADDAA199000091GA1001+999999999GF100991001001999999001001IA1019IA2999-00409KA1120N-00281MA1999999092101MD1210101+9999REMSYN076AAXX  15064 17202 32970 02802 10040 21035 39210 40235 52010 333 21028 30104;EQDQ01  00002PRCP99
0143172020999992000111509004+38590+039280FM-12+0882LTCA V0200901N001512200019N0200001N1+01221-00131102281ADDGA1001+999999999GF100991001001999999001001MA1999999092111MD1110011+9999REMSYN060AAXX  15094 17202 42970 00903 10122 21013 39211 40228 51001;
0173172020999992000111512004+38590+039280FM-12+0882LTCA V0209999C000012200019N0200001N1+01641-00171102021ADDAA199000091GA1001+999999999GF100991001001999999001001MA1999999091901MD1710211+9999REMSYN060AAXX  15124 17202 32970 00000 10164 21017 39190 40202 57021;EQDQ01  00002PRCP99
0143172020999992000111515004+38590+039280FM-12+0882LTCA V0209999C000012200019N0200001N1+01261-00371102051ADDGA1001+999999999GF100991001001999999001001MA1999999091871MD1610031+9999REMSYN060AAXX  15154 17202 42970 00000 10126 21037 39187 40205 56003;
0196172020999992000111518004+38590+039280FM-12+0882LTCA V0209999C000012200019N0200001N1+00561-00441102171ADDAA199000091GA1001+999999999GF100991001001999999001001KA1999M+01681MA1999999091951MD1210081+9999REMSYN070AAXX  15184 17202 32970 00000 10056 21044 39195 40217 52008 333 10168;EQDQ01  00002PRCP99
0143172020999992000111521004+38590+039280FM-12+0882LTCA V0203001N002612200019N0200001N1+00201-00301102181ADDGA1001+999999999GF100991001001999999001001MA1999999092001MD1110051+9999REMSYN060AAXX  15214 17202 42970 03005 10020 21030 39200 40218 51005;
0173172020999992000111600004+38590+039280FM-12+0882LTCA V0203101N002612200019N0200001N1+00141-00341102191ADDAA199000091GA1001+999999999GF100991001001999999001001MA1999999092051MD1310051+9999REMSYN060AAXX  16004 17202 32970 03105 10014 21034 39205 40219 53005;EQDQ01  00002PRCP99
0143172020999992000111603004+38590+039280FM-12+0882LTCA V0203001N002112200019N0200001N1-00041-00221102311ADDGA1001+999999999GF100991001001999999001001MA1999999092101MD1110021+9999REMSYN060AAXX  16034 17202 42970 03004 11004 21022 39210 40231 51002;
0220172020999992000111606004+38590+039280FM-12+0882LTCA V0209999C000012200019N0200001N1+00201-00161102521ADDAA199000091GA1001+999999999GF100991001001999999001001IA1019IA2999-00309KA1120N-00241MA1999999092251MD1310151+9999REMSYN076AAXX  16064 17202 32970 00000 10020 21016 39225 40252 53015 333 21024 30103;EQDQ01  00002PRCP99
0143172020999992000111609004+38590+039280FM-12+0882LTCA V0201301N001012200019N0200001N1+01161-00061102471ADDGA1001+999999999GF100991001001999999001001MA1999999092261MD1010011+9999REMSYN060AAXX  16094 17202 42970 01302 10116 21006 39226 40247 50001;
0173172020999992000111612004+38590+039280FM-12+0882LTCA V0201101N001012200019N0200001N1+01601-00121102241ADDAA199000091GA1001+999999999GF100991001001999999001001MA1999999092101MD1710161+9999REMSYN060AAXX  16124 17202 32970 01102 10160 21012 39210 40224 57016;EQDQ01  00002PRCP99
0143172020999992000111615004+38590+039280FM-12+0882LTCA V0202801N001012200019N0200001N1+01121-00301102311ADDGA1001+999999999GF100991001001999999001001MA1999999092081MD1610021+9999REMSYN060AAXX  16154 17202 42970 02802 10112 21030 39208 40231 56002;
0196172020999992000111618004+38590+039280FM-12+0882LTCA V0202501N001512200019N0200001N1+00501-00441102411ADDAA199000091GA1001+999999999GF100991001001999999001001KA1999M+01701MA1999999092151MD1210071+9999REMSYN070AAXX  16184 17202 32970 02503 10050 21044 39215 40241 52007 333 10170;EQDQ01  00002PRCP99
0143172020999992000111621004+38590+039280FM-12+0882LTCA V0202701N002612200019N0200001N1+00261-00421102421ADDGA1001+999999999GF100991001001999999001001MA1999999092221MD1210071+9999REMSYN060AAXX  16214 17202 42970 02705 10026 21042 39222 40242 52007;
0173172020999992000111700004+38590+039280FM-12+0882LTCA V0202801N003112200019N0200001N1+00061-00241102421ADDAA199000091GA1001+999999999GF100991001001999999001001MA1999999092241MD1410001+9999REMSYN060AAXX  17004 17202 32970 02806 10006 21024 39224 40242 54000;EQDQ01  00002PRCP99
0143172020999992000111703004+38590+039280FM-12+0882LTCA V0203001N002612200019N0200001N1-00081-00181102491ADDGA1001+999999999GF100991001001999999001001MA1999999092241MD1410001+9999REMSYN060AAXX  17034 17202 42970 03005 11008 21018 39224 40249 54000;
0220172020999992000111706004+38590+039280FM-12+0882LTCA V0202401N001512200019N0200001N1+00181-00121102601ADDAA199000091GA1001+999999999GF100991001001999999001001IA1019IA2999-00309KA1120N-00201MA1999999092301MD1210061+9999REMSYN076AAXX  17064 17202 32970 02403 10018 21012 39230 40260 52006 333 21020 30103;EQDQ01  00002PRCP99
0143172020999992000111709004+38590+039280FM-12+0882LTCA V0209999C000012200019N0200001N1+01301+00181102381ADDGA1001+999999999GF100991001001999999001001MA1999999092201MD1810101+9999REMSYN060AAXX  17094 17202 42970 00000 10130 20018 39220 40238 58010;
0173172020999992000111712004+38590+039280FM-12+0882LTCA V0201501N001512200019N0200001N1+01661-00021102111ADDAA199000091GA1001+999999999GF100991001001999999001001MA1999999091981MD1710221+9999REMSYN060AAXX  17124 17202 32970 01503 10166 21002 39198 40211 57022;EQDQ01  00002PRCP99
0143172020999992000111715004+38590+039280FM-12+0882LTCA V0203001N001512200019N0200001N1+01101-00401102081ADDGA1001+999999999GF100991001001999999001001MA1999999091891MD1810091+9999REMSYN060AAXX  17154 17202 42970 03003 10110 21040 39189 40208 58009;
0196172020999992000111718004+38590+039280FM-12+0882LTCA V0202801N002112200019N0200001N1+00501-00301102271ADDAA199000091GA1001+999999999GF100991001001999999001001KA1999M+01741MA1999999092001MD1210111+9999REMSYN070AAXX  17184 17202 32970 02804 10050 21030 39200 40227 52011 333 10174;EQDQ01  00002PRCP99
0143172020999992000111721004+38590+039280FM-12+0882LTCA V0202801N001512200019N0200001N1+00181-00401102181ADDGA1001+999999999GF100991001001999999001001MA1999999092001MD1410001+9999REMSYN060AAXX  17214 17202 42970 02803 10018 21040 39200 40218 54000;
0173172020999992000111800004+38590+039280FM-12+0882LTCA V0202601N001512200019N0200001N1-00061-00461102071ADDAA199000091GA1001+999999999GF100991001001999999001001MA1999999091921MD1710081+9999REMSYN060AAXX  18004 17202 32970 02603 11006 21046 39192 40207 57008;EQDQ01  00002PRCP99
0143172020999992000111803004+38590+039280FM-12+0882LTCA V0203001N001512200019N0200001N1-00241-00401102091ADDGA1001+999999999GF100991001001999999001001MA1999999091921MD1510001+9999REMSYN060AAXX  18034 17202 42970 03003 11024 21040 39192 40209 55000;
0232172020999992000111806004+38590+039280FM-12+0882LTCA V0203001N001512200019N0200001N1+00321-00221102231ADDAA199000091GA1021+030009079GF102991021001999999031001IA1019IA2999-00509KA1120N-00301MA1999999091991MD1210071+9999REMSYN088AAXX  18064 17202 32970 23003 10032 21022 39199 40223 52007 82030 333 21030 30105 82360;EQDQ01  00002PRCP99
0159172020999992000111809004+38590+039280FM-12+0882LTCA V0209999C000012200019N0200001N1+01101+00031102071ADDGA1021+030009079GF102991021001999999031001MA1999999091901MD1810091+9999REMSYN076AAXX  18094 17202 42970 20000 10110 20003 39190 40207 58009 82030 333 82360;
0189172020999992000111812004+38590+039280FM-12+0882LTCA V0209999C000012200019N0200001N1+01661+00061101821ADDAA199000091GA1031+060009019GF103991001001999999001011MA1999999091701MD1710201+9999REMSYN076AAXX  18124 17202 32970 30000 10166 20006 39170 40182 57020 80001 333 83070;EQDQ01  00002PRCP99
0143172020999992000111815004+38590+039280FM-12+0882LTCA V0209999C000012200019N0200001N1+01161-00041101831ADDGA1001+999999999GF100991001001999999001001MA1999999091651MD1610051+9999REMSYN060AAXX  18154 17202 42970 00000 10116 21004 39165 40183 56005;
0196172020999992000111818004+38590+039280FM-12+0882LTCA V0202901N002612200019N0200001N1+00321-00511102001ADDAA199000091GA1001+999999999GF100991001001999999001001KA1999M+01761MA1999999091761MD1210111+9999REMSYN070AAXX  18184 17202 32970 02905 10032 21051 39176 40200 52011 333 10176;EQDQ01  00002PRCP99
0143172020999992000111821004+38590+039280FM-12+0882LTCA V0202701N002612200019N0200001N1+00341-00561101961ADDGA1001+999999999GF100991001001999999001001MA1999999091801MD1110041+9999REMSYN060AAXX  18214 17202 42970 02705 10034 21056 39180 40196 51004;
0173172020999992000111900004+38590+039280FM-12+0882LTCA V0203101N002112200019N0200001N1+00101-00531101801ADDAA199000091GA1001+999999999GF100991001001999999001001MA1999999091861MD1210061+9999REMSYN060AAXX  19004 17202 32970 03104 10010 21053 39186 40180 52006;EQDQ01  00002PRCP99
0143172020999992000111903004+38590+039280FM-12+0882LTCA V0202901N002612200019N0200001N1-00061-00461102101ADDGA1001+999999999GF100991001001999999001001MA1999999091911MD1210051+9999REMSYN060AAXX  19034 17202 42970 02905 11006 21046 39191 40210 52005;
0238172020999992000111906004+38590+039280FM-12+0882LTCA V0202801N001512200019N0200001N1+00301-00301102321ADDAA199000091GA1011+012009089GF103991011011012501031001IA1019IA2999-00509KA1120N-00281MA1999999092051MD1210141+9999REMSYN094AAXX  19064 17202 32670 32803 10030 21030 39205 40232 52014 81130 333 21028 30105 81840 83360;EQDQ01  00002PRCP99
0165172020999992000111909004+38590+039280FM-12+0882LTCA V0201101N001512200019N0200001N1+01201-00091102221ADDGA1011+010509089GF103991011011012501051001MA1999999092061MD1010011+9999REMSYN082AAXX  19094 17202 42670 31103 10120 21009 39206 40222 50001 81150 333 81835 83360;
0195172020999992000111912004+38590+039280FM-12+0882LTCA V0200801N002612200019N0200001N1+01361-00341102041ADDAA199000091GA1021+010509089GF104991021011012501051001MA1999999091881MD1710181+9999REMSYN082AAXX  19124 17202 32670 40805 10136 21034 39188 40204 57018 82150 333 82835 84360;EQDQ01  00002PRCP99
0165172020999992000111915004+38590+039280FM-12+0882LTCA V0209999C000012200019N0200001N1+00861-00321102101ADDGA1011+010509089GF103991011011012501051001MA1999999091871MD1610011+9999REMSYN082AAXX  19154 17202 42670 30000 10086 21032 39187 40210 56001 81150 333 81835 83360;
0196172020999992000111918004+38590+039280FM-12+0882LTCA V0202701N002112200019N0200001N1+00401-00321102181ADDAA199000091GA1001+999999999GF100991001001999999001001KA1999M+01401MA1999999091941MD1310071+9999REMSYN070AAXX  19184 17202 32970 02704 10040 21032 39194 40218 53007 333 10140;EQDQ01  00002PRCP99
0143172020999992000111921004+38590+039280FM-12+0882LTCA V0209999C000012200019N0200001N1+00301-00301102161ADDGA1001+999999999GF100991001001999999001001MA1999999092001MD1310061+9999REMSYN060AAXX  19214 17202 42970 00000 10030 21030 39200 40216 53006;
0173172020999992000112000004+38590+039280FM-12+0882LTCA V0202201N001512200019N0200001N1+00161-00361102161ADDAA199000091GA1001+999999999GF100991001001999999001001MA1999999092001MD1410001+9999REMSYN060AAXX  20004 17202 32970 02203 10016 21036 39200 40216 54000;EQDQ01  00002PRCP99
0159172020999992000112003004+38590+039280FM-12+0882LTCA V0209999C000012200019N0200001N1+00401-00341102181ADDGA1031+030009079GF103991031001999999031001MA1999999091981MD1810021+9999REMSYN076AAXX  20034 17202 42970 30000 10040 21034 39198 40218 58002 83030 333 83360;
0232172020999992000112006004+38590+039280FM-12+0882LTCA V0209999C000012200019N0200001N1+00401-00341102291ADDAA199000091GA1041+030009079GF104991041001999999031001IA1019IA2999+00009KA1120N+00141MA1999999092041MD1310061+9999REMSYN088AAXX  20064 17202 32970 40000 10040 21034 39204 40229 53006 84030 333 20014 30000 84360;EQDQ01  00002PRCP99
0165172020999992000112009004+38590+039280FM-12+0882LTCA V0200801N001512200019N0150001N1+01161+00031102211ADDGA1011+010509089GF103991011011012501031001MA1999999092031MD1810011+9999REMSYN082AAXX  20094 17202 42665 30803 10116 20003 39203 40221 58001 81130 333 81835 83360;
0189172020999992000112012004+38590+039280FM-12+0882LTCA V0200701N001512200019N0200001N1+01561+00001101931ADDAA199000091GA1011+010509029GF101991011011012501001001MA1999999091821MD1710211+9999REMSYN076AAXX  20124 17202 32670 10703 10156 20000 39182 40193 57021 81100 333 81835;EQDQ01  00002PRCP99
0159172020999992000112015004+38590+039280FM-12+0882LTCA V0209999C000012200019N0200001N1+01121-00041101931ADDGA1021+010509029GF102991021011012501001001MA1999999091801MD1610021+9999REMSYN076AAXX  20154 17202 42670 20000 10112 21004 39180 40193 56002 82100 333 82835;
0196172020999992000112018004+38590+039280FM-12+0882LTCA V0203001N002112200019N0200001N1+00701-00121101981ADDAA199000091GA1001+999999999GF100991001001999999001001KA1999M+01641MA1999999091801MD1410001+9999REMSYN070AAXX  20184 17202 32970 03004 10070 21012 39180 40198 54000 333 10164;EQDQ01  00002PRCP99
0143172020999992000112021004+38590+039280FM-12+0882LTCA V0203001N002612200019N0200001N1+00301-00181101971ADDGA1001+999999999GF100991001001999999001001MA1999999091811MD1010011+9999REMSYN060AAXX  20214 17202 42970 03005 10030 21018 39181 40197 50001;
0173172020999992000112100004+38590+039280FM-12+0882LTCA V0202901N002612200019N0200001N1+00061-00321101941ADDAA199000091GA1001+999999999GF100991001001999999001001MA1999999091811MD1410001+9999REMSYN060AAXX  21004 17202 32970 02905 10006 21032 39181 40194 54000;EQDQ01  00002PRCP99
0143172020999992000112103004+38590+039280FM-12+0882LTCA V0202801N002112200019N0200001N1-00011-00281101981ADDGA1001+999999999GF100991001001999999001001MA1999999091801MD1610011+9999REMSYN060AAXX  21034 17202 42970 02804 11001 21028 39180 40198 56001;
0220172020999992000112106004+38590+039280FM-12+0882LTCA V0202801N001512200019N0200001N1+00261-00121102051ADDAA199000091GA1001+999999999GF100991001001999999001001IA1019IA2999-00409KA1120N-00241MA1999999091851MD1310051+9999REMSYN076AAXX  21064 17202 32970 02803 10026 21012 39185 40205 53005 333 21024 30104;EQDQ01  00002PRCP99
0159172020999992000112109004+38590+039280FM-12+0882LTCA V0201201N001512200019N0200001N1+01121+00121101931ADDGA1011+060009019GF101991001001999999001011MA1999999091781MD1810071+9999REMSYN076AAXX  21094 17202 42970 11203 10112 20012 39178 40193 58007 80001 333 81070;
0189172020999992000112112004+38590+039280FM-12+0882LTCA V0203101N003112200019N0200001N1+01461-00381101701ADDAA199000091GA1031+060009019GF103991001001999999001011MA1999999091591MD1710191+9999REMSYN076AAXX  21124 17202 32970 33106 10146 21038 39159 40170 57019 80001 333 83070;EQDQ01  00002PRCP99
0143172020999992000112115004+38590+039280FM-12+0882LTCA V0209999C000012200019N0200001N1+01101-00541101741ADDGA1001+999999999GF100991001001999999001001MA1999999091571MD1610121+9999REMSYN060AAXX  21154 17202 42970 00000 10110 21054 39157 40174 56012;
0196172020999992000112118004+38590+039280FM-12+0882LTCA V0202601N002112200019N0200001N1+00501-00521101841ADDAA199000091GA1001+999999999GF100991001001999999001001KA1999M+01481MA1999999091641MD1210071+9999REMSYN070AAXX  21184 17202 32970 02604 10050 21052 39164 40184 52007 333 10148;EQDQ01  00002PRCP99
0143172020999992000112121004+38590+039280FM-12+0882LTCA V0203101N002612200019N0200001N1+00141-00641101851ADDGA1001+999999999GF100991001001999999001001MA1999999091691MD1210051+9999REMSYN060AAXX  21214 17202 42970 03105 10014 21064 39169 40185 52005;
0143172020999992000112203004+38590+039280FM-12+0882LTCA V0202901N002612200019N0200001N1-00161-00541101891ADDGA1001+999999999GF100991001001999999001001MA1999999091701MD1410001+9999REMSYN060AAXX  22034 17202 42970 02905 11016 21054 39170 40189 54000;
0220172020999992000112206004+38590+039280FM-12+0882LTCA V0209999C000012200019N0200001N1+00201-00361101911ADDAA199000091GA1001+999999999GF100991001001999999001001IA1019IA2999-00409KA1120N-00201MA1999999091681MD1610021+9999REMSYN076AAXX  22064 17202 32970 00000 10020 21036 39168 40191 56002 333 21020 30104;EQDQ01  00002PRCP99
0143172020999992000112209004+38590+039280FM-12+0882LTCA V0209999C000012200019N0200001N1+01001+00021101931ADDGA1001+999999999GF100991001001999999001001MA1999999091761MD1110081+9999REMSYN060AAXX  22094 17202 42970 00000 10100 20002 39176 40193 51008;
0173172020999992000112212004+38590+039280FM-12+0882LTCA V0209999C000012200019N0200001N1+01461-00141101621ADDAA199000091GA1001+999999999GF100991001001999999001001MA1999999091521MD1710241+9999REMSYN060AAXX  22124 17202 32970 00000 10146 21014 39152 40162 57024;EQDQ01  00002PRCP99
0143172020999992000112215004+38590+039280FM-12+0882LTCA V0203201N002112200019N0200001N1+00901-00221101691ADDGA1001+999999999GF100991001001999999001001MA1999999091501MD1610021+9999REMSYN060AAXX  22154 17202 42970 03204 10090 21022 39150 40169 56002;
0196172020999992000112218004+38590+039280FM-12+0882LTCA V0203101N003112200019N0200001N1+00341-00421101801ADDAA199000091GA1001+999999999GF100991001001999999001001KA1999M+01501MA1999999091581MD1210081+9999REMSYN070AAXX  22184 17202 32970 03106 10034 21042 39158 40180 52008 333 10150;EQDQ01  00002PRCP99
0143172020999992000112221004+38590+039280FM-12+0882LTCA V0203001N002112200019N0200001N1+00141-00501101751ADDGA1001+999999999GF100991001001999999001001MA1999999091601MD1110021+9999REMSYN060AAXX  22214 17202 42970 03004 10014 21050 39160 40175 51002;
0173172020999992000112300004+38590+039280FM-12+0882LTCA V0202701N002112200019N0200001N1+00081-00511101721ADDAA199000091GA1001+999999999GF100991001001999999001001MA1999999091611MD1110011+9999REMSYN060AAXX  23004 17202 32970 02704 10008 21051 39161 40172 51001;EQDQ01  00002PRCP99
0143172020999992000112303004+38590+039280FM-12+0882LTCA V0202901N003112200019N0200001N1-00041-00431101811ADDGA1001+999999999GF100991001001999999001001MA1999999091611MD1410001+9999REMSYN060AAXX  23034 17202 42970 02906 11004 21043 39161 40181 54000;
0220172020999992000112306004+38590+039280FM-12+0882LTCA V0203101N001012200019N0200001N1+00001-00211101961ADDAA199000091GA1001+999999999GF100991001001999999001001IA1019IA2999-00409KA1120N-00341MA1999999091701MD1310091+9999REMSYN076AAXX  23064 17202 32970 03102 10000 21021 39170 40196 53009 333 21034 30104;EQDQ01  00002PRCP99
0159172020999992000112309004+38590+039280FM-12+0882LTCA V0201101N001512200019N0200001N1+01001+00141101871ADDGA1011+010509029GF101991011011012501001001MA1999999091701MD1010001+9999REMSYN076AAXX  23094 17202 42670 11103 10100 20014 39170 40187 50000 81100 333 81835;
0189172020999992000112312004+38590+039280FM-12+0882LTCA V0209999C000012200019N0200001N1+01341-00181101621ADDAA199000091GA1021+010509029GF102991021011012501001001MA1999999091501MD1710201+9999REMSYN076AAXX  23124 17202 32670 20000 10134 21018 39150 40162 57020 82100 333 82835;EQDQ01  00002PRCP99
0159172020999992000112315004+38590+039280FM-12+0882LTCA V0209999C000012200019N0200001N1+00961-00281101671ADDGA1021+010509029GF102991021011012501001001MA1999999091501MD1510001+9999REMSYN076AAXX  23154 17202 42670 20000 10096 21028 39150 40167 55000 82100 333 82835;
0196172020999992000112318004+38590+039280FM-12+0882LTCA V0209999C000012200019N0200001N1+00301-00301101861ADDAA199000091GA1001+999999999GF100991001001999999001001KA1999M+01381MA1999999091611MD1210111+9999REMSYN070AAXX  23184 17202 32970 00000 10030 21030 39161 40186 52011 333 10138;EQDQ01  00002PRCP99
0143172020999992000112321004+38590+039280FM-12+0882LTCA V0209999C000012200019N0200001N1+00081-00341101891ADDGA1001+999999999GF100991001001999999001001MA1999999091701MD1110091+9999REMSYN060AAXX  23214 17202 42970 00000 10008 21034 39170 40189 51009;
0173172020999992000112400004+38590+039280FM-12+0882LTCA V0209999C000012200019N0200001N1-00121-00321101951ADDAA199000091GA1001+999999999GF100991001001999999001001MA1999999091781MD1210081+9999REMSYN060AAXX  24004 17202 32970 00000 11012 21032 39178 40195 52008;EQDQ01  00002PRCP99
0143172020999992000112403004+38590+039280FM-12+0882LTCA V0202801N003112200019N0200001N1-00221-00341102021ADDGA1001+999999999GF100991001001999999001001MA1999999091801MD1110021+9999REMSYN060AAXX  24034 17202 42970 02806 11022 21034 39180 40202 51002;
0220172020999992000112406004+38590+039280FM-12+0882LTCA V0209999C000012200019N0200001N1+00001-00211102211ADDAA199000091GA1001+999999999GF100991001001999999001001IA1019IA2999-00409KA1120N-00261MA1999999091931MD1210131+9999REMSYN076AAXX  24064 17202 32970 00000 10000 21021 39193 40221 52013 333 21026 30104;EQDQ01  00002PRCP99
0159172020999992000112409004+38590+039280FM-12+0882LTCA V0201101N001512200019N0150001N1+00901+00031102221ADDGA1011+010509029GF101991011011012501001001MA1999999092001MD1110071+9999REMSYN076AAXX  24094 17202 42665 11103 10090 20003 39200 40222 51007 81100 333 81835;
0189172020999992000112412004+38590+039280FM-12+0882LTCA V0201201N001512200019N0200001N1+01261-00201101981ADDAA199000091GA1021+010509029GF102991021011012501001001MA1999999091801MD1710201+9999REMSYN076AAXX  24124 17202 32670 21203 10126 21020 39180 40198 57020 82100 333 82835;EQDQ01  00002PRCP99
0143172020999992000112415004+38590+039280FM-12+0882LTCA V0203101N001512200019N0200001N1+00841-00161102001ADDGA1001+999999999GF100991001001999999001001MA1999999091801MD1410001+9999REMSYN060AAXX  24154 17202 42970 03103 10084 21016 39180 40200 54000;
0196172020999992000112418004+38590+039280FM-12+0882LTCA V0202401N002612200019N0200001N1+00301-00301102201ADDAA199000091GA1001+999999999GF100991001001999999001001KA1999M+01301MA1999999091921MD1210121+9999REMSYN070AAXX  24184 17202 32970 02405 10030 21030 39192 40220 52012 333 10130;EQDQ01  00002PRCP99
0143172020999992000112421004+38590+039280FM-12+0882LTCA V0203001N002112200019N0200001N1+00061-00321102211ADDGA1001+999999999GF100991001001999999001001MA1999999091991MD1210071+9999REMSYN060AAXX  24214 17202 42970 03004 10006 21032 39199 40221 52007;
0173172020999992000112500004+38590+039280FM-12+0882LTCA V0203101N002112200019N0200001N1-00161-00281102241ADDAA199000091GA1001+999999999GF100991001001999999001001MA1999999092041MD1110051+9999REMSYN060AAXX  25004 17202 32970 03104 11016 21028 39204 40224 51005;EQDQ01  00002PRCP99
0143172020999992000112503004+38590+039280FM-12+0882LTCA V0203101N002112200019N0200001N1-00281-00381102361ADDGA1001+999999999GF100991001001999999001001MA1999999092081MD1210041+9999REMSYN060AAXX  25034 17202 42970 03104 11028 21038 39208 40236 52004;
0220172020999992000112506004+38590+039280FM-12+0882LTCA V0209999C000012200019N0200001N1+00101-00061102541ADDAA199000091GA1001+999999999GF100991001001999999001001IA1019IA2999-00509KA1120N-00381MA1999999092231MD1210151+9999REMSYN076AAXX  25064 17202 32970 00000 10010 21006 39223 40254 52015 333 21038 30105;EQDQ01  00002PRCP99
0143172020999992000112509004+38590+039280FM-12+0882LTCA V0201101N001512200019N0200001N1+00901+00171102481ADDGA1001+999999999GF100991001001999999001001MA1999999092231MD1410001+9999REMSYN060AAXX  25094 17202 42970 01103 10090 20017 39223 40248 54000;
0189172020999992000112512004+38590+039280FM-12+0882LTCA V0201201N001512200019N0200001N1+01241-00361102351ADDAA199000091GA1021+010509029GF102991021011012501001001MA1999999092121MD1810111+9999REMSYN076AAXX  25124 17202 32670 21203 10124 21036 39212 40235 58011 82100 333 82835;EQDQ01  00002PRCP99
0143172020999992000112515004+38590+039280FM-12+0882LTCA V0200801N001512200019N0200001N1+00801-00111102411ADDGA1001+999999999GF100991001001999999001001MA1999999092131MD1310011+9999REMSYN060AAXX  25154 17202 42970 00803 10080 21011 39213 40241 53001;
0196172020999992000112518004+38590+039280FM-12+0882LTCA V0202701N002112200019N0200001N1+00281-00321102501ADDAA199000091GA1001+999999999GF100991001001999999001001KA1999M+01281MA1999999092191MD1210061+9999REMSYN070AAXX  25184 17202 32970 02704 10028 21032 39219 40250 52006 333 10128;EQDQ01  00002PRCP99
0143172020999992000112521004+38590+039280FM-12+0882LTCA V0203001N002612200019N0200001N1+00001-00561102491ADDGA1001+999999999GF100991001001999999001001MA1999999092221MD1210051+9999REMSYN060AAXX  25214 17202 42970 03005 10000 21056 39222 40249 52005;
0173172020999992000112600004+38590+039280FM-12+0882LTCA V0202901N003112200019N0200001N1-00101-00421102441ADDAA199000091GA1001+999999999GF100991001001999999001001MA1999999092221MD1410001+9999REMSYN060AAXX  26004 17202 32970 02906 11010 21042 39222 40244 54000;EQDQ01  00002PRCP99
0143172020999992000112603004+38590+039280FM-12+0882LTCA V0202601N002112200019N0200001N1-00281-00471102521ADDGA1001+999999999GF100991001001999999001001MA1999999092231MD1110011+9999REMSYN060AAXX  26034 17202 42970 02604 11028 21047 39223 40252 51001;
0220172020999992000112606004+38590+039280FM-12+0882LTCA V0202801N001512200019N0200001N1-00141-00341102571ADDAA199000091GA1001+999999999GF100991001001999999001001IA1019IA2999-00609KA1120N-00401MA1999999092231MD1410001+9999REMSYN076AAXX  26064 17202 32970 02803 11014 21034 39223 40257 54000 333 21040 30106;EQDQ01  00002PRCP99
0162172020999992000112609004+38590+039280FM-12+0882LTCA V0209999C000012200019N0200001N1+00801-00381999999ADDGA1001+999999999GF100991001001999999001001MA1999999092231MD1410001+9999REMSYN060AAXX  26094 17202 42970 00000 10080 21038 39223 40139 54000;EQDQ01+101393APOSLP
0173172020999992000112612004+38590+039280FM-12+0882LTCA V0209999C000012200019N0200001N1+01101-00431102371ADDAA199000091GA1001+999999999GF100991001001999999001001MA1999999092151MD1810081+9999REMSYN060AAXX  26124 17202 32970 00000 10110 21043 39215 40237 58008;EQDQ01  00002PRCP99
0143172020999992000112615004+38590+039280FM-12+0882LTCA V0209999C000012200019N0200001N1+00701-00541102401ADDGA1001+999999999GF100991001001999999001001MA1999999092101MD1610051+9999REMSYN060AAXX  26154 17202 42970 00000 10070 21054 39210 40240 56005;
0196172020999992000112618004+38590+039280FM-12+0882LTCA V0203001N003112200019N0200001N1+00301-00321102421ADDAA199000091GA1001+999999999GF100991001001999999001001KA1999M+01101MA1999999092101MD1010021+9999REMSYN070AAXX  26184 17202 32970 03006 10030 21032 39210 40242 50002 333 10110;EQDQ01  00002PRCP99
0143172020999992000112621004+38590+039280FM-12+0882LTCA V0203001N002112200019N0200001N1+00141-00521102341ADDGA1001+999999999GF100991001001999999001001MA1999999092111MD1110011+9999REMSYN060AAXX  26214 17202 42970 03004 10014 21052 39211 40234 51001;
0173172020999992000112700004+38590+039280FM-12+0882LTCA V0202801N002112200019N0200001N1-00241-00641102361ADDAA199000091GA1001+999999999GF100991001001999999001001MA1999999092111MD1410001+9999REMSYN060AAXX  27004 17202 32970 02804 11024 21064 39211 40236 54000;EQDQ01  00002PRCP99
0143172020999992000112703004+38590+039280FM-12+0882LTCA V0203001N002112200019N0200001N1-00381-00701102391ADDGA1001+999999999GF100991001001999999001001MA1999999092091MD1810021+9999REMSYN060AAXX  27034 17202 42970 03004 11038 21070 39209 40239 58002;
0208172020999992000112706004+38590+039280FM-12+0882LTCA V0202401N001512200019N0200001N1-00161-00681102481ADDAA199000091GA1001+999999999GF100991001001999999001001IA1019KA1120N-00421MA1999999092161MD1210071+9999REMSYN076AAXX  27064 17202 32970 02403 11016 21068 39216 40248 52007 333 21042 30406;EQDQ01  00002PRCP99
0187172020999992000112709004+38590+039280FM-12+0882LTCA V0201301N001512200019N0200001N1+00561-00261102391ADDGA1011+010509089GA2021+030009039GF104991011011012501051011MA1999999092131MD1810031+9999REMSYN088AAXX  27094 17202 42670 41303 10056 21026 39213 40239 58003 81151 333 81835 82360 84070;
0217172020999992000112712004+38590+039280FM-12+0882LTCA V0209999C000010300019N0200001N1+01001-00161102141ADDAA199000091GA1021+010509089GA2041+030009039GF106991021011012501051041MA1999999091911MD1710221+9999REMSYN088AAXX  27124 17202 32670 60000 10100 21016 39191 40214 57022 82154 333 82835 84360 86070;EQDQ01  00002PRCP99
0165172020999992000112715004+38590+039280FM-12+0882LTCA V0200601N00261036001CN0200001N1+00841-00241102131ADDGA1031+010509089GF106991031011012501051001MA1999999091861MD1710051+9999REMSYN082AAXX  27154 17202 42670 60605 10084 21024 39186 40213 57005 83150 333 83835 86360;
0214172020999992000112718004+38590+039280FM-12+0882LTCA V0209999C00001036001CN0200001N1+00801-00281102121ADDAA199000091GA1031+010509089GF106991031011012501051001KA1120M+01031MA1999999091871MD1110011+9999REMSYN088AAXX  27184 17202 32670 60000 10080 21028 39187 40212 51001 83150 333 10103 83835 86360;EQDQ01  00002PRCP99
0165172020999992000112721004+38590+039280FM-12+0882LTCA V0201401N00211036001CN0200001N1+00901-00141102021ADDGA1041+010509089GF107991041021012501051001MA1999999091861MD1610011+9999REMSYN082AAXX  27214 17202 42670 71404 10090 21014 39186 40202 56001 84250 333 84835 86360;
0195172020999992000112800004+38590+039280FM-12+0882LTCA V0200901N00361036001CN0200001N1+00801+00161102001ADDAA199000091GA1041+010509089GF107991041021012501051001MA1999999091861MD1410001+9999REMSYN082AAXX  28004 17202 32670 70907 10080 20016 39186 40200 54000 84250 333 84835 87360;EQDQ01  00002PRCP99
0193172020999992000112803004+38590+039280FM-12+0882LTCA V0200601N00361036001CN0200001N1+00541+00321102021ADDAY121031AY221031GA1041+010509089GF107991041021012501051001MA1999999091861MD1410001+9999MW1801REMSYN088AAXX  28034 17202 41670 70607 10054 20032 39186 40202 54000 78022 84250 333 84835 87360;
0259172020999992000112806004+38590+039280FM-12+0882LTCA V0200701N00461036001CN0200001N1+00761+00201102071ADDAA112001091AY181061AY221061GA1031+010509089GF106991031021012501051001IA1119IA2999+00309KA1120N+00461MA1999999091921MD1310061+9999MW1021REMSYN112AAXX  28064 17202 11670 60709 10076 20020 39192 40207 53006 69992 70282 83250 333 20046 32003 70009 83835 86360;
0165172020999992000112809004+38590+039280FM-12+0882LTCA V0201101N00361036001CN0150001N1+00921+00021102081ADDGA1041+010509089GF107991041021012501051001MA1999999091951MD1310031+9999REMSYN082AAXX  28094 17202 42665 71107 10092 20002 39195 40208 53003 84250 333 84835 87360;
0176172020999992000112812004+38590+039280FM-12+0882LTCA V0201201N005110090019N0150001N1+00921+00021102021ADDAA199000021GA1051+009009069GF107991051041008001011001MA1999999091901MD1610051+9999REMSYN082AAXX  28124 17202 32565 71210 10092 20002 39190 40202 56005 85410 333 85630 87459;
0165172020999992000112815004+38590+039280FM-12+0882LTCA V0201301N002610090019N0200001N1+00821-00121102071ADDGA1051+009009069GF108991051051008001021999MA1999999091901MD1410001+9999REMSYN082AAXX  28154 17202 42570 81305 10082 21012 39190 40207 54000 8552/ 333 85630 88459;
0214172020999992000112818004+38590+039280FM-12+0882LTCA V0200701N002110090019N0200001N1+00801+00021102171ADDAA199000091GA1051+009009069GF108991051051008001021999KA1120M+00941MA1999999092011MD1210111+9999REMSYN088AAXX  28184 17202 32570 80704 10080 20002 39201 40217 52011 8552/ 333 10094 85630 88459;EQDQ01  00002PRCP99
0165172020999992000112821004+38590+039280FM-12+0882LTCA V0201001N003610090019N0200001N1+00801+00161102141ADDGA1051+009009069GF108991051051008001021999MA1999999092011MD1410001+9999REMSYN082AAXX  28214 17202 42570 81007 10080 20016 39201 40214 54000 8552/ 333 85630 88459;
0210172020999992000112900004+38590+039280FM-12+0882LTCA V0201101N00151036001CN0200001N1+00761+00201102181ADDAA106000891AY161061AY221061GA1041+010509069GF108991041051012501021999MA1999999092021MD1310011+9999MW1011REMSYN094AAXX  29004 17202 11670 81103 10076 20020 39202 40218 53001 69971 70162 8452/ 333 84635 88459;
0165172020999992000112903004+38590+039280FM-12+0882LTCA V0201101N00311036001CN0200001N1+00761+00201102131ADDGA1041+010509069GF108991041051012501021999MA1999999091981MD1810041+9999REMSYN082AAXX  29034 17202 42670 81106 10076 20020 39198 40213 58004 8452/ 333 84635 88459;
0231172020999992000112906004+38590+039280FM-12+0882LTCA V0209999C000010105019N0150001N1+00741+00321102161ADDAA112000891GA1051+010509069GF108991051051012501021999IA1119IA2999+00509KA1120N+00581MA1999999092001MD1310021+9999REMSYN106AAXX  29064 17202 12665 80000 10074 20032 39200 40216 53002 69972 8552/ 333 20058 32005 70007 85635 88459;
0165172020999992000112909004+38590+039280FM-12+0882LTCA V0200501N003110099019N0150001N1+00961+00401102041ADDGA1051+009909069GF108991051051012501021999MA1999999091921MD1810081+9999REMSYN082AAXX  29094 17202 42665 80506 10096 20040 39192 40204 58008 8552/ 333 85633 88459;
0217172020999992000112912004+38590+039280FM-12+0882LTCA V0200901N002610300019N0200001N1+01161+00301101781ADDAA199000091GA1031+010509089GA2051+030009039GF107991031021012501051011MA1999999091701MD1710221+9999REMSYN088AAXX  29124 17202 32670 70905 10116 20030 39170 40178 57022 83251 333 83835 85360 86070;EQDQ01  00002PRCP99
0165172020999992000112915004+38590+039280FM-12+0882LTCA V0200801N00151036001CN0200001N1+01061+00301101721ADDGA1041+010509089GF107991041021012501051001MA1999999091631MD1710071+9999REMSYN082AAXX  29154 17202 42670 70803 10106 20030 39163 40172 57007 84250 333 84835 87360;
0214172020999992000112918004+38590+039280FM-12+0882LTCA V0201001N00311036001CN0200001N1+00961+00431101701ADDAA199000091GA1041+010509089GF107991041021012501051001KA1120M+01221MA1999999091611MD1610021+9999REMSYN088AAXX  29184 17202 32670 71006 10096 20043 39161 40170 56002 84250 333 10122 84835 87360;EQDQ01  00002PRCP99
0165172020999992000112921004+38590+039280FM-12+0882LTCA V0200201N00211036001CN0200001N1+00921+00301101781ADDGA1041+010509069GF107991041051012501051001MA1999999091681MD1110071+9999REMSYN082AAXX  29214 17202 42670 70204 10092 20030 39168 40178 51007 84550 333 84635 87360;
0195172020999992000113000004+38590+039280FM-12+0882LTCA V0203401N00261036001CN0200001N1+00801+00601101711ADDAA199000091GA1041+010509069GF107991041051012501051001MA1999999091641MD1510041+9999REMSYN082AAXX  30004 17202 32670 73405 10080 20060 39164 40171 55004 84550 333 84635 87360;EQDQ01  00002PRCP99
0193172020999992000113003004+38590+039280FM-12+0882LTCA V0200501N003110090019N0100001N1+00461+00321101711ADDAY121031AY221031GA1051+009009069GF108991051051008001021999MA1999999091601MD1610041+9999MW1601REMSYN088AAXX  30034 17202 41560 80506 10046 20032 39160 40171 56004 76022 8552/ 333 85630 88459;
0281172020999992000113006004+38590+039280FM-12+0882LTCA V0209999C000010090019N0100001N1+00621+00501101721ADDAA112004191AY121061AY221061GA1011+004509079GA2051+009009069GF108991061071004501021999IA1119IA2999+00309KA1120N+00401MA1999999091611MD1110011+9999MW1211REMSYN118AAXX  30064 17202 11460 80000 10062 20050 39161 40172 51001 60042 72122 8672/ 333 20040 32003 70042 81715 85630 88459;
0187172020999992000113009004+38590+039280FM-12+0882LTCA V0202101N001510090019N0100001N1+00781+00521101681ADDGA1031+003609079GA2051+009009069GF108991061071004501021999MA1999999091571MD1810041+9999REMSYN088AAXX  30094 17202 42460 82103 10078 20052 39157 40168 58004 8672/ 333 83712 85630 88459;
0232172020999992000113012004+38590+039280FM-12+0882LTCA V0202201N002110090019N0100001N1+00781+00521101521ADDAA106001091AY121061AY221061GA1031+003609079GA2051+009009069GF108991061071004501021999MA1999999091431MD1710141+9999MW1601REMSYN100AAXX  30124 17202 11460 82204 10078 20052 39143 40152 57014 60011 76022 8672/ 333 83712 85630 88458;
0215172020999992000113015004+38590+039280FM-12+0882LTCA V0209999C000010090019N0100001N1+00721+00601101571ADDAY161031AY261031GA1031+003609079GA2061+009009069GF108991061071004501021999MA1999999091431MD1410001+9999MW1601REMSYN094AAXX  30154 17202 41460 80000 10072 20060 39143 40157 54000 76066 8672/ 333 83712 86630 88458;
0251172020999992000113018004+38590+039280FM-12+0882LTCA V0202401N001510090019N0100001N1+00681+00501101731ADDAA112006191AY161061AY261061GA1031+003609079GA2061+009009069GF108991071071004501021999KA1120M+00821MA1999999091581MD1210151+9999MW1601REMSYN106AAXX  30184 17202 11460 82403 10068 20050 39158 40173 52015 60062 76066 8772/ 333 10082 83712 86630 88458;
0193172020999992000113021004+38590+039280FM-12+0882LTCA V0209999C00001036001CN0200001N1+00641+00461101811ADDAY161031AY221031GA1041+010509069GF107991041051012501051001MA1999999091671MD1210091+9999MW1211REMSYN088AAXX  30214 17202 41670 70000 10064 20046 39167 40181 52009 72162 84550 333 84635 87360;
0261172020999992000120100004+38590+039280FM-12+0882LTCA V0203001N002112200019N0200001N1+00481+00361101881ADDAA106000591AY161061AY221061GA1031+010509069GF199999999999999999001001MA1999999091721MD1310051+9999MW1021REMSYN094AAXX  01004 17202 11670 03004 10048 20036 39172 40188 53005 69961 70262 83550 333 83635 86360;EQDQ01+000002SCOTCVQ02+000002SCOTLCQ03+000002SCOLCG
0165172020999992000120103004+38590+039280FM-12+0882LTCA V0209999C00001036001CN0200001N1+00301-00191102041ADDGA1031+010509089GF105991031051012501051001MA1999999091841MD1210121+9999REMSYN082AAXX  01034 17202 42670 50000 10030 21019 39184 40204 52012 83550 333 83835 85360;
0231172020999992000120106004+38590+039280FM-12+0882LTCA V0202301N00151036001CN0200001N1+00421-00101102181ADDAA112000591GA1041+010509069GF107991041051012501051001IA1119IA2999+00109KA1120N+00281MA1999999091981MD1210141+9999REMSYN106AAXX  01064 17202 12670 72303 10042 21010 39198 40218 52014 69962 84550 333 20028 32001 70066 84635 87360;
0125172020999992000120109004+38590+039280FM-12+0882LTCA V0209999C000019999999N0200001N1+00861+00321999999ADDGF107991999999008001999999REMSYN087AAXX  01094 17202 42570 70000 10086 20032 9202 40218 51004 85650 333 82720 84635 87359;
0195172020999992000120112004+38590+039280FM-12+0882LTCA V0209999C00001036001CN0200001N1+01161+00181102101ADDAA199000091GA1031+010509089GF105991031011012501051001MA1999999091951MD1710071+9999REMSYN082AAXX  01124 17202 32670 50000 10116 20018 39195 40210 57007 83150 333 83835 85360;EQDQ01  00002PRCP99
0143172020999992000120115004+38590+039280FM-12+0882LTCA V0200801N001512200019N0200001N1+00841+00161102191ADDGA1001+999999999GF100991001001999999001001MA1999999091991MD1310041+9999REMSYN060AAXX  01154 17202 42970 00803 10084 20016 39199 40219 53004;
0196172020999992000120118004+38590+039280FM-12+0882LTCA V0209999C000012200019N0200001N1+00441+00061102361ADDAA199000091GA1001+999999999GF100991001001999999001001KA1999M+01201MA1999999092101MD1210111+9999REMSYN070AAXX  01184 17202 32970 00000 10044 20006 39210 40236 52011 333 10120;EQDQ01  00002PRCP99
0143172020999992000120121004+38590+039280FM-12+0882LTCA V0202901N003112200019N0200001N1+00201+00061102391ADDGA1001+999999999GF100991001001999999001001MA1999999092151MD1110051+9999REMSYN060AAXX  01214 17202 42970 02906 10020 20006 39215 40239 51005;
0159172020999992000120203004+38590+039280FM-12+0882LTCA V0202501N001510300019N0200001N1+00421+00301102421ADDGA1051+030009079GF105991051001999999031001MA1999999092201MD1310021+9999REMSYN076AAXX  02034 17202 42970 52503 10042 20030 39220 40242 53002 85030 333 85360;
0238172020999992000120206004+38590+039280FM-12+0882LTCA V0201901N00211036001CN0150001N1+00481+00301102501ADDAA199000091GA1041+010509069GF107991041061012501011001IA1099IA2999+00009KA1120N+00121MA1999999092251MD1210151+9999REMSYN094AAXX  02064 17202 32665 71904 10048 20030 39225 40250 52015 84610 333 20012 31000 84635 87460;EQDQ01  00002PRCP99
0193172020999992000120209004+38590+039280FM-12+0882LTCA V0202101N002610045019N0040001N1+00621+00391102541ADDAY121031AY221031GA1051+004509079GF107991071061004501001001MA1999999092271MD1110021+9999MW1101REMSYN088AAXX  02094 17202 41440 72105 10062 20039 39227 40254 51002 71022 87600 333 85715 87630;
0223172020999992000120212004+38590+039280FM-12+0882LTCA V0201501N00211007501CN0060001N1+00861+00241102441ADDAA199000091AY121061AY221061GA1031+006009079GF106991061061008001001001MA1999999092201MD1710071+9999MW1101REMSYN088AAXX  02124 17202 31556 61504 10086 20024 39220 40244 57007 71022 86600 333 83720 85633;EQDQ01  00002PRCP99
0143172020999992000120215004+38590+039280FM-12+0882LTCA V0200701N001512200019N0150001N1+00541+00021102421ADDGA1001+999999999GF100991001001999999001001MA1999999092181MD1610021+9999REMSYN060AAXX  02154 17202 42965 00703 10054 20002 39218 40242 56002;
0196172020999992000120218004+38590+039280FM-12+0882LTCA V0209999C000012200019N0150001N1+00401+00281102481ADDAA199000091GA1001+999999999GF100991001001999999001001KA1999M+00941MA1999999092211MD1310031+9999REMSYN070AAXX  02184 17202 32965 00000 10040 20028 39221 40248 53003 333 10094;EQDQ01  00002PRCP99
0143172020999992000120221004+38590+039280FM-12+0882LTCA V0209999C000012200019N0150001N1+00401+00281102501ADDGA1001+999999999GF100991001001999999001001MA1999999092251MD1210041+9999REMSYN060AAXX  02214 17202 42965 00000 10040 20028 39225 40250 52004;
0157172020999992000120300004+38590+039280FM-12+0882LTCA V0209999C000012200019N0150001N1+00521+00381102431ADDAA199000091GF102991999999999999999999MA1999999092231MD1810021+9999REMSYN060AAXX  03004 17202 32965 20000 10052 20038 39223 40243 58002;EQDQ01  00002PRCP99
0159172020999992000120303004+38590+039280FM-12+0882LTCA V0202201N001512200019N0150001N1+00441+00171102461ADDGA1031+030009079GF103991031001999999031001MA1999999092221MD1810011+9999REMSYN076AAXX  03034 17202 42965 32203 10044 20017 39222 40246 58001 83030 333 83360;
0165172020999992000120309004+38590+039280FM-12+0882LTCA V0209999C00001007501CN0100001N1+00681+00061102511ADDGA1031+006009079GF107991071061008001001001MA1999999092261MD1310011+9999REMSYN082AAXX  03094 17202 42560 70000 10068 20006 39226 40251 53001 87600 333 83720 87630;
0195172020999992000120312004+38590+039280FM-12+0882LTCA V0200701N00261007501CN0150001N1+00781-00071102451ADDAA199000091GA1021+006009079GF107991071061008001001001MA1999999092231MD1810031+9999REMSYN082AAXX  03124 17202 32565 70705 10078 21007 39223 40245 58003 87600 333 82720 87630;EQDQ01  00002PRCP99
0165172020999992000120315004+38590+039280FM-12+0882LTCA V0200301N00211036001CN0200001N1+00681+00061102501ADDGA1041+010509069GF107991041051012501051001MA1999999092271MD1310041+9999REMSYN082AAXX  03154 17202 42670 70304 10068 20006 39227 40250 53004 84550 333 84635 87360;
0208172020999992000120318004+38590+039280FM-12+0882LTCA V0209999C000012200019N0200001N1+00541+00181102521ADDAA199000091GA1031+010509059GF103991031051012501001001KA1120M+00821MA1999999092271MD1410001+9999REMSYN082AAXX  03184 17202 32670 30000 10054 20018 39227 40252 54000 83500 333 10082 83635;EQDQ01  00002PRCP99
0159172020999992000120321004+38590+039280FM-12+0882LTCA V0200401N001512200019N0200001N1+00441+00061102501ADDGA1031+030009079GF103991031001999999031001MA1999999092271MD1410001+9999REMSYN076AAXX  03214 17202 42970 30403 10044 20006 39227 40250 54000 83030 333 83360;
0189172020999992000120400004+38590+039280FM-12+0882LTCA V0201001N003112200019N0200001N1+00481-00061102501ADDAA199000091GA1041+030009079GF104991041001999999031001MA1999999092271MD1410001+9999REMSYN076AAXX  04004 17202 32970 41006 10048 21006 39227 40250 54000 84030 333 84360;EQDQ01  00002PRCP99
0165172020999992000120403004+38590+039280FM-12+0882LTCA V0209999C00001036001CN0200001N1+00481-00061102501ADDGA1031+010509069GF105991031051012501051001MA1999999092271MD1410001+9999REMSYN082AAXX  04034 17202 42670 50000 10048 21006 39227 40250 54000 83550 333 83635 85360;
0238172020999992000120406004+38590+039280FM-12+0882LTCA V0209999C00001036001CN0200001N1+00561-00141102501ADDAA199000091GA1041+010509069GF107991041051012501051001IA1099IA2999+00209KA1120N+00401MA1999999092271MD1410001+9999REMSYN094AAXX  04064 17202 32670 70000 10056 21014 39227 40250 54000 84550 333 20040 31002 84635 87360;EQDQ01  00002PRCP99
0165172020999992000120409004+38590+039280FM-12+0882LTCA V0200601N00151007501CN0200001N1+00581-00141102931ADDGA1041+006009079GF107991071061008001001001MA1999999092641MD1110371+9999REMSYN082AAXX  04094 17202 42570 70603 10058 21014 39264 40293 51037 87600 333 84720 86635;
0195172020999992000120412004+38590+039280FM-12+0882LTCA V0209999C00001007501CN0200001N1+00701-00161102721ADDAA199000091GA1021+006009079GF106991061061008001001001MA1999999092471MD1710171+9999REMSYN082AAXX  04124 17202 32570 60000 10070 21016 39247 40272 57017 86600 333 82720 85635;EQDQ01  00002PRCP99
0159172020999992000120415004+38590+039280FM-12+0882LTCA V0209999C000012200019N0200001N1+00501-00321102681ADDGA1021+010509059GF102991021051012501001001MA1999999092411MD1710061+9999REMSYN076AAXX  04154 17202 42670 20000 10050 21032 39241 40268 57006 82500 333 82635;
0196172020999992000120418004+38590+039280FM-12+0882LTCA V0203101N002612200019N0200001N1+00041-00341102741ADDAA199000091GA1001+999999999GF100991001001999999001001KA1999M+00901MA1999999092431MD1110021+9999REMSYN070AAXX  04184 17202 32970 03105 10004 21034 39243 40274 51002 333 10090;EQDQ01  00002PRCP99
0143172020999992000120421004+38590+039280FM-12+0882LTCA V0202401N001512200019N0200001N1+00021-00241102731ADDGA1001+999999999GF100991001001999999001001MA1999999092421MD1610011+9999REMSYN060AAXX  04214 17202 42970 02403 10002 21024 39242 40273 56001;
0173172020999992000120500004+38590+039280FM-12+0882LTCA V0209999C000012200019N0200001N1+00021-00241102711ADDAA199000091GA1001+999999999GF100991001001999999001001MA1999999092421MD1410001+9999REMSYN060AAXX  05004 17202 32970 00000 10002 21024 39242 40271 54000;EQDQ01  00002PRCP99
0159172020999992000120503004+38590+039280FM-12+0882LTCA V0209999C000012200019N0200001N1+00301+00041102641ADDGA1031+010509059GF103991031051012501001001MA1999999092361MD1810061+9999REMSYN076AAXX  05034 17202 42670 30000 10030 20004 39236 40264 58006 83500 333 83635;
0232172020999992000120506004+38590+039280FM-12+0882LTCA V0209999C000012200019N0150001N1+00361+00121102731ADDAA199000091GA1041+010509059GF104991041051012501001001IA1019IA2999-00109KA1120N+00001MA1999999092401MD1210041+9999REMSYN088AAXX  05064 17202 32665 40000 10036 20012 39240 40273 52004 84500 333 20000 30101 84635;EQDQ01  00002PRCP99
0193172020999992000120509004+38590+039280FM-12+0882LTCA V0202901N00211004201CN0040001N1+00581+00181102721ADDAY111031AY211031GA1041+005409079GF108991081061004501999999MA1999999092411MD1010011+9999MW1101REMSYN088AAXX  05094 17202 41440 82904 10058 20018 39241 40272 50001 71011 886// 333 84718 84635;
0223172020999992000120512004+38590+039280FM-12+0882LTCA V0203101N00261004201CN0060001N1+00641+00161102601ADDAA199000091AY111061AY211061GA1031+005409079GF107991071061004501001001MA1999999092301MD1710111+9999MW1101REMSYN088AAXX  05124 17202 31456 73105 10064 20016 39230 40260 57011 71011 87600 333 83718 85635;EQDQ01  00002PRCP99
0159172020999992000120515004+38590+039280FM-12+0882LTCA V0202801N003112200019N0200001N1+00301-00241102581ADDGA1021+010509059GF102991021051012501001001MA1999999092281MD1510021+9999REMSYN076AAXX  05154 17202 42670 22806 10030 21024 39228 40258 55002 82500 333 82635;
0196172020999992000120518004+38590+039280FM-12+0882LTCA V0209999C000012200019N0200001N1+00141-00241102641ADDAA199000091GA1001+999999999GF100991001001999999001001KA1999M+00661MA1999999092341MD1210061+9999REMSYN070AAXX  05184 17202 32970 00000 10014 21024 39234 40264 52006 333 10066;EQDQ01  00002PRCP99
0159172020999992000120521004+38590+039280FM-12+0882LTCA V0209999C000012200019N0200001N1+00121-00081102691ADDGA1031+030009079GF103991031001999999031001MA1999999092401MD1210061+9999REMSYN076AAXX  05214 17202 42970 30000 10012 21008 39240 40269 52006 83030 333 83360;
0189172020999992000120600004+38590+039280FM-12+0882LTCA V0202301N002112200019N0200001N1+00081-00071102621ADDAA199000091GA1031+030009079GF103991031001999999031001MA1999999092341MD1610061+9999REMSYN076AAXX  06004 17202 32970 32304 10008 21007 39234 40262 56006 83030 333 83360;EQDQ01  00002PRCP99
0165172020999992000120603004+38590+039280FM-12+0882LTCA V0209999C00001007501CN0100001N1+00201-00161102671ADDGA1031+006009079GF106991061061008001001001MA1999999092341MD1410001+9999REMSYN082AAXX  06034 17202 42560 60000 10020 21016 39234 40267 54000 86600 333 83720 86635;
0260172020999992000120606004+38590+039280FM-12+0882LTCA V0209999C000010060019N0040001N1+00201-00161102621ADDAA199000091AY111061AY211061GA1081+006009069GF108991081061004501999999IA1019IA2999-00109KA1120N-00041MA1999999092301MD1610041+9999MW1101REMSYN094AAXX  06064 17202 31440 80000 10020 21016 39230 40262 56004 71011 886// 333 21004 30101 88720;EQDQ01  00002PRCP99
0187172020999992000120609004+38590+039280FM-12+0882LTCA V0202101N003110060019N0050001N1+00301-00381102661ADDAY121031AY221031GA1071+006009069GF107991071061008001001001MA1999999092331MD1110031+9999MW1101REMSYN082AAXX  06094 17202 41550 72106 10030 21038 39233 40266 51003 71022 87600 333 87720;
0217172020999992000120612004+38590+039280FM-12+0882LTCA V0201501N001510060019N0080001N1+00441-00301102441ADDAA199000091AY121061AY221061GA1081+006009069GF108991081061008001999999MA1999999092161MD1710171+9999MW1101REMSYN082AAXX  06124 17202 31558 81503 10044 21030 39216 40244 57017 71022 886// 333 88720;EQDQ01  00002PRCP99
0159172020999992000120615004+38590+039280FM-12+0882LTCA V0201401N001010057019N0100001N1+00381-00361102381ADDGA1081+005709069GF108991081061004501999999MA1999999092101MD1610061+9999REMSYN076AAXX  06154 17202 42460 81402 10038 21036 39210 40238 56006 886// 333 88719;
0208172020999992000120618004+38590+039280FM-12+0882LTCA V0209999C000010060019N0100001N1+00301-00361102401ADDAA199000091GA1081+006009069GF108991081061008001999999KA1120M+00461MA1999999092101MD1410001+9999REMSYN082AAXX  06184 17202 32560 80000 10030 21036 39210 40240 54000 886// 333 10046 88720;EQDQ01  00002PRCP99
0165172020999992000120621004+38590+039280FM-12+0882LTCA V0202301N00211007501CN0100001N1+00281-00321102321ADDGA1041+006009079GF108991071061008001001001MA1999999092051MD1810051+9999REMSYN082AAXX  06214 17202 42560 82304 10028 21032 39205 40232 58005 87600 333 84720 85630;
0195172020999992000120700004+38590+039280FM-12+0882LTCA V0202401N00211007501CN0100001N1+00261-00281102231ADDAA199000091GA1041+006009079GF107991071061008001001001MA1999999091991MD1710061+9999REMSYN082AAXX  07004 17202 32560 72404 10026 21028 39199 40223 57006 87600 333 84720 85630;EQDQ01  00002PRCP99
0165172020999992000120703004+38590+039280FM-12+0882LTCA V0201901N00211007501CN0100001N1+00241-00261102151ADDGA1041+006009079GF107991071061008001001001MA1999999091901MD1810091+9999REMSYN082AAXX  07034 17202 42560 71904 10024 21026 39190 40215 58009 87600 333 84720 85630;
0266172020999992000120706004+38590+039280FM-12+0882LTCA V0209999C000010060019N0040001N1+00241-00261102131ADDAA199000091AY121061AY221061GA1051+006009079GF108991081061008001999999IA1019IA2999+00109KA1120N+00201MA1999999091881MD1610021+9999MW1101REMSYN100AAXX  07064 17202 31540 80000 10024 21026 39188 40213 56002 71022 886// 333 20020 30001 85720 86630;EQDQ01  00002PRCP99
0193172020999992000120709004+38590+039280FM-12+0882LTCA V0202501N001510060019N0070001N1+00251-00261102131ADDAY121031AY221031GA1051+006009079GF108991081061008001999999MA1999999091881MD1010001+9999MW1101REMSYN088AAXX  07094 17202 41557 82503 10025 21026 39188 40213 50000 71022 886// 333 85720 88630;
0223172020999992000120712004+38590+039280FM-12+0882LTCA V0209999C000010060019N0080001N1+00301-00301101951ADDAA199000091AY121061AY221061GA1061+006009079GF108991081061008001999999MA1999999091721MD1710161+9999MW1051REMSYN088AAXX  07124 17202 31558 80000 10030 21030 39172 40195 57016 70522 886// 333 86720 88630;EQDQ01  00002PRCP99
0159172020999992000120715004+38590+039280FM-12+0882LTCA V0201201N001510054019N0080001N1+00291-00341101941ADDGA1071+005409069GF107991071061004501001001MA1999999091711MD1610011+9999REMSYN076AAXX  07154 17202 42458 71203 10029 21034 39171 40194 56001 87600 333 87718;
0208172020999992000120718004+38590+039280FM-12+0882LTCA V0209999C000010060019N0150001N1+00241-00341101971ADDAA199000091GA1071+006009069GF107991071061008001001001KA1120M+00341MA1999999091711MD1410001+9999REMSYN082AAXX  07184 17202 32565 70000 10024 21034 39171 40197 54000 87600 333 10034 87720;EQDQ01  00002PRCP99
0159172020999992000120721004+38590+039280FM-12+0882LTCA V0209999C000010060019N0150001N1+00241-00341101971ADDGA1071+006009069GF107991071061008001001001MA1999999091711MD1410001+9999REMSYN076AAXX  07214 17202 42565 70000 10024 21034 39171 40197 54000 87600 333 87720;
0189172020999992000120800004+38590+039280FM-12+0882LTCA V0209999C000010060019N0150001N1+00201-00321102011ADDAA199000091GA1071+006009069GF107991071061008001001001MA1999999091751MD1210041+9999REMSYN076AAXX  08004 17202 32565 70000 10020 21032 39175 40201 52004 87600 333 87720;EQDQ01  00002PRCP99
0159172020999992000120803004+38590+039280FM-12+0882LTCA V0200901N001010060019N0150001N1+00201-00221101961ADDGA1071+006009069GF107991071061008001001001MA1999999091701MD1610051+9999REMSYN076AAXX  08034 17202 42565 70902 10020 21022 39170 40196 56005 87600 333 87720;
0266172020999992000120806004+38590+039280FM-12+0882LTCA V0200501N002110060019N0040001N1+00221-00181102071ADDAA199000091AY121061AY221061GA1061+006009079GF108991081061008001999999IA1019IA2999+00109KA1120N+00181MA1999999091801MD1210101+9999MW1101REMSYN100AAXX  08064 17202 31540 80504 10022 21018 39180 40207 52010 71022 886// 333 20018 30001 86720 88630;EQDQ01  00002PRCP99
0165172020999992000120809004+38590+039280FM-12+0882LTCA V0200801N003110060019N0100001N1+00341-00241102101ADDGA1051+006009079GF107991071061008001001001MA1999999091851MD1110051+9999REMSYN082AAXX  08094 17202 42560 70806 10034 21024 39185 40210 51005 87600 333 85720 87633;
0195172020999992000120812004+38590+039280FM-12+0882LTCA V0200901N002110060019N0100001N1+00441-00121101891ADDAA199000091GA1051+006009079GF106991061061008001001001MA1999999091721MD1710131+9999REMSYN082AAXX  08124 17202 32560 60904 10044 21012 39172 40189 57013 86600 333 85720 85633;EQDQ01  00002PRCP99
0165172020999992000120815004+38590+039280FM-12+0882LTCA V0200801N00101036001CN0200001N1+00361-00331101971ADDGA1031+010509069GF106991031051012501051001MA1999999091731MD1310011+9999REMSYN082AAXX  08154 17202 42670 60802 10036 21033 39173 40197 53001 83550 333 83635 86360;
0214172020999992000120818004+38590+039280FM-12+0882LTCA V0209999C00001036001CN0200001N1+00301-00261102041ADDAA199000091GA1031+010509069GF106991031051012501051001KA1120M+00501MA1999999091801MD1210071+9999REMSYN088AAXX  08184 17202 32670 60000 10030 21026 39180 40204 52007 83550 333 10050 83635 86360;EQDQ01  00002PRCP99
0159172020999992000120821004+38590+039280FM-12+0882LTCA V0202001N001010360019N0200001N1+00161-00141102071ADDGA1031+010509059GF106991031051012501051001MA1999999091801MD1410001+9999REMSYN076AAXX  08214 17202 42670 62002 10016 21014 39180 40207 54000 83550 333 83635;
0195172020999992000120900004+38590+039280FM-12+0882LTCA V0202001N00211036001CN0200001N1-00161-00301102091ADDAA199000091GA1031+010509069GF106991031051012501051001MA1999999091801MD1410001+9999REMSYN082AAXX  09004 17202 32670 62004 11016 21030 39180 40209 54000 83550 333 83635 86360;EQDQ01  00002PRCP99
0159172020999992000120903004+38590+039280FM-12+0882LTCA V0202301N001512200019N0200001N1-00281-00401102081ADDGA1021+010509059GF102991021051012501001001MA1999999091771MD1710031+9999REMSYN076AAXX  09034 17202 42670 22303 11028 21040 39177 40208 57003 82500 333 82635;
0266172020999992000120906004+38590+039280FM-12+0882LTCA V0202501N001512200019N0060001N1-00261-00401102111ADDAA199000091AY111061AY211061GA1031+010509069GF104991031051012501051001IA1149IA2999-00509KA1120N-00321MA1999999091821MD1210051+9999MW1101REMSYN100AAXX  09064 17202 31656 42503 11026 21040 39182 40211 52005 71011 83550 333 21032 34105 83635 84360;EQDQ01  00002PRCP99
0193172020999992000120909004+38590+039280FM-12+0882LTCA V0209999C00001036001CN0060001N1+00381-00041102121ADDAY111031AY211031GA1031+010509069GF105991031051012501051001MA1999999091871MD1010051+9999MW1101REMSYN088AAXX  09094 17202 41656 50000 10038 21004 39187 40212 50005 71011 83550 333 83635 84360;
0195172020999992000120912004+38590+039280FM-12+0882LTCA V0201701N00151036001CN0150001N1+00661-00281101931ADDAA199000091GA1031+010509069GF105991031051012501051001MA1999999091701MD1710171+9999REMSYN082AAXX  09124 17202 32665 51703 10066 21028 39170 40193 57017 83550 333 83635 85360;EQDQ01  00002PRCP99
0143172020999992000120915004+38590+039280FM-12+0882LTCA V0209999C000012200019N0200001N1+00261-00541101981ADDGA1001+999999999GF100991001001999999001001MA1999999091681MD1810021+9999REMSYN060AAXX  09154 17202 42970 00000 10026 21054 39168 40198 58002;
0196172020999992000120918004+38590+039280FM-12+0882LTCA V0203001N001512200019N0200001N1+00001-00961101981ADDAA199000091GA1001+999999999GF100991001001999999001001KA1999M+00701MA1999999091701MD1310021+9999REMSYN070AAXX  09184 17202 32970 03003 10000 21096 39170 40198 53002 333 10070;EQDQ01  00002PRCP99
0143172020999992000120921004+38590+039280FM-12+0882LTCA V0202601N003112200019N0200001N1-00101-00581102091ADDGA1001+999999999GF100991001001999999001001MA1999999091801MD1110101+9999REMSYN060AAXX  09214 17202 42970 02606 11010 21058 39180 40209 51010;
0173172020999992000121000004+38590+039280FM-12+0882LTCA V0202301N001512200019N0200001N1-00301-00481102071ADDAA199000091GA1001+999999999GF100991001001999999001001MA1999999091801MD1410001+9999REMSYN060AAXX  10004 17202 32970 02303 11030 21048 39180 40207 54000;EQDQ01  00002PRCP99
0143172020999992000121003004+38590+039280FM-12+0882LTCA V0209999C000012200019N0200001N1-00461-00641102081ADDGA1001+999999999GF100991001001999999001001MA1999999091751MD1610051+9999REMSYN060AAXX  10034 17202 42970 00000 11046 21064 39175 40208 56005;
0220172020999992000121006004+38590+039280FM-12+0882LTCA V0209999C000012200019N0200001N1-00201-00411102081ADDAA199000091GA1001+999999999GF100991001001999999001001IA1149IA2999-00609KA1120N-00541MA1999999091751MD1410001+9999REMSYN076AAXX  10064 17202 32970 00000 11020 21041 39175 40208 54000 333 21054 34106;EQDQ01  00002PRCP99
0143172020999992000121009004+38590+039280FM-12+0882LTCA V0202701N004112200019N0200001N1+00761-00541102021ADDGA1001+999999999GF100991001001999999001001MA1999999091781MD1010031+9999REMSYN060AAXX  10094 17202 42970 02708 10076 21054 39178 40202 50003;
0173172020999992000121012004+38590+039280FM-12+0882LTCA V0202801N004112200019N0200001N1+01021-00841101761ADDAA199000091GA1001+999999999GF100991001001999999001001MA1999999091571MD1710211+9999REMSYN060AAXX  10124 17202 32970 02808 10102 21084 39157 40176 57021;EQDQ01  00002PRCP99
0143172020999992000121015004+38590+039280FM-12+0882LTCA V0202101N004612200019N0200001N1+00761-00821101781ADDGA1001+999999999GF100991001001999999001001MA1999999091541MD1610031+9999REMSYN060AAXX  10154 17202 42970 02109 10076 21082 39154 40178 56003;
0196172020999992000121018004+38590+039280FM-12+0882LTCA V0202001N002612200019N0200001N1+00161-00701101981ADDAA199000091GA1001+999999999GF100991001001999999001001KA1999M+01101MA1999999091631MD1210091+9999REMSYN070AAXX  10184 17202 32970 02005 10016 21070 39163 40198 52009 333 10110;EQDQ01  00002PRCP99
0143172020999992000121021004+38590+039280FM-12+0882LTCA V0202901N002112200019N0200001N1-00061-00661102011ADDGA1001+999999999GF100991001001999999001001MA1999999091621MD1610011+9999REMSYN060AAXX  10214 17202 42970 02904 11006 21066 39162 40201 56001;
0173172020999992000121100004+38590+039280FM-12+0882LTCA V0209999C000012200019N0200001N1-00201-00411101761ADDAA199000091GA1001+999999999GF100991001001999999001001MA1999999091571MD1810051+9999REMSYN060AAXX  11004 17202 32970 00000 11020 21041 39157 40176 58005;EQDQ01  00002PRCP99
0143172020999992000121103004+38590+039280FM-12+0882LTCA V0209999C000012200019N0200001N1-00321-00611101731ADDGA1001+999999999GF100991001001999999001001MA1999999091501MD1610071+9999REMSYN060AAXX  11034 17202 42970 00000 11032 21061 39150 40173 56007;
0220172020999992000121106004+38590+039280FM-12+0882LTCA V0202901N002112200019N0200001N1-00101-00441101781ADDAA199000091GA1001+999999999GF100991001001999999001001IA1149IA2999-00609KA1120N-00481MA1999999091501MD1410001+9999REMSYN076AAXX  11064 17202 32970 02904 11010 21044 39150 40178 54000 333 21048 34106;EQDQ01  00002PRCP99
0159172020999992000121109004+38590+039280FM-12+0882LTCA V0209999C000010600019N0200001N1+00701-00401101681ADDGA1051+060009019GF105991001001999999001011MA1999999091471MD1810031+9999REMSYN076AAXX  11094 17202 42970 50000 10070 21040 39147 40168 58003 80001 333 85070;
0195172020999992000121112004+38590+039280FM-12+0882LTCA V0203101N004612200019N0200001N1+00941-00711101411ADDAA199000091GA1011+010509069GF104991011051012501001011MA1999999091251MD1710221+9999REMSYN082AAXX  11124 17202 32670 43109 10094 21071 39125 40141 57022 81501 333 81635 84070;EQDQ01  00002PRCP99
0165172020999992000121115004+38590+039280FM-12+0882LTCA V0202801N00261220001CN0200001N1+00541-00641101471ADDGA1011+010509069GF105991011051012501001011MA1999999091241MD1610011+9999REMSYN082AAXX  11154 17202 42670 52805 10054 21064 39124 40147 56001 81501 333 81635 85070;
0214172020999992000121118004+38590+039280FM-12+0882LTCA V0202901N00211036001CN0200001N1+00301-00701101521ADDAA199000091GA1031+010509069GF105991031051012501051001KA1120M+00961MA1999999091291MD1210051+9999REMSYN088AAXX  11184 17202 32670 52904 10030 21070 39129 40152 52005 83550 333 10096 83635 85360;EQDQ01  00002PRCP99
0200172020999992000121121004+38590+039280FM-12+0882LTCA V0202601N00211036001CN0200001N1-00161-00581101511ADDGA1031+010509069GF105991031051012501051001MA1999999091321MD1710011+9999REMSYN082AAXX  11214 17202 42670 52604 11016 21058 39132 40151 52993 83550 333 83635 85360;EQDQ01+000027APCTENQ02+009937APC3  
0195172020999992000121200004+38590+039280FM-12+0882LTCA V0202901N00261036001CN0200001N1-00161-00581101521ADDAA199000091GA1031+010509069GF105991031051012501051001MA1999999091351MD1110031+9999REMSYN082AAXX  12004 17202 32670 52905 11016 21058 39135 40152 51003 83550 333 83635 85360;EQDQ01  00002PRCP99
0165172020999992000121203004+38590+039280FM-12+0882LTCA V0203201N00261036001CN0200001N1-00201-00541101571ADDGA1031+010509069GF105991031051012501051001MA1999999091351MD1410001+9999REMSYN082AAXX  12034 17202 42670 53205 11020 21054 39135 40157 54000 83550 333 83635 85360;
0238172020999992000121206004+38590+039280FM-12+0882LTCA V0203301N00101036001CN0200001N1-00141-00521101731ADDAA199000091GA1031+010509069GF106991031051012501051001IA1149IA2999-00509KA1120N-00361MA1999999091481MD1210131+9999REMSYN094AAXX  12064 17202 32670 63302 11014 21052 39148 40173 52013 83550 333 21036 34105 83635 86360;EQDQ01  00002PRCP99
0165172020999992000121209004+38590+039280FM-12+0882LTCA V0200601N00151036001CN0200001N1+00441-00291101791ADDGA1031+010509069GF107991031051012501071001MA1999999091531MD1110051+9999REMSYN082AAXX  12094 17202 42670 70603 10044 21029 39153 40179 51005 83570 333 83635 87360;
0195172020999992000121212004+38590+039280FM-12+0882LTCA V0209999C00001036001CN0200001N1+00681-00241101701ADDAA199000091GA1031+010509069GF108991031051012501021999MA1999999091491MD1610041+9999REMSYN082AAXX  12124 17202 32670 80000 10068 21024 39149 40170 56004 8352/ 333 83635 88460;EQDQ01  00002PRCP99
0165172020999992000121215004+38590+039280FM-12+0882LTCA V0209999C00001036001CN0200001N1+00521-00301101741ADDGA1031+010509069GF108991031051012501021999MA1999999091511MD1310021+9999REMSYN082AAXX  12154 17202 42670 80000 10052 21030 39151 40174 53002 8352/ 333 83635 88460;
0214172020999992000121218004+38590+039280FM-12+0882LTCA V0203001N00211036001CN0200001N1+00321-00201101831ADDAA199000091GA1041+010509069GF108991041051012501021999KA1120M+00701MA1999999091571MD1210061+9999REMSYN088AAXX  12184 17202 32670 83004 10032 21020 39157 40183 52006 8452/ 333 10070 84635 88460;EQDQ01  00002PRCP99
0165172020999992000121221004+38590+039280FM-12+0882LTCA V0209999C000010105019N0200001N1+00261-00231101801ADDGA1051+010509069GF107991051051012501051001MA1999999091601MD1110031+9999REMSYN082AAXX  12214 17202 42670 70000 10026 21023 39160 40180 51003 85550 333 85635 87360;
0195172020999992000121300004+38590+039280FM-12+0882LTCA V0209999C000010105019N0200001N1+00261-00231101781ADDAA199000091GA1051+010509069GF107991051051012501051001MA1999999091601MD1410001+9999REMSYN082AAXX  13004 17202 32670 70000 10026 21023 39160 40178 54000 85550 333 85635 87360;EQDQ01  00002PRCP99
0165172020999992000121303004+38590+039280FM-12+0882LTCA V0209999C000010105019N0200001N1+00321+00081101631ADDGA1051+010509069GF107991051051012501051001MA1999999091451MD1710151+9999REMSYN082AAXX  13034 17202 42670 70000 10032 20008 39145 40163 57015 85550 333 85635 87360;
0260172020999992000121306004+38590+039280FM-12+0882LTCA V0209999C000010090019N0100001N1+00281+00081101651ADDAA199000091GA1031+005109079GA2051+009009069GF108991061071004501021999IA1019IA2999+00109KA1120N+00181MA1999999091451MD1410001+9999REMSYN100AAXX  13064 17202 32460 80000 10028 20008 39145 40165 54000 8672/ 333 20018 30001 83717 85630 88459;EQDQ01  00002PRCP99
0237172020999992000121309004+38590+039280FM-12+0882LTCA V0209999C000010045019N0040001N1+00481+00301101551ADDAY121031AY221031GA1051+004509079GA2061+009009069GA3081+024009049GF108991071071004501021999MA1999999091381MD1710071+9999MW1601REMSYN100AAXX  13094 17202 41440 80000 10048 20030 39138 40155 57007 76022 8772/ 333 85715 86630 88458 96010;
0254172020999992000121312004+38590+039280FM-12+0882LTCA V0200901N002610045019N0035001N1+00501+00401101351ADDAA106002091AY121061AY221061GA1051+004509079GA2061+009009069GA3081+024009049GF108991071071004501021999MA1999999091201MD1710181+9999MW1611REMSYN106AAXX  13124 17202 11435 80905 10050 20040 39120 40135 57018 60021 76122 8772/ 333 85715 86630 88458 96010;
0220172020999992000121315004+38590+039280FM-12+0882LTCA V0200701N00261009001CN0035001N1+00461+00381101351ADDAY161031AY261031GA1061+009009069GA2081+024009049GF108991071071004501021999MA1999999091201MD1410001+9999MW1611REMSYN099AAXX  13154 17202 41435 80705 10046 20038 39120 40135 54000 76166 8772/ 333 8571586630 88458 96010;
0251172020999992000121318004+38590+039280FM-12+0882LTCA V0209999C000010090019N0070001N1+00441+00301101351ADDAA112006191AY161061AY261061GA1041+004509079GA2061+009009069GF108991071071004501021999KA1120M+00521MA1999999091201MD1410001+9999MW1611REMSYN106AAXX  13184 17202 11457 80000 10044 20030 39120 40135 54000 60062 76166 8772/ 333 10052 84715 86630 88458;
0215172020999992000121321004+38590+039280FM-12+0882LTCA V0203101N001510090019N0070001N1+00421+00301101251ADDAY161031AY261031GA1041+004509079GA2061+009009069GF108991071071004501021999MA1999999091131MD1810071+9999MW1611REMSYN094AAXX  13214 17202 11457 83103 10042 20030 39113 40125 58007 76166 8772/ 333 84715 86630 88458;
0232172020999992000121400004+38590+039280FM-12+0882LTCA V0209999C000010090019N0070001N1+00381+00261101281ADDAA106002091AY161061AY261061GA1041+004509079GA2061+009009069GF108991071071004501021999MA1999999091131MD1410001+9999MW1601REMSYN100AAXX  14004 17202 11457 80000 10038 20026 39113 40128 54000 60021 76066 8772/ 333 84715 86630 88458;
0215172020999992000121403004+38590+039280FM-12+0882LTCA V0202701N001510090019N0100001N1+00341+00201101221ADDAY161031AY221031GA1031+006009079GA2051+009009069GF108991061071008001021999MA1999999091081MD1810051+9999MW1021REMSYN094AAXX  14034 17202 41560 82703 10034 20020 39108 40122 58005 70262 8672/ 333 83720 85630 88459;
0259172020999992000121406004+38590+039280FM-12+0882LTCA V0202801N00151036001CN0200001N1+00321+00201101141ADDAA112003091AY161061AY221061GA1041+010509069GF108991041051012501051001IA1119IA2999+00209KA1120N+00301MA1999999091111MD1310031+9999MW1011REMSYN112AAXX  14064 17202 11670 82803 10032 20020 39111 40114 53003 60032 70162 84550 333 20030 32002 70094 84635 86360;
0215172020999992000121409004+38590+039280FM-12+0882LTCA V0201001N002110090019N0100001N1+00521+00341101311ADDAY121031AY221031GA1021+004509079GA2051+009009069GF108991061071004501021999MA1999999091181MD1110071+9999MW1601REMSYN094AAXX  14094 17202 41460 81004 10052 20034 39118 40131 51007 76022 8672/ 333 82715 85630 88458;
0232172020999992000121412004+38590+039280FM-12+0882LTCA V0202101N002110090019N0150001N1+00601+00321101241ADDAA106000591AY161061AY221061GA1031+004509079GA2051+009009069GF107991061071004501051001MA1999999091121MD1610061+9999MW1011REMSYN100AAXX  14124 17202 11465 72104 10060 20032 39112 40124 56006 69941 70162 86750 333 83715 85630 86359;
0165172020999992000121415004+38590+039280FM-12+0882LTCA V0202401N00261036001CN0200001N1+00501+00171101301ADDGA1041+010509069GF106991041051012501051001MA1999999091151MD1210031+9999REMSYN082AAXX  14154 17202 42670 62405 10050 20017 39115 40130 52003 84550 333 84635 86360;
0201172020999992000121418004+38590+039280FM-12+0882LTCA V0203101N00101036001CN0200001N1+00401+00141101351ADDAA112000591GA1041+010509069GF106991041051012501051001KA1120M+00631MA1999999091201MD1110051+9999REMSYN094AAXX  14184 17202 12670 63102 10040 20014 39120 40135 51005 69942 84550 333 10063 84635 86360;
0165172020999992000121421004+38590+039280FM-12+0882LTCA V0209999C00001036001CN0200001N1+00301+00161101391ADDGA1031+010509069GF106991031051012501051001MA1999999091231MD1010031+9999REMSYN082AAXX  14214 17202 42670 60000 10030 20016 39123 40139 50003 83550 333 83635 86360;
0195172020999992000121500004+38590+039280FM-12+0882LTCA V0203201N00151036001CN0200001N1+00121-00041101381ADDAA199000091GA1031+010509069GF105991031051012501051001MA1999999091221MD1510011+9999REMSYN082AAXX  15004 17202 32670 53203 10012 21004 39122 40138 55001 83550 333 83635 85360;EQDQ01  00002PRCP99
0184172020999992000121503004+38590+039280FM-12+0882LTCA V0202401N00151036001CN0200001N1+00281-00061101381ADDGA1031+010509069GF106991031051012501051001MA1999999091221MD1410001+9999REMSYN082AAXX  15034 17202 42670 62403 10028 21006 39122 40138 51000 83550 333 83635 86360;EQDQ01+000012APCTEN
0225172020999992000121506004+38590+039280FM-12+0882LTCA V0202701N00151036001CN0200001N1+00241-00101101511ADDAA124000591GA1031+010509069GF105991031051012501051001IA1099IA2999+00009KA1120N+00101MA1999999091321MD1210101+9999REMSYN100AAXX  15064 17202 32670 52703 10024 21010 39132 40151 52010 83550 333 20010 31000 70004 83635 86360;
0165172020999992000121509004+38590+039280FM-12+0882LTCA V0202301N00151036001CN0200001N1+00701-00561101481ADDGA1031+010509069GF105991031051012501051001MA1999999091331MD1110011+9999REMSYN082AAXX  15094 17202 42670 52303 10070 21056 39133 40148 51001 83550 333 83635 85360;
0195172020999992000121512004+38590+039280FM-12+0882LTCA V0202801N00361220001CN0200001N1+00821-00721101471ADDAA199000091GA1021+010509069GF105991021051012501001011MA1999999091321MD1510011+9999REMSYN082AAXX  15124 17202 32670 52807 10082 21072 39132 40147 55001 82501 333 82635 85070;EQDQ01  00002PRCP99
0165172020999992000121515004+38590+039280FM-12+0882LTCA V0202401N001512200019N0200001N1+00541-00641101601ADDGA1021+010509069GF103991021051012501001011MA1999999091421MD1210101+9999REMSYN082AAXX  15154 17202 42670 32403 10054 21064 39142 40160 52010 82501 333 82635 83070;
0196172020999992000121518004+38590+039280FM-12+0882LTCA V0209999C000012200019N0200001N1+00021-00441101781ADDAA199000091GA1001+999999999GF100991001001999999001001KA1999M+00841MA1999999091521MD1210101+9999REMSYN070AAXX  15184 17202 32970 00000 10002 21044 39152 40178 52010 333 10084;EQDQ01  00002PRCP99
0143172020999992000121521004+38590+039280FM-12+0882LTCA V0203101N002112200019N0200001N1+00021-00291101821ADDGA1001+999999999GF100991001001999999001001MA1999999091581MD1210061+9999REMSYN060AAXX  15214 17202 42970 03104 10002 21029 39158 40182 52006;
0173172020999992000121600004+38590+039280FM-12+0882LTCA V0202001N002112200019N0200001N1+00001-00221101781ADDAA199000091GA1001+999999999GF100991001001999999001001MA1999999091581MD1410001+9999REMSYN060AAXX  16004 17202 32970 02004 10000 21022 39158 40178 54000;EQDQ01  00002PRCP99
0143172020999992000121603004+38590+039280FM-12+0882LTCA V0202401N002612200019N0200001N1-00061-00221101891ADDGA1001+999999999GF100991001001999999001001MA1999999091841MD1110061+9999REMSYN060AAXX  16034 17202 42970 02405 11006 21022 39184 40189 51006;
0220172020999992000121606004+38590+039280FM-12+0882LTCA V0203001N002612200019N0150001N1-00101-00381102141ADDAA199000091GA1001+999999999GF100991001001999999001001IA1149IA2999-00409KA1120N-00281MA1999999091801MD1210161+9999REMSYN076AAXX  16064 17202 32965 03005 11010 21038 39180 40214 52016 333 21028 34104;EQDQ01  00002PRCP99
0159172020999992000121609004+38590+039280FM-12+0882LTCA V0200901N002112200019N0200001N1+00581-00061102191ADDGA1031+060009019GF103991001001999999001011MA1999999091931MD1010071+9999REMSYN076AAXX  16094 17202 42970 30904 10058 21006 39193 40219 50007 80001 333 83070;
0237172020999992000121612004+38590+039280FM-12+0882LTCA V0202001N999992200019N0200001N1+00721-00201102091ADDAA199000091GA1031+060009019GF199999001001999999001999MA1999999091861MD1610071+9999REMSYN076AAXX  16124 17202 32970 07005 10072 21020 39186 40209 56007 80001 333 83070;EQDQ01+005403WOSPD Q02+000002SCOTCVQ03+000002SCOHCGQ04  00002PRCP99
0159172020999992000121615004+38590+039280FM-12+0882LTCA V0209999C000010600019N0200001N1+00681-00201102191ADDGA1061+060009019GF106991001001999999001011MA1999999091931MD1310071+9999REMSYN076AAXX  16154 17202 42970 60000 10068 21020 39193 40219 53007 80001 333 86070;
0208172020999992000121618004+38590+039280FM-12+0882LTCA V0200401N002612200019N0200001N1+00621+00061102311ADDAA199000091GA1041+030009079GF104991041001999999031001KA1120M+00731MA1999999092041MD1210111+9999REMSYN082AAXX  16184 17202 32970 40405 10062 20006 39204 40231 52011 84030 333 10073 84360;EQDQ01  00002PRCP99
0159172020999992000121621004+38590+039280FM-12+0882LTCA V0200801N002112200019N0200001N1+00501-00021102331ADDGA1041+030009079GF104991041001999999031001MA1999999092101MD1110061+9999REMSYN076AAXX  16214 17202 42970 40804 10050 21002 39210 40233 51006 84030 333 84360;
0195172020999992000121700004+38590+039280FM-12+0882LTCA V0200401N00411036001CN0200001N1+00641+00161102241ADDAA199000091GA1021+010509069GF106991021051012501051001MA1999999092061MD1610041+9999REMSYN082AAXX  17004 17202 32670 60408 10064 20016 39206 40224 56004 82550 333 82635 86360;EQDQ01  00002PRCP99
0165172020999992000121703004+38590+039280FM-12+0882LTCA V0201101N00361036001CN0200001N1+00641+00161102261ADDGA1041+010509089GF107991041051012501051001MA1999999092071MD1110011+9999REMSYN082AAXX  17034 17202 42670 71107 10064 20016 39207 40226 51001 84550 333 84835 87360;
0281172020999992000121706004+38590+039280FM-12+0882LTCA V0201001N005110090019N0100001N1+00641+00161102311ADDAA112000191AY161061AY221061GA1031+004509079GA2051+009009069GF108991071071004501021999IA1099IA2999+00409KA1120N+00481MA1999999092101MD1310031+9999MW1211REMSYN118AAXX  17064 17202 11460 81010 10064 20016 39210 40231 53003 69922 72162 8772/ 333 20048 31004 70002 83715 85630 88459;
0187172020999992000121709004+38590+039280FM-12+0882LTCA V0200701N003610090019N0080001N1+00721+00161102321ADDGA1031+004509079GA2051+009009069GF107991061071004501051001MA1999999092111MD1010011+9999REMSYN088AAXX  17094 17202 42458 70707 10072 20016 39211 40232 50001 86750 333 83715 85630 87360;
0232172020999992000121712004+38590+039280FM-12+0882LTCA V0200801N004610090019N0070001N1+00681+00261102181ADDAA106002091AY121061AY221061GA1031+004509079GA2051+009009069GF108991071071004501021999MA1999999092001MD1610111+9999MW1601REMSYN100AAXX  17124 17202 11457 80809 10068 20026 39200 40218 56011 60021 76022 8772/ 333 83715 85630 88458;
0215172020999992000121715004+38590+039280FM-12+0882LTCA V0200501N004110090019N0070001N1+00641+00241102201ADDAY161031AY261031GA1031+004509079GA2051+009009069GF108991071071004501021999MA1999999092001MD1410001+9999MW1601REMSYN094AAXX  17154 17202 41457 80508 10064 20024 39200 40220 54000 76066 8772/ 333 83715 85630 88458;
0251172020999992000121718004+38590+039280FM-12+0882LTCA V0200401N003610090019N0100001N1+00681+00261102291ADDAA112003091AY161061AY221061GA1031+004509079GA2051+009009069GF108991071071004501021999KA1120M+00741MA1999999092101MD1210101+9999MW1601REMSYN106AAXX  17184 17202 11460 80407 10068 20026 39210 40229 52010 60032 76062 8772/ 333 10074 83715 85630 88458;
0215172020999992000121721004+38590+039280FM-12+0882LTCA V0203001N002110090019N0100001N1+00581+00191102291ADDAY161031AY221031GA1031+004509079GA2051+009009069GF108991071071004501021999MA1999999092111MD1110011+9999MW1021REMSYN094AAXX  17214 17202 41460 83004 10058 20019 39211 40229 51001 70262 8772/ 333 83715 85630 88458;
0232172020999992000121800004+38590+039280FM-12+0882LTCA V0202801N002110090019N0100001N1+00501+00241102351ADDAA106000191AY161061AY221061GA1031+004509079GA2051+009009069GF108991071071004501021999MA1999999092141MD1110031+9999MW1021REMSYN100AAXX  18004 17202 11460 82804 10050 20024 39214 40235 51003 69921 70262 8772/ 333 83715 85630 88458;
0215172020999992000121803004+38590+039280FM-12+0882LTCA V0209999C000010090019N0100001N1+00471+00241102311ADDAY121031AY221031GA1031+004509079GA2051+009009069GF108991071071004501021999MA1999999092101MD1610041+9999MW1601REMSYN094AAXX  18034 17202 41460 80000 10047 20024 39210 40231 56004 76022 8772/ 333 83715 85630 88458;
0281172020999992000121806004+38590+039280FM-12+0882LTCA V0209999C000010090019N0100001N1+00601+00421102271ADDAA112001091AY121061AY221061GA1031+004509079GA2051+009009069GF108991071071004501021999IA1119IA2999+00309KA1120N+00441MA1999999092061MD1610041+9999MW1601REMSYN118AAXX  18064 17202 11460 80000 10060 20042 39206 40227 56004 60012 76022 8772/ 333 20044 32003 70041 83715 85630 88458;
0215172020999992000121809004+38590+039280FM-12+0882LTCA V0200601N004610090019N0150001N1+00801+00561102221ADDAY161031AY221031GA1021+004509079GA2051+009009069GF107991061071004501071001MA1999999092041MD1810021+9999MW1021REMSYN094AAXX  18094 17202 41465 70609 10080 20056 39204 40222 58002 70262 86770 333 82715 85630 87359;
0232172020999992000121812004+38590+039280FM-12+0882LTCA V0200301N002610090019N0100001N1+00801+00561101971ADDAA106001091AY161061AY221061GA1021+005409079GA2061+009009069GF108991071071004501021999MA1999999091811MD1710231+9999MW1601REMSYN100AAXX  18124 17202 11460 80305 10080 20056 39181 40197 57023 60011 76062 8772/ 333 82718 86630 88458;
0215172020999992000121815004+38590+039280FM-12+0882LTCA V0209999C000010090019N0150001N1+00841+00181101871ADDAY161031AY221031GA1021+005409079GA2051+009009069GF108991061071004501021999MA1999999091721MD1710091+9999MW1031REMSYN094AAXX  18154 17202 41465 80000 10084 20018 39172 40187 57009 70362 8672/ 333 82718 85630 88459;
0251172020999992000121818004+38590+039280FM-12+0882LTCA V0201501N004110090019N0150001N1+00901+00141101771ADDAA112001091AY161061AY221061GA1021+005409079GA2051+009009069GF108991061071004501021999KA1120M+00941MA1999999091631MD1710091+9999MW1021REMSYN106AAXX  18184 17202 11465 81508 10090 20014 39163 40177 57009 60012 70262 8672/ 333 10094 82718 85630 88459;
0187172020999992000121821004+38590+039280FM-12+0882LTCA V0201401N003610090019N0150001N1+00861+00141101621ADDGA1021+005409079GA2051+009009069GF108991061071004501021999MA1999999091521MD1710111+9999REMSYN088AAXX  18214 17202 42465 81407 10086 20014 39152 40162 57011 8672/ 333 82718 85630 88459;
0176172020999992000121900004+38590+039280FM-12+0882LTCA V0201001N002610090019N0150001N1+00721+00161101491ADDAA199000021GA1051+009009069GF107991051051008001071001MA1999999091401MD1710121+9999REMSYN082AAXX  19004 17202 32565 71005 10072 20016 39140 40149 57012 85570 333 85630 87360;
0193172020999992000121903004+38590+039280FM-12+0882LTCA V0200901N003110090019N0150001N1+00661+00241101381ADDAY121031AY221031GA1051+009009069GF107991051051008001071001MA1999999091301MD1710101+9999MW1601REMSYN088AAXX  19034 17202 41565 70906 10066 20024 39130 40138 57010 76022 85570 333 85630 87358;
0281172020999992000121906004+38590+039280FM-12+0882LTCA V0209999C000010090019N0100001N1+00561+00401101411ADDAA112002091AY121061AY221061GA1021+005409079GA2051+009009069GF108991061071004501021999IA1119IA2999+00509KA1120N+00561MA1999999091311MD1310011+9999MW1611REMSYN118AAXX  19064 17202 11460 80000 10056 20040 39131 40141 53001 60022 76122 8672/ 333 20056 32005 70030 82718 85630 88458;
0215172020999992000121909004+38590+039280FM-12+0882LTCA V0209999C000010081019N0060001N1+00501+00401101401ADDAY161031AY261031GA1041+003609079GA2061+008109069GF108991071071004501021999MA1999999091301MD1810011+9999MW1601REMSYN094AAXX  19094 17202 41456 80000 10050 20040 39130 40140 58001 76066 8772/ 333 84712 86627 88458;
0254172020999992000121912004+38590+039280FM-12+0882LTCA V0203201N001010081019N0050001N1+00481+00421101271ADDAA106005191AY161061AY261061GA1041+003609079GA2061+008109069GA3081+024009049GF108991071071004501021999MA1999999091161MD1710141+9999MW1601REMSYN106AAXX  19124 17202 11450 83202 10048 20042 39116 40127 57014 60051 76066 8772/ 333 84712 86627 88458 96010;
0215172020999992000121915004+38590+039280FM-12+0882LTCA V0209999C000010090019N0060001N1+00501+00401101261ADDAY161031AY221031GA1031+003609079GA2051+009009069GF108991071071004501021999MA1999999091151MD1610011+9999MW1101REMSYN094AAXX  19154 17202 41456 80000 10050 20040 39115 40126 56001 71062 8772/ 333 83712 85630 88459;
0251172020999992000121918004+38590+039280FM-12+0882LTCA V0200701N001510090019N0100001N1+00461+00321101331ADDAA112005191AY161061AY221061GA1021+004509079GA2061+009009069GF108991071071004501021999KA1120M+00601MA1999999091201MD1110051+9999MW1021REMSYN106AAXX  19184 17202 11460 80703 10046 20032 39120 40133 51005 60052 70262 8772/ 333 10060 82715 86630 88459;
0187172020999992000121921004+38590+039280FM-12+0882LTCA V0200501N001510090019N0150001N1+00441+00281101331ADDGA1021+004509079GA2061+009009069GF108991071071004501021999MA1999999091201MD1410001+9999REMSYN088AAXX  19214 17202 42465 80503 10044 20028 39120 40133 54000 8772/ 333 82715 86630 88459;
0198172020999992000122000004+38590+039280FM-12+0882LTCA V0201101N001510090019N0150001N1+00401+00281101241ADDAA199000021GA1031+004509079GA2061+009009069GF108991071071004501021999MA1999999091101MD1710101+9999REMSYN088AAXX  20004 17202 32465 81103 10040 20028 39110 40124 57010 8772/ 333 83715 86630 88459;
0215172020999992000122003004+38590+039280FM-12+0882LTCA V0200601N001010090019N0070001N1+00381+00241101141ADDAY121031AY221031GA1031+004509079GA2061+009009069GF108991071071004501021999MA1999999091011MD1710091+9999MW1601REMSYN094AAXX  20034 17202 41457 80602 10038 20024 39101 40114 57009 76022 8772/ 333 83715 86630 88458;
0281172020999992000122006004+38590+039280FM-12+0882LTCA V0209999C000010081019N0040001N1+00261+00161101131ADDAA112004191AY121061AY221061GA1041+003609079GA2061+008109069GF108991071071004501021999IA1119IA2999+00009KA1120N+00221MA1999999091001MD1610011+9999MW1611REMSYN118AAXX  20064 17202 11440 80000 10026 20016 39100 40113 56001 60042 76122 8772/ 333 20022 32000 70092 84712 86627 88458;
0215172020999992000122009004+38590+039280FM-12+0882LTCA V0209999C000010081019N0030001N1+00101+00001101071ADDAY161031AY261031GA1041+003009079GA2061+008109069GF108991071071004501021999MA1999999090921MD1810081+9999MW1701REMSYN094AAXX  20094 17202 41430 80000 10010 20000 39092 40107 58008 77066 8772/ 333 84710 86627 88458;
0270172020999992000122012004+38590+039280FM-12+0882LTCA V0202201N001510090019N0030001N1+00201+00101100931ADDAA106005191AL19900091AY171061AY261061GA1041+003609079GA2061+009009069GA3081+024009049GF108991071071004501021999MA1999999090801MD1710121+9999MW1681REMSYN112AAXX  20124 17202 11430 82203 10020 20010 39080 40093 57012 60051 76876 8772/ 333 84712 86630 88458 93100 96010;
0215172020999992000122015004+38590+039280FM-12+0882LTCA V0202101N002110090019N0070001N1+00321+00241100911ADDAY171031AY221031GA1041+004509079GA2061+009009069GF108991071071004501021999MA1999999090801MD1410001+9999MW1101REMSYN094AAXX  20154 17202 41457 82104 10032 20024 39080 40091 54000 71072 8772/ 333 84715 86630 88458;
0289172020999992000122018004+38590+039280FM-12+0882LTCA V0202201N001510090019N0060001N1+00241+00141100951ADDAA112007191AL19900091AY171061AY221061GA1041+004509079GA2061+009009069GA3081+024009049GF108991071071004501021999KA1120M+00451MA1999999090801MD1410001+9999MW1681REMSYN118AAXX  20184 17202 11456 82203 10024 20014 39080 40095 54000 60072 76872 8772/ 333 10045 84715 86630 88458 93100 96010;
0215172020999992000122021004+38590+039280FM-12+0882LTCA V0202401N002610090019N0060001N1+00201+00101100901ADDAY171031AY221031GA1041+004509079GA2061+009009069GF108991071071004501021999MA1999999090751MD1710051+9999MW1101REMSYN094AAXX  20214 17202 41456 82405 10020 20010 39075 40090 57005 71072 8772/ 333 84715 86630 88458;
0232172020999992000122100004+38590+039280FM-12+0882LTCA V0202401N004610090019N0060001N1+00181-00101100851ADDAA106001091AY171061AY221061GA1041+004509079GA2051+009009069GF108991071071004501021999MA1999999090711MD1710041+9999MW1101REMSYN100AAXX  21004 17202 11456 82409 10018 21010 39071 40085 57004 60011 71072 8772/ 333 84715 85630 88458;
0215172020999992000122103004+38590+039280FM-12+0882LTCA V0202201N004610090019N0070001N1+00181-00101100881ADDAY121031AY221031GA1031+004509079GA2051+009009069GF108991071071004501021999MA1999999090731MD1110021+9999MW1101REMSYN094AAXX  21034 17202 41457 82209 10018 21010 39073 40088 51002 71022 8772/ 333 83715 85630 88459;
0281172020999992000122106004+38590+039280FM-12+0882LTCA V0202201N003610090019N0070001N1+00181-00101101141ADDAA112001091AY121061AY221061GA1021+004509079GA2051+009009069GF108991061061004501021999IA1099IA2999+00009KA1120N+00141MA1999999090971MD1210241+9999MW1101REMSYN118AAXX  21064 17202 11457 82207 10018 21010 39097 40114 52024 60012 71022 8662/ 333 20014 31000 70076 82715 85630 88459;
0165172020999992000122109004+38590+039280FM-12+0882LTCA V0202701N001510090019N0150001N1+00401-00461101261ADDGA1051+009009069GF106991051051008001051001MA1999999091101MD1010031+9999REMSYN082AAXX  21094 17202 42565 62703 10040 21046 39110 40126 50003 85550 333 85630 86360;
0217172020999992000122112004+38590+039280FM-12+0882LTCA V0202301N004110090019N0150001N1+00401-00741101351ADDAA199000091GA1021+005409079GA2051+009009069GF107991061061004501051001MA1999999091181MD1210081+9999REMSYN088AAXX  21124 17202 32465 72308 10040 21074 39118 40135 52008 86650 333 82718 85630 87360;EQDQ01  00002PRCP99
0165172020999992000122115004+38590+039280FM-12+0882LTCA V0202201N00311036001CN0200001N1+00181-00721101531ADDGA1031+010509069GF105991031051012501051001MA1999999091321MD1210141+9999REMSYN082AAXX  21154 17202 42670 52206 10018 21072 39132 40153 52014 83550 333 83635 85360;
0196172020999992000122118004+38590+039280FM-12+0882LTCA V0209999C000012200019N0200001N1-00061-00501101731ADDAA199000091GA1001+999999999GF100991001001999999001001KA1999M+00441MA1999999091481MD1210161+9999REMSYN070AAXX  21184 17202 32970 00000 11006 21050 39148 40173 52016 333 10044;EQDQ01  00002PRCP99
0143172020999992000122121004+38590+039280FM-12+0882LTCA V0202601N002112200019N0200001N1+00041-00561101841ADDGA1001+999999999GF100991001001999999001001MA1999999091601MD1210121+9999REMSYN060AAXX  21214 17202 42970 02604 10004 21056 39160 40184 52012;
0173172020999992000122200004+38590+039280FM-12+0882LTCA V0209999C000012200019N0200001N1-00221-01021101981ADDAA199000091GA1001+999999999GF100991001001999999001001MA1999999091731MD1210131+9999REMSYN060AAXX  22004 17202 32970 00000 11022 21102 39173 40198 52013;EQDQ01  00002PRCP99
0143172020999992000122203004+38590+039280FM-12+0882LTCA V0209999C000012200019N0200001N1-00301-01021102061ADDGA1001+999999999GF100991001001999999001001MA1999999091731MD1410001+9999REMSYN060AAXX  22034 17202 42970 00000 11030 21102 39173 40206 54000;
0220172020999992000122206004+38590+039280FM-12+0882LTCA V0209999C000012200019N0200001N1-00301-01021102241ADDAA199000091GA1001+999999999GF100991001001999999001001IA1149IA2999-00709KA1120N-00461MA1999999091871MD1210141+9999REMSYN076AAXX  22064 17202 32970 00000 11030 21102 39187 40224 52014 333 21046 34107;EQDQ01  00002PRCP99
0159172020999992000122209004+38590+039280FM-12+0882LTCA V0203501N001512200019N0200001N1+00161-00911102261ADDGA1021+030009079GF102991021001999999031001MA1999999091951MD1210081+9999REMSYN076AAXX  22094 17202 42970 23503 10016 21091 39195 40226 52008 82030 333 82360;
0217172020999992000122212004+38590+039280FM-12+0882LTCA V0200701N002110300019N0200001N1+00201-01041102201ADDAA199000091GA1031+010509089GA2031+030009039GF105991031021012501051011MA1999999091881MD1710071+9999REMSYN088AAXX  22124 17202 32670 50704 10020 21104 39188 40220 57007 83251 333 83835 83360 85070;EQDQ01  00002PRCP99
0159172020999992000122215004+38590+039280FM-12+0882LTCA V0200601N002612200019N0200001N1-00041-01121102271ADDGA1021+010509059GF102991021051012501001001MA1999999091901MD1110021+9999REMSYN076AAXX  22154 17202 42670 20605 11004 21112 39190 40227 51002 82500 333 82635;
0196172020999992000122218004+38590+039280FM-12+0882LTCA V0209999C000012200019N0200001N1-00121-00821102341ADDAA199000091GA1001+999999999GF100991001001999999001001KA1999M+00231MA1999999091961MD1310061+9999REMSYN070AAXX  22184 17202 32970 00000 11012 21082 39196 40234 53006 333 10023;EQDQ01  00002PRCP99
0143172020999992000122221004+38590+039280FM-12+0882LTCA V0209999C000012200019N0200001N1-00321-00661102351ADDGA1001+999999999GF100991001001999999001001MA1999999091991MD1110031+9999REMSYN060AAXX  22214 17202 42970 00000 11032 21066 39199 40235 51003;
0189172020999992000122300004+38590+039280FM-12+0882LTCA V0209999C000010600019N0200001N1-00241-00581102321ADDAA199000091GA1051+060009019GF105991001001999999001011MA1999999091991MD1410001+9999REMSYN076AAXX  23004 17202 32970 50000 11024 21058 39199 40232 54000 80001 333 85070;EQDQ01  00002PRCP99
0159172020999992000122303004+38590+039280FM-12+0882LTCA V0209999C000010600019N0200001N1-00241-00581102311ADDGA1051+060009019GF105991001001999999001011MA1999999091961MD1610031+9999REMSYN076AAXX  23034 17202 42970 50000 11024 21058 39196 40231 56003 80001 333 85070;
0238172020999992000122306004+38590+039280FM-12+0882LTCA V0201001N001512200019N0200001N1-00241-00581102281ADDAA199000091GA1021+010509069GF104991021051012501051001IA1149IA2999-00609KA1120N-00381MA1999999091911MD1710071+9999REMSYN094AAXX  23064 17202 32670 41003 11024 21058 39191 40228 57007 82550 333 21038 34106 82635 84360;EQDQ01  00002PRCP99
0187172020999992000122309004+38590+039280FM-12+0882LTCA V0200801N002610105019N0200001N1-00061-00621102341ADDGA1021+006009079GA2051+010509069GF106991061061008001051001MA1999999091961MD1010051+9999REMSYN088AAXX  23094 17202 42570 60805 11006 21062 39196 40234 50005 86650 333 82720 85635 86360;
0217172020999992000122312004+38590+039280FM-12+0882LTCA V0200801N002610090019N0200001N1+00061-00701102011ADDAA199000091GA1021+006009079GA2051+009009069GF107991061061008001051001MA1999999091701MD1710261+9999REMSYN088AAXX  23124 17202 32570 70805 10006 21070 39170 40201 57026 86650 333 82720 85630 87360;EQDQ01  00002PRCP99
0187172020999992000122315004+38590+039280FM-12+0882LTCA V0200901N001510090019N0200001N1+00061-00701101941ADDGA1021+006009079GA2051+009009069GF107991061061008001051001MA1999999091621MD1810081+9999REMSYN088AAXX  23154 17202 42570 70903 10006 21070 39162 40194 58008 86650 333 82720 85630 87360;
0236172020999992000122318004+38590+039280FM-12+0882LTCA V0209999C000010090019N0200001N1+00001-00461101891ADDAA199000091GA1021+006009079GA2051+009009069GF107991061061008001051001KA1120M+00081MA1999999091601MD1610021+9999REMSYN094AAXX  23184 17202 32570 70000 10000 21046 39160 40189 56002 86650 333 10008 82720 85630 87360;EQDQ01  00002PRCP99
0165172020999992000122321004+38590+039280FM-12+0882LTCA V0209999C000010090019N0200001N1+00001-00461101801ADDGA1051+009009069GF108991051051008001021999MA1999999091521MD1710081+9999REMSYN082AAXX  23214 17202 42570 80000 10000 21046 39152 40180 57008 8552/ 333 85630 88460;
0195172020999992000122400004+38590+039280FM-12+0882LTCA V0209999C00001036001CN0200001N1-00041-00341101671ADDAA199000091GA1041+010509069GF107991041051012501051001MA1999999091401MD1710121+9999REMSYN082AAXX  24004 17202 32670 70000 11004 21034 39140 40167 57012 84550 333 84635 87360;EQDQ01  00002PRCP99
0165172020999992000122403004+38590+039280FM-12+0882LTCA V0209999C00001036001CN0200001N1-00061-00361101481ADDGA1041+010509069GF107991041051012501051001MA1999999091231MD1710171+9999REMSYN082AAXX  24034 17202 42670 70000 11006 21036 39123 40148 57017 84550 333 84635 87360;
0269172020999992000122406004+38590+039280FM-12+0882LTCA V0202901N001510090019N0050001N1-00021-00401101411ADDAA199000021AY121061AY221061GA1031+004509079GA2061+009009069GF108991061071004501021999IA1149IA2999-00209KA1120N-00101MA1999999091171MD1710061+9999MW1701REMSYN106AAXX  24064 17202 31450 82903 11002 21040 39117 40141 57006 77022 8672/ 333 21010 34102 83715 86630 88458;
0237172020999992000122409004+38590+039280FM-12+0882LTCA V0209999C000010090019N0030001N1-00021-00201101401ADDAY171031AY271031GA1041+003609079GA2061+009009069GA3081+024009049GF108991071071004501021999MA1999999091161MD1810021+9999MW1701REMSYN100AAXX  24094 17202 41430 80000 11002 21020 39116 40140 58002 77077 8772/ 333 84712 86630 88458 96010;
0264172020999992000122412004+38590+039280FM-12+0882LTCA V0209999C000010090019N0030001N1+00081-00081101191ADDAA106002091AL10600291AY171061AY221061GA1041+004509079GA2061+009009069GA3081+024009049GF108991071071004501021999MA1999999091001MD1710161+9999MW1101REMSYN106AAXX  24124 17202 11430 80000 10008 21008 39100 40119 57016 60021 71072 8772/ 333 84715 86630 88458 93102;
0283172020999992000122418004+38590+039280FM-12+0882LTCA V0200701N003610090019N0030001N1+00301+00071101071ADDAA112002091AL10600091AY171061AY221061GA1031+004509079GA2051+009009069GA3081+024009049GF108991071071004501021999KA1120M+00321MA1999999090881MD1710041+9999MW1101REMSYN112AAXX  24184 17202 11430 80707 10030 20007 39088 40107 57004 60022 71072 8772/ 333 10032 83715 85630 88458 93100;
0215172020999992000122421004+38590+039280FM-12+0882LTCA V0201301N001510090019N0030001N1+00301+00071101061ADDAY121031AY221031GA1031+004509079GA2051+009009069GF108991071071004501021999MA1999999090871MD1610011+9999MW1101REMSYN094AAXX  24214 17202 41430 81303 10030 20007 39087 40106 56001 71022 8772/ 333 83715 85630 88458;
0245172020999992000122500004+38590+039280FM-12+0882LTCA V0200701N004110090019N0030001N1+00281+00101101051ADDAA199000091AY121061AY221061GA1031+004509079GA2051+009009069GF108991071071004501021999MA1999999090891MD1310021+9999MW1101REMSYN094AAXX  25004 17202 31430 80708 10028 20010 39089 40105 53002 71022 8772/ 333 83715 85630 88458;EQDQ01  00002PRCP99
0187172020999992000122503004+38590+039280FM-12+0882LTCA V0200801N001510105019N0150001N1+00241+00101101121ADDGA1011+006009079GA2051+010509069GF108991061061008001021999MA1999999090951MD1210061+9999REMSYN088AAXX  25034 17202 42565 80803 10024 20010 39095 40112 52006 8662/ 333 81720 85635 88460;
0280172020999992000122506004+38590+039280FM-12+0882LTCA V0203001N002110090019N0070001N1+00241+00101101191ADDAA112001091AY161061AY221061GA1031+004509079GA2051+009009069GF108991071071004501021999IA1119IA2999+00009KA1120N+00201MA1999999091041MD1210091+9999MW1601REMSYN117AAXX  25064 17202 1145783004 10024 20010 39104 40119 52009 60012 76062 8772/ 333 20020 32000 70034 83715 85630 88458;
0215172020999992000122509004+38590+039280FM-12+0882LTCA V0209999C000010090019N0050001N1+00441+00201101381ADDAY161031AY221031GA1031+004509079GA2061+009009069GF108991071071004501021999MA1999999091221MD1210181+9999MW1101REMSYN094AAXX  25094 17202 41450 80000 10044 20020 39122 40138 52018 71062 8772/ 333 83715 86630 88458;
0215172020999992000122512004+38590+039280FM-12+0882LTCA V0202001N002110090019N0070001N1+00501+00241101391ADDAY161061AY221061GA1031+004509079GA2051+009009069GF108991071071004501021999MA1999999091231MD1310011+9999MW1101REMSYN094AAXX  25124 17202 11457 82004 10050 20024 39123 40139 53001 71062 8772/ 333 83715 85630 88459;
0165172020999992000122515004+38590+039280FM-12+0882LTCA V0202001N00411036001CN0100001N1+00301+00071101621ADDGA1031+010509069GF105991031051012501051001MA1999999091421MD1210191+9999REMSYN082AAXX  25154 17202 42660 52008 10030 20007 39142 40162 52019 83550 333 83635 85360;
0201172020999992000122518004+38590+039280FM-12+0882LTCA V0209999C00001036001CN0150001N1+00151-00101101841ADDAA112000191GA1021+010509069GF105991021051012501051001KA1120M+00521MA1999999091601MD1210181+9999REMSYN094AAXX  25184 17202 12665 50000 10015 21010 39160 40184 52018 69912 82550 333 10052 82635 85360;
0143172020999992000122521004+38590+039280FM-12+0882LTCA V0209999C000012200019N0200001N1-00141-00321102071ADDGA1001+999999999GF100991001001999999001001MA1999999091801MD1210201+9999REMSYN060AAXX  25214 17202 42970 00000 11014 21032 39180 40207 52020;
0173172020999992000122600004+38590+039280FM-12+0882LTCA V0202901N001512200019N0200001N1-00281-00501102211ADDAA199000091GA1001+999999999GF100991001001999999001001MA1999999091931MD1210131+9999REMSYN060AAXX  26004 17202 32970 02903 11028 21050 39193 40221 52013;EQDQ01  00002PRCP99
0143172020999992000122603004+38590+039280FM-12+0882LTCA V0209999C000012200019N0200001N1-00361-00531102341ADDGA1001+999999999GF100991001001999999001001MA1999999092001MD1210071+9999REMSYN060AAXX  26034 17202 42970 00000 11036 21053 39200 40234 52007;
0207172020999992000122606004+38590+039280FM-12+0882LTCA V0209999C000012200019N0200001N1-00361-00531102561ADDAA124000191GA1001+999999999GF100991001001999999001001IA1149IA2999-00609KA1120N-00441MA1999999092181MD1210181+9999REMSYN082AAXX  26064 17202 32970 00000 11036 21053 39218 40256 52018 333 21044 34106 70001;
0165172020999992000122609004+38590+039280FM-12+0882LTCA V0202001N00151036001CN0200001N1+00441-00421102601ADDGA1031+010509089GF106991031021012501051001MA1999999092281MD1210101+9999REMSYN082AAXX  26094 17202 42670 62003 10044 21042 39228 40260 52010 83250 333 83835 86360;
0195172020999992000122612004+38590+039280FM-12+0882LTCA V0201601N00101036001CN0200001N1+00401-00341102611ADDAA199000091GA1041+010509089GF107991041021012501051001MA1999999092271MD1810011+9999REMSYN082AAXX  26124 17202 32670 71602 10040 21034 39227 40261 58001 84250 333 84835 87359;EQDQ01  00002PRCP99
0165172020999992000122615004+38590+039280FM-12+0882LTCA V0201201N00151036001CN0200001N1+00241-00581102731ADDGA1041+010509089GF107991041021012501051001MA1999999092331MD1310061+9999REMSYN082AAXX  26154 17202 42670 71203 10024 21058 39233 40273 53006 84250 333 84835 87359;
0214172020999992000122618004+38590+039280FM-12+0882LTCA V0209999C00001036001CN0200001N1+00161-00371102791ADDAA199000091GA1031+010509069GF106991031051012501051001KA1120M+00501MA1999999092391MD1110061+9999REMSYN088AAXX  26184 17202 32670 60000 10016 21037 39239 40279 51006 83550 333 10050 83635 86360;EQDQ01  00002PRCP99
0159172020999992000122621004+38590+039280FM-12+0882LTCA V0209999C000012200019N0200001N1-00061-00341102771ADDGA1021+009009019GF102991021001999999031001MA1999999092431MD1210041+9999REMSYN076AAXX  26214 17202 42970 20000 11006 21034 39243 40277 52004 82030 333 82030;
0173172020999992000122700004+38590+039280FM-12+0882LTCA V0209999C000012200019N0200001N1-00341-00561102791ADDAA199000091GA1001+999999999GF100991001001999999001001MA1999999092411MD1610021+9999REMSYN060AAXX  27004 17202 32970 00000 11034 21056 39241 40279 56002;EQDQ01  00002PRCP99
0159172020999992000122703004+38590+039280FM-12+0882LTCA V0209999C000012200019N0200001N1-00141-00381102781ADDGA1031+030009079GF103991031001999999031001MA1999999092401MD1810011+9999REMSYN076AAXX  27034 17202 42970 30000 11014 21038 39240 40278 58001 83030 333 83360;
0266172020999992000122706004+38590+039280FM-12+0882LTCA V0209999C00001004201CN0050001N1-00141-00381102871ADDAA199000091AY111061AY211061GA1031+004509079GF106991061061004501001001IA1149IA2999-00609KA1120N-00381MA1999999092481MD1310081+9999MW1101REMSYN100AAXX  27064 17202 31450 60000 11014 21038 39248 40287 53008 71011 86600 333 21038 34106 83715 85630;EQDQ01  00002PRCP99
0193172020999992000122709004+38590+039280FM-12+0882LTCA V0200801N00151004201CN0070001N1+00121-00361102901ADDAY121031AY221031GA1021+006009079GF105991051061004501001001MA1999999092511MD1010031+9999MW1101REMSYN088AAXX  27094 17202 41457 50803 10012 21036 39251 40290 50003 71022 85600 333 82720 85630;
0195172020999992000122712004+38590+039280FM-12+0882LTCA V0202201N00211036001CN0150001N1+00301-00491102821ADDAA199000091GA1041+009009069GF107991041051008001051001MA1999999092441MD1810071+9999REMSYN082AAXX  27124 17202 32565 72204 10030 21049 39244 40282 58007 84550 333 84630 87360;EQDQ01  00002PRCP99
0159172020999992000122715004+38590+039280FM-12+0882LTCA V0202001N001512200019N0200001N1+00101-00441102781ADDGA1031+010509059GF103991031051012501001001MA1999999092401MD1610041+9999REMSYN076AAXX  27154 17202 42670 32003 10010 21044 39240 40278 56004 83500 333 83635;
0208172020999992000122718004+38590+039280FM-12+0882LTCA V0202801N001512200019N0200001N1+00001-00161102871ADDAA199000091GA1041+010509059GF104991041051012501001001KA1120M+00401MA1999999092461MD1310061+9999REMSYN082AAXX  27184 17202 32670 42803 10000 21016 39246 40287 53006 84500 333 10040 84635;EQDQ01  00002PRCP99
0159172020999992000122721004+38590+039280FM-12+0882LTCA V0209999C000010300019N0200001N1+00021-00181102821ADDGA1051+030009079GF105991051001999999031001MA1999999092461MD1410001+9999REMSYN076AAXX  27214 17202 42970 50000 10002 21018 39246 40282 54000 85030 333 85360;
0189172020999992000122800004+38590+039280FM-12+0882LTCA V0209999C000010300019N0200001N1+00101-00281102821ADDAA199000091GA1051+030009079GF105991051001999999031001MA1999999092481MD1310021+9999REMSYN076AAXX  28004 17202 32970 50000 10010 21028 39248 40282 53002 85030 333 85360;EQDQ01  00002PRCP99
0159172020999992000122803004+38590+039280FM-12+0882LTCA V0202701N002112200019N0200001N1+00041-00301102781ADDGA1041+030009079GF104991041001999999031001MA1999999092421MD1710061+9999REMSYN076AAXX  28034 17202 42970 42704 10004 21030 39242 40278 57006 84030 333 84360;
0260172020999992000122806004+38590+039280FM-12+0882LTCA V0201901N002110105019N0200001N1+00041-00301102901ADDAA199000091GA1031+006009079GA2041+010509069GF107991061061008001051001IA1149IA2999-00309KA1120N-00121MA1999999092511MD1210091+9999REMSYN100AAXX  28064 17202 32570 71904 10004 21030 39251 40290 52009 86650 333 21012 34103 83720 84635 87360;EQDQ01  00002PRCP99
0187172020999992000122809004+38590+039280FM-12+0882LTCA V0209999C000010105019N0200001N1+00121-00121102941ADDGA1031+006009079GA2041+010509069GF107991061061008001051001MA1999999092571MD1310061+9999REMSYN088AAXX  28094 17202 42570 70000 10012 21012 39257 40294 53006 86650 333 83720 84635 87360;
0217172020999992000122812004+38590+039280FM-12+0882LTCA V0209999C000010105019N0200001N1+00241-00021102721ADDAA199000091GA1031+006009079GA2041+010509069GF107991061061008001051001MA1999999092391MD1710081+9999REMSYN088AAXX  28124 17202 32570 70000 10024 21002 39239 40272 57008 86650 333 83720 84635 87360;EQDQ01  00002PRCP99
0187172020999992000122815004+38590+039280FM-12+0882LTCA V0209999C000010105019N0200001N1+00261-00051102761ADDGA1031+006009079GA2041+010509069GF107991061061008001051001MA1999999092431MD1110041+9999REMSYN088AAXX  28154 17202 42570 70000 10026 21005 39243 40276 51004 86650 333 83720 84635 87360;
0196172020999992000122818004+38590+039280FM-12+0882LTCA V0209999C000012200019N0200001N1-00021-00341102861ADDAA199000091GA1001+999999999GF100991001001999999001001KA1999M+00301MA1999999092471MD1210041+9999REMSYN070AAXX  28184 17202 32970 00000 11002 21034 39247 40286 52004 333 10030;EQDQ01  00002PRCP99
0162172020999992000122821004+38590+039280FM-12+0882LTCA V0202101N001512200019N0200001N1-00101-00221102861ADDGA1001+999999999GF100991001001999999001001MA1999999092471MD1410001+9999REMSYN060AAXX  28214 17202 42970 02103 11010 21022 39247 40286 53000;EQDQ01+000032APCTEN
0173172020999992000122900004+38590+039280FM-12+0882LTCA V0203301N001512200019N0200001N1-00301-00401102761ADDAA199000091GA1001+999999999GF100991001001999999001001MA1999999092381MD1710091+9999REMSYN060AAXX  29004 17202 32970 03303 11030 21040 39238 40276 57009;EQDQ01  00002PRCP99
0143172020999992000122903004+38590+039280FM-12+0882LTCA V0203101N001512200019N0200001N1-00471-00621102761ADDGA1001+999999999GF100991001001999999001001MA1999999092361MD1810021+9999REMSYN060AAXX  29034 17202 42970 03103 11047 21062 39236 40276 58002;
0238172020999992000122906004+38590+039280FM-12+0882LTCA V0209999C00001036001CN0200001N1-00301-00401102761ADDAA199000091GA1031+010509069GF105991031051012501051001IA1149IA2999-00709KA1120N-00521MA1999999092361MD1410001+9999REMSYN094AAXX  29064 17202 32670 50000 11030 21040 39236 40276 54000 83550 333 21052 34107 83635 85360;EQDQ01  00002PRCP99
0193172020999992000122909004+38590+039280FM-12+0882LTCA V0202101N00151004201CN0050001N1+00041-00301102691ADDAY121031AY221031GA1031+004509079GF106991061061004501001001MA1999999092321MD1810041+9999MW1101REMSYN088AAXX  29094 17202 41450 62103 10004 21030 39232 40269 58004 71022 86600 333 83715 85630;
0217172020999992000122912004+38590+039280FM-12+0882LTCA V0202101N002110300019N0100001N1+00321-00391102381ADDAA199000091GA1031+009009069GA2051+030009039GF106991031051008001051011MA1999999092041MD1710281+9999REMSYN088AAXX  29124 17202 32560 62104 10032 21039 39204 40238 57028 83551 333 83630 85360 86070;EQDQ01  00002PRCP99
0165172020999992000122915004+38590+039280FM-12+0882LTCA V0209999C00001036001CN0200001N1+00161-00301102401ADDGA1031+010509069GF105991031051012501051001MA1999999092021MD1610021+9999REMSYN082AAXX  29154 17202 42670 50000 10016 21030 39202 40240 56002 83550 333 83635 85360;
0208172020999992000122918004+38590+039280FM-12+0882LTCA V0209999C000010600019N0200001N1-00101-00461102301ADDAA199000091GA1051+060009019GF105991001001999999001011KA1120M+00361MA1999999091931MD1610091+9999REMSYN082AAXX  29184 17202 32970 50000 11010 21046 39193 40230 56009 80001 333 10036 85070;EQDQ01  00002PRCP99
0143172020999992000122921004+38590+039280FM-12+0882LTCA V0209999C000012200019N0200001N1-00221-00531102201ADDGA1001+999999999GF100991001001999999001001MA1999999091901MD1510031+9999REMSYN060AAXX  29214 17202 42970 00000 11022 21053 39190 40220 55003;
0173172020999992000123000004+38590+039280FM-12+0882LTCA V0203001N003112200019N0200001N1-00301-00481102111ADDAA199000091GA1001+999999999GF100991001001999999001001MA1999999091801MD1810101+9999REMSYN060AAXX  30004 17202 32970 03006 11030 21048 39180 40211 58010;EQDQ01  00002PRCP99
0143172020999992000123003004+38590+039280FM-12+0882LTCA V0203301N001512200019N0200001N1-00401-00641102081ADDGA1001+999999999GF100991001001999999001001MA1999999091801MD1410001+9999REMSYN060AAXX  30034 17202 42970 03303 11040 21064 39180 40208 54000;
0266172020999992000123006004+38590+039280FM-12+0882LTCA V0203001N00211007501CN0050001N1-00361-00541102191ADDAA199000091AY111061AY211061GA1031+006009079GF106991061061008001001001IA1149IA2999-00609KA1120N-00441MA1999999091831MD1110031+9999MW1101REMSYN100AAXX  30064 17202 31550 63004 11036 21054 39183 40219 51003 71011 86600 333 21044 34106 83720 86635;EQDQ01  00002PRCP99
0165172020999992000123009004+38590+039280FM-12+0882LTCA V0209999C00001036001CN0100001N1+00121-00361102141ADDGA1041+010509069GF107991041051012501051001MA1999999091801MD1610031+9999REMSYN082AAXX  30094 17202 42660 70000 10012 21036 39180 40214 56003 84550 333 84635 87360;
0195172020999992000123012004+38590+039280FM-12+0882LTCA V0209999C00001036001CN0100001N1+00241-00441101931ADDAA199000091GA1041+010509069GF107991041051012501051001MA1999999091641MD1710161+9999REMSYN082AAXX  30124 17202 32660 70000 10024 21044 39164 40193 57016 84550 333 84635 87360;EQDQ01  00002PRCP99
0165172020999992000123015004+38590+039280FM-12+0882LTCA V0209999C00001036001CN0100001N1+00161-00381101941ADDGA1041+010509069GF107991041051012501051001MA1999999091621MD1610021+9999REMSYN082AAXX  30154 17202 42660 70000 10016 21038 39162 40194 56002 84550 333 84635 87360;
0214172020999992000123018004+38590+039280FM-12+0882LTCA V0209999C00001036001CN0150001N1+00081-00221101821ADDAA199000091GA1041+010509069GF107991041051012501051001KA1120M+00241MA1999999091521MD1710101+9999REMSYN088AAXX  30184 17202 32665 70000 10008 21022 39152 40182 57010 84550 333 10024 84635 87360;EQDQ01  00002PRCP99
0165172020999992000123021004+38590+039280FM-12+0882LTCA V0202601N00261036001CN0150001N1+00121-00121101761ADDGA1041+010509069GF107991041051012501071001MA1999999091501MD1610021+9999REMSYN082AAXX  30214 17202 42665 72605 10012 21012 39150 40176 56002 84570 333 84635 87360;
0195172020999992000123100004+38590+039280FM-12+0882LTCA V0202101N00211036001CN0150001N1+00161-00301101641ADDAA199000091GA1041+010509069GF107991041051012501071001MA1999999091421MD1610081+9999REMSYN082AAXX  31004 17202 32665 72104 10016 21030 39142 40164 56008 84570 333 84635 87360;EQDQ01  00002PRCP99
0237172020999992000123103004+38590+039280FM-12+0882LTCA V0209999C000010090019N0050001N1+00181+00041101731ADDAY161031AY221031GA1031+003009079GA2061+009009069GA3081+024009049GF108991071071004501021999MA1999999091501MD1110081+9999MW1211REMSYN100AAXX  31034 17202 41450 80000 10018 20004 39150 40173 51008 72162 8772/ 333 83710 86630 88458 96010;
0275172020999992000123106004+38590+039280FM-12+0882LTCA V0203201N001510090019N0050001N1+00221+00121101841ADDAA112001091AY161061AY221061GA1031+003009079GA2051+009009069GF108991071071004501021999IA1119IA2999+00009KA1120N+00061MA1999999091581MD1310081+9999MW1101REMSYN112AAXX  31064 17202 11450 83203 10022 20012 39158 40184 53008 60012 71062 8772/ 333 20006 32000 83710 85630 88459;
0187172020999992000123109004+38590+039280FM-12+0882LTCA V0200701N003610090019N0100001N1+00521+00181101881ADDGA1041+004509079GA2061+009009069GF107991071071004501051001MA1999999091651MD1210111+9999REMSYN088AAXX  31094 17202 42460 70707 10052 20018 39165 40188 52011 87750 333 84715 86630 87359;
0198172020999992000123112004+38590+039280FM-12+0882LTCA V0200401N002110090019N0150001N1+00601-00021101961ADDAA199000021GA1041+004509079GA2061+009009069GF107991071071004501051001MA1999999091751MD1310101+9999REMSYN088AAXX  31124 17202 32465 70404 10060 21002 39175 40196 53010 87750 333 84715 86630 87359;
0165172020999992000123115004+38590+039280FM-12+0882LTCA V0200601N002110090019N0200001N1+00501-00011102131ADDGA1051+009009069GF107991051051008001051001MA1999999091881MD1210131+9999REMSYN082AAXX  31154 17202 42570 70604 10050 21001 39188 40213 52013 85550 333 85630 87359;
0214172020999992000123118004+38590+039280FM-12+0882LTCA V0201201N00151036001CN0200001N1+00261-00061102291ADDAA199000091GA1031+010509069GF105991031051012501051001KA1120M+00641MA1999999092001MD1310121+9999REMSYN088AAXX  31184 17202 32670 51203 10026 21006 39200 40229 53012 83550 333 10064 83635 85360;EQDQ01  00002PRCP99
0165172020999992000123121004+38590+039280FM-12+0882LTCA V0209999C00001036001CN0200001N1+00241-00011102331ADDGA1031+010509069GF105991031051012501051001MA1999999092081MD1210081+9999REMSYN082AAXX  31214 17202 42670 50000 10024 21001 39208 40233 52008 83550 333 83635 85360;
